{
  "area_name": "Yashoda Nagar",
  "osm_id": 11817854571,
  "osm_type": "node",
  "place_type": "neighbourhood",
  "amenity_count": 187,
  "amenities": [
    {
      "type": "node",
      "id": 1868207640,
      "lat": 13.0835344,
      "lon": 77.5848473,
      "tags": {
        "amenity": "fast_food",
        "diet:vegetarian": "only",
        "name": "Pranav Upahara"
      }
    },
    {
      "type": "node",
      "id": 1868211653,
      "lat": 13.0823952,
      "lon": 77.5880175,
      "tags": {
        "name": "Aashirvad Department Stores",
        "shop": "supermarket"
      }
    },
    {
      "type": "node",
      "id": 1868211667,
      "lat": 13.0814599,
      "lon": 77.5881516,
      "tags": {
        "name": "Smart",
        "shop": "supermarket"
      }
    },
    {
      "type": "node",
      "id": 1868766407,
      "lat": 13.0810953,
      "lon": 77.5886994,
      "tags": {
        "amenity": "atm",
        "brand": "ICICI Bank",
        "brand:wikidata": "Q1653258",
        "operator": "ICICI Bank",
        "operator:wikidata": "Q1653258",
        "short_name": "ICICI"
      }
    },
    {
      "type": "node",
      "id": 1868767189,
      "lat": 13.0828092,
      "lon": 77.5880986,
      "tags": {
        "amenity": "school",
        "name": "Jnanadeepika School",
        "name:kn": "ಜ್ಞಾನದೀಪಿಕ ಶಾಲೆ"
      }
    },
    {
      "type": "node",
      "id": 1868814393,
      "lat": 13.0811411,
      "lon": 77.5879745,
      "tags": {
        "amenity": "atm",
        "brand": "State Bank of India",
        "brand:wikidata": "Q1340361",
        "name": "SBI",
        "name:kn": "ಭಾರತೀಯ ಸ್ಟೇಟ್ ಬ್ಯಾಂಕ್",
        "operator": "State Bank of India",
        "operator:wikidata": "Q1340361",
        "short_name": "SBI"
      }
    },
    {
      "type": "node",
      "id": 1868817336,
      "lat": 13.0814337,
      "lon": 77.5880604,
      "tags": {
        "amenity": "pharmacy",
        "name": "Mediplus"
      }
    },
    {
      "type": "node",
      "id": 1868820078,
      "lat": 13.0797146,
      "lon": 77.5876527,
      "tags": {
        "amenity": "pharmacy",
        "name": "Siddheshwara Medicals, Judicial Layout, Allalasandra, Bangalore"
      }
    },
    {
      "type": "node",
      "id": 2389680142,
      "lat": 13.0729591,
      "lon": 77.592187,
      "tags": {
        "amenity": "parking"
      }
    },
    {
      "type": "node",
      "id": 3994774226,
      "lat": 13.0811323,
      "lon": 77.584154,
      "tags": {
        "shop": "bakery"
      }
    },
    {
      "type": "node",
      "id": 3994774227,
      "lat": 13.0813597,
      "lon": 77.5839205,
      "tags": {
        "shop": "supermarket"
      }
    },
    {
      "type": "node",
      "id": 3994774229,
      "lat": 13.0814825,
      "lon": 77.5881095,
      "tags": {
        "amenity": "pharmacy",
        "brand": "MedPlus",
        "brand:wikidata": "Q65684234",
        "healthcare": "pharmacy",
        "name": "MedPlus"
      }
    },
    {
      "type": "node",
      "id": 4207077831,
      "lat": 13.0807749,
      "lon": 77.5879758,
      "tags": {
        "amenity": "atm",
        "brand": "Indian Bank",
        "brand:wikidata": "Q2003789",
        "name": "Indian Bank",
        "operator": "Indian Bank",
        "operator:wikidata": "Q2003789"
      }
    },
    {
      "type": "node",
      "id": 4207077832,
      "lat": 13.0814685,
      "lon": 77.5882534,
      "tags": {
        "amenity": "atm",
        "brand": "Axis Bank",
        "brand:wikidata": "Q2003549",
        "name": "Axis Bank",
        "name:kn": "ಆಕ್ಸಿಸ್ ಬ್ಯಾಂಕ್",
        "operator": "Axis Bank",
        "operator:wikidata": "Q2003549"
      }
    },
    {
      "type": "node",
      "id": 4207077833,
      "lat": 13.0822621,
      "lon": 77.5877293,
      "tags": {
        "amenity": "Syndicate bank"
      }
    },
    {
      "type": "node",
      "id": 4834827722,
      "lat": 13.0865943,
      "lon": 77.5912059,
      "tags": {
        "amenity": "restaurant",
        "name": "9th Mile Dhaba",
        "name:en": "9th Mile Dhaba"
      }
    },
    {
      "type": "node",
      "id": 6857427254,
      "lat": 13.0728382,
      "lon": 77.5962612,
      "tags": {
        "male": "yes",
        "name": "Amog Gents Hair Style",
        "shop": "hairdresser"
      }
    },
    {
      "type": "node",
      "id": 6857427255,
      "lat": 13.0730328,
      "lon": 77.595246,
      "tags": {
        "addr:city": "Bengaluru",
        "addr:country": "IN",
        "addr:housenumber": "10/1",
        "addr:postcode": "560064",
        "addr:street": "Jakkur Main Road",
        "email": "info@stanz.in",
        "name": "Stanz",
        "phone": "+91 80 4377 3475",
        "shop": "interior_decoration",
        "website": "http://stanz.in/"
      }
    },
    {
      "type": "node",
      "id": 6857427289,
      "lat": 13.0731021,
      "lon": 77.5931659,
      "tags": {
        "name": "Anand Timbers",
        "shop": "furniture"
      }
    },
    {
      "type": "node",
      "id": 10274195709,
      "lat": 13.0770305,
      "lon": 77.5922254,
      "tags": {
        "addr:postcode": "560064",
        "addr:street": "Judicial Layout, 80 feet road",
        "amenity": "restaurant",
        "cuisine": "chinese;indian",
        "diet:vegetarian": "yes",
        "internet_access": "wlan",
        "name": "UDAY HUTS",
        "phone": "+919880275789"
      }
    },
    {
      "type": "node",
      "id": 10731130898,
      "lat": 13.072895,
      "lon": 77.5979094,
      "tags": {
        "amenity": "waste_disposal"
      }
    },
    {
      "type": "node",
      "id": 10731130899,
      "lat": 13.0728937,
      "lon": 77.5979443,
      "tags": {
        "amenity": "waste_disposal"
      }
    },
    {
      "type": "node",
      "id": 10731130900,
      "lat": 13.0728944,
      "lon": 77.5978746,
      "tags": {
        "amenity": "waste_disposal"
      }
    },
    {
      "type": "node",
      "id": 10731130901,
      "lat": 13.0728957,
      "lon": 77.5978397,
      "tags": {
        "amenity": "waste_disposal"
      }
    },
    {
      "type": "node",
      "id": 11305116629,
      "lat": 13.071089,
      "lon": 77.5895275,
      "tags": {
        "addr:city": "Bengaluru",
        "addr:country": "IN",
        "addr:floor": "UG",
        "addr:hamlet": "Byatarayanapura",
        "addr:place": "Phoenix Mall of Asia",
        "addr:postcode": "560092",
        "addr:suburb": "Yelahanka",
        "brand": "Pottery Barn",
        "brand:wikidata": "Q3400126",
        "level": "1",
        "name": "Pottery Barn",
        "shop": "furniture"
      }
    },
    {
      "type": "node",
      "id": 11305116630,
      "lat": 13.0712131,
      "lon": 77.590296,
      "tags": {
        "addr:city": "Bengaluru",
        "addr:country": "IN",
        "addr:floor": "UG",
        "addr:hamlet": "Byatarayanapura",
        "addr:place": "Phoenix Mall of Asia",
        "addr:postcode": "560092",
        "addr:suburb": "Yelahanka",
        "brand": "Breitling",
        "brand:wikidata": "Q665740",
        "level": "1",
        "name": "Breitling",
        "shop": "watches"
      }
    },
    {
      "type": "node",
      "id": 11305116631,
      "lat": 13.0711687,
      "lon": 77.5905193,
      "tags": {
        "addr:city": "Bengaluru",
        "addr:country": "IN",
        "addr:floor": "UG",
        "addr:hamlet": "Byatarayanapura",
        "addr:place": "Phoenix Mall of Asia",
        "addr:postcode": "560092",
        "addr:suburb": "Yelahanka",
        "brand": "Tod's",
        "brand:wikidata": "Q1342350",
        "level": "1",
        "name": "Tod's",
        "shop": "shoes"
      }
    },
    {
      "type": "node",
      "id": 11305116632,
      "lat": 13.0710596,
      "lon": 77.5907312,
      "tags": {
        "addr:city": "Bengaluru",
        "addr:country": "IN",
        "addr:floor": "UG",
        "addr:hamlet": "Byatarayanapura",
        "addr:place": "Phoenix Mall of Asia",
        "addr:postcode": "560092",
        "addr:suburb": "Yelahanka",
        "brand": "Jimmy Choo",
        "brand:wikidata": "Q5213855",
        "level": "1",
        "name": "Jimmy Choo",
        "shop": "shoes"
      }
    },
    {
      "type": "node",
      "id": 11305116633,
      "lat": 13.0706618,
      "lon": 77.5909437,
      "tags": {
        "addr:city": "Bengaluru",
        "addr:country": "IN",
        "addr:floor": "G",
        "addr:hamlet": "Byatarayanapura",
        "addr:place": "Phoenix Mall of Asia",
        "addr:postcode": "560092",
        "addr:suburb": "Yelahanka",
        "brand": "Nautica",
        "brand:wikidata": "Q6981479",
        "level": "0",
        "name": "Nautica",
        "shop": "clothes"
      }
    },
    {
      "type": "node",
      "id": 11305116634,
      "lat": 13.0708173,
      "lon": 77.590992,
      "tags": {
        "addr:city": "Bengaluru",
        "addr:country": "IN",
        "addr:floor": "G",
        "addr:hamlet": "Byatarayanapura",
        "addr:place": "Phoenix Mall of Asia",
        "addr:postcode": "560092",
        "addr:suburb": "Yelahanka",
        "brand": "La Vie en Rose",
        "brand:wikidata": "Q4950452",
        "clothes": "underwear;women",
        "level": "0",
        "name": "La Vie en Rose",
        "shop": "clothes"
      }
    },
    {
      "type": "node",
      "id": 11305116635,
      "lat": 13.0707363,
      "lon": 77.591228,
      "tags": {
        "addr:city": "Bengaluru",
        "addr:country": "IN",
        "addr:floor": "G",
        "addr:hamlet": "Byatarayanapura",
        "addr:place": "Phoenix Mall of Asia",
        "addr:postcode": "560092",
        "addr:suburb": "Yelahanka",
        "brand": "Jockey",
        "brand:wikidata": "Q534235",
        "level": "0",
        "name": "Jockey",
        "shop": "clothes"
      }
    },
    {
      "type": "node",
      "id": 11305116636,
      "lat": 13.0706115,
      "lon": 77.5910839,
      "tags": {
        "addr:city": "Bengaluru",
        "addr:country": "IN",
        "addr:floor": "G",
        "addr:hamlet": "Byatarayanapura",
        "addr:place": "Phoenix Mall of Asia",
        "addr:postcode": "560092",
        "addr:suburb": "Yelahanka",
        "brand": "Hidesign",
        "brand:wikidata": "Q5752690",
        "level": "0",
        "name": "Hidesign",
        "shop": "leather"
      }
    },
    {
      "type": "node",
      "id": 11305116637,
      "lat": 13.0707729,
      "lon": 77.5911342,
      "tags": {
        "addr:city": "Bengaluru",
        "addr:country": "IN",
        "addr:floor": "G",
        "addr:hamlet": "Byatarayanapura",
        "addr:place": "Phoenix Mall of Asia",
        "addr:postcode": "560092",
        "addr:suburb": "Yelahanka",
        "brand": "Samsonite",
        "brand:wikidata": "Q1203426",
        "level": "0",
        "name": "Samsonite",
        "shop": "bag"
      }
    },
    {
      "type": "node",
      "id": 11305116638,
      "lat": 13.0712451,
      "lon": 77.590135,
      "tags": {
        "addr:city": "Bengaluru",
        "addr:country": "IN",
        "addr:floor": "G",
        "addr:hamlet": "Byatarayanapura",
        "addr:place": "Phoenix Mall of Asia",
        "addr:postcode": "560092",
        "addr:suburb": "Yelahanka",
        "brand": "Woodland",
        "brand:wikidata": "Q123068491",
        "level": "0",
        "name": "Woodland",
        "shop": "shoes"
      }
    },
    {
      "type": "node",
      "id": 11305116639,
      "lat": 13.0710714,
      "lon": 77.589907,
      "tags": {
        "addr:city": "Bengaluru",
        "addr:country": "IN",
        "addr:floor": "G",
        "addr:hamlet": "Byatarayanapura",
        "addr:place": "Phoenix Mall of Asia",
        "addr:postcode": "560092",
        "addr:suburb": "Yelahanka",
        "brand": "Columbia",
        "brand:wikidata": "Q1112588",
        "clothes": "outdoor",
        "level": "0",
        "name": "Columbia",
        "official_name": "Columbia Sportswear",
        "shop": "clothes"
      }
    },
    {
      "type": "node",
      "id": 11305116640,
      "lat": 13.0712556,
      "lon": 77.5899875,
      "tags": {
        "addr:city": "Bengaluru",
        "addr:country": "IN",
        "addr:floor": "G",
        "addr:hamlet": "Byatarayanapura",
        "addr:place": "Phoenix Mall of Asia",
        "addr:postcode": "560092",
        "addr:suburb": "Yelahanka",
        "brand": "ASICS",
        "brand:wikidata": "Q327247",
        "level": "0",
        "name": "ASICS",
        "shop": "shoes"
      }
    },
    {
      "type": "node",
      "id": 11305116641,
      "lat": 13.0706821,
      "lon": 77.5901444,
      "tags": {
        "addr:city": "Bengaluru",
        "addr:country": "IN",
        "addr:floor": "G",
        "addr:hamlet": "Byatarayanapura",
        "addr:place": "Phoenix Mall of Asia",
        "addr:postcode": "560092",
        "addr:suburb": "Yelahanka",
        "brand": "Vision Express",
        "brand:wikidata": "Q7936150",
        "level": "0",
        "name": "Vision Express",
        "shop": "optician"
      }
    },
    {
      "type": "node",
      "id": 11305116642,
      "lat": 13.0705201,
      "lon": 77.5907345,
      "tags": {
        "addr:city": "Bengaluru",
        "addr:country": "IN",
        "addr:floor": "G",
        "addr:hamlet": "Byatarayanapura",
        "addr:place": "Phoenix Mall of Asia",
        "addr:postcode": "560092",
        "addr:suburb": "Yelahanka",
        "brand": "Malabar Gold and Diamonds",
        "brand:wikidata": "Q60748883",
        "level": "0",
        "name": "Malabar Gold and Diamonds",
        "shop": "jewelry"
      }
    },
    {
      "type": "node",
      "id": 11305116643,
      "lat": 13.0704482,
      "lon": 77.5909618,
      "tags": {
        "addr:city": "Bengaluru",
        "addr:country": "IN",
        "addr:floor": "G",
        "addr:hamlet": "Byatarayanapura",
        "addr:place": "Phoenix Mall of Asia",
        "addr:postcode": "560092",
        "addr:suburb": "Yelahanka",
        "amenity": "cafe",
        "level": "0",
        "name": "Third Wave Coffee"
      }
    },
    {
      "type": "node",
      "id": 11305116644,
      "lat": 13.0704391,
      "lon": 77.5911308,
      "tags": {
        "addr:city": "Bengaluru",
        "addr:country": "IN",
        "addr:floor": "G",
        "addr:hamlet": "Byatarayanapura",
        "addr:place": "Phoenix Mall of Asia",
        "addr:postcode": "560092",
        "addr:suburb": "Yelahanka",
        "amenity": "cafe",
        "brand": "Chaayos",
        "brand:wikidata": "Q117235235",
        "cuisine": "tea",
        "level": "0",
        "name": "Chaayos",
        "takeaway": "yes"
      }
    },
    {
      "type": "node",
      "id": 11305116656,
      "lat": 13.0704162,
      "lon": 77.5911033,
      "tags": {
        "addr:city": "Bengaluru",
        "addr:country": "IN",
        "addr:floor": "UG",
        "addr:hamlet": "Byatarayanapura",
        "addr:place": "Phoenix Mall of Asia",
        "addr:postcode": "560092",
        "addr:suburb": "Yelahanka",
        "brand": "Canali",
        "brand:wikidata": "Q5031079",
        "clothes": "men",
        "level": "1",
        "name": "Canali",
        "shop": "clothes"
      }
    },
    {
      "type": "node",
      "id": 11305116657,
      "lat": 13.0706866,
      "lon": 77.5915311,
      "tags": {
        "addr:city": "Bengaluru",
        "addr:country": "IN",
        "addr:floor": "UG",
        "addr:hamlet": "Byatarayanapura",
        "addr:place": "Phoenix Mall of Asia",
        "addr:postcode": "560092",
        "addr:suburb": "Yelahanka",
        "brand": "Bulgari",
        "brand:wikidata": "Q752515",
        "level": "1",
        "name": "Bvlgari",
        "shop": "fashion_accessories"
      }
    },
    {
      "type": "node",
      "id": 11305116658,
      "lat": 13.0712092,
      "lon": 77.5904489,
      "tags": {
        "addr:city": "Bengaluru",
        "addr:country": "IN",
        "addr:floor": "UG",
        "addr:hamlet": "Byatarayanapura",
        "addr:place": "Phoenix Mall of Asia",
        "addr:postcode": "560092",
        "addr:suburb": "Yelahanka",
        "brand": "Michael Kors",
        "brand:wikidata": "Q19572998",
        "level": "1",
        "name": "Michael Kors",
        "shop": "clothes"
      }
    },
    {
      "type": "node",
      "id": 11305116659,
      "lat": 13.0708754,
      "lon": 77.5901927,
      "tags": {
        "addr:city": "Bengaluru",
        "addr:country": "IN",
        "addr:floor": "UG",
        "addr:hamlet": "Byatarayanapura",
        "addr:place": "Phoenix Mall of Asia",
        "addr:postcode": "560092",
        "addr:suburb": "Yelahanka",
        "brand": "Brooks Brothers",
        "brand:wikidata": "Q929722",
        "level": "1",
        "name": "Brooks Brothers",
        "shop": "clothes"
      }
    },
    {
      "type": "node",
      "id": 11305116660,
      "lat": 13.0708473,
      "lon": 77.5903456,
      "tags": {
        "addr:city": "Bengaluru",
        "addr:country": "IN",
        "addr:floor": "UG",
        "addr:hamlet": "Byatarayanapura",
        "addr:place": "Phoenix Mall of Asia",
        "addr:postcode": "560092",
        "addr:suburb": "Yelahanka",
        "brand": "Bally",
        "brand:wikidata": "Q688195",
        "level": "1",
        "name": "Bally",
        "shop": "shoes"
      }
    },
    {
      "type": "node",
      "id": 11305116661,
      "lat": 13.0709714,
      "lon": 77.5903603,
      "tags": {
        "addr:city": "Bengaluru",
        "addr:country": "IN",
        "addr:floor": "UG",
        "addr:hamlet": "Byatarayanapura",
        "addr:place": "Phoenix Mall of Asia",
        "addr:postcode": "560092",
        "addr:suburb": "Yelahanka",
        "brand": "Coach",
        "brand:wikidata": "Q727697",
        "level": "1",
        "name": "Coach",
        "shop": "bag"
      }
    },
    {
      "type": "node",
      "id": 11305116662,
      "lat": 13.0710864,
      "lon": 77.5899325,
      "tags": {
        "addr:city": "Bengaluru",
        "addr:country": "IN",
        "addr:floor": "UG",
        "addr:hamlet": "Byatarayanapura",
        "addr:place": "Phoenix Mall of Asia",
        "addr:postcode": "560092",
        "addr:suburb": "Yelahanka",
        "brand": "Polo Ralph Lauren",
        "brand:wikidata": "Q1641437",
        "level": "1",
        "name": "Polo Ralph Lauren",
        "shop": "clothes"
      }
    },
    {
      "type": "node",
      "id": 11305116663,
      "lat": 13.0709714,
      "lon": 77.5899097,
      "tags": {
        "addr:city": "Bengaluru",
        "addr:country": "IN",
        "addr:floor": "UG",
        "addr:hamlet": "Byatarayanapura",
        "addr:place": "Phoenix Mall of Asia",
        "addr:postcode": "560092",
        "addr:suburb": "Yelahanka",
        "brand": "Diesel",
        "brand:wikidata": "Q158285",
        "level": "1",
        "name": "Diesel",
        "shop": "clothes"
      }
    },
    {
      "type": "node",
      "id": 11305116664,
      "lat": 13.0709244,
      "lon": 77.5900385,
      "tags": {
        "addr:city": "Bengaluru",
        "addr:country": "IN",
        "addr:floor": "UG",
        "addr:hamlet": "Byatarayanapura",
        "addr:place": "Phoenix Mall of Asia",
        "addr:postcode": "560092",
        "addr:suburb": "Yelahanka",
        "brand": "Chanel",
        "brand:wikidata": "Q218115",
        "level": "1",
        "name": "Chanel",
        "shop": "clothes"
      }
    },
    {
      "type": "node",
      "id": 11305116665,
      "lat": 13.0710132,
      "lon": 77.5902584,
      "tags": {
        "addr:city": "Bengaluru",
        "addr:country": "IN",
        "addr:floor": "UG",
        "addr:hamlet": "Byatarayanapura",
        "addr:place": "Phoenix Mall of Asia",
        "addr:postcode": "560092",
        "addr:suburb": "Yelahanka",
        "brand": "Kate Spade New York",
        "brand:wikidata": "Q6375797",
        "level": "1",
        "name": "Kate Spade New York",
        "shop": "clothes",
        "short_name": "Kate Spade"
      }
    },
    {
      "type": "node",
      "id": 11305116666,
      "lat": 13.0710067,
      "lon": 77.590984,
      "tags": {
        "addr:city": "Bengaluru",
        "addr:country": "IN",
        "addr:floor": "UG",
        "addr:hamlet": "Byatarayanapura",
        "addr:place": "Phoenix Mall of Asia",
        "addr:postcode": "560092",
        "addr:suburb": "Yelahanka",
        "brand": "Bottega Veneta",
        "brand:wikidata": "Q894874",
        "level": "1",
        "name": "Bottega Veneta",
        "shop": "fashion_accessories"
      }
    },
    {
      "type": "node",
      "id": 11305116667,
      "lat": 13.0710511,
      "lon": 77.5908592,
      "tags": {
        "addr:city": "Bengaluru",
        "addr:country": "IN",
        "addr:floor": "UG",
        "addr:hamlet": "Byatarayanapura",
        "addr:place": "Phoenix Mall of Asia",
        "addr:postcode": "560092",
        "addr:suburb": "Yelahanka",
        "brand": "Versace",
        "brand:wikidata": "Q696376",
        "level": "1",
        "name": "Versace",
        "shop": "clothes"
      }
    },
    {
      "type": "node",
      "id": 11305116668,
      "lat": 13.0704802,
      "lon": 77.5908405,
      "tags": {
        "addr:city": "Bengaluru",
        "addr:country": "IN",
        "addr:floor": "UG",
        "addr:hamlet": "Byatarayanapura",
        "addr:place": "Phoenix Mall of Asia",
        "addr:postcode": "560092",
        "addr:suburb": "Yelahanka",
        "brand": "Ermenegildo Zegna",
        "brand:wikidata": "Q1355904",
        "clothes": "men",
        "level": "1",
        "name": "Ermenegildo Zegna",
        "shop": "clothes",
        "short_name": "Zegna"
      }
    },
    {
      "type": "node",
      "id": 11305149269,
      "lat": 13.0703365,
      "lon": 77.5914466,
      "tags": {
        "addr:city": "Bengaluru",
        "addr:country": "IN",
        "addr:floor": "UG",
        "addr:hamlet": "Byatarayanapura",
        "addr:place": "Phoenix Mall of Asia",
        "addr:postcode": "560092",
        "addr:suburb": "Yelahanka",
        "brand": "Hermès",
        "brand:wikidata": "Q843887",
        "level": "1",
        "name": "Hermès",
        "shop": "clothes"
      }
    },
    {
      "type": "node",
      "id": 11305149270,
      "lat": 13.070313,
      "lon": 77.5915915,
      "tags": {
        "addr:city": "Bengaluru",
        "addr:country": "IN",
        "addr:floor": "UG",
        "addr:hamlet": "Byatarayanapura",
        "addr:place": "Phoenix Mall of Asia",
        "addr:postcode": "560092",
        "addr:suburb": "Yelahanka",
        "brand": "Burberry",
        "brand:wikidata": "Q390107",
        "clothes": "men;women",
        "level": "1",
        "name": "Burberry",
        "shop": "clothes"
      }
    },
    {
      "type": "node",
      "id": 11305149271,
      "lat": 13.0706174,
      "lon": 77.5916974,
      "tags": {
        "addr:city": "Bengaluru",
        "addr:country": "IN",
        "addr:floor": "UG",
        "addr:hamlet": "Byatarayanapura",
        "addr:place": "Phoenix Mall of Asia",
        "addr:postcode": "560092",
        "addr:suburb": "Yelahanka",
        "brand": "Balenciaga",
        "brand:wikidata": "Q1530892",
        "level": "1",
        "name": "Balenciaga",
        "shop": "clothes"
      }
    },
    {
      "type": "node",
      "id": 11305149272,
      "lat": 13.0708656,
      "lon": 77.5915499,
      "tags": {
        "addr:city": "Bengaluru",
        "addr:country": "IN",
        "addr:floor": "UG",
        "addr:hamlet": "Byatarayanapura",
        "addr:place": "Phoenix Mall of Asia",
        "addr:postcode": "560092",
        "addr:suburb": "Yelahanka",
        "brand": "Dior",
        "brand:wikidata": "Q542767",
        "level": "1",
        "name": "Dior",
        "shop": "clothes"
      }
    },
    {
      "type": "node",
      "id": 11305149273,
      "lat": 13.071153,
      "lon": 77.5906862,
      "tags": {
        "addr:city": "Bengaluru",
        "addr:country": "IN",
        "addr:floor": "UG",
        "addr:hamlet": "Byatarayanapura",
        "addr:place": "Phoenix Mall of Asia",
        "addr:postcode": "560092",
        "addr:suburb": "Yelahanka",
        "brand": "Valentino",
        "brand:wikidata": "Q649646",
        "level": "1",
        "name": "Valentino",
        "shop": "clothes"
      }
    },
    {
      "type": "node",
      "id": 11305149274,
      "lat": 13.0708238,
      "lon": 77.590473,
      "tags": {
        "addr:city": "Bengaluru",
        "addr:country": "IN",
        "addr:floor": "UG",
        "addr:hamlet": "Byatarayanapura",
        "addr:place": "Phoenix Mall of Asia",
        "addr:postcode": "560092",
        "addr:suburb": "Yelahanka",
        "brand": "Gucci",
        "brand:wikidata": "Q178516",
        "level": "1",
        "name": "Gucci",
        "shop": "clothes"
      }
    },
    {
      "type": "node",
      "id": 11305149275,
      "lat": 13.0706252,
      "lon": 77.5904381,
      "tags": {
        "addr:city": "Bengaluru",
        "addr:country": "IN",
        "addr:floor": "UG",
        "addr:hamlet": "Byatarayanapura",
        "addr:place": "Phoenix Mall of Asia",
        "addr:postcode": "560092",
        "addr:suburb": "Yelahanka",
        "brand": "Emporio Armani",
        "brand:wikidata": "Q3497483",
        "level": "1",
        "name": "Emporio Armani",
        "shop": "clothes"
      }
    },
    {
      "type": "node",
      "id": 11305149276,
      "lat": 13.0707454,
      "lon": 77.5909853,
      "tags": {
        "addr:city": "Bengaluru",
        "addr:country": "IN",
        "addr:floor": "UG",
        "addr:hamlet": "Byatarayanapura",
        "addr:place": "Phoenix Mall of Asia",
        "addr:postcode": "560092",
        "addr:suburb": "Yelahanka",
        "brand": "Louis Vuitton",
        "brand:wikidata": "Q191485",
        "level": "1",
        "name": "Louis Vuitton",
        "shop": "clothes"
      }
    },
    {
      "type": "node",
      "id": 11305149277,
      "lat": 13.0708173,
      "lon": 77.5897796,
      "tags": {
        "addr:city": "Bengaluru",
        "addr:country": "IN",
        "addr:floor": "UG",
        "addr:hamlet": "Byatarayanapura",
        "addr:place": "Phoenix Mall of Asia",
        "addr:postcode": "560092",
        "addr:suburb": "Yelahanka",
        "brand": "Victoria's Secret",
        "brand:wikidata": "Q332477",
        "clothes": "underwear;women",
        "level": "1",
        "name": "Victoria's Secret",
        "shop": "clothes"
      }
    },
    {
      "type": "node",
      "id": 11305149278,
      "lat": 13.0711021,
      "lon": 77.5906728,
      "tags": {
        "addr:city": "Bengaluru",
        "addr:country": "IN",
        "addr:floor": "G",
        "addr:hamlet": "Byatarayanapura",
        "addr:place": "Phoenix Mall of Asia",
        "addr:postcode": "560092",
        "addr:suburb": "Yelahanka",
        "brand": "Jack & Jones",
        "brand:wikidata": "Q6077665",
        "level": "0",
        "name": "Jack & Jones",
        "shop": "clothes"
      }
    },
    {
      "type": "node",
      "id": 11305149279,
      "lat": 13.0711106,
      "lon": 77.590597,
      "tags": {
        "addr:city": "Bengaluru",
        "addr:country": "IN",
        "addr:floor": "G",
        "addr:hamlet": "Byatarayanapura",
        "addr:place": "Phoenix Mall of Asia",
        "addr:postcode": "560092",
        "addr:suburb": "Yelahanka",
        "brand": "American Eagle Outfitters",
        "brand:wikidata": "Q2842931",
        "clothes": "men;women",
        "level": "0",
        "name": "American Eagle Outfitters",
        "shop": "clothes",
        "short_name": "American Eagle"
      }
    },
    {
      "type": "node",
      "id": 11305149280,
      "lat": 13.0709878,
      "lon": 77.5908934,
      "tags": {
        "addr:city": "Bengaluru",
        "addr:country": "IN",
        "addr:floor": "G",
        "addr:hamlet": "Byatarayanapura",
        "addr:place": "Phoenix Mall of Asia",
        "addr:postcode": "560092",
        "addr:suburb": "Yelahanka",
        "amenity": "cafe",
        "contact:instagram": "perchinbengaluru",
        "level": "0",
        "name": "Perch"
      }
    },
    {
      "type": "node",
      "id": 11305149281,
      "lat": 13.0709708,
      "lon": 77.5911912,
      "tags": {
        "addr:city": "Bengaluru",
        "addr:country": "IN",
        "addr:floor": "G",
        "addr:hamlet": "Byatarayanapura",
        "addr:place": "Phoenix Mall of Asia",
        "addr:postcode": "560092",
        "addr:suburb": "Yelahanka",
        "brand": "Allen Solly",
        "brand:wikidata": "Q110036995",
        "level": "0",
        "name": "Allen Solly",
        "shop": "clothes"
      }
    },
    {
      "type": "node",
      "id": 11305149282,
      "lat": 13.0709368,
      "lon": 77.5912844,
      "tags": {
        "addr:city": "Bengaluru",
        "addr:country": "IN",
        "addr:floor": "G",
        "addr:hamlet": "Byatarayanapura",
        "addr:place": "Phoenix Mall of Asia",
        "addr:postcode": "560092",
        "addr:suburb": "Yelahanka",
        "level": "0",
        "name": "Louis Phillippe",
        "shop": "clothes"
      }
    },
    {
      "type": "node",
      "id": 11305149283,
      "lat": 13.0708506,
      "lon": 77.5914191,
      "tags": {
        "addr:city": "Bengaluru",
        "addr:country": "IN",
        "addr:floor": "G",
        "addr:hamlet": "Byatarayanapura",
        "addr:place": "Phoenix Mall of Asia",
        "addr:postcode": "560092",
        "addr:suburb": "Yelahanka",
        "brand": "Van Heusen",
        "brand:wikidata": "Q67551865",
        "clothes": "men",
        "level": "0",
        "name": "Van Heusen",
        "shop": "clothes"
      }
    },
    {
      "type": "node",
      "id": 11305149284,
      "lat": 13.0707337,
      "lon": 77.5916103,
      "tags": {
        "addr:city": "Bengaluru",
        "addr:country": "IN",
        "addr:floor": "G",
        "addr:hamlet": "Byatarayanapura",
        "addr:place": "Phoenix Mall of Asia",
        "addr:postcode": "560092",
        "addr:suburb": "Yelahanka",
        "level": "0",
        "name": "Loyal World Supermarket",
        "shop": "supermarket"
      }
    },
    {
      "type": "node",
      "id": 11305149285,
      "lat": 13.0704045,
      "lon": 77.5914963,
      "tags": {
        "addr:city": "Bengaluru",
        "addr:country": "IN",
        "addr:floor": "G",
        "addr:hamlet": "Byatarayanapura",
        "addr:place": "Phoenix Mall of Asia",
        "addr:postcode": "560092",
        "addr:suburb": "Yelahanka",
        "brand": "Pantaloons",
        "brand:wikidata": "Q7131643",
        "level": "0",
        "name": "Pantaloons",
        "shop": "clothes"
      }
    },
    {
      "type": "node",
      "id": 11305149286,
      "lat": 13.070603,
      "lon": 77.5905374,
      "tags": {
        "addr:city": "Bengaluru",
        "addr:country": "IN",
        "addr:floor": "G",
        "addr:hamlet": "Byatarayanapura",
        "addr:place": "Phoenix Mall of Asia",
        "addr:postcode": "560092",
        "addr:suburb": "Yelahanka",
        "brand": "Tanishq",
        "brand:en": "Tanishq",
        "brand:wikidata": "Q13117711",
        "level": "0",
        "name": "Tanishq",
        "name:en": "Tanishq",
        "shop": "jewelry"
      }
    },
    {
      "type": "node",
      "id": 11305149287,
      "lat": 13.0712797,
      "lon": 77.5898943,
      "tags": {
        "addr:city": "Bengaluru",
        "addr:country": "IN",
        "addr:floor": "G",
        "addr:hamlet": "Byatarayanapura",
        "addr:place": "Phoenix Mall of Asia",
        "addr:postcode": "560092",
        "addr:suburb": "Yelahanka",
        "brand": "Puma",
        "brand:wikidata": "Q157064",
        "level": "0",
        "name": "Puma",
        "shop": "clothes"
      }
    },
    {
      "type": "node",
      "id": 11305149288,
      "lat": 13.0713052,
      "lon": 77.5897696,
      "tags": {
        "addr:city": "Bengaluru",
        "addr:country": "IN",
        "addr:floor": "G",
        "addr:hamlet": "Byatarayanapura",
        "addr:place": "Phoenix Mall of Asia",
        "addr:postcode": "560092",
        "addr:suburb": "Yelahanka",
        "brand": "Skechers",
        "brand:wikidata": "Q2945643",
        "level": "0",
        "name": "Skechers",
        "shop": "shoes"
      }
    },
    {
      "type": "node",
      "id": 11305149289,
      "lat": 13.0713209,
      "lon": 77.5896945,
      "tags": {
        "addr:city": "Bengaluru",
        "addr:country": "IN",
        "addr:floor": "G",
        "addr:hamlet": "Byatarayanapura",
        "addr:place": "Phoenix Mall of Asia",
        "addr:postcode": "560092",
        "addr:suburb": "Yelahanka",
        "brand": "Reebok",
        "brand:wikidata": "Q466183",
        "level": "0",
        "name": "Reebok",
        "shop": "clothes"
      }
    },
    {
      "type": "node",
      "id": 11305149290,
      "lat": 13.0711119,
      "lon": 77.5896053,
      "tags": {
        "addr:city": "Bengaluru",
        "addr:country": "IN",
        "addr:floor": "G",
        "addr:hamlet": "Byatarayanapura",
        "addr:place": "Phoenix Mall of Asia",
        "addr:postcode": "560092",
        "addr:suburb": "Yelahanka",
        "brand": "Nike",
        "brand:wikidata": "Q483915",
        "level": "0",
        "name": "Nike",
        "shop": "clothes"
      }
    },
    {
      "type": "node",
      "id": 11305149291,
      "lat": 13.070978,
      "lon": 77.5895812,
      "tags": {
        "addr:city": "Bengaluru",
        "addr:country": "IN",
        "addr:floor": "G",
        "addr:hamlet": "Byatarayanapura",
        "addr:place": "Phoenix Mall of Asia",
        "addr:postcode": "560092",
        "addr:suburb": "Yelahanka",
        "brand": "Adidas",
        "brand:wikidata": "Q3895",
        "level": "0",
        "name": "Adidas",
        "name:kn": "ಅಡಿಡಾಸ್",
        "shop": "sports"
      }
    },
    {
      "type": "node",
      "id": 11305149292,
      "lat": 13.0705632,
      "lon": 77.5906654,
      "tags": {
        "addr:city": "Bengaluru",
        "addr:country": "IN",
        "addr:floor": "G",
        "addr:hamlet": "Byatarayanapura",
        "addr:place": "Phoenix Mall of Asia",
        "addr:postcode": "560092",
        "addr:suburb": "Yelahanka",
        "amenity": "cafe",
        "brand": "Tim Hortons",
        "brand:wikidata": "Q175106",
        "cuisine": "coffee_shop",
        "level": "0",
        "name": "Tim Hortons",
        "takeaway": "yes"
      }
    },
    {
      "type": "node",
      "id": 11305149293,
      "lat": 13.0710204,
      "lon": 77.5907325,
      "tags": {
        "addr:city": "Bengaluru",
        "addr:country": "IN",
        "addr:floor": "G",
        "addr:hamlet": "Byatarayanapura",
        "addr:place": "Phoenix Mall of Asia",
        "addr:postcode": "560092",
        "addr:suburb": "Yelahanka",
        "amenity": "cafe",
        "brand": "Starbucks",
        "brand:wikidata": "Q37158",
        "cuisine": "coffee_shop",
        "level": "0",
        "name": "Starbucks",
        "official_name": "Starbucks Coffee",
        "takeaway": "yes"
      }
    },
    {
      "type": "node",
      "id": 11305149315,
      "lat": 13.0706004,
      "lon": 77.5900948,
      "tags": {
        "amenity": "toilets"
      }
    },
    {
      "type": "node",
      "id": 11305149316,
      "lat": 13.0710981,
      "lon": 77.5909518,
      "tags": {
        "amenity": "toilets"
      }
    },
    {
      "type": "node",
      "id": 11305169242,
      "lat": 13.0705336,
      "lon": 77.591824,
      "tags": {
        "access": "customers",
        "amenity": "parking_entrance",
        "fee": "yes",
        "parking": "underground"
      }
    },
    {
      "type": "node",
      "id": 11305169244,
      "lat": 13.070522,
      "lon": 77.5918637,
      "tags": {
        "access": "customers",
        "amenity": "parking_entrance",
        "fee": "yes",
        "parking": "underground"
      }
    },
    {
      "type": "node",
      "id": 11305184192,
      "lat": 13.0709244,
      "lon": 77.5912099,
      "tags": {
        "addr:city": "Bengaluru",
        "addr:country": "IN",
        "addr:floor": "3",
        "addr:hamlet": "Byatarayanapura",
        "addr:place": "Phoenix Mall of Asia",
        "addr:postcode": "560092",
        "addr:suburb": "Yelahanka",
        "amenity": "fast_food",
        "level": "4",
        "name": "Nagas"
      }
    },
    {
      "type": "node",
      "id": 11305184193,
      "lat": 13.0709035,
      "lon": 77.5912837,
      "tags": {
        "addr:city": "Bengaluru",
        "addr:country": "IN",
        "addr:floor": "3",
        "addr:hamlet": "Byatarayanapura",
        "addr:place": "Phoenix Mall of Asia",
        "addr:postcode": "560092",
        "addr:suburb": "Yelahanka",
        "amenity": "fast_food",
        "brand": "Wow! Momo",
        "brand:wikidata": "Q8037446",
        "cuisine": "momo",
        "level": "4",
        "name": "Wow! Momo",
        "takeaway": "yes"
      }
    },
    {
      "type": "node",
      "id": 11305184194,
      "lat": 13.0706821,
      "lon": 77.5911798,
      "tags": {
        "addr:city": "Bengaluru",
        "addr:country": "IN",
        "addr:floor": "3",
        "addr:hamlet": "Byatarayanapura",
        "addr:place": "Phoenix Mall of Asia",
        "addr:postcode": "560092",
        "addr:suburb": "Yelahanka",
        "amenity": "fast_food",
        "level": "4",
        "name": "Keventers"
      }
    },
    {
      "type": "node",
      "id": 11305184195,
      "lat": 13.0708963,
      "lon": 77.5913313,
      "tags": {
        "addr:city": "Bengaluru",
        "addr:country": "IN",
        "addr:floor": "3",
        "addr:hamlet": "Byatarayanapura",
        "addr:place": "Phoenix Mall of Asia",
        "addr:postcode": "560092",
        "addr:suburb": "Yelahanka",
        "amenity": "fast_food",
        "level": "4",
        "name": "Shiv Sagar"
      }
    },
    {
      "type": "node",
      "id": 11305184196,
      "lat": 13.0707075,
      "lon": 77.5911127,
      "tags": {
        "addr:city": "Bengaluru",
        "addr:country": "IN",
        "addr:floor": "3",
        "addr:hamlet": "Byatarayanapura",
        "addr:place": "Phoenix Mall of Asia",
        "addr:postcode": "560092",
        "addr:suburb": "Yelahanka",
        "amenity": "fast_food",
        "brand": "Subway",
        "brand:wikidata": "Q244457",
        "cuisine": "sandwich",
        "level": "4",
        "name": "Subway",
        "takeaway": "yes"
      }
    },
    {
      "type": "node",
      "id": 11305184197,
      "lat": 13.0707663,
      "lon": 77.5915734,
      "tags": {
        "addr:city": "Bengaluru",
        "addr:country": "IN",
        "addr:floor": "3",
        "addr:hamlet": "Byatarayanapura",
        "addr:place": "Phoenix Mall of Asia",
        "addr:postcode": "560092",
        "addr:suburb": "Yelahanka",
        "leisure": "amusement_arcade",
        "level": "4",
        "name": "Timezone"
      }
    },
    {
      "type": "node",
      "id": 11305184198,
      "lat": 13.0704058,
      "lon": 77.5914212,
      "tags": {
        "addr:city": "Bengaluru",
        "addr:country": "IN",
        "addr:floor": "3",
        "addr:hamlet": "Byatarayanapura",
        "addr:place": "Phoenix Mall of Asia",
        "addr:postcode": "560092",
        "addr:suburb": "Yelahanka",
        "brand": "Hamleys",
        "brand:wikidata": "Q60299",
        "level": "4",
        "name": "Hamleys",
        "shop": "toys",
        "wheelchair": "limited"
      }
    },
    {
      "type": "node",
      "id": 11305184199,
      "lat": 13.070411,
      "lon": 77.5911362,
      "tags": {
        "addr:city": "Bengaluru",
        "addr:country": "IN",
        "addr:floor": "3",
        "addr:hamlet": "Byatarayanapura",
        "addr:place": "Phoenix Mall of Asia",
        "addr:postcode": "560092",
        "addr:suburb": "Yelahanka",
        "amenity": "fast_food",
        "brand": "Popeyes",
        "brand:wikidata": "Q1330910",
        "cuisine": "chicken",
        "level": "4",
        "name": "Popeyes",
        "official_name": "Popeyes Louisiana Kitchen",
        "takeaway": "yes"
      }
    },
    {
      "type": "node",
      "id": 11305184200,
      "lat": 13.0704489,
      "lon": 77.591047,
      "tags": {
        "addr:city": "Bengaluru",
        "addr:country": "IN",
        "addr:floor": "3",
        "addr:hamlet": "Byatarayanapura",
        "addr:place": "Phoenix Mall of Asia",
        "addr:postcode": "560092",
        "addr:suburb": "Yelahanka",
        "amenity": "restaurant",
        "brand": "Pizza Hut",
        "brand:wikidata": "Q191615",
        "cuisine": "pizza",
        "level": "4",
        "name": "Pizza Hut"
      }
    },
    {
      "type": "node",
      "id": 11305184201,
      "lat": 13.0704704,
      "lon": 77.5909793,
      "tags": {
        "addr:city": "Bengaluru",
        "addr:country": "IN",
        "addr:floor": "3",
        "addr:hamlet": "Byatarayanapura",
        "addr:place": "Phoenix Mall of Asia",
        "addr:postcode": "560092",
        "addr:suburb": "Yelahanka",
        "amenity": "fast_food",
        "brand": "Burger King",
        "brand:wikidata": "Q177054",
        "cuisine": "burger",
        "level": "4",
        "name": "Burger King",
        "takeaway": "yes"
      }
    },
    {
      "type": "node",
      "id": 11305184202,
      "lat": 13.0704913,
      "lon": 77.5908566,
      "tags": {
        "addr:city": "Bengaluru",
        "addr:country": "IN",
        "addr:floor": "3",
        "addr:hamlet": "Byatarayanapura",
        "addr:place": "Phoenix Mall of Asia",
        "addr:postcode": "560092",
        "addr:suburb": "Yelahanka",
        "amenity": "restaurant",
        "brand": "Chili's",
        "brand:wikidata": "Q1072948",
        "cuisine": "tex-mex",
        "level": "4",
        "name": "Chili's",
        "official_name": "Chili's Grill & Bar"
      }
    },
    {
      "type": "node",
      "id": 11305184203,
      "lat": 13.0705612,
      "lon": 77.5905608,
      "tags": {
        "addr:city": "Bengaluru",
        "addr:country": "IN",
        "addr:floor": "3",
        "addr:hamlet": "Byatarayanapura",
        "addr:place": "Phoenix Mall of Asia",
        "addr:postcode": "560092",
        "addr:suburb": "Yelahanka",
        "amenity": "restaurant",
        "brand": "PizzaExpress",
        "brand:wikidata": "Q662845",
        "cuisine": "pizza",
        "level": "4",
        "name": "PizzaExpress"
      }
    },
    {
      "type": "node",
      "id": 11305184204,
      "lat": 13.0705828,
      "lon": 77.5904703,
      "tags": {
        "addr:city": "Bengaluru",
        "addr:country": "IN",
        "addr:floor": "3",
        "addr:hamlet": "Byatarayanapura",
        "addr:place": "Phoenix Mall of Asia",
        "addr:postcode": "560092",
        "addr:suburb": "Yelahanka",
        "amenity": "restaurant",
        "level": "4",
        "name": "Rajdhani"
      }
    },
    {
      "type": "node",
      "id": 11305184205,
      "lat": 13.0705985,
      "lon": 77.5903831,
      "tags": {
        "addr:city": "Bengaluru",
        "addr:country": "IN",
        "addr:floor": "3",
        "addr:hamlet": "Byatarayanapura",
        "addr:place": "Phoenix Mall of Asia",
        "addr:postcode": "560092",
        "addr:suburb": "Yelahanka",
        "amenity": "restaurant",
        "brand": "Nando's",
        "brand:wikidata": "Q3472954",
        "cuisine": "chicken;portuguese",
        "level": "4",
        "name": "Nando's"
      }
    },
    {
      "type": "node",
      "id": 11305184206,
      "lat": 13.0706703,
      "lon": 77.5903221,
      "tags": {
        "addr:city": "Bengaluru",
        "addr:country": "IN",
        "addr:floor": "3",
        "addr:hamlet": "Byatarayanapura",
        "addr:place": "Phoenix Mall of Asia",
        "addr:postcode": "560092",
        "addr:suburb": "Yelahanka",
        "amenity": "fast_food",
        "level": "4",
        "name": "Waffle World"
      }
    },
    {
      "type": "node",
      "id": 11305184207,
      "lat": 13.0708088,
      "lon": 77.5903818,
      "tags": {
        "addr:city": "Bengaluru",
        "addr:country": "IN",
        "addr:floor": "3",
        "addr:hamlet": "Byatarayanapura",
        "addr:place": "Phoenix Mall of Asia",
        "addr:postcode": "560092",
        "addr:suburb": "Yelahanka",
        "amenity": "restaurant",
        "brand": "Punjab Grill",
        "brand:wikidata": "Q124374761",
        "cuisine": "north_indian",
        "delivery": "yes",
        "level": "4",
        "name": "Punjab Grill",
        "takeaway": "yes"
      }
    },
    {
      "type": "node",
      "id": 11305184208,
      "lat": 13.0708316,
      "lon": 77.5902115,
      "tags": {
        "addr:city": "Bengaluru",
        "addr:country": "IN",
        "addr:floor": "3",
        "addr:hamlet": "Byatarayanapura",
        "addr:place": "Phoenix Mall of Asia",
        "addr:postcode": "560092",
        "addr:suburb": "Yelahanka",
        "alt_name": "YouMee",
        "amenity": "restaurant",
        "full_name": "YouMee - Phoenix Mall of Asia",
        "level": "4",
        "name": "You Mee"
      }
    },
    {
      "type": "node",
      "id": 11305184209,
      "lat": 13.0709479,
      "lon": 77.5899017,
      "tags": {
        "addr:city": "Bengaluru",
        "addr:country": "IN",
        "addr:floor": "3",
        "addr:hamlet": "Byatarayanapura",
        "addr:place": "Phoenix Mall of Asia",
        "addr:postcode": "560092",
        "addr:suburb": "Yelahanka",
        "amenity": "restaurant",
        "level": "4",
        "name": "Jamie's Italian"
      }
    },
    {
      "type": "node",
      "id": 11305184210,
      "lat": 13.0709074,
      "lon": 77.5900231,
      "tags": {
        "addr:city": "Bengaluru",
        "addr:country": "IN",
        "addr:floor": "3",
        "addr:hamlet": "Byatarayanapura",
        "addr:place": "Phoenix Mall of Asia",
        "addr:postcode": "560092",
        "addr:suburb": "Yelahanka",
        "amenity": "restaurant",
        "cuisine": "burger",
        "level": "4",
        "name": "Burger Seigneur"
      }
    },
    {
      "type": "node",
      "id": 11305184211,
      "lat": 13.0710328,
      "lon": 77.5900586,
      "tags": {
        "addr:city": "Bengaluru",
        "addr:country": "IN",
        "addr:floor": "3",
        "addr:hamlet": "Byatarayanapura",
        "addr:place": "Phoenix Mall of Asia",
        "addr:postcode": "560092",
        "addr:suburb": "Yelahanka",
        "alt_name": "Kentucky Fried Chicken",
        "alt_name:en": "Kentucky Fried Chicken",
        "alt_name:hi": "केंटुकी फ्राइड चिकन",
        "alt_name:pa": "ਕੈਂਟੁਕੀ ਫ੍ਰਾਈਡ ਚਿਕਨ",
        "alt_name:pnb": "کینٹکی فرائیڈ چکن",
        "alt_name:ur": "کینٹکی فرائیڈ چکن",
        "amenity": "fast_food",
        "brand": "KFC",
        "brand:en": "KFC",
        "brand:hi": "केएफसी",
        "brand:pa": "ਕੇਐਫਸੀ",
        "brand:pnb": "کے ایف سی",
        "brand:ur": "کے ایف سی",
        "brand:wikidata": "Q524757",
        "cuisine": "chicken",
        "level": "4",
        "name": "KFC",
        "name:en": "KFC",
        "name:hi": "केएफसी",
        "name:pa": "ਕੇਐਫਸੀ",
        "name:pnb": "کے ایف سی",
        "name:ur": "کے ایف سی",
        "takeaway": "yes"
      }
    },
    {
      "type": "node",
      "id": 11305184212,
      "lat": 13.0710518,
      "lon": 77.5899285,
      "tags": {
        "addr:city": "Bengaluru",
        "addr:country": "IN",
        "addr:floor": "3",
        "addr:hamlet": "Byatarayanapura",
        "addr:place": "Phoenix Mall of Asia",
        "addr:postcode": "560092",
        "addr:suburb": "Yelahanka",
        "amenity": "restaurant",
        "brand": "Bhartiya Jalpan",
        "brand:wikidata": "Q124374711",
        "cuisine": "indian",
        "delivery": "yes",
        "level": "4",
        "name": "Bhartiya Jalpan",
        "takeaway": "yes"
      }
    },
    {
      "type": "node",
      "id": 11305184213,
      "lat": 13.071136,
      "lon": 77.589502,
      "tags": {
        "addr:city": "Bengaluru",
        "addr:country": "IN",
        "addr:floor": "3",
        "addr:hamlet": "Byatarayanapura",
        "addr:place": "Phoenix Mall of Asia",
        "addr:postcode": "560092",
        "addr:suburb": "Yelahanka",
        "amenity": "cinema",
        "brand": "INOX Leisure",
        "brand:wikidata": "Q5972349",
        "drive_in": "no",
        "level": "4",
        "name": "INOX Megaplex",
        "operator": "INOX",
        "screen": "14",
        "short_name": "INOX"
      }
    },
    {
      "type": "node",
      "id": 11305184214,
      "lat": 13.0713359,
      "lon": 77.5896308,
      "tags": {
        "addr:city": "Bengaluru",
        "addr:country": "IN",
        "addr:floor": "2",
        "addr:hamlet": "Byatarayanapura",
        "addr:place": "Phoenix Mall of Asia",
        "addr:postcode": "560092",
        "addr:suburb": "Yelahanka",
        "level": "3",
        "name": "Home Center",
        "shop": "interior_decoration"
      }
    },
    {
      "type": "node",
      "id": 11305184215,
      "lat": 13.0705638,
      "lon": 77.5905307,
      "tags": {
        "addr:city": "Bengaluru",
        "addr:country": "IN",
        "addr:floor": "2",
        "addr:hamlet": "Byatarayanapura",
        "addr:place": "Phoenix Mall of Asia",
        "addr:postcode": "560092",
        "addr:suburb": "Yelahanka",
        "amenity": "restaurant",
        "level": "3",
        "name": "Burma Burma"
      }
    },
    {
      "type": "node",
      "id": 11305184216,
      "lat": 13.0704868,
      "lon": 77.5909122,
      "tags": {
        "addr:city": "Bengaluru",
        "addr:country": "IN",
        "addr:floor": "2",
        "addr:hamlet": "Byatarayanapura",
        "addr:place": "Phoenix Mall of Asia",
        "addr:postcode": "560092",
        "addr:suburb": "Yelahanka",
        "amenity": "cafe",
        "level": "3",
        "name": "Cafe Allora"
      }
    },
    {
      "type": "node",
      "id": 11305184217,
      "lat": 13.0707121,
      "lon": 77.5912106,
      "tags": {
        "addr:city": "Bengaluru",
        "addr:country": "IN",
        "addr:floor": "2",
        "addr:hamlet": "Byatarayanapura",
        "addr:place": "Phoenix Mall of Asia",
        "addr:postcode": "560092",
        "addr:suburb": "Yelahanka",
        "brand": "Crossword Bookstores",
        "brand:wikidata": "Q5188909",
        "level": "3",
        "name": "Crossword Bookstores",
        "shop": "books"
      }
    },
    {
      "type": "node",
      "id": 11305184218,
      "lat": 13.0708401,
      "lon": 77.5916163,
      "tags": {
        "addr:city": "Bengaluru",
        "addr:country": "IN",
        "addr:floor": "2",
        "addr:hamlet": "Byatarayanapura",
        "addr:place": "Phoenix Mall of Asia",
        "addr:postcode": "560092",
        "addr:suburb": "Yelahanka",
        "level": "3",
        "name": "Reliance Trends",
        "shop": "clothes"
      }
    },
    {
      "type": "node",
      "id": 11305184219,
      "lat": 13.0706514,
      "lon": 77.591623,
      "tags": {
        "addr:city": "Bengaluru",
        "addr:country": "IN",
        "addr:floor": "2",
        "addr:hamlet": "Byatarayanapura",
        "addr:place": "Phoenix Mall of Asia",
        "addr:postcode": "560092",
        "addr:suburb": "Yelahanka",
        "brand": "Reliance Digital",
        "brand:wikidata": "Q7311012",
        "level": "3",
        "name": "Reliance Digital",
        "shop": "electronics"
      }
    },
    {
      "type": "node",
      "id": 11305184220,
      "lat": 13.0704809,
      "lon": 77.591566,
      "tags": {
        "addr:city": "Bengaluru",
        "addr:country": "IN",
        "addr:floor": "2",
        "addr:hamlet": "Byatarayanapura",
        "addr:place": "Phoenix Mall of Asia",
        "addr:postcode": "560092",
        "addr:suburb": "Yelahanka",
        "brand": "Cromā",
        "brand:wikidata": "Q5187683",
        "level": "3",
        "name": "Cromā",
        "shop": "electronics"
      }
    },
    {
      "type": "node",
      "id": 11305184221,
      "lat": 13.0703,
      "lon": 77.5914741,
      "tags": {
        "addr:city": "Bengaluru",
        "addr:country": "IN",
        "addr:floor": "2",
        "addr:hamlet": "Byatarayanapura",
        "addr:place": "Phoenix Mall of Asia",
        "addr:postcode": "560092",
        "addr:suburb": "Yelahanka",
        "brand": "Max",
        "brand:wikidata": "Q24939079",
        "level": "3",
        "name": "Max",
        "shop": "clothes"
      }
    },
    {
      "type": "node",
      "id": 11305184222,
      "lat": 13.0706736,
      "lon": 77.5909732,
      "tags": {
        "addr:city": "Bengaluru",
        "addr:country": "IN",
        "addr:floor": "1",
        "addr:hamlet": "Byatarayanapura",
        "addr:place": "Phoenix Mall of Asia",
        "addr:postcode": "560092",
        "addr:suburb": "Yelahanka",
        "brand": "Tissot",
        "brand:wikidata": "Q659530",
        "level": "2",
        "name": "Tissot",
        "shop": "watches"
      }
    },
    {
      "type": "node",
      "id": 11305184223,
      "lat": 13.0708421,
      "lon": 77.5905367,
      "tags": {
        "addr:city": "Bengaluru",
        "addr:country": "IN",
        "addr:floor": "1",
        "addr:hamlet": "Byatarayanapura",
        "addr:place": "Phoenix Mall of Asia",
        "addr:postcode": "560092",
        "addr:suburb": "Yelahanka",
        "brand": "Swarovski",
        "brand:wikidata": "Q611115",
        "level": "2",
        "name": "Swarovski",
        "shop": "jewelry"
      }
    },
    {
      "type": "node",
      "id": 11305184224,
      "lat": 13.0711798,
      "lon": 77.5906949,
      "tags": {
        "addr:city": "Bengaluru",
        "addr:country": "IN",
        "addr:floor": "1",
        "addr:hamlet": "Byatarayanapura",
        "addr:place": "Phoenix Mall of Asia",
        "addr:postcode": "560092",
        "addr:suburb": "Yelahanka",
        "brand": "Tommy Hilfiger",
        "brand:wikidata": "Q634881",
        "level": "2",
        "name": "Tommy Hilfiger",
        "shop": "clothes"
      }
    },
    {
      "type": "node",
      "id": 11305184225,
      "lat": 13.0711563,
      "lon": 77.5906084,
      "tags": {
        "addr:city": "Bengaluru",
        "addr:country": "IN",
        "addr:floor": "1",
        "addr:hamlet": "Byatarayanapura",
        "addr:place": "Phoenix Mall of Asia",
        "addr:postcode": "560092",
        "addr:suburb": "Yelahanka",
        "brand": "Calvin Klein",
        "brand:wikidata": "Q1068628",
        "level": "2",
        "name": "Calvin Klein",
        "name:kn": "ಕಾಲ್ವಿನ್ ಕ್ಲೈನ್",
        "shop": "clothes"
      }
    },
    {
      "type": "node",
      "id": 11305184226,
      "lat": 13.071202,
      "lon": 77.5904073,
      "tags": {
        "addr:city": "Bengaluru",
        "addr:country": "IN",
        "addr:floor": "1",
        "addr:hamlet": "Byatarayanapura",
        "addr:place": "Phoenix Mall of Asia",
        "addr:postcode": "560092",
        "addr:suburb": "Yelahanka",
        "amenity": "cafe",
        "level": "2",
        "name": "Magnolia Bakery"
      }
    },
    {
      "type": "node",
      "id": 11305184227,
      "lat": 13.0710518,
      "lon": 77.5900231,
      "tags": {
        "addr:city": "Bengaluru",
        "addr:country": "IN",
        "addr:floor": "1",
        "addr:hamlet": "Byatarayanapura",
        "addr:place": "Phoenix Mall of Asia",
        "addr:postcode": "560092",
        "addr:suburb": "Yelahanka",
        "brand": "Clarks",
        "brand:wikidata": "Q1095857",
        "level": "2",
        "name": "Clarks",
        "name:kn": "ಕ್ಲಾರ್ಕ್ಸ್",
        "shop": "shoes"
      }
    },
    {
      "type": "node",
      "id": 11305184228,
      "lat": 13.0709571,
      "lon": 77.5899942,
      "tags": {
        "addr:city": "Bengaluru",
        "addr:country": "IN",
        "addr:floor": "1",
        "addr:hamlet": "Byatarayanapura",
        "addr:place": "Phoenix Mall of Asia",
        "addr:postcode": "560092",
        "addr:suburb": "Yelahanka",
        "brand": "Birkenstock",
        "brand:wikidata": "Q648458",
        "level": "2",
        "name": "Birkenstock",
        "shop": "shoes"
      }
    },
    {
      "type": "node",
      "id": 11305184229,
      "lat": 13.0712634,
      "lon": 77.590239,
      "tags": {
        "addr:city": "Bengaluru",
        "addr:country": "IN",
        "addr:floor": "1",
        "addr:hamlet": "Byatarayanapura",
        "addr:place": "Phoenix Mall of Asia",
        "addr:postcode": "560092",
        "addr:suburb": "Yelahanka",
        "brand": "Lacoste",
        "brand:wikidata": "Q309031",
        "level": "2",
        "name": "Lacoste",
        "shop": "clothes"
      }
    },
    {
      "type": "node",
      "id": 11305184230,
      "lat": 13.0713509,
      "lon": 77.5898024,
      "tags": {
        "addr:city": "Bengaluru",
        "addr:country": "IN",
        "addr:floor": "1",
        "addr:hamlet": "Byatarayanapura",
        "addr:place": "Phoenix Mall of Asia",
        "addr:postcode": "560092",
        "addr:suburb": "Yelahanka",
        "brand": "Marks & Spencer",
        "brand:short": "M&S",
        "brand:wikidata": "Q714491",
        "level": "2",
        "name": "Marks & Spencer",
        "shop": "department_store"
      }
    },
    {
      "type": "node",
      "id": 11305184231,
      "lat": 13.0711602,
      "lon": 77.5895671,
      "tags": {
        "addr:city": "Bengaluru",
        "addr:country": "IN",
        "addr:floor": "1",
        "addr:hamlet": "Byatarayanapura",
        "addr:place": "Phoenix Mall of Asia",
        "addr:postcode": "560092",
        "addr:suburb": "Yelahanka",
        "brand": "Lifestyle",
        "brand:wikidata": "Q6545496",
        "level": "2",
        "name": "Lifestyle",
        "shop": "clothes"
      }
    },
    {
      "type": "node",
      "id": 11305184232,
      "lat": 13.0708682,
      "lon": 77.5895852,
      "tags": {
        "addr:city": "Bengaluru",
        "addr:country": "IN",
        "addr:floor": "1",
        "addr:hamlet": "Byatarayanapura",
        "addr:place": "Phoenix Mall of Asia",
        "addr:postcode": "560092",
        "addr:suburb": "Yelahanka",
        "brand": "H&M",
        "brand:wikidata": "Q188326",
        "level": "2",
        "name": "H&M",
        "shop": "clothes",
        "start_date": "2024-02-09"
      }
    },
    {
      "type": "node",
      "id": 11305184233,
      "lat": 13.0704861,
      "lon": 77.5907399,
      "tags": {
        "addr:city": "Bengaluru",
        "addr:country": "IN",
        "addr:floor": "1",
        "addr:hamlet": "Byatarayanapura",
        "addr:place": "Phoenix Mall of Asia",
        "addr:postcode": "560092",
        "addr:suburb": "Yelahanka",
        "brand": "Armani Exchange",
        "brand:wikidata": "Q56045740",
        "clothes": "men;women",
        "level": "2",
        "name": "Armani Exchange",
        "shop": "clothes"
      }
    },
    {
      "type": "node",
      "id": 11305184234,
      "lat": 13.0704737,
      "lon": 77.5908156,
      "tags": {
        "addr:city": "Bengaluru",
        "addr:country": "IN",
        "addr:floor": "1",
        "addr:hamlet": "Byatarayanapura",
        "addr:place": "Phoenix Mall of Asia",
        "addr:postcode": "560092",
        "addr:suburb": "Yelahanka",
        "brand": "Bath & Body Works",
        "brand:wikidata": "Q810773",
        "level": "2",
        "name": "Bath & Body Works",
        "shop": "cosmetics"
      }
    },
    {
      "type": "node",
      "id": 11305184235,
      "lat": 13.0704554,
      "lon": 77.590878,
      "tags": {
        "addr:city": "Bengaluru",
        "addr:country": "IN",
        "addr:floor": "1",
        "addr:hamlet": "Byatarayanapura",
        "addr:place": "Phoenix Mall of Asia",
        "addr:postcode": "560092",
        "addr:suburb": "Yelahanka",
        "brand": "The Body Shop",
        "brand:wikidata": "Q837851",
        "level": "2",
        "name": "The Body Shop",
        "shop": "cosmetics"
      }
    },
    {
      "type": "node",
      "id": 11305184236,
      "lat": 13.0703862,
      "lon": 77.5910202,
      "tags": {
        "addr:city": "Bengaluru",
        "addr:country": "IN",
        "addr:floor": "1",
        "addr:hamlet": "Byatarayanapura",
        "addr:place": "Phoenix Mall of Asia",
        "addr:postcode": "560092",
        "addr:suburb": "Yelahanka",
        "brand": "Vero Moda",
        "brand:wikidata": "Q640418",
        "clothes": "women",
        "level": "2",
        "name": "Vero Moda",
        "shop": "clothes"
      }
    },
    {
      "type": "node",
      "id": 11305184237,
      "lat": 13.0703692,
      "lon": 77.5911207,
      "tags": {
        "addr:city": "Bengaluru",
        "addr:country": "IN",
        "addr:floor": "1",
        "addr:hamlet": "Byatarayanapura",
        "addr:place": "Phoenix Mall of Asia",
        "addr:postcode": "560092",
        "addr:suburb": "Yelahanka",
        "brand": "Mango",
        "brand:wikidata": "Q136503",
        "level": "2",
        "name": "Mango",
        "shop": "clothes"
      }
    },
    {
      "type": "node",
      "id": 11305184238,
      "lat": 13.0705756,
      "lon": 77.5915781,
      "tags": {
        "addr:city": "Bengaluru",
        "addr:country": "IN",
        "addr:floor": "1",
        "addr:hamlet": "Byatarayanapura",
        "addr:place": "Phoenix Mall of Asia",
        "addr:postcode": "560092",
        "addr:suburb": "Yelahanka",
        "brand": "Zara",
        "brand:wikidata": "Q147662",
        "level": "2",
        "name": "Zara",
        "shop": "clothes"
      }
    },
    {
      "type": "node",
      "id": 11423202993,
      "lat": 13.0709074,
      "lon": 77.5907533,
      "tags": {
        "addr:city": "Bengaluru",
        "addr:country": "IN",
        "addr:floor": "1",
        "addr:hamlet": "Byatarayanapura",
        "addr:place": "Phoenix Mall of Asia",
        "addr:postcode": "560092",
        "addr:suburb": "Yelahanka",
        "amenity": "restaurant",
        "contact:instagram": "andreasdining",
        "cuisine": "italian",
        "level": "2",
        "name": "Andrea's Brasserie",
        "phone": "8588823878",
        "website": "https://andreas.co.in/andrea-s-brasserie-bengaluru"
      }
    },
    {
      "type": "node",
      "id": 11534769007,
      "lat": 13.0705715,
      "lon": 77.5905475,
      "tags": {
        "addr:city": "Bengaluru",
        "addr:country": "IN",
        "addr:hamlet": "Byatarayanapura",
        "addr:place": "Phoenix Mall of Asia",
        "addr:postcode": "560092",
        "addr:suburb": "Yelahanka",
        "amenity": "pub",
        "check_date": "2024-01-21",
        "level": "3",
        "name": "Sally by 1522",
        "website": "https://sallyby1522.com/"
      }
    },
    {
      "type": "node",
      "id": 11566358594,
      "lat": 13.0710194,
      "lon": 77.5909062,
      "tags": {
        "addr:city": "Bengaluru",
        "addr:country": "IN",
        "addr:floor": "2",
        "addr:hamlet": "Byatarayanapura",
        "addr:place": "Phoenix Mall of Asia",
        "addr:postcode": "560092",
        "addr:suburb": "Yelahanka",
        "amenity": "restaurant",
        "level": "3",
        "name": "Plan B"
      }
    },
    {
      "type": "node",
      "id": 11566358595,
      "lat": 13.070892,
      "lon": 77.590808,
      "tags": {
        "addr:city": "Bengaluru",
        "addr:country": "IN",
        "addr:floor": "2",
        "addr:hamlet": "Byatarayanapura",
        "addr:place": "Phoenix Mall of Asia",
        "addr:postcode": "560092",
        "addr:suburb": "Yelahanka",
        "amenity": "restaurant",
        "brand": "Cafe Noir",
        "brand:wikidata": "Q124374751",
        "cuisine": "french",
        "delivery": "yes",
        "level": "3",
        "name": "Cafe Noir",
        "takeaway": "yes"
      }
    },
    {
      "type": "node",
      "id": 11566358596,
      "lat": 13.0711959,
      "lon": 77.5903508,
      "tags": {
        "addr:city": "Bengaluru",
        "addr:country": "IN",
        "addr:floor": "2",
        "addr:hamlet": "Byatarayanapura",
        "addr:place": "Phoenix Mall of Asia",
        "addr:postcode": "560092",
        "addr:suburb": "Yelahanka",
        "level": "3",
        "name": "DJI",
        "shop": "electronics"
      }
    },
    {
      "type": "node",
      "id": 11566358597,
      "lat": 13.0710537,
      "lon": 77.5900683,
      "tags": {
        "addr:city": "Bengaluru",
        "addr:country": "IN",
        "addr:floor": "2",
        "addr:hamlet": "Byatarayanapura",
        "addr:place": "Phoenix Mall of Asia",
        "addr:postcode": "560092",
        "addr:suburb": "Yelahanka",
        "brand": "Bose",
        "brand:wikidata": "Q328568",
        "level": "3",
        "name": "Bose",
        "shop": "hifi"
      }
    },
    {
      "type": "node",
      "id": 11566358598,
      "lat": 13.0706075,
      "lon": 77.5911879,
      "tags": {
        "addr:city": "Bengaluru",
        "addr:country": "IN",
        "addr:floor": "2",
        "addr:hamlet": "Byatarayanapura",
        "addr:place": "Phoenix Mall of Asia",
        "addr:postcode": "560092",
        "addr:suburb": "Yelahanka",
        "brand": "Biba",
        "brand:wikidata": "Q4902942",
        "level": "3",
        "name": "Biba",
        "name:kn": "ಬೀಬ",
        "shop": "clothes"
      }
    },
    {
      "type": "node",
      "id": 11566358599,
      "lat": 13.0706432,
      "lon": 77.5903939,
      "tags": {
        "addr:city": "Bengaluru",
        "addr:country": "IN",
        "addr:floor": "2",
        "addr:hamlet": "Byatarayanapura",
        "addr:place": "Phoenix Mall of Asia",
        "addr:postcode": "560092",
        "addr:suburb": "Yelahanka",
        "level": "3",
        "name": "W",
        "shop": "clothes"
      }
    },
    {
      "type": "node",
      "id": 11566358600,
      "lat": 13.070951,
      "lon": 77.5899653,
      "tags": {
        "addr:city": "Bengaluru",
        "addr:country": "IN",
        "addr:floor": "2",
        "addr:hamlet": "Byatarayanapura",
        "addr:place": "Phoenix Mall of Asia",
        "addr:postcode": "560092",
        "addr:suburb": "Yelahanka",
        "level": "3",
        "name": "IndieFusion",
        "shop": "clothes"
      }
    },
    {
      "type": "node",
      "id": 11566358601,
      "lat": 13.0709744,
      "lon": 77.5898855,
      "tags": {
        "addr:city": "Bengaluru",
        "addr:country": "IN",
        "addr:floor": "2",
        "addr:hamlet": "Byatarayanapura",
        "addr:place": "Phoenix Mall of Asia",
        "addr:postcode": "560092",
        "addr:suburb": "Yelahanka",
        "level": "3",
        "name": "Mohanlal Sons",
        "shop": "clothes"
      }
    },
    {
      "type": "node",
      "id": 11566358602,
      "lat": 13.0709643,
      "lon": 77.5903859,
      "tags": {
        "addr:city": "Bengaluru",
        "addr:country": "IN",
        "addr:floor": "2",
        "addr:hamlet": "Byatarayanapura",
        "addr:place": "Phoenix Mall of Asia",
        "addr:postcode": "560092",
        "addr:suburb": "Yelahanka",
        "level": "3",
        "name": "Soch",
        "shop": "clothes"
      }
    },
    {
      "type": "node",
      "id": 11566358603,
      "lat": 13.0712519,
      "lon": 77.5900659,
      "tags": {
        "addr:city": "Bengaluru",
        "addr:country": "IN",
        "addr:floor": "2",
        "addr:hamlet": "Byatarayanapura",
        "addr:place": "Phoenix Mall of Asia",
        "addr:postcode": "560092",
        "addr:suburb": "Yelahanka",
        "level": "3",
        "name": "Mama Earth",
        "shop": "beauty"
      }
    },
    {
      "type": "node",
      "id": 11566358604,
      "lat": 13.0708611,
      "lon": 77.5901247,
      "tags": {
        "addr:city": "Bengaluru",
        "addr:country": "IN",
        "addr:floor": "UG",
        "addr:hamlet": "Byatarayanapura",
        "addr:place": "Phoenix Mall of Asia",
        "addr:postcode": "560092",
        "addr:suburb": "Yelahanka",
        "brand": "Jo Malone",
        "brand:wikidata": "Q28940761",
        "level": "1",
        "name": "Jo Malone",
        "shop": "perfumery"
      }
    },
    {
      "type": "node",
      "id": 11655446700,
      "lat": 13.0711439,
      "lon": 77.5889294,
      "tags": {
        "access": "customers",
        "amenity": "parking_entrance",
        "fee": "yes",
        "parking": "underground"
      }
    },
    {
      "type": "node",
      "id": 11777585622,
      "lat": 13.0709551,
      "lon": 77.5905318,
      "tags": {
        "addr:city": "Bengaluru",
        "addr:country": "IN",
        "addr:floor": "3",
        "addr:hamlet": "Byatarayanapura",
        "addr:place": "Phoenix Mall of Asia",
        "addr:postcode": "560092",
        "addr:suburb": "Yelahanka",
        "air_conditioning": "yes",
        "amenity": "restaurant",
        "contact:instagram": "ishaara.blr",
        "delivery": "yes",
        "dinner": "yes",
        "level": "4",
        "lunch": "yes",
        "name": "Ishaara",
        "opening_hours": "10:30-22:30",
        "reservation": "recommended",
        "takeaway": "yes"
      }
    },
    {
      "type": "node",
      "id": 11777585623,
      "lat": 13.0711653,
      "lon": 77.5904409,
      "tags": {
        "addr:city": "Bengaluru",
        "addr:country": "IN",
        "addr:floor": "3",
        "addr:hamlet": "Byatarayanapura",
        "addr:place": "Phoenix Mall of Asia",
        "addr:postcode": "560092",
        "addr:suburb": "Yelahanka",
        "air_conditioning": "yes",
        "amenity": "restaurant",
        "contact:instagram": "karigari.bangalore",
        "delivery": "yes",
        "dinner": "yes",
        "full_name": "Karigari by Chef Parpal Singh Sokhi",
        "level": "4",
        "lunch": "yes",
        "name": "Karigari",
        "opening_hours": "12:00-23:30",
        "reservation": "recommended",
        "takeaway": "yes",
        "website": "https://karigariindia.com/"
      }
    },
    {
      "type": "node",
      "id": 11777585624,
      "lat": 13.0711299,
      "lon": 77.5905713,
      "tags": {
        "addr:city": "Bengaluru",
        "addr:country": "IN",
        "addr:floor": "3",
        "addr:hamlet": "Byatarayanapura",
        "addr:place": "Phoenix Mall of Asia",
        "addr:postcode": "560092",
        "addr:suburb": "Yelahanka",
        "air_conditioning": "yes",
        "amenity": "restaurant",
        "bar": "yes",
        "contact:instagram": "plaka_india",
        "delivery": "no",
        "dinner": "yes",
        "full_name": "Plaka by Chef Ajay Chopra",
        "level": "4",
        "lunch": "yes",
        "name": "Plaka",
        "opening_hours": "11:00-00:00",
        "reservation": "recommended",
        "takeaway": "no",
        "website": "https://linktr.ee/PlakaByChefAjayChopra"
      }
    },
    {
      "type": "node",
      "id": 11817854563,
      "lat": 13.0807219,
      "lon": 77.5925088,
      "tags": {
        "brand": "Renault",
        "brand:wikidata": "Q6686",
        "name": "Renault",
        "shop": "car"
      }
    },
    {
      "type": "node",
      "id": 11817854570,
      "lat": 13.0795514,
      "lon": 77.59238,
      "tags": {
        "amenity": "restaurant",
        "name": "The Fisherman's Wharf"
      }
    },
    {
      "type": "node",
      "id": 11817854695,
      "lat": 13.0723261,
      "lon": 77.5859582,
      "tags": {
        "amenity": "prep_school",
        "name": "Vaidya Medical Academy",
        "office": "educational_institution"
      }
    },
    {
      "type": "node",
      "id": 11817854700,
      "lat": 13.0707996,
      "lon": 77.5896261,
      "tags": {
        "addr:city": "Bengaluru",
        "addr:country": "IN",
        "addr:floor": "G",
        "addr:hamlet": "Byatarayanapura",
        "addr:place": "Phoenix Mall of Asia",
        "addr:postcode": "560092",
        "addr:suburb": "Yelahanka",
        "level": "0",
        "name": "Azorte",
        "shop": "clothes"
      }
    },
    {
      "type": "node",
      "id": 11913886655,
      "lat": 13.0708826,
      "lon": 77.5888033,
      "tags": {
        "access": "customers",
        "amenity": "parking_entrance",
        "fee": "yes",
        "parking": "underground"
      }
    },
    {
      "type": "node",
      "id": 11977326690,
      "lat": 13.0707807,
      "lon": 77.5909786,
      "tags": {
        "addr:city": "Bengaluru",
        "addr:country": "IN",
        "addr:floor": "1",
        "addr:hamlet": "Byatarayanapura",
        "addr:place": "Phoenix Mall of Asia",
        "addr:postcode": "560092",
        "addr:suburb": "Yelahanka",
        "brand": "Superdry",
        "brand:wikidata": "Q1684445",
        "contact:facebook": "Superdry",
        "contact:instagram": "superdry",
        "contact:twitter": "superdry",
        "level": "2",
        "name": "Superdry",
        "shop": "clothes",
        "website": "https://www.superdry.com/"
      }
    },
    {
      "type": "node",
      "id": 12225535088,
      "lat": 13.0809047,
      "lon": 77.5928822,
      "tags": {
        "amenity": "cafe",
        "diet:vegetarian": "yes",
        "name": "The Idli Foundry"
      }
    },
    {
      "type": "node",
      "id": 12294001134,
      "lat": 13.070718,
      "lon": 77.5899795,
      "tags": {
        "amenity": "fast_food",
        "contact:instagram": "goodflippin",
        "cuisine": "burger",
        "delivery": "yes",
        "name": "Good Flippin' Burgers",
        "takeaway": "yes",
        "website": "https://goodflippin.com/"
      }
    },
    {
      "type": "node",
      "id": 12395928079,
      "lat": 13.0796102,
      "lon": 77.592081,
      "tags": {
        "addr:city": "Bengaluru",
        "addr:street": "Bellary Road",
        "addr:suburb": "Yelahanka",
        "amenity": "bar",
        "name": "Nido",
        "opening_hours": "Tu-Su 12:00-00:00"
      }
    },
    {
      "type": "node",
      "id": 12651750840,
      "lat": 13.0693019,
      "lon": 77.5916545,
      "tags": {
        "access": "private",
        "amenity": "parking_entrance",
        "parking": "underground"
      }
    },
    {
      "type": "node",
      "id": 13013978924,
      "lat": 13.0792013,
      "lon": 77.5920139,
      "tags": {
        "amenity": "pub",
        "name": "The Brew Factory"
      }
    },
    {
      "type": "node",
      "id": 13013978925,
      "lat": 13.079106,
      "lon": 77.5924753,
      "tags": {
        "amenity": "restaurant",
        "name": "The Food Factory"
      }
    },
    {
      "type": "node",
      "id": 13013978926,
      "lat": 13.0788957,
      "lon": 77.5924578,
      "tags": {
        "amenity": "restaurant",
        "name": "The Fisherman's Wharf"
      }
    },
    {
      "type": "node",
      "id": 13086372169,
      "lat": 13.0703979,
      "lon": 77.5912706,
      "tags": {
        "brand": "Apple Store",
        "brand:wikidata": "Q421253",
        "name": "Apple Store",
        "official_name": "Apple Hebbal",
        "shop": "electronics",
        "short_name": "Apple",
        "start_date": "2025-09-02"
      }
    },
    {
      "type": "node",
      "id": 13155767269,
      "lat": 13.0829906,
      "lon": 77.5941613,
      "tags": {
        "check_date": "2025-09-19",
        "name": "Luxurian",
        "shop": "furniture"
      }
    },
    {
      "type": "node",
      "id": 13155767270,
      "lat": 13.083187,
      "lon": 77.5941925,
      "tags": {
        "brand": "Škoda",
        "brand:wikidata": "Q29637",
        "check_date": "2025-09-19",
        "name": "Škoda",
        "shop": "car"
      }
    },
    {
      "type": "node",
      "id": 13207117728,
      "lat": 13.0705273,
      "lon": 77.5914842,
      "tags": {
        "brand": "Massimo Dutti",
        "brand:wikidata": "Q788231",
        "name": "Massimo Dutti",
        "shop": "clothes"
      }
    },
    {
      "type": "node",
      "id": 13207117729,
      "lat": 13.0705952,
      "lon": 77.5915056,
      "tags": {
        "name": "Onitsuka Tiger",
        "shop": "clothes"
      }
    },
    {
      "type": "way",
      "id": 82508422,
      "center": {
        "lat": 13.083563,
        "lon": 77.5908706
      },
      "tags": {
        "amenity": "college",
        "landuse": "farmland",
        "name": "Central Institute of Medicinal and Aromatic Plants",
        "name:kn": "ಕೇಂದ್ರಿಯ ಔಷಧೀಯ ಮತ್ತು ಸುವಾಸನೆ ಗಿಡಮೂಲಿಕೆಗಳ ಸಂಸ್ಥೆ"
      }
    },
    {
      "type": "way",
      "id": 363612211,
      "center": {
        "lat": 13.0863776,
        "lon": 77.5919964
      },
      "tags": {
        "alt_name": "Orchid Hotel",
        "landuse": "commercial",
        "leisure": "resort",
        "name": "Royal Orchid Hotel and Convention Centre",
        "swimming_pool": "outdoor",
        "tourism": "hotel"
      }
    },
    {
      "type": "way",
      "id": 396653991,
      "center": {
        "lat": 13.0757169,
        "lon": 77.5829078
      },
      "tags": {
        "leisure": "pitch"
      }
    },
    {
      "type": "way",
      "id": 396653999,
      "center": {
        "lat": 13.0776642,
        "lon": 77.5889375
      },
      "tags": {
        "leisure": "park"
      }
    },
    {
      "type": "way",
      "id": 420777805,
      "center": {
        "lat": 13.0866878,
        "lon": 77.5916755
      },
      "tags": {
        "leisure": "swimming_pool",
        "name": "Royal Orchid"
      }
    },
    {
      "type": "way",
      "id": 420783478,
      "center": {
        "lat": 13.0832451,
        "lon": 77.587491
      },
      "tags": {
        "leisure": "park"
      }
    },
    {
      "type": "way",
      "id": 635509936,
      "center": {
        "lat": 13.0708864,
        "lon": 77.5904608
      },
      "tags": {
        "contact:instagram": "phoenixmoa",
        "landuse": "retail",
        "name": "Phoenix Mall of Asia",
        "opening_hours": "10:00-01:00",
        "operator": "The Phoenix Mills",
        "shop": "mall"
      }
    },
    {
      "type": "way",
      "id": 1068394021,
      "center": {
        "lat": 13.0813774,
        "lon": 77.5927865
      },
      "tags": {
        "amenity": "fuel",
        "brand": "Hindustan Petroleum",
        "brand:wikidata": "Q1619375",
        "check_date": "2024-10-13",
        "name": "HP Petrol / Gas Station",
        "official_name": "Hindustan Petroleum",
        "operator": "HP"
      }
    },
    {
      "type": "way",
      "id": 1068394022,
      "center": {
        "lat": 13.071778,
        "lon": 77.5932014
      },
      "tags": {
        "amenity": "fuel",
        "brand": "Shell",
        "brand:wikidata": "Q110716465",
        "name": "Shell",
        "name:kn": "ಶೆಲ್"
      }
    },
    {
      "type": "way",
      "id": 1112530385,
      "center": {
        "lat": 13.0731527,
        "lon": 77.596779
      },
      "tags": {
        "amenity": "college",
        "name": "Gyan Jyothi, State Bank of India"
      }
    },
    {
      "type": "way",
      "id": 1153855770,
      "center": {
        "lat": 13.0724432,
        "lon": 77.5954251
      },
      "tags": {
        "amenity": "events_venue",
        "landuse": "commercial",
        "name": "Amara Convention Center"
      }
    },
    {
      "type": "way",
      "id": 1188310712,
      "center": {
        "lat": 13.0695478,
        "lon": 77.5910359
      },
      "tags": {
        "leisure": "park"
      }
    },
    {
      "type": "way",
      "id": 1243274910,
      "center": {
        "lat": 13.0872617,
        "lon": 77.5921952
      },
      "tags": {
        "amenity": "fuel",
        "brand": "Nayara",
        "brand:wikidata": "Q5399377",
        "name": "Nayara"
      }
    },
    {
      "type": "way",
      "id": 1243274913,
      "center": {
        "lat": 13.086954,
        "lon": 77.5907296
      },
      "tags": {
        "access": "private",
        "amenity": "parking",
        "parking": "surface"
      }
    },
    {
      "type": "way",
      "id": 1284192704,
      "center": {
        "lat": 13.0711099,
        "lon": 77.5889756
      },
      "tags": {
        "access": "customers",
        "amenity": "parking",
        "fee": "yes",
        "parking": "surface"
      }
    },
    {
      "type": "way",
      "id": 1284192705,
      "center": {
        "lat": 13.0711891,
        "lon": 77.5886963
      },
      "tags": {
        "access": "customers",
        "amenity": "parking",
        "fee": "yes",
        "parking": "surface"
      }
    },
    {
      "type": "way",
      "id": 1366161307,
      "center": {
        "lat": 13.0701262,
        "lon": 77.5888188
      },
      "tags": {
        "leisure": "park"
      }
    },
    {
      "type": "way",
      "id": 1366161318,
      "center": {
        "lat": 13.0688789,
        "lon": 77.5923854
      },
      "tags": {
        "access": "private",
        "leisure": "garden"
      }
    },
    {
      "type": "way",
      "id": 1379543535,
      "center": {
        "lat": 13.082011,
        "lon": 77.6001323
      },
      "tags": {
        "access": "private",
        "leisure": "park"
      }
    },
    {
      "type": "way",
      "id": 1379543536,
      "center": {
        "lat": 13.0821002,
        "lon": 77.5999288
      },
      "tags": {
        "access": "private",
        "leisure": "swimming_pool"
      }
    },
    {
      "type": "way",
      "id": 1379543537,
      "center": {
        "lat": 13.0816183,
        "lon": 77.6000124
      },
      "tags": {
        "access": "private",
        "leisure": "pitch",
        "sport": "tennis"
      }
    },
    {
      "type": "way",
      "id": 1379543542,
      "center": {
        "lat": 13.0831098,
        "lon": 77.5952671
      },
      "tags": {
        "amenity": "school",
        "name": "Vidya Prakash High School"
      }
    },
    {
      "type": "way",
      "id": 1419422308,
      "center": {
        "lat": 13.073076,
        "lon": 77.5993277
      },
      "tags": {
        "leisure": "park"
      }
    }
  ]
}