{
  "area_name": "Yelenahalli",
  "osm_id": 1472934965,
  "osm_type": "node",
  "place_type": "neighbourhood",
  "amenity_count": 111,
  "amenities": [
    {
      "type": "node",
      "id": 731740934,
      "lat": 12.8757246,
      "lon": 77.6173186,
      "tags": {
        "amenity": "post_box",
        "name": "DLF New Town"
      }
    },
    {
      "type": "node",
      "id": 1472934583,
      "lat": 12.867378,
      "lon": 77.6162668,
      "tags": {
        "addr:place": "Yelenahalli",
        "amenity": "school",
        "isced:level": "1",
        "name": "Government Primary School Yelenahalli",
        "name:kn": "ಸರ್ಕಾರಿ ಪ್ರಾಥಮಿಕ ಶಾಲೆ ಎಲೇನಹಳ್ಳಿ",
        "operator": "Department of Education",
        "school": "primary"
      }
    },
    {
      "type": "node",
      "id": 2645107033,
      "lat": 12.8628669,
      "lon": 77.6148979,
      "tags": {
        "amenity": "atm",
        "brand": "Karnataka Bank",
        "brand:wikidata": "Q2042632",
        "name": "Karnataka Bank",
        "name:kn": "ಕರ್ನಾಟಕ ಬ್ಯಾಂಕ್",
        "operator": "Karnataka Bank",
        "operator:wikidata": "Q2042632"
      }
    },
    {
      "type": "node",
      "id": 7572669045,
      "lat": 12.874266,
      "lon": 77.616922,
      "tags": {
        "addr:district": "Bengaluru Urban",
        "addr:full": "Golden Height Apartment, Akshay Nagar Main Road, Bengaluru",
        "addr:postcode": "560076",
        "addr:state": "Karnataka",
        "amenity": "clinic",
        "name": "Dr. Shankar's Ear Nose & Throat",
        "source": "Local Knowledge"
      }
    },
    {
      "type": "node",
      "id": 7572669053,
      "lat": 12.87174,
      "lon": 77.6168758,
      "tags": {
        "addr:district": "Bengaluru Urban",
        "addr:full": "Akshayanagar, Bengaluru",
        "addr:postcode": "560076",
        "addr:state": "Karnataka",
        "amenity": "clinic",
        "name": "Mahima Clinic",
        "source": "Local Knowledge"
      }
    },
    {
      "type": "node",
      "id": 11124696822,
      "lat": 12.8626506,
      "lon": 77.610033,
      "tags": {
        "access": "private",
        "amenity": "parking_entrance",
        "parking": "underground"
      }
    },
    {
      "type": "node",
      "id": 11625402106,
      "lat": 12.8749413,
      "lon": 77.6161595,
      "tags": {
        "access": "yes",
        "leisure": "pitch",
        "name": "MP Sports Arena",
        "sport": "badminton;swimming"
      }
    },
    {
      "type": "node",
      "id": 11625402107,
      "lat": 12.8749232,
      "lon": 77.6167526,
      "tags": {
        "addr:city": "Bangalore",
        "addr:district": "Bengaluru Urban",
        "addr:full": "Yelanahalli Main Road, Akshaynagar, DLF New Town,Bengaluru-560068",
        "addr:postcode": "560068",
        "name": "Safari Super Mart",
        "opening_hours": "Mo-Su 09:00-21:00",
        "payment:app": "yes",
        "payment:cash": "yes",
        "payment:credit_cards": "yes",
        "payment:upi": "yes",
        "shop": "supermarket"
      }
    },
    {
      "type": "node",
      "id": 11870919158,
      "lat": 12.8735842,
      "lon": 77.6102968,
      "tags": {
        "access": "private",
        "amenity": "parking_entrance",
        "parking": "underground"
      }
    },
    {
      "type": "node",
      "id": 11870936267,
      "lat": 12.8618897,
      "lon": 77.6123303,
      "tags": {
        "access": "private",
        "amenity": "parking_entrance",
        "parking": "underground"
      }
    },
    {
      "type": "node",
      "id": 11870936306,
      "lat": 12.8654015,
      "lon": 77.6089776,
      "tags": {
        "access": "private",
        "amenity": "parking_entrance",
        "parking": "underground"
      }
    },
    {
      "type": "node",
      "id": 11870936383,
      "lat": 12.8652394,
      "lon": 77.6110227,
      "tags": {
        "access": "private",
        "amenity": "parking_entrance",
        "parking": "underground"
      }
    },
    {
      "type": "node",
      "id": 11870936397,
      "lat": 12.8642255,
      "lon": 77.6118073,
      "tags": {
        "access": "private",
        "amenity": "parking_entrance",
        "parking": "underground"
      }
    },
    {
      "type": "node",
      "id": 11870936446,
      "lat": 12.8621839,
      "lon": 77.6126508,
      "tags": {
        "access": "private",
        "amenity": "parking_entrance",
        "parking": "underground"
      }
    },
    {
      "type": "node",
      "id": 11871336582,
      "lat": 12.8733414,
      "lon": 77.611246,
      "tags": {
        "access": "private",
        "amenity": "parking_entrance",
        "parking": "underground"
      }
    },
    {
      "type": "node",
      "id": 11871336597,
      "lat": 12.8721308,
      "lon": 77.6102141,
      "tags": {
        "access": "private",
        "amenity": "parking_entrance",
        "parking": "underground"
      }
    },
    {
      "type": "node",
      "id": 11871336607,
      "lat": 12.8722883,
      "lon": 77.6097292,
      "tags": {
        "access": "private",
        "amenity": "parking_entrance",
        "parking": "underground"
      }
    },
    {
      "type": "node",
      "id": 12754772231,
      "lat": 12.8729362,
      "lon": 77.6181679,
      "tags": {
        "access": "private",
        "amenity": "parking_entrance",
        "parking": "underground"
      }
    },
    {
      "type": "node",
      "id": 12754772233,
      "lat": 12.8742675,
      "lon": 77.6184174,
      "tags": {
        "access": "private",
        "amenity": "parking_entrance",
        "parking": "underground"
      }
    },
    {
      "type": "node",
      "id": 12799711892,
      "lat": 12.8749831,
      "lon": 77.6164752,
      "tags": {
        "addr:city": "Bangalore",
        "addr:district": "Bengaluru Urban",
        "addr:housenumber": "21",
        "addr:postcode": "560076",
        "addr:street": "1st Cross Road yelenahalli main road",
        "amenity": "car_wash",
        "name": "Sparkx Auto Detailing",
        "opening_hours": "Mo-Su 08:00-22:00",
        "operator": "Prabhu",
        "payment:cash": "yes",
        "payment:google_pay": "yes",
        "self_service": "no"
      }
    },
    {
      "type": "node",
      "id": 13110965033,
      "lat": 12.8736603,
      "lon": 77.6114062,
      "tags": {
        "name": "Ezeebag",
        "shop": "convenience"
      }
    },
    {
      "type": "node",
      "id": 13110965034,
      "lat": 12.8736761,
      "lon": 77.6112921,
      "tags": {
        "amenity": "cafe",
        "delivery": "yes",
        "name": "Cafe Baha",
        "takeaway": "yes",
        "toilets": "yes"
      }
    },
    {
      "type": "way",
      "id": 126890301,
      "center": {
        "lat": 12.872591,
        "lon": 77.6155189
      },
      "tags": {
        "amenity": "public_building",
        "name": "Ashram"
      }
    },
    {
      "type": "way",
      "id": 126890306,
      "center": {
        "lat": 12.8706259,
        "lon": 77.6148793
      },
      "tags": {
        "amenity": "place_of_worship",
        "name": "Subramanya Temple",
        "name:kn": "ಸುಬ್ರಮಣ್ಯ ದೇವಸ್ಥಾನ",
        "religion": "hindu"
      }
    },
    {
      "type": "way",
      "id": 133751578,
      "center": {
        "lat": 12.8650826,
        "lon": 77.6128932
      },
      "tags": {
        "leisure": "park"
      }
    },
    {
      "type": "way",
      "id": 259157357,
      "center": {
        "lat": 12.8682011,
        "lon": 77.6165729
      },
      "tags": {
        "addr:city": "Bangalore",
        "addr:housename": "Akshaya Nagar, Yellahanahalli",
        "addr:postcode": "560068",
        "addr:street": "Begur Main Road",
        "amenity": "college",
        "email": "fullinfawscollege@yahoo.in",
        "name": "Fullinfaws College",
        "website": "http://fullinfawscollege.blogspot.in/"
      }
    },
    {
      "type": "way",
      "id": 362885313,
      "center": {
        "lat": 12.8683951,
        "lon": 77.6196899
      },
      "tags": {
        "leisure": "park"
      }
    },
    {
      "type": "way",
      "id": 383730693,
      "center": {
        "lat": 12.8622264,
        "lon": 77.6154516
      },
      "tags": {
        "addr:city": "Bengaluru, Karnataka",
        "addr:housenumber": "36/9",
        "addr:postcode": "560068",
        "addr:street": ", SLV Crystal Apartment, Begur-Koppa Rd, Near SNN Apartment, Yelenahalli,",
        "name": "Orange Supermarket",
        "phone": "9663379908",
        "shop": "supermarket"
      }
    },
    {
      "type": "way",
      "id": 523040857,
      "center": {
        "lat": 12.8710995,
        "lon": 77.6227956
      },
      "tags": {
        "amenity": "place_of_worship",
        "building": "yes",
        "religion": "hindu"
      }
    },
    {
      "type": "way",
      "id": 1070952265,
      "center": {
        "lat": 12.8635495,
        "lon": 77.6092905
      },
      "tags": {
        "leisure": "park"
      }
    },
    {
      "type": "way",
      "id": 1070952266,
      "center": {
        "lat": 12.8628523,
        "lon": 77.6091711
      },
      "tags": {
        "leisure": "pitch"
      }
    },
    {
      "type": "way",
      "id": 1070952267,
      "center": {
        "lat": 12.8628732,
        "lon": 77.6089797
      },
      "tags": {
        "leisure": "pitch"
      }
    },
    {
      "type": "way",
      "id": 1070952268,
      "center": {
        "lat": 12.8628354,
        "lon": 77.6093319
      },
      "tags": {
        "leisure": "pitch"
      }
    },
    {
      "type": "way",
      "id": 1070952269,
      "center": {
        "lat": 12.8628124,
        "lon": 77.6095557
      },
      "tags": {
        "leisure": "pitch"
      }
    },
    {
      "type": "way",
      "id": 1199400839,
      "center": {
        "lat": 12.8639538,
        "lon": 77.6126979
      },
      "tags": {
        "leisure": "park"
      }
    },
    {
      "type": "way",
      "id": 1199400841,
      "center": {
        "lat": 12.8637416,
        "lon": 77.6117999
      },
      "tags": {
        "leisure": "park"
      }
    },
    {
      "type": "way",
      "id": 1199400871,
      "center": {
        "lat": 12.8624018,
        "lon": 77.6105386
      },
      "tags": {
        "leisure": "park"
      }
    },
    {
      "type": "way",
      "id": 1199400874,
      "center": {
        "lat": 12.8736628,
        "lon": 77.6122458
      },
      "tags": {
        "addr:place": "Begur",
        "amenity": "school",
        "isced:level": "3",
        "name": "St Anns School, Begur",
        "name:kn": "ಸೆಂಟ್ ಆನ್ಸ್ ಶಾಲೆ, ಬೇಗೂರು",
        "operator": "Private Un-Aided",
        "school": "Higher Secondary"
      }
    },
    {
      "type": "way",
      "id": 1199400875,
      "center": {
        "lat": 12.874392,
        "lon": 77.6129411
      },
      "tags": {
        "leisure": "pitch",
        "sport": "basketball"
      }
    },
    {
      "type": "way",
      "id": 1199400876,
      "center": {
        "lat": 12.8748718,
        "lon": 77.6124765
      },
      "tags": {
        "leisure": "park"
      }
    },
    {
      "type": "way",
      "id": 1199400877,
      "center": {
        "lat": 12.8740834,
        "lon": 77.6128906
      },
      "tags": {
        "leisure": "pitch",
        "sport": "tennis"
      }
    },
    {
      "type": "way",
      "id": 1199400887,
      "center": {
        "lat": 12.8635379,
        "lon": 77.6106145
      },
      "tags": {
        "leisure": "park"
      }
    },
    {
      "type": "way",
      "id": 1199400888,
      "center": {
        "lat": 12.8645294,
        "lon": 77.6093281
      },
      "tags": {
        "leisure": "park"
      }
    },
    {
      "type": "way",
      "id": 1261422249,
      "center": {
        "lat": 12.8736489,
        "lon": 77.6184985
      },
      "tags": {
        "leisure": "park"
      }
    },
    {
      "type": "way",
      "id": 1261422250,
      "center": {
        "lat": 12.8739242,
        "lon": 77.619818
      },
      "tags": {
        "access": "permissive",
        "amenity": "parking",
        "parking": "surface"
      }
    },
    {
      "type": "way",
      "id": 1261422251,
      "center": {
        "lat": 12.8738154,
        "lon": 77.6197413
      },
      "tags": {
        "access": "permissive",
        "amenity": "parking",
        "parking": "surface"
      }
    },
    {
      "type": "way",
      "id": 1261422252,
      "center": {
        "lat": 12.8741177,
        "lon": 77.6196126
      },
      "tags": {
        "access": "permissive",
        "amenity": "parking",
        "parking": "surface"
      }
    },
    {
      "type": "way",
      "id": 1261422253,
      "center": {
        "lat": 12.8729515,
        "lon": 77.6180558
      },
      "tags": {
        "access": "permissive",
        "amenity": "parking",
        "parking": "surface"
      }
    },
    {
      "type": "way",
      "id": 1261422254,
      "center": {
        "lat": 12.873841,
        "lon": 77.6191139
      },
      "tags": {
        "access": "permissive",
        "amenity": "parking",
        "parking": "surface"
      }
    },
    {
      "type": "way",
      "id": 1261422255,
      "center": {
        "lat": 12.8738258,
        "lon": 77.6186517
      },
      "tags": {
        "access": "permissive",
        "amenity": "parking",
        "parking": "surface"
      }
    },
    {
      "type": "way",
      "id": 1261422256,
      "center": {
        "lat": 12.8739455,
        "lon": 77.6181705
      },
      "tags": {
        "access": "permissive",
        "amenity": "parking",
        "parking": "surface"
      }
    },
    {
      "type": "way",
      "id": 1261422257,
      "center": {
        "lat": 12.8739419,
        "lon": 77.6182965
      },
      "tags": {
        "access": "permissive",
        "amenity": "parking",
        "parking": "surface"
      }
    },
    {
      "type": "way",
      "id": 1261422258,
      "center": {
        "lat": 12.8741004,
        "lon": 77.6185584
      },
      "tags": {
        "access": "permissive",
        "amenity": "parking",
        "parking": "surface"
      }
    },
    {
      "type": "way",
      "id": 1261422259,
      "center": {
        "lat": 12.8741162,
        "lon": 77.6184594
      },
      "tags": {
        "access": "permissive",
        "amenity": "parking",
        "parking": "surface"
      }
    },
    {
      "type": "way",
      "id": 1261422262,
      "center": {
        "lat": 12.8751601,
        "lon": 77.6180915
      },
      "tags": {
        "leisure": "park"
      }
    },
    {
      "type": "way",
      "id": 1261422264,
      "center": {
        "lat": 12.8738176,
        "lon": 77.6215859
      },
      "tags": {
        "access": "private",
        "leisure": "swimming_pool"
      }
    },
    {
      "type": "way",
      "id": 1261422265,
      "center": {
        "lat": 12.8741149,
        "lon": 77.6215622
      },
      "tags": {
        "access": "private",
        "leisure": "pitch",
        "sport": "tennis"
      }
    },
    {
      "type": "way",
      "id": 1261422297,
      "center": {
        "lat": 12.8649265,
        "lon": 77.6212817
      },
      "tags": {
        "access": "private",
        "leisure": "pitch",
        "sport": "tennis"
      }
    },
    {
      "type": "way",
      "id": 1261422298,
      "center": {
        "lat": 12.8654443,
        "lon": 77.6203057
      },
      "tags": {
        "access": "private",
        "leisure": "swimming_pool"
      }
    },
    {
      "type": "way",
      "id": 1261422299,
      "center": {
        "lat": 12.8657402,
        "lon": 77.6204137
      },
      "tags": {
        "leisure": "park"
      }
    },
    {
      "type": "way",
      "id": 1261422313,
      "center": {
        "lat": 12.8685916,
        "lon": 77.6216155
      },
      "tags": {
        "amenity": "fuel"
      }
    },
    {
      "type": "way",
      "id": 1278704434,
      "center": {
        "lat": 12.8609843,
        "lon": 77.6178516
      },
      "tags": {
        "amenity": "school",
        "landuse": "education",
        "name": "St. Anthony's School"
      }
    },
    {
      "type": "way",
      "id": 1278704435,
      "center": {
        "lat": 12.8609888,
        "lon": 77.6182888
      },
      "tags": {
        "leisure": "pitch",
        "sport": "basketball"
      }
    },
    {
      "type": "way",
      "id": 1278704436,
      "center": {
        "lat": 12.8612739,
        "lon": 77.6178996
      },
      "tags": {
        "leisure": "garden"
      }
    },
    {
      "type": "way",
      "id": 1278704437,
      "center": {
        "lat": 12.8613582,
        "lon": 77.6174051
      },
      "tags": {
        "leisure": "garden"
      }
    },
    {
      "type": "way",
      "id": 1278704438,
      "center": {
        "lat": 12.8621404,
        "lon": 77.6145485
      },
      "tags": {
        "amenity": "fuel"
      }
    },
    {
      "type": "way",
      "id": 1278704445,
      "center": {
        "lat": 12.8623519,
        "lon": 77.6133656
      },
      "tags": {
        "access": "private",
        "leisure": "swimming_pool"
      }
    },
    {
      "type": "way",
      "id": 1278704450,
      "center": {
        "lat": 12.8620782,
        "lon": 77.6082187
      },
      "tags": {
        "leisure": "pitch",
        "sport": "basketball"
      }
    },
    {
      "type": "way",
      "id": 1278704452,
      "center": {
        "lat": 12.8613774,
        "lon": 77.6105029
      },
      "tags": {
        "leisure": "pitch",
        "sport": "soccer"
      }
    },
    {
      "type": "way",
      "id": 1278704453,
      "center": {
        "lat": 12.86164,
        "lon": 77.6106336
      },
      "tags": {
        "leisure": "swimming_pool"
      }
    },
    {
      "type": "way",
      "id": 1278704455,
      "center": {
        "lat": 12.8616551,
        "lon": 77.6103702
      },
      "tags": {
        "leisure": "pitch",
        "sport": "basketball"
      }
    },
    {
      "type": "way",
      "id": 1278704457,
      "center": {
        "lat": 12.8614136,
        "lon": 77.610613
      },
      "tags": {
        "amenity": "school",
        "landuse": "education",
        "name": "Chrysalis High School, Begur"
      }
    },
    {
      "type": "way",
      "id": 1278704466,
      "center": {
        "lat": 12.86284,
        "lon": 77.6108278
      },
      "tags": {
        "leisure": "garden"
      }
    },
    {
      "type": "way",
      "id": 1278704468,
      "center": {
        "lat": 12.8621724,
        "lon": 77.6114626
      },
      "tags": {
        "access": "permissive",
        "amenity": "parking",
        "parking": "surface"
      }
    },
    {
      "type": "way",
      "id": 1278704471,
      "center": {
        "lat": 12.8623324,
        "lon": 77.6110087
      },
      "tags": {
        "access": "permissive",
        "amenity": "parking",
        "parking": "surface"
      }
    },
    {
      "type": "way",
      "id": 1278704472,
      "center": {
        "lat": 12.862535,
        "lon": 77.6106883
      },
      "tags": {
        "access": "permissive",
        "amenity": "parking",
        "parking": "surface"
      }
    },
    {
      "type": "way",
      "id": 1278704473,
      "center": {
        "lat": 12.86269,
        "lon": 77.6104166
      },
      "tags": {
        "access": "permissive",
        "amenity": "parking",
        "parking": "surface"
      }
    },
    {
      "type": "way",
      "id": 1278704474,
      "center": {
        "lat": 12.8648861,
        "lon": 77.6111466
      },
      "tags": {
        "access": "permissive",
        "amenity": "parking",
        "parking": "surface"
      }
    },
    {
      "type": "way",
      "id": 1278704476,
      "center": {
        "lat": 12.8624829,
        "lon": 77.6122314
      },
      "tags": {
        "leisure": "garden"
      }
    },
    {
      "type": "way",
      "id": 1278704482,
      "center": {
        "lat": 12.8643621,
        "lon": 77.610841
      },
      "tags": {
        "leisure": "garden"
      }
    },
    {
      "type": "way",
      "id": 1278704484,
      "center": {
        "lat": 12.8651786,
        "lon": 77.6119319
      },
      "tags": {
        "leisure": "park"
      }
    },
    {
      "type": "way",
      "id": 1278704486,
      "center": {
        "lat": 12.8646223,
        "lon": 77.6116942
      },
      "tags": {
        "access": "permissive",
        "amenity": "parking",
        "parking": "surface"
      }
    },
    {
      "type": "way",
      "id": 1278704487,
      "center": {
        "lat": 12.8650509,
        "lon": 77.6112804
      },
      "tags": {
        "access": "permissive",
        "amenity": "parking",
        "parking": "surface"
      }
    },
    {
      "type": "way",
      "id": 1278704488,
      "center": {
        "lat": 12.8653015,
        "lon": 77.6098603
      },
      "tags": {
        "access": "permissive",
        "amenity": "parking",
        "parking": "surface"
      }
    },
    {
      "type": "way",
      "id": 1278704489,
      "center": {
        "lat": 12.8648094,
        "lon": 77.6098472
      },
      "tags": {
        "access": "permissive",
        "amenity": "parking",
        "parking": "surface"
      }
    },
    {
      "type": "way",
      "id": 1278704490,
      "center": {
        "lat": 12.8647993,
        "lon": 77.6097383
      },
      "tags": {
        "access": "permissive",
        "amenity": "parking",
        "parking": "surface"
      }
    },
    {
      "type": "way",
      "id": 1278704491,
      "center": {
        "lat": 12.8643908,
        "lon": 77.60942
      },
      "tags": {
        "leisure": "playground"
      }
    },
    {
      "type": "way",
      "id": 1278704492,
      "center": {
        "lat": 12.8621419,
        "lon": 77.613658
      },
      "tags": {
        "leisure": "garden"
      }
    },
    {
      "type": "way",
      "id": 1278704494,
      "center": {
        "lat": 12.8618675,
        "lon": 77.6133892
      },
      "tags": {
        "leisure": "garden"
      }
    },
    {
      "type": "way",
      "id": 1278704495,
      "center": {
        "lat": 12.8619554,
        "lon": 77.611931
      },
      "tags": {
        "leisure": "garden"
      }
    },
    {
      "type": "way",
      "id": 1278704496,
      "center": {
        "lat": 12.8645471,
        "lon": 77.6098944
      },
      "tags": {
        "leisure": "garden"
      }
    },
    {
      "type": "way",
      "id": 1278704497,
      "center": {
        "lat": 12.864569,
        "lon": 77.6101722
      },
      "tags": {
        "leisure": "garden"
      }
    },
    {
      "type": "way",
      "id": 1278704500,
      "center": {
        "lat": 12.8638136,
        "lon": 77.610748
      },
      "tags": {
        "access": "private",
        "leisure": "swimming_pool"
      }
    },
    {
      "type": "way",
      "id": 1278704516,
      "center": {
        "lat": 12.859447,
        "lon": 77.6144939
      },
      "tags": {
        "leisure": "playground"
      }
    },
    {
      "type": "way",
      "id": 1278704517,
      "center": {
        "lat": 12.8592561,
        "lon": 77.6146125
      },
      "tags": {
        "leisure": "pitch",
        "sport": "tennis"
      }
    },
    {
      "type": "way",
      "id": 1278735130,
      "center": {
        "lat": 12.8731388,
        "lon": 77.6114344
      },
      "tags": {
        "leisure": "park"
      }
    },
    {
      "type": "way",
      "id": 1278735131,
      "center": {
        "lat": 12.8736107,
        "lon": 77.6101363
      },
      "tags": {
        "leisure": "park"
      }
    },
    {
      "type": "way",
      "id": 1278735133,
      "center": {
        "lat": 12.8728443,
        "lon": 77.6100932
      },
      "tags": {
        "access": "private",
        "amenity": "parking",
        "parking": "surface"
      }
    },
    {
      "type": "way",
      "id": 1278735136,
      "center": {
        "lat": 12.8718507,
        "lon": 77.6107119
      },
      "tags": {
        "access": "private",
        "amenity": "parking",
        "parking": "surface"
      }
    },
    {
      "type": "way",
      "id": 1278735137,
      "center": {
        "lat": 12.8721542,
        "lon": 77.6098578
      },
      "tags": {
        "access": "private",
        "amenity": "parking",
        "parking": "surface"
      }
    },
    {
      "type": "way",
      "id": 1278735172,
      "center": {
        "lat": 12.8720791,
        "lon": 77.6100952
      },
      "tags": {
        "access": "private",
        "amenity": "parking",
        "parking": "surface"
      }
    },
    {
      "type": "way",
      "id": 1278735173,
      "center": {
        "lat": 12.872136,
        "lon": 77.6104534
      },
      "tags": {
        "access": "private",
        "amenity": "parking",
        "parking": "surface"
      }
    },
    {
      "type": "way",
      "id": 1278735174,
      "center": {
        "lat": 12.8722524,
        "lon": 77.6104313
      },
      "tags": {
        "access": "private",
        "amenity": "parking",
        "parking": "surface"
      }
    },
    {
      "type": "way",
      "id": 1278735177,
      "center": {
        "lat": 12.8743593,
        "lon": 77.6114726
      },
      "tags": {
        "leisure": "park"
      }
    },
    {
      "type": "way",
      "id": 1278735186,
      "center": {
        "lat": 12.8713264,
        "lon": 77.6103352
      },
      "tags": {
        "access": "private",
        "amenity": "parking",
        "parking": "surface"
      }
    },
    {
      "type": "way",
      "id": 1302261867,
      "center": {
        "lat": 12.8744351,
        "lon": 77.6191498
      },
      "tags": {
        "access": "permissive",
        "amenity": "parking",
        "parking": "surface"
      }
    },
    {
      "type": "way",
      "id": 1302261868,
      "center": {
        "lat": 12.873805,
        "lon": 77.6184492
      },
      "tags": {
        "access": "permissive",
        "amenity": "parking",
        "parking": "surface"
      }
    },
    {
      "type": "way",
      "id": 1302261869,
      "center": {
        "lat": 12.8733525,
        "lon": 77.6194617
      },
      "tags": {
        "access": "permissive",
        "amenity": "parking",
        "parking": "surface"
      }
    },
    {
      "type": "way",
      "id": 1302261870,
      "center": {
        "lat": 12.8738121,
        "lon": 77.6203488
      },
      "tags": {
        "access": "permissive",
        "amenity": "parking",
        "parking": "surface"
      }
    },
    {
      "type": "way",
      "id": 1302261871,
      "center": {
        "lat": 12.8737942,
        "lon": 77.6210813
      },
      "tags": {
        "access": "permissive",
        "amenity": "parking",
        "parking": "surface"
      }
    },
    {
      "type": "way",
      "id": 1417215356,
      "center": {
        "lat": 12.8608159,
        "lon": 77.6130828
      },
      "tags": {
        "addr:city": "Bangalore",
        "addr:housenumber": "51/2B & 51/3M",
        "addr:postcode": "560076",
        "addr:street": "Begur-Koppa Road",
        "amenity": "cafe",
        "building": "yes",
        "cuisine": "tea;coffee_shop;regional",
        "internet_access": "no",
        "name": "Sri Rangam Kafe",
        "opening_hours": "06:00-22:00",
        "outdoor_seating": "yes",
        "phone": "+917899316183"
      }
    }
  ]
}