{
  "area_name": "Yellukunte",
  "osm_id": 10632956835,
  "osm_type": "node",
  "place_type": "neighbourhood",
  "amenity_count": 409,
  "amenities": [
    {
      "type": "node",
      "id": 266472080,
      "lat": 12.9056265,
      "lon": 77.6487875,
      "tags": {
        "amenity": "post_box"
      }
    },
    {
      "type": "node",
      "id": 310393723,
      "lat": 12.9129006,
      "lon": 77.6419101,
      "tags": {
        "amenity": "hospital",
        "healthcare": "hospital",
        "name": "Dr Ganesh Medical and Diabetic Clinic",
        "name:kn": "ಡಾ ಗಣೇಶ್ ಮೆಡಿಕಲ್ ಮತ್ತು ಮಧುಮೇಹ ಆಸ್ಪತ್ರೆ"
      }
    },
    {
      "type": "node",
      "id": 1428116573,
      "lat": 12.9070833,
      "lon": 77.6351607,
      "tags": {
        "amenity": "bus_station",
        "name": "Mangammanapalya",
        "name:kn": "ಮಂಗಮ್ಮನ ಪಾಳ್ಯ"
      }
    },
    {
      "type": "node",
      "id": 1467831581,
      "lat": 12.9076312,
      "lon": 77.6492635,
      "tags": {
        "addr:district": "Bengaluru",
        "addr:postcode": "560102",
        "addr:street": "24th main hsr 2nd sector",
        "amenity": "pharmacy",
        "dispensing": "yes",
        "healthcare": "pharmacy",
        "name": "Sree Shakthi medicals"
      }
    },
    {
      "type": "node",
      "id": 1468161640,
      "lat": 12.908852,
      "lon": 77.6462728,
      "tags": {
        "addr:street": "22 cross Hsr2",
        "name": "GK Vale studio",
        "shop": "electronics"
      }
    },
    {
      "type": "node",
      "id": 1468245448,
      "lat": 12.9124281,
      "lon": 77.6395176,
      "tags": {
        "addr:street": "17 cross, Hsr3",
        "name": "Mom & Me",
        "shop": "baby_goods"
      }
    },
    {
      "type": "node",
      "id": 1468245829,
      "lat": 12.9123969,
      "lon": 77.6407671,
      "tags": {
        "amenity": "cafe",
        "name": "Coffee Bean"
      }
    },
    {
      "type": "node",
      "id": 1468246341,
      "lat": 12.9123516,
      "lon": 77.6411691,
      "tags": {
        "amenity": "bank",
        "brand": "HDFC Bank",
        "brand:wikidata": "Q631047",
        "brand:wikipedia": "en:HDFC Bank",
        "name": "HDFC Bank",
        "name:kn": "ಎಚ್ ಡಿ ಎಫ್ ಸಿ",
        "short_name": "HDFC"
      }
    },
    {
      "type": "node",
      "id": 1468908276,
      "lat": 12.9076284,
      "lon": 77.6493158,
      "tags": {
        "amenity": "clinic",
        "healthcare": "clinic",
        "name": "A K Clinic"
      }
    },
    {
      "type": "node",
      "id": 1468908281,
      "lat": 12.9081132,
      "lon": 77.6493238,
      "tags": {
        "addr:postcode": "560102",
        "addr:street": "24th main hsr 2nd sector",
        "amenity": "pharmacy",
        "brand": "Apollo Pharmacy",
        "brand:wikidata": "Q62562612",
        "dispensing": "yes",
        "healthcare": "pharmacy",
        "name": "Apollo Pharmacy",
        "name:kn": "ಅಪೋಲೋ ಫಾರ್ಮಸಿ"
      }
    },
    {
      "type": "node",
      "id": 1468908289,
      "lat": 12.9120524,
      "lon": 77.6379776,
      "tags": {
        "amenity": "restaurant",
        "name": "Jharoka",
        "name:kn": "ಜಾರೊಕ"
      }
    },
    {
      "type": "node",
      "id": 1468908294,
      "lat": 12.9121865,
      "lon": 77.6379811,
      "tags": {
        "addr:housenumber": "1",
        "amenity": "fast_food",
        "brand": "McDonald's",
        "brand:pa": "ਮੈਕਡੋਨਲਡ’ਜ਼",
        "brand:ur": "مکڈونلڈز",
        "brand:wikidata": "Q38076",
        "brand:wikipedia": "en:McDonald's",
        "brand:wikipedia:pa": "ਮੈਕਡੋਨਲਡ’ਜ਼",
        "brand:wikipedia:ur": "مکڈونلڈز",
        "check_date": "2025-04-04",
        "cuisine": "burger",
        "indoor_seating": "yes",
        "name": "McDonald's",
        "name:kn": "ಮ್ಯಾಕ್‌ಡೊನಾಲ್ಡ್ಸ್",
        "name:pa": "ਮੈਕਡੋਨਲਡ’ਜ਼",
        "name:ur": "مکڈونلڈز",
        "outdoor_seating": "no",
        "payment:cash": "yes",
        "payment:mastercard": "yes",
        "payment:visa": "yes",
        "takeaway": "yes",
        "website": "https://www.mcdonaldsindia.com/"
      }
    },
    {
      "type": "node",
      "id": 1468908295,
      "lat": 12.9071172,
      "lon": 77.6491754,
      "tags": {
        "addr:postcode": "560102",
        "addr:street": "24th main hsr 2nd sector",
        "amenity": "pharmacy",
        "brand": "MedPlus",
        "brand:wikidata": "Q65684234",
        "dispensing": "yes",
        "healthcare": "pharmacy",
        "name": "MedPlus",
        "name:kn": "ಮೆಡ್‍ಪ್ಲಸ್"
      }
    },
    {
      "type": "node",
      "id": 1468908300,
      "lat": 12.9075992,
      "lon": 77.6488507,
      "tags": {
        "amenity": "hospital",
        "name": "health nest"
      }
    },
    {
      "type": "node",
      "id": 1468908328,
      "lat": 12.9044398,
      "lon": 77.649016,
      "tags": {
        "shop": "supermarket"
      }
    },
    {
      "type": "node",
      "id": 1470755128,
      "lat": 12.907194,
      "lon": 77.649038,
      "tags": {
        "amenity": "place_of_worship",
        "name": "Sri Mariyamma Temple",
        "name:kn": "ಮಾರಿಯಮ್ಮ ದೇವಸ್ಥಾನ",
        "religion": "hindu"
      }
    },
    {
      "type": "node",
      "id": 1470757461,
      "lat": 12.911884,
      "lon": 77.6379067,
      "tags": {
        "amenity": "atm",
        "brand": "IndusInd Bank",
        "brand:wikidata": "Q2040323",
        "name": "IndusInd Bank",
        "name:kn": "ಇಂಡಸ್ಇಂಡ್",
        "operator": "IndusInd Bank",
        "operator:wikidata": "Q2040323"
      }
    },
    {
      "type": "node",
      "id": 1470827521,
      "lat": 12.910865,
      "lon": 77.637973,
      "tags": {
        "amenity": "atm"
      }
    },
    {
      "type": "node",
      "id": 1472025798,
      "lat": 12.8987945,
      "lon": 77.6344561,
      "tags": {
        "brand": "Toyota",
        "brand:wikidata": "Q53268",
        "name": "Toyota Used Cars",
        "shop": "car"
      }
    },
    {
      "type": "node",
      "id": 1539242287,
      "lat": 12.911762,
      "lon": 77.637224,
      "tags": {
        "addr:housenumber": "31",
        "addr:street": "12th Main,18th Cross",
        "amenity": "kindergarten",
        "description": "Montessori School",
        "name": "Joy Of Learning"
      }
    },
    {
      "type": "node",
      "id": 1666879095,
      "lat": 12.9048437,
      "lon": 77.6445035,
      "tags": {
        "addr:street": "19th Main",
        "amenity": "pharmacy",
        "brand": "Apollo Pharmacy",
        "brand:wikidata": "Q62562612",
        "healthcare": "pharmacy",
        "name": "Apollo Pharmacy",
        "name:kn": "ಅಪೋಲೋ ಫಾರ್ಮಸಿ"
      }
    },
    {
      "type": "node",
      "id": 1835512586,
      "lat": 12.9074968,
      "lon": 77.6492213,
      "tags": {
        "amenity": "hospital",
        "name": "Cure & Care Dental Clinic Dr. Moumita Mukherjee"
      }
    },
    {
      "type": "node",
      "id": 2387041604,
      "lat": 12.8985271,
      "lon": 77.6448289,
      "tags": {
        "amenity": "atm",
        "brand": "HDFC Bank",
        "brand:wikidata": "Q631047",
        "brand:wikipedia": "en:HDFC Bank",
        "name": "HDFC Bank",
        "name:kn": "ಎಚ್ ಡಿ ಎಫ್ ಸಿ",
        "operator": "HDFC Bank",
        "operator:wikidata": "Q631047",
        "operator:wikipedia": "en:HDFC Bank",
        "short_name": "HDFC"
      }
    },
    {
      "type": "node",
      "id": 2387041605,
      "lat": 12.8972303,
      "lon": 77.6459233,
      "tags": {
        "amenity": "atm",
        "brand": "Canara Bank",
        "brand:en": "Canara Bank",
        "brand:hi": "केनरा बैंक",
        "brand:kn": "ಕೆನರಾ ಬ್ಯಾಂಕ್",
        "brand:pa": "ਕੇਨਰਾ ਬੈਂਕ",
        "brand:pnb": "کینرا بینک",
        "brand:ur": "کینرا بینک",
        "brand:wikidata": "Q2003777",
        "brand:wikipedia": "en:Canara Bank",
        "name": "Canara Bank",
        "name:en": "Canara Bank",
        "name:hi": "केनरा बैंक",
        "name:kn": "ಕೆನರಾ ಬ್ಯಾಂಕ್",
        "name:pa": "ਕੇਨਰਾ ਬੈਂਕ",
        "name:pnb": "کینرا بینک",
        "name:ur": "کینرا بینک",
        "operator": "Canara Bank",
        "operator:wikidata": "Q2003777",
        "operator:wikipedia": "en:Canara Bank"
      }
    },
    {
      "type": "node",
      "id": 2387041695,
      "lat": 12.9043833,
      "lon": 77.6455159,
      "tags": {
        "amenity": "atm",
        "brand": "ICICI Bank",
        "brand:wikidata": "Q1653258",
        "operator": "ICICI Bank",
        "operator:wikidata": "Q1653258",
        "short_name": "ICICI"
      }
    },
    {
      "type": "node",
      "id": 2387044171,
      "lat": 12.9051894,
      "lon": 77.6396903,
      "tags": {
        "amenity": "atm",
        "brand": "HDFC Bank",
        "brand:wikidata": "Q631047",
        "currency:INR": "yes",
        "name": "HDFC Bank ATM",
        "name:kn": "ಎಚ್. ಡಿ. ಎಫ್. ಸಿ..",
        "operator": "HDFC Bank",
        "operator:wikidata": "Q631047",
        "short_name": "HDFC"
      }
    },
    {
      "type": "node",
      "id": 2387044401,
      "lat": 12.9056019,
      "lon": 77.6444964,
      "tags": {
        "amenity": "fast_food",
        "name": "Veg Sagar"
      }
    },
    {
      "type": "node",
      "id": 2387044405,
      "lat": 12.9063471,
      "lon": 77.6445546,
      "tags": {
        "name": "Grand Supermarket",
        "shop": "supermarket"
      }
    },
    {
      "type": "node",
      "id": 2387539920,
      "lat": 12.911687,
      "lon": 77.6441212,
      "tags": {
        "brand": "Reliance Digital",
        "brand:wikidata": "Q7311012",
        "name": "Reliance Digital",
        "shop": "electronics"
      }
    },
    {
      "type": "node",
      "id": 2447845734,
      "lat": 12.9071046,
      "lon": 77.6332641,
      "tags": {
        "access": "private",
        "covered": "no",
        "leisure": "swimming_pool",
        "length": "15",
        "lit": "yes",
        "location": "outdoor",
        "sport": "swimming",
        "swimming_pool": "outdoor"
      }
    },
    {
      "type": "node",
      "id": 2620621562,
      "lat": 12.912293,
      "lon": 77.6442094,
      "tags": {
        "check_date": "2023-10-08",
        "name": "KidZone",
        "shop": "baby_goods"
      }
    },
    {
      "type": "node",
      "id": 3198606756,
      "lat": 12.9122107,
      "lon": 77.6377107,
      "tags": {
        "addr:street": "17th Cross",
        "amenity": "restaurant",
        "brand": "Pizza Hut",
        "brand:wikidata": "Q191615",
        "brand:wikipedia": "en:Pizza Hut",
        "check_date": "2025-04-04",
        "cuisine": "pizza",
        "name": "Pizza Hut",
        "name:kn": "ಪಿಟ್ಸ ಹಟ್",
        "payment:cash": "yes",
        "payment:mastercard": "yes",
        "payment:visa": "yes",
        "smoking": "no"
      }
    },
    {
      "type": "node",
      "id": 3198609226,
      "lat": 12.9122576,
      "lon": 77.6375965,
      "tags": {
        "amenity": "restaurant",
        "capacity": "30",
        "cuisine": "italian",
        "name": "Calvins"
      }
    },
    {
      "type": "node",
      "id": 3300149440,
      "lat": 12.9127356,
      "lon": 77.6380054,
      "tags": {
        "amenity": "bus_station",
        "bus": "yes",
        "name": "HSR Layout",
        "public_transport": "station"
      }
    },
    {
      "type": "node",
      "id": 3304204495,
      "lat": 12.9110059,
      "lon": 77.6444953,
      "tags": {
        "amenity": "restaurant",
        "name": "Nandini Cool Joint"
      }
    },
    {
      "type": "node",
      "id": 4377707481,
      "lat": 12.9083472,
      "lon": 77.6446906,
      "tags": {
        "name": "Aishwarya Supermarket",
        "shop": "supermarket",
        "wheelchair": "no"
      }
    },
    {
      "type": "node",
      "id": 4377707482,
      "lat": 12.9050379,
      "lon": 77.6436802,
      "tags": {
        "name": "Kaveri's Honey Pot",
        "shop": "alcohol"
      }
    },
    {
      "type": "node",
      "id": 4377718282,
      "lat": 12.9046749,
      "lon": 77.6406296,
      "tags": {
        "amenity": "place_of_worship",
        "name": "Shiva Temple",
        "name:kn": "ಶಿವ ದೇವಸ್ಥಾನ",
        "religion": "hindu"
      }
    },
    {
      "type": "node",
      "id": 4377718283,
      "lat": 12.9048595,
      "lon": 77.6403067,
      "tags": {
        "amenity": "place_of_worship",
        "name": "Ayyappa Temple",
        "name:kn": "ಅಯ್ಯಪ್ಪ ದೇವಸ್ಥಾನ",
        "religion": "hindu"
      }
    },
    {
      "type": "node",
      "id": 4377718285,
      "lat": 12.9051847,
      "lon": 77.6397082,
      "tags": {
        "amenity": "atm",
        "brand": "Canara Bank",
        "brand:en": "Canara Bank",
        "brand:hi": "केनरा बैंक",
        "brand:kn": "ಕೆನರಾ ಬ್ಯಾಂಕ್",
        "brand:pa": "ਕੇਨਰਾ ਬੈਂਕ",
        "brand:pnb": "کینرا بینک",
        "brand:ur": "کینرا بینک",
        "brand:wikidata": "Q2003777",
        "currency:INR": "yes",
        "name": "Canara Bank ATM",
        "name:en": "Canara Bank",
        "name:hi": "केनरा बैंक",
        "name:kn": "ಕೆನರಾ ಬ್ಯಾಂಕ್",
        "name:pa": "ਕੇਨਰਾ ਬੈਂਕ",
        "name:pnb": "کینرا بینک",
        "name:ur": "کینرا بینک",
        "operator": "Canara Bank",
        "operator:wikidata": "Q2003777"
      }
    },
    {
      "type": "node",
      "id": 4377718286,
      "lat": 12.9051881,
      "lon": 77.6397329,
      "tags": {
        "shop": "hardware"
      }
    },
    {
      "type": "node",
      "id": 4377743080,
      "lat": 12.9056484,
      "lon": 77.6414765,
      "tags": {
        "addr:place": "Yellukunte",
        "amenity": "school",
        "isced:level": "2",
        "name": "GHPS Yellukunte",
        "name:kn": "ಸರ್ಕಾರಿ ಹಿರಿಯ ಪ್ರಾಥಮಿಕ ಶಾಲೆ ಯಳ್ಳುಕುಂಟೆ",
        "operator": "Department of Primary and Secondary Education",
        "operator:type": "government",
        "operator:wikidata": "Q111467381",
        "school": "primary"
      }
    },
    {
      "type": "node",
      "id": 4444433725,
      "lat": 12.9120592,
      "lon": 77.637908,
      "tags": {
        "addr:city": "Bangalore",
        "addr:housenumber": "14",
        "addr:postcode": "560102",
        "addr:street": "17th Cross, Sector 7, HSR Layout, Bengaluru",
        "amenity": "restaurant",
        "cuisine": "regional",
        "delivery": "yes",
        "name": "Earth Plate",
        "opening_hours": "12:00-15:30, 19:00-23:00",
        "phone": "+91 80 2572 4114",
        "smoking": "no",
        "takeaway": "yes",
        "website": "www.earthplate.net"
      }
    },
    {
      "type": "node",
      "id": 4445101752,
      "lat": 12.9118274,
      "lon": 77.6384331,
      "tags": {
        "addr:city": "Bangalore",
        "addr:housenumber": "1082",
        "addr:postcode": "560102",
        "addr:street": "18th Cross, 3rd Sector, HSR",
        "amenity": "restaurant",
        "check_date": "2024-06-15",
        "cuisine": "regional",
        "delivery": "yes",
        "name": "The Punjabi Rasoi",
        "opening_hours": "11:30- 23:30",
        "phone": "080 25720999",
        "smoking": "no",
        "takeaway": "yes"
      }
    },
    {
      "type": "node",
      "id": 4445372309,
      "lat": 12.911789,
      "lon": 77.6432674,
      "tags": {
        "addr:city": "Bangalore",
        "addr:housenumber": "17",
        "addr:postcode": "560102",
        "addr:street": "18th Cross Road, Near Reliance Digital, Sector 3, HSR layout",
        "amenity": "restaurant",
        "cuisine": "regional",
        "delivery": "yes",
        "diet:vegetarian": "yes",
        "name": "Helloo Delhi",
        "opening_hours": "09:00-11:00,12:00-15:30,19:00-22:30",
        "phone": "+91 80 6535 1717;+91 80 6535 1818",
        "smoking": "no",
        "takeaway": "yes"
      }
    },
    {
      "type": "node",
      "id": 4472318420,
      "lat": 12.9081741,
      "lon": 77.6368327,
      "tags": {
        "amenity": "police"
      }
    },
    {
      "type": "node",
      "id": 4487296403,
      "lat": 12.908209,
      "lon": 77.6476635,
      "tags": {
        "addr:city": "Bangalore",
        "addr:housenumber": "434",
        "addr:postcode": "560102",
        "addr:street": "23rd Main Road",
        "brand": "Adidas",
        "brand:wikidata": "Q3895",
        "name": "Adidas",
        "name:kn": "ಅಡಿಡಾಸ್",
        "phone": "080 4218 8322",
        "shop": "sports",
        "website": "https://www.adidas.co.in/"
      }
    },
    {
      "type": "node",
      "id": 4487976019,
      "lat": 12.8987251,
      "lon": 77.6393218,
      "tags": {
        "addr:city": "bangalore",
        "addr:postcode": "560063",
        "addr:street": "194/1, Muneshwara Nagar, Behind Mmn Complex, Kattigenahalli Gate, Muneshwara Nagar, Hosapalaya, Garvebhavi Palya",
        "amenity": "pharmacy",
        "healthcare": "pharmacy",
        "name": "Yeshakeerthi Chemicals",
        "phone": "080 2847 8345"
      }
    },
    {
      "type": "node",
      "id": 4488493977,
      "lat": 12.9064269,
      "lon": 77.6376404,
      "tags": {
        "addr:city": "Bengaluru",
        "addr:housenumber": "31, 27th Cross Rd",
        "addr:postcode": "560068",
        "addr:street": "Sector 3, Mangammanapalya",
        "leisure": "sports_centre",
        "name": "fitness fury",
        "opening_hours": "5:30-22:00",
        "phone": "9900133877",
        "sport": "gymnastics"
      }
    },
    {
      "type": "node",
      "id": 4489723448,
      "lat": 12.9082273,
      "lon": 77.6477342,
      "tags": {
        "addr:housenumber": "2nd Floo",
        "addr:street": "Bhaskar Reddy Building, Somasundrapalya Junction, HSR Layout 2nd, HSR Layout, 2nd Sector,, Garden Layout, Sector 2, HSR Layout, Bengaluru",
        "leisure": "sports_centre",
        "name": "Nextgen Fitness",
        "phone": "8041647071",
        "sport": "gymnasium",
        "website": "nextgenfitness.in"
      }
    },
    {
      "type": "node",
      "id": 4489833295,
      "lat": 12.9117839,
      "lon": 77.6434056,
      "tags": {
        "addr:city": "Bangalore",
        "addr:housenumber": "Bhagyalakshmi Square, 3rd Floor, 18th Cross",
        "addr:postcode": "560102",
        "addr:street": "17th Cross",
        "name": "Kimera Wellness Spa And Salon",
        "opening_hours": "10:00-21:00",
        "phone": "9740538447",
        "shop": "beauty"
      }
    },
    {
      "type": "node",
      "id": 4489875036,
      "lat": 12.9078244,
      "lon": 77.6447689,
      "tags": {
        "addr:city": "bangalore",
        "addr:housenumber": "No.806,Pgr Tower, 19th Main, Hsr Layout Sector 2,",
        "addr:postcode": "560102",
        "addr:street": "Hsr Layout Sector 2",
        "name": "Magic Hands",
        "opening_hours": "07:30-21:00",
        "phone": "080-33640908",
        "shop": "beauty"
      }
    },
    {
      "type": "node",
      "id": 4490440587,
      "lat": 12.9084733,
      "lon": 77.6357946,
      "tags": {
        "addr:city": "Bangalore",
        "addr:housenumber": "141",
        "addr:postcode": "560035",
        "addr:street": "41/A, 1st floor, B.D.A complex, H.S.R. Layout, Sector 7, HSR Layout,",
        "leisure": "sports_centre",
        "name": "Snap Fitness",
        "opening_hours": "5:00-23:00",
        "phone": "8025727454",
        "sport": "gymnasium",
        "website": "snapfitnessindia.com"
      }
    },
    {
      "type": "node",
      "id": 4811658521,
      "lat": 12.9038932,
      "lon": 77.6415555,
      "tags": {
        "amenity": "atm",
        "tourism": "hotel"
      }
    },
    {
      "type": "node",
      "id": 5198846422,
      "lat": 12.9118942,
      "lon": 77.6391649,
      "tags": {
        "amenity": "bar",
        "internet_access": "wlan",
        "name": "House of Commons Rest-o-bar",
        "name:en": "House of Commons Rest-o-bar",
        "phone": "+918045128604"
      }
    },
    {
      "type": "node",
      "id": 5265660303,
      "lat": 12.9117442,
      "lon": 77.6440855,
      "tags": {
        "leisure": "fitness_centre",
        "name": "Snap fitness GYM"
      }
    },
    {
      "type": "node",
      "id": 5824776414,
      "lat": 12.9124456,
      "lon": 77.6415145,
      "tags": {
        "addr:city": "Bangalore",
        "addr:housenumber": "No. 451",
        "addr:postcode": "560102",
        "addr:street": "17th Cross Road",
        "amenity": "cafe",
        "branch": "HSR Layout",
        "brand": "Cafe Coffee Day",
        "brand:wikidata": "Q5017235",
        "brand:wikipedia": "en:Café Coffee Day",
        "cuisine": "coffee_shop",
        "level": "0",
        "name": "Cafe Coffee Day",
        "name:kn": "ಕಫೆ ಕಾಫಿ ಡೇ",
        "opening_hours": "Mo-Su 09:00-23:30",
        "payment:cash": "yes",
        "payment:credit_cards": "yes",
        "payment:debit_cards": "yes",
        "takeaway": "yes",
        "website": "https://www.cafecoffeeday.com/"
      }
    },
    {
      "type": "node",
      "id": 5840922366,
      "lat": 12.912357,
      "lon": 77.6429444,
      "tags": {
        "name": "Grocery Market",
        "shop": "department_store"
      }
    },
    {
      "type": "node",
      "id": 5961262331,
      "lat": 12.9124823,
      "lon": 77.6386317,
      "tags": {
        "amenity": "ice_cream",
        "check_date": "2024-07-28",
        "name": "Cream and Stone",
        "payment:cash": "yes",
        "payment:credit_cards": "yes",
        "payment:debit_cards": "yes",
        "source": "survey",
        "takeaway": "yes"
      }
    },
    {
      "type": "node",
      "id": 5961264219,
      "lat": 12.9124277,
      "lon": 77.6387009,
      "tags": {
        "amenity": "bank",
        "brand": "Yes Bank",
        "brand:wikidata": "Q2040394",
        "brand:wikipedia": "en:Yes Bank",
        "name": "Yes Bank",
        "name:kn": "ಯಸ್ ಬ್ಯಾಂಕ್"
      }
    },
    {
      "type": "node",
      "id": 6204918826,
      "lat": 12.9123124,
      "lon": 77.6444415,
      "tags": {
        "amenity": "coworking_space",
        "name": "Workshala"
      }
    },
    {
      "type": "node",
      "id": 6349546960,
      "lat": 12.9042134,
      "lon": 77.6350512,
      "tags": {
        "addr:place": "Mangammana Palya",
        "amenity": "school",
        "isced:level": "2",
        "name": "GUHPS Mangammana Palya",
        "name:kn": "ಸರ್ಕಾರಿ ಉರ್ದು ಹಿರಿಯ ಪ್ರಾಥಮಿಕ ಶಾಲೆ ಮಂಗಮ್ಮನ ಪಾಳ್ಯ",
        "operator": "Department of Primary and Secondary Education",
        "operator:type": "government",
        "operator:wikidata": "Q111467381",
        "school": "primary"
      }
    },
    {
      "type": "node",
      "id": 6422577408,
      "lat": 12.9050686,
      "lon": 77.6351798,
      "tags": {
        "addr:place": "Bommanahalli",
        "amenity": "school",
        "isced:level": "3",
        "name": "Al Rahi Edu Sch Bommanahalli",
        "name:kn": "ಅಲ್ ರಹಿ ಎಜುಕೇಶನ್ ಶಾಲೆ,ಬೊಮ್ಮನಹಳ್ಳಿ",
        "operator": "Private Un-Aided",
        "school": "Higher Secondary"
      }
    },
    {
      "type": "node",
      "id": 6437780198,
      "lat": 12.9013007,
      "lon": 77.6363305,
      "tags": {
        "addr:place": "BommanaHalli Cmc",
        "amenity": "school",
        "isced:level": "2",
        "name": "Tilak English School, Bommana Halli Cmc",
        "name:kn": "ತಿಲಕ್ ಆಂಗ್ಲ ಶಾಲೆ, ಬೊಮ್ಮನಹಳ್ಳಿ ಸಿ.ಎಂ.ಸಿ",
        "operator": "Private Un-Aided",
        "school": "Higher Primary"
      }
    },
    {
      "type": "node",
      "id": 6494534450,
      "lat": 12.9066837,
      "lon": 77.6354232,
      "tags": {
        "addr:place": "Ellikunate",
        "amenity": "school",
        "isced:level": "3",
        "name": "Newton Public School",
        "name:kn": "ನ್ಯೂಟನ್ ಪಬ್ಲಿಕ್ ಶಾಲೆ,ಎಳ್ಳುಕುಂಟೆ",
        "operator": "Private Un-Aided",
        "school": "Higher Secondary"
      }
    },
    {
      "type": "node",
      "id": 6494721727,
      "lat": 12.9000115,
      "lon": 77.6452749,
      "tags": {
        "addr:place": "Ellikunate",
        "amenity": "school",
        "isced:level": "3",
        "name": "New Madar Teresa",
        "name:kn": "ಹೊಸ ಮದರ್ ತೆರೇಸಾ, ಎಳ್ಳುಕುಂಟೆ",
        "operator": "Private Un-Aided",
        "school": "Higher Secondary"
      }
    },
    {
      "type": "node",
      "id": 6494851124,
      "lat": 12.9102228,
      "lon": 77.6357046,
      "tags": {
        "addr:place": "Ellikunate",
        "amenity": "school",
        "isced:level": "3",
        "name": "EHPS Baldwin School",
        "name:kn": "ಬಾಲ್ಡ್ವಿನ್ ಆಂಗ್ಲ ಹಿರಿಯ ಪ್ರಾಥಮಿಕ ಶಾಲೆ,ಎಳ್ಳುಕುಂಟೆ",
        "operator": "Private Un-Aided",
        "school": "Higher Secondary"
      }
    },
    {
      "type": "node",
      "id": 6601884724,
      "lat": 12.9116699,
      "lon": 77.643421,
      "tags": {
        "amenity": "restaurant",
        "name": "Udaan"
      }
    },
    {
      "type": "node",
      "id": 6782785279,
      "lat": 12.9123832,
      "lon": 77.6377162,
      "tags": {
        "amenity": "bicycle_rental",
        "bicycle_rental": "dropoff_point",
        "brand": "Yulu",
        "brand:wikidata": "Q104871276",
        "brand:wikipedia": "en:Yulu (transportation company)",
        "name": "Yulu Zone",
        "network": "Yulu",
        "network:wikidata": "Q104871276",
        "network:wikipedia": "en:Yulu (transportation company)",
        "operator": "Yulu"
      }
    },
    {
      "type": "node",
      "id": 6782802496,
      "lat": 12.9121766,
      "lon": 77.6368606,
      "tags": {
        "amenity": "pub",
        "check_date": "2024-01-21",
        "craft": "brewery",
        "microbrewery": "yes",
        "name": "Brother Barley Brewing Company",
        "opening_hours": "12:00-01:00"
      }
    },
    {
      "type": "node",
      "id": 6959716598,
      "lat": 12.9121078,
      "lon": 77.6379727,
      "tags": {
        "addr:street": "HSR Layout",
        "air_conditioning": "yes",
        "amenity": "restaurant",
        "indoor_seating": "yes",
        "name": "Dindigul Thalapakkatti",
        "outdoor_seating": "no"
      }
    },
    {
      "type": "node",
      "id": 7085465358,
      "lat": 12.9123452,
      "lon": 77.6425923,
      "tags": {
        "air_conditioning": "yes",
        "amenity": "restaurant",
        "diet:vegetarian": "yes",
        "indoor_seating": "yes",
        "name": "Rebarbiq",
        "outdoor_seating": "no",
        "smoking": "no"
      }
    },
    {
      "type": "node",
      "id": 7118976618,
      "lat": 12.9109556,
      "lon": 77.6398824,
      "tags": {
        "amenity": "place_of_worship",
        "name": "Buddha Yoga Mandir",
        "religion": "buddhist"
      }
    },
    {
      "type": "node",
      "id": 9649527840,
      "lat": 12.9119001,
      "lon": 77.6382861,
      "tags": {
        "amenity": "fast_food",
        "brand": "Burger King",
        "brand:wikidata": "Q177054",
        "cuisine": "burger",
        "name": "Burger King",
        "name:kn": "ಬರ್ಗರ್ ಕಿಂಗ್",
        "takeaway": "yes"
      }
    },
    {
      "type": "node",
      "id": 9649527841,
      "lat": 12.9121563,
      "lon": 77.6378046,
      "tags": {
        "air_conditioning": "yes",
        "amenity": "fast_food",
        "brand": "Popeyes",
        "brand:wikidata": "Q1330910",
        "brand:wikipedia": "en:Popeyes",
        "check_date": "2025-04-04",
        "cuisine": "chicken",
        "delivery": "yes",
        "indoor_seating": "yes",
        "name": "Popeyes",
        "official_name": "Popeyes Louisiana Kitchen",
        "outdoor_seating": "no",
        "payment:cash": "yes",
        "payment:mastercard": "yes",
        "payment:visa": "yes",
        "smoking": "no",
        "takeaway": "yes",
        "website": "https://www.popeyes.in/"
      }
    },
    {
      "type": "node",
      "id": 9649527842,
      "lat": 12.9127406,
      "lon": 77.6445048,
      "tags": {
        "amenity": "cafe",
        "check_date": "2024-07-28",
        "indoor_seating": "yes",
        "name": "The Pet People Cafe",
        "outdoor_seating": "no",
        "payment:cash": "yes",
        "payment:credit_cards": "yes",
        "payment:debit_cards": "yes",
        "wheelchair": "no"
      }
    },
    {
      "type": "node",
      "id": 9833630902,
      "lat": 12.9117875,
      "lon": 77.6437931,
      "tags": {
        "amenity": "restaurant",
        "name": "Leon Grill"
      }
    },
    {
      "type": "node",
      "id": 9833630907,
      "lat": 12.9115857,
      "lon": 77.6379397,
      "tags": {
        "air_conditioning": "yes",
        "amenity": "cafe",
        "brand": "Chai Point",
        "brand:wikidata": "Q28173415",
        "cuisine": "coffee_shop",
        "indoor_seating": "yes",
        "name": "Chai Point",
        "outdoor_seating": "no",
        "takeaway": "yes"
      }
    },
    {
      "type": "node",
      "id": 9858668174,
      "lat": 12.912121,
      "lon": 77.6384617,
      "tags": {
        "name": "Nandini",
        "shop": "dairy"
      }
    },
    {
      "type": "node",
      "id": 9904108239,
      "lat": 12.91304,
      "lon": 77.6444457,
      "tags": {
        "name": "MP Jewellers",
        "shop": "jewelry"
      }
    },
    {
      "type": "node",
      "id": 10066854609,
      "lat": 12.9115492,
      "lon": 77.6418354,
      "tags": {
        "brand": "cult.fit",
        "brand:wikidata": "Q121289250",
        "leisure": "fitness_centre",
        "name": "cult.fit"
      }
    },
    {
      "type": "node",
      "id": 10066902933,
      "lat": 12.9124528,
      "lon": 77.6386588,
      "tags": {
        "amenity": "restaurant",
        "name": "Mirchi Maharaj"
      }
    },
    {
      "type": "node",
      "id": 10066902934,
      "lat": 12.912439,
      "lon": 77.6385262,
      "tags": {
        "amenity": "fast_food",
        "cuisine": "ice_cream;juice"
      }
    },
    {
      "type": "node",
      "id": 10066902935,
      "lat": 12.9118525,
      "lon": 77.6379087,
      "tags": {
        "amenity": "restaurant",
        "name": "Once Upon a Flame"
      }
    },
    {
      "type": "node",
      "id": 10066902936,
      "lat": 12.9118171,
      "lon": 77.6379135,
      "tags": {
        "amenity": "fast_food",
        "brand": "Subway",
        "brand:wikidata": "Q244457",
        "cuisine": "sandwich",
        "name": "Subway",
        "takeaway": "yes"
      }
    },
    {
      "type": "node",
      "id": 10066902937,
      "lat": 12.9118695,
      "lon": 77.6379593,
      "tags": {
        "addr:floor": "0",
        "addr:housenumber": "36",
        "addr:street": "14th Main Road",
        "amenity": "fast_food",
        "brand": "Samosa Party",
        "brand:wikidata": "Q65684234",
        "check_date": "2023-09-21",
        "contact:instagram": "https://www.instagram.com/samosaparty",
        "cuisine": "samosa",
        "dispensing": "yes",
        "healthcare": "pharmacy",
        "level": "0",
        "name": "Samosa Party",
        "note": "MedPlus store until mid-2023",
        "website": "https://www.samosaparty.in/"
      }
    },
    {
      "type": "node",
      "id": 10066902938,
      "lat": 12.9114499,
      "lon": 77.637948,
      "tags": {
        "amenity": "ice_cream",
        "indoor_seating": "yes",
        "name": "Giani",
        "outdoor_seating": "no"
      }
    },
    {
      "type": "node",
      "id": 10066902939,
      "lat": 12.9113877,
      "lon": 77.6379555,
      "tags": {
        "brand": "Theobroma",
        "delivery": "yes",
        "name": "Theobroma",
        "shop": "pastry",
        "takeaway": "yes",
        "wheelchair": "no"
      }
    },
    {
      "type": "node",
      "id": 10066902940,
      "lat": 12.9113914,
      "lon": 77.6378892,
      "tags": {
        "amenity": "restaurant",
        "name": "Gustom"
      }
    },
    {
      "type": "node",
      "id": 10066902941,
      "lat": 12.9107043,
      "lon": 77.6379155,
      "tags": {
        "amenity": "ice_cream",
        "brand": "Naturals",
        "brand:wikidata": "Q24439154",
        "cuisine": "ice_cream",
        "indoor_seating": "yes",
        "name": "Naturals",
        "outdoor_seating": "no"
      }
    },
    {
      "type": "node",
      "id": 10066902942,
      "lat": 12.9105761,
      "lon": 77.6379155,
      "tags": {
        "air_conditioning": "yes",
        "amenity": "restaurant",
        "brand": "California Burrito",
        "brand:wikidata": "Q124374596",
        "cuisine": "mexican",
        "diet:vegetarian": "yes",
        "indoor_seating": "yes",
        "name": "California Burrito",
        "outdoor_seating": "no",
        "wheelchair": "no"
      }
    },
    {
      "type": "node",
      "id": 10066902943,
      "lat": 12.9112437,
      "lon": 77.6382585,
      "tags": {
        "name": "For Gods Sake",
        "shop": "bakery"
      }
    },
    {
      "type": "node",
      "id": 10066902995,
      "lat": 12.9092069,
      "lon": 77.6383155,
      "tags": {
        "amenity": "restaurant",
        "cuisine": "biryani;karnataka;regional;indian",
        "name": "Donne Biryani House",
        "wheelchair": "no"
      }
    },
    {
      "type": "node",
      "id": 10066903000,
      "lat": 12.9092252,
      "lon": 77.6384705,
      "tags": {
        "name": "Iyengar Bakery",
        "name:kn": "ಐಯ್ಯಂಗಾರ್ ಬೇಕರಿ",
        "shop": "bakery",
        "wheelchair": "no"
      }
    },
    {
      "type": "node",
      "id": 10066903001,
      "lat": 12.9094215,
      "lon": 77.6384908,
      "tags": {
        "name": "Itsy Bitsy",
        "shop": "craft"
      }
    },
    {
      "type": "node",
      "id": 10066903002,
      "lat": 12.909461,
      "lon": 77.6386269,
      "tags": {
        "amenity": "restaurant",
        "cuisine": "chinese",
        "name": "Chinese Wok"
      }
    },
    {
      "type": "node",
      "id": 10066903003,
      "lat": 12.9094243,
      "lon": 77.6386255,
      "tags": {
        "amenity": "restaurant",
        "brand": "Daily Sushi",
        "brand:wikidata": "Q124374644",
        "cuisine": "asian",
        "delivery": "yes",
        "name": "Daily Sushi",
        "takeaway": "yes"
      }
    },
    {
      "type": "node",
      "id": 10066903029,
      "lat": 12.9091843,
      "lon": 77.6401913,
      "tags": {
        "amenity": "cafe",
        "name": "Hebe's Cafe"
      }
    },
    {
      "type": "node",
      "id": 10066903094,
      "lat": 12.9093522,
      "lon": 77.6423653,
      "tags": {
        "brand": "Kodak Express",
        "brand:wikidata": "Q6425126",
        "name": "Kodak Express",
        "shop": "photo"
      }
    },
    {
      "type": "node",
      "id": 10066903107,
      "lat": 12.9090622,
      "lon": 77.6432732,
      "tags": {
        "amenity": "ice_cream",
        "brand": "Polar Bear",
        "brand:wikidata": "Q124374249",
        "delivery": "yes",
        "name": "Polar Bear",
        "takeaway": "yes"
      }
    },
    {
      "type": "node",
      "id": 10066903119,
      "lat": 12.9092427,
      "lon": 77.6439852,
      "tags": {
        "amenity": "dentist",
        "healthcare": "dentist",
        "name": "Tooth Flora"
      }
    },
    {
      "type": "node",
      "id": 10685071179,
      "lat": 12.9121614,
      "lon": 77.6376204,
      "tags": {
        "name": "Avantra by Trends",
        "shop": "boutique"
      }
    },
    {
      "type": "node",
      "id": 10687892746,
      "lat": 12.9093675,
      "lon": 77.6407794,
      "tags": {
        "amenity": "bank",
        "brand": "State Bank of India",
        "brand:wikidata": "Q1340361",
        "name": "State Bank of India",
        "short_name": "SBI"
      }
    },
    {
      "type": "node",
      "id": 10687892747,
      "lat": 12.9093651,
      "lon": 77.640848,
      "tags": {
        "amenity": "atm",
        "brand": "State Bank of India",
        "brand:wikidata": "Q1340361",
        "operator": "State Bank of India",
        "operator:wikidata": "Q1340361",
        "short_name": "SBI"
      }
    },
    {
      "type": "node",
      "id": 11061527357,
      "lat": 12.9123548,
      "lon": 77.6417639,
      "tags": {
        "amenity": "cafe",
        "cuisine": "coffee_shop",
        "delivery": "yes",
        "name": "Beanlore",
        "official_name": "Beanlore Coffee Roasters",
        "takeaway": "yes"
      }
    },
    {
      "type": "node",
      "id": 11061527358,
      "lat": 12.9123847,
      "lon": 77.6413723,
      "tags": {
        "air_conditioning": "yes",
        "amenity": "fast_food",
        "brand": "Taco Bell",
        "brand:wikidata": "Q752941",
        "cuisine": "tex-mex",
        "diet:vegetarian": "yes",
        "indoor_seating": "yes",
        "name": "Taco Bell",
        "name:kn": "ಟಾಕೊ ಬೆಲ್",
        "outdoor_seating": "no",
        "takeaway": "yes"
      }
    },
    {
      "type": "node",
      "id": 11082745158,
      "lat": 12.911802,
      "lon": 77.6413689,
      "tags": {
        "amenity": "ice_cream",
        "name": "Italian Creamery"
      }
    },
    {
      "type": "node",
      "id": 11082745160,
      "lat": 12.9118138,
      "lon": 77.6412174,
      "tags": {
        "name": "Sangam",
        "shop": "confectionery"
      }
    },
    {
      "type": "node",
      "id": 11082745161,
      "lat": 12.9117114,
      "lon": 77.6413756,
      "tags": {
        "name": "Le Crostini",
        "shop": "bakery"
      }
    },
    {
      "type": "node",
      "id": 11085582494,
      "lat": 12.9051719,
      "lon": 77.6491105,
      "tags": {
        "name": "RG Unisex Salon",
        "shop": "hairdresser"
      }
    },
    {
      "type": "node",
      "id": 11085582498,
      "lat": 12.9053754,
      "lon": 77.64933,
      "tags": {
        "amenity": "fast_food",
        "cuisine": "juice",
        "name": "Fresh Cane Juice"
      }
    },
    {
      "type": "node",
      "id": 11085704835,
      "lat": 12.9038504,
      "lon": 77.6490166,
      "tags": {
        "amenity": "restaurant",
        "cuisine": "sushi",
        "name": "Suku"
      }
    },
    {
      "type": "node",
      "id": 11100881387,
      "lat": 12.9091698,
      "lon": 77.6392625,
      "tags": {
        "addr:city": "Bengaluru",
        "name": "Green Fresh",
        "shop": "supermarket"
      }
    },
    {
      "type": "node",
      "id": 11202391302,
      "lat": 12.9094275,
      "lon": 77.6393304,
      "tags": {
        "amenity": "cafe",
        "check_date": "2023-09-19",
        "contact:instagram": "https://www.instagram.com/shades_of_coffee",
        "cuisine": "coffee_shop",
        "name": "Shades of Coffee"
      }
    },
    {
      "type": "node",
      "id": 11233733246,
      "lat": 12.9036184,
      "lon": 77.6486952,
      "tags": {
        "amenity": "cafe",
        "cuisine": "snacks;tea;juice",
        "name": "Coffee Makers",
        "outdoor_seating": "yes"
      }
    },
    {
      "type": "node",
      "id": 11248222101,
      "lat": 12.9123483,
      "lon": 77.6436353,
      "tags": {
        "check_date": "2023-10-08",
        "name": "Furlenco",
        "shop": "furniture"
      }
    },
    {
      "type": "node",
      "id": 11248222102,
      "lat": 12.9124098,
      "lon": 77.6437874,
      "tags": {
        "check_date": "2023-10-08",
        "name": "Yazhi Silks",
        "shop": "clothes"
      }
    },
    {
      "type": "node",
      "id": 11248247737,
      "lat": 12.912311,
      "lon": 77.644082,
      "tags": {
        "brand": "Raymond",
        "check_date": "2023-10-08",
        "clothes": "men",
        "name": "Kapdachar",
        "shop": "clothes"
      }
    },
    {
      "type": "node",
      "id": 11248247738,
      "lat": 12.9123225,
      "lon": 77.6439107,
      "tags": {
        "amenity": "bank",
        "brand": "Axis Bank",
        "brand:wikidata": "Q2003549",
        "check_date": "2023-10-08",
        "name": "Axis Bank",
        "name:kn": "ಆಕ್ಸಿಸ್ ಬ್ಯಾಂಕ್"
      }
    },
    {
      "type": "node",
      "id": 11248247740,
      "lat": 12.9123355,
      "lon": 77.6437969,
      "tags": {
        "air_conditioning": "yes",
        "amenity": "bar",
        "check_date": "2023-10-08",
        "indoor_seating": "yes",
        "name": "The Cirkus Bar",
        "outdoor_seating": "no"
      }
    },
    {
      "type": "node",
      "id": 11262514226,
      "lat": 12.9086561,
      "lon": 77.6445904,
      "tags": {
        "amenity": "restaurant",
        "name": "Anands Kitchen"
      }
    },
    {
      "type": "node",
      "id": 11262540085,
      "lat": 12.908545,
      "lon": 77.6446411,
      "tags": {
        "amenity": "studio",
        "name": "Red Jampad",
        "studio": "audio"
      }
    },
    {
      "type": "node",
      "id": 11262546939,
      "lat": 12.9108215,
      "lon": 77.6379404,
      "tags": {
        "amenity": "restaurant",
        "name": "Fruit Bae"
      }
    },
    {
      "type": "node",
      "id": 11292688562,
      "lat": 12.9097143,
      "lon": 77.6443014,
      "tags": {
        "amenity": "atm",
        "brand": "Bank of India",
        "brand:wikidata": "Q2004439",
        "name": "Bank of India",
        "operator": "Bank of India",
        "operator:wikidata": "Q2004439"
      }
    },
    {
      "type": "node",
      "id": 11293640388,
      "lat": 12.9068979,
      "lon": 77.6441698,
      "tags": {
        "amenity": "fast_food",
        "name": "My Affair with food"
      }
    },
    {
      "type": "node",
      "id": 11299967815,
      "lat": 12.908221,
      "lon": 77.6403396,
      "tags": {
        "amenity": "bench"
      }
    },
    {
      "type": "node",
      "id": 11299968791,
      "lat": 12.9073365,
      "lon": 77.6405581,
      "tags": {
        "amenity": "bench"
      }
    },
    {
      "type": "node",
      "id": 11299968792,
      "lat": 12.9078941,
      "lon": 77.640653,
      "tags": {
        "amenity": "bench"
      }
    },
    {
      "type": "node",
      "id": 11299969074,
      "lat": 12.9077077,
      "lon": 77.6408437,
      "tags": {
        "amenity": "bench"
      }
    },
    {
      "type": "node",
      "id": 11299970410,
      "lat": 12.9078974,
      "lon": 77.6405538,
      "tags": {
        "amenity": "bench"
      }
    },
    {
      "type": "node",
      "id": 11299973843,
      "lat": 12.907341,
      "lon": 77.640509,
      "tags": {
        "amenity": "bench"
      }
    },
    {
      "type": "node",
      "id": 11299974161,
      "lat": 12.9073438,
      "lon": 77.6404426,
      "tags": {
        "amenity": "bench"
      }
    },
    {
      "type": "node",
      "id": 11299974162,
      "lat": 12.9081036,
      "lon": 77.6403808,
      "tags": {
        "amenity": "shelter",
        "shelter_type": "gazebo"
      }
    },
    {
      "type": "node",
      "id": 11299975555,
      "lat": 12.9073363,
      "lon": 77.6405702,
      "tags": {
        "amenity": "bench"
      }
    },
    {
      "type": "node",
      "id": 11299975702,
      "lat": 12.9073778,
      "lon": 77.6407857,
      "tags": {
        "amenity": "bench"
      }
    },
    {
      "type": "node",
      "id": 11299986288,
      "lat": 12.9079064,
      "lon": 77.640438,
      "tags": {
        "amenity": "bench"
      }
    },
    {
      "type": "node",
      "id": 11299986289,
      "lat": 12.9080344,
      "lon": 77.6402407,
      "tags": {
        "amenity": "bench"
      }
    },
    {
      "type": "node",
      "id": 11299991394,
      "lat": 12.9080738,
      "lon": 77.6408244,
      "tags": {
        "amenity": "bench"
      }
    },
    {
      "type": "node",
      "id": 11299991395,
      "lat": 12.9078886,
      "lon": 77.6408186,
      "tags": {
        "amenity": "bench"
      }
    },
    {
      "type": "node",
      "id": 11299995626,
      "lat": 12.9073477,
      "lon": 77.6403909,
      "tags": {
        "amenity": "waste_basket"
      }
    },
    {
      "type": "node",
      "id": 11299995627,
      "lat": 12.9079411,
      "lon": 77.6408165,
      "tags": {
        "amenity": "bench"
      }
    },
    {
      "type": "node",
      "id": 11299996913,
      "lat": 12.9077002,
      "lon": 77.6405153,
      "tags": {
        "amenity": "bench"
      }
    },
    {
      "type": "node",
      "id": 11299997658,
      "lat": 12.9081115,
      "lon": 77.6402466,
      "tags": {
        "amenity": "bench"
      }
    },
    {
      "type": "node",
      "id": 11299997902,
      "lat": 12.9074651,
      "lon": 77.640794,
      "tags": {
        "amenity": "bench"
      }
    },
    {
      "type": "node",
      "id": 11299998075,
      "lat": 12.9082096,
      "lon": 77.640569,
      "tags": {
        "amenity": "bench"
      }
    },
    {
      "type": "node",
      "id": 11299998270,
      "lat": 12.9074922,
      "lon": 77.6403123,
      "tags": {
        "amenity": "waste_basket"
      }
    },
    {
      "type": "node",
      "id": 11299998271,
      "lat": 12.9082129,
      "lon": 77.6405022,
      "tags": {
        "amenity": "bench"
      }
    },
    {
      "type": "node",
      "id": 11299998979,
      "lat": 12.9082011,
      "lon": 77.6407426,
      "tags": {
        "amenity": "bench"
      }
    },
    {
      "type": "node",
      "id": 11299998980,
      "lat": 12.9079855,
      "lon": 77.6407425,
      "tags": {
        "leisure": "playground"
      }
    },
    {
      "type": "node",
      "id": 11299999643,
      "lat": 12.9076043,
      "lon": 77.6408154,
      "tags": {
        "amenity": "bench"
      }
    },
    {
      "type": "node",
      "id": 11299999644,
      "lat": 12.9079039,
      "lon": 77.6404827,
      "tags": {
        "amenity": "bench"
      }
    },
    {
      "type": "node",
      "id": 11300000102,
      "lat": 12.9076953,
      "lon": 77.6409932,
      "tags": {
        "name": "The Digitale Chef",
        "shop": "pastry"
      }
    },
    {
      "type": "node",
      "id": 11300000103,
      "lat": 12.9077484,
      "lon": 77.6403306,
      "tags": {
        "amenity": "bench"
      }
    },
    {
      "type": "node",
      "id": 11300001298,
      "lat": 12.9082067,
      "lon": 77.6406287,
      "tags": {
        "amenity": "bench"
      }
    },
    {
      "type": "node",
      "id": 11300003506,
      "lat": 12.9075864,
      "lon": 77.6402268,
      "tags": {
        "amenity": "bench"
      }
    },
    {
      "type": "node",
      "id": 11300003507,
      "lat": 12.9073929,
      "lon": 77.6403135,
      "tags": {
        "amenity": "bench"
      }
    },
    {
      "type": "node",
      "id": 11300005253,
      "lat": 12.9076918,
      "lon": 77.6407802,
      "tags": {
        "amenity": "bench"
      }
    },
    {
      "type": "node",
      "id": 11300005254,
      "lat": 12.9077471,
      "lon": 77.6404352,
      "tags": {
        "amenity": "bench"
      }
    },
    {
      "type": "node",
      "id": 11300006181,
      "lat": 12.9077406,
      "lon": 77.6406576,
      "tags": {
        "amenity": "bench"
      }
    },
    {
      "type": "node",
      "id": 11300006182,
      "lat": 12.9074348,
      "lon": 77.6405437,
      "tags": {
        "leisure": "playground"
      }
    },
    {
      "type": "node",
      "id": 11300006183,
      "lat": 12.9079096,
      "lon": 77.6403039,
      "tags": {
        "amenity": "bench"
      }
    },
    {
      "type": "node",
      "id": 11300007408,
      "lat": 12.9073486,
      "lon": 77.6403361,
      "tags": {
        "amenity": "bench"
      }
    },
    {
      "type": "node",
      "id": 11300007725,
      "lat": 12.9078911,
      "lon": 77.6407425,
      "tags": {
        "amenity": "bench"
      }
    },
    {
      "type": "node",
      "id": 11300007787,
      "lat": 12.9082181,
      "lon": 77.6403974,
      "tags": {
        "amenity": "bench"
      }
    },
    {
      "type": "node",
      "id": 11309449852,
      "lat": 12.9089929,
      "lon": 77.6351685,
      "tags": {
        "amenity": "pharmacy",
        "name": "Rush Pharma"
      }
    },
    {
      "type": "node",
      "id": 11309470356,
      "lat": 12.9087684,
      "lon": 77.6349866,
      "tags": {
        "name": "Smart Dhobi",
        "shop": "laundry"
      }
    },
    {
      "type": "node",
      "id": 11309680641,
      "lat": 12.908835,
      "lon": 77.6494489,
      "tags": {
        "check_date": "2023-11-03",
        "name": "Kurl-On",
        "shop": "bed"
      }
    },
    {
      "type": "node",
      "id": 11309680642,
      "lat": 12.908863,
      "lon": 77.6494629,
      "tags": {
        "check_date": "2023-11-03",
        "name": "iTouch Restore",
        "shop": "mobile_phone"
      }
    },
    {
      "type": "node",
      "id": 11309680643,
      "lat": 12.9090608,
      "lon": 77.6494552,
      "tags": {
        "amenity": "fast_food",
        "check_date": "2023-11-16",
        "cuisine": "juice",
        "name": "HSR Juice Point"
      }
    },
    {
      "type": "node",
      "id": 11309680644,
      "lat": 12.9089273,
      "lon": 77.6494595,
      "tags": {
        "amenity": "clinic",
        "check_date": "2023-11-03",
        "healthcare": "clinic",
        "name": "sugar.fit"
      }
    },
    {
      "type": "node",
      "id": 11310182984,
      "lat": 12.9089857,
      "lon": 77.6491678,
      "tags": {
        "name": "LJ Iyengar's Bakery",
        "shop": "bakery"
      }
    },
    {
      "type": "node",
      "id": 11355554485,
      "lat": 12.9088181,
      "lon": 77.6494981,
      "tags": {
        "check_date": "2023-12-06",
        "name": "King's & Queens's Premium Salon",
        "shop": "hairdresser"
      }
    },
    {
      "type": "node",
      "id": 11355554486,
      "lat": 12.9089708,
      "lon": 77.649501,
      "tags": {
        "check_date": "2023-11-16",
        "name": "Ganpati Collection",
        "shop": "clothes"
      }
    },
    {
      "type": "node",
      "id": 11355554487,
      "lat": 12.9089894,
      "lon": 77.649501,
      "tags": {
        "check_date": "2023-11-16",
        "name": "New Fashion Ladies Tailor",
        "shop": "tailor"
      }
    },
    {
      "type": "node",
      "id": 11355554488,
      "lat": 12.9091432,
      "lon": 77.6494652,
      "tags": {
        "check_date": "2023-11-16",
        "name": "Swagath Jewellers and Bankers",
        "shop": "jewelry"
      }
    },
    {
      "type": "node",
      "id": 11366156465,
      "lat": 12.9086832,
      "lon": 77.649392,
      "tags": {
        "amenity": "post_box",
        "operator": "India Post",
        "operator:wikidata": "Q3519720"
      }
    },
    {
      "type": "node",
      "id": 11372676269,
      "lat": 12.9117456,
      "lon": 77.6428015,
      "tags": {
        "amenity": "cafe",
        "name": "Iris cafe HSR",
        "opening_hours": "Mo-Su 09:30-23:00"
      }
    },
    {
      "type": "node",
      "id": 11372731169,
      "lat": 12.9118379,
      "lon": 77.642169,
      "tags": {
        "name": "Ratnadeep supermarket",
        "opening_hours": "Mo-Su 07:00-23:00",
        "shop": "supermarket"
      }
    },
    {
      "type": "node",
      "id": 11397742478,
      "lat": 12.9085763,
      "lon": 77.6494882,
      "tags": {
        "amenity": "community_centre",
        "check_date": "2023-12-06",
        "name": "Dr. BR Ambedkar Samudaya Bhavan"
      }
    },
    {
      "type": "node",
      "id": 11397742479,
      "lat": 12.9086091,
      "lon": 77.6496322,
      "tags": {
        "check_date": "2023-12-06",
        "shop": "stationery"
      }
    },
    {
      "type": "node",
      "id": 11397742480,
      "lat": 12.9086019,
      "lon": 77.6496924,
      "tags": {
        "check_date": "2023-12-06",
        "shop": "copyshop"
      }
    },
    {
      "type": "node",
      "id": 11399909241,
      "lat": 12.9089526,
      "lon": 77.6495364,
      "tags": {
        "check_date": "2023-12-07",
        "name": "AS Mobile",
        "shop": "copyshop"
      }
    },
    {
      "type": "node",
      "id": 11399909242,
      "lat": 12.9089935,
      "lon": 77.6495181,
      "tags": {
        "check_date": "2023-12-07",
        "name": "OR Sports",
        "shop": "sports"
      }
    },
    {
      "type": "node",
      "id": 11399909243,
      "lat": 12.9089466,
      "lon": 77.6495173,
      "tags": {
        "check_date": "2023-12-07",
        "name": "VDesign Interiors",
        "shop": "interior_decoration"
      }
    },
    {
      "type": "node",
      "id": 11409538672,
      "lat": 12.9086523,
      "lon": 77.6492157,
      "tags": {
        "check_date": "2023-12-11",
        "name": "Green's Unisex Salon",
        "shop": "hairdresser"
      }
    },
    {
      "type": "node",
      "id": 11409538673,
      "lat": 12.9086342,
      "lon": 77.6491611,
      "tags": {
        "check_date": "2023-12-11",
        "leisure": "fitness_centre",
        "name": "Fitness Tycoon"
      }
    },
    {
      "type": "node",
      "id": 11502362673,
      "lat": 12.9052595,
      "lon": 77.6495099,
      "tags": {
        "addr:state": "KA",
        "addr:street": "26th Cross Road",
        "name": "24 Mantra Organic Shop",
        "opening_hours": "Mo-Su 08:30-20:30",
        "organic": "yes",
        "shop": "greengrocer",
        "wheelchair": "no"
      }
    },
    {
      "type": "node",
      "id": 11502372890,
      "lat": 12.9054885,
      "lon": 77.6499377,
      "tags": {
        "addr:city": "Bengaluru",
        "addr:district": "Bengaluru",
        "addr:postcode": "560102",
        "addr:state": "KA",
        "addr:street": "26th Cross Road",
        "addr:suburb": "HSR Layout",
        "amenity": "community_centre",
        "community_centre": "community_hall",
        "community_centre:for": "family",
        "name": "Siddhartha Convention Centre",
        "opening_hours": "Mo-Su 10:30-08:30",
        "toilets": "yes",
        "wheelchair": "no"
      }
    },
    {
      "type": "node",
      "id": 11533575079,
      "lat": 12.9092141,
      "lon": 77.6446476,
      "tags": {
        "access": "private",
        "amenity": "parking_entrance",
        "parking": "underground"
      }
    },
    {
      "type": "node",
      "id": 11533595492,
      "lat": 12.9092366,
      "lon": 77.6446155,
      "tags": {
        "amenity": "restaurant",
        "brand": "Indian Coffee House",
        "brand:wikidata": "Q3595301",
        "check_date": "2024-01-20",
        "cuisine": "coffee_shop;indian",
        "name": "Indian Coffee House"
      }
    },
    {
      "type": "node",
      "id": 11576541038,
      "lat": 12.9093844,
      "lon": 77.6378877,
      "tags": {
        "name": "Sri Venkateshwara Garments Unit 2",
        "payment:credit_cards": "yes",
        "payment:debit_cards": "yes",
        "shop": "clothes",
        "wheelchair": "no"
      }
    },
    {
      "type": "node",
      "id": 11836983254,
      "lat": 12.909966,
      "lon": 77.6378373,
      "tags": {
        "addr:city": "Bangalore",
        "addr:housenumber": "249",
        "addr:postcode": "560102",
        "addr:street": "14th Main Road",
        "air_conditioning": "yes",
        "amenity": "cafe",
        "brand": "Third Wave Coffee Roasters",
        "brand:wikidata": "Q7785004",
        "cuisine": "coffee_shop",
        "delivery": "yes",
        "indoor_seating": "yes",
        "internet_access": "yes",
        "internet_access:fee": "customers",
        "name": "Third Wave Coffee Roasters",
        "opening_hours": "Mo-Su 07:30-24:00",
        "outdoor_seating": "no",
        "phone": "+917349791061",
        "takeaway": "yes",
        "website": "https://www.thirdwavecoffeeroasters.com/",
        "wheelchair": "no"
      }
    },
    {
      "type": "node",
      "id": 11896574561,
      "lat": 12.9113077,
      "lon": 77.6382804,
      "tags": {
        "air_conditioning": "yes",
        "amenity": "cafe",
        "brand": "Chaayos",
        "brand:wikidata": "Q117235235",
        "check_date": "2024-05-11",
        "cuisine": "tea",
        "indoor_seating": "yes",
        "name": "Chaayos",
        "outdoor_seating": "yes",
        "takeaway": "yes"
      }
    },
    {
      "type": "node",
      "id": 11896574562,
      "lat": 12.9113468,
      "lon": 77.6382558,
      "tags": {
        "air_conditioning": "yes",
        "amenity": "cafe",
        "check_date": "2024-05-11",
        "indoor_seating": "yes",
        "name": "Wagh Bakri Tea Lounge",
        "outdoor_seating": "yes"
      }
    },
    {
      "type": "node",
      "id": 11948295136,
      "lat": 12.9075461,
      "lon": 77.6490336,
      "tags": {
        "addr:city": "Bangaluru",
        "addr:district": "Bengaluru",
        "addr:postcode": "560102",
        "addr:street": "24th Main Road",
        "amenity": "pharmacy",
        "healthcare": "pharmacy",
        "name": "Ganesh Medicals"
      }
    },
    {
      "type": "node",
      "id": 11949742433,
      "lat": 12.9048145,
      "lon": 77.6488354,
      "tags": {
        "addr:city": "Bengaluru",
        "addr:district": "Bengaluru",
        "addr:postcode": "560102",
        "addr:street": "24th Main Road, Sector-2, HSR layout",
        "name": "Food Palace Supermarket",
        "name:kn": "ಫುಡ್ ಪ್ಯಾಲೇಸ್",
        "opening_hours": "Mo-Su 07:30-22:30",
        "shop": "supermarket"
      }
    },
    {
      "type": "node",
      "id": 11960786375,
      "lat": 12.9090657,
      "lon": 77.6436316,
      "tags": {
        "check_date": "2024-06-06",
        "name": "Chai House",
        "name:en": "Chai House",
        "shop": "tea"
      }
    },
    {
      "type": "node",
      "id": 11982451437,
      "lat": 12.911931,
      "lon": 77.6383253,
      "tags": {
        "amenity": "prep_school",
        "check_date": "2024-06-15",
        "name": "Vedantu"
      }
    },
    {
      "type": "node",
      "id": 11982451438,
      "lat": 12.9118561,
      "lon": 77.638708,
      "tags": {
        "amenity": "bank",
        "atm": "yes",
        "brand": "IDFC First Bank",
        "brand:wikidata": "Q22031467",
        "check_date": "2024-06-15",
        "name": "IDFC First Bank"
      }
    },
    {
      "type": "node",
      "id": 11982451439,
      "lat": 12.9118361,
      "lon": 77.6388316,
      "tags": {
        "amenity": "bar",
        "check_date": "2024-06-15",
        "name": "Shift"
      }
    },
    {
      "type": "node",
      "id": 11982451441,
      "lat": 12.9117555,
      "lon": 77.6389783,
      "tags": {
        "amenity": "cafe",
        "check_date": "2024-06-15",
        "name": "North Star"
      }
    },
    {
      "type": "node",
      "id": 11982451442,
      "lat": 12.9118007,
      "lon": 77.639029,
      "tags": {
        "amenity": "restaurant",
        "check_date": "2024-06-15",
        "name": "Kesari"
      }
    },
    {
      "type": "node",
      "id": 11982676010,
      "lat": 12.9052662,
      "lon": 77.6488723,
      "tags": {
        "addr:city": "Bengaluru",
        "addr:district": "Bengaluru",
        "addr:postcode": "560102",
        "addr:street": "24th Main Road, Sector-2, HSR Layout",
        "name": "Ayush Hyper Market",
        "shop": "supermarket"
      }
    },
    {
      "type": "node",
      "id": 11982683582,
      "lat": 12.9052092,
      "lon": 77.6491024,
      "tags": {
        "addr:city": "Bengaluru",
        "addr:district": "Bengaluru",
        "addr:housenumber": "1318",
        "addr:postcode": "560102",
        "addr:street": "24th Main Road,Sector-2, HSR Layout",
        "amenity": "bank",
        "brand": "ESAF Small Finance Bank",
        "brand:wikidata": "Q28173964",
        "name": "ESAF Small Finance Bank"
      }
    },
    {
      "type": "node",
      "id": 11982683583,
      "lat": 12.9052438,
      "lon": 77.6491055,
      "tags": {
        "amenity": "atm",
        "brand": "ESAF Small Finance Bank",
        "brand:wikidata": "Q28173964",
        "operator": "ESAF Small Finance Bank",
        "operator:wikidata": "Q28173964"
      }
    },
    {
      "type": "node",
      "id": 11998243869,
      "lat": 12.9077495,
      "lon": 77.6492278,
      "tags": {
        "addr:housenumber": "51/1",
        "addr:postcode": "560102",
        "addr:street": "24th Main Road",
        "name": "Manju Departmental Store",
        "opening_hours": "Mo-Su 09:00-10:00",
        "shop": "grocery"
      }
    },
    {
      "type": "node",
      "id": 11998243969,
      "lat": 12.9078609,
      "lon": 77.6491098,
      "tags": {
        "addr:housenumber": "5-3/1",
        "addr:postcode": "560102",
        "addr:street": "24th Main Road",
        "amenity": "pharmacy",
        "check_date": "2025-07-05",
        "name": "Sri Balaji Medicals",
        "opening_hours": "Mo-Su 09:00-10:00"
      }
    },
    {
      "type": "node",
      "id": 11998244069,
      "lat": 12.9077278,
      "lon": 77.6490733,
      "tags": {
        "addr:housenumber": "3/1",
        "addr:postcode": "560102",
        "addr:street": "24th Main Road",
        "name": "Mahashakti Fancy & Gift Paradise",
        "opening_hours": "Mo-Su 09:00-10:00",
        "shop": "gift"
      }
    },
    {
      "type": "node",
      "id": 12046483937,
      "lat": 12.9121018,
      "lon": 77.6372395,
      "tags": {
        "air_conditioning": "yes",
        "brand": "Tanishq",
        "brand:en": "Tanishq",
        "brand:wikidata": "Q13117711",
        "check_date": "2024-07-10",
        "name": "Tanishq",
        "name:en": "Tanishq",
        "payment:cash": "yes",
        "payment:credit_cards": "yes",
        "payment:debit_cards": "yes",
        "shop": "jewelry",
        "source": "survey",
        "wheelchair": "no"
      }
    },
    {
      "type": "node",
      "id": 12076711791,
      "lat": 12.8971942,
      "lon": 77.6454983,
      "tags": {
        "addr:city": "Bengaluru",
        "addr:district": "Bengaluru",
        "addr:postcode": "560068",
        "addr:street": "Hosapalya",
        "brand": "Nandini",
        "brand:wikidata": "Q124374212",
        "name": "Nandini",
        "name:kn": "ನಂದಿನಿ",
        "shop": "dairy"
      }
    },
    {
      "type": "node",
      "id": 12076711792,
      "lat": 12.8972797,
      "lon": 77.6454852,
      "tags": {
        "addr:city": "Bengaluru",
        "addr:district": "Bengaluru",
        "addr:postcode": "560068",
        "amenity": "bus_station",
        "bus": "yes",
        "name": "Hosapalya Bus Stop",
        "name:ta": "ஹோசாபால்யா பஸ் நிறுத்தம்",
        "public_transport": "station"
      }
    },
    {
      "type": "node",
      "id": 12093192356,
      "lat": 12.9103981,
      "lon": 77.6401941,
      "tags": {
        "air_conditioning": "no",
        "amenity": "library",
        "level": "1",
        "wheelchair": "no"
      }
    },
    {
      "type": "node",
      "id": 12093192361,
      "lat": 12.9107203,
      "lon": 77.6401718,
      "tags": {
        "amenity": "bench",
        "backrest": "yes",
        "material": "granite",
        "seats": "2"
      }
    },
    {
      "type": "node",
      "id": 12093192362,
      "lat": 12.910733,
      "lon": 77.6401876,
      "tags": {
        "amenity": "bench",
        "backrest": "yes",
        "material": "granite",
        "seats": "2"
      }
    },
    {
      "type": "node",
      "id": 12093192363,
      "lat": 12.9107464,
      "lon": 77.6401715,
      "tags": {
        "amenity": "bench",
        "backrest": "yes",
        "material": "granite",
        "seats": "2"
      }
    },
    {
      "type": "node",
      "id": 12093192368,
      "lat": 12.9104373,
      "lon": 77.6393452,
      "tags": {
        "amenity": "bench",
        "armrest": "no",
        "backrest": "no",
        "material": "granite",
        "seats": "6"
      }
    },
    {
      "type": "node",
      "id": 12093192369,
      "lat": 12.9105495,
      "lon": 77.6393632,
      "tags": {
        "amenity": "bench",
        "armrest": "no",
        "backrest": "no",
        "seats": "4"
      }
    },
    {
      "type": "node",
      "id": 12093192373,
      "lat": 12.911002,
      "lon": 77.639716,
      "tags": {
        "amenity": "bench",
        "backrest": "yes",
        "material": "granite"
      }
    },
    {
      "type": "node",
      "id": 12093192374,
      "lat": 12.9108396,
      "lon": 77.6397226,
      "tags": {
        "amenity": "bench",
        "material": "granite"
      }
    },
    {
      "type": "node",
      "id": 12093192395,
      "lat": 12.9090973,
      "lon": 77.6425409,
      "tags": {
        "air_conditioning": "yes",
        "amenity": "cafe",
        "bar": "no",
        "check_date": "2025-10-12",
        "diet:vegetarian": "yes",
        "internet_access": "wlan",
        "internet_access:fee": "customers",
        "name": "Hustle",
        "outdoor_seating": "yes",
        "payment:cash": "yes",
        "payment:credit_cards": "yes",
        "payment:debit_cards": "yes",
        "reservation": "no",
        "smoking": "no",
        "takeaway": "no",
        "toilets": "yes",
        "wheelchair": "no"
      }
    },
    {
      "type": "node",
      "id": 12117979201,
      "lat": 12.907878,
      "lon": 77.6491188,
      "tags": {
        "addr:housenumber": "5/3",
        "addr:postcode": "560102",
        "addr:street": "24th Main Road",
        "name": "HSR Rice Traders",
        "opening_hours": "Mo-Su 09:00-21:30",
        "shop": "grocery"
      }
    },
    {
      "type": "node",
      "id": 12238310056,
      "lat": 12.9091011,
      "lon": 77.6426525,
      "tags": {
        "name": "Society",
        "shop": "hairdresser"
      }
    },
    {
      "type": "node",
      "id": 12238310057,
      "lat": 12.9123978,
      "lon": 77.6419176,
      "tags": {
        "amenity": "clinic",
        "name": "Milann"
      }
    },
    {
      "type": "node",
      "id": 12238317806,
      "lat": 12.9092872,
      "lon": 77.6425189,
      "tags": {
        "name": "Kaveri store",
        "shop": "grocer"
      }
    },
    {
      "type": "node",
      "id": 12238345882,
      "lat": 12.9118905,
      "lon": 77.6388252,
      "tags": {
        "amenity": "pub",
        "name": "House of commons"
      }
    },
    {
      "type": "node",
      "id": 12238349604,
      "lat": 12.9118307,
      "lon": 77.6423017,
      "tags": {
        "amenity": "cafe",
        "name": "The  Coffee Brewery"
      }
    },
    {
      "type": "node",
      "id": 12248323804,
      "lat": 12.908452,
      "lon": 77.6352471,
      "tags": {
        "amenity": "restaurant",
        "name": "Aligargh House"
      }
    },
    {
      "type": "node",
      "id": 12281105101,
      "lat": 12.9003661,
      "lon": 77.6397981,
      "tags": {
        "amenity": "school",
        "name": "Kidzee Pre School",
        "phone": "07619438532"
      }
    },
    {
      "type": "node",
      "id": 12281159001,
      "lat": 12.8973137,
      "lon": 77.6420611,
      "tags": {
        "name": "Gayathri Prints, Ganesh Offset Printers Bangalore",
        "phone": "09741320095",
        "shop": "printing",
        "website": "https://www.gayathriprints.com/"
      }
    },
    {
      "type": "node",
      "id": 12285672997,
      "lat": 12.9068801,
      "lon": 77.6445656,
      "tags": {
        "name": "Lassi Pot",
        "shop": "beverages"
      }
    },
    {
      "type": "node",
      "id": 12285685369,
      "lat": 12.9066107,
      "lon": 77.6443955,
      "tags": {
        "amenity": "toilets",
        "name": "Public Toilet and Bath"
      }
    },
    {
      "type": "node",
      "id": 12294001112,
      "lat": 12.9118648,
      "lon": 77.6389566,
      "tags": {
        "amenity": "fast_food",
        "contact:instagram": "goodflippin",
        "cuisine": "burger",
        "delivery": "yes",
        "name": "Good Flippin' Burgers",
        "takeaway": "yes",
        "website": "https://goodflippin.com/"
      }
    },
    {
      "type": "node",
      "id": 12406020970,
      "lat": 12.9079027,
      "lon": 77.6475236,
      "tags": {
        "addr:city": "Bengaluru",
        "addr:housenumber": "1073",
        "addr:postcode": "560102",
        "addr:street": "24th A Cross Road",
        "addr:suburb": "HSR Layout",
        "amenity": "cafe",
        "contact:instagram": "maracoffeeandroasters",
        "cuisine": "coffee_shop",
        "email": "contact@maracoffeeroasters.com",
        "name": "Mara Coffee & Roasters",
        "phone": "+91 7353075761",
        "website": "https://www.maracoffeeroasters.com/"
      }
    },
    {
      "type": "node",
      "id": 12475405096,
      "lat": 12.9008407,
      "lon": 77.6405262,
      "tags": {
        "amenity": "restaurant",
        "name": "Mumbai Canteen"
      }
    },
    {
      "type": "node",
      "id": 12475405097,
      "lat": 12.9009812,
      "lon": 77.6400573,
      "tags": {
        "amenity": "school",
        "name": "Shubhodhini English Medium High School"
      }
    },
    {
      "type": "node",
      "id": 12475430615,
      "lat": 12.9008242,
      "lon": 77.6399197,
      "tags": {
        "amenity": "cafe",
        "name": "Desi Tea Master"
      }
    },
    {
      "type": "node",
      "id": 12475430767,
      "lat": 12.9007848,
      "lon": 77.6411141,
      "tags": {
        "name": "H.M. Corner Bake and Juice",
        "shop": "bakery"
      }
    },
    {
      "type": "node",
      "id": 12475439042,
      "lat": 12.9008369,
      "lon": 77.6406211,
      "tags": {
        "name": "Karibasaveshwara Fruits and Vegetables Shop",
        "shop": "greengrocer"
      }
    },
    {
      "type": "node",
      "id": 12475440331,
      "lat": 12.9006163,
      "lon": 77.641678,
      "tags": {
        "name": "Subha Lakshmi Store",
        "shop": "beverages"
      }
    },
    {
      "type": "node",
      "id": 12475441796,
      "lat": 12.9007315,
      "lon": 77.6413444,
      "tags": {
        "name": "Cafe Corner",
        "shop": "beverages"
      }
    },
    {
      "type": "node",
      "id": 12482484107,
      "lat": 12.9086726,
      "lon": 77.646939,
      "tags": {
        "amenity": "cafe",
        "name": "Yewale"
      }
    },
    {
      "type": "node",
      "id": 12482490294,
      "lat": 12.9057526,
      "lon": 77.6387843,
      "tags": {
        "name": "North East Store",
        "shop": "convenience"
      }
    },
    {
      "type": "node",
      "id": 12486963377,
      "lat": 12.9067318,
      "lon": 77.6493254,
      "tags": {
        "leisure": "fitness_centre",
        "name": "Next Move"
      }
    },
    {
      "type": "node",
      "id": 12486985771,
      "lat": 12.9067271,
      "lon": 77.648918,
      "tags": {
        "amenity": "bank",
        "name": "Axis Bank"
      }
    },
    {
      "type": "node",
      "id": 12486999002,
      "lat": 12.9065855,
      "lon": 77.649084,
      "tags": {
        "name": "Print Express",
        "shop": "print"
      }
    },
    {
      "type": "node",
      "id": 12487006151,
      "lat": 12.9065774,
      "lon": 77.6492549,
      "tags": {
        "name": "Bike Service Point",
        "shop": "motorcycle"
      }
    },
    {
      "type": "node",
      "id": 12487007747,
      "lat": 12.906594,
      "lon": 77.6492113,
      "tags": {
        "amenity": "restaurant",
        "name": "The Madras Mess"
      }
    },
    {
      "type": "node",
      "id": 12538586111,
      "lat": 12.9094241,
      "lon": 77.6387596,
      "tags": {
        "addr:city": "Bengaluru",
        "addr:postcode": "560102",
        "addr:street": "Sector 3, HSR Layout",
        "amenity": "restaurant",
        "name": "Dhanraj"
      }
    },
    {
      "type": "node",
      "id": 12927909821,
      "lat": 12.9117328,
      "lon": 77.6444626,
      "tags": {
        "amenity": "cafe",
        "name": "Amintiri",
        "website": "https://amintiri.in/"
      }
    },
    {
      "type": "node",
      "id": 12980092657,
      "lat": 12.9088782,
      "lon": 77.6461122,
      "tags": {
        "amenity": "cafe",
        "check_date": "2025-07-05",
        "name": "Piro"
      }
    },
    {
      "type": "node",
      "id": 12980092658,
      "lat": 12.9088196,
      "lon": 77.6467976,
      "tags": {
        "amenity": "fast_food",
        "check_date": "2025-07-05",
        "name": "Paratha Plaza"
      }
    },
    {
      "type": "node",
      "id": 12980092659,
      "lat": 12.9087936,
      "lon": 77.647131,
      "tags": {
        "check_date": "2025-07-05",
        "name": "SM Grens",
        "shop": "greengrocer"
      }
    },
    {
      "type": "node",
      "id": 12980126189,
      "lat": 12.9081116,
      "lon": 77.6486571,
      "tags": {
        "amenity": "cafe",
        "check_date": "2025-07-05",
        "name": "The Snug Cuppa"
      }
    },
    {
      "type": "node",
      "id": 13013792937,
      "lat": 12.9059798,
      "lon": 77.6440608,
      "tags": {
        "amenity": "fast_food",
        "cuisine": "mexican",
        "name": "Maiz Mexican Kitchen"
      }
    },
    {
      "type": "node",
      "id": 13013792940,
      "lat": 12.9060203,
      "lon": 77.6440568,
      "tags": {
        "amenity": "fast_food",
        "name": "Harvest Salad Co"
      }
    },
    {
      "type": "node",
      "id": 13013958066,
      "lat": 12.9091354,
      "lon": 77.6463649,
      "tags": {
        "amenity": "cafe",
        "cuisine": "coffee_shop",
        "name": "Piro"
      }
    },
    {
      "type": "node",
      "id": 13075368676,
      "lat": 12.9107188,
      "lon": 77.6400315,
      "tags": {
        "amenity": "bench",
        "backrest": "yes",
        "material": "granite",
        "seats": "3"
      }
    },
    {
      "type": "node",
      "id": 13075368678,
      "lat": 12.9115179,
      "lon": 77.6415002,
      "tags": {
        "amenity": "shelter",
        "bench": "yes",
        "bin": "no"
      }
    },
    {
      "type": "node",
      "id": 13075368679,
      "lat": 12.911262,
      "lon": 77.6414828,
      "tags": {
        "amenity": "bench",
        "backrest": "yes",
        "material": "granite",
        "seats": "3"
      }
    },
    {
      "type": "node",
      "id": 13075368680,
      "lat": 12.9115741,
      "lon": 77.6408333,
      "tags": {
        "amenity": "bench",
        "backrest": "yes",
        "material": "granite",
        "seats": "3"
      }
    },
    {
      "type": "node",
      "id": 13075368681,
      "lat": 12.911584,
      "lon": 77.6409677,
      "tags": {
        "amenity": "bench",
        "backrest": "yes",
        "material": "granite",
        "seats": "3"
      }
    },
    {
      "type": "node",
      "id": 13075368682,
      "lat": 12.9115636,
      "lon": 77.641364,
      "tags": {
        "amenity": "bench",
        "backrest": "yes",
        "material": "granite",
        "seats": "3"
      }
    },
    {
      "type": "node",
      "id": 13075368683,
      "lat": 12.9113072,
      "lon": 77.6414113,
      "tags": {
        "amenity": "bench",
        "backrest": "yes",
        "material": "granite",
        "seats": "3"
      }
    },
    {
      "type": "node",
      "id": 13075368684,
      "lat": 12.9113331,
      "lon": 77.6410342,
      "tags": {
        "amenity": "bench",
        "backrest": "yes",
        "material": "granite",
        "seats": "3"
      }
    },
    {
      "type": "node",
      "id": 13075368685,
      "lat": 12.9113937,
      "lon": 77.640994,
      "tags": {
        "amenity": "bench",
        "backrest": "yes",
        "material": "granite",
        "seats": "3"
      }
    },
    {
      "type": "node",
      "id": 13075368686,
      "lat": 12.9114285,
      "lon": 77.6409648,
      "tags": {
        "amenity": "bench",
        "backrest": "yes",
        "material": "granite",
        "seats": "3"
      }
    },
    {
      "type": "node",
      "id": 13075368687,
      "lat": 12.9113893,
      "lon": 77.640937,
      "tags": {
        "amenity": "bench",
        "backrest": "yes",
        "material": "granite",
        "seats": "3"
      }
    },
    {
      "type": "node",
      "id": 13075368688,
      "lat": 12.9113899,
      "lon": 77.6407036,
      "tags": {
        "amenity": "bench",
        "backrest": "yes",
        "material": "granite",
        "seats": "3"
      }
    },
    {
      "type": "node",
      "id": 13075368689,
      "lat": 12.9114094,
      "lon": 77.6403473,
      "tags": {
        "amenity": "bench",
        "backrest": "yes",
        "material": "granite",
        "seats": "3"
      }
    },
    {
      "type": "node",
      "id": 13075368690,
      "lat": 12.9114084,
      "lon": 77.6402556,
      "tags": {
        "amenity": "bench",
        "backrest": "yes",
        "material": "granite",
        "seats": "3"
      }
    },
    {
      "type": "node",
      "id": 13075368691,
      "lat": 12.9114199,
      "lon": 77.6396561,
      "tags": {
        "amenity": "bench",
        "backrest": "yes",
        "material": "granite",
        "seats": "3"
      }
    },
    {
      "type": "node",
      "id": 13075368692,
      "lat": 12.9114359,
      "lon": 77.6396766,
      "tags": {
        "amenity": "bench",
        "backrest": "yes",
        "material": "granite",
        "seats": "3"
      }
    },
    {
      "type": "node",
      "id": 13075368693,
      "lat": 12.9114064,
      "lon": 77.6396765,
      "tags": {
        "amenity": "bench",
        "backrest": "yes",
        "material": "granite",
        "seats": "3"
      }
    },
    {
      "type": "node",
      "id": 13075368694,
      "lat": 12.911333,
      "lon": 77.6396581,
      "tags": {
        "amenity": "bench",
        "backrest": "yes",
        "material": "granite",
        "seats": "3"
      }
    },
    {
      "type": "node",
      "id": 13075368695,
      "lat": 12.9115867,
      "lon": 77.6398924,
      "tags": {
        "amenity": "bench",
        "backrest": "yes",
        "material": "granite",
        "seats": "3"
      }
    },
    {
      "type": "node",
      "id": 13075368696,
      "lat": 12.9115823,
      "lon": 77.6401014,
      "tags": {
        "amenity": "bench",
        "backrest": "yes",
        "material": "granite",
        "seats": "3"
      }
    },
    {
      "type": "node",
      "id": 13075368697,
      "lat": 12.9115025,
      "lon": 77.6401775,
      "tags": {
        "amenity": "bench",
        "backrest": "yes",
        "material": "granite",
        "seats": "3"
      }
    },
    {
      "type": "node",
      "id": 13075368698,
      "lat": 12.9107194,
      "lon": 77.6400119,
      "tags": {
        "amenity": "bench",
        "backrest": "yes",
        "material": "granite",
        "seats": "3"
      }
    },
    {
      "type": "node",
      "id": 13075368699,
      "lat": 12.9110948,
      "lon": 77.6415572,
      "tags": {
        "amenity": "bench",
        "backrest": "yes",
        "material": "granite",
        "seats": "3"
      }
    },
    {
      "type": "node",
      "id": 13075368700,
      "lat": 12.9107049,
      "lon": 77.6400209,
      "tags": {
        "amenity": "bench",
        "backrest": "yes",
        "material": "granite",
        "seats": "3"
      }
    },
    {
      "type": "node",
      "id": 13075442901,
      "lat": 12.9105001,
      "lon": 77.6401512,
      "tags": {
        "amenity": "bench",
        "backrest": "yes",
        "material": "granite",
        "seats": "3"
      }
    },
    {
      "type": "node",
      "id": 13075442902,
      "lat": 12.9104874,
      "lon": 77.640151,
      "tags": {
        "amenity": "bench",
        "backrest": "yes",
        "material": "granite",
        "seats": "3"
      }
    },
    {
      "type": "node",
      "id": 13075442903,
      "lat": 12.9104941,
      "lon": 77.6401617,
      "tags": {
        "amenity": "bench",
        "backrest": "yes",
        "material": "granite",
        "seats": "3"
      }
    },
    {
      "type": "node",
      "id": 13075442904,
      "lat": 12.9105051,
      "lon": 77.6400615,
      "tags": {
        "amenity": "bench",
        "backrest": "yes",
        "material": "granite",
        "seats": "3"
      }
    },
    {
      "type": "node",
      "id": 13075442905,
      "lat": 12.9104882,
      "lon": 77.640061,
      "tags": {
        "amenity": "bench",
        "backrest": "yes",
        "material": "granite",
        "seats": "3"
      }
    },
    {
      "type": "node",
      "id": 13075442906,
      "lat": 12.9104966,
      "lon": 77.6400472,
      "tags": {
        "amenity": "bench",
        "backrest": "yes",
        "material": "granite",
        "seats": "3"
      }
    },
    {
      "type": "node",
      "id": 13075442907,
      "lat": 12.9103872,
      "lon": 77.6400313,
      "tags": {
        "amenity": "bench",
        "backrest": "yes",
        "material": "granite",
        "seats": "3"
      }
    },
    {
      "type": "node",
      "id": 13075442908,
      "lat": 12.9103828,
      "lon": 77.6398012,
      "tags": {
        "amenity": "bench",
        "backrest": "yes",
        "material": "granite",
        "seats": "3"
      }
    },
    {
      "type": "node",
      "id": 13075442909,
      "lat": 12.9103945,
      "lon": 77.6395842,
      "tags": {
        "amenity": "bench",
        "backrest": "yes",
        "material": "granite",
        "seats": "3"
      }
    },
    {
      "type": "node",
      "id": 13075442910,
      "lat": 12.9105263,
      "lon": 77.6396013,
      "tags": {
        "amenity": "bench",
        "backrest": "yes",
        "material": "granite",
        "seats": "3"
      }
    },
    {
      "type": "node",
      "id": 13075442911,
      "lat": 12.9105574,
      "lon": 77.6395934,
      "tags": {
        "amenity": "bench",
        "backrest": "yes",
        "material": "granite",
        "seats": "3"
      }
    },
    {
      "type": "node",
      "id": 13075442912,
      "lat": 12.9105717,
      "lon": 77.6395669,
      "tags": {
        "amenity": "bench",
        "backrest": "yes",
        "material": "granite",
        "seats": "3"
      }
    },
    {
      "type": "node",
      "id": 13075442913,
      "lat": 12.910559,
      "lon": 77.6395381,
      "tags": {
        "amenity": "bench",
        "backrest": "yes",
        "material": "granite",
        "seats": "3"
      }
    },
    {
      "type": "node",
      "id": 13075442914,
      "lat": 12.9105272,
      "lon": 77.6395327,
      "tags": {
        "amenity": "bench",
        "backrest": "yes",
        "material": "granite",
        "seats": "3"
      }
    },
    {
      "type": "node",
      "id": 13075442915,
      "lat": 12.9104202,
      "lon": 77.6394419,
      "tags": {
        "amenity": "bench",
        "armrest": "no",
        "backrest": "no",
        "material": "granite",
        "seats": "4"
      }
    },
    {
      "type": "node",
      "id": 13075442916,
      "lat": 12.9106398,
      "lon": 77.6393406,
      "tags": {
        "amenity": "bench",
        "backrest": "yes",
        "material": "granite",
        "seats": "3"
      }
    },
    {
      "type": "node",
      "id": 13075442917,
      "lat": 12.9110893,
      "lon": 77.6395384,
      "tags": {
        "amenity": "bench",
        "backrest": "yes",
        "material": "granite",
        "seats": "3"
      }
    },
    {
      "type": "node",
      "id": 13075442918,
      "lat": 12.9110961,
      "lon": 77.6400257,
      "tags": {
        "amenity": "bench",
        "backrest": "no",
        "material": "granite",
        "seats": "12"
      }
    },
    {
      "type": "node",
      "id": 13075442919,
      "lat": 12.9104077,
      "lon": 77.6402701,
      "tags": {
        "amenity": "bench",
        "backrest": "yes",
        "material": "granite",
        "seats": "3"
      }
    },
    {
      "type": "node",
      "id": 13075442920,
      "lat": 12.9103787,
      "lon": 77.6405428,
      "tags": {
        "amenity": "bench",
        "backrest": "yes",
        "material": "granite",
        "seats": "3"
      }
    },
    {
      "type": "node",
      "id": 13075442921,
      "lat": 12.91112,
      "lon": 77.641479,
      "tags": {
        "amenity": "bench",
        "backrest": "yes",
        "material": "granite",
        "seats": "3"
      }
    },
    {
      "type": "node",
      "id": 13075442922,
      "lat": 12.9104478,
      "lon": 77.6408555,
      "tags": {
        "amenity": "bench",
        "backrest": "yes",
        "material": "granite",
        "seats": "3"
      }
    },
    {
      "type": "node",
      "id": 13075442923,
      "lat": 12.910445,
      "lon": 77.640947,
      "tags": {
        "amenity": "bench",
        "backrest": "yes",
        "material": "granite",
        "seats": "3"
      }
    },
    {
      "type": "node",
      "id": 13075442924,
      "lat": 12.9103305,
      "lon": 77.6411882,
      "tags": {
        "amenity": "bench",
        "backrest": "yes",
        "material": "granite",
        "seats": "3"
      }
    },
    {
      "type": "node",
      "id": 13075442925,
      "lat": 12.910359,
      "lon": 77.6415052,
      "tags": {
        "amenity": "bench",
        "backrest": "yes",
        "material": "granite",
        "seats": "3"
      }
    },
    {
      "type": "node",
      "id": 13075442926,
      "lat": 12.9106571,
      "lon": 77.64153,
      "tags": {
        "amenity": "bench",
        "backrest": "yes",
        "material": "granite",
        "seats": "3"
      }
    },
    {
      "type": "node",
      "id": 13075442927,
      "lat": 12.910692,
      "lon": 77.6414486,
      "tags": {
        "amenity": "bench",
        "backrest": "yes",
        "material": "granite",
        "seats": "3"
      }
    },
    {
      "type": "node",
      "id": 13075442928,
      "lat": 12.9107007,
      "lon": 77.6412388,
      "tags": {
        "amenity": "bench",
        "backrest": "yes",
        "material": "granite",
        "seats": "3"
      }
    },
    {
      "type": "node",
      "id": 13075442929,
      "lat": 12.9107956,
      "lon": 77.6409587,
      "tags": {
        "amenity": "bench",
        "backrest": "yes",
        "material": "granite",
        "seats": "3"
      }
    },
    {
      "type": "node",
      "id": 13075442930,
      "lat": 12.9106992,
      "lon": 77.6409526,
      "tags": {
        "amenity": "bench",
        "backrest": "yes",
        "material": "granite",
        "seats": "3"
      }
    },
    {
      "type": "node",
      "id": 13075442931,
      "lat": 12.9107052,
      "lon": 77.6408494,
      "tags": {
        "amenity": "bench",
        "backrest": "yes",
        "material": "granite",
        "seats": "3"
      }
    },
    {
      "type": "node",
      "id": 13075442932,
      "lat": 12.9107967,
      "lon": 77.6408508,
      "tags": {
        "amenity": "bench",
        "backrest": "yes",
        "material": "granite",
        "seats": "3"
      }
    },
    {
      "type": "node",
      "id": 13075442933,
      "lat": 12.9108007,
      "lon": 77.6406223,
      "tags": {
        "amenity": "bench",
        "backrest": "yes",
        "material": "granite",
        "seats": "3"
      }
    },
    {
      "type": "node",
      "id": 13075442934,
      "lat": 12.910813,
      "lon": 77.6403798,
      "tags": {
        "amenity": "bench",
        "backrest": "yes",
        "material": "granite",
        "seats": "3"
      }
    },
    {
      "type": "node",
      "id": 13075442935,
      "lat": 12.9115119,
      "lon": 77.6404518,
      "tags": {
        "amenity": "bench",
        "backrest": "yes",
        "material": "granite",
        "seats": "3"
      }
    },
    {
      "type": "node",
      "id": 13075442936,
      "lat": 12.9111739,
      "lon": 77.6408549,
      "tags": {
        "amenity": "bench",
        "backrest": "yes",
        "material": "granite",
        "seats": "3"
      }
    },
    {
      "type": "node",
      "id": 13075442937,
      "lat": 12.9109659,
      "lon": 77.6408629,
      "tags": {
        "amenity": "bench",
        "backrest": "yes",
        "material": "granite",
        "seats": "3"
      }
    },
    {
      "type": "node",
      "id": 13075442938,
      "lat": 12.9109228,
      "lon": 77.6415654,
      "tags": {
        "amenity": "bench",
        "backrest": "yes",
        "material": "granite",
        "seats": "3"
      }
    },
    {
      "type": "node",
      "id": 13075442939,
      "lat": 12.9103642,
      "lon": 77.6408431,
      "tags": {
        "amenity": "bench",
        "backrest": "yes",
        "material": "granite",
        "seats": "3"
      }
    },
    {
      "type": "node",
      "id": 13108370790,
      "lat": 12.9114081,
      "lon": 77.6443062,
      "tags": {
        "air_conditioning": "no",
        "amenity": "restaurant",
        "bar": "no",
        "changing_table": "no",
        "check_date": "2025-08-30",
        "cuisine": "indian;marathi",
        "diet:vegetarian": "yes",
        "name": "Mast Marathi",
        "opening_hours": "08:30-22:30",
        "outdoor_seating": "no",
        "phone": "+91 88849 19043",
        "smoking": "no",
        "takeaway": "yes",
        "toilets": "yes",
        "wheelchair": "no"
      }
    },
    {
      "type": "node",
      "id": 13108399900,
      "lat": 12.9113981,
      "lon": 77.6442748,
      "tags": {
        "beauty": "spa",
        "shop": "beauty"
      }
    },
    {
      "type": "node",
      "id": 13175147184,
      "lat": 12.912761,
      "lon": 77.6448505,
      "tags": {
        "amenity": "cafe",
        "check_date": "2025-09-27",
        "cuisine": "coffee_shop",
        "name": "Blue Tokai"
      }
    },
    {
      "type": "node",
      "id": 13227707085,
      "lat": 12.9124394,
      "lon": 77.6419506,
      "tags": {
        "amenity": "cafe",
        "check_date": "2025-10-12",
        "name": "The Faith Cafe",
        "wheelchair": "no"
      }
    },
    {
      "type": "node",
      "id": 13227707086,
      "lat": 12.9124724,
      "lon": 77.6384218,
      "tags": {
        "amenity": "fast_food",
        "check_date": "2025-10-12",
        "cuisine": "juice",
        "name": "Frozen Bottle"
      }
    },
    {
      "type": "node",
      "id": 13227707087,
      "lat": 12.9124581,
      "lon": 77.6383097,
      "tags": {
        "check_date": "2025-10-12",
        "name": "Sangeetha",
        "shop": "mobile_phone"
      }
    },
    {
      "type": "node",
      "id": 13288585454,
      "lat": 12.908973,
      "lon": 77.6434796,
      "tags": {
        "amenity": "cafe",
        "cuisine": "coffee_shop",
        "name": "Tribes Coffee"
      }
    },
    {
      "type": "node",
      "id": 13305153654,
      "lat": 12.9091636,
      "lon": 77.6378957,
      "tags": {
        "amenity": "bank",
        "brand": "RBL Bank",
        "brand:wikidata": "Q13120398",
        "check_date": "2025-11-15",
        "name": "RBL Bank"
      }
    },
    {
      "type": "node",
      "id": 13338743001,
      "lat": 12.9109131,
      "lon": 77.6369858,
      "tags": {
        "leisure": "sports_centre",
        "name": "Live the game"
      }
    },
    {
      "type": "node",
      "id": 13338743101,
      "lat": 12.9119044,
      "lon": 77.6379048,
      "tags": {
        "amenity": "restaurant",
        "name": "Oyster, Bar & Kitchen"
      }
    },
    {
      "type": "way",
      "id": 24490739,
      "center": {
        "lat": 12.9095538,
        "lon": 77.6432755
      },
      "tags": {
        "addr:street": "22nd Cross",
        "leisure": "sports_centre",
        "name": "HSR Club",
        "sport": "multi"
      }
    },
    {
      "type": "way",
      "id": 24491075,
      "center": {
        "lat": 12.9112631,
        "lon": 77.6460771
      },
      "tags": {
        "leisure": "sports_centre",
        "name": "HSR BBMP Ground"
      }
    },
    {
      "type": "way",
      "id": 28262977,
      "center": {
        "lat": 12.9123563,
        "lon": 77.6453097
      },
      "tags": {
        "amenity": "school",
        "name": "Gnan Shrishti School of Excellence"
      }
    },
    {
      "type": "way",
      "id": 233127585,
      "center": {
        "lat": 12.9135783,
        "lon": 77.6426414
      },
      "tags": {
        "leisure": "park",
        "opening_hours": "Mo-Su 05:00-10:00,16:00-20:00"
      }
    },
    {
      "type": "way",
      "id": 233128987,
      "center": {
        "lat": 12.907384,
        "lon": 77.6472991
      },
      "tags": {
        "addr:city": "Bangalore",
        "addr:postcode": "560102",
        "addr:street": "22nd Main Road",
        "leisure": "park",
        "name": "Independence Park"
      }
    },
    {
      "type": "way",
      "id": 323094310,
      "center": {
        "lat": 12.9097655,
        "lon": 77.646364
      },
      "tags": {
        "addr:city": "Bangalore",
        "addr:housenumber": "Park",
        "addr:postcode": "560102",
        "addr:street": "21st cross",
        "leisure": "park",
        "name": "Sector 2 Park"
      }
    },
    {
      "type": "way",
      "id": 323642593,
      "center": {
        "lat": 12.9080574,
        "lon": 77.640543
      },
      "tags": {
        "leisure": "park",
        "name": "Twin park 1"
      }
    },
    {
      "type": "way",
      "id": 323642594,
      "center": {
        "lat": 12.9075689,
        "lon": 77.6405148
      },
      "tags": {
        "leisure": "park",
        "name": "Twin park 2"
      }
    },
    {
      "type": "way",
      "id": 323699641,
      "center": {
        "lat": 12.9127898,
        "lon": 77.637659
      },
      "tags": {
        "amenity": "events_venue",
        "building": "yes",
        "name": "White Housse Banquet"
      }
    },
    {
      "type": "way",
      "id": 335080002,
      "center": {
        "lat": 12.9043962,
        "lon": 77.6500887
      },
      "tags": {
        "leisure": "park"
      }
    },
    {
      "type": "way",
      "id": 343651731,
      "center": {
        "lat": 12.9112138,
        "lon": 77.6361785
      },
      "tags": {
        "addr:city": "Bengaluru",
        "addr:postcode": "560102",
        "addr:street": "19th Cross Rd, Sector 7, HSR Layout",
        "amenity": "place_of_worship",
        "building": "yes",
        "name": "Sri Varasiddhi Vinayaka Temple",
        "religion": "hindu"
      }
    },
    {
      "type": "way",
      "id": 343665784,
      "center": {
        "lat": 12.909768,
        "lon": 77.6368984
      },
      "tags": {
        "leisure": "park"
      }
    },
    {
      "type": "way",
      "id": 343674954,
      "center": {
        "lat": 12.9091908,
        "lon": 77.6381882
      },
      "tags": {
        "addr:postcode": "560102",
        "addr:street": "22nd Cross",
        "building": "yes",
        "check_date": "2025-11-15",
        "name": "Born Babies",
        "payment:credit_cards": "yes",
        "payment:debit_cards": "yes",
        "shop": "baby_goods",
        "website": "http://www.bornbabies.in/home.html",
        "wheelchair": "yes"
      }
    },
    {
      "type": "way",
      "id": 343678672,
      "center": {
        "lat": 12.9118103,
        "lon": 77.6397016
      },
      "tags": {
        "amenity": "restaurant",
        "building": "yes",
        "check_date": "2024-06-15",
        "cuisine": "seafood",
        "diet:pescetarian": "yes",
        "internet_access": "wlan",
        "name": "Parika",
        "name:en": "Parika"
      }
    },
    {
      "type": "way",
      "id": 347501955,
      "center": {
        "lat": 12.9053525,
        "lon": 77.641394
      },
      "tags": {
        "amenity": "pharmacy",
        "branch": "Bandepalya",
        "brand": "Pradhan Mantri Bharatiya Janaushadhi Pariyojana Kendra",
        "brand:wikidata": "Q39058281",
        "building": "yes",
        "healthcare": "pharmacy",
        "name": "Jan Aushadhi",
        "official_name": "Pradhan Mantri Bharatiya Janaushadhi Pariyojana Kendra"
      }
    },
    {
      "type": "way",
      "id": 432729333,
      "center": {
        "lat": 12.9003193,
        "lon": 77.6408965
      },
      "tags": {
        "leisure": "park",
        "name": "ITI Layout Park"
      }
    },
    {
      "type": "way",
      "id": 440070555,
      "center": {
        "lat": 12.9057569,
        "lon": 77.6421786
      },
      "tags": {
        "amenity": "grave_yard"
      }
    },
    {
      "type": "way",
      "id": 440070556,
      "center": {
        "lat": 12.9051399,
        "lon": 77.6421941
      },
      "tags": {
        "amenity": "grave_yard",
        "landuse": "cemetery"
      }
    },
    {
      "type": "way",
      "id": 472322381,
      "center": {
        "lat": 12.8999058,
        "lon": 77.6493921
      },
      "tags": {
        "building": "yes",
        "name": "Shop On",
        "opening_hours": "Mo-Su 07:30-22:30",
        "shop": "department_store",
        "toilets": "yes"
      }
    },
    {
      "type": "way",
      "id": 583395809,
      "center": {
        "lat": 12.910952,
        "lon": 77.6444561
      },
      "tags": {
        "leisure": "park"
      }
    },
    {
      "type": "way",
      "id": 609531878,
      "center": {
        "lat": 12.9118135,
        "lon": 77.6398526
      },
      "tags": {
        "amenity": "restaurant",
        "building": "yes",
        "cuisine": "indian",
        "diet:vegetarian": "yes",
        "internet_access": "wlan",
        "name": "Namaste",
        "name:en": "Namaste",
        "name:kn": "ನಮಸ್ತೆ"
      }
    },
    {
      "type": "way",
      "id": 609531882,
      "center": {
        "lat": 12.9116057,
        "lon": 77.6382725
      },
      "tags": {
        "addr:housenumber": "1091",
        "brand": "Max",
        "brand:wikidata": "Q24939079",
        "building": "commercial",
        "name": "Max",
        "shop": "clothes",
        "source:addr:housenumber": "GEPTIS"
      }
    },
    {
      "type": "way",
      "id": 626885461,
      "center": {
        "lat": 12.9016626,
        "lon": 77.6502392
      },
      "tags": {
        "leisure": "swimming_pool"
      }
    },
    {
      "type": "way",
      "id": 628247480,
      "center": {
        "lat": 12.9037471,
        "lon": 77.6454097
      },
      "tags": {
        "leisure": "swimming_pool"
      }
    },
    {
      "type": "way",
      "id": 662821273,
      "center": {
        "lat": 12.9124819,
        "lon": 77.6450746
      },
      "tags": {
        "access": "private",
        "leisure": "swimming_pool",
        "location": "outdoor",
        "swimming_pool": "outdoor"
      }
    },
    {
      "type": "way",
      "id": 662821285,
      "center": {
        "lat": 12.9097007,
        "lon": 77.643343
      },
      "tags": {
        "leisure": "swimming_pool"
      }
    },
    {
      "type": "way",
      "id": 662821287,
      "center": {
        "lat": 12.9094842,
        "lon": 77.6427925
      },
      "tags": {
        "leisure": "pitch",
        "sport": "tennis"
      }
    },
    {
      "type": "way",
      "id": 741212145,
      "center": {
        "lat": 12.9078887,
        "lon": 77.6426499
      },
      "tags": {
        "leisure": "park",
        "name": "HSR Friends Park"
      }
    },
    {
      "type": "way",
      "id": 741214123,
      "center": {
        "lat": 12.9110011,
        "lon": 77.6404772
      },
      "tags": {
        "barrier": "fence",
        "leisure": "park",
        "name": "Swabhiman Park",
        "opening_hours": "Mo-Su 05:00-10:00,16:00-20:00"
      }
    },
    {
      "type": "way",
      "id": 1050019899,
      "center": {
        "lat": 12.9081171,
        "lon": 77.6363723
      },
      "tags": {
        "leisure": "park"
      }
    },
    {
      "type": "way",
      "id": 1050019900,
      "center": {
        "lat": 12.9093086,
        "lon": 77.6335962
      },
      "tags": {
        "leisure": "park"
      }
    },
    {
      "type": "way",
      "id": 1050019908,
      "center": {
        "lat": 12.9055373,
        "lon": 77.6500453
      },
      "tags": {
        "amenity": "events_venue",
        "name": "Siddhartha Convention Center"
      }
    },
    {
      "type": "way",
      "id": 1071442327,
      "center": {
        "lat": 12.9110564,
        "lon": 77.6382622
      },
      "tags": {
        "addr:housenumber": "1099",
        "building": "yes",
        "name": "Snitch",
        "shop": "clothes",
        "source": "GEPTIS"
      }
    },
    {
      "type": "way",
      "id": 1071446000,
      "center": {
        "lat": 12.9112345,
        "lon": 77.6449037
      },
      "tags": {
        "leisure": "sports_centre",
        "name": "Atal Bihari Vajpayee Sports Complex",
        "name:etymology:wikidata": "Q233289"
      }
    },
    {
      "type": "way",
      "id": 1089884374,
      "center": {
        "lat": 12.9115886,
        "lon": 77.6449817
      },
      "tags": {
        "leisure": "pitch",
        "sport": "badminton;volleyball"
      }
    },
    {
      "type": "way",
      "id": 1089884375,
      "center": {
        "lat": 12.9112223,
        "lon": 77.6449432
      },
      "tags": {
        "access": "yes",
        "leisure": "pitch",
        "sport": "basketball"
      }
    },
    {
      "type": "way",
      "id": 1089884377,
      "center": {
        "lat": 12.9113718,
        "lon": 77.6457701
      },
      "tags": {
        "leisure": "pitch",
        "sport": "cricket"
      }
    },
    {
      "type": "way",
      "id": 1096873560,
      "center": {
        "lat": 12.9004172,
        "lon": 77.6335589
      },
      "tags": {
        "amenity": "fuel",
        "brand": "Shell",
        "brand:wikidata": "Q110716465",
        "compressed_air": "yes",
        "name": "Shell",
        "name:kn": "ಶೆಲ್"
      }
    },
    {
      "type": "way",
      "id": 1097526523,
      "center": {
        "lat": 12.9126976,
        "lon": 77.6393278
      },
      "tags": {
        "amenity": "kindergarten",
        "name": "Little Millenium Preschool"
      }
    },
    {
      "type": "way",
      "id": 1097526524,
      "center": {
        "lat": 12.9126997,
        "lon": 77.6391852
      },
      "tags": {
        "amenity": "kindergarten",
        "name": "Oxford International Preschool"
      }
    },
    {
      "type": "way",
      "id": 1099659542,
      "center": {
        "lat": 12.911013,
        "lon": 77.6411318
      },
      "tags": {
        "amenity": "shelter",
        "building": "yes"
      }
    },
    {
      "type": "way",
      "id": 1099659544,
      "center": {
        "lat": 12.911118,
        "lon": 77.640254
      },
      "tags": {
        "amenity": "shelter",
        "bench": "yes",
        "building": "yes",
        "shelter_type": "gazebo"
      }
    },
    {
      "type": "way",
      "id": 1099659545,
      "center": {
        "lat": 12.9115103,
        "lon": 77.641656
      },
      "tags": {
        "branch": "Milk Parlour",
        "brand": "Nandini",
        "brand:wikidata": "Q124374212",
        "building": "yes",
        "name": "Nandini",
        "name:kn": "ನಂದಿನಿ ಹಾಲಿನ ಅಂಗಡಿ",
        "shop": "dairy"
      }
    },
    {
      "type": "way",
      "id": 1099659549,
      "center": {
        "lat": 12.9125039,
        "lon": 77.6390833
      },
      "tags": {
        "amenity": "kindergarten",
        "name": "Hive Preschool"
      }
    },
    {
      "type": "way",
      "id": 1099659564,
      "center": {
        "lat": 12.9091652,
        "lon": 77.6396117
      },
      "tags": {
        "building": "yes",
        "name": "Amber Home Interior",
        "shop": "interior_decoration"
      }
    },
    {
      "type": "way",
      "id": 1099659590,
      "center": {
        "lat": 12.9089136,
        "lon": 77.6440611
      },
      "tags": {
        "amenity": "fuel",
        "brand": "Shell",
        "brand:wikidata": "Q110716465",
        "name": "Shell",
        "name:kn": "ಶೆಲ್"
      }
    },
    {
      "type": "way",
      "id": 1099665386,
      "center": {
        "lat": 12.9109173,
        "lon": 77.6449214
      },
      "tags": {
        "access": "yes",
        "leisure": "pitch",
        "sport": "kabadi"
      }
    },
    {
      "type": "way",
      "id": 1099665394,
      "center": {
        "lat": 12.9073176,
        "lon": 77.6448038
      },
      "tags": {
        "addr:street": "19th Main",
        "amenity": "fuel",
        "brand": "Indian Oil",
        "brand:wikidata": "Q1289348",
        "brand:wikipedia": "en:Indian Oil Corporation",
        "diesel": "yes",
        "name": "Indian Oil",
        "name:kn": "ಇಂಡಿಯನ್ ಆಯಿಲ್",
        "operator": "Indian Oil"
      }
    },
    {
      "type": "way",
      "id": 1099665401,
      "center": {
        "lat": 12.9078713,
        "lon": 77.6452802
      },
      "tags": {
        "amenity": "school",
        "name": "Cambridge School ICSE",
        "name:kn": "ಕೇಂಬ್ರಿಜ್ ಶಾಲೆ",
        "wheelchair": "limited"
      }
    },
    {
      "type": "way",
      "id": 1099665402,
      "center": {
        "lat": 12.9081669,
        "lon": 77.6453308
      },
      "tags": {
        "access": "private",
        "leisure": "swimming_pool",
        "location": "outdoor",
        "swimming_pool": "outdoor"
      }
    },
    {
      "type": "way",
      "id": 1099665407,
      "center": {
        "lat": 12.9109568,
        "lon": 77.6414172
      },
      "tags": {
        "leisure": "playground"
      }
    },
    {
      "type": "way",
      "id": 1099665408,
      "center": {
        "lat": 12.9106505,
        "lon": 77.6405696
      },
      "tags": {
        "fitness_station": "fitness_station",
        "leisure": "fitness_station",
        "sport": "fitness"
      }
    },
    {
      "type": "way",
      "id": 1099665412,
      "center": {
        "lat": 12.9082086,
        "lon": 77.6435134
      },
      "tags": {
        "addr:district": "Bengaluru Urban",
        "addr:full": "Ca Site No 1, Basant Health Centre Building, 18th Main, Opposite Hsr Club",
        "addr:postcode": "560102",
        "addr:state": "Karnataka",
        "amenity": "hospital",
        "healthcare": "hospital",
        "name": "Narayana Multispeciality Hospital",
        "name:kn": "ನಾರಾಯಣ ಆಸ್ಪತ್ರೆ",
        "operator:type": "private",
        "source": "OpenGovernmentData",
        "website": "https://www.narayanahealth.org/patients/locations/Bengaluru"
      }
    },
    {
      "type": "way",
      "id": 1099665569,
      "center": {
        "lat": 12.9049803,
        "lon": 77.6440307
      },
      "tags": {
        "amenity": "restaurant",
        "building": "yes",
        "name": "Udupi Food Park"
      }
    },
    {
      "type": "way",
      "id": 1141416726,
      "center": {
        "lat": 12.9058082,
        "lon": 77.6415363
      },
      "tags": {
        "amenity": "school"
      }
    },
    {
      "type": "way",
      "id": 1188968031,
      "center": {
        "lat": 12.9060053,
        "lon": 77.6474272
      },
      "tags": {
        "access": "private",
        "leisure": "pitch",
        "sport": "tennis"
      }
    },
    {
      "type": "way",
      "id": 1188968058,
      "center": {
        "lat": 12.9014213,
        "lon": 77.647459
      },
      "tags": {
        "access": "private",
        "leisure": "swimming_pool",
        "location": "outdoor",
        "swimming_pool": "outdoor"
      }
    },
    {
      "type": "way",
      "id": 1188968062,
      "center": {
        "lat": 12.9014695,
        "lon": 77.648176
      },
      "tags": {
        "access": "private",
        "leisure": "pitch",
        "sport": "basketball"
      }
    },
    {
      "type": "way",
      "id": 1188968077,
      "center": {
        "lat": 12.9013686,
        "lon": 77.6477352
      },
      "tags": {
        "amenity": "school"
      }
    },
    {
      "type": "way",
      "id": 1206400796,
      "center": {
        "lat": 12.9107834,
        "lon": 77.6451324
      },
      "tags": {
        "access": "yes",
        "amenity": "toilets",
        "building": "yes",
        "female": "yes"
      }
    },
    {
      "type": "way",
      "id": 1206400799,
      "center": {
        "lat": 12.9119099,
        "lon": 77.6452555
      },
      "tags": {
        "access": "yes",
        "amenity": "toilets",
        "building": "yes",
        "male": "yes"
      }
    },
    {
      "type": "way",
      "id": 1209529814,
      "center": {
        "lat": 12.906842,
        "lon": 77.6455167
      },
      "tags": {
        "leisure": "pitch",
        "name": "Basketball Court",
        "name:kn": "ಬಾಸ್ಕೆಟ್ ಬಾಲ್ ಅಂಕಣ",
        "sport": "basketball"
      }
    },
    {
      "type": "way",
      "id": 1209542181,
      "center": {
        "lat": 12.9061308,
        "lon": 77.6467093
      },
      "tags": {
        "leisure": "swimming_pool",
        "name": "Pool"
      }
    },
    {
      "type": "way",
      "id": 1241312584,
      "center": {
        "lat": 12.9106829,
        "lon": 77.6468735
      },
      "tags": {
        "leisure": "pitch",
        "sport": "cricket_nets"
      }
    },
    {
      "type": "way",
      "id": 1241312586,
      "center": {
        "lat": 12.9113806,
        "lon": 77.6457685
      },
      "tags": {
        "leisure": "track",
        "sport": "running",
        "surface": "asphalt"
      }
    },
    {
      "type": "way",
      "id": 1254626816,
      "center": {
        "lat": 12.9109742,
        "lon": 77.6398816
      },
      "tags": {
        "amenity": "shelter",
        "building": "yes",
        "shelter_type": "gazebo"
      }
    },
    {
      "type": "way",
      "id": 1254626817,
      "center": {
        "lat": 12.910575,
        "lon": 77.6397573
      },
      "tags": {
        "leisure": "fitness_station",
        "sport": "fitness"
      }
    },
    {
      "type": "way",
      "id": 1254626823,
      "center": {
        "lat": 12.9110317,
        "lon": 77.641157
      },
      "tags": {
        "leisure": "bleachers"
      }
    },
    {
      "type": "way",
      "id": 1254626826,
      "center": {
        "lat": 12.9096776,
        "lon": 77.644416
      },
      "tags": {
        "leisure": "park"
      }
    },
    {
      "type": "way",
      "id": 1254749649,
      "center": {
        "lat": 12.902166,
        "lon": 77.6396091
      },
      "tags": {
        "leisure": "park"
      }
    },
    {
      "type": "way",
      "id": 1255138228,
      "center": {
        "lat": 12.8979142,
        "lon": 77.6384508
      },
      "tags": {
        "access": "customers",
        "amenity": "parking",
        "parking": "surface"
      }
    },
    {
      "type": "way",
      "id": 1255138231,
      "center": {
        "lat": 12.8979233,
        "lon": 77.6382909
      },
      "tags": {
        "addr:city": "Bengaluru",
        "addr:housenumber": "383/1-10",
        "addr:postcode": "560068",
        "addr:street": "5th Cross Road",
        "email": "hi@majesstinesports.com",
        "fee": "yes",
        "leisure": "sports_centre",
        "mobile": "+91 80 4376 0760;+91 63644 44441",
        "name": "Majesstine Sports Academy",
        "sport": "tennis;badminton;swimming;table_tennis;futsal;cricket",
        "website": "https://www.majesstinesports.com/#"
      }
    },
    {
      "type": "way",
      "id": 1272669581,
      "center": {
        "lat": 12.9103746,
        "lon": 77.6414716
      },
      "tags": {
        "access": "yes",
        "amenity": "toilets",
        "building": "yes",
        "changing_table": "no",
        "check_date": "2024-04-13",
        "fee": "no",
        "female": "yes",
        "male": "yes",
        "portable": "no",
        "toilets:disposal": "flush",
        "toilets:handwashing": "no",
        "toilets:position": "seated;urinal",
        "wheelchair": "no"
      }
    },
    {
      "type": "way",
      "id": 1272669587,
      "center": {
        "lat": 12.9120707,
        "lon": 77.6399918
      },
      "tags": {
        "access": "yes",
        "amenity": "motorcycle_parking",
        "covered": "no"
      }
    },
    {
      "type": "way",
      "id": 1272669588,
      "center": {
        "lat": 12.912012,
        "lon": 77.6422413
      },
      "tags": {
        "amenity": "motorcycle_parking"
      }
    },
    {
      "type": "way",
      "id": 1272669593,
      "center": {
        "lat": 12.9104735,
        "lon": 77.6414832
      },
      "tags": {
        "amenity": "shelter",
        "bench": "yes",
        "building": "yes"
      }
    },
    {
      "type": "way",
      "id": 1312729960,
      "center": {
        "lat": 12.8985135,
        "lon": 77.6480828
      },
      "tags": {
        "leisure": "park"
      }
    },
    {
      "type": "way",
      "id": 1348689004,
      "center": {
        "lat": 12.9031061,
        "lon": 77.6369758
      },
      "tags": {
        "amenity": "school"
      }
    },
    {
      "type": "way",
      "id": 1420991668,
      "center": {
        "lat": 12.8958924,
        "lon": 77.6416837
      },
      "tags": {
        "addr:place": "Bandepalya",
        "amenity": "school",
        "isced:level": "2",
        "name": "GHPS Bandepalya",
        "name:kn": "ಸರ್ಕಾರಿ ಹಿರಿಯ ಪ್ರಾಥಮಿಕ ಶಾಲೆ ಬಂಡೆಪಾಳ್ಯ",
        "operator": "Department of Education",
        "school": "primary"
      }
    },
    {
      "type": "way",
      "id": 1421713659,
      "center": {
        "lat": 12.9111876,
        "lon": 77.6365704
      },
      "tags": {
        "leisure": "park"
      }
    }
  ]
}