{
  "area_name": "A Adugodi",
  "osm_id": 19883248,
  "osm_type": "relation",
  "place_type": "administrative",
  "amenity_count": 268,
  "amenities": [
    {
      "type": "node",
      "id": 306588111,
      "lat": 12.935703,
      "lon": 77.6156133,
      "tags": {
        "amenity": "place_of_worship",
        "name": "Masjid-e-Mamoor",
        "name:kn": "ಮಸ್ಜಿದ್ ಎ ಮಮೂರ್",
        "religion": "muslim"
      }
    },
    {
      "type": "node",
      "id": 672579813,
      "lat": 12.941691,
      "lon": 77.6190666,
      "tags": {
        "amenity": "recycling",
        "name": "Sakappan"
      }
    },
    {
      "type": "node",
      "id": 672579826,
      "lat": 12.9419692,
      "lon": 77.6193404,
      "tags": {
        "amenity": "recycling",
        "name": "Mukesh"
      }
    },
    {
      "type": "node",
      "id": 1328615128,
      "lat": 12.9337818,
      "lon": 77.6232571,
      "tags": {
        "name": "Pai Electronics",
        "shop": "hifi"
      }
    },
    {
      "type": "node",
      "id": 1328615138,
      "lat": 12.9342471,
      "lon": 77.6234716,
      "tags": {
        "amenity": "restaurant",
        "name": "Tamrind Restaurant",
        "name:kn": "ಟ್ಯಾಮರಿಂಡ್ ರೆಸ್ಟೋರೆಂಟ್"
      }
    },
    {
      "type": "node",
      "id": 1375978245,
      "lat": 12.9338202,
      "lon": 77.6193658,
      "tags": {
        "amenity": "restaurant",
        "cuisine": "Mughlai",
        "name": "Lazeej",
        "name:kn": "ಲಜೀಜ್"
      }
    },
    {
      "type": "node",
      "id": 1375978253,
      "lat": 12.9345967,
      "lon": 77.6162526,
      "tags": {
        "amenity": "restaurant",
        "name": "Meghna Biryani",
        "name:kn": "ಮೇಘನ ಬಿರಿಯಾನಿ"
      }
    },
    {
      "type": "node",
      "id": 1375978262,
      "lat": 12.9338304,
      "lon": 77.6194655,
      "tags": {
        "amenity": "restaurant",
        "cuisine": "north indian",
        "name": "Golmal Paratha",
        "name:kn": "ಗೊಲ್ಮಾಲ್ ಪರಾಟ"
      }
    },
    {
      "type": "node",
      "id": 1375978263,
      "lat": 12.9345246,
      "lon": 77.6162996,
      "tags": {
        "amenity": "cafe",
        "brand": "Costa",
        "brand:wikidata": "Q608845",
        "cuisine": "coffee_shop",
        "name": "Costa",
        "takeaway": "yes"
      }
    },
    {
      "type": "node",
      "id": 1375978266,
      "lat": 12.9336331,
      "lon": 77.622557,
      "tags": {
        "amenity": "restaurant",
        "cuisine": "chinese",
        "name": "Ping",
        "name:kn": "ಪಿಂಗ್"
      }
    },
    {
      "type": "node",
      "id": 1375978277,
      "lat": 12.9338227,
      "lon": 77.6193019,
      "tags": {
        "amenity": "restaurant",
        "cuisine": "tandoori",
        "name": "Tunday Kabab",
        "name:kn": "ತುಂಡೆ ಕಬಾಬ್"
      }
    },
    {
      "type": "node",
      "id": 1375978283,
      "lat": 12.9337973,
      "lon": 77.6189966,
      "tags": {
        "amenity": "restaurant",
        "name": "KC Das",
        "name:kn": "ಕೆಸಿ ದಾಸ್"
      }
    },
    {
      "type": "node",
      "id": 1375978291,
      "lat": 12.9338857,
      "lon": 77.6194174,
      "tags": {
        "amenity": "restaurant",
        "name": "Tandoor Hut",
        "name:kn": "ತಂದೂರ್ ಹಟ್"
      }
    },
    {
      "type": "node",
      "id": 1457778754,
      "lat": 12.9361984,
      "lon": 77.6214666,
      "tags": {
        "amenity": "restaurant",
        "cuisine": "chinese",
        "name": "China Pearl",
        "name:kn": "ಚೈನಾ ಪರ್ಲ್"
      }
    },
    {
      "type": "node",
      "id": 1464156665,
      "lat": 12.9423147,
      "lon": 77.6150065,
      "tags": {
        "addr:postcode": "560095",
        "addr:street": "Adugodi main road",
        "name": "More Supermarket",
        "name:kn": "ಮೋರ್",
        "shop": "supermarket"
      }
    },
    {
      "type": "node",
      "id": 1464790791,
      "lat": 12.9336643,
      "lon": 77.6231619,
      "tags": {
        "addr:city": "Bengaluru",
        "addr:street": "Koramanagala",
        "amenity": "bank",
        "atm": "yes",
        "brand": "Kotak Mahindra Bank",
        "brand:wikidata": "Q2040404",
        "drive_through": "no",
        "name": "Kotak Mahindra Bank",
        "name:en": "Kotak Mahindra Bank",
        "name:kn": "ಕೋಟಕ್ ಮಹಿಂದ್ರ ಬ್ಯಾಂಕ್"
      }
    },
    {
      "type": "node",
      "id": 1464790817,
      "lat": 12.9338891,
      "lon": 77.6232852,
      "tags": {
        "addr:city": "Bengaluru",
        "addr:street": "Koramangala",
        "amenity": "bank",
        "atm": "yes",
        "brand": "IDBI Bank",
        "brand:wikidata": "Q3633485",
        "drive_through": "no",
        "name": "IDBI Bank",
        "name:kn": "ಐಡಿಬಿಐ ಬ್ಯಾಂಕ್",
        "old_name": "Industrial Development Bank of India",
        "short_name": "IDBI"
      }
    },
    {
      "type": "node",
      "id": 1464791102,
      "lat": 12.935716,
      "lon": 77.6218199,
      "tags": {
        "name": "Nilgiris",
        "name:kn": "ನೀಲ್ಗಿರಿಸ್",
        "shop": "convenience"
      }
    },
    {
      "type": "node",
      "id": 1464792933,
      "lat": 12.9404971,
      "lon": 77.6207624,
      "tags": {
        "addr:place": "Koramangala",
        "amenity": "school",
        "isced:level": "3",
        "name": "Bethany High School Koramangala",
        "name:kn": "ಬೆಥನಿ ಪ್ರೌಢಶಾಲೆ ,ಕೋರಮಂಗಲ",
        "operator": "Private Un-Aided",
        "school": "Higher Secondary"
      }
    },
    {
      "type": "node",
      "id": 1465646870,
      "lat": 12.9368587,
      "lon": 77.6200385,
      "tags": {
        "addr:street": "Koramangala 5t cross",
        "designation": "Liqour boutique",
        "name": "Madhuloka",
        "name:kn": "ಮಧುಲೋಕ",
        "shop": "alcohol"
      }
    },
    {
      "type": "node",
      "id": 1465650471,
      "lat": 12.9365646,
      "lon": 77.6207273,
      "tags": {
        "addr:street": "Kor 5th cross",
        "amenity": "bar",
        "designation": "Bar cum pub",
        "name": "Banana Beach bar"
      }
    },
    {
      "type": "node",
      "id": 1465655319,
      "lat": 12.9364031,
      "lon": 77.6207917,
      "tags": {
        "addr:housename": "Filling station",
        "addr:street": "Koramangala 5th cross",
        "amenity": "bar;pub;restaurant",
        "name": "Filling station"
      }
    },
    {
      "type": "node",
      "id": 1465657720,
      "lat": 12.9362976,
      "lon": 77.6213531,
      "tags": {
        "addr:housename": "Hotel Nandhana Palace",
        "amenity": "restaurant",
        "cuisine": "indian",
        "designation": "Business class hotel",
        "name": "Nandhana Grand",
        "name:kn": "ನಂದನಾ ಗ್ರಾಂಡ್"
      }
    },
    {
      "type": "node",
      "id": 1465668254,
      "lat": 12.9366384,
      "lon": 77.6206523,
      "tags": {
        "addr:housename": "Fulki Boutique",
        "addr:housenumber": "55",
        "addr:postcode": "560095",
        "addr:street": "6th block koramangala",
        "designation": "Salwars, sarees and designer tops boutique",
        "name": "fulki",
        "shop": "clothes"
      }
    },
    {
      "type": "node",
      "id": 1465678880,
      "lat": 12.9365443,
      "lon": 77.6205772,
      "tags": {
        "addr:housename": "U fashion store",
        "addr:housenumber": "100",
        "addr:postcode": "560095",
        "addr:street": "5th cross 5th block koramangala",
        "designation": "garments for women",
        "name": "U Fashion store",
        "shop": "clothes"
      }
    },
    {
      "type": "node",
      "id": 1465741141,
      "lat": 12.941685,
      "lon": 77.621969,
      "tags": {
        "amenity": "place_of_worship",
        "denomination": "all",
        "designation": "ganapathy aanjaneya and raghavendra",
        "name": "Ganapathy, Anjaneya, Raghavendra Swamy temple",
        "religion": "hindu"
      }
    },
    {
      "type": "node",
      "id": 1465777960,
      "lat": 12.9418577,
      "lon": 77.6159961,
      "tags": {
        "addr:postcode": "560095",
        "addr:street": "Adugodi main road",
        "name": "Forum bakery",
        "shop": "convenience"
      }
    },
    {
      "type": "node",
      "id": 1466631787,
      "lat": 12.9429573,
      "lon": 77.6174085,
      "tags": {
        "addr:district": "Bengaluru Urban",
        "addr:full": "No.3&4, 7Nth Main 1st Block OppositeB.T.S Kalyana Mantapa Koramangala",
        "addr:postcode": "560034",
        "addr:state": "Karnataka",
        "amenity": "clinic",
        "name": "Sharadha Nursing Home",
        "source": "OpenGovernmentData"
      }
    },
    {
      "type": "node",
      "id": 1466752184,
      "lat": 12.9402493,
      "lon": 77.6201159,
      "tags": {
        "shop": "florist"
      }
    },
    {
      "type": "node",
      "id": 1466753854,
      "lat": 12.9373737,
      "lon": 77.6194722,
      "tags": {
        "name": "Shri Venkateshwara flowers",
        "shop": "florist"
      }
    },
    {
      "type": "node",
      "id": 1467812451,
      "lat": 12.943764,
      "lon": 77.6071874,
      "tags": {
        "amenity": "restaurant",
        "name": "Adigas",
        "name:kn": "ಅಡಿಗಾಸ್"
      }
    },
    {
      "type": "node",
      "id": 1467937188,
      "lat": 12.9368528,
      "lon": 77.6203487,
      "tags": {
        "addr:housename": "Willi vanili",
        "addr:postcode": "560095",
        "addr:street": "5th block Koramangala",
        "amenity": "restaurant",
        "cuisine": "ice_cream",
        "designation": "Ice cream parlor",
        "name": "Willy Vanilli",
        "name:kn": "ವಿಲ್ಲಿ ವನಿಲಿ"
      }
    },
    {
      "type": "node",
      "id": 1467937189,
      "lat": 12.9366057,
      "lon": 77.6205137,
      "tags": {
        "addr:housename": "Chung Wah",
        "addr:housenumber": "20",
        "amenity": "restaurant",
        "cuisine": "chinese",
        "name": "Chung wah",
        "name:kn": "ಚಂಗ್ ವ",
        "website": "http://chungwahrestaurants.co.in/"
      }
    },
    {
      "type": "node",
      "id": 1468025778,
      "lat": 12.9368986,
      "lon": 77.6198954,
      "tags": {
        "amenity": "restaurant",
        "diet:vegetarian": "only",
        "name": "Krishna Cafe",
        "name:en": "Sree Krishna Cafe",
        "name:kn": "ಶ್ರೀಕೃಷ್ಣ ಕೆಫೆ"
      }
    },
    {
      "type": "node",
      "id": 1468025788,
      "lat": 12.9369809,
      "lon": 77.6197694,
      "tags": {
        "amenity": "restaurant",
        "diet:vegetarian": "only",
        "name": "Anand Sweets and Restaurant",
        "name:kn": "ಆನಂದ್ ಸ್ವೀಟ್ಸ್ ಮತ್ತು ರೆಸ್ಟೋರೆಂಟ್"
      }
    },
    {
      "type": "node",
      "id": 1468025793,
      "lat": 12.9397911,
      "lon": 77.6222423,
      "tags": {
        "name": "Aanchal",
        "shop": "clothes"
      }
    },
    {
      "type": "node",
      "id": 1468235009,
      "lat": 12.9371352,
      "lon": 77.619779,
      "tags": {
        "amenity": "restaurant",
        "name": "Flambe",
        "name:kn": "ಫ್ಲಂಬೆ"
      }
    },
    {
      "type": "node",
      "id": 1468516360,
      "lat": 12.9370938,
      "lon": 77.6199696,
      "tags": {
        "designation": "Men's garments",
        "name": "F square",
        "shop": "clothes"
      }
    },
    {
      "type": "node",
      "id": 1468516361,
      "lat": 12.9368481,
      "lon": 77.6198784,
      "tags": {
        "amenity": "restaurant",
        "cuisine": "international",
        "name": "Sizzlers and more",
        "name:kn": "ಸಿಜ್ಲರ್ಸ್ ಆಂಡ್ ಮೋರ್"
      }
    },
    {
      "type": "node",
      "id": 1468516362,
      "lat": 12.9357659,
      "lon": 77.6217238,
      "tags": {
        "designation": "Garments",
        "name": "Swiss Embroideries",
        "shop": "clothes"
      }
    },
    {
      "type": "node",
      "id": 1468516365,
      "lat": 12.936937,
      "lon": 77.6202003,
      "tags": {
        "amenity": "restaurant",
        "cuisine": "chinese",
        "name": "China Bowl restaurant",
        "name:kn": "ಚೈನ ಬೌಲ್ ರೆಸ್ಟೊರೆಂಟ್"
      }
    },
    {
      "type": "node",
      "id": 1468516366,
      "lat": 12.9356613,
      "lon": 77.621933,
      "tags": {
        "addr:postcode": "560095",
        "addr:street": "5th cross Koramangala",
        "brand": "Kanti Sweets",
        "name": "Kanti Sweets",
        "shop": "confectionery"
      }
    },
    {
      "type": "node",
      "id": 1468516367,
      "lat": 12.9368167,
      "lon": 77.619975,
      "tags": {
        "designation": "Jewelry",
        "name": "Shubh Jewellers",
        "shop": "jewelry"
      }
    },
    {
      "type": "node",
      "id": 1468516368,
      "lat": 12.9368899,
      "lon": 77.6197711,
      "tags": {
        "amenity": "restaurant",
        "cuisine": "indian",
        "name": "Malabar cafe",
        "name:kn": "ಮಲಬಾರ್ ಕೆಫೆ"
      }
    },
    {
      "type": "node",
      "id": 1468516369,
      "lat": 12.9369893,
      "lon": 77.6201144,
      "tags": {
        "amenity": "restaurant",
        "cuisine": "indian",
        "designation": "1st floor",
        "name": "Desi Tadka",
        "name:kn": "ದೆಸಿ ಟಡ್ಕ"
      }
    },
    {
      "type": "node",
      "id": 1468516376,
      "lat": 12.9368533,
      "lon": 77.6201144,
      "tags": {
        "designation": "Men's garments",
        "name": "Reid & Taylor",
        "shop": "clothes"
      }
    },
    {
      "type": "node",
      "id": 1470523369,
      "lat": 12.936209,
      "lon": 77.6171253,
      "tags": {
        "amenity": "atm",
        "brand": "Deutsche Bank",
        "brand:wikidata": "Q66048",
        "fee": "no",
        "name": "Deutsche Bank",
        "operator": "Deutsche Bank",
        "operator:wikidata": "Q66048"
      }
    },
    {
      "type": "node",
      "id": 1470523376,
      "lat": 12.9352797,
      "lon": 77.6157628,
      "tags": {
        "amenity": "restaurant",
        "cuisine": "chinese",
        "name": "Chung Wah Restaurant",
        "name:kn": "ಚುಂಗ್ ವಾ ರೆಸ್ಟೊರೆಂಟ್"
      }
    },
    {
      "type": "node",
      "id": 1470523377,
      "lat": 12.933719,
      "lon": 77.6176805,
      "tags": {
        "designation": "Kids and Gift shop",
        "name": "Kids N Gifts",
        "shop": "gift"
      }
    },
    {
      "type": "node",
      "id": 1470523379,
      "lat": 12.9369821,
      "lon": 77.6181785,
      "tags": {
        "amenity": "toilets"
      }
    },
    {
      "type": "node",
      "id": 1470523381,
      "lat": 12.9338184,
      "lon": 77.6192443,
      "tags": {
        "designation": "Ladies Wear",
        "name": "Gia Garments",
        "shop": "clothes"
      }
    },
    {
      "type": "node",
      "id": 1470523383,
      "lat": 12.9338001,
      "lon": 77.619424,
      "tags": {
        "amenity": "restaurant",
        "cuisine": "ice_cream",
        "designation": "Italian Ice-cream",
        "name": "Mama mia",
        "name:kn": "ಮಾಮ ಮೀಯ"
      }
    },
    {
      "type": "node",
      "id": 1470523388,
      "lat": 12.9365946,
      "lon": 77.6176725,
      "tags": {
        "designation": "Fruits and Vegetables",
        "name": "Hopcoms",
        "name:kn": "ಹಾಪ್ ಕಾಮ್ಸ್",
        "shop": "convenience"
      }
    },
    {
      "type": "node",
      "id": 1470523389,
      "lat": 12.9351281,
      "lon": 77.6228492,
      "tags": {
        "name": "House Man Cleaners",
        "shop": "dry_cleaning;laundry"
      }
    },
    {
      "type": "node",
      "id": 1470523393,
      "lat": 12.936712,
      "lon": 77.6176175,
      "tags": {
        "amenity": "bench",
        "designation": "Lakshmi Devi Park"
      }
    },
    {
      "type": "node",
      "id": 1470523396,
      "lat": 12.9365949,
      "lon": 77.6177189,
      "tags": {
        "addr:postcode": "560095",
        "addr:street": "20th Main",
        "shop": "florist"
      }
    },
    {
      "type": "node",
      "id": 1470631822,
      "lat": 12.9366085,
      "lon": 77.6181363,
      "tags": {
        "amenity": "bank",
        "atm": "yes",
        "brand": "Oriental Bank of Commerce",
        "brand:wikidata": "Q367008",
        "brand:wikipedia": "en:Oriental Bank of Commerce",
        "name": "Oriental Bank of Commerce",
        "name:en": "Oriental Bank of Commerce",
        "short_name": "OBC",
        "website": "https://www.obcindia.co.in"
      }
    },
    {
      "type": "node",
      "id": 1470634294,
      "lat": 12.9364753,
      "lon": 77.621053,
      "tags": {
        "amenity": "restaurant",
        "name": "Oye Amritsar",
        "name:kn": "ಓಯ್ ಅಮೃತ್ಸರ್"
      }
    },
    {
      "type": "node",
      "id": 1470634295,
      "lat": 12.9362348,
      "lon": 77.6210315,
      "tags": {
        "name": "Hot Chips",
        "shop": "convenience"
      }
    },
    {
      "type": "node",
      "id": 1470634304,
      "lat": 12.9367367,
      "lon": 77.6206239,
      "tags": {
        "amenity": "restaurant",
        "name": "Pizzeria Romano",
        "name:kn": "ಪಿಜೆರಿಯ ರೊಮನೊ"
      }
    },
    {
      "type": "node",
      "id": 1470634329,
      "lat": 12.9375575,
      "lon": 77.618462,
      "tags": {
        "amenity": "place_of_worship",
        "name": "Chamundeshwari Temple",
        "name:kn": "ಚಾಮುಂಡೇಶ್ವರಿ ದೇವಸ್ಥಾನ",
        "religion": "hindu"
      }
    },
    {
      "type": "node",
      "id": 1470707052,
      "lat": 12.941581,
      "lon": 77.617208,
      "tags": {
        "amenity": "pharmacy",
        "name": "Krishna Pharma"
      }
    },
    {
      "type": "node",
      "id": 1471128625,
      "lat": 12.9388934,
      "lon": 77.6188923,
      "tags": {
        "amenity": "library",
        "name": "Just Books",
        "name:kn": "ಜಸ್ಟ್ ಬುಕ್ಸ್"
      }
    },
    {
      "type": "node",
      "id": 1471128628,
      "lat": 12.9382768,
      "lon": 77.6186753,
      "tags": {
        "amenity": "hospital",
        "emergency": "yes",
        "healthcare": "hospital",
        "name": "Pristine Health care"
      }
    },
    {
      "type": "node",
      "id": 1471128630,
      "lat": 12.9388779,
      "lon": 77.61893,
      "tags": {
        "amenity": "restaurant",
        "cuisine": "coffee_shop",
        "name": "Kiwi kiss",
        "name:kn": "ಕಿವಿ ಕಿಸ್"
      }
    },
    {
      "type": "node",
      "id": 1471128642,
      "lat": 12.9392359,
      "lon": 77.6191015,
      "tags": {
        "name": "Scissors Enrich Unisex salon",
        "shop": "hairdresser"
      }
    },
    {
      "type": "node",
      "id": 1471128646,
      "lat": 12.9380674,
      "lon": 77.6188279,
      "tags": {
        "name": "Sizzling styles beauty parlor",
        "shop": "hairdresser"
      }
    },
    {
      "type": "node",
      "id": 1471128651,
      "lat": 12.9359421,
      "lon": 77.6157219,
      "tags": {
        "name": "Airtel Office",
        "name:kn": "ಏರ್ಟೆಲ್",
        "shop": "telecommunication"
      }
    },
    {
      "type": "node",
      "id": 1471128655,
      "lat": 12.9390997,
      "lon": 77.6190857,
      "tags": {
        "brand": "Bajaj",
        "brand:wikidata": "Q10910065",
        "name": "Bajaj Showroom",
        "shop": "motorcycle"
      }
    },
    {
      "type": "node",
      "id": 1471128658,
      "lat": 12.9386399,
      "lon": 77.6188173,
      "tags": {
        "amenity": "bank",
        "atm": "yes",
        "brand": "State Bank of India",
        "brand:wikidata": "Q1340361",
        "brand:wikipedia": "en:State Bank of India",
        "name": "State Bank of India",
        "name:kn": "ಭಾರತೀಯ ಸ್ಟೇಟ್ ಬ್ಯಾಂಕ್",
        "short_name": "SBI",
        "website": "https://www.sbi.co.in"
      }
    },
    {
      "type": "node",
      "id": 1471128660,
      "lat": 12.93893,
      "lon": 77.6189888,
      "tags": {
        "amenity": "cafe",
        "cuisine": "indian",
        "name": "Booster Juice"
      }
    },
    {
      "type": "node",
      "id": 1474324424,
      "lat": 12.9356619,
      "lon": 77.619186,
      "tags": {
        "name": "DHL couriers",
        "shop": "convenience"
      }
    },
    {
      "type": "node",
      "id": 1474324426,
      "lat": 12.9365507,
      "lon": 77.6204895,
      "tags": {
        "amenity": "restaurant",
        "cuisine": "international",
        "name": "Olio",
        "name:kn": "ಒಲಿಒ"
      }
    },
    {
      "type": "node",
      "id": 1474324431,
      "lat": 12.9372461,
      "lon": 77.6198029,
      "tags": {
        "name": "Sthra",
        "shop": "clothes"
      }
    },
    {
      "type": "node",
      "id": 1474324437,
      "lat": 12.9368121,
      "lon": 77.6200764,
      "tags": {
        "name": "Gini & Jony",
        "shop": "clothes"
      }
    },
    {
      "type": "node",
      "id": 1474324439,
      "lat": 12.9367494,
      "lon": 77.6200067,
      "tags": {
        "amenity": "cafe",
        "cuisine": "coffee_shop",
        "name": "Coffee Lounge"
      }
    },
    {
      "type": "node",
      "id": 1474324446,
      "lat": 12.9371565,
      "lon": 77.6194335,
      "tags": {
        "name": "G K Vale Photo Studio",
        "shop": "photo"
      }
    },
    {
      "type": "node",
      "id": 1474324449,
      "lat": 12.9370422,
      "lon": 77.6200711,
      "tags": {
        "name": "Proline fitness",
        "shop": "hifi"
      }
    },
    {
      "type": "node",
      "id": 1474351202,
      "lat": 12.9377454,
      "lon": 77.6188695,
      "tags": {
        "name": "New meena cotton sale",
        "shop": "clothes"
      }
    },
    {
      "type": "node",
      "id": 1474351209,
      "lat": 12.9373532,
      "lon": 77.6195239,
      "tags": {
        "name": "Meena Fashions",
        "shop": "clothes"
      }
    },
    {
      "type": "node",
      "id": 1474351211,
      "lat": 12.9370761,
      "lon": 77.6204976,
      "tags": {
        "amenity": "kindergarten",
        "name": "Anubhav Play school"
      }
    },
    {
      "type": "node",
      "id": 1474351218,
      "lat": 12.9374839,
      "lon": 77.6194381,
      "tags": {
        "name": "Book sale",
        "shop": "books"
      }
    },
    {
      "type": "node",
      "id": 1669961198,
      "lat": 12.9337369,
      "lon": 77.6176108,
      "tags": {
        "name": "Lords & Kings Eye Gallery",
        "shop": "optician"
      }
    },
    {
      "type": "node",
      "id": 1675248129,
      "lat": 12.935464,
      "lon": 77.616304,
      "tags": {
        "name": "Furtados Music India Private Limited",
        "shop": "music"
      }
    },
    {
      "type": "node",
      "id": 1683016694,
      "lat": 12.9417658,
      "lon": 77.6158811,
      "tags": {
        "amenity": "bank",
        "atm": "yes",
        "brand": "Corporation Bank",
        "brand:wikidata": "Q2003387",
        "brand:wikipedia": "en:Corporation Bank",
        "name": "Corporation Bank",
        "name:en": "Corporation Bank",
        "name:kn": "ಕಾರ್ಪರೇಷನ್ ಬ್ಯಾಂಕ್",
        "website": "https://corpbank.com/"
      }
    },
    {
      "type": "node",
      "id": 1781815219,
      "lat": 12.9410107,
      "lon": 77.6176795,
      "tags": {
        "amenity": "pharmacy",
        "dispensing": "no",
        "name": "Lavish Medical"
      }
    },
    {
      "type": "node",
      "id": 1781815220,
      "lat": 12.9416536,
      "lon": 77.6161121,
      "tags": {
        "name": "Surf In Cyber Cafe",
        "shop": "stationery"
      }
    },
    {
      "type": "node",
      "id": 1781889338,
      "lat": 12.939175,
      "lon": 77.6191546,
      "tags": {
        "craft": "photographer",
        "name": "G K Vale Photo Studio",
        "shop": "electronics"
      }
    },
    {
      "type": "node",
      "id": 1781959093,
      "lat": 12.9410164,
      "lon": 77.6175336,
      "tags": {
        "name": "Pooja Items",
        "religion": "hindu",
        "shop": "gift"
      }
    },
    {
      "type": "node",
      "id": 3013765074,
      "lat": 12.9363204,
      "lon": 77.6222034,
      "tags": {
        "addr:city": "Bangalore",
        "addr:postcode": "560095",
        "addr:street": "17th E Main",
        "amenity": "restaurant",
        "cuisine": "international",
        "name": "Black Pepper Lounge",
        "smoking": "separated"
      }
    },
    {
      "type": "node",
      "id": 3211789974,
      "lat": 12.9341751,
      "lon": 77.6170762,
      "tags": {
        "amenity": "restaurant",
        "name": "California Burritos"
      }
    },
    {
      "type": "node",
      "id": 3463769188,
      "lat": 12.9419581,
      "lon": 77.6227858,
      "tags": {
        "amenity": "school",
        "name": "Eye Level Learning Center"
      }
    },
    {
      "type": "node",
      "id": 3463769191,
      "lat": 12.9404424,
      "lon": 77.6217797,
      "tags": {
        "leisure": "hackerspace",
        "name": "BHive"
      }
    },
    {
      "type": "node",
      "id": 3510047245,
      "lat": 12.9371896,
      "lon": 77.6176798,
      "tags": {
        "addr:city": "Koramangala",
        "addr:housenumber": "Shop No. 1, No. 23 MIG",
        "addr:postcode": "560030",
        "addr:street": "KHB Colony, Next To Mangala Kalyana Mantapa 5th Block Adugodi Road, Koramangala 8th Block",
        "amenity": "cafe",
        "cuisine": "coffee_shop",
        "name": "Dyu Art Cafe",
        "opening_hours": "10:00-22:30"
      }
    },
    {
      "type": "node",
      "id": 3510053759,
      "lat": 12.9360891,
      "lon": 77.6159498,
      "tags": {
        "addr:city": "Koramangala",
        "addr:housenumber": "Next to Airtel Office",
        "addr:postcode": "560095",
        "addr:street": "80 Feet Road, 5th Block",
        "amenity": "cafe",
        "cuisine": "Juice_shop",
        "internet_access": "no",
        "name": "Juicy",
        "smoking": "outside"
      }
    },
    {
      "type": "node",
      "id": 3510063809,
      "lat": 12.9359584,
      "lon": 77.6162475,
      "tags": {
        "addr:city": "Koramangala",
        "addr:housenumber": "A/4, KHB Colony, Near Airtel Office",
        "addr:postcode": "560095",
        "addr:street": "5th Block, 80 Feet Road",
        "amenity": "restaurant",
        "cuisine": "chinese",
        "delivery": "yes",
        "name": "Momoz",
        "opening_hours": "12 Noon to 3:30 PM, 7 PM to 11 PM",
        "phone": "+91 80 41739353",
        "smoking": "outside"
      }
    },
    {
      "type": "node",
      "id": 3535507108,
      "lat": 12.9374554,
      "lon": 77.6195629,
      "tags": {
        "name": "Vasthraa",
        "shop": "clothes"
      }
    },
    {
      "type": "node",
      "id": 3955672810,
      "lat": 12.9337036,
      "lon": 77.6229616,
      "tags": {
        "addr:city": "Bengaluru",
        "addr:postcode": "560034",
        "addr:suburb": "Koramangala",
        "brand": "Nature's Basket",
        "brand:wikidata": "Q28174237",
        "level": "0",
        "name": "Nature's Basket",
        "opening_hours": "8:00-22:00",
        "operator": "Natures Basket Limited",
        "organic": "yes",
        "phone": "+91 80 41 31 74 01",
        "shop": "supermarket",
        "shop_1": "deli",
        "source": "website",
        "website": "http://www.naturesbasket.co.in/"
      }
    },
    {
      "type": "node",
      "id": 4191956493,
      "lat": 12.9416121,
      "lon": 77.6172504,
      "tags": {
        "amenity": "atm",
        "opening_hours": "24/7"
      }
    },
    {
      "type": "node",
      "id": 4191976704,
      "lat": 12.9411724,
      "lon": 77.6172571,
      "tags": {
        "amenity": "fast_food",
        "cuisine": "indian;south_indian",
        "name": "Ksheera Sagar",
        "takeaway": "yes"
      }
    },
    {
      "type": "node",
      "id": 4191976705,
      "lat": 12.940484,
      "lon": 77.6183624,
      "tags": {
        "amenity": "atm"
      }
    },
    {
      "type": "node",
      "id": 4192020689,
      "lat": 12.9414316,
      "lon": 77.6174359,
      "tags": {
        "amenity": "atm",
        "opening_hours": "24/7"
      }
    },
    {
      "type": "node",
      "id": 4307156988,
      "lat": 12.9355231,
      "lon": 77.6189666,
      "tags": {
        "addr:city": "Bangalore",
        "addr:housenumber": "272",
        "addr:street": "17th D Main Rd, 5th Block, Koramangala",
        "amenity": "cafe",
        "cuisine": "regional;odia",
        "internet_access": "no",
        "name": "Pahala Rasagola shop",
        "note": "Odia sweets like Rasagola (Rosogola/Rasgulla), Chenapodo (Chenapoda) and other snacks like Dahibara-Aludomo (aludum), Singoda (singada/samosa), Alu-chopo (alu chop).",
        "opening_hours": "Mo-Su 07:30-21:00",
        "smoking": "no"
      }
    },
    {
      "type": "node",
      "id": 4392117494,
      "lat": 12.9371939,
      "lon": 77.6198328,
      "tags": {
        "amenity": "restaurant",
        "name": "Upsouth",
        "name:en": "Upsouth"
      }
    },
    {
      "type": "node",
      "id": 4392117495,
      "lat": 12.9365073,
      "lon": 77.6197375,
      "tags": {
        "amenity": "restaurant",
        "name": "Swadist",
        "name:en": "Swadist"
      }
    },
    {
      "type": "node",
      "id": 4392272590,
      "lat": 12.9359986,
      "lon": 77.619624,
      "tags": {
        "name": "Sree Uday Sweets",
        "name:en": "Sree Uday Sweets",
        "shop": "confectionery"
      }
    },
    {
      "type": "node",
      "id": 4392379191,
      "lat": 12.9360738,
      "lon": 77.6194476,
      "tags": {
        "name": "Bangalore Horticulture Fruits and Vegetables",
        "name:en": "Bangalore Horticulture Fruits and Vegetables",
        "shop": "greengrocer"
      }
    },
    {
      "type": "node",
      "id": 4392383890,
      "lat": 12.9368104,
      "lon": 77.6206345,
      "tags": {
        "addr:district": "Bengaluru Urban",
        "addr:full": "No.58, 5th Cross, 18th Main Dhanlakshmi Bank Building",
        "addr:postcode": "560095",
        "addr:state": "Karnataka",
        "addr:subdistrict": "Koramangala",
        "amenity": "hospital",
        "email": "contactus@apollocradle.com",
        "healthcare:speciality": "Maternity Services; Birthing Fertility and IVF; Woman's Health; Women Health Checks; Procedures; Cancer Evaluation; Children's Health; New Born Screening; Vaccination",
        "name": "Apollo Cradle",
        "name:en": "Apollo Cradle",
        "operator:type": "private",
        "source": "OpenGovernmentData",
        "website": "https://www.apollocradle.com/"
      }
    },
    {
      "type": "node",
      "id": 4392383891,
      "lat": 12.9367073,
      "lon": 77.6206344,
      "tags": {
        "amenity": "atm",
        "operator": "Dhanalakshmi Bank"
      }
    },
    {
      "type": "node",
      "id": 4411070791,
      "lat": 12.9353544,
      "lon": 77.6210999,
      "tags": {
        "addr:housenumber": "No.15",
        "addr:postcode": "560095",
        "addr:street": "17th B Main Road",
        "name": "William Penn Private Limited (Pendels)",
        "name:de": "William Penn Private Limited (Schreibwarengeschäft)",
        "name:en": "William Penn Private Limited (Pendels)",
        "opening_hours": "Mo-Sa 09:00-18:00",
        "phone": "+91 80 4053 5555",
        "shop": "gift",
        "website": "https://www.williampenn.net/"
      }
    },
    {
      "type": "node",
      "id": 4447019429,
      "lat": 12.9438907,
      "lon": 77.6073926,
      "tags": {
        "addr:city": "Bangalore",
        "addr:postcode": "560030",
        "addr:street": "Hosur Rd, Ayappa Garden, Adugodi",
        "amenity": "restaurant",
        "cuisine": "regional",
        "delivery": "yes",
        "name": "Hruday's D- 3",
        "opening_hours": "05:30-22:00",
        "phone": "080 6546 4662",
        "smoking": "no",
        "takeaway": "yes"
      }
    },
    {
      "type": "node",
      "id": 4447087999,
      "lat": 12.9353208,
      "lon": 77.6205504,
      "tags": {
        "addr:city": "Bangalore",
        "addr:district": "Bengaluru Urban",
        "addr:full": "435, Acura Hospital, 18th Main, 6th Block, Koramangala",
        "addr:housenumber": "105",
        "addr:postcode": "560095",
        "addr:state": "Karnataka",
        "addr:street": "5th Block, 17th C Main Road, KHB Colony , Koramangala",
        "amenity": "hospital",
        "name": "Acura Speciality Hospital",
        "operator:type": "private",
        "phone": "+9180 4110 5151",
        "source": "OpenGovernmentData",
        "website": "https://www.seekandsource.com/acurahospital"
      }
    },
    {
      "type": "node",
      "id": 4447127002,
      "lat": 12.9338298,
      "lon": 77.6199371,
      "tags": {
        "addr:city": "Bangalore",
        "addr:housenumber": "143",
        "addr:postcode": "560034",
        "addr:street": "4th Floor, 1st Cross, 5th Block, Koramangala",
        "amenity": "clinic",
        "healthcare": "clinic",
        "name": "Nova IVI Fertility",
        "phone": "080673 66244",
        "source": "justdial",
        "website": "https://novaivifertility.com/"
      }
    },
    {
      "type": "node",
      "id": 4487927689,
      "lat": 12.9364072,
      "lon": 77.621398,
      "tags": {
        "addr:city": "Bangalore",
        "addr:full": "Ground Floor, ARD Complex, 5th Cross, 6th Block, 5th Block, Koramangala",
        "addr:housenumber": "99",
        "addr:postcode": "560095",
        "addr:street": "5th Cross Road",
        "name": "Proline Fitness",
        "opening_hours": "10:30-21:00",
        "phone": "080 4164 3592",
        "shop": "sports",
        "website": "prolinefitness.in"
      }
    },
    {
      "type": "node",
      "id": 4489715133,
      "lat": 12.9358801,
      "lon": 77.6214605,
      "tags": {
        "addr:city": "Bangalore",
        "addr:housenumber": "34,",
        "addr:postcode": "560095",
        "addr:street": "60 Feet Rd, KHB Block Koramangala, 5th Block, Koramangala, Bengaluru, Karnataka",
        "leisure": "sports_centre",
        "name": "Cutz and Curvz Fitness",
        "opening_hours": "5:30-22:00",
        "phone": "093422 60772"
      }
    },
    {
      "type": "node",
      "id": 4489771035,
      "lat": 12.9349925,
      "lon": 77.6228415,
      "tags": {
        "addr:city": "Bangalore",
        "addr:housenumber": "No.22/1,",
        "addr:postcode": "560034",
        "addr:street": "Koramangala",
        "name": "Four Fountains De Stress Spa",
        "opening_hours": "080-41215656",
        "phone": "08:00-21:00",
        "shop": "beauty",
        "website": "https://www.thefourfountainsspa.in/"
      }
    },
    {
      "type": "node",
      "id": 4489798323,
      "lat": 12.9343332,
      "lon": 77.616638,
      "tags": {
        "addr:city": "Bangalore",
        "addr:housenumber": "126",
        "addr:postcode": "560095",
        "addr:street": "1st A Cross Rd, 5th Block, Koramangala, Bengaluru,",
        "leisure": "sports_centre",
        "name": "Contours Women's Fitness Studio Kormangala",
        "opening_hours": "6:00-21:00",
        "phone": "8042068635",
        "sport": "gymnasium",
        "website": "https://contours.in/"
      }
    },
    {
      "type": "node",
      "id": 4489799742,
      "lat": 12.9348205,
      "lon": 77.6169334,
      "tags": {
        "addr:city": "Bangalore",
        "addr:housenumber": "106 MIG, KHB Colony, 5 Block",
        "addr:postcode": "560095",
        "addr:street": "Koramangala., 5th Block, Koramangala",
        "name": "The Beautique Women's Salon and Spa",
        "opening_hours": "10:00-20:30",
        "phone": "9845184473",
        "shop": "beauty",
        "website": "www.beautique.in"
      }
    },
    {
      "type": "node",
      "id": 4489855612,
      "lat": 12.937152,
      "lon": 77.6195215,
      "tags": {
        "addr:city": "Bangalore",
        "addr:housenumber": "5th block, Door no 152, 1st floor",
        "addr:postcode": "560095",
        "addr:street": ", R.K complex, K.H.B colony",
        "name": "Green Trends - Unisex Hair & Style Salon",
        "opening_hours": "08:00-20:00",
        "phone": "080 4162 8777",
        "shop": "beauty",
        "website": "https://www.mygreentrends.in/"
      }
    },
    {
      "type": "node",
      "id": 4489931170,
      "lat": 12.9365166,
      "lon": 77.6212519,
      "tags": {
        "addr:city": "Bangalore",
        "addr:housenumber": "34, 60",
        "addr:postcode": "560034",
        "addr:street": "Feet Rd, KHB Block Koramangala, 5th Block, Koramangala",
        "leisure": "sports_centre",
        "name": "Cutz and Curvz Fitness",
        "opening_hours": "05:30-22:00",
        "phone": "093422 60772",
        "sport": "gymnastics",
        "website": "https://www.weddingplz.com/"
      }
    },
    {
      "type": "node",
      "id": 4489951082,
      "lat": 12.9402498,
      "lon": 77.6176946,
      "tags": {
        "addr:city": "Bengaluru",
        "addr:postcode": "560095",
        "addr:street": "1st B Cross Street, Koramangala 8th Block, Nanjappa Reddy Layout, Koramangala, Koramangala 8th Block, Koramangala, Karnataka",
        "name": "Shobas Herbal Beauty Parlour",
        "opening_hours": "10:00-20:00",
        "phone": "080 2553 6344",
        "shop": "beauty"
      }
    },
    {
      "type": "node",
      "id": 4566357889,
      "lat": 12.9338103,
      "lon": 77.6199863,
      "tags": {
        "name": "William Penn",
        "name:en": "William Penn",
        "shop": "stationery"
      }
    },
    {
      "type": "node",
      "id": 4636026837,
      "lat": 12.9411745,
      "lon": 77.6157544,
      "tags": {
        "leisure": "playground"
      }
    },
    {
      "type": "node",
      "id": 4691599029,
      "lat": 12.9493419,
      "lon": 77.6058431,
      "tags": {
        "amenity": "place_of_worship",
        "religion": "christian"
      }
    },
    {
      "type": "node",
      "id": 5029379018,
      "lat": 12.9338158,
      "lon": 77.6198404,
      "tags": {
        "addr:city": "Bangalore",
        "addr:housenumber": "#475",
        "addr:postcode": "560095",
        "addr:street": "1st A Cross Road",
        "amenity": "ice_cream",
        "name": "Berrylicious",
        "outdoor_seating": "no"
      }
    },
    {
      "type": "node",
      "id": 5029379019,
      "lat": 12.9345723,
      "lon": 77.6199541,
      "tags": {
        "addr:city": "Bangalore",
        "addr:housenumber": "#462",
        "addr:postcode": "560095",
        "addr:street": "17 C Cross",
        "amenity": "restaurant",
        "name": "Naati Manae",
        "outdoor_seating": "no"
      }
    },
    {
      "type": "node",
      "id": 5033066528,
      "lat": 12.9355095,
      "lon": 77.6187649,
      "tags": {
        "name": "Sanoop Provision Stores",
        "shop": "convenience"
      }
    },
    {
      "type": "node",
      "id": 5036131084,
      "lat": 12.9336798,
      "lon": 77.6222761,
      "tags": {
        "amenity": "restaurant",
        "cuisine": "indian",
        "name": "Casinova",
        "phone": "080-25526363",
        "website": "http://bonsouth.com"
      }
    },
    {
      "type": "node",
      "id": 5396228021,
      "lat": 12.9440943,
      "lon": 77.6077504,
      "tags": {
        "shop": "bakery"
      }
    },
    {
      "type": "node",
      "id": 5402312721,
      "lat": 12.9444073,
      "lon": 77.6076578,
      "tags": {
        "amenity": "place_of_worship",
        "religion": "hindu"
      }
    },
    {
      "type": "node",
      "id": 5915195088,
      "lat": 12.9353889,
      "lon": 77.6157423,
      "tags": {
        "name": "Mi store",
        "shop": "mobile_phone"
      }
    },
    {
      "type": "node",
      "id": 5915195090,
      "lat": 12.9360677,
      "lon": 77.6160036,
      "tags": {
        "amenity": "restaurant",
        "contact:instagram": "bameys.blr",
        "cuisine": "nepali",
        "name": "Bamey’s Restro Cafe",
        "website": "https://bameys.co/"
      }
    },
    {
      "type": "node",
      "id": 5915195092,
      "lat": 12.9362087,
      "lon": 77.616947,
      "tags": {
        "amenity": "hospital",
        "healthcare": "hospital",
        "name": "Aparna Hospital"
      }
    },
    {
      "type": "node",
      "id": 5915195093,
      "lat": 12.936315,
      "lon": 77.6178107,
      "tags": {
        "amenity": "place_of_worship",
        "name": "Sri Prasanna Ganapathi Temple",
        "religion": "hindu"
      }
    },
    {
      "type": "node",
      "id": 5915195094,
      "lat": 12.9368246,
      "lon": 77.6182965,
      "tags": {
        "branch": "Koramangala",
        "brand": "Van Heusen",
        "brand:wikidata": "Q67551865",
        "clothes": "men",
        "name": "Van Heusen",
        "shop": "clothes"
      }
    },
    {
      "type": "node",
      "id": 5915195097,
      "lat": 12.9418151,
      "lon": 77.6222238,
      "tags": {
        "amenity": "place_of_worship",
        "name": "Sai Sparshan",
        "religion": "hindu"
      }
    },
    {
      "type": "node",
      "id": 5915230905,
      "lat": 12.9344948,
      "lon": 77.6236101,
      "tags": {
        "amenity": "pub",
        "name": "Over The Top"
      }
    },
    {
      "type": "node",
      "id": 5915230906,
      "lat": 12.9341518,
      "lon": 77.6234672,
      "tags": {
        "amenity": "atm",
        "operator": "ICICI Bank ATM"
      }
    },
    {
      "type": "node",
      "id": 5915230914,
      "lat": 12.9342194,
      "lon": 77.623433,
      "tags": {
        "amenity": "pub",
        "check_date": "2024-08-28",
        "name": "Brooks and Bonds Brewery"
      }
    },
    {
      "type": "node",
      "id": 5915409397,
      "lat": 12.9348404,
      "lon": 77.6162173,
      "tags": {
        "amenity": "restaurant",
        "name": "House of Commons"
      }
    },
    {
      "type": "node",
      "id": 5915409400,
      "lat": 12.9341641,
      "lon": 77.6166913,
      "tags": {
        "amenity": "restaurant",
        "name": "Juice Junction"
      }
    },
    {
      "type": "node",
      "id": 5915409401,
      "lat": 12.9339899,
      "lon": 77.6170683,
      "tags": {
        "amenity": "cafe",
        "name": "Hatti Kaapi"
      }
    },
    {
      "type": "node",
      "id": 5915409411,
      "lat": 12.9338175,
      "lon": 77.6201615,
      "tags": {
        "amenity": "hospital",
        "healthcare": "hospital",
        "name": "Apollo Spectra Hospitals"
      }
    },
    {
      "type": "node",
      "id": 6348958422,
      "lat": 12.9442879,
      "lon": 77.6069753,
      "tags": {
        "addr:place": "Adugodi",
        "amenity": "school",
        "isced:level": "2",
        "name": "GMPS Munichinnappa Adugodi",
        "name:kn": "ಸರ್ಕಾರಿ ಮಾದರಿ ಪ್ರಾಥಮಿಕ ಶಾಲೆ ಮುನಿಚಿನ್ನಪ್ಪಾ  ಆಡುಗೋಡಿ",
        "operator": "Department of Primary and Secondary Education",
        "operator:wikidata": "Q111467381",
        "school": "primary"
      }
    },
    {
      "type": "node",
      "id": 6349544678,
      "lat": 12.9475906,
      "lon": 77.6117497,
      "tags": {
        "addr:place": "Suddagunte Palya",
        "amenity": "school",
        "isced:level": "2",
        "name": "Padmavathi HS Suddagunte Palya",
        "name:kn": "ಪದ್ಮಾವತಿ ಎಚ್‌.ಎಸ್‌. ಸುದ್ದಗುಂಟೆ ಪಾಳ್ಯ",
        "operator": "Pvt. Aided",
        "school": "primary"
      }
    },
    {
      "type": "node",
      "id": 6536296262,
      "lat": 12.9448595,
      "lon": 77.6170535,
      "tags": {
        "addr:place": "Koramangala",
        "amenity": "school",
        "isced:level": "1",
        "name": "GLPS Rajendranagar, Koramangala",
        "name:kn": "ಸರ್ಕಾರಿ ಕಿರಿಯ ಪ್ರಾಥಮಿಕ ಶಾಲೆ ರಾಜೇಂದ್ರನಗರ,ಕೋರಮಂಗಲ",
        "operator": "Department of Primary and Secondary Education",
        "operator:type": "government",
        "operator:wikidata": "Q111467381",
        "school": "primary"
      }
    },
    {
      "type": "node",
      "id": 6536296450,
      "lat": 12.9356984,
      "lon": 77.6166336,
      "tags": {
        "addr:place": "Koramangala",
        "amenity": "school",
        "isced:level": "3",
        "name": "Holy Saint Eng Sch Koramangala",
        "name:kn": "ಹೋಲಿ ಸೇಂಟ್‌ ಆಂಗ್ಲ ಶಾಲೆ ಕೋರಮಂಗಲ",
        "operator": "Private Un-Aided",
        "school": "Higher Secondary"
      }
    },
    {
      "type": "node",
      "id": 6536303016,
      "lat": 12.935468,
      "lon": 77.6172102,
      "tags": {
        "addr:place": "Koramangala",
        "amenity": "school",
        "isced:level": "3",
        "name": "Neena HPS Kormangala",
        "name:kn": "ನೀನಾ ಹಿರಿಯ ಪ್ರಾಥಮಿಕ ಶಾಲೆ ಕೋರಮಂಗಲ",
        "operator": "Private Un-Aided",
        "school": "Higher Secondary"
      }
    },
    {
      "type": "node",
      "id": 6536304794,
      "lat": 12.9349547,
      "lon": 77.6217464,
      "tags": {
        "addr:place": "Koramangala",
        "amenity": "school",
        "isced:level": "3",
        "name": "Babymona EHPS Koramangala",
        "name:kn": "ಬೇಬಿ ಮೋನಾ ಆಂಗ್ಲ ಹಿರಿಯ ಪ್ರಾಥಮಿಕ ಶಾಲೆ ಕೋರಮಂಗಲ",
        "operator": "Private Un-Aided",
        "school": "Higher Secondary"
      }
    },
    {
      "type": "node",
      "id": 6536310217,
      "lat": 12.9412382,
      "lon": 77.6187265,
      "tags": {
        "addr:place": "Koramangala",
        "amenity": "school",
        "isced:level": "3",
        "name": "Mes HS, Koramangala",
        "name:kn": "ಎಂ.ಇ.ಎಸ್. ಪ್ರೌಢಶಾಲೆ,ಕೋರಮಂಗಲ",
        "operator": "Private Un-Aided",
        "school": "Higher Secondary"
      }
    },
    {
      "type": "node",
      "id": 6536327169,
      "lat": 12.9447944,
      "lon": 77.6172545,
      "tags": {
        "addr:place": "Koramangala",
        "amenity": "school",
        "name": "Cephas Memorial Sch Rajendranagra, Koramangala",
        "name:kn": "ಸೆಫಾಸ್ ಸ್ಮಾರಕ ಶಾಲೆ ರಾಜೇಂದ್ರನಗರ, ಕೋರಮಂಗಲ"
      }
    },
    {
      "type": "node",
      "id": 6937841407,
      "lat": 12.9418644,
      "lon": 77.6163161,
      "tags": {
        "addr:district": "Bengaluru Urban",
        "addr:full": "#639,2-C Main, 8Th Block,Koramangala",
        "addr:postcode": "560095",
        "addr:state": "Karnataka",
        "amenity": "dentist",
        "name": "J P Dental Clinic",
        "source": "OpenGovernmentData"
      }
    },
    {
      "type": "node",
      "id": 6938759412,
      "lat": 12.9339097,
      "lon": 77.620208,
      "tags": {
        "addr:district": "Bengaluru Urban",
        "addr:full": "Opus, 143, 1st Cross, 5th Block, Koramangala",
        "addr:postcode": "560034",
        "addr:state": "Karnataka",
        "amenity": "hospital",
        "email": "info@novamedicalcenters.com",
        "healthcare:speciality": "multi speciality",
        "name": "Nova Specialty Surgery Center, Koramangala",
        "operator:type": "private",
        "source": "OpenGovernmentData",
        "website": "www.novaspecialtysurgery.com"
      }
    },
    {
      "type": "node",
      "id": 6939445234,
      "lat": 12.9343279,
      "lon": 77.6228848,
      "tags": {
        "addr:district": "Bengaluru Urban",
        "addr:full": "# 88, 17th, A Main, 2nd Cross, 5th Block, Koramangala",
        "addr:postcode": "560095",
        "addr:state": "Karnataka",
        "amenity": "hospital",
        "healthcare:speciality": "Clinical Labs; Diagnosis; Medical Oncology; Radiation oncology; Surgical Oncology",
        "name": "HCG, Koramangala",
        "operator:type": "private",
        "source": "OpenGovernmentData",
        "website": "https://www.hcgoncology.com/"
      }
    },
    {
      "type": "node",
      "id": 6950412318,
      "lat": 12.9439008,
      "lon": 77.6065864,
      "tags": {
        "addr:district": "Bengaluru Urban",
        "addr:full": "No.2/2, ARS Mansion, New Mico Factory Road, Opposite GovernmentHigh School, Adugodi",
        "addr:postcode": "560030",
        "addr:state": "Karnataka",
        "amenity": "hospital",
        "email": "communication@santhigiriashram.org",
        "name": "Santhigiri Ayurveda and Siddha Hospital, Bengaluru Urban",
        "operator:type": "private",
        "source": "OpenGovernmentData",
        "website": "https://www.santhigiriashram.org/"
      }
    },
    {
      "type": "node",
      "id": 7043992385,
      "lat": 12.9439485,
      "lon": 77.6078061,
      "tags": {
        "amenity": "clinic",
        "name": "Health Centre",
        "name:en": "Adugodi Dispensary"
      }
    },
    {
      "type": "node",
      "id": 7178597282,
      "lat": 12.9407064,
      "lon": 77.6201677,
      "tags": {
        "addr:city": "Bengaluru",
        "addr:country": "IN",
        "addr:hamlet": "Koramangala 8tth Block",
        "addr:housenumber": "583",
        "addr:postcode": "560095",
        "addr:street": "80 Feet Road",
        "email": "hello@sourhouse.in",
        "name": "Sour House",
        "opening_hours": "Mo-Sa 10:00-19:00",
        "shop": "bakery",
        "website": "https://www.sourhouse.in"
      }
    },
    {
      "type": "node",
      "id": 7293817086,
      "lat": 12.9433728,
      "lon": 77.6079865,
      "tags": {
        "amenity": "restaurant",
        "name": "Biriyani Paradise"
      }
    },
    {
      "type": "node",
      "id": 7293817151,
      "lat": 12.9485315,
      "lon": 77.6060768,
      "tags": {
        "amenity": "place_of_worship",
        "religion": "hindu"
      }
    },
    {
      "type": "node",
      "id": 7293817152,
      "lat": 12.9485159,
      "lon": 77.606176,
      "tags": {
        "amenity": "shelter",
        "bench": "yes",
        "covered": "yes",
        "shelter": "yes",
        "shelter_type": "public_transport"
      }
    },
    {
      "type": "node",
      "id": 7293817153,
      "lat": 12.9483852,
      "lon": 77.6062095,
      "tags": {
        "amenity": "shelter",
        "bench": "yes",
        "covered": "yes",
        "shelter": "yes",
        "shelter_type": "public_transport"
      }
    },
    {
      "type": "node",
      "id": 7293817155,
      "lat": 12.9491641,
      "lon": 77.6062001,
      "tags": {
        "amenity": "shelter",
        "bench": "yes",
        "covered": "yes",
        "shelter": "yes",
        "shelter_type": "public_transport"
      }
    },
    {
      "type": "node",
      "id": 7293817156,
      "lat": 12.9493118,
      "lon": 77.6061586,
      "tags": {
        "amenity": "shelter",
        "bench": "yes",
        "covered": "yes",
        "shelter": "yes",
        "shelter_type": "public_transport"
      }
    },
    {
      "type": "node",
      "id": 9930197120,
      "lat": 12.9342979,
      "lon": 77.623428,
      "tags": {
        "brand": "Tanishq",
        "brand:en": "Tanishq",
        "brand:wikidata": "Q13117711",
        "check_date": "2024-08-28",
        "name": "Tanishq",
        "name:en": "Tanishq",
        "shop": "jewelry"
      }
    },
    {
      "type": "node",
      "id": 9951289098,
      "lat": 12.9490504,
      "lon": 77.6062283,
      "tags": {
        "amenity": "shelter",
        "bench": "yes",
        "covered": "yes",
        "shelter": "yes",
        "shelter_type": "public_transport"
      }
    },
    {
      "type": "node",
      "id": 9951289099,
      "lat": 12.949436,
      "lon": 77.6062162,
      "tags": {
        "name": "Nandini Dairy",
        "shop": "dairy"
      }
    },
    {
      "type": "node",
      "id": 9951289105,
      "lat": 12.9486492,
      "lon": 77.605889,
      "tags": {
        "amenity": "place_of_worship",
        "name": "New Apostolic Church",
        "religion": "christian"
      }
    },
    {
      "type": "node",
      "id": 10042733217,
      "lat": 12.9478479,
      "lon": 77.6066562,
      "tags": {
        "amenity": "atm",
        "cash_in": "no",
        "operator": "State Bank of India"
      }
    },
    {
      "type": "node",
      "id": 10068956760,
      "lat": 12.9338428,
      "lon": 77.6197996,
      "tags": {
        "amenity": "cafe",
        "name": "What's In a Name"
      }
    },
    {
      "type": "node",
      "id": 10068956768,
      "lat": 12.9336927,
      "lon": 77.6224652,
      "tags": {
        "amenity": "restaurant",
        "cuisine": "chinese;thai",
        "name": "Tim Tai"
      }
    },
    {
      "type": "node",
      "id": 10068956816,
      "lat": 12.9388006,
      "lon": 77.6189318,
      "tags": {
        "amenity": "bureau_de_change",
        "name": "Thomas Cook"
      }
    },
    {
      "type": "node",
      "id": 10068956817,
      "lat": 12.9388287,
      "lon": 77.6189463,
      "tags": {
        "amenity": "bank",
        "brand": "IndusInd Bank",
        "brand:wikidata": "Q2040323",
        "name": "IndusInd Bank",
        "name:kn": "ಇಂಡಸ್ಇಂಡ್"
      }
    },
    {
      "type": "node",
      "id": 10068956818,
      "lat": 12.9392334,
      "lon": 77.6191718,
      "tags": {
        "brand": "Biba",
        "brand:wikidata": "Q4902942",
        "clothes": "women",
        "name": "Biba",
        "name:kn": "ಬೀಬ",
        "shop": "clothes"
      }
    },
    {
      "type": "node",
      "id": 10068956856,
      "lat": 12.9402915,
      "lon": 77.6198934,
      "tags": {
        "name": "Enrich",
        "shop": "beauty"
      }
    },
    {
      "type": "node",
      "id": 10068956857,
      "lat": 12.940527,
      "lon": 77.620013,
      "tags": {
        "name": "Heads up For Tails",
        "shop": "pet"
      }
    },
    {
      "type": "node",
      "id": 10068956858,
      "lat": 12.9404955,
      "lon": 77.6200555,
      "tags": {
        "amenity": "bank",
        "brand": "IDFC First Bank",
        "brand:wikidata": "Q22031467",
        "name": "IDFC First Bank"
      }
    },
    {
      "type": "node",
      "id": 10068956859,
      "lat": 12.9407577,
      "lon": 77.6202069,
      "tags": {
        "amenity": "cafe",
        "name": "Blue Tokai"
      }
    },
    {
      "type": "node",
      "id": 10220802211,
      "lat": 12.9342205,
      "lon": 77.617012,
      "tags": {
        "amenity": "cafe",
        "name": "Atta Galatta",
        "shop": "books"
      }
    },
    {
      "type": "node",
      "id": 10695242204,
      "lat": 12.9351187,
      "lon": 77.6226367,
      "tags": {
        "addr:city": "Bangalore",
        "addr:country": "IN",
        "addr:hamlet": "Koramangala 5th Block",
        "addr:housename": "Peace Vill",
        "addr:housenumber": "23",
        "addr:postcode": "560095",
        "addr:street": "5th Cross Road",
        "addr:suburb": "Koramangala",
        "amenity": "restaurant",
        "contact:instagram": "maffeikitchen",
        "contact:twitter": "maffeikitchen",
        "contact:youtube": "UCg5ynIWr7V6lmRXtqctwG3Q",
        "cuisine": "mediterranean",
        "delivery": "yes",
        "name": "Maffei Kitchen",
        "opening_hours": "11:00-23:00",
        "phone": "+91 8005471058",
        "takeaway": "yes",
        "website": "https://www.maffei.in/"
      }
    },
    {
      "type": "node",
      "id": 10728008690,
      "lat": 12.9342717,
      "lon": 77.6167694,
      "tags": {
        "amenity": "restaurant",
        "delivery": "yes",
        "name": "Terra Bites",
        "takeaway": "yes"
      }
    },
    {
      "type": "node",
      "id": 10728008691,
      "lat": 12.9374388,
      "lon": 77.6176518,
      "tags": {
        "amenity": "restaurant",
        "cuisine": "regional",
        "name": "Malgudi Mylari Mane",
        "website": "http://www.malgudimylari.com/"
      }
    },
    {
      "type": "node",
      "id": 10728008695,
      "lat": 12.9370153,
      "lon": 77.6202241,
      "tags": {
        "amenity": "restaurant",
        "cuisine": "regional",
        "diet:vegetarian": "only",
        "name": "Sendhoor Coffee",
        "opening_hours": "Mo-Su 10:00-22:00",
        "wheelchair": "no"
      }
    },
    {
      "type": "node",
      "id": 10740614251,
      "lat": 12.9379519,
      "lon": 77.6209361,
      "tags": {
        "amenity": "bicycle_parking"
      }
    },
    {
      "type": "node",
      "id": 10740621566,
      "lat": 12.9377909,
      "lon": 77.6215174,
      "tags": {
        "amenity": "toilets"
      }
    },
    {
      "type": "node",
      "id": 10740635747,
      "lat": 12.9402168,
      "lon": 77.6201873,
      "tags": {
        "amenity": "toilets",
        "male": "yes"
      }
    },
    {
      "type": "node",
      "id": 10741885471,
      "lat": 12.9383894,
      "lon": 77.6194835,
      "tags": {
        "amenity": "toilets",
        "female": "yes"
      }
    },
    {
      "type": "node",
      "id": 10797060928,
      "lat": 12.9351488,
      "lon": 77.621022,
      "tags": {
        "name": "Nandini Milk Parlour",
        "shop": "dairy"
      }
    },
    {
      "type": "node",
      "id": 11036798846,
      "lat": 12.9400467,
      "lon": 77.6179642,
      "tags": {
        "amenity": "pharmacy",
        "healthcare": "pharmacy",
        "name": "Roots Pharma"
      }
    },
    {
      "type": "node",
      "id": 11041699824,
      "lat": 12.9378285,
      "lon": 77.6177291,
      "tags": {
        "amenity": "restaurant",
        "name": "Cafe A Paris"
      }
    },
    {
      "type": "node",
      "id": 11096390238,
      "lat": 12.9346233,
      "lon": 77.62302,
      "tags": {
        "amenity": "restaurant",
        "name": "The Doner Company"
      }
    },
    {
      "type": "node",
      "id": 11096390239,
      "lat": 12.9345149,
      "lon": 77.6232464,
      "tags": {
        "amenity": "restaurant",
        "name": "De Shack"
      }
    },
    {
      "type": "node",
      "id": 11096390254,
      "lat": 12.9354458,
      "lon": 77.6212553,
      "tags": {
        "amenity": "restaurant",
        "name": "Shyamji's Chole Bature"
      }
    },
    {
      "type": "node",
      "id": 11096390255,
      "lat": 12.9358867,
      "lon": 77.6214265,
      "tags": {
        "amenity": "restaurant",
        "name": "Chaska Bun"
      }
    },
    {
      "type": "node",
      "id": 11096390256,
      "lat": 12.9356285,
      "lon": 77.6210394,
      "tags": {
        "amenity": "cafe",
        "name": "Fresh Pressery"
      }
    },
    {
      "type": "node",
      "id": 11096390257,
      "lat": 12.9361263,
      "lon": 77.6216574,
      "tags": {
        "amenity": "pub",
        "name": "Zoey's"
      }
    },
    {
      "type": "node",
      "id": 11096390276,
      "lat": 12.933737,
      "lon": 77.6186634,
      "tags": {
        "amenity": "ice_cream",
        "name": "Gelato"
      }
    },
    {
      "type": "node",
      "id": 11096390281,
      "lat": 12.9337599,
      "lon": 77.6188292,
      "tags": {
        "amenity": "restaurant",
        "name": "Churoland"
      }
    },
    {
      "type": "node",
      "id": 11096390282,
      "lat": 12.9337958,
      "lon": 77.6189412,
      "tags": {
        "name": "Bookstop",
        "shop": "books"
      }
    },
    {
      "type": "node",
      "id": 11096390284,
      "lat": 12.9338788,
      "lon": 77.6175708,
      "tags": {
        "amenity": "fast_food",
        "name": "The Chatpata Affair",
        "website": "https://www.chatpataaffair.com/"
      }
    },
    {
      "type": "node",
      "id": 11096390285,
      "lat": 12.9341198,
      "lon": 77.6169953,
      "tags": {
        "amenity": "cafe",
        "name": "Jalandhar Sweets"
      }
    },
    {
      "type": "node",
      "id": 11096390286,
      "lat": 12.9340561,
      "lon": 77.6169989,
      "tags": {
        "amenity": "bank",
        "brand": "RBL Bank",
        "brand:wikidata": "Q13120398",
        "name": "RBL Bank"
      }
    },
    {
      "type": "node",
      "id": 11096818319,
      "lat": 12.9337796,
      "lon": 77.6214948,
      "tags": {
        "amenity": "restaurant",
        "brand": "PizzaExpress",
        "brand:wikidata": "Q662845",
        "cuisine": "pizza",
        "name": "PizzaExpress"
      }
    },
    {
      "type": "node",
      "id": 11277885676,
      "lat": 12.935039,
      "lon": 77.6161015,
      "tags": {
        "amenity": "cafe",
        "contact:instagram": "avocadosandbrownies.in",
        "name": "Avocados and Brownies"
      }
    },
    {
      "type": "node",
      "id": 11295513142,
      "lat": 12.9359771,
      "lon": 77.615876,
      "tags": {
        "brand": "Samsung",
        "brand:wikidata": "Q20718",
        "name": "Samsung",
        "name:kn": "ಸ್ಯಾಮ್‌ಸಂಗ್",
        "shop": "electronics",
        "wheelchair": "no"
      }
    },
    {
      "type": "node",
      "id": 11295513145,
      "lat": 12.9361931,
      "lon": 77.6165834,
      "tags": {
        "brand": "Fastrack",
        "brand:wikidata": "Q28164179",
        "name": "Fastrack",
        "shop": "fashion_accessories"
      }
    },
    {
      "type": "node",
      "id": 11295513150,
      "lat": 12.9361248,
      "lon": 77.6162068,
      "tags": {
        "level": "0",
        "name": "Lenzkare.in",
        "shop": "fashion_accessories"
      }
    },
    {
      "type": "node",
      "id": 11295513151,
      "lat": 12.936149,
      "lon": 77.6162675,
      "tags": {
        "shop": "mobile_phone"
      }
    },
    {
      "type": "node",
      "id": 11295513157,
      "lat": 12.9361751,
      "lon": 77.6163698,
      "tags": {
        "brand": "Titan",
        "name": "Titan",
        "shop": "watches"
      }
    },
    {
      "type": "node",
      "id": 11295513158,
      "lat": 12.9360998,
      "lon": 77.6160737,
      "tags": {
        "level": "1",
        "name": "Keychron India",
        "note": "Seller of mechanical keyboards",
        "opening_hours": "Mo-Su 10:30-21:00",
        "shop": "computer",
        "wheelchair": "no"
      }
    },
    {
      "type": "node",
      "id": 11396013057,
      "lat": 12.9346055,
      "lon": 77.6168873,
      "tags": {
        "amenity": "restaurant",
        "name": "chai sutta bar"
      }
    },
    {
      "type": "node",
      "id": 11396013058,
      "lat": 12.9347048,
      "lon": 77.6167408,
      "tags": {
        "amenity": "restaurant",
        "name": "Smoky Docky"
      }
    },
    {
      "type": "node",
      "id": 11396013059,
      "lat": 12.9343315,
      "lon": 77.6170022,
      "tags": {
        "name": "Kunafa Story",
        "shop": "confectionery"
      }
    },
    {
      "type": "node",
      "id": 11398011945,
      "lat": 12.9390758,
      "lon": 77.6191481,
      "tags": {
        "amenity": "cafe",
        "branch": "Koramangala",
        "brand": "Chaayos",
        "brand:wikidata": "Q117235235",
        "cuisine": "tea",
        "name": "Chaayos",
        "takeaway": "yes"
      }
    },
    {
      "type": "node",
      "id": 11398011946,
      "lat": 12.9394664,
      "lon": 77.6193423,
      "tags": {
        "amenity": "cafe",
        "brand": "Tim Hortons",
        "brand:wikidata": "Q175106",
        "cuisine": "coffee_shop",
        "name": "Tim Hortons",
        "takeaway": "yes"
      }
    },
    {
      "type": "node",
      "id": 11398011947,
      "lat": 12.939072,
      "lon": 77.6180094,
      "tags": {
        "amenity": "restaurant",
        "name": "Bonito Bistro"
      }
    },
    {
      "type": "node",
      "id": 11398011948,
      "lat": 12.9390011,
      "lon": 77.6179869,
      "tags": {
        "amenity": "restaurant",
        "cuisine": "punjabi",
        "name": "Amritsari"
      }
    },
    {
      "type": "node",
      "id": 11398011949,
      "lat": 12.9393554,
      "lon": 77.6179771,
      "tags": {
        "amenity": "ice_cream",
        "name": "Omm Nom Nomm - Cloud kitchen",
        "outdoor_seating": "no"
      }
    },
    {
      "type": "node",
      "id": 11398011950,
      "lat": 12.9381608,
      "lon": 77.6177663,
      "tags": {
        "amenity": "restaurant",
        "cuisine": "rajasthani",
        "name": "Thar - Rajasthani Restaurant"
      }
    },
    {
      "type": "node",
      "id": 11398011951,
      "lat": 12.9384223,
      "lon": 77.6178277,
      "tags": {
        "amenity": "theatre",
        "name": "Medai - Bengaluru"
      }
    },
    {
      "type": "node",
      "id": 11770650943,
      "lat": 12.9375779,
      "lon": 77.6191715,
      "tags": {
        "amenity": "restaurant",
        "check_date": "2024-03-29",
        "cuisine": "pizza",
        "name": "Fiero Pizza"
      }
    },
    {
      "type": "node",
      "id": 12030715034,
      "lat": 12.9336933,
      "lon": 77.622146,
      "tags": {
        "amenity": "restaurant",
        "check_date": "2024-07-03",
        "name": "Mahe Global Kitchen"
      }
    },
    {
      "type": "node",
      "id": 12061239754,
      "lat": 12.9340508,
      "lon": 77.6196507,
      "tags": {
        "amenity": "restaurant",
        "contact:instagram": "romadeliblr",
        "cuisine": "italian",
        "delivery": "yes",
        "name": "Roma Italian Deli",
        "takeaway": "yes"
      }
    },
    {
      "type": "node",
      "id": 12129019639,
      "lat": 12.9408358,
      "lon": 77.6202589,
      "tags": {
        "amenity": "cafe",
        "delivery": "no",
        "name": "The Peck",
        "takeaway": "yes"
      }
    },
    {
      "type": "node",
      "id": 12155310940,
      "lat": 12.9337842,
      "lon": 77.6224798,
      "tags": {
        "addr:city": "Bengaluru",
        "addr:country": "IN",
        "addr:suburb": "Koramangala",
        "amenity": "restaurant",
        "contact:instagram": "https://www.instagram.com/thefiltercoffee.in",
        "cuisine": "south_indian",
        "delivery": "yes",
        "diet:vegetarian": "yes",
        "name": "The Filter Coffee",
        "payment:credit_cards": "yes",
        "payment:debit_cards": "yes",
        "takeaway": "yes",
        "wheelchair": "no"
      }
    },
    {
      "type": "node",
      "id": 12162201547,
      "lat": 12.9393477,
      "lon": 77.6192653,
      "tags": {
        "amenity": "restaurant",
        "check_date": "2024-09-07",
        "cuisine": "regional;indian",
        "name": "Dindigul Ponram",
        "payment:cash": "yes",
        "payment:credit_cards": "yes",
        "payment:debit_cards": "yes"
      }
    },
    {
      "type": "node",
      "id": 12164866909,
      "lat": 12.9370365,
      "lon": 77.6196493,
      "tags": {
        "amenity": "restaurant",
        "cuisine": "keralite",
        "level": "0",
        "name": "Kuttanad Restaurant",
        "tables": "10",
        "toilets": "yes",
        "wheelchair": "no"
      }
    },
    {
      "type": "node",
      "id": 12247812594,
      "lat": 12.9436081,
      "lon": 77.6078644,
      "tags": {
        "addr:postcode": "560030",
        "addr:street": "Hosur Road",
        "amenity": "fast_food",
        "brand": "Domino's",
        "brand:wikidata": "Q839466",
        "cuisine": "pizza",
        "name": "Domino's",
        "takeaway": "yes"
      }
    },
    {
      "type": "node",
      "id": 12247812595,
      "lat": 12.9433767,
      "lon": 77.6076357,
      "tags": {
        "addr:postcode": "560030",
        "addr:street": "Hosur Road",
        "amenity": "bank",
        "atm": "yes",
        "brand": "Axis Bank",
        "brand:wikidata": "Q2003549",
        "name": "Axis Bank"
      }
    },
    {
      "type": "node",
      "id": 12247812596,
      "lat": 12.9433633,
      "lon": 77.6075854,
      "tags": {
        "addr:postcode": "560030",
        "addr:street": "Hosur Road",
        "amenity": "bank",
        "atm": "yes",
        "brand": "State Bank of India",
        "brand:wikidata": "Q1340361",
        "level": "1",
        "name": "State Bank of India",
        "short_name": "SBI"
      }
    },
    {
      "type": "node",
      "id": 12285662757,
      "lat": 12.9337934,
      "lon": 77.6197867,
      "tags": {
        "amenity": "restaurant",
        "name": "Cafe Amudham"
      }
    },
    {
      "type": "node",
      "id": 12285673035,
      "lat": 12.9336313,
      "lon": 77.6226322,
      "tags": {
        "amenity": "restaurant",
        "name": "The Filter Coffee"
      }
    },
    {
      "type": "node",
      "id": 12285689717,
      "lat": 12.9337657,
      "lon": 77.62097,
      "tags": {
        "name": "Slay",
        "shop": "coffee"
      }
    },
    {
      "type": "node",
      "id": 12862846438,
      "lat": 12.9337424,
      "lon": 77.6186976,
      "tags": {
        "amenity": "fast_food",
        "cuisine": "burger",
        "delivery": "yes",
        "name": "Original Burger Co.",
        "takeaway": "yes"
      }
    },
    {
      "type": "node",
      "id": 13168786892,
      "lat": 12.933894,
      "lon": 77.6198284,
      "tags": {
        "amenity": "restaurant",
        "contact:instagram": "bameys.blr",
        "cuisine": "nepali",
        "name": "Bamey's Gastro Bar",
        "website": "https://bameys.co/"
      }
    },
    {
      "type": "way",
      "id": 28186877,
      "center": {
        "lat": 12.9390827,
        "lon": 77.6197058
      },
      "tags": {
        "leisure": "park",
        "name": "Lakshmi Devi Park",
        "name:kn": "ಲಕ್ಷ್ಮಿದೇವಿ ಉದ್ಯಾನ"
      }
    },
    {
      "type": "way",
      "id": 28186930,
      "center": {
        "lat": 12.9349252,
        "lon": 77.6180763
      },
      "tags": {
        "created_by": "Potlatch 0.10f",
        "leisure": "park"
      }
    },
    {
      "type": "way",
      "id": 28186950,
      "center": {
        "lat": 12.9372867,
        "lon": 77.6188924
      },
      "tags": {
        "leisure": "playground",
        "name": "Kalyana Mantapa Ground"
      }
    },
    {
      "type": "way",
      "id": 32291138,
      "center": {
        "lat": 12.9406352,
        "lon": 77.6209531
      },
      "tags": {
        "amenity": "school",
        "name": "Bethany High School",
        "name:kn": "ಬೆತಾನಿ ಪ್ರೌಡಶಾಲೆ"
      }
    },
    {
      "type": "way",
      "id": 32315160,
      "center": {
        "lat": 12.9341574,
        "lon": 77.6191922
      },
      "tags": {
        "leisure": "park",
        "name": "Sidharth Park"
      }
    },
    {
      "type": "way",
      "id": 32315410,
      "center": {
        "lat": 12.9367726,
        "lon": 77.617663
      },
      "tags": {
        "leisure": "garden"
      }
    },
    {
      "type": "way",
      "id": 32315469,
      "center": {
        "lat": 12.9375743,
        "lon": 77.6182864
      },
      "tags": {
        "created_by": "Potlatch 0.10f",
        "leisure": "garden"
      }
    },
    {
      "type": "way",
      "id": 32316224,
      "center": {
        "lat": 12.941095,
        "lon": 77.6156687
      },
      "tags": {
        "leisure": "park",
        "name": "Chamundeshwari Park",
        "name:kn": "ಚಾಮುಂಡೇಶ್ವರಿ ಉದ್ಯಾನವನ"
      }
    },
    {
      "type": "way",
      "id": 128446267,
      "center": {
        "lat": 12.935134,
        "lon": 77.6193675
      },
      "tags": {
        "leisure": "park"
      }
    },
    {
      "type": "way",
      "id": 166733773,
      "center": {
        "lat": 12.9405031,
        "lon": 77.6172058
      },
      "tags": {
        "leisure": "park",
        "name": "B R Ambedkar Park",
        "name:etymology:wikidata": "Q231690",
        "name:kn": "ಅಂಬೇಡ್ಕರ್ ಉದ್ಯಾನವನ"
      }
    },
    {
      "type": "way",
      "id": 172947365,
      "center": {
        "lat": 12.9445122,
        "lon": 77.6068396
      },
      "tags": {
        "amenity": "school",
        "name": "GHS Adugodi",
        "name:kn": "ಸರ್ಕಾರಿ ಪ್ರೌಡ ಶಾಲೆ"
      }
    },
    {
      "type": "way",
      "id": 201068721,
      "center": {
        "lat": 12.937577,
        "lon": 77.6211789
      },
      "tags": {
        "alt_name": "Chellamma Park",
        "leisure": "park",
        "name": "Leena Park",
        "source:alt_name": "anonymous note"
      }
    },
    {
      "type": "way",
      "id": 201069173,
      "center": {
        "lat": 12.9367726,
        "lon": 77.617663
      },
      "tags": {
        "leisure": "park",
        "name": "Anuroopa Park",
        "name:kn": "ಅನುರೂಪ ಉದ್ಯಾನವನ"
      }
    },
    {
      "type": "way",
      "id": 201071753,
      "center": {
        "lat": 12.9345461,
        "lon": 77.6218521
      },
      "tags": {
        "leisure": "park",
        "name": "Akhila Park",
        "name:kn": "ಅಖೀಲ ಉದ್ಯಾನವನ"
      }
    },
    {
      "type": "way",
      "id": 313395337,
      "center": {
        "lat": 12.9361507,
        "lon": 77.6179965
      },
      "tags": {
        "addr:city": "Bangalore",
        "addr:street": "KHB Colony, 5th Block Koramangala",
        "amenity": "place_of_worship",
        "barrier": "wall",
        "denomination": "hindu",
        "name": "Sri Prasanna Ganapathi Temple",
        "name:kn": "ಗಣೇಶ ದೇವಸ್ಥಾನ",
        "religion": "hindu",
        "website": "http://ganapathitemplekoramangala.org/index.html"
      }
    },
    {
      "type": "way",
      "id": 347159335,
      "center": {
        "lat": 12.9404099,
        "lon": 77.6199261
      },
      "tags": {
        "brand": "Reliance Fresh",
        "brand:wikidata": "Q7311014",
        "building": "yes",
        "name": "Reliance Fresh",
        "name:kn": "ರಿಲಯನ್ಸ್ ಫ್ರೆಶ್",
        "shop": "supermarket"
      }
    },
    {
      "type": "way",
      "id": 347159867,
      "center": {
        "lat": 12.9383286,
        "lon": 77.6191479
      },
      "tags": {
        "amenity": "post_office",
        "building": "yes",
        "building:levels": "2",
        "name": "Koramangala Post Office",
        "name:kn": "ಕೋರಮಂಗಲ ಅಂಚೆ ಕಛೇರಿ",
        "operator": "India Post",
        "operator:wikidata": "Q3519720",
        "wheelchair": "limited"
      }
    },
    {
      "type": "way",
      "id": 347447341,
      "center": {
        "lat": 12.9338342,
        "lon": 77.6211473
      },
      "tags": {
        "addr:city": "Bengaluru",
        "addr:housenumber": "131",
        "addr:postcode": "560095",
        "addr:street": "1st Cross Road",
        "amenity": "restaurant",
        "building": "yes",
        "cuisine": "Andhra",
        "delivery": "yes",
        "name": "Nagarjuna",
        "name:kn": "ನಾಗಾರ್ಜುನ",
        "opening_hours": "Mo-Su 11:00-16:00,19:00-23:00",
        "outdoor_seating": "no",
        "phone": "080 4099 6000",
        "smoking": "no"
      }
    },
    {
      "type": "way",
      "id": 347447837,
      "center": {
        "lat": 12.9337155,
        "lon": 77.6229454
      },
      "tags": {
        "building": "yes",
        "building:levels": "3",
        "name": "Godrej Nature's Basket",
        "shop": "yes",
        "smoking": "no"
      }
    },
    {
      "type": "way",
      "id": 515344856,
      "center": {
        "lat": 12.9358415,
        "lon": 77.6186465
      },
      "tags": {
        "leisure": "park",
        "name": "Amruth Park",
        "name:kn": "ಅಮೃತ ಉದ್ಯಾನವನ"
      }
    },
    {
      "type": "way",
      "id": 781192792,
      "center": {
        "lat": 12.949021,
        "lon": 77.6067587
      },
      "tags": {
        "leisure": "park"
      }
    },
    {
      "type": "way",
      "id": 1086044112,
      "center": {
        "lat": 12.9482501,
        "lon": 77.6086002
      },
      "tags": {
        "amenity": "college",
        "fixme": "Boundaries of the campus",
        "name": "National Institute of Animal Nutrition and Physiology",
        "official_name": "ICAR - National Institute of Animal Nutrition and Physiology",
        "short_name": "NIANP"
      }
    },
    {
      "type": "way",
      "id": 1099882755,
      "center": {
        "lat": 12.9410977,
        "lon": 77.6214106
      },
      "tags": {
        "amenity": "police",
        "name": "Koramangala Police Station",
        "name:kn": "ಕೋರಮಂಗಲ ಆರಕ್ಷಕ ಠಾಣೆ"
      }
    },
    {
      "type": "way",
      "id": 1155057714,
      "center": {
        "lat": 12.9378692,
        "lon": 77.621408
      },
      "tags": {
        "building": "yes",
        "leisure": "sports_hall"
      }
    },
    {
      "type": "way",
      "id": 1155059807,
      "center": {
        "lat": 12.9385674,
        "lon": 77.6192782
      },
      "tags": {
        "amenity": "library",
        "building": "yes"
      }
    },
    {
      "type": "way",
      "id": 1155059808,
      "center": {
        "lat": 12.9384745,
        "lon": 77.6194324
      },
      "tags": {
        "leisure": "fitness_station",
        "sport": "fitness"
      }
    },
    {
      "type": "way",
      "id": 1160859589,
      "center": {
        "lat": 12.934566,
        "lon": 77.6209387
      },
      "tags": {
        "leisure": "park"
      }
    },
    {
      "type": "way",
      "id": 1160859607,
      "center": {
        "lat": 12.9380664,
        "lon": 77.619152
      },
      "tags": {
        "addr:place": "Koramangala",
        "alt_name": "Padmanayaka Sangam",
        "amenity": "school",
        "isced:level": "3",
        "name": "PNS School",
        "name:kn": "ಪಿ.ಎನ್.ಎಸ್ ಶಾಲೆ, ಕೋರಮಂಗಲ",
        "operator": "Private Un-Aided",
        "school": "Higher Secondary"
      }
    },
    {
      "type": "way",
      "id": 1195520755,
      "center": {
        "lat": 12.9346661,
        "lon": 77.6214805
      },
      "tags": {
        "leisure": "pitch",
        "sport": "basketball"
      }
    },
    {
      "type": "way",
      "id": 1195573208,
      "center": {
        "lat": 12.9343515,
        "lon": 77.6221955
      },
      "tags": {
        "leisure": "park"
      }
    },
    {
      "type": "way",
      "id": 1203535875,
      "center": {
        "lat": 12.9454633,
        "lon": 77.6053415
      },
      "tags": {
        "leisure": "park"
      }
    },
    {
      "type": "way",
      "id": 1203535876,
      "center": {
        "lat": 12.945051,
        "lon": 77.6039766
      },
      "tags": {
        "leisure": "park"
      }
    },
    {
      "type": "way",
      "id": 1314296467,
      "center": {
        "lat": 12.9374385,
        "lon": 77.6185712
      },
      "tags": {
        "amenity": "toilets",
        "building": "yes",
        "building:colour": "red",
        "layer": "1"
      }
    },
    {
      "type": "way",
      "id": 1444097610,
      "center": {
        "lat": 12.9366946,
        "lon": 77.6191352
      },
      "tags": {
        "leisure": "park",
        "name": "KHB Colony Park"
      }
    }
  ]
}