{
  "area_name": "Adi Chunchanagiri Ward",
  "osm_id": 19883298,
  "osm_type": "relation",
  "place_type": "administrative",
  "amenity_count": 72,
  "amenities": [
    {
      "type": "node",
      "id": 1107942103,
      "lat": 12.9690223,
      "lon": 77.5433246,
      "tags": {
        "amenity": "place_of_worship",
        "name": "Sri Mariamma Temple",
        "religion": "hindu"
      }
    },
    {
      "type": "node",
      "id": 1107947488,
      "lat": 12.9694039,
      "lon": 77.5436196,
      "tags": {
        "amenity": "place_of_worship",
        "name": "Rama Mandira",
        "name:kn": "ರಾಮ ಮಂದಿರ",
        "religion": "hindu"
      }
    },
    {
      "type": "node",
      "id": 1108014134,
      "lat": 12.9681189,
      "lon": 77.54325,
      "tags": {
        "amenity": "hospital",
        "emergency": "no",
        "name": "Soujanya Clinic"
      }
    },
    {
      "type": "node",
      "id": 1474827888,
      "lat": 12.9739042,
      "lon": 77.5475916,
      "tags": {
        "amenity": "atm",
        "operator": "HDFC Bank ATM"
      }
    },
    {
      "type": "node",
      "id": 1474827899,
      "lat": 12.9737683,
      "lon": 77.5442442,
      "tags": {
        "amenity": "school",
        "name": "Vasavi Polytechnic College"
      }
    },
    {
      "type": "node",
      "id": 1474835635,
      "lat": 12.9733449,
      "lon": 77.5414869,
      "tags": {
        "amenity": "police",
        "name": "Vijaynagar Traffic Police Station",
        "name:kn": "ವಿಜಯನಗರ ಸಂಚಾರ ಪೊಲೀಸ್ ಠಾಣೆ"
      }
    },
    {
      "type": "node",
      "id": 1474835638,
      "lat": 12.9734181,
      "lon": 77.5419268,
      "tags": {
        "amenity": "restaurant",
        "name": "Shanti Sagar",
        "name:kn": "ಶಾಂತಿ ಸಾಗರ್"
      }
    },
    {
      "type": "node",
      "id": 1568753846,
      "lat": 12.9678784,
      "lon": 77.5438967,
      "tags": {
        "brand": "HOPCOMS",
        "brand:wikidata": "Q22908959",
        "name": "HOPCOMS",
        "name:kn": "ಹಾಪ್ ಕಾಮ್ಸ್",
        "shop": "greengrocer"
      }
    },
    {
      "type": "node",
      "id": 1809706027,
      "lat": 12.9731576,
      "lon": 77.5413648,
      "tags": {
        "amenity": "atm",
        "brand": "HDFC Bank",
        "brand:wikidata": "Q631047",
        "fee": "no",
        "name": "HDFC Bank",
        "name:kn": "ಎಚ್ ಡಿ ಎಫ್ ಸಿ",
        "operator": "HDFC Bank",
        "operator:wikidata": "Q631047",
        "short_name": "HDFC",
        "wheelchair": "no"
      }
    },
    {
      "type": "node",
      "id": 1979053383,
      "lat": 12.9734094,
      "lon": 77.5417665,
      "tags": {
        "amenity": "cafe",
        "name": "Cafe Coffe Day",
        "name:kn": "ಕಫೆ ಕಾಫಿ ಡೇ",
        "wheelchair": "no"
      }
    },
    {
      "type": "node",
      "id": 1979053385,
      "lat": 12.9738477,
      "lon": 77.5440708,
      "tags": {
        "amenity": "bank",
        "name": "LIC of India",
        "name:kn": "ಭಾರತೀಯ ಜೀವವಿಮಾ ನಿಗಮ"
      }
    },
    {
      "type": "node",
      "id": 2245734528,
      "lat": 12.9737802,
      "lon": 77.5433493,
      "tags": {
        "amenity": "atm",
        "brand": "Citibank",
        "brand:wikidata": "Q857063",
        "name": "Citibank",
        "name:kn": "ಸಿಟಿಬ್ಯಾಂಕ್",
        "operator": "Citibank",
        "operator:wikidata": "Q857063",
        "short_name": "Citi"
      }
    },
    {
      "type": "node",
      "id": 2487524459,
      "lat": 12.9669405,
      "lon": 77.5470005,
      "tags": {
        "addr:city": "Bangalore",
        "addr:housename": "Vijayanagar",
        "addr:street": "Hosahalli Main Road",
        "amenity": "fuel",
        "brand": "Total",
        "brand:wikidata": "Q154037",
        "building": "yes",
        "name": "Total Gas"
      }
    },
    {
      "type": "node",
      "id": 2487524460,
      "lat": 12.9664835,
      "lon": 77.5443788,
      "tags": {
        "addr:city": "Bangalore",
        "addr:housename": "Vijayanagar",
        "addr:postcode": "560040",
        "addr:street": "Pipeline Road",
        "name": "Panchamukhi Motors, Bajar Service Station",
        "shop": "motorcycle"
      }
    },
    {
      "type": "node",
      "id": 2487524461,
      "lat": 12.9673086,
      "lon": 77.5461504,
      "tags": {
        "addr:city": "Bangalore",
        "addr:housename": "Vijayanagar",
        "addr:postcode": "560040",
        "addr:street": "Hosahalli Main Road",
        "amenity": "fuel",
        "brand": "Indian Oil",
        "brand:wikidata": "Q1289348",
        "brand:wikipedia": "en:Indian Oil Corporation",
        "building": "yes",
        "name": "Indian Oil",
        "name:kn": "ಇಂಡಿಯನ್ ಆಯಿಲ್"
      }
    },
    {
      "type": "node",
      "id": 2489009755,
      "lat": 12.9668706,
      "lon": 77.543321,
      "tags": {
        "addr:city": "Bangalore",
        "addr:housename": "RPC Layout, Vijayanagar",
        "addr:street": "2nd Cross",
        "brand": "Vision Express",
        "brand:wikidata": "Q7936150",
        "name": "Vision Express",
        "shop": "optician"
      }
    },
    {
      "type": "node",
      "id": 2504576087,
      "lat": 12.9734237,
      "lon": 77.5420407,
      "tags": {
        "addr:city": "Bangalore",
        "addr:housename": "Next to Hotal Shanti Sagar, Vijayanagar",
        "addr:postcode": "560040",
        "addr:street": "2nd Main",
        "brand": "Airtel",
        "brand:wikidata": "Q854867",
        "name": "Airtel",
        "name:kn": "ಏರ್ಟೆಲ್",
        "shop": "mobile_phone"
      }
    },
    {
      "type": "node",
      "id": 2513711700,
      "lat": 12.973835,
      "lon": 77.547621,
      "tags": {
        "addr:city": "Bangalore",
        "addr:housename": "Near Toll Gate",
        "addr:street": "Chord Road",
        "name": "Bangalore Wheels Yamaha Showroom",
        "shop": "motorcycle"
      }
    },
    {
      "type": "node",
      "id": 2513711708,
      "lat": 12.9738559,
      "lon": 77.5464945,
      "tags": {
        "addr:city": "Bangalore",
        "addr:housename": "Service Road, Manuvana, VIjayanagar",
        "addr:street": "Chord Road",
        "name": "Kavitha Enterprises ( Indane Gas Agency )",
        "shop": "Domestic_Gas_Agency"
      }
    },
    {
      "type": "node",
      "id": 2513711714,
      "lat": 12.9737304,
      "lon": 77.543367,
      "tags": {
        "addr:city": "Bangalore",
        "addr:housename": "Above Citi Bank ATM, Vijayanagar",
        "addr:street": "Chord Road",
        "amenity": "restaurant",
        "name": "Hotel Savaji's"
      }
    },
    {
      "type": "node",
      "id": 2513711717,
      "lat": 12.9736991,
      "lon": 77.5433134,
      "tags": {
        "addr:city": "Bangalore",
        "addr:housename": "Above Citi Bank ATM, Vijayanagar",
        "addr:postcode": "560040",
        "addr:street": "Chord Road",
        "amenity": "finance",
        "name": "Muthoot Finance",
        "name:kn": "ಮುತೂಟ್ ಫೈನಾನ್ಸ್"
      }
    },
    {
      "type": "node",
      "id": 2513711720,
      "lat": 12.9736677,
      "lon": 77.5433778,
      "tags": {
        "addr:city": "Bangalore",
        "addr:housename": "Above Citi Bank ATM, Vijayanagar",
        "addr:postcode": "560040",
        "addr:street": "Chord Road",
        "name": "Univercell",
        "shop": "mobile_phone"
      }
    },
    {
      "type": "node",
      "id": 2513711731,
      "lat": 12.9734168,
      "lon": 77.541865,
      "tags": {
        "addr:city": "Bangalore",
        "addr:housename": "Near Hotel Shantisagar, Vijayanagar",
        "addr:postcode": "560040",
        "addr:street": "Chord Road",
        "name": "Arya Sweets & Bakers",
        "shop": "bakery"
      }
    },
    {
      "type": "node",
      "id": 3861909818,
      "lat": 12.9737917,
      "lon": 77.5433178,
      "tags": {
        "addr:city": "Bangalore",
        "addr:postcode": "560040",
        "addr:street": "Chord Road",
        "amenity": "fast_food",
        "cuisine": "regional",
        "name": "Hot Coffe"
      }
    },
    {
      "type": "node",
      "id": 3861909819,
      "lat": 12.9738598,
      "lon": 77.5439044,
      "tags": {
        "addr:city": "Bangalore",
        "addr:postcode": "560040",
        "addr:street": "Chord Road",
        "name": "Co Optex",
        "shop": "clothes"
      }
    },
    {
      "type": "node",
      "id": 3951238108,
      "lat": 12.9671346,
      "lon": 77.5450815,
      "tags": {
        "amenity": "place_of_worship",
        "description": "syro Malabar church",
        "name": "Mary Matha Church",
        "opening_hours": "Mo-Fr 06:30-07:15; Sa 17:30-19:00; Su 09:00-11:00",
        "religion": "christian"
      }
    },
    {
      "type": "node",
      "id": 4101094993,
      "lat": 12.9630364,
      "lon": 77.5439374,
      "tags": {
        "addr:street": "Pipeline Road",
        "amenity": "cinema",
        "name": "santosh talkies"
      }
    },
    {
      "type": "node",
      "id": 4130913292,
      "lat": 12.9677777,
      "lon": 77.545264,
      "tags": {
        "addr:street": "Pipeline Road",
        "amenity": "clinic",
        "name": "Ashvini"
      }
    },
    {
      "type": "node",
      "id": 4447072624,
      "lat": 12.9735891,
      "lon": 77.5443283,
      "tags": {
        "addr:city": "Bangalore",
        "addr:postcode": "560040",
        "addr:street": "Adichunchangiri Shopping Complex Adichunchangirishpgcplx Vjyngrb40 Vijaynagar, Attiguppe",
        "amenity": "hospital",
        "name": "Arogya Kendra",
        "name:kn": "ಆರೋಗ್ಯ ಕೇಂದ್ರ",
        "phone": "+918023400463"
      }
    },
    {
      "type": "node",
      "id": 4447108502,
      "lat": 12.9715348,
      "lon": 77.5439059,
      "tags": {
        "addr:city": "Bangalore",
        "addr:postcode": "560040",
        "addr:street": "7th Main Rd, Hoshalli Extension, Stage 1, Vijayanagar",
        "amenity": "pharmacy",
        "name": "Mukesh Medical",
        "phone": "+91 98441 56552"
      }
    },
    {
      "type": "node",
      "id": 4516946096,
      "lat": 12.9673595,
      "lon": 77.5453295,
      "tags": {
        "addr:postcode": "560040",
        "addr:street": "Hosahalli Main Road",
        "name": "K L D fish stall",
        "name:en": "K L D fish stall",
        "opening_hours": "Tu-Su 08:00-13:00",
        "phone": "+91 9448682253",
        "shop": "seafood"
      }
    },
    {
      "type": "node",
      "id": 4516977590,
      "lat": 12.9736279,
      "lon": 77.5446202,
      "tags": {
        "brand": "Reliance Fresh",
        "brand:wikidata": "Q7311014",
        "name": "Reliance Fresh",
        "name:en": "Reliance fresh",
        "name:kn": "ರಿಲಾಯನ್ಸ್ ಫ್ರೆಶ್",
        "opening_hours": "Mo-Su 08:00-22:00",
        "shop": "supermarket"
      }
    },
    {
      "type": "node",
      "id": 4520841992,
      "lat": 12.9703991,
      "lon": 77.5463108,
      "tags": {
        "amenity": "atm",
        "brand": "State Bank of India",
        "brand:wikidata": "Q1340361",
        "name": "State Bank of India",
        "operator": "State Bank of India",
        "operator:wikidata": "Q1340361",
        "short_name": "SBI"
      }
    },
    {
      "type": "node",
      "id": 4520910090,
      "lat": 12.9672966,
      "lon": 77.545065,
      "tags": {
        "amenity": "atm",
        "operator": "Karnataka Bank ATM"
      }
    },
    {
      "type": "node",
      "id": 4520910092,
      "lat": 12.97387,
      "lon": 77.5446917,
      "tags": {
        "amenity": "atm",
        "operator": "Canara Bank ATM"
      }
    },
    {
      "type": "node",
      "id": 4520918289,
      "lat": 12.9663276,
      "lon": 77.5443481,
      "tags": {
        "amenity": "atm",
        "operator": "Vijaya Bank"
      }
    },
    {
      "type": "node",
      "id": 4533717195,
      "lat": 12.9701394,
      "lon": 77.5461865,
      "tags": {
        "amenity": "atm",
        "brand": "Canara Bank",
        "brand:en": "Canara Bank",
        "brand:hi": "केनरा बैंक",
        "brand:kn": "ಕೆನರಾ ಬ್ಯಾಂಕ್",
        "brand:pa": "ਕੇਨਰਾ ਬੈਂਕ",
        "brand:pnb": "کینرا بینک",
        "brand:ur": "کینرا بینک",
        "brand:wikidata": "Q2003777",
        "name": "Canara Bank",
        "name:en": "Canara Bank",
        "name:hi": "केनरा बैंक",
        "name:kn": "ಕೆನರಾ ಬ್ಯಾಂಕ್",
        "name:pa": "ਕੇਨਰਾ ਬੈਂਕ",
        "name:pnb": "کینرا بینک",
        "name:ur": "کینرا بینک",
        "operator": "Canara Bank",
        "operator:wikidata": "Q2003777"
      }
    },
    {
      "type": "node",
      "id": 4533735695,
      "lat": 12.9709463,
      "lon": 77.5451059,
      "tags": {
        "addr:district": "Bengaluru Urban",
        "addr:full": "No. 318, 6Th Main,2nd Cross,Vijayanagar",
        "addr:postcode": "560040",
        "addr:state": "Karnataka",
        "amenity": "hospital",
        "name": "Manasa Hospital, Vijayanagar",
        "source": "OpenGovernmentData"
      }
    },
    {
      "type": "node",
      "id": 4533766191,
      "lat": 12.9641822,
      "lon": 77.5424512,
      "tags": {
        "addr:street": "5th Main",
        "amenity": "bank",
        "name": "Panjab National Bank",
        "name:en": "Panjab national Bank"
      }
    },
    {
      "type": "node",
      "id": 4533766391,
      "lat": 12.9702038,
      "lon": 77.5462546,
      "tags": {
        "addr:street": "Pipeline Road",
        "amenity": "pharmacy",
        "brand": "MedPlus",
        "brand:wikidata": "Q65684234",
        "healthcare": "pharmacy",
        "name": "MedPlus",
        "name:en": "Medplus",
        "name:kn": "ಮೆಡ್‍ಪ್ಲಸ್"
      }
    },
    {
      "type": "node",
      "id": 4534097697,
      "lat": 12.9681925,
      "lon": 77.5455125,
      "tags": {
        "addr:district": "Bengaluru Urban",
        "addr:full": "72 14Th Cross Vijayanagar Pipeline Road Cholurpalya",
        "addr:postcode": "560023",
        "addr:state": "Karnataka",
        "amenity": "clinic",
        "name": "Tejus hospital",
        "name:en": "Tejas hospital",
        "source": "OpenGovernmentData"
      }
    },
    {
      "type": "node",
      "id": 4541328991,
      "lat": 12.9701135,
      "lon": 77.5437369,
      "tags": {
        "brand": "HOPCOMS",
        "brand:wikidata": "Q22908959",
        "name": "HOPCOMS",
        "name:en": "HOPCOMS",
        "name:kn": "ಹಾಪ್ ಕಾಮ್ಸ್",
        "shop": "greengrocer"
      }
    },
    {
      "type": "node",
      "id": 4541362889,
      "lat": 12.9705485,
      "lon": 77.5462002,
      "tags": {
        "amenity": "place_of_worship",
        "name": "Temple",
        "name:en": "Temple"
      }
    },
    {
      "type": "node",
      "id": 4639189261,
      "lat": 12.9709244,
      "lon": 77.5436834,
      "tags": {
        "amenity": "atm",
        "brand": "Axis Bank",
        "brand:wikidata": "Q2003549",
        "currency:INR": "yes",
        "description": "ATM with Rupee currency notes",
        "name": "Axis Bank",
        "name:kn": "ಆಕ್ಸಿಸ್ ಬ್ಯಾಂಕ್ ಎಟಿಎಂ",
        "operator": "Axis Bank",
        "operator:wikidata": "Q2003549"
      }
    },
    {
      "type": "node",
      "id": 4688310491,
      "lat": 12.9708787,
      "lon": 77.5435028,
      "tags": {
        "amenity": "cafe",
        "cuisine": "regional",
        "name": "Bramhashree Condiments"
      }
    },
    {
      "type": "node",
      "id": 5147958922,
      "lat": 12.9665385,
      "lon": 77.544607,
      "tags": {
        "addr:postcode": "560040",
        "addr:street": "Church Service Road",
        "amenity": "fast_food",
        "brand": "Indira Canteen",
        "brand:wikidata": "Q36164828",
        "cuisine": "south_indian",
        "name": "Indira Canteen",
        "operator": "BBMP",
        "takeaway": "yes"
      }
    },
    {
      "type": "node",
      "id": 5873954131,
      "lat": 12.9738312,
      "lon": 77.5444879,
      "tags": {
        "amenity": "bank",
        "atm": "no",
        "name": "Apex Bank"
      }
    },
    {
      "type": "node",
      "id": 5873954132,
      "lat": 12.9737136,
      "lon": 77.5444758,
      "tags": {
        "name": "Baker's Pride",
        "shop": "bakery"
      }
    },
    {
      "type": "node",
      "id": 5873954133,
      "lat": 12.9736104,
      "lon": 77.5444382,
      "tags": {
        "amenity": "bank",
        "atm": "yes",
        "brand": "Canara Bank",
        "brand:en": "Canara Bank",
        "brand:hi": "केनरा बैंक",
        "brand:kn": "ಕೆನರಾ ಬ್ಯಾಂಕ್",
        "brand:pa": "ਕੇਨਰਾ ਬੈਂਕ",
        "brand:pnb": "کینرا بینک",
        "brand:ur": "کینرا بینک",
        "brand:wikidata": "Q2003777",
        "brand:wikipedia": "en:Canara Bank",
        "brand:wikipedia:pa": "ਕੇਨਰਾ ਬੈਂਕ",
        "name": "Canara Bank",
        "name:en": "Canara Bank",
        "name:hi": "केनरा बैंक",
        "name:kn": "ಕೆನರಾ ಬ್ಯಾಂಕ್",
        "name:pa": "ਕੇਨਰਾ ਬੈਂਕ",
        "name:pnb": "کینرا بینک",
        "name:ur": "کینرا بینک"
      }
    },
    {
      "type": "node",
      "id": 5873954134,
      "lat": 12.9735411,
      "lon": 77.5443967,
      "tags": {
        "amenity": "fast_food",
        "cuisine": "indian",
        "delivery": "no",
        "internet_access": "no",
        "internet_access:fee": "no",
        "name": "Madhu Hotel",
        "smoking": "no"
      }
    },
    {
      "type": "node",
      "id": 5873959814,
      "lat": 12.9713286,
      "lon": 77.5438508,
      "tags": {
        "amenity": "fast_food",
        "cuisine": "indian",
        "internet_access": "no",
        "internet_access:fee": "no",
        "name": "Janatha Upahara",
        "smoking": "no"
      }
    },
    {
      "type": "node",
      "id": 5873959815,
      "lat": 12.9716605,
      "lon": 77.5439313,
      "tags": {
        "name": "Iyengar's Bakery",
        "name:kn": "ಐಯ್ಯಂಗಾರ್ ಬೇಕರಿ",
        "shop": "bakery"
      }
    },
    {
      "type": "node",
      "id": 6388715090,
      "lat": 12.9719808,
      "lon": 77.5468134,
      "tags": {
        "name": "Vijayalakshmi Bakery",
        "shop": "bakery"
      }
    },
    {
      "type": "node",
      "id": 6388716488,
      "lat": 12.9720251,
      "lon": 77.5468274,
      "tags": {
        "amenity": "fast_food",
        "name": "Sri Veerabadreshwara Juice Chats"
      }
    },
    {
      "type": "node",
      "id": 6944287716,
      "lat": 12.9733764,
      "lon": 77.5474034,
      "tags": {
        "addr:district": "Bengaluru Urban",
        "addr:full": "66 B/7, Pipe Line Road, Vijayanagara",
        "addr:postcode": "560040",
        "addr:state": "Karnataka",
        "amenity": "hospital",
        "name": "Tanmay Hospital",
        "source": "OpenGovernmentData"
      }
    },
    {
      "type": "node",
      "id": 7156536803,
      "lat": 12.9737959,
      "lon": 77.5437449,
      "tags": {
        "name": "Boots Bazar",
        "shop": "shoes"
      }
    },
    {
      "type": "node",
      "id": 7156536804,
      "lat": 12.9736221,
      "lon": 77.5429094,
      "tags": {
        "brand": "Airtel",
        "brand:wikidata": "Q854867",
        "name": "Airtel",
        "shop": "mobile_phone"
      }
    },
    {
      "type": "node",
      "id": 7572526701,
      "lat": 12.972589,
      "lon": 77.541939,
      "tags": {
        "addr:district": "Bengaluru Urban",
        "addr:full": "SBI Staff Colony, Hoshalli Extension, Vijayanagar, Bengaluru",
        "addr:postcode": "560040",
        "addr:state": "Karnataka",
        "amenity": "clinic",
        "name": "Dr. Nagbhushan Skin Care Clinic",
        "source": "Local Knowledge"
      }
    },
    {
      "type": "node",
      "id": 7572526708,
      "lat": 12.9734087,
      "lon": 77.5462808,
      "tags": {
        "addr:district": "Bengaluru Urban",
        "addr:full": "Hoshalli Extension, Vijayanagar, Bengaluru",
        "addr:postcode": "560040",
        "addr:state": "Karnataka",
        "amenity": "hospital",
        "name": "Sriprasad Ayurveda",
        "source": "Local Knowledge"
      }
    },
    {
      "type": "node",
      "id": 7572526711,
      "lat": 12.9731159,
      "lon": 77.5415094,
      "tags": {
        "addr:district": "Bengaluru Urban",
        "addr:full": "SBI Staff Colony, Hoshalli Extension, Vijayanagar, Bengaluru",
        "addr:postcode": "560040",
        "addr:state": "Karnataka",
        "amenity": "clinic",
        "name": "Vijayanagar ENT Care Centre",
        "source": "Local Knowledge"
      }
    },
    {
      "type": "node",
      "id": 7572526723,
      "lat": 12.9716512,
      "lon": 77.5434425,
      "tags": {
        "addr:district": "Bengaluru Urban",
        "addr:full": "Hoshalli Extension, Vijayanagar, Bengaluru",
        "addr:postcode": "560040",
        "addr:state": "Karnataka",
        "amenity": "clinic",
        "name": "Dr. Vasudeva's Orthopaedic Clinic",
        "source": "Local Knowledge"
      }
    },
    {
      "type": "node",
      "id": 7572526791,
      "lat": 12.9735574,
      "lon": 77.5461246,
      "tags": {
        "addr:district": "Bengaluru Urban",
        "addr:full": "Hans Complex, Manuvana, Vijayanagar, Bengaluru",
        "addr:postcode": "560040",
        "addr:state": "Karnataka",
        "amenity": "hospital",
        "name": "Bengaluru Child Neurology and Rehabilitaion Centre",
        "source": "Local Knowledge"
      }
    },
    {
      "type": "node",
      "id": 7572526805,
      "lat": 12.9734052,
      "lon": 77.545935,
      "tags": {
        "addr:district": "Bengaluru Urban",
        "addr:full": "2nd Cross Road, Hoshalli Extension,Vijayanagar, Bengaluru",
        "addr:postcode": "560040",
        "addr:state": "Karnataka",
        "amenity": "clinic",
        "name": "PS Health Care Centre",
        "source": "Local Knowledge"
      }
    },
    {
      "type": "node",
      "id": 13295933863,
      "lat": 12.971159,
      "lon": 77.5449986,
      "tags": {
        "addr:full": "775, 5th main 2nd cross near manasa hospital vijaynagar",
        "addr:housenumber": "775",
        "addr:street": "5th Main Road",
        "addr:street:corner": "2nd Cross Road",
        "clothes": "underwear",
        "name": "Kamal collections",
        "payment:cash": "yes",
        "payment:upi": "yes",
        "phone": "9945737503",
        "shop": "clothes"
      }
    },
    {
      "type": "way",
      "id": 54147265,
      "center": {
        "lat": 12.9703429,
        "lon": 77.5427519
      },
      "tags": {
        "leisure": "park"
      }
    },
    {
      "type": "way",
      "id": 54147274,
      "center": {
        "lat": 12.9723666,
        "lon": 77.54339
      },
      "tags": {
        "amenity": "school"
      }
    },
    {
      "type": "way",
      "id": 54147278,
      "center": {
        "lat": 12.9697226,
        "lon": 77.5441412
      },
      "tags": {
        "amenity": "school",
        "name": "Government School",
        "name:kn": "ಸರ್ಕಾರಿ ಶಾಲೆ"
      }
    },
    {
      "type": "way",
      "id": 54147280,
      "center": {
        "lat": 12.9704117,
        "lon": 77.5455182
      },
      "tags": {
        "leisure": "park",
        "name": "Jayaprakash Narayana Park",
        "name:etymology:wikidata": "Q734509",
        "name:kn": "ಜಯಪ್ರಕಾಶ್ ನಾರಾಯಣ ಉದ್ಯಾನವನ"
      }
    },
    {
      "type": "way",
      "id": 169809630,
      "center": {
        "lat": 12.9732753,
        "lon": 77.5408321
      },
      "tags": {
        "leisure": "park"
      }
    },
    {
      "type": "way",
      "id": 169809639,
      "center": {
        "lat": 12.9739774,
        "lon": 77.5439648
      },
      "tags": {
        "leisure": "park"
      }
    },
    {
      "type": "way",
      "id": 349453244,
      "center": {
        "lat": 12.9671443,
        "lon": 77.5450914
      },
      "tags": {
        "amenity": "place_of_worship",
        "building": "yes",
        "name": "Mary Matha Church",
        "religion": "christian"
      }
    },
    {
      "type": "way",
      "id": 1339066332,
      "center": {
        "lat": 12.9736457,
        "lon": 77.5453395
      },
      "tags": {
        "amenity": "place_of_worship",
        "landuse": "religious",
        "name": "Sri Adichunchanagiri Mutt",
        "religion": "hindu"
      }
    }
  ]
}