{
  "area_name": "Aditya Layout",
  "osm_id": 8699676981,
  "osm_type": "node",
  "place_type": "neighbourhood",
  "amenity_count": 79,
  "amenities": [
    {
      "type": "node",
      "id": 1463569358,
      "lat": 12.9217044,
      "lon": 77.5204162,
      "tags": {
        "amenity": "fast_food",
        "cuisine": "regional",
        "name": "Bramhi Aahaara"
      }
    },
    {
      "type": "node",
      "id": 1463570044,
      "lat": 12.9214078,
      "lon": 77.5206736,
      "tags": {
        "amenity": "restaurant",
        "cuisine": "chinese",
        "name": "Beijing Bites",
        "name:kn": "ಬೀಜಿಂಗ್ ಬೈಟ್ಸ್"
      }
    },
    {
      "type": "node",
      "id": 1463570454,
      "lat": 12.920634,
      "lon": 77.5205368,
      "tags": {
        "amenity": "cafe",
        "name": "Coffee Day"
      }
    },
    {
      "type": "node",
      "id": 1463571018,
      "lat": 12.9209843,
      "lon": 77.5202713,
      "tags": {
        "name": "Food World",
        "shop": "supermarket"
      }
    },
    {
      "type": "node",
      "id": 1463571577,
      "lat": 12.9202209,
      "lon": 77.5201908,
      "tags": {
        "amenity": "place_of_worship",
        "name": "Ganesha Temple",
        "name:kn": "ಗಣೇಶ ದೇವಸ್ಥಾನ",
        "religion": "hindu"
      }
    },
    {
      "type": "node",
      "id": 2996236143,
      "lat": 12.9266584,
      "lon": 77.5199911,
      "tags": {
        "amenity": "restaurant",
        "cuisine": "regional",
        "name": "Monish Corner"
      }
    },
    {
      "type": "node",
      "id": 2996236145,
      "lat": 12.9247082,
      "lon": 77.5196155,
      "tags": {
        "name": "Lakshmi Departmental Stores",
        "shop": "department_store"
      }
    },
    {
      "type": "node",
      "id": 2996236146,
      "lat": 12.9244128,
      "lon": 77.5190496,
      "tags": {
        "name": "Namdhari's Fresh",
        "shop": "supermarket"
      }
    },
    {
      "type": "node",
      "id": 2996236148,
      "lat": 12.9242219,
      "lon": 77.518945,
      "tags": {
        "amenity": "school",
        "name": "Carmel School Ground"
      }
    },
    {
      "type": "node",
      "id": 2997256383,
      "lat": 12.9192621,
      "lon": 77.5204447,
      "tags": {
        "addr:city": "Bangalore",
        "addr:housenumber": "826",
        "addr:postcode": "560098",
        "addr:street": "Jawaharlal Nehru Road",
        "brand": "Lenskart",
        "name": "Lenskart.com",
        "opening_hours": "11:00 - 23:00",
        "shop": "optician",
        "takeaway": "yes",
        "website": "https://www.lenskart.com/"
      }
    },
    {
      "type": "node",
      "id": 3004239730,
      "lat": 12.9228792,
      "lon": 77.5207873,
      "tags": {
        "name": "Le Pape",
        "shop": "clothes"
      }
    },
    {
      "type": "node",
      "id": 3259763130,
      "lat": 12.926408,
      "lon": 77.5158466,
      "tags": {
        "addr:city": "BENGALURU",
        "addr:postcode": "560098",
        "addr:street": "Ideal Homes",
        "amenity": "bank",
        "atm": "yes",
        "brand": "State Bank of India",
        "brand:wikidata": "Q1340361",
        "brand:wikipedia": "en:State Bank of India",
        "drive_through": "no",
        "name": "State Bank of India",
        "name:kn": "ಭಾರತೀಯ ಸ್ಟೇಟ್ ಬ್ಯಾಂಕ್",
        "operator": "State Bank of India"
      }
    },
    {
      "type": "node",
      "id": 3546831488,
      "lat": 12.9209531,
      "lon": 77.5213014,
      "tags": {
        "amenity": "school",
        "name": "BET Convent"
      }
    },
    {
      "type": "node",
      "id": 3690755778,
      "lat": 12.9313955,
      "lon": 77.5179594,
      "tags": {
        "amenity": "restaurant",
        "cuisine": "regional",
        "delivery": "yes",
        "name": "Twillight Tandoor Resto",
        "takeaway": "yes"
      }
    },
    {
      "type": "node",
      "id": 4210670193,
      "lat": 12.918753,
      "lon": 77.520891,
      "tags": {
        "amenity": "clinic",
        "description": "Dr. Parthasarathy",
        "name": "Yogeshwara Clinic"
      }
    },
    {
      "type": "node",
      "id": 4212006129,
      "lat": 12.9221365,
      "lon": 77.5204974,
      "tags": {
        "addr:city": "Bengaluru",
        "addr:postcode": "560098",
        "addr:street": "BEML Layout 3rd Stage, Rajarajeshwari Nagar",
        "name": "Feet Shop",
        "shop": "shoes"
      }
    },
    {
      "type": "node",
      "id": 4488319661,
      "lat": 12.9208959,
      "lon": 77.5206097,
      "tags": {
        "addr:city": "BANGALORE",
        "addr:postcode": "560098",
        "addr:street": "Rajeswari nagar",
        "name": "Lakme Salon",
        "phone": "8033050394",
        "shop": "beauty"
      }
    },
    {
      "type": "node",
      "id": 4490001355,
      "lat": 12.9193043,
      "lon": 77.5206092,
      "tags": {
        "addr:city": "BANGALORE",
        "addr:housenumber": "500,",
        "addr:postcode": "560098",
        "addr:street": ", 60 Feet Road, Rajarajeshwari Naga",
        "name": "YLG",
        "opening_hours": "10:00-22:00",
        "phone": "(91)-80-33050394",
        "shop": "beauty",
        "website": "https://www.ylgindia.com/"
      }
    },
    {
      "type": "node",
      "id": 5075572822,
      "lat": 12.9257694,
      "lon": 77.5211371,
      "tags": {
        "shop": "bakery"
      }
    },
    {
      "type": "node",
      "id": 5466043458,
      "lat": 12.9315906,
      "lon": 77.5174586,
      "tags": {
        "amenity": "kindergarten",
        "name": "Young World"
      }
    },
    {
      "type": "node",
      "id": 10567529770,
      "lat": 12.9331955,
      "lon": 77.5261218,
      "tags": {
        "access": "yes",
        "amenity": "toilets",
        "fee": "no",
        "female": "yes",
        "male": "yes",
        "name": "Community Toilet",
        "opening_hours": "24/7",
        "operator": "ಬೃಹತ್ ಬೆಂಗಳೂರು ಮಹಾನಗರ ಪಾಲಿಕೆ",
        "operator:en": "Bruhat Bengaluru Mahanagara Palike",
        "operator:ka": "ಬೃಹತ್ ಬೆಂಗಳೂರು ಮಹಾನಗರ ಪಾಲಿಕೆ",
        "operator:short": "BBMP",
        "operator:wikidata": "Q4978693",
        "toilets:disposal": "flush",
        "wheelchair": "yes"
      }
    },
    {
      "type": "node",
      "id": 13127367968,
      "lat": 12.9296878,
      "lon": 77.5209957,
      "tags": {
        "amenity": "shelter",
        "shelter_type": "gazebo"
      }
    },
    {
      "type": "node",
      "id": 13127367969,
      "lat": 12.929544,
      "lon": 77.5213525,
      "tags": {
        "amenity": "shelter",
        "shelter_type": "gazebo"
      }
    },
    {
      "type": "node",
      "id": 13127368034,
      "lat": 12.9285532,
      "lon": 77.5161999,
      "tags": {
        "amenity": "shelter",
        "shelter_type": "gazebo"
      }
    },
    {
      "type": "node",
      "id": 13127368035,
      "lat": 12.9286813,
      "lon": 77.5165969,
      "tags": {
        "amenity": "shelter",
        "shelter_type": "gazebo"
      }
    },
    {
      "type": "node",
      "id": 13127368064,
      "lat": 12.9290983,
      "lon": 77.5178924,
      "tags": {
        "amenity": "shelter",
        "shelter_type": "gazebo"
      }
    },
    {
      "type": "node",
      "id": 13127368065,
      "lat": 12.9295087,
      "lon": 77.5175303,
      "tags": {
        "amenity": "shelter",
        "shelter_type": "gazebo"
      }
    },
    {
      "type": "node",
      "id": 13127368066,
      "lat": 12.9298642,
      "lon": 77.5183216,
      "tags": {
        "amenity": "shelter",
        "shelter_type": "gazebo"
      }
    },
    {
      "type": "node",
      "id": 13240135376,
      "lat": 12.9282791,
      "lon": 77.5162838,
      "tags": {
        "amenity": "post_box",
        "operator": "India Post"
      }
    },
    {
      "type": "node",
      "id": 13240137087,
      "lat": 12.9285703,
      "lon": 77.5161577,
      "tags": {
        "amenity": "bench",
        "backrest": "yes",
        "material": "stone",
        "seats": "2"
      }
    },
    {
      "type": "node",
      "id": 13240142053,
      "lat": 12.928377,
      "lon": 77.5162909,
      "tags": {
        "amenity": "bench"
      }
    },
    {
      "type": "node",
      "id": 13240142054,
      "lat": 12.9283894,
      "lon": 77.5162546,
      "tags": {
        "amenity": "waste_basket"
      }
    },
    {
      "type": "node",
      "id": 13240142055,
      "lat": 12.9284084,
      "lon": 77.5162238,
      "tags": {
        "amenity": "bench"
      }
    },
    {
      "type": "node",
      "id": 13240142056,
      "lat": 12.9283564,
      "lon": 77.5163222,
      "tags": {
        "amenity": "bench"
      }
    },
    {
      "type": "node",
      "id": 13240142057,
      "lat": 12.928462,
      "lon": 77.5161446,
      "tags": {
        "amenity": "bench"
      }
    },
    {
      "type": "node",
      "id": 13240151359,
      "lat": 12.9272313,
      "lon": 77.5178189,
      "tags": {
        "amenity": "kindergarten",
        "check_date": "2025-10-18",
        "name": "Eunoia"
      }
    },
    {
      "type": "node",
      "id": 13240162744,
      "lat": 12.9286287,
      "lon": 77.5161986,
      "tags": {
        "amenity": "bench",
        "armrest": "yes",
        "backrest": "yes",
        "material": "concrete",
        "seats": "3"
      }
    },
    {
      "type": "node",
      "id": 13240162745,
      "lat": 12.9278374,
      "lon": 77.5163046,
      "tags": {
        "brand": "Nandini",
        "brand:wikidata": "Q124374212",
        "check_date": "2025-10-18",
        "name": "Nandini",
        "shop": "dairy"
      }
    },
    {
      "type": "node",
      "id": 13240162746,
      "lat": 12.9277651,
      "lon": 77.5162915,
      "tags": {
        "check_date": "2025-10-18",
        "shop": "copyshop"
      }
    },
    {
      "type": "node",
      "id": 13240172802,
      "lat": 12.9284394,
      "lon": 77.5160786,
      "tags": {
        "check_date": "2025-10-18",
        "name": "AG Enterprises",
        "shop": "kiosk"
      }
    },
    {
      "type": "node",
      "id": 13240191660,
      "lat": 12.9265957,
      "lon": 77.5168425,
      "tags": {
        "amenity": "dancing_school",
        "check_date": "2025-10-18",
        "name": "Kalagrhm"
      }
    },
    {
      "type": "node",
      "id": 13240191661,
      "lat": 12.92661,
      "lon": 77.5174309,
      "tags": {
        "amenity": "kindergarten",
        "check_date": "2025-10-18",
        "name": "Child's Kingdom"
      }
    },
    {
      "type": "node",
      "id": 13240191662,
      "lat": 12.925836,
      "lon": 77.5180757,
      "tags": {
        "amenity": "bank",
        "brand": "Indian Bank",
        "brand:wikidata": "Q2003789",
        "check_date": "2025-10-18",
        "name": "Indian Bank"
      }
    },
    {
      "type": "node",
      "id": 13240199710,
      "lat": 12.9279833,
      "lon": 77.518069,
      "tags": {
        "check_date": "2025-10-18",
        "name": "Coffee 2 Day",
        "shop": "coffee"
      }
    },
    {
      "type": "node",
      "id": 13240199712,
      "lat": 12.9281615,
      "lon": 77.5180785,
      "tags": {
        "check_date": "2025-10-18",
        "name": "Petrichor",
        "organic": "only",
        "shop": "greengrocer"
      }
    },
    {
      "type": "node",
      "id": 13240199714,
      "lat": 12.9280883,
      "lon": 77.5180799,
      "tags": {
        "amenity": "cafe",
        "check_date": "2025-10-18",
        "name": "Blossom Bean Cafe"
      }
    },
    {
      "type": "way",
      "id": 132998344,
      "center": {
        "lat": 12.919261,
        "lon": 77.5196974
      },
      "tags": {
        "leisure": "park",
        "name": "Dr Ambedkar Park",
        "name:etymology:wikidata": "Q231690",
        "name:kn": "ಅಂಬೇಡ್ಕರ್ ಉದ್ಯಾನ"
      }
    },
    {
      "type": "way",
      "id": 319551492,
      "center": {
        "lat": 12.9210796,
        "lon": 77.519083
      },
      "tags": {
        "leisure": "park",
        "name": "Vivekananda Park",
        "name:kn": "ವಿವೇಕಾನಂದ ಪಾರ್ಕ್"
      }
    },
    {
      "type": "way",
      "id": 319552562,
      "center": {
        "lat": 12.928623,
        "lon": 77.5165144
      },
      "tags": {
        "leisure": "park",
        "name": "Rajarajeshwari Nagar Park",
        "name:kn": "ರಾಜರಾಜೇಶ್ವರಿ ನಗರ ಉದ್ಯಾನವನ"
      }
    },
    {
      "type": "way",
      "id": 347417614,
      "center": {
        "lat": 12.926744,
        "lon": 77.5265184
      },
      "tags": {
        "leisure": "garden"
      }
    },
    {
      "type": "way",
      "id": 362913634,
      "center": {
        "lat": 12.9265922,
        "lon": 77.5186791
      },
      "tags": {
        "leisure": "park"
      }
    },
    {
      "type": "way",
      "id": 362913765,
      "center": {
        "lat": 12.92941,
        "lon": 77.5177585
      },
      "tags": {
        "leisure": "park",
        "name": "Netaji Memorial Park"
      }
    },
    {
      "type": "way",
      "id": 362914141,
      "center": {
        "lat": 12.9295564,
        "lon": 77.5212498
      },
      "tags": {
        "leisure": "park",
        "name": "Siddalingaiah Park"
      }
    },
    {
      "type": "way",
      "id": 401829358,
      "center": {
        "lat": 12.9237378,
        "lon": 77.5233068
      },
      "tags": {
        "amenity": "school",
        "name": "National Hill View Public School"
      }
    },
    {
      "type": "way",
      "id": 721685566,
      "center": {
        "lat": 12.9320622,
        "lon": 77.5275863
      },
      "tags": {
        "amenity": "community_centre",
        "landuse": "commercial",
        "name": "V Legacy"
      }
    },
    {
      "type": "way",
      "id": 729214178,
      "center": {
        "lat": 12.9307746,
        "lon": 77.5208241
      },
      "tags": {
        "leisure": "pitch",
        "sport": "tennis"
      }
    },
    {
      "type": "way",
      "id": 729214179,
      "center": {
        "lat": 12.9312491,
        "lon": 77.5213766
      },
      "tags": {
        "leisure": "pitch",
        "sport": "tennis"
      }
    },
    {
      "type": "way",
      "id": 729214180,
      "center": {
        "lat": 12.9314851,
        "lon": 77.5219687
      },
      "tags": {
        "leisure": "swimming_pool"
      }
    },
    {
      "type": "way",
      "id": 736950242,
      "center": {
        "lat": 12.9287127,
        "lon": 77.5291
      },
      "tags": {
        "amenity": "school",
        "name": "National Hill View Public School"
      }
    },
    {
      "type": "way",
      "id": 766650745,
      "center": {
        "lat": 12.9272671,
        "lon": 77.5262224
      },
      "tags": {
        "amenity": "college",
        "name": "Global Academy of Technology"
      }
    },
    {
      "type": "way",
      "id": 1182315656,
      "center": {
        "lat": 12.9264187,
        "lon": 77.5216783
      },
      "tags": {
        "amenity": "hospital",
        "name": "SS Sparsh Hospital"
      }
    },
    {
      "type": "way",
      "id": 1265721109,
      "center": {
        "lat": 12.9312596,
        "lon": 77.52128
      },
      "tags": {
        "leisure": "park"
      }
    },
    {
      "type": "way",
      "id": 1265721110,
      "center": {
        "lat": 12.9303518,
        "lon": 77.5209496
      },
      "tags": {
        "leisure": "sports_centre",
        "name": "Sky Sports Arena"
      }
    },
    {
      "type": "way",
      "id": 1287589789,
      "center": {
        "lat": 12.9317173,
        "lon": 77.5320307
      },
      "tags": {
        "amenity": "parking",
        "parking": "surface"
      }
    },
    {
      "type": "way",
      "id": 1363986258,
      "center": {
        "lat": 12.9283177,
        "lon": 77.529625
      },
      "tags": {
        "leisure": "park"
      }
    },
    {
      "type": "way",
      "id": 1363986274,
      "center": {
        "lat": 12.9334026,
        "lon": 77.5273969
      },
      "tags": {
        "leisure": "park"
      }
    },
    {
      "type": "way",
      "id": 1427896139,
      "center": {
        "lat": 12.930829,
        "lon": 77.5212748
      },
      "tags": {
        "leisure": "pitch",
        "sport": "tennis"
      }
    },
    {
      "type": "way",
      "id": 1427923069,
      "center": {
        "lat": 12.9247404,
        "lon": 77.5175994
      },
      "tags": {
        "amenity": "place_of_worship",
        "landuse": "religious",
        "name": "Shri Nimishamba Devi Temple",
        "name:kn": "ನಿಮಿಶಾಂಬ ದೇವಸ್ಥಾನ",
        "religion": "hindu"
      }
    },
    {
      "type": "way",
      "id": 1427923075,
      "center": {
        "lat": 12.9241038,
        "lon": 77.5186018
      },
      "tags": {
        "amenity": "school",
        "landuse": "education",
        "name": "Mount Carmel School"
      }
    },
    {
      "type": "way",
      "id": 1427923145,
      "center": {
        "lat": 12.9257312,
        "lon": 77.5262355
      },
      "tags": {
        "leisure": "pitch"
      }
    },
    {
      "type": "way",
      "id": 1427923146,
      "center": {
        "lat": 12.9257489,
        "lon": 77.526462
      },
      "tags": {
        "leisure": "pitch",
        "sport": "basketball"
      }
    },
    {
      "type": "way",
      "id": 1427923323,
      "center": {
        "lat": 12.9298852,
        "lon": 77.5226436
      },
      "tags": {
        "amenity": "school",
        "landuse": "education",
        "name": "Ashwini School"
      }
    },
    {
      "type": "way",
      "id": 1427923338,
      "center": {
        "lat": 12.9296392,
        "lon": 77.5211662
      },
      "tags": {
        "leisure": "playground"
      }
    },
    {
      "type": "way",
      "id": 1427963609,
      "center": {
        "lat": 12.9318419,
        "lon": 77.5222202
      },
      "tags": {
        "amenity": "theatre",
        "theatre:type": "amphi"
      }
    },
    {
      "type": "way",
      "id": 1443183189,
      "center": {
        "lat": 12.9288584,
        "lon": 77.5164775
      },
      "tags": {
        "leisure": "playground"
      }
    },
    {
      "type": "way",
      "id": 1443183199,
      "center": {
        "lat": 12.9272579,
        "lon": 77.5158506
      },
      "tags": {
        "access": "permissive",
        "leisure": "swimming_pool"
      }
    },
    {
      "type": "way",
      "id": 1444464468,
      "center": {
        "lat": 12.9273447,
        "lon": 77.5264765
      },
      "tags": {
        "leisure": "garden"
      }
    },
    {
      "type": "way",
      "id": 1444464470,
      "center": {
        "lat": 12.9248664,
        "lon": 77.5264547
      },
      "tags": {
        "access": "permissive",
        "amenity": "parking",
        "parking": "surface"
      }
    },
    {
      "type": "way",
      "id": 1444464471,
      "center": {
        "lat": 12.9245252,
        "lon": 77.5260847
      },
      "tags": {
        "access": "permissive",
        "amenity": "parking",
        "parking": "surface"
      }
    }
  ]
}