{
  "area_name": "Agaram",
  "osm_id": 19884613,
  "osm_type": "relation",
  "place_type": "administrative",
  "amenity_count": 163,
  "amenities": [
    {
      "type": "node",
      "id": 1385984054,
      "lat": 12.967438,
      "lon": 77.6365796,
      "tags": {
        "addr:housenumber": "#23, 3rd B cross,",
        "addr:street": "1st Main Road,",
        "amenity": "cafe",
        "name": "StrEat Cafe"
      }
    },
    {
      "type": "node",
      "id": 1469643951,
      "lat": 12.9239635,
      "lon": 77.6401322,
      "tags": {
        "brand": "Hundai",
        "check_date": "2024-03-02",
        "name": "Trident Hyundai",
        "shop": "car_repair"
      }
    },
    {
      "type": "node",
      "id": 1655556512,
      "lat": 12.9664535,
      "lon": 77.6363465,
      "tags": {
        "addr:district": "Bengaluru Urban",
        "addr:full": "270, 3Road Cross, Domlur 2nd Stage",
        "addr:postcode": "560071",
        "addr:state": "Karnataka",
        "addr:street": "3rd Cross Road",
        "amenity": "clinic",
        "name": "Vital Medi Health Care Pvt Ltd",
        "source": "OpenGovernmentData",
        "wheelchair": "yes"
      }
    },
    {
      "type": "node",
      "id": 1941464651,
      "lat": 12.9724588,
      "lon": 77.6260331,
      "tags": {
        "brand": "Nilgiri's",
        "brand:wikidata": "Q17079567",
        "check_date": "2023-10-12",
        "name": "Nilgiri's",
        "shop": "supermarket"
      }
    },
    {
      "type": "node",
      "id": 2999619029,
      "lat": 12.9689899,
      "lon": 77.6200161,
      "tags": {
        "addr:street": "Trinity Church Road",
        "name": "Army Canteen",
        "shop": "yes"
      }
    },
    {
      "type": "node",
      "id": 3170038846,
      "lat": 12.9693531,
      "lon": 77.6248085,
      "tags": {
        "name": "Sabu collection",
        "shop": "clothes"
      }
    },
    {
      "type": "node",
      "id": 3170057096,
      "lat": 12.972455,
      "lon": 77.6202099,
      "tags": {
        "brand": "Suzuki",
        "brand:wikidata": "Q181642",
        "name": "Suzuki",
        "name:kn": "ಸುಜುಕಿ",
        "shop": "motorcycle"
      }
    },
    {
      "type": "node",
      "id": 3198716239,
      "lat": 12.9662697,
      "lon": 77.6361076,
      "tags": {
        "addr:street": "3rd Cross Road",
        "amenity": "kindergarten",
        "name": "Jamati Montessri"
      }
    },
    {
      "type": "node",
      "id": 3207060595,
      "lat": 12.9382385,
      "lon": 77.6328181,
      "tags": {
        "amenity": "atm",
        "brand": "Axis Bank",
        "brand:wikidata": "Q2003549",
        "name": "Axis Bank",
        "name:kn": "ಅಕ್ಸಿಸ್ ಬ್ಯಾಂಕ್",
        "operator": "Axis Bank",
        "operator:wikidata": "Q2003549"
      }
    },
    {
      "type": "node",
      "id": 3562609093,
      "lat": 12.9752333,
      "lon": 77.6258831,
      "tags": {
        "amenity": "place_of_worship",
        "religion": "hindu"
      }
    },
    {
      "type": "node",
      "id": 3721246028,
      "lat": 12.9708578,
      "lon": 77.6349102,
      "tags": {
        "amenity": "community_centre",
        "name": "Function Hall"
      }
    },
    {
      "type": "node",
      "id": 3838171840,
      "lat": 12.9689288,
      "lon": 77.6359296,
      "tags": {
        "addr:housenumber": "3168",
        "addr:street": "Indiranagar Double Road",
        "amenity": "library",
        "level": "0",
        "name": "Just Books",
        "opening_hours": "Tu-Su 10:00-21:00",
        "website": "http://justbooksclc.com/"
      }
    },
    {
      "type": "node",
      "id": 3838426329,
      "lat": 12.970293,
      "lon": 77.6357695,
      "tags": {
        "amenity": "fast_food",
        "cuisine": "rolls",
        "delivery": "yes",
        "name": "Pathaan Sir"
      }
    },
    {
      "type": "node",
      "id": 4067960952,
      "lat": 12.923925,
      "lon": 77.6404562,
      "tags": {
        "name": "Autoport",
        "second_hand": "only",
        "shop": "car",
        "source": "gps"
      }
    },
    {
      "type": "node",
      "id": 4195432539,
      "lat": 12.9702478,
      "lon": 77.6357689,
      "tags": {
        "addr:city": "Indiranagar, Bangalore",
        "addr:housenumber": "Srinivasan Towers",
        "addr:postcode": "560038",
        "addr:street": "Double Road",
        "amenity": "restaurant",
        "delivery": "yes",
        "name": "Suryawanshi",
        "phone": "080 49653148",
        "smoking": "no",
        "takeaway": "yes"
      }
    },
    {
      "type": "node",
      "id": 4202209080,
      "lat": 12.968352,
      "lon": 77.6361835,
      "tags": {
        "addr:city": "HAL 2nd Stage, Indiranagar",
        "addr:housenumber": "3169/c",
        "addr:postcode": "560038",
        "addr:street": "Double Road",
        "laundry_service": "yes",
        "name": "Sancy's Laundrette",
        "self_service": "no",
        "shop": "laundry"
      }
    },
    {
      "type": "node",
      "id": 4445213681,
      "lat": 12.9240063,
      "lon": 77.6545058,
      "tags": {
        "addr:city": "Bangalore",
        "addr:housenumber": "65/8",
        "addr:postcode": "560102",
        "addr:street": "Third Floor, H.S.R Agara Circle, Sarjapura, Outer Ring Rd, Agara Village, HSR Layout,",
        "amenity": "hospital",
        "healthcare": "hospital",
        "name": "Welnext",
        "phone": "+9196960 00222",
        "website": "https://welnext.com/"
      }
    },
    {
      "type": "node",
      "id": 4445607998,
      "lat": 12.9702378,
      "lon": 77.6356539,
      "tags": {
        "addr:city": "Bangalore",
        "addr:housenumber": "3155",
        "addr:postcode": "560038",
        "addr:street": "Service Road, Hal 2nd Stage, Near-ESI Hospital, Indiranagar",
        "amenity": "pharmacy",
        "healthcare": "pharmacy",
        "name": "Shri Siddhanth Pharma",
        "phone": "080 2520 0422"
      }
    },
    {
      "type": "node",
      "id": 4446217021,
      "lat": 12.9666655,
      "lon": 77.6366205,
      "tags": {
        "addr:city": "bangalore",
        "addr:postcode": "560008",
        "addr:street": "3rd Cross Road, Defence Colony, Indiranagar Stage 2,",
        "amenity": "clinic",
        "name": "Kosmoderma Skin & Hair Clinics",
        "phone": "080 2535 2211",
        "website": "https://kosmoderma.com/"
      }
    },
    {
      "type": "node",
      "id": 4448133411,
      "lat": 12.9242869,
      "lon": 77.6532853,
      "tags": {
        "addr:city": "Bangalore",
        "addr:housenumber": "65/8, Third Floor",
        "addr:postcode": "560102",
        "addr:street": "H.S.R Agara Circle, Sarjapura, Outer Ring Rd, Agara Village, HSR Layout",
        "amenity": "hospital",
        "emergency": "yes",
        "healthcare": "hospital",
        "name": "Welnext",
        "phone": "+9196960 00222",
        "source": "http://www.justdial.com/Bangalore/",
        "website": "https://welnext.com/"
      }
    },
    {
      "type": "node",
      "id": 4488009528,
      "lat": 12.9673396,
      "lon": 77.6363022,
      "tags": {
        "addr:city": "Bengaluru",
        "addr:full": ", 1st Main Road, Domlur, 2nd Stage, Indiranagar, Bhadrappa Layout, Stage 2, Domlur;3 B Cross",
        "addr:housenumber": "20",
        "addr:postcode": "560071",
        "addr:street": "3 B Cross Road",
        "brand": "ProCycle",
        "fee": "yes",
        "name": "ProCycle",
        "opening_hours": "10:00-20:30; We-Mo 07:00-22:00",
        "operator": "ProCycle and Sports India Pvt. Ltd.",
        "phone": "080 2535 2004",
        "service:bicycle:Bicycle_Sales_and_Service": "yes",
        "service:bicycle:chain_tool": "yes",
        "service:bicycle:cleaning": "yes",
        "service:bicycle:mtb": "yes",
        "service:bicycle:parts": "yes",
        "service:bicycle:repair": "yes",
        "service:bicycle:retail": "yes",
        "service:bicycle:screwdriver": "yes",
        "service:bicycle:tools": "yes",
        "shop": "bicycle",
        "website": "https://www.procycle.in/"
      }
    },
    {
      "type": "node",
      "id": 4488087436,
      "lat": 12.9761039,
      "lon": 77.6267652,
      "tags": {
        "addr:city": "Bangalore",
        "addr:housenumber": "132",
        "addr:postcode": "560008",
        "addr:street": "Swamy Vivekananda Road (Old Madras Road), Kadiranapalya, Indira Nagar",
        "name": "RR Cycles",
        "opening_hours": "11:00-21:00",
        "phone": "080 4113 4142",
        "shop": "sports"
      }
    },
    {
      "type": "node",
      "id": 4558200790,
      "lat": 12.9576836,
      "lon": 77.6376182,
      "tags": {
        "amenity": "place_of_worship",
        "name": "Choe Khor Sum Ling Centre",
        "name:en": "Choe Khor Sum Ling Centre",
        "phone": "+91 80 4148 6497",
        "religion": "buddhist",
        "website": "https://cksl.in/"
      }
    },
    {
      "type": "node",
      "id": 4840185929,
      "lat": 12.9738255,
      "lon": 77.6262686,
      "tags": {
        "amenity": "toilets"
      }
    },
    {
      "type": "node",
      "id": 4846817423,
      "lat": 12.9725684,
      "lon": 77.6205679,
      "tags": {
        "amenity": "dentist",
        "name": "Ridgetop dental",
        "name:en": "Ridgetop dental"
      }
    },
    {
      "type": "node",
      "id": 5265720466,
      "lat": 12.977874,
      "lon": 77.6285,
      "tags": {
        "amenity": "bank",
        "name": "Repco Bank"
      }
    },
    {
      "type": "node",
      "id": 5402308137,
      "lat": 12.9681537,
      "lon": 77.628893,
      "tags": {
        "amenity": "place_of_worship"
      }
    },
    {
      "type": "node",
      "id": 5468995521,
      "lat": 12.9571332,
      "lon": 77.6361666,
      "tags": {
        "amenity": "drinking_water"
      }
    },
    {
      "type": "node",
      "id": 5468995921,
      "lat": 12.9575843,
      "lon": 77.6358809,
      "tags": {
        "amenity": "place_of_worship",
        "name": "Sri Subramanyam Swamy Temple",
        "name:kn": "ದೇವಸ್ಥಾನ",
        "religion": "hindu"
      }
    },
    {
      "type": "node",
      "id": 5468999121,
      "lat": 12.9579713,
      "lon": 77.6357771,
      "tags": {
        "amenity": "place_of_worship",
        "name": "Temple",
        "religion": "hindu"
      }
    },
    {
      "type": "node",
      "id": 5469022921,
      "lat": 12.9611724,
      "lon": 77.6346628,
      "tags": {
        "amenity": "clinic",
        "name": "Ward 113 PHC",
        "name:en": "Ward 112",
        "name:kn": "ಪ್ರಾಥಮಿಕ ಆರೋಗ್ಯ ಕೇಂದ್ರ"
      }
    },
    {
      "type": "node",
      "id": 6120598063,
      "lat": 12.9243958,
      "lon": 77.650537,
      "tags": {
        "access": "yes",
        "amenity": "bicycle_parking",
        "bicycle_parking": "stands",
        "capacity": "6",
        "covered": "yes",
        "fee": "no",
        "level": "0",
        "operator": "Directorate of Urban Land Transport"
      }
    },
    {
      "type": "node",
      "id": 6137275582,
      "lat": 12.9243881,
      "lon": 77.650437,
      "tags": {
        "access": "yes",
        "amenity": "bicycle_parking",
        "bicycle_parking": "stands",
        "capacity": "3",
        "covered": "yes"
      }
    },
    {
      "type": "node",
      "id": 6348833682,
      "lat": 12.9760932,
      "lon": 77.6293447,
      "tags": {
        "addr:place": "Ulsoor",
        "amenity": "school",
        "isced:level": "2",
        "name": "Sri Ramakrishna HPS Ulsoor",
        "name:kn": "ಶ್ರೀ ರಾಮಕೃಷ್ಣ ಹಿರಿಯ ಪ್ರಾಥಮಿಕ ಶಾಲೆ ಹಲಸೂರು",
        "operator": "Department of Education",
        "school": "primary"
      }
    },
    {
      "type": "node",
      "id": 6349564529,
      "lat": 12.9766881,
      "lon": 77.6282174,
      "tags": {
        "addr:place": "Jogupalya",
        "amenity": "school",
        "isced:level": "2",
        "name": "Kairaliketan HPS Jogupalya",
        "name:kn": "ಕೈರಾಲಿಕೇತನ್ ಹಿರಿಯ ಪ್ರಾಥಮಿಕ ಶಾಲೆ ಜೊಗುಪಾಳ್ಯ",
        "operator": "Pvt. Aided",
        "school": "primary"
      }
    },
    {
      "type": "node",
      "id": 6380373113,
      "lat": 12.9249641,
      "lon": 77.6529774,
      "tags": {
        "name": "Royal Enfield Service Teknik",
        "opening_hours": "Mo-Su 07:00-07:00",
        "shop": "motorcycle_repair"
      }
    },
    {
      "type": "node",
      "id": 6443209514,
      "lat": 12.9730754,
      "lon": 77.6266744,
      "tags": {
        "brand": "Nandini",
        "name": "Nandini Milk Parlour",
        "shop": "dairy"
      }
    },
    {
      "type": "node",
      "id": 6531788004,
      "lat": 12.9740521,
      "lon": 77.6273143,
      "tags": {
        "addr:place": "Jogupalya",
        "amenity": "school",
        "isced:level": "1",
        "name": "GULPS Jogupalya,",
        "name:kn": "ಸರ್ಕಾರಿ ಉರ್ದು ಕಿರಿಯ ಪ್ರಾಥಮಿಕ ಶಾಲೆ ಜೊಗುಪಾಳ್ಯ",
        "operator": "Department of Education",
        "school": "primary"
      }
    },
    {
      "type": "node",
      "id": 6531889492,
      "lat": 12.9696041,
      "lon": 77.6243903,
      "tags": {
        "addr:place": "Jogupalya",
        "amenity": "school",
        "isced:level": "1",
        "name": "GLPS Gowthamapura, jogupalya",
        "name:kn": "ಸರ್ಕಾರಿ ಕಿರಿಯ ಪ್ರಾಥಮಿಕ ಶಾಲೆ ಗೌತಮಪುರ, ಜೊಗುಪಾಳ್ಯ",
        "operator": "Department of Education",
        "school": "primary"
      }
    },
    {
      "type": "node",
      "id": 6545576539,
      "lat": 12.9670947,
      "lon": 77.6351897,
      "tags": {
        "alt_name": "BIC Auditorium",
        "amenity": "theatre",
        "check_date": "2025-03-14",
        "level": "0;1",
        "name": "Sarah Kailath Auditorium"
      }
    },
    {
      "type": "node",
      "id": 6832288685,
      "lat": 12.9669254,
      "lon": 77.6368937,
      "tags": {
        "addr:city": "Bengaluru",
        "addr:country": "IN",
        "addr:hamlet": "Domlur 2nd Stage",
        "addr:housenumber": "263",
        "addr:postcode": "560071",
        "addr:street": "3rd Cross Road",
        "amenity": "cafe",
        "email": "info@lavonne.in",
        "name": "Lavonne Café",
        "shop": "confectionery",
        "website": "https://lavonne.in/"
      }
    },
    {
      "type": "node",
      "id": 6882713305,
      "lat": 12.9630637,
      "lon": 77.6289171,
      "tags": {
        "addr:city": "Bengaluru",
        "addr:district": "BENGALURU URBAN",
        "addr:full": "Old Airport Road, Near Cambridge Layout, Domlur Village, Post Agram",
        "addr:postcode": "560007",
        "addr:state": "Karnataka",
        "amenity": "blood_bank",
        "contact:mobile": "9663865587",
        "contact:phone": "8025234632",
        "name": "Command Hospital Blood Bank Air Force",
        "opening_hours": "24/7",
        "operator:type": "government",
        "source": "OpenGovernmentData",
        "website": "http://www.afmc.nic.in"
      }
    },
    {
      "type": "node",
      "id": 7178597786,
      "lat": 12.9668354,
      "lon": 77.6369007,
      "tags": {
        "addr:city": "Bengaluru",
        "addr:country": "IN",
        "addr:hamlet": "Domlur 2nd Stage",
        "addr:housenumber": "263",
        "addr:postcode": "560071",
        "addr:street": "3rd Cross Road",
        "amenity": "college",
        "email": "info@lavonne.in",
        "name": "Lavonne Academy of Baking Science and Pastry Arts",
        "website": "https://lavonne.in/"
      }
    },
    {
      "type": "node",
      "id": 7276566908,
      "lat": 12.9241404,
      "lon": 77.6538697,
      "tags": {
        "name": "Firefox",
        "shop": "bicycle"
      }
    },
    {
      "type": "node",
      "id": 8834772573,
      "lat": 12.9768014,
      "lon": 77.6297744,
      "tags": {
        "amenity": "place_of_worship",
        "name": "Thotada Muneshwara Swamy temple",
        "name:kn": "ತೋಟದ ಮುನೇಶ್ವರ ಸ್ವಾಮಿ ದೇವಸ್ಥಾನ",
        "religion": "hindu"
      }
    },
    {
      "type": "node",
      "id": 9288431529,
      "lat": 12.9674314,
      "lon": 77.6366472,
      "tags": {
        "amenity": "restaurant",
        "brand": "California Burrito",
        "brand:wikidata": "Q124374596",
        "check_date": "2025-03-14",
        "cuisine": "mexican",
        "name": "California Burrito"
      }
    },
    {
      "type": "node",
      "id": 9296060500,
      "lat": 12.9666459,
      "lon": 77.6352847,
      "tags": {
        "addr:floor": "G",
        "alt_name": "BIC Cafe",
        "amenity": "restaurant",
        "check_date": "2025-03-14",
        "cuisine": "indian",
        "delivery": "no",
        "level": "0",
        "microbrewery": "yes",
        "name": "Coracle",
        "note": "NAVU Project till mid August 2022. Podi and Spice starting in September 2022, till January 2024.",
        "outdoor_seating": "yes",
        "phone": "+91 98455 29596",
        "takeaway": "no",
        "wheelchair": "yes"
      }
    },
    {
      "type": "node",
      "id": 9723056440,
      "lat": 12.9685272,
      "lon": 77.6360685,
      "tags": {
        "amenity": "restaurant",
        "name": "The Kitchen of Joy",
        "payment:credit_cards": "yes",
        "payment:debit_cards": "yes"
      }
    },
    {
      "type": "node",
      "id": 9723056441,
      "lat": 12.9684449,
      "lon": 77.6361007,
      "tags": {
        "amenity": "restaurant",
        "cuisine": "asian",
        "name": "Chilli and Chives",
        "payment:credit_cards": "yes",
        "payment:debit_cards": "yes"
      }
    },
    {
      "type": "node",
      "id": 9723056458,
      "lat": 12.9679868,
      "lon": 77.6363307,
      "tags": {
        "amenity": "fast_food",
        "cuisine": "chinese",
        "name": "Chung Wah"
      }
    },
    {
      "type": "node",
      "id": 9723056459,
      "lat": 12.9678522,
      "lon": 77.6364212,
      "tags": {
        "check_date": "2025-03-14",
        "name": "Pet Warehouse",
        "shop": "pet"
      }
    },
    {
      "type": "node",
      "id": 9723056460,
      "lat": 12.9676993,
      "lon": 77.6364957,
      "tags": {
        "check_date": "2025-03-14",
        "name": "Heads Up for Tails",
        "shop": "pet_grooming"
      }
    },
    {
      "type": "node",
      "id": 9723056490,
      "lat": 12.966793,
      "lon": 77.6352431,
      "tags": {
        "amenity": "cafe",
        "level": "0",
        "name": "Coffee Mechanics"
      }
    },
    {
      "type": "node",
      "id": 9890165410,
      "lat": 12.970287,
      "lon": 77.6358332,
      "tags": {
        "amenity": "restaurant",
        "diet:vegetarian": "yes",
        "name": "Street Storyss"
      }
    },
    {
      "type": "node",
      "id": 9890165412,
      "lat": 12.9696401,
      "lon": 77.6357929,
      "tags": {
        "amenity": "ice_cream",
        "name": "Lakeview Milk Bar"
      }
    },
    {
      "type": "node",
      "id": 10203735337,
      "lat": 12.969133,
      "lon": 77.6358587,
      "tags": {
        "addr:city": "Bangalore",
        "addr:country": "IN",
        "addr:hamlet": "HAL 2nd Stage",
        "addr:housenumber": "3165",
        "addr:postcode": "560038",
        "addr:street": "12th Cross Road",
        "addr:suburb": "Indiranagar",
        "amenity": "cafe",
        "check_date": "2025-03-14",
        "contact:instagram": "humblebeancoffee",
        "email": "info@humblebeancoffee.com",
        "name": "HumbleBean Coffee",
        "opening_hours": "10:00-20:00",
        "takeaway": "yes",
        "website": "https://humblebeancoffee.com"
      }
    },
    {
      "type": "node",
      "id": 10296378589,
      "lat": 12.924028,
      "lon": 77.6403192,
      "tags": {
        "amenity": "pub",
        "contact:instagram": "atlantisbengaluru",
        "name": "Atlantis",
        "payment:mastercard": "yes",
        "payment:visa": "yes",
        "phone": "+91 9741790700",
        "website": "https://bengaluruatlantis.com/"
      }
    },
    {
      "type": "node",
      "id": 10298154446,
      "lat": 12.9697851,
      "lon": 77.6245511,
      "tags": {
        "amenity": "place_of_worship",
        "religion": "hindu"
      }
    },
    {
      "type": "node",
      "id": 10667163086,
      "lat": 12.9573744,
      "lon": 77.6359739,
      "tags": {
        "amenity": "place_of_worship",
        "religion": "hindu"
      }
    },
    {
      "type": "node",
      "id": 10693248076,
      "lat": 12.966542,
      "lon": 77.6352357,
      "tags": {
        "access": "private",
        "amenity": "parking_entrance",
        "parking": "underground"
      }
    },
    {
      "type": "node",
      "id": 10693248077,
      "lat": 12.9670217,
      "lon": 77.6351586,
      "tags": {
        "access": "yes",
        "amenity": "toilets",
        "check_date": "2025-03-14",
        "level": "0"
      }
    },
    {
      "type": "node",
      "id": 10693248100,
      "lat": 12.9674242,
      "lon": 77.636501,
      "tags": {
        "amenity": "fast_food",
        "delivery": "yes",
        "name": "Zwarma",
        "takeaway": "yes"
      }
    },
    {
      "type": "node",
      "id": 10694736146,
      "lat": 12.9688696,
      "lon": 77.6358915,
      "tags": {
        "amenity": "cafe",
        "name": "Cafe Muziris",
        "takeaway": "yes"
      }
    },
    {
      "type": "node",
      "id": 10873245745,
      "lat": 12.9560395,
      "lon": 77.6210998,
      "tags": {
        "amenity": "bank",
        "atm": "yes",
        "brand": "Canara Bank",
        "brand:en": "Canara Bank",
        "brand:hi": "केनरा बैंक",
        "brand:kn": "ಕೆನರಾ ಬ್ಯಾಂಕ್",
        "brand:pa": "ਕੇਨਰਾ ਬੈਂਕ",
        "brand:pnb": "کینرا بینک",
        "brand:ur": "کینرا بینک",
        "brand:wikidata": "Q2003777",
        "name": "Canara Bank",
        "name:en": "Canara Bank",
        "name:hi": "केनरा बैंक",
        "name:kn": "ಕೆನರಾ ಬ್ಯಾಂಕ್",
        "name:pa": "ਕੇਨਰਾ ਬੈਂਕ",
        "name:pnb": "کینرا بینک",
        "name:ur": "کینرا بینک",
        "operator": "Canara Bank"
      }
    },
    {
      "type": "node",
      "id": 11393384277,
      "lat": 12.9248206,
      "lon": 77.6529422,
      "tags": {
        "access": "private",
        "amenity": "parking_entrance",
        "parking": "underground"
      }
    },
    {
      "type": "node",
      "id": 11399589037,
      "lat": 12.9227956,
      "lon": 77.6516283,
      "tags": {
        "amenity": "bicycle_rental",
        "brand": "Yulu",
        "brand:wikidata": "Q104871276",
        "check_date": "2023-12-07",
        "name": "Yulu Zone",
        "network": "Yulu",
        "network:wikidata": "Q104871276",
        "operator": "Yulu"
      }
    },
    {
      "type": "node",
      "id": 11428023656,
      "lat": 12.9290434,
      "lon": 77.6603928,
      "tags": {
        "access": "private",
        "amenity": "parking_entrance",
        "parking": "underground"
      }
    },
    {
      "type": "node",
      "id": 11428023732,
      "lat": 12.929127,
      "lon": 77.6597142,
      "tags": {
        "access": "private",
        "amenity": "parking_entrance",
        "parking": "underground"
      }
    },
    {
      "type": "node",
      "id": 11542197856,
      "lat": 12.9670247,
      "lon": 77.6352193,
      "tags": {
        "amenity": "library",
        "check_date": "2025-03-14",
        "level": "2",
        "name": "BIC Library",
        "website": "https://bangaloreinternationalcentre.org/"
      }
    },
    {
      "type": "node",
      "id": 11545534708,
      "lat": 12.9672549,
      "lon": 77.6367397,
      "tags": {
        "air_conditioning": "yes",
        "amenity": "community_centre",
        "check_date": "2025-03-14",
        "community_centre": "events_venue",
        "contact:instagram": "underline.center",
        "level": "3",
        "name": "underline center",
        "start_date": "2024-02-15",
        "website": "https://underline.center"
      }
    },
    {
      "type": "node",
      "id": 11564661260,
      "lat": 12.9672955,
      "lon": 77.6367143,
      "tags": {
        "amenity": "cafe",
        "check_date": "2025-03-14",
        "cuisine": "coffee_shop",
        "delivery": "yes",
        "level": "0",
        "name": "Blue Tokai",
        "takeaway": "yes"
      }
    },
    {
      "type": "node",
      "id": 11710491602,
      "lat": 12.9778346,
      "lon": 77.6282837,
      "tags": {
        "amenity": "hospital",
        "check_date": "2024-03-10",
        "description": "Multi-speciality hospital",
        "healthcare": "hospital",
        "name": "Uvin Care Hospital"
      }
    },
    {
      "type": "node",
      "id": 11710491603,
      "lat": 12.977871,
      "lon": 77.6283344,
      "tags": {
        "check_date": "2024-03-10",
        "name": "BK Dressers",
        "shop": "tailor"
      }
    },
    {
      "type": "node",
      "id": 11710491604,
      "lat": 12.9778856,
      "lon": 77.6283568,
      "tags": {
        "check_date": "2024-03-10",
        "internet_access": "no",
        "name": "Ever Green Fashion",
        "payment:cards": "no",
        "payment:cash": "yes",
        "payment:credit_cards": "no",
        "payment:debit_cards": "no",
        "shop": "tailor",
        "wheelchair": "no"
      }
    },
    {
      "type": "node",
      "id": 11783257554,
      "lat": 12.9759999,
      "lon": 77.6318654,
      "tags": {
        "amenity": "car_wash",
        "automated": "no",
        "check_date": "2024-04-03",
        "name": "Manju Washing Center",
        "opening_hours": "Mo-Su 08:00-21:00",
        "phone": "+91 98866 34400",
        "self_service": "no"
      }
    },
    {
      "type": "node",
      "id": 12006381672,
      "lat": 12.9732588,
      "lon": 77.6267472,
      "tags": {
        "amenity": "place_of_worship",
        "religion": "hindu"
      }
    },
    {
      "type": "node",
      "id": 12006381721,
      "lat": 12.9725655,
      "lon": 77.6206499,
      "tags": {
        "amenity": "ice_cream",
        "brand": "Cold Stone Creamery",
        "brand:wikidata": "Q1094923",
        "cuisine": "ice_cream",
        "name": "Cold Stone Creamery"
      }
    },
    {
      "type": "node",
      "id": 12006381722,
      "lat": 12.9725727,
      "lon": 77.6205365,
      "tags": {
        "amenity": "fast_food",
        "brand": "Domino's",
        "brand:wikidata": "Q839466",
        "cuisine": "pizza",
        "name": "Domino's",
        "name:kn": "ಡಾಮಿನೋಸ್",
        "takeaway": "yes"
      }
    },
    {
      "type": "node",
      "id": 12006381723,
      "lat": 12.9725636,
      "lon": 77.6207712,
      "tags": {
        "amenity": "fast_food",
        "name": "IDC"
      }
    },
    {
      "type": "node",
      "id": 12067366774,
      "lat": 12.9460493,
      "lon": 77.6399508,
      "tags": {
        "amenity": "bench",
        "backrest": "yes",
        "seats": "2"
      }
    },
    {
      "type": "node",
      "id": 12125960050,
      "lat": 12.9672255,
      "lon": 77.6365957,
      "tags": {
        "check_date": "2024-08-22",
        "name": "Plant's Basket",
        "shop": "garden_centre"
      }
    },
    {
      "type": "node",
      "id": 12367648314,
      "lat": 12.9763917,
      "lon": 77.6296215,
      "tags": {
        "amenity": "place_of_worship",
        "name": "Plague Maramma Temple",
        "religion": "hindu"
      }
    },
    {
      "type": "node",
      "id": 12395928083,
      "lat": 12.9724525,
      "lon": 77.6204038,
      "tags": {
        "addr:city": "Bengaluru",
        "addr:floor": "4",
        "addr:street": "Mahatma Gandhi Road",
        "addr:suburb": "Ashok Nagar",
        "amenity": "bar",
        "contact:instagram": "lumara.blr",
        "level": "4",
        "name": "Lumara",
        "toilets": "yes"
      }
    },
    {
      "type": "node",
      "id": 12404254558,
      "lat": 12.9764897,
      "lon": 77.6269565,
      "tags": {
        "amenity": "restaurant",
        "check_date": "2024-12-08",
        "name": "Murugan Cafe"
      }
    },
    {
      "type": "node",
      "id": 12404291343,
      "lat": 12.9773097,
      "lon": 77.6284146,
      "tags": {
        "amenity": "community_centre",
        "check_date": "2024-12-08",
        "community_centre": "community_hall",
        "name": "Shri Subramanya Swamy Kalyana Mantapa"
      }
    },
    {
      "type": "node",
      "id": 12443353189,
      "lat": 12.924326,
      "lon": 77.640405,
      "tags": {
        "amenity": "bar",
        "name": "Animal Bar"
      }
    },
    {
      "type": "node",
      "id": 12549210861,
      "lat": 12.9701239,
      "lon": 77.6357946,
      "tags": {
        "name": "Neeman's",
        "shop": "shoes"
      }
    },
    {
      "type": "node",
      "id": 12574343636,
      "lat": 12.9725668,
      "lon": 77.6208704,
      "tags": {
        "amenity": "restaurant",
        "check_date": "2025-02-10",
        "name": "New Kudla"
      }
    },
    {
      "type": "node",
      "id": 12632042172,
      "lat": 12.972464,
      "lon": 77.6203034,
      "tags": {
        "amenity": "cafe",
        "cuisine": "bubble_tea",
        "delivery": "yes",
        "email": "info@yoyotea.in",
        "name": "YOYO! Fresh Tea Bar",
        "opening_hours": "11:00-23:00",
        "phone": "+91 97401 72610",
        "takeaway": "yes",
        "website": "https://yoyofreshtea.in/"
      }
    },
    {
      "type": "node",
      "id": 12662655086,
      "lat": 12.9674343,
      "lon": 77.636608,
      "tags": {
        "check_date": "2025-03-14",
        "name": "At Ya Thai Spa",
        "shop": "beauty"
      }
    },
    {
      "type": "node",
      "id": 12988984440,
      "lat": 12.9693345,
      "lon": 77.6358435,
      "tags": {
        "addr:city": "Bengaluru",
        "addr:hamlet": "HAL 2nd Stage",
        "addr:housenumber": "3163",
        "addr:postcode": "560008",
        "addr:street": "Indiranagar Double Road",
        "addr:suburb": "Indiranagar",
        "amenity": "cafe",
        "name": "TruBrew Cafe"
      }
    },
    {
      "type": "node",
      "id": 12988984441,
      "lat": 12.9694713,
      "lon": 77.6358339,
      "tags": {
        "addr:city": "Bengaluru",
        "addr:hamlet": "HAL 2nd Stage",
        "addr:housenumber": "3162",
        "addr:postcode": "560008",
        "addr:street": "Indiranagar Double Road",
        "addr:suburb": "Indiranagar",
        "amenity": "cafe",
        "contact:instagram": "the.estate.deli",
        "delivery": "yes",
        "name": "The Estate Deli",
        "opening_hours": "11:00-23:00",
        "phone": "+91 6363721915",
        "takeaway": "yes"
      }
    },
    {
      "type": "node",
      "id": 12999130466,
      "lat": 12.9688089,
      "lon": 77.6359519,
      "tags": {
        "amenity": "restaurant",
        "cuisine": "japanese",
        "name": "Katana"
      }
    },
    {
      "type": "node",
      "id": 13086275904,
      "lat": 12.9695571,
      "lon": 77.6358305,
      "tags": {
        "amenity": "restaurant",
        "name": "Hunaan"
      }
    },
    {
      "type": "node",
      "id": 13288585572,
      "lat": 12.9724609,
      "lon": 77.6201477,
      "tags": {
        "amenity": "restaurant",
        "cuisine": "punjabi",
        "name": "Lohri"
      }
    },
    {
      "type": "node",
      "id": 13330013101,
      "lat": 12.9226137,
      "lon": 77.6516255,
      "tags": {
        "name": "A1 Puncture",
        "shop": "puncture"
      }
    },
    {
      "type": "way",
      "id": 132782111,
      "center": {
        "lat": 12.9721434,
        "lon": 77.620635
      },
      "tags": {
        "amenity": "place_of_worship",
        "building": "yes",
        "name": "CSI Holy Trinity Church",
        "religion": "christian"
      }
    },
    {
      "type": "way",
      "id": 133881869,
      "center": {
        "lat": 12.9719421,
        "lon": 77.6203877
      },
      "tags": {
        "amenity": "place_of_worship",
        "heritage": "2",
        "heritage:operator": "nmma",
        "heritage:website": "https://nmma.nic.in/nmma/exploreBuiltState.do?state=29",
        "name": "The Holy Trinity Church",
        "name:kn": "ಹೋಲಿ ಟ್ರಿನಿಟಿ ಚರ್ಚ್",
        "ref:nmma": "KR20010312",
        "religion": "christian",
        "start_date": "1852",
        "wikidata": "Q5886431",
        "wikimedia_commons": "Category:Holy Trinity Church, Bangalore",
        "wikipedia": "en:Holy Trinity Church, Bangalore"
      }
    },
    {
      "type": "way",
      "id": 138980186,
      "center": {
        "lat": 12.9773214,
        "lon": 77.6278721
      },
      "tags": {
        "amenity": "place_of_worship",
        "name:kn": "ಸುಬ್ರಮಣ್ಯಸ್ವಾಮಿ ದೇವಾಲಯ",
        "religion": "hindu"
      }
    },
    {
      "type": "way",
      "id": 217536642,
      "center": {
        "lat": 12.9682756,
        "lon": 77.6254349
      },
      "tags": {
        "leisure": "park"
      }
    },
    {
      "type": "way",
      "id": 217536645,
      "center": {
        "lat": 12.9737974,
        "lon": 77.6272297
      },
      "tags": {
        "leisure": "park"
      }
    },
    {
      "type": "way",
      "id": 217536646,
      "center": {
        "lat": 12.9684355,
        "lon": 77.626006
      },
      "tags": {
        "landuse": "recreation_ground",
        "leisure": "playground",
        "name": "Gowthamapura Football Ground"
      }
    },
    {
      "type": "way",
      "id": 232238371,
      "center": {
        "lat": 12.9249245,
        "lon": 77.6485099
      },
      "tags": {
        "amenity": "place_of_worship",
        "check_date": "2022-11-08",
        "landuse": "religious",
        "religion": "hindu",
        "source": "survey"
      }
    },
    {
      "type": "way",
      "id": 311368523,
      "center": {
        "lat": 12.9724757,
        "lon": 77.6198663
      },
      "tags": {
        "amenity": "fuel",
        "brand": "Indian Oil",
        "brand:wikidata": "Q1289348",
        "compressed_air": "yes",
        "name": "Indian Oil"
      }
    },
    {
      "type": "way",
      "id": 323639489,
      "center": {
        "lat": 12.9769712,
        "lon": 77.6275061
      },
      "tags": {
        "addr:city": "Jogupalya, Bangalore",
        "addr:street": "Swamy Vivekananda Road (Old Madras Road)",
        "amenity": "place_of_worship",
        "building": "yes",
        "check_date": "2024-07-02",
        "name": "Subramania Swamy Temple",
        "name:kn": "ಸುಬ್ರಮಣ್ಯಸ್ವಾಮಿ ದೇವಾಲಯ",
        "religion": "hindu"
      }
    },
    {
      "type": "way",
      "id": 346821156,
      "center": {
        "lat": 12.9544178,
        "lon": 77.6237098
      },
      "tags": {
        "addr:district": "Bangalore",
        "addr:postcode": "560047",
        "amenity": "place_of_worship",
        "building": "yes",
        "denomination": "sunni",
        "name": "Masjid E Mairaj",
        "name:kn": "ಮಸ್ಜಿದ್ ಇ ಮೈರಾಜ್",
        "religion": "muslim"
      }
    },
    {
      "type": "way",
      "id": 347168043,
      "center": {
        "lat": 12.92505,
        "lon": 77.6486381
      },
      "tags": {
        "amenity": "place_of_worship",
        "building": "temple",
        "religion": "hindu"
      }
    },
    {
      "type": "way",
      "id": 369295552,
      "center": {
        "lat": 12.973692,
        "lon": 77.6266773
      },
      "tags": {
        "addr:district": "Bengaluru Urban",
        "addr:full": "Kembridge Road, Near Police Station",
        "addr:postcode": "560008",
        "addr:state": "Karnataka",
        "amenity": "hospital",
        "healthcare": "hospital",
        "name": "Halasuru Referal Hospital",
        "operator": "BBMP",
        "source": "OpenGovernmentData"
      }
    },
    {
      "type": "way",
      "id": 369295553,
      "center": {
        "lat": 12.9747988,
        "lon": 77.6252645
      },
      "tags": {
        "amenity": "police",
        "check_date": "2024-02-09",
        "internet_access": "no",
        "level": "0",
        "name": "Halasuru Police Station",
        "name:kn": "ಹಲಸೂರು ಆರಕ್ಷಕ ಠಾಣೆ",
        "wheelchair": "limited"
      }
    },
    {
      "type": "way",
      "id": 369295559,
      "center": {
        "lat": 12.9740209,
        "lon": 77.6256572
      },
      "tags": {
        "amenity": "college",
        "name": "St Anne's Degree College"
      }
    },
    {
      "type": "way",
      "id": 403474874,
      "center": {
        "lat": 12.9651012,
        "lon": 77.6189349
      },
      "tags": {
        "leisure": "park",
        "name": "ASC War Memorial",
        "tourism": "attraction"
      }
    },
    {
      "type": "way",
      "id": 403474875,
      "center": {
        "lat": 12.9666035,
        "lon": 77.6219418
      },
      "tags": {
        "amenity": "place_of_worship",
        "building": "church",
        "religion": "christian"
      }
    },
    {
      "type": "way",
      "id": 454038609,
      "center": {
        "lat": 12.9709976,
        "lon": 77.6355707
      },
      "tags": {
        "amenity": "college",
        "name": "College of Nursing - ESIC"
      }
    },
    {
      "type": "way",
      "id": 478206073,
      "center": {
        "lat": 12.9638649,
        "lon": 77.6279636
      },
      "tags": {
        "addr:district": "Bengaluru Urban",
        "addr:full": "Air Force",
        "addr:postcode": "560007",
        "addr:state": "Karnataka",
        "amenity": "hospital",
        "healthcare": "hospital",
        "name": "Command Hospital (Air Force)",
        "source": "OpenGovernmentData"
      }
    },
    {
      "type": "way",
      "id": 610116132,
      "center": {
        "lat": 12.9248041,
        "lon": 77.6504389
      },
      "tags": {
        "amenity": "fuel",
        "brand": "Indian Oil",
        "brand:wikidata": "Q1289348",
        "brand:wikipedia": "en:Indian Oil Corporation",
        "compressed_air": "yes",
        "fuel:diesel": "yes",
        "fuel:petrol": "yes",
        "name": "Indian Oil",
        "name:kn": "ಇಂಡಿಯನ್ ಆಯಿಲ್",
        "payment:cash": "yes",
        "payment:credit_cards": "yes"
      }
    },
    {
      "type": "way",
      "id": 610166000,
      "center": {
        "lat": 12.9243576,
        "lon": 77.6401009
      },
      "tags": {
        "amenity": "parking"
      }
    },
    {
      "type": "way",
      "id": 616276010,
      "center": {
        "lat": 12.9738555,
        "lon": 77.6302876
      },
      "tags": {
        "amenity": "school",
        "name": "BBMP College",
        "name:kn": "ಬೃ.ಬೆಂ.ಮ.ಪಾ. ಕಾಲೇಜು"
      }
    },
    {
      "type": "way",
      "id": 616276012,
      "center": {
        "lat": 12.9746241,
        "lon": 77.6305856
      },
      "tags": {
        "amenity": "school",
        "name": "Sri Ramakrishna High School",
        "name:kn": "ಶ್ರೀ ರಾಮಕೃಷ್ಣ ಪ್ರೌಡಶಾಲೆ"
      }
    },
    {
      "type": "way",
      "id": 616276013,
      "center": {
        "lat": 12.9737968,
        "lon": 77.6304013
      },
      "tags": {
        "leisure": "playground"
      }
    },
    {
      "type": "way",
      "id": 631197946,
      "center": {
        "lat": 12.9238895,
        "lon": 77.6407659
      },
      "tags": {
        "amenity": "fuel",
        "brand": "Petronas",
        "brand:wikidata": "Q221692",
        "fuel:cng": "yes",
        "fuel:lpg": "yes",
        "name": "Petronas"
      }
    },
    {
      "type": "way",
      "id": 696980296,
      "center": {
        "lat": 12.9668485,
        "lon": 77.6352863
      },
      "tags": {
        "amenity": "community_centre",
        "architect": "Hundredhands",
        "check_date": "2025-03-14",
        "landuse": "commercial",
        "name": "Bangalore International Centre - BIC",
        "opening_hours": "Mo-Su 10:00-11:00",
        "short_name": "BIC",
        "website": "https://bangaloreinternationalcentre.org/"
      }
    },
    {
      "type": "way",
      "id": 726127542,
      "center": {
        "lat": 12.9656288,
        "lon": 77.6306752
      },
      "tags": {
        "building": "yes",
        "name": "Mechanical Laundry",
        "shop": "laundry"
      }
    },
    {
      "type": "way",
      "id": 726127647,
      "center": {
        "lat": 12.9650983,
        "lon": 77.6298797
      },
      "tags": {
        "leisure": "playground",
        "name": "Play Ground"
      }
    },
    {
      "type": "way",
      "id": 766605746,
      "center": {
        "lat": 12.9292329,
        "lon": 77.6593132
      },
      "tags": {
        "access": "private",
        "leisure": "pitch",
        "sport": "tennis"
      }
    },
    {
      "type": "way",
      "id": 766605747,
      "center": {
        "lat": 12.9291391,
        "lon": 77.6591825
      },
      "tags": {
        "access": "private",
        "leisure": "pitch",
        "sport": "tennis"
      }
    },
    {
      "type": "way",
      "id": 1041053814,
      "center": {
        "lat": 12.9276182,
        "lon": 77.6409629
      },
      "tags": {
        "addr:city": "Bengaluru",
        "addr:housenumber": "Jakkasandra Extension, Koramangala",
        "addr:postcode": "560034",
        "addr:street": "3rd Cross Road",
        "fee": "yes",
        "leisure": "sports_centre",
        "name": "Coolulu TurfPark Sports",
        "payment:cash": "yes",
        "payment:upi": "yes",
        "sport": "soccer;swimming;cricket;badminton"
      }
    },
    {
      "type": "way",
      "id": 1050589709,
      "center": {
        "lat": 12.964343,
        "lon": 77.6190484
      },
      "tags": {
        "amenity": "school",
        "name": "Army Public School ASC C&C"
      }
    },
    {
      "type": "way",
      "id": 1097511843,
      "center": {
        "lat": 12.9217783,
        "lon": 77.6516484
      },
      "tags": {
        "amenity": "toilets",
        "building": "yes"
      }
    },
    {
      "type": "way",
      "id": 1137152703,
      "center": {
        "lat": 12.9733645,
        "lon": 77.6262363
      },
      "tags": {
        "addr:city": "Bengaluru",
        "addr:country": "IN",
        "addr:postcode": "560008",
        "addr:street": "Cambridge Road",
        "addr:suburb": "Halasuru",
        "amenity": "coworking_space",
        "fee": "yes",
        "landuse": "commercial",
        "name": "IndiQube Brigade Square",
        "office": "coworking",
        "operator": "IndiQube"
      }
    },
    {
      "type": "way",
      "id": 1157119901,
      "center": {
        "lat": 12.949632,
        "lon": 77.6346704
      },
      "tags": {
        "leisure": "park"
      }
    },
    {
      "type": "way",
      "id": 1157119902,
      "center": {
        "lat": 12.94967,
        "lon": 77.6359284
      },
      "tags": {
        "alt_name": "Agram Riding & Polo Academy",
        "contact:instagram": "arpaclub",
        "contact:twitter": "arpaacademy",
        "leisure": "horse_riding",
        "name": "ARPA Club",
        "operator": "ASC"
      }
    },
    {
      "type": "way",
      "id": 1157119903,
      "center": {
        "lat": 12.9472834,
        "lon": 77.6334983
      },
      "tags": {
        "leisure": "pitch",
        "name": "ASC Polo Ground",
        "operator": "ASC",
        "sport": "equestrian"
      }
    },
    {
      "type": "way",
      "id": 1195978077,
      "center": {
        "lat": 12.9328859,
        "lon": 77.6374053
      },
      "tags": {
        "leisure": "swimming_pool"
      }
    },
    {
      "type": "way",
      "id": 1231984757,
      "center": {
        "lat": 12.9263638,
        "lon": 77.6627859
      },
      "tags": {
        "leisure": "sports_centre",
        "name": "Machaxi"
      }
    },
    {
      "type": "way",
      "id": 1232075256,
      "center": {
        "lat": 12.9272742,
        "lon": 77.6619632
      },
      "tags": {
        "access": "private",
        "leisure": "playground"
      }
    },
    {
      "type": "way",
      "id": 1232075259,
      "center": {
        "lat": 12.9277958,
        "lon": 77.6611532
      },
      "tags": {
        "access": "private",
        "leisure": "park"
      }
    },
    {
      "type": "way",
      "id": 1232075263,
      "center": {
        "lat": 12.9281095,
        "lon": 77.6620625
      },
      "tags": {
        "access": "private",
        "leisure": "pitch"
      }
    },
    {
      "type": "way",
      "id": 1240674115,
      "center": {
        "lat": 12.9468363,
        "lon": 77.6428364
      },
      "tags": {
        "leisure": "garden"
      }
    },
    {
      "type": "way",
      "id": 1240674116,
      "center": {
        "lat": 12.9458384,
        "lon": 77.6442907
      },
      "tags": {
        "leisure": "garden"
      }
    },
    {
      "type": "way",
      "id": 1242263651,
      "center": {
        "lat": 12.9399555,
        "lon": 77.6327668
      },
      "tags": {
        "leisure": "garden"
      }
    },
    {
      "type": "way",
      "id": 1274809753,
      "center": {
        "lat": 12.9290532,
        "lon": 77.6600639
      },
      "tags": {
        "access": "private",
        "leisure": "swimming_pool"
      }
    },
    {
      "type": "way",
      "id": 1284405954,
      "center": {
        "lat": 12.955476,
        "lon": 77.6274623
      },
      "tags": {
        "access": "private",
        "leisure": "pitch",
        "sport": "basketball"
      }
    },
    {
      "type": "way",
      "id": 1284406111,
      "center": {
        "lat": 12.9562826,
        "lon": 77.6272986
      },
      "tags": {
        "access": "private",
        "leisure": "pitch",
        "sport": "soccer"
      }
    },
    {
      "type": "way",
      "id": 1284414364,
      "center": {
        "lat": 12.9554988,
        "lon": 77.6282868
      },
      "tags": {
        "access": "private",
        "leisure": "pitch",
        "sport": "basketball"
      }
    },
    {
      "type": "way",
      "id": 1284425775,
      "center": {
        "lat": 12.9558342,
        "lon": 77.6283476
      },
      "tags": {
        "access": "private",
        "leisure": "pitch",
        "sport": "tennis"
      }
    },
    {
      "type": "way",
      "id": 1293894249,
      "center": {
        "lat": 12.9249426,
        "lon": 77.6485956
      },
      "tags": {
        "addr:city": "Bengaluru",
        "addr:district": "Bengaluru",
        "addr:postcode": "560102",
        "addr:street": "Agara",
        "amenity": "place_of_worship",
        "building": "yes",
        "name": "Sri Someshwara Swamy Temple",
        "name:kn": "ಶ್ರೀ ಸೋಮೇಶ್ವರ ಸ್ವಾಮಿ ದೇವಸ್ಥಾನ",
        "religion": "hindu"
      }
    },
    {
      "type": "way",
      "id": 1305606069,
      "center": {
        "lat": 12.95456,
        "lon": 77.6353142
      },
      "tags": {
        "access": "private",
        "leisure": "pitch",
        "sport": "basketball"
      }
    },
    {
      "type": "way",
      "id": 1305606100,
      "center": {
        "lat": 12.956049,
        "lon": 77.6247013
      },
      "tags": {
        "access": "private",
        "leisure": "track",
        "sport": "athletics"
      }
    },
    {
      "type": "way",
      "id": 1305606101,
      "center": {
        "lat": 12.956348,
        "lon": 77.6260777
      },
      "tags": {
        "access": "private",
        "leisure": "swimming_pool"
      }
    },
    {
      "type": "way",
      "id": 1305606102,
      "center": {
        "lat": 12.956095,
        "lon": 77.6285109
      },
      "tags": {
        "access": "private",
        "leisure": "pitch",
        "sport": "tennis"
      }
    },
    {
      "type": "way",
      "id": 1305717080,
      "center": {
        "lat": 12.9513325,
        "lon": 77.6344197
      },
      "tags": {
        "access": "private",
        "amenity": "parking",
        "parking": "surface"
      }
    },
    {
      "type": "way",
      "id": 1305717082,
      "center": {
        "lat": 12.949933,
        "lon": 77.6332932
      },
      "tags": {
        "access": "private",
        "amenity": "parking",
        "parking": "surface"
      }
    },
    {
      "type": "way",
      "id": 1305717091,
      "center": {
        "lat": 12.9552958,
        "lon": 77.6281038
      },
      "tags": {
        "access": "private",
        "leisure": "pitch",
        "sport": "tennis"
      }
    },
    {
      "type": "way",
      "id": 1306637881,
      "center": {
        "lat": 12.9260802,
        "lon": 77.6497609
      },
      "tags": {
        "leisure": "park"
      }
    },
    {
      "type": "way",
      "id": 1307054909,
      "center": {
        "lat": 12.9620521,
        "lon": 77.6344555
      },
      "tags": {
        "addr:place": "Dommaluru",
        "amenity": "school",
        "isced:level": "2",
        "name": "Government Moedl Primary School, Domlut",
        "name:kn": "ಸರ್ಕಾರಿ ಮಾದರಿ ಪ್ರಾ.ಶಾಲೆ ದೊಮ್ಮಲೂರು",
        "official_name": "Karnataka Public School",
        "operator": "Department of Education",
        "school": "primary"
      }
    },
    {
      "type": "way",
      "id": 1307199146,
      "center": {
        "lat": 12.9295365,
        "lon": 77.6607106
      },
      "tags": {
        "amenity": "place_of_worship",
        "building": "yes",
        "religion": "hindu"
      }
    },
    {
      "type": "way",
      "id": 1307288764,
      "center": {
        "lat": 12.9423354,
        "lon": 77.6507195
      },
      "tags": {
        "access": "private",
        "amenity": "parking",
        "parking": "surface"
      }
    },
    {
      "type": "way",
      "id": 1354829391,
      "center": {
        "lat": 12.9773752,
        "lon": 77.6275658
      },
      "tags": {
        "amenity": "parking"
      }
    },
    {
      "type": "way",
      "id": 1365455956,
      "center": {
        "lat": 12.97422,
        "lon": 77.632671
      },
      "tags": {
        "leisure": "garden"
      }
    },
    {
      "type": "way",
      "id": 1379818685,
      "center": {
        "lat": 12.9665427,
        "lon": 77.6318997
      },
      "tags": {
        "leisure": "park",
        "name": "Garden Park",
        "opening_hours": "Mo-Fr 08:00-17:00"
      }
    },
    {
      "type": "way",
      "id": 1382509208,
      "center": {
        "lat": 12.9588143,
        "lon": 77.6322586
      },
      "tags": {
        "leisure": "pitch",
        "sport": "tennis"
      }
    },
    {
      "type": "way",
      "id": 1416028304,
      "center": {
        "lat": 12.9614142,
        "lon": 77.6345753
      },
      "tags": {
        "amenity": "fuel",
        "brand": "Indian Oil",
        "brand:wikidata": "Q1289348",
        "brand:wikipedia": "en:Indian Oil Corporation",
        "compressed_air": "yes",
        "name": "Indian Oil",
        "operator": "Indian Oil"
      }
    },
    {
      "type": "way",
      "id": 1433962251,
      "center": {
        "lat": 12.924775,
        "lon": 77.6526597
      },
      "tags": {
        "access": "private",
        "leisure": "swimming_pool"
      }
    }
  ]
}