{
  "area_name": "Agara",
  "osm_id": 567770959,
  "osm_type": "node",
  "place_type": "neighbourhood",
  "amenity_count": 78,
  "amenities": [
    {
      "type": "node",
      "id": 417894271,
      "lat": 13.0384174,
      "lon": 77.6387738,
      "tags": {
        "amenity": "school",
        "name": "United Public School",
        "name:kn": "ಯುನೈಟೆಡ್ ಪಬ್ಲಿಕ್ ಸ್ಕೂಲ್"
      }
    },
    {
      "type": "node",
      "id": 440690464,
      "lat": 13.038559,
      "lon": 77.6472476,
      "tags": {
        "amenity": "place_of_worship",
        "name": "Bethel Assembly of God Church",
        "religion": "christian"
      }
    },
    {
      "type": "node",
      "id": 443612463,
      "lat": 13.0371728,
      "lon": 77.6409543,
      "tags": {
        "amenity": "hospital",
        "name": "Sri Vijayalakshmi Pragathi Hospital",
        "name:kn": "ಶ್ರೀ ವಿಜಯಲಕ್ಷ್ಮೀ ಪ್ರಗತಿ ಆಸ್ಪತ್ರೆ"
      }
    },
    {
      "type": "node",
      "id": 443612468,
      "lat": 13.0375654,
      "lon": 77.6396626,
      "tags": {
        "amenity": "place_of_worship",
        "religion": "hindu"
      }
    },
    {
      "type": "node",
      "id": 443614841,
      "lat": 13.0374407,
      "lon": 77.6434734,
      "tags": {
        "amenity": "place_of_worship",
        "name": "Shalom A.G. Prarthanalaya",
        "religion": "christian"
      }
    },
    {
      "type": "node",
      "id": 443615005,
      "lat": 13.0371969,
      "lon": 77.6427683,
      "tags": {
        "amenity": "school",
        "name": "Yuvalok School",
        "name:kn": "ಯುವಲೊಕ್ ಸ್ಕೂಲ್"
      }
    },
    {
      "type": "node",
      "id": 443615520,
      "lat": 13.032254,
      "lon": 77.6438151,
      "tags": {
        "amenity": "place_of_worship",
        "name": "Rays of Peace",
        "religion": "christian"
      }
    },
    {
      "type": "node",
      "id": 443615521,
      "lat": 13.0317498,
      "lon": 77.6437784,
      "tags": {
        "amenity": "school",
        "name": "Sinclairs High School",
        "name:kn": "ಸಿಂಕ್ಲೇರ್ಸ್ ಪ್ರೌಡಶಾಲೆ"
      }
    },
    {
      "type": "node",
      "id": 595688363,
      "lat": 13.037202,
      "lon": 77.6411602,
      "tags": {
        "name": "Aishwarya Bakery",
        "shop": "bakery"
      }
    },
    {
      "type": "node",
      "id": 595688376,
      "lat": 13.0372529,
      "lon": 77.6421063,
      "tags": {
        "amenity": "place_of_worship",
        "name": "St Marys Syrian Knanaya Church",
        "religion": "christian"
      }
    },
    {
      "type": "node",
      "id": 859664570,
      "lat": 13.0374987,
      "lon": 77.6524104,
      "tags": {
        "amenity": "place_of_worship",
        "name": "Temple",
        "name:kn": "ದೇವಸ್ಥಾನ",
        "religion": "hindu"
      }
    },
    {
      "type": "node",
      "id": 2404638854,
      "lat": 13.0314943,
      "lon": 77.6421926,
      "tags": {
        "amenity": "school",
        "name": "St Paul"
      }
    },
    {
      "type": "node",
      "id": 4844863336,
      "lat": 13.0341188,
      "lon": 77.6543637,
      "tags": {
        "name": "SPN",
        "name:en": "SPN",
        "shop": "car"
      }
    },
    {
      "type": "node",
      "id": 4844863338,
      "lat": 13.037038,
      "lon": 77.655382,
      "tags": {
        "name": "Mahadev",
        "name:en": "Mahadev",
        "shop": "jewelry"
      }
    },
    {
      "type": "node",
      "id": 4844863339,
      "lat": 13.0373816,
      "lon": 77.6558824,
      "tags": {
        "name": "Padmaja",
        "name:en": "Padmaja",
        "shop": "beauty"
      }
    },
    {
      "type": "node",
      "id": 4844867422,
      "lat": 13.0354235,
      "lon": 77.6546479,
      "tags": {
        "amenity": "pharmacy"
      }
    },
    {
      "type": "node",
      "id": 4844867423,
      "lat": 13.0368048,
      "lon": 77.6548747,
      "tags": {
        "name": "Sanndhi",
        "name:en": "Sanndhi",
        "shop": "confectionery"
      }
    },
    {
      "type": "node",
      "id": 6939311791,
      "lat": 13.0373572,
      "lon": 77.6409059,
      "tags": {
        "addr:district": "Bengaluru Urban",
        "addr:full": "#3/666, Hennur Bande,Hennur Main Road, Kalayan Nagar Post,International Link Road",
        "addr:postcode": "560043",
        "addr:state": "Karnataka",
        "amenity": "hospital",
        "name": "Shree Vijayalakshmi Hospital and Trauma Centre",
        "source": "OpenGovernmentData"
      }
    },
    {
      "type": "node",
      "id": 7208904131,
      "lat": 13.0371998,
      "lon": 77.6414484,
      "tags": {
        "amenity": "place_of_worship",
        "religion": "hindu"
      }
    },
    {
      "type": "node",
      "id": 7208904132,
      "lat": 13.0387088,
      "lon": 77.6412794,
      "tags": {
        "name": "Kohler",
        "shop": "houseware"
      }
    },
    {
      "type": "node",
      "id": 7256979625,
      "lat": 13.036817,
      "lon": 77.6411768,
      "tags": {
        "access": "yes",
        "amenity": "toilets"
      }
    },
    {
      "type": "node",
      "id": 7256979626,
      "lat": 13.0376649,
      "lon": 77.6415691,
      "tags": {
        "name": "Yofee Beauty Salon",
        "shop": "beauty"
      }
    },
    {
      "type": "node",
      "id": 7256979675,
      "lat": 13.0404138,
      "lon": 77.6416415,
      "tags": {
        "name": "King and Queen Furnitures",
        "shop": "furniture"
      }
    },
    {
      "type": "node",
      "id": 7256979678,
      "lat": 13.0466615,
      "lon": 77.6445812,
      "tags": {
        "amenity": "restaurant",
        "name": "Moriz"
      }
    },
    {
      "type": "node",
      "id": 9527967825,
      "lat": 13.0369228,
      "lon": 77.6408207,
      "tags": {
        "amenity": "fast_food",
        "cuisine": "chinese",
        "name": "Chinese Bowl"
      }
    },
    {
      "type": "node",
      "id": 9527967826,
      "lat": 13.0381032,
      "lon": 77.6412942,
      "tags": {
        "amenity": "fast_food",
        "cuisine": "regional",
        "name": "Brahma Sri Udupi Veg"
      }
    },
    {
      "type": "node",
      "id": 11345404436,
      "lat": 13.0303405,
      "lon": 77.6491473,
      "tags": {
        "amenity": "atm",
        "brand": "Axis Bank",
        "brand:wikidata": "Q2003549",
        "name": "Axis Bank",
        "name:kn": "ಆಕ್ಸಿಸ್ ಬ್ಯಾಂಕ್",
        "operator": "Axis Bank",
        "operator:wikidata": "Q2003549",
        "wheelchair": "limited"
      }
    },
    {
      "type": "node",
      "id": 11348726232,
      "lat": 13.0319607,
      "lon": 77.6435697,
      "tags": {
        "amenity": "atm",
        "name": "HDFC bank ATM"
      }
    },
    {
      "type": "node",
      "id": 11662137677,
      "lat": 13.0387111,
      "lon": 77.6412237,
      "tags": {
        "check_date": "2024-02-25",
        "name": "nobilia",
        "shop": "appliance"
      }
    },
    {
      "type": "node",
      "id": 11662137678,
      "lat": 13.0387411,
      "lon": 77.6412561,
      "tags": {
        "check_date": "2024-02-25",
        "name": "Simpolo Ceramics",
        "shop": "pottery"
      }
    },
    {
      "type": "node",
      "id": 11817881015,
      "lat": 13.0344614,
      "lon": 77.6498444,
      "tags": {
        "amenity": "kindergarten",
        "contact:email": "littlelilies82@gmail.com",
        "name": "Little lilies",
        "phone": "+919036060432"
      }
    },
    {
      "type": "node",
      "id": 11875717419,
      "lat": 13.0467608,
      "lon": 77.6448172,
      "tags": {
        "brand": "Škoda",
        "name": "Skoda",
        "name:kn": "ಸ್ಕೋಡಾ",
        "operator": "Skoda",
        "shop": "car"
      }
    },
    {
      "type": "node",
      "id": 11917222412,
      "lat": 13.038891,
      "lon": 77.6416016,
      "tags": {
        "check_date": "2024-05-19",
        "name": "Motorizer",
        "shop": "motorcycle_repair"
      }
    },
    {
      "type": "node",
      "id": 12450999458,
      "lat": 13.0368673,
      "lon": 77.6405129,
      "tags": {
        "amenity": "place_of_worship",
        "check_date": "2024-12-25",
        "religion": "hindu"
      }
    },
    {
      "type": "node",
      "id": 12450999459,
      "lat": 13.0385859,
      "lon": 77.6416759,
      "tags": {
        "check_date": "2024-12-25",
        "name": "Ather",
        "shop": "motorcycle"
      }
    },
    {
      "type": "node",
      "id": 12450999460,
      "lat": 13.0387546,
      "lon": 77.6415959,
      "tags": {
        "check_date": "2024-12-25",
        "name": "Sree Balaji Frame Works",
        "shop": "frame"
      }
    },
    {
      "type": "node",
      "id": 12450999462,
      "lat": 13.0443268,
      "lon": 77.6428774,
      "tags": {
        "brand": "Shell Select",
        "brand:wikidata": "Q124359752",
        "check_date": "2024-12-25",
        "name": "Shell Select",
        "shop": "convenience"
      }
    },
    {
      "type": "node",
      "id": 12850106076,
      "lat": 13.0362532,
      "lon": 77.6414745,
      "tags": {
        "amenity": "place_of_worship",
        "religion": "hindu"
      }
    },
    {
      "type": "node",
      "id": 13070773908,
      "lat": 13.0408447,
      "lon": 77.6475535,
      "tags": {
        "amenity": "place_of_worship",
        "denomination": "evangelical",
        "name": "St thomas evangelical church of india",
        "religion": "christian"
      }
    },
    {
      "type": "node",
      "id": 13108180419,
      "lat": 13.0392955,
      "lon": 77.6415936,
      "tags": {
        "amenity": "fast_food",
        "check_date": "2025-08-30",
        "cuisine": "korean",
        "name": "Moba"
      }
    },
    {
      "type": "node",
      "id": 13108989459,
      "lat": 13.044511,
      "lon": 77.6426125,
      "tags": {
        "name": "Melchior Cheese",
        "shop": "cheese"
      }
    },
    {
      "type": "way",
      "id": 35185823,
      "center": {
        "lat": 13.0472901,
        "lon": 77.6467673
      },
      "tags": {
        "addr:city": "Kothanur Post, Bangalore",
        "addr:postcode": "560 077",
        "addr:street": "Hennur Bagalur Road",
        "amenity": "school",
        "email": "info@bisedu.co.in",
        "fax": "+91-80-2846 5059",
        "name": "Bangalore International School",
        "phone": "+91-80-28465060; +91-80-28445852",
        "website": "https://www.bangaloreinternationalschool.com/",
        "wikidata": "Q4855055",
        "wikipedia": "en:Bangalore International School"
      }
    },
    {
      "type": "way",
      "id": 35703028,
      "center": {
        "lat": 13.0389095,
        "lon": 77.6402952
      },
      "tags": {
        "amenity": "college",
        "name": "Sadupadesa College",
        "name:kn": "ಸದುಪದೇಶ ಕಾಲೇಜು"
      }
    },
    {
      "type": "way",
      "id": 35703030,
      "center": {
        "lat": 13.0364055,
        "lon": 77.6388752
      },
      "tags": {
        "amenity": "college",
        "name": "Asanath College",
        "name:kn": "ಹಸನಾಥ್ ಕಾಲೆಜು"
      }
    },
    {
      "type": "way",
      "id": 35909196,
      "center": {
        "lat": 13.0465414,
        "lon": 77.6427242
      },
      "tags": {
        "amenity": "school",
        "name": "Carmel School",
        "name:kn": "ಕಾರ್ಮೆಲ್ ಶಾಲೆ"
      }
    },
    {
      "type": "way",
      "id": 35927357,
      "center": {
        "lat": 13.0469685,
        "lon": 77.643915
      },
      "tags": {
        "FIXME": "shape",
        "amenity": "social_facility",
        "name": "Sisters of St Charles",
        "social_facility": "group_home"
      }
    },
    {
      "type": "way",
      "id": 46611578,
      "center": {
        "lat": 13.0372145,
        "lon": 77.6438639
      },
      "tags": {
        "amenity": "college",
        "name": "National Institute of Creative Communication - NICC"
      }
    },
    {
      "type": "way",
      "id": 51132139,
      "center": {
        "lat": 13.0329949,
        "lon": 77.65147
      },
      "tags": {
        "amenity": "school",
        "name": "St Vincent Palloti School"
      }
    },
    {
      "type": "way",
      "id": 346729228,
      "center": {
        "lat": 13.0378807,
        "lon": 77.6502896
      },
      "tags": {
        "addr:city": "Bengaluru",
        "addr:district": "Bengaluru",
        "addr:postcode": "560043",
        "addr:street": "Horamavu Agara Road",
        "amenity": "veterinary",
        "building": "yes",
        "building:levels": "2",
        "loc_name": "ಹೋಪ್ ಪಶುವೈದ್ಯಕೀಯ ಚಿಕಿತ್ಸಾಲಯ",
        "mobile": "+91 8884884054",
        "name": "Hope Veterinary Clinic",
        "name:kn": "ಹೋಪ್ ಪಶುವೈದ್ಯಕೀಯ ಚಿಕಿತ್ಸಾಲಯ",
        "operator": "Dr. Akshay Prakash 8884884054"
      }
    },
    {
      "type": "way",
      "id": 530598182,
      "center": {
        "lat": 13.042512,
        "lon": 77.6418415
      },
      "tags": {
        "alt_name": "Dry Waste Deposit",
        "amenity": "recycling",
        "building": "yes",
        "name": "BBMP Dry Waste Collection Deposit",
        "name:kn": "ಒಣ ತ್ಯಾಜ್ಯ ನಿರ್ವಹಣೆಗೆ ಸ್ಥಳ",
        "recycling_type": "centre"
      }
    },
    {
      "type": "way",
      "id": 687173287,
      "center": {
        "lat": 13.0297477,
        "lon": 77.6415271
      },
      "tags": {
        "amenity": "college",
        "landuse": "college",
        "name": "St Vincent Pallotti College"
      }
    },
    {
      "type": "way",
      "id": 695548607,
      "center": {
        "lat": 13.0417583,
        "lon": 77.6514946
      },
      "tags": {
        "access": "private",
        "amenity": "parking"
      }
    },
    {
      "type": "way",
      "id": 695548666,
      "center": {
        "lat": 13.0345661,
        "lon": 77.6529765
      },
      "tags": {
        "amenity": "parking"
      }
    },
    {
      "type": "way",
      "id": 771923571,
      "center": {
        "lat": 13.0308225,
        "lon": 77.642713
      },
      "tags": {
        "amenity": "parking"
      }
    },
    {
      "type": "way",
      "id": 772203217,
      "center": {
        "lat": 13.0348944,
        "lon": 77.6385423
      },
      "tags": {
        "access": "private",
        "leisure": "swimming_pool"
      }
    },
    {
      "type": "way",
      "id": 772203229,
      "center": {
        "lat": 13.0455056,
        "lon": 77.6435081
      },
      "tags": {
        "amenity": "school",
        "name": "St. Norbert School"
      }
    },
    {
      "type": "way",
      "id": 772203231,
      "center": {
        "lat": 13.0460828,
        "lon": 77.6437157
      },
      "tags": {
        "amenity": "school",
        "name": "Blessed Care Nivas",
        "social_facility": "day_care"
      }
    },
    {
      "type": "way",
      "id": 777616733,
      "center": {
        "lat": 13.0389427,
        "lon": 77.6402913
      },
      "tags": {
        "addr:city": "Bengaluru",
        "addr:country": "IN",
        "addr:housenumber": "28/1",
        "addr:postcode": "560043",
        "addr:street": "Hennur Road",
        "addr:suburb": "Kalyan Nagar",
        "amenity": "place_of_worship",
        "building": "church",
        "building:levels": "3",
        "denomination": "catholic",
        "name": "Holy Redeemer Church",
        "religion": "christian",
        "website": "http://www.holyredeemerchurch.in"
      }
    },
    {
      "type": "way",
      "id": 777616746,
      "center": {
        "lat": 13.0389257,
        "lon": 77.6406243
      },
      "tags": {
        "leisure": "garden"
      }
    },
    {
      "type": "way",
      "id": 1060103765,
      "center": {
        "lat": 13.0442443,
        "lon": 77.6428246
      },
      "tags": {
        "amenity": "fuel",
        "brand": "Shell",
        "brand:wikidata": "Q110716465",
        "compressed_air": "no",
        "name": "Shell",
        "name:kn": "ಶೆಲ್",
        "operator": "Shell"
      }
    },
    {
      "type": "way",
      "id": 1065072655,
      "center": {
        "lat": 13.0384687,
        "lon": 77.6417513
      },
      "tags": {
        "amenity": "fuel",
        "brand": "Nayara",
        "brand:wikidata": "Q5399377",
        "name": "Nayara Suryodaya Petrol Pump",
        "operator": "Nayara"
      }
    },
    {
      "type": "way",
      "id": 1148876100,
      "center": {
        "lat": 13.040171,
        "lon": 77.6406846
      },
      "tags": {
        "amenity": "hospital",
        "building": "hospital",
        "building:levels": "7",
        "building:levels:underground": "3",
        "height": "29.85",
        "name": "Sparsh Hospital, Hennur",
        "operator": "Sparsh Hospital"
      }
    },
    {
      "type": "way",
      "id": 1161785400,
      "center": {
        "lat": 13.040209,
        "lon": 77.6417188
      },
      "tags": {
        "amenity": "fuel",
        "brand": "Total",
        "brand:wikidata": "Q154037",
        "compressed_air": "no",
        "name": "Total Gas",
        "operator": "Total"
      }
    },
    {
      "type": "way",
      "id": 1272659320,
      "center": {
        "lat": 13.0335696,
        "lon": 77.651482
      },
      "tags": {
        "leisure": "pitch",
        "sport": "basketball"
      }
    },
    {
      "type": "way",
      "id": 1284773664,
      "center": {
        "lat": 13.0455549,
        "lon": 77.6447945
      },
      "tags": {
        "amenity": "monastery",
        "denomination": "catholic",
        "landuse": "religious",
        "name": "Guanella Preethi Nivas",
        "religion": "christian"
      }
    },
    {
      "type": "way",
      "id": 1347735193,
      "center": {
        "lat": 13.0301259,
        "lon": 77.6495652
      },
      "tags": {
        "access": "private",
        "leisure": "swimming_pool"
      }
    },
    {
      "type": "way",
      "id": 1347735212,
      "center": {
        "lat": 13.0341902,
        "lon": 77.6484144
      },
      "tags": {
        "access": "private",
        "leisure": "swimming_pool"
      }
    },
    {
      "type": "way",
      "id": 1347735287,
      "center": {
        "lat": 13.0331851,
        "lon": 77.6514386
      },
      "tags": {
        "leisure": "pitch"
      }
    },
    {
      "type": "way",
      "id": 1347916271,
      "center": {
        "lat": 13.0397025,
        "lon": 77.6384641
      },
      "tags": {
        "amenity": "fuel"
      }
    },
    {
      "type": "way",
      "id": 1388143631,
      "center": {
        "lat": 13.0342574,
        "lon": 77.639575
      },
      "tags": {
        "access": "private",
        "leisure": "swimming_pool"
      }
    },
    {
      "type": "way",
      "id": 1388143634,
      "center": {
        "lat": 13.0342908,
        "lon": 77.6435324
      },
      "tags": {
        "amenity": "school",
        "name": "Sri Chaitanya Techno School, Kalyan Nagar"
      }
    },
    {
      "type": "way",
      "id": 1388143636,
      "center": {
        "lat": 13.0368987,
        "lon": 77.6426707
      },
      "tags": {
        "leisure": "sports_centre",
        "name": "Vision India"
      }
    },
    {
      "type": "way",
      "id": 1418664060,
      "center": {
        "lat": 13.0417948,
        "lon": 77.653591
      },
      "tags": {
        "leisure": "park"
      }
    },
    {
      "type": "way",
      "id": 1418664095,
      "center": {
        "lat": 13.0415797,
        "lon": 77.6534937
      },
      "tags": {
        "amenity": "place_of_worship",
        "building": "yes",
        "religion": "hindu"
      }
    },
    {
      "type": "way",
      "id": 1423222856,
      "center": {
        "lat": 13.0371412,
        "lon": 77.6521082
      },
      "tags": {
        "amenity": "place_of_worship",
        "denomination": "pentecostal",
        "religion": "christian"
      }
    },
    {
      "type": "way",
      "id": 1423222885,
      "center": {
        "lat": 13.0413728,
        "lon": 77.653523
      },
      "tags": {
        "amenity": "place_of_worship",
        "landuse": "religious",
        "religion": "hindu"
      }
    },
    {
      "type": "way",
      "id": 1423481473,
      "center": {
        "lat": 13.0360874,
        "lon": 77.6530977
      },
      "tags": {
        "amenity": "school",
        "name": "New Millenium School"
      }
    },
    {
      "type": "way",
      "id": 1423481477,
      "center": {
        "lat": 13.0356622,
        "lon": 77.6540017
      },
      "tags": {
        "access": "private",
        "leisure": "swimming_pool"
      }
    }
  ]
}