{
  "area_name": "AGS Layout",
  "osm_id": 841805641,
  "osm_type": "node",
  "place_type": "neighbourhood",
  "amenity_count": 45,
  "amenities": [
    {
      "type": "node",
      "id": 841805585,
      "lat": 12.9135232,
      "lon": 77.5289628,
      "tags": {
        "amenity": "place_of_worship",
        "name": "Kumaraswamy Temple",
        "name:kn": "ಕುಮಾರಸ್ವಾಮಿ ದೇವಸ್ಥಾನ",
        "religion": "hindu"
      }
    },
    {
      "type": "node",
      "id": 1463579863,
      "lat": 12.9141975,
      "lon": 77.5293801,
      "tags": {
        "amenity": "place_of_worship",
        "name": "Kaalikamba Temple",
        "name:kn": "ಕಾಳಿಕಾಂಬ ದೇವಸ್ಥಾನ",
        "religion": "hindu",
        "wheelchair": "no"
      }
    },
    {
      "type": "node",
      "id": 1463580356,
      "lat": 12.9126035,
      "lon": 77.5289754,
      "tags": {
        "amenity": "place_of_worship",
        "name": "Sri Shanmukha Temple",
        "name:kn": "ಶ್ರೀ ಶಣ್ಮುಖ ದೇವಸ್ಥಾನ",
        "religion": "hindu"
      }
    },
    {
      "type": "node",
      "id": 1463584104,
      "lat": 12.9125086,
      "lon": 77.5271968,
      "tags": {
        "amenity": "school",
        "name": "Swargarani"
      }
    },
    {
      "type": "node",
      "id": 1463585629,
      "lat": 12.9100406,
      "lon": 77.5281785,
      "tags": {
        "leisure": "swimming_pool"
      }
    },
    {
      "type": "node",
      "id": 1463586819,
      "lat": 12.9081687,
      "lon": 77.5373087,
      "tags": {
        "amenity": "school",
        "name": "Quality Nursing Institute"
      }
    },
    {
      "type": "node",
      "id": 1471928775,
      "lat": 12.9094182,
      "lon": 77.5274725,
      "tags": {
        "amenity": "pub",
        "name": "Sun Pub"
      }
    },
    {
      "type": "node",
      "id": 1652834933,
      "lat": 12.9066368,
      "lon": 77.5360253,
      "tags": {
        "addr:place": "Poornaprajna Nagara",
        "addr:postcode": "560061",
        "amenity": "place_of_worship",
        "denomination": "vaishnavism",
        "name": "Anjaneya Temple",
        "name:kn": "ಆಂಜನೇಯ ದೇವಸ್ಥಾನ",
        "opening_hours": "24/7",
        "religion": "hindu",
        "service_times": "Sa 19:00-20:30"
      }
    },
    {
      "type": "node",
      "id": 1851132705,
      "lat": 12.910612,
      "lon": 77.5288637,
      "tags": {
        "amenity": "parking_space"
      }
    },
    {
      "type": "node",
      "id": 2120440979,
      "lat": 12.9081474,
      "lon": 77.5400772,
      "tags": {
        "amenity": "bench",
        "backrest": "yes",
        "material": "stone",
        "seats": "3"
      }
    },
    {
      "type": "node",
      "id": 2120440981,
      "lat": 12.9081511,
      "lon": 77.5400401,
      "tags": {
        "amenity": "bench",
        "backrest": "yes",
        "material": "stone",
        "seats": "3"
      }
    },
    {
      "type": "node",
      "id": 2120440982,
      "lat": 12.9082122,
      "lon": 77.5400363,
      "tags": {
        "amenity": "bench",
        "backrest": "yes",
        "material": "stone",
        "seats": "3"
      }
    },
    {
      "type": "node",
      "id": 2120440983,
      "lat": 12.9082284,
      "lon": 77.540067,
      "tags": {
        "amenity": "bench",
        "backrest": "yes",
        "material": "stone",
        "seats": "3"
      }
    },
    {
      "type": "node",
      "id": 2120440984,
      "lat": 12.9082421,
      "lon": 77.5400977,
      "tags": {
        "amenity": "bench",
        "backrest": "yes",
        "material": "stone",
        "seats": "3"
      }
    },
    {
      "type": "node",
      "id": 2126404931,
      "lat": 12.9123803,
      "lon": 77.5371751,
      "tags": {
        "amenity": "bus_station",
        "name": "AGS Layout Bus Stand",
        "public_transport": "station",
        "shelter": "no"
      }
    },
    {
      "type": "node",
      "id": 4445177902,
      "lat": 12.913853,
      "lon": 77.5426932,
      "tags": {
        "addr:city": "BANGALORE",
        "addr:housenumber": "#27",
        "addr:postcode": "560061",
        "addr:street": "Banashankari 3rd Stage, Ramanjaneyanagar, Chikka Kalsandra, Arehalli, Uttarahalli Hobli",
        "amenity": "school",
        "name": "Sri Chaitanya Techno School"
      }
    },
    {
      "type": "node",
      "id": 4545284791,
      "lat": 12.908844,
      "lon": 77.5410977,
      "tags": {
        "amenity": "bench"
      }
    },
    {
      "type": "node",
      "id": 4545856993,
      "lat": 12.9070254,
      "lon": 77.5331667,
      "tags": {
        "addr:street": "Dr. Vishnuvardhan Road",
        "amenity": "restaurant",
        "cuisine": "chinese;fish_and_chips;chicken;indian",
        "diet:vegetarian": "yes",
        "name": "Rotti Mane Dhabha",
        "name:en": "Rotti Mane Dhabha"
      }
    },
    {
      "type": "node",
      "id": 4636052805,
      "lat": 12.9162291,
      "lon": 77.5405845,
      "tags": {
        "amenity": "place_of_worship",
        "name": "Ganesha Mural",
        "religion": "hindu"
      }
    },
    {
      "type": "node",
      "id": 5277512112,
      "lat": 12.9138086,
      "lon": 77.5273633,
      "tags": {
        "amenity": "hospital",
        "name": "Usha Vikranth Diagnostic Center and Hospital"
      }
    },
    {
      "type": "node",
      "id": 6611728372,
      "lat": 12.9131883,
      "lon": 77.5406751,
      "tags": {
        "amenity": "fast_food",
        "name": "Taaza cake"
      }
    },
    {
      "type": "node",
      "id": 6611728376,
      "lat": 12.9138994,
      "lon": 77.5374377,
      "tags": {
        "amenity": "cafe",
        "name": "Nandini Milk Parlor"
      }
    },
    {
      "type": "node",
      "id": 7579924710,
      "lat": 12.9089522,
      "lon": 77.5341499,
      "tags": {
        "addr:district": "Bengaluru Urban",
        "addr:full": "Kodipur, Bengaluru",
        "addr:postcode": "560061",
        "addr:state": "Karnataka",
        "amenity": "clinic",
        "name": "Soukhya Family Clinic",
        "source": "Local Knowledge"
      }
    },
    {
      "type": "node",
      "id": 7579924745,
      "lat": 12.905774,
      "lon": 77.536862,
      "tags": {
        "addr:district": "Bengaluru Urban",
        "addr:full": "Poorna Pragna Nagar, Bengaluru",
        "addr:postcode": "560061",
        "addr:state": "Karnataka",
        "amenity": "clinic",
        "name": "Poorna Clinic",
        "source": "Local Knowledge"
      }
    },
    {
      "type": "node",
      "id": 7579924767,
      "lat": 12.9117655,
      "lon": 77.5396707,
      "tags": {
        "addr:district": "Bengaluru Urban",
        "addr:full": "RK Layout, Banashankari, Bengaluru",
        "addr:postcode": "560078",
        "addr:state": "Karnataka",
        "amenity": "dentist",
        "healthcare": "dentist",
        "name": "Nandeesh's Dental Speciality",
        "source": "Local Knowledge"
      }
    },
    {
      "type": "node",
      "id": 7579924784,
      "lat": 12.9152752,
      "lon": 77.5394034,
      "tags": {
        "addr:district": "Bengaluru Urban",
        "addr:full": "AGS Layout, Uttarahalli Hobli, Bengaluru",
        "addr:postcode": "560061",
        "addr:state": "Karnataka",
        "amenity": "clinic",
        "name": "Lakshmi Venkateswara Clinic",
        "source": "Local Knowledge"
      }
    },
    {
      "type": "node",
      "id": 10979388384,
      "lat": 12.9176033,
      "lon": 77.5359611,
      "tags": {
        "amenity": "place_of_worship",
        "name": "Shri Anjaneya Temple",
        "religion": "hindu"
      }
    },
    {
      "type": "node",
      "id": 10979388385,
      "lat": 12.918168,
      "lon": 77.5360872,
      "tags": {
        "amenity": "place_of_worship",
        "name": "Shri Arkeshwara Temple",
        "religion": "hindu",
        "wikipedia": "en:Shri Hanumagiri Kshethra"
      }
    },
    {
      "type": "node",
      "id": 12051383426,
      "lat": 12.9092956,
      "lon": 77.5275152,
      "tags": {
        "amenity": "cafe",
        "check_date": "2024-07-13",
        "name": "Secrets Of Bengaluru",
        "payment:cash": "yes",
        "payment:credit_cards": "yes",
        "payment:debit_cards": "yes",
        "wheelchair": "no"
      }
    },
    {
      "type": "node",
      "id": 12651124100,
      "lat": 12.9087906,
      "lon": 77.5340771,
      "tags": {
        "amenity": "fast_food",
        "brand": "Five Star Chicken",
        "brand:wikidata": "Q127784422",
        "cuisine": "chicken",
        "delivery": "yes",
        "name": "Five Star Chicken",
        "takeaway": "yes"
      }
    },
    {
      "type": "node",
      "id": 12651173601,
      "lat": 12.9090316,
      "lon": 77.5337293,
      "tags": {
        "hairdresser": "barber",
        "name": "Orange Hair Saloon",
        "shop": "hairdresser"
      }
    },
    {
      "type": "node",
      "id": 13128318401,
      "lat": 12.9134483,
      "lon": 77.5419934,
      "tags": {
        "addr:housenumber": "91",
        "addr:postcode": "560061",
        "addr:street": "2nd Main Road, Arehalli",
        "leisure": "fitness_centre",
        "name": "Kineto Calisthenics Park",
        "opening_hours": "Mo-Fr 06:00-13:00, 17:00-21:00; Sa 08:30-13:00; Su 08:30-12:00",
        "phone": "082176 32136",
        "website": "https://www.kinetocalisthenics.com"
      }
    },
    {
      "type": "way",
      "id": 197115676,
      "center": {
        "lat": 12.9068696,
        "lon": 77.536812
      },
      "tags": {
        "leisure": "park"
      }
    },
    {
      "type": "way",
      "id": 197115677,
      "center": {
        "lat": 12.906804,
        "lon": 77.5365724
      },
      "tags": {
        "amenity": "shelter",
        "shelter_type": "picnic_shelter"
      }
    },
    {
      "type": "way",
      "id": 197115678,
      "center": {
        "lat": 12.9066734,
        "lon": 77.5365551
      },
      "tags": {
        "leisure": "playground"
      }
    },
    {
      "type": "way",
      "id": 202062391,
      "center": {
        "lat": 12.9088231,
        "lon": 77.5402569
      },
      "tags": {
        "amenity": "school",
        "building": "yes",
        "name": "New Kumarans School"
      }
    },
    {
      "type": "way",
      "id": 202675801,
      "center": {
        "lat": 12.9117197,
        "lon": 77.535003
      },
      "tags": {
        "leisure": "park"
      }
    },
    {
      "type": "way",
      "id": 202675804,
      "center": {
        "lat": 12.9131347,
        "lon": 77.537404
      },
      "tags": {
        "leisure": "park",
        "name": "AGS Layout Recreational Park"
      }
    },
    {
      "type": "way",
      "id": 348628900,
      "center": {
        "lat": 12.91206,
        "lon": 77.5359359
      },
      "tags": {
        "amenity": "place_of_worship",
        "building": "yes",
        "name": "Shri Akshara Shiridi Saibaba Temple",
        "religion": "hindu"
      }
    },
    {
      "type": "way",
      "id": 1182315646,
      "center": {
        "lat": 12.91537,
        "lon": 77.5365297
      },
      "tags": {
        "leisure": "sports_centre",
        "name": "Artree Khelo"
      }
    },
    {
      "type": "way",
      "id": 1182315647,
      "center": {
        "lat": 12.9195053,
        "lon": 77.5383509
      },
      "tags": {
        "amenity": "community_centre",
        "landuse": "commercial",
        "name": "Aditya Kalyana Mantapa"
      }
    },
    {
      "type": "way",
      "id": 1182315654,
      "center": {
        "lat": 12.9161341,
        "lon": 77.5386139
      },
      "tags": {
        "leisure": "park"
      }
    },
    {
      "type": "way",
      "id": 1203175487,
      "center": {
        "lat": 12.9066177,
        "lon": 77.5289512
      },
      "tags": {
        "leisure": "park"
      }
    },
    {
      "type": "way",
      "id": 1329553265,
      "center": {
        "lat": 12.9064785,
        "lon": 77.5323113
      },
      "tags": {
        "leisure": "park"
      }
    },
    {
      "type": "way",
      "id": 1363986204,
      "center": {
        "lat": 12.9099916,
        "lon": 77.5283423
      },
      "tags": {
        "leisure": "resort",
        "name": "Shakthi Hill Resorts"
      }
    }
  ]
}