{
  "area_name": "Alfa Gardens",
  "osm_id": 12300691416,
  "osm_type": "node",
  "place_type": "neighbourhood",
  "amenity_count": 40,
  "amenities": [
    {
      "type": "node",
      "id": 1706585734,
      "lat": 13.0042943,
      "lon": 77.7122219,
      "tags": {
        "amenity": "fuel",
        "brand": "Bharat Petroleum",
        "brand:wikidata": "Q854826",
        "fuel:diesel": "yes",
        "name": "Bharat Petroleum Pump",
        "name:kn": "ಭಾರತ್ ಪೆಟ್ರೋಲಿಯಂ"
      }
    },
    {
      "type": "node",
      "id": 1706618273,
      "lat": 13.002416,
      "lon": 77.7125734,
      "tags": {
        "amenity": "atm",
        "brand": "State Bank of India",
        "brand:wikidata": "Q1340361",
        "fee": "no",
        "operator": "State Bank of India",
        "operator:wikidata": "Q1340361",
        "short_name": "SBI"
      }
    },
    {
      "type": "node",
      "id": 1706627968,
      "lat": 13.0046542,
      "lon": 77.7125955,
      "tags": {
        "amenity": "place_of_worship",
        "name": "Muneshwara Temple",
        "name:kn": "ಮುನೇಶ್ವರ ದೇವಸ್ಥಾನ",
        "religion": "hindu"
      }
    },
    {
      "type": "node",
      "id": 7572131826,
      "lat": 13.003328,
      "lon": 77.712439,
      "tags": {
        "addr:district": "Bengaluru Urban",
        "addr:full": "Ayyappa Nagar, Krishnarajapura, Bengaluru",
        "addr:postcode": "560036",
        "addr:state": "Karnataka",
        "amenity": "dentist",
        "name": "Unique Smile Dental Care Centre",
        "source": "Local Knowledge"
      }
    },
    {
      "type": "node",
      "id": 7572131830,
      "lat": 13.002561,
      "lon": 77.712519,
      "tags": {
        "addr:district": "Bengaluru Urban",
        "addr:full": "Surya Layout, Ayyappa Nagar, Bengaluru",
        "addr:postcode": "560036",
        "addr:state": "Karnataka",
        "amenity": "dentist",
        "name": "Clove Dental",
        "source": "Local Knowledge"
      }
    },
    {
      "type": "node",
      "id": 7572131870,
      "lat": 13.0041888,
      "lon": 77.7125929,
      "tags": {
        "addr:district": "Bengaluru Urban",
        "addr:full": "Ayyappa Nagar, Krishnarajapura, Bengaluru",
        "addr:postcode": "560036",
        "addr:state": "Karnataka",
        "amenity": "clinic",
        "name": "Sri Krishna Poly Clinic",
        "source": "Local Knowledge"
      }
    },
    {
      "type": "node",
      "id": 7572131904,
      "lat": 13.0042829,
      "lon": 77.7120772,
      "tags": {
        "addr:district": "Bengaluru Urban",
        "addr:full": "Ayyappa Nagar, Krishnarajapura, Bengaluru",
        "addr:postcode": "560036",
        "addr:state": "Karnataka",
        "amenity": "clinic",
        "name": "Dr. Rao's Skin Clinic",
        "source": "Local Knowledge"
      }
    },
    {
      "type": "node",
      "id": 7572131920,
      "lat": 13.0031938,
      "lon": 77.7128759,
      "tags": {
        "addr:district": "Bengaluru Urban",
        "addr:full": "Surya Layout, Ayyappa Nagar, Krishnarajapura, Bengaluru",
        "addr:postcode": "560036",
        "addr:state": "Karnataka",
        "amenity": "hospital",
        "name": "Kids Health Link",
        "source": "Local Knowledge"
      }
    },
    {
      "type": "node",
      "id": 11412688468,
      "lat": 13.004324,
      "lon": 77.715452,
      "tags": {
        "addr:city": "bengalure",
        "addr:housenumber": "12",
        "addr:postcode": "560049",
        "addr:street": "Kodigehalli Road",
        "name": "Snnuggle Home Decor",
        "opening_hours": "Mo-Su 10:00-21:00",
        "phone": "8618188578",
        "shop": "bedsheets"
      }
    },
    {
      "type": "node",
      "id": 11998955850,
      "lat": 13.0045802,
      "lon": 77.7167366,
      "tags": {
        "amenity": "pharmacy",
        "healthcare": "pharmacy",
        "name": "Saptagiri Pharmacy"
      }
    },
    {
      "type": "node",
      "id": 11998955851,
      "lat": 13.0045882,
      "lon": 77.7167045,
      "tags": {
        "amenity": "clinic",
        "healthcare": "clinic",
        "name": "Saptagiri Health Care"
      }
    },
    {
      "type": "node",
      "id": 11998955856,
      "lat": 13.0045552,
      "lon": 77.7165947,
      "tags": {
        "name": "Familiy Choice supermarket",
        "shop": "supermarket"
      }
    },
    {
      "type": "node",
      "id": 13012919955,
      "lat": 13.0045711,
      "lon": 77.7174766,
      "tags": {
        "check_date": "2025-07-20",
        "name": "Reliance Smart",
        "shop": "department_store"
      }
    },
    {
      "type": "node",
      "id": 13012919956,
      "lat": 13.004333,
      "lon": 77.7173767,
      "tags": {
        "amenity": "restaurant",
        "check_date": "2025-07-20",
        "name": "Udupi Gokula"
      }
    },
    {
      "type": "node",
      "id": 13012919957,
      "lat": 13.0045856,
      "lon": 77.7175488,
      "tags": {
        "amenity": "fast_food",
        "brand": "Subway",
        "brand:wikidata": "Q244457",
        "check_date": "2025-07-20",
        "cuisine": "sandwich",
        "name": "Subway",
        "takeaway": "yes"
      }
    },
    {
      "type": "node",
      "id": 13012919958,
      "lat": 13.0045897,
      "lon": 77.7176126,
      "tags": {
        "amenity": "restaurant",
        "brand": "Pizza Hut",
        "brand:wikidata": "Q191615",
        "check_date": "2025-07-20",
        "cuisine": "pizza",
        "name": "Pizza Hut"
      }
    },
    {
      "type": "node",
      "id": 13012919959,
      "lat": 13.0046353,
      "lon": 77.7174766,
      "tags": {
        "check_date": "2025-07-20",
        "leisure": "fitness_centre",
        "name": "Crunch Fitness"
      }
    },
    {
      "type": "node",
      "id": 13012919960,
      "lat": 13.004567,
      "lon": 77.7176657,
      "tags": {
        "amenity": "cafe",
        "check_date": "2025-07-20",
        "cuisine": "coffee_shop",
        "name": "The Coffee Brewery"
      }
    },
    {
      "type": "node",
      "id": 13012919961,
      "lat": 13.0045752,
      "lon": 77.7177464,
      "tags": {
        "check_date": "2025-07-20",
        "name": "Dry Fruits House",
        "shop": "nuts"
      }
    },
    {
      "type": "node",
      "id": 13012919962,
      "lat": 13.0045773,
      "lon": 77.7173895,
      "tags": {
        "check_date": "2025-07-20",
        "name": "Just Bake",
        "shop": "bakery"
      }
    },
    {
      "type": "way",
      "id": 102937348,
      "center": {
        "lat": 13.003633,
        "lon": 77.7184473
      },
      "tags": {
        "addr:city": "Ayyappanagar, Bangalore",
        "addr:housenumber": "70/1",
        "addr:postcode": "560036",
        "addr:street": "Kodigehalli Main Road",
        "amenity": "school",
        "email": "brijesh.kumavat@diyaschool.com",
        "name": "Diya Academy of Learning",
        "phone": "+91-80-32953468;+919901451041",
        "website": "https://diyaschool.com/"
      }
    },
    {
      "type": "way",
      "id": 158466991,
      "center": {
        "lat": 13.0065365,
        "lon": 77.7172162
      },
      "tags": {
        "amenity": "place_of_worship",
        "name": "Bethel Methodist Church",
        "religion": "christian",
        "wheelchair": "limited"
      }
    },
    {
      "type": "way",
      "id": 158467187,
      "center": {
        "lat": 13.0043232,
        "lon": 77.7124403
      },
      "tags": {
        "addr:housename": "Family Choice",
        "addr:postcode": "560036",
        "addr:street": "Kodigehalli Road",
        "name": "Family Choice",
        "shop": "convenience",
        "wheelchair": "limited"
      }
    },
    {
      "type": "way",
      "id": 158469559,
      "center": {
        "lat": 13.0043983,
        "lon": 77.7135469
      },
      "tags": {
        "brand": "Maruti Suzuki",
        "brand:wikidata": "Q963718",
        "building": "garage",
        "name": "Varun Motors",
        "name:kn": "ಮಹಿಂದ್ರ",
        "shop": "car"
      }
    },
    {
      "type": "way",
      "id": 350798423,
      "center": {
        "lat": 13.0020899,
        "lon": 77.7123234
      },
      "tags": {
        "addr:city": "bangalore",
        "addr:postcode": "560036",
        "addr:street": "Hoodi main road",
        "amenity": "community_centre",
        "building": "yes",
        "name": "Krishna Community Hall",
        "phone": "+91 89713 09953"
      }
    },
    {
      "type": "way",
      "id": 977855818,
      "center": {
        "lat": 13.0079886,
        "lon": 77.7194817
      },
      "tags": {
        "amenity": "kindergarten",
        "name": "Bethany Toddlers Town"
      }
    },
    {
      "type": "way",
      "id": 977873838,
      "center": {
        "lat": 13.0040836,
        "lon": 77.7183586
      },
      "tags": {
        "leisure": "pitch"
      }
    },
    {
      "type": "way",
      "id": 1117547887,
      "center": {
        "lat": 13.0056788,
        "lon": 77.7215262
      },
      "tags": {
        "access": "private",
        "leisure": "swimming_pool",
        "location": "indoor",
        "name": "SHOA Swimming Pool"
      }
    },
    {
      "type": "way",
      "id": 1123146976,
      "center": {
        "lat": 13.0003473,
        "lon": 77.7166887
      },
      "tags": {
        "leisure": "park",
        "name": "Hoodi Lake Park",
        "name:kn": "ಹೂಡಿ ಕೆರೆ ಉದ್ಯಾನ"
      }
    },
    {
      "type": "way",
      "id": 1251508618,
      "center": {
        "lat": 13.013204,
        "lon": 77.716054
      },
      "tags": {
        "amenity": "place_of_worship",
        "name": "Our Lady of Lourdes",
        "religion": "christian"
      }
    },
    {
      "type": "way",
      "id": 1272642962,
      "center": {
        "lat": 12.9996507,
        "lon": 77.7265702
      },
      "tags": {
        "access": "private",
        "leisure": "swimming_pool",
        "location": "outdoor"
      }
    },
    {
      "type": "way",
      "id": 1272642965,
      "center": {
        "lat": 12.9996139,
        "lon": 77.7240666
      },
      "tags": {
        "access": "private",
        "leisure": "swimming_pool",
        "location": "outdoor"
      }
    },
    {
      "type": "way",
      "id": 1329529352,
      "center": {
        "lat": 13.0064031,
        "lon": 77.722944
      },
      "tags": {
        "access": "private",
        "leisure": "swimming_pool"
      }
    },
    {
      "type": "way",
      "id": 1329529354,
      "center": {
        "lat": 13.0081394,
        "lon": 77.7186957
      },
      "tags": {
        "leisure": "pitch",
        "sport": "basketball"
      }
    },
    {
      "type": "way",
      "id": 1329529355,
      "center": {
        "lat": 13.0083658,
        "lon": 77.718734
      },
      "tags": {
        "leisure": "pitch",
        "sport": "tennis"
      }
    },
    {
      "type": "way",
      "id": 1329529356,
      "center": {
        "lat": 13.0081867,
        "lon": 77.7189051
      },
      "tags": {
        "access": "private",
        "leisure": "swimming_pool"
      }
    },
    {
      "type": "way",
      "id": 1429161298,
      "center": {
        "lat": 13.0090149,
        "lon": 77.7183776
      },
      "tags": {
        "amenity": "school",
        "name": "Mar Thoma School"
      }
    },
    {
      "type": "way",
      "id": 1429161313,
      "center": {
        "lat": 13.0096578,
        "lon": 77.7151675
      },
      "tags": {
        "amenity": "college",
        "name": "SEA College"
      }
    },
    {
      "type": "way",
      "id": 1432363480,
      "center": {
        "lat": 13.0073162,
        "lon": 77.7292102
      },
      "tags": {
        "amenity": "school"
      }
    },
    {
      "type": "way",
      "id": 1455401207,
      "center": {
        "lat": 13.0002717,
        "lon": 77.7277096
      },
      "tags": {
        "leisure": "park"
      }
    }
  ]
}