{
  "area_name": "Ambalipura",
  "osm_id": 6017945714,
  "osm_type": "node",
  "place_type": "neighbourhood",
  "amenity_count": 351,
  "amenities": [
    {
      "type": "node",
      "id": 267212843,
      "lat": 12.9185253,
      "lon": 77.6704998,
      "tags": {
        "amenity": "bank",
        "atm": "yes",
        "brand": "HDFC Bank",
        "brand:wikidata": "Q631047",
        "brand:wikipedia": "en:HDFC Bank",
        "drive_through": "no",
        "level": "0",
        "name": "HDFC Bank",
        "name:kn": "ಎಚ್ ಡಿ ಎಫ್ ಸಿ",
        "short_name": "HDFC",
        "website": "https://www.hdfcbank.com"
      }
    },
    {
      "type": "node",
      "id": 590701867,
      "lat": 12.9231948,
      "lon": 77.6677477,
      "tags": {
        "amenity": "car_wash",
        "name": "Car Wash"
      }
    },
    {
      "type": "node",
      "id": 590753375,
      "lat": 12.9250029,
      "lon": 77.664274,
      "tags": {
        "shop": "supermarket"
      }
    },
    {
      "type": "node",
      "id": 590753378,
      "lat": 12.9248306,
      "lon": 77.6642849,
      "tags": {
        "amenity": "pharmacy",
        "name": "Sri Manjunath Medical & General stores"
      }
    },
    {
      "type": "node",
      "id": 650398934,
      "lat": 12.9186665,
      "lon": 77.6708407,
      "tags": {
        "name": "Families Hypermarket",
        "shop": "supermarket"
      }
    },
    {
      "type": "node",
      "id": 1067307517,
      "lat": 12.9192711,
      "lon": 77.6684296,
      "tags": {
        "addr:street": "Sarjapur Road",
        "amenity": "pharmacy",
        "healthcare": "pharmacy"
      }
    },
    {
      "type": "node",
      "id": 1338091641,
      "lat": 12.9241258,
      "lon": 77.671756,
      "tags": {
        "amenity": "bank",
        "atm": "yes",
        "brand": "ICICI Bank",
        "brand:wikidata": "Q1653258",
        "drive_through": "no",
        "name": "ICICI Bank",
        "name:en": "ICICI Bank",
        "name:kn": "ಐಸಿಐಸಿಐ ಬ್ಯಾಂಕು",
        "short_name": "ICICI",
        "website": "https://www.icicibank.com"
      }
    },
    {
      "type": "node",
      "id": 1691795019,
      "lat": 12.9254591,
      "lon": 77.6698872,
      "tags": {
        "name": "Fresco",
        "shop": "supermarket",
        "toilets:wheelchair": "yes"
      }
    },
    {
      "type": "node",
      "id": 1691969733,
      "lat": 12.9224463,
      "lon": 77.6682635,
      "tags": {
        "designation": "Liquor boutique",
        "level": "1",
        "name": "Madhuloka",
        "name:kn": "ಮಧುಲೋಕ",
        "payment:credit_cards": "yes",
        "payment:debit_cards": "yes",
        "shop": "alcohol",
        "source": "survey",
        "wheelchair": "no"
      }
    },
    {
      "type": "node",
      "id": 1694109575,
      "lat": 12.9220492,
      "lon": 77.6616273,
      "tags": {
        "amenity": "place_of_worship",
        "name": "Anjaneya Temple",
        "name:kn": "ಆಂಜನೇಯ ದೇವಸ್ಥಾನ",
        "religion": "hindu"
      }
    },
    {
      "type": "node",
      "id": 1761886238,
      "lat": 12.9169154,
      "lon": 77.6729877,
      "tags": {
        "name": "Just Bake",
        "shop": "bakery"
      }
    },
    {
      "type": "node",
      "id": 1761888578,
      "lat": 12.9170174,
      "lon": 77.6723225,
      "tags": {
        "amenity": "kindergarten",
        "name": "Shristi Montessari"
      }
    },
    {
      "type": "node",
      "id": 2085451771,
      "lat": 12.9253052,
      "lon": 77.6698803,
      "tags": {
        "amenity": "restaurant",
        "cuisine": "indian",
        "name": "Posh Palates"
      }
    },
    {
      "type": "node",
      "id": 2447309356,
      "lat": 12.9170274,
      "lon": 77.6641924,
      "tags": {
        "leisure": "sports_centre"
      }
    },
    {
      "type": "node",
      "id": 2509415561,
      "lat": 12.9195943,
      "lon": 77.6670277,
      "tags": {
        "amenity": "pharmacy",
        "brand": "Apollo Pharmacy",
        "brand:wikidata": "Q62562612",
        "dispensing": "yes",
        "healthcare": "pharmacy",
        "name": "Apollo Pharmacy",
        "name:kn": "ಅಪೊಲೋ ಫಾರ್ಮಸಿ"
      }
    },
    {
      "type": "node",
      "id": 2623077569,
      "lat": 12.9228223,
      "lon": 77.6730622,
      "tags": {
        "name": "G-Mart now VILLAGE",
        "opening_hours": "Mo-Th,Sa 08:00-21:30",
        "shop": "supermarket"
      }
    },
    {
      "type": "node",
      "id": 2623332318,
      "lat": 12.9231571,
      "lon": 77.6728066,
      "tags": {
        "amenity": "hospital",
        "healthcare": "hospital",
        "name": "Narayana Hrudayalaya Dental Clinic",
        "name:kn": "ನಾರಾಯಣ ಹೃದಯಾಲಯ ದಂತ ಆಸ್ಪತ್ರೆ"
      }
    },
    {
      "type": "node",
      "id": 3022109714,
      "lat": 12.9232047,
      "lon": 77.6711807,
      "tags": {
        "amenity": "restaurant",
        "indoor_seating": "yes",
        "name": "Chowman",
        "outdoor_seating": "no"
      }
    },
    {
      "type": "node",
      "id": 3170077781,
      "lat": 12.9224971,
      "lon": 77.668466,
      "tags": {
        "air_conditioning": "yes",
        "amenity": "cafe",
        "brand": "Chai Point",
        "brand:wikidata": "Q28173415",
        "check_date": "2025-05-31",
        "cuisine": "coffee_shop",
        "diet:vegetarian": "yes",
        "indoor_seating": "yes",
        "level": "0",
        "name": "Chai Point",
        "outdoor_seating": "no",
        "payment:cash": "yes",
        "payment:mastercard": "yes",
        "payment:visa": "yes",
        "smoking": "no",
        "takeaway": "yes"
      }
    },
    {
      "type": "node",
      "id": 3170077787,
      "lat": 12.9224521,
      "lon": 77.6683425,
      "tags": {
        "amenity": "bank",
        "atm": "yes",
        "branch": "Bellandur",
        "brand": "Axis Bank",
        "brand:wikidata": "Q2003549",
        "brand:wikipedia": "en:Axis Bank",
        "check_date": "2025-01-31",
        "level": "0",
        "name": "Axis Bank",
        "operator": "Axis Bank",
        "operator:wikidata": "Q2003549",
        "operator:wikipedia": "en:Axis Bank"
      }
    },
    {
      "type": "node",
      "id": 3170084418,
      "lat": 12.9233585,
      "lon": 77.6696763,
      "tags": {
        "brand": "Naturals",
        "brand:wikidata": "Q125728261",
        "name": "Naturals",
        "shop": "beauty"
      }
    },
    {
      "type": "node",
      "id": 3170084419,
      "lat": 12.9231513,
      "lon": 77.6697399,
      "tags": {
        "brand": "cult.fit",
        "brand:wikidata": "Q121289250",
        "leisure": "fitness_centre",
        "name": "cult.fit",
        "sport": "fitness;yoga",
        "website": "https://www.cure.fit/"
      }
    },
    {
      "type": "node",
      "id": 3192677605,
      "lat": 12.9225149,
      "lon": 77.6683106,
      "tags": {
        "check_date": "2025-04-06",
        "name": "Lakme Salon",
        "operator": "Lakme",
        "shop": "beauty"
      }
    },
    {
      "type": "node",
      "id": 3192677613,
      "lat": 12.9224984,
      "lon": 77.6684069,
      "tags": {
        "leisure": "sports_centre",
        "level": "1",
        "name": "Fitness Republic"
      }
    },
    {
      "type": "node",
      "id": 3192692777,
      "lat": 12.9225541,
      "lon": 77.6685693,
      "tags": {
        "name": "Tilia",
        "phone": "+91809590160160",
        "shop": "florist",
        "website": "https://www.tilia.in/"
      }
    },
    {
      "type": "node",
      "id": 3245631791,
      "lat": 12.9241101,
      "lon": 77.671697,
      "tags": {
        "amenity": "restaurant",
        "check_date": "2025-04-06",
        "cuisine": "regional",
        "name": "Punjabi Times"
      }
    },
    {
      "type": "node",
      "id": 3245633759,
      "lat": 12.924063,
      "lon": 77.6716755,
      "tags": {
        "name": "Evok",
        "shop": "department_store"
      }
    },
    {
      "type": "node",
      "id": 3369494573,
      "lat": 12.9225179,
      "lon": 77.6697123,
      "tags": {
        "name": "Super Battery Center",
        "note": "Sales and service for car batteries",
        "shop": "car_parts"
      }
    },
    {
      "type": "node",
      "id": 3369498734,
      "lat": 12.9224937,
      "lon": 77.6696672,
      "tags": {
        "name": "Super Tyre Center",
        "note": "Repairs punctures and sells new tyres",
        "shop": "tyres",
        "wheelchair": "yes"
      }
    },
    {
      "type": "node",
      "id": 3477797066,
      "lat": 12.9242307,
      "lon": 77.6719912,
      "tags": {
        "highway": "street_lamp",
        "name": "Idea Device;Street Lamp",
        "shop": "mobile_phone",
        "working": "no"
      }
    },
    {
      "type": "node",
      "id": 3477878357,
      "lat": 12.9242503,
      "lon": 77.6720932,
      "tags": {
        "check_date": "2022-11-08",
        "name": "Ravindu Toyota",
        "shop": "car"
      }
    },
    {
      "type": "node",
      "id": 3760054035,
      "lat": 12.9184735,
      "lon": 77.670746,
      "tags": {
        "name": "Little Sparrows",
        "shop": "baby_goods"
      }
    },
    {
      "type": "node",
      "id": 3760054036,
      "lat": 12.9184623,
      "lon": 77.6708087,
      "tags": {
        "level": "1",
        "name": "Band Box",
        "shop": "dry_cleaning"
      }
    },
    {
      "type": "node",
      "id": 3760064976,
      "lat": 12.9184997,
      "lon": 77.670797,
      "tags": {
        "shop": "hardware"
      }
    },
    {
      "type": "node",
      "id": 3760065158,
      "lat": 12.9185551,
      "lon": 77.6704667,
      "tags": {
        "addr:city": "Bengaluru",
        "amenity": "restaurant",
        "cuisine": "chinese",
        "delivery": "yes",
        "level": "1",
        "name": "Beijing Bites",
        "name:kn": "ಬೀಜಿಂಗ್ ಬೈಟ್ಸ್",
        "opening_hours": "Mo-Su 12:00-15:45,19:00-23:00",
        "outdoor_seating": "yes",
        "phone": "080 40932488",
        "smoking": "no",
        "takeaway": "no",
        "website": "https://beijingbites.com"
      }
    },
    {
      "type": "node",
      "id": 3760065159,
      "lat": 12.9185368,
      "lon": 77.6705297,
      "tags": {
        "level": "1",
        "name": "Naturals",
        "shop": "beauty"
      }
    },
    {
      "type": "node",
      "id": 3760066224,
      "lat": 12.9187904,
      "lon": 77.6698156,
      "tags": {
        "amenity": "dentist",
        "healthcare": "dentist",
        "level": "2",
        "name": "Ittina Welness"
      }
    },
    {
      "type": "node",
      "id": 3760067974,
      "lat": 12.9185394,
      "lon": 77.6705565,
      "tags": {
        "amenity": "clinic",
        "healthcare": "clinic",
        "level": "2,3",
        "name": "Nurture IVF",
        "note": "Specialty Women's Clinic and Fertility Center"
      }
    },
    {
      "type": "node",
      "id": 3760075526,
      "lat": 12.9187446,
      "lon": 77.6700335,
      "tags": {
        "level": "3",
        "name": "Uber Unisex salon & Med spa",
        "shop": "beauty"
      }
    },
    {
      "type": "node",
      "id": 3760079228,
      "lat": 12.9187877,
      "lon": 77.6697673,
      "tags": {
        "level": "3",
        "name": "Cloud 9 unisex salon",
        "shop": "beauty"
      }
    },
    {
      "type": "node",
      "id": 4307479815,
      "lat": 12.9186967,
      "lon": 77.6686885,
      "tags": {
        "amenity": "taxi",
        "auto_rickshaw": "yes",
        "motorcar": "no",
        "name": "Auto StandOvernite Express"
      }
    },
    {
      "type": "node",
      "id": 4441681632,
      "lat": 12.9217604,
      "lon": 77.6618321,
      "tags": {
        "addr:city": "Bengaluru",
        "addr:postcode": "560103",
        "addr:street": "Service Rd, Agara, Iblur Village, Bellandur",
        "amenity": "hospital",
        "healthcare": "hospital",
        "name": "Kottakkal Arya Vaidya Sala",
        "phone": "+91-80 6450 4434",
        "website": "https://aryavaidyasala.com/"
      }
    },
    {
      "type": "node",
      "id": 4441692008,
      "lat": 12.9185476,
      "lon": 77.6708429,
      "tags": {
        "addr:city": "Bangalore",
        "addr:housenumber": "2nd Floor",
        "addr:postcode": "560035",
        "addr:street": "Chandra Mension, Bellandur, Sarjapur Main Road",
        "amenity": "clinic",
        "healthcare": "clinic",
        "name": "Sri Sai Dental & Medical Care",
        "phone": "+91-8041467774"
      }
    },
    {
      "type": "node",
      "id": 4441696317,
      "lat": 12.9188314,
      "lon": 77.6697997,
      "tags": {
        "addr:city": "Bangalore",
        "addr:housenumber": "No. 18/2A",
        "addr:postcode": "560102",
        "addr:street": "Ambalipura, Sarjapur Main Road",
        "amenity": "clinic",
        "healthcare": "clinic",
        "name": "Ittina Wellness Centre",
        "phone": "+91-80 4110 1898",
        "website": "https://www.ittinawellness.com/"
      }
    },
    {
      "type": "node",
      "id": 4441739099,
      "lat": 12.9142524,
      "lon": 77.6651948,
      "tags": {
        "addr:city": "Bangalore",
        "addr:housenumber": "309",
        "addr:postcode": "560068",
        "addr:street": "Mahaveer Cottage, Off Sarjapur Road",
        "amenity": "clinic",
        "healthcare": "clinic",
        "name": "Dr. Arpita Agarwal Clinic",
        "phone": "+91-080 6741 7785"
      }
    },
    {
      "type": "node",
      "id": 4441796157,
      "lat": 12.919686,
      "lon": 77.6670282,
      "tags": {
        "addr:city": "Bengaluru",
        "addr:housenumber": "No. 5, 1st Floor,",
        "addr:postcode": "560103",
        "addr:street": "Bellandur Gate, Sarjapura Road",
        "amenity": "dentist",
        "healthcare": "dentist",
        "name": "32Smiles Multispecialty Dental clinic",
        "phone": "+91-93434 33222",
        "website": "https://www.32smilesdentalclinics.com/"
      }
    },
    {
      "type": "node",
      "id": 4441825260,
      "lat": 12.9192616,
      "lon": 77.668534,
      "tags": {
        "addr:city": "Bangalore",
        "addr:housenumber": "955",
        "addr:postcode": "560102",
        "addr:street": "Ambalipura, Sarjapura Road",
        "amenity": "dentist",
        "healthcare": "dentist",
        "name": "Aditi Dental Care",
        "phone": "+91-96119 80263",
        "website": "http://www.aditidentalcare.com/"
      }
    },
    {
      "type": "node",
      "id": 4442577373,
      "lat": 12.9140773,
      "lon": 77.6668361,
      "tags": {
        "addr:city": "Bangalore",
        "addr:housenumber": "Shub Enclave, 47",
        "addr:postcode": "560103",
        "addr:street": "Haralur Rd, Ambalipura",
        "amenity": "clinic",
        "healthcare": "clinic",
        "name": "Mahaveer Orthopeadic Clinic",
        "phone": "+91-80 3221 8709",
        "website": "http://www.mahaveerorthopodiatryclinic.com/"
      }
    },
    {
      "type": "node",
      "id": 4442597478,
      "lat": 12.9220379,
      "lon": 77.6720713,
      "tags": {
        "addr:city": "Bangalore",
        "addr:housenumber": "17/1",
        "addr:postcode": "560102",
        "addr:street": "ARB Complex, Ambalipura, Bellandur Gate, Bellandur Main Road Off Sarjapur Main Road",
        "amenity": "clinic",
        "name": "SK Eye and Skin Clinic",
        "phone": "+91-80 4121 4683",
        "website": "www.skeyeskin.com"
      }
    },
    {
      "type": "node",
      "id": 4442628971,
      "lat": 12.9164549,
      "lon": 77.6732085,
      "tags": {
        "addr:city": "Bangalore",
        "addr:housenumber": "14",
        "addr:postcode": "560034",
        "addr:street": "Kaikondrahalli, Sarjapur Road",
        "amenity": "clinic",
        "name": "Addresshealth Child Health Clinic",
        "phone": "+91-8066815572",
        "website": "https://www.addresshealth.com/"
      }
    },
    {
      "type": "node",
      "id": 4445064651,
      "lat": 12.9220013,
      "lon": 77.6647833,
      "tags": {
        "addr:city": "Bengaluru",
        "addr:postcode": "560103",
        "addr:street": "Next to Sobha Garnet Road, Drapes View, Sarjapur Main Rd, Iblur Village, Bellandur",
        "name": "Manarch",
        "shop": "clothes"
      }
    },
    {
      "type": "node",
      "id": 4445069668,
      "lat": 12.9228426,
      "lon": 77.6640706,
      "tags": {
        "addr:city": "Bengaluru",
        "addr:postcode": "560102",
        "addr:street": "Sarjapur Main Rd, Iblur Village, Bellandur",
        "name": "Manjunath Store",
        "opening_hours": "09:00-18:00",
        "shop": "doityourself"
      }
    },
    {
      "type": "node",
      "id": 4445167354,
      "lat": 12.9179831,
      "lon": 77.6691258,
      "tags": {
        "addr:city": "Bangalore",
        "addr:postcode": "560034",
        "addr:street": "Sarjapur Main Rd, Bellandur",
        "amenity": "hospital",
        "healthcare": "hospital",
        "name": "Dr Rachna - Homeopathy",
        "phone": "+9195909 10963"
      }
    },
    {
      "type": "node",
      "id": 4445317622,
      "lat": 12.9232041,
      "lon": 77.663273,
      "tags": {
        "addr:city": "Bengaluru",
        "addr:postcode": "560102",
        "addr:street": "Sarjapur Main Rd, Iblur Village, Bellandur",
        "name": "Jugal Provision Store",
        "opening_hours": "07:00-22:00",
        "shop": "doityourself"
      }
    },
    {
      "type": "node",
      "id": 4445331469,
      "lat": 12.9215278,
      "lon": 77.6629091,
      "tags": {
        "addr:city": "Bengaluru",
        "addr:housenumber": "#40/2",
        "addr:postcode": "560034",
        "addr:street": "sarjapura main road, ibbalur",
        "name": "Quba Furniture And Interiors",
        "opening_hours": "10:00-22:00",
        "phone": "+91 99654 82211",
        "shop": "furniture"
      }
    },
    {
      "type": "node",
      "id": 4445356402,
      "lat": 12.9217846,
      "lon": 77.6616311,
      "tags": {
        "addr:city": "Bengaluru",
        "addr:postcode": "560102",
        "addr:street": "IBBLUR SAMUDAYA BAVANA, HSR Layout",
        "amenity": "police",
        "check_date": "2024-09-18",
        "name": "Bellanduru Traffic Police Station",
        "polling_station": "no",
        "source": "survey"
      }
    },
    {
      "type": "node",
      "id": 4445373073,
      "lat": 12.9219138,
      "lon": 77.6617062,
      "tags": {
        "addr:housenumber": "30",
        "addr:street": "Survey No.41, 1st Floor, 2nd Main, Iblur, Marathahalli-Sarjapur Outer Ring Road, HSR Layout, Next to HSR Police station, Sarjapur Main Road, Iblur-Sarjapur Road",
        "amenity": "bank",
        "name": "Can Fin Homes Limited",
        "phone": "080 2574 0089",
        "website": "canfinhomes.com"
      }
    },
    {
      "type": "node",
      "id": 4445382138,
      "lat": 12.9218275,
      "lon": 77.6617929,
      "tags": {
        "addr:city": "Bengaluru",
        "addr:postcode": "560103",
        "addr:street": "Service Rd, Iblur Village, Bellandur",
        "amenity": "place_of_worship",
        "name": "Elshaddai Prayer Hall",
        "phone": "+91 99803 24159",
        "religion": "christian"
      }
    },
    {
      "type": "node",
      "id": 4445391644,
      "lat": 12.9219607,
      "lon": 77.6627414,
      "tags": {
        "addr:city": "Bengaluru",
        "addr:postcode": "560103",
        "addr:street": "Agra, Service Rd, Iblur Village, Bellandur",
        "name": "Thoyyab Noorani Chicken And Mutton Shop",
        "phone": "+91 95909 47944",
        "shop": "butcher"
      }
    },
    {
      "type": "node",
      "id": 4445395246,
      "lat": 12.9220583,
      "lon": 77.6627522,
      "tags": {
        "addr:city": "Bengaluru",
        "addr:postcode": "560103",
        "addr:street": "Agra, Service Rd, Iblur Village, Bellandur",
        "name": "Soubagya Bakery",
        "shop": "bakery"
      }
    },
    {
      "type": "node",
      "id": 4445398750,
      "lat": 12.9221364,
      "lon": 77.6627275,
      "tags": {
        "addr:city": "Bengaluru",
        "addr:postcode": "560103",
        "addr:street": "Agra, Service Rd, Iblur Village, Bellandur",
        "name": "Aishwarya Departmental Store",
        "shop": "department_store"
      }
    },
    {
      "type": "node",
      "id": 4445406178,
      "lat": 12.9225373,
      "lon": 77.6626166,
      "tags": {
        "addr:city": "Bengaluru",
        "addr:postcode": "560103",
        "addr:street": "Iblur Village, Bellandur",
        "amenity": "place_of_worship",
        "name": "Good shepherd Assembly Church",
        "phone": "+91 98809 65989",
        "religion": "christian"
      }
    },
    {
      "type": "node",
      "id": 4445416932,
      "lat": 12.9223869,
      "lon": 77.6628083,
      "tags": {
        "addr:city": "Bengaluru",
        "addr:postcode": "560103",
        "addr:street": "Agara, Service Rd, Iblur Village, Bellandur",
        "name": "K.M.Mobile And Footwear",
        "opening_hours": "09:00-22:00",
        "shop": "mobile_phone"
      }
    },
    {
      "type": "node",
      "id": 4446988537,
      "lat": 12.9220988,
      "lon": 77.6636844,
      "tags": {
        "addr:city": "Bengaluru",
        "addr:housenumber": "39/8",
        "addr:postcode": "560102",
        "addr:street": "Near Sai Vidya Mandir, Srajapur Ring Road, Agara Post, Sarjapur Main Rd, Iblur",
        "name": "Shree Vinayaka Clearing Agency",
        "phone": "080 6534 7516",
        "shop": "dry_cleaning"
      }
    },
    {
      "type": "node",
      "id": 4446990610,
      "lat": 12.9217659,
      "lon": 77.663626,
      "tags": {
        "addr:city": "Bengaluru",
        "addr:postcode": "560102",
        "addr:street": "5th Main, Agara Post, Sarjapur Main Rd, Ibbaluru, Iblur Village, Bellandur",
        "name": "Sri Venkateswara Provisions Store",
        "phone": "+91 98805 83577",
        "shop": "department_store"
      }
    },
    {
      "type": "node",
      "id": 4447005712,
      "lat": 12.9215945,
      "lon": 77.6635241,
      "tags": {
        "addr:housenumber": "39/4",
        "addr:street": "Opp. Durga Residency, 5th Main Road,Ibblur village",
        "name": "Spring Onion Fashion India Private Limited",
        "phone": "080 2572 7041",
        "shop": "bag",
        "website": "www.springonionfashion.co"
      }
    },
    {
      "type": "node",
      "id": 4447006477,
      "lat": 12.9215701,
      "lon": 77.6633011,
      "tags": {
        "addr:city": "Bengaluru",
        "addr:housenumber": "3",
        "addr:postcode": "560102",
        "addr:street": "Agara Post, Sarjapur Main Rd, Iblur Village, Bellandur",
        "amenity": "school",
        "name": "High School",
        "operator": "Government Higher Primary School"
      }
    },
    {
      "type": "node",
      "id": 4447007624,
      "lat": 12.9212259,
      "lon": 77.66369,
      "tags": {
        "addr:city": "Bengaluru",
        "addr:housenumber": "39/14",
        "addr:postcode": "560103",
        "addr:street": "Sarjapur Main Rd, Iblur Village, Bellandur",
        "brand": "KTM",
        "brand:wikidata": "Q215657",
        "name": "UM Motorcycles",
        "opening_hours": "10:00-17:30",
        "phone": "+91 95919 31321",
        "shop": "motorcycle"
      }
    },
    {
      "type": "node",
      "id": 4447010309,
      "lat": 12.9218925,
      "lon": 77.6628632,
      "tags": {
        "addr:city": "Bengaluru",
        "addr:postcode": "560102",
        "addr:street": "Sarjapur Main Rd, Iblur Village, Bellandur,",
        "name": "Lavanya Flour Mill",
        "opening_hours": "07:00-19:00",
        "phone": "+91 90087 22225",
        "shop": "yes"
      }
    },
    {
      "type": "node",
      "id": 4448806479,
      "lat": 12.9216216,
      "lon": 77.6638046,
      "tags": {
        "addr:city": "Bengaluru",
        "addr:housenumber": "39/13",
        "addr:postcode": "560034",
        "addr:street": "5th Main Road",
        "amenity": "restaurant",
        "cuisine": "regional",
        "delivery": "yes",
        "name": "Ira Residency",
        "opening_hours": "Mo-Su 07:00-23:00",
        "phone": "080 2572 7656",
        "smoking": "no",
        "takeaway": "yes"
      }
    },
    {
      "type": "node",
      "id": 4470676091,
      "lat": 12.910423,
      "lon": 77.6703983,
      "tags": {
        "leisure": "garden",
        "name": "Kaikondrahalli Butterfly Garden",
        "name:en": "Kaikondrahalli Butterfly Garden"
      }
    },
    {
      "type": "node",
      "id": 4470703091,
      "lat": 12.911639,
      "lon": 77.669657,
      "tags": {
        "amenity": "theatre",
        "name": "Amphitheatre",
        "name:en": "Amphitheatre"
      }
    },
    {
      "type": "node",
      "id": 4470703092,
      "lat": 12.9118035,
      "lon": 77.6698033,
      "tags": {
        "amenity": "toilets"
      }
    },
    {
      "type": "node",
      "id": 4487192697,
      "lat": 12.9184459,
      "lon": 77.67082,
      "tags": {
        "addr:city": "Bangalore",
        "addr:housenumber": "Shop No.#64, #351",
        "addr:postcode": "560035",
        "addr:street": "Sarjapur Road",
        "name": "Sports Planet",
        "phone": "099004 54672",
        "shop": "sports"
      }
    },
    {
      "type": "node",
      "id": 4488020513,
      "lat": 12.9188287,
      "lon": 77.6703171,
      "tags": {
        "addr:city": "Bangalore",
        "addr:housenumber": "No.629,18/2 A",
        "addr:postcode": "560034",
        "addr:street": "Sarjapur Road",
        "name": "Uber Med Spa And Style Lounge",
        "opening_hours": "10:00-20:30",
        "phone": "+919900941003",
        "shop": "massage",
        "website": "www.uber.co.in"
      }
    },
    {
      "type": "node",
      "id": 4488023193,
      "lat": 12.9189071,
      "lon": 77.6699805,
      "tags": {
        "addr:city": "Bangalore",
        "addr:housenumber": "No.629",
        "addr:postcode": "560034",
        "addr:street": "Sarjapur Road",
        "name": "Cloud Nine Beauty Salon",
        "opening_hours": "08:00-21:00",
        "phone": "+919901111264",
        "shop": "beauty"
      }
    },
    {
      "type": "node",
      "id": 4489728550,
      "lat": 12.9225142,
      "lon": 77.6683721,
      "tags": {
        "addr:city": "Bangalore",
        "addr:postcode": "560034",
        "addr:street": "Outer Ring Road",
        "name": "Jawed Habib Hair And Beauty Parlour",
        "opening_hours": "10:00-20:00",
        "phone": "080-33724205",
        "shop": "beauty"
      }
    },
    {
      "type": "node",
      "id": 4489910335,
      "lat": 12.9228336,
      "lon": 77.6731286,
      "tags": {
        "addr:city": "Bangalore",
        "addr:housenumber": "Kothandaraman Complex",
        "addr:postcode": "560103",
        "addr:street": "Bellandur Main Road, Bellandur,",
        "name": "Style in 7 Wella",
        "opening_hours": "09:00-21:00",
        "phone": "9148100961",
        "shop": "beauty"
      }
    },
    {
      "type": "node",
      "id": 4537379589,
      "lat": 12.9143525,
      "lon": 77.6636886,
      "tags": {
        "amenity": "atm"
      }
    },
    {
      "type": "node",
      "id": 5409624225,
      "lat": 12.9233912,
      "lon": 77.6700871,
      "tags": {
        "amenity": "atm",
        "brand": "Andhra Bank",
        "brand:wikidata": "Q2003476",
        "operator": "Andhra Bank",
        "operator:wikidata": "Q2003476"
      }
    },
    {
      "type": "node",
      "id": 5778535535,
      "lat": 12.9200913,
      "lon": 77.6670747,
      "tags": {
        "name": "Louise Philip",
        "opening_hours": "Mo-Su 10:30-21:00",
        "phone": "080 88933969",
        "shop": "clothes",
        "website": "https://fabindia.com"
      }
    },
    {
      "type": "node",
      "id": 5778554420,
      "lat": 12.9192299,
      "lon": 77.6686508,
      "tags": {
        "amenity": "post_office",
        "brand": "Desk to Desk Courier & Cargo",
        "brand:short": "DTDC",
        "brand:wikidata": "Q55608802",
        "level": "-1",
        "name": "DTDC",
        "opening_hours": "Mo-Fr 09:00-20:00",
        "operator": "Desk to Desk Courier & Cargo",
        "operator:short": "DTDC",
        "operator:wikidata": "Q55608802",
        "website": "https://dtdc.com"
      }
    },
    {
      "type": "node",
      "id": 5803999911,
      "lat": 12.918758,
      "lon": 77.6699518,
      "tags": {
        "amenity": "bank",
        "atm": "yes",
        "brand": "State Bank of India",
        "brand:wikidata": "Q1340361",
        "brand:wikipedia": "en:State Bank of India",
        "drive_through": "no",
        "name": "State Bank of India",
        "name:kn": "ಭಾರತೀಯ ಸ್ಟೇಟ್ ಬ್ಯಾಂಕ್",
        "opening_hours": "Mo-Sa 10:00-16:00",
        "short_name": "SBI"
      }
    },
    {
      "type": "node",
      "id": 5807148430,
      "lat": 12.9187238,
      "lon": 77.6701231,
      "tags": {
        "brand": "Simpli Namdhari's",
        "diet:vegetarian": "only",
        "name": "Simpli Namdhari's",
        "organic": "only",
        "shop": "supermarket",
        "website": "https://www.simplinamdharis.com/"
      }
    },
    {
      "type": "node",
      "id": 5807148431,
      "lat": 12.9187002,
      "lon": 77.6701646,
      "tags": {
        "amenity": "cafe",
        "brand": "Cafe Coffee Day",
        "brand:wikidata": "Q5017235",
        "brand:wikipedia": "en:Café Coffee Day",
        "cuisine": "coffee_shop",
        "name": "Cafe Coffee Day",
        "name:kn": "ಕಫೆ ಕಾಫಿ ಡೇ",
        "takeaway": "yes"
      }
    },
    {
      "type": "node",
      "id": 5960908739,
      "lat": 12.9167208,
      "lon": 77.6732764,
      "tags": {
        "amenity": "restaurant",
        "name": "Purani Dilli",
        "wheelchair": "no"
      }
    },
    {
      "type": "node",
      "id": 5960908740,
      "lat": 12.9166598,
      "lon": 77.6733314,
      "tags": {
        "amenity": "restaurant",
        "cuisine": "North_Indian",
        "diet:vegetarian": "yes",
        "name": "Nayi Dilli",
        "wheelchair": "no"
      }
    },
    {
      "type": "node",
      "id": 5961355534,
      "lat": 12.9180423,
      "lon": 77.6715538,
      "tags": {
        "name": "Aiswarya Bakery and Sweets",
        "shop": "bakery"
      }
    },
    {
      "type": "node",
      "id": 6076100927,
      "lat": 12.921855,
      "lon": 77.6719953,
      "tags": {
        "amenity": "cafe",
        "name:en": "Udupi Saviruchi"
      }
    },
    {
      "type": "node",
      "id": 6076101984,
      "lat": 12.921609,
      "lon": 77.6719359,
      "tags": {
        "amenity": "bank"
      }
    },
    {
      "type": "node",
      "id": 6204931244,
      "lat": 12.9186447,
      "lon": 77.6707111,
      "tags": {
        "amenity": "restaurant",
        "name": "Moritz"
      }
    },
    {
      "type": "node",
      "id": 6349331870,
      "lat": 12.921317,
      "lon": 77.6634399,
      "tags": {
        "amenity": "school",
        "isced:level": "2",
        "name": "GHPS Ibaloor",
        "name:kn": "ಸರ್ಕಾರಿ ಹಿರಿಯ ಪ್ರಾಥಮಿಕ ಶಾಲೆ ಇಬಲೂರು",
        "operator": "Department of Education",
        "operator:type": "government",
        "school": "primary"
      }
    },
    {
      "type": "node",
      "id": 7074451473,
      "lat": 12.9201051,
      "lon": 77.6668315,
      "tags": {
        "addr:city": "Bengaluru",
        "addr:housenumber": "Shop No. 4/3/1",
        "addr:postcode": "560102",
        "addr:street": "Opp Trinity Acres and Woods, Sarjapur Main Rd, Bellandur",
        "name": "Cycle World",
        "opening_hours": "Mo-Su 10:00-21:00",
        "operator": "Cycle World",
        "payment:cash": "yes",
        "payment:mastercard": "yes",
        "payment:visa_debit": "yes",
        "shop": "bicycle"
      }
    },
    {
      "type": "node",
      "id": 7276566924,
      "lat": 12.9193144,
      "lon": 77.6651081,
      "tags": {
        "amenity": "restaurant",
        "cuisine": "asian",
        "name": "Asia Alive"
      }
    },
    {
      "type": "node",
      "id": 7298370324,
      "lat": 12.9107812,
      "lon": 77.6635605,
      "tags": {
        "amenity": "clinic",
        "healthcare": "clinic",
        "name": "Aria Clinic"
      }
    },
    {
      "type": "node",
      "id": 7298370325,
      "lat": 12.9106949,
      "lon": 77.6634425,
      "tags": {
        "amenity": "pharmacy",
        "healthcare": "pharmacy",
        "name": "Aria Pharma"
      }
    },
    {
      "type": "node",
      "id": 7298370330,
      "lat": 12.913857,
      "lon": 77.6665123,
      "tags": {
        "amenity": "bank",
        "atm": "yes",
        "brand": "HDFC Bank",
        "brand:wikidata": "Q631047",
        "brand:wikipedia": "en:HDFC Bank",
        "name": "HDFC Bank",
        "name:kn": "ಎಚ್ ಡಿ ಎಫ್ ಸಿ",
        "short_name": "HDFC"
      }
    },
    {
      "type": "node",
      "id": 7298370331,
      "lat": 12.9137236,
      "lon": 77.6664546,
      "tags": {
        "amenity": "pub",
        "name": "Tap Out Pub"
      }
    },
    {
      "type": "node",
      "id": 7298370332,
      "lat": 12.9136635,
      "lon": 77.6663929,
      "tags": {
        "amenity": "bank",
        "atm": "yes",
        "brand": "Axis Bank",
        "brand:wikidata": "Q2003549",
        "brand:wikipedia": "en:Axis Bank",
        "name": "Axis Bank",
        "name:kn": "ಆಕ್ಸಿಸ್ ಬ್ಯಾಂಕ್",
        "operator": "Axis Bank"
      }
    },
    {
      "type": "node",
      "id": 7298370333,
      "lat": 12.9135524,
      "lon": 77.666354,
      "tags": {
        "amenity": "pharmacy",
        "brand": "Apollo Pharmacy",
        "brand:wikidata": "Q62562612",
        "healthcare": "pharmacy",
        "name": "Apollo Pharmacy",
        "name:kn": "ಅಪೋಲೋ ಫಾರ್ಮಸಿ"
      }
    },
    {
      "type": "node",
      "id": 7298370345,
      "lat": 12.9163079,
      "lon": 77.6680022,
      "tags": {
        "name": "Pluspoint Hypermarket",
        "shop": "supermarket"
      }
    },
    {
      "type": "node",
      "id": 9828595270,
      "lat": 12.9233117,
      "lon": 77.6697031,
      "tags": {
        "amenity": "restaurant",
        "cuisine": "arab",
        "name": "Zaatar"
      }
    },
    {
      "type": "node",
      "id": 9830902358,
      "lat": 12.9094795,
      "lon": 77.663988,
      "tags": {
        "name": "Kadence Xperience",
        "shop": "musical_instrument",
        "wheelchair": "no"
      }
    },
    {
      "type": "node",
      "id": 9830902367,
      "lat": 12.9131204,
      "lon": 77.6662403,
      "tags": {
        "amenity": "ice_cream",
        "brand": "Baskin-Robbins",
        "brand:wikidata": "Q584601",
        "cuisine": "ice_cream",
        "name": "Baskin-Robbins",
        "name:kn": "ಬಸ್ಕಿನ್ ರಾಬಿನ್ಸ್"
      }
    },
    {
      "type": "node",
      "id": 9830902368,
      "lat": 12.9130791,
      "lon": 77.6662145,
      "tags": {
        "amenity": "cafe",
        "brand": "Cafe Coffee Day",
        "brand:wikidata": "Q5017235",
        "cuisine": "coffee_shop",
        "name": "Cafe Coffee Day",
        "name:kn": "ಕಫೆ ಕಾಫಿ ಡೇ",
        "takeaway": "yes"
      }
    },
    {
      "type": "node",
      "id": 9830902373,
      "lat": 12.919159,
      "lon": 77.6688467,
      "tags": {
        "air_conditioning": "yes",
        "brand": "Reliance Digital",
        "brand:wikidata": "Q7311012",
        "check_date": "2025-02-12",
        "name": "Reliance Digital",
        "payment:cash": "yes",
        "payment:mastercard": "yes",
        "payment:visa": "yes",
        "second_hand": "no",
        "shop": "electronics",
        "source": "survey"
      }
    },
    {
      "type": "node",
      "id": 9830902374,
      "lat": 12.9192999,
      "lon": 77.6689075,
      "tags": {
        "brand": "Big Bazaar",
        "brand:wikidata": "Q3631008",
        "brand:wikipedia": "en:Big Bazaar",
        "name": "Big Bazaar",
        "name:kn": "ಬಿಗ್ ಬಜಾರ್",
        "opening_hours": "Mo-Su 10:00-20:00",
        "payment:cash": "yes",
        "payment:credit_cards": "yes",
        "payment:visa": "yes",
        "phone": "07795976949",
        "shop": "supermarket",
        "website": "https://bigbazaar.in"
      }
    },
    {
      "type": "node",
      "id": 9830902380,
      "lat": 12.920196,
      "lon": 77.6670676,
      "tags": {
        "amenity": "restaurant",
        "cuisine": "italian",
        "name": "Little Italy"
      }
    },
    {
      "type": "node",
      "id": 10130328215,
      "lat": 12.9221927,
      "lon": 77.6651955,
      "tags": {
        "name": "Country Grocer",
        "shop": "supermarket"
      }
    },
    {
      "type": "node",
      "id": 10130333822,
      "lat": 12.9225987,
      "lon": 77.6652891,
      "tags": {
        "name": "Star",
        "shop": "motorcycle_repair"
      }
    },
    {
      "type": "node",
      "id": 10142465410,
      "lat": 12.922875,
      "lon": 77.6741592,
      "tags": {
        "shop": "medical_supply"
      }
    },
    {
      "type": "node",
      "id": 10142465412,
      "lat": 12.922875,
      "lon": 77.6742457,
      "tags": {
        "shop": "yes"
      }
    },
    {
      "type": "node",
      "id": 10174066560,
      "lat": 12.9177658,
      "lon": 77.6709564,
      "tags": {
        "name": "Fab India Experience Centre",
        "shop": "clothes"
      }
    },
    {
      "type": "node",
      "id": 10174066584,
      "lat": 12.9161745,
      "lon": 77.6730166,
      "tags": {
        "amenity": "restaurant",
        "cuisine": "continental;italian;mexican;asian;indian",
        "name": "Thyme & Whisk",
        "phone": "+91 97416 16018",
        "website": "https://www.thymeandwhisk.com"
      }
    },
    {
      "type": "node",
      "id": 10174066585,
      "lat": 12.9164974,
      "lon": 77.6679148,
      "tags": {
        "amenity": "cafe",
        "name": "Cafe Rite"
      }
    },
    {
      "type": "node",
      "id": 10174066602,
      "lat": 12.9139881,
      "lon": 77.6667861,
      "tags": {
        "amenity": "cafe",
        "name": "Chat House"
      }
    },
    {
      "type": "node",
      "id": 10174066603,
      "lat": 12.9139682,
      "lon": 77.6667895,
      "tags": {
        "amenity": "cafe",
        "indoor_seating": "yes",
        "name": "Frozen Bottle",
        "outdoor_seating": "no"
      }
    },
    {
      "type": "node",
      "id": 10174066604,
      "lat": 12.9134203,
      "lon": 77.6665425,
      "tags": {
        "amenity": "childcare",
        "check_date": "2025-02-09",
        "name": "Klay Daycare"
      }
    },
    {
      "type": "node",
      "id": 10174066605,
      "lat": 12.9131646,
      "lon": 77.6662853,
      "tags": {
        "amenity": "pharmacy",
        "dispensing": "yes",
        "healthcare": "pharmacy",
        "name": "Frank Ross"
      }
    },
    {
      "type": "node",
      "id": 10174066606,
      "lat": 12.9239689,
      "lon": 77.6714984,
      "tags": {
        "air_conditioning": "yes",
        "amenity": "cafe",
        "brand": "Starbucks",
        "brand:wikidata": "Q37158",
        "check_date": "2025-02-12",
        "cuisine": "coffee_shop",
        "diet:vegetarian": "yes",
        "indoor_seating": "yes",
        "name": "Starbucks",
        "official_name": "Starbucks Coffee",
        "outdoor_seating": "no",
        "payment:cash": "yes",
        "payment:mastercard": "yes",
        "payment:visa": "yes",
        "smoking": "no",
        "source": "survey",
        "takeaway": "yes"
      }
    },
    {
      "type": "node",
      "id": 10280801509,
      "lat": 12.9151916,
      "lon": 77.6660067,
      "tags": {
        "amenity": "nightclub",
        "name": "F Superclub"
      }
    },
    {
      "type": "node",
      "id": 10695273911,
      "lat": 12.9152962,
      "lon": 77.6657814,
      "tags": {
        "addr:city": "Bangalore",
        "addr:country": "IN",
        "addr:hamlet": "Ambalipura",
        "addr:postcode": "560102",
        "addr:street": "Haralur Road",
        "air_conditioning": "yes",
        "amenity": "restaurant",
        "delivery": "yes",
        "diet:vegetarian": "yes",
        "indoor_seating": "yes",
        "level": "0",
        "name": "Roxie",
        "outdoor_seating": "yes",
        "payment:credit_cards": "yes",
        "payment:debit_cards": "yes",
        "takeaway": "yes",
        "wheelchair": "yes"
      }
    },
    {
      "type": "node",
      "id": 10963251389,
      "lat": 12.9094156,
      "lon": 77.663997,
      "tags": {
        "addr:city": "Bengaluru",
        "addr:postcode": "560102",
        "addr:street": "HARLUR MAIN ROAD ,OPP.OZONE EVERGREEN SOCIETY GATE 1",
        "amenity": "hospital",
        "emergency": "yes",
        "healthcare": "hospital",
        "healthcare:speciality": "dentist",
        "name": "The Local Dentist",
        "operator": "DENTAL CLINIC",
        "operator:type": "business"
      }
    },
    {
      "type": "node",
      "id": 10994468205,
      "lat": 12.9244737,
      "lon": 77.6672543,
      "tags": {
        "access": "private",
        "amenity": "parking_entrance",
        "parking": "underground"
      }
    },
    {
      "type": "node",
      "id": 11003344430,
      "lat": 12.9244765,
      "lon": 77.6668659,
      "tags": {
        "amenity": "restaurant",
        "name": "Petromax Lights"
      }
    },
    {
      "type": "node",
      "id": 11016534522,
      "lat": 12.9096537,
      "lon": 77.6688047,
      "tags": {
        "access": "private",
        "amenity": "parking_entrance",
        "parking": "underground"
      }
    },
    {
      "type": "node",
      "id": 11034023532,
      "lat": 12.9213881,
      "lon": 77.6686263,
      "tags": {
        "amenity": "parking_entrance",
        "parking": "underground"
      }
    },
    {
      "type": "node",
      "id": 11034023534,
      "lat": 12.9217946,
      "lon": 77.6698299,
      "tags": {
        "amenity": "parking_entrance",
        "parking": "underground"
      }
    },
    {
      "type": "node",
      "id": 11234065362,
      "lat": 12.9240907,
      "lon": 77.6654555,
      "tags": {
        "amenity": "post_box",
        "operator": "India Post",
        "operator:wikidata": "Q3519720",
        "post_box:type": "lamp"
      }
    },
    {
      "type": "node",
      "id": 11234174826,
      "lat": 12.9258445,
      "lon": 77.66963,
      "tags": {
        "amenity": "cafe",
        "cuisine": "coffee_shop",
        "name": "Coffee Brewery"
      }
    },
    {
      "type": "node",
      "id": 11263815425,
      "lat": 12.9248383,
      "lon": 77.6674733,
      "tags": {
        "access": "private",
        "amenity": "parking_entrance",
        "parking": "underground"
      }
    },
    {
      "type": "node",
      "id": 11375080982,
      "lat": 12.919713,
      "lon": 77.6651993,
      "tags": {
        "access": "customers",
        "amenity": "parking_entrance",
        "parking": "underground"
      }
    },
    {
      "type": "node",
      "id": 11453105181,
      "lat": 12.9223751,
      "lon": 77.6682289,
      "tags": {
        "access": "customers",
        "amenity": "parking_entrance",
        "parking": "underground"
      }
    },
    {
      "type": "node",
      "id": 11524106713,
      "lat": 12.9239678,
      "lon": 77.6673392,
      "tags": {
        "access": "private",
        "amenity": "parking_entrance",
        "parking": "underground"
      }
    },
    {
      "type": "node",
      "id": 11524106718,
      "lat": 12.9231359,
      "lon": 77.6672743,
      "tags": {
        "amenity": "fast_food",
        "diet:vegetarian": "yes",
        "name": "Hot Chips"
      }
    },
    {
      "type": "node",
      "id": 11524214918,
      "lat": 12.9214606,
      "lon": 77.6707259,
      "tags": {
        "access": "private",
        "amenity": "parking_entrance",
        "parking": "underground"
      }
    },
    {
      "type": "node",
      "id": 11524214924,
      "lat": 12.9214989,
      "lon": 77.6703679,
      "tags": {
        "access": "private",
        "amenity": "parking_entrance",
        "parking": "underground"
      }
    },
    {
      "type": "node",
      "id": 11640105917,
      "lat": 12.9191136,
      "lon": 77.670829,
      "tags": {
        "amenity": "fast_food",
        "brand": "Subway",
        "brand:wikidata": "Q244457",
        "check_date": "2024-02-19",
        "cuisine": "sandwich",
        "diet:vegetarian": "yes",
        "drive_through": "no",
        "name": "Subway",
        "payment:cash": "yes",
        "payment:credit_cards": "yes",
        "payment:debit_cards": "yes",
        "takeaway": "yes",
        "wheelchair": "no"
      }
    },
    {
      "type": "node",
      "id": 11640105918,
      "lat": 12.9190676,
      "lon": 77.6709484,
      "tags": {
        "check_date": "2024-02-19",
        "name": "Wash Inn",
        "shop": "laundry"
      }
    },
    {
      "type": "node",
      "id": 11640105920,
      "lat": 12.9190532,
      "lon": 77.6709872,
      "tags": {
        "amenity": "restaurant",
        "check_date": "2024-02-19",
        "name": "Gongura Grand"
      }
    },
    {
      "type": "node",
      "id": 11640105921,
      "lat": 12.9190369,
      "lon": 77.6710233,
      "tags": {
        "check_date": "2024-02-19",
        "name": "The Eye Needs",
        "shop": "optician"
      }
    },
    {
      "type": "node",
      "id": 11640138816,
      "lat": 12.9199984,
      "lon": 77.6672173,
      "tags": {
        "check_date": "2024-02-19",
        "name": "Aishwarya Hypercity",
        "shop": "department_store"
      }
    },
    {
      "type": "node",
      "id": 11640900879,
      "lat": 12.918589,
      "lon": 77.6705844,
      "tags": {
        "level": "-1",
        "shop": "stationery"
      }
    },
    {
      "type": "node",
      "id": 11640900886,
      "lat": 12.9190996,
      "lon": 77.6711806,
      "tags": {
        "access": "private",
        "amenity": "parking_entrance",
        "parking": "underground"
      }
    },
    {
      "type": "node",
      "id": 11640900889,
      "lat": 12.9194969,
      "lon": 77.6713344,
      "tags": {
        "access": "private",
        "amenity": "parking_entrance",
        "parking": "underground"
      }
    },
    {
      "type": "node",
      "id": 11640900901,
      "lat": 12.9198758,
      "lon": 77.6721007,
      "tags": {
        "access": "private",
        "amenity": "parking_entrance",
        "parking": "underground"
      }
    },
    {
      "type": "node",
      "id": 11752296520,
      "lat": 12.9188259,
      "lon": 77.6701594,
      "tags": {
        "amenity": "restaurant",
        "check_date": "2024-03-22",
        "level": "1",
        "name": "Absolute Barbecues"
      }
    },
    {
      "type": "node",
      "id": 11835382817,
      "lat": 12.9217918,
      "lon": 77.6653251,
      "tags": {
        "amenity": "restaurant",
        "check_date": "2025-07-05",
        "name": "The Modak"
      }
    },
    {
      "type": "node",
      "id": 11897230619,
      "lat": 12.9259251,
      "lon": 77.6698885,
      "tags": {
        "amenity": "pharmacy",
        "healthcare": "pharmacy"
      }
    },
    {
      "type": "node",
      "id": 11897230622,
      "lat": 12.925163,
      "lon": 77.6692056,
      "tags": {
        "amenity": "parking_entrance",
        "parking": "underground"
      }
    },
    {
      "type": "node",
      "id": 11903122243,
      "lat": 12.9236999,
      "lon": 77.6725003,
      "tags": {
        "name": "The Eye Foundation",
        "shop": "optician"
      }
    },
    {
      "type": "node",
      "id": 11903122244,
      "lat": 12.9231919,
      "lon": 77.6712011,
      "tags": {
        "amenity": "restaurant",
        "indoor_seating": "yes",
        "name": "Susswadu",
        "outdoor_seating": "no"
      }
    },
    {
      "type": "node",
      "id": 11918002747,
      "lat": 12.9246269,
      "lon": 77.667107,
      "tags": {
        "amenity": "parking_entrance",
        "parking": "underground"
      }
    },
    {
      "type": "node",
      "id": 11962404393,
      "lat": 12.9191947,
      "lon": 77.6686389,
      "tags": {
        "amenity": "restaurant",
        "email": "customercare@shariefbhai.com",
        "name": "Sharief Bhai's",
        "phone": "+91 8095752222",
        "website": "https://www.shariefbhai.com/"
      }
    },
    {
      "type": "node",
      "id": 11962404394,
      "lat": 12.9187149,
      "lon": 77.6700787,
      "tags": {
        "amenity": "fast_food",
        "cuisine": "pizza",
        "name": "Nomad Pizza",
        "website": "https://nomadpizza.in/"
      }
    },
    {
      "type": "node",
      "id": 11962404401,
      "lat": 12.9198541,
      "lon": 77.6674956,
      "tags": {
        "amenity": "post_office",
        "brand": "Blue Dart Express",
        "brand:short": "Blue Dart",
        "brand:wikidata": "Q54621493",
        "operator": "Blue Dart Express",
        "operator:short": "Blue Dart",
        "operator:wikidata": "Q54621493"
      }
    },
    {
      "type": "node",
      "id": 11962404402,
      "lat": 12.9197456,
      "lon": 77.6674573,
      "tags": {
        "name": "Aquafine",
        "shop": "pet"
      }
    },
    {
      "type": "node",
      "id": 11962404403,
      "lat": 12.9197456,
      "lon": 77.6674893,
      "tags": {
        "amenity": "pharmacy",
        "healthcare": "pharmacy",
        "name": "Sundha Medicals"
      }
    },
    {
      "type": "node",
      "id": 11962404413,
      "lat": 12.9199338,
      "lon": 77.6673764,
      "tags": {
        "amenity": "parking_entrance",
        "parking": "underground"
      }
    },
    {
      "type": "node",
      "id": 12193831753,
      "lat": 12.9173696,
      "lon": 77.6686074,
      "tags": {
        "access": "private",
        "amenity": "parking_entrance",
        "parking": "underground"
      }
    },
    {
      "type": "node",
      "id": 12193831756,
      "lat": 12.9167221,
      "lon": 77.6682331,
      "tags": {
        "access": "private",
        "amenity": "parking_entrance",
        "parking": "underground"
      }
    },
    {
      "type": "node",
      "id": 12272790496,
      "lat": 12.9149466,
      "lon": 77.6662423,
      "tags": {
        "amenity": "driving_school",
        "name": "Maruti Suzuki Driving School"
      }
    },
    {
      "type": "node",
      "id": 12272838623,
      "lat": 12.9152207,
      "lon": 77.6650205,
      "tags": {
        "amenity": "restaurant",
        "name": "Shree Cafe"
      }
    },
    {
      "type": "node",
      "id": 12354206808,
      "lat": 12.9154997,
      "lon": 77.6675788,
      "tags": {
        "amenity": "bank",
        "atm": "yes",
        "brand": "ICICI Bank",
        "brand:wikidata": "Q1653258",
        "drive_through": "no",
        "name": "ICICI Bank",
        "operator": "ICICI Bank",
        "short_name": "ICICI",
        "wheelchair": "no"
      }
    },
    {
      "type": "node",
      "id": 12580943042,
      "lat": 12.9130823,
      "lon": 77.6653081,
      "tags": {
        "brand": "Shell",
        "brand:wikidata": "Q110716465",
        "check_date": "2025-02-12",
        "name": "Shell",
        "payment:cash": "yes",
        "payment:mastercard": "yes",
        "payment:visa": "yes",
        "shop": "convenience",
        "source": "survey"
      }
    },
    {
      "type": "node",
      "id": 12580943043,
      "lat": 12.9155506,
      "lon": 77.6674822,
      "tags": {
        "amenity": "atm",
        "brand": "ICICI Bank",
        "brand:wikidata": "Q1653258",
        "check_date": "2025-02-12",
        "name": "ICICI Bank",
        "opening_hours": "24/7",
        "operator": "ICICI Bank",
        "operator:wikidata": "Q1653258",
        "short_name": "ICICI",
        "source": "survey"
      }
    },
    {
      "type": "node",
      "id": 12580943044,
      "lat": 12.9215982,
      "lon": 77.6679952,
      "tags": {
        "brand": "Yamaha",
        "brand:wikidata": "Q158888",
        "check_date": "2025-02-12",
        "name": "Yamaha",
        "shop": "motorcycle",
        "source": "survey",
        "wheelchair": "yes"
      }
    },
    {
      "type": "node",
      "id": 12632042166,
      "lat": 12.9190948,
      "lon": 77.6650518,
      "tags": {
        "amenity": "bar",
        "name": "Tapeo Tapas Bar"
      }
    },
    {
      "type": "node",
      "id": 12652122169,
      "lat": 12.9250335,
      "lon": 77.6666247,
      "tags": {
        "amenity": "childcare",
        "name": "May Flower Montessori School"
      }
    },
    {
      "type": "node",
      "id": 12696023085,
      "lat": 12.9229568,
      "lon": 77.6706952,
      "tags": {
        "amenity": "post_box",
        "operator": "India Post",
        "operator:wikidata": "Q3519720"
      }
    },
    {
      "type": "node",
      "id": 12696023087,
      "lat": 12.925256,
      "lon": 77.6698302,
      "tags": {
        "amenity": "veterinary",
        "name": "Bangalore Pet Hospital"
      }
    },
    {
      "type": "node",
      "id": 12696023088,
      "lat": 12.9259207,
      "lon": 77.6698329,
      "tags": {
        "amenity": "fast_food",
        "cuisine": "juice",
        "name": "Sri Basaveshwara Sugar Cane"
      }
    },
    {
      "type": "node",
      "id": 12864358374,
      "lat": 12.9167115,
      "lon": 77.671146,
      "tags": {
        "amenity": "parking_entrance"
      }
    },
    {
      "type": "node",
      "id": 12864358376,
      "lat": 12.9167631,
      "lon": 77.6711846,
      "tags": {
        "amenity": "parking_entrance"
      }
    },
    {
      "type": "node",
      "id": 12864358384,
      "lat": 12.9165301,
      "lon": 77.6714059,
      "tags": {
        "amenity": "cafe",
        "name": "Zepto Cafe"
      }
    },
    {
      "type": "node",
      "id": 12979176590,
      "lat": 12.9218214,
      "lon": 77.6653489,
      "tags": {
        "addr:floor": "-1",
        "amenity": "pharmacy",
        "check_date": "2025-09-28",
        "healthcare": "pharmacy",
        "name": "Ramdev Medicals",
        "phone": "+91 77608 22426",
        "wheelchair": "no"
      }
    },
    {
      "type": "node",
      "id": 12979176591,
      "lat": 12.9219531,
      "lon": 77.665313,
      "tags": {
        "addr:floor": "G",
        "air_conditioning": "no",
        "amenity": "cafe",
        "bar": "no",
        "check_date": "2025-09-28",
        "cuisine": "indian",
        "internet_access": "no",
        "level": "0",
        "name": "Cafe Amudham",
        "opening_hours": "00:00-01:00,06:30-24:00",
        "outdoor_seating": "yes",
        "payment:cash": "yes",
        "wheelchair": "no"
      }
    },
    {
      "type": "node",
      "id": 12979176592,
      "lat": 12.9222235,
      "lon": 77.665221,
      "tags": {
        "amenity": "fast_food",
        "check_date": "2025-07-05",
        "cuisine": "pizza",
        "name": "Pizza Galleria"
      }
    },
    {
      "type": "node",
      "id": 12979176593,
      "lat": 12.9221549,
      "lon": 77.6652196,
      "tags": {
        "check_date": "2025-07-05",
        "leisure": "fitness_centre",
        "name": "Fitness Republic"
      }
    },
    {
      "type": "node",
      "id": 12979176594,
      "lat": 12.9223314,
      "lon": 77.6652505,
      "tags": {
        "check_date": "2025-07-05",
        "name": "A. M. Enterprises",
        "shop": "greengrocer"
      }
    },
    {
      "type": "node",
      "id": 13063788973,
      "lat": 12.923879,
      "lon": 77.6728478,
      "tags": {
        "amenity": "bank",
        "brand": "Yes Bank",
        "brand:wikidata": "Q2040394",
        "name": "Yes Bank"
      }
    },
    {
      "type": "node",
      "id": 13063807386,
      "lat": 12.9238621,
      "lon": 77.6727962,
      "tags": {
        "amenity": "bank",
        "brand": "HDFC Bank",
        "brand:wikidata": "Q631047",
        "name": "HDFC Bank",
        "short_name": "HDFC"
      }
    },
    {
      "type": "node",
      "id": 13063821198,
      "lat": 12.9212531,
      "lon": 77.6635382,
      "tags": {
        "brand": "Honda",
        "brand:wikidata": "Q9584",
        "name": "Ananda Honda",
        "shop": "motorcycle"
      }
    },
    {
      "type": "node",
      "id": 13063829460,
      "lat": 12.9212255,
      "lon": 77.6637104,
      "tags": {
        "brand": "Bajaj",
        "brand:wikidata": "Q10910065",
        "name": "Amba Bajaj",
        "shop": "motorcycle"
      }
    },
    {
      "type": "node",
      "id": 13063830115,
      "lat": 12.9210217,
      "lon": 77.6652526,
      "tags": {
        "amenity": "fast_food",
        "name": "Kolkata Daily Food Restaurant"
      }
    },
    {
      "type": "node",
      "id": 13123271288,
      "lat": 12.9181405,
      "lon": 77.6739124,
      "tags": {
        "access": "private",
        "amenity": "parking_entrance",
        "parking": "underground"
      }
    },
    {
      "type": "node",
      "id": 13123333490,
      "lat": 12.9182453,
      "lon": 77.6736986,
      "tags": {
        "access": "private",
        "amenity": "parking_entrance",
        "parking": "underground"
      }
    },
    {
      "type": "node",
      "id": 13123333500,
      "lat": 12.9184311,
      "lon": 77.6733027,
      "tags": {
        "access": "private",
        "amenity": "parking_entrance",
        "parking": "underground"
      }
    },
    {
      "type": "node",
      "id": 13123333506,
      "lat": 12.9175061,
      "lon": 77.6741949,
      "tags": {
        "access": "private",
        "amenity": "parking_entrance",
        "parking": "underground"
      }
    },
    {
      "type": "node",
      "id": 13123333553,
      "lat": 12.9172182,
      "lon": 77.6736389,
      "tags": {
        "access": "private",
        "amenity": "parking_entrance",
        "parking": "underground"
      }
    },
    {
      "type": "node",
      "id": 13123333624,
      "lat": 12.918094,
      "lon": 77.6726592,
      "tags": {
        "access": "private",
        "amenity": "parking_entrance",
        "parking": "underground"
      }
    },
    {
      "type": "node",
      "id": 13124675034,
      "lat": 12.9210987,
      "lon": 77.6747058,
      "tags": {
        "access": "private",
        "amenity": "parking_entrance",
        "parking": "underground"
      }
    },
    {
      "type": "node",
      "id": 13124675058,
      "lat": 12.9199497,
      "lon": 77.6745542,
      "tags": {
        "access": "private",
        "amenity": "parking_entrance",
        "parking": "underground"
      }
    },
    {
      "type": "node",
      "id": 13124692614,
      "lat": 12.921449,
      "lon": 77.6725499,
      "tags": {
        "access": "private",
        "amenity": "parking_entrance",
        "parking": "underground"
      }
    },
    {
      "type": "node",
      "id": 13140490786,
      "lat": 12.9261952,
      "lon": 77.6658377,
      "tags": {
        "access": "private",
        "amenity": "parking_entrance",
        "parking": "underground"
      }
    },
    {
      "type": "node",
      "id": 13140521459,
      "lat": 12.918102,
      "lon": 77.6647662,
      "tags": {
        "access": "private",
        "amenity": "parking_entrance",
        "parking": "underground"
      }
    },
    {
      "type": "node",
      "id": 13140521461,
      "lat": 12.9187118,
      "lon": 77.6646937,
      "tags": {
        "access": "private",
        "amenity": "parking_entrance",
        "parking": "underground"
      }
    },
    {
      "type": "node",
      "id": 13140521711,
      "lat": 12.9095288,
      "lon": 77.6674081,
      "tags": {
        "access": "private",
        "amenity": "parking_entrance",
        "parking": "underground"
      }
    },
    {
      "type": "node",
      "id": 13176223439,
      "lat": 12.922041,
      "lon": 77.6652891,
      "tags": {
        "check_date": "2025-09-28",
        "name": "Prakriti Dry Fruits",
        "shop": "nuts"
      }
    },
    {
      "type": "node",
      "id": 13176223440,
      "lat": 12.9219944,
      "lon": 77.6652012,
      "tags": {
        "addr:floor": "1",
        "air_conditioning": "yes",
        "check_date": "2025-09-28",
        "level": "1",
        "name": "Style Waves",
        "shop": "hairdresser",
        "wheelchair": "no"
      }
    },
    {
      "type": "node",
      "id": 13208841735,
      "lat": 12.9195863,
      "lon": 77.6683241,
      "tags": {
        "amenity": "fast_food",
        "brand": "Papa John's",
        "brand:wikidata": "Q2759586",
        "cuisine": "pizza",
        "name": "Papa John's",
        "takeaway": "yes"
      }
    },
    {
      "type": "node",
      "id": 13333548798,
      "lat": 12.9191977,
      "lon": 77.6655755,
      "tags": {
        "access": "private",
        "amenity": "parking_entrance"
      }
    },
    {
      "type": "way",
      "id": 24328482,
      "center": {
        "lat": 12.923496,
        "lon": 77.6650698
      },
      "tags": {
        "access": "private",
        "leisure": "playground",
        "name": "Kids play area"
      }
    },
    {
      "type": "way",
      "id": 24355353,
      "center": {
        "lat": 12.9118811,
        "lon": 77.6644062
      },
      "tags": {
        "amenity": "school",
        "name": "Kidzee Play School"
      }
    },
    {
      "type": "way",
      "id": 164569963,
      "center": {
        "lat": 12.9167064,
        "lon": 77.673015
      },
      "tags": {
        "amenity": "kindergarten",
        "building": "yes",
        "name": "Podar Happy Kids"
      }
    },
    {
      "type": "way",
      "id": 232431996,
      "center": {
        "lat": 12.9168126,
        "lon": 77.6738567
      },
      "tags": {
        "amenity": "fire_station",
        "name": "Sarjapura Road Firestation",
        "name:kn": "ಸರ್ಜಾಪುರ ರಸ್ತೆ ಫೈರ್ ಸ್ಟೇಷನ್",
        "operator": "Karnataka State Government"
      }
    },
    {
      "type": "way",
      "id": 235146832,
      "center": {
        "lat": 12.9165408,
        "lon": 77.6640913
      },
      "tags": {
        "leisure": "pitch",
        "sport": "tennis",
        "surface": "paved"
      }
    },
    {
      "type": "way",
      "id": 235147107,
      "center": {
        "lat": 12.9146584,
        "lon": 77.6637767
      },
      "tags": {
        "access": "private",
        "leisure": "park",
        "max_age": "90",
        "min_age": "1",
        "name": "Main Park",
        "playground:theme": "playground",
        "surface": "grass"
      }
    },
    {
      "type": "way",
      "id": 235147223,
      "center": {
        "lat": 12.9154985,
        "lon": 77.6645694
      },
      "tags": {
        "leisure": "swimming_pool",
        "name": "Red Woods Swimming Pool"
      }
    },
    {
      "type": "way",
      "id": 236826864,
      "center": {
        "lat": 12.9201762,
        "lon": 77.6666494
      },
      "tags": {
        "building": "yes",
        "name": "Drops Spirits",
        "shop": "alcohol"
      }
    },
    {
      "type": "way",
      "id": 310345243,
      "center": {
        "lat": 12.9242375,
        "lon": 77.6717151
      },
      "tags": {
        "amenity": "bank",
        "brand": "ICICI Bank",
        "brand:wikidata": "Q1653258",
        "building": "yes",
        "name": "ICICI Bank",
        "short_name": "ICICI"
      }
    },
    {
      "type": "way",
      "id": 319103169,
      "center": {
        "lat": 12.9147932,
        "lon": 77.6759559
      },
      "tags": {
        "amenity": "parking",
        "fee": "no",
        "parking": "surface",
        "supervised": "no",
        "surface": "ground"
      }
    },
    {
      "type": "way",
      "id": 348106825,
      "center": {
        "lat": 12.9238544,
        "lon": 77.6646945
      },
      "tags": {
        "addr:city": "Bengaluru",
        "addr:postcode": "560102",
        "amenity": "place_of_worship",
        "building": "temple",
        "name": "Iblur Sri Doddamma Temple",
        "name:kn": "ಇಬ್ಬಲೂರು ದೊಡ್ಡಮ್ಮ ದೇವಸ್ಥಾನ",
        "religion": "hindu"
      }
    },
    {
      "type": "way",
      "id": 348141083,
      "center": {
        "lat": 12.9259603,
        "lon": 77.6689027
      },
      "tags": {
        "leisure": "pitch"
      }
    },
    {
      "type": "way",
      "id": 367605327,
      "center": {
        "lat": 12.9248615,
        "lon": 77.6679243
      },
      "tags": {
        "access": "private",
        "leisure": "swimming_pool"
      }
    },
    {
      "type": "way",
      "id": 370381633,
      "center": {
        "lat": 12.9240535,
        "lon": 77.669038
      },
      "tags": {
        "access": "private",
        "leisure": "swimming_pool"
      }
    },
    {
      "type": "way",
      "id": 370381634,
      "center": {
        "lat": 12.9225081,
        "lon": 77.6715509
      },
      "tags": {
        "access": "private",
        "leisure": "swimming_pool"
      }
    },
    {
      "type": "way",
      "id": 370381636,
      "center": {
        "lat": 12.9253749,
        "lon": 77.6665124
      },
      "tags": {
        "access": "private",
        "leisure": "swimming_pool"
      }
    },
    {
      "type": "way",
      "id": 370381637,
      "center": {
        "lat": 12.92508,
        "lon": 77.6693943
      },
      "tags": {
        "access": "private",
        "leisure": "swimming_pool"
      }
    },
    {
      "type": "way",
      "id": 370381638,
      "center": {
        "lat": 12.9234086,
        "lon": 77.6700233
      },
      "tags": {
        "amenity": "fuel",
        "brand": "Indian Oil",
        "brand:wikidata": "Q1289348",
        "brand:wikipedia": "en:Indian Oil Corporation",
        "check_date": "2025-04-06",
        "compressed_air": "yes",
        "fuel:diesel": "yes",
        "fuel:petrol": "yes",
        "name": "Devaraj Enterprises",
        "name:kn": "ಇಂಡಿಯನ್ ಆಯಿಲ್",
        "operator": "Indian Oil",
        "self_service": "no",
        "source": "survey"
      }
    },
    {
      "type": "way",
      "id": 432597584,
      "center": {
        "lat": 12.9144646,
        "lon": 77.6664217
      },
      "tags": {
        "addr:city": "Bengaluru",
        "addr:street": "Ambalipure, Haralur Road",
        "amenity": "restaurant",
        "cuisine": "regional;goan",
        "name": "The Fisherman's Wharf",
        "opening_hours": "Mo-Su 12:30-24:00",
        "phone": "9844080000",
        "smoking": "separated",
        "takeaway": "yes",
        "website": "https://www.thefishermanswharf.in/"
      }
    },
    {
      "type": "way",
      "id": 450309817,
      "center": {
        "lat": 12.9152552,
        "lon": 77.6732229
      },
      "tags": {
        "access": "yes",
        "leisure": "playground"
      }
    },
    {
      "type": "way",
      "id": 511710441,
      "center": {
        "lat": 12.9149376,
        "lon": 77.6755298
      },
      "tags": {
        "addr:city": "Bengaluru",
        "addr:postcode": "560035",
        "addr:street": "Sarjapura Road",
        "amenity": "fuel",
        "brand": "Bharat Petroleum",
        "brand:wikidata": "Q854826",
        "brand:wikipedia": "en:Bharat Petroleum",
        "capacity": "8",
        "compressed_air": "yes",
        "description": "Open 24/7, Free air, Good service, Pollution check and engine-oil change facilities available",
        "fuel:diesel": "yes",
        "fuel:petrol": "yes",
        "name": "JSN Petrol Pump",
        "opening_hours": "24/7",
        "operator": "Bharat Petroleum",
        "payment:cash": "yes",
        "payment:credit_cards": "yes",
        "self_service": "no"
      }
    },
    {
      "type": "way",
      "id": 609388076,
      "center": {
        "lat": 12.9180328,
        "lon": 77.6717277
      },
      "tags": {
        "amenity": "parking",
        "capacity": "20",
        "fee": "no",
        "parking": "surface",
        "supervised": "no",
        "surface": "unpaved"
      }
    },
    {
      "type": "way",
      "id": 609925224,
      "center": {
        "lat": 12.917762,
        "lon": 77.6735528
      },
      "tags": {
        "amenity": "community_centre",
        "building": "yes"
      }
    },
    {
      "type": "way",
      "id": 609993391,
      "center": {
        "lat": 12.9205841,
        "lon": 77.6739708
      },
      "tags": {
        "access": "private",
        "leisure": "swimming_pool"
      }
    },
    {
      "type": "way",
      "id": 610094122,
      "center": {
        "lat": 12.9133958,
        "lon": 77.6727771
      },
      "tags": {
        "leisure": "park",
        "name": "Kaikondrahalli Lake Park",
        "name:kn": "ಕೈಕೊಂಡ್ರಹಳ್ಳಿ ಕೆರೆ",
        "opening_hours": "Mo-Su 5:30-10:00,16:00-18:30"
      }
    },
    {
      "type": "way",
      "id": 610122216,
      "center": {
        "lat": 12.9182947,
        "lon": 77.6674991
      },
      "tags": {
        "leisure": "swimming_pool"
      }
    },
    {
      "type": "way",
      "id": 610124886,
      "center": {
        "lat": 12.9200519,
        "lon": 77.6669466
      },
      "tags": {
        "building": "yes",
        "name": "New Mathaji",
        "opening_hours": "Mo-Su 08:30-20:30",
        "shop": "hardware",
        "website": "https://newmathajiharware.in"
      }
    },
    {
      "type": "way",
      "id": 610126419,
      "center": {
        "lat": 12.9200108,
        "lon": 77.667039
      },
      "tags": {
        "amenity": "parking",
        "parking": "surface",
        "surface": "asphalt"
      }
    },
    {
      "type": "way",
      "id": 610128869,
      "center": {
        "lat": 12.9195467,
        "lon": 77.6685465
      },
      "tags": {
        "addr:city": "Bengaluru",
        "addr:housenumber": "9/47",
        "addr:postcode": "560035",
        "addr:street": "1st Floor, Bellandur Gate, Sarjapur Road",
        "amenity": "clinic",
        "building": "yes",
        "healthcare": "clinic",
        "name": "Homeocure Clinic",
        "opening_hours": "+91-8867286512"
      }
    },
    {
      "type": "way",
      "id": 610133415,
      "center": {
        "lat": 12.9194649,
        "lon": 77.6682811
      },
      "tags": {
        "access": "customers",
        "amenity": "parking",
        "parking": "surface",
        "surface": "asphalt"
      }
    },
    {
      "type": "way",
      "id": 610348504,
      "center": {
        "lat": 12.9151199,
        "lon": 77.6753888
      },
      "tags": {
        "building": "yes",
        "shop": "yes"
      }
    },
    {
      "type": "way",
      "id": 610389734,
      "center": {
        "lat": 12.9190149,
        "lon": 77.6679644
      },
      "tags": {
        "addr:city": "Bengaluru",
        "addr:housenumber": "37",
        "addr:postcode": "560103",
        "addr:street": "Sarjapur Road, PWD quarters, 1st sector, Bellandur",
        "amenity": "police",
        "check_date": "2025-02-12",
        "name": "Bellanduru Police Station",
        "name:kn": "ಬೆಳ್ಳಂದೂರು ಪೊಲೀಸ್ ಠಾಣೆ",
        "phone": "+91 80 2574 7771",
        "source": "survey"
      }
    },
    {
      "type": "way",
      "id": 610389738,
      "center": {
        "lat": 12.9189481,
        "lon": 77.6679713
      },
      "tags": {
        "access": "customers",
        "amenity": "parking",
        "parking": "surface"
      }
    },
    {
      "type": "way",
      "id": 610396843,
      "center": {
        "lat": 12.9185321,
        "lon": 77.6653971
      },
      "tags": {
        "access": "customers",
        "leisure": "swimming_pool"
      }
    },
    {
      "type": "way",
      "id": 610396844,
      "center": {
        "lat": 12.9184435,
        "lon": 77.6653302
      },
      "tags": {
        "access": "customers",
        "leisure": "swimming_pool"
      }
    },
    {
      "type": "way",
      "id": 610396845,
      "center": {
        "lat": 12.9185518,
        "lon": 77.6652413
      },
      "tags": {
        "leisure": "garden"
      }
    },
    {
      "type": "way",
      "id": 610396846,
      "center": {
        "lat": 12.9188134,
        "lon": 77.6652828
      },
      "tags": {
        "leisure": "garden"
      }
    },
    {
      "type": "way",
      "id": 610396847,
      "center": {
        "lat": 12.9190202,
        "lon": 77.6654726
      },
      "tags": {
        "leisure": "garden"
      }
    },
    {
      "type": "way",
      "id": 610396848,
      "center": {
        "lat": 12.9180259,
        "lon": 77.6657254
      },
      "tags": {
        "access": "private",
        "leisure": "pitch",
        "sport": "tennis;basketball"
      }
    },
    {
      "type": "way",
      "id": 610422876,
      "center": {
        "lat": 12.9177414,
        "lon": 77.6696457
      },
      "tags": {
        "access": "private",
        "leisure": "swimming_pool"
      }
    },
    {
      "type": "way",
      "id": 610462157,
      "center": {
        "lat": 12.9175741,
        "lon": 77.6643414
      },
      "tags": {
        "access": "private",
        "description": "Private to SJR park Vista residents",
        "leisure": "swimming_pool",
        "name": "Swimming Pool - SJR Park Vista",
        "source": "local knowledge"
      }
    },
    {
      "type": "way",
      "id": 610462158,
      "center": {
        "lat": 12.9171848,
        "lon": 77.6642404
      },
      "tags": {
        "building": "yes",
        "building:levels": "3",
        "leisure": "fitness_centre",
        "name": "Club House / Gym - SJR Park Vista",
        "sport": "badminton;table_tennis;swimming;volleyball;tennis"
      }
    },
    {
      "type": "way",
      "id": 610462166,
      "center": {
        "lat": 12.9148484,
        "lon": 77.6660556
      },
      "tags": {
        "addr:city": "Bengaluru",
        "addr:housenumber": "26",
        "addr:street": "Ambalipura Village, Harlur Road",
        "name": "Mandovi Motors Pvt. Ltd.",
        "name:kn": "ಮಂಡೋವಿ ಮೋಟರ್ಸ್",
        "opening_hours": "Mo-Su 09:00-18:00",
        "phone": "080 25747763",
        "shop": "car_repair",
        "website": "https://mandovimotors.in"
      }
    },
    {
      "type": "way",
      "id": 610462169,
      "center": {
        "lat": 12.9146969,
        "lon": 77.6667944
      },
      "tags": {
        "amenity": "fuel",
        "brand": "Hindustan Petroleum",
        "brand:wikidata": "Q1619375",
        "brand:wikipedia": "en:Hindustan Petroleum",
        "compressed_air": "yes",
        "fuel:diesel": "yes",
        "fuel:petrol": "yes",
        "name": "HP Gas",
        "official_name": "Hindustan Petroleum",
        "opening_hours": "24/7"
      }
    },
    {
      "type": "way",
      "id": 610462176,
      "center": {
        "lat": 12.9143826,
        "lon": 77.6667432
      },
      "tags": {
        "access": "customers",
        "amenity": "parking",
        "fee": "no",
        "parking": "surface",
        "surface": "asphalt"
      }
    },
    {
      "type": "way",
      "id": 610462178,
      "center": {
        "lat": 12.9143227,
        "lon": 77.6666228
      },
      "tags": {
        "leisure": "garden"
      }
    },
    {
      "type": "way",
      "id": 610462190,
      "center": {
        "lat": 12.9168194,
        "lon": 77.6691103
      },
      "tags": {
        "access": "private",
        "leisure": "swimming_pool"
      }
    },
    {
      "type": "way",
      "id": 610462191,
      "center": {
        "lat": 12.9179316,
        "lon": 77.668644
      },
      "tags": {
        "access": "customers",
        "hoops": "4",
        "leisure": "pitch",
        "lit": "yes",
        "sport": "basketball",
        "surface": "concrete"
      }
    },
    {
      "type": "way",
      "id": 610471331,
      "center": {
        "lat": 12.9182511,
        "lon": 77.6712959
      },
      "tags": {
        "amenity": "restaurant",
        "building": "yes",
        "cuisine": "kabaab",
        "name": "Kebaab Waala"
      }
    },
    {
      "type": "way",
      "id": 610471332,
      "center": {
        "lat": 12.9182373,
        "lon": 77.6715138
      },
      "tags": {
        "building": "yes",
        "name": "Aishwarya Departmental Store",
        "shop": "department_store"
      }
    },
    {
      "type": "way",
      "id": 610471333,
      "center": {
        "lat": 12.9180925,
        "lon": 77.6714353
      },
      "tags": {
        "access": "customers",
        "amenity": "parking",
        "fee": "no",
        "parking": "surface",
        "surface": "compacted"
      }
    },
    {
      "type": "way",
      "id": 610471335,
      "center": {
        "lat": 12.9179135,
        "lon": 77.6722553
      },
      "tags": {
        "amenity": "hospital",
        "healthcare": "hospital",
        "healthcare:speciality": "gynaecology",
        "name": "Motherhood"
      }
    },
    {
      "type": "way",
      "id": 610471336,
      "center": {
        "lat": 12.9177465,
        "lon": 77.6721706
      },
      "tags": {
        "amenity": "parking"
      }
    },
    {
      "type": "way",
      "id": 611385979,
      "center": {
        "lat": 12.9199685,
        "lon": 77.6652549
      },
      "tags": {
        "amenity": "hospital",
        "check_date": "2025-02-12",
        "emergency": "yes",
        "healthcare": "hospital",
        "name": "Manipal Hospitals",
        "name:kn": "ಮಣಿಪಾಲ ಆಸ್ಪತ್ರೆ",
        "payment:cash": "yes",
        "payment:mastercard": "yes",
        "payment:visa": "yes",
        "source": "survey",
        "wheelchair": "yes"
      }
    },
    {
      "type": "way",
      "id": 613470756,
      "center": {
        "lat": 12.920124,
        "lon": 77.6668419
      },
      "tags": {
        "building": "yes",
        "name": "Cycle World",
        "shop": "bicycle"
      }
    },
    {
      "type": "way",
      "id": 627155096,
      "center": {
        "lat": 12.9189317,
        "lon": 77.6761384
      },
      "tags": {
        "access": "private",
        "leisure": "swimming_pool"
      }
    },
    {
      "type": "way",
      "id": 631225161,
      "center": {
        "lat": 12.9166618,
        "lon": 77.6732112
      },
      "tags": {
        "access": "customers",
        "alt_name": "Anand Sweets & Savories",
        "amenity": "restaurant",
        "building": "yes",
        "cuisine": "sweets;indian",
        "diet:vegetarian": "yes",
        "name": "Anand Sweets",
        "opening_hours": "10:00-22:00",
        "operator": "Anand Sweets",
        "operator:type": "business",
        "wheelchair": "no"
      }
    },
    {
      "type": "way",
      "id": 631225521,
      "center": {
        "lat": 12.9163971,
        "lon": 77.6731116
      },
      "tags": {
        "amenity": "restaurant",
        "building": "yes",
        "name": "Nanda's"
      }
    },
    {
      "type": "way",
      "id": 631225526,
      "center": {
        "lat": 12.9134158,
        "lon": 77.6704619
      },
      "tags": {
        "access": "customers",
        "leisure": "swimming_pool"
      }
    },
    {
      "type": "way",
      "id": 631225531,
      "center": {
        "lat": 12.9174984,
        "lon": 77.6714888
      },
      "tags": {
        "addr:street": "Sarjapur Road",
        "amenity": "college",
        "building": "yes",
        "name": "ALT training college"
      }
    },
    {
      "type": "way",
      "id": 631466626,
      "center": {
        "lat": 12.9231995,
        "lon": 77.6714025
      },
      "tags": {
        "amenity": "fuel",
        "brand": "Shell",
        "brand:wikidata": "Q110716465",
        "brand:wikipedia": "en:Royal Dutch Shell",
        "compressed_air": "yes",
        "fuel:diesel": "yes",
        "fuel:petrol": "yes",
        "name": "Shell Petrol Bunk",
        "name:kn": "ಶೆಲ್",
        "opening_hours": "24/7"
      }
    },
    {
      "type": "way",
      "id": 691955486,
      "center": {
        "lat": 12.9234506,
        "lon": 77.6718939
      },
      "tags": {
        "amenity": "fuel",
        "brand": "Indian Oil",
        "brand:wikidata": "Q1289348",
        "check_date": "2025-04-09",
        "compressed_air": "no",
        "name": "Propel Indianoil"
      }
    },
    {
      "type": "way",
      "id": 723517555,
      "center": {
        "lat": 12.9178406,
        "lon": 77.6735692
      },
      "tags": {
        "leisure": "playground"
      }
    },
    {
      "type": "way",
      "id": 781700160,
      "center": {
        "lat": 12.9088419,
        "lon": 77.6636731
      },
      "tags": {
        "access": "permissive",
        "amenity": "parking",
        "parking": "surface"
      }
    },
    {
      "type": "way",
      "id": 781700163,
      "center": {
        "lat": 12.9156098,
        "lon": 77.6666109
      },
      "tags": {
        "amenity": "place_of_worship",
        "denomination": "catholic",
        "name": "Our Lady of the Sacred Heart Church",
        "religion": "christian"
      }
    },
    {
      "type": "way",
      "id": 796938695,
      "center": {
        "lat": 12.9153286,
        "lon": 77.6635328
      },
      "tags": {
        "access": "private",
        "leisure": "playground",
        "name": "Kids Play Area / Swings"
      }
    },
    {
      "type": "way",
      "id": 796939209,
      "center": {
        "lat": 12.9145691,
        "lon": 77.6638125
      },
      "tags": {
        "access": "private",
        "amenity": "parking",
        "description": "Underground parking space in SJR Park Vista. This belongs to the Flat owners, renters. ",
        "layer": "-1",
        "parking": "underground",
        "surface": "concrete"
      }
    },
    {
      "type": "way",
      "id": 1071044455,
      "center": {
        "lat": 12.9244197,
        "lon": 77.6724971
      },
      "tags": {
        "amenity": "hospital",
        "check_date": "2025-02-12",
        "healthcare": "hospital",
        "healthcare:speciality": "maternity",
        "name": "Cloudnine",
        "payment:cash": "yes",
        "payment:mastercard": "yes",
        "payment:visa": "yes",
        "source": "survey"
      }
    },
    {
      "type": "way",
      "id": 1071242258,
      "center": {
        "lat": 12.9231359,
        "lon": 77.6693091
      },
      "tags": {
        "access": "private",
        "leisure": "swimming_pool",
        "location": "outdoor",
        "swimming_pool": "outdoor"
      }
    },
    {
      "type": "way",
      "id": 1071262161,
      "center": {
        "lat": 12.9218103,
        "lon": 77.6615877
      },
      "tags": {
        "amenity": "police",
        "building": "yes",
        "name": "Bellandur Traffic Police Station"
      }
    },
    {
      "type": "way",
      "id": 1071262163,
      "center": {
        "lat": 12.9218263,
        "lon": 77.6613817
      },
      "tags": {
        "brand": "Royal Enfield",
        "brand:wikidata": "Q2668720",
        "building": "yes",
        "name": "Royal Enfield Showroom - Teknik Motorcycles",
        "shop": "motorcycle"
      }
    },
    {
      "type": "way",
      "id": 1116730353,
      "center": {
        "lat": 12.9159774,
        "lon": 77.6702174
      },
      "tags": {
        "amenity": "community_centre",
        "building": "yes"
      }
    },
    {
      "type": "way",
      "id": 1184666646,
      "center": {
        "lat": 12.9234063,
        "lon": 77.6662177
      },
      "tags": {
        "access": "private",
        "leisure": "swimming_pool",
        "location": "outdoor"
      }
    },
    {
      "type": "way",
      "id": 1186050696,
      "center": {
        "lat": 12.9128982,
        "lon": 77.6654053
      },
      "tags": {
        "amenity": "fuel",
        "brand": "Shell",
        "brand:wikidata": "Q110716465",
        "check_date": "2022-10-08",
        "fuel:diesel": "yes",
        "fuel:petrol": "yes",
        "name": "Shell",
        "name:kn": "ಶೆಲ್"
      }
    },
    {
      "type": "way",
      "id": 1186131992,
      "center": {
        "lat": 12.918083,
        "lon": 77.6660756
      },
      "tags": {
        "access": "private",
        "leisure": "pitch",
        "sport": "tennis"
      }
    },
    {
      "type": "way",
      "id": 1186132066,
      "center": {
        "lat": 12.9152588,
        "lon": 77.6724461
      },
      "tags": {
        "leisure": "pitch",
        "sport": "tennis"
      }
    },
    {
      "type": "way",
      "id": 1187587059,
      "center": {
        "lat": 12.9209718,
        "lon": 77.6705332
      },
      "tags": {
        "access": "private",
        "leisure": "swimming_pool"
      }
    },
    {
      "type": "way",
      "id": 1188254615,
      "center": {
        "lat": 12.9212685,
        "lon": 77.6684356
      },
      "tags": {
        "leisure": "pitch",
        "sport": "basketball"
      }
    },
    {
      "type": "way",
      "id": 1188254701,
      "center": {
        "lat": 12.9204176,
        "lon": 77.6667487
      },
      "tags": {
        "amenity": "parking"
      }
    },
    {
      "type": "way",
      "id": 1188254703,
      "center": {
        "lat": 12.9205764,
        "lon": 77.6678097
      },
      "tags": {
        "amenity": "school",
        "name": "Royale Concorde International School"
      }
    },
    {
      "type": "way",
      "id": 1188254704,
      "center": {
        "lat": 12.9173804,
        "lon": 77.6705181
      },
      "tags": {
        "addr:housenumber": "#13",
        "addr:postcode": "560102",
        "addr:street": "Sarjapura Road",
        "amenity": "school",
        "email": "communications.oiss@orchids.edu.in",
        "name": "Orchids International School",
        "name:en": "Orchids The International School",
        "opening_hours": "Mo-Su 09:00-18:30",
        "operator": "Orchids International School",
        "operator:type": "private",
        "phone": "9513731352",
        "website": "https://www.orchidsinternationalschool.com/bangalore-branches/sarjapur/"
      }
    },
    {
      "type": "way",
      "id": 1188254706,
      "center": {
        "lat": 12.915315,
        "lon": 77.6698188
      },
      "tags": {
        "access": "private",
        "leisure": "pitch",
        "sport": "basketball"
      }
    },
    {
      "type": "way",
      "id": 1193177992,
      "center": {
        "lat": 12.9156928,
        "lon": 77.6752029
      },
      "tags": {
        "amenity": "hospital",
        "emergency": "yes",
        "healthcare": "hospital",
        "name": "Cloud Nine",
        "note": "Emergency ward and lab open 24x7",
        "opening_hours": "Mo-Sa 08:00-20:00, Su 10:00-12:00, 16:00-18:00",
        "operator": "Cloud Nine Care",
        "operator:type": "private",
        "phone": "+91 99728 99728",
        "website": "https://www.cloudninecare.com/centre/sarjapur-road"
      }
    },
    {
      "type": "way",
      "id": 1212432026,
      "center": {
        "lat": 12.92365,
        "lon": 77.6681322
      },
      "tags": {
        "access": "private",
        "leisure": "pitch",
        "sport": "tennis"
      }
    },
    {
      "type": "way",
      "id": 1212554501,
      "center": {
        "lat": 12.9261802,
        "lon": 77.6656318
      },
      "tags": {
        "leisure": "park"
      }
    },
    {
      "type": "way",
      "id": 1212566070,
      "center": {
        "lat": 12.9257736,
        "lon": 77.666888
      },
      "tags": {
        "leisure": "pitch",
        "sport": "tennis"
      }
    },
    {
      "type": "way",
      "id": 1212566071,
      "center": {
        "lat": 12.925764,
        "lon": 77.667281
      },
      "tags": {
        "hoops": "2",
        "leisure": "pitch",
        "sport": "basketball"
      }
    },
    {
      "type": "way",
      "id": 1212574664,
      "center": {
        "lat": 12.9259924,
        "lon": 77.6695792
      },
      "tags": {
        "amenity": "restaurant",
        "building": "restaurant",
        "building:levels": "1",
        "cuisine": "regional;south_indian",
        "diet:vegetarian": "yes",
        "name": "Udupi Kitchen",
        "outdoor_seating": "yes"
      }
    },
    {
      "type": "way",
      "id": 1212920599,
      "center": {
        "lat": 12.9249691,
        "lon": 77.6720437
      },
      "tags": {
        "access": "private",
        "hoops": "2",
        "leisure": "pitch",
        "sport": "basketball"
      }
    },
    {
      "type": "way",
      "id": 1221235230,
      "center": {
        "lat": 12.9259923,
        "lon": 77.6696917
      },
      "tags": {
        "access": "customers",
        "amenity": "motorcycle_parking",
        "covered": "no"
      }
    },
    {
      "type": "way",
      "id": 1226683652,
      "center": {
        "lat": 12.9215076,
        "lon": 77.6682276
      },
      "tags": {
        "hoops": "2",
        "leisure": "pitch",
        "sport": "basketball"
      }
    },
    {
      "type": "way",
      "id": 1226725122,
      "center": {
        "lat": 12.9159287,
        "lon": 77.6656179
      },
      "tags": {
        "amenity": "parking"
      }
    },
    {
      "type": "way",
      "id": 1231984761,
      "center": {
        "lat": 12.9252109,
        "lon": 77.6641345
      },
      "tags": {
        "access": "private",
        "leisure": "pitch",
        "sport": "tennis"
      }
    },
    {
      "type": "way",
      "id": 1231984762,
      "center": {
        "lat": 12.9252501,
        "lon": 77.664272
      },
      "tags": {
        "access": "private",
        "leisure": "pitch",
        "sport": "tennis"
      }
    },
    {
      "type": "way",
      "id": 1234091086,
      "center": {
        "lat": 12.922429,
        "lon": 77.668402
      },
      "tags": {
        "access": "customers",
        "amenity": "parking",
        "parking": "surface"
      }
    },
    {
      "type": "way",
      "id": 1240365184,
      "center": {
        "lat": 12.9238293,
        "lon": 77.6657172
      },
      "tags": {
        "amenity": "parking",
        "parking": "street_side"
      }
    },
    {
      "type": "way",
      "id": 1240374869,
      "center": {
        "lat": 12.9212451,
        "lon": 77.6709618
      },
      "tags": {
        "access": "private",
        "amenity": "parking",
        "fee": "no",
        "parking": "street_side"
      }
    },
    {
      "type": "way",
      "id": 1243682755,
      "center": {
        "lat": 12.9143698,
        "lon": 77.6722362
      },
      "tags": {
        "leisure": "swimming_pool"
      }
    },
    {
      "type": "way",
      "id": 1274663076,
      "center": {
        "lat": 12.925276,
        "lon": 77.6658075
      },
      "tags": {
        "access": "private",
        "amenity": "parking",
        "parking": "street_side"
      }
    },
    {
      "type": "way",
      "id": 1285046627,
      "center": {
        "lat": 12.9090542,
        "lon": 77.6696236
      },
      "tags": {
        "access": "private",
        "leisure": "pitch",
        "sport": "soccer"
      }
    },
    {
      "type": "way",
      "id": 1285046628,
      "center": {
        "lat": 12.9088681,
        "lon": 77.6697459
      },
      "tags": {
        "access": "private",
        "leisure": "pitch",
        "sport": "tennis"
      }
    },
    {
      "type": "way",
      "id": 1285046631,
      "center": {
        "lat": 12.9092683,
        "lon": 77.669397
      },
      "tags": {
        "access": "permissive",
        "amenity": "parking",
        "parking": "surface"
      }
    },
    {
      "type": "way",
      "id": 1285046632,
      "center": {
        "lat": 12.9095725,
        "lon": 77.6689405
      },
      "tags": {
        "access": "permissive",
        "amenity": "parking",
        "parking": "surface"
      }
    },
    {
      "type": "way",
      "id": 1285046633,
      "center": {
        "lat": 12.9091131,
        "lon": 77.6705127
      },
      "tags": {
        "access": "permissive",
        "amenity": "parking",
        "parking": "surface"
      }
    },
    {
      "type": "way",
      "id": 1285046634,
      "center": {
        "lat": 12.9095659,
        "lon": 77.6690399
      },
      "tags": {
        "leisure": "park"
      }
    },
    {
      "type": "way",
      "id": 1285046635,
      "center": {
        "lat": 12.9085056,
        "lon": 77.669517
      },
      "tags": {
        "leisure": "park"
      }
    },
    {
      "type": "way",
      "id": 1285046637,
      "center": {
        "lat": 12.9089937,
        "lon": 77.6683862
      },
      "tags": {
        "access": "permissive",
        "amenity": "parking",
        "parking": "surface"
      }
    },
    {
      "type": "way",
      "id": 1290198687,
      "center": {
        "lat": 12.9209474,
        "lon": 77.6672845
      },
      "tags": {
        "building": "yes",
        "building:levels": "3",
        "leisure": "fitness_centre",
        "name": "Iskcon - Sarjapur Road",
        "sport": "yoga"
      }
    },
    {
      "type": "way",
      "id": 1290198690,
      "center": {
        "lat": 12.9202359,
        "lon": 77.6674739
      },
      "tags": {
        "addr:city": "Bengaluru",
        "addr:housenumber": "3/4",
        "addr:postcode": "560103",
        "addr:street": "Sarjapura Road",
        "amenity": "hospital",
        "email": "queries@rainbowhospitals.in",
        "emergency": "yes",
        "healthcare": "hospital",
        "healthcare:speciality": "gynaecology;child_psychiatry;paediatrics;otolaryngology;fertility;neonatology;vascular_surgery;physiatry",
        "name": "Rainbow Childrens Hospital",
        "phone": "+91 08062261218",
        "website": "https://www.rainbowhospitals.in/"
      }
    },
    {
      "type": "way",
      "id": 1290198692,
      "center": {
        "lat": 12.9198945,
        "lon": 77.6672042
      },
      "tags": {
        "access": "customers",
        "amenity": "parking",
        "parking": "surface"
      }
    },
    {
      "type": "way",
      "id": 1324322851,
      "center": {
        "lat": 12.9172579,
        "lon": 77.6717939
      },
      "tags": {
        "amenity": "parking"
      }
    },
    {
      "type": "way",
      "id": 1326437138,
      "center": {
        "lat": 12.9154955,
        "lon": 77.6645946
      },
      "tags": {
        "leisure": "garden"
      }
    },
    {
      "type": "way",
      "id": 1326437377,
      "center": {
        "lat": 12.91509,
        "lon": 77.6648893
      },
      "tags": {
        "amenity": "parking_space"
      }
    },
    {
      "type": "way",
      "id": 1335379057,
      "center": {
        "lat": 12.917084,
        "lon": 77.6677907
      },
      "tags": {
        "leisure": "park",
        "operator": "BBMP"
      }
    },
    {
      "type": "way",
      "id": 1346908275,
      "center": {
        "lat": 12.9259165,
        "lon": 77.6690737
      },
      "tags": {
        "amenity": "restaurant",
        "building": "house",
        "name": "The Spiceberry"
      }
    },
    {
      "type": "way",
      "id": 1346908276,
      "center": {
        "lat": 12.9252866,
        "lon": 77.6690672
      },
      "tags": {
        "amenity": "parking",
        "fee": "yes",
        "parking": "lane",
        "surface": "asphalt"
      }
    },
    {
      "type": "way",
      "id": 1362578786,
      "center": {
        "lat": 12.9090409,
        "lon": 77.66389
      },
      "tags": {
        "addr:city": "Bengaluru",
        "addr:district": "Karnataka",
        "addr:housenumber": "Plumeria 2nd Floor",
        "addr:postcode": "560102",
        "addr:street": "Haralur Main Road",
        "amenity": "hospital",
        "email": "urwelcome@klinikgluhen.com",
        "emergency": "yes",
        "healthcare": "hospital",
        "healthcare:speciality": "dentist;dental_oral_maxillo_facial_surgery;dentistry;implantology;orthodontics;pedodontics;maxillofacial_surgery;craniofacial;plastic_surgery;psychiatry",
        "image": "https://lh3.googleusercontent.com/p/AF1QipN-H9esnouOf6f9LhnY3IkGoS4dyHJiYGpHHac5=s680-w680-h510",
        "mobile": "+916366800859",
        "name": "Klinik Guhen - Dental Clinic",
        "opening_hours": "All Days 10:00-19:30 (Tue Holiday)",
        "operator": "Dental Clinic",
        "operator:type": "business",
        "payment:cash": "yes",
        "payment:credit_cards": "yes",
        "payment:debit_cards": "yes",
        "payment:google_pay": "yes",
        "phone": "+916366800859",
        "source": "streetlevel imagery;local knowledge;survey;gps",
        "start_date": "2021-10-01",
        "website": "https://klinikgluhen.com/",
        "wheelchair": "yes"
      }
    },
    {
      "type": "way",
      "id": 1366231247,
      "center": {
        "lat": 12.922592,
        "lon": 77.6625066
      },
      "tags": {
        "amenity": "place_of_worship",
        "building": "yes",
        "name": "Canaan house of worship",
        "religion": "christian"
      }
    },
    {
      "type": "way",
      "id": 1366473223,
      "center": {
        "lat": 12.9225851,
        "lon": 77.6629435
      },
      "tags": {
        "addr:city": "Bellandur",
        "addr:district": "Bengaluru",
        "addr:postcode": "560103",
        "addr:street": "3rd Main Road",
        "amenity": "place_of_worship",
        "building": "yes",
        "name": "Shri Shaneshwara Swami Devasthana",
        "name:kn": "ಶ್ರೀ ಶನೇಶ್ವರ ಸ್ವಾಮಿ ದೇವಸ್ಥಾನ",
        "religion": "hindu"
      }
    },
    {
      "type": "way",
      "id": 1370798179,
      "center": {
        "lat": 12.9238522,
        "lon": 77.6732734
      },
      "tags": {
        "amenity": "restaurant",
        "building": "yes",
        "name": "Xochi"
      }
    },
    {
      "type": "way",
      "id": 1370870222,
      "center": {
        "lat": 12.9223643,
        "lon": 77.6656258
      },
      "tags": {
        "amenity": "toilets",
        "building": "yes",
        "female": "yes",
        "male": "yes"
      }
    },
    {
      "type": "way",
      "id": 1410378161,
      "center": {
        "lat": 12.9252335,
        "lon": 77.6662219
      },
      "tags": {
        "access": "private",
        "amenity": "parking",
        "parking": "street_side"
      }
    },
    {
      "type": "way",
      "id": 1425207752,
      "center": {
        "lat": 12.9164164,
        "lon": 77.6675188
      },
      "tags": {
        "access": "private",
        "leisure": "swimming_pool"
      }
    },
    {
      "type": "way",
      "id": 1427513665,
      "center": {
        "lat": 12.9176919,
        "lon": 77.6685727
      },
      "tags": {
        "access": "private",
        "leisure": "pitch",
        "sport": "roller_skating"
      }
    },
    {
      "type": "way",
      "id": 1427513670,
      "center": {
        "lat": 12.9176764,
        "lon": 77.6737318
      },
      "tags": {
        "access": "private",
        "leisure": "swimming_pool"
      }
    },
    {
      "type": "way",
      "id": 1427513674,
      "center": {
        "lat": 12.9176115,
        "lon": 77.6730295
      },
      "tags": {
        "access": "private",
        "leisure": "pitch",
        "sport": "soccer"
      }
    },
    {
      "type": "way",
      "id": 1427513677,
      "center": {
        "lat": 12.9179753,
        "lon": 77.6733482
      },
      "tags": {
        "access": "private",
        "leisure": "playground"
      }
    },
    {
      "type": "way",
      "id": 1427663393,
      "center": {
        "lat": 12.9199021,
        "lon": 77.6739489
      },
      "tags": {
        "access": "private",
        "leisure": "pitch",
        "sport": "volleyball"
      }
    },
    {
      "type": "way",
      "id": 1427663397,
      "center": {
        "lat": 12.9206176,
        "lon": 77.6746285
      },
      "tags": {
        "access": "private",
        "amenity": "parking",
        "parking": "carports"
      }
    },
    {
      "type": "way",
      "id": 1427663420,
      "center": {
        "lat": 12.9225957,
        "lon": 77.673017
      },
      "tags": {
        "access": "private",
        "leisure": "swimming_pool"
      }
    },
    {
      "type": "way",
      "id": 1427663441,
      "center": {
        "lat": 12.9228047,
        "lon": 77.6722661
      },
      "tags": {
        "access": "private",
        "leisure": "pitch",
        "sport": "tennis"
      }
    },
    {
      "type": "way",
      "id": 1427663442,
      "center": {
        "lat": 12.922857,
        "lon": 77.6720914
      },
      "tags": {
        "access": "private",
        "leisure": "playground"
      }
    },
    {
      "type": "way",
      "id": 1428943755,
      "center": {
        "lat": 12.9151499,
        "lon": 77.6732076
      },
      "tags": {
        "amenity": "school"
      }
    },
    {
      "type": "way",
      "id": 1428943759,
      "center": {
        "lat": 12.9143498,
        "lon": 77.6723353
      },
      "tags": {
        "access": "private",
        "leisure": "playground"
      }
    },
    {
      "type": "way",
      "id": 1428943760,
      "center": {
        "lat": 12.9150738,
        "lon": 77.6721615
      },
      "tags": {
        "access": "private",
        "leisure": "playground"
      }
    },
    {
      "type": "way",
      "id": 1428943761,
      "center": {
        "lat": 12.9151331,
        "lon": 77.6720523
      },
      "tags": {
        "access": "private",
        "leisure": "swimming_pool"
      }
    },
    {
      "type": "way",
      "id": 1428943769,
      "center": {
        "lat": 12.9158086,
        "lon": 77.6724952
      },
      "tags": {
        "leisure": "pitch",
        "sport": "soccer"
      }
    },
    {
      "type": "way",
      "id": 1428943782,
      "center": {
        "lat": 12.9160347,
        "lon": 77.6703796
      },
      "tags": {
        "access": "private",
        "leisure": "playground"
      }
    },
    {
      "type": "way",
      "id": 1428943783,
      "center": {
        "lat": 12.9175537,
        "lon": 77.6685863
      },
      "tags": {
        "access": "private",
        "leisure": "playground"
      }
    },
    {
      "type": "way",
      "id": 1429458951,
      "center": {
        "lat": 12.9237912,
        "lon": 77.6663518
      },
      "tags": {
        "access": "private",
        "leisure": "pitch",
        "sport": "cricket_nets"
      }
    },
    {
      "type": "way",
      "id": 1429458952,
      "center": {
        "lat": 12.923398,
        "lon": 77.66634
      },
      "tags": {
        "access": "private",
        "leisure": "pitch",
        "sport": "tennis"
      }
    },
    {
      "type": "way",
      "id": 1429459056,
      "center": {
        "lat": 12.9180678,
        "lon": 77.6656593
      },
      "tags": {
        "access": "private",
        "leisure": "playground"
      }
    },
    {
      "type": "way",
      "id": 1429459057,
      "center": {
        "lat": 12.9184125,
        "lon": 77.6647822
      },
      "tags": {
        "access": "private",
        "leisure": "pitch",
        "sport": "badminton"
      }
    },
    {
      "type": "way",
      "id": 1429459058,
      "center": {
        "lat": 12.9180991,
        "lon": 77.6649531
      },
      "tags": {
        "access": "private",
        "leisure": "playground"
      }
    },
    {
      "type": "way",
      "id": 1429459060,
      "center": {
        "lat": 12.9138407,
        "lon": 77.6658259
      },
      "tags": {
        "access": "private",
        "leisure": "park"
      }
    },
    {
      "type": "way",
      "id": 1429459061,
      "center": {
        "lat": 12.9137694,
        "lon": 77.6653103
      },
      "tags": {
        "access": "private",
        "leisure": "swimming_pool"
      }
    },
    {
      "type": "way",
      "id": 1429459062,
      "center": {
        "lat": 12.914107,
        "lon": 77.6652492
      },
      "tags": {
        "access": "private",
        "leisure": "pitch",
        "sport": "basketball"
      }
    },
    {
      "type": "way",
      "id": 1429459090,
      "center": {
        "lat": 12.908524,
        "lon": 77.6694583
      },
      "tags": {
        "access": "private",
        "leisure": "playground"
      }
    },
    {
      "type": "way",
      "id": 1429459091,
      "center": {
        "lat": 12.9093808,
        "lon": 77.6674105
      },
      "tags": {
        "access": "private",
        "amenity": "parking",
        "parking": "surface"
      }
    }
  ]
}