{
  "area_name": "Amruthnagar",
  "osm_id": 7299778051,
  "osm_type": "node",
  "place_type": "neighbourhood",
  "amenity_count": 415,
  "amenities": [
    {
      "type": "node",
      "id": 1097927623,
      "lat": 13.0592352,
      "lon": 77.5939566,
      "tags": {
        "addr:street": "Bellary Road",
        "amenity": "school",
        "name": "Green Country Public School"
      }
    },
    {
      "type": "node",
      "id": 1471776772,
      "lat": 13.0629571,
      "lon": 77.592948,
      "tags": {
        "name": "Lakme",
        "name:kn": "ಲಾಕ್ಮೆ",
        "shop": "hairdresser",
        "wheelchair": "no"
      }
    },
    {
      "type": "node",
      "id": 1471776773,
      "lat": 13.0591093,
      "lon": 77.5931284,
      "tags": {
        "amenity": "restaurant",
        "cuisine": "indian",
        "name": "Swathi garden",
        "name:kn": "ಸ್ವಾತಿ ಗಾರ್ಡನ್"
      }
    },
    {
      "type": "node",
      "id": 1471776774,
      "lat": 13.0630617,
      "lon": 77.5929373,
      "tags": {
        "name": "Bata show room",
        "shop": "hifi"
      }
    },
    {
      "type": "node",
      "id": 1471776775,
      "lat": 13.0627642,
      "lon": 77.5929313,
      "tags": {
        "name": "SAFA",
        "shop": "clothes"
      }
    },
    {
      "type": "node",
      "id": 1472114366,
      "lat": 13.0579806,
      "lon": 77.5942266,
      "tags": {
        "check_date": "2024-07-11",
        "name": "Maruti Service Center",
        "operator": "RNS Motors",
        "shop": "car_repair"
      }
    },
    {
      "type": "node",
      "id": 1472121766,
      "lat": 13.0583621,
      "lon": 77.5982875,
      "tags": {
        "amenity": "school",
        "name": "Sharada School",
        "name:kn": "ಶಾರದ ಶಾಲೆ"
      }
    },
    {
      "type": "node",
      "id": 1472129202,
      "lat": 13.0582262,
      "lon": 77.5982124,
      "tags": {
        "amenity": "place_of_worship",
        "name": "Ganapati Temple",
        "name:kn": "ಗಣಪತಿ ದೇವಸ್ಥಾನ",
        "religion": "hindu"
      }
    },
    {
      "type": "node",
      "id": 1472131638,
      "lat": 13.0553806,
      "lon": 77.6026206,
      "tags": {
        "brand": "Reliance Fresh",
        "brand:wikidata": "Q7311014",
        "changing_table": "no",
        "level": "0",
        "name": "Reliance Fresh",
        "name:kn": "ರಿಲಾಯನ್ಸ್ ಫ್ರೆಶ್",
        "opening_hours": "PH,Mo-Su 07:29-12:00",
        "shop": "supermarket",
        "toilets": "no",
        "toilets:access": "private",
        "toilets:wheelchair": "no",
        "wheelchair": "no"
      }
    },
    {
      "type": "node",
      "id": 1472143499,
      "lat": 13.0585815,
      "lon": 77.5988078,
      "tags": {
        "name": "Daily Needs",
        "shop": "convenience"
      }
    },
    {
      "type": "node",
      "id": 1472761524,
      "lat": 13.0552619,
      "lon": 77.6020449,
      "tags": {
        "amenity": "pharmacy",
        "name": "Medical Shop"
      }
    },
    {
      "type": "node",
      "id": 1473175979,
      "lat": 13.0577696,
      "lon": 77.5950588,
      "tags": {
        "amenity": "restaurant",
        "check_date": "2024-07-11",
        "cuisine": "chinese",
        "name": "Sanjay Food Junction",
        "name:kn": "ಸಂಜಯ್ ಫುಡ್ ಜಂಕ್ಷನ್",
        "opening_hours": "PH,Mo-Su 09:00-23:45"
      }
    },
    {
      "type": "node",
      "id": 1824255919,
      "lat": 13.0614104,
      "lon": 77.5930766,
      "tags": {
        "name": "Raymond Shop",
        "shop": "clothes"
      }
    },
    {
      "type": "node",
      "id": 2616233221,
      "lat": 13.053347,
      "lon": 77.5980418,
      "tags": {
        "amenity": "restaurant",
        "name": "Kerala Coast"
      }
    },
    {
      "type": "node",
      "id": 2616233222,
      "lat": 13.0514047,
      "lon": 77.6011967,
      "tags": {
        "amenity": "place_of_worship",
        "name": "Sri Kalyana Lakshmi Venkateshwara Temple",
        "religion": "hindu"
      }
    },
    {
      "type": "node",
      "id": 2616233224,
      "lat": 13.0499598,
      "lon": 77.5976135,
      "tags": {
        "amenity": "atm",
        "brand": "ICICI Bank",
        "brand:wikidata": "Q1653258",
        "name": "ICICI Bank",
        "operator": "ICICI Bank",
        "operator:wikidata": "Q1653258",
        "short_name": "ICICI"
      }
    },
    {
      "type": "node",
      "id": 4196988842,
      "lat": 13.0579847,
      "lon": 77.5919058,
      "tags": {
        "branch": "Mega Store",
        "brand": "More",
        "brand:wikidata": "Q6910891",
        "name": "More",
        "shop": "supermarket"
      }
    },
    {
      "type": "node",
      "id": 4198043791,
      "lat": 13.0625784,
      "lon": 77.5926891,
      "tags": {
        "name": "SLNS Wine Paradise",
        "shop": "wine"
      }
    },
    {
      "type": "node",
      "id": 4198043792,
      "lat": 13.0623962,
      "lon": 77.5930084,
      "tags": {
        "name": "The Big Market",
        "shop": "supermarket"
      }
    },
    {
      "type": "node",
      "id": 4198043793,
      "lat": 13.0632832,
      "lon": 77.5917375,
      "tags": {
        "amenity": "bank",
        "atm": "yes",
        "brand": "HDFC Bank",
        "brand:wikidata": "Q631047",
        "brand:wikipedia": "en:HDFC Bank",
        "name": "HDFC Bank",
        "name:kn": "ಎಚ್ ಡಿ ಎಫ್ ಸಿ",
        "short_name": "HDFC",
        "website": "https://www.hdfcbank.com"
      }
    },
    {
      "type": "node",
      "id": 4303792196,
      "lat": 13.0488673,
      "lon": 77.5972326,
      "tags": {
        "amenity": "doctors",
        "name": "Herz Care Medisolutions"
      }
    },
    {
      "type": "node",
      "id": 4320933120,
      "lat": 13.0632045,
      "lon": 77.592116,
      "tags": {
        "amenity": "fast_food",
        "brand": "Domino's",
        "brand:ks": "ڈومینوز",
        "brand:pa": "ਡੋਮੀਨੋਜ਼",
        "brand:ur": "ڈومینوز",
        "brand:wikidata": "Q839466",
        "brand:wikipedia": "en:Domino's Pizza",
        "cuisine": "pizza",
        "name": "Domino's",
        "name:kn": "ಡಾಮಿನೋಸ್",
        "name:ks": "ڈومینوز",
        "name:pa": "ਡੋਮੀਨੋਜ਼",
        "name:ur": "ڈومینوز",
        "takeaway": "yes"
      }
    },
    {
      "type": "node",
      "id": 4320933124,
      "lat": 13.0631724,
      "lon": 77.5914073,
      "tags": {
        "amenity": "bank",
        "brand": "Bank of India",
        "brand:wikidata": "Q2004439",
        "brand:wikipedia": "en:Bank of India",
        "name": "Bank of India",
        "name:en": "Bank of India",
        "short_name": "BoI",
        "website": "http://www.bankofindia.co.in"
      }
    },
    {
      "type": "node",
      "id": 4445599296,
      "lat": 13.0499324,
      "lon": 77.5980885,
      "tags": {
        "addr:city": "Bangalore",
        "addr:postcode": "560024",
        "addr:street": "Vayunandana Layout, Hebbal Kempapura",
        "amenity": "restaurant",
        "cuisine": "regional",
        "delivery": "yes",
        "name": "Desi Tadka",
        "opening_hours": "09:00-22:00",
        "phone": "080 4965 3579",
        "smoking": "no",
        "takeaway": "yes"
      }
    },
    {
      "type": "node",
      "id": 4445633509,
      "lat": 13.0496657,
      "lon": 77.597496,
      "tags": {
        "addr:city": "Bangalore",
        "addr:postcode": "560024",
        "addr:street": "Kempapura Main Road, Rajeshwarinagar New Colony, Near-Syndicate Bank, Hebbal",
        "amenity": "restaurant",
        "cuisine": "regional",
        "delivery": "yes",
        "name": "Swastik Bar & Restaurant",
        "opening_hours": "10:30-23:30",
        "phone": "099804 34206",
        "smoking": "no",
        "takeaway": "yes"
      }
    },
    {
      "type": "node",
      "id": 4445729851,
      "lat": 13.04937,
      "lon": 77.5969095,
      "tags": {
        "addr:city": "Bangalore",
        "addr:housenumber": "#381",
        "addr:postcode": "560024",
        "addr:street": "Kempapura Main Rd, ayunandana Layout, Hebbal Kempapura",
        "amenity": "pharmacy",
        "brand": "MedPlus",
        "brand:wikidata": "Q65684234",
        "healthcare": "pharmacy",
        "name": "MedPlus",
        "name:kn": "ಮೆಡ್‍ಪ್ಲಸ್",
        "phone": "080 2295 7575",
        "source": "http://www.bangalorehospital.co.in/"
      }
    },
    {
      "type": "node",
      "id": 4822629787,
      "lat": 13.0551593,
      "lon": 77.599306,
      "tags": {
        "amenity": "bank",
        "brand": "Canara Bank",
        "brand:en": "Canara Bank",
        "brand:hi": "केनरा बैंक",
        "brand:kn": "ಕೆನರಾ ಬ್ಯಾಂಕ್",
        "brand:pa": "ਕੇਨਰਾ ਬੈਂਕ",
        "brand:pnb": "کینرا بینک",
        "brand:ur": "کینرا بینک",
        "brand:wikidata": "Q2003777",
        "name": "Canara Bank",
        "name:en": "Canara Bank",
        "name:hi": "केनरा बैंक",
        "name:kn": "ಕೆನರಾ ಬ್ಯಾಂಕ್",
        "name:pa": "ਕੇਨਰਾ ਬੈਂਕ",
        "name:pnb": "کینرا بینک",
        "name:ur": "کینرا بینک"
      }
    },
    {
      "type": "node",
      "id": 4822629788,
      "lat": 13.0552073,
      "lon": 77.6002026,
      "tags": {
        "amenity": "bank",
        "brand": "Union Bank of India",
        "brand:wikidata": "Q2004078",
        "name": "Union Bank of India"
      }
    },
    {
      "type": "node",
      "id": 4822629789,
      "lat": 13.0551743,
      "lon": 77.6007325,
      "tags": {
        "amenity": "pharmacy",
        "name": "Manjunatha Medicals",
        "opening_hours": "PH,Mo-Su 09:00-23:30"
      }
    },
    {
      "type": "node",
      "id": 4822629790,
      "lat": 13.0552084,
      "lon": 77.6008534,
      "tags": {
        "name": "Nice mart",
        "opening_hours": "PH,Mo-Su 07:30-22:30",
        "shop": "supermarket"
      }
    },
    {
      "type": "node",
      "id": 4822629794,
      "lat": 13.0569362,
      "lon": 77.6004968,
      "tags": {
        "amenity": "kindergarten",
        "check_date": "2024-07-08",
        "name": "EuroKids"
      }
    },
    {
      "type": "node",
      "id": 4822629795,
      "lat": 13.0585467,
      "lon": 77.6032984,
      "tags": {
        "access": "private",
        "leisure": "playground",
        "name": "Ovation Badminton Center"
      }
    },
    {
      "type": "node",
      "id": 4922632921,
      "lat": 13.0500016,
      "lon": 77.5975254,
      "tags": {
        "amenity": "atm",
        "brand": "State Bank of India",
        "brand:wikidata": "Q1340361",
        "name": "State Bank of India",
        "name:kn": "ಎಸ್ ಬಿ ಐ",
        "operator": "State Bank of India",
        "operator:wikidata": "Q1340361",
        "short_name": "SBI"
      }
    },
    {
      "type": "node",
      "id": 5414858921,
      "lat": 13.0628795,
      "lon": 77.5926056,
      "tags": {
        "amenity": "restaurant",
        "name": "rara avis"
      }
    },
    {
      "type": "node",
      "id": 5434550526,
      "lat": 13.0552098,
      "lon": 77.6026488,
      "tags": {
        "air_conditioning": "no",
        "amenity": "fast_food",
        "baby_feeding": "no",
        "changing_table": "no",
        "highchair": "no",
        "indoor_seating": "yes",
        "internet_access": "no",
        "internet_access:fee": "no",
        "kids_area:supervised": "yes",
        "level": "1",
        "name": "Udupi Utsav",
        "name:kn": "ಉಡುಪಿ ಉತ್ಸವ",
        "opening_hours": "PH,Mo-Su 06:45-22:45",
        "smoking": "no",
        "takeaway": "yes",
        "toilets": "yes",
        "toilets:access": "customers",
        "toilets:wheelchair": "no",
        "wheelchair": "no"
      }
    },
    {
      "type": "node",
      "id": 5434553922,
      "lat": 13.0494493,
      "lon": 77.5970187,
      "tags": {
        "amenity": "bank",
        "brand": "Syndicate Bank",
        "brand:wikidata": "Q2004088",
        "name": "Syndicate Bank",
        "name:kn": "ಸಿಂಡಿಕೇಟ್ ಬ್ಯಾಂಕ್",
        "opening_hours": "Mo-Fr 09:00-16:00"
      }
    },
    {
      "type": "node",
      "id": 5434601221,
      "lat": 13.0489003,
      "lon": 77.5969232,
      "tags": {
        "name": "Maruthi Bookstore",
        "shop": "books"
      }
    },
    {
      "type": "node",
      "id": 5434601222,
      "lat": 13.048908,
      "lon": 77.596861,
      "tags": {
        "amenity": "fast_food",
        "name": "Brahmins Thatte Idli"
      }
    },
    {
      "type": "node",
      "id": 5434601223,
      "lat": 13.050471,
      "lon": 77.5976521,
      "tags": {
        "amenity": "fast_food",
        "name": "Srinidhi Sagar",
        "name:kn": "ಶ್ರೀನಿಧಿ ಸಾಗರ"
      }
    },
    {
      "type": "node",
      "id": 5434601224,
      "lat": 13.0499864,
      "lon": 77.5977223,
      "tags": {
        "alt_name": "Goli Vada Pav No.1",
        "amenity": "fast_food",
        "brand": "Goli Vada Pav",
        "brand:wikidata": "Q5580697",
        "cuisine": "indian",
        "name": "Goli Vada Pav",
        "name:kn": "ಗೋಲಿ ವಡ ಪಾವ್",
        "takeaway": "yes"
      }
    },
    {
      "type": "node",
      "id": 5520247373,
      "lat": 13.0582417,
      "lon": 77.6024676,
      "tags": {
        "name": "Karya siddhi hanuman",
        "shop": "religion"
      }
    },
    {
      "type": "node",
      "id": 5520247374,
      "lat": 13.0562451,
      "lon": 77.6012716,
      "tags": {
        "amenity": "clinic",
        "description": "computerized ecg, exercise ecg, heart scan",
        "name": "Hebbal Medical Center",
        "name:kn": "ಹೆಬ್ಬಾಳ ಆರೋಗ್ಯ ಕೇಂದ್ರ",
        "opening_hours": "Mo-Sa 10:00-13:00,18:00-21:00; Su 10:00-12:00",
        "phone": "8105999980"
      }
    },
    {
      "type": "node",
      "id": 5520247469,
      "lat": 13.0553127,
      "lon": 77.6012466,
      "tags": {
        "addr:district": "Bengaluru Urban",
        "addr:full": "Varma Layout, Bhuvaneswari Nagar, Hebbal, Bengaluru",
        "addr:postcode": "560092",
        "addr:state": "Karnataka",
        "amenity": "dentist",
        "name": "D care speciality dental clinic",
        "opening_hours": "Mo-Sa 09:30-13:00, 05:30-21:00; Su 09:30-13:00",
        "source": "Local Knowledge"
      }
    },
    {
      "type": "node",
      "id": 5520247470,
      "lat": 13.0552316,
      "lon": 77.6012225,
      "tags": {
        "amenity": "clinic",
        "healthcare": "physiotherapist",
        "name": "Physiotherapy clinic",
        "phone": "9731273126"
      }
    },
    {
      "type": "node",
      "id": 5520247471,
      "lat": 13.0551563,
      "lon": 77.6014292,
      "tags": {
        "name": "Jagdeesh stationary",
        "shop": "gift"
      }
    },
    {
      "type": "node",
      "id": 5520247484,
      "lat": 13.0562676,
      "lon": 77.6004766,
      "tags": {
        "amenity": "kindergarten",
        "name": "Little Elly Preschool"
      }
    },
    {
      "type": "node",
      "id": 5520247485,
      "lat": 13.0555591,
      "lon": 77.6003017,
      "tags": {
        "amenity": "car_rental",
        "name": "Travel cabs"
      }
    },
    {
      "type": "node",
      "id": 5520247486,
      "lat": 13.0551587,
      "lon": 77.6002965,
      "tags": {
        "name": "Aishwarya Bakery",
        "shop": "bakery"
      }
    },
    {
      "type": "node",
      "id": 5520247487,
      "lat": 13.0567164,
      "lon": 77.6023658,
      "tags": {
        "amenity": "place_of_worship",
        "name": "Sri Lakshmi Temple",
        "name:kn": "ಲಕ್ಷ್ಮಿ ದೇವಸ್ಥಾನ",
        "religion": "hindu",
        "shop": "religion"
      }
    },
    {
      "type": "node",
      "id": 5520247488,
      "lat": 13.0557218,
      "lon": 77.6006233,
      "tags": {
        "amenity": "kindergarten",
        "name": "Tots & teens"
      }
    },
    {
      "type": "node",
      "id": 5520247489,
      "lat": 13.0552254,
      "lon": 77.6019284,
      "tags": {
        "name": "Sri Annapoorneshwari Bakery",
        "opening_hours": "PH,Mo-Su 07:30-22:45",
        "shop": "bakery"
      }
    },
    {
      "type": "node",
      "id": 5520247491,
      "lat": 13.0552023,
      "lon": 77.6021755,
      "tags": {
        "amenity": "atm",
        "brand": "State Bank of India",
        "brand:wikidata": "Q1340361",
        "check_date": "2024-12-28",
        "name": "State Bank of India",
        "name:kn": "ಭಾರತೀಯ ಸ್ಟೇಟ್ ಬ್ಯಾಂಕ್",
        "operator": "State Bank of India",
        "operator:wikidata": "Q1340361",
        "short_name": "SBI"
      }
    },
    {
      "type": "node",
      "id": 5520247492,
      "lat": 13.0554196,
      "lon": 77.6027913,
      "tags": {
        "name": "Santosh Jewellers",
        "shop": "jewelry"
      }
    },
    {
      "type": "node",
      "id": 5520247493,
      "lat": 13.0553658,
      "lon": 77.6030345,
      "tags": {
        "amenity": "pharmacy",
        "name": "Sandeep medicals"
      }
    },
    {
      "type": "node",
      "id": 5520247494,
      "lat": 13.0554077,
      "lon": 77.6026614,
      "tags": {
        "amenity": "fast_food",
        "name": "Chings"
      }
    },
    {
      "type": "node",
      "id": 5520248051,
      "lat": 13.0556948,
      "lon": 77.6003197,
      "tags": {
        "amenity": "kindergarten",
        "name": "Kriya preschool"
      }
    },
    {
      "type": "node",
      "id": 5520248052,
      "lat": 13.0553431,
      "lon": 77.6018446,
      "tags": {
        "amenity": "clinic",
        "name": "We care clinic"
      }
    },
    {
      "type": "node",
      "id": 5520248122,
      "lat": 13.0584437,
      "lon": 77.6025902,
      "tags": {
        "name": "Sri subrahmanya temple",
        "shop": "religion"
      }
    },
    {
      "type": "node",
      "id": 5520248452,
      "lat": 13.0553344,
      "lon": 77.6002401,
      "tags": {
        "check_date": "2024-07-08",
        "name": "Visiontech Opticals",
        "shop": "optician"
      }
    },
    {
      "type": "node",
      "id": 5520248629,
      "lat": 13.0551835,
      "lon": 77.6014661,
      "tags": {
        "name": "Fashion wear",
        "shop": "clothes"
      }
    },
    {
      "type": "node",
      "id": 5520248630,
      "lat": 13.0543228,
      "lon": 77.6014986,
      "tags": {
        "name": "Rithu saree collection",
        "shop": "clothes"
      }
    },
    {
      "type": "node",
      "id": 5520248631,
      "lat": 13.0551877,
      "lon": 77.6015928,
      "tags": {
        "amenity": "fast_food",
        "name": "Sri sai hot chips",
        "opening_hours": "PH,Mo-Su 08:00-22:00"
      }
    },
    {
      "type": "node",
      "id": 5520248632,
      "lat": 13.0551933,
      "lon": 77.6016426,
      "tags": {
        "amenity": "fast_food",
        "name": "Anu Sri"
      }
    },
    {
      "type": "node",
      "id": 5520248633,
      "lat": 13.0558683,
      "lon": 77.6001085,
      "tags": {
        "amenity": "clinic",
        "name": "Krishna Clinic",
        "name:kn": "ಕೃಷ್ಣ ಚಿಕಿತ್ಸಾಲಯ"
      }
    },
    {
      "type": "node",
      "id": 5520248634,
      "lat": 13.0551777,
      "lon": 77.6016728,
      "tags": {
        "name": "Mataji mobile and electronics",
        "opening_hours": "PH,Mo-Su 08:30-21:30",
        "shop": "mobile_phone"
      }
    },
    {
      "type": "node",
      "id": 5520248636,
      "lat": 13.0589676,
      "lon": 77.6031563,
      "tags": {
        "leisure": "sports_centre",
        "name": "SA elite sports"
      }
    },
    {
      "type": "node",
      "id": 5520248637,
      "lat": 13.0551606,
      "lon": 77.6004459,
      "tags": {
        "check_date": "2024-07-08",
        "name": "MS Traders",
        "shop": "hardware"
      }
    },
    {
      "type": "node",
      "id": 5520248638,
      "lat": 13.0552591,
      "lon": 77.6018292,
      "tags": {
        "amenity": "driving_school",
        "name": "Bhavani Driving school"
      }
    },
    {
      "type": "node",
      "id": 5520248641,
      "lat": 13.0551732,
      "lon": 77.6025151,
      "tags": {
        "name": "Nandini",
        "name:kn": "ನಂದಿನಿ",
        "opening_hours": "PH,Mo-Su 06:00-23:00",
        "shop": "dairy"
      }
    },
    {
      "type": "node",
      "id": 5520248642,
      "lat": 13.0553708,
      "lon": 77.6029726,
      "tags": {
        "name": "Balaji stores",
        "shop": "gift"
      }
    },
    {
      "type": "node",
      "id": 5520248643,
      "lat": 13.0554489,
      "lon": 77.6031778,
      "tags": {
        "amenity": "atm",
        "brand": "ICICI Bank",
        "brand:wikidata": "Q1653258",
        "name": "ICICI Bank",
        "name:kn": "ಐಸಿಐಸಿಐ ಬ್ಯಾಂಕು",
        "operator": "ICICI Bank",
        "operator:wikidata": "Q1653258",
        "short_name": "ICICI"
      }
    },
    {
      "type": "node",
      "id": 5520248644,
      "lat": 13.0554169,
      "lon": 77.6032158,
      "tags": {
        "name": "Mahalakshmi electricals",
        "shop": "electrical"
      }
    },
    {
      "type": "node",
      "id": 5520248777,
      "lat": 13.0550867,
      "lon": 77.6001726,
      "tags": {
        "name": "Choice mens salon",
        "shop": "beauty"
      }
    },
    {
      "type": "node",
      "id": 5520248783,
      "lat": 13.0554023,
      "lon": 77.6020789,
      "tags": {
        "amenity": "clinic",
        "name": "We care clinic"
      }
    },
    {
      "type": "node",
      "id": 5520248784,
      "lat": 13.055217,
      "lon": 77.6020252,
      "tags": {
        "name": "Sugreshwara provision store",
        "opening_hours": "PH,Mo-Su 07:00-22:30",
        "shop": "yes"
      }
    },
    {
      "type": "node",
      "id": 5520248785,
      "lat": 13.0552204,
      "lon": 77.6022782,
      "tags": {
        "name": "Bharath dry cleaners",
        "opening_hours": "Mo-Sa 09:00-21:00",
        "shop": "dry_cleaning"
      }
    },
    {
      "type": "node",
      "id": 5520248786,
      "lat": 13.0553748,
      "lon": 77.6027984,
      "tags": {
        "name": "Bhyaraveshwar rice traders",
        "shop": "yes"
      }
    },
    {
      "type": "node",
      "id": 5520248787,
      "lat": 13.0553857,
      "lon": 77.60315,
      "tags": {
        "name": "Mahaveer fashion",
        "shop": "fashion"
      }
    },
    {
      "type": "node",
      "id": 5520248788,
      "lat": 13.0554192,
      "lon": 77.6032016,
      "tags": {
        "name": "N.S mens parlour",
        "shop": "beauty"
      }
    },
    {
      "type": "node",
      "id": 5520248789,
      "lat": 13.0554387,
      "lon": 77.6027095,
      "tags": {
        "name": "Warzone",
        "shop": "games"
      }
    },
    {
      "type": "node",
      "id": 5520248821,
      "lat": 13.0554499,
      "lon": 77.6002759,
      "tags": {
        "name": "Shiva enterprises",
        "shop": "hardware"
      }
    },
    {
      "type": "node",
      "id": 5520250461,
      "lat": 13.0554795,
      "lon": 77.6023622,
      "tags": {
        "amenity": "clinic",
        "name": "Ayushmitra clinic"
      }
    },
    {
      "type": "node",
      "id": 5520252186,
      "lat": 13.0566666,
      "lon": 77.6013169,
      "tags": {
        "name": "Chowdeshwari Traders",
        "shop": "hardware"
      }
    },
    {
      "type": "node",
      "id": 5520252188,
      "lat": 13.055404,
      "lon": 77.6027452,
      "tags": {
        "amenity": "clinic",
        "name": "Sham's Child and Adult Care"
      }
    },
    {
      "type": "node",
      "id": 5520252317,
      "lat": 13.0551582,
      "lon": 77.6004529,
      "tags": {
        "check_date": "2024-07-08",
        "name": "Pragathi Chicken Centre",
        "shop": "farm"
      }
    },
    {
      "type": "node",
      "id": 5520252320,
      "lat": 13.0551939,
      "lon": 77.6022105,
      "tags": {
        "name": "Bhoomi Herbal Beauty Parlour",
        "shop": "beauty"
      }
    },
    {
      "type": "node",
      "id": 5520252371,
      "lat": 13.055175,
      "lon": 77.6003703,
      "tags": {
        "air_conditioning": "no",
        "amenity": "fast_food",
        "name": "Ruchi curry point"
      }
    },
    {
      "type": "node",
      "id": 5520252373,
      "lat": 13.0552036,
      "lon": 77.6018338,
      "tags": {
        "name": "Radhakrishna fancy store",
        "shop": "yes"
      }
    },
    {
      "type": "node",
      "id": 5520252374,
      "lat": 13.0553376,
      "lon": 77.6021935,
      "tags": {
        "amenity": "atm",
        "brand": "Bank of Baroda",
        "brand:wikidata": "Q2003797",
        "cash_in": "no",
        "name": "Bank of Baroda",
        "name:kn": "ಬ್ಯಾಂಕ್ ಆಫ್ ಬರೋಡ",
        "operator": "Bank of Baroda",
        "operator:wikidata": "Q2003797"
      }
    },
    {
      "type": "node",
      "id": 5520252375,
      "lat": 13.0552027,
      "lon": 77.6028234,
      "tags": {
        "addr:district": "Bengaluru Urban",
        "addr:full": "Bhuvaneswari Nagar, Hebbal Kempapura, Bengaluru",
        "addr:postcode": "560024",
        "addr:state": "Karnataka",
        "amenity": "hospital",
        "healthcare": "yes",
        "name": "Care Health",
        "source": "Local Knowledge"
      }
    },
    {
      "type": "node",
      "id": 5520252376,
      "lat": 13.0554214,
      "lon": 77.6028101,
      "tags": {
        "amenity": "fast_food",
        "name": "Maa Binduvasini Chats corner"
      }
    },
    {
      "type": "node",
      "id": 5520252377,
      "lat": 13.0554001,
      "lon": 77.6028356,
      "tags": {
        "name": "Anmol garments",
        "shop": "clothes"
      }
    },
    {
      "type": "node",
      "id": 5520252378,
      "lat": 13.0553818,
      "lon": 77.6030497,
      "tags": {
        "name": "Chamundeswari Electricals",
        "shop": "yes"
      }
    },
    {
      "type": "node",
      "id": 5520252458,
      "lat": 13.0552092,
      "lon": 77.601991,
      "tags": {
        "shop": "clothes"
      }
    },
    {
      "type": "node",
      "id": 5520252460,
      "lat": 13.0554447,
      "lon": 77.602758,
      "tags": {
        "name": "Shree Lakshmi gifts and fancy store",
        "shop": "convenience"
      }
    },
    {
      "type": "node",
      "id": 5520252461,
      "lat": 13.0553665,
      "lon": 77.6030063,
      "tags": {
        "name": "Dolly creations",
        "shop": "clothes"
      }
    },
    {
      "type": "node",
      "id": 5520252462,
      "lat": 13.0554599,
      "lon": 77.6031448,
      "tags": {
        "amenity": "clinic",
        "name": "Rangalakshmi Netralaya",
        "name:kn": "ರಂಗಸ್ವಾಮಿ ನೇತ್ರಾಲಯ"
      }
    },
    {
      "type": "node",
      "id": 5520252463,
      "lat": 13.0553978,
      "lon": 77.603267,
      "tags": {
        "name": "Fazil home needs",
        "shop": "department_store"
      }
    },
    {
      "type": "node",
      "id": 5520252521,
      "lat": 13.0551634,
      "lon": 77.6003358,
      "tags": {
        "name": "A. M buy and save",
        "shop": "yes"
      }
    },
    {
      "type": "node",
      "id": 5520252522,
      "lat": 13.0554016,
      "lon": 77.6028215,
      "tags": {
        "name": "Vinayaka stores",
        "shop": "yes"
      }
    },
    {
      "type": "node",
      "id": 5520252721,
      "lat": 13.0554228,
      "lon": 77.602798,
      "tags": {
        "name": "RS color lab and studio",
        "shop": "photo_studio"
      }
    },
    {
      "type": "node",
      "id": 5520252723,
      "lat": 13.0554013,
      "lon": 77.6032044,
      "tags": {
        "amenity": "clinic",
        "name": "Sri Vinayaka Diagnostic Laboratory"
      }
    },
    {
      "type": "node",
      "id": 5524163967,
      "lat": 13.0551061,
      "lon": 77.6009609,
      "tags": {
        "name": "Microtek computers",
        "opening_hours": "Mo-Sa 09:00-21:00",
        "shop": "computer"
      }
    },
    {
      "type": "node",
      "id": 5524164989,
      "lat": 13.0551721,
      "lon": 77.6013115,
      "tags": {
        "amenity": "atm",
        "brand": "Axis Bank",
        "brand:wikidata": "Q2003549",
        "cash_in": "yes",
        "name": "Axis Bank",
        "name:kn": "ಆಕ್ಸಿಸ್ ಬ್ಯಾಂಕ್",
        "operator": "Axis Bank",
        "operator:wikidata": "Q2003549"
      }
    },
    {
      "type": "node",
      "id": 5524165029,
      "lat": 13.0551777,
      "lon": 77.6013724,
      "tags": {
        "amenity": "dentist",
        "check_date:opening_hours": "2023-09-22",
        "name": "Dento world",
        "opening_hours": "Mo-Sa 10:30-13:30,16:30-21:00; Su 11:00-13:00"
      }
    },
    {
      "type": "node",
      "id": 5524165030,
      "lat": 13.0551729,
      "lon": 77.6012573,
      "tags": {
        "name": "Varnika herbal beauty parlour",
        "shop": "beauty"
      }
    },
    {
      "type": "node",
      "id": 5524165031,
      "lat": 13.0551718,
      "lon": 77.6012008,
      "tags": {
        "amenity": "fast_food",
        "name": "Klassy Namkeen Mart"
      }
    },
    {
      "type": "node",
      "id": 5524165032,
      "lat": 13.0551752,
      "lon": 77.6011293,
      "tags": {
        "name": "Santosh Jewellers",
        "shop": "jewelry"
      }
    },
    {
      "type": "node",
      "id": 5524165033,
      "lat": 13.055118,
      "lon": 77.6010506,
      "tags": {
        "name": "Gopala platinum TMT",
        "opening_hours": "Mo-Sa 10:00-20:30",
        "shop": "trade"
      }
    },
    {
      "type": "node",
      "id": 5524165034,
      "lat": 13.0551196,
      "lon": 77.6009229,
      "tags": {
        "name": "Karnataka garage",
        "opening_hours": "PH,We,Th,Sa-Mo 08:00-22:30",
        "shop": "car_repair"
      }
    },
    {
      "type": "node",
      "id": 5838249385,
      "lat": 13.0580013,
      "lon": 77.5960278,
      "tags": {
        "amenity": "restaurant",
        "name": "Balaji Andhra Mess"
      }
    },
    {
      "type": "node",
      "id": 6239093323,
      "lat": 13.0544039,
      "lon": 77.6021484,
      "tags": {
        "leisure": "park",
        "name": "Bhuvaneshwari Nagar Park",
        "name:kn": "ಭುವನೇಶ್ವರಿ ನಗರ ಉದ್ಯಾನವನ"
      }
    },
    {
      "type": "node",
      "id": 6569023749,
      "lat": 13.0565998,
      "lon": 77.5945406,
      "tags": {
        "addr:city": "Bengaluru",
        "addr:country": "IN",
        "addr:housename": "RMZ Latitude",
        "addr:postcode": "560024",
        "addr:street": "Bellary Road",
        "addr:suburb": "Hebbal",
        "addr:unit": "9th Floor",
        "amenity": "coworking_space",
        "brand": "WeWork",
        "brand:wikidata": "Q19995004",
        "fee": "yes",
        "level": "9",
        "name": "WeWork",
        "office": "coworking",
        "operator": "WeWork",
        "website": "https://www.wework.com/buildings/rmz-latitude-commercial--bengaluru--Karnataka"
      }
    },
    {
      "type": "node",
      "id": 6856463547,
      "lat": 13.0493542,
      "lon": 77.5947779,
      "tags": {
        "leisure": "fitness_station"
      }
    },
    {
      "type": "node",
      "id": 6856463548,
      "lat": 13.0494208,
      "lon": 77.5947739,
      "tags": {
        "leisure": "sports_centre"
      }
    },
    {
      "type": "node",
      "id": 6886594821,
      "lat": 13.0544219,
      "lon": 77.5911999,
      "tags": {
        "addr:city": "Bangalore",
        "addr:district": "BENGALURU URBAN",
        "addr:full": "43/2, Bellary Road, NH-4, Sahakar Nagar, Hebbal",
        "addr:postcode": "560092",
        "addr:state": "Karnataka",
        "amenity": "blood_bank",
        "contact:helpline": "080 4342 0100",
        "contact:mobile": "9844844708",
        "contact:phone": "8043420213",
        "email": "info@asterbangalore.com",
        "name": "M/s. Aster CMI Hospital Blood Bank",
        "opening_hours": "24/7",
        "operator:type": "private",
        "source": "OpenGovernmentData",
        "website": "https://asterbangalore.com/"
      }
    },
    {
      "type": "node",
      "id": 6944577884,
      "lat": 13.0657486,
      "lon": 77.5992653,
      "tags": {
        "addr:district": "Bengaluru Urban",
        "addr:full": "No. 1, Near Water Tank Jakkur Main Road Amruthahalli",
        "addr:postcode": "560092",
        "addr:state": "Karnataka",
        "amenity": "hospital",
        "name": "Amrutha Hospital",
        "name:kn": "ಅಂಬುರ್ ಬಿರಿಯಾನಿ",
        "source": "OpenGovernmentData"
      }
    },
    {
      "type": "node",
      "id": 7178597284,
      "lat": 13.0491295,
      "lon": 77.601753,
      "tags": {
        "addr:city": "Bengaluru",
        "addr:country": "IN",
        "addr:housenumber": "29",
        "addr:postcode": "560024",
        "addr:suburb": "Hebbal Kempapura",
        "alt_name": "Loafer and Company",
        "amenity": "cafe",
        "email": "loaferandco@gmail.com",
        "mobile": "+91 77607 60727",
        "name": "Loafer and Co.",
        "shop": "bakery",
        "website": "https://loaferandco.com"
      }
    },
    {
      "type": "node",
      "id": 7299778071,
      "lat": 13.0491647,
      "lon": 77.6026073,
      "tags": {
        "amenity": "bank",
        "atm": "yes",
        "brand": "Corporation Bank",
        "name": "Corporation Bank",
        "name:kn": "ಕಾರ್ಪರೇಷನ್ ಬ್ಯಾಂಕ್",
        "operator": "Corporation Bank"
      }
    },
    {
      "type": "node",
      "id": 7577248198,
      "lat": 13.0522989,
      "lon": 77.6040414,
      "tags": {
        "addr:district": "Bengaluru Urban",
        "addr:full": "Kempapura Main Road, Hebbal, Bengaluru",
        "addr:postcode": "560024",
        "addr:state": "Karnataka",
        "amenity": "dentist",
        "name": "Sai Surya Multi - Speciality Dental Clinic",
        "source": "Local Knowledge"
      }
    },
    {
      "type": "node",
      "id": 7577248203,
      "lat": 13.055649,
      "lon": 77.605321,
      "tags": {
        "addr:district": "Bengaluru Urban",
        "addr:full": "Bhuvaneswari Nagar, Bengaluru",
        "addr:postcode": "560024",
        "addr:state": "Karnataka",
        "amenity": "dentist",
        "name": "Bhavana Dental Care",
        "source": "Local Knowledge"
      }
    },
    {
      "type": "node",
      "id": 7577248204,
      "lat": 13.0544322,
      "lon": 77.6038273,
      "tags": {
        "addr:district": "Bengaluru Urban",
        "addr:full": "Bhuvaneswari Nagar, Hebbal Kempapura, Bengaluru",
        "addr:postcode": "560024",
        "addr:state": "Karnataka",
        "amenity": "clinic",
        "name": "Dr. Uma Homeo Clinic",
        "source": "Local Knowledge"
      }
    },
    {
      "type": "node",
      "id": 7577248207,
      "lat": 13.0555334,
      "lon": 77.6044008,
      "tags": {
        "addr:district": "Bengaluru Urban",
        "addr:full": "Bhuvaneshwari Nagar, Hebbal Kempapura, Bengaluru",
        "addr:postcode": "560024",
        "addr:state": "Karnataka",
        "amenity": "clinic",
        "name": "Dr. Archana's ENT Care Centre",
        "source": "Local Knowledge"
      }
    },
    {
      "type": "node",
      "id": 7577248216,
      "lat": 13.0555615,
      "lon": 77.6044933,
      "tags": {
        "addr:district": "Bengaluru Urban",
        "addr:full": "Bhuvaneswari Nagar, Hebbal Kempapura, Bengaluru",
        "addr:postcode": "560024",
        "addr:state": "Karnataka",
        "amenity": "clinic",
        "name": "Agastya Speciality Clinic",
        "source": "Local Knowledge"
      }
    },
    {
      "type": "node",
      "id": 7577248224,
      "lat": 13.0528211,
      "lon": 77.6041042,
      "tags": {
        "addr:district": "Bengaluru Urban",
        "addr:full": "Hebbal Kempapura, Bengaluru",
        "addr:postcode": "560024",
        "addr:state": "Karnataka",
        "amenity": "hospital",
        "check_date": "2024-07-08",
        "name": "Icon Hospital",
        "source": "Local Knowledge"
      }
    },
    {
      "type": "node",
      "id": 7577248232,
      "lat": 13.0543269,
      "lon": 77.6038207,
      "tags": {
        "addr:district": "Bengaluru Urban",
        "addr:full": "Bhuvaneswari Nagar, Hebbal Kempapura, Bengaluru",
        "addr:postcode": "560024",
        "addr:state": "Karnataka",
        "amenity": "clinic",
        "name": "Merlins Trichology Clinic",
        "source": "Local Knowledge"
      }
    },
    {
      "type": "node",
      "id": 7577248241,
      "lat": 13.0555779,
      "lon": 77.6050535,
      "tags": {
        "addr:district": "Bengaluru Urban",
        "addr:full": "Bhuvaneswari Nagar, Hebbal Kempapura, Bengaluru",
        "addr:state": "Karnataka",
        "shop": "convenience",
        "source": "Local Knowledge"
      }
    },
    {
      "type": "node",
      "id": 7577248243,
      "lat": 13.0556587,
      "lon": 77.6026264,
      "tags": {
        "addr:district": "Bengaluru Urban",
        "addr:full": "Bhuvaneswari Nagar, Hebbal Kempapura, Bengaluru",
        "addr:postcode": "560092",
        "addr:state": "Karnataka",
        "amenity": "clinic",
        "name": "Sham's Child and Adult Care",
        "source": "Local Knowledge"
      }
    },
    {
      "type": "node",
      "id": 7577248244,
      "lat": 13.0552275,
      "lon": 77.6024335,
      "tags": {
        "addr:district": "Bengaluru Urban",
        "addr:full": "Rajanna Building, Vidyaranyapura, Bengaluru",
        "addr:postcode": "560097",
        "addr:state": "Karnataka",
        "amenity": "clinic",
        "name": "Prarthana Home Health Care",
        "source": "Local Knowledge"
      }
    },
    {
      "type": "node",
      "id": 7577248252,
      "lat": 13.055296,
      "lon": 77.601208,
      "tags": {
        "addr:district": "Bengaluru Urban",
        "addr:full": "Varma Layout, Bhuvaneswari Nagar, Hebbal, Bengaluru",
        "addr:postcode": "560092",
        "addr:state": "Karnataka",
        "amenity": "dentist",
        "name": "D Care Dental Clinic",
        "source": "Local Knowledge"
      }
    },
    {
      "type": "node",
      "id": 7577248263,
      "lat": 13.0530655,
      "lon": 77.6050627,
      "tags": {
        "addr:district": "Bengaluru Urban",
        "addr:full": "Bhuvaneswari Nagar, Hebbal Kempapura, Bengaluru",
        "addr:postcode": "560024",
        "addr:state": "Karnataka",
        "amenity": "clinic",
        "name": "Saaol Heart Centre",
        "source": "Local Knowledge"
      }
    },
    {
      "type": "node",
      "id": 7577248269,
      "lat": 13.0658472,
      "lon": 77.5992844,
      "tags": {
        "addr:district": "Bengaluru Urban",
        "addr:full": "Talacauvery Layout, Sneha Nagar, Byatarayanapura, Bengaluru",
        "addr:postcode": "560092",
        "addr:state": "Karnataka",
        "amenity": "hospital",
        "healthcare": "hospital",
        "name": "Eswar Women and Day Care Hospital",
        "source": "Local Knowledge"
      }
    },
    {
      "type": "node",
      "id": 8094156976,
      "lat": 13.0587702,
      "lon": 77.5914001,
      "tags": {
        "name": "My Pintoo",
        "shop": "shoe_repair"
      }
    },
    {
      "type": "node",
      "id": 8985207467,
      "lat": 13.0586132,
      "lon": 77.5931287,
      "tags": {
        "amenity": "restaurant",
        "name": "Thalassery Restaurant",
        "opening_hours": "Mo-Su 11:00-22:30"
      }
    },
    {
      "type": "node",
      "id": 9583428989,
      "lat": 13.0577416,
      "lon": 77.5929648,
      "tags": {
        "name": "Girias",
        "name:kn": "ಗಿರಿಯಾಸ್",
        "shop": "electronics"
      }
    },
    {
      "type": "node",
      "id": 9583428990,
      "lat": 13.0596934,
      "lon": 77.5930734,
      "tags": {
        "brand": "Nature's Basket",
        "brand:wikidata": "Q28174237",
        "name": "Nature's Basket",
        "shop": "supermarket"
      }
    },
    {
      "type": "node",
      "id": 9583509828,
      "lat": 13.0624773,
      "lon": 77.5928615,
      "tags": {
        "name": "Amma's Pastries",
        "shop": "bakery"
      }
    },
    {
      "type": "node",
      "id": 9830286756,
      "lat": 13.0556585,
      "lon": 77.6066025,
      "tags": {
        "name": "Pollution Check",
        "opening_hours": "Mo-Sa 09:00-17:30",
        "shop": "car_parts"
      }
    },
    {
      "type": "node",
      "id": 9830286757,
      "lat": 13.0556637,
      "lon": 77.6065435,
      "tags": {
        "access": "customers",
        "amenity": "toilets",
        "wheelchair": "yes"
      }
    },
    {
      "type": "node",
      "id": 10009663799,
      "lat": 13.0514678,
      "lon": 77.6041664,
      "tags": {
        "amenity": "pharmacy",
        "dispensing": "yes",
        "healthcare": "pharmacy",
        "name": "Brothers Chemist"
      }
    },
    {
      "type": "node",
      "id": 10009663804,
      "lat": 13.0522981,
      "lon": 77.6042904,
      "tags": {
        "air_conditioning": "no",
        "amenity": "restaurant",
        "cuisine": "south_indian;north_indian;juice;snacks",
        "name": "Udupi Upachar",
        "opening_hours": "PH,Mo-Su 07:30-22:45"
      }
    },
    {
      "type": "node",
      "id": 10009663809,
      "lat": 13.0533486,
      "lon": 77.6044178,
      "tags": {
        "amenity": "ice_cream",
        "name": "Apsara Ice Cream",
        "opening_hours": "PH,Mo-Su 10:00-22:00"
      }
    },
    {
      "type": "node",
      "id": 10009663810,
      "lat": 13.0532734,
      "lon": 77.6044159,
      "tags": {
        "name": "Pat-a-Cake",
        "opening_hours": "PH,Mo-Su 08:00-22:00",
        "shop": "bakery"
      }
    },
    {
      "type": "node",
      "id": 10009663815,
      "lat": 13.0531427,
      "lon": 77.604269,
      "tags": {
        "female": "yes",
        "male": "yes",
        "name": "Green Trends",
        "shop": "hairdresser"
      }
    },
    {
      "type": "node",
      "id": 10110472158,
      "lat": 13.0605339,
      "lon": 77.5897128,
      "tags": {
        "amenity": "restaurant",
        "cuisine": "korean",
        "name": "Hi Seoul"
      }
    },
    {
      "type": "node",
      "id": 10162630526,
      "lat": 13.0520991,
      "lon": 77.5940081,
      "tags": {
        "name": "Westside",
        "shop": "clothes"
      }
    },
    {
      "type": "node",
      "id": 10162630527,
      "lat": 13.0517758,
      "lon": 77.5939389,
      "tags": {
        "name": "Star Bazaar",
        "shop": "supermarket"
      }
    },
    {
      "type": "node",
      "id": 10219023838,
      "lat": 13.0553554,
      "lon": 77.5930022,
      "tags": {
        "brand": "Fabindia",
        "brand:wikidata": "Q5427779",
        "name": "Fabindia",
        "shop": "clothes"
      }
    },
    {
      "type": "node",
      "id": 10219023839,
      "lat": 13.0554338,
      "lon": 77.5930008,
      "tags": {
        "amenity": "restaurant",
        "name": "Peepai Kitchen & Brewery"
      }
    },
    {
      "type": "node",
      "id": 10242924674,
      "lat": 13.058757,
      "lon": 77.5913487,
      "tags": {
        "amenity": "recycling",
        "name": "BBMP Dry Waste Collection Center",
        "name:kn": "ಒಣ ತ್ಯಾಜ್ಯ ನಿರ್ವಹಣೆಗೆ ಸ್ಥಳ",
        "recycling_type": "centre"
      }
    },
    {
      "type": "node",
      "id": 10293921756,
      "lat": 13.0628823,
      "lon": 77.5940591,
      "tags": {
        "brand": "Simpli Namdhari's",
        "diet:vegetarian": "only",
        "name": "Simpli Namdhari's",
        "organic": "only",
        "shop": "supermarket",
        "website": "https://www.simplinamdharis.com/"
      }
    },
    {
      "type": "node",
      "id": 10600476820,
      "lat": 13.0518169,
      "lon": 77.5944722,
      "tags": {
        "addr:city": "Bangalore",
        "addr:country": "IN",
        "addr:housename": "Umiya Velociti",
        "addr:postcode": "560024",
        "addr:street": "Bellary Road",
        "addr:suburb": "Hebbal",
        "amenity": "restaurant",
        "delivery": "yes",
        "level": "1",
        "name": "Prequel",
        "takeaway": "yes"
      }
    },
    {
      "type": "node",
      "id": 10695242202,
      "lat": 13.0519109,
      "lon": 77.5942844,
      "tags": {
        "addr:city": "Bangalore",
        "addr:country": "IN",
        "addr:housename": "Umiya Velociti",
        "addr:postcode": "560024",
        "addr:street": "Bellary Road",
        "addr:suburb": "Hebbal",
        "amenity": "restaurant",
        "contact:instagram": "luckychan.official",
        "cuisine": "sushi",
        "delivery": "yes",
        "name": "Lucky Chan",
        "phone": "8296031044",
        "takeaway": "yes",
        "website": "https://luckychan.dotpe.in/"
      }
    },
    {
      "type": "node",
      "id": 10695273908,
      "lat": 13.0553339,
      "lon": 77.5940306,
      "tags": {
        "addr:city": "Bangalore",
        "addr:country": "IN",
        "addr:housename": "Godrej Azure",
        "addr:postcode": "560024",
        "addr:street": "Bellary Road",
        "addr:suburb": "Hebbal",
        "amenity": "restaurant",
        "cuisine": "italian",
        "name": "Chianti"
      }
    },
    {
      "type": "node",
      "id": 10695273909,
      "lat": 13.0553896,
      "lon": 77.5943314,
      "tags": {
        "addr:city": "Bangalore",
        "addr:country": "IN",
        "addr:housename": "Godrej Azure",
        "addr:postcode": "560024",
        "addr:street": "Bellary Road",
        "addr:suburb": "Hebbal",
        "amenity": "pub",
        "level": "12",
        "name": "Candles Brewhouse",
        "opening_hours": "12:00-01:00",
        "toilets:wheelchair": "yes",
        "wheelchair": "yes"
      }
    },
    {
      "type": "node",
      "id": 10944433589,
      "lat": 13.055451,
      "lon": 77.5940239,
      "tags": {
        "addr:city": "Bangalore",
        "addr:country": "IN",
        "addr:hamlet": "Hebbal",
        "addr:street": "Bellary Road",
        "amenity": "restaurant",
        "cuisine": "american",
        "delivery": "yes",
        "name": "Hebbal Social",
        "smoking": "separated",
        "takeaway": "yes"
      }
    },
    {
      "type": "node",
      "id": 11125643773,
      "lat": 13.0592218,
      "lon": 77.5907848,
      "tags": {
        "amenity": "shelter",
        "shelter_type": "gazebo"
      }
    },
    {
      "type": "node",
      "id": 11153633341,
      "lat": 13.0600654,
      "lon": 77.592715,
      "tags": {
        "amenity": "restaurant",
        "name": "Kyba"
      }
    },
    {
      "type": "node",
      "id": 11205796364,
      "lat": 13.0552622,
      "lon": 77.5941685,
      "tags": {
        "amenity": "restaurant",
        "cuisine": "barbecue",
        "name": "Barbeque Nation",
        "name:kn": "ಬರ್ಬಕ್ಯು ನೇಶನ್"
      }
    },
    {
      "type": "node",
      "id": 11205796373,
      "lat": 13.0516944,
      "lon": 77.5939391,
      "tags": {
        "name": "Zudio",
        "shop": "clothes"
      }
    },
    {
      "type": "node",
      "id": 11209916090,
      "lat": 13.058685,
      "lon": 77.5924599,
      "tags": {
        "amenity": "restaurant",
        "check_date": "2023-09-22",
        "name": "Mani's Dum Biryani",
        "wheelchair": "no"
      }
    },
    {
      "type": "node",
      "id": 11209916091,
      "lat": 13.0586257,
      "lon": 77.5924592,
      "tags": {
        "amenity": "doctors",
        "check_date": "2023-09-22",
        "healthcare": "doctor",
        "healthcare:speciality": "paediatrics",
        "name": "mom&me"
      }
    },
    {
      "type": "node",
      "id": 11209916092,
      "lat": 13.0586149,
      "lon": 77.5926095,
      "tags": {
        "amenity": "restaurant",
        "check_date": "2023-09-22",
        "name": "Malwan Tadka"
      }
    },
    {
      "type": "node",
      "id": 11215500029,
      "lat": 13.0579787,
      "lon": 77.5929997,
      "tags": {
        "brand": "Hyundai",
        "brand:wikidata": "Q55931",
        "name": "Hyundai",
        "operator": "Lakshmi Hyundai",
        "shop": "car"
      }
    },
    {
      "type": "node",
      "id": 11219782001,
      "lat": 13.0625167,
      "lon": 77.5928357,
      "tags": {
        "amenity": "pharmacy",
        "healthcare": "pharmacy",
        "name": "SVM Pharmacy"
      }
    },
    {
      "type": "node",
      "id": 11219782002,
      "lat": 13.062485,
      "lon": 77.5929199,
      "tags": {
        "name": "Baby Nest",
        "shop": "baby_goods"
      }
    },
    {
      "type": "node",
      "id": 11219782011,
      "lat": 13.0625843,
      "lon": 77.5923963,
      "tags": {
        "name": "FNP Cakes",
        "shop": "bakery"
      }
    },
    {
      "type": "node",
      "id": 11219782012,
      "lat": 13.0626229,
      "lon": 77.5923979,
      "tags": {
        "name": "FNP Ferns and Petals",
        "shop": "garden_centre"
      }
    },
    {
      "type": "node",
      "id": 11219782013,
      "lat": 13.0627349,
      "lon": 77.5923801,
      "tags": {
        "amenity": "money_transfer",
        "brand": "Western Union",
        "brand:wikidata": "Q861042",
        "name": "Western Union"
      }
    },
    {
      "type": "node",
      "id": 11219782014,
      "lat": 13.0627057,
      "lon": 77.5923785,
      "tags": {
        "name": "lenzkare.in",
        "shop": "optician"
      }
    },
    {
      "type": "node",
      "id": 11219782015,
      "lat": 13.0627373,
      "lon": 77.5923307,
      "tags": {
        "name": "faye.in",
        "shop": "clothes"
      }
    },
    {
      "type": "node",
      "id": 11219782016,
      "lat": 13.0627974,
      "lon": 77.592266,
      "tags": {
        "clothes": "underwear",
        "name": "Jockey",
        "shop": "clothes"
      }
    },
    {
      "type": "node",
      "id": 11219782017,
      "lat": 13.0628197,
      "lon": 77.5922136,
      "tags": {
        "name": "Bounce Spa and Salon",
        "shop": "hairdresser"
      }
    },
    {
      "type": "node",
      "id": 11219782018,
      "lat": 13.0627654,
      "lon": 77.5922289,
      "tags": {
        "amenity": "dentist",
        "healthcare": "dentist",
        "name": "Dentium"
      }
    },
    {
      "type": "node",
      "id": 11219782019,
      "lat": 13.0628956,
      "lon": 77.5920611,
      "tags": {
        "name": "Designer Destinations",
        "shop": "travel_agency"
      }
    },
    {
      "type": "node",
      "id": 11219782020,
      "lat": 13.0629097,
      "lon": 77.5920231,
      "tags": {
        "name": "Mahadev mobiles",
        "shop": "mobile_phone"
      }
    },
    {
      "type": "node",
      "id": 11219782021,
      "lat": 13.0629266,
      "lon": 77.5919849,
      "tags": {
        "name": "Image Beauty World",
        "shop": "hairdresser"
      }
    },
    {
      "type": "node",
      "id": 11219782022,
      "lat": 13.0629461,
      "lon": 77.5920035,
      "tags": {
        "name": "Protein Point",
        "shop": "nutrition_supplements"
      }
    },
    {
      "type": "node",
      "id": 11219782023,
      "lat": 13.0629383,
      "lon": 77.5919502,
      "tags": {
        "name": "Jayateja Jewellers",
        "shop": "jewelry"
      }
    },
    {
      "type": "node",
      "id": 11219782024,
      "lat": 13.0629587,
      "lon": 77.5919622,
      "tags": {
        "amenity": "restaurant",
        "name": "Donne Biriyani Aramane"
      }
    },
    {
      "type": "node",
      "id": 11219782025,
      "lat": 13.0629032,
      "lon": 77.5919506,
      "tags": {
        "amenity": "fast_food",
        "cuisine": "pizza",
        "name": "Mojo Pizza"
      }
    },
    {
      "type": "node",
      "id": 11219782026,
      "lat": 13.0628837,
      "lon": 77.5920111,
      "tags": {
        "amenity": "restaurant",
        "name": "Box8"
      }
    },
    {
      "type": "node",
      "id": 11219782027,
      "lat": 13.0629924,
      "lon": 77.5918882,
      "tags": {
        "name": "Blak The Shoe Store",
        "shop": "shoes"
      }
    },
    {
      "type": "node",
      "id": 11219782028,
      "lat": 13.0630176,
      "lon": 77.5918405,
      "tags": {
        "brand": "Samsung",
        "brand:wikidata": "Q20718",
        "name": "Samsung",
        "name:kn": "ಸ್ಯಾಮ್‌ಸಂಗ್",
        "operator": "Pinnacle Enterprises",
        "shop": "electronics"
      }
    },
    {
      "type": "node",
      "id": 11219782030,
      "lat": 13.06299,
      "lon": 77.5918316,
      "tags": {
        "amenity": "dentist",
        "healthcare": "dentist",
        "name": "Cross Dental Care"
      }
    },
    {
      "type": "node",
      "id": 11219782031,
      "lat": 13.0630418,
      "lon": 77.5917159,
      "tags": {
        "amenity": "bank",
        "brand": "Yes Bank",
        "brand:wikidata": "Q2040394",
        "name": "Yes Bank",
        "name:kn": "ಯಸ್ ಬ್ಯಾಂಕ್"
      }
    },
    {
      "type": "node",
      "id": 11219782034,
      "lat": 13.0631702,
      "lon": 77.5915292,
      "tags": {
        "name": "Occhi Eyewear",
        "shop": "optician"
      }
    },
    {
      "type": "node",
      "id": 11219782035,
      "lat": 13.0631751,
      "lon": 77.5914991,
      "tags": {
        "amenity": "ice_cream",
        "name": "thancos natural"
      }
    },
    {
      "type": "node",
      "id": 11220149727,
      "lat": 13.0632662,
      "lon": 77.5919337,
      "tags": {
        "name": "Unlimited",
        "shop": "clothes"
      }
    },
    {
      "type": "node",
      "id": 11220149728,
      "lat": 13.0632661,
      "lon": 77.5917897,
      "tags": {
        "amenity": "atm",
        "brand": "HDFC Bank",
        "brand:wikidata": "Q631047",
        "operator": "HDFC Bank",
        "operator:wikidata": "Q631047",
        "short_name": "HDFC"
      }
    },
    {
      "type": "node",
      "id": 11220149729,
      "lat": 13.0631601,
      "lon": 77.5920908,
      "tags": {
        "name": "health & glow",
        "shop": "cosmetics"
      }
    },
    {
      "type": "node",
      "id": 11220149730,
      "lat": 13.0632636,
      "lon": 77.5921517,
      "tags": {
        "name": "Naturals",
        "shop": "hairdresser"
      }
    },
    {
      "type": "node",
      "id": 11220149731,
      "lat": 13.0630734,
      "lon": 77.5921547,
      "tags": {
        "amenity": "fast_food",
        "cuisine": "kebab",
        "name": "Shiva's kabab corner"
      }
    },
    {
      "type": "node",
      "id": 11220149732,
      "lat": 13.0630591,
      "lon": 77.5922004,
      "tags": {
        "amenity": "restaurant",
        "name": "hyderabad bawarchi Multi Cuisine Restaurant"
      }
    },
    {
      "type": "node",
      "id": 11220149733,
      "lat": 13.0630687,
      "lon": 77.5923045,
      "tags": {
        "brand": "Thomas Cook",
        "brand:wikidata": "Q2141800",
        "name": "Thomas Cook",
        "shop": "travel_agency"
      }
    },
    {
      "type": "node",
      "id": 11220149734,
      "lat": 13.0630093,
      "lon": 77.592307,
      "tags": {
        "brand": "Samsung",
        "brand:wikidata": "Q20718",
        "name": "Samsung",
        "shop": "electronics"
      }
    },
    {
      "type": "node",
      "id": 11220149735,
      "lat": 13.0630267,
      "lon": 77.5922791,
      "tags": {
        "shop": "dry_cleaning"
      }
    },
    {
      "type": "node",
      "id": 11220149736,
      "lat": 13.062827,
      "lon": 77.5927911,
      "tags": {
        "amenity": "dentist",
        "healthcare": "dentist",
        "name": "All Smiles the dental clinic"
      }
    },
    {
      "type": "node",
      "id": 11220149737,
      "lat": 13.0627945,
      "lon": 77.5927627,
      "tags": {
        "name": "Krishna",
        "shop": "electrical"
      }
    },
    {
      "type": "node",
      "id": 11304909312,
      "lat": 13.0616595,
      "lon": 77.5940832,
      "tags": {
        "amenity": "parking_entrance",
        "parking": "underground"
      }
    },
    {
      "type": "node",
      "id": 11331084829,
      "lat": 13.053932,
      "lon": 77.6019154,
      "tags": {
        "name": "Kaveri Provision Store",
        "opening_hours": "PH,Mo-Su 08:00-22:00",
        "shop": "convenience"
      }
    },
    {
      "type": "node",
      "id": 11331106376,
      "lat": 13.0541756,
      "lon": 77.6019547,
      "tags": {
        "name": "Vishnu Electricals",
        "opening_hours": "PH,Mo-Su 08:00-22:00",
        "shop": "electrical"
      }
    },
    {
      "type": "node",
      "id": 11331119805,
      "lat": 13.0538127,
      "lon": 77.6020437,
      "tags": {
        "name": "Manjunatha Condiments",
        "opening_hours": "Mo-Sa 06:00-22:55",
        "shop": "bakery"
      }
    },
    {
      "type": "node",
      "id": 11331123897,
      "lat": 13.0538903,
      "lon": 77.6020598,
      "tags": {
        "name": "Mahima Kerala Store",
        "opening_hours": "Mo-Fr 07:30-21:30",
        "shop": "convenience"
      }
    },
    {
      "type": "node",
      "id": 11331124545,
      "lat": 13.0538541,
      "lon": 77.6020498,
      "tags": {
        "name": "Mangalore Jewellery",
        "opening_hours": "Mo-Sa 10:00-21:30",
        "shop": "jewelry"
      }
    },
    {
      "type": "node",
      "id": 11331134583,
      "lat": 13.0540609,
      "lon": 77.601974,
      "tags": {
        "name": "Sri Nandikeshwara Condiments and Juice Centre",
        "opening_hours": "PH,Mo-Su 05:30-23:00",
        "shop": "bakery"
      }
    },
    {
      "type": "node",
      "id": 11331139537,
      "lat": 13.0540013,
      "lon": 77.6019531,
      "tags": {
        "name": "Balaji Rice Traders",
        "opening_hours": "Mo-Su 07:30-22:30",
        "shop": "convenience"
      }
    },
    {
      "type": "node",
      "id": 11331151080,
      "lat": 13.0537913,
      "lon": 77.6019048,
      "tags": {
        "amenity": "place_of_worship",
        "denomination": "shaivism",
        "name": "Sri Ayappa Swamy Temple",
        "religion": "hindu",
        "wheelchair": "no"
      }
    },
    {
      "type": "node",
      "id": 11331152303,
      "lat": 13.0542418,
      "lon": 77.6019172,
      "tags": {
        "name": "Dmart",
        "opening_hours": "PH,Mo-Su 08:00-22:30",
        "shop": "supermarket"
      }
    },
    {
      "type": "node",
      "id": 11331322601,
      "lat": 13.0555168,
      "lon": 77.6031771,
      "tags": {
        "amenity": "bank",
        "brand": "ICICI Bank",
        "brand:wikidata": "Q1653258",
        "name": "ICICI Bank",
        "name:kn": "ಐಸಿಐಸಿಐ ಬ್ಯಾಂಕು",
        "short_name": "ICICI"
      }
    },
    {
      "type": "node",
      "id": 11331338138,
      "lat": 13.0543625,
      "lon": 77.6019076,
      "tags": {
        "name": "Cake Rois",
        "shop": "bakery"
      }
    },
    {
      "type": "node",
      "id": 11331363306,
      "lat": 13.0551083,
      "lon": 77.6018956,
      "tags": {
        "amenity": "car_wash",
        "automated": "no",
        "name": "Sri Hari Car Detailing",
        "self_service": "no"
      }
    },
    {
      "type": "node",
      "id": 11331367482,
      "lat": 13.0552429,
      "lon": 77.6020012,
      "tags": {
        "name": "8 Cloud 8",
        "shop": "clothes"
      }
    },
    {
      "type": "node",
      "id": 11331384652,
      "lat": 13.054318,
      "lon": 77.6019187,
      "tags": {
        "amenity": "pharmacy",
        "healthcare": "pharmacy",
        "name": "Aster Pharmacy",
        "name:kn": "ಆಸ್ಟರ್ ಫಾರ್ಮಸಿ",
        "opening_hours": "PH,Mo-Su 08:00-22:30"
      }
    },
    {
      "type": "node",
      "id": 11949142525,
      "lat": 13.0625046,
      "lon": 77.5922214,
      "tags": {
        "amenity": "fixme",
        "check_date": "2024-06-01",
        "fixme": "type",
        "fixme:type": "dental",
        "name": "Amaya Dental Clinic"
      }
    },
    {
      "type": "node",
      "id": 11949145526,
      "lat": 13.0595565,
      "lon": 77.5903055,
      "tags": {
        "amenity": "waste_basket"
      }
    },
    {
      "type": "node",
      "id": 11949145527,
      "lat": 13.0595189,
      "lon": 77.5901398,
      "tags": {
        "amenity": "bench"
      }
    },
    {
      "type": "node",
      "id": 11949145528,
      "lat": 13.0595453,
      "lon": 77.5900956,
      "tags": {
        "amenity": "bench"
      }
    },
    {
      "type": "node",
      "id": 11949175713,
      "lat": 13.0590424,
      "lon": 77.5917658,
      "tags": {
        "addr:floor": "G",
        "check_date": "2024-06-01",
        "level": "0",
        "name": "Chai Garam",
        "name:en": "Chai Garam",
        "shop": "tea"
      }
    },
    {
      "type": "node",
      "id": 11949205695,
      "lat": 13.0595653,
      "lon": 77.5903192,
      "tags": {
        "amenity": "bench",
        "backrest": "yes",
        "material": "concrete",
        "seats": "3"
      }
    },
    {
      "type": "node",
      "id": 11949205696,
      "lat": 13.0595797,
      "lon": 77.5903069,
      "tags": {
        "amenity": "bench",
        "backrest": "yes",
        "material": "concrete",
        "seats": "3"
      }
    },
    {
      "type": "node",
      "id": 11949205697,
      "lat": 13.0595847,
      "lon": 77.5903196,
      "tags": {
        "amenity": "bench",
        "backrest": "yes",
        "material": "concrete",
        "seats": "3"
      }
    },
    {
      "type": "node",
      "id": 11949205698,
      "lat": 13.0595906,
      "lon": 77.5903199,
      "tags": {
        "amenity": "bench",
        "backrest": "yes",
        "material": "concrete",
        "seats": "3"
      }
    },
    {
      "type": "node",
      "id": 11949205699,
      "lat": 13.0596,
      "lon": 77.5903111,
      "tags": {
        "amenity": "bench",
        "backrest": "yes",
        "material": "concrete",
        "seats": "3"
      }
    },
    {
      "type": "node",
      "id": 11949205700,
      "lat": 13.059606,
      "lon": 77.5903218,
      "tags": {
        "amenity": "bench",
        "backrest": "yes",
        "material": "concrete",
        "seats": "3"
      }
    },
    {
      "type": "node",
      "id": 11949205701,
      "lat": 13.059618,
      "lon": 77.5903239,
      "tags": {
        "amenity": "bench",
        "backrest": "yes",
        "material": "concrete",
        "seats": "3"
      }
    },
    {
      "type": "node",
      "id": 11949205702,
      "lat": 13.0596305,
      "lon": 77.5903172,
      "tags": {
        "amenity": "bench",
        "backrest": "yes",
        "material": "concrete",
        "seats": "3"
      }
    },
    {
      "type": "node",
      "id": 11949205703,
      "lat": 13.0596405,
      "lon": 77.5903272,
      "tags": {
        "amenity": "bench",
        "backrest": "yes",
        "material": "concrete",
        "seats": "3"
      }
    },
    {
      "type": "node",
      "id": 11949215106,
      "lat": 13.0593261,
      "lon": 77.5903604,
      "tags": {
        "amenity": "bench"
      }
    },
    {
      "type": "node",
      "id": 11949215107,
      "lat": 13.0594298,
      "lon": 77.5904563,
      "tags": {
        "amenity": "waste_basket"
      }
    },
    {
      "type": "node",
      "id": 11949215108,
      "lat": 13.05929,
      "lon": 77.5906977,
      "tags": {
        "amenity": "waste_basket"
      }
    },
    {
      "type": "node",
      "id": 11949215109,
      "lat": 13.0591748,
      "lon": 77.5908591,
      "tags": {
        "amenity": "bench"
      }
    },
    {
      "type": "node",
      "id": 11949215110,
      "lat": 13.0591156,
      "lon": 77.5908806,
      "tags": {
        "amenity": "bench"
      }
    },
    {
      "type": "node",
      "id": 11949215111,
      "lat": 13.0589662,
      "lon": 77.5908384,
      "tags": {
        "amenity": "bench"
      }
    },
    {
      "type": "node",
      "id": 11949215112,
      "lat": 13.0591834,
      "lon": 77.590838,
      "tags": {
        "amenity": "waste_basket"
      }
    },
    {
      "type": "node",
      "id": 11949215113,
      "lat": 13.0592399,
      "lon": 77.5907809,
      "tags": {
        "amenity": "bench"
      }
    },
    {
      "type": "node",
      "id": 11949215114,
      "lat": 13.0592221,
      "lon": 77.590809,
      "tags": {
        "amenity": "bench"
      }
    },
    {
      "type": "node",
      "id": 11949215115,
      "lat": 13.0591971,
      "lon": 77.5908034,
      "tags": {
        "amenity": "bench"
      }
    },
    {
      "type": "node",
      "id": 11949215116,
      "lat": 13.0591863,
      "lon": 77.5907854,
      "tags": {
        "amenity": "bench"
      }
    },
    {
      "type": "node",
      "id": 11949215117,
      "lat": 13.0591982,
      "lon": 77.5907612,
      "tags": {
        "amenity": "bench"
      }
    },
    {
      "type": "node",
      "id": 11949215118,
      "lat": 13.0591374,
      "lon": 77.5906157,
      "tags": {
        "amenity": "bench"
      }
    },
    {
      "type": "node",
      "id": 11949215119,
      "lat": 13.059197,
      "lon": 77.5905307,
      "tags": {
        "amenity": "bench"
      }
    },
    {
      "type": "node",
      "id": 11949215120,
      "lat": 13.0592557,
      "lon": 77.5904473,
      "tags": {
        "amenity": "bench"
      }
    },
    {
      "type": "node",
      "id": 11949229012,
      "lat": 13.0596175,
      "lon": 77.5926342,
      "tags": {
        "addr:floor": "1;2",
        "amenity": "restaurant",
        "check_date": "2024-06-01",
        "cuisine": "andhra",
        "diet:non-vegetarian": "yes",
        "level": "1;2",
        "name": "Nandha Palace",
        "name:en": "Nandha Palace"
      }
    },
    {
      "type": "node",
      "id": 11949230486,
      "lat": 13.0592369,
      "lon": 77.5904742,
      "tags": {
        "amenity": "waste_basket"
      }
    },
    {
      "type": "node",
      "id": 11949230487,
      "lat": 13.0589143,
      "lon": 77.5906286,
      "tags": {
        "amenity": "events_venue",
        "check_date": "2024-06-01",
        "name": "Ashirwad Banquets"
      }
    },
    {
      "type": "node",
      "id": 11949230488,
      "lat": 13.0588992,
      "lon": 77.5905918,
      "tags": {
        "amenity": "clinic",
        "check_date": "2024-06-01",
        "healthcare": "clinic",
        "healthcare:speciality": "fertility"
      }
    },
    {
      "type": "node",
      "id": 11949230567,
      "lat": 13.0592363,
      "lon": 77.5913196,
      "tags": {
        "addr:floor": "G",
        "amenity": "restaurant",
        "check_date": "2024-06-01",
        "level": "0",
        "name": "Royal Chef Biriyani RCB",
        "name:en": "Royal Chef Biriyani RCB"
      }
    },
    {
      "type": "node",
      "id": 11949231431,
      "lat": 13.0591811,
      "lon": 77.5928742,
      "tags": {
        "addr:floor": "1",
        "amenity": "events_venue",
        "check_date": "2024-06-01",
        "level": "1",
        "name": "Swathi groups Banquet Hall"
      }
    },
    {
      "type": "node",
      "id": 11949231538,
      "lat": 13.0587342,
      "lon": 77.5909461,
      "tags": {
        "amenity": "fixme",
        "check_date": "2024-06-01",
        "fixme": "type",
        "fixme:type": "house",
        "name": "2588/1 E block"
      }
    },
    {
      "type": "node",
      "id": 11949232735,
      "lat": 13.0592427,
      "lon": 77.5903262,
      "tags": {
        "amenity": "atm",
        "cash_in": "no",
        "check_date": "2024-06-01",
        "currency:INR": "yes",
        "drive_through": "no",
        "indoor": "yes",
        "operator": "Bank Of Baroda ATM"
      }
    },
    {
      "type": "node",
      "id": 11949232736,
      "lat": 13.0592505,
      "lon": 77.5903083,
      "tags": {
        "check_date": "2024-06-01",
        "internet_access": "no",
        "name": "Shri Raghavendra Bakery",
        "name:en": "Shri Raghavendra Bakery",
        "payment:cash": "yes",
        "shop": "bakery",
        "wheelchair": "no"
      }
    },
    {
      "type": "node",
      "id": 11949234684,
      "lat": 13.0595166,
      "lon": 77.5909281,
      "tags": {
        "check_date": "2024-06-01",
        "name": "Sri Annapoornaswari Rice Traders",
        "shop": "convenience"
      }
    },
    {
      "type": "node",
      "id": 11949236065,
      "lat": 13.0590635,
      "lon": 77.5928484,
      "tags": {
        "addr:floor": "G",
        "amenity": "restaurant",
        "check_date": "2024-06-01",
        "level": "0",
        "name": "Bhubaneswari Hotel",
        "name:en": "Bhubaneswari Hotel"
      }
    },
    {
      "type": "node",
      "id": 11949236364,
      "lat": 13.0595771,
      "lon": 77.5926555,
      "tags": {
        "addr:floor": "3",
        "amenity": "restaurant",
        "check_date": "2024-06-01",
        "level": "3",
        "name": "Hotel Lasara",
        "name:en": "Hotel Lasara"
      }
    },
    {
      "type": "node",
      "id": 11949236365,
      "lat": 13.0623256,
      "lon": 77.5921925,
      "tags": {
        "amenity": "kindergarten",
        "check_date": "2024-06-01",
        "description": "Canadian pre school",
        "name": "Maple Bear"
      }
    },
    {
      "type": "node",
      "id": 11949241901,
      "lat": 13.0576217,
      "lon": 77.5893868,
      "tags": {
        "amenity": "restaurant",
        "check_date": "2024-06-01",
        "name": "The Punjabi Rasoi - Authentic Punjabi Khana"
      }
    },
    {
      "type": "node",
      "id": 11949298717,
      "lat": 13.0589986,
      "lon": 77.5914909,
      "tags": {
        "addr:floor": "G",
        "amenity": "restaurant",
        "check_date": "2024-06-01",
        "level": "0",
        "name": "Cubbonpete Donne Biriyani",
        "name:en": "Cubbonpete Donne Biriyani"
      }
    },
    {
      "type": "node",
      "id": 11949298723,
      "lat": 13.0593638,
      "lon": 77.5928984,
      "tags": {
        "addr:floor": "1",
        "amenity": "restaurant",
        "check_date": "2024-06-01",
        "diet:vegetarian": "yes",
        "level": "1",
        "name": "Hotel Jagannath",
        "name:en": "Hotel Jagannath"
      }
    },
    {
      "type": "node",
      "id": 11949298724,
      "lat": 13.0593628,
      "lon": 77.5927727,
      "tags": {
        "addr:floor": "G",
        "amenity": "restaurant",
        "check_date": "2024-06-01",
        "level": "0",
        "name": "Kadal Machili",
        "name:en": "Kadal Machili"
      }
    },
    {
      "type": "node",
      "id": 11949301163,
      "lat": 13.058578,
      "lon": 77.5915142,
      "tags": {
        "amenity": "restaurant",
        "check_date": "2024-06-01",
        "name": "New Punjabi Pure Veg Restaurant"
      }
    },
    {
      "type": "node",
      "id": 11949302143,
      "lat": 13.0588947,
      "lon": 77.5929577,
      "tags": {
        "addr:floor": "G",
        "amenity": "restaurant",
        "check_date": "2024-06-01",
        "cuisine": "regional",
        "diet:vegetarian": "only",
        "level": "0",
        "name": "Udupi Veg",
        "name:en": "Udupi Veg"
      }
    },
    {
      "type": "node",
      "id": 11949302447,
      "lat": 13.0590348,
      "lon": 77.591951,
      "tags": {
        "addr:floor": "3",
        "check_date": "2024-06-01",
        "leisure": "fitness_centre",
        "level": "3",
        "name": "Playmore",
        "name:en": "Playmore"
      }
    },
    {
      "type": "node",
      "id": 11949303463,
      "lat": 13.0583301,
      "lon": 77.5916852,
      "tags": {
        "air_conditioning": "no",
        "check_date": "2024-06-01",
        "name": "Fast Tri Motors",
        "phone": "+91 99725 27009",
        "shop": "motorcycle_repair",
        "wheelchair": "yes"
      }
    },
    {
      "type": "node",
      "id": 11949307017,
      "lat": 13.0586887,
      "lon": 77.5910526,
      "tags": {
        "amenity": "dentist",
        "check_date": "2024-06-01",
        "healthcare": "dentist",
        "name": "Shalom Dental Clinic",
        "name:en": "Shalom Dental Clinic",
        "wheelchair": "no"
      }
    },
    {
      "type": "node",
      "id": 11949307018,
      "lat": 13.0588662,
      "lon": 77.592623,
      "tags": {
        "addr:floor": "G",
        "beauty": "unisex",
        "check_date": "2024-06-01",
        "level": "0",
        "name": "Cut & Looks",
        "name:en": "Cut & Looks",
        "shop": "beauty"
      }
    },
    {
      "type": "node",
      "id": 11949307443,
      "lat": 13.0629032,
      "lon": 77.5921632,
      "tags": {
        "amenity": "fixme",
        "check_date": "2024-06-01",
        "fixme": "type",
        "fixme:type": "juice",
        "name": "Nature Fresh Juice"
      }
    },
    {
      "type": "node",
      "id": 11949307444,
      "lat": 13.057458,
      "lon": 77.5910073,
      "tags": {
        "amenity": "clinic",
        "check_date": "2024-06-01",
        "healthcare": "clinic",
        "name": "4 Sense Skin, Hair And ENT Clinic"
      }
    },
    {
      "type": "node",
      "id": 11949307445,
      "lat": 13.0574556,
      "lon": 77.590959,
      "tags": {
        "amenity": "fixme",
        "check_date": "2024-06-01",
        "fixme": "type",
        "fixme:type": "commercial",
        "name": "Namma Farms Fruit And Vegetables Exporters"
      }
    },
    {
      "type": "node",
      "id": 11949307490,
      "lat": 13.0589242,
      "lon": 77.5924612,
      "tags": {
        "amenity": "restaurant",
        "check_date": "2024-06-01",
        "cuisine": "regional",
        "name": "Hotel Raanga",
        "name:en": "Hotel Raanga"
      }
    },
    {
      "type": "node",
      "id": 11949307839,
      "lat": 13.0574778,
      "lon": 77.590281,
      "tags": {
        "check_date": "2024-06-01",
        "name": "Sri Vinayaka Home Appliances",
        "name:en": "Sri Vinayaka Home Appliances",
        "shop": "appliance"
      }
    },
    {
      "type": "node",
      "id": 11949307840,
      "lat": 13.057495,
      "lon": 77.5902182,
      "tags": {
        "check_date": "2024-06-01",
        "name": "Dream Bike Point",
        "shop": "motorcycle_repair"
      }
    },
    {
      "type": "node",
      "id": 11949307841,
      "lat": 13.0574998,
      "lon": 77.5902113,
      "tags": {
        "check_date": "2024-06-01",
        "name": "Spin Cycles - Dry Clean & Premium Laundry",
        "shop": "laundry"
      }
    },
    {
      "type": "node",
      "id": 11949307907,
      "lat": 13.0587704,
      "lon": 77.5914148,
      "tags": {
        "amenity": "restaurant",
        "check_date": "2024-06-01",
        "name": "Ambur Dum Biryani"
      }
    },
    {
      "type": "node",
      "id": 11949308094,
      "lat": 13.0573975,
      "lon": 77.5909347,
      "tags": {
        "amenity": "restaurant",
        "changing_table": "no",
        "check_date": "2024-06-01",
        "cuisine": "indian",
        "diet:vegetarian": "yes",
        "internet_access": "no",
        "name": "Shri Manjunatha Upahara",
        "name:en": "Shri Manjunatha Upahara",
        "payment:cards": "no",
        "payment:cash": "yes",
        "payment:credit_cards": "no",
        "payment:debit_cards": "no",
        "reservation": "no",
        "smoking": "no",
        "wheelchair": "limited"
      }
    },
    {
      "type": "node",
      "id": 11949309178,
      "lat": 13.0602238,
      "lon": 77.5900692,
      "tags": {
        "check_date": "2024-06-01",
        "name": "Jana's Boutique",
        "shop": "clothes"
      }
    },
    {
      "type": "node",
      "id": 11949309179,
      "lat": 13.0603457,
      "lon": 77.5899013,
      "tags": {
        "amenity": "driving_school",
        "check_date": "2024-06-01",
        "mobile": "960676339",
        "name": "Brilliant Driving School"
      }
    },
    {
      "type": "node",
      "id": 11949309245,
      "lat": 13.0590516,
      "lon": 77.5927236,
      "tags": {
        "amenity": "restaurant",
        "check_date": "2024-06-01",
        "name": "Ajji Hotel",
        "name:en": "Ajji Hotel"
      }
    },
    {
      "type": "node",
      "id": 11949309246,
      "lat": 13.0574385,
      "lon": 77.5904828,
      "tags": {
        "air_conditioning": "no",
        "check_date": "2024-06-01",
        "currency:INR": "yes",
        "name": "Mobile Cafe",
        "name:en": "Mobile Cafe",
        "shop": "mobile_phone",
        "wheelchair": "yes"
      }
    },
    {
      "type": "node",
      "id": 11949310104,
      "lat": 13.0590283,
      "lon": 77.5918333,
      "tags": {
        "beauty": "men",
        "check_date": "2024-06-01",
        "name": "Smart Look",
        "name:en": "Smart Look",
        "shop": "beauty"
      }
    },
    {
      "type": "node",
      "id": 11949310166,
      "lat": 13.0574895,
      "lon": 77.5915974,
      "tags": {
        "access": "yes",
        "amenity": "toilets",
        "check_date": "2024-06-01",
        "fee": "yes",
        "toilets:disposal": "flush"
      }
    },
    {
      "type": "node",
      "id": 11949312465,
      "lat": 13.0574417,
      "lon": 77.5904539,
      "tags": {
        "amenity": "restaurant",
        "check_date": "2024-06-01",
        "cuisine": "indian;regional",
        "internet_access": "no",
        "name": "Balaji Gowdru Hotel",
        "name:en": "Balaji Gowdru Hotel"
      }
    },
    {
      "type": "node",
      "id": 11949313681,
      "lat": 13.0601804,
      "lon": 77.5902202,
      "tags": {
        "check_date": "2024-06-01",
        "name": "Pushpa Beauty Clinic",
        "shop": "beauty"
      }
    },
    {
      "type": "node",
      "id": 11949313690,
      "lat": 13.0590246,
      "lon": 77.5924979,
      "tags": {
        "addr:floor": "2",
        "beauty": "spa;haircut",
        "check_date": "2024-06-01",
        "level": "2",
        "name": "VK Spa",
        "name:en": "VK Spa",
        "shop": "beauty"
      }
    },
    {
      "type": "node",
      "id": 11949315156,
      "lat": 13.0589387,
      "lon": 77.5922508,
      "tags": {
        "addr:floor": "G",
        "check_date": "2024-06-01",
        "level": "0",
        "name": "Kaar Clinic",
        "name:en": "Kaar Clinic",
        "shop": "car_repair"
      }
    },
    {
      "type": "node",
      "id": 11949316302,
      "lat": 13.0595123,
      "lon": 77.5929942,
      "tags": {
        "addr:floor": "G",
        "amenity": "restaurant",
        "check_date": "2024-06-01",
        "level": "0",
        "name": "Hello Indore"
      }
    },
    {
      "type": "node",
      "id": 11949319960,
      "lat": 13.0575532,
      "lon": 77.5899467,
      "tags": {
        "check_date": "2024-06-01",
        "name": "Nayana Gents Beauty Parlour",
        "shop": "hairdresser"
      }
    },
    {
      "type": "node",
      "id": 11949322577,
      "lat": 13.0590116,
      "lon": 77.5929348,
      "tags": {
        "addr:floor": "G",
        "amenity": "cafe",
        "check_date": "2024-06-01",
        "level": "0",
        "name": "Disha Hyderabad Irani Tea",
        "name:en": "Disha Hyderabad Irani Tea"
      }
    },
    {
      "type": "node",
      "id": 11949322855,
      "lat": 13.0589649,
      "lon": 77.590642,
      "tags": {
        "air_conditioning": "yes",
        "amenity": "clinic",
        "check_date": "2024-06-01",
        "healthcare": "clinic",
        "healthcare:speciality": "fertility",
        "name": "Archish Fertility & IVF",
        "name:en": "Archish Fertility & IVF",
        "operator:type": "private",
        "payment:cash": "yes",
        "payment:credit_cards": "yes",
        "payment:debit_cards": "yes",
        "wheelchair": "no"
      }
    },
    {
      "type": "node",
      "id": 11949323390,
      "lat": 13.0573972,
      "lon": 77.590806,
      "tags": {
        "check_date": "2024-06-01",
        "internet_access": "no",
        "name": "S.R.S. Keys Makers",
        "phone": "+91 90196 42856",
        "shop": "locksmith"
      }
    },
    {
      "type": "node",
      "id": 11949323391,
      "lat": 13.0575615,
      "lon": 77.5898797,
      "tags": {
        "check_date": "2024-06-01",
        "description": "Tyre shop for bikes, as well as engine oils and some spares.",
        "name": "A.S. Automobiles",
        "shop": "tyres"
      }
    },
    {
      "type": "node",
      "id": 11949323392,
      "lat": 13.0575622,
      "lon": 77.5897933,
      "tags": {
        "check_date": "2024-06-01",
        "description": "Shoe sales shop",
        "name": "Royal Footwear",
        "shop": "shoes"
      }
    },
    {
      "type": "node",
      "id": 11949324065,
      "lat": 13.0604354,
      "lon": 77.5898325,
      "tags": {
        "amenity": "driving_school",
        "name": "Brilliant driving school",
        "phone": "+91960676339"
      }
    },
    {
      "type": "node",
      "id": 11949327621,
      "lat": 13.0624568,
      "lon": 77.592227,
      "tags": {
        "amenity": "hospital",
        "check_date": "2024-06-01",
        "healthcare": "hospital",
        "name": "Manipal Hospital OPD",
        "phone": "18001025555"
      }
    },
    {
      "type": "node",
      "id": 11949328643,
      "lat": 13.0598763,
      "lon": 77.5937633,
      "tags": {
        "addr:floor": "G",
        "amenity": "pub",
        "check_date": "2024-06-01",
        "level": "0",
        "name": "DJ Bar And Family Restaurant Pub",
        "name:en": "DJ Bar And Family Restaurant Pub"
      }
    },
    {
      "type": "node",
      "id": 11949329811,
      "lat": 13.0586588,
      "lon": 77.591111,
      "tags": {
        "amenity": "doctors",
        "check_date": "2024-06-01",
        "healthcare": "doctor",
        "healthcare:speciality": "pathology",
        "name": "Metropolis The Pathology Specialist",
        "name:en": "Metropolis The Pathology Specialist",
        "phone": "+91 99160 35248",
        "wheelchair": "yes"
      }
    },
    {
      "type": "node",
      "id": 11949330259,
      "lat": 13.0593748,
      "lon": 77.5926249,
      "tags": {
        "addr:floor": "G",
        "amenity": "clinic",
        "check_date": "2024-06-01",
        "healthcare": "clinic",
        "level": "0",
        "name": "Mother And Heart Care",
        "name:en": "Mother And Heart Care"
      }
    },
    {
      "type": "node",
      "id": 11949330276,
      "lat": 13.0592637,
      "lon": 77.5925581,
      "tags": {
        "addr:floor": "G",
        "amenity": "courier",
        "brand": "Desk to Desk Courier & Cargo",
        "brand:short": "DTDC",
        "brand:wikidata": "Q55608802",
        "check_date": "2024-06-01",
        "level": "0",
        "name": "DTDC",
        "name:en": "DTDC",
        "operator": "Desk to Desk Courier & Cargo",
        "operator:short": "DTDC",
        "operator:wikidata": "Q55608802"
      }
    },
    {
      "type": "node",
      "id": 11949330286,
      "lat": 13.0593006,
      "lon": 77.5931791,
      "tags": {
        "addr:floor": "G",
        "amenity": "fast_food",
        "check_date": "2024-06-01",
        "cuisine": "juice",
        "level": "0",
        "name": "Go Naturals Fresh Cane Juice"
      }
    },
    {
      "type": "node",
      "id": 11949332175,
      "lat": 13.0590645,
      "lon": 77.5925304,
      "tags": {
        "addr:floor": "G",
        "amenity": "restaurant",
        "check_date": "2024-06-01",
        "level": "0",
        "name": "Pitambara Restaurant",
        "name:en": "Pitambara Restaurant"
      }
    },
    {
      "type": "node",
      "id": 11949332176,
      "lat": 13.057582,
      "lon": 77.5897089,
      "tags": {
        "amenity": "bar",
        "check_date": "2024-06-01",
        "name": "Manju Bar & Restaurant"
      }
    },
    {
      "type": "node",
      "id": 11949332643,
      "lat": 13.0592214,
      "lon": 77.5903843,
      "tags": {
        "amenity": "atm",
        "brand": "Bank of Baroda",
        "brand:wikidata": "Q2003797",
        "name": "Bank of Baroda",
        "operator": "Bank of Baroda",
        "operator:wikidata": "Q2003797"
      }
    },
    {
      "type": "node",
      "id": 11949334343,
      "lat": 13.0574294,
      "lon": 77.5904617,
      "tags": {
        "amenity": "clinic",
        "check_date": "2024-06-01",
        "healthcare": "clinic",
        "name": "Sanjivani Clinic"
      }
    },
    {
      "type": "node",
      "id": 11949334859,
      "lat": 13.0598851,
      "lon": 77.5931516,
      "tags": {
        "addr:floor": "G",
        "check_date": "2024-06-01",
        "level": "0",
        "name": "Lakshmi Wines",
        "name:en": "Lakshmi Wines",
        "shop": "alcohol"
      }
    },
    {
      "type": "node",
      "id": 11949335968,
      "lat": 13.0598624,
      "lon": 77.5926701,
      "tags": {
        "amenity": "conference_centre",
        "check_date": "2024-06-01",
        "name": "Nandhana Party Hall",
        "name:en": "Nandhana Party Hall"
      }
    },
    {
      "type": "node",
      "id": 11949336568,
      "lat": 13.0592673,
      "lon": 77.5924667,
      "tags": {
        "addr:floor": "G",
        "amenity": "restaurant",
        "check_date": "2024-06-01",
        "diet:non-vegetarian": "yes",
        "level": "0",
        "name": "Shaambhavi",
        "name:en": "Shaambhavi"
      }
    },
    {
      "type": "node",
      "id": 11949336677,
      "lat": 13.0574767,
      "lon": 77.5902837,
      "tags": {
        "amenity": "clinic",
        "check_date": "2024-06-01",
        "healthcare": "clinic",
        "name": "Ekdanta Dental Wellness"
      }
    },
    {
      "type": "node",
      "id": 11949336927,
      "lat": 13.0596498,
      "lon": 77.5927922,
      "tags": {
        "addr:floor": "2",
        "amenity": "dentist",
        "check_date": "2024-06-01",
        "healthcare": "dentist",
        "healthcare:speciality": "dentist",
        "level": "2",
        "name": "Sanjeevini Dental",
        "name:en": "Sanjeevini Dental"
      }
    },
    {
      "type": "node",
      "id": 11949340380,
      "lat": 13.0595227,
      "lon": 77.5903099,
      "tags": {
        "amenity": "waste_basket"
      }
    },
    {
      "type": "node",
      "id": 11949340381,
      "lat": 13.0597416,
      "lon": 77.5904147,
      "tags": {
        "amenity": "waste_basket"
      }
    },
    {
      "type": "node",
      "id": 11949340384,
      "lat": 13.0595895,
      "lon": 77.5905552,
      "tags": {
        "amenity": "waste_basket"
      }
    },
    {
      "type": "node",
      "id": 11949340389,
      "lat": 13.0591991,
      "lon": 77.5910315,
      "tags": {
        "amenity": "waste_basket"
      }
    },
    {
      "type": "node",
      "id": 11949340391,
      "lat": 13.0589565,
      "lon": 77.5910272,
      "tags": {
        "amenity": "bench"
      }
    },
    {
      "type": "node",
      "id": 11949340392,
      "lat": 13.0588422,
      "lon": 77.5910231,
      "tags": {
        "amenity": "bench"
      }
    },
    {
      "type": "node",
      "id": 11949340393,
      "lat": 13.0587635,
      "lon": 77.5911334,
      "tags": {
        "amenity": "bench"
      }
    },
    {
      "type": "node",
      "id": 11949340394,
      "lat": 13.0588994,
      "lon": 77.5909346,
      "tags": {
        "amenity": "bench"
      }
    },
    {
      "type": "node",
      "id": 11949340395,
      "lat": 13.0590324,
      "lon": 77.5907392,
      "tags": {
        "amenity": "bench"
      }
    },
    {
      "type": "node",
      "id": 11949340396,
      "lat": 13.0592878,
      "lon": 77.5904071,
      "tags": {
        "amenity": "waste_basket"
      }
    },
    {
      "type": "node",
      "id": 11949340991,
      "lat": 13.0619804,
      "lon": 77.5918661,
      "tags": {
        "amenity": "fixme",
        "check_date": "2024-06-01",
        "fixme": "type",
        "fixme:type": "pg",
        "name": "Manjunatha Gents Pg"
      }
    },
    {
      "type": "node",
      "id": 11949340992,
      "lat": 13.0574633,
      "lon": 77.5903297,
      "tags": {
        "amenity": "fixme",
        "check_date": "2024-06-01",
        "fixme": "type",
        "fixme:type": "commercial",
        "name": "Ola Electric Vehicles Showroom"
      }
    },
    {
      "type": "node",
      "id": 11949344300,
      "lat": 13.0594237,
      "lon": 77.5931288,
      "tags": {
        "addr:floor": "G",
        "check_date": "2024-06-01",
        "level": "0",
        "name": "Welcare",
        "name:en": "Welcare",
        "shop": "sports"
      }
    },
    {
      "type": "node",
      "id": 11949344369,
      "lat": 13.0600088,
      "lon": 77.5926696,
      "tags": {
        "amenity": "bar",
        "check_date": "2024-06-01",
        "name": "Omega IX"
      }
    },
    {
      "type": "node",
      "id": 11949346388,
      "lat": 13.0578745,
      "lon": 77.5889485,
      "tags": {
        "amenity": "clinic",
        "check_date": "2024-06-01",
        "healthcare": "clinic",
        "name": "Dr. B M Krupa Obstetrics And Gynaec Speciality"
      }
    },
    {
      "type": "node",
      "id": 11949347826,
      "lat": 13.0593147,
      "lon": 77.5931056,
      "tags": {
        "addr:floor": "2",
        "amenity": "restaurant",
        "check_date": "2024-06-01",
        "level": "2",
        "name": "Kritunga Restaurant And Take Awa",
        "name:en": "Kritunga Restaurant And Take Away"
      }
    },
    {
      "type": "node",
      "id": 11949350695,
      "lat": 13.0575915,
      "lon": 77.5894655,
      "tags": {
        "amenity": "restaurant",
        "check_date": "2024-06-01",
        "description": "Small restaurant/eatery",
        "name": "Mangalore Military Hotel"
      }
    },
    {
      "type": "node",
      "id": 11949350696,
      "lat": 13.057596,
      "lon": 77.5895565,
      "tags": {
        "check_date": "2024-06-01",
        "description": "Deals in rice, oil, dhal and wheat",
        "name": "Chowdeshwari Rice Traders",
        "shop": "agrarian"
      }
    },
    {
      "type": "node",
      "id": 12032606639,
      "lat": 13.0606314,
      "lon": 77.5927784,
      "tags": {
        "access": "private",
        "amenity": "parking_entrance",
        "parking": "underground"
      }
    },
    {
      "type": "node",
      "id": 12033535265,
      "lat": 13.0587919,
      "lon": 77.5988774,
      "tags": {
        "name": "Essentials Super market",
        "shop": "convenience"
      }
    },
    {
      "type": "node",
      "id": 12035761937,
      "lat": 13.0568105,
      "lon": 77.6008798,
      "tags": {
        "name": "Downsized",
        "shop": "bakery"
      }
    },
    {
      "type": "node",
      "id": 12052440872,
      "lat": 13.0577032,
      "lon": 77.5957551,
      "tags": {
        "check_date": "2024-07-11",
        "name": "Master Mech",
        "shop": "car_repair"
      }
    },
    {
      "type": "node",
      "id": 12052440873,
      "lat": 13.0577834,
      "lon": 77.5955446,
      "tags": {
        "amenity": "car_wash",
        "check_date": "2024-07-11"
      }
    },
    {
      "type": "node",
      "id": 12052440874,
      "lat": 13.0577123,
      "lon": 77.5952894,
      "tags": {
        "check_date": "2024-07-11",
        "name": "ARJ Car care",
        "shop": "car_repair"
      }
    },
    {
      "type": "node",
      "id": 12052440875,
      "lat": 13.0577588,
      "lon": 77.595066,
      "tags": {
        "amenity": "restaurant",
        "check_date": "2024-07-11",
        "name": "Sanjay Punjabi Dhaba"
      }
    },
    {
      "type": "node",
      "id": 12052440876,
      "lat": 13.0578649,
      "lon": 77.5949142,
      "tags": {
        "amenity": "restaurant",
        "check_date": "2024-07-11",
        "name": "RRR Royal Gardenia"
      }
    },
    {
      "type": "node",
      "id": 12052440877,
      "lat": 13.0580143,
      "lon": 77.594705,
      "tags": {
        "check_date": "2024-07-11",
        "shop": "car_repair"
      }
    },
    {
      "type": "node",
      "id": 12101126903,
      "lat": 13.058349,
      "lon": 77.6032027,
      "tags": {
        "addr:city": "Bengaluru",
        "addr:country": "IN",
        "addr:district": "Bengaluru Urban",
        "addr:place": "Somanna Layout, Dasarahalli",
        "addr:postcode": "560024",
        "addr:state": "KA",
        "addr:street": "1st Cross Road",
        "level": "0",
        "male": "yes",
        "mobile": "+91 95306 23112",
        "name": "Govardhan Men's Parlour",
        "nohousenumber": "yes",
        "phone": "+91 95306 23112",
        "shop": "hairdresser",
        "wheelchair": "limited"
      }
    },
    {
      "type": "node",
      "id": 12117952601,
      "lat": 13.0620051,
      "lon": 77.5930638,
      "tags": {
        "addr:street": "Bellary Road",
        "amenity": "hospital",
        "name": "Motherhood Children's Hospital",
        "opening_hours": "24/7"
      }
    },
    {
      "type": "node",
      "id": 12208562951,
      "lat": 13.0605491,
      "lon": 77.5919187,
      "tags": {
        "amenity": "restaurant",
        "name": "Underdoggs",
        "website": "https://underdoggs.com/"
      }
    },
    {
      "type": "node",
      "id": 12495427370,
      "lat": 13.0578786,
      "lon": 77.5913447,
      "tags": {
        "name": "Gundu Hanuman temple",
        "shop": "religion"
      }
    },
    {
      "type": "node",
      "id": 12495429438,
      "lat": 13.0586162,
      "lon": 77.5915583,
      "tags": {
        "amenity": "restaurant",
        "name": "Annapurna Mess"
      }
    },
    {
      "type": "node",
      "id": 12511779660,
      "lat": 13.0545486,
      "lon": 77.595394,
      "tags": {
        "amenity": "parking_entrance"
      }
    },
    {
      "type": "node",
      "id": 12511779666,
      "lat": 13.0554671,
      "lon": 77.595573,
      "tags": {
        "amenity": "parking_entrance"
      }
    },
    {
      "type": "node",
      "id": 12511779676,
      "lat": 13.0548586,
      "lon": 77.5974706,
      "tags": {
        "amenity": "parking_entrance"
      }
    },
    {
      "type": "node",
      "id": 12564799792,
      "lat": 13.0555827,
      "lon": 77.5910772,
      "tags": {
        "amenity": "place_of_worship",
        "religion": "hindu"
      }
    },
    {
      "type": "node",
      "id": 12862846458,
      "lat": 13.0550698,
      "lon": 77.6005716,
      "tags": {
        "amenity": "fast_food",
        "cuisine": "burger;wings;chicken",
        "delivery": "yes",
        "name": "Big Guys: Wings & More",
        "takeaway": "yes"
      }
    },
    {
      "type": "node",
      "id": 13013792931,
      "lat": 13.0501668,
      "lon": 77.5974025,
      "tags": {
        "amenity": "fast_food",
        "name": "Harvest Salad Co"
      }
    },
    {
      "type": "node",
      "id": 13013792932,
      "lat": 13.0498604,
      "lon": 77.5975306,
      "tags": {
        "amenity": "ice_cream",
        "brand": "Polar Bear",
        "brand:wikidata": "Q124374249",
        "delivery": "yes",
        "name": "Polar Bear",
        "takeaway": "yes"
      }
    },
    {
      "type": "node",
      "id": 13013792933,
      "lat": 13.0502165,
      "lon": 77.5974052,
      "tags": {
        "amenity": "fast_food",
        "cuisine": "mexican",
        "name": "Maiz Mexican Kitchen"
      }
    },
    {
      "type": "node",
      "id": 13155775879,
      "lat": 13.0517258,
      "lon": 77.5943017,
      "tags": {
        "amenity": "bank",
        "brand": "HDFC Bank",
        "brand:wikidata": "Q631047",
        "check_date": "2025-09-19",
        "name": "HDFC Bank",
        "short_name": "HDFC"
      }
    },
    {
      "type": "node",
      "id": 13288585226,
      "lat": 13.0586141,
      "lon": 77.5927775,
      "tags": {
        "amenity": "restaurant",
        "name": "Matsya"
      }
    },
    {
      "type": "node",
      "id": 13325952226,
      "lat": 13.0578613,
      "lon": 77.5918782,
      "tags": {
        "amenity": "pub",
        "full_name": "Yaakay Bar and Canteen",
        "name": "Yaakay"
      }
    },
    {
      "type": "way",
      "id": 133857696,
      "center": {
        "lat": 13.05766,
        "lon": 77.5982396
      },
      "tags": {
        "designation": "Amruth Nagar Park",
        "leisure": "park",
        "name": "BBMP Park",
        "name:kn": "ಬೃ. ಬೆ. ಮ. ಪಾ. ಉದ್ಯಾನವನ"
      }
    },
    {
      "type": "way",
      "id": 133857715,
      "center": {
        "lat": 13.054544,
        "lon": 77.6024809
      },
      "tags": {
        "check_date:opening_hours": "2023-09-21",
        "leisure": "park",
        "name": "Bhuvaneswari Nagar Park",
        "name:kn": "ಭುವನೇಶ್ವರಿ ನಗರ ಉದ್ಯಾನವನ",
        "opening_hours": "Mo-Su 08:00-22:00"
      }
    },
    {
      "type": "way",
      "id": 133857743,
      "center": {
        "lat": 13.058326,
        "lon": 77.5986015
      },
      "tags": {
        "leisure": "pitch",
        "name": "Sharada School Ground",
        "sport": "volleyball"
      }
    },
    {
      "type": "way",
      "id": 160906231,
      "center": {
        "lat": 13.050953,
        "lon": 77.5938654
      },
      "tags": {
        "addr:district": "Bengaluru Urban",
        "addr:full": "Kirloskar Business Park, Bellary Road Hebbal",
        "addr:postcode": "560024",
        "addr:state": "Karnataka",
        "alt_name": "Columbia Asia Hospital",
        "amenity": "hospital",
        "emergency": "yes",
        "healthcare": "hospital",
        "name": "Manipal Hospital",
        "name:kn": "ಕೊಲಂಬಿಯ ಏಷ್ಯಾ ಆಸ್ಪತ್ರೆ",
        "source": "OpenGovernmentData"
      }
    },
    {
      "type": "way",
      "id": 172920310,
      "center": {
        "lat": 13.0525398,
        "lon": 77.605621
      },
      "tags": {
        "leisure": "park",
        "name": "Coffee Board Layout Park"
      }
    },
    {
      "type": "way",
      "id": 191349832,
      "center": {
        "lat": 13.0593644,
        "lon": 77.5929013
      },
      "tags": {
        "building": "yes",
        "shop": "bakery"
      }
    },
    {
      "type": "way",
      "id": 249189366,
      "center": {
        "lat": 13.0592448,
        "lon": 77.590817
      },
      "tags": {
        "leisure": "park"
      }
    },
    {
      "type": "way",
      "id": 249189373,
      "center": {
        "lat": 13.0604055,
        "lon": 77.5892603
      },
      "tags": {
        "leisure": "park"
      }
    },
    {
      "type": "way",
      "id": 255910641,
      "center": {
        "lat": 13.0545782,
        "lon": 77.6024216
      },
      "tags": {
        "amenity": "place_of_worship",
        "name": "Shri Bhuvaneshwari Temple",
        "name:kn": "ಭುವನೇಶ್ವರಿ",
        "religion": "hindu"
      }
    },
    {
      "type": "way",
      "id": 346211252,
      "center": {
        "lat": 13.0644624,
        "lon": 77.5975538
      },
      "tags": {
        "building": "yes",
        "opening_hours": "Mo-Su 07:00-22:00",
        "payment:cash": "yes",
        "shop": "greengrocer"
      }
    },
    {
      "type": "way",
      "id": 346249376,
      "center": {
        "lat": 13.0633022,
        "lon": 77.5917655
      },
      "tags": {
        "amenity": "bank",
        "brand": "HDFC Bank",
        "brand:wikidata": "Q631047",
        "building": "yes",
        "name": "HDFC Bank",
        "short_name": "HDFC"
      }
    },
    {
      "type": "way",
      "id": 346249486,
      "center": {
        "lat": 13.058025,
        "lon": 77.5902265
      },
      "tags": {
        "addr:city": "Bengaluru",
        "addr:housenumber": "2286",
        "addr:street": "Kodigehalli Main Road, Sanjivini Nagar",
        "amenity": "place_of_worship",
        "building": "yes",
        "name": "Sri Gundanjaneya Swamy Temple",
        "religion": "hindu"
      }
    },
    {
      "type": "way",
      "id": 346481825,
      "center": {
        "lat": 13.0569304,
        "lon": 77.5985304
      },
      "tags": {
        "amenity": "police",
        "name": "Amrutahalli Police Station",
        "name:kn": "ಅಮೃತಹಳ್ಳಿ ಆರಕ್ಷಕ ಠಾಣೆ"
      }
    },
    {
      "type": "way",
      "id": 351121389,
      "center": {
        "lat": 13.0546111,
        "lon": 77.5915016
      },
      "tags": {
        "amenity": "hospital",
        "building": "yes"
      }
    },
    {
      "type": "way",
      "id": 417316848,
      "center": {
        "lat": 13.0506431,
        "lon": 77.5980043
      },
      "tags": {
        "amenity": "college",
        "email": "contact@presidency.edu.in",
        "landuse": "education",
        "name": "Presidency College",
        "name:kn": "ಪ್ರೆಸಿಡೆನ್ಸಿ ಕಾಲೇಜು",
        "phone": "+91 80 42478700",
        "smoking": "no",
        "start_date": "2000",
        "website": "https://presidencycollege.ac.in/",
        "wikidata": "Q7241086",
        "wikipedia": "en:Presidency College, Bangalore"
      }
    },
    {
      "type": "way",
      "id": 594572531,
      "center": {
        "lat": 13.0581897,
        "lon": 77.5912075
      },
      "tags": {
        "leisure": "park",
        "name": "Temple park"
      }
    },
    {
      "type": "way",
      "id": 627954044,
      "center": {
        "lat": 13.0554024,
        "lon": 77.5949145
      },
      "tags": {
        "leisure": "pitch",
        "sport": "badminton"
      }
    },
    {
      "type": "way",
      "id": 627954045,
      "center": {
        "lat": 13.0546795,
        "lon": 77.5967028
      },
      "tags": {
        "access": "private",
        "leisure": "swimming_pool"
      }
    },
    {
      "type": "way",
      "id": 732232651,
      "center": {
        "lat": 13.0578784,
        "lon": 77.592544
      },
      "tags": {
        "access": "customers",
        "amenity": "parking",
        "parking": "surface"
      }
    },
    {
      "type": "way",
      "id": 732232653,
      "center": {
        "lat": 13.055337,
        "lon": 77.5926195
      },
      "tags": {
        "access": "permissive",
        "amenity": "parking"
      }
    },
    {
      "type": "way",
      "id": 732232654,
      "center": {
        "lat": 13.0543197,
        "lon": 77.5918454
      },
      "tags": {
        "access": "permissive",
        "amenity": "parking"
      }
    },
    {
      "type": "way",
      "id": 732232659,
      "center": {
        "lat": 13.0547142,
        "lon": 77.5944122
      },
      "tags": {
        "leisure": "swimming_pool"
      }
    },
    {
      "type": "way",
      "id": 732232667,
      "center": {
        "lat": 13.0502138,
        "lon": 77.5950811
      },
      "tags": {
        "leisure": "park"
      }
    },
    {
      "type": "way",
      "id": 732232675,
      "center": {
        "lat": 13.0501809,
        "lon": 77.5938965
      },
      "tags": {
        "leisure": "sports_centre",
        "sport": "badminton"
      }
    },
    {
      "type": "way",
      "id": 732232676,
      "center": {
        "lat": 13.0501051,
        "lon": 77.5936095
      },
      "tags": {
        "leisure": "pitch",
        "sport": "basketball"
      }
    },
    {
      "type": "way",
      "id": 732232677,
      "center": {
        "lat": 13.0495502,
        "lon": 77.5942241
      },
      "tags": {
        "amenity": "community_centre",
        "building": "yes",
        "building:levels": "1",
        "name": "Club Lounge"
      }
    },
    {
      "type": "way",
      "id": 732232678,
      "center": {
        "lat": 13.0494607,
        "lon": 77.5944842
      },
      "tags": {
        "leisure": "swimming_pool"
      }
    },
    {
      "type": "way",
      "id": 732232679,
      "center": {
        "lat": 13.0494457,
        "lon": 77.5946673
      },
      "tags": {
        "leisure": "park"
      }
    },
    {
      "type": "way",
      "id": 732232680,
      "center": {
        "lat": 13.0503086,
        "lon": 77.5941304
      },
      "tags": {
        "leisure": "sports_centre",
        "sport": "roller_skating"
      }
    },
    {
      "type": "way",
      "id": 732232682,
      "center": {
        "lat": 13.0507573,
        "lon": 77.5943662
      },
      "tags": {
        "leisure": "pitch",
        "sport": "tennis"
      }
    },
    {
      "type": "way",
      "id": 732232683,
      "center": {
        "lat": 13.0510434,
        "lon": 77.5945701
      },
      "tags": {
        "leisure": "pitch",
        "sport": "tennis"
      }
    },
    {
      "type": "way",
      "id": 732232684,
      "center": {
        "lat": 13.0509589,
        "lon": 77.5956976
      },
      "tags": {
        "access": "permissive",
        "amenity": "parking"
      }
    },
    {
      "type": "way",
      "id": 781852602,
      "center": {
        "lat": 13.0506022,
        "lon": 77.5985849
      },
      "tags": {
        "addr:city": "Bangalore",
        "addr:housenumber": "10/7",
        "addr:postcode": "560001",
        "addr:street": "Kumar Krupa Road, Sheshadripuram",
        "amenity": "school",
        "email": "shs.kkroad@sindhihighschool.edu.in",
        "name": "Sindhi High School",
        "name:kn": "ಸಿಂಧಿ ಪ್ರೌಢಶಾಲೆ",
        "phone": "+91 80 2226 1509",
        "school:gender": "mixed",
        "website": "https://www.sindhischoolkkr.com/",
        "wikidata": "Q7522192",
        "wikipedia": "en:Sindhi High School, Hebbal"
      }
    },
    {
      "type": "way",
      "id": 782116423,
      "center": {
        "lat": 13.0565813,
        "lon": 77.5949501
      },
      "tags": {
        "leisure": "pitch",
        "sport": "tennis"
      }
    },
    {
      "type": "way",
      "id": 1040899005,
      "center": {
        "lat": 13.0545318,
        "lon": 77.5918707
      },
      "tags": {
        "amenity": "hospital",
        "name": "Aster CMI Hospital"
      }
    },
    {
      "type": "way",
      "id": 1040899010,
      "center": {
        "lat": 13.0598721,
        "lon": 77.5917561
      },
      "tags": {
        "access": "private",
        "leisure": "swimming_pool"
      }
    },
    {
      "type": "way",
      "id": 1199532065,
      "center": {
        "lat": 13.0597757,
        "lon": 77.5900955
      },
      "tags": {
        "leisure": "park"
      }
    },
    {
      "type": "way",
      "id": 1199532066,
      "center": {
        "lat": 13.0599445,
        "lon": 77.5897788
      },
      "tags": {
        "leisure": "playground",
        "name": "Skating Rink"
      }
    },
    {
      "type": "way",
      "id": 1210533411,
      "center": {
        "lat": 13.0565997,
        "lon": 77.5951232
      },
      "tags": {
        "leisure": "swimming_pool"
      }
    },
    {
      "type": "way",
      "id": 1210533412,
      "center": {
        "lat": 13.0564589,
        "lon": 77.5952202
      },
      "tags": {
        "leisure": "swimming_pool"
      }
    },
    {
      "type": "way",
      "id": 1210533426,
      "center": {
        "lat": 13.052985,
        "lon": 77.5972431
      },
      "tags": {
        "access": "private",
        "leisure": "swimming_pool"
      }
    },
    {
      "type": "way",
      "id": 1210533428,
      "center": {
        "lat": 13.0522106,
        "lon": 77.5958807
      },
      "tags": {
        "access": "private",
        "leisure": "swimming_pool"
      }
    },
    {
      "type": "way",
      "id": 1217466598,
      "center": {
        "lat": 13.0657224,
        "lon": 77.5997239
      },
      "tags": {
        "amenity": "school",
        "name": "Amrutha English School"
      }
    },
    {
      "type": "way",
      "id": 1220056673,
      "center": {
        "lat": 13.0618784,
        "lon": 77.5950098
      },
      "tags": {
        "leisure": "park"
      }
    },
    {
      "type": "way",
      "id": 1220056676,
      "center": {
        "lat": 13.0625281,
        "lon": 77.5957896
      },
      "tags": {
        "leisure": "playground"
      }
    },
    {
      "type": "way",
      "id": 1220056677,
      "center": {
        "lat": 13.0625178,
        "lon": 77.595957
      },
      "tags": {
        "leisure": "pitch",
        "sport": "basketball"
      }
    },
    {
      "type": "way",
      "id": 1220056678,
      "center": {
        "lat": 13.0620176,
        "lon": 77.5949474
      },
      "tags": {
        "leisure": "pitch",
        "sport": "soccer"
      }
    },
    {
      "type": "way",
      "id": 1244997551,
      "center": {
        "lat": 13.0604899,
        "lon": 77.59468
      },
      "tags": {
        "access": "permissive",
        "amenity": "parking",
        "parking": "surface"
      }
    },
    {
      "type": "way",
      "id": 1278156574,
      "center": {
        "lat": 13.0582609,
        "lon": 77.5894624
      },
      "tags": {
        "leisure": "park"
      }
    },
    {
      "type": "way",
      "id": 1279046877,
      "center": {
        "lat": 13.0581868,
        "lon": 77.593874
      },
      "tags": {
        "amenity": "fuel",
        "brand": "Indian Oil",
        "brand:wikidata": "Q1289348",
        "compressed_air": "yes",
        "fuel:diesel": "yes",
        "name": "Indian Oil",
        "name:kn": "ಇಂಡಿಯನ್ ಆಯಿಲ್",
        "operator": "Indian Oil"
      }
    },
    {
      "type": "way",
      "id": 1279046878,
      "center": {
        "lat": 13.0584725,
        "lon": 77.5951688
      },
      "tags": {
        "leisure": "pitch",
        "sport": "tennis"
      }
    },
    {
      "type": "way",
      "id": 1285573874,
      "center": {
        "lat": 13.0541499,
        "lon": 77.5980456
      },
      "tags": {
        "leisure": "park"
      }
    },
    {
      "type": "way",
      "id": 1285574012,
      "center": {
        "lat": 13.0525661,
        "lon": 77.6037409
      },
      "tags": {
        "amenity": "school"
      }
    },
    {
      "type": "way",
      "id": 1286715554,
      "center": {
        "lat": 13.0556846,
        "lon": 77.6065451
      },
      "tags": {
        "amenity": "fuel",
        "brand": "BP",
        "brand:wikidata": "Q152057",
        "compressed_air": "yes",
        "fuel:diesel": "yes",
        "fuel:octane_91": "yes",
        "fuel:octane_95": "yes",
        "name": "BP",
        "opening_hours": "06:00-22:00",
        "wheelchair": "yes"
      }
    },
    {
      "type": "way",
      "id": 1287281136,
      "center": {
        "lat": 13.0634878,
        "lon": 77.5918453
      },
      "tags": {
        "addr:city": "Sahakar Nagar",
        "addr:district": "Bengaluru Urban",
        "addr:housenumber": "52",
        "addr:postcode": "560001",
        "addr:street": "G block",
        "amenity": "restaurant",
        "building": "yes",
        "cuisine": "ice_cream;froyo;frozen_yogurt;dessert;sorbet",
        "diet:dairy_free": "yes",
        "diet:vegan": "yes",
        "diet:vegetarian": "yes",
        "name": "Myfroyoland Premium Frozen Yogurt",
        "opening_hours": "10:00-00:00",
        "phone": "+917259465191",
        "website": "https://myfroyoland.com/"
      }
    },
    {
      "type": "way",
      "id": 1288366076,
      "center": {
        "lat": 13.059684,
        "lon": 77.5900879
      },
      "tags": {
        "leisure": "playground"
      }
    },
    {
      "type": "way",
      "id": 1288366077,
      "center": {
        "lat": 13.0592642,
        "lon": 77.5905785
      },
      "tags": {
        "access": "yes",
        "leisure": "fitness_station"
      }
    },
    {
      "type": "way",
      "id": 1323349180,
      "center": {
        "lat": 13.0508501,
        "lon": 77.5935387
      },
      "tags": {
        "access": "permissive",
        "amenity": "parking",
        "parking": "surface"
      }
    },
    {
      "type": "way",
      "id": 1323349181,
      "center": {
        "lat": 13.0511949,
        "lon": 77.5936233
      },
      "tags": {
        "access": "permissive",
        "amenity": "parking",
        "parking": "surface"
      }
    },
    {
      "type": "way",
      "id": 1323349272,
      "center": {
        "lat": 13.0515994,
        "lon": 77.5948685
      },
      "tags": {
        "access": "private",
        "amenity": "parking",
        "parking": "street_side"
      }
    },
    {
      "type": "way",
      "id": 1323349273,
      "center": {
        "lat": 13.052055,
        "lon": 77.5949392
      },
      "tags": {
        "access": "private",
        "amenity": "parking",
        "parking": "street_side"
      }
    },
    {
      "type": "way",
      "id": 1351990833,
      "center": {
        "lat": 13.0493565,
        "lon": 77.5994647
      },
      "tags": {
        "leisure": "garden"
      }
    },
    {
      "type": "way",
      "id": 1351990834,
      "center": {
        "lat": 13.0490835,
        "lon": 77.5994114
      },
      "tags": {
        "access": "private",
        "leisure": "swimming_pool"
      }
    },
    {
      "type": "way",
      "id": 1357701144,
      "center": {
        "lat": 13.0548989,
        "lon": 77.5905072
      },
      "tags": {
        "amenity": "school"
      }
    }
  ]
}