{
  "area_name": "Anand Nagar",
  "osm_id": 7304953087,
  "osm_type": "node",
  "place_type": "neighbourhood",
  "amenity_count": 121,
  "amenities": [
    {
      "type": "node",
      "id": 850751635,
      "lat": 13.0259675,
      "lon": 77.5932154,
      "tags": {
        "amenity": "library",
        "name": "RT Nagar Public Library"
      }
    },
    {
      "type": "node",
      "id": 850751651,
      "lat": 13.0265973,
      "lon": 77.5933811,
      "tags": {
        "brand": "Adidas",
        "brand:wikidata": "Q3895",
        "name": "Adidas",
        "name:kn": "ಅಡಿಡಾಸ್",
        "shop": "sports"
      }
    },
    {
      "type": "node",
      "id": 850751657,
      "lat": 13.0260757,
      "lon": 77.5932346,
      "tags": {
        "brand": "Reebok",
        "brand:wikidata": "Q466183",
        "name": "Reebok",
        "name:kn": "ರೀಬಾಕ್",
        "shop": "clothes"
      }
    },
    {
      "type": "node",
      "id": 850751675,
      "lat": 13.0273116,
      "lon": 77.5934753,
      "tags": {
        "amenity": "restaurant",
        "name": "Kabab Manor",
        "name:kn": "ಕಬಾಬ್ ಮೆನರ್"
      }
    },
    {
      "type": "node",
      "id": 1299725537,
      "lat": 13.0386192,
      "lon": 77.5896244,
      "tags": {
        "amenity": "police",
        "building": "yes",
        "name": "Hebbal Police Station",
        "name:kn": "ಹೆಬ್ಬಾಳ ಆರಕ್ಷಕ ಠಾಣೆ",
        "wheelchair": "no"
      }
    },
    {
      "type": "node",
      "id": 1474819110,
      "lat": 13.0263622,
      "lon": 77.5930491,
      "tags": {
        "amenity": "bank",
        "brand": "Andhra Bank",
        "brand:wikidata": "Q2003476",
        "brand:wikipedia": "en:Andhra Bank",
        "name": "Andhra Bank",
        "name:en": "Andhra Bank",
        "name:kn": "ಆಂಧ್ರ ಬ್ಯಾಂಕ್",
        "website": "https://www.andhrabank.in"
      }
    },
    {
      "type": "node",
      "id": 1474819111,
      "lat": 13.0264438,
      "lon": 77.5933686,
      "tags": {
        "amenity": "hospital",
        "name": "TSR heart care"
      }
    },
    {
      "type": "node",
      "id": 1824234555,
      "lat": 13.0352818,
      "lon": 77.5891227,
      "tags": {
        "amenity": "bank",
        "atm": "yes",
        "brand": "Canara Bank",
        "brand:pa": "ਕੇਨਰਾ ਬੈਂਕ",
        "brand:ur": "کینرا بینک",
        "brand:wikidata": "Q2003777",
        "brand:wikipedia": "en:Canara Bank",
        "brand:wikipedia:pa": "ਕੇਨਰਾ ਬੈਂਕ",
        "name": "Canara Bank",
        "name:kn": "ಕೆನರಾ ಬ್ಯಾಂಕ್",
        "name:pa": "ਕੇਨਰਾ ਬੈਂਕ",
        "name:ur": "کینرا بینک",
        "opening_hours": "Mo-Sa 10:00-16:00"
      }
    },
    {
      "type": "node",
      "id": 1954714028,
      "lat": 13.0392207,
      "lon": 77.6000536,
      "tags": {
        "name": "More",
        "name:kn": "ಮೋರ್",
        "shop": "supermarket"
      }
    },
    {
      "type": "node",
      "id": 1954714029,
      "lat": 13.0391647,
      "lon": 77.5991817,
      "tags": {
        "name": "Mythri",
        "shop": "supermarket"
      }
    },
    {
      "type": "node",
      "id": 2458999165,
      "lat": 13.0423996,
      "lon": 77.590674,
      "tags": {
        "amenity": "place_of_worship",
        "religion": "hindu"
      }
    },
    {
      "type": "node",
      "id": 2642013545,
      "lat": 13.0371532,
      "lon": 77.5896694,
      "tags": {
        "addr:city": "Bangalore",
        "addr:street": "Bellary Road",
        "amenity": "restaurant",
        "cuisine": "indian",
        "name": "Saaga"
      }
    },
    {
      "type": "node",
      "id": 4443560972,
      "lat": 13.0272204,
      "lon": 77.593535,
      "tags": {
        "addr:city": "bangalore",
        "addr:housenumber": "16",
        "addr:postcode": "560032",
        "addr:street": "Hmt Layout, Near-R T Nagar Bus Depot, R T Nagar, HMT Layout, Dinnur, RT Nagar",
        "amenity": "pharmacy",
        "name": "Sri Srinivasa Medicals",
        "phone": "080 2353 5499"
      }
    },
    {
      "type": "node",
      "id": 4445709313,
      "lat": 13.037145,
      "lon": 77.5916005,
      "tags": {
        "addr:city": "Bangalore",
        "addr:housenumber": "#3",
        "addr:postcode": "560024",
        "addr:street": "SS Ashram Road, No. 1, 4th Main, Manjunatha Complex",
        "amenity": "clinic",
        "name": "Dattatreya Multispeciality Clinic",
        "phone": "+9198806 44753"
      }
    },
    {
      "type": "node",
      "id": 4445886952,
      "lat": 13.0316481,
      "lon": 77.6023154,
      "tags": {
        "addr:city": "Bangalore",
        "addr:postcode": "560032",
        "addr:street": "Sultanpalya Main Road, Near-Bus Stand, R T Nagar",
        "amenity": "hospital",
        "name": "Sanjeevini Children & Women Clinic",
        "phone": "080 2292 4422"
      }
    },
    {
      "type": "node",
      "id": 4446298261,
      "lat": 13.0410852,
      "lon": 77.5905288,
      "tags": {
        "addr:city": "Bangalore",
        "addr:housenumber": "#2",
        "addr:postcode": "560024",
        "addr:street": "Hebbal Flyover, Sri Krishna Complex,Bayanna Layout,",
        "amenity": "clinic",
        "name": "Sri Lakshmi Diagnostic Center",
        "phone": "+9199862 29773",
        "source": "http://bestofhealthindia.com/"
      }
    },
    {
      "type": "node",
      "id": 4488018121,
      "lat": 13.0345054,
      "lon": 77.5895751,
      "tags": {
        "addr:city": "Bangalore",
        "addr:housenumber": "127/128",
        "addr:postcode": "560024",
        "addr:street": "Anandnagar Main Road,Esteem Mall, Shop, 1st Floor, Hebbal,",
        "name": "Wildcraft Basecamp",
        "opening_hours": "10:30-21:00",
        "phone": "080 4164 8242",
        "shop": "sports",
        "website": "https://wildcraft.in/"
      }
    },
    {
      "type": "node",
      "id": 4488053530,
      "lat": 13.0368291,
      "lon": 77.5896288,
      "tags": {
        "addr:city": "Bangalore",
        "addr:housenumber": "1/A",
        "addr:postcode": "560024",
        "addr:street": "Bellary Road,Bellary Main Road, Next to Baptist Hospital, Hebbal,",
        "name": "Pacer Yamaha Showroom",
        "opening_hours": "10:30-21:00",
        "phone": "090084 52252",
        "shop": "motorcycle",
        "website": "https://www.paceryamaha.com/"
      }
    },
    {
      "type": "node",
      "id": 4488587289,
      "lat": 13.0391189,
      "lon": 77.5992828,
      "tags": {
        "addr:city": "bangalore",
        "addr:housenumber": "Vishwanath Naganahalli Main Rd",
        "addr:postcode": "560032",
        "addr:street": "Bhadrappa Layout, Chinana Layout, Guddadahalli",
        "leisure": "sports_centre",
        "name": "Good Health And Fitness Zone",
        "opening_hours": "5:30-22:00",
        "phone": "8033569108",
        "sport": "gymnastics"
      }
    },
    {
      "type": "node",
      "id": 4973098284,
      "lat": 13.0348877,
      "lon": 77.5889021,
      "tags": {
        "name": "Toyota",
        "shop": "car"
      }
    },
    {
      "type": "node",
      "id": 5269791614,
      "lat": 13.0304194,
      "lon": 77.5872271,
      "tags": {
        "amenity": "fast_food",
        "cuisine": "regional",
        "delivery": "no",
        "name": "Hebbal Indira Canteen",
        "operator": "BBMP",
        "takeaway": "no"
      }
    },
    {
      "type": "node",
      "id": 5269791615,
      "lat": 13.0345665,
      "lon": 77.588793,
      "tags": {
        "amenity": "bank",
        "atm": "yes",
        "brand": "State Bank of India",
        "brand:wikidata": "Q1340361",
        "name": "State Bank of India",
        "name:kn": "ಭಾರತೀಯ ಸ್ಟೇಟ್ ಬ್ಯಾಂಕ್",
        "short_name": "SBI"
      }
    },
    {
      "type": "node",
      "id": 5286949427,
      "lat": 13.0416427,
      "lon": 77.5950772,
      "tags": {
        "addr:state": "KA",
        "name": "All About Liquor",
        "opening_hours": "Mo-Su 10:00-20:30",
        "shop": "alcohol",
        "wheelchair": "yes"
      }
    },
    {
      "type": "node",
      "id": 5286949428,
      "lat": 13.0416622,
      "lon": 77.5948393,
      "tags": {
        "brand": "Ford",
        "brand:wikidata": "Q44294",
        "name": "Ford",
        "shop": "car"
      }
    },
    {
      "type": "node",
      "id": 5286949429,
      "lat": 13.0416642,
      "lon": 77.5945134,
      "tags": {
        "brand": "Volkswagen",
        "brand:wikidata": "Q246",
        "name": "Volkswagen",
        "shop": "car"
      }
    },
    {
      "type": "node",
      "id": 5295004587,
      "lat": 13.04165,
      "lon": 77.5967025,
      "tags": {
        "name": "Orientbell Tiles",
        "shop": "tiles"
      }
    },
    {
      "type": "node",
      "id": 6856463613,
      "lat": 13.041122,
      "lon": 77.5901176,
      "tags": {
        "amenity": "place_of_worship",
        "religion": "muslim"
      }
    },
    {
      "type": "node",
      "id": 6856463614,
      "lat": 13.0370574,
      "lon": 77.5896455,
      "tags": {
        "amenity": "restaurant",
        "name": "Udupi Brahmashree"
      }
    },
    {
      "type": "node",
      "id": 6856463615,
      "lat": 13.0351773,
      "lon": 77.5890219,
      "tags": {
        "amenity": "restaurant",
        "name": "Udupi Park Inn",
        "opening_hours": "Mo-Sa 09:45-20:00"
      }
    },
    {
      "type": "node",
      "id": 6886594822,
      "lat": 13.0357887,
      "lon": 77.589498,
      "tags": {
        "addr:city": "Bengaluru",
        "addr:district": "BENGALURU URBAN",
        "addr:full": "Bellary Road, Hebbal",
        "addr:postcode": "560024",
        "addr:state": "Karnataka",
        "amenity": "blood_bank",
        "contact:mobile": "9480424340",
        "contact:phone": "8022024700",
        "name": "Bangalore Baptist Hospital Blood Bank",
        "opening_hours": "24/7",
        "operator:type": "private",
        "source": "OpenGovernmentData",
        "website": "https://www.bbh.org.in/"
      }
    },
    {
      "type": "node",
      "id": 6938653696,
      "lat": 13.0263529,
      "lon": 77.5933929,
      "tags": {
        "addr:district": "Bengaluru Urban",
        "addr:full": "# 9 80 Fet Road H M T Layout R T Nagar",
        "addr:postcode": "560032",
        "addr:state": "Karnataka",
        "amenity": "hospital",
        "name": "Asha Kiran Children & Women Health Care Centre",
        "source": "OpenGovernmentData"
      }
    },
    {
      "type": "node",
      "id": 6947430278,
      "lat": 13.0263344,
      "lon": 77.595128,
      "tags": {
        "addr:district": "Bengaluru Urban",
        "addr:full": "#200/A, Hmt Layout, Karthik Complex, Dinnur Main Road, R.T. Nagar",
        "addr:postcode": "560032",
        "addr:state": "Karnataka",
        "amenity": "hospital",
        "name": "Poornima Hospital",
        "source": "OpenGovernmentData"
      }
    },
    {
      "type": "node",
      "id": 7223109350,
      "lat": 13.0422626,
      "lon": 77.5944105,
      "tags": {
        "name": "Namma Bakery",
        "shop": "kiosk"
      }
    },
    {
      "type": "node",
      "id": 7223109362,
      "lat": 13.0423749,
      "lon": 77.5949939,
      "tags": {
        "name": "Car Trade",
        "shop": "car",
        "website": "https://cartrade.com"
      }
    },
    {
      "type": "node",
      "id": 7223109365,
      "lat": 13.0416367,
      "lon": 77.5954592,
      "tags": {
        "name": "Maruti",
        "name:kn": "ಮಾರುತಿ",
        "shop": "car"
      }
    },
    {
      "type": "node",
      "id": 7257189922,
      "lat": 13.0382851,
      "lon": 77.5896052,
      "tags": {
        "access": "yes",
        "amenity": "toilets"
      }
    },
    {
      "type": "node",
      "id": 7257189925,
      "lat": 13.0392881,
      "lon": 77.5892385,
      "tags": {
        "access": "yes",
        "amenity": "toilets",
        "check_date": "2024-12-25",
        "fee": "yes",
        "wheelchair": "no"
      }
    },
    {
      "type": "node",
      "id": 7257189926,
      "lat": 13.0405041,
      "lon": 77.5899057,
      "tags": {
        "amenity": "place_of_worship",
        "religion": "hindu"
      }
    },
    {
      "type": "node",
      "id": 7302387903,
      "lat": 13.0387366,
      "lon": 77.5899664,
      "tags": {
        "amenity": "atm",
        "brand": "Corporation Bank",
        "brand:wikidata": "Q2003387",
        "name": "Corporation Bank",
        "name:kn": "ಕಾರ್ಪರೇಷನ್ ಬ್ಯಾಂಕ್",
        "operator": "Corporation Bank",
        "operator:wikidata": "Q2003387"
      }
    },
    {
      "type": "node",
      "id": 7302387904,
      "lat": 13.0387041,
      "lon": 77.5905431,
      "tags": {
        "amenity": "atm",
        "brand": "Canara Bank",
        "brand:pa": "ਕੇਨਰਾ ਬੈਂਕ",
        "brand:ur": "کینرا بینک",
        "brand:wikidata": "Q2003777",
        "brand:wikipedia": "en:Canara Bank",
        "brand:wikipedia:pa": "ਕੇਨਰਾ ਬੈਂਕ",
        "name": "Canara Bank",
        "name:kn": "ಕೆನರಾ ಬ್ಯಾಂಕ್",
        "name:pa": "ਕੇਨਰਾ ਬੈਂਕ",
        "name:ur": "کینرا بینک"
      }
    },
    {
      "type": "node",
      "id": 7302387905,
      "lat": 13.038616,
      "lon": 77.5899484,
      "tags": {
        "amenity": "restaurant",
        "name": "Star Hotel"
      }
    },
    {
      "type": "node",
      "id": 8288337665,
      "lat": 13.0327874,
      "lon": 77.5965496,
      "tags": {
        "amenity": "school",
        "name": "Sukrupa School"
      }
    },
    {
      "type": "node",
      "id": 8534906273,
      "lat": 13.0265666,
      "lon": 77.593378,
      "tags": {
        "name": "Heads up for Tails",
        "shop": "pet"
      }
    },
    {
      "type": "node",
      "id": 8534917998,
      "lat": 13.026494,
      "lon": 77.5933758,
      "tags": {
        "amenity": "veterinary",
        "name": "CUPA Small Animals Hospital"
      }
    },
    {
      "type": "node",
      "id": 8540221706,
      "lat": 13.0264238,
      "lon": 77.5926546,
      "tags": {
        "amenity": "toilets",
        "name": "Public Toilet",
        "name:kn": "ಸಾರ್ವಜನಿಕ ಶೌಚಾಲಯ"
      }
    },
    {
      "type": "node",
      "id": 8684335453,
      "lat": 13.0329988,
      "lon": 77.5991477,
      "tags": {
        "amenity": "fuel",
        "brand": "Bharat Petroleum",
        "brand:wikidata": "Q854826",
        "name": "Bharat Petroleum",
        "name:kn": "ಭಾರತ್ ಪೆಟ್ರೋಲಿಯಂ"
      }
    },
    {
      "type": "node",
      "id": 8684358823,
      "lat": 13.0331404,
      "lon": 77.5993644,
      "tags": {
        "amenity": "pharmacy",
        "name": "Shiv shakthi medicals"
      }
    },
    {
      "type": "node",
      "id": 9527967720,
      "lat": 13.0422691,
      "lon": 77.5939505,
      "tags": {
        "amenity": "cafe",
        "name": "All Fun Chai"
      }
    },
    {
      "type": "node",
      "id": 9532893829,
      "lat": 13.0306487,
      "lon": 77.5865717,
      "tags": {
        "amenity": "post_office",
        "name": "India Post",
        "operator": "India Post",
        "operator:wikidata": "Q3519720"
      }
    },
    {
      "type": "node",
      "id": 9737551099,
      "lat": 13.0353615,
      "lon": 77.5895647,
      "tags": {
        "amenity": "fast_food",
        "name": "Juice Place",
        "opening_hours": "PH,Mo-Su 08:00-20:00"
      }
    },
    {
      "type": "node",
      "id": 10293921742,
      "lat": 13.0264468,
      "lon": 77.5918691,
      "tags": {
        "amenity": "college",
        "club": "music",
        "name": "The Bangalore School of Music"
      }
    },
    {
      "type": "node",
      "id": 10293921743,
      "lat": 13.0264454,
      "lon": 77.5915888,
      "tags": {
        "amenity": "place_of_worship",
        "building": "church",
        "denomination": "catholic",
        "name": "Shrine of St. Jude Thaddeaus",
        "religion": "christian"
      }
    },
    {
      "type": "node",
      "id": 11119061521,
      "lat": 13.0353378,
      "lon": 77.5891319,
      "tags": {
        "name": "Ather",
        "shop": "motorcycle"
      }
    },
    {
      "type": "node",
      "id": 11176470273,
      "lat": 13.0390315,
      "lon": 77.5977619,
      "tags": {
        "check_date": "2023-09-02",
        "name": "Tea time",
        "shop": "tea"
      }
    },
    {
      "type": "node",
      "id": 11176470274,
      "lat": 13.0390311,
      "lon": 77.5975494,
      "tags": {
        "check_date": "2023-09-02",
        "name": "Smart point",
        "shop": "supermarket"
      }
    },
    {
      "type": "node",
      "id": 11176470275,
      "lat": 13.039015,
      "lon": 77.5978589,
      "tags": {
        "brand:wikidata": "Q65090033",
        "check_date": "2023-09-02",
        "clothes": "women",
        "name": "Maa collections",
        "shop": "clothes"
      }
    },
    {
      "type": "node",
      "id": 11359595250,
      "lat": 13.0295006,
      "lon": 77.5949717,
      "tags": {
        "name": "Sai Medicals And General Stores",
        "shop": "medical_supply"
      }
    },
    {
      "type": "node",
      "id": 11359611697,
      "lat": 13.0274249,
      "lon": 77.5935355,
      "tags": {
        "addr:city": "Bengaluru",
        "addr:housenumber": "18",
        "addr:street": "80 Feet Road, RT Nagar",
        "amenity": "fast_food",
        "brand": "Pizza Hut",
        "brand:wikidata": "Q191615",
        "cuisine": "pizza",
        "name": "Pizza Hut",
        "opening_hours": "Mo-Su 11:00-23:00"
      }
    },
    {
      "type": "node",
      "id": 12022091569,
      "lat": 13.0357921,
      "lon": 77.5896457,
      "tags": {
        "amenity": "atm",
        "brand": "HDFC Bank",
        "brand:wikidata": "Q631047",
        "note": "one needs to pass through the Baptist Hospital gate to access the ATM",
        "opening_hours": "24/7",
        "operator": "HDFC Bank",
        "operator:wikidata": "Q631047"
      }
    },
    {
      "type": "node",
      "id": 12285541096,
      "lat": 13.0393786,
      "lon": 77.5962148,
      "tags": {
        "amenity": "fuel",
        "check_date": "2024-10-24",
        "fuel:cng": "yes",
        "name": "Go Gas"
      }
    },
    {
      "type": "node",
      "id": 12285541097,
      "lat": 13.0363508,
      "lon": 77.5980075,
      "tags": {
        "amenity": "bank",
        "brand": "State Bank of India",
        "brand:wikidata": "Q1340361",
        "check_date": "2024-10-24",
        "name": "State Bank of India",
        "short_name": "SBI"
      }
    },
    {
      "type": "node",
      "id": 12285541098,
      "lat": 13.0363318,
      "lon": 77.5980792,
      "tags": {
        "amenity": "atm",
        "brand": "State Bank of India",
        "brand:wikidata": "Q1340361",
        "check_date": "2024-10-24",
        "operator": "State Bank of India",
        "operator:wikidata": "Q1340361",
        "short_name": "SBI"
      }
    },
    {
      "type": "node",
      "id": 12456036671,
      "lat": 13.0372971,
      "lon": 77.5905991,
      "tags": {
        "name": "Med Plus",
        "shop": "medical_supply"
      }
    },
    {
      "type": "node",
      "id": 12456051652,
      "lat": 13.0372408,
      "lon": 77.5910525,
      "tags": {
        "name": "Medical store",
        "shop": "medical_supply"
      }
    },
    {
      "type": "node",
      "id": 12833133105,
      "lat": 13.0312837,
      "lon": 77.5909518,
      "tags": {
        "brand": "HOPCOMS",
        "brand:wikidata": "Q22908959",
        "name": "HOPCOMS",
        "shop": "greengrocer"
      }
    },
    {
      "type": "node",
      "id": 12833133106,
      "lat": 13.0312001,
      "lon": 77.5909477,
      "tags": {
        "brand": "Nandini",
        "brand:wikidata": "Q124374212",
        "name": "Nandini",
        "shop": "dairy"
      }
    },
    {
      "type": "node",
      "id": 12846322963,
      "lat": 13.0292958,
      "lon": 77.6013165,
      "tags": {
        "amenity": "place_of_worship",
        "religion": "hindu"
      }
    },
    {
      "type": "node",
      "id": 13077651604,
      "lat": 13.0417641,
      "lon": 77.5905954,
      "tags": {
        "amenity": "place_of_worship",
        "religion": "hindu"
      }
    },
    {
      "type": "node",
      "id": 13155774216,
      "lat": 13.0350381,
      "lon": 77.5890679,
      "tags": {
        "check_date": "2025-09-19",
        "name": "River",
        "shop": "motorcycle"
      }
    },
    {
      "type": "way",
      "id": 54963084,
      "center": {
        "lat": 13.0347249,
        "lon": 77.5901708
      },
      "tags": {
        "addr:city": "Bangalore",
        "addr:district": "Bengaluru Urban",
        "addr:full": "138/1, Srinivasa Nagar, Devara Jeevanahalli, Bengaluru, Karnataka",
        "addr:postcode": "560024",
        "addr:state": "Karnataka",
        "addr:street": "Bellary Road",
        "amenity": "hospital",
        "emergency": "yes",
        "healthcare": "hospital",
        "name": "Baptist Hospital",
        "name:kn": "ಬೆಂಗಳೂರು ಬಾಪ್ಟಿಸ್ಟ್ ಆಸ್ಪತ್ರೆ",
        "phone": "08022024700",
        "source": "OpenGovernmentData",
        "website": "https://www.bbh.org.in/",
        "wheelchair": "limited"
      }
    },
    {
      "type": "way",
      "id": 54963214,
      "center": {
        "lat": 13.0380171,
        "lon": 77.5903177
      },
      "tags": {
        "amenity": "college",
        "landuse": "education",
        "name": "Government First Grade College"
      }
    },
    {
      "type": "way",
      "id": 71516174,
      "center": {
        "lat": 13.0285944,
        "lon": 77.5954864
      },
      "tags": {
        "leisure": "park",
        "name": "VV Park"
      }
    },
    {
      "type": "way",
      "id": 232654695,
      "center": {
        "lat": 13.043739,
        "lon": 77.5958175
      },
      "tags": {
        "amenity": "place_of_worship",
        "denomination": "pentecostal",
        "name": "Bethel AG",
        "religion": "christian"
      }
    },
    {
      "type": "way",
      "id": 238030308,
      "center": {
        "lat": 13.0420117,
        "lon": 77.5902014
      },
      "tags": {
        "amenity": "marketplace"
      }
    },
    {
      "type": "way",
      "id": 325764797,
      "center": {
        "lat": 13.0301133,
        "lon": 77.5861251
      },
      "tags": {
        "leisure": "park"
      }
    },
    {
      "type": "way",
      "id": 346501622,
      "center": {
        "lat": 13.0360513,
        "lon": 77.5905954
      },
      "tags": {
        "amenity": "restaurant",
        "building": "yes"
      }
    },
    {
      "type": "way",
      "id": 346730865,
      "center": {
        "lat": 13.0380816,
        "lon": 77.5947162
      },
      "tags": {
        "addr:city": "Bengaluru",
        "addr:postcode": "560032",
        "addr:street": "Sonnappa Layout, Ayyappa Layout, Hebbal",
        "amenity": "place_of_worship",
        "building": "yes",
        "name": "Shri Aananda Lingeshwara Temple",
        "religion": "hindu"
      }
    },
    {
      "type": "way",
      "id": 347120887,
      "center": {
        "lat": 13.0267744,
        "lon": 77.5987021
      },
      "tags": {
        "amenity": "school",
        "building": "yes",
        "name": "Vatican High School"
      }
    },
    {
      "type": "way",
      "id": 367411062,
      "center": {
        "lat": 13.0343582,
        "lon": 77.5940581
      },
      "tags": {
        "leisure": "park",
        "name": "BBMP Amarjyothi Layout Park",
        "name:kn": "ಅಮರಜ್ಯೋತಿ ಉದ್ಯಾನವನ"
      }
    },
    {
      "type": "way",
      "id": 369792972,
      "center": {
        "lat": 13.0438849,
        "lon": 77.5922082
      },
      "tags": {
        "leisure": "park",
        "name": "Kempegowda Park",
        "name:kn": "ಕೆಂಪೆಗೌಡ ಉದ್ಯಾನವನ",
        "operator": "BDA"
      }
    },
    {
      "type": "way",
      "id": 393785885,
      "center": {
        "lat": 13.0427883,
        "lon": 77.5920157
      },
      "tags": {
        "amenity": "bus_station",
        "bus": "yes",
        "name": "Hebbal Bus Station",
        "name:kn": "ಹೆಬ್ಬಾಳ ಬಸ್ ನಿಲ್ದಾಣ",
        "public_transport": "station"
      }
    },
    {
      "type": "way",
      "id": 393785886,
      "center": {
        "lat": 13.0425128,
        "lon": 77.5900176
      },
      "tags": {
        "amenity": "bus_station",
        "bus": "yes",
        "check_date": "2025-06-14",
        "name": "Hebbal Bus Station",
        "name:kn": "ಹೆಬ್ಬಾಳು ಬಸ್ ನಿಲ್ದಾಣ",
        "public_transport": "station",
        "wheelchair": "no"
      }
    },
    {
      "type": "way",
      "id": 772934825,
      "center": {
        "lat": 13.042983,
        "lon": 77.5969446
      },
      "tags": {
        "amenity": "place_of_worship",
        "denomination": "pentecostal",
        "name": "Temple of God",
        "religion": "christian"
      }
    },
    {
      "type": "way",
      "id": 773825322,
      "center": {
        "lat": 13.0399775,
        "lon": 77.5890897
      },
      "tags": {
        "leisure": "park"
      }
    },
    {
      "type": "way",
      "id": 773825323,
      "center": {
        "lat": 13.0403763,
        "lon": 77.5892972
      },
      "tags": {
        "addr:city": "Bengaluru",
        "addr:postcode": "560024",
        "addr:street": "Hebbal Flyover, Bayanna Layout, Hebbal,",
        "amenity": "fast_food",
        "brand": "Indira Canteen",
        "brand:wikidata": "Q36164828",
        "building": "yes",
        "cuisine": "south_indian",
        "delivery": "no",
        "name": "Indira Canteen",
        "official_name": "Vishwenatha Naganahalli Indira Canteen",
        "operator": "BBMP",
        "takeaway": "no"
      }
    },
    {
      "type": "way",
      "id": 777618524,
      "center": {
        "lat": 13.042173,
        "lon": 77.5921122
      },
      "tags": {
        "amenity": "fuel",
        "brand": "Essar",
        "brand:wikidata": "Q5399372",
        "check_date": "2025-06-14",
        "compressed_air": "yes",
        "name": "Essar Uni Gas",
        "operator": "Essar Uni Gas"
      }
    },
    {
      "type": "way",
      "id": 782061210,
      "center": {
        "lat": 13.0389578,
        "lon": 77.5896702
      },
      "tags": {
        "amenity": "shelter",
        "bench": "yes",
        "bin": "no",
        "building": "roof",
        "bus": "yes",
        "check_date:bench": "2024-07-30",
        "covered": "yes",
        "highway": "bus_stop",
        "lit": "yes",
        "name": "Hebbala",
        "name:en": "Hebbala",
        "name:kn": "ಹೆಬ್ಬಾಳ",
        "network": "BMTC",
        "operator": "BMTC",
        "platforms": "3",
        "public_transport": "platform",
        "shelter": "yes",
        "shelter_type": "public_transport",
        "wheelchair": "no"
      }
    },
    {
      "type": "way",
      "id": 782061211,
      "center": {
        "lat": 13.0388849,
        "lon": 77.5896672
      },
      "tags": {
        "amenity": "shelter",
        "bench": "yes",
        "bin": "no",
        "building": "roof",
        "bus": "yes",
        "check_date:bench": "2024-07-30",
        "covered": "yes",
        "highway": "bus_stop",
        "lit": "yes",
        "name": "Hebbala",
        "name:en": "Hebbala",
        "name:kn": "ಹೆಬ್ಬಾಳ",
        "network": "BMTC",
        "operator": "BMTC",
        "platforms": "3",
        "public_transport": "platform",
        "shelter": "yes",
        "shelter_type": "public_transport",
        "wheelchair": "no"
      }
    },
    {
      "type": "way",
      "id": 782061212,
      "center": {
        "lat": 13.0388166,
        "lon": 77.5896632
      },
      "tags": {
        "amenity": "shelter",
        "bench": "yes",
        "bin": "no",
        "building": "roof",
        "bus": "yes",
        "check_date:bench": "2024-07-30",
        "covered": "yes",
        "highway": "bus_stop",
        "lit": "yes",
        "name": "Hebbala",
        "name:en": "Hebbala",
        "name:kn": "ಹೆಬ್ಬಾಳ",
        "network": "BMTC",
        "operator": "BMTC",
        "platforms": "3",
        "public_transport": "platform",
        "shelter": "yes",
        "shelter_type": "public_transport",
        "wheelchair": "no"
      }
    },
    {
      "type": "way",
      "id": 782108512,
      "center": {
        "lat": 13.0364932,
        "lon": 77.5896365
      },
      "tags": {
        "addr:city": "Bengaluru",
        "addr:housenumber": "24",
        "addr:postcode": "560024",
        "addr:street": "Bellary Road",
        "amenity": "restaurant",
        "building": "yes",
        "name": "The Royale Senate"
      }
    },
    {
      "type": "way",
      "id": 782108513,
      "center": {
        "lat": 13.0363198,
        "lon": 77.590595
      },
      "tags": {
        "amenity": "restaurant",
        "building": "yes"
      }
    },
    {
      "type": "way",
      "id": 782292577,
      "center": {
        "lat": 13.0349259,
        "lon": 77.5915241
      },
      "tags": {
        "access": "private",
        "leisure": "park"
      }
    },
    {
      "type": "way",
      "id": 963352879,
      "center": {
        "lat": 13.0333764,
        "lon": 77.5886106
      },
      "tags": {
        "amenity": "police",
        "name": "R T Nagar Traffic Police station"
      }
    },
    {
      "type": "way",
      "id": 1034261984,
      "center": {
        "lat": 13.0418889,
        "lon": 77.5983827
      },
      "tags": {
        "access": "private",
        "amenity": "parking",
        "parking": "surface"
      }
    },
    {
      "type": "way",
      "id": 1111845891,
      "center": {
        "lat": 13.0378792,
        "lon": 77.6039746
      },
      "tags": {
        "amenity": "school",
        "name": "Young Scholars Academy",
        "wheelchair": "yes"
      }
    },
    {
      "type": "way",
      "id": 1119296883,
      "center": {
        "lat": 13.0424154,
        "lon": 77.5953727
      },
      "tags": {
        "addr:city": "Bengaluru",
        "addr:postcode": "560024",
        "addr:street": "Vayunandana Layout, Hebbal Kempapura",
        "building": "yes",
        "name": "Western Cars",
        "second_hand": "only",
        "shop": "car"
      }
    },
    {
      "type": "way",
      "id": 1125698046,
      "center": {
        "lat": 13.0258289,
        "lon": 77.5947264
      },
      "tags": {
        "amenity": "school"
      }
    },
    {
      "type": "way",
      "id": 1172705361,
      "center": {
        "lat": 13.0352813,
        "lon": 77.5883564
      },
      "tags": {
        "leisure": "park"
      }
    },
    {
      "type": "way",
      "id": 1212105963,
      "center": {
        "lat": 13.0424364,
        "lon": 77.590894
      },
      "tags": {
        "amenity": "place_of_worship",
        "check_date": "2025-06-14",
        "religion": "hindu"
      }
    },
    {
      "type": "way",
      "id": 1308743211,
      "center": {
        "lat": 13.0334315,
        "lon": 77.5915469
      },
      "tags": {
        "access": "private",
        "amenity": "parking",
        "parking": "surface"
      }
    },
    {
      "type": "way",
      "id": 1386042566,
      "center": {
        "lat": 13.0310903,
        "lon": 77.5901491
      },
      "tags": {
        "leisure": "park"
      }
    },
    {
      "type": "way",
      "id": 1386060475,
      "center": {
        "lat": 13.0370414,
        "lon": 77.5979312
      },
      "tags": {
        "amenity": "school"
      }
    },
    {
      "type": "way",
      "id": 1386060476,
      "center": {
        "lat": 13.0333663,
        "lon": 77.5979688
      },
      "tags": {
        "amenity": "college",
        "landuse": "education",
        "name": "Rajiv Gandhi Institute of Technology"
      }
    },
    {
      "type": "way",
      "id": 1386060477,
      "center": {
        "lat": 13.0338347,
        "lon": 77.5974269
      },
      "tags": {
        "addr:city": "Bangalore",
        "addr:postcode": "560032",
        "addr:street": "Cholanagar",
        "amenity": "college",
        "description": "Dental College and Hospital",
        "landuse": "education",
        "name": "Sri Rajiv Gandhi College of Dental Sciences & Hospital",
        "opening_hours": "Mo-Sa 08:30-15:30",
        "phone": "+918023339377",
        "website": "https://srgcds.ac.in"
      }
    },
    {
      "type": "way",
      "id": 1386060496,
      "center": {
        "lat": 13.0320393,
        "lon": 77.5926422
      },
      "tags": {
        "leisure": "park"
      }
    },
    {
      "type": "way",
      "id": 1386060497,
      "center": {
        "lat": 13.0315745,
        "lon": 77.5914906
      },
      "tags": {
        "leisure": "park",
        "name": "Captain Kevin Park"
      }
    },
    {
      "type": "way",
      "id": 1386060510,
      "center": {
        "lat": 13.0312274,
        "lon": 77.5912953
      },
      "tags": {
        "amenity": "place_of_worship",
        "landuse": "religious",
        "religion": "hindu"
      }
    },
    {
      "type": "way",
      "id": 1386060629,
      "center": {
        "lat": 13.0321748,
        "lon": 77.5917027
      },
      "tags": {
        "leisure": "pitch",
        "sport": "soccer"
      }
    },
    {
      "type": "way",
      "id": 1386060630,
      "center": {
        "lat": 13.0322036,
        "lon": 77.5915014
      },
      "tags": {
        "access": "yes",
        "hoops": "2",
        "leisure": "pitch",
        "sport": "basketball",
        "surface": "concrete"
      }
    },
    {
      "type": "way",
      "id": 1386060657,
      "center": {
        "lat": 13.0291099,
        "lon": 77.592251
      },
      "tags": {
        "amenity": "place_of_worship",
        "landuse": "religious",
        "name": "Sri Shirdi Saibaba Temple",
        "religion": "hindu"
      }
    },
    {
      "type": "way",
      "id": 1386060663,
      "center": {
        "lat": 13.0293226,
        "lon": 77.5905011
      },
      "tags": {
        "leisure": "park",
        "name": "RBI Colony Park"
      }
    },
    {
      "type": "way",
      "id": 1386060674,
      "center": {
        "lat": 13.0294084,
        "lon": 77.5892348
      },
      "tags": {
        "amenity": "college",
        "name": "Vidya Vahini School and PU College"
      }
    },
    {
      "type": "way",
      "id": 1387957381,
      "center": {
        "lat": 13.0318083,
        "lon": 77.6030804
      },
      "tags": {
        "amenity": "place_of_worship",
        "landuse": "religious",
        "name": "Sri Lakshmi Narasimha Swamy Temple",
        "religion": "hindu"
      }
    },
    {
      "type": "way",
      "id": 1388693672,
      "center": {
        "lat": 13.0302783,
        "lon": 77.5935492
      },
      "tags": {
        "amenity": "place_of_worship",
        "building": "mosque",
        "name:kn": "ಮಸೀದಿ",
        "religion": "muslim"
      }
    },
    {
      "type": "way",
      "id": 1433092894,
      "center": {
        "lat": 13.0371077,
        "lon": 77.5930288
      },
      "tags": {
        "access": "private",
        "leisure": "swimming_pool"
      }
    },
    {
      "type": "way",
      "id": 1433092910,
      "center": {
        "lat": 13.0349676,
        "lon": 77.5915546
      },
      "tags": {
        "access": "private",
        "leisure": "playground"
      }
    },
    {
      "type": "way",
      "id": 1433092944,
      "center": {
        "lat": 13.0360265,
        "lon": 77.5932498
      },
      "tags": {
        "access": "private",
        "leisure": "swimming_pool"
      }
    },
    {
      "type": "way",
      "id": 1433092945,
      "center": {
        "lat": 13.0360889,
        "lon": 77.5930945
      },
      "tags": {
        "access": "private",
        "leisure": "playground"
      }
    },
    {
      "type": "way",
      "id": 1433092958,
      "center": {
        "lat": 13.0347569,
        "lon": 77.5927344
      },
      "tags": {
        "access": "private",
        "leisure": "pitch",
        "sport": "basketball"
      }
    },
    {
      "type": "way",
      "id": 1433092959,
      "center": {
        "lat": 13.034955,
        "lon": 77.592752
      },
      "tags": {
        "access": "private",
        "leisure": "pitch",
        "sport": "tennis"
      }
    },
    {
      "type": "way",
      "id": 1448247042,
      "center": {
        "lat": 13.0344628,
        "lon": 77.5905401
      },
      "tags": {
        "access": "private",
        "amenity": "parking",
        "parking": "surface"
      }
    }
  ]
}