{
  "area_name": "Andrahalli",
  "osm_id": 1589241314,
  "osm_type": "node",
  "place_type": "neighbourhood",
  "amenity_count": 19,
  "amenities": [
    {
      "type": "node",
      "id": 1784416557,
      "lat": 13.0051094,
      "lon": 77.4904955,
      "tags": {
        "amenity": "Automation",
        "name": "Rexroth Bosch"
      }
    },
    {
      "type": "node",
      "id": 4312162995,
      "lat": 13.0151844,
      "lon": 77.4868785,
      "tags": {
        "name": "wholesale provisions store",
        "shop": "convenience"
      }
    },
    {
      "type": "node",
      "id": 6807562095,
      "lat": 13.0005435,
      "lon": 77.4842781,
      "tags": {
        "amenity": "fast_food",
        "name": "Just Cake"
      }
    },
    {
      "type": "node",
      "id": 11276467448,
      "lat": 13.0139285,
      "lon": 77.490114,
      "tags": {
        "amenity": "restaurant",
        "name": "Vijay Sagar Grand"
      }
    },
    {
      "type": "node",
      "id": 11276496011,
      "lat": 13.0138976,
      "lon": 77.4903067,
      "tags": {
        "name": "Sri Krishna Bhavan Sweets & Bakery",
        "shop": "bakery"
      }
    },
    {
      "type": "node",
      "id": 11276557472,
      "lat": 13.0138476,
      "lon": 77.4898021,
      "tags": {
        "amenity": "pharmacy",
        "name": "Mohit Medicals"
      }
    },
    {
      "type": "way",
      "id": 145678827,
      "center": {
        "lat": 13.0066559,
        "lon": 77.475995
      },
      "tags": {
        "amenity": "place_of_worship",
        "building": "yes"
      }
    },
    {
      "type": "way",
      "id": 348281007,
      "center": {
        "lat": 13.015764,
        "lon": 77.4868699
      },
      "tags": {
        "addr:city": "peenya 2nd stage, bengaluru",
        "addr:postcode": "560058",
        "addr:street": "near Thigalarapalya Main Rd",
        "amenity": "place_of_worship",
        "building": "yes",
        "description": "Shree Sollapuradamma Shree Dodamma Shree Marikambe Temple",
        "name": "Sollapuradamma Temple",
        "name:kn": "ಸೊಲ್ಲಾಪುರದಮ್ಮ ದೇವಸ್ಥಾನ",
        "religion": "hindu"
      }
    },
    {
      "type": "way",
      "id": 349699408,
      "center": {
        "lat": 13.0029446,
        "lon": 77.4854948
      },
      "tags": {
        "amenity": "shelter",
        "shelter_type": "gazebo"
      }
    },
    {
      "type": "way",
      "id": 349699409,
      "center": {
        "lat": 13.0024085,
        "lon": 77.4853267
      },
      "tags": {
        "amenity": "shelter",
        "shelter_type": "gazebo"
      }
    },
    {
      "type": "way",
      "id": 349699410,
      "center": {
        "lat": 13.0023416,
        "lon": 77.4856115
      },
      "tags": {
        "amenity": "shelter",
        "shelter_type": "gazebo"
      }
    },
    {
      "type": "way",
      "id": 350790280,
      "center": {
        "lat": 13.0037077,
        "lon": 77.4836002
      },
      "tags": {
        "access": "permissive",
        "amenity": "parking",
        "name": "ABBS Parking",
        "parking": "surface"
      }
    },
    {
      "type": "way",
      "id": 400541947,
      "center": {
        "lat": 13.0028203,
        "lon": 77.4840436
      },
      "tags": {
        "leisure": "park",
        "name": "BBMP Park",
        "name:kn": "ಬೃ. ಬೆ. ಮ. ಪಾ. ಉದ್ಯಾನವನ"
      }
    },
    {
      "type": "way",
      "id": 1123272060,
      "center": {
        "lat": 13.0025637,
        "lon": 77.4854323
      },
      "tags": {
        "leisure": "park"
      }
    },
    {
      "type": "way",
      "id": 1123272061,
      "center": {
        "lat": 13.0034333,
        "lon": 77.4842662
      },
      "tags": {
        "amenity": "college",
        "name": "Acharya Bangalore Business School",
        "short_name": "ABBS"
      }
    },
    {
      "type": "way",
      "id": 1343674322,
      "center": {
        "lat": 13.0107998,
        "lon": 77.483434
      },
      "tags": {
        "amenity": "events_venue",
        "landuse": "commercial",
        "name": "AGN Convention Hall"
      }
    },
    {
      "type": "way",
      "id": 1343674325,
      "center": {
        "lat": 13.0070154,
        "lon": 77.4765261
      },
      "tags": {
        "amenity": "place_of_worship",
        "landuse": "religious",
        "religion": "hindu"
      }
    },
    {
      "type": "way",
      "id": 1343674337,
      "center": {
        "lat": 13.0026578,
        "lon": 77.4826087
      },
      "tags": {
        "leisure": "park"
      }
    },
    {
      "type": "way",
      "id": 1412649407,
      "center": {
        "lat": 13.009624,
        "lon": 77.4831032
      },
      "tags": {
        "amenity": "fuel"
      }
    }
  ]
}