{
  "area_name": "Anjanapura 2nd Block",
  "osm_id": 13245148764,
  "osm_type": "node",
  "place_type": "neighbourhood",
  "amenity_count": 43,
  "amenities": [
    {
      "type": "node",
      "id": 9178327801,
      "lat": 12.8679234,
      "lon": 77.5430553,
      "tags": {
        "amenity": "pub",
        "name": "BLR Brewing Company"
      }
    },
    {
      "type": "node",
      "id": 10538729869,
      "lat": 12.8591588,
      "lon": 77.5422795,
      "tags": {
        "addr:postcode": "560062",
        "amenity": "atm",
        "brand": "Axis Bank",
        "brand:wikidata": "Q2003549",
        "cash_in": "no",
        "check_date": "2024-10-18",
        "covered": "yes",
        "currency:INR": "yes",
        "drive_through": "no",
        "indoor": "yes",
        "lit": "yes",
        "name": "Axis Bank",
        "opening_hours": "24/7",
        "operator": "Axis Bank",
        "operator:wikidata": "Q2003549",
        "source": "survey",
        "wheelchair": "no"
      }
    },
    {
      "type": "node",
      "id": 10649468955,
      "lat": 12.8601889,
      "lon": 77.5422879,
      "tags": {
        "addr:postcode": "560062",
        "addr:street": "Holiday Village Resort Road, Mallasandra",
        "air_conditioning": "no",
        "amenity": "fast_food",
        "capacity": "7",
        "check_date": "2025-09-02",
        "cuisine": "burger;regional",
        "drive_through": "no",
        "internet_access": "no",
        "name": "Stop N Joy",
        "outdoor_seating": "yes",
        "smoking": "no",
        "takeaway": "yes"
      }
    },
    {
      "type": "node",
      "id": 10680740309,
      "lat": 12.8601722,
      "lon": 77.5422854,
      "tags": {
        "addr:street": "Holiday Village Resort Road, Mallasandra, Karnataka",
        "amenity": "dentist",
        "healthcare": "dentist",
        "name": "DP Speciality Dental Clinic",
        "opening_hours": "Mo-Sa 10:00-14:00+,16:00-18:30"
      }
    },
    {
      "type": "node",
      "id": 10801926245,
      "lat": 12.8641,
      "lon": 77.5434658,
      "tags": {
        "addr:postcode": "560062",
        "check_date": "2025-01-19",
        "covered": "yes",
        "lit": "yes",
        "name": "Dr Bright Laundary",
        "shop": "laundry",
        "source": "survey"
      }
    },
    {
      "type": "node",
      "id": 10826187893,
      "lat": 12.8602534,
      "lon": 77.5423015,
      "tags": {
        "addr:city": "Bengaluru",
        "addr:postcode": "560062",
        "addr:street": "Kumarans School Holiday Village Road",
        "male": "yes",
        "name": "Noob Saloon",
        "shop": "hairdresser"
      }
    },
    {
      "type": "node",
      "id": 10885718096,
      "lat": 12.859147,
      "lon": 77.5421747,
      "tags": {
        "addr:postcode": "560062",
        "addr:street": "Holiday Village Resort Road, Mallasandra, Bangalore",
        "amenity": "restaurant",
        "name": "Pan Platters"
      }
    },
    {
      "type": "node",
      "id": 10893490097,
      "lat": 12.8608459,
      "lon": 77.5426559,
      "tags": {
        "addr:street": "Holiday Village Inn Road, Mallasandra, Bangalore",
        "brand": "Pericorp",
        "description": "Unisex Saloon, Massage & Spa",
        "dog": "no",
        "email": "imagineco@gmail.com",
        "internet_access": "no",
        "name": "Salon Perimeter",
        "name:ta": "பெரிமீட்டர்",
        "opening_hours": "Mo 10:00-20:00; We-Su 10:00-20:00",
        "payment:cards": "yes",
        "payment:cash": "yes",
        "payment:qr_code": "yes",
        "phone": "+91 86183 29463",
        "shop": "beauty"
      }
    },
    {
      "type": "node",
      "id": 11048987729,
      "lat": 12.8602333,
      "lon": 77.5422604,
      "tags": {
        "addr:postcode": "560062",
        "check_date": "2023-10-13",
        "internet_access": "no",
        "name": "Student Xerox",
        "shop": "copyshop",
        "source": "survey"
      }
    },
    {
      "type": "node",
      "id": 11048990363,
      "lat": 12.8603077,
      "lon": 77.5423118,
      "tags": {
        "addr:street": "JP Hive complex, Holiday Village Resort Road, Mallasandra, Bangalore",
        "name": "Palak Vegetable Shop",
        "phone": "8317349903",
        "shop": "greengrocer"
      }
    },
    {
      "type": "node",
      "id": 11178768417,
      "lat": 12.8606762,
      "lon": 77.5427075,
      "tags": {
        "addr:street": "Vaibhava Sumukha Enclave Phase -1, Holiday Village Resort Road, Off Kanakapura Road, Mallasandra, Bengaluru",
        "amenity": "school",
        "name": "Cohesion Montessori"
      }
    },
    {
      "type": "node",
      "id": 11245791922,
      "lat": 12.8621213,
      "lon": 77.5430328,
      "tags": {
        "name": "Sharadha's Spa & Salon",
        "shop": "beauty"
      }
    },
    {
      "type": "node",
      "id": 11245842785,
      "lat": 12.8619892,
      "lon": 77.5430244,
      "tags": {
        "name": "Dhanalakshmi Electricals & Power Tools",
        "shop": "electrical"
      }
    },
    {
      "type": "node",
      "id": 11245854559,
      "lat": 12.8620659,
      "lon": 77.5430178,
      "tags": {
        "amenity": "clinic",
        "description": "Dr Nisha Tiwary, MBBS, Family Physician",
        "healthcare": "clinic",
        "name": "Bruhati Clinic",
        "name:ta": "ப்ருஹாத்தி க்ளினிக்"
      }
    },
    {
      "type": "node",
      "id": 11245866001,
      "lat": 12.862565,
      "lon": 77.5430321,
      "tags": {
        "name": "UR Wash Laundry",
        "phone": "6364576666",
        "shop": "laundry"
      }
    },
    {
      "type": "node",
      "id": 11245879104,
      "lat": 12.8616583,
      "lon": 77.5429349,
      "tags": {
        "addr:postcode": "560062",
        "air_conditioning": "no",
        "check_date": "2023-10-13",
        "currency:INR": "yes",
        "internet_access": "no",
        "name": "Sashi Two Wheeler Mechanic",
        "shop": "motorcycle_repair"
      }
    },
    {
      "type": "node",
      "id": 11245914595,
      "lat": 12.8625995,
      "lon": 77.5430349,
      "tags": {
        "addr:postcode": "560062",
        "air_conditioning": "no",
        "check_date": "2023-10-13",
        "currency:INR": "yes",
        "internet_access": "no",
        "name": "Nandhini Milk Parlour",
        "name:ta": "நந்தினி பாலகம்",
        "shop": "dairy"
      }
    },
    {
      "type": "node",
      "id": 11245922502,
      "lat": 12.8622143,
      "lon": 77.5430185,
      "tags": {
        "amenity": "pharmacy",
        "healthcare": "pharmacy",
        "name": "Kartikeya Medicals",
        "name:ta": "கார்த்திகேயா மருந்தகம்"
      }
    },
    {
      "type": "node",
      "id": 11245927018,
      "lat": 12.8624194,
      "lon": 77.5431285,
      "tags": {
        "name": "KM Motors",
        "shop": "motorcycle_repair"
      }
    },
    {
      "type": "node",
      "id": 11245933594,
      "lat": 12.861409,
      "lon": 77.5429037,
      "tags": {
        "name": "Bushra Men's Salon",
        "shop": "beauty"
      }
    },
    {
      "type": "node",
      "id": 12009676402,
      "lat": 12.8607509,
      "lon": 77.5426303,
      "tags": {
        "amenity": "fast_food",
        "description": "Small Momos shop outside Market Fresh",
        "name": "Darjeeling Hot Momos",
        "opening_hours": "Mo-Fr 17:00-21:00",
        "phone": "8927878252"
      }
    },
    {
      "type": "node",
      "id": 12180378247,
      "lat": 12.8609974,
      "lon": 77.5426762,
      "tags": {
        "addr:street": "Holiday Village Road",
        "name": "Hasiru Halli Thotta",
        "shop": "greengrocer"
      }
    },
    {
      "type": "node",
      "id": 12230826895,
      "lat": 12.8663372,
      "lon": 77.54525,
      "tags": {
        "addr:street": "Holiday Village Resort Road, Mallasandra",
        "amenity": "clinic",
        "name": "Dixit Skin & Ortho Care",
        "phone": "+91 74830 75957"
      }
    },
    {
      "type": "node",
      "id": 12749347575,
      "lat": 12.8609396,
      "lon": 77.5426752,
      "tags": {
        "addr:street": "Holiday Village Road, off Kanakapura Road",
        "name": "Magique Family Saloon",
        "phone": "7975285129",
        "shop": "beauty"
      }
    },
    {
      "type": "node",
      "id": 12778644461,
      "lat": 12.8559909,
      "lon": 77.5550903,
      "tags": {
        "addr:city": "Anjanapura",
        "addr:district": "Bengaluru",
        "addr:postcode": "560062",
        "addr:street": "80 Feet Road",
        "amenity": "events_venue",
        "name": "KBL Saarang",
        "website": "https://kblsaarang.com"
      }
    },
    {
      "type": "node",
      "id": 12985609357,
      "lat": 12.8599685,
      "lon": 77.5423745,
      "tags": {
        "addr:housenumber": "15/5",
        "amenity": "cafe",
        "name": "Malgudi Parampare Cafe",
        "phone": "8660959583"
      }
    },
    {
      "type": "node",
      "id": 12985621322,
      "lat": 12.8600351,
      "lon": 77.5424122,
      "tags": {
        "addr:street": "Tummy Town Food Court, Holiday Village Road, Bengaluru",
        "amenity": "cafe",
        "name": "Authentic Bengaluru Cafe"
      }
    },
    {
      "type": "node",
      "id": 12985629180,
      "lat": 12.8600356,
      "lon": 77.5424839,
      "tags": {
        "addr:street": "Tummy Town Food Court, Holiday Village Road, Bengaluru",
        "amenity": "restaurant",
        "name": "Paarus Kitchen"
      }
    },
    {
      "type": "node",
      "id": 12985645907,
      "lat": 12.8599702,
      "lon": 77.5424744,
      "tags": {
        "addr:street": "Tummy Town Food Court, Holiday Village Road, Bengaluru",
        "amenity": "restaurant",
        "name": "Cuisinova"
      }
    },
    {
      "type": "node",
      "id": 12985648248,
      "lat": 12.8600349,
      "lon": 77.5424564,
      "tags": {
        "addr:street": "Tummy Town Food Court, Holiday Village Road, Bengaluru",
        "amenity": "fast_food",
        "name": "Dash of Delish"
      }
    },
    {
      "type": "node",
      "id": 12985651797,
      "lat": 12.859971,
      "lon": 77.5424112,
      "tags": {
        "addr:street": "Tummy Town Food Court, Holiday Village Road, Bengaluru",
        "name": "Bunny Bakers",
        "shop": "bakery"
      }
    },
    {
      "type": "node",
      "id": 13115663809,
      "lat": 12.8600364,
      "lon": 77.5423748,
      "tags": {
        "name": "New Mangalore Store",
        "shop": "confectionery"
      }
    },
    {
      "type": "node",
      "id": 13322028762,
      "lat": 12.8592606,
      "lon": 77.5421659,
      "tags": {
        "access": "customers",
        "addr:city": "Mallasandra",
        "addr:district": "Bangalore",
        "addr:postcode": "560109",
        "addr:street": "Holiday Village Road",
        "charge": "3500 INR",
        "fee": "yes",
        "leisure": "sports_centre",
        "name": "Machaxi PlayMax - Holiday Village Road",
        "opening_hours": "Mo-Su 06:00-22:30",
        "operator": "Machaxi",
        "operator:type": "private",
        "payment:cash": "yes",
        "payment:credit_cards": "yes",
        "payment:debit_cards": "yes",
        "payment:google_pay": "yes",
        "payment:upi": "yes",
        "sport": "badminton;swimming;cricket;soccer",
        "website": "https://machaxi.com"
      }
    },
    {
      "type": "way",
      "id": 1127832208,
      "center": {
        "lat": 12.8596845,
        "lon": 77.5425536
      },
      "tags": {
        "access": "private",
        "leisure": "pitch",
        "sport": "basketball",
        "surface": "concrete"
      }
    },
    {
      "type": "way",
      "id": 1127832214,
      "center": {
        "lat": 12.8595501,
        "lon": 77.5444674
      },
      "tags": {
        "leisure": "pitch"
      }
    },
    {
      "type": "way",
      "id": 1144623862,
      "center": {
        "lat": 12.8608026,
        "lon": 77.5427373
      },
      "tags": {
        "addr:city": "Bengaluru",
        "addr:housenumber": "116",
        "addr:postcode": "560062",
        "addr:street": "Kumarans School Holiday Village Road",
        "air_conditioning": "yes",
        "building": "yes",
        "check_date": "2023-10-13",
        "currency:INR": "yes",
        "diet:gluten_free": "limited",
        "diet:lactose_free": "limited",
        "diet:sugar_free": "limited",
        "dog": "no",
        "internet_access": "no",
        "level": "0",
        "name": "Market Fresh",
        "name:ta": "மார்க்கெட் ஃபெரெஷ்",
        "opening_hours": "Mo-Su 07:30-22:00",
        "payment:cards": "yes",
        "payment:cash": "yes",
        "payment:credit_cards": "yes",
        "payment:debit_cards": "yes",
        "payment:qr_code": "yes",
        "payment:upi": "yes",
        "phone": "+91 88615 53742",
        "shop": "supermarket",
        "stroller": "yes",
        "toilets": "yes",
        "wheelchair": "no"
      }
    },
    {
      "type": "way",
      "id": 1243963327,
      "center": {
        "lat": 12.8634456,
        "lon": 77.5439231
      },
      "tags": {
        "access": "private",
        "leisure": "park"
      }
    },
    {
      "type": "way",
      "id": 1249855418,
      "center": {
        "lat": 12.867768,
        "lon": 77.5430689
      },
      "tags": {
        "addr:city": "Bangalore",
        "addr:housenumber": "Resort",
        "addr:postcode": "560062",
        "addr:street": "Kumarans School Holiday Village Road",
        "leisure": "resort",
        "name": "Holiday Village",
        "name:ta": "ஹாலிடே வில்லேஜ்",
        "operator": "Bhindra Resorts"
      }
    },
    {
      "type": "way",
      "id": 1345407066,
      "center": {
        "lat": 12.8562512,
        "lon": 77.5561694
      },
      "tags": {
        "addr:city": "Anjanapura",
        "addr:district": "Bengaluru",
        "addr:housenumber": "5/9",
        "addr:postcode": "560062",
        "addr:street": "80 feet road, near Vajaragiri Estate",
        "building": "sports_hall",
        "charge": "225 INR",
        "fee": "yes",
        "leisure": "sports_centre",
        "name": "Arise Badminton Academy",
        "opening_hours": "Mo-Su 05:00-22:00",
        "rental": "shoes;racket;",
        "sport": "badminton",
        "website": "https://siliconcitysportsacademy.com/arise-badminton/"
      }
    },
    {
      "type": "way",
      "id": 1345407106,
      "center": {
        "lat": 12.8537351,
        "lon": 77.5512086
      },
      "tags": {
        "amenity": "place_of_worship",
        "landuse": "religious",
        "religion": "hindu"
      }
    },
    {
      "type": "way",
      "id": 1345637499,
      "center": {
        "lat": 12.8653922,
        "lon": 77.5581326
      },
      "tags": {
        "access": "private",
        "leisure": "swimming_pool"
      }
    },
    {
      "type": "way",
      "id": 1382317066,
      "center": {
        "lat": 12.8600211,
        "lon": 77.5424613
      },
      "tags": {
        "addr:city": "Mallasandra",
        "addr:district": "Bangalore",
        "addr:postcode": "560062",
        "addr:street": "Holiday Village Road",
        "amenity": "food_court",
        "building": "yes",
        "check_date": "2025-04-29",
        "name": "Tummy Town Food Court"
      }
    },
    {
      "type": "way",
      "id": 1390725577,
      "center": {
        "lat": 12.8669351,
        "lon": 77.5446663
      },
      "tags": {
        "leisure": "park",
        "name": "R K gardens, BBMP Park"
      }
    }
  ]
}