{
  "area_name": "Anjanapura 10th Block",
  "osm_id": 13245148756,
  "osm_type": "node",
  "place_type": "neighbourhood",
  "amenity_count": 20,
  "amenities": [
    {
      "type": "node",
      "id": 3276254173,
      "lat": 12.8593715,
      "lon": 77.5703418,
      "tags": {
        "addr:city": "Bangalore",
        "addr:postcode": "560062",
        "amenity": "place_of_worship",
        "name": "Chamundeshwari Temple",
        "name:kn": "ಚಾಮುಂಡೇಶ್ವರಿ ದೇವಸ್ಥಾನ",
        "religion": "hindu"
      }
    },
    {
      "type": "node",
      "id": 6276405887,
      "lat": 12.8620102,
      "lon": 77.5641166,
      "tags": {
        "addr:place": "Anjanapura",
        "amenity": "school",
        "isced:level": "2",
        "name": "GHPS Anjanapura",
        "name:kn": "ಸರ್ಕಾರಿ ಹಿರಿಯ ಪ್ರಾಥಮಿಕ ಶಾಲೆ ಆಂಜನಪುರ",
        "operator": "Department of Education",
        "school": "primary"
      }
    },
    {
      "type": "node",
      "id": 6348790816,
      "lat": 12.8572549,
      "lon": 77.576942,
      "tags": {
        "addr:place": "Kembathhalli",
        "amenity": "school",
        "isced:level": "2",
        "name": "GHPS Kembathhalli",
        "name:kn": "ಸರ್ಕಾರಿ ಹಿರಿಯ ಪ್ರಾಥಮಿಕ ಶಾಲೆ ಕೆಂಭತ್ ಹಳ್ಳಿ",
        "operator": "Department of Education",
        "school": "primary"
      }
    },
    {
      "type": "node",
      "id": 6400386412,
      "lat": 12.8586411,
      "lon": 77.5626375,
      "tags": {
        "addr:place": "Anjanapura",
        "amenity": "school",
        "isced:level": "3",
        "name": "Florence Public School 4th Blk, Anjanapura",
        "name:kn": "ಫ್ಲಾರೆನ್ಸ್ ಪಬ್ಲಿಕ್ ಶಾಲೆ ೪ನೇ ಬ್ಲಾಕ್, ಆಂಜನಾಪುರ",
        "operator": "Private Un-Aided",
        "school": "Higher Secondary"
      }
    },
    {
      "type": "node",
      "id": 6400392576,
      "lat": 12.8598087,
      "lon": 77.5677765,
      "tags": {
        "addr:place": "Anjanapura",
        "amenity": "school",
        "isced:level": "3",
        "name": "Mvs HPS, Anjanapura",
        "name:kn": "ಎಂ.ವಿ.ಎಸ್ ಹಿರಿಯ ಪ್ರಾಥಮಿಕ ಶಾಲೆ ,ಆಂಜನಾಪುರ",
        "operator": "Private Un-Aided",
        "school": "Higher secondary"
      }
    },
    {
      "type": "node",
      "id": 9925140127,
      "lat": 12.8640503,
      "lon": 77.5733065,
      "tags": {
        "addr:city": "Bengaluru",
        "addr:housenumber": "373",
        "addr:postcode": "560083",
        "addr:street": "2nd Block, JP Nagar 8th Phase",
        "name": "Shivashakti Ply",
        "shop": "hardware"
      }
    },
    {
      "type": "node",
      "id": 11043324191,
      "lat": 12.8546631,
      "lon": 77.572777,
      "tags": {
        "amenity": "shelter",
        "shelter_type": "gazebo"
      }
    },
    {
      "type": "way",
      "id": 684635716,
      "center": {
        "lat": 12.8591528,
        "lon": 77.5695611
      },
      "tags": {
        "amenity": "community_centre",
        "name": "Tamara Weddings & Events"
      }
    },
    {
      "type": "way",
      "id": 1134831507,
      "center": {
        "lat": 12.8588406,
        "lon": 77.5634538
      },
      "tags": {
        "amenity": "fire_station",
        "name": "Anjanapura Fire Station",
        "name:kn": "ಅಂಜನಾಪುರ ಅಗ್ನಿಶಾಮಕ ಠಾಣೆ"
      }
    },
    {
      "type": "way",
      "id": 1189299277,
      "center": {
        "lat": 12.8561826,
        "lon": 77.5732073
      },
      "tags": {
        "leisure": "park"
      }
    },
    {
      "type": "way",
      "id": 1189299278,
      "center": {
        "lat": 12.8536022,
        "lon": 77.5726886
      },
      "tags": {
        "leisure": "park"
      }
    },
    {
      "type": "way",
      "id": 1189440573,
      "center": {
        "lat": 12.852166,
        "lon": 77.5761178
      },
      "tags": {
        "leisure": "park"
      }
    },
    {
      "type": "way",
      "id": 1328835810,
      "center": {
        "lat": 12.8595388,
        "lon": 77.5699665
      },
      "tags": {
        "addr:postcode": "560062",
        "amenity": "fuel",
        "brand": "Indian Oil",
        "brand:wikidata": "Q1289348",
        "brand:wikipedia": "en:Indian Oil Corporation",
        "fuel:diesel": "yes",
        "name": "Indian Oil Corporation",
        "name:kn": "ಇಂಡಿಯನ್ ಆಯಿಲ್",
        "operator": "KRB Fuel Station",
        "source": "GPS"
      }
    },
    {
      "type": "way",
      "id": 1328835818,
      "center": {
        "lat": 12.8604359,
        "lon": 77.5683769
      },
      "tags": {
        "amenity": "school"
      }
    },
    {
      "type": "way",
      "id": 1337330206,
      "center": {
        "lat": 12.8573732,
        "lon": 77.5770073
      },
      "tags": {
        "amenity": "place_of_worship",
        "building": "yes",
        "religion": "hindu"
      }
    },
    {
      "type": "way",
      "id": 1337330212,
      "center": {
        "lat": 12.8535865,
        "lon": 77.5702914
      },
      "tags": {
        "amenity": "school"
      }
    },
    {
      "type": "way",
      "id": 1337330240,
      "center": {
        "lat": 12.8512723,
        "lon": 77.5728736
      },
      "tags": {
        "amenity": "place_of_worship",
        "religion": "hindu"
      }
    },
    {
      "type": "way",
      "id": 1337360134,
      "center": {
        "lat": 12.8510095,
        "lon": 77.5777074
      },
      "tags": {
        "access": "private",
        "leisure": "swimming_pool"
      }
    },
    {
      "type": "way",
      "id": 1337360155,
      "center": {
        "lat": 12.8541569,
        "lon": 77.5762405
      },
      "tags": {
        "amenity": "fuel"
      }
    },
    {
      "type": "way",
      "id": 1428295513,
      "center": {
        "lat": 12.8596026,
        "lon": 77.5739412
      },
      "tags": {
        "addr:city": "Bangalore",
        "addr:district": "Bangalore Urban",
        "addr:housenumber": "VH5F+QGX, 80 Feet Road, Shekar Layout, Royal County, Classic Pleasant Ville Layout, Gottigere, Bengaluru, Kothnur, Karnataka",
        "addr:postcode": "560083",
        "addr:street": "80 Ft Road",
        "branch": "Milk Parlour",
        "brand": "Nandini",
        "brand:wikidata": "Q124374212",
        "building": "yes",
        "name": "Nandini",
        "opening_hours": "Mo-Su 08:00-20:00",
        "payment:cash": "yes",
        "payment:upi": "yes",
        "shop": "dairy"
      }
    }
  ]
}