{
  "area_name": "Archakara Badavane",
  "osm_id": 4292814903,
  "osm_type": "node",
  "place_type": "neighbourhood",
  "amenity_count": 15,
  "amenities": [
    {
      "type": "node",
      "id": 12887368861,
      "lat": 12.9137145,
      "lon": 77.4484715,
      "tags": {
        "amenity": "place_of_worship",
        "religion": "hindu"
      }
    },
    {
      "type": "node",
      "id": 12887368862,
      "lat": 12.913738,
      "lon": 77.4494304,
      "tags": {
        "amenity": "place_of_worship",
        "religion": "hindu"
      }
    },
    {
      "type": "node",
      "id": 12887368866,
      "lat": 12.9236097,
      "lon": 77.4493539,
      "tags": {
        "amenity": "place_of_worship",
        "religion": "hindu"
      }
    },
    {
      "type": "node",
      "id": 12887368904,
      "lat": 12.9234528,
      "lon": 77.4489838,
      "tags": {
        "amenity": "place_of_worship",
        "religion": "hindu"
      }
    },
    {
      "type": "node",
      "id": 12887368905,
      "lat": 12.9226241,
      "lon": 77.4489328,
      "tags": {
        "amenity": "place_of_worship",
        "religion": "hindu"
      }
    },
    {
      "type": "node",
      "id": 12887368906,
      "lat": 12.9218196,
      "lon": 77.4487478,
      "tags": {
        "amenity": "place_of_worship",
        "religion": "hindu"
      }
    },
    {
      "type": "node",
      "id": 13071251497,
      "lat": 12.9140164,
      "lon": 77.4605091,
      "tags": {
        "access": "private",
        "amenity": "parking_entrance",
        "parking": "underground"
      }
    },
    {
      "type": "node",
      "id": 13072772861,
      "lat": 12.9145903,
      "lon": 77.4605589,
      "tags": {
        "access": "private",
        "amenity": "parking_entrance",
        "parking": "underground"
      }
    },
    {
      "type": "way",
      "id": 1241578320,
      "center": {
        "lat": 12.9157255,
        "lon": 77.4509408
      },
      "tags": {
        "amenity": "fuel",
        "brand": "Nayara",
        "brand:wikidata": "Q5399377",
        "name": "Nayara"
      }
    },
    {
      "type": "way",
      "id": 1295587320,
      "center": {
        "lat": 12.925892,
        "lon": 77.4532753
      },
      "tags": {
        "amenity": "college",
        "landuse": "education",
        "name": "Padmashree Institute of Management & Sciences"
      }
    },
    {
      "type": "way",
      "id": 1365570018,
      "center": {
        "lat": 12.9122112,
        "lon": 77.4544568
      },
      "tags": {
        "amenity": "place_of_worship",
        "landuse": "religious",
        "religion": "hindu"
      }
    },
    {
      "type": "way",
      "id": 1365570031,
      "center": {
        "lat": 12.9187445,
        "lon": 77.4611349
      },
      "tags": {
        "amenity": "school",
        "name": "Sunrise International School"
      }
    },
    {
      "type": "way",
      "id": 1365570033,
      "center": {
        "lat": 12.9209711,
        "lon": 77.4599324
      },
      "tags": {
        "amenity": "place_of_worship",
        "landuse": "religious",
        "name": "Sri Male Mahadeshwara Swamy Temple",
        "religion": "hindu"
      }
    },
    {
      "type": "way",
      "id": 1392193941,
      "center": {
        "lat": 12.910538,
        "lon": 77.4494451
      },
      "tags": {
        "amenity": "place_of_worship",
        "landuse": "religious",
        "religion": "hindu"
      }
    },
    {
      "type": "way",
      "id": 1392193946,
      "center": {
        "lat": 12.9148005,
        "lon": 77.4479983
      },
      "tags": {
        "amenity": "school",
        "name": "St. Clare School"
      }
    }
  ]
}