{
  "area_name": "Arkavathy Layout 5th Block",
  "osm_id": 12441386574,
  "osm_type": "node",
  "place_type": "neighbourhood",
  "amenity_count": 183,
  "amenities": [
    {
      "type": "node",
      "id": 1341046577,
      "lat": 13.0645959,
      "lon": 77.6385277,
      "tags": {
        "access": "private",
        "amenity": "parking",
        "name": "Golden Palms Visitors Parking",
        "parking": "surface"
      }
    },
    {
      "type": "node",
      "id": 4114320889,
      "lat": 13.0649791,
      "lon": 77.631672,
      "tags": {
        "addr:housenumber": "59",
        "addr:street": "Thanisandra Main Road",
        "amenity": "childcare",
        "email": "info@orchid-tree.com",
        "name": "Orchid-tree",
        "opening_hours": "Mo-Sa 10:30-17:30",
        "phone": "08022713009",
        "website": "https://www.orchid-tree.com/"
      }
    },
    {
      "type": "node",
      "id": 4489966163,
      "lat": 13.0621835,
      "lon": 77.6489203,
      "tags": {
        "addr:city": "bangalore",
        "addr:housenumber": "3",
        "addr:postcode": "56077",
        "addr:street": "Hennur Bagalur Road",
        "name": "New Eden Family Salon And Spa",
        "opening_hours": "09:30-22:30",
        "phone": "080-33518760",
        "shop": "beauty"
      }
    },
    {
      "type": "node",
      "id": 4973098303,
      "lat": 13.0672422,
      "lon": 77.6361014,
      "tags": {
        "amenity": "atm",
        "name": "Union Bank",
        "name:kn": "ಯೂನಿಯನ್ ಬ್ಯಾಂಕ್",
        "operator": "Union Bank"
      }
    },
    {
      "type": "node",
      "id": 4973098304,
      "lat": 13.067194,
      "lon": 77.634866,
      "tags": {
        "amenity": "atm",
        "name": "Axis Bank",
        "name:kn": "ಆಕ್ಸಿಸ್ ಬ್ಯಾಂಕ್",
        "operator": "Axis Bank"
      }
    },
    {
      "type": "node",
      "id": 4973098305,
      "lat": 13.0667879,
      "lon": 77.6385465,
      "tags": {
        "name": "Garden City Supermarket",
        "shop": "supermarket"
      }
    },
    {
      "type": "node",
      "id": 4973098306,
      "lat": 13.0662857,
      "lon": 77.6405595,
      "tags": {
        "name": "Shreedev Medicals and General Stores",
        "shop": "medical_supply"
      }
    },
    {
      "type": "node",
      "id": 4973099936,
      "lat": 13.0603468,
      "lon": 77.6419325,
      "tags": {
        "name": "Sri Krishna Medical and General Store",
        "shop": "medical_supply"
      }
    },
    {
      "type": "node",
      "id": 4973099937,
      "lat": 13.0594285,
      "lon": 77.6428954,
      "tags": {
        "amenity": "fast_food",
        "name": "Kairali Mess"
      }
    },
    {
      "type": "node",
      "id": 4973099938,
      "lat": 13.059224,
      "lon": 77.6430226,
      "tags": {
        "amenity": "restaurant",
        "cuisine": "indian;kerala",
        "name": "Joicy's Kitchen"
      }
    },
    {
      "type": "node",
      "id": 5168546937,
      "lat": 13.059096,
      "lon": 77.6431078,
      "tags": {
        "amenity": "restaurant"
      }
    },
    {
      "type": "node",
      "id": 5295004555,
      "lat": 13.0613244,
      "lon": 77.6333591,
      "tags": {
        "name": "Spex World",
        "shop": "optician"
      }
    },
    {
      "type": "node",
      "id": 5295004556,
      "lat": 13.0618055,
      "lon": 77.6331852,
      "tags": {
        "amenity": "bank",
        "name": "Kotak Mahindra Bank",
        "name:kn": "ಕೋಟಕ್ ಮಹಿಂದ್ರ ಬ್ಯಾಂಕ್"
      }
    },
    {
      "type": "node",
      "id": 5295004557,
      "lat": 13.0624812,
      "lon": 77.6333112,
      "tags": {
        "name": "Adishwar Electro World",
        "shop": "appliance"
      }
    },
    {
      "type": "node",
      "id": 5295004574,
      "lat": 13.0674024,
      "lon": 77.635487,
      "tags": {
        "amenity": "atm",
        "operator": "Andhra Bank"
      }
    },
    {
      "type": "node",
      "id": 5295004575,
      "lat": 13.0669064,
      "lon": 77.6379603,
      "tags": {
        "amenity": "atm",
        "operator": "ICICI Bank"
      }
    },
    {
      "type": "node",
      "id": 5295004576,
      "lat": 13.0668204,
      "lon": 77.6392281,
      "tags": {
        "name": "Sri Sri Medicals",
        "shop": "medical_supply"
      }
    },
    {
      "type": "node",
      "id": 5295004577,
      "lat": 13.0667343,
      "lon": 77.6398517,
      "tags": {
        "name": "Foodmax",
        "shop": "supermarket"
      }
    },
    {
      "type": "node",
      "id": 5295004580,
      "lat": 13.065231,
      "lon": 77.6404066,
      "tags": {
        "amenity": "atm",
        "operator": "State Bank of India"
      }
    },
    {
      "type": "node",
      "id": 5295004581,
      "lat": 13.0616922,
      "lon": 77.6419287,
      "tags": {
        "name": "Happy Meat",
        "shop": "butcher"
      }
    },
    {
      "type": "node",
      "id": 5966255496,
      "lat": 13.066957,
      "lon": 77.6361282,
      "tags": {
        "amenity": "pharmacy",
        "name": "Krishna Medicals"
      }
    },
    {
      "type": "node",
      "id": 5966255497,
      "lat": 13.066842,
      "lon": 77.6390545,
      "tags": {
        "amenity": "hospital",
        "name": "Bangalore Prime Hospital"
      }
    },
    {
      "type": "node",
      "id": 5966255498,
      "lat": 13.0665402,
      "lon": 77.6405686,
      "tags": {
        "name": "Sri PK",
        "shop": "greengrocer"
      }
    },
    {
      "type": "node",
      "id": 5966255499,
      "lat": 13.064936,
      "lon": 77.6407188,
      "tags": {
        "name": "Balaji Departmental Stores",
        "shop": "convenience"
      }
    },
    {
      "type": "node",
      "id": 5966255500,
      "lat": 13.0641025,
      "lon": 77.6409978,
      "tags": {
        "name": "Non Veg Bazaar",
        "shop": "butcher"
      }
    },
    {
      "type": "node",
      "id": 5966255510,
      "lat": 13.0610325,
      "lon": 77.6420653,
      "tags": {
        "amenity": "cafe",
        "name": "Chosen Cafe"
      }
    },
    {
      "type": "node",
      "id": 6194256788,
      "lat": 13.0651729,
      "lon": 77.6391946,
      "tags": {
        "access": "private",
        "amenity": "parking_entrance",
        "parking": "underground"
      }
    },
    {
      "type": "node",
      "id": 6857394466,
      "lat": 13.0613342,
      "lon": 77.6420881,
      "tags": {
        "name": "Sree Chowdeshwari Chicken Centre",
        "shop": "butcher"
      }
    },
    {
      "type": "node",
      "id": 6857394467,
      "lat": 13.0612023,
      "lon": 77.642076,
      "tags": {
        "shop": "greengrocer"
      }
    },
    {
      "type": "node",
      "id": 6857394468,
      "lat": 13.0613251,
      "lon": 77.6418467,
      "tags": {
        "amenity": "fast_food",
        "name": "Arunachalam Hot Chips"
      }
    },
    {
      "type": "node",
      "id": 6857394483,
      "lat": 13.0644892,
      "lon": 77.6408288,
      "tags": {
        "amenity": "kindergarten",
        "name": "Little Lions"
      }
    },
    {
      "type": "node",
      "id": 6857394484,
      "lat": 13.0663312,
      "lon": 77.6402789,
      "tags": {
        "amenity": "restaurant",
        "name": "De Grand"
      }
    },
    {
      "type": "node",
      "id": 6857427185,
      "lat": 13.0664618,
      "lon": 77.6394099,
      "tags": {
        "name": "New Gardencity Bakery",
        "shop": "bakery"
      }
    },
    {
      "type": "node",
      "id": 6857427186,
      "lat": 13.0665115,
      "lon": 77.6385623,
      "tags": {
        "name": "Shankara Build Pro",
        "shop": "interior_decoration"
      }
    },
    {
      "type": "node",
      "id": 7202935818,
      "lat": 13.0631921,
      "lon": 77.6423476,
      "tags": {
        "addr:district": "Bangalore",
        "addr:full": "Bagalur ROAD, Kottanur Post, K. Narayanapura",
        "addr:postcode": "560077",
        "addr:state": "Karnataka",
        "addr:subdistrict": "Bangalore East",
        "amenity": "clinic",
        "description": "Urban Primary Health Centre",
        "healthcare": "centre",
        "name": "K Narayanapura Urban Primary Health Centre",
        "name:kn": "ಗ್ರಾಮಾಂತರ ಪ್ರಾಥಮಿಕ ಆರೋಗ್ಯ ಕೇಂದ್ರ",
        "source": "OpenGovernmentData"
      }
    },
    {
      "type": "node",
      "id": 7206419503,
      "lat": 13.0562928,
      "lon": 77.6446804,
      "tags": {
        "amenity": "fast_food",
        "name": "Roti Land Family Dhaba"
      }
    },
    {
      "type": "node",
      "id": 7206419528,
      "lat": 13.0575391,
      "lon": 77.6439643,
      "tags": {
        "amenity": "fast_food",
        "name": "Dreamland Food Corner"
      }
    },
    {
      "type": "node",
      "id": 7206419529,
      "lat": 13.0579611,
      "lon": 77.6440448,
      "tags": {
        "name": "Aayi's Organics",
        "shop": "greengrocer"
      }
    },
    {
      "type": "node",
      "id": 7206419572,
      "lat": 13.0598593,
      "lon": 77.642583,
      "tags": {
        "amenity": "fast_food",
        "name": "Appam's Bakery and Sweets"
      }
    },
    {
      "type": "node",
      "id": 7206419705,
      "lat": 13.0600213,
      "lon": 77.6424361,
      "tags": {
        "amenity": "place_of_worship",
        "name": "Sri Shiva Chamundi Temple",
        "religion": "hindu"
      }
    },
    {
      "type": "node",
      "id": 7206419706,
      "lat": 13.0607666,
      "lon": 77.6415369,
      "tags": {
        "amenity": "waste_basket"
      }
    },
    {
      "type": "node",
      "id": 7206419709,
      "lat": 13.0607032,
      "lon": 77.6413357,
      "tags": {
        "amenity": "community_centre",
        "name": "Clubhouse"
      }
    },
    {
      "type": "node",
      "id": 7206419710,
      "lat": 13.0607241,
      "lon": 77.6412003,
      "tags": {
        "check_date": "2024-02-25",
        "leisure": "fitness_station",
        "name": "Gym"
      }
    },
    {
      "type": "node",
      "id": 7206419722,
      "lat": 13.0602839,
      "lon": 77.6413478,
      "tags": {
        "access": "permissive",
        "amenity": "parking",
        "fee": "no",
        "lit": "yes",
        "parking": "surface"
      }
    },
    {
      "type": "node",
      "id": 7206419727,
      "lat": 13.0607418,
      "lon": 77.6415322,
      "tags": {
        "access": "private",
        "amenity": "parking",
        "parking": "underground"
      }
    },
    {
      "type": "node",
      "id": 7227412374,
      "lat": 13.0587371,
      "lon": 77.643232,
      "tags": {
        "amenity": "restaurant",
        "name": "Cafe Zamorin"
      }
    },
    {
      "type": "node",
      "id": 7227446792,
      "lat": 13.0645806,
      "lon": 77.6483658,
      "tags": {
        "amenity": "restaurant",
        "name": "Taawoon"
      }
    },
    {
      "type": "node",
      "id": 7255870173,
      "lat": 13.0569486,
      "lon": 77.6444015,
      "tags": {
        "name": "S. M. Optics",
        "shop": "optician"
      }
    },
    {
      "type": "node",
      "id": 7255870174,
      "lat": 13.0572301,
      "lon": 77.6441366,
      "tags": {
        "amenity": "cafe",
        "name": "Fella Cafe"
      }
    },
    {
      "type": "node",
      "id": 7255870175,
      "lat": 13.0576815,
      "lon": 77.6439341,
      "tags": {
        "amenity": "fast_food",
        "cuisine": "juice",
        "name": "Lassi Store"
      }
    },
    {
      "type": "node",
      "id": 7255870176,
      "lat": 13.0578944,
      "lon": 77.6440562,
      "tags": {
        "amenity": "fast_food",
        "name": "Kolkata Famous Kati Roll"
      }
    },
    {
      "type": "node",
      "id": 7255870179,
      "lat": 13.0589004,
      "lon": 77.6431033,
      "tags": {
        "amenity": "fast_food",
        "cuisine": "chinese",
        "name": "Chinese Bowl"
      }
    },
    {
      "type": "node",
      "id": 7255870180,
      "lat": 13.0602813,
      "lon": 77.6422249,
      "tags": {
        "name": "Sattvik Gourmet Food Bazar",
        "shop": "convenience"
      }
    },
    {
      "type": "node",
      "id": 7255943590,
      "lat": 13.0607513,
      "lon": 77.6414216,
      "tags": {
        "amenity": "waste_basket"
      }
    },
    {
      "type": "node",
      "id": 8597934815,
      "lat": 13.0632769,
      "lon": 77.6487414,
      "tags": {
        "addr:city": "bangalore",
        "addr:housenumber": "9/2",
        "addr:postcode": "560077",
        "addr:street": "Kothanur Mail Road",
        "amenity": "bank",
        "atm": "yes",
        "brand": "State Bank of India",
        "brand:wikidata": "Q1340361",
        "brand:wikipedia": "en:State Bank of India",
        "name": "State Bank of India",
        "opening_hours": "Mo-Sa 09:00-17:00",
        "operator": "SBI"
      }
    },
    {
      "type": "node",
      "id": 8597934816,
      "lat": 13.0643012,
      "lon": 77.6492122,
      "tags": {
        "addr:city": "Bengaluru",
        "addr:housenumber": "89",
        "addr:postcode": "560077",
        "addr:street": "Narayanapura Main Road",
        "amenity": "bank",
        "atm": "yes",
        "brand": "ICICI Bank",
        "brand:wikidata": "Q1653258",
        "brand:wikipedia": "en:ICICI Bank",
        "description": "IFSC Code: ICIC0001850",
        "name": "ICICI Bank",
        "opening_hours": "Mo-Sa 09:30-16:30",
        "operator": "ICICI"
      }
    },
    {
      "type": "node",
      "id": 8597958242,
      "lat": 13.0632605,
      "lon": 77.6488771,
      "tags": {
        "addr:city": "Bengaluru",
        "addr:postcode": "560077",
        "addr:street": "Kothanur Main Road",
        "amenity": "restaurant",
        "name": "Post office - Kothanur",
        "opening_hours": "Mo-Sa 08:00-14:00",
        "operator": "India Post"
      }
    },
    {
      "type": "node",
      "id": 9527967830,
      "lat": 13.0567239,
      "lon": 77.6441869,
      "tags": {
        "amenity": "fast_food",
        "brand": "Southern Fried Chicken",
        "brand:wikidata": "Q7569934",
        "cuisine": "chicken",
        "name": "Southern Fried Chicken",
        "takeaway": "yes"
      }
    },
    {
      "type": "node",
      "id": 9527967871,
      "lat": 13.0614616,
      "lon": 77.6417635,
      "tags": {
        "amenity": "fast_food",
        "name": "Nandu's"
      }
    },
    {
      "type": "node",
      "id": 9527967872,
      "lat": 13.0608058,
      "lon": 77.6419332,
      "tags": {
        "name": "Hair Saloon",
        "shop": "hairdresser"
      }
    },
    {
      "type": "node",
      "id": 9527967873,
      "lat": 13.0608541,
      "lon": 77.6419379,
      "tags": {
        "amenity": "pharmacy",
        "name": "Aster Labs"
      }
    },
    {
      "type": "node",
      "id": 9912860204,
      "lat": 13.0559557,
      "lon": 77.6447488,
      "tags": {
        "amenity": "restaurant",
        "name": "The Culinarian"
      }
    },
    {
      "type": "node",
      "id": 10250904436,
      "lat": 13.0554134,
      "lon": 77.6429841,
      "tags": {
        "addr:city": "Bangalore",
        "addr:country": "IN",
        "addr:housenumber": "16",
        "addr:postcode": "560077",
        "addr:suburb": "Geddalahalli",
        "amenity": "cafe",
        "contact:facebook": "CoffeeMetanoia",
        "contact:instagram": "coffee_metanoia",
        "name": "Coffee Metanoia",
        "website": "https://coffee-metanoia.kyte.site/"
      }
    },
    {
      "type": "node",
      "id": 10574709755,
      "lat": 13.0560824,
      "lon": 77.6445048,
      "tags": {
        "amenity": "pharmacy",
        "name": "Aditya Pharma"
      }
    },
    {
      "type": "node",
      "id": 10731130832,
      "lat": 13.0641051,
      "lon": 77.6491168,
      "tags": {
        "amenity": "restaurant",
        "cuisine": "regional",
        "name": "Thalassery Restaurant"
      }
    },
    {
      "type": "node",
      "id": 10731130833,
      "lat": 13.0644931,
      "lon": 77.6486917,
      "tags": {
        "name": "Sri Krishna Books and Stationery",
        "shop": "stationery"
      }
    },
    {
      "type": "node",
      "id": 10731130834,
      "lat": 13.064578,
      "lon": 77.6485643,
      "tags": {
        "name": "Talking Scissors",
        "shop": "hairdresser"
      }
    },
    {
      "type": "node",
      "id": 10731130835,
      "lat": 13.0645297,
      "lon": 77.6485509,
      "tags": {
        "name": "Chakkappan Stores",
        "shop": "supermarket"
      }
    },
    {
      "type": "node",
      "id": 10731130836,
      "lat": 13.0640777,
      "lon": 77.6484717,
      "tags": {
        "name": "The Blue Ridge",
        "shop": "pet"
      }
    },
    {
      "type": "node",
      "id": 10731130837,
      "lat": 13.0641829,
      "lon": 77.6486061,
      "tags": {
        "amenity": "bank",
        "brand": "Axis Bank",
        "brand:wikidata": "Q2003549",
        "name": "Axis Bank"
      }
    },
    {
      "type": "node",
      "id": 10731130838,
      "lat": 13.0643494,
      "lon": 77.6479487,
      "tags": {
        "name": "Vishal Mega Mart",
        "shop": "supermarket"
      }
    },
    {
      "type": "node",
      "id": 10731130843,
      "lat": 13.0651607,
      "lon": 77.6458982,
      "tags": {
        "amenity": "restaurant",
        "cuisine": "regional",
        "name": "Athutheeram"
      }
    },
    {
      "type": "node",
      "id": 10731130855,
      "lat": 13.0655474,
      "lon": 77.6442835,
      "tags": {
        "amenity": "school",
        "name": "Don Bosco High School"
      }
    },
    {
      "type": "node",
      "id": 10731130864,
      "lat": 13.0664266,
      "lon": 77.641042,
      "tags": {
        "amenity": "clinic",
        "name": "Bangalore Baptist Clinic"
      }
    },
    {
      "type": "node",
      "id": 10731130865,
      "lat": 13.0665089,
      "lon": 77.6406839,
      "tags": {
        "name": "Ninjacart",
        "shop": "greengrocer"
      }
    },
    {
      "type": "node",
      "id": 10731130866,
      "lat": 13.0669086,
      "lon": 77.6391806,
      "tags": {
        "amenity": "pharmacy",
        "name": "Balaji Pharma"
      }
    },
    {
      "type": "node",
      "id": 10895959919,
      "lat": 13.0625178,
      "lon": 77.6423885,
      "tags": {
        "access": "yes",
        "amenity": "toilets",
        "fee": "yes",
        "operator": "BBMP"
      }
    },
    {
      "type": "node",
      "id": 11146706695,
      "lat": 13.0604576,
      "lon": 77.6395024,
      "tags": {
        "access": "permissive",
        "amenity": "parking",
        "parking": "surface"
      }
    },
    {
      "type": "node",
      "id": 11647727650,
      "lat": 13.0577398,
      "lon": 77.6439304,
      "tags": {
        "amenity": "fast_food",
        "check_date": "2024-02-21",
        "delivery": "yes",
        "drive_through": "yes",
        "name": "UTBT - Under The Banyan Tree"
      }
    },
    {
      "type": "node",
      "id": 11662119198,
      "lat": 13.057719,
      "lon": 77.6438735,
      "tags": {
        "amenity": "fast_food",
        "check_date": "2024-02-25",
        "cuisine": "chinese",
        "name": "Dragon View"
      }
    },
    {
      "type": "node",
      "id": 11662119200,
      "lat": 13.0578603,
      "lon": 77.6440834,
      "tags": {
        "amenity": "fast_food",
        "check_date": "2024-02-25",
        "name": "Grill Nights"
      }
    },
    {
      "type": "node",
      "id": 11662119201,
      "lat": 13.0578343,
      "lon": 77.6440984,
      "tags": {
        "amenity": "fast_food",
        "check_date": "2024-02-25",
        "name": "Panoor Restaurant & Cafe"
      }
    },
    {
      "type": "node",
      "id": 11662119202,
      "lat": 13.0579017,
      "lon": 77.6440795,
      "tags": {
        "check_date": "2024-02-25",
        "name": "Net Galaxy",
        "shop": "copyshop"
      }
    },
    {
      "type": "node",
      "id": 11662119203,
      "lat": 13.0580923,
      "lon": 77.6438883,
      "tags": {
        "amenity": "pharmacy",
        "check_date": "2024-02-25",
        "healthcare": "pharmacy",
        "name": "Sri Ram Medicals"
      }
    },
    {
      "type": "node",
      "id": 11662119204,
      "lat": 13.0578309,
      "lon": 77.6437923,
      "tags": {
        "amenity": "fast_food",
        "check_date": "2024-02-25",
        "name": "A1 Ambur Biryani"
      }
    },
    {
      "type": "node",
      "id": 11662119205,
      "lat": 13.0578526,
      "lon": 77.6437873,
      "tags": {
        "check_date": "2024-02-25",
        "shop": "copyshop"
      }
    },
    {
      "type": "node",
      "id": 11662119206,
      "lat": 13.0578831,
      "lon": 77.6437839,
      "tags": {
        "amenity": "fast_food",
        "check_date": "2024-02-25",
        "name": "Bangalore's Spicy Bites"
      }
    },
    {
      "type": "node",
      "id": 11662119207,
      "lat": 13.0581667,
      "lon": 77.6437513,
      "tags": {
        "amenity": "fast_food",
        "check_date": "2024-02-25",
        "name": "Panasam Food Court"
      }
    },
    {
      "type": "node",
      "id": 11662119208,
      "lat": 13.0581549,
      "lon": 77.6438032,
      "tags": {
        "amenity": "fast_food",
        "check_date": "2024-02-25",
        "name": "SGS Non Veg"
      }
    },
    {
      "type": "node",
      "id": 11662119209,
      "lat": 13.0582118,
      "lon": 77.6437953,
      "tags": {
        "check_date": "2024-02-25",
        "shop": "hairdresser"
      }
    },
    {
      "type": "node",
      "id": 11662119210,
      "lat": 13.0582022,
      "lon": 77.6437419,
      "tags": {
        "amenity": "atm",
        "check_date": "2024-02-25",
        "operator": "Canara Bank"
      }
    },
    {
      "type": "node",
      "id": 11917222418,
      "lat": 13.0555623,
      "lon": 77.6446672,
      "tags": {
        "check_date": "2024-05-19",
        "name": "Laundry Fabrica",
        "shop": "laundry"
      }
    },
    {
      "type": "node",
      "id": 11917452855,
      "lat": 13.0654577,
      "lon": 77.6404559,
      "tags": {
        "amenity": "place_of_worship",
        "check_date": "2024-05-19",
        "religion": "hindu"
      }
    },
    {
      "type": "node",
      "id": 12105652062,
      "lat": 13.064529,
      "lon": 77.6386347,
      "tags": {
        "access": "private",
        "amenity": "parking_entrance",
        "parking": "underground"
      }
    },
    {
      "type": "node",
      "id": 12157095325,
      "lat": 13.0626984,
      "lon": 77.6391455,
      "tags": {
        "amenity": "parking_entrance"
      }
    },
    {
      "type": "node",
      "id": 12157095329,
      "lat": 13.0621008,
      "lon": 77.6390573,
      "tags": {
        "amenity": "parking_entrance"
      }
    },
    {
      "type": "node",
      "id": 12157095337,
      "lat": 13.0637481,
      "lon": 77.6390309,
      "tags": {
        "amenity": "parking_entrance"
      }
    },
    {
      "type": "node",
      "id": 12157122633,
      "lat": 13.0606512,
      "lon": 77.6401833,
      "tags": {
        "amenity": "parking_entrance"
      }
    },
    {
      "type": "node",
      "id": 12441386597,
      "lat": 13.0590702,
      "lon": 77.6468477,
      "tags": {
        "amenity": "place_of_worship",
        "religion": "hindu"
      }
    },
    {
      "type": "node",
      "id": 12450999472,
      "lat": 13.0570278,
      "lon": 77.6444364,
      "tags": {
        "alt_name": "Baptist Hospital Clinic",
        "amenity": "clinic",
        "check_date": "2024-12-25",
        "healthcare": "clinic",
        "name": "Baptist Express Healthcare"
      }
    },
    {
      "type": "node",
      "id": 12450999473,
      "lat": 13.0582011,
      "lon": 77.6435954,
      "tags": {
        "amenity": "fast_food",
        "check_date": "2024-12-25",
        "name": "Lumina Foods"
      }
    },
    {
      "type": "node",
      "id": 12450999474,
      "lat": 13.0596242,
      "lon": 77.6427656,
      "tags": {
        "check_date": "2024-12-25",
        "name": "Facecake",
        "shop": "pastry"
      }
    },
    {
      "type": "node",
      "id": 12450999475,
      "lat": 13.0598775,
      "lon": 77.6425707,
      "tags": {
        "amenity": "fast_food",
        "check_date": "2024-12-25",
        "name": "Sri Udupi Vaibhava"
      }
    },
    {
      "type": "node",
      "id": 12469425111,
      "lat": 13.067341,
      "lon": 77.6352334,
      "tags": {
        "amenity": "bank",
        "branch": "Thanisandra",
        "fixme": "location",
        "name": "Federal Bank"
      }
    },
    {
      "type": "node",
      "id": 12540842178,
      "lat": 13.0583517,
      "lon": 77.6434712,
      "tags": {
        "addr:city": "Bengaluru",
        "addr:postcode": "560077",
        "addr:street": "K Narayanapura",
        "amenity": "bank",
        "brand": "South Indian Bank",
        "brand:wikidata": "Q2044973",
        "name": "South Indian Bank"
      }
    },
    {
      "type": "node",
      "id": 12632074330,
      "lat": 13.0556069,
      "lon": 77.6449111,
      "tags": {
        "amenity": "cafe",
        "name": "Hipp-E Panda"
      }
    },
    {
      "type": "node",
      "id": 12752583724,
      "lat": 13.0615759,
      "lon": 77.6341447,
      "tags": {
        "amenity": "pub",
        "name": "Finca"
      }
    },
    {
      "type": "node",
      "id": 12752639016,
      "lat": 13.0610762,
      "lon": 77.6420633,
      "tags": {
        "amenity": "fast_food",
        "name": "Lala Place"
      }
    },
    {
      "type": "node",
      "id": 13013588712,
      "lat": 13.0629163,
      "lon": 77.6492482,
      "tags": {
        "amenity": "fast_food",
        "name": "Sharief Bhai"
      }
    },
    {
      "type": "node",
      "id": 13077680175,
      "lat": 13.0579781,
      "lon": 77.6476899,
      "tags": {
        "amenity": "cafe",
        "name": "Cafe Kempu"
      }
    },
    {
      "type": "node",
      "id": 13108989425,
      "lat": 13.0598468,
      "lon": 77.6485539,
      "tags": {
        "name": "Snitch",
        "shop": "clothes"
      }
    },
    {
      "type": "node",
      "id": 13108989426,
      "lat": 13.0598911,
      "lon": 77.6489711,
      "tags": {
        "brand": "Theobroma",
        "brand:wikidata": "Q124374469",
        "delivery": "yes",
        "name": "Theobroma",
        "shop": "pastry",
        "takeaway": "yes"
      }
    },
    {
      "type": "way",
      "id": 507886813,
      "center": {
        "lat": 13.0605788,
        "lon": 77.6415218
      },
      "tags": {
        "access": "permissive",
        "amenity": "parking",
        "capacity": "20",
        "fee": "no",
        "lit": "yes",
        "name": "Visitor's Parking",
        "name:kn": "ವಿಮಾನ ನಿಲ್ದಾಣ",
        "parking": "surface"
      }
    },
    {
      "type": "way",
      "id": 525508983,
      "center": {
        "lat": 13.0668492,
        "lon": 77.6394164
      },
      "tags": {
        "amenity": "hospital",
        "emergency": "yes",
        "name": "Shirdi Sai Hospital",
        "name:kn": "ಶಿರಡಿ ಸಾಯಿ ಆಸ್ಪತ್ರೆ"
      }
    },
    {
      "type": "way",
      "id": 530606746,
      "center": {
        "lat": 13.0576618,
        "lon": 77.6420218
      },
      "tags": {
        "access": "private",
        "amenity": "college",
        "capacity": "30",
        "fee": "no",
        "maxstay": "1 day",
        "operator": "Kristu Jayanti University",
        "parking": "surface",
        "surface": "asphalt"
      }
    },
    {
      "type": "way",
      "id": 530606750,
      "center": {
        "lat": 13.0583978,
        "lon": 77.6426006
      },
      "tags": {
        "access": "private",
        "amenity": "motorcycle_parking",
        "capacity": "200",
        "covered": "no",
        "operator": "Kristu Jayanti University"
      }
    },
    {
      "type": "way",
      "id": 530606753,
      "center": {
        "lat": 13.0588411,
        "lon": 77.6425733
      },
      "tags": {
        "leisure": "pitch",
        "lit": "no",
        "sport": "soccer",
        "surface": "ground"
      }
    },
    {
      "type": "way",
      "id": 530606757,
      "center": {
        "lat": 13.0592179,
        "lon": 77.6423836
      },
      "tags": {
        "leisure": "pitch",
        "sport": "basketball"
      }
    },
    {
      "type": "way",
      "id": 530606762,
      "center": {
        "lat": 13.0588678,
        "lon": 77.6428331
      },
      "tags": {
        "leisure": "park"
      }
    },
    {
      "type": "way",
      "id": 530606764,
      "center": {
        "lat": 13.0581112,
        "lon": 77.6434269
      },
      "tags": {
        "amenity": "cafe",
        "internet_access": "yes",
        "internet_access:fee": "no",
        "internet_access:ssid": "KJC_NET",
        "name": "Cafeteria",
        "outdoor_seating": "yes",
        "smoking": "no"
      }
    },
    {
      "type": "way",
      "id": 530665374,
      "center": {
        "lat": 13.058229,
        "lon": 77.6424351
      },
      "tags": {
        "addr:city": "Bengaluru",
        "addr:postcode": "560077",
        "addr:street": "K. Narayanapura Main Road",
        "amenity": "university",
        "description": "Krsitu Jayanti is an autonomous college affilated to Bengaluru North University and founded in 1999",
        "landuse": "education",
        "name": "Kristu Jayanti University",
        "old_name": "Kristu Jayanti College",
        "operator": "CMI (Carmelites of Mary Immaculate)",
        "operator:type": "religious",
        "short_name": "KJU",
        "website": "https://kristujayanti.edu.in/home/",
        "wikidata": "Q19892953",
        "wikipedia": "en:Kristu Jayanti University"
      }
    },
    {
      "type": "way",
      "id": 531029902,
      "center": {
        "lat": 13.058436,
        "lon": 77.6433308
      },
      "tags": {
        "building": "yes",
        "shop": "yes"
      }
    },
    {
      "type": "way",
      "id": 531029917,
      "center": {
        "lat": 13.0572994,
        "lon": 77.6454379
      },
      "tags": {
        "addr:city": "Bangalore",
        "addr:country": "IN",
        "addr:hamlet": "K Narayanapura",
        "addr:housenumber": "12",
        "addr:postcode": "560077",
        "addr:street": "Esther Defence Avenue",
        "addr:suburb": "Kothanur",
        "amenity": "cafe",
        "building": "yes",
        "email": "chai316blr@gmail.com",
        "internet_access": "no",
        "name": "Chai 3:16",
        "outdoor_seating": "no",
        "phone": "+91 80 2844 5316",
        "smoking": "no",
        "website": "https://chai316.com/"
      }
    },
    {
      "type": "way",
      "id": 531119558,
      "center": {
        "lat": 13.0584822,
        "lon": 77.6429995
      },
      "tags": {
        "amenity": "fountain"
      }
    },
    {
      "type": "way",
      "id": 545829392,
      "center": {
        "lat": 13.0606235,
        "lon": 77.6409739
      },
      "tags": {
        "access": "permissive",
        "leisure": "swimming_pool"
      }
    },
    {
      "type": "way",
      "id": 545829393,
      "center": {
        "lat": 13.060004,
        "lon": 77.6409402
      },
      "tags": {
        "access": "private",
        "leisure": "playground"
      }
    },
    {
      "type": "way",
      "id": 675387124,
      "center": {
        "lat": 13.0590006,
        "lon": 77.6462925
      },
      "tags": {
        "leisure": "pitch",
        "sport": "tennis"
      }
    },
    {
      "type": "way",
      "id": 675387126,
      "center": {
        "lat": 13.0587315,
        "lon": 77.6461111
      },
      "tags": {
        "leisure": "pitch",
        "sport": "tennis"
      }
    },
    {
      "type": "way",
      "id": 732317791,
      "center": {
        "lat": 13.0627875,
        "lon": 77.64241
      },
      "tags": {
        "amenity": "school",
        "name": "Government School",
        "name:kn": "ಸರ್ಕಾರಿ ಶಾಲೆ"
      }
    },
    {
      "type": "way",
      "id": 732317794,
      "center": {
        "lat": 13.0681053,
        "lon": 77.6342359
      },
      "tags": {
        "leisure": "park"
      }
    },
    {
      "type": "way",
      "id": 732317795,
      "center": {
        "lat": 13.0682752,
        "lon": 77.6345457
      },
      "tags": {
        "amenity": "school",
        "name": "Rashtrotthana Vidya Kendra",
        "name:kn": "ರಾಷ್ಟ್ರೋತ್ತಾನ ವಿದ್ಯ ಕೇಂದ್ರ"
      }
    },
    {
      "type": "way",
      "id": 771931360,
      "center": {
        "lat": 13.0606895,
        "lon": 77.6416174
      },
      "tags": {
        "leisure": "garden"
      }
    },
    {
      "type": "way",
      "id": 771931363,
      "center": {
        "lat": 13.0607003,
        "lon": 77.6408914
      },
      "tags": {
        "leisure": "garden"
      }
    },
    {
      "type": "way",
      "id": 772836318,
      "center": {
        "lat": 13.061442,
        "lon": 77.6321803
      },
      "tags": {
        "access": "permissive",
        "leisure": "swimming_pool"
      }
    },
    {
      "type": "way",
      "id": 772836320,
      "center": {
        "lat": 13.0607496,
        "lon": 77.6319101
      },
      "tags": {
        "leisure": "playground"
      }
    },
    {
      "type": "way",
      "id": 772836321,
      "center": {
        "lat": 13.0607179,
        "lon": 77.6320442
      },
      "tags": {
        "leisure": "pitch",
        "sport": "tennis"
      }
    },
    {
      "type": "way",
      "id": 1034262013,
      "center": {
        "lat": 13.0610735,
        "lon": 77.6398332
      },
      "tags": {
        "leisure": "garden"
      }
    },
    {
      "type": "way",
      "id": 1065053848,
      "center": {
        "lat": 13.0626691,
        "lon": 77.6331478
      },
      "tags": {
        "amenity": "community_centre",
        "name": "Crystal Palace Convention Center"
      }
    },
    {
      "type": "way",
      "id": 1065053851,
      "center": {
        "lat": 13.066902,
        "lon": 77.6342976
      },
      "tags": {
        "amenity": "place_of_worship",
        "name": "Jamia Muhammadiyah Masjid",
        "religion": "muslim"
      }
    },
    {
      "type": "way",
      "id": 1153855761,
      "center": {
        "lat": 13.0641515,
        "lon": 77.6482545
      },
      "tags": {
        "access": "permissive",
        "amenity": "parking",
        "parking": "surface"
      }
    },
    {
      "type": "way",
      "id": 1153855762,
      "center": {
        "lat": 13.0647459,
        "lon": 77.6457734
      },
      "tags": {
        "amenity": "fuel",
        "brand": "Bharat Petroleum",
        "brand:wikidata": "Q854826",
        "name": "Bharat Petroleum",
        "name:kn": "ಭಾರತ್ ಪೆಟ್ರೋಲಿಯಂ",
        "operator": "Bharat Petroleum"
      }
    },
    {
      "type": "way",
      "id": 1153855767,
      "center": {
        "lat": 13.0651198,
        "lon": 77.6371707
      },
      "tags": {
        "amenity": "college",
        "name": "Bible College and Ministry Training Center"
      }
    },
    {
      "type": "way",
      "id": 1202363282,
      "center": {
        "lat": 13.0561138,
        "lon": 77.6391551
      },
      "tags": {
        "leisure": "pitch",
        "sport": "basketball"
      }
    },
    {
      "type": "way",
      "id": 1202363284,
      "center": {
        "lat": 13.0561558,
        "lon": 77.6387217
      },
      "tags": {
        "leisure": "pitch",
        "sport": "tennis"
      }
    },
    {
      "type": "way",
      "id": 1202363285,
      "center": {
        "lat": 13.0554963,
        "lon": 77.6387685
      },
      "tags": {
        "access": "private",
        "leisure": "swimming_pool"
      }
    },
    {
      "type": "way",
      "id": 1241565588,
      "center": {
        "lat": 13.0618363,
        "lon": 77.6346456
      },
      "tags": {
        "leisure": "pitch",
        "name": "BR Tennis Academy",
        "sport": "tennis"
      }
    },
    {
      "type": "way",
      "id": 1256456757,
      "center": {
        "lat": 13.0691105,
        "lon": 77.6398766
      },
      "tags": {
        "after_school": "yes",
        "alt_name": "Goddard School",
        "amenity": "kindergarten",
        "brand": "The Goddard School",
        "brand:wikidata": "Q5576260",
        "fee": "yes",
        "isced:level": "0",
        "min_age": "6 weeks",
        "name": "The Goddard School",
        "nursery": "yes",
        "preschool": "yes"
      }
    },
    {
      "type": "way",
      "id": 1256456758,
      "center": {
        "lat": 13.0677507,
        "lon": 77.6392036
      },
      "tags": {
        "access": "private",
        "leisure": "pitch",
        "sport": "tennis"
      }
    },
    {
      "type": "way",
      "id": 1265866289,
      "center": {
        "lat": 13.0616978,
        "lon": 77.6423258
      },
      "tags": {
        "amenity": "school",
        "name": "BBMP School"
      }
    },
    {
      "type": "way",
      "id": 1265866292,
      "center": {
        "lat": 13.0604631,
        "lon": 77.6421462
      },
      "tags": {
        "building": "retail",
        "name": "Aaruhi Mart",
        "shop": "convenience"
      }
    },
    {
      "type": "way",
      "id": 1284773561,
      "center": {
        "lat": 13.0679903,
        "lon": 77.6461597
      },
      "tags": {
        "leisure": "pitch",
        "sport": "soccer"
      }
    },
    {
      "type": "way",
      "id": 1284773562,
      "center": {
        "lat": 13.067618,
        "lon": 77.6470422
      },
      "tags": {
        "leisure": "pitch",
        "sport": "tennis"
      }
    },
    {
      "type": "way",
      "id": 1284773636,
      "center": {
        "lat": 13.0665366,
        "lon": 77.6388272
      },
      "tags": {
        "amenity": "fuel",
        "brand": "Indian Oil",
        "brand:wikidata": "Q1289348",
        "check_date": "2024-05-19",
        "name": "Indian Oil"
      }
    },
    {
      "type": "way",
      "id": 1290915142,
      "center": {
        "lat": 13.0560458,
        "lon": 77.6467746
      },
      "tags": {
        "amenity": "monastery",
        "community:gender": "female",
        "denomination": "catholic",
        "landuse": "religious",
        "name": "Pallotine Missionary Sisters",
        "religion": "christian"
      }
    },
    {
      "type": "way",
      "id": 1298832745,
      "center": {
        "lat": 13.060445,
        "lon": 77.6371153
      },
      "tags": {
        "leisure": "playground"
      }
    },
    {
      "type": "way",
      "id": 1298832746,
      "center": {
        "lat": 13.0608103,
        "lon": 77.6359693
      },
      "tags": {
        "access": "private",
        "leisure": "swimming_pool"
      }
    },
    {
      "type": "way",
      "id": 1298832747,
      "center": {
        "lat": 13.0600794,
        "lon": 77.6358747
      },
      "tags": {
        "access": "private",
        "leisure": "pitch",
        "sport": "basketball"
      }
    },
    {
      "type": "way",
      "id": 1298832748,
      "center": {
        "lat": 13.0601011,
        "lon": 77.6356975
      },
      "tags": {
        "access": "private",
        "leisure": "pitch",
        "sport": "tennis"
      }
    },
    {
      "type": "way",
      "id": 1298832777,
      "center": {
        "lat": 13.0598951,
        "lon": 77.633003
      },
      "tags": {
        "amenity": "fuel",
        "check_date": "2024-05-19",
        "name": "Trugaz"
      }
    },
    {
      "type": "way",
      "id": 1298832807,
      "center": {
        "lat": 13.0635865,
        "lon": 77.6474525
      },
      "tags": {
        "amenity": "monastery",
        "landuse": "religious",
        "name": "Gyan Deepti Convent",
        "religion": "christian"
      }
    },
    {
      "type": "way",
      "id": 1298832938,
      "center": {
        "lat": 13.0652469,
        "lon": 77.6342342
      },
      "tags": {
        "access": "permissive",
        "amenity": "parking",
        "parking": "surface"
      }
    },
    {
      "type": "way",
      "id": 1298832941,
      "center": {
        "lat": 13.0660816,
        "lon": 77.6342303
      },
      "tags": {
        "amenity": "school",
        "name": "Samar International Islamic School"
      }
    },
    {
      "type": "way",
      "id": 1298832942,
      "center": {
        "lat": 13.0651864,
        "lon": 77.634146
      },
      "tags": {
        "amenity": "community_centre",
        "community_centre:for": "family",
        "landuse": "commercial",
        "name": "Sri Nandagokula Kalyana Mantapa"
      }
    },
    {
      "type": "way",
      "id": 1300083543,
      "center": {
        "lat": 13.0598816,
        "lon": 77.6448268
      },
      "tags": {
        "leisure": "sports_centre",
        "name": "Turfs Up Kothanur"
      }
    },
    {
      "type": "way",
      "id": 1307177955,
      "center": {
        "lat": 13.0650573,
        "lon": 77.638798
      },
      "tags": {
        "leisure": "park"
      }
    },
    {
      "type": "way",
      "id": 1307177959,
      "center": {
        "lat": 13.062703,
        "lon": 77.639549
      },
      "tags": {
        "leisure": "pitch",
        "sport": "tennis"
      }
    },
    {
      "type": "way",
      "id": 1307177960,
      "center": {
        "lat": 13.0627143,
        "lon": 77.6394187
      },
      "tags": {
        "leisure": "pitch",
        "sport": "tennis"
      }
    },
    {
      "type": "way",
      "id": 1307177982,
      "center": {
        "lat": 13.0694436,
        "lon": 77.6399672
      },
      "tags": {
        "leisure": "pitch",
        "sport": "basketball"
      }
    },
    {
      "type": "way",
      "id": 1307177983,
      "center": {
        "lat": 13.0694873,
        "lon": 77.6397788
      },
      "tags": {
        "leisure": "pitch",
        "sport": "soccer"
      }
    },
    {
      "type": "way",
      "id": 1307177984,
      "center": {
        "lat": 13.0694563,
        "lon": 77.6401983
      },
      "tags": {
        "access": "private",
        "leisure": "swimming_pool"
      }
    },
    {
      "type": "way",
      "id": 1307177988,
      "center": {
        "lat": 13.0643426,
        "lon": 77.6428798
      },
      "tags": {
        "amenity": "school"
      }
    },
    {
      "type": "way",
      "id": 1307178058,
      "center": {
        "lat": 13.0688544,
        "lon": 77.6349494
      },
      "tags": {
        "leisure": "pitch",
        "sport": "basketball"
      }
    },
    {
      "type": "way",
      "id": 1307178060,
      "center": {
        "lat": 13.0689263,
        "lon": 77.6351699
      },
      "tags": {
        "access": "private",
        "leisure": "swimming_pool"
      }
    },
    {
      "type": "way",
      "id": 1344779690,
      "center": {
        "lat": 13.0559217,
        "lon": 77.6434299
      },
      "tags": {
        "access": "private",
        "leisure": "swimming_pool"
      }
    },
    {
      "type": "way",
      "id": 1350892114,
      "center": {
        "lat": 13.0619966,
        "lon": 77.6477268
      },
      "tags": {
        "amenity": "school",
        "name": "St. Joseph School"
      }
    },
    {
      "type": "way",
      "id": 1350892125,
      "center": {
        "lat": 13.0624806,
        "lon": 77.6506886
      },
      "tags": {
        "amenity": "monastery",
        "name": "Deena Nilaya Convent"
      }
    },
    {
      "type": "way",
      "id": 1350892205,
      "center": {
        "lat": 13.0628125,
        "lon": 77.6433396
      },
      "tags": {
        "leisure": "sports_centre",
        "name": "Kristu Jayanti College Sports Arena"
      }
    },
    {
      "type": "way",
      "id": 1351243835,
      "center": {
        "lat": 13.0682725,
        "lon": 77.6394331
      },
      "tags": {
        "leisure": "playground"
      }
    },
    {
      "type": "way",
      "id": 1351243836,
      "center": {
        "lat": 13.0676559,
        "lon": 77.6398236
      },
      "tags": {
        "access": "private",
        "leisure": "swimming_pool"
      }
    },
    {
      "type": "way",
      "id": 1351244014,
      "center": {
        "lat": 13.0706327,
        "lon": 77.6363671
      },
      "tags": {
        "amenity": "police",
        "name": "Hennur Traffic Police Station"
      }
    },
    {
      "type": "way",
      "id": 1351244019,
      "center": {
        "lat": 13.0707812,
        "lon": 77.6355525
      },
      "tags": {
        "amenity": "college",
        "name": "Traffic Training and Road Safety Institute"
      }
    },
    {
      "type": "way",
      "id": 1351499499,
      "center": {
        "lat": 13.0691425,
        "lon": 77.6396553
      },
      "tags": {
        "leisure": "garden"
      }
    },
    {
      "type": "way",
      "id": 1351499520,
      "center": {
        "lat": 13.0704159,
        "lon": 77.6397096
      },
      "tags": {
        "amenity": "school"
      }
    }
  ]
}