{
  "area_name": "Arkavathy Layout 17th Block",
  "osm_id": 12441386569,
  "osm_type": "node",
  "place_type": "neighbourhood",
  "amenity_count": 205,
  "amenities": [
    {
      "type": "node",
      "id": 407905705,
      "lat": 13.0481957,
      "lon": 77.6381656,
      "tags": {
        "amenity": "place_of_worship",
        "name": "Masjid Al-Salf Al-Salah",
        "religion": "muslim"
      }
    },
    {
      "type": "node",
      "id": 412681648,
      "lat": 13.0557708,
      "lon": 77.6327504,
      "tags": {
        "amenity": "school",
        "name": "Manasa Public School",
        "name:kn": "ಮಾನಸ ಪಬ್ಲಿಕ್ ಸ್ಕೂಲ್"
      }
    },
    {
      "type": "node",
      "id": 419775093,
      "lat": 13.0568431,
      "lon": 77.6476683,
      "tags": {
        "amenity": "place_of_worship",
        "name": "Kothanur CSI Church",
        "religion": "christian"
      }
    },
    {
      "type": "node",
      "id": 1341046577,
      "lat": 13.0645959,
      "lon": 77.6385277,
      "tags": {
        "access": "private",
        "amenity": "parking",
        "name": "Golden Palms Visitors Parking",
        "parking": "surface"
      }
    },
    {
      "type": "node",
      "id": 4327749190,
      "lat": 13.0517564,
      "lon": 77.6349601,
      "tags": {
        "addr:postcode": "560077",
        "amenity": "place_of_worship",
        "name": "Maha Ganapati Temple",
        "name:kn": "ಮಹಾ ಗಣಪತಿ ದೇವಸ್ಥಾನ",
        "religion": "hindu"
      }
    },
    {
      "type": "node",
      "id": 4511497057,
      "lat": 13.054399,
      "lon": 77.6450739,
      "tags": {
        "addr:city": "Bangalore",
        "addr:housenumber": "1",
        "addr:postcode": "560077",
        "addr:street": "K. Narayanapura Main Road",
        "amenity": "restaurant",
        "capacity": "40",
        "cuisine": "chinese;indian",
        "delivery": "yes",
        "name": "3 Ediots",
        "opening_hours": "12:00-15:30,18:30-23:15",
        "phone": "+91 9620633312",
        "phone_1": "+91 9620933312",
        "takeaway": "yes"
      }
    },
    {
      "type": "node",
      "id": 4973098298,
      "lat": 13.054535,
      "lon": 77.6321499,
      "tags": {
        "amenity": "bank",
        "name": "Kotak Mahindra Bank"
      }
    },
    {
      "type": "node",
      "id": 4973098299,
      "lat": 13.0562529,
      "lon": 77.6330993,
      "tags": {
        "amenity": "pharmacy",
        "name": "United Pharma"
      }
    },
    {
      "type": "node",
      "id": 4973099936,
      "lat": 13.0603468,
      "lon": 77.6419325,
      "tags": {
        "name": "Sri Krishna Medical and General Store",
        "shop": "medical_supply"
      }
    },
    {
      "type": "node",
      "id": 4973099937,
      "lat": 13.0594285,
      "lon": 77.6428954,
      "tags": {
        "amenity": "fast_food",
        "name": "Kairali Mess"
      }
    },
    {
      "type": "node",
      "id": 4973099938,
      "lat": 13.059224,
      "lon": 77.6430226,
      "tags": {
        "amenity": "restaurant",
        "cuisine": "indian;kerala",
        "name": "Joicy's Kitchen"
      }
    },
    {
      "type": "node",
      "id": 5168546937,
      "lat": 13.059096,
      "lon": 77.6431078,
      "tags": {
        "amenity": "restaurant"
      }
    },
    {
      "type": "node",
      "id": 5295004546,
      "lat": 13.0553751,
      "lon": 77.6322956,
      "tags": {
        "amenity": "atm",
        "operator": "Kotak Mahindra Bank"
      }
    },
    {
      "type": "node",
      "id": 5295004547,
      "lat": 13.0557204,
      "lon": 77.632106,
      "tags": {
        "amenity": "fast_food",
        "name": "Five Star Chicken"
      }
    },
    {
      "type": "node",
      "id": 5295004548,
      "lat": 13.055866,
      "lon": 77.6326224,
      "tags": {
        "amenity": "atm",
        "operator": "HDFC Bank"
      }
    },
    {
      "type": "node",
      "id": 5295004549,
      "lat": 13.0559578,
      "lon": 77.6328463,
      "tags": {
        "amenity": "place_of_worship",
        "religion": "hindu"
      }
    },
    {
      "type": "node",
      "id": 5295004550,
      "lat": 13.0569598,
      "lon": 77.6328691,
      "tags": {
        "name": "Prestige Smart Kitchen",
        "shop": "appliance"
      }
    },
    {
      "type": "node",
      "id": 5295004551,
      "lat": 13.0575188,
      "lon": 77.6327683,
      "tags": {
        "amenity": "bank",
        "name": "State Bank of India",
        "name:kn": "ಭಾರತೀಯ ಸ್ಟೇಟ್ ಬ್ಯಾಂಕ್"
      }
    },
    {
      "type": "node",
      "id": 5295004552,
      "lat": 13.0572403,
      "lon": 77.6331293,
      "tags": {
        "amenity": "place_of_worship",
        "denomination": "shia",
        "name": "Sri Shaneeswhara Swamy Devalaya",
        "religion": "hindu"
      }
    },
    {
      "type": "node",
      "id": 5295004553,
      "lat": 13.0574022,
      "lon": 77.6331335,
      "tags": {
        "name": "Karnataka Vegetables and Fruits",
        "shop": "greengrocer"
      }
    },
    {
      "type": "node",
      "id": 5295004554,
      "lat": 13.0575735,
      "lon": 77.633121,
      "tags": {
        "amenity": "bank",
        "name": "Syndicate Bank",
        "name:kn": "ಸಿಂಡಿಕೇಟ್ ಬ್ಯಾಂಕ್"
      }
    },
    {
      "type": "node",
      "id": 5295004581,
      "lat": 13.0616922,
      "lon": 77.6419287,
      "tags": {
        "name": "Happy Meat",
        "shop": "butcher"
      }
    },
    {
      "type": "node",
      "id": 5966255491,
      "lat": 13.055795,
      "lon": 77.6321559,
      "tags": {
        "name": "Bicycle Gallery",
        "service:bicycle:retail": "yes",
        "shop": "bicycle"
      }
    },
    {
      "type": "node",
      "id": 5966255492,
      "lat": 13.0562039,
      "lon": 77.6327875,
      "tags": {
        "name": "Nandini Parlour",
        "shop": "dairy"
      }
    },
    {
      "type": "node",
      "id": 5966255493,
      "lat": 13.0559374,
      "lon": 77.6327607,
      "tags": {
        "amenity": "fast_food",
        "cuisine": "regional",
        "name": "Hotel Sri Durga Darshini"
      }
    },
    {
      "type": "node",
      "id": 5966255494,
      "lat": 13.0584262,
      "lon": 77.6327057,
      "tags": {
        "name": "Arun Jyothi Antiques and Furniture",
        "shop": "furniture"
      }
    },
    {
      "type": "node",
      "id": 5966255499,
      "lat": 13.064936,
      "lon": 77.6407188,
      "tags": {
        "name": "Balaji Departmental Stores",
        "shop": "convenience"
      }
    },
    {
      "type": "node",
      "id": 5966255500,
      "lat": 13.0641025,
      "lon": 77.6409978,
      "tags": {
        "name": "Non Veg Bazaar",
        "shop": "butcher"
      }
    },
    {
      "type": "node",
      "id": 5966255510,
      "lat": 13.0610325,
      "lon": 77.6420653,
      "tags": {
        "amenity": "cafe",
        "name": "Chosen Cafe"
      }
    },
    {
      "type": "node",
      "id": 6857394466,
      "lat": 13.0613342,
      "lon": 77.6420881,
      "tags": {
        "name": "Sree Chowdeshwari Chicken Centre",
        "shop": "butcher"
      }
    },
    {
      "type": "node",
      "id": 6857394467,
      "lat": 13.0612023,
      "lon": 77.642076,
      "tags": {
        "shop": "greengrocer"
      }
    },
    {
      "type": "node",
      "id": 6857394468,
      "lat": 13.0613251,
      "lon": 77.6418467,
      "tags": {
        "amenity": "fast_food",
        "name": "Arunachalam Hot Chips"
      }
    },
    {
      "type": "node",
      "id": 6857394483,
      "lat": 13.0644892,
      "lon": 77.6408288,
      "tags": {
        "amenity": "kindergarten",
        "name": "Little Lions"
      }
    },
    {
      "type": "node",
      "id": 7202935818,
      "lat": 13.0631921,
      "lon": 77.6423476,
      "tags": {
        "addr:district": "Bangalore",
        "addr:full": "Bagalur ROAD, Kottanur Post, K. Narayanapura",
        "addr:postcode": "560077",
        "addr:state": "Karnataka",
        "addr:subdistrict": "Bangalore East",
        "amenity": "clinic",
        "description": "Urban Primary Health Centre",
        "healthcare": "centre",
        "name": "K Narayanapura Urban Primary Health Centre",
        "name:kn": "ಗ್ರಾಮಾಂತರ ಪ್ರಾಥಮಿಕ ಆರೋಗ್ಯ ಕೇಂದ್ರ",
        "source": "OpenGovernmentData"
      }
    },
    {
      "type": "node",
      "id": 7206419492,
      "lat": 13.0533533,
      "lon": 77.6455468,
      "tags": {
        "name": "Thomchi Unisex Salon",
        "shop": "hairdresser"
      }
    },
    {
      "type": "node",
      "id": 7206419503,
      "lat": 13.0562928,
      "lon": 77.6446804,
      "tags": {
        "amenity": "fast_food",
        "name": "Roti Land Family Dhaba"
      }
    },
    {
      "type": "node",
      "id": 7206419528,
      "lat": 13.0575391,
      "lon": 77.6439643,
      "tags": {
        "amenity": "fast_food",
        "name": "Dreamland Food Corner"
      }
    },
    {
      "type": "node",
      "id": 7206419529,
      "lat": 13.0579611,
      "lon": 77.6440448,
      "tags": {
        "name": "Aayi's Organics",
        "shop": "greengrocer"
      }
    },
    {
      "type": "node",
      "id": 7206419572,
      "lat": 13.0598593,
      "lon": 77.642583,
      "tags": {
        "amenity": "fast_food",
        "name": "Appam's Bakery and Sweets"
      }
    },
    {
      "type": "node",
      "id": 7206419705,
      "lat": 13.0600213,
      "lon": 77.6424361,
      "tags": {
        "amenity": "place_of_worship",
        "name": "Sri Shiva Chamundi Temple",
        "religion": "hindu"
      }
    },
    {
      "type": "node",
      "id": 7206419706,
      "lat": 13.0607666,
      "lon": 77.6415369,
      "tags": {
        "amenity": "waste_basket"
      }
    },
    {
      "type": "node",
      "id": 7206419709,
      "lat": 13.0607032,
      "lon": 77.6413357,
      "tags": {
        "amenity": "community_centre",
        "name": "Clubhouse"
      }
    },
    {
      "type": "node",
      "id": 7206419710,
      "lat": 13.0607241,
      "lon": 77.6412003,
      "tags": {
        "check_date": "2024-02-25",
        "leisure": "fitness_station",
        "name": "Gym"
      }
    },
    {
      "type": "node",
      "id": 7206419722,
      "lat": 13.0602839,
      "lon": 77.6413478,
      "tags": {
        "access": "permissive",
        "amenity": "parking",
        "fee": "no",
        "lit": "yes",
        "parking": "surface"
      }
    },
    {
      "type": "node",
      "id": 7206419727,
      "lat": 13.0607418,
      "lon": 77.6415322,
      "tags": {
        "access": "private",
        "amenity": "parking",
        "parking": "underground"
      }
    },
    {
      "type": "node",
      "id": 7208904227,
      "lat": 13.0485259,
      "lon": 77.6452813,
      "tags": {
        "amenity": "bank",
        "atm": "yes",
        "brand": "Axis Bank",
        "brand:wikidata": "Q2003549",
        "name": "Axis Bank",
        "name:kn": "ಆಕ್ಸಿಸ್ ಬ್ಯಾಂಕ್"
      }
    },
    {
      "type": "node",
      "id": 7208904242,
      "lat": 13.049136,
      "lon": 77.6453912,
      "tags": {
        "name": "Bake n Bistro",
        "shop": "bakery"
      }
    },
    {
      "type": "node",
      "id": 7227412372,
      "lat": 13.0522323,
      "lon": 77.6462227,
      "tags": {
        "name": "The Brigade Hypermart",
        "shop": "supermarket"
      }
    },
    {
      "type": "node",
      "id": 7227412373,
      "lat": 13.0550686,
      "lon": 77.6453537,
      "tags": {
        "addr:city": "Bengaluru",
        "addr:country": "IN",
        "addr:hamlet": "K Narayanapura",
        "addr:housenumber": "361",
        "addr:street": "K Narayanapura Main Road",
        "addr:suburb": "Kothanur",
        "amenity": "restaurant",
        "cuisine": "regional",
        "name": "Mom's Kitchen - Tanang Naga"
      }
    },
    {
      "type": "node",
      "id": 7227412374,
      "lat": 13.0587371,
      "lon": 77.643232,
      "tags": {
        "amenity": "restaurant",
        "name": "Cafe Zamorin"
      }
    },
    {
      "type": "node",
      "id": 7255870169,
      "lat": 13.0520168,
      "lon": 77.6460806,
      "tags": {
        "amenity": "restaurant",
        "name": "Luqma"
      }
    },
    {
      "type": "node",
      "id": 7255870170,
      "lat": 13.0530266,
      "lon": 77.6457949,
      "tags": {
        "amenity": "cafe",
        "name": "Jiffy Cafe"
      }
    },
    {
      "type": "node",
      "id": 7255870171,
      "lat": 13.0549641,
      "lon": 77.6453443,
      "tags": {
        "name": "Style Line",
        "shop": "hairdresser"
      }
    },
    {
      "type": "node",
      "id": 7255870172,
      "lat": 13.0551392,
      "lon": 77.6453523,
      "tags": {
        "name": "S A Furniture",
        "shop": "furniture"
      }
    },
    {
      "type": "node",
      "id": 7255870173,
      "lat": 13.0569486,
      "lon": 77.6444015,
      "tags": {
        "name": "S. M. Optics",
        "shop": "optician"
      }
    },
    {
      "type": "node",
      "id": 7255870174,
      "lat": 13.0572301,
      "lon": 77.6441366,
      "tags": {
        "amenity": "cafe",
        "name": "Fella Cafe"
      }
    },
    {
      "type": "node",
      "id": 7255870175,
      "lat": 13.0576815,
      "lon": 77.6439341,
      "tags": {
        "amenity": "fast_food",
        "cuisine": "juice",
        "name": "Lassi Store"
      }
    },
    {
      "type": "node",
      "id": 7255870176,
      "lat": 13.0578944,
      "lon": 77.6440562,
      "tags": {
        "amenity": "fast_food",
        "name": "Kolkata Famous Kati Roll"
      }
    },
    {
      "type": "node",
      "id": 7255870179,
      "lat": 13.0589004,
      "lon": 77.6431033,
      "tags": {
        "amenity": "fast_food",
        "cuisine": "chinese",
        "name": "Chinese Bowl"
      }
    },
    {
      "type": "node",
      "id": 7255870180,
      "lat": 13.0602813,
      "lon": 77.6422249,
      "tags": {
        "name": "Sattvik Gourmet Food Bazar",
        "shop": "convenience"
      }
    },
    {
      "type": "node",
      "id": 7255943590,
      "lat": 13.0607513,
      "lon": 77.6414216,
      "tags": {
        "amenity": "waste_basket"
      }
    },
    {
      "type": "node",
      "id": 7256979682,
      "lat": 13.0490759,
      "lon": 77.6457185,
      "tags": {
        "amenity": "fast_food",
        "cuisine": "regional",
        "name": "Karnataka Biryani Point"
      }
    },
    {
      "type": "node",
      "id": 7256979683,
      "lat": 13.0500819,
      "lon": 77.6453456,
      "tags": {
        "name": "Pearl Vision Optics",
        "shop": "optician"
      }
    },
    {
      "type": "node",
      "id": 8359629978,
      "lat": 13.05293,
      "lon": 77.6458485,
      "tags": {
        "name": "Sagar Gifts and Fancy Store",
        "shop": "gift"
      }
    },
    {
      "type": "node",
      "id": 9527967829,
      "lat": 13.0495397,
      "lon": 77.6452383,
      "tags": {
        "name": "Leela Bakery",
        "shop": "bakery"
      }
    },
    {
      "type": "node",
      "id": 9527967830,
      "lat": 13.0567239,
      "lon": 77.6441869,
      "tags": {
        "amenity": "fast_food",
        "brand": "Southern Fried Chicken",
        "brand:wikidata": "Q7569934",
        "cuisine": "chicken",
        "name": "Southern Fried Chicken",
        "takeaway": "yes"
      }
    },
    {
      "type": "node",
      "id": 9527967871,
      "lat": 13.0614616,
      "lon": 77.6417635,
      "tags": {
        "amenity": "fast_food",
        "name": "Nandu's"
      }
    },
    {
      "type": "node",
      "id": 9527967872,
      "lat": 13.0608058,
      "lon": 77.6419332,
      "tags": {
        "name": "Hair Saloon",
        "shop": "hairdresser"
      }
    },
    {
      "type": "node",
      "id": 9527967873,
      "lat": 13.0608541,
      "lon": 77.6419379,
      "tags": {
        "amenity": "pharmacy",
        "name": "Aster Labs"
      }
    },
    {
      "type": "node",
      "id": 9781094434,
      "lat": 13.0504346,
      "lon": 77.6463219,
      "tags": {
        "amenity": "restaurant",
        "name": "Root77"
      }
    },
    {
      "type": "node",
      "id": 9912860204,
      "lat": 13.0559557,
      "lon": 77.6447488,
      "tags": {
        "amenity": "restaurant",
        "name": "The Culinarian"
      }
    },
    {
      "type": "node",
      "id": 9912860205,
      "lat": 13.0528222,
      "lon": 77.6459327,
      "tags": {
        "name": "Spin Cleans",
        "shop": "dry_cleaning"
      }
    },
    {
      "type": "node",
      "id": 10250904436,
      "lat": 13.0554134,
      "lon": 77.6429841,
      "tags": {
        "addr:city": "Bangalore",
        "addr:country": "IN",
        "addr:housenumber": "16",
        "addr:postcode": "560077",
        "addr:suburb": "Geddalahalli",
        "amenity": "cafe",
        "contact:facebook": "CoffeeMetanoia",
        "contact:instagram": "coffee_metanoia",
        "name": "Coffee Metanoia",
        "website": "https://coffee-metanoia.kyte.site/"
      }
    },
    {
      "type": "node",
      "id": 10574709755,
      "lat": 13.0560824,
      "lon": 77.6445048,
      "tags": {
        "amenity": "pharmacy",
        "name": "Aditya Pharma"
      }
    },
    {
      "type": "node",
      "id": 10574709759,
      "lat": 13.0528777,
      "lon": 77.6455917,
      "tags": {
        "name": "Metro",
        "shop": "clothes"
      }
    },
    {
      "type": "node",
      "id": 10574709760,
      "lat": 13.0525341,
      "lon": 77.645585,
      "tags": {
        "name": "Aurelia",
        "name:kn": "ಅರೆಲಿಯ",
        "shop": "clothes"
      }
    },
    {
      "type": "node",
      "id": 10574709763,
      "lat": 13.049933,
      "lon": 77.6453644,
      "tags": {
        "name": "Nadumuttam",
        "shop": "supermarket"
      }
    },
    {
      "type": "node",
      "id": 10688397559,
      "lat": 13.055117,
      "lon": 77.6460309,
      "tags": {
        "name": "Amber Megastore",
        "shop": "department_store"
      }
    },
    {
      "type": "node",
      "id": 10731125356,
      "lat": 13.0568676,
      "lon": 77.6328814,
      "tags": {
        "amenity": "fast_food",
        "cuisine": "regional",
        "name": "Domino's"
      }
    },
    {
      "type": "node",
      "id": 10895959919,
      "lat": 13.0625178,
      "lon": 77.6423885,
      "tags": {
        "access": "yes",
        "amenity": "toilets",
        "fee": "yes",
        "operator": "BBMP"
      }
    },
    {
      "type": "node",
      "id": 11146706695,
      "lat": 13.0604576,
      "lon": 77.6395024,
      "tags": {
        "access": "permissive",
        "amenity": "parking",
        "parking": "surface"
      }
    },
    {
      "type": "node",
      "id": 11647727650,
      "lat": 13.0577398,
      "lon": 77.6439304,
      "tags": {
        "amenity": "fast_food",
        "check_date": "2024-02-21",
        "delivery": "yes",
        "drive_through": "yes",
        "name": "UTBT - Under The Banyan Tree"
      }
    },
    {
      "type": "node",
      "id": 11662119197,
      "lat": 13.0488055,
      "lon": 77.645685,
      "tags": {
        "amenity": "bank",
        "brand": "CSB Bank",
        "brand:wikidata": "Q5053244",
        "check_date": "2024-02-25",
        "name": "CSB Bank",
        "official_name": "Catholic Syrian Bank"
      }
    },
    {
      "type": "node",
      "id": 11662119198,
      "lat": 13.057719,
      "lon": 77.6438735,
      "tags": {
        "amenity": "fast_food",
        "check_date": "2024-02-25",
        "cuisine": "chinese",
        "name": "Dragon View"
      }
    },
    {
      "type": "node",
      "id": 11662119200,
      "lat": 13.0578603,
      "lon": 77.6440834,
      "tags": {
        "amenity": "fast_food",
        "check_date": "2024-02-25",
        "name": "Grill Nights"
      }
    },
    {
      "type": "node",
      "id": 11662119201,
      "lat": 13.0578343,
      "lon": 77.6440984,
      "tags": {
        "amenity": "fast_food",
        "check_date": "2024-02-25",
        "name": "Panoor Restaurant & Cafe"
      }
    },
    {
      "type": "node",
      "id": 11662119202,
      "lat": 13.0579017,
      "lon": 77.6440795,
      "tags": {
        "check_date": "2024-02-25",
        "name": "Net Galaxy",
        "shop": "copyshop"
      }
    },
    {
      "type": "node",
      "id": 11662119203,
      "lat": 13.0580923,
      "lon": 77.6438883,
      "tags": {
        "amenity": "pharmacy",
        "check_date": "2024-02-25",
        "healthcare": "pharmacy",
        "name": "Sri Ram Medicals"
      }
    },
    {
      "type": "node",
      "id": 11662119204,
      "lat": 13.0578309,
      "lon": 77.6437923,
      "tags": {
        "amenity": "fast_food",
        "check_date": "2024-02-25",
        "name": "A1 Ambur Biryani"
      }
    },
    {
      "type": "node",
      "id": 11662119205,
      "lat": 13.0578526,
      "lon": 77.6437873,
      "tags": {
        "check_date": "2024-02-25",
        "shop": "copyshop"
      }
    },
    {
      "type": "node",
      "id": 11662119206,
      "lat": 13.0578831,
      "lon": 77.6437839,
      "tags": {
        "amenity": "fast_food",
        "check_date": "2024-02-25",
        "name": "Bangalore's Spicy Bites"
      }
    },
    {
      "type": "node",
      "id": 11662119207,
      "lat": 13.0581667,
      "lon": 77.6437513,
      "tags": {
        "amenity": "fast_food",
        "check_date": "2024-02-25",
        "name": "Panasam Food Court"
      }
    },
    {
      "type": "node",
      "id": 11662119208,
      "lat": 13.0581549,
      "lon": 77.6438032,
      "tags": {
        "amenity": "fast_food",
        "check_date": "2024-02-25",
        "name": "SGS Non Veg"
      }
    },
    {
      "type": "node",
      "id": 11662119209,
      "lat": 13.0582118,
      "lon": 77.6437953,
      "tags": {
        "check_date": "2024-02-25",
        "shop": "hairdresser"
      }
    },
    {
      "type": "node",
      "id": 11662119210,
      "lat": 13.0582022,
      "lon": 77.6437419,
      "tags": {
        "amenity": "atm",
        "check_date": "2024-02-25",
        "operator": "Canara Bank"
      }
    },
    {
      "type": "node",
      "id": 11662137682,
      "lat": 13.0478429,
      "lon": 77.6446325,
      "tags": {
        "check_date": "2024-02-25",
        "name": "My Chicken and More",
        "shop": "butcher"
      }
    },
    {
      "type": "node",
      "id": 11917222415,
      "lat": 13.0532531,
      "lon": 77.6460092,
      "tags": {
        "amenity": "fast_food",
        "check_date": "2024-05-19",
        "name": "Sri Krishna Vaibhava"
      }
    },
    {
      "type": "node",
      "id": 11917222416,
      "lat": 13.0529667,
      "lon": 77.645813,
      "tags": {
        "check_date": "2024-05-19",
        "shop": "mobile_phone"
      }
    },
    {
      "type": "node",
      "id": 11917222417,
      "lat": 13.0530851,
      "lon": 77.6457541,
      "tags": {
        "check_date": "2024-05-19",
        "name": "Bangalore Horticultural",
        "shop": "greengrocer"
      }
    },
    {
      "type": "node",
      "id": 11917222418,
      "lat": 13.0555623,
      "lon": 77.6446672,
      "tags": {
        "check_date": "2024-05-19",
        "name": "Laundry Fabrica",
        "shop": "laundry"
      }
    },
    {
      "type": "node",
      "id": 11917452858,
      "lat": 13.0564588,
      "lon": 77.6331135,
      "tags": {
        "amenity": "place_of_worship",
        "check_date": "2024-05-19",
        "religion": "hindu"
      }
    },
    {
      "type": "node",
      "id": 12105652062,
      "lat": 13.064529,
      "lon": 77.6386347,
      "tags": {
        "access": "private",
        "amenity": "parking_entrance",
        "parking": "underground"
      }
    },
    {
      "type": "node",
      "id": 12157095325,
      "lat": 13.0626984,
      "lon": 77.6391455,
      "tags": {
        "amenity": "parking_entrance"
      }
    },
    {
      "type": "node",
      "id": 12157095329,
      "lat": 13.0621008,
      "lon": 77.6390573,
      "tags": {
        "amenity": "parking_entrance"
      }
    },
    {
      "type": "node",
      "id": 12157095337,
      "lat": 13.0637481,
      "lon": 77.6390309,
      "tags": {
        "amenity": "parking_entrance"
      }
    },
    {
      "type": "node",
      "id": 12157122633,
      "lat": 13.0606512,
      "lon": 77.6401833,
      "tags": {
        "amenity": "parking_entrance"
      }
    },
    {
      "type": "node",
      "id": 12441386597,
      "lat": 13.0590702,
      "lon": 77.6468477,
      "tags": {
        "amenity": "place_of_worship",
        "religion": "hindu"
      }
    },
    {
      "type": "node",
      "id": 12441457816,
      "lat": 13.0543488,
      "lon": 77.6462281,
      "tags": {
        "name": "Reliance Trends",
        "shop": "clothes"
      }
    },
    {
      "type": "node",
      "id": 12441457817,
      "lat": 13.054452,
      "lon": 77.6462415,
      "tags": {
        "amenity": "restaurant",
        "name": "TYD"
      }
    },
    {
      "type": "node",
      "id": 12450999465,
      "lat": 13.0524914,
      "lon": 77.6462426,
      "tags": {
        "brand": "Levi's",
        "brand:wikidata": "Q127962",
        "check_date": "2024-12-25",
        "clothes": "denim;men;women",
        "name": "Levi's",
        "shop": "clothes"
      }
    },
    {
      "type": "node",
      "id": 12450999466,
      "lat": 13.0526173,
      "lon": 77.6456095,
      "tags": {
        "check_date": "2024-12-25",
        "name": "soch",
        "shop": "clothes"
      }
    },
    {
      "type": "node",
      "id": 12450999467,
      "lat": 13.0526842,
      "lon": 77.6456359,
      "tags": {
        "brand": "Polo Ralph Lauren",
        "brand:wikidata": "Q1641437",
        "check_date": "2024-12-25",
        "name": "US Polo",
        "shop": "clothes"
      }
    },
    {
      "type": "node",
      "id": 12450999468,
      "lat": 13.0527732,
      "lon": 77.6456787,
      "tags": {
        "check_date": "2024-12-25",
        "name": "Caratlane",
        "shop": "jewelry"
      }
    },
    {
      "type": "node",
      "id": 12450999469,
      "lat": 13.052841,
      "lon": 77.6457038,
      "tags": {
        "check_date": "2024-12-25",
        "name": "Kushal's",
        "shop": "jewelry"
      }
    },
    {
      "type": "node",
      "id": 12450999470,
      "lat": 13.0527663,
      "lon": 77.6459391,
      "tags": {
        "check_date": "2024-12-25",
        "name": "SV Iyengary Bakery",
        "shop": "bakery"
      }
    },
    {
      "type": "node",
      "id": 12450999471,
      "lat": 13.0544787,
      "lon": 77.6450857,
      "tags": {
        "check_date": "2024-12-25",
        "name": "The Meat Store",
        "shop": "butcher"
      }
    },
    {
      "type": "node",
      "id": 12450999472,
      "lat": 13.0570278,
      "lon": 77.6444364,
      "tags": {
        "alt_name": "Baptist Hospital Clinic",
        "amenity": "clinic",
        "check_date": "2024-12-25",
        "healthcare": "clinic",
        "name": "Baptist Express Healthcare"
      }
    },
    {
      "type": "node",
      "id": 12450999473,
      "lat": 13.0582011,
      "lon": 77.6435954,
      "tags": {
        "amenity": "fast_food",
        "check_date": "2024-12-25",
        "name": "Lumina Foods"
      }
    },
    {
      "type": "node",
      "id": 12450999474,
      "lat": 13.0596242,
      "lon": 77.6427656,
      "tags": {
        "check_date": "2024-12-25",
        "name": "Facecake",
        "shop": "pastry"
      }
    },
    {
      "type": "node",
      "id": 12450999475,
      "lat": 13.0598775,
      "lon": 77.6425707,
      "tags": {
        "amenity": "fast_food",
        "check_date": "2024-12-25",
        "name": "Sri Udupi Vaibhava"
      }
    },
    {
      "type": "node",
      "id": 12497976599,
      "lat": 13.0485755,
      "lon": 77.6457305,
      "tags": {
        "amenity": "restaurant",
        "name": "Zatar"
      }
    },
    {
      "type": "node",
      "id": 12497976604,
      "lat": 13.0490746,
      "lon": 77.6461932,
      "tags": {
        "amenity": "place_of_worship",
        "religion": "muslim"
      }
    },
    {
      "type": "node",
      "id": 12497976734,
      "lat": 13.0509285,
      "lon": 77.646094,
      "tags": {
        "brand": "Honda",
        "brand:wikidata": "Q9584",
        "name": "Honda",
        "shop": "motorcycle"
      }
    },
    {
      "type": "node",
      "id": 12540842178,
      "lat": 13.0583517,
      "lon": 77.6434712,
      "tags": {
        "addr:city": "Bengaluru",
        "addr:postcode": "560077",
        "addr:street": "K Narayanapura",
        "amenity": "bank",
        "brand": "South Indian Bank",
        "brand:wikidata": "Q2044973",
        "name": "South Indian Bank"
      }
    },
    {
      "type": "node",
      "id": 12632074330,
      "lat": 13.0556069,
      "lon": 77.6449111,
      "tags": {
        "amenity": "cafe",
        "name": "Hipp-E Panda"
      }
    },
    {
      "type": "node",
      "id": 12752583724,
      "lat": 13.0615759,
      "lon": 77.6341447,
      "tags": {
        "amenity": "pub",
        "name": "Finca"
      }
    },
    {
      "type": "node",
      "id": 12752639016,
      "lat": 13.0610762,
      "lon": 77.6420633,
      "tags": {
        "amenity": "fast_food",
        "name": "Lala Place"
      }
    },
    {
      "type": "node",
      "id": 13070773907,
      "lat": 13.0481175,
      "lon": 77.6418923,
      "tags": {
        "amenity": "place_of_worship",
        "denomination": "syrian",
        "name": "Mar Timotheus Church, Chaldean Syrian Church of the East",
        "religion": "christian"
      }
    },
    {
      "type": "node",
      "id": 13072080424,
      "lat": 13.0513474,
      "lon": 77.6348919,
      "tags": {
        "name": "Krishna Priya Bakery",
        "shop": "bakery"
      }
    },
    {
      "type": "node",
      "id": 13077680175,
      "lat": 13.0579781,
      "lon": 77.6476899,
      "tags": {
        "amenity": "cafe",
        "name": "Cafe Kempu"
      }
    },
    {
      "type": "node",
      "id": 13077680176,
      "lat": 13.0533202,
      "lon": 77.6455079,
      "tags": {
        "amenity": "cafe",
        "name": "The Leslie's"
      }
    },
    {
      "type": "node",
      "id": 13077680177,
      "lat": 13.0543354,
      "lon": 77.6450764,
      "tags": {
        "amenity": "cafe",
        "name": "Theo Cafe"
      }
    },
    {
      "type": "node",
      "id": 13108989425,
      "lat": 13.0598468,
      "lon": 77.6485539,
      "tags": {
        "name": "Snitch",
        "shop": "clothes"
      }
    },
    {
      "type": "node",
      "id": 13108989426,
      "lat": 13.0598911,
      "lon": 77.6489711,
      "tags": {
        "brand": "Theobroma",
        "brand:wikidata": "Q124374469",
        "delivery": "yes",
        "name": "Theobroma",
        "shop": "pastry",
        "takeaway": "yes"
      }
    },
    {
      "type": "node",
      "id": 13108989427,
      "lat": 13.059104,
      "lon": 77.648918,
      "tags": {
        "brand": "Raymond",
        "brand:wikidata": "Q3537018",
        "name": "Raymond",
        "shop": "clothes"
      }
    },
    {
      "type": "node",
      "id": 13108989448,
      "lat": 13.05799,
      "lon": 77.6483832,
      "tags": {
        "amenity": "restaurant",
        "brand": "Empire",
        "brand:wikidata": "Q124374511",
        "cuisine": "indian",
        "delivery": "yes",
        "name": "Empire",
        "takeaway": "yes"
      }
    },
    {
      "type": "node",
      "id": 13108989449,
      "lat": 13.058001,
      "lon": 77.6490356,
      "tags": {
        "brand": "Westside",
        "brand:wikidata": "Q123376384",
        "name": "Westside",
        "shop": "clothes"
      }
    },
    {
      "type": "node",
      "id": 13108989450,
      "lat": 13.0576685,
      "lon": 77.6482466,
      "tags": {
        "name": "Tonique",
        "shop": "alcohol"
      }
    },
    {
      "type": "node",
      "id": 13108989451,
      "lat": 13.0549895,
      "lon": 77.6464031,
      "tags": {
        "amenity": "fast_food",
        "name": "Momoguys"
      }
    },
    {
      "type": "node",
      "id": 13108989452,
      "lat": 13.0544352,
      "lon": 77.6463311,
      "tags": {
        "name": "Anand Sweets",
        "shop": "confectionery"
      }
    },
    {
      "type": "node",
      "id": 13108989453,
      "lat": 13.0547792,
      "lon": 77.6463588,
      "tags": {
        "brand": "Zudio",
        "brand:wikidata": "Q123375926",
        "name": "Zudio",
        "shop": "clothes"
      }
    },
    {
      "type": "node",
      "id": 13108989458,
      "lat": 13.0525485,
      "lon": 77.6462442,
      "tags": {
        "brand": "Fabindia",
        "brand:wikidata": "Q5427779",
        "name": "Fabindia",
        "shop": "clothes"
      }
    },
    {
      "type": "way",
      "id": 35912759,
      "center": {
        "lat": 13.0508397,
        "lon": 77.6448996
      },
      "tags": {
        "amenity": "place_of_worship",
        "name": "The Pentecostal Mission",
        "religion": "christian"
      }
    },
    {
      "type": "way",
      "id": 35912928,
      "center": {
        "lat": 13.0522198,
        "lon": 77.6469026
      },
      "tags": {
        "leisure": "sports_centre",
        "name": "Kinesis Tennis Academy",
        "sport": "tennis",
        "url": "http://www.kinesisnet.com/"
      }
    },
    {
      "type": "way",
      "id": 507886813,
      "center": {
        "lat": 13.0605788,
        "lon": 77.6415218
      },
      "tags": {
        "access": "permissive",
        "amenity": "parking",
        "capacity": "20",
        "fee": "no",
        "lit": "yes",
        "name": "Visitor's Parking",
        "name:kn": "ವಿಮಾನ ನಿಲ್ದಾಣ",
        "parking": "surface"
      }
    },
    {
      "type": "way",
      "id": 530606746,
      "center": {
        "lat": 13.0576618,
        "lon": 77.6420218
      },
      "tags": {
        "access": "private",
        "amenity": "college",
        "capacity": "30",
        "fee": "no",
        "maxstay": "1 day",
        "operator": "Kristu Jayanti University",
        "parking": "surface",
        "surface": "asphalt"
      }
    },
    {
      "type": "way",
      "id": 530606750,
      "center": {
        "lat": 13.0583978,
        "lon": 77.6426006
      },
      "tags": {
        "access": "private",
        "amenity": "motorcycle_parking",
        "capacity": "200",
        "covered": "no",
        "operator": "Kristu Jayanti University"
      }
    },
    {
      "type": "way",
      "id": 530606753,
      "center": {
        "lat": 13.0588411,
        "lon": 77.6425733
      },
      "tags": {
        "leisure": "pitch",
        "lit": "no",
        "sport": "soccer",
        "surface": "ground"
      }
    },
    {
      "type": "way",
      "id": 530606757,
      "center": {
        "lat": 13.0592179,
        "lon": 77.6423836
      },
      "tags": {
        "leisure": "pitch",
        "sport": "basketball"
      }
    },
    {
      "type": "way",
      "id": 530606762,
      "center": {
        "lat": 13.0588678,
        "lon": 77.6428331
      },
      "tags": {
        "leisure": "park"
      }
    },
    {
      "type": "way",
      "id": 530606764,
      "center": {
        "lat": 13.0581112,
        "lon": 77.6434269
      },
      "tags": {
        "amenity": "cafe",
        "internet_access": "yes",
        "internet_access:fee": "no",
        "internet_access:ssid": "KJC_NET",
        "name": "Cafeteria",
        "outdoor_seating": "yes",
        "smoking": "no"
      }
    },
    {
      "type": "way",
      "id": 530665374,
      "center": {
        "lat": 13.058229,
        "lon": 77.6424351
      },
      "tags": {
        "addr:city": "Bengaluru",
        "addr:postcode": "560077",
        "addr:street": "K. Narayanapura Main Road",
        "amenity": "university",
        "description": "Krsitu Jayanti is an autonomous college affilated to Bengaluru North University and founded in 1999",
        "landuse": "education",
        "name": "Kristu Jayanti University",
        "old_name": "Kristu Jayanti College",
        "operator": "CMI (Carmelites of Mary Immaculate)",
        "operator:type": "religious",
        "short_name": "KJU",
        "website": "https://kristujayanti.edu.in/home/",
        "wikidata": "Q19892953",
        "wikipedia": "en:Kristu Jayanti University"
      }
    },
    {
      "type": "way",
      "id": 531029902,
      "center": {
        "lat": 13.058436,
        "lon": 77.6433308
      },
      "tags": {
        "building": "yes",
        "shop": "yes"
      }
    },
    {
      "type": "way",
      "id": 531029917,
      "center": {
        "lat": 13.0572994,
        "lon": 77.6454379
      },
      "tags": {
        "addr:city": "Bangalore",
        "addr:country": "IN",
        "addr:hamlet": "K Narayanapura",
        "addr:housenumber": "12",
        "addr:postcode": "560077",
        "addr:street": "Esther Defence Avenue",
        "addr:suburb": "Kothanur",
        "amenity": "cafe",
        "building": "yes",
        "email": "chai316blr@gmail.com",
        "internet_access": "no",
        "name": "Chai 3:16",
        "outdoor_seating": "no",
        "phone": "+91 80 2844 5316",
        "smoking": "no",
        "website": "https://chai316.com/"
      }
    },
    {
      "type": "way",
      "id": 531119558,
      "center": {
        "lat": 13.0584822,
        "lon": 77.6429995
      },
      "tags": {
        "amenity": "fountain"
      }
    },
    {
      "type": "way",
      "id": 537716165,
      "center": {
        "lat": 13.0555139,
        "lon": 77.6463263
      },
      "tags": {
        "amenity": "police",
        "building": "yes",
        "name": "Kothanur Police Station",
        "name:kn": "ಕೊತನೂರು ಆರಕ್ಷಕ ಠಾಣೆ"
      }
    },
    {
      "type": "way",
      "id": 545829392,
      "center": {
        "lat": 13.0606235,
        "lon": 77.6409739
      },
      "tags": {
        "access": "permissive",
        "leisure": "swimming_pool"
      }
    },
    {
      "type": "way",
      "id": 545829393,
      "center": {
        "lat": 13.060004,
        "lon": 77.6409402
      },
      "tags": {
        "access": "private",
        "leisure": "playground"
      }
    },
    {
      "type": "way",
      "id": 675387124,
      "center": {
        "lat": 13.0590006,
        "lon": 77.6462925
      },
      "tags": {
        "leisure": "pitch",
        "sport": "tennis"
      }
    },
    {
      "type": "way",
      "id": 675387126,
      "center": {
        "lat": 13.0587315,
        "lon": 77.6461111
      },
      "tags": {
        "leisure": "pitch",
        "sport": "tennis"
      }
    },
    {
      "type": "way",
      "id": 732317791,
      "center": {
        "lat": 13.0627875,
        "lon": 77.64241
      },
      "tags": {
        "amenity": "school",
        "name": "Government School",
        "name:kn": "ಸರ್ಕಾರಿ ಶಾಲೆ"
      }
    },
    {
      "type": "way",
      "id": 771931320,
      "center": {
        "lat": 13.0516019,
        "lon": 77.6451833
      },
      "tags": {
        "addr:city": "Bangalore",
        "addr:country": "IN",
        "addr:hamlet": "Geddalahalli",
        "addr:postcode": "560077",
        "addr:street": "Hennur Main Road",
        "addr:suburb": "Kothanur",
        "amenity": "school",
        "email": "smshs2008@gmail.com",
        "name": "St Michael's High School",
        "name:kn": "ಸೇಂಟ್ ಮೈಕೆಲ್ಸ್ ಪ್ರೌಢಶಾಲೆ",
        "phone": "+91 80 2846 5281",
        "school:gender": "mixed",
        "website": "https://stmichaelshighschool.com/"
      }
    },
    {
      "type": "way",
      "id": 771931321,
      "center": {
        "lat": 13.0516425,
        "lon": 77.6449346
      },
      "tags": {
        "leisure": "sports_centre"
      }
    },
    {
      "type": "way",
      "id": 771931360,
      "center": {
        "lat": 13.0606895,
        "lon": 77.6416174
      },
      "tags": {
        "leisure": "garden"
      }
    },
    {
      "type": "way",
      "id": 771931363,
      "center": {
        "lat": 13.0607003,
        "lon": 77.6408914
      },
      "tags": {
        "leisure": "garden"
      }
    },
    {
      "type": "way",
      "id": 1034262013,
      "center": {
        "lat": 13.0610735,
        "lon": 77.6398332
      },
      "tags": {
        "leisure": "garden"
      }
    },
    {
      "type": "way",
      "id": 1187891457,
      "center": {
        "lat": 13.053223,
        "lon": 77.6481136
      },
      "tags": {
        "amenity": "monastery",
        "denomination": "catholic",
        "name": "Shanti Nilaya",
        "name:kn": "ಶಾಂತಿ ನಿಲಯ",
        "religion": "christian"
      }
    },
    {
      "type": "way",
      "id": 1187891458,
      "center": {
        "lat": 13.0509194,
        "lon": 77.6485502
      },
      "tags": {
        "amenity": "school",
        "name": "St. Mary's School",
        "name:kn": "ಸೇಂಟ್ ಮೇರಿ ಶಾಲೆ"
      }
    },
    {
      "type": "way",
      "id": 1187891459,
      "center": {
        "lat": 13.0510756,
        "lon": 77.6472574
      },
      "tags": {
        "leisure": "pitch",
        "sport": "cricket"
      }
    },
    {
      "type": "way",
      "id": 1187891460,
      "center": {
        "lat": 13.0501881,
        "lon": 77.6470374
      },
      "tags": {
        "leisure": "swimming_pool",
        "sport": "swimming"
      }
    },
    {
      "type": "way",
      "id": 1187891461,
      "center": {
        "lat": 13.0502847,
        "lon": 77.6465164
      },
      "tags": {
        "leisure": "pitch",
        "sport": "soccer"
      }
    },
    {
      "type": "way",
      "id": 1191446940,
      "center": {
        "lat": 13.0501064,
        "lon": 77.6425137
      },
      "tags": {
        "amenity": "monastery",
        "landuse": "religious",
        "name": "St. Theresa's Generalate",
        "religion": "christian"
      }
    },
    {
      "type": "way",
      "id": 1202363282,
      "center": {
        "lat": 13.0561138,
        "lon": 77.6391551
      },
      "tags": {
        "leisure": "pitch",
        "sport": "basketball"
      }
    },
    {
      "type": "way",
      "id": 1202363284,
      "center": {
        "lat": 13.0561558,
        "lon": 77.6387217
      },
      "tags": {
        "leisure": "pitch",
        "sport": "tennis"
      }
    },
    {
      "type": "way",
      "id": 1202363285,
      "center": {
        "lat": 13.0554963,
        "lon": 77.6387685
      },
      "tags": {
        "access": "private",
        "leisure": "swimming_pool"
      }
    },
    {
      "type": "way",
      "id": 1241565588,
      "center": {
        "lat": 13.0618363,
        "lon": 77.6346456
      },
      "tags": {
        "leisure": "pitch",
        "name": "BR Tennis Academy",
        "sport": "tennis"
      }
    },
    {
      "type": "way",
      "id": 1265866289,
      "center": {
        "lat": 13.0616978,
        "lon": 77.6423258
      },
      "tags": {
        "amenity": "school",
        "name": "BBMP School"
      }
    },
    {
      "type": "way",
      "id": 1265866292,
      "center": {
        "lat": 13.0604631,
        "lon": 77.6421462
      },
      "tags": {
        "building": "retail",
        "name": "Aaruhi Mart",
        "shop": "convenience"
      }
    },
    {
      "type": "way",
      "id": 1267612692,
      "center": {
        "lat": 13.0574176,
        "lon": 77.6498048
      },
      "tags": {
        "amenity": "monastery",
        "landuse": "religious",
        "name": "St. Charles Novitiate"
      }
    },
    {
      "type": "way",
      "id": 1279250156,
      "center": {
        "lat": 13.0584836,
        "lon": 77.649554
      },
      "tags": {
        "amenity": "college"
      }
    },
    {
      "type": "way",
      "id": 1284773651,
      "center": {
        "lat": 13.0540546,
        "lon": 77.6477008
      },
      "tags": {
        "amenity": "school",
        "name": "Teresa Bacq School",
        "name:kn": "ತೆರೆಸಾ ಬಕ್ ಸ್ಕೂಲ್"
      }
    },
    {
      "type": "way",
      "id": 1290915140,
      "center": {
        "lat": 13.0568379,
        "lon": 77.6483035
      },
      "tags": {
        "amenity": "fuel"
      }
    },
    {
      "type": "way",
      "id": 1290915142,
      "center": {
        "lat": 13.0560458,
        "lon": 77.6467746
      },
      "tags": {
        "amenity": "monastery",
        "community:gender": "female",
        "denomination": "catholic",
        "landuse": "religious",
        "name": "Pallotine Missionary Sisters",
        "religion": "christian"
      }
    },
    {
      "type": "way",
      "id": 1298832745,
      "center": {
        "lat": 13.060445,
        "lon": 77.6371153
      },
      "tags": {
        "leisure": "playground"
      }
    },
    {
      "type": "way",
      "id": 1298832746,
      "center": {
        "lat": 13.0608103,
        "lon": 77.6359693
      },
      "tags": {
        "access": "private",
        "leisure": "swimming_pool"
      }
    },
    {
      "type": "way",
      "id": 1298832747,
      "center": {
        "lat": 13.0600794,
        "lon": 77.6358747
      },
      "tags": {
        "access": "private",
        "leisure": "pitch",
        "sport": "basketball"
      }
    },
    {
      "type": "way",
      "id": 1298832748,
      "center": {
        "lat": 13.0601011,
        "lon": 77.6356975
      },
      "tags": {
        "access": "private",
        "leisure": "pitch",
        "sport": "tennis"
      }
    },
    {
      "type": "way",
      "id": 1298832777,
      "center": {
        "lat": 13.0598951,
        "lon": 77.633003
      },
      "tags": {
        "amenity": "fuel",
        "check_date": "2024-05-19",
        "name": "Trugaz"
      }
    },
    {
      "type": "way",
      "id": 1300083543,
      "center": {
        "lat": 13.0598816,
        "lon": 77.6448268
      },
      "tags": {
        "leisure": "sports_centre",
        "name": "Turfs Up Kothanur"
      }
    },
    {
      "type": "way",
      "id": 1307177959,
      "center": {
        "lat": 13.062703,
        "lon": 77.639549
      },
      "tags": {
        "leisure": "pitch",
        "sport": "tennis"
      }
    },
    {
      "type": "way",
      "id": 1307177960,
      "center": {
        "lat": 13.0627143,
        "lon": 77.6394187
      },
      "tags": {
        "leisure": "pitch",
        "sport": "tennis"
      }
    },
    {
      "type": "way",
      "id": 1307177988,
      "center": {
        "lat": 13.0643426,
        "lon": 77.6428798
      },
      "tags": {
        "amenity": "school"
      }
    },
    {
      "type": "way",
      "id": 1315564610,
      "center": {
        "lat": 13.0593562,
        "lon": 77.6489698
      },
      "tags": {
        "amenity": "fuel",
        "brand": "Bharat Petroleum",
        "brand:wikidata": "Q854826",
        "name": "Bharat Petroleum",
        "name:kn": "ಭಾರತ್ ಪೆಟ್ರೋಲಿಯಂ"
      }
    },
    {
      "type": "way",
      "id": 1344779690,
      "center": {
        "lat": 13.0559217,
        "lon": 77.6434299
      },
      "tags": {
        "access": "private",
        "leisure": "swimming_pool"
      }
    },
    {
      "type": "way",
      "id": 1349707571,
      "center": {
        "lat": 13.0561317,
        "lon": 77.6324405
      },
      "tags": {
        "addr:street": "Thanisandra Main Road",
        "amenity": "fuel",
        "brand": "Bharat Petroleum",
        "brand:wikidata": "Q854826",
        "name": "Bharat Petroleum",
        "name:kn": "ಭಾರತ್ ಪೆಟ್ರೋಲಿಯಂ",
        "operator": "Bharat Petroleum"
      }
    },
    {
      "type": "way",
      "id": 1350892114,
      "center": {
        "lat": 13.0619966,
        "lon": 77.6477268
      },
      "tags": {
        "amenity": "school",
        "name": "St. Joseph School"
      }
    },
    {
      "type": "way",
      "id": 1350892149,
      "center": {
        "lat": 13.0497487,
        "lon": 77.6466009
      },
      "tags": {
        "amenity": "place_of_worship",
        "religion": "hindu"
      }
    },
    {
      "type": "way",
      "id": 1350892155,
      "center": {
        "lat": 13.0526254,
        "lon": 77.6466254
      },
      "tags": {
        "addr:city": "Bangalore",
        "addr:postcode": "560077",
        "addr:street": "Hennur Bagalur Road",
        "amenity": "school",
        "fixme": "shape",
        "name": "New Baldwin School",
        "name:kn": "ನ್ಯೂ ಬಾಲ್ಡ್ ವಿನ್ ಶಾಲೆ"
      }
    },
    {
      "type": "way",
      "id": 1350892164,
      "center": {
        "lat": 13.0525951,
        "lon": 77.64581
      },
      "tags": {
        "access": "customers",
        "amenity": "parking",
        "parking": "surface"
      }
    },
    {
      "type": "way",
      "id": 1350892168,
      "center": {
        "lat": 13.0521972,
        "lon": 77.6470524
      },
      "tags": {
        "leisure": "pitch",
        "sport": "soccer"
      }
    },
    {
      "type": "way",
      "id": 1350892169,
      "center": {
        "lat": 13.0521603,
        "lon": 77.6465514
      },
      "tags": {
        "leisure": "pitch",
        "sport": "soccer"
      }
    },
    {
      "type": "way",
      "id": 1350892177,
      "center": {
        "lat": 13.0507148,
        "lon": 77.6471165
      },
      "tags": {
        "leisure": "sports_centre"
      }
    },
    {
      "type": "way",
      "id": 1350892195,
      "center": {
        "lat": 13.0487261,
        "lon": 77.6465268
      },
      "tags": {
        "access": "private",
        "leisure": "swimming_pool"
      }
    },
    {
      "type": "way",
      "id": 1350892205,
      "center": {
        "lat": 13.0628125,
        "lon": 77.6433396
      },
      "tags": {
        "leisure": "sports_centre",
        "name": "Kristu Jayanti College Sports Arena"
      }
    },
    {
      "type": "way",
      "id": 1366473494,
      "center": {
        "lat": 13.0557304,
        "lon": 77.6497275
      },
      "tags": {
        "amenity": "place_of_worship",
        "name": "Christ the King Church",
        "religion": "christian"
      }
    }
  ]
}