{
  "area_name": "Ashokanagara",
  "osm_id": 3496616935,
  "osm_type": "node",
  "place_type": "neighbourhood",
  "amenity_count": 233,
  "amenities": [
    {
      "type": "node",
      "id": 954620605,
      "lat": 12.9437007,
      "lon": 77.5649097,
      "tags": {
        "amenity": "restaurant",
        "name": "Ganesh Bhavan",
        "name:kn": "ಗಣೇಶ ಭವನ",
        "wheelchair": "no"
      }
    },
    {
      "type": "node",
      "id": 1085578890,
      "lat": 12.9318576,
      "lon": 77.5648659,
      "tags": {
        "amenity": "place_of_worship",
        "name": "Muneshwara Temple",
        "name:kn": "ಮುನೇಶ್ವರ ದೇವಸ್ಥಾನ",
        "religion": "hindu"
      }
    },
    {
      "type": "node",
      "id": 1464751687,
      "lat": 12.9409932,
      "lon": 77.5671094,
      "tags": {
        "amenity": "place_of_worship",
        "name": "Puttige Mutt",
        "name:kn": "ಪುತ್ತಿಗೆ ಮಠ",
        "religion": "hindu"
      }
    },
    {
      "type": "node",
      "id": 1464752453,
      "lat": 12.9395396,
      "lon": 77.5667848,
      "tags": {
        "addr:street": "Bull Temple Road",
        "amenity": "social_centre",
        "name": "Gokhale Institute of Public Affairs",
        "website": "http://gipa-bng.org/"
      }
    },
    {
      "type": "node",
      "id": 1465007911,
      "lat": 12.9328395,
      "lon": 77.5638317,
      "tags": {
        "addr:postcode": "560085",
        "amenity": "school",
        "name": "SSM Public School",
        "operator": "PES Group"
      }
    },
    {
      "type": "node",
      "id": 1465008909,
      "lat": 12.9378526,
      "lon": 77.5581352,
      "tags": {
        "leisure": "sports_centre"
      }
    },
    {
      "type": "node",
      "id": 1466328820,
      "lat": 12.9372141,
      "lon": 77.568841,
      "tags": {
        "addr:street": "N.R. Colony, 1st Main Road",
        "amenity": "bank",
        "atm": "yes",
        "brand": "Syndicate Bank",
        "brand:wikidata": "Q2004088",
        "name": "Syndicate Bank",
        "name:en": "Syndicate Bank",
        "name:kn": "ಸಿಂಡಿಕೇಟ್ ಬ್ಯಾಂಕ್",
        "website": "https://www.syndicatebank.in"
      }
    },
    {
      "type": "node",
      "id": 1466328827,
      "lat": 12.9370677,
      "lon": 77.568849,
      "tags": {
        "amenity": "atm",
        "brand": "Syndicate Bank",
        "brand:wikidata": "Q2004088",
        "name": "Syndicate Bank",
        "name:kn": "ಸಿಂಡಿಕೇಟ್ ಬ್ಯಾಂಕ್",
        "operator": "Syndicate Bank",
        "operator:wikidata": "Q2004088"
      }
    },
    {
      "type": "node",
      "id": 1466380358,
      "lat": 12.9370493,
      "lon": 77.5686801,
      "tags": {
        "amenity": "pharmacy",
        "healthcare": "pharmacy",
        "name": "Sagar Pharmacy"
      }
    },
    {
      "type": "node",
      "id": 1466450010,
      "lat": 12.9365631,
      "lon": 77.567363,
      "tags": {
        "amenity": "atm",
        "operator": "HDFC ATM"
      }
    },
    {
      "type": "node",
      "id": 1466724441,
      "lat": 12.9417187,
      "lon": 77.5601963,
      "tags": {
        "name": "Kaggi's Bakery",
        "shop": "bakery"
      }
    },
    {
      "type": "node",
      "id": 1466735001,
      "lat": 12.9393809,
      "lon": 77.5712615,
      "tags": {
        "alt_name": "Bhavani Kangans",
        "name": "Bhavani Bangles",
        "shop": "jewelry"
      }
    },
    {
      "type": "node",
      "id": 1467750614,
      "lat": 12.9364316,
      "lon": 77.5673584,
      "tags": {
        "amenity": "clinic",
        "emergency": "yes",
        "name": "Karuna Clinic"
      }
    },
    {
      "type": "node",
      "id": 1467778589,
      "lat": 12.9339482,
      "lon": 77.5664867,
      "tags": {
        "amenity": "school",
        "designation": "Kamala Nehru Patashala",
        "name": "Kamala Nehru Patashala (Emmanual English School)"
      }
    },
    {
      "type": "node",
      "id": 1467778590,
      "lat": 12.9333966,
      "lon": 77.5660039,
      "tags": {
        "addr:housename": "'Omkara Nilaya'",
        "addr:housenumber": "161",
        "addr:postcode": "560028",
        "addr:street": "3rd Block, T. R. Nagar, 6th Cross, 6th Main",
        "name": "Sri Lakshmi Venkateshwara Provision Stores",
        "shop": "convenience"
      }
    },
    {
      "type": "node",
      "id": 1467778591,
      "lat": 12.9336501,
      "lon": 77.5660602,
      "tags": {
        "amenity": "hospital",
        "emergency": "yes",
        "name": "Kangila Clinic"
      }
    },
    {
      "type": "node",
      "id": 1467778592,
      "lat": 12.9336091,
      "lon": 77.5661398,
      "tags": {
        "addr:postcode": "560028",
        "addr:street": "6th Main",
        "amenity": "pharmacy",
        "dispensing": "yes",
        "name": "Rakesh Medicals"
      }
    },
    {
      "type": "node",
      "id": 1467794454,
      "lat": 12.9334734,
      "lon": 77.5661076,
      "tags": {
        "addr:postcode": "560028",
        "addr:street": "6th Cross, 6th Main",
        "amenity": "pharmacy",
        "dispensing": "yes",
        "name": "Subramanya Medicals"
      }
    },
    {
      "type": "node",
      "id": 1467794468,
      "lat": 12.9321898,
      "lon": 77.5656194,
      "tags": {
        "amenity": "place_of_worship",
        "name": "Sharadamba Temple",
        "name:kn": "ಶಾರದಾಂಬ ದೇವಸ್ಥಾನ",
        "religion": "hindu"
      }
    },
    {
      "type": "node",
      "id": 1467794469,
      "lat": 12.9343751,
      "lon": 77.565952,
      "tags": {
        "amenity": "place_of_worship",
        "denomination": "Dattatreya",
        "name": "Dattatreya Temple",
        "name:kn": "ದತ್ತಾತ್ರೇಯ ದೇವಸ್ಥಾನ",
        "religion": "hindu"
      }
    },
    {
      "type": "node",
      "id": 1467794476,
      "lat": 12.9327754,
      "lon": 77.5660244,
      "tags": {
        "amenity": "place_of_worship",
        "name": "Abhaya Lakshmi Narasimha Temple",
        "name:kn": "ಅಭಯ ಲಕ್ಷ್ಮಿ ನರಸಿಂಹ",
        "religion": "hindu"
      }
    },
    {
      "type": "node",
      "id": 1467794482,
      "lat": 12.9332872,
      "lon": 77.5679132,
      "tags": {
        "amenity": "place_of_worship",
        "name": "Plague Ammana Temple",
        "religion": "hindu"
      }
    },
    {
      "type": "node",
      "id": 1467794483,
      "lat": 12.9343123,
      "lon": 77.5663329,
      "tags": {
        "amenity": "bench"
      }
    },
    {
      "type": "node",
      "id": 1467794484,
      "lat": 12.9341451,
      "lon": 77.566062,
      "tags": {
        "addr:postcode": "560028",
        "addr:street": "6th Main, T. R. Nagar",
        "shop": "motorcycle"
      }
    },
    {
      "type": "node",
      "id": 1467794487,
      "lat": 12.9342938,
      "lon": 77.5660221,
      "tags": {
        "amenity": "place_of_worship",
        "denomination": "Ganesha, Shiva",
        "name": "Balamuri Ganapathi Temple",
        "name:kn": "ಬಲಮುರಿ ಗಣಪತಿ ದೇವಸ್ಥಾನ",
        "religion": "hindu"
      }
    },
    {
      "type": "node",
      "id": 1467794502,
      "lat": 12.9327937,
      "lon": 77.5677437,
      "tags": {
        "addr:postcode": "560028",
        "addr:street": "2nd Main",
        "amenity": "pharmacy",
        "dispensing": "yes",
        "name": "T R Medicals"
      }
    },
    {
      "type": "node",
      "id": 1467794510,
      "lat": 12.9318604,
      "lon": 77.5672556,
      "tags": {
        "amenity": "place_of_worship",
        "name": "Shanimahatma Temple",
        "name:kn": "ಶನಿ ಮಹಾತ್ಮ ದೇವಸ್ಥಾನ",
        "religion": "hindu"
      }
    },
    {
      "type": "node",
      "id": 1470553269,
      "lat": 12.9369341,
      "lon": 77.5691786,
      "tags": {
        "name": "Samipa Bakery",
        "shop": "bakery"
      }
    },
    {
      "type": "node",
      "id": 1470553312,
      "lat": 12.9333166,
      "lon": 77.5726226,
      "tags": {
        "amenity": "school",
        "name": "Sri Kumaran Children's Home"
      }
    },
    {
      "type": "node",
      "id": 1470553313,
      "lat": 12.935381,
      "lon": 77.570171,
      "tags": {
        "amenity": "place_of_worship",
        "name": "Sai Baba Temple",
        "name:kn": "ಸಾಯಿಬಾಬಾ ದೇವಸ್ಥಾನ",
        "religion": "hindu"
      }
    },
    {
      "type": "node",
      "id": 1470553332,
      "lat": 12.9356689,
      "lon": 77.5699296,
      "tags": {
        "alt_name": "Samaja Seva Mandali Kannada Primary School",
        "amenity": "school",
        "name": "SSM Primary School"
      }
    },
    {
      "type": "node",
      "id": 1470553336,
      "lat": 12.9383716,
      "lon": 77.5700155,
      "tags": {
        "amenity": "fast_food",
        "cuisine": "indian",
        "name": "Srinivasa Cool Corner"
      }
    },
    {
      "type": "node",
      "id": 1470553342,
      "lat": 12.9329243,
      "lon": 77.5712761,
      "tags": {
        "amenity": "place_of_worship",
        "name": "Ganesh Mandir",
        "name:kn": "ಗಣೇಶ ಮಂದಿರ",
        "religion": "hindu"
      }
    },
    {
      "type": "node",
      "id": 1470553353,
      "lat": 12.9323571,
      "lon": 77.5676123,
      "tags": {
        "addr:postcode": "560028",
        "addr:street": "2nd Main Road",
        "amenity": "pharmacy",
        "brand": "Apollo Pharmacy",
        "brand:wikidata": "Q62562612",
        "dispensing": "yes",
        "healthcare": "pharmacy",
        "name": "Apollo Pharmacy",
        "name:kn": "ಅಪೋಲೋ ಫಾರ್ಮಸಿ"
      }
    },
    {
      "type": "node",
      "id": 1470553357,
      "lat": 12.9329402,
      "lon": 77.5717482,
      "tags": {
        "amenity": "school",
        "name": "Kumaran Children's High School"
      }
    },
    {
      "type": "node",
      "id": 1472981138,
      "lat": 12.9373897,
      "lon": 77.56002,
      "tags": {
        "amenity": "school",
        "name": "Holy Child Convent School"
      }
    },
    {
      "type": "node",
      "id": 1472981151,
      "lat": 12.9363435,
      "lon": 77.5615008,
      "tags": {
        "amenity": "police",
        "name": "Police Station",
        "name:kn": "ಆರಕ್ಷಕ ಠಾಣೆ",
        "operator": "Karnataka Police Department"
      }
    },
    {
      "type": "node",
      "id": 1472981411,
      "lat": 12.9348901,
      "lon": 77.560782,
      "tags": {
        "name": "SLV Bakery",
        "shop": "bakery"
      }
    },
    {
      "type": "node",
      "id": 1473775383,
      "lat": 12.9324223,
      "lon": 77.555718,
      "tags": {
        "amenity": "place_of_worship",
        "name": "Ganesha Temple",
        "name:kn": "ಗಣೇಶ ದೇವಸ್ಥಾನ",
        "religion": "hindu"
      }
    },
    {
      "type": "node",
      "id": 1473887248,
      "lat": 12.9279572,
      "lon": 77.5619192,
      "tags": {
        "amenity": "community_centre",
        "building": "yes",
        "name": "Prince Party Hall"
      }
    },
    {
      "type": "node",
      "id": 1473887315,
      "lat": 12.942427,
      "lon": 77.5671829,
      "tags": {
        "amenity": "place_of_worship",
        "check_date": "2023-09-19",
        "name": "Sri Raghavendra Swami Mutt",
        "name:kn": "ರಾಘವೇಂದ್ರ ಸ್ವಾಮಿ ಮಠ",
        "religion": "hindu"
      }
    },
    {
      "type": "node",
      "id": 1473887316,
      "lat": 12.940068,
      "lon": 77.5686776,
      "tags": {
        "leisure": "pitch",
        "name": "APS Playground"
      }
    },
    {
      "type": "node",
      "id": 1473897177,
      "lat": 12.9444263,
      "lon": 77.5651593,
      "tags": {
        "amenity": "school",
        "name": "SSVM GP Branch",
        "wheelchair": "no"
      }
    },
    {
      "type": "node",
      "id": 1473902946,
      "lat": 12.940021,
      "lon": 77.5651693,
      "tags": {
        "amenity": "bank",
        "brand": "Allahabad Bank",
        "brand:wikidata": "Q2018840",
        "brand:wikipedia": "en:Allahabad Bank",
        "name": "Allahabad Bank",
        "name:en": "Allahabad Bank",
        "name:kn": "ಅಲ್ಲಹಾಬಾದ್ ಬ್ಯಾಂಕ್",
        "website": "https://www.allahabadbank.in"
      }
    },
    {
      "type": "node",
      "id": 1473902949,
      "lat": 12.9387311,
      "lon": 77.563322,
      "tags": {
        "amenity": "place_of_worship",
        "name": "Sri Rama Temple",
        "name:kn": "ಶ್ರೀ ರಾಮ ದೇವಸ್ಥಾನ",
        "religion": "hindu"
      }
    },
    {
      "type": "node",
      "id": 1473902953,
      "lat": 12.9403137,
      "lon": 77.5645095,
      "tags": {
        "amenity": "restaurant",
        "name": "Mini Punjabi Dhaba",
        "name:kn": "ಮಿನಿ ಪಂಜಾಬಿ ಢಾಬ"
      }
    },
    {
      "type": "node",
      "id": 1473902955,
      "lat": 12.9393831,
      "lon": 77.5641393,
      "tags": {
        "amenity": "restaurant",
        "name": "Ganesh FruitJuice Centre",
        "name:kn": "ಗಣೇಶ್ ಫ್ರುಟ್‌ಜ್ಯುಸ್ ಸೆಂಟರ್"
      }
    },
    {
      "type": "node",
      "id": 1566824494,
      "lat": 12.9391021,
      "lon": 77.5556301,
      "tags": {
        "amenity": "place_of_worship",
        "name": "Gondavalekar Sadgur"
      }
    },
    {
      "type": "node",
      "id": 1741241145,
      "lat": 12.9294812,
      "lon": 77.5637259,
      "tags": {
        "amenity": "restaurant",
        "diet:vegetarian": "only",
        "name": "Laxmi Sagar Deluxe",
        "name:kn": "ಲಕ್ಷ್ಮೀ ಸಾಗರ್ ಡಿಲಕ್ಸ್"
      }
    },
    {
      "type": "node",
      "id": 1741241408,
      "lat": 12.9301278,
      "lon": 77.5636876,
      "tags": {
        "amenity": "atm",
        "operator": "Axis Bank"
      }
    },
    {
      "type": "node",
      "id": 1741246216,
      "lat": 12.935471,
      "lon": 77.5608687,
      "tags": {
        "amenity": "atm",
        "brand": "ICICI Bank",
        "brand:wikidata": "Q1653258",
        "name": "ICICI Bank",
        "name:kn": "ಐಸಿಐಸಿಐ ಬ್ಯಾಂಕು",
        "operator": "ICICI Bank",
        "operator:wikidata": "Q1653258",
        "short_name": "ICICI"
      }
    },
    {
      "type": "node",
      "id": 1741456815,
      "lat": 12.931931,
      "lon": 77.5640576,
      "tags": {
        "amenity": "atm",
        "operator": "HDFC Bank"
      }
    },
    {
      "type": "node",
      "id": 1741466668,
      "lat": 12.9371253,
      "lon": 77.5585054,
      "tags": {
        "amenity": "bank",
        "atm": "yes",
        "brand": "Corporation Bank",
        "brand:wikidata": "Q2003387",
        "brand:wikipedia": "en:Corporation Bank",
        "name": "Corporation Bank",
        "name:en": "Corporation Bank",
        "name:kn": "ಕಾರ್ಪೋರೇಶನ್ ಬ್ಯಾಂಕ್",
        "website": "https://corpbank.com/"
      }
    },
    {
      "type": "node",
      "id": 1741564945,
      "lat": 12.9389525,
      "lon": 77.5566263,
      "tags": {
        "amenity": "library",
        "name": "Public Library",
        "name:kn": "ಸಾರ್ವಜನಿಕ ಗ್ರಂಥಾಲಯ"
      }
    },
    {
      "type": "node",
      "id": 1741794881,
      "lat": 12.933396,
      "lon": 77.5626216,
      "tags": {
        "amenity": "pharmacy"
      }
    },
    {
      "type": "node",
      "id": 1741797182,
      "lat": 12.9352471,
      "lon": 77.5607927,
      "tags": {
        "amenity": "pharmacy"
      }
    },
    {
      "type": "node",
      "id": 1741799823,
      "lat": 12.9357213,
      "lon": 77.5609969,
      "tags": {
        "amenity": "bank",
        "atm": "yes",
        "brand": "Andhra Bank",
        "brand:wikidata": "Q2003476",
        "brand:wikipedia": "en:Andhra Bank",
        "name": "Andhra Bank",
        "name:en": "Andhra Bank",
        "name:kn": "ಆಂಧ್ರ ಬ್ಯಾಂಕ್",
        "website": "https://www.andhrabank.in"
      }
    },
    {
      "type": "node",
      "id": 1741809315,
      "lat": 12.9340245,
      "lon": 77.5619702,
      "tags": {
        "amenity": "fast_food",
        "cuisine": "indian",
        "name": "Kabab and Biriyani"
      }
    },
    {
      "type": "node",
      "id": 1741809464,
      "lat": 12.9340167,
      "lon": 77.5623395,
      "tags": {
        "shop": "hairdresser"
      }
    },
    {
      "type": "node",
      "id": 1741810626,
      "lat": 12.9321266,
      "lon": 77.5641271,
      "tags": {
        "shop": "toys"
      }
    },
    {
      "type": "node",
      "id": 1741824534,
      "lat": 12.93577,
      "lon": 77.5613294,
      "tags": {
        "amenity": "fast_food",
        "diet:vegetarian": "only",
        "name": "SLV Fast Food"
      }
    },
    {
      "type": "node",
      "id": 1741832246,
      "lat": 12.941632,
      "lon": 77.5641945,
      "tags": {
        "addr:city": "Bengaluru",
        "addr:postcode": "560019",
        "amenity": "fuel",
        "brand": "Hindustan Petroleum",
        "brand:wikidata": "Q1619375",
        "fuel:diesel": "yes",
        "fuel:petrol": "yes",
        "name": "Sri Vishvesha Agencies",
        "official_name": "Hindustan Petroleum",
        "phone": "+919164009930",
        "self_service": "no"
      }
    },
    {
      "type": "node",
      "id": 1741832550,
      "lat": 12.9416578,
      "lon": 77.5644359,
      "tags": {
        "amenity": "bank",
        "atm": "yes",
        "brand": "Canara Bank",
        "brand:en": "Canara Bank",
        "brand:hi": "केनरा बैंक",
        "brand:kn": "ಕೆನರಾ ಬ್ಯಾಂಕ್",
        "brand:pa": "ਕੇਨਰਾ ਬੈਂਕ",
        "brand:pnb": "کینرا بینک",
        "brand:ur": "کینرا بینک",
        "brand:wikidata": "Q2003777",
        "brand:wikipedia": "en:Canara Bank",
        "brand:wikipedia:pa": "ਕੇਨਰਾ ਬੈਂਕ",
        "name": "Canara Bank",
        "name:en": "Canara Bank",
        "name:hi": "केनरा बैंक",
        "name:kn": "ಕೆನರಾ ಬ್ಯಾಂಕ್",
        "name:pa": "ਕੇਨਰਾ ਬੈਂਕ",
        "name:pnb": "کینرا بینک",
        "name:ur": "کینرا بینک",
        "website": "https://www.canarabank.com/"
      }
    },
    {
      "type": "node",
      "id": 1792009394,
      "lat": 12.9437044,
      "lon": 77.5603994,
      "tags": {
        "amenity": "fast_food",
        "diet:vegetarian": "only",
        "name": "Hotel Mangala"
      }
    },
    {
      "type": "node",
      "id": 1792041769,
      "lat": 12.9412355,
      "lon": 77.5578065,
      "tags": {
        "amenity": "post_box",
        "operator": "India Post",
        "operator:wikidata": "Q3519720"
      }
    },
    {
      "type": "node",
      "id": 1792716217,
      "lat": 12.9434331,
      "lon": 77.5663121,
      "tags": {
        "amenity": "atm",
        "brand": "ICICI Bank",
        "brand:wikidata": "Q1653258",
        "fee": "no",
        "name": "ICICI Bank",
        "name:kn": "ಐಸಿಐಸಿಐ ಬ್ಯಾಂಕು",
        "operator": "ICICI Bank",
        "operator:wikidata": "Q1653258",
        "short_name": "ICICI"
      }
    },
    {
      "type": "node",
      "id": 1796628970,
      "lat": 12.9439251,
      "lon": 77.5643566,
      "tags": {
        "amenity": "atm",
        "brand": "HDFC Bank",
        "brand:wikidata": "Q631047",
        "fee": "no",
        "name": "HDFC Bank",
        "operator": "HDFC Bank",
        "operator:wikidata": "Q631047",
        "short_name": "HDFC"
      }
    },
    {
      "type": "node",
      "id": 1796630507,
      "lat": 12.9437743,
      "lon": 77.5643702,
      "tags": {
        "amenity": "atm",
        "brand": "ICICI Bank",
        "brand:wikidata": "Q1653258",
        "fee": "no",
        "name": "ICICI Bank",
        "operator": "ICICI Bank",
        "operator:wikidata": "Q1653258",
        "short_name": "ICICI"
      }
    },
    {
      "type": "node",
      "id": 1796670301,
      "lat": 12.9402637,
      "lon": 77.5577692,
      "tags": {
        "amenity": "atm",
        "brand": "HDFC Bank",
        "brand:wikidata": "Q631047",
        "fee": "no",
        "name": "HDFC Bank",
        "operator": "HDFC Bank",
        "operator:wikidata": "Q631047",
        "short_name": "HDFC"
      }
    },
    {
      "type": "node",
      "id": 1802684091,
      "lat": 12.9436748,
      "lon": 77.5641934,
      "tags": {
        "amenity": "atm",
        "brand": "Corporation Bank",
        "brand:wikidata": "Q2003387",
        "fee": "no",
        "name": "Corporation Bank",
        "operator": "Corporation Bank",
        "operator:wikidata": "Q2003387"
      }
    },
    {
      "type": "node",
      "id": 1815951925,
      "lat": 12.9295981,
      "lon": 77.5681912,
      "tags": {
        "name": "Pin Ball",
        "shop": "clothes"
      }
    },
    {
      "type": "node",
      "id": 1815951927,
      "lat": 12.9292268,
      "lon": 77.5678506,
      "tags": {
        "amenity": "police",
        "name": "Women's Police Station",
        "name:kn": "ಮಹಿಳಾ ಪೊಲೀಸ್ ಠಾಣೆ"
      }
    },
    {
      "type": "node",
      "id": 1815951935,
      "lat": 12.929436,
      "lon": 77.5678479,
      "tags": {
        "amenity": "police",
        "name": "Thyagaraja Nagar Police Station",
        "name:kn": "ತ್ಯಾಗರಾಜನಗರ ಆರಕ್ಷಕ ಠಾಣೆ"
      }
    },
    {
      "type": "node",
      "id": 1815960796,
      "lat": 12.9297811,
      "lon": 77.5682637,
      "tags": {
        "amenity": "fuel",
        "brand": "Indian Oil",
        "brand:wikidata": "Q1289348",
        "brand:wikipedia": "en:Indian Oil Corporation",
        "name": "Indian Oil",
        "name:kn": "ಇಂಡಿಯನ್ ಆಯಿಲ್"
      }
    },
    {
      "type": "node",
      "id": 2331415122,
      "lat": 12.9373332,
      "lon": 77.5582484,
      "tags": {
        "amenity": "atm",
        "brand": "Canara Bank",
        "brand:en": "Canara Bank",
        "brand:hi": "केनरा बैंक",
        "brand:kn": "ಕೆನರಾ ಬ್ಯಾಂಕ್",
        "brand:pa": "ਕੇਨਰਾ ਬੈਂਕ",
        "brand:pnb": "کینرا بینک",
        "brand:ur": "کینرا بینک",
        "brand:wikidata": "Q2003777",
        "brand:wikipedia": "en:Canara Bank",
        "brand:wikipedia:pa": "ਕੇਨਰਾ ਬੈਂਕ",
        "name": "Canara Bank",
        "name:en": "Canara Bank",
        "name:hi": "केनरा बैंक",
        "name:kn": "ಕೆನರಾ ಬ್ಯಾಂಕ್",
        "name:pa": "ਕੇਨਰਾ ਬੈਂਕ",
        "name:pnb": "کینرا بینک",
        "name:ur": "کینرا بینک",
        "operator": "Canara Bank",
        "operator:wikidata": "Q2003777"
      }
    },
    {
      "type": "node",
      "id": 2331429506,
      "lat": 12.9381919,
      "lon": 77.556125,
      "tags": {
        "name": "Relience Fresh",
        "operator": "Relience",
        "shop": "supermarket"
      }
    },
    {
      "type": "node",
      "id": 2331429507,
      "lat": 12.9348094,
      "lon": 77.5556281,
      "tags": {
        "amenity": "atm",
        "brand": "HDFC Bank",
        "brand:wikidata": "Q631047",
        "name": "HDFC Bank",
        "name:kn": "ಎಚ್ ಡಿ ಎಫ್ ಸಿ",
        "operator": "HDFC Bank",
        "operator:wikidata": "Q631047",
        "short_name": "HDFC"
      }
    },
    {
      "type": "node",
      "id": 2331429508,
      "lat": 12.9347536,
      "lon": 77.5556142,
      "tags": {
        "amenity": "atm",
        "brand": "State Bank of India",
        "brand:wikidata": "Q1340361",
        "name": "State Bank of India",
        "name:kn": "ಭಾರತೀಯ ಸ್ಟೇಟ್ ಬ್ಯಾಂಕ್",
        "operator": "State Bank of India",
        "operator:wikidata": "Q1340361",
        "short_name": "SBI"
      }
    },
    {
      "type": "node",
      "id": 2331429509,
      "lat": 12.9381111,
      "lon": 77.5565458,
      "tags": {
        "amenity": "atm",
        "brand": "Bank of Baroda",
        "brand:wikidata": "Q2003797",
        "name": "Bank of Baroda",
        "name:kn": "ಬ್ಯಾಂಕ್ ಆಫ್ ಬರೊಡಾ",
        "operator": "Bank of Baroda",
        "operator:wikidata": "Q2003797"
      }
    },
    {
      "type": "node",
      "id": 2332679567,
      "lat": 12.9369041,
      "lon": 77.5577545,
      "tags": {
        "addr:city": "Bangalore",
        "addr:housename": "Vinayaka Vidya Samsthe",
        "addr:postcode": "560050",
        "addr:street": "1st Main Road, Srinivasa Nagar",
        "amenity": "school",
        "name": "Vinayaka Vidya Samsthe",
        "name:kn": "ವಿನಾಯಕ ವಿದ್ಯಾ ಸಂಸ್ಥೆ"
      }
    },
    {
      "type": "node",
      "id": 3118296968,
      "lat": 12.9296028,
      "lon": 77.5628234,
      "tags": {
        "amenity": "bar",
        "name": "Wine Baron",
        "opening_hours": "10:00-23:00"
      }
    },
    {
      "type": "node",
      "id": 3118304947,
      "lat": 12.9278968,
      "lon": 77.5622171,
      "tags": {
        "amenity": "atm",
        "brand": "State Bank of India",
        "brand:wikidata": "Q1340361",
        "name": "SBI ATM",
        "name:kn": "ಭಾರತೀಯ ಸ್ಟೇಟ್ ಬ್ಯಾಂಕ್",
        "operator": "State Bank of India",
        "operator:wikidata": "Q1340361",
        "short_name": "SBI"
      }
    },
    {
      "type": "node",
      "id": 3118314738,
      "lat": 12.9283205,
      "lon": 77.5621194,
      "tags": {
        "amenity": "community_centre",
        "name": "Sri Hari Kalyana Mantapa"
      }
    },
    {
      "type": "node",
      "id": 3118317375,
      "lat": 12.9285342,
      "lon": 77.5624936,
      "tags": {
        "amenity": "clinic",
        "name": "Medical Shop"
      }
    },
    {
      "type": "node",
      "id": 3118731586,
      "lat": 12.9288924,
      "lon": 77.5623711,
      "tags": {
        "addr:city": "Bangalore",
        "addr:postcode": "560085",
        "addr:street": "30th Main road, Banashankari 2nd Stage",
        "name": "Hero Honda",
        "shop": "motorcycle"
      }
    },
    {
      "type": "node",
      "id": 3118754073,
      "lat": 12.9416718,
      "lon": 77.5605078,
      "tags": {
        "amenity": "fast_food",
        "cuisine": "indian",
        "name": "Shiva's Chats"
      }
    },
    {
      "type": "node",
      "id": 3656275411,
      "lat": 12.9369639,
      "lon": 77.5721872,
      "tags": {
        "addr:city": "Bangalore",
        "addr:postcode": "560004",
        "addr:street": "South End Road",
        "name": "Nandini Milk Parlour",
        "name:kn": "ನಂದಿನಿ ಹಾಲಿನ ಅಂಗಡಿ",
        "opening_hours": "06:00-22:30",
        "operator": "Karnataka Milk Federation",
        "shop": "dairy"
      }
    },
    {
      "type": "node",
      "id": 3946293404,
      "lat": 12.940566,
      "lon": 77.5708321,
      "tags": {
        "addr:housenumber": "32",
        "addr:street": "32, Mallikarjuna Temple Road",
        "name": "Veena Works",
        "phone": "9845744693",
        "shop": "musical_instrument"
      }
    },
    {
      "type": "node",
      "id": 3946296441,
      "lat": 12.9394431,
      "lon": 77.5714279,
      "tags": {
        "addr:street": "DVG Road",
        "name": "Mane Holige",
        "opening_hours": "Mo-Su 10:00-21:30",
        "phone": "+919886584789 9742672871",
        "shop": "confectionery"
      }
    },
    {
      "type": "node",
      "id": 4246843765,
      "lat": 12.9392188,
      "lon": 77.5600997,
      "tags": {
        "amenity": "cafe",
        "cuisine": "ice_cream",
        "name": "Prasad Icecream Parlour"
      }
    },
    {
      "type": "node",
      "id": 4278117690,
      "lat": 12.9382756,
      "lon": 77.5572939,
      "tags": {
        "addr:housenumber": "1706",
        "addr:postcode": "560050",
        "addr:street": "10th Main Road",
        "email": "akshaymeda@gmail.com",
        "internet_access": "wlan",
        "name": "Gaayathri coffee",
        "opening_hours": "Mo-Su 09:30-21:30",
        "phone": "9986552253",
        "shop": "beverages"
      }
    },
    {
      "type": "node",
      "id": 4443323771,
      "lat": 12.9371526,
      "lon": 77.5728792,
      "tags": {
        "addr:city": "Bangalore",
        "addr:housenumber": "49",
        "addr:postcode": "560004",
        "addr:street": "S Kariyappa Road",
        "amenity": "restaurant",
        "cuisine": "regional",
        "delivery": "yes",
        "name": "Presto",
        "name:kn": "ಪ್ರೆಸ್ಟೋ",
        "opening_hours": "08:00-23:00",
        "phone": "080 2662 2058",
        "smoking": "no"
      }
    },
    {
      "type": "node",
      "id": 4443345110,
      "lat": 12.9435256,
      "lon": 77.5655166,
      "tags": {
        "addr:city": "Bangalore",
        "addr:housenumber": "3",
        "addr:postcode": "560004",
        "addr:street": "Bull Temple Road, 5th Main Road",
        "amenity": "restaurant",
        "delivery": "yes",
        "name": "Halli Thindi",
        "opening_hours": "07:00-22:00",
        "phone": "080 2661 9777",
        "smoking": "no"
      }
    },
    {
      "type": "node",
      "id": 4443420825,
      "lat": 12.9326403,
      "lon": 77.5656287,
      "tags": {
        "addr:city": "Bangalore",
        "addr:housenumber": "147/1",
        "addr:postcode": "560004",
        "addr:street": "Basavangudi",
        "amenity": "restaurant",
        "cuisine": "regional",
        "delivery": "yes",
        "name": "Koli Mane",
        "name:kn": "ಕೋಳಿಮನೆ",
        "phone": "080 2676 5670",
        "smoking": "no"
      }
    },
    {
      "type": "node",
      "id": 4444115045,
      "lat": 12.9301326,
      "lon": 77.5606044,
      "tags": {
        "addr:city": "Bengaluru",
        "addr:postcode": "560085",
        "addr:street": "8th Cross Rd, Vidyapeeta Layout, Banashankari 3rd Stage",
        "amenity": "police",
        "name": "Chennamanakere Achukattu Police Station",
        "name:kn": "ಚೆನ್ನಮ್ಮಕೆರೆ ಅಚ್ಚುಕಟ್ಟು",
        "phone": "080 2294 3483",
        "website": "ksp.gov.in"
      }
    },
    {
      "type": "node",
      "id": 4444989840,
      "lat": 12.9390944,
      "lon": 77.5619057,
      "tags": {
        "addr:city": "bangalore",
        "addr:housenumber": "11/2",
        "addr:postcode": "560079",
        "addr:street": "Magadi Main Road",
        "amenity": "hospital",
        "name": "Sarvodaya Hospital",
        "name:kn": "ಸರ್ವೋದಯ ಆಸ್ಪತ್ರೆ",
        "phone": "098440 74946"
      }
    },
    {
      "type": "node",
      "id": 4445161446,
      "lat": 12.9269753,
      "lon": 77.5643645,
      "tags": {
        "addr:city": "Bangalore",
        "addr:housenumber": "86,Shankti Arcade",
        "addr:postcode": "560070",
        "addr:street": "22nd Main Road,Banashankari",
        "amenity": "restaurant",
        "cuisine": "indian",
        "name": "Rasoi Restaurant",
        "opening_hours": "11:00-23:00",
        "phone": "+91 97380 19114",
        "takeaway": "yes"
      }
    },
    {
      "type": "node",
      "id": 4445197030,
      "lat": 12.9418834,
      "lon": 77.5707551,
      "tags": {
        "addr:city": "Bangalore",
        "addr:housenumber": "26",
        "addr:postcode": "560004",
        "addr:street": "DVG Road, Basavanagudi",
        "amenity": "restaurant",
        "cuisine": "regional",
        "delivery": "yes",
        "name": "Nisarga Garden Restaurant",
        "phone": "+91 94482 61574",
        "smoking": "no",
        "takeaway": "yes"
      }
    },
    {
      "type": "node",
      "id": 4445209596,
      "lat": 12.9406714,
      "lon": 77.5703714,
      "tags": {
        "addr:city": "Bangalore",
        "addr:postcode": "560004",
        "addr:street": "Mallikarjuna Temple St",
        "amenity": "restaurant",
        "cuisine": "regional",
        "delivery": "yes",
        "name": "Puliyogare Point",
        "opening_hours": "07:00-21:30",
        "phone": "+91 99869 53484",
        "smoking": "no",
        "takeaway": "yes"
      }
    },
    {
      "type": "node",
      "id": 4445678275,
      "lat": 12.9391651,
      "lon": 77.5637852,
      "tags": {
        "addr:city": "Bangalore",
        "addr:postcode": "560004",
        "addr:street": "3rd Cross Rd, Basavanagudi",
        "amenity": "restaurant",
        "cuisine": "regional",
        "delivery": "yes",
        "name": "Rolls Corner",
        "smoking": "no",
        "takeaway": "yes"
      }
    },
    {
      "type": "node",
      "id": 4445703389,
      "lat": 12.9329124,
      "lon": 77.5684358,
      "tags": {
        "addr:city": "Bangalore",
        "addr:housenumber": "22/A&b, No 200/3",
        "addr:postcode": "560004",
        "addr:street": "Lakshmi Tower, R V Road, Basavanagudi, Near South End Circle, Basavanagudi",
        "amenity": "restaurant",
        "cuisine": "italian",
        "delivery": "yes",
        "name": "Sea Rock",
        "smoking": "no",
        "takeaway": "yes"
      }
    },
    {
      "type": "node",
      "id": 4445727000,
      "lat": 12.9385441,
      "lon": 77.5699295,
      "tags": {
        "addr:city": "Bangalore",
        "addr:postcode": "560004",
        "addr:street": "E Anjaneya Temple St, NR Colony, Basavanagudi",
        "amenity": "restaurant",
        "cuisine": "regional",
        "delivery": "yes",
        "name": "Harshi Super Sandwich",
        "opening_hours": "10:00-21:30",
        "phone": "095357 36455",
        "smoking": "no",
        "takeaway": "yes",
        "website": "https://sites.google.com/site/harshisupersandwich/"
      }
    },
    {
      "type": "node",
      "id": 4445782638,
      "lat": 12.9363723,
      "lon": 77.5682018,
      "tags": {
        "addr:city": "Bangalore",
        "addr:housenumber": "115/121",
        "addr:postcode": "560004",
        "addr:street": "4th Main Road, 4th Stage,Thyagaraja Nagar",
        "amenity": "restaurant",
        "cuisine": "regional",
        "delivery": "yes",
        "name": "Amandé Patisserie",
        "opening_hours": "09:00-18:00",
        "phone": "080 2676 1080",
        "smoking": "no",
        "takeaway": "yes",
        "website": "https://amande.co.in/"
      }
    },
    {
      "type": "node",
      "id": 4446310318,
      "lat": 12.9303018,
      "lon": 77.5666608,
      "tags": {
        "addr:city": "Banashankari,Bangalore",
        "addr:housenumber": "43/2",
        "addr:postcode": "560070",
        "addr:street": "2nd Main Road",
        "amenity": "restaurant",
        "cuisine": "regional",
        "name": "New Prashanth Hotel",
        "opening_hours": "12:30-16:00,19:30-23:00",
        "phone": "080 49569558",
        "takeaway": "yes"
      }
    },
    {
      "type": "node",
      "id": 4446411830,
      "lat": 12.9416198,
      "lon": 77.5573584,
      "tags": {
        "addr:city": "Banashankari,Bangalore",
        "addr:housenumber": "544/14",
        "addr:postcode": "560050",
        "addr:street": "Hanumantha Nagar Main Road / 50 Feet Road",
        "amenity": "restaurant",
        "cuisine": "regional",
        "name": "New Sri Banashankari Donne Biriyani Corner",
        "opening_hours": "12:30-16:00,19:00-22:00",
        "phone": "+91 99455 50255",
        "takeaway": "yes"
      }
    },
    {
      "type": "node",
      "id": 4446439565,
      "lat": 12.9415734,
      "lon": 77.5578002,
      "tags": {
        "addr:city": "Banashankari,Bangalore",
        "addr:postcode": "560050",
        "addr:street": "10th Main Road,",
        "amenity": "restaurant",
        "cuisine": "fast_food",
        "name": "Coffee Bytes",
        "opening_hours": "07:00-12:00,16:00-20:30",
        "phone": "+91 88846 80081",
        "takeaway": "yes"
      }
    },
    {
      "type": "node",
      "id": 4446881168,
      "lat": 12.9378359,
      "lon": 77.5573329,
      "tags": {
        "addr:city": "Bangalore",
        "addr:housenumber": "5",
        "addr:postcode": "560050",
        "addr:street": "80 Feet Road, 1st Stage, Srinivasa Nagar, Banashankari",
        "amenity": "hospital",
        "name": "\" NRS Medical & Dental Specialists Centre\"",
        "phone": "080-26696054"
      }
    },
    {
      "type": "node",
      "id": 4446899253,
      "lat": 12.9408667,
      "lon": 77.5603657,
      "tags": {
        "addr:city": "bangalore",
        "addr:district": "Bengaluru Urban",
        "addr:full": "#795/1, 9Th Main ,Bsk 1st, Stage,2nd Block,Hanumantha Nagar",
        "addr:housenumber": "795/1",
        "addr:postcode": "560050",
        "addr:state": "Karnataka",
        "addr:street": "9th Main, 2nd Block, Hanumantha Nagar, Near-Shaneshwara Temple Road, Banashankari 1st Stage",
        "amenity": "hospital",
        "name": "Medi-Tech Multi Speciality Hospital",
        "phone": "080 2660 2910",
        "source": "OpenGovernmentData"
      }
    },
    {
      "type": "node",
      "id": 4446915143,
      "lat": 12.9383428,
      "lon": 77.5598834,
      "tags": {
        "addr:city": "bangalore",
        "addr:housenumber": "786",
        "addr:postcode": "560050",
        "addr:street": "10th Main, BSK 1st Stage, Banashankari Stage 1, Banashankari,",
        "amenity": "pharmacy",
        "name": "Shakti Medicals & Generals",
        "phone": "080 2667 4045",
        "source": "just dial"
      }
    },
    {
      "type": "node",
      "id": 4446978212,
      "lat": 12.9360789,
      "lon": 77.5601504,
      "tags": {
        "addr:city": "bangalore",
        "addr:housenumber": "47/1",
        "addr:postcode": "560050",
        "addr:street": "11th Cross, Ashok Nagar, Near-Vidya Peeta Circle, Banashankari 1st Stage",
        "amenity": "pharmacy",
        "name": "Mahaveer medicals",
        "phone": "+91 80 2242 7245",
        "source": "www.justdial.com"
      }
    },
    {
      "type": "node",
      "id": 4446999694,
      "lat": 12.9384167,
      "lon": 77.5572651,
      "tags": {
        "addr:city": "Bangalore",
        "addr:housenumber": "281/B",
        "addr:postcode": "560050",
        "addr:street": "1st Floor, 10th Main, 2nd Block, Srinivas Nagar, Near Ayyappaswamy Temple, Banashankari Stage I, Banashankari",
        "amenity": "clinic",
        "name": "Malathi Polyclinic",
        "phone": "080 2660 3366",
        "source": "justdial",
        "website": "malathipolyclinic.com"
      }
    },
    {
      "type": "node",
      "id": 4447082895,
      "lat": 12.9396288,
      "lon": 77.5667866,
      "tags": {
        "addr:city": "Bangalore",
        "addr:postcode": "560004",
        "addr:street": "Bull Temple Road",
        "amenity": "restaurant",
        "cuisine": "regional",
        "delivery": "yes",
        "name": "Kamath Bugle Rock",
        "opening_hours": "07:00-22:30",
        "phone": "080 4124 1112",
        "smoking": "no",
        "takeaway": "yes"
      }
    },
    {
      "type": "node",
      "id": 4447120631,
      "lat": 12.9401607,
      "lon": 77.5643716,
      "tags": {
        "addr:city": "Bangalore",
        "addr:housenumber": "8",
        "addr:postcode": "560004",
        "addr:street": "Second Floor, 1st Main, Arush Trapeze, Mount Joy Road, Behind BMS College of Engineering",
        "amenity": "restaurant",
        "cuisine": "regional",
        "name": "Szechuan Dragon Chinese Restaurant",
        "opening_hours": "12-16:00, 19:00-23:00",
        "phone": "096635 67711",
        "smoking": "no",
        "takeaway": "yes"
      }
    },
    {
      "type": "node",
      "id": 4447124200,
      "lat": 12.9376671,
      "lon": 77.5676462,
      "tags": {
        "addr:city": "Bangalore",
        "addr:postcode": "560004",
        "addr:street": "7th Cross Road, NR Colony, Basavangudi,",
        "amenity": "restaurant",
        "cuisine": "regional",
        "delivery": "no",
        "name": "Hotel Dwarka",
        "opening_hours": "We-Su 07:00-20:30",
        "phone": "080 2590 5217",
        "smoking": "no",
        "takeaway": "yes"
      }
    },
    {
      "type": "node",
      "id": 4447158330,
      "lat": 12.9328003,
      "lon": 77.5688005,
      "tags": {
        "addr:city": "Bangalore",
        "addr:housenumber": "147/1",
        "addr:postcode": "560028",
        "addr:street": "2nd Main, Near-SBI, Basavanagudi",
        "amenity": "restaurant",
        "cuisine": "regional",
        "delivery": "yes",
        "name": "Koli Mane",
        "name:kn": "ಕೋಳಿಮನೆ",
        "phone": "080 2676 5670",
        "smoking": "no",
        "takeaway": "yes"
      }
    },
    {
      "type": "node",
      "id": 4488106563,
      "lat": 12.9378082,
      "lon": 77.5579522,
      "tags": {
        "addr:city": "Bangalore",
        "addr:housenumber": "648",
        "addr:postcode": "560050",
        "addr:street": "10th Main Road, 5th Cross, 2nd Block, Near-Post Office Road, Banashankari 1st Stage",
        "name": "Arjuna Sports",
        "opening_hours": "10:00-22:00",
        "phone": "080 2691 4346",
        "shop": "sports"
      }
    },
    {
      "type": "node",
      "id": 4488404862,
      "lat": 12.9402812,
      "lon": 77.5643832,
      "tags": {
        "addr:city": "Bangalore",
        "addr:housenumber": "No.38/A",
        "addr:postcode": "560004",
        "addr:street": "3rd Main Road",
        "name": "My Style Family Beauty Parlour Saloon Spa",
        "opening_hours": "10:00-19:00",
        "phone": "097400 07553",
        "shop": "beauty"
      }
    },
    {
      "type": "node",
      "id": 4489407129,
      "lat": 12.9379298,
      "lon": 77.5570137,
      "tags": {
        "addr:city": "Bengaluru",
        "addr:housenumber": "7",
        "addr:postcode": "560050",
        "addr:street": "80 Feet Rd, Srinivasnagar, Banashankari",
        "name": "Winners Sports And Mementos",
        "opening_hours": "08:00-22:00",
        "phone": "+919738110190",
        "shop": "sports"
      }
    },
    {
      "type": "node",
      "id": 4489798302,
      "lat": 12.9300005,
      "lon": 77.5703092,
      "tags": {
        "addr:city": "Bengaluru,",
        "addr:housenumber": "4/12,",
        "addr:postcode": "560070",
        "addr:street": "14th Cross, K R Road, Near-SBI, Basavanagudi, Thyagaraja Nagar, Basavanagudi,  Karnataka",
        "leisure": "sports_centre",
        "name": "Auro's Gym",
        "opening_hours": "5:00-22:00",
        "phone": "099802 05293"
      }
    },
    {
      "type": "node",
      "id": 4489849370,
      "lat": 12.9428729,
      "lon": 77.5653972,
      "tags": {
        "addr:city": "Bangalore",
        "addr:postcode": "560019",
        "addr:street": "Mount Joy Road, Hanumanth Nagar, Gavipuram Extn, Basavanagudi, Bengalur",
        "name": "Karthik Cycle Store",
        "phone": "099805 02929",
        "shop": "sports"
      }
    },
    {
      "type": "node",
      "id": 4489855033,
      "lat": 12.9373987,
      "lon": 77.5582675,
      "tags": {
        "addr:city": "Bangalore",
        "addr:postcode": "560050",
        "addr:street": "80 Feet Rd, Srinivasnagar, Banashankari,",
        "name": "Cycle City",
        "phone": "094481 93498",
        "shop": "sports"
      }
    },
    {
      "type": "node",
      "id": 4506524892,
      "lat": 12.9399994,
      "lon": 77.5719477,
      "tags": {
        "addr:postcode": "560004",
        "addr:street": "Puttana Road",
        "amenity": "theatre",
        "name": "ಅಂತರಂಗ",
        "name:en": "Antharanga",
        "name:kn": "ಅಂತರಂಗ",
        "phone": "98866 24687",
        "website": "http://www.antharanga.in"
      }
    },
    {
      "type": "node",
      "id": 4701113489,
      "lat": 12.9314007,
      "lon": 77.5577461,
      "tags": {
        "addr:postcode": "560085",
        "amenity": "school",
        "name": "ಶ್ರೀ ಕೃಷ್ಣ ಪಿ ಯು ಕಾಲೇಜು",
        "name:en": "Sri Krishna PU College",
        "name:kn": "ಶ್ರೀ ಕೃಷ್ಣ ಪಿ ಯು ಕಾಲೇಜು"
      }
    },
    {
      "type": "node",
      "id": 4763212765,
      "lat": 12.9435344,
      "lon": 77.5654837,
      "tags": {
        "amenity": "atm",
        "brand": "Kotak Mahindra Bank",
        "brand:wikidata": "Q2040404",
        "name": "Kotak Mahindra Bank",
        "name:kn": "ಕೋಟಕ್ ಮಹಿಂದ್ರ ಬ್ಯಾಂಕ್",
        "operator": "Kotak Mahindra Bank",
        "operator:wikidata": "Q2040404"
      }
    },
    {
      "type": "node",
      "id": 4763212865,
      "lat": 12.9434351,
      "lon": 77.5655011,
      "tags": {
        "shop": "stationery"
      }
    },
    {
      "type": "node",
      "id": 4884891000,
      "lat": 12.9377734,
      "lon": 77.5690046,
      "tags": {
        "amenity": "place_of_worship",
        "name": "Ambabavani Temple",
        "name:kn": "ಅಂಬಭವಾನಿ",
        "religion": "hindu"
      }
    },
    {
      "type": "node",
      "id": 5234799278,
      "lat": 12.9416358,
      "lon": 77.562546,
      "tags": {
        "description": "Amaron Batteries",
        "name": "Tara Automobiles",
        "shop": "car_parts"
      }
    },
    {
      "type": "node",
      "id": 5234807918,
      "lat": 12.9292156,
      "lon": 77.5646498,
      "tags": {
        "amenity": "clinic",
        "healthcare": "clinic",
        "name": "City Health Care"
      }
    },
    {
      "type": "node",
      "id": 5249129421,
      "lat": 12.9334146,
      "lon": 77.5626612,
      "tags": {
        "amenity": "pharmacy",
        "name": "ಬಾಲಾಜಿ ಮೆಡಿಕಲ್ಸ್"
      }
    },
    {
      "type": "node",
      "id": 5306017407,
      "lat": 12.9434982,
      "lon": 77.5658798,
      "tags": {
        "brand": "HOPCOMS",
        "brand:wikidata": "Q22908959",
        "name": "HOPCOMS",
        "name:kn": "ಹಾಪ್ ಕಾಮ್ಸ್",
        "shop": "greengrocer"
      }
    },
    {
      "type": "node",
      "id": 5306017408,
      "lat": 12.9435035,
      "lon": 77.5657752,
      "tags": {
        "amenity": "toilets"
      }
    },
    {
      "type": "node",
      "id": 5306017409,
      "lat": 12.9435244,
      "lon": 77.5656706,
      "tags": {
        "amenity": "post_office"
      }
    },
    {
      "type": "node",
      "id": 5306017410,
      "lat": 12.9437583,
      "lon": 77.5665638,
      "tags": {
        "amenity": "restaurant",
        "name": "Dakshin Kitchen"
      }
    },
    {
      "type": "node",
      "id": 5306017411,
      "lat": 12.9437988,
      "lon": 77.5665812,
      "tags": {
        "amenity": "restaurant",
        "name": "Chinese Kitchen"
      }
    },
    {
      "type": "node",
      "id": 5530812454,
      "lat": 12.9397956,
      "lon": 77.5631777,
      "tags": {
        "shop": "supermarket"
      }
    },
    {
      "type": "node",
      "id": 6937814427,
      "lat": 12.9376087,
      "lon": 77.5666429,
      "tags": {
        "addr:district": "Bengaluru Urban",
        "addr:full": "#118, 5 Th Main , 7Th Cross, N R Colony , Bull Temple Road",
        "addr:postcode": "560019",
        "addr:state": "Karnataka",
        "amenity": "hospital",
        "name": "Balaji Hospital and Gastroenterology Center",
        "source": "OpenGovernmentData"
      }
    },
    {
      "type": "node",
      "id": 6938466198,
      "lat": 12.9377943,
      "lon": 77.5650564,
      "tags": {
        "addr:city": "Bengaluru",
        "addr:district": "Bengaluru Urban",
        "addr:full": "89, 7th cross, N R Colony, Near Bull temple",
        "addr:postcode": "560050",
        "addr:state": "Karnataka",
        "amenity": "clinic",
        "email": "info@karthiknetralaya.com",
        "healthcare": "hospital",
        "healthcare:speciality": "ophthalmology",
        "name": "Karthik Nethralaya",
        "operator:type": "private",
        "source": "OpenGovernmentData",
        "website": "https://www.karthiknetralaya.com/"
      }
    },
    {
      "type": "node",
      "id": 6938775854,
      "lat": 12.9406698,
      "lon": 77.5644596,
      "tags": {
        "addr:district": "Bengaluru Urban",
        "addr:full": "No.10/4 & 10/5, 3Road Main Road, Hanumanthanagar",
        "addr:postcode": "560019",
        "addr:state": "Karnataka",
        "amenity": "hospital",
        "name": "Vishwabharathi Hospital Pvt. Ltd",
        "source": "OpenGovernmentData"
      }
    },
    {
      "type": "node",
      "id": 6938775855,
      "lat": 12.9404548,
      "lon": 77.5578493,
      "tags": {
        "addr:district": "Bengaluru Urban",
        "addr:full": "No 519/34, 2nd Cross 10Th Main, Bsk 1st Stage Banashankari",
        "addr:postcode": "560050",
        "addr:state": "Karnataka",
        "amenity": "hospital",
        "name": "Sunetra Eye Hospital, Bengaluru Urban",
        "source": "OpenGovernmentData"
      }
    },
    {
      "type": "node",
      "id": 6944236562,
      "lat": 12.9296852,
      "lon": 77.5634135,
      "tags": {
        "addr:district": "Bengaluru Urban",
        "addr:full": "No-3777, 13Th Cross Attimabbe Road, B. S. K ,2nd Stage",
        "addr:postcode": "560070",
        "addr:state": "Karnataka",
        "amenity": "clinic",
        "name": "Prashanth Nursing Home",
        "source": "OpenGovernmentData"
      }
    },
    {
      "type": "node",
      "id": 6947701108,
      "lat": 12.9421036,
      "lon": 77.5584649,
      "tags": {
        "addr:district": "Bengaluru Urban",
        "addr:full": "26, 13Th `A` Main, 50 Feet Road, (Near A.P.S.R.T.C. Booking Counter) Hanumanthanagar",
        "addr:postcode": "560019",
        "addr:state": "Karnataka",
        "amenity": "clinic",
        "name": "Vignesha Ayurvedic Clinic",
        "source": "OpenGovernmentData"
      }
    },
    {
      "type": "node",
      "id": 6948627241,
      "lat": 12.9403953,
      "lon": 77.558544,
      "tags": {
        "addr:district": "Bengaluru Urban",
        "addr:full": "# 513, 8Th Main, 2nd Cross, Dsk 1st Stage, 2nd Block",
        "addr:postcode": "560050",
        "addr:state": "Karnataka",
        "amenity": "clinic",
        "name": "Varna Nursing Home",
        "source": "OpenGovernmentData"
      }
    },
    {
      "type": "node",
      "id": 7016691457,
      "lat": 12.9415972,
      "lon": 77.5643731,
      "tags": {
        "amenity": "atm",
        "brand": "Canara Bank",
        "brand:en": "Canara Bank",
        "brand:hi": "केनरा बैंक",
        "brand:kn": "ಕೆನರಾ ಬ್ಯಾಂಕ್",
        "brand:pa": "ਕੇਨਰਾ ਬੈਂਕ",
        "brand:pnb": "کینرا بینک",
        "brand:ur": "کینرا بینک",
        "brand:wikidata": "Q2003777",
        "cash_in": "no",
        "drive_through": "no",
        "name": "Canara Bank",
        "name:en": "Canara Bank",
        "name:hi": "केनरा बैंक",
        "name:kn": "ಕೆನರಾ ಬ್ಯಾಂಕ್",
        "name:pa": "ਕੇਨਰਾ ਬੈਂਕ",
        "name:pnb": "کینرا بینک",
        "name:ur": "کینرا بینک",
        "operator": "Canara Bank",
        "operator:wikidata": "Q2003777"
      }
    },
    {
      "type": "node",
      "id": 7018761629,
      "lat": 12.9379662,
      "lon": 77.568428,
      "tags": {
        "addr:city": "Bengaluru",
        "addr:street": "Subbrama Chetty Road",
        "amenity": "pharmacy",
        "brand": "Apollo Pharmacy",
        "brand:wikidata": "Q62562612",
        "dispensing": "yes",
        "drive_through": "no",
        "healthcare": "pharmacy",
        "name": "Apollo Pharmacy",
        "name:kn": "ಅಪೋಲೋ ಫಾರ್ಮಸಿ",
        "operator": "Apollo Pharmacy"
      }
    },
    {
      "type": "node",
      "id": 7044834775,
      "lat": 12.9422487,
      "lon": 77.568503,
      "tags": {
        "leisure": "fitness_station"
      }
    },
    {
      "type": "node",
      "id": 7281512285,
      "lat": 12.9417567,
      "lon": 77.5687277,
      "tags": {
        "amenity": "place_of_worship",
        "name": "Bull Temple",
        "religion": "hindu"
      }
    },
    {
      "type": "node",
      "id": 7576958039,
      "lat": 12.9417439,
      "lon": 77.5601782,
      "tags": {
        "addr:district": "Bengaluru Urban",
        "addr:full": "50 Feet Road, Basavanagadi, Banashankari, Bengaluru",
        "addr:postcode": "560019",
        "addr:state": "Karnataka",
        "amenity": "hospital",
        "name": "Sumanjara Hospital",
        "source": "Local Knowledge"
      }
    },
    {
      "type": "node",
      "id": 7576958058,
      "lat": 12.9407834,
      "lon": 77.5713263,
      "tags": {
        "addr:district": "Bengaluru Urban",
        "addr:full": "DVG Road, Basavanagudi, Bengaluru",
        "addr:postcode": "560004",
        "addr:state": "Karnataka",
        "amenity": "clinic",
        "name": "Shubha Clinic",
        "source": "Local Knowledge"
      }
    },
    {
      "type": "node",
      "id": 7576958060,
      "lat": 12.940404,
      "lon": 77.5580361,
      "tags": {
        "addr:district": "Bengaluru Urban",
        "addr:full": "SBM Colony, Banashankari, Bengaluru",
        "addr:postcode": "560050",
        "addr:state": "Karnataka",
        "amenity": "hospital",
        "name": "Verna Hospital",
        "source": "Local Knowledge"
      }
    },
    {
      "type": "node",
      "id": 7576958068,
      "lat": 12.9415883,
      "lon": 77.5641917,
      "tags": {
        "addr:district": "Bengaluru Urban",
        "addr:full": "Hanumanthnagar, Banashankari, Bengaluru",
        "addr:postcode": "560019",
        "addr:state": "Karnataka",
        "amenity": "hospital",
        "name": "Jeevini Sarvodaya Hospital",
        "source": "Local Knowledge"
      }
    },
    {
      "type": "node",
      "id": 7576958073,
      "lat": 12.94256,
      "lon": 77.561875,
      "tags": {
        "addr:district": "Bengaluru Urban",
        "addr:full": "Banashankari, Bengaluru",
        "addr:postcode": "560019",
        "addr:state": "Karnataka",
        "amenity": "clinic",
        "name": "Raghu Homeopathy",
        "source": "Local Knowledge"
      }
    },
    {
      "type": "node",
      "id": 7576958087,
      "lat": 12.940859,
      "lon": 77.570214,
      "tags": {
        "addr:district": "Bengaluru Urban",
        "addr:full": "Basavanagudi, Bengaluru",
        "addr:postcode": "560004",
        "addr:state": "Karnataka",
        "amenity": "clinic",
        "name": "Jubilee Nursing Home",
        "source": "Local Knowledge"
      }
    },
    {
      "type": "node",
      "id": 7576958109,
      "lat": 12.9416358,
      "lon": 77.5629853,
      "tags": {
        "addr:district": "Bengaluru Urban",
        "addr:full": "Mount Joy Extension, Hanumanthnagar, Banashankari, Bengaluru",
        "addr:postcode": "560019",
        "addr:state": "Karnataka",
        "amenity": "clinic",
        "name": "Vijaya Nethralaya",
        "source": "Local Knowledge"
      }
    },
    {
      "type": "node",
      "id": 7576958119,
      "lat": 12.939257,
      "lon": 77.555911,
      "tags": {
        "addr:district": "Bengaluru Urban",
        "addr:full": "Banashankari, Banglore",
        "addr:postcode": "560050",
        "addr:state": "Karnataka",
        "amenity": "clinic",
        "name": "Parimala Childrens Nursing Home",
        "source": "Local Knowledge"
      }
    },
    {
      "type": "node",
      "id": 7579924704,
      "lat": 12.9295017,
      "lon": 77.5635313,
      "tags": {
        "addr:district": "Bengaluru Urban",
        "addr:full": "Banashankari, Bengaluru",
        "addr:postcode": "560070",
        "addr:state": "Karnataka",
        "amenity": "clinic",
        "name": "Prashanth Nursing Home",
        "source": "Local Knowledge"
      }
    },
    {
      "type": "node",
      "id": 7579924732,
      "lat": 12.9334096,
      "lon": 77.5622345,
      "tags": {
        "addr:district": "Bengaluru Urban",
        "addr:full": "Vidyapeeta Layout, Basavanagudi, Bengaluru",
        "addr:postcode": "560050",
        "addr:state": "Karnataka",
        "amenity": "hospital",
        "name": "Bharathi Hospitals",
        "source": "Local Knowledge"
      }
    },
    {
      "type": "node",
      "id": 8188058800,
      "lat": 12.9276526,
      "lon": 77.5620661,
      "tags": {
        "addr:full": "1112, 30th Main Rd, Siddanna Layout, Banashankari Stage II, Banashankari, Bengaluru, Karnataka",
        "addr:state": "Karnataka",
        "amenity": "restaurant",
        "diet:vegetarian": "only",
        "name": "Thamboola Fine Dine Vegetarian Restaurant"
      }
    },
    {
      "type": "node",
      "id": 8408521644,
      "lat": 12.9378288,
      "lon": 77.5692035,
      "tags": {
        "name": "Nandini Milk Booth",
        "name:kn": "ನಂದಿನಿ ಹಾಲಿನ ಅಂಗಡಿ",
        "shop": "dairy"
      }
    },
    {
      "type": "node",
      "id": 8727014188,
      "lat": 12.9337223,
      "lon": 77.5623383,
      "tags": {
        "addr:city": "Bengaluru",
        "addr:housenumber": "408",
        "addr:postcode": "560028",
        "addr:street": "2nd main Vidya Peetha Layout",
        "amenity": "place_of_worship",
        "name": "Sri SIdhi Subrahmanya Temple",
        "religion": "hindu",
        "service_times": "Subrahmanya Temple"
      }
    },
    {
      "type": "node",
      "id": 8727014189,
      "lat": 12.9322882,
      "lon": 77.5641817,
      "tags": {
        "addr:city": "Bengaluru",
        "addr:postcode": "560085",
        "addr:street": "CHENNAMMANAKERE main road",
        "amenity": "bank",
        "atm": "yes",
        "brand": "State Bank of India",
        "brand:wikidata": "Q1340361",
        "name": "State Bank of India",
        "name:kn": "ಎಸ್ ಬಿ ಐ",
        "opening_hours": "Mo-Su 06:00-22:00",
        "short_name": "SBI"
      }
    },
    {
      "type": "node",
      "id": 8727018101,
      "lat": 12.9357431,
      "lon": 77.5613135,
      "tags": {
        "amenity": "atm",
        "brand": "State Bank of India",
        "brand:wikidata": "Q1340361",
        "currency:INR": "yes",
        "name": "State Bank of India",
        "name:kn": "ಎಸ್ ಬಿ ಐ",
        "network": "State Bank of India",
        "opening_hours": "Mo-Su 06:00-22:00",
        "operator": "State Bank of India",
        "operator:wikidata": "Q1340361",
        "short_name": "SBI"
      }
    },
    {
      "type": "node",
      "id": 8727018102,
      "lat": 12.9356558,
      "lon": 77.5609792,
      "tags": {
        "amenity": "atm",
        "currency:INR": "yes",
        "network": "Andhra Bank",
        "operator": "Andhra Bank ATM"
      }
    },
    {
      "type": "node",
      "id": 8727018103,
      "lat": 12.9363701,
      "lon": 77.561999,
      "tags": {
        "amenity": "place_of_worship",
        "name": "Narasimha Swamy Temple",
        "opening_hours:covid19": "closed",
        "religion": "hindu"
      }
    },
    {
      "type": "node",
      "id": 9134314453,
      "lat": 12.9398699,
      "lon": 77.5624828,
      "tags": {
        "amenity": "place_of_worship",
        "name": "Kumaraswami temple"
      }
    },
    {
      "type": "node",
      "id": 9709504787,
      "lat": 12.9421932,
      "lon": 77.5703658,
      "tags": {
        "name": "Nandini Milk Parlour",
        "shop": "dairy"
      }
    },
    {
      "type": "node",
      "id": 9709504794,
      "lat": 12.9423069,
      "lon": 77.5705221,
      "tags": {
        "amenity": "fast_food",
        "cuisine": "regional",
        "name": "by2coffee",
        "takeaway": "yes"
      }
    },
    {
      "type": "node",
      "id": 9709504795,
      "lat": 12.942301,
      "lon": 77.570453,
      "tags": {
        "amenity": "fast_food",
        "cuisine": "regional",
        "name": "Bombay and Kolkata Chats"
      }
    },
    {
      "type": "node",
      "id": 10823514250,
      "lat": 12.9376767,
      "lon": 77.5717354,
      "tags": {
        "amenity": "drinking_water"
      }
    },
    {
      "type": "node",
      "id": 10840493105,
      "lat": 12.9352842,
      "lon": 77.567491,
      "tags": {
        "addr:postcode": "560028",
        "addr:street": "4th Main Road",
        "name": "Kumar Medical Store",
        "opening_hours": "Mo-Su 10:00-13:00, 16:00-21:00",
        "shop": "chemist"
      }
    },
    {
      "type": "node",
      "id": 11201313858,
      "lat": 12.9425184,
      "lon": 77.5674319,
      "tags": {
        "amenity": "place_of_worship",
        "check_date": "2023-09-19",
        "name": "Venkateshwara Swamy Temple",
        "religion": "hindu"
      }
    },
    {
      "type": "node",
      "id": 11215379268,
      "lat": 12.9440476,
      "lon": 77.5680376,
      "tags": {
        "check_date": "2023-09-24",
        "name": "Desire Naturals",
        "shop": "confectionery"
      }
    },
    {
      "type": "node",
      "id": 11215840056,
      "lat": 12.9435636,
      "lon": 77.5677399,
      "tags": {
        "check_date": "2025-01-01",
        "name": "Veggo Farms",
        "shop": "dairy"
      }
    },
    {
      "type": "node",
      "id": 11215840059,
      "lat": 12.9433205,
      "lon": 77.5677668,
      "tags": {
        "amenity": "cafe",
        "name": "Juice Junction"
      }
    },
    {
      "type": "node",
      "id": 11215840060,
      "lat": 12.9433499,
      "lon": 77.5677507,
      "tags": {
        "name": "The Charisma Bridal Makeover",
        "shop": "beauty"
      }
    },
    {
      "type": "node",
      "id": 11314428137,
      "lat": 12.9404688,
      "lon": 77.5713638,
      "tags": {
        "amenity": "cafe",
        "cafe": "board_game",
        "contact:instagram": "board4bored_official",
        "name": "Board 4 Bored"
      }
    },
    {
      "type": "node",
      "id": 12208448686,
      "lat": 12.9370597,
      "lon": 77.5731459,
      "tags": {
        "amenity": "cafe",
        "contact:instagram": "brewinguntoldstories",
        "cuisine": "coffee_shop",
        "name": "Brewing Untold Stories"
      }
    },
    {
      "type": "node",
      "id": 12466442939,
      "lat": 12.9439818,
      "lon": 77.5680418,
      "tags": {
        "check_date": "2025-01-01",
        "name": "Parshwantha Traders",
        "shop": "rice"
      }
    },
    {
      "type": "node",
      "id": 12466444176,
      "lat": 12.9434263,
      "lon": 77.5677477,
      "tags": {
        "check_date": "2025-01-01",
        "name": "Sreenivasa Brahmins Bakery",
        "shop": "bakery"
      }
    },
    {
      "type": "node",
      "id": 12466444177,
      "lat": 12.9433441,
      "lon": 77.5677341,
      "tags": {
        "check_date": "2025-01-01",
        "name": "Hara Tattooz",
        "shop": "tattoo"
      }
    },
    {
      "type": "node",
      "id": 12546212501,
      "lat": 12.9380412,
      "lon": 77.5692291,
      "tags": {
        "amenity": "restaurant",
        "name": "Uttara Karnatakada Gama Gama"
      }
    },
    {
      "type": "node",
      "id": 12632035859,
      "lat": 12.9289114,
      "lon": 77.5670627,
      "tags": {
        "amenity": "restaurant",
        "name": "Meloghrano"
      }
    },
    {
      "type": "node",
      "id": 12944464149,
      "lat": 12.9401894,
      "lon": 77.5656135,
      "tags": {
        "amenity": "fixme",
        "check_date": "2025-06-22",
        "fixme": "type",
        "fixme:type": "auditorium",
        "internet_access": "no",
        "name": "BMS Hostel Auditorium",
        "payment:cards": "no",
        "payment:cash": "yes",
        "payment:credit_cards": "no",
        "payment:debit_cards": "no",
        "wheelchair": "no"
      }
    },
    {
      "type": "node",
      "id": 12944464150,
      "lat": 12.9399801,
      "lon": 77.5654125,
      "tags": {
        "amenity": "fixme",
        "check_date": "2025-06-22",
        "fixme": "type",
        "fixme:type": "hostel mess",
        "name": "BMS Hostel Mess"
      }
    },
    {
      "type": "node",
      "id": 13109571372,
      "lat": 12.929944,
      "lon": 77.5687446,
      "tags": {
        "addr:city": "Bengaluru,",
        "addr:district": "bengaluru",
        "addr:housenumber": "14th Cross Rd",
        "addr:postcode": "560070",
        "addr:street": "Shastry Nagar Road 14th cross",
        "amenity": "restaurant",
        "contact:facebook": "https://www.facebook.com/navodayamilitaryhotel/",
        "cuisine": "indian;chinese;brunch;diner",
        "delivery": "yes",
        "description": "Navodaya Military Hotel - non veg restaurant in Thyagaraja Nagar, Military Hotel in Thyagaraja Nagar, Bengaluru, brings you the rich taste of authentic military-style and naati-style non-veg meals.",
        "diet:chicken": "yes",
        "diet:local": "yes",
        "diet:non-vegetarian": "yes",
        "diet:organic": "yes",
        "email": "navodayamilitaryhotel@gmail.com",
        "name": "Navodaya Military Hotel",
        "phone": "+919731497318",
        "toilets": "yes",
        "website": "https://visitmysite.in/navodaya-military-hotel/"
      }
    },
    {
      "type": "way",
      "id": 133117440,
      "center": {
        "lat": 12.9423054,
        "lon": 77.5666933
      },
      "tags": {
        "amenity": "library",
        "building": "yes",
        "check_date": "2025-06-22",
        "name": "BMS College Of Architecture",
        "name:kn": "ಬಿ ಎಂ ಎಸ್ ವಾಸ್ತುಶಿಲ್ಪ ಕಾಲೇಜು",
        "operator:type": "private"
      }
    },
    {
      "type": "way",
      "id": 133144337,
      "center": {
        "lat": 12.9374012,
        "lon": 77.5594608
      },
      "tags": {
        "leisure": "stadium",
        "name": "Donkana Field",
        "name:kn": "ಕೊಂಕಣ ಮೈದಾನ",
        "sport": "kabbadi,Cricket;tennis;volleyball"
      }
    },
    {
      "type": "way",
      "id": 162259001,
      "center": {
        "lat": 12.9278501,
        "lon": 77.5641074
      },
      "tags": {
        "amenity": "public_building",
        "building": "yes",
        "name": "BSNL Custom Care Center"
      }
    },
    {
      "type": "way",
      "id": 162259161,
      "center": {
        "lat": 12.9310077,
        "lon": 77.5630314
      },
      "tags": {
        "leisure": "track",
        "name": "Roller Skating Track"
      }
    },
    {
      "type": "way",
      "id": 162259366,
      "center": {
        "lat": 12.9315108,
        "lon": 77.5636909
      },
      "tags": {
        "addr:city": "Bangalore",
        "addr:postcode": "560085",
        "addr:street": "Chennammanakere main road",
        "leisure": "park",
        "name": "SSM park (Chennammanakere park)",
        "name:kn": "ಚನ್ನಮ್ಮನಕೆರೆ ಅಚ್ಚುಕಟ್ಟು",
        "opening_hours": "sunrise-sunset",
        "opening_hours:covid19": "Park mainly for walking, but small portion also has play equipments for kids to play",
        "operator": "SSM School"
      }
    },
    {
      "type": "way",
      "id": 162389318,
      "center": {
        "lat": 12.9413073,
        "lon": 77.5664897
      },
      "tags": {
        "access": "customers",
        "amenity": "parking",
        "fee": "no",
        "name": "BMS College Parking",
        "parking": "surface"
      }
    },
    {
      "type": "way",
      "id": 162389319,
      "center": {
        "lat": 12.9411519,
        "lon": 77.5665825
      },
      "tags": {
        "leisure": "park"
      }
    },
    {
      "type": "way",
      "id": 162871259,
      "center": {
        "lat": 12.941891,
        "lon": 77.5665178
      },
      "tags": {
        "leisure": "park"
      }
    },
    {
      "type": "way",
      "id": 172845845,
      "center": {
        "lat": 12.9415239,
        "lon": 77.5659049
      },
      "tags": {
        "amenity": "college",
        "name": "BMS College of Engineering",
        "name:kn": "ಬಿಎಂಎಸ್ ತಾಂತ್ರಿಕ ಮಹಾವಿದ್ಯಾಲಯ",
        "wikidata": "Q4833841",
        "wikimedia_commons": "Category:B. M. Sreenivasaiah College of Engineering",
        "wikipedia": "en:B.M.S. College of Engineering"
      }
    },
    {
      "type": "way",
      "id": 172845875,
      "center": {
        "lat": 12.9402185,
        "lon": 77.5623647
      },
      "tags": {
        "amenity": "place_of_worship",
        "landuse": "religious",
        "religion": "hindu"
      }
    },
    {
      "type": "way",
      "id": 172845880,
      "center": {
        "lat": 12.9378089,
        "lon": 77.5583328
      },
      "tags": {
        "amenity": "college"
      }
    },
    {
      "type": "way",
      "id": 224321403,
      "center": {
        "lat": 12.937686,
        "lon": 77.5589287
      },
      "tags": {
        "leisure": "park",
        "name": "Hanumanthanagar Park",
        "name:kn": "ಹನುಮಂತನಗರ ಉದ್ಯಾನವನ"
      }
    },
    {
      "type": "way",
      "id": 224445485,
      "center": {
        "lat": 12.9372234,
        "lon": 77.5588279
      },
      "tags": {
        "amenity": "library",
        "building": "yes",
        "name": "E-Library",
        "operator": "BBMP"
      }
    },
    {
      "type": "way",
      "id": 289694897,
      "center": {
        "lat": 12.9267695,
        "lon": 77.5624631
      },
      "tags": {
        "addr:city": "Bangalore",
        "addr:street": "30th Main road, Banashankari 2nd Stage",
        "amenity": "college",
        "name": "KIMS - Kempegowda Institute of Medical Sciences",
        "name:kn": "ಕೆಂಪೆಗೌಡ ವೈದ್ಯಕೀಯ ವಿಜ್ಞಾನಗಳ ಸಂಸ್ಥೆ"
      }
    },
    {
      "type": "way",
      "id": 299877333,
      "center": {
        "lat": 12.9421433,
        "lon": 77.5692538
      },
      "tags": {
        "fixme": "borders",
        "leisure": "park",
        "name": "Bugle Rock Park",
        "name:kn": "ಕಹಳೆಬಂಡೆ ಉದ್ಯಾನವನ",
        "wikidata": "Q4986214",
        "wikimedia_commons": "Category:Bugle Rock",
        "wikipedia": "en:Bugle Rock"
      }
    },
    {
      "type": "way",
      "id": 299877334,
      "center": {
        "lat": 12.9418582,
        "lon": 77.5679447
      },
      "tags": {
        "addr:street": "Bull Temple Road",
        "alt_name": "Basava Temple",
        "amenity": "place_of_worship",
        "building": "temple",
        "name": "Shri Doddabasavanna Temple",
        "name:kn": "ಶ್ರೀ ದೊಡ್ಡಬಸವಣ್ಣ ದೇವಸ್ಥಾನ",
        "religion": "hindu"
      }
    },
    {
      "type": "way",
      "id": 299877335,
      "center": {
        "lat": 12.942878,
        "lon": 77.5682145
      },
      "tags": {
        "addr:street": "Bull Temple Road",
        "amenity": "place_of_worship",
        "building": "temple",
        "name": "Dodda Ganesha Temple",
        "name:kn": "ದೊಡ್ಡ ಗಣೇಶ ಗುಡಿ",
        "religion": "hindu",
        "wikipedia": "en:Dodda Basavana Gudi"
      }
    },
    {
      "type": "way",
      "id": 306826547,
      "center": {
        "lat": 12.9294355,
        "lon": 77.564005
      },
      "tags": {
        "addr:district": "Bengaluru Urban",
        "addr:full": "Banashankari, Bengaluru",
        "addr:postcode": "560070",
        "addr:state": "Karnataka",
        "amenity": "hospital",
        "building": "hospital",
        "name": "Pro MED Hospital",
        "name:kn": "ಪ್ರೋಮೆಡ್‌ ಆಸ್ಪತ್ರೆ",
        "source": "Local Knowledge"
      }
    },
    {
      "type": "way",
      "id": 327061225,
      "center": {
        "lat": 12.9400303,
        "lon": 77.5687111
      },
      "tags": {
        "leisure": "pitch"
      }
    },
    {
      "type": "way",
      "id": 335739977,
      "center": {
        "lat": 12.9399725,
        "lon": 77.5622203
      },
      "tags": {
        "amenity": "place_of_worship",
        "building": "yes",
        "man_made": "reservoir_covered",
        "religion": "hindu"
      }
    },
    {
      "type": "way",
      "id": 346779222,
      "center": {
        "lat": 12.9275688,
        "lon": 77.5635922
      },
      "tags": {
        "amenity": "place_of_worship",
        "building": "yes",
        "name": "Banashankari Raghavendra Swamy Mutt",
        "name:kn": "ಬನಶಂಕರಿ ರಾಘವೇಂದ್ರ ಸ್ವಾಮಿ ಮಠ",
        "religion": "hindu"
      }
    },
    {
      "type": "way",
      "id": 347079448,
      "center": {
        "lat": 12.9337875,
        "lon": 77.5609759
      },
      "tags": {
        "addr:city": "Bengaluru",
        "addr:district": "Bengaluru Urban",
        "addr:housenumber": "440",
        "addr:postcode": "560050",
        "addr:street": "2nd Cross Rd, Vidyapeeta Layout, Banashankari",
        "amenity": "place_of_worship",
        "building": "yes",
        "name": "Udupi Krishna Raghavendra temple, Vidyapeeta",
        "note": "Shri Madhwacharya & Shri Raghavendra Swamy on either sides of Shree Krishna idol. Also houses the office to register all the services (sevas).",
        "religion": "hindu"
      }
    },
    {
      "type": "way",
      "id": 347229435,
      "center": {
        "lat": 12.9416356,
        "lon": 77.5619028
      },
      "tags": {
        "building": "yes",
        "name": "Cauvery Furniture",
        "shop": "furniture"
      }
    },
    {
      "type": "way",
      "id": 347437479,
      "center": {
        "lat": 12.9433275,
        "lon": 77.5682752
      },
      "tags": {
        "addr:street": "Bull Temple Road",
        "amenity": "townhall",
        "building": "yes",
        "name": "Sri Dharmasthala Manjunathaswamy Kalyana Mantapa",
        "name:kn": "ಶ್ರೀ ಮಂಜುನಾಥಸ್ವಾಮಿ ಕಲ್ಯಾಣ ಮಂಟಪ"
      }
    },
    {
      "type": "way",
      "id": 347564363,
      "center": {
        "lat": 12.9380404,
        "lon": 77.5686782
      },
      "tags": {
        "addr:city": "Bengaluru",
        "addr:street": "Subbrama Chetty Road",
        "amenity": "restaurant",
        "building": "yes",
        "cuisine": "regional",
        "delivery": "no",
        "description": "Onion and Garlic not used in food preparation; Sambar not provided; Chutney only",
        "name": "South Kitchen",
        "name:kn": "ಸೌತ್ ಕಿಚನ್",
        "opening_hours": "06:00-12:00,16:00-21:00",
        "smoking": "no",
        "takeaway": "yes"
      }
    },
    {
      "type": "way",
      "id": 348284790,
      "center": {
        "lat": 12.9392713,
        "lon": 77.5722594
      },
      "tags": {
        "addr:city": "Bangalore",
        "addr:housenumber": "167/B",
        "addr:postcode": "560004",
        "addr:street": "Subbarama ChettyRoad,Basavanagudi",
        "amenity": "bank",
        "brand": "Union Bank of India",
        "brand:wikidata": "Q2004078",
        "building": "yes",
        "building:levels": "2",
        "name": "Union Bank of India",
        "name:kn": "ಕಾರ್ಪೋರೇಶನ್ ಬ್ಯಾಂಕ್"
      }
    },
    {
      "type": "way",
      "id": 349819116,
      "center": {
        "lat": 12.9411519,
        "lon": 77.5605776
      },
      "tags": {
        "amenity": "place_of_worship",
        "building": "yes",
        "name": "Shanimahatma Temple",
        "name:kn": "ಶನಿ ಮಹಾತ್ಮ ದೇವಸ್ಥಾನ",
        "religion": "hindu"
      }
    },
    {
      "type": "way",
      "id": 350555620,
      "center": {
        "lat": 12.93464,
        "lon": 77.5554274
      },
      "tags": {
        "amenity": "place_of_worship",
        "building": "yes",
        "name": "Renuka Yellamma Temple",
        "name:kn": "ರೇಣುಕಾ ಯಲ್ಲಮ್ಮ ದೇವಸ್ಥಾನ",
        "religion": "hindu"
      }
    },
    {
      "type": "way",
      "id": 350572306,
      "center": {
        "lat": 12.9378721,
        "lon": 77.5674301
      },
      "tags": {
        "amenity": "restaurant",
        "building": "yes",
        "name": "Kumara Bhavana",
        "name:kn": "ಕುಮಾರ ಭವನ"
      }
    },
    {
      "type": "way",
      "id": 351135758,
      "center": {
        "lat": 12.9355631,
        "lon": 77.5617033
      },
      "tags": {
        "addr:city": "Bengaluru",
        "amenity": "cinema",
        "building": "yes",
        "name": "Chandrodaya Theatre",
        "name:kn": "ಚಂದ್ರೋದಯ ಚಿತ್ರಮಂದಿರ",
        "screen": "1"
      }
    },
    {
      "type": "way",
      "id": 351163480,
      "center": {
        "lat": 12.9430447,
        "lon": 77.567454
      },
      "tags": {
        "amenity": "events_venue",
        "building": "yes",
        "name": "Sri Nijaguna Kshetra"
      }
    },
    {
      "type": "way",
      "id": 352455939,
      "center": {
        "lat": 12.937797,
        "lon": 77.5704139
      },
      "tags": {
        "amenity": "place_of_worship",
        "building": "yes",
        "denomination": "hindu",
        "name": "Raghavendra Swamy Temple",
        "name:kn": "ರಾಘವೇಂದ್ರ ಸ್ವಾಮಿ ದೇವಸ್ಥಾನ",
        "religion": "hindu"
      }
    },
    {
      "type": "way",
      "id": 362907458,
      "center": {
        "lat": 12.9375529,
        "lon": 77.5690154
      },
      "tags": {
        "designation": "BBMP Park",
        "leisure": "park"
      }
    },
    {
      "type": "way",
      "id": 362907846,
      "center": {
        "lat": 12.9378191,
        "lon": 77.5714966
      },
      "tags": {
        "leisure": "park",
        "name": "Shamanna Park",
        "name:kn": "ಶಾಮಣ್ಣ ಉದ್ಯಾನವನ"
      }
    },
    {
      "type": "way",
      "id": 490824219,
      "center": {
        "lat": 12.9380703,
        "lon": 77.569026
      },
      "tags": {
        "addr:city": "Bengaluru",
        "addr:street": "Subbrama Chetty Road",
        "amenity": "bus_station",
        "building": "yes",
        "bus": "yes",
        "internet_access": "no",
        "name": "N. R. Colony Bus Station",
        "name:kn": "ಎನ್.  ಆರ್.  ಕಾಲೋನಿ ಬಸ್ ನಿಲ್ದಾಣ",
        "operator": "BMTC",
        "public_transport": "station"
      }
    },
    {
      "type": "way",
      "id": 496821816,
      "center": {
        "lat": 12.9377267,
        "lon": 77.5697859
      },
      "tags": {
        "amenity": "hospital",
        "building": "yes",
        "healthcare": "hospital",
        "name": "Government Maternity Hospital",
        "name:kn": "ಸರಕಾರಿ ಹೆರಿಗೆ ಆಸ್ಪತ್ರೆ"
      }
    },
    {
      "type": "way",
      "id": 525505250,
      "center": {
        "lat": 12.9377938,
        "lon": 77.5706994
      },
      "tags": {
        "addr:city": "Bangalore",
        "amenity": "place_of_worship",
        "building": "yes",
        "denomination": "hindu",
        "name": "Sri Rama Temple",
        "name:kn": "ಶ್ರೀ ರಾಮ ದೇವಸ್ಥಾನ",
        "religion": "hindu"
      }
    },
    {
      "type": "way",
      "id": 525506839,
      "center": {
        "lat": 12.9408006,
        "lon": 77.5689519
      },
      "tags": {
        "addr:city": "Bengaluru",
        "addr:postcode": "560004",
        "addr:street": "Mallikarjuna Temple St, Basavanagudi",
        "amenity": "place_of_worship",
        "building": "yes",
        "name": "Shri Mallikarjuna Swamy Devasthana",
        "religion": "hindu"
      }
    },
    {
      "type": "way",
      "id": 687319732,
      "center": {
        "lat": 12.9413364,
        "lon": 77.5674679
      },
      "tags": {
        "addr:district": "Bengaluru Urban",
        "addr:full": "618, Sri Mallikarjuna Swamy Temple St, N.R. Colony",
        "addr:postcode": "560019",
        "addr:state": "Karnataka",
        "amenity": "hospital",
        "name": "BMS Hospital",
        "source": "OpenGovernmentData"
      }
    },
    {
      "type": "way",
      "id": 687319737,
      "center": {
        "lat": 12.9400098,
        "lon": 77.5677654
      },
      "tags": {
        "addr:street": "Bull Temple Road",
        "amenity": "school",
        "name": "APS Public School",
        "name:kn": "ಎಪಿಎಸ್ ಪಬ್ಲಿಕ್ ಶಾಲೆ"
      }
    },
    {
      "type": "way",
      "id": 750407962,
      "center": {
        "lat": 12.9377356,
        "lon": 77.5646429
      },
      "tags": {
        "amenity": "post_office",
        "building": "yes",
        "name": "Ashokanagara Post Office",
        "name:kn": "ಅಶೋಕನಗರ ಅಂಚೆ ಕಛೇರಿ",
        "operator": "India Post",
        "operator:wikidata": "Q3519720"
      }
    },
    {
      "type": "way",
      "id": 1134091914,
      "center": {
        "lat": 12.9399324,
        "lon": 77.5624801
      },
      "tags": {
        "amenity": "place_of_worship",
        "religion": "hindu"
      }
    },
    {
      "type": "way",
      "id": 1163783145,
      "center": {
        "lat": 12.9371459,
        "lon": 77.5691968
      },
      "tags": {
        "amenity": "marketplace"
      }
    },
    {
      "type": "way",
      "id": 1163783146,
      "center": {
        "lat": 12.9376192,
        "lon": 77.569067
      },
      "tags": {
        "leisure": "playground"
      }
    },
    {
      "type": "way",
      "id": 1163783152,
      "center": {
        "lat": 12.9378158,
        "lon": 77.5716137
      },
      "tags": {
        "leisure": "playground"
      }
    },
    {
      "type": "way",
      "id": 1203069046,
      "center": {
        "lat": 12.9447456,
        "lon": 77.5631118
      },
      "tags": {
        "amenity": "place_of_worship",
        "name": "Rama Anjaneya temple",
        "name:kn": "ರಾಮ ಅಂಜನೇಯ ದೇವಸ್ಥಾನ",
        "religion": "hindu",
        "wheelchair": "no"
      }
    },
    {
      "type": "way",
      "id": 1210572427,
      "center": {
        "lat": 12.9433231,
        "lon": 77.5674959
      },
      "tags": {
        "amenity": "school",
        "name": "NET School"
      }
    },
    {
      "type": "way",
      "id": 1210572433,
      "center": {
        "lat": 12.9441556,
        "lon": 77.567633
      },
      "tags": {
        "leisure": "park"
      }
    },
    {
      "type": "way",
      "id": 1263807443,
      "center": {
        "lat": 12.9314129,
        "lon": 77.5631508
      },
      "tags": {
        "addr:city": "Bangalore",
        "addr:postcode": "560085",
        "addr:street": "Vidya Peetha Layout Main Road",
        "leisure": "pitch",
        "name": "Channammana Kere Grounds",
        "name:kn": "ಚನ್ನಮ್ಮನ ಕೆರೆ",
        "operator": "SSM School",
        "source": "GPS"
      }
    }
  ]
}