{
  "area_name": "Ashoka Nagara",
  "osm_id": 19883261,
  "osm_type": "relation",
  "place_type": "administrative",
  "amenity_count": 88,
  "amenities": [
    {
      "type": "node",
      "id": 951470704,
      "lat": 12.9387161,
      "lon": 77.5534116,
      "tags": {
        "addr:street": "80 Feet Road",
        "amenity": "restaurant",
        "cuisine": "regional",
        "name": "Udupi Upahar",
        "name:kn": "ಉಡುಪಿ ಉಪಹಾರ"
      }
    },
    {
      "type": "node",
      "id": 953635112,
      "lat": 12.9408732,
      "lon": 77.5471975,
      "tags": {
        "amenity": "place_of_worship",
        "name": "Sharadamba Temple",
        "name:kn": "ಶಾರದಾಂಬ ದೇವಸ್ಥಾನ",
        "religion": "hindu"
      }
    },
    {
      "type": "node",
      "id": 953636026,
      "lat": 12.9412393,
      "lon": 77.547176,
      "tags": {
        "amenity": "place_of_worship",
        "name": "Mahaganapathi Temple",
        "name:kn": "ಮಹಾಗಣಪತಿ ದೇವಸ್ಥಾನ",
        "religion": "hindu"
      }
    },
    {
      "type": "node",
      "id": 954623054,
      "lat": 12.939058,
      "lon": 77.5510802,
      "tags": {
        "addr:city": "bangalore",
        "addr:housenumber": "8/45",
        "addr:postcode": "560050",
        "addr:street": "80 Feet Road, SBM Colony, Near-Bank Colony Bus Stop, Banashankari 1st Stage",
        "amenity": "hospital",
        "name": "Sri Vinayaka Poly Clinic",
        "phone": "080 2672 8455",
        "source": "justdial"
      }
    },
    {
      "type": "node",
      "id": 1464999434,
      "lat": 12.9414203,
      "lon": 77.553445,
      "tags": {
        "addr:postcode": "560050",
        "amenity": "restaurant",
        "name": "Dragons",
        "name:kn": "ಡ್ರಾಗನ್ಸ್"
      }
    },
    {
      "type": "node",
      "id": 1472981138,
      "lat": 12.9373897,
      "lon": 77.56002,
      "tags": {
        "amenity": "school",
        "name": "Holy Child Convent School"
      }
    },
    {
      "type": "node",
      "id": 1472981151,
      "lat": 12.9363435,
      "lon": 77.5615008,
      "tags": {
        "amenity": "police",
        "name": "Police Station",
        "name:kn": "ಆರಕ್ಷಕ ಠಾಣೆ",
        "operator": "Karnataka Police Department"
      }
    },
    {
      "type": "node",
      "id": 1472981411,
      "lat": 12.9348901,
      "lon": 77.560782,
      "tags": {
        "name": "SLV Bakery",
        "shop": "bakery"
      }
    },
    {
      "type": "node",
      "id": 1473902949,
      "lat": 12.9387311,
      "lon": 77.563322,
      "tags": {
        "amenity": "place_of_worship",
        "name": "Sri Rama Temple",
        "name:kn": "ಶ್ರೀ ರಾಮ ದೇವಸ್ಥಾನ",
        "religion": "hindu"
      }
    },
    {
      "type": "node",
      "id": 1566824494,
      "lat": 12.9391021,
      "lon": 77.5556301,
      "tags": {
        "amenity": "place_of_worship",
        "name": "Gondavalekar Sadgur"
      }
    },
    {
      "type": "node",
      "id": 1661812758,
      "lat": 12.9406461,
      "lon": 77.5477204,
      "tags": {
        "amenity": "atm",
        "brand": "Axis Bank",
        "brand:wikidata": "Q2003549",
        "name": "Axis Bank",
        "operator": "Axis Bank",
        "operator:wikidata": "Q2003549"
      }
    },
    {
      "type": "node",
      "id": 1741246216,
      "lat": 12.935471,
      "lon": 77.5608687,
      "tags": {
        "amenity": "atm",
        "brand": "ICICI Bank",
        "brand:wikidata": "Q1653258",
        "name": "ICICI Bank",
        "name:kn": "ಐಸಿಐಸಿಐ ಬ್ಯಾಂಕು",
        "operator": "ICICI Bank",
        "operator:wikidata": "Q1653258",
        "short_name": "ICICI"
      }
    },
    {
      "type": "node",
      "id": 1741564945,
      "lat": 12.9389525,
      "lon": 77.5566263,
      "tags": {
        "amenity": "library",
        "name": "Public Library",
        "name:kn": "ಸಾರ್ವಜನಿಕ ಗ್ರಂಥಾಲಯ"
      }
    },
    {
      "type": "node",
      "id": 1741797182,
      "lat": 12.9352471,
      "lon": 77.5607927,
      "tags": {
        "amenity": "pharmacy"
      }
    },
    {
      "type": "node",
      "id": 1741799823,
      "lat": 12.9357213,
      "lon": 77.5609969,
      "tags": {
        "amenity": "bank",
        "atm": "yes",
        "brand": "Andhra Bank",
        "brand:wikidata": "Q2003476",
        "brand:wikipedia": "en:Andhra Bank",
        "name": "Andhra Bank",
        "name:en": "Andhra Bank",
        "name:kn": "ಆಂಧ್ರ ಬ್ಯಾಂಕ್",
        "website": "https://www.andhrabank.in"
      }
    },
    {
      "type": "node",
      "id": 1741809315,
      "lat": 12.9340245,
      "lon": 77.5619702,
      "tags": {
        "amenity": "fast_food",
        "cuisine": "indian",
        "name": "Kabab and Biriyani"
      }
    },
    {
      "type": "node",
      "id": 1741824534,
      "lat": 12.93577,
      "lon": 77.5613294,
      "tags": {
        "amenity": "fast_food",
        "diet:vegetarian": "only",
        "name": "SLV Fast Food"
      }
    },
    {
      "type": "node",
      "id": 1792044189,
      "lat": 12.9398411,
      "lon": 77.553976,
      "tags": {
        "amenity": "atm",
        "brand": "HDFC Bank",
        "brand:wikidata": "Q631047",
        "fee": "no",
        "name": "HDFC Bank",
        "operator": "HDFC Bank",
        "operator:wikidata": "Q631047",
        "short_name": "HDFC"
      }
    },
    {
      "type": "node",
      "id": 1792046973,
      "lat": 12.9396697,
      "lon": 77.5546603,
      "tags": {
        "amenity": "atm",
        "operator": "Ratnakar Bank"
      }
    },
    {
      "type": "node",
      "id": 1796670301,
      "lat": 12.9402637,
      "lon": 77.5577692,
      "tags": {
        "amenity": "atm",
        "brand": "HDFC Bank",
        "brand:wikidata": "Q631047",
        "fee": "no",
        "name": "HDFC Bank",
        "operator": "HDFC Bank",
        "operator:wikidata": "Q631047",
        "short_name": "HDFC"
      }
    },
    {
      "type": "node",
      "id": 1796708919,
      "lat": 12.9402254,
      "lon": 77.5535523,
      "tags": {
        "name": "Cake Palace",
        "shop": "bakery"
      }
    },
    {
      "type": "node",
      "id": 4246843765,
      "lat": 12.9392188,
      "lon": 77.5600997,
      "tags": {
        "amenity": "cafe",
        "cuisine": "ice_cream",
        "name": "Prasad Icecream Parlour"
      }
    },
    {
      "type": "node",
      "id": 4278117690,
      "lat": 12.9382756,
      "lon": 77.5572939,
      "tags": {
        "addr:housenumber": "1706",
        "addr:postcode": "560050",
        "addr:street": "10th Main Road",
        "email": "akshaymeda@gmail.com",
        "internet_access": "wlan",
        "name": "Gaayathri coffee",
        "opening_hours": "Mo-Su 09:30-21:30",
        "phone": "9986552253",
        "shop": "beverages"
      }
    },
    {
      "type": "node",
      "id": 4444989840,
      "lat": 12.9390944,
      "lon": 77.5619057,
      "tags": {
        "addr:city": "bangalore",
        "addr:housenumber": "11/2",
        "addr:postcode": "560079",
        "addr:street": "Magadi Main Road",
        "amenity": "hospital",
        "name": "Sarvodaya Hospital",
        "name:kn": "ಸರ್ವೋದಯ ಆಸ್ಪತ್ರೆ",
        "phone": "098440 74946"
      }
    },
    {
      "type": "node",
      "id": 4445208559,
      "lat": 12.9402569,
      "lon": 77.5533988,
      "tags": {
        "addr:city": "Banashankari,Bangalore",
        "addr:housenumber": "89",
        "addr:postcode": "560070",
        "addr:street": "22nd Main Road",
        "amenity": "restaurant",
        "cuisine": "indian",
        "name": "Hotel New Karavali",
        "opening_hours": "11:00-23:00",
        "phone": "+91 8971171462",
        "takeaway": "yes"
      }
    },
    {
      "type": "node",
      "id": 4446900247,
      "lat": 12.9420124,
      "lon": 77.5506918,
      "tags": {
        "addr:city": "bangalore",
        "addr:housenumber": "237/37",
        "addr:postcode": "560050",
        "addr:street": "Nagendra Block, 50ft Road, 10th Main Rd, Srinagar, Banashankari",
        "amenity": "hospital",
        "name": "Kusuma Hospital",
        "phone": "080 2642 1177",
        "source": "justdail"
      }
    },
    {
      "type": "node",
      "id": 4446915143,
      "lat": 12.9383428,
      "lon": 77.5598834,
      "tags": {
        "addr:city": "bangalore",
        "addr:housenumber": "786",
        "addr:postcode": "560050",
        "addr:street": "10th Main, BSK 1st Stage, Banashankari Stage 1, Banashankari,",
        "amenity": "pharmacy",
        "name": "Shakti Medicals & Generals",
        "phone": "080 2667 4045",
        "source": "just dial"
      }
    },
    {
      "type": "node",
      "id": 4446919819,
      "lat": 12.9385917,
      "lon": 77.5545138,
      "tags": {
        "addr:city": "Bangalore",
        "addr:housenumber": "203",
        "addr:postcode": "560050",
        "addr:street": "BSK 1st Stage, Bank Colony, 80 Feet Rd, Srinivasnagar, Banashankari",
        "name": "Bhagyalakshmi Medicals",
        "phone": "080 2669 7488",
        "shop": "medical_supply",
        "source": "just dial"
      }
    },
    {
      "type": "node",
      "id": 4446923878,
      "lat": 12.9394245,
      "lon": 77.5510448,
      "tags": {
        "addr:city": "bangalore",
        "addr:housenumber": "16",
        "addr:postcode": "560050",
        "addr:street": "Sbm Colony, 80 Feet Road, Banashankari I Stage, Banashankari I Stage, 80 Feet Rd, Banashankari",
        "name": "Gupta Medicals",
        "phone": "080 2669 6188",
        "shop": "medical_supply",
        "source": "justdial"
      }
    },
    {
      "type": "node",
      "id": 4446978212,
      "lat": 12.9360789,
      "lon": 77.5601504,
      "tags": {
        "addr:city": "bangalore",
        "addr:housenumber": "47/1",
        "addr:postcode": "560050",
        "addr:street": "11th Cross, Ashok Nagar, Near-Vidya Peeta Circle, Banashankari 1st Stage",
        "amenity": "pharmacy",
        "name": "Mahaveer medicals",
        "phone": "+91 80 2242 7245",
        "source": "www.justdial.com"
      }
    },
    {
      "type": "node",
      "id": 4446999694,
      "lat": 12.9384167,
      "lon": 77.5572651,
      "tags": {
        "addr:city": "Bangalore",
        "addr:housenumber": "281/B",
        "addr:postcode": "560050",
        "addr:street": "1st Floor, 10th Main, 2nd Block, Srinivas Nagar, Near Ayyappaswamy Temple, Banashankari Stage I, Banashankari",
        "amenity": "clinic",
        "name": "Malathi Polyclinic",
        "phone": "080 2660 3366",
        "source": "justdial",
        "website": "malathipolyclinic.com"
      }
    },
    {
      "type": "node",
      "id": 4488117260,
      "lat": 12.9406795,
      "lon": 77.5534344,
      "tags": {
        "addr:city": "Banashankari,Bangalore",
        "addr:housenumber": "#1262",
        "addr:postcode": "560085",
        "addr:street": "80 Feet Road, 100 feet Road, BSK 3st Stage, Hosakerehalli",
        "name": "World Sports & Fitness",
        "opening_hours": "09:00-21:00",
        "phone": "9342869647",
        "shop": "sports"
      }
    },
    {
      "type": "node",
      "id": 5304601902,
      "lat": 12.9393634,
      "lon": 77.5501453,
      "tags": {
        "shop": "convenience"
      }
    },
    {
      "type": "node",
      "id": 5304601903,
      "lat": 12.9393291,
      "lon": 77.5505329,
      "tags": {
        "shop": "tailor"
      }
    },
    {
      "type": "node",
      "id": 5304601908,
      "lat": 12.9392817,
      "lon": 77.550667,
      "tags": {
        "name": "Yashaswini Beauty Parlor",
        "shop": "beauty"
      }
    },
    {
      "type": "node",
      "id": 5304601909,
      "lat": 12.9392595,
      "lon": 77.5507401,
      "tags": {
        "name": "Nivedita Dry Cleaners",
        "shop": "dry_cleaning"
      }
    },
    {
      "type": "node",
      "id": 5304601910,
      "lat": 12.939136,
      "lon": 77.5507843,
      "tags": {
        "name": "Sri Janani Motors",
        "shop": "car_repair"
      }
    },
    {
      "type": "node",
      "id": 5304601911,
      "lat": 12.938535,
      "lon": 77.5494412,
      "tags": {
        "name": "Desi Shop",
        "shop": "boutique"
      }
    },
    {
      "type": "node",
      "id": 5304601930,
      "lat": 12.9389981,
      "lon": 77.5509755,
      "tags": {
        "amenity": "dentist",
        "name": "Ganesh Dental Care"
      }
    },
    {
      "type": "node",
      "id": 5304601933,
      "lat": 12.9391628,
      "lon": 77.5513114,
      "tags": {
        "addr:district": "Bengaluru Urban",
        "addr:full": "#8/45, 80 Feet Road, ,S.B.M. Colony,Banashankari 1 St Stage",
        "addr:postcode": "560050",
        "addr:state": "Karnataka",
        "amenity": "clinic",
        "name": "Dr. Natesh E.N.T and Surgical Care Centre",
        "source": "OpenGovernmentData"
      }
    },
    {
      "type": "node",
      "id": 5304601934,
      "lat": 12.9391798,
      "lon": 77.551355,
      "tags": {
        "amenity": "pharmacy",
        "name": "Seetha Medicals"
      }
    },
    {
      "type": "node",
      "id": 5304601935,
      "lat": 12.9391902,
      "lon": 77.5513852,
      "tags": {
        "name": "Prashanth Diagnostics",
        "shop": "yes"
      }
    },
    {
      "type": "node",
      "id": 5304601946,
      "lat": 12.9392131,
      "lon": 77.5517895,
      "tags": {
        "amenity": "dentist",
        "name": "Pushkal Multi-Specialty Dental Care"
      }
    },
    {
      "type": "node",
      "id": 5304601947,
      "lat": 12.9391987,
      "lon": 77.5517587,
      "tags": {
        "name": "Prince Selections",
        "shop": "clothes"
      }
    },
    {
      "type": "node",
      "id": 5304601949,
      "lat": 12.9391909,
      "lon": 77.5517929,
      "tags": {
        "name": "Lalith Fashions",
        "shop": "jewelry"
      }
    },
    {
      "type": "node",
      "id": 5304601950,
      "lat": 12.939166,
      "lon": 77.5520041,
      "tags": {
        "leisure": "fitness_centre",
        "level": "1",
        "name": "Versatile Fitness"
      }
    },
    {
      "type": "node",
      "id": 5304601951,
      "lat": 12.9391196,
      "lon": 77.5519927,
      "tags": {
        "name": "Punjab Handloom World",
        "shop": "mattress"
      }
    },
    {
      "type": "node",
      "id": 5304601953,
      "lat": 12.939083,
      "lon": 77.5521583,
      "tags": {
        "name": "Sharma Ayurveda Bhavan",
        "shop": "medical_supply"
      }
    },
    {
      "type": "node",
      "id": 5304601984,
      "lat": 12.9387765,
      "lon": 77.5531259,
      "tags": {
        "name": "Sri Sangameshwara Power Tools and Services",
        "shop": "hardware"
      }
    },
    {
      "type": "node",
      "id": 5304601985,
      "lat": 12.9387354,
      "lon": 77.5532091,
      "tags": {
        "name": "Shoe Planet",
        "shop": "shoes"
      }
    },
    {
      "type": "node",
      "id": 5304601986,
      "lat": 12.9387478,
      "lon": 77.5531514,
      "tags": {
        "name": "Mahaveer Electricals",
        "shop": "electrical"
      }
    },
    {
      "type": "node",
      "id": 5304601987,
      "lat": 12.9387517,
      "lon": 77.5531299,
      "tags": {
        "name": "Sri Kalikamba Jyotishyalaya",
        "shop": "yes"
      }
    },
    {
      "type": "node",
      "id": 5304601988,
      "lat": 12.938755,
      "lon": 77.5531071,
      "tags": {
        "level": "0",
        "name": "Rajaram Fancy and Gift Center",
        "shop": "gift"
      }
    },
    {
      "type": "node",
      "id": 5304601989,
      "lat": 12.9387596,
      "lon": 77.5530776,
      "tags": {
        "level": "0",
        "name": "Praveen Kumar Textiles",
        "shop": "clothes"
      }
    },
    {
      "type": "node",
      "id": 5304601990,
      "lat": 12.9387648,
      "lon": 77.5530495,
      "tags": {
        "amenity": "pharmacy",
        "level": "0",
        "name": "Suraksha Medicals"
      }
    },
    {
      "type": "node",
      "id": 5304601991,
      "lat": 12.938804,
      "lon": 77.5529925,
      "tags": {
        "name": "Dhanalakshmi Departmental Stores",
        "shop": "supermarket"
      }
    },
    {
      "type": "node",
      "id": 5304601992,
      "lat": 12.9388112,
      "lon": 77.5529268,
      "tags": {
        "name": "Ambika Jewellers",
        "shop": "jewelry"
      }
    },
    {
      "type": "node",
      "id": 5304601993,
      "lat": 12.9388177,
      "lon": 77.5528852,
      "tags": {
        "amenity": "pharmacy",
        "brand": "MedPlus",
        "brand:wikidata": "Q65684234",
        "healthcare": "pharmacy",
        "name": "MedPlus",
        "name:kn": "ಮೆಡ್‍ಪ್ಲಸ್"
      }
    },
    {
      "type": "node",
      "id": 5304601994,
      "lat": 12.9388491,
      "lon": 77.5527685,
      "tags": {
        "name": "J.K. Traders",
        "shop": "supermarket"
      }
    },
    {
      "type": "node",
      "id": 5304601995,
      "lat": 12.9388733,
      "lon": 77.5526901,
      "tags": {
        "name": "L.J. Iyengar's Bakery",
        "shop": "bakery"
      }
    },
    {
      "type": "node",
      "id": 5304601996,
      "lat": 12.9389288,
      "lon": 77.5525844,
      "tags": {
        "name": "Susri Autoparts",
        "shop": "car_parts"
      }
    },
    {
      "type": "node",
      "id": 5304601997,
      "lat": 12.9389249,
      "lon": 77.5526136,
      "tags": {
        "level": "1",
        "name": "Travel Point",
        "shop": "travel_agency"
      }
    },
    {
      "type": "node",
      "id": 5304601998,
      "lat": 12.9389229,
      "lon": 77.5526364,
      "tags": {
        "amenity": "dentist",
        "level": "1",
        "name": "Namratha Dental Clinic"
      }
    },
    {
      "type": "node",
      "id": 5304601999,
      "lat": 12.9389216,
      "lon": 77.5526545,
      "tags": {
        "level": "1",
        "name": "Belwaki Beauty Parlor",
        "shop": "beauty"
      }
    },
    {
      "type": "node",
      "id": 5304602000,
      "lat": 12.938902,
      "lon": 77.5526518,
      "tags": {
        "level": "0",
        "name": "Rank Opticians",
        "shop": "optician"
      }
    },
    {
      "type": "node",
      "id": 5304602001,
      "lat": 12.9389092,
      "lon": 77.5526096,
      "tags": {
        "level": "0",
        "name": "Saanvi Creations",
        "shop": "boutique"
      }
    },
    {
      "type": "node",
      "id": 5304602002,
      "lat": 12.9389135,
      "lon": 77.5525787,
      "tags": {
        "amenity": "pharmacy",
        "level": "0"
      }
    },
    {
      "type": "node",
      "id": 5304602003,
      "lat": 12.9389125,
      "lon": 77.5525077,
      "tags": {
        "amenity": "bar",
        "name": "Millenium Bar and Restaurant"
      }
    },
    {
      "type": "node",
      "id": 5304602004,
      "lat": 12.9389275,
      "lon": 77.5524614,
      "tags": {
        "description:kn": "ಗ್ರಂಥಿಗೆ ಅಂಗಡಿ",
        "name": "Saptagiri Kumkum Stores",
        "shop": "yes"
      }
    },
    {
      "type": "node",
      "id": 5304602010,
      "lat": 12.9389713,
      "lon": 77.5523052,
      "tags": {
        "name": "4th Main",
        "name:kn": "೪ನೇ ಮುಖ್ಯ ರಸ್ತೆ",
        "shop": "hardware"
      }
    },
    {
      "type": "node",
      "id": 6938775855,
      "lat": 12.9404548,
      "lon": 77.5578493,
      "tags": {
        "addr:district": "Bengaluru Urban",
        "addr:full": "No 519/34, 2nd Cross 10Th Main, Bsk 1st Stage Banashankari",
        "addr:postcode": "560050",
        "addr:state": "Karnataka",
        "amenity": "hospital",
        "name": "Sunetra Eye Hospital, Bengaluru Urban",
        "source": "OpenGovernmentData"
      }
    },
    {
      "type": "node",
      "id": 6944256036,
      "lat": 12.9424801,
      "lon": 77.5473283,
      "tags": {
        "addr:district": "Bengaluru Urban",
        "addr:full": "5/81, 50 Feet Road, 20Th Main Road, Muneshwara Block, Girinagar",
        "addr:postcode": "560085",
        "addr:state": "Karnataka",
        "amenity": "hospital",
        "name": "The Pulse Multi Speciality Hospital",
        "source": "OpenGovernmentData"
      }
    },
    {
      "type": "node",
      "id": 6948627241,
      "lat": 12.9403953,
      "lon": 77.558544,
      "tags": {
        "addr:district": "Bengaluru Urban",
        "addr:full": "# 513, 8Th Main, 2nd Cross, Dsk 1st Stage, 2nd Block",
        "addr:postcode": "560050",
        "addr:state": "Karnataka",
        "amenity": "clinic",
        "name": "Varna Nursing Home",
        "source": "OpenGovernmentData"
      }
    },
    {
      "type": "node",
      "id": 7576958059,
      "lat": 12.9422555,
      "lon": 77.5482906,
      "tags": {
        "addr:district": "Bengaluru Urban",
        "addr:full": "Nagendra Block, Muneshwara Block, Banashankari, Bengaluru",
        "addr:state": "Karnataka",
        "amenity": "clinic",
        "name": "Kidney Care Centre",
        "source": "Local Knowledge"
      }
    },
    {
      "type": "node",
      "id": 7576958060,
      "lat": 12.940404,
      "lon": 77.5580361,
      "tags": {
        "addr:district": "Bengaluru Urban",
        "addr:full": "SBM Colony, Banashankari, Bengaluru",
        "addr:postcode": "560050",
        "addr:state": "Karnataka",
        "amenity": "hospital",
        "name": "Verna Hospital",
        "source": "Local Knowledge"
      }
    },
    {
      "type": "node",
      "id": 7576958071,
      "lat": 12.938787,
      "lon": 77.554296,
      "tags": {
        "addr:district": "Bengaluru Urban",
        "addr:full": "Banashankari, Bengaluru",
        "addr:state": "Karnataka",
        "amenity": "hospital",
        "name": "Raghavendra Hospital",
        "source": "Local Knowledge"
      }
    },
    {
      "type": "node",
      "id": 7576958083,
      "lat": 12.9422541,
      "lon": 77.5506328,
      "tags": {
        "addr:district": "Bengaluru Urban",
        "addr:full": "Giri Nagar, Banashankari, Bengaluru",
        "addr:state": "Karnataka",
        "amenity": "hospital",
        "name": "Drishti Nethralaya",
        "name:kn": "ದೃಷ್ಟಿ ನೇತ್ರಾಲಯ",
        "source": "Local Knowledge"
      }
    },
    {
      "type": "node",
      "id": 7576958097,
      "lat": 12.9386485,
      "lon": 77.5545065,
      "tags": {
        "addr:district": "Bengaluru Urban",
        "addr:full": "SBM Colony, Banashankari Stage I, Banashankari, Bengaluru",
        "addr:state": "Karnataka",
        "amenity": "clinic",
        "name": "Novel Hearing Care Centre",
        "source": "Local Knowledge"
      }
    },
    {
      "type": "node",
      "id": 7576958119,
      "lat": 12.939257,
      "lon": 77.555911,
      "tags": {
        "addr:district": "Bengaluru Urban",
        "addr:full": "Banashankari, Banglore",
        "addr:postcode": "560050",
        "addr:state": "Karnataka",
        "amenity": "clinic",
        "name": "Parimala Childrens Nursing Home",
        "source": "Local Knowledge"
      }
    },
    {
      "type": "node",
      "id": 8727018101,
      "lat": 12.9357431,
      "lon": 77.5613135,
      "tags": {
        "amenity": "atm",
        "brand": "State Bank of India",
        "brand:wikidata": "Q1340361",
        "currency:INR": "yes",
        "name": "State Bank of India",
        "name:kn": "ಎಸ್ ಬಿ ಐ",
        "network": "State Bank of India",
        "opening_hours": "Mo-Su 06:00-22:00",
        "operator": "State Bank of India",
        "operator:wikidata": "Q1340361",
        "short_name": "SBI"
      }
    },
    {
      "type": "node",
      "id": 8727018102,
      "lat": 12.9356558,
      "lon": 77.5609792,
      "tags": {
        "amenity": "atm",
        "currency:INR": "yes",
        "network": "Andhra Bank",
        "operator": "Andhra Bank ATM"
      }
    },
    {
      "type": "node",
      "id": 8727018103,
      "lat": 12.9363701,
      "lon": 77.561999,
      "tags": {
        "amenity": "place_of_worship",
        "name": "Narasimha Swamy Temple",
        "opening_hours:covid19": "closed",
        "religion": "hindu"
      }
    },
    {
      "type": "way",
      "id": 347079448,
      "center": {
        "lat": 12.9337875,
        "lon": 77.5609759
      },
      "tags": {
        "addr:city": "Bengaluru",
        "addr:district": "Bengaluru Urban",
        "addr:housenumber": "440",
        "addr:postcode": "560050",
        "addr:street": "2nd Cross Rd, Vidyapeeta Layout, Banashankari",
        "amenity": "place_of_worship",
        "building": "yes",
        "name": "Udupi Krishna Raghavendra temple, Vidyapeeta",
        "note": "Shri Madhwacharya & Shri Raghavendra Swamy on either sides of Shree Krishna idol. Also houses the office to register all the services (sevas).",
        "religion": "hindu"
      }
    },
    {
      "type": "way",
      "id": 348273191,
      "center": {
        "lat": 12.939932,
        "lon": 77.5488064
      },
      "tags": {
        "amenity": "school",
        "building": "yes",
        "name": "Martin Luther School",
        "name:kn": "ಮಾರ್ಟಿನ್ ಲೂಥರ್ ಶಾಲೆ"
      }
    },
    {
      "type": "way",
      "id": 348287598,
      "center": {
        "lat": 12.9391883,
        "lon": 77.5513126
      },
      "tags": {
        "addr:district": "Bengaluru Urban",
        "addr:full": "SBM Colony, Banashankari, Bengaluru",
        "addr:state": "Karnataka",
        "amenity": "hospital",
        "building": "yes",
        "name": "Prashanth Hospitals",
        "name:kn": "ಪಿಇಎಸ್ ವಿಶ್ವವಿದ್ಯಾಲಯ ಕ್ರಿಕೆಟ್ ಮೈದಾನ",
        "source": "Local Knowledge"
      }
    },
    {
      "type": "way",
      "id": 348459952,
      "center": {
        "lat": 12.9415238,
        "lon": 77.5543245
      },
      "tags": {
        "amenity": "college",
        "name:en": "PES Pre-University College",
        "phone": "+918026600648"
      }
    },
    {
      "type": "way",
      "id": 348459990,
      "center": {
        "lat": 12.9410637,
        "lon": 77.5543987
      },
      "tags": {
        "amenity": "school",
        "name:en": "Vivekananda School",
        "name:kn": "ವಿವೇಕಾನಂದ ಶಾಲೆ"
      }
    },
    {
      "type": "way",
      "id": 351135758,
      "center": {
        "lat": 12.9355631,
        "lon": 77.5617033
      },
      "tags": {
        "addr:city": "Bengaluru",
        "amenity": "cinema",
        "building": "yes",
        "name": "Chandrodaya Theatre",
        "name:kn": "ಚಂದ್ರೋದಯ ಚಿತ್ರಮಂದಿರ",
        "screen": "1"
      }
    }
  ]
}