{
  "area_name": "B Channasandra",
  "osm_id": 12656262841,
  "osm_type": "node",
  "place_type": "neighbourhood",
  "amenity_count": 167,
  "amenities": [
    {
      "type": "node",
      "id": 1469636440,
      "lat": 13.015204,
      "lon": 77.6661513,
      "tags": {
        "amenity": "fast_food",
        "brand": "Domino's",
        "brand:ks": "ڈومینوز",
        "brand:pa": "ਡੋਮੀਨੋਜ਼",
        "brand:ur": "ڈومینوز",
        "brand:wikidata": "Q839466",
        "brand:wikipedia": "en:Domino's Pizza",
        "cuisine": "pizza",
        "name": "Domino's",
        "name:ks": "ڈومینوز",
        "name:pa": "ਡੋਮੀਨੋਜ਼",
        "name:ur": "ڈومینوز",
        "takeaway": "yes"
      }
    },
    {
      "type": "node",
      "id": 1469637252,
      "lat": 13.0156682,
      "lon": 77.6673107,
      "tags": {
        "name": "Brinda's Beauty Parlour",
        "shop": "hairdresser"
      }
    },
    {
      "type": "node",
      "id": 1474872713,
      "lat": 13.0042548,
      "lon": 77.6580406,
      "tags": {
        "amenity": "school",
        "name": "Indo-German School"
      }
    },
    {
      "type": "node",
      "id": 1541338044,
      "lat": 13.0044439,
      "lon": 77.6554748,
      "tags": {
        "shop": "car_repair"
      }
    },
    {
      "type": "node",
      "id": 1541342700,
      "lat": 13.0059466,
      "lon": 77.6593935,
      "tags": {
        "amenity": "atm",
        "brand": "State Bank of India",
        "brand:wikidata": "Q1340361",
        "check_date": "2024-02-23",
        "name": "State Bank of India",
        "name:kn": "ಎಸ್ ಬಿ ಐ",
        "operator": "State Bank of India",
        "operator:wikidata": "Q1340361",
        "short_name": "SBI"
      }
    },
    {
      "type": "node",
      "id": 1724416882,
      "lat": 13.0148188,
      "lon": 77.6653699,
      "tags": {
        "amenity": "hospital",
        "name": "Ayur Seva Hospital",
        "name:en": "Ayur Vaid Hospital"
      }
    },
    {
      "type": "node",
      "id": 1724460266,
      "lat": 13.0121881,
      "lon": 77.6673811,
      "tags": {
        "name": "Koutons Cloth Shop",
        "shop": "supermarket"
      }
    },
    {
      "type": "node",
      "id": 1724997151,
      "lat": 13.0128343,
      "lon": 77.6673677,
      "tags": {
        "amenity": "school",
        "check_date": "2025-06-17",
        "name": "Narayana PU College",
        "name:en": "Narayana PU College"
      }
    },
    {
      "type": "node",
      "id": 1725094667,
      "lat": 13.0123108,
      "lon": 77.6672269,
      "tags": {
        "addr:housenumber": "Sy. No. 46/1, ANR Complex",
        "addr:street": "Ramamurthy Nagar Main Road",
        "brand": "DMart",
        "brand:wikidata": "Q5203271",
        "name": "DMart",
        "opening_hours": "Mo-Su 10:00-22:00",
        "shop": "supermarket",
        "website": "https://dmartindia.com"
      }
    },
    {
      "type": "node",
      "id": 1725279701,
      "lat": 13.0138084,
      "lon": 77.6618674,
      "tags": {
        "amenity": "restaurant",
        "name": "Tamarind",
        "name:kn": "ಟ್ಯಾಮರಿಂಡ್"
      }
    },
    {
      "type": "node",
      "id": 1760694168,
      "lat": 13.0150155,
      "lon": 77.6658693,
      "tags": {
        "amenity": "atm",
        "fee": "ICICI Bank"
      }
    },
    {
      "type": "node",
      "id": 1761862415,
      "lat": 13.015385,
      "lon": 77.666733,
      "tags": {
        "name": "Smart Supermart",
        "shop": "supermarket"
      }
    },
    {
      "type": "node",
      "id": 1761867450,
      "lat": 13.0118335,
      "lon": 77.668096,
      "tags": {
        "amenity": "restaurant",
        "diet:vegetarian": "only",
        "name": "Uttam Sagar",
        "name:kn": "ಉತ್ತಮ್ ಸಾಗರ್"
      }
    },
    {
      "type": "node",
      "id": 1761867730,
      "lat": 13.0127088,
      "lon": 77.6650142,
      "tags": {
        "amenity": "restaurant",
        "diet:vegetarian": "only",
        "name": "Savi Ruchi",
        "name:kn": "ಸವಿರುಚಿ"
      }
    },
    {
      "type": "node",
      "id": 1761867731,
      "lat": 13.0121288,
      "lon": 77.6660982,
      "tags": {
        "amenity": "place_of_worship",
        "name": "Shani Temple",
        "name:kn": "ಶನಿ ದೇವಸ್ಥಾನ",
        "religion": "hindu"
      }
    },
    {
      "type": "node",
      "id": 1794124098,
      "lat": 13.0122467,
      "lon": 77.6657663,
      "tags": {
        "amenity": "Muthoot Finance",
        "operator": "Muthoot Finance"
      }
    },
    {
      "type": "node",
      "id": 1794124377,
      "lat": 13.0121997,
      "lon": 77.6659808,
      "tags": {
        "name": "Megamart",
        "operator": "Clothers",
        "shop": "supermarket"
      }
    },
    {
      "type": "node",
      "id": 1958294905,
      "lat": 13.0100409,
      "lon": 77.6674667,
      "tags": {
        "amenity": "hospital",
        "name": "Charan Homeopathy, Ramamurthy Nagar"
      }
    },
    {
      "type": "node",
      "id": 2272445792,
      "lat": 13.0129544,
      "lon": 77.6577623,
      "tags": {
        "amenity": "place_of_worship",
        "name": "Sri Valampuri Vinayagar Temple",
        "religion": "hindu"
      }
    },
    {
      "type": "node",
      "id": 2272446785,
      "lat": 13.0141643,
      "lon": 77.6575124,
      "tags": {
        "amenity": "school",
        "name": "New Baldwins School"
      }
    },
    {
      "type": "node",
      "id": 2272455276,
      "lat": 13.0124345,
      "lon": 77.6580271,
      "tags": {
        "addr:district": "Bengaluru Urban",
        "addr:full": "No. 699, 3Road Main Road,Bhuvanagiri Layout,(O.M.B.R),Doddabanasawadi",
        "addr:postcode": "560043",
        "addr:state": "Karnataka",
        "amenity": "hospital",
        "name": "Srivijaya Speciality Hospital",
        "source": "OpenGovernmentData"
      }
    },
    {
      "type": "node",
      "id": 2473253524,
      "lat": 13.0107913,
      "lon": 77.6588641,
      "tags": {
        "amenity": "place_of_worship",
        "name": "Chowdeshwari Temple B Channasandra, Banasawadi",
        "religion": "hindu"
      }
    },
    {
      "type": "node",
      "id": 2473254869,
      "lat": 13.0109838,
      "lon": 77.6593955,
      "tags": {
        "addr:street": "B Channasandra, Bennigana Halli",
        "amenity": "place_of_worship",
        "name": "Sri Muneshwara Temple",
        "name:kn": "ಮುನೇಶ್ವರ ದೇವಸ್ಥಾನ",
        "religion": "hindu"
      }
    },
    {
      "type": "node",
      "id": 2614285176,
      "lat": 13.007962,
      "lon": 77.658766,
      "tags": {
        "addr:city": "Bangalore",
        "addr:district": "Bengaluru Urban",
        "addr:postcode": "560043",
        "addr:street": "2nd Main Rd, B Channasandra, Kasturi Nagar",
        "air_conditioning": "yes",
        "amenity": "cafe",
        "brand": "Cafe Coffee Day",
        "brand:wikidata": "Q5017235",
        "cuisine": "coffee_shop",
        "diet:vegetarian": "yes",
        "indoor_seating": "yes",
        "internet_access": "yes",
        "name": "Cafe Coffee Day",
        "name:kn": "ಕಫೆ ಕಾಫಿ ಡೇ",
        "outdoor_seating": "no",
        "smoking": "no",
        "takeaway": "yes"
      }
    },
    {
      "type": "node",
      "id": 2991981783,
      "lat": 13.0059276,
      "lon": 77.6594682,
      "tags": {
        "amenity": "bank",
        "atm": "yes",
        "brand": "State Bank of India",
        "brand:wikidata": "Q1340361",
        "brand:wikipedia": "en:State Bank of India",
        "name": "State Bank of India",
        "name:kn": "ಭಾರತೀಯ ಸ್ಟೇಟ್ ಬ್ಯಾಂಕ್",
        "short_name": "SBI"
      }
    },
    {
      "type": "node",
      "id": 2991986418,
      "lat": 13.0039518,
      "lon": 77.6573921,
      "tags": {
        "amenity": "atm",
        "brand": "HDFC Bank",
        "brand:wikidata": "Q631047",
        "name": "HDFC Bank",
        "name:kn": "ಎಚ್. ಡಿ. ಎಫ್. ಸಿ..",
        "operator": "HDFC Bank",
        "operator:wikidata": "Q631047",
        "short_name": "HDFC"
      }
    },
    {
      "type": "node",
      "id": 4242720007,
      "lat": 13.0085079,
      "lon": 77.6514124,
      "tags": {
        "amenity": "community_centre",
        "name": "Parvati Kalyana Mantapa"
      }
    },
    {
      "type": "node",
      "id": 4296135863,
      "lat": 13.0134659,
      "lon": 77.6605864,
      "tags": {
        "addr:district": "Bengaluru Urban",
        "addr:full": "Ranamurthy Nagar Main Road Banaswadi",
        "addr:postcode": "560043",
        "addr:state": "Karnataka",
        "amenity": "clinic",
        "name": "Asha Nursing Home",
        "source": "OpenGovernmentData"
      }
    },
    {
      "type": "node",
      "id": 4349872694,
      "lat": 13.0166722,
      "lon": 77.6617032,
      "tags": {
        "amenity": "place_of_worship",
        "name": "Temple",
        "religion": "hindu"
      }
    },
    {
      "type": "node",
      "id": 4447012972,
      "lat": 13.0034429,
      "lon": 77.6629393,
      "tags": {
        "addr:city": "Bangalore",
        "addr:housenumber": "#141",
        "addr:postcode": "560043",
        "addr:street": "3rd main, Kasturi Nagar, East of NGEF Layout, Kasturi Nagar",
        "amenity": "clinic",
        "check_date": "2024-01-25",
        "level": "1",
        "name": "Anand Diagnostic Laboratory",
        "phone": "080 2545 1202",
        "source": "http://www.justdial.com/",
        "website": "https://www.anandlab.com/"
      }
    },
    {
      "type": "node",
      "id": 4488027411,
      "lat": 13.015208,
      "lon": 77.6561956,
      "tags": {
        "addr:city": "Bangalore",
        "addr:housenumber": "21",
        "addr:postcode": "560043",
        "addr:street": "Banaswadi Main Road",
        "name": "Samarth Rice Traders",
        "phone": "(91)-80-33293546",
        "shop": "supermarket"
      }
    },
    {
      "type": "node",
      "id": 4488387330,
      "lat": 13.0101133,
      "lon": 77.6518108,
      "tags": {
        "addr:city": "bangalore",
        "addr:postcode": "560043",
        "addr:street": "B Channasandra Main Road",
        "name": "Naturals Unisex Salon And Spa",
        "phone": "0804090 8545",
        "shop": "beauty"
      }
    },
    {
      "type": "node",
      "id": 4489743929,
      "lat": 13.0122309,
      "lon": 77.6685247,
      "tags": {
        "addr:city": "Bangalore",
        "addr:housenumber": "41",
        "addr:postcode": "560016",
        "addr:street": "H.K.R.Complex,Opp. Durga Bangalore, Sani Mahatma Temple Road, Bhadrappa Layout, Garden Street Layout, Krishna Reddy Layout, Ramamurthy Nagar",
        "leisure": "sports_centre",
        "name": "Fusion Fitness",
        "opening_hours": "05:30-22:00",
        "phone": "8025666929",
        "sport": "gymnasium"
      }
    },
    {
      "type": "node",
      "id": 4489757350,
      "lat": 13.0135054,
      "lon": 77.6617822,
      "tags": {
        "addr:city": "bangalore",
        "addr:housenumber": "705",
        "addr:postcode": "560043",
        "addr:street": "3rd Floor, Banaswadi Main Road, Banaswadi",
        "name": "Vanity Salon Slimming And Spa",
        "opening_hours": "08:00-21:00",
        "phone": "+918722883344",
        "shop": "beauty"
      }
    },
    {
      "type": "node",
      "id": 4489857891,
      "lat": 13.0158391,
      "lon": 77.6671436,
      "tags": {
        "addr:city": "bangalore",
        "addr:postcode": "560016",
        "addr:street": "Thambu Chetty Palya Main Rd, Bhadrappa Layout, M Vishveshvaraiah Nagar, Horamavu",
        "leisure": "sports_centre",
        "name": "Pulse Fitness",
        "opening_hours": "05:30-21:30",
        "phone": "8039510660",
        "sport": "gymnastics",
        "website": "https://www.gympik.com/"
      }
    },
    {
      "type": "node",
      "id": 4489896653,
      "lat": 13.0137656,
      "lon": 77.6619181,
      "tags": {
        "addr:city": "bangalore",
        "addr:housenumber": "No. 705/707",
        "addr:postcode": "560043",
        "addr:street": "OMBR Layout, Banaswadi Main Road, Ramamurthy Nagar Signal, Vijaya Bank Colony, Banaswadi, Bhadrappa Layout,",
        "leisure": "sports_centre",
        "name": "B3 Wellness Studio",
        "opening_hours": "05:30-22:00",
        "phone": "8065838485",
        "sport": "gymnastics",
        "website": "b3wellness.in"
      }
    },
    {
      "type": "node",
      "id": 4489912602,
      "lat": 13.0152989,
      "lon": 77.6663585,
      "tags": {
        "addr:city": "bangalore",
        "addr:housenumber": "46",
        "addr:postcode": "560016",
        "addr:street": "7th Main,T C Palya Main Road,Hoysala Nagar",
        "name": "Brindas Beauty Clinic And Academy",
        "opening_hours": "09:00-21:00",
        "phone": "080-33083089",
        "shop": "beauty"
      }
    },
    {
      "type": "node",
      "id": 4489955031,
      "lat": 13.0149422,
      "lon": 77.6661372,
      "tags": {
        "addr:city": "bangalore",
        "addr:housenumber": "46",
        "addr:postcode": "560016",
        "addr:street": "marthalli road",
        "name": "Brindas Beauty Clinic And Academy",
        "opening_hours": "10:30-21:00",
        "phone": "080-33083089",
        "shop": "beauty"
      }
    },
    {
      "type": "node",
      "id": 5112182301,
      "lat": 13.0090127,
      "lon": 77.6562397,
      "tags": {
        "amenity": "bank",
        "atm": "yes",
        "drive_through": "no",
        "name": "Vijaya Bank",
        "name:kn": "ವಿಜಯ ಬ್ಯಾಂಕು",
        "operator": "Vijaya Bank"
      }
    },
    {
      "type": "node",
      "id": 5112185895,
      "lat": 13.0086666,
      "lon": 77.6559015,
      "tags": {
        "addr:city": "Bangalore",
        "addr:district": "Bengaluru Urban",
        "addr:housenumber": "201",
        "addr:postcode": "560043",
        "addr:street": "B Channasandra Main Road",
        "amenity": "restaurant",
        "cuisine": "regional;indian;breakfast",
        "name": "Raghavendra Bhavan",
        "name:kn": "ರಾಘವೇಂದ್ರ ಭವನ",
        "takeaway": "yes"
      }
    },
    {
      "type": "node",
      "id": 5112186034,
      "lat": 13.0086948,
      "lon": 77.6555825,
      "tags": {
        "name": "Freshworld Super Market",
        "shop": "supermarket"
      }
    },
    {
      "type": "node",
      "id": 5112187604,
      "lat": 13.0090912,
      "lon": 77.656317,
      "tags": {
        "amenity": "hospital",
        "name": "Subramanium Medicine Store"
      }
    },
    {
      "type": "node",
      "id": 5112191947,
      "lat": 13.0104342,
      "lon": 77.6583242,
      "tags": {
        "addr:district": "Bengaluru Urban",
        "addr:full": "6C - 335, 4Th C Main Road, 6Th Cross Ombr Layout Bhuvanagiri",
        "addr:postcode": "560041",
        "addr:state": "Karnataka",
        "amenity": "hospital",
        "name": "Chaya Super Speciality Hospital",
        "source": "OpenGovernmentData"
      }
    },
    {
      "type": "node",
      "id": 5112228446,
      "lat": 13.0048108,
      "lon": 77.6601929,
      "tags": {
        "amenity": "bank",
        "atm": "yes",
        "brand": "Karnataka Bank",
        "brand:wikidata": "Q2042632",
        "check_date": "2025-07-09",
        "name": "Karnataka Bank",
        "name:kn": "ಕರ್ನಾಟಕ ಬ್ಯಾಂಕ್",
        "operator": "Karnataka Bank"
      }
    },
    {
      "type": "node",
      "id": 5255533507,
      "lat": 13.008896,
      "lon": 77.6557901,
      "tags": {
        "brand": "More",
        "brand:wikidata": "Q6910891",
        "name": "More",
        "shop": "supermarket"
      }
    },
    {
      "type": "node",
      "id": 5255533512,
      "lat": 13.0086124,
      "lon": 77.6555434,
      "tags": {
        "amenity": "fast_food",
        "brand": "Domino's",
        "brand:ks": "ڈومینوز",
        "brand:pa": "ਡੋਮੀਨੋਜ਼",
        "brand:ur": "ڈومینوز",
        "brand:wikidata": "Q839466",
        "brand:wikipedia": "en:Domino's Pizza",
        "cuisine": "pizza",
        "name": "Domino's",
        "name:kn": "ಡಾಮಿನೋಸ್",
        "name:ks": "ڈومینوز",
        "name:pa": "ਡੋਮੀਨੋਜ਼",
        "name:ur": "ڈومینوز",
        "takeaway": "yes"
      }
    },
    {
      "type": "node",
      "id": 5255533513,
      "lat": 13.0102536,
      "lon": 77.6579312,
      "tags": {
        "amenity": "bank",
        "brand": "Axis Bank",
        "brand:wikidata": "Q2003549",
        "name": "Axis Bank",
        "name:kn": "ಅಕ್ಸಿಸ್ ಬ್ಯಾಂಕ್"
      }
    },
    {
      "type": "node",
      "id": 5255533514,
      "lat": 13.0101171,
      "lon": 77.6573914,
      "tags": {
        "amenity": "restaurant",
        "name": "Malik Deenar"
      }
    },
    {
      "type": "node",
      "id": 5255533519,
      "lat": 13.0088489,
      "lon": 77.6591724,
      "tags": {
        "amenity": "car_wash",
        "name": "Bosch Car Service"
      }
    },
    {
      "type": "node",
      "id": 5255533520,
      "lat": 13.0084602,
      "lon": 77.6609259,
      "tags": {
        "amenity": "place_of_worship",
        "name": "Kashi Vishalakshi Temple",
        "religion": "hindu"
      }
    },
    {
      "type": "node",
      "id": 5255534222,
      "lat": 13.0056978,
      "lon": 77.6604552,
      "tags": {
        "amenity": "bank",
        "brand": "Indian Bank",
        "brand:wikidata": "Q2003789",
        "name": "Indian Bank",
        "name:kn": "ಇಂಡಿಯನ್ ಬ್ಯಾಂಕ್"
      }
    },
    {
      "type": "node",
      "id": 5255534241,
      "lat": 13.0044271,
      "lon": 77.6601481,
      "tags": {
        "check_date": "2025-07-09",
        "name": "Ramdev Fashions",
        "opening_hours": "Mo-Su,PH 10:00-21:00",
        "shop": "clothes",
        "wheelchair": "no"
      }
    },
    {
      "type": "node",
      "id": 5255534242,
      "lat": 13.0030093,
      "lon": 77.6608924,
      "tags": {
        "name": "Apna Computer and Books Shop",
        "opening_hours": "Mo-Su,PH 08:00-21:00",
        "shop": "books",
        "wheelchair": "no"
      }
    },
    {
      "type": "node",
      "id": 5570654721,
      "lat": 13.014431,
      "lon": 77.6580134,
      "tags": {
        "amenity": "restaurant",
        "name": "New Udipi Park"
      }
    },
    {
      "type": "node",
      "id": 5611375921,
      "lat": 13.0054335,
      "lon": 77.6599299,
      "tags": {
        "addr:city": "Bangalore",
        "addr:postcode": "560043",
        "addr:street": "2nd Main Road",
        "email": "jockey.B63@pageind.com",
        "name": "Jockey",
        "opening_hours": "Mo-Su,PH 11:00-21:00",
        "phone": "+918043026668",
        "shop": "clothes",
        "website": "https://www.jockeyindia.com"
      }
    },
    {
      "type": "node",
      "id": 5833747054,
      "lat": 13.0037485,
      "lon": 77.6603498,
      "tags": {
        "addr:city": "Bangalore",
        "addr:housenumber": "1BM, 219, East of NGEF Layout, Kasturi Nagar",
        "addr:postcode": "560043",
        "addr:street": "3rd Cross Road",
        "amenity": "bank",
        "atm": "yes",
        "brand": "HDFC Bank",
        "brand:wikidata": "Q631047",
        "description": "HDFC ATM",
        "name": "HDFC Bank",
        "name:kn": "ಎಚ್. ಡಿ. ಎಫ್. ಸಿ..",
        "opening_hours": "Mo-Su,PH 01:00-24:00",
        "operator": "HDFC",
        "short_name": "HDFC"
      }
    },
    {
      "type": "node",
      "id": 5833756771,
      "lat": 13.0021237,
      "lon": 77.6615626,
      "tags": {
        "addr:city": "Bangalore",
        "addr:housenumber": "201, 2nd Main Road, East of NGEF Layout, Kasturi Nagar",
        "addr:postcode": "560043",
        "addr:street": "1st C Cross Road",
        "amenity": "ice_cream",
        "brand": "Corner House",
        "check_date": "2025-06-25",
        "cuisine": "ice_cream",
        "delivery": "yes",
        "name": "Corner House",
        "opening_hours": "Mo-Su,PH 11:00-23:00",
        "takeaway": "yes"
      }
    },
    {
      "type": "node",
      "id": 6944274074,
      "lat": 13.0139247,
      "lon": 77.6640775,
      "tags": {
        "addr:district": "Bengaluru Urban",
        "addr:full": "No. 16, Hoysala Nagar, Maruti Complex, Ramamurthy Nagar Extension",
        "addr:postcode": "560016",
        "addr:state": "Karnataka",
        "amenity": "hospital",
        "name": "Ayurseva Hospital",
        "source": "OpenGovernmentData"
      }
    },
    {
      "type": "node",
      "id": 6947662480,
      "lat": 13.011968,
      "lon": 77.6659168,
      "tags": {
        "addr:district": "Bengaluru Urban",
        "addr:full": "#311, 4B Cross, R.M. Nagar Main Road, Kasthuri Nagar",
        "addr:postcode": "560016",
        "addr:state": "Karnataka",
        "amenity": "hospital",
        "name": "Sri Sai Eye Hospital",
        "source": "OpenGovernmentData"
      }
    },
    {
      "type": "node",
      "id": 6991301269,
      "lat": 13.0041876,
      "lon": 77.6659393,
      "tags": {
        "addr:street": "Kempegowda Underpass Road",
        "amenity": "police",
        "name": "Ramamurthy Nagar Police Station"
      }
    },
    {
      "type": "node",
      "id": 6991371023,
      "lat": 13.0076876,
      "lon": 77.6683121,
      "tags": {
        "addr:street": "3rd Cross, Subramani Layout",
        "amenity": "school",
        "name": "Manu Kannada School"
      }
    },
    {
      "type": "node",
      "id": 6991415993,
      "lat": 13.0119371,
      "lon": 77.6670609,
      "tags": {
        "addr:street": "No. 5C-404, Ramamurthy Nagar Main Road",
        "amenity": "bank",
        "brand": "Andhra Bank",
        "brand:wikidata": "Q2003476",
        "name": "Andhra Bank",
        "name:kn": "ಆಂಧ್ರ ಬ್ಯಾಂಕ್",
        "opening_hours": "Mo-Sa 09:30-16:00"
      }
    },
    {
      "type": "node",
      "id": 6991444326,
      "lat": 13.0089378,
      "lon": 77.6674347,
      "tags": {
        "addr:street": "SP Naidu Layout",
        "amenity": "bank",
        "brand": "State Bank of India",
        "brand:wikidata": "Q1340361",
        "name": "State Bank of India",
        "short_name": "SBI"
      }
    },
    {
      "type": "node",
      "id": 6991455384,
      "lat": 13.0120621,
      "lon": 77.6673126,
      "tags": {
        "addr:street": "410, #5C, Ramamurthy Nagar Main Road",
        "amenity": "bank",
        "name": "Kaveri Grameena Bank",
        "not:brand:wikidata": "Q24936908",
        "opening_hours": "Mo-Sa 10:00-17:00"
      }
    },
    {
      "type": "node",
      "id": 6991459885,
      "lat": 13.0115623,
      "lon": 77.6679382,
      "tags": {
        "addr:street": "No. 183, Ground Floor, Near Uttam Sagar Hotel",
        "brand": "Nilgiri's",
        "brand:wikidata": "Q17079567",
        "name": "Nilgiri's",
        "shop": "supermarket"
      }
    },
    {
      "type": "node",
      "id": 7577248180,
      "lat": 13.0096223,
      "lon": 77.6556985,
      "tags": {
        "addr:district": "Bengaluru Urban",
        "addr:full": "OMBR Layout, Banaswadi, Bengaluru",
        "addr:postcode": "560043",
        "addr:state": "Karnataka",
        "amenity": "clinic",
        "name": "Raja Rama's Homeopathy & Ayurvedic Centre",
        "source": "Local Knowledge"
      }
    },
    {
      "type": "node",
      "id": 7577248193,
      "lat": 13.0091103,
      "lon": 77.6579493,
      "tags": {
        "addr:district": "Bengaluru Urban",
        "addr:full": "Lal Bahadur Nagar, Kasturi Nagar, Bengaluru",
        "addr:postcode": "560043",
        "addr:state": "Karnataka",
        "amenity": "hospital",
        "name": "Skin Remediez",
        "source": "Local Knowledge"
      }
    },
    {
      "type": "node",
      "id": 7577248194,
      "lat": 13.0148814,
      "lon": 77.6555197,
      "tags": {
        "addr:district": "Bengaluru Urban",
        "addr:full": "Ramamurthy Nagar Main Road, Banasawadi, Bengaluru",
        "addr:postcode": "560043",
        "addr:state": "Karnataka",
        "amenity": "clinic",
        "name": "Pranav Diabetes Centre",
        "source": "Local Knowledge"
      }
    },
    {
      "type": "node",
      "id": 7577248195,
      "lat": 13.0089068,
      "lon": 77.656123,
      "tags": {
        "addr:district": "Bengaluru Urban",
        "addr:full": "Channasandra, Kasturi Nagar, Bengaluru",
        "addr:postcode": "560043",
        "addr:state": "Karnataka",
        "amenity": "clinic",
        "name": "Janani Women & Kids Clinic",
        "source": "Local Knowledge"
      }
    },
    {
      "type": "node",
      "id": 7577248197,
      "lat": 13.0135619,
      "lon": 77.6616914,
      "tags": {
        "addr:district": "Bengaluru Urban",
        "addr:full": "KVS Pinnacle, Banaswadi, Bengaluru",
        "addr:postcode": "560043",
        "addr:state": "Karnataka",
        "amenity": "dentist",
        "name": "Aesthetic Dental Care",
        "source": "Local Knowledge"
      }
    },
    {
      "type": "node",
      "id": 7577248212,
      "lat": 13.0090467,
      "lon": 77.653918,
      "tags": {
        "addr:district": "Bengaluru Urban",
        "addr:full": "OMBR Layout, Banaswadi, Bengaluru",
        "addr:postcode": "560043",
        "addr:state": "Karnataka",
        "amenity": "doctors",
        "name": "Dr. Naeem Sadiq",
        "source": "Local Knowledge"
      }
    },
    {
      "type": "node",
      "id": 7577248228,
      "lat": 13.0135989,
      "lon": 77.661537,
      "tags": {
        "addr:district": "Bengaluru Urban",
        "addr:full": "KVS pinnacle, Vijaya Bank Colony, Banasawadi, Bengaluru",
        "addr:postcode": "560043",
        "addr:state": "Karnataka",
        "amenity": "dentist",
        "name": "Dr. Syeds Dental Care",
        "source": "Local Knowledge"
      }
    },
    {
      "type": "node",
      "id": 7577248231,
      "lat": 13.0151401,
      "lon": 77.6559684,
      "tags": {
        "addr:district": "Bengaluru Urban",
        "addr:full": "Annaiah Reddy Layout, Banaswadi, Bengaluru",
        "addr:postcode": "560043",
        "addr:state": "Karnataka",
        "amenity": "clinic",
        "name": "Premji Occupational Therapy & Rehabilitation Centre",
        "source": "Local Knowledge"
      }
    },
    {
      "type": "node",
      "id": 7577248235,
      "lat": 13.0102697,
      "lon": 77.6525909,
      "tags": {
        "addr:district": "Bengaluru Urban",
        "addr:full": "OMBR Layout, Banaswadi, Bengaluru",
        "addr:postcode": "560043",
        "addr:state": "Karnataka",
        "amenity": "hospital",
        "name": "Motherhood Women & Children Hospital",
        "source": "Local Knowledge"
      }
    },
    {
      "type": "node",
      "id": 7577248236,
      "lat": 13.0136545,
      "lon": 77.6599916,
      "tags": {
        "addr:district": "Bengaluru Urban",
        "addr:full": "Green Park Layout, Banaswadi, Bengaluru",
        "addr:postcode": "560043",
        "addr:state": "Karnataka",
        "amenity": "clinic",
        "name": "M J Child Clinic",
        "source": "Local Knowledge"
      }
    },
    {
      "type": "node",
      "id": 7577248251,
      "lat": 13.013821,
      "lon": 77.660555,
      "tags": {
        "addr:district": "Bengaluru Urban",
        "addr:full": "Dodda Banaswadi Road, Bengaluru",
        "addr:postcode": "560043",
        "addr:state": "Karnataka",
        "amenity": "clinic",
        "name": "Dr. Murthy Ayurved Clinic",
        "source": "Local Knowledge"
      }
    },
    {
      "type": "node",
      "id": 7577248254,
      "lat": 13.0166883,
      "lon": 77.6604049,
      "tags": {
        "addr:district": "Bengaluru Urban",
        "addr:full": "Ramamurthy Nagar, Kuvempu Nagar, Bellandur, Bengaluru",
        "addr:postcode": "560043",
        "addr:state": "Karnataka",
        "amenity": "hospital",
        "name": "Super Specialty Eye Hospital",
        "source": "Local Knowledge"
      }
    },
    {
      "type": "node",
      "id": 7577248255,
      "lat": 13.0102168,
      "lon": 77.6580368,
      "tags": {
        "addr:district": "Bengaluru Urban",
        "addr:full": "Channasandra, Bengaluru",
        "addr:postcode": "560043",
        "addr:state": "Karnataka",
        "amenity": "clinic",
        "name": "Ashwini Clinic",
        "name:kn": "ಅಶ್ವಿನಿ ಚಿಕಿತ್ಸಾಲಯ",
        "source": "Local Knowledge"
      }
    },
    {
      "type": "node",
      "id": 7577248264,
      "lat": 13.00975,
      "lon": 77.6568,
      "tags": {
        "addr:district": "Bengaluru Urban",
        "addr:full": "Lakshmamma Layout, Banaswadi, Bengaluru",
        "addr:postcode": "560043",
        "addr:state": "Karnataka",
        "amenity": "clinic",
        "name": "Sneha Clinic",
        "source": "Local Knowledge"
      }
    },
    {
      "type": "node",
      "id": 7577248268,
      "lat": 13.0135918,
      "lon": 77.661698,
      "tags": {
        "addr:district": "Bengaluru Urban",
        "addr:full": "Vijaya Bank Colony, Banaswadi, Bengaluru",
        "addr:postcode": "560043",
        "addr:state": "Karnataka",
        "amenity": "dentist",
        "name": "Dr. Shetty's Dental",
        "source": "Local Knowledge"
      }
    },
    {
      "type": "node",
      "id": 7577248280,
      "lat": 13.0151223,
      "lon": 77.6544807,
      "tags": {
        "addr:district": "Bengaluru Urban",
        "addr:full": "Annaiah Reddy Layout, Banasawadi, Bengaluru",
        "addr:postcode": "560043",
        "addr:state": "Karnataka",
        "amenity": "dentist",
        "name": "Dr. Anil's Dental Clinic",
        "source": "Local Knowledge"
      }
    },
    {
      "type": "node",
      "id": 7577248281,
      "lat": 13.0112923,
      "lon": 77.6573558,
      "tags": {
        "addr:district": "Bengaluru Urban",
        "addr:full": "Bhuvanagiri, OMBR Layout, Banaswadi, Bengaluru",
        "addr:postcode": "560043",
        "addr:state": "Karnataka",
        "amenity": "clinic",
        "name": "Shanthi Women's Healthcare Centre",
        "source": "Local Knowledge"
      }
    },
    {
      "type": "node",
      "id": 9830198518,
      "lat": 13.01582,
      "lon": 77.6623911,
      "tags": {
        "name": "Peps Showroom",
        "shop": "bed"
      }
    },
    {
      "type": "node",
      "id": 9830198519,
      "lat": 13.015773,
      "lon": 77.6624045,
      "tags": {
        "name": "Furniture Shop",
        "shop": "furniture"
      }
    },
    {
      "type": "node",
      "id": 10303904020,
      "lat": 13.0074481,
      "lon": 77.6624228,
      "tags": {
        "check_date": "2023-01-04",
        "name": "Maharatna Furniture",
        "shop": "furniture",
        "source": "survey",
        "wheelchair": "no"
      }
    },
    {
      "type": "node",
      "id": 10303904021,
      "lat": 13.0104693,
      "lon": 77.6622,
      "tags": {
        "check_date": "2023-01-04",
        "name": "Andrew Wood Crafts",
        "shop": "furniture",
        "source": "survey"
      }
    },
    {
      "type": "node",
      "id": 10303904022,
      "lat": 13.0162523,
      "lon": 77.6610716,
      "tags": {
        "brand": "Toyota",
        "brand:wikidata": "Q53268",
        "check_date": "2025-07-09",
        "name": "Nandi Toyota",
        "shop": "car",
        "source": "survey"
      }
    },
    {
      "type": "node",
      "id": 10303904023,
      "lat": 13.0174217,
      "lon": 77.6588824,
      "tags": {
        "amenity": "place_of_worship",
        "check_date": "2023-01-04",
        "name": "Sri Veera Anjaneya Swami Temple",
        "religion": "hindu",
        "source": "survey"
      }
    },
    {
      "type": "node",
      "id": 11108947099,
      "lat": 13.0129811,
      "lon": 77.6639785,
      "tags": {
        "addr:city": "Bengaluru",
        "addr:district": "Bengaluru Urban",
        "addr:housenumber": "827/6",
        "addr:postcode": "560016",
        "addr:street": "3rd Floor, D.V.R ARCADE, Ramamurthy nagar main road",
        "amenity": "theatre",
        "amenity_1": "cafe",
        "name": "Chaplin Hut",
        "website": "https://www.chaplinhut.com/"
      }
    },
    {
      "type": "node",
      "id": 11583714336,
      "lat": 13.0113153,
      "lon": 77.6621399,
      "tags": {
        "amenity": "bench",
        "backrest": "no",
        "material": "concrete"
      }
    },
    {
      "type": "node",
      "id": 11583714341,
      "lat": 13.0113498,
      "lon": 77.6621426,
      "tags": {
        "amenity": "bench",
        "backrest": "no",
        "material": "concrete"
      }
    },
    {
      "type": "node",
      "id": 12306807001,
      "lat": 13.0149167,
      "lon": 77.6568687,
      "tags": {
        "addr:postcode": "560043",
        "addr:street": "2 B Main Road",
        "name": "Imperial Dry Cleaners",
        "shop": "laundry"
      }
    },
    {
      "type": "node",
      "id": 12883873345,
      "lat": 13.0010582,
      "lon": 77.6618418,
      "tags": {
        "addr:floor": "G",
        "amenity": "fast_food",
        "check_date": "2025-06-03",
        "level": "0",
        "name": "Calcutta Victoria Chat House",
        "name:en": "Calcutta Victoria Chat House"
      }
    },
    {
      "type": "node",
      "id": 12887426834,
      "lat": 13.001333,
      "lon": 77.6619286,
      "tags": {
        "addr:floor": "G",
        "amenity": "pharmacy",
        "check_date": "2025-06-05",
        "healthcare": "pharmacy",
        "level": "0",
        "name": "MedPlus",
        "name:en": "MedPlus"
      }
    },
    {
      "type": "node",
      "id": 12899812395,
      "lat": 13.0021565,
      "lon": 77.6612709,
      "tags": {
        "addr:floor": "G",
        "check_date": "2025-06-09",
        "internet_access": "no",
        "level": "0",
        "name": "Kasturi Mart",
        "name:en": "Kasturi Mart",
        "payment:cash": "yes",
        "payment:credit_cards": "yes",
        "payment:debit_cards": "yes",
        "shop": "supermarket"
      }
    },
    {
      "type": "node",
      "id": 12899812396,
      "lat": 13.0022963,
      "lon": 77.6612279,
      "tags": {
        "addr:floor": "G",
        "check_date": "2025-06-09",
        "level": "0",
        "name": "Kasturi Provision Store",
        "name:en": "Kasturi Provision Store",
        "shop": "convenience"
      }
    },
    {
      "type": "node",
      "id": 12907525856,
      "lat": 13.0033511,
      "lon": 77.6607132,
      "tags": {
        "addr:floor": "G",
        "amenity": "pharmacy",
        "brand": "Apollo Pharmacy",
        "brand:wikidata": "Q62562612",
        "check_date": "2025-06-11",
        "dispensing": "no",
        "drive_through": "no",
        "healthcare": "pharmacy",
        "level": "0",
        "name": "Apollo Pharmacy",
        "name:en": "Apollo Pharmacy",
        "payment:cash": "yes",
        "payment:credit_cards": "yes",
        "payment:debit_cards": "yes",
        "source": "local knowledge"
      }
    },
    {
      "type": "node",
      "id": 12913173465,
      "lat": 13.001637,
      "lon": 77.6618886,
      "tags": {
        "addr:floor": "G",
        "brand": "Nandini",
        "brand:wikidata": "Q124374212",
        "check_date": "2025-06-14",
        "level": "0",
        "name": "Nandini",
        "name:en": "Nandini",
        "shop": "dairy"
      }
    },
    {
      "type": "node",
      "id": 12915242286,
      "lat": 13.0023503,
      "lon": 77.6611974,
      "tags": {
        "addr:floor": "G",
        "amenity": "restaurant",
        "check_date": "2025-06-14",
        "cuisine": "regional;indian",
        "diet:vegetarian": "yes",
        "level": "0",
        "name": "Sri Ganesh",
        "name:en": "Sri Ganesh"
      }
    },
    {
      "type": "node",
      "id": 12916979748,
      "lat": 13.0055402,
      "lon": 77.6595826,
      "tags": {
        "addr:floor": "G",
        "check_date": "2025-06-15",
        "level": "0",
        "name": "D Mart",
        "name:en": "D Mart",
        "shop": "supermarket"
      }
    },
    {
      "type": "node",
      "id": 12917094457,
      "lat": 13.0054941,
      "lon": 77.659597,
      "tags": {
        "addr:floor": "1",
        "amenity": "clinic",
        "check_date": "2025-06-15",
        "healthcare": "clinic",
        "healthcare:speciality": "dentist",
        "level": "1",
        "name": "Dezy",
        "name:en": "Dezy",
        "operator:type": "private"
      }
    },
    {
      "type": "node",
      "id": 12919948119,
      "lat": 13.0120327,
      "lon": 77.6671163,
      "tags": {
        "addr:floor": "G",
        "amenity": "bank",
        "atm": "yes",
        "brand": "Union Bank of India",
        "brand:wikidata": "Q2004078",
        "check_date": "2025-06-17",
        "currency:INR": "yes",
        "drive_through": "no",
        "level": "0",
        "name": "Union Bank of India",
        "name:en": "Union Bank of India"
      }
    },
    {
      "type": "node",
      "id": 12947058516,
      "lat": 13.0029313,
      "lon": 77.6613616,
      "tags": {
        "check_date": "2025-06-23",
        "name": "Nandos",
        "name:en": "Nandos",
        "shop": "butcher"
      }
    },
    {
      "type": "node",
      "id": 12950084738,
      "lat": 13.0028734,
      "lon": 77.6612764,
      "tags": {
        "check_date": "2025-09-20",
        "female": "yes",
        "level": "-1",
        "male": "yes",
        "name": "New Life Style Saloon",
        "name:en": "New Life Style Saloon",
        "shop": "hairdresser"
      }
    },
    {
      "type": "node",
      "id": 12952231674,
      "lat": 13.0021166,
      "lon": 77.6611947,
      "tags": {
        "check_date": "2025-06-25",
        "leisure": "fitness_centre",
        "name": "J L Fitness",
        "name:en": "J L Fitness"
      }
    },
    {
      "type": "node",
      "id": 12956968429,
      "lat": 13.0014783,
      "lon": 77.6618646,
      "tags": {
        "addr:floor": "G",
        "check_date": "2025-06-27",
        "level": "0",
        "name": "Specsmakers",
        "name:en": "Specsmakers",
        "payment:cash": "yes",
        "payment:credit_cards": "yes",
        "payment:debit_cards": "yes",
        "shop": "optician"
      }
    },
    {
      "type": "node",
      "id": 12961548923,
      "lat": 13.0021742,
      "lon": 77.6598831,
      "tags": {
        "addr:floor": "G",
        "amenity": "fast_food",
        "check_date": "2025-08-08",
        "cuisine": "juice",
        "drive_through": "no",
        "indoor_seating": "no",
        "level": "0",
        "name": "Lassi Centre",
        "name:en": "Lassi Centre",
        "outdoor_seating": "no",
        "payment:cards": "no",
        "payment:cash": "yes",
        "payment:credit_cards": "no",
        "payment:debit_cards": "no",
        "takeaway": "only"
      }
    },
    {
      "type": "node",
      "id": 12988267480,
      "lat": 13.0047453,
      "lon": 77.6599498,
      "tags": {
        "addr:floor": "G",
        "amenity": "restaurant",
        "check_date": "2025-07-09",
        "cuisine": "indian;regional",
        "diet:vegetarian": "yes",
        "level": "0",
        "name": "Sendhoor Coffee"
      }
    },
    {
      "type": "node",
      "id": 12988895224,
      "lat": 13.0111617,
      "lon": 77.6613705,
      "tags": {
        "amenity": "school",
        "check_date": "2025-07-09",
        "name": "New Learning Ladders International School",
        "name:en": "New Learning Ladders International School",
        "operator:type": "private"
      }
    },
    {
      "type": "node",
      "id": 12988906203,
      "lat": 13.0127447,
      "lon": 77.6619543,
      "tags": {
        "addr:floor": "G;1",
        "check_date": "2025-07-09",
        "level": "0;1",
        "name": "M K The Baby Shop",
        "name:en": "M K The Baby Shop",
        "shop": "baby_goods"
      }
    },
    {
      "type": "node",
      "id": 12998564066,
      "lat": 13.0012793,
      "lon": 77.6617499,
      "tags": {
        "addr:floor": "G",
        "brand": "Lenskart",
        "brand:wikidata": "Q17068753",
        "check_date": "2025-07-14",
        "level": "0",
        "name": "Lenskart",
        "name:en": "Lenskart",
        "shop": "optician"
      }
    },
    {
      "type": "node",
      "id": 12998564067,
      "lat": 13.0011546,
      "lon": 77.6618014,
      "tags": {
        "addr:floor": "G",
        "check_date": "2025-07-14",
        "level": "0",
        "name": "Bakery Train",
        "name:en": "Bakery Train",
        "shop": "bakery"
      }
    },
    {
      "type": "node",
      "id": 12998564068,
      "lat": 13.0016248,
      "lon": 77.661574,
      "tags": {
        "addr:floor": "G",
        "check_date": "2025-07-14",
        "level": "0",
        "name": "Kanti Sweets",
        "name:en": "Kanti Sweets",
        "shop": "confectionery"
      }
    },
    {
      "type": "node",
      "id": 13014836262,
      "lat": 13.0134938,
      "lon": 77.6618967,
      "tags": {
        "brand": "Reliance Digital",
        "brand:wikidata": "Q7311012",
        "check_date": "2025-07-21",
        "name": "Reliance Digital",
        "name:en": "Reliance Digital",
        "shop": "electronics"
      }
    },
    {
      "type": "node",
      "id": 13072628554,
      "lat": 13.0058328,
      "lon": 77.6597392,
      "tags": {
        "amenity": "hospital",
        "check_date": "2025-08-15",
        "healthcare": "hospital",
        "name": "NASA Hospitals"
      }
    },
    {
      "type": "node",
      "id": 13072706614,
      "lat": 13.0047791,
      "lon": 77.6568374,
      "tags": {
        "addr:floor": "G",
        "amenity": "bank",
        "atm": "yes",
        "brand": "Canara Bank",
        "brand:en": "Canara Bank",
        "brand:hi": "केनरा बैंक",
        "brand:kn": "ಕೆನರಾ ಬ್ಯಾಂಕ್",
        "brand:pa": "ਕੇਨਰਾ ਬੈਂਕ",
        "brand:pnb": "کینرا بینک",
        "brand:ur": "کینرا بینک",
        "brand:wikidata": "Q2003777",
        "check_date": "2025-08-15",
        "drive_through": "no",
        "level": "0",
        "name": "Canara Bank",
        "name:en": "Canara Bank",
        "name:hi": "केनरा बैंक",
        "name:kn": "ಕೆನರಾ ಬ್ಯಾಂಕ್",
        "name:pa": "ਕੇਨਰਾ ਬੈਂਕ",
        "name:pnb": "کینرا بینک",
        "name:ur": "کینرا بینک"
      }
    },
    {
      "type": "node",
      "id": 13089232587,
      "lat": 13.0049835,
      "lon": 77.6601436,
      "tags": {
        "addr:floor": "G",
        "check_date": "2025-08-22",
        "level": "0",
        "name": "Licious Store",
        "name:en": "Licious Store",
        "payment:cash": "yes",
        "payment:credit_cards": "yes",
        "payment:debit_cards": "yes",
        "shop": "butcher"
      }
    },
    {
      "type": "node",
      "id": 13089232588,
      "lat": 13.004728,
      "lon": 77.660252,
      "tags": {
        "addr:floor": "G",
        "amenity": "bank",
        "check_date": "2025-08-22",
        "level": "0",
        "name": "Utkarsh Small Finance Bank"
      }
    },
    {
      "type": "node",
      "id": 13089232589,
      "lat": 13.0043462,
      "lon": 77.6604392,
      "tags": {
        "addr:floor": "G",
        "amenity": "pharmacy",
        "check_date": "2025-08-22",
        "healthcare": "pharmacy",
        "level": "0",
        "name": "Puran Medical And Central Store",
        "name:en": "Puran Medical And Central Store"
      }
    },
    {
      "type": "node",
      "id": 13094603990,
      "lat": 13.0017907,
      "lon": 77.6614691,
      "tags": {
        "addr:floor": "G",
        "amenity": "atm",
        "brand": "Canara Bank",
        "brand:en": "Canara Bank",
        "brand:hi": "केनरा बैंक",
        "brand:kn": "ಕೆನರಾ ಬ್ಯಾಂಕ್",
        "brand:pa": "ਕੇਨਰਾ ਬੈਂਕ",
        "brand:pnb": "کینرا بینک",
        "brand:ur": "کینرا بینک",
        "brand:wikidata": "Q2003777",
        "cash_in": "no",
        "check_date": "2025-08-24",
        "drive_through": "no",
        "level": "0",
        "operator": "Canara Bank",
        "operator:wikidata": "Q2003777"
      }
    },
    {
      "type": "node",
      "id": 13100714478,
      "lat": 13.0055959,
      "lon": 77.6598682,
      "tags": {
        "addr:floor": "G",
        "amenity": "restaurant",
        "check_date": "2025-08-27",
        "diet:halal": "yes",
        "level": "0",
        "name": "Punjabi Adda",
        "name:en": "Punjabi Adda",
        "wheelchair": "no"
      }
    },
    {
      "type": "node",
      "id": 13100714479,
      "lat": 13.0056949,
      "lon": 77.6598137,
      "tags": {
        "addr:floor": "1",
        "amenity": "restaurant",
        "check_date": "2025-08-27",
        "level": "1",
        "name": "Rumi",
        "name:en": "Rumi"
      }
    },
    {
      "type": "node",
      "id": 13100714480,
      "lat": 13.0052929,
      "lon": 77.6597115,
      "tags": {
        "addr:floor": "G",
        "amenity": "bank",
        "brand": "Yes Bank",
        "brand:wikidata": "Q2040394",
        "check_date": "2025-08-27",
        "level": "0",
        "name": "Yes Bank",
        "name:en": "Yes Bank"
      }
    },
    {
      "type": "node",
      "id": 13100714481,
      "lat": 13.0057911,
      "lon": 77.6595163,
      "tags": {
        "addr:floor": "G",
        "amenity": "pharmacy",
        "check_date": "2025-08-27",
        "healthcare": "pharmacy",
        "level": "0",
        "name": "Krishna Pharma",
        "name:en": "Krishna Pharma"
      }
    },
    {
      "type": "node",
      "id": 13131399191,
      "lat": 13.0124799,
      "lon": 77.6526379,
      "tags": {
        "addr:city": "Bengaluru East City Corporation",
        "addr:housenumber": "412",
        "addr:postcode": "560043",
        "addr:street": "5th Cross Road",
        "amenity": "cafe",
        "cuisine": "coffee_shop;tea",
        "internet_access": "no",
        "name": "Tea Shop",
        "opening_hours": "Mo-Su 09:00-21:00",
        "outdoor_seating": "yes"
      }
    },
    {
      "type": "node",
      "id": 13158293113,
      "lat": 13.0021682,
      "lon": 77.6612885,
      "tags": {
        "addr:floor": "1",
        "check_date": "2025-09-20",
        "level": "1",
        "name": "New Life Style Saloon",
        "name:en": "New Life Style Saloon",
        "shop": "beauty"
      }
    },
    {
      "type": "node",
      "id": 13231741530,
      "lat": 13.0014835,
      "lon": 77.6616171,
      "tags": {
        "addr:floor": "G",
        "amenity": "restaurant",
        "check_date": "2025-10-14",
        "level": "0",
        "name": "Tea Party",
        "name:en": "Tea Party"
      }
    },
    {
      "type": "node",
      "id": 13299123208,
      "lat": 13.014797,
      "lon": 77.661934,
      "tags": {
        "addr:full": "113/2, Narmada Colony, Vijaya Bank Colony, Banaswadi, near to Vijaya Bank Colony, Bengaluru, Karnataka, 560043",
        "addr:postcode": "560043",
        "addr:state": "Karnataka",
        "amenity": "fuel",
        "brand": "Indian Oil",
        "brand:wikidata": "Q1289348",
        "compressed_air": "yes",
        "opening_hours": "Mo-Su 06:00-22:00",
        "phone": "+918025491499",
        "website": "https://locator.iocl.com/indianoil-sree-bhalajie-enterprises-petrol-pump-banaswadi-bengaluru-199945/Home"
      }
    },
    {
      "type": "node",
      "id": 13324558094,
      "lat": 13.0024232,
      "lon": 77.6613912,
      "tags": {
        "addr:floor": "G",
        "amenity": "restaurant",
        "check_date": "2025-11-22",
        "cuisine": "regional",
        "diet:vegetarian": "yes",
        "level": "0",
        "name": "Sri Udupi Vaibhava",
        "name:en": "Sri Udupi Vaibhava"
      }
    },
    {
      "type": "node",
      "id": 13344632701,
      "lat": 13.0021062,
      "lon": 77.6615763,
      "tags": {
        "addr:floor": "1",
        "amenity": "restaurant",
        "check_date": "2025-12-01",
        "cuisine": "chinese",
        "level": "1",
        "name": "The Red Lantern",
        "name:en": "The Red Lantern"
      }
    },
    {
      "type": "way",
      "id": 160470311,
      "center": {
        "lat": 13.016985,
        "lon": 77.6590561
      },
      "tags": {
        "building": "yes",
        "name": "Smart Bazaar",
        "shop": "supermarket",
        "wheelchair": "yes"
      }
    },
    {
      "type": "way",
      "id": 217937696,
      "center": {
        "lat": 13.0118753,
        "lon": 77.6591927
      },
      "tags": {
        "leisure": "park",
        "name": "Bhuvanagiri Park",
        "name:kn": "ಭುವನಗಿರಿ ಉದ್ಯಾನವನ"
      }
    },
    {
      "type": "way",
      "id": 217937984,
      "center": {
        "lat": 13.012982,
        "lon": 77.661694
      },
      "tags": {
        "leisure": "park",
        "name": "OMBR Outer Ring Road Park"
      }
    },
    {
      "type": "way",
      "id": 232875109,
      "center": {
        "lat": 13.008287,
        "lon": 77.6581534
      },
      "tags": {
        "leisure": "park",
        "name": "Green View Welfare Park"
      }
    },
    {
      "type": "way",
      "id": 239548076,
      "center": {
        "lat": 13.0074593,
        "lon": 77.6552191
      },
      "tags": {
        "addr:street": "Channasandra Main Road, Gurijiya Gutta, Bennigana Halli",
        "amenity": "school",
        "name": "Sri Chaithanya PU college Banasawadi"
      }
    },
    {
      "type": "way",
      "id": 255741541,
      "center": {
        "lat": 13.0044708,
        "lon": 77.6612846
      },
      "tags": {
        "leisure": "park"
      }
    },
    {
      "type": "way",
      "id": 255741542,
      "center": {
        "lat": 13.003506,
        "lon": 77.6594679
      },
      "tags": {
        "leisure": "park"
      }
    },
    {
      "type": "way",
      "id": 329411701,
      "center": {
        "lat": 13.0100331,
        "lon": 77.6569506
      },
      "tags": {
        "amenity": "school"
      }
    },
    {
      "type": "way",
      "id": 362932940,
      "center": {
        "lat": 13.0034456,
        "lon": 77.6618892
      },
      "tags": {
        "addr:city": "Bangalore",
        "addr:housenumber": "2nd A Cross Rd, East of NGEF Layout, Kasturi Nagar",
        "addr:postcode": "560043",
        "addr:street": "2nd A Cross Road",
        "description": "Shivaram Karanth Park, Kasturi Nagar",
        "leisure": "park",
        "name": "Shivaram Karanth Park"
      }
    },
    {
      "type": "way",
      "id": 366981473,
      "center": {
        "lat": 13.0054864,
        "lon": 77.6608858
      },
      "tags": {
        "addr:city": "Kasturi Nagar, Bangalore",
        "addr:postcode": "560043",
        "addr:street": "3rd A Cross, 2nd A Main",
        "amenity": "college",
        "name": "New Horizon PU College",
        "name:en": "New Horizon College"
      }
    },
    {
      "type": "way",
      "id": 525512526,
      "center": {
        "lat": 13.0052442,
        "lon": 77.6611503
      },
      "tags": {
        "amenity": "school",
        "name": "Presidency School"
      }
    },
    {
      "type": "way",
      "id": 525513750,
      "center": {
        "lat": 13.0054129,
        "lon": 77.6596136
      },
      "tags": {
        "amenity": "restaurant",
        "building": "yes",
        "cuisine": "chinese",
        "name": "Chung Wah",
        "name:kn": "ಚುಂಗ್ ವಾ"
      }
    },
    {
      "type": "way",
      "id": 676038910,
      "center": {
        "lat": 13.0066341,
        "lon": 77.6602453
      },
      "tags": {
        "leisure": "park"
      }
    },
    {
      "type": "way",
      "id": 726934591,
      "center": {
        "lat": 13.011171,
        "lon": 77.652372
      },
      "tags": {
        "leisure": "park"
      }
    },
    {
      "type": "way",
      "id": 726934670,
      "center": {
        "lat": 13.0120749,
        "lon": 77.6534731
      },
      "tags": {
        "leisure": "park",
        "name": "Bhuvanagiri Park",
        "name:kn": "ಭುವನಗಿರಿ ಉದ್ಯಾನವನ"
      }
    },
    {
      "type": "way",
      "id": 1046070713,
      "center": {
        "lat": 13.0153822,
        "lon": 77.6650789
      },
      "tags": {
        "addr:city": "Bengaluru",
        "addr:housenumber": "1-8",
        "addr:postcode": "560016",
        "addr:street": "3rd Main Road",
        "amenity": "place_of_worship",
        "building": "church",
        "building:levels": "4",
        "denomination": "pentecostal",
        "image": "https://www.google.com/maps/uv?pb=!1s0x3bae11ab821a75d1%3A0xdbc64bb7140dd00e!3m1!7e115!4shttps%3A%2F%2Flh5.googleusercontent.com%2Fp%2FAF1QipPFd3rnzlFerkRpUTaZgooePNYo3d1l5c4eRwYM%3Dw426-h240-k-no!5sadonaichurch%20-%20Google%20Search!15sCgIgARICEAE&imagek",
        "name": "Adonai Church",
        "religion": "christian",
        "service_times": "Sunday 10:00 - 13:00",
        "smoking": "no",
        "website": "https://adonaichurch.in"
      }
    },
    {
      "type": "way",
      "id": 1070002220,
      "center": {
        "lat": 13.0147303,
        "lon": 77.6618456
      },
      "tags": {
        "amenity": "fuel",
        "brand": "Indian Oil",
        "brand:wikidata": "Q1289348",
        "brand:wikipedia": "en:Indian Oil Corporation",
        "check_date": "2025-07-09",
        "compressed_air": "yes",
        "fuel:diesel": "yes",
        "fuel:petrol": "yes",
        "name": "Indian Oil",
        "name:kn": "ಇಂಡಿಯನ್ ಆಯಿಲ್",
        "self_service": "no",
        "source": "survey"
      }
    },
    {
      "type": "way",
      "id": 1157172405,
      "center": {
        "lat": 13.0102547,
        "lon": 77.6621923
      },
      "tags": {
        "amenity": "fuel",
        "brand": "Hindustan Petroleum",
        "brand:wikidata": "Q1619375",
        "check_date": "2022-12-09",
        "compressed_air": "yes",
        "fuel:diesel": "yes",
        "fuel:petrol": "yes",
        "name": "HP",
        "name:kn": "ಹಿಂದುಸ್ತಾನ್ ಪೆಟ್ರೋಲಿಯಂ",
        "official_name": "Hindustan Petroleum",
        "self_service": "no",
        "source": "survey"
      }
    },
    {
      "type": "way",
      "id": 1366533317,
      "center": {
        "lat": 13.0046832,
        "lon": 77.6537517
      },
      "tags": {
        "addr:floor": "G",
        "amenity": "fuel",
        "brand": "Nayara",
        "brand:wikidata": "Q5399377",
        "check_date": "2025-06-20",
        "level": "0",
        "name": "Nayara",
        "payment:cash": "yes",
        "payment:credit_cards": "yes",
        "payment:debit_cards": "yes"
      }
    },
    {
      "type": "way",
      "id": 1366533577,
      "center": {
        "lat": 13.0097817,
        "lon": 77.6524884
      },
      "tags": {
        "amenity": "college",
        "landuse": "education",
        "name": "New Shores International College"
      }
    },
    {
      "type": "way",
      "id": 1366533609,
      "center": {
        "lat": 13.0132214,
        "lon": 77.6522959
      },
      "tags": {
        "amenity": "place_of_worship",
        "landuse": "religious",
        "name": "Banaswadi Anjaneya Temple",
        "name:kn": "ಬಾಣಸವಾಡಿ ಆಂಜನೇಯ ದೇವಸ್ಥಾನ",
        "religion": "hindu"
      }
    },
    {
      "type": "way",
      "id": 1366533813,
      "center": {
        "lat": 13.0150504,
        "lon": 77.6575403
      },
      "tags": {
        "addr:street": "Banaswadi Main Rd, Banasawadi",
        "amenity": "school",
        "name": "New Baldwins School"
      }
    },
    {
      "type": "way",
      "id": 1366744417,
      "center": {
        "lat": 13.0119693,
        "lon": 77.6515794
      },
      "tags": {
        "amenity": "place_of_worship",
        "name": "Bethel CSI Church",
        "religion": "christian"
      }
    },
    {
      "type": "way",
      "id": 1371021625,
      "center": {
        "lat": 13.0038847,
        "lon": 77.6573616
      },
      "tags": {
        "amenity": "fuel",
        "brand": "Bharat Petroleum",
        "brand:wikidata": "Q854826",
        "compressed_air": "yes",
        "name": "Bharat Petroleum Petrol Pump",
        "name:kn": "ಭಾರತ್ ಪೆಟ್ರೋಲಿಯಂ"
      }
    },
    {
      "type": "way",
      "id": 1371961870,
      "center": {
        "lat": 13.0087532,
        "lon": 77.6617862
      },
      "tags": {
        "amenity": "school"
      }
    },
    {
      "type": "way",
      "id": 1371961980,
      "center": {
        "lat": 13.0085667,
        "lon": 77.650975
      },
      "tags": {
        "addr:postcode": "560043",
        "addr:street": "B Channasandra Main Road",
        "amenity": "school",
        "name": "St. George College of Management, Science & Nursing",
        "website": "http://www.stgeorgecollege.org"
      }
    },
    {
      "type": "way",
      "id": 1372019687,
      "center": {
        "lat": 13.0019535,
        "lon": 77.6608045
      },
      "tags": {
        "leisure": "park"
      }
    },
    {
      "type": "way",
      "id": 1372019688,
      "center": {
        "lat": 13.0011175,
        "lon": 77.6614775
      },
      "tags": {
        "leisure": "park"
      }
    },
    {
      "type": "way",
      "id": 1372097519,
      "center": {
        "lat": 13.0085608,
        "lon": 77.6619723
      },
      "tags": {
        "access": "private",
        "leisure": "pitch",
        "sport": "basketball"
      }
    },
    {
      "type": "way",
      "id": 1395880673,
      "center": {
        "lat": 13.0124198,
        "lon": 77.6666622
      },
      "tags": {
        "amenity": "fuel",
        "name": "IBP Petrol Pump"
      }
    },
    {
      "type": "way",
      "id": 1395880704,
      "center": {
        "lat": 13.010457,
        "lon": 77.6696582
      },
      "tags": {
        "addr:city": "Bengaluru",
        "addr:postcode": "560016",
        "addr:street": "Main road, Ramamurthy Nagar",
        "amenity": "school",
        "name": "Jaigopal Garodia Rashtrotthana Vidya Kendra",
        "website": "https://rvkcbse.in/rm-nagar/index.html"
      }
    },
    {
      "type": "way",
      "id": 1395880709,
      "center": {
        "lat": 13.0075324,
        "lon": 77.666812
      },
      "tags": {
        "leisure": "park"
      }
    },
    {
      "type": "way",
      "id": 1410389141,
      "center": {
        "lat": 13.0154238,
        "lon": 77.6664847
      },
      "tags": {
        "amenity": "fuel",
        "brand": "Bharat Petroleum",
        "brand:wikidata": "Q854826",
        "name": "Bharat Petroleum",
        "operator": "Bharat Petroleum"
      }
    },
    {
      "type": "way",
      "id": 1410597946,
      "center": {
        "lat": 13.0134355,
        "lon": 77.6625918
      },
      "tags": {
        "amenity": "toilets",
        "building": "yes"
      }
    },
    {
      "type": "way",
      "id": 1423880504,
      "center": {
        "lat": 13.0154809,
        "lon": 77.6642056
      },
      "tags": {
        "amenity": "theatre",
        "landuse": "commercial",
        "name": "Natyapriya's Nruthyakshetra School of Performing Arts"
      }
    },
    {
      "type": "way",
      "id": 1423880505,
      "center": {
        "lat": 13.0160783,
        "lon": 77.6638777
      },
      "tags": {
        "amenity": "college",
        "landuse": "education",
        "name": "Havnur College of Law"
      }
    },
    {
      "type": "way",
      "id": 1423880520,
      "center": {
        "lat": 13.0155533,
        "lon": 77.6636491
      },
      "tags": {
        "access": "private",
        "leisure": "swimming_pool"
      }
    }
  ]
}