{
  "area_name": "Babusab Palya",
  "osm_id": 19884575,
  "osm_type": "relation",
  "place_type": "administrative",
  "amenity_count": 81,
  "amenities": [
    {
      "type": "node",
      "id": 595305444,
      "lat": 13.0255258,
      "lon": 77.6524721,
      "tags": {
        "amenity": "place_of_worship",
        "name": "Gethseman Sungji Church",
        "religion": "christian"
      }
    },
    {
      "type": "node",
      "id": 595305844,
      "lat": 13.0257078,
      "lon": 77.6517029,
      "tags": {
        "amenity": "pharmacy",
        "name": "Dava Sagar"
      }
    },
    {
      "type": "node",
      "id": 595305848,
      "lat": 13.0230704,
      "lon": 77.6508206,
      "tags": {
        "addr:street": "Horamavu Agara Main Road",
        "amenity": "pharmacy",
        "brand": "Apollo Pharmacy",
        "brand:wikidata": "Q62562612",
        "healthcare": "pharmacy",
        "name": "Apollo Pharmacy",
        "name:kn": "ಅಪೊಲೋ ಫಾರ್ಮಸಿ"
      }
    },
    {
      "type": "node",
      "id": 595305917,
      "lat": 13.0224257,
      "lon": 77.6508337,
      "tags": {
        "addr:street": "Horamavu Agara Main Road",
        "brand": "More",
        "brand:wikidata": "Q6910891",
        "name": "More",
        "shop": "supermarket"
      }
    },
    {
      "type": "node",
      "id": 595308644,
      "lat": 13.0218507,
      "lon": 77.6501901,
      "tags": {
        "addr:street": "Outer Ring Road",
        "amenity": "bank",
        "atm": "yes",
        "brand": "Karnataka Bank",
        "brand:wikidata": "Q2042632",
        "name": "Karnataka Bank",
        "name:kn": "ಕರ್ನಾಟಕ ಬ್ಯಾಂಕ್"
      }
    },
    {
      "type": "node",
      "id": 833729924,
      "lat": 13.0223265,
      "lon": 77.6505234,
      "tags": {
        "amenity": "conference_centre",
        "name": "VVCH Conference Hall"
      }
    },
    {
      "type": "node",
      "id": 905784975,
      "lat": 13.0228247,
      "lon": 77.6477855,
      "tags": {
        "amenity": "restaurant",
        "name": "Little Imperial",
        "name:kn": "ಲಿಟಲ್ ಇಂಪಿರಿಯಲ್"
      }
    },
    {
      "type": "node",
      "id": 1279116236,
      "lat": 13.022202,
      "lon": 77.6507704,
      "tags": {
        "addr:street": "Horamavu Agara Main Road",
        "name": "City Pearl",
        "shop": "supermarket"
      }
    },
    {
      "type": "node",
      "id": 1280318946,
      "lat": 13.0228757,
      "lon": 77.6509402,
      "tags": {
        "addr:street": "Horamavu Agara Main Road",
        "name": "7 Days",
        "shop": "supermarket"
      }
    },
    {
      "type": "node",
      "id": 1283697988,
      "lat": 13.0226434,
      "lon": 77.6481609,
      "tags": {
        "amenity": "pharmacy",
        "dispensing": "yes",
        "name": "Trust Pharma"
      }
    },
    {
      "type": "node",
      "id": 1533923521,
      "lat": 13.0201633,
      "lon": 77.6565925,
      "tags": {
        "addr:postcode": "560043",
        "addr:street": "Horamavu Main Road",
        "amenity": "bank",
        "atm": "yes",
        "brand": "State Bank of India",
        "brand:wikidata": "Q1340361",
        "brand:wikipedia": "en:State Bank of India",
        "name": "State Bank of India",
        "name:kn": "ಭಾರತೀಯ ಸ್ಟೇಟ್ ಬ್ಯಾಂಕ್",
        "short_name": "SBI"
      }
    },
    {
      "type": "node",
      "id": 1670718780,
      "lat": 13.0220854,
      "lon": 77.6505416,
      "tags": {
        "amenity": "atm",
        "operator": "Axis Bank ATM"
      }
    },
    {
      "type": "node",
      "id": 1722802205,
      "lat": 13.0307899,
      "lon": 77.653594,
      "tags": {
        "amenity": "hospital",
        "emergency": "no",
        "name": "Karunya Homoeopathy Centre"
      }
    },
    {
      "type": "node",
      "id": 1725094663,
      "lat": 13.0249273,
      "lon": 77.6592607,
      "tags": {
        "brand": "Nilgiri's",
        "brand:wikidata": "Q17079567",
        "name": "Nilgiri's",
        "name:kn": "ನೀಲ್ಗಿರೀಸ್",
        "opening_hours": "Mo-Su 08:30-20:00",
        "shop": "supermarket"
      }
    },
    {
      "type": "node",
      "id": 2624180875,
      "lat": 13.0219084,
      "lon": 77.6577437,
      "tags": {
        "amenity": "atm",
        "brand": "HDFC Bank",
        "brand:wikidata": "Q631047",
        "name": "HDFC Bank",
        "operator": "HDFC Bank",
        "operator:wikidata": "Q631047",
        "short_name": "HDFC"
      }
    },
    {
      "type": "node",
      "id": 2624184578,
      "lat": 13.0218163,
      "lon": 77.657739,
      "tags": {
        "amenity": "cafe",
        "name": "Sweet Chariot Cafe"
      }
    },
    {
      "type": "node",
      "id": 2624209440,
      "lat": 13.0189051,
      "lon": 77.6567845,
      "tags": {
        "amenity": "cafe",
        "name": "Cafe Coffee Day",
        "name:kn": "ಕಫೆ ಕಾಫಿ ಡೇ"
      }
    },
    {
      "type": "node",
      "id": 2624211636,
      "lat": 13.0219675,
      "lon": 77.6549932,
      "tags": {
        "amenity": "place_of_worship",
        "name": "Ganesha Temple",
        "name:kn": "ಗಣೇಶ ದೇವಸ್ಥಾನ",
        "religion": "hindu"
      }
    },
    {
      "type": "node",
      "id": 2624213813,
      "lat": 13.0214757,
      "lon": 77.6575717,
      "tags": {
        "name": "HomeBuzz",
        "shop": "supermarket"
      }
    },
    {
      "type": "node",
      "id": 2625677571,
      "lat": 13.0219905,
      "lon": 77.6577775,
      "tags": {
        "amenity": "pharmacy",
        "brand": "MedPlus",
        "brand:wikidata": "Q65684234",
        "healthcare": "pharmacy",
        "name": "MedPlus",
        "name:kn": "ಮೆಡ್‍ಪ್ಲಸ್"
      }
    },
    {
      "type": "node",
      "id": 2625715089,
      "lat": 13.0198168,
      "lon": 77.6562684,
      "tags": {
        "amenity": "pharmacy",
        "name": "Maruthi Medicals"
      }
    },
    {
      "type": "node",
      "id": 2625715090,
      "lat": 13.0191488,
      "lon": 77.6562873,
      "tags": {
        "name": "Bhagath Motors - Hero",
        "shop": "motorcycle"
      }
    },
    {
      "type": "node",
      "id": 2625722535,
      "lat": 13.0217627,
      "lon": 77.6577043,
      "tags": {
        "amenity": "restaurant",
        "cuisine": "chinese",
        "name": "Chung Wak"
      }
    },
    {
      "type": "node",
      "id": 4349872694,
      "lat": 13.0166722,
      "lon": 77.6617032,
      "tags": {
        "amenity": "place_of_worship",
        "name": "Temple",
        "religion": "hindu"
      }
    },
    {
      "type": "node",
      "id": 4446997759,
      "lat": 13.0230548,
      "lon": 77.6472679,
      "tags": {
        "addr:city": "Bangalore",
        "addr:housenumber": "917",
        "addr:postcode": "560043",
        "addr:street": "9th Main Rd, Kalyan Nagar, Babusabpalya, Hennur",
        "amenity": "restaurant",
        "check_date": "2025-06-21",
        "cuisine": "regional",
        "delivery": "yes",
        "name": "Sri Krishna Bhawan",
        "opening_hours": "06:00-23:00",
        "phone": "098801 98969",
        "smoking": "no",
        "takeaway": "yes"
      }
    },
    {
      "type": "node",
      "id": 4489699996,
      "lat": 13.0245541,
      "lon": 77.6559134,
      "tags": {
        "addr:city": "Bangalore",
        "addr:housenumber": "173",
        "addr:postcode": "560076",
        "addr:street": "Hormavu Main Road",
        "name": "Seven Days Supermarket",
        "phone": "(91)-9743257556",
        "shop": "supermarket"
      }
    },
    {
      "type": "node",
      "id": 4489848616,
      "lat": 13.0202407,
      "lon": 77.6551359,
      "tags": {
        "addr:city": "bangalore",
        "addr:housenumber": "34",
        "addr:postcode": "560043",
        "addr:street": "Outer Ring Road",
        "name": "Qi Spa and Salon",
        "opening_hours": "09:00-21:30",
        "phone": "8296137528",
        "shop": "beauty"
      }
    },
    {
      "type": "node",
      "id": 4844863332,
      "lat": 13.0205159,
      "lon": 77.6530997,
      "tags": {
        "name": "Havells",
        "name:en": "Havells",
        "shop": "electronics"
      }
    },
    {
      "type": "node",
      "id": 4844863333,
      "lat": 13.0257145,
      "lon": 77.6518053,
      "tags": {
        "name": "Meatz trading solutions",
        "name:en": "Meatz trading solutions",
        "shop": "butcher"
      }
    },
    {
      "type": "node",
      "id": 4844863334,
      "lat": 13.0259167,
      "lon": 77.652283,
      "tags": {
        "name": "Supreme travel solutions",
        "name:en": "Supreme travel solutions",
        "shop": "travel_agency"
      }
    },
    {
      "type": "node",
      "id": 4844863335,
      "lat": 13.0311093,
      "lon": 77.6534247,
      "tags": {
        "name": "Fashion footwear",
        "name:en": "Fashion footwear",
        "shop": "shoes"
      }
    },
    {
      "type": "node",
      "id": 4844865028,
      "lat": 13.0208846,
      "lon": 77.6524026,
      "tags": {
        "name": "Exide",
        "name:en": "Exide",
        "shop": "car_parts"
      }
    },
    {
      "type": "node",
      "id": 4844865029,
      "lat": 13.0232219,
      "lon": 77.6508758,
      "tags": {
        "name": "Lenspick",
        "name:en": "Lenspick",
        "shop": "optician"
      }
    },
    {
      "type": "node",
      "id": 4844865030,
      "lat": 13.0246294,
      "lon": 77.6512209,
      "tags": {
        "name": "Karnataka home appliances",
        "name:en": "Karnataka home appliances",
        "shop": "electronics"
      }
    },
    {
      "type": "node",
      "id": 4844867421,
      "lat": 13.0286188,
      "lon": 77.6526542,
      "tags": {
        "amenity": "pharmacy",
        "name": "Maruthi Medical's",
        "name:en": "Maruthi Medical's"
      }
    },
    {
      "type": "node",
      "id": 4844867521,
      "lat": 13.0301725,
      "lon": 77.6530855,
      "tags": {
        "amenity": "fast_food",
        "name": "Ifun",
        "name:en": "Ifun"
      }
    },
    {
      "type": "node",
      "id": 6900454795,
      "lat": 13.0205461,
      "lon": 77.6584402,
      "tags": {
        "addr:city": "Bengaluru",
        "addr:country": "IN",
        "addr:hamlet": "Horamavu",
        "addr:housenumber": "108/2",
        "addr:postcode": "560043",
        "addr:street": "4th Main Road",
        "amenity": "coworking_space",
        "email": "make.do@the-workshop.in",
        "leisure": "hackerspace",
        "name": "Think Happy Everyday - Workshop",
        "phone": "+91-9930749611",
        "website": "https://the-workshop.in/"
      }
    },
    {
      "type": "node",
      "id": 7572131825,
      "lat": 13.0236149,
      "lon": 77.6586628,
      "tags": {
        "addr:district": "Bengaluru Urban",
        "addr:full": "Horamavu, Bengaluru",
        "addr:postcode": "560043",
        "addr:state": "Karnataka",
        "amenity": "clinic",
        "name": "Women's Speciality Polyclinic",
        "source": "Local Knowledge"
      }
    },
    {
      "type": "node",
      "id": 7572131828,
      "lat": 13.0209741,
      "lon": 77.6573009,
      "tags": {
        "addr:district": "Bengaluru Urban",
        "addr:full": "Horamavu Main Road, Kallumantapa, Horamavu, Bengaluru",
        "addr:postcode": "560043",
        "addr:state": "Karnataka",
        "amenity": "clinic",
        "name": "Maneet Poly Clinic",
        "source": "Local Knowledge"
      }
    },
    {
      "type": "node",
      "id": 7572131833,
      "lat": 13.0239995,
      "lon": 77.6585299,
      "tags": {
        "addr:district": "Bengaluru Urban",
        "addr:full": "Horamavu, Near Banaswadi, Bengaluru",
        "addr:postcode": "560043",
        "addr:state": "Karnataka",
        "amenity": "hospital",
        "name": "Stroke Treatment Paralysis",
        "source": "Local Knowledge"
      }
    },
    {
      "type": "node",
      "id": 7572131850,
      "lat": 13.024278,
      "lon": 77.6587297,
      "tags": {
        "addr:district": "Bengaluru Urban",
        "addr:full": "Ashirvad Colony, Horamavu, Bengaluru",
        "addr:postcode": "560043",
        "addr:state": "Karnataka",
        "amenity": "clinic",
        "name": "People's Clinic",
        "source": "Local Knowledge"
      }
    },
    {
      "type": "node",
      "id": 7572131854,
      "lat": 13.0236678,
      "lon": 77.6587012,
      "tags": {
        "addr:district": "Bengaluru Urban",
        "addr:full": "Amar Regency, Munireddy Layout, Horamavu, Bengaluru",
        "addr:postcode": "560043",
        "addr:state": "Karnataka",
        "amenity": "clinic",
        "name": "The Children's Clinic",
        "source": "Local Knowledge"
      }
    },
    {
      "type": "node",
      "id": 7572131869,
      "lat": 13.022726,
      "lon": 77.658252,
      "tags": {
        "addr:district": "Bengaluru Urban",
        "addr:full": "Ashirvad Colony, Horamavu, Bengaluru",
        "addr:postcode": "560043",
        "addr:state": "Karnataka",
        "amenity": "clinic",
        "name": "Motherhoodclinic",
        "source": "Local Knowledge"
      }
    },
    {
      "type": "node",
      "id": 7572131880,
      "lat": 13.0219021,
      "lon": 77.65971,
      "tags": {
        "addr:district": "Bengaluru Urban",
        "addr:full": "Nandanam Colony, Kallumantapa, Horamavu, Bengaluru",
        "addr:postcode": "560043",
        "addr:state": "Karnataka",
        "amenity": "clinic",
        "name": "Shubham Ayurvedic Clinic",
        "source": "Local Knowledge"
      }
    },
    {
      "type": "node",
      "id": 7572131893,
      "lat": 13.022742,
      "lon": 77.657851,
      "tags": {
        "addr:district": "Bengaluru Urban",
        "addr:full": "Horamavu Main Road, Horamavu, Bengaluru",
        "addr:postcode": "560043",
        "addr:state": "Karnataka",
        "amenity": "dentist",
        "name": "Jaya Dental Clinic",
        "source": "Local Knowledge"
      }
    },
    {
      "type": "node",
      "id": 7572131899,
      "lat": 13.0234596,
      "lon": 77.6587343,
      "tags": {
        "addr:district": "Bengaluru Urban",
        "addr:full": "Horamavu, Bengaluru",
        "addr:postcode": "560043",
        "addr:state": "Karnataka",
        "amenity": "clinic",
        "name": "Lifespan Diabetic Clinic",
        "source": "Local Knowledge"
      }
    },
    {
      "type": "node",
      "id": 7577248279,
      "lat": 13.020084,
      "lon": 77.654053,
      "tags": {
        "addr:district": "Bengaluru Urban",
        "addr:full": "Nanjappa Garden, Horamavu, Bengaluru",
        "addr:postcode": "560043",
        "addr:state": "Karnataka",
        "amenity": "hospital",
        "name": "Cloudnine Hospital",
        "source": "Local Knowledge"
      }
    },
    {
      "type": "node",
      "id": 9830198518,
      "lat": 13.01582,
      "lon": 77.6623911,
      "tags": {
        "name": "Peps Showroom",
        "shop": "bed"
      }
    },
    {
      "type": "node",
      "id": 9830198519,
      "lat": 13.015773,
      "lon": 77.6624045,
      "tags": {
        "name": "Furniture Shop",
        "shop": "furniture"
      }
    },
    {
      "type": "node",
      "id": 11107573795,
      "lat": 13.0255127,
      "lon": 77.6515929,
      "tags": {
        "amenity": "taxi",
        "name": "Auto Stand",
        "name:kn": "ಆಟೋ ನಿಲ್ದಾಣ"
      }
    },
    {
      "type": "node",
      "id": 11345404436,
      "lat": 13.0303405,
      "lon": 77.6491473,
      "tags": {
        "amenity": "atm",
        "brand": "Axis Bank",
        "brand:wikidata": "Q2003549",
        "name": "Axis Bank",
        "name:kn": "ಆಕ್ಸಿಸ್ ಬ್ಯಾಂಕ್",
        "operator": "Axis Bank",
        "operator:wikidata": "Q2003549",
        "wheelchair": "limited"
      }
    },
    {
      "type": "node",
      "id": 11933111681,
      "lat": 13.023413,
      "lon": 77.6471477,
      "tags": {
        "name": "Pazhampori cafe",
        "phone": "+919845978209",
        "shop": "tea",
        "website": "http://pazhamporicafe.com"
      }
    },
    {
      "type": "node",
      "id": 11949965342,
      "lat": 13.0244107,
      "lon": 77.6495625,
      "tags": {
        "check_date": "2024-06-01",
        "description": "Tea shop along with shakes, sandwiches and some snacks.",
        "name": "Eggetarian",
        "name:en": "Eggetarian",
        "opening_hours": "Mo-Su,PH 08:00-22:00",
        "shop": "tea"
      }
    },
    {
      "type": "node",
      "id": 12450551973,
      "lat": 13.0211537,
      "lon": 77.6519077,
      "tags": {
        "amenity": "cafe",
        "name": "Brewsom Coffee"
      }
    },
    {
      "type": "node",
      "id": 12459196455,
      "lat": 13.0282394,
      "lon": 77.6558532,
      "tags": {
        "amenity": "place_of_worship",
        "religion": "hindu"
      }
    },
    {
      "type": "node",
      "id": 12542016150,
      "lat": 13.021882,
      "lon": 77.6580688,
      "tags": {
        "check_date": "2025-01-29",
        "contact:instagram": "https://www.instagram.com/lalithasbooknook",
        "name": "Lalitha's Book Nook",
        "shop": "books"
      }
    },
    {
      "type": "node",
      "id": 12952263230,
      "lat": 13.022118,
      "lon": 77.648854,
      "tags": {
        "amenity": "shelter",
        "shelter_type": "gazebo"
      }
    },
    {
      "type": "node",
      "id": 13013182897,
      "lat": 13.0196646,
      "lon": 77.6550064,
      "tags": {
        "addr:floor": "G",
        "amenity": "restaurant",
        "check_date": "2025-07-20",
        "level": "0",
        "name": "Manyata"
      }
    },
    {
      "type": "way",
      "id": 51130921,
      "center": {
        "lat": 13.0273088,
        "lon": 77.6527331
      },
      "tags": {
        "amenity": "school"
      }
    },
    {
      "type": "way",
      "id": 51132139,
      "center": {
        "lat": 13.0329949,
        "lon": 77.65147
      },
      "tags": {
        "amenity": "school",
        "name": "St Vincent Palloti School"
      }
    },
    {
      "type": "way",
      "id": 207854064,
      "center": {
        "lat": 13.0288063,
        "lon": 77.6530754
      },
      "tags": {
        "addr:housename": "MARUTHI SCHOOL",
        "amenity": "school",
        "name": "Maruthi School",
        "name:kn": "ಮಾರುತಿ ಶಾಲೆ"
      }
    },
    {
      "type": "way",
      "id": 256940540,
      "center": {
        "lat": 13.0224158,
        "lon": 77.6580401
      },
      "tags": {
        "addr:district": "Bengaluru Urban",
        "addr:full": "No. 66, 9Th Main , Horamavu Post Horamavu Main Road Banaswadi",
        "addr:postcode": "560043",
        "addr:state": "Karnataka",
        "amenity": "hospital",
        "building": "yes",
        "emergency": "yes",
        "name": "Nmpc Hospital",
        "source": "OpenGovernmentData"
      }
    },
    {
      "type": "way",
      "id": 256948011,
      "center": {
        "lat": 13.0187259,
        "lon": 77.657214
      },
      "tags": {
        "building": "yes",
        "name": "Khivraj Motors - Bajaj",
        "shop": "motorcycle"
      }
    },
    {
      "type": "way",
      "id": 525518302,
      "center": {
        "lat": 13.0263279,
        "lon": 77.6559927
      },
      "tags": {
        "amenity": "school",
        "name": "Devamata Central School",
        "name:kn": "ದೇವಮಾತ ಕೇಂದ್ರ ಶಾಲೆ"
      }
    },
    {
      "type": "way",
      "id": 675387096,
      "center": {
        "lat": 13.0287492,
        "lon": 77.6553999
      },
      "tags": {
        "access": "private",
        "leisure": "swimming_pool"
      }
    },
    {
      "type": "way",
      "id": 687173302,
      "center": {
        "lat": 13.0297588,
        "lon": 77.6509558
      },
      "tags": {
        "amenity": "place_of_worship",
        "building": "church",
        "name": "St Joseph's Church",
        "name:kn": "ಸೆಂಟ್ ಜೋಸೆಫ್ ಚರ್ಚ್",
        "religion": "christian"
      }
    },
    {
      "type": "way",
      "id": 687173305,
      "center": {
        "lat": 13.0300544,
        "lon": 77.650963
      },
      "tags": {
        "amenity": "place_of_worship",
        "religion": "christian"
      }
    },
    {
      "type": "way",
      "id": 687173308,
      "center": {
        "lat": 13.025235,
        "lon": 77.6510715
      },
      "tags": {
        "access": "private",
        "leisure": "swimming_pool"
      }
    },
    {
      "type": "way",
      "id": 687216884,
      "center": {
        "lat": 13.0211276,
        "lon": 77.6511902
      },
      "tags": {
        "leisure": "park",
        "name": "Babusabpalya Park",
        "wheelchair": "limited"
      }
    },
    {
      "type": "way",
      "id": 695548659,
      "center": {
        "lat": 13.0297939,
        "lon": 77.6513457
      },
      "tags": {
        "amenity": "parking"
      }
    },
    {
      "type": "way",
      "id": 1272659320,
      "center": {
        "lat": 13.0335696,
        "lon": 77.651482
      },
      "tags": {
        "leisure": "pitch",
        "sport": "basketball"
      }
    },
    {
      "type": "way",
      "id": 1305075770,
      "center": {
        "lat": 13.0232857,
        "lon": 77.6466478
      },
      "tags": {
        "addr:city": "Babusabpalya, Hennur",
        "addr:street": "Outer Ring Road",
        "amenity": "place_of_worship",
        "check_date": "2023-01-04",
        "landuse": "religious",
        "name": "Sri Shakti Vinayaka Temple",
        "name:kn": "ಶ್ರೀ ವಿನಾಯಕ ದೇವಸ್ಥಾನ",
        "religion": "hindu"
      }
    },
    {
      "type": "way",
      "id": 1305076032,
      "center": {
        "lat": 13.0293446,
        "lon": 77.6493084
      },
      "tags": {
        "access": "private",
        "leisure": "swimming_pool"
      }
    },
    {
      "type": "way",
      "id": 1346910005,
      "center": {
        "lat": 13.0261629,
        "lon": 77.6564647
      },
      "tags": {
        "amenity": "school",
        "name": "Sri Chaitanya School"
      }
    },
    {
      "type": "way",
      "id": 1346910006,
      "center": {
        "lat": 13.0269962,
        "lon": 77.6569341
      },
      "tags": {
        "amenity": "college",
        "name": "Sri Chaitanya PU College, Horamavu"
      }
    },
    {
      "type": "way",
      "id": 1347574138,
      "center": {
        "lat": 13.0240196,
        "lon": 77.6527883
      },
      "tags": {
        "leisure": "pitch",
        "sport": "soccer"
      }
    },
    {
      "type": "way",
      "id": 1347720004,
      "center": {
        "lat": 13.0204758,
        "lon": 77.655831
      },
      "tags": {
        "access": "private",
        "leisure": "swimming_pool"
      }
    },
    {
      "type": "way",
      "id": 1347735193,
      "center": {
        "lat": 13.0301259,
        "lon": 77.6495652
      },
      "tags": {
        "access": "private",
        "leisure": "swimming_pool"
      }
    },
    {
      "type": "way",
      "id": 1347735287,
      "center": {
        "lat": 13.0331851,
        "lon": 77.6514386
      },
      "tags": {
        "leisure": "pitch"
      }
    },
    {
      "type": "way",
      "id": 1409539462,
      "center": {
        "lat": 13.0238349,
        "lon": 77.6450462
      },
      "tags": {
        "leisure": "park"
      }
    },
    {
      "type": "way",
      "id": 1410597946,
      "center": {
        "lat": 13.0134355,
        "lon": 77.6625918
      },
      "tags": {
        "amenity": "toilets",
        "building": "yes"
      }
    }
  ]
}