{
  "area_name": "Balaji Layout",
  "osm_id": 11652617757,
  "osm_type": "node",
  "place_type": "neighbourhood",
  "amenity_count": 593,
  "amenities": [
    {
      "type": "node",
      "id": 838588827,
      "lat": 13.0032767,
      "lon": 77.6229524,
      "tags": {
        "amenity": "place_of_worship",
        "name:kn": "ಮಸೀದಿ",
        "religion": "muslim"
      }
    },
    {
      "type": "node",
      "id": 857105893,
      "lat": 13.0068553,
      "lon": 77.6241647,
      "tags": {
        "addr:city": "Bangalore",
        "addr:country": "IN",
        "addr:postcode": "560084",
        "addr:street": "Hutchins Main Road",
        "name": "Mini Bazaar",
        "name:kn": "ಮಿನಿ ಬಜಾರ್",
        "shop": "supermarket",
        "wheelchair": "no"
      }
    },
    {
      "type": "node",
      "id": 857105898,
      "lat": 13.0037348,
      "lon": 77.6228739,
      "tags": {
        "amenity": "taxi",
        "name": "Auto Stand",
        "name:kn": "ಆಟೋ ನಿಲ್ದಾಣ"
      }
    },
    {
      "type": "node",
      "id": 857105905,
      "lat": 13.003599,
      "lon": 77.6225091,
      "tags": {
        "amenity": "fast_food",
        "name": "Food Magic",
        "name:kn": "ಫುಡ್ ಮ್ಯಾಜಿಕ್"
      }
    },
    {
      "type": "node",
      "id": 860057144,
      "lat": 13.0050896,
      "lon": 77.623376,
      "tags": {
        "amenity": "pharmacy",
        "healthcare": "pharmacy",
        "name": "Amruth Medicals",
        "name:kn": "ಅಮೃತ ಮೆಡಿಕಲ್ಸ್"
      }
    },
    {
      "type": "node",
      "id": 860057145,
      "lat": 13.0052518,
      "lon": 77.6233121,
      "tags": {
        "amenity": "pharmacy",
        "brand": "Apollo Pharmacy",
        "brand:wikidata": "Q62562612",
        "healthcare": "pharmacy",
        "name": "Apollo Pharmacy",
        "name:kn": "ಅಪೊಲೋ ಫಾರ್ಮಸಿ"
      }
    },
    {
      "type": "node",
      "id": 1085622347,
      "lat": 13.0009914,
      "lon": 77.6184047,
      "tags": {
        "addr:street": "Near Bangalore East Railway Station",
        "amenity": "atm",
        "operator": "Canara Bank ATM"
      }
    },
    {
      "type": "node",
      "id": 1442052879,
      "lat": 13.0004021,
      "lon": 77.6233737,
      "tags": {
        "amenity": "atm",
        "brand": "State Bank of India",
        "brand:wikidata": "Q1340361",
        "operator": "State Bank of India",
        "operator:wikidata": "Q1340361",
        "short_name": "SBI",
        "toilets:wheelchair": "no",
        "wheelchair": "yes"
      }
    },
    {
      "type": "node",
      "id": 1442053943,
      "lat": 12.9999497,
      "lon": 77.6229731,
      "tags": {
        "amenity": "restaurant",
        "cuisine": "chinese",
        "name": "Delicacy Chinese Restaurant",
        "name:kn": "ಡೆಲಿಕಸಿ ಚೈನೀಸ್ ರೆಸ್ಟೋರಂಟ್",
        "toilets:wheelchair": "no",
        "wheelchair": "limited"
      }
    },
    {
      "type": "node",
      "id": 1469282330,
      "lat": 12.9960742,
      "lon": 77.6170891,
      "tags": {
        "amenity": "restaurant",
        "name": "Komala Refreshment",
        "name:kn": "ಕೊಮಲ ರಿಫ್ರೆಶ್‌ಮೆಂಟ್"
      }
    },
    {
      "type": "node",
      "id": 1469314053,
      "lat": 12.9965077,
      "lon": 77.6220456,
      "tags": {
        "amenity": "hospital",
        "name": "Srinivasa Nursing Home"
      }
    },
    {
      "type": "node",
      "id": 1469314069,
      "lat": 12.9963828,
      "lon": 77.6202753,
      "tags": {
        "amenity": "bank",
        "name": "Vijaya Bank",
        "name:kn": "ವಿಜಯ ಬ್ಯಾಂಕು"
      }
    },
    {
      "type": "node",
      "id": 1469320276,
      "lat": 12.9950065,
      "lon": 77.6202748,
      "tags": {
        "amenity": "place_of_worship",
        "name": "Mouna Guru Swamy Mutt and Temple",
        "religion": "hindu"
      }
    },
    {
      "type": "node",
      "id": 1469320280,
      "lat": 12.9969092,
      "lon": 77.6198773,
      "tags": {
        "amenity": "bank",
        "brand": "Axis Bank",
        "brand:wikidata": "Q2003549",
        "brand:wikipedia": "en:Axis Bank",
        "name": "Axis Bank",
        "name:en": "Axis Bank",
        "name:kn": "ಅಕ್ಸಿಸ್ ಬ್ಯಾಂಕ್",
        "website": "https://www.axisbank.com"
      }
    },
    {
      "type": "node",
      "id": 1469320296,
      "lat": 12.9975424,
      "lon": 77.6225532,
      "tags": {
        "amenity": "place_of_worship",
        "name": "Sri Varasiddhi Vinayaka Temple",
        "name:kn": "ವರಸಿದ್ದಿ ವಿನಾಯಕ ದೇವಸ್ಥಾನ",
        "religion": "hindu",
        "toilets:wheelchair": "no",
        "wheelchair": "yes"
      }
    },
    {
      "type": "node",
      "id": 1474200449,
      "lat": 12.9999459,
      "lon": 77.6158737,
      "tags": {
        "addr:postcode": "560005",
        "addr:street": "Mosque Road",
        "alt_name": "Hotel Empire",
        "amenity": "restaurant",
        "brand": "Empire",
        "check_date": "2024-04-27",
        "cuisine": "indian",
        "delivery": "yes",
        "diet:halal": "yes",
        "name": "Empire",
        "name:kn": "ಎಂಪೈರ್ ರೆಸ್ಟೋರೆಂಟ್",
        "takeaway": "yes"
      }
    },
    {
      "type": "node",
      "id": 1851790242,
      "lat": 13.0039163,
      "lon": 77.6245782,
      "tags": {
        "name": "Cafe Da Costa",
        "shop": "bakery",
        "wheelchair": "limited"
      }
    },
    {
      "type": "node",
      "id": 1851792669,
      "lat": 13.0055429,
      "lon": 77.6252364,
      "tags": {
        "addr:city": "Bangalore",
        "addr:housenumber": "32/2",
        "addr:postcode": "560084",
        "addr:street": "Wheeler Road Extension",
        "addr:unit": "St. Thomas Town",
        "amenity": "pharmacy",
        "healthcare": "pharmacy",
        "name": "Priyanka Pharma",
        "toilets:wheelchair": "no",
        "wheelchair": "no"
      }
    },
    {
      "type": "node",
      "id": 1851797681,
      "lat": 13.0013558,
      "lon": 77.6235851,
      "tags": {
        "name": "Basha Department Store",
        "name:kn": "ಬಾಷ ಡಿಪಾರ್ಟ್ಮೆಂಟ್ ಸ್ಟೋರ್",
        "shop": "supermarket",
        "toilets:wheelchair": "no",
        "wheelchair": "no"
      }
    },
    {
      "type": "node",
      "id": 1851799046,
      "lat": 13.001197,
      "lon": 77.6240601,
      "tags": {
        "brand": "HOPCOMS",
        "brand:wikidata": "Q22908959",
        "name": "HOPCOMS",
        "name:kn": "ಹಾಪ್‌ಕಾಮ್ಸ್",
        "shop": "greengrocer"
      }
    },
    {
      "type": "node",
      "id": 1851800852,
      "lat": 13.0038706,
      "lon": 77.6226005,
      "tags": {
        "name": "G&T Laundry Expert",
        "shop": "laundry"
      }
    },
    {
      "type": "node",
      "id": 1852659127,
      "lat": 12.9966824,
      "lon": 77.6193965,
      "tags": {
        "amenity": "fuel",
        "brand": "Indian Oil",
        "brand:wikidata": "Q1289348",
        "compressed_air": "yes",
        "name": "Indian Oil"
      }
    },
    {
      "type": "node",
      "id": 1852660681,
      "lat": 12.9965335,
      "lon": 77.6190505,
      "tags": {
        "name": "Mandovi Motors",
        "shop": "car"
      }
    },
    {
      "type": "node",
      "id": 1866331129,
      "lat": 13.0039638,
      "lon": 77.6155248,
      "tags": {
        "name": "Mysore Mini Shopee",
        "shop": "convenience"
      }
    },
    {
      "type": "node",
      "id": 2003935536,
      "lat": 12.994291,
      "lon": 77.6196026,
      "tags": {
        "amenity": "school",
        "name": "St Aloysius Pre Unniversity College"
      }
    },
    {
      "type": "node",
      "id": 2013821580,
      "lat": 13.0005858,
      "lon": 77.6148025,
      "tags": {
        "addr:housenumber": "No.69,1st floor,",
        "addr:postcode": "560005",
        "addr:street": "M.M Road, Frazer Town, Bangalore",
        "amenity": "restaurant",
        "cuisine": "persian;arabic;bhatkali",
        "name": "Alibaba Cafe & Restaurant"
      }
    },
    {
      "type": "node",
      "id": 2533566974,
      "lat": 12.9993281,
      "lon": 77.6192054,
      "tags": {
        "amenity": "clinic",
        "name": "Maruthi Clinic",
        "name:kn": "ಮಾರುತಿ ಚಿಕಿತ್ಸಾಲಯ"
      }
    },
    {
      "type": "node",
      "id": 2533910830,
      "lat": 13.0022734,
      "lon": 77.6177342,
      "tags": {
        "amenity": "bank",
        "atm": "yes",
        "brand": "State Bank of India",
        "brand:wikidata": "Q1340361",
        "brand:wikipedia": "en:State Bank of India",
        "name": "State Bank of India",
        "name:kn": "ಭಾರತೀಯ ಸ್ಟೇಟ್ ಬ್ಯಾಂಕ್",
        "short_name": "SBI",
        "toilets:wheelchair": "no",
        "wheelchair": "limited"
      }
    },
    {
      "type": "node",
      "id": 2533936671,
      "lat": 13.0049443,
      "lon": 77.6171173,
      "tags": {
        "amenity": "ice_cream",
        "brand": "Corner House",
        "cuisine": "ice_cream",
        "delivery": "yes",
        "name": "Corner House",
        "name:kn": "ಕಾರ್ನರ್ ಹೌಸ್",
        "takeaway": "yes",
        "toilets:wheelchair": "no",
        "wheelchair": "limited"
      }
    },
    {
      "type": "node",
      "id": 2540896500,
      "lat": 13.0044195,
      "lon": 77.6231215,
      "tags": {
        "name": "Bangalore HAM Shop",
        "name:kn": "ಬ್ಯಾಂಗಲೂರ್ ಹ್ಯಾಮ್ ಷಾಪ್",
        "opening_hours": "Tu-Su 09:00-20:30",
        "shop": "butcher",
        "wheelchair": "limited"
      }
    },
    {
      "type": "node",
      "id": 2680876900,
      "lat": 13.0030286,
      "lon": 77.6199133,
      "tags": {
        "name": "Violet Flowerist",
        "shop": "florist"
      }
    },
    {
      "type": "node",
      "id": 2680876901,
      "lat": 13.0030548,
      "lon": 77.619863,
      "tags": {
        "name": "Azhar Furnitures",
        "name:kn": "ಅಜರ್ ಫರ್ನಿಚರ್ಸ್",
        "shop": "furniture"
      }
    },
    {
      "type": "node",
      "id": 2950498782,
      "lat": 13.0055224,
      "lon": 77.6161553,
      "tags": {
        "amenity": "clinic",
        "healthcare": "clinic",
        "name": "Prima Care",
        "name:kn": "ಪ್ರೈಮ ಕೇರ್",
        "postal_code": "560005",
        "website": "https://primecare.in/",
        "wheelchair": "yes"
      }
    },
    {
      "type": "node",
      "id": 3193521628,
      "lat": 12.9977551,
      "lon": 77.6205782,
      "tags": {
        "amenity": "restaurant",
        "cuisine": "regional",
        "name": "Sri Devi Café"
      }
    },
    {
      "type": "node",
      "id": 3522981693,
      "lat": 13.0055983,
      "lon": 77.6237105,
      "tags": {
        "name": "Seven Seas",
        "name:kn": "ಸೆವೆನ್ ಸೀಸ್",
        "shop": "seafood"
      }
    },
    {
      "type": "node",
      "id": 3526180139,
      "lat": 13.0035234,
      "lon": 77.6166155,
      "tags": {
        "amenity": "bank",
        "atm": "yes",
        "brand": "ICICI Bank",
        "brand:wikidata": "Q1653258",
        "brand:wikipedia": "en:ICICI Bank",
        "name": "ICICI Bank",
        "name:en": "ICICI Bank",
        "name:kn": "ಐಸಿಐಸಿಐ ಬ್ಯಾಂಕ್",
        "short_name": "ICICI",
        "website": "https://www.icicibank.com",
        "wheelchair": "no"
      }
    },
    {
      "type": "node",
      "id": 3526180140,
      "lat": 13.0036378,
      "lon": 77.6166655,
      "tags": {
        "amenity": "cafe",
        "cuisine": "indian",
        "name": "Indiradarshini",
        "name:en": "Indira Darshini",
        "name:hi": "इंदिरा दर्शिनी",
        "name:kn": "ಇಂದಿರಾ ದರ್ಶಿನಿ",
        "opening_hours": "Mo-Su 07:00-21:00",
        "wheelchair": "no"
      }
    },
    {
      "type": "node",
      "id": 3652826812,
      "lat": 13.0005605,
      "lon": 77.6238439,
      "tags": {
        "amenity": "bench"
      }
    },
    {
      "type": "node",
      "id": 3652842221,
      "lat": 13.0007109,
      "lon": 77.6239498,
      "tags": {
        "amenity": "bench",
        "backrest": "no",
        "material": "stone"
      }
    },
    {
      "type": "node",
      "id": 3652872258,
      "lat": 13.0007841,
      "lon": 77.6238275,
      "tags": {
        "amenity": "bench",
        "backrest": "no",
        "material": "stone"
      }
    },
    {
      "type": "node",
      "id": 3652872259,
      "lat": 13.0008505,
      "lon": 77.6239891,
      "tags": {
        "amenity": "bench",
        "backrest": "no",
        "material": "stone"
      }
    },
    {
      "type": "node",
      "id": 3652872260,
      "lat": 13.0007932,
      "lon": 77.623969,
      "tags": {
        "amenity": "waste_basket"
      }
    },
    {
      "type": "node",
      "id": 3652872261,
      "lat": 13.0008435,
      "lon": 77.623967,
      "tags": {
        "amenity": "bench",
        "backrest": "no",
        "material": "stone"
      }
    },
    {
      "type": "node",
      "id": 3652872262,
      "lat": 13.0008272,
      "lon": 77.6240079,
      "tags": {
        "amenity": "bench",
        "backrest": "no",
        "material": "stone"
      }
    },
    {
      "type": "node",
      "id": 3652872263,
      "lat": 13.0008653,
      "lon": 77.6240256,
      "tags": {
        "amenity": "bench",
        "backrest": "yes",
        "material": "stone"
      }
    },
    {
      "type": "node",
      "id": 3652872264,
      "lat": 13.0008535,
      "lon": 77.6240399,
      "tags": {
        "amenity": "bench",
        "backrest": "yes",
        "material": "stone"
      }
    },
    {
      "type": "node",
      "id": 3652872265,
      "lat": 13.0009017,
      "lon": 77.6240408,
      "tags": {
        "amenity": "bench",
        "backrest": "yes",
        "material": "stone"
      }
    },
    {
      "type": "node",
      "id": 3652872266,
      "lat": 13.0008853,
      "lon": 77.6240535,
      "tags": {
        "amenity": "bench",
        "backrest": "yes",
        "material": "stone"
      }
    },
    {
      "type": "node",
      "id": 3652872267,
      "lat": 13.0009429,
      "lon": 77.6240552,
      "tags": {
        "amenity": "bench",
        "backrest": "yes",
        "material": "stone"
      }
    },
    {
      "type": "node",
      "id": 3652874027,
      "lat": 13.0009227,
      "lon": 77.6240846,
      "tags": {
        "amenity": "bench",
        "backrest": "no"
      }
    },
    {
      "type": "node",
      "id": 3652874028,
      "lat": 13.0009598,
      "lon": 77.6240983,
      "tags": {
        "amenity": "bench",
        "backrest": "no",
        "material": "stone"
      }
    },
    {
      "type": "node",
      "id": 3652874029,
      "lat": 13.0011865,
      "lon": 77.6239993,
      "tags": {
        "amenity": "bench",
        "backrest": "no"
      }
    },
    {
      "type": "node",
      "id": 3652876866,
      "lat": 13.0011127,
      "lon": 77.6241167,
      "tags": {
        "amenity": "waste_basket",
        "check_date": "2024-04-15"
      }
    },
    {
      "type": "node",
      "id": 3786988995,
      "lat": 13.0038136,
      "lon": 77.6295207,
      "tags": {
        "name": "Rao's Corner",
        "shop": "convenience"
      }
    },
    {
      "type": "node",
      "id": 3868459174,
      "lat": 13.0033773,
      "lon": 77.6295176,
      "tags": {
        "shop": "convenience"
      }
    },
    {
      "type": "node",
      "id": 3868459175,
      "lat": 13.0033773,
      "lon": 77.6295514,
      "tags": {
        "shop": "ironingshop"
      }
    },
    {
      "type": "node",
      "id": 3868459178,
      "lat": 13.003513,
      "lon": 77.6295457,
      "tags": {
        "shop": "convenience"
      }
    },
    {
      "type": "node",
      "id": 3881296872,
      "lat": 13.0014136,
      "lon": 77.628881,
      "tags": {
        "amenity": "atm",
        "brand": "HDFC Bank",
        "brand:wikidata": "Q631047",
        "cash_in": "no",
        "check_date": "2025-08-17",
        "indoor": "yes",
        "name": "HDFC Bank",
        "opening_hours": "24/7",
        "operator": "HDFC Bank",
        "operator:wikidata": "Q631047",
        "short_name": "HDFC",
        "toilets:wheelchair": "no",
        "wheelchair": "no"
      }
    },
    {
      "type": "node",
      "id": 3885545494,
      "lat": 12.998073,
      "lon": 77.6282625,
      "tags": {
        "amenity": "atm",
        "brand": "HDFC Bank",
        "brand:wikidata": "Q631047",
        "name": "HDFC Bank",
        "name:kn": "ಎಚ್ ಡಿ ಎಫ್ ಸಿ",
        "opening_hours": "24/7",
        "operator": "HDFC Bank",
        "operator:wikidata": "Q631047",
        "short_name": "HDFC"
      }
    },
    {
      "type": "node",
      "id": 3888671039,
      "lat": 13.0006314,
      "lon": 77.6295661,
      "tags": {
        "name": "Corner Stone Christian Souvenirs, Gifts and Decors",
        "shop": "gift"
      }
    },
    {
      "type": "node",
      "id": 3897575411,
      "lat": 12.9948763,
      "lon": 77.6282673,
      "tags": {
        "amenity": "veterinary",
        "name": "Bengalore Veterinary Hospital",
        "name:kn": "ಬೆಂಗಳೂರು ಪಶುವೈದ್ಯ ಆಸ್ಪತ್ರೆ"
      }
    },
    {
      "type": "node",
      "id": 3899674925,
      "lat": 13.0015949,
      "lon": 77.6301221,
      "tags": {
        "name": "Saravana Store",
        "shop": "convenience"
      }
    },
    {
      "type": "node",
      "id": 3899674926,
      "lat": 13.0016135,
      "lon": 77.6302145,
      "tags": {
        "name": "Iyengars Bakery",
        "shop": "bakery"
      }
    },
    {
      "type": "node",
      "id": 3899674927,
      "lat": 13.0017109,
      "lon": 77.6306979,
      "tags": {
        "name": "Srinivas",
        "name:kn": "ಶ್ರೀನಿವಾಸ",
        "shop": "copyshop"
      }
    },
    {
      "type": "node",
      "id": 3899674930,
      "lat": 13.0019536,
      "lon": 77.6319019,
      "tags": {
        "name": "Nisha Supermart",
        "shop": "supermarket",
        "toilets:wheelchair": "no",
        "wheelchair": "no"
      }
    },
    {
      "type": "node",
      "id": 3899674931,
      "lat": 13.0020857,
      "lon": 77.6325573,
      "tags": {
        "check_date": "2025-07-18",
        "name": "Waves Communication",
        "shop": "mobile_phone"
      }
    },
    {
      "type": "node",
      "id": 3899682265,
      "lat": 13.0015517,
      "lon": 77.629908,
      "tags": {
        "name": "Bengalore Tyre Service",
        "shop": "car_repair",
        "toilets:wheelchair": "no",
        "wheelchair": "no"
      }
    },
    {
      "type": "node",
      "id": 3899682266,
      "lat": 13.0015587,
      "lon": 77.6299425,
      "tags": {
        "name": "Corner Wines",
        "shop": "wine"
      }
    },
    {
      "type": "node",
      "id": 3899682269,
      "lat": 13.0016726,
      "lon": 77.6305078,
      "tags": {
        "name": "Sri Murugan",
        "shop": "convenience",
        "toilets:wheelchair": "no",
        "wheelchair": "no"
      }
    },
    {
      "type": "node",
      "id": 3899682270,
      "lat": 13.0016824,
      "lon": 77.6305565,
      "tags": {
        "amenity": "fast_food",
        "name": "Guru Darshan",
        "toilets:wheelchair": "no",
        "wheelchair": "no"
      }
    },
    {
      "type": "node",
      "id": 3899682271,
      "lat": 13.0017274,
      "lon": 77.6307793,
      "tags": {
        "name": "Laxmi Gifts",
        "shop": "doityourself"
      }
    },
    {
      "type": "node",
      "id": 3899682278,
      "lat": 13.0019645,
      "lon": 77.631956,
      "tags": {
        "name": "Tender Chicken",
        "shop": "butcher",
        "toilets:wheelchair": "no",
        "wheelchair": "no"
      }
    },
    {
      "type": "node",
      "id": 3899682769,
      "lat": 13.0015441,
      "lon": 77.6298704,
      "tags": {
        "amenity": "food_court",
        "name": "Sai Ram Hot Chips"
      }
    },
    {
      "type": "node",
      "id": 3899682770,
      "lat": 13.0016306,
      "lon": 77.6302994,
      "tags": {
        "name": "Raj Kamal",
        "shop": "hairdresser"
      }
    },
    {
      "type": "node",
      "id": 3899682771,
      "lat": 13.0016387,
      "lon": 77.6303396,
      "tags": {
        "name": "Gold Finch Wines",
        "shop": "wine"
      }
    },
    {
      "type": "node",
      "id": 3899682772,
      "lat": 13.0016625,
      "lon": 77.6304573,
      "tags": {
        "shop": "florist"
      }
    },
    {
      "type": "node",
      "id": 3899682773,
      "lat": 13.0016906,
      "lon": 77.630597,
      "tags": {
        "amenity": "pharmacy",
        "healthcare": "pharmacy",
        "name": "Shiva Medicals",
        "toilets:wheelchair": "no",
        "wheelchair": "no"
      }
    },
    {
      "type": "node",
      "id": 3899682775,
      "lat": 13.0019219,
      "lon": 77.6317445,
      "tags": {
        "name": "Spark",
        "shop": "clothes",
        "toilets:wheelchair": "no",
        "wheelchair": "no"
      }
    },
    {
      "type": "node",
      "id": 3899682776,
      "lat": 13.0019326,
      "lon": 77.6317974,
      "tags": {
        "amenity": "atm",
        "brand": "ICICI Bank",
        "brand:wikidata": "Q1653258",
        "name": "ICICI Bank",
        "name:kn": "ಐಸಿಐಸಿಐ ಬ್ಯಾಂಕು",
        "operator": "ICICI Bank",
        "operator:wikidata": "Q1653258",
        "short_name": "ICICI",
        "toilets:wheelchair": "no",
        "wheelchair": "no"
      }
    },
    {
      "type": "node",
      "id": 3899682777,
      "lat": 13.0020057,
      "lon": 77.6321604,
      "tags": {
        "amenity": "pharmacy",
        "healthcare": "pharmacy",
        "name": "The Medicals",
        "toilets:wheelchair": "no",
        "wheelchair": "no"
      }
    },
    {
      "type": "node",
      "id": 3899682778,
      "lat": 13.0020713,
      "lon": 77.6324856,
      "tags": {
        "name": "Bharath Bedding",
        "shop": "bedding"
      }
    },
    {
      "type": "node",
      "id": 3913898882,
      "lat": 13.00168,
      "lon": 77.6317427,
      "tags": {
        "name": "Just Bake",
        "name:kn": "ಜಸ್ಟ್ ಬೇಕ್",
        "shop": "bakery"
      }
    },
    {
      "type": "node",
      "id": 3913898883,
      "lat": 13.0017248,
      "lon": 77.632187,
      "tags": {
        "amenity": "bank",
        "brand": "South Indian Bank",
        "brand:wikidata": "Q2044973",
        "name": "South Indian Bank",
        "name:kn": "ಸೌತ್ ಇಂಡಿಯನ್ ಬ್ಯಾಂಕ್",
        "wheelchair": "no"
      }
    },
    {
      "type": "node",
      "id": 3915679379,
      "lat": 13.0014363,
      "lon": 77.630759,
      "tags": {
        "brand": "Reliance Fresh",
        "brand:wikidata": "Q7311014",
        "name": "Reliance Fresh",
        "name:kn": "ರಿಲಾಯನ್ಸ್ ಫ್ರೆಶ್",
        "shop": "supermarket"
      }
    },
    {
      "type": "node",
      "id": 3923015224,
      "lat": 12.9965093,
      "lon": 77.6278623,
      "tags": {
        "amenity": "place_of_worship",
        "religion": "hindu"
      }
    },
    {
      "type": "node",
      "id": 3937163557,
      "lat": 13.0030061,
      "lon": 77.6199476,
      "tags": {
        "name": "Fancy Mens Saloon",
        "name:kn": "ಫ್ಯಾನ್ಸಿ ಮೆನ್ಸ್ ಸಲೂನ್",
        "opening_hours": "We-Mo 10:00-19:00",
        "shop": "hairdresser",
        "wheelchair": "limited"
      }
    },
    {
      "type": "node",
      "id": 3997777103,
      "lat": 13.0045986,
      "lon": 77.6250087,
      "tags": {
        "addr:city": "Bangalore",
        "addr:postcode": "560084",
        "addr:street": "Hutchins 2nd Cross",
        "amenity": "recycling",
        "name": "Muniyappa Recycling",
        "note": "Will come to your location to collect recyclable materials.",
        "phone": "+91 9066080747",
        "recycling:glass_bottles": "yes",
        "recycling:paper": "yes",
        "recycling:plastic": "yes",
        "recycling_type": "centre"
      }
    },
    {
      "type": "node",
      "id": 4036140739,
      "lat": 13.0005533,
      "lon": 77.6233992,
      "tags": {
        "amenity": "atm",
        "brand": "Canara Bank",
        "brand:en": "Canara Bank",
        "brand:hi": "केनरा बैंक",
        "brand:kn": "ಕೆನರಾ ಬ್ಯಾಂಕ್",
        "brand:pa": "ਕੇਨਰਾ ਬੈਂਕ",
        "brand:pnb": "کینرا بینک",
        "brand:ur": "کینرا بینک",
        "brand:wikidata": "Q2003777",
        "name": "Canara Bank",
        "name:en": "Canara Bank",
        "name:hi": "केनरा बैंक",
        "name:kn": "ಕೆನರಾ ಬ್ಯಾಂಕ್",
        "name:pa": "ਕੇਨਰਾ ਬੈਂਕ",
        "name:pnb": "کینرا بینک",
        "name:ur": "کینرا بینک",
        "operator": "Canara Bank",
        "operator:wikidata": "Q2003777"
      }
    },
    {
      "type": "node",
      "id": 4109505103,
      "lat": 13.0014995,
      "lon": 77.6308859,
      "tags": {
        "amenity": "bank",
        "brand": "Canara Bank",
        "brand:en": "Canara Bank",
        "brand:hi": "केनरा बैंक",
        "brand:kn": "ಕೆನರಾ ಬ್ಯಾಂಕ್",
        "brand:pa": "ਕੇਨਰਾ ਬੈਂਕ",
        "brand:pnb": "کینرا بینک",
        "brand:ur": "کینرا بینک",
        "brand:wikidata": "Q2003777",
        "brand:wikipedia": "en:Canara Bank",
        "brand:wikipedia:pa": "ਕੇਨਰਾ ਬੈਂਕ",
        "name": "Canara Bank",
        "name:en": "Canara Bank",
        "name:hi": "केनरा बैंक",
        "name:kn": "ಕೆನರಾ ಬ್ಯಾಂಕ್",
        "name:pa": "ਕੇਨਰਾ ਬੈਂਕ",
        "name:pnb": "کینرا بینک",
        "name:ur": "کینرا بینک",
        "website": "https://www.canarabank.com/"
      }
    },
    {
      "type": "node",
      "id": 4109505199,
      "lat": 13.0016891,
      "lon": 77.6297661,
      "tags": {
        "name": "Sri Murugan",
        "shop": "convenience"
      }
    },
    {
      "type": "node",
      "id": 4109508586,
      "lat": 13.0016102,
      "lon": 77.6313676,
      "tags": {
        "amenity": "fast_food",
        "name": "New Ambur Hot Dum Biryani"
      }
    },
    {
      "type": "node",
      "id": 4109508587,
      "lat": 13.0014659,
      "lon": 77.6306068,
      "tags": {
        "amenity": "pharmacy",
        "healthcare": "pharmacy",
        "name": "Jay Medicals"
      }
    },
    {
      "type": "node",
      "id": 4109508589,
      "lat": 13.0015192,
      "lon": 77.6309522,
      "tags": {
        "name": "Singapore Bazaar",
        "shop": "clothes"
      }
    },
    {
      "type": "node",
      "id": 4109508689,
      "lat": 13.0014479,
      "lon": 77.630523,
      "tags": {
        "name": "Baby Kolourz",
        "shop": "baby_goods"
      }
    },
    {
      "type": "node",
      "id": 4109508690,
      "lat": 13.0013094,
      "lon": 77.630483,
      "tags": {
        "shop": "greengrocer"
      }
    },
    {
      "type": "node",
      "id": 4109508691,
      "lat": 13.0022213,
      "lon": 77.6295524,
      "tags": {
        "name": "NFS",
        "shop": "convenience"
      }
    },
    {
      "type": "node",
      "id": 4109508692,
      "lat": 13.0030529,
      "lon": 77.6294349,
      "tags": {
        "shop": "convenience"
      }
    },
    {
      "type": "node",
      "id": 4109508789,
      "lat": 13.0022607,
      "lon": 77.6295523,
      "tags": {
        "name": "Maruthi",
        "name:kn": "ಮಾರುತಿ",
        "shop": "mobile_phone"
      }
    },
    {
      "type": "node",
      "id": 4109508790,
      "lat": 13.0027661,
      "lon": 77.6295979,
      "tags": {
        "name": "Motokraft",
        "shop": "motorcycle_repair"
      }
    },
    {
      "type": "node",
      "id": 4111128617,
      "lat": 13.0014222,
      "lon": 77.6291289,
      "tags": {
        "amenity": "pharmacy",
        "healthcare": "pharmacy",
        "name": "Pavan Pharma",
        "name:kn": "ಪವನ್ ಫಾರ್ಮಾ"
      }
    },
    {
      "type": "node",
      "id": 4111128819,
      "lat": 13.0013994,
      "lon": 77.6288185,
      "tags": {
        "amenity": "pharmacy",
        "healthcare": "pharmacy",
        "name": "Chandra Medicals",
        "name:kn": "ಚಂದ್ರ ಮೆಡಿಕಲ್"
      }
    },
    {
      "type": "node",
      "id": 4111128820,
      "lat": 13.0015756,
      "lon": 77.6290245,
      "tags": {
        "name": "Janatha",
        "name:kn": "ಜನತಾ",
        "shop": "clothes"
      }
    },
    {
      "type": "node",
      "id": 4111128891,
      "lat": 13.0014203,
      "lon": 77.6289872,
      "tags": {
        "name": "Ajanta",
        "name:kn": "ಅಜಂತಾ",
        "shop": "clothes"
      }
    },
    {
      "type": "node",
      "id": 4254493136,
      "lat": 12.9991564,
      "lon": 77.6157298,
      "tags": {
        "name": "Hides Inc",
        "shop": "shoes"
      }
    },
    {
      "type": "node",
      "id": 4332316281,
      "lat": 13.001646,
      "lon": 77.6316638,
      "tags": {
        "amenity": "atm",
        "brand": "Axis Bank",
        "brand:wikidata": "Q2003549",
        "currency:INR": "yes",
        "name": "Axis Bank",
        "name:kn": "ಆಕ್ಸಿಸ್ ಬ್ಯಾಂಕ್",
        "operator": "Axis Bank",
        "operator:wikidata": "Q2003549",
        "wheelchair": "no"
      }
    },
    {
      "type": "node",
      "id": 4349394090,
      "lat": 13.0014876,
      "lon": 77.6295123,
      "tags": {
        "amenity": "place_of_worship",
        "name": "Temple",
        "name:kn": "ದೇವಸ್ಥಾನ",
        "religion": "hindu"
      }
    },
    {
      "type": "node",
      "id": 4349394789,
      "lat": 13.0012204,
      "lon": 77.6326913,
      "tags": {
        "amenity": "cinema",
        "brand": "Cinepolis",
        "brand:wikidata": "Q5686673",
        "level": "3",
        "name": "Cinepolis"
      }
    },
    {
      "type": "node",
      "id": 4385108289,
      "lat": 12.996332,
      "lon": 77.6170443,
      "tags": {
        "amenity": "restaurant",
        "name": "ಕೋಮಲ ರಿಫ್ರೆಷ್‌ಮೆಂಟ್ಸ್",
        "name:en": "Komala Refreshments",
        "name:kn": "ಕೋಮಲ ರಿಫ್ರೆಷ್‌ಮೆಂಟ್ಸ್"
      }
    },
    {
      "type": "node",
      "id": 4443274831,
      "lat": 13.0012948,
      "lon": 77.6324696,
      "tags": {
        "addr:full": "26/10, Banaswadi Main Road, Banaswadi Layout, Maruthi Sevanagar, Bangalore - 560033",
        "amenity": "cafe",
        "brand": "Cafe Coffee Day",
        "brand:wikidata": "Q5017235",
        "cuisine": "coffee_shop",
        "internet_access": "wlan",
        "level": "1",
        "name": "Cafe Coffee Day",
        "name:kn": "ಕಫೆ ಕಾಫಿ ಡೇ",
        "opening_hours": "00:00-12:00",
        "phone": "8088862495",
        "smoking": "no",
        "takeaway": "yes"
      }
    },
    {
      "type": "node",
      "id": 4443281774,
      "lat": 13.0016385,
      "lon": 77.6327548,
      "tags": {
        "addr:full": "26/10, Banaswadi Main Road, Banaswadi Layout, Maruthi Sevanagar, Bangalore - 560033",
        "level": "0",
        "name": "Shoppers Stop",
        "opening_hours": "11:00-22:00",
        "phone": "080-23097000",
        "shop": "clothes",
        "website": "https://www.shoppersstop.com/"
      }
    },
    {
      "type": "node",
      "id": 4443283600,
      "lat": 13.0013092,
      "lon": 77.6325644,
      "tags": {
        "addr:full": "26/10, Banaswadi Main Road, Banaswadi Layout, Maruthi Sevanagar, Bangalore - 560033",
        "level": "1",
        "name": "Westside",
        "opening_hours": "10:00-23:00",
        "phone": "080-2309405",
        "shop": "clothes",
        "website": "https://www.westside.com/"
      }
    },
    {
      "type": "node",
      "id": 4444243028,
      "lat": 13.0015902,
      "lon": 77.6327951,
      "tags": {
        "addr:full": "26/10, Banaswadi Main Road, Banaswadi Layout, Maruthi Sevanagar, Bangalore - 560033",
        "level": "2",
        "name": "Accessory Palace",
        "opening_hours": "10:00-23:00",
        "phone": "080-23094549",
        "shop": "clothes"
      }
    },
    {
      "type": "node",
      "id": 4444301138,
      "lat": 13.0012844,
      "lon": 77.632842,
      "tags": {
        "addr:city": "Bangalore",
        "addr:housenumber": "No. 26/10, Banaswadi Main Road, Banaswadi Layout",
        "addr:postcode": "560033",
        "addr:street": "Banaswadi Road",
        "level": "1",
        "name": "GKB opticals",
        "name:kn": "ಜಿಕೆಬಿ ಆಪ್ಟಿಕಲ್ಸ್",
        "opening_hours": "11:00-23:00",
        "phone": "080-23094047",
        "shop": "optician",
        "website": "www.gkboptical.com"
      }
    },
    {
      "type": "node",
      "id": 4445074229,
      "lat": 13.0009877,
      "lon": 77.6324491,
      "tags": {
        "addr:city": "Bangalore",
        "addr:housenumber": "No. 26/10, Banaswadi Main Road, Banaswadi Layout, Maruthi Sevanagar,",
        "addr:postcode": "560033",
        "addr:street": "Banaswadi Road",
        "level": "1",
        "name": "GKB opticals",
        "opening_hours": "10:00-23:00",
        "phone": "080-23094047",
        "shop": "optician",
        "website": "www.gkboptical.com"
      }
    },
    {
      "type": "node",
      "id": 4445077284,
      "lat": 13.0012151,
      "lon": 77.6328514,
      "tags": {
        "addr:city": "Bangalore",
        "addr:housenumber": "No. 26/10, Banaswadi Main Road, Banaswadi Layout, Maruthi Sevanagar",
        "addr:postcode": "560033",
        "addr:street": "Banaswadi Road",
        "level": "0",
        "name": "Ray_Ban",
        "opening_hours": "11:00-23:00",
        "phone": "080-23094038",
        "shop": "optician",
        "website": "https://www.ray-ban.com/india"
      }
    },
    {
      "type": "node",
      "id": 4445082638,
      "lat": 13.0007003,
      "lon": 77.6324249,
      "tags": {
        "addr:city": "Bangalore",
        "addr:housenumber": "No. 26/10, Banaswadi Main Road, Banaswadi Layout, Maruthi Sevanagar",
        "addr:postcode": "560033",
        "addr:street": "Banaswadi Road",
        "brand": "Sunglass Hut",
        "brand:wikidata": "Q136311",
        "level": "0",
        "name": "Sunglass Hut",
        "opening_hours": "10:00-23:00",
        "phone": "080-23094032",
        "shop": "optician",
        "website": "https://www.sunglasshut.com/"
      }
    },
    {
      "type": "node",
      "id": 4445083716,
      "lat": 13.0011236,
      "lon": 77.6326985,
      "tags": {
        "addr:city": "Bangalore",
        "addr:housenumber": "No. 26/10, Banaswadi Main",
        "addr:postcode": "560033",
        "addr:street": "Banaswadi Road",
        "level": "2",
        "name": "AND",
        "opening_hours": "10:00-23:00",
        "phone": "9538548800",
        "shop": "clothes",
        "website": "https://www.andindia.com/"
      }
    },
    {
      "type": "node",
      "id": 4445085371,
      "lat": 13.0011184,
      "lon": 77.632846,
      "tags": {
        "addr:city": "Bangalore",
        "addr:housenumber": "No. 26/10, Banaswadi Main Road, Banaswadi Layout, Maruthi Sevanagar,",
        "addr:postcode": "560033",
        "addr:street": "Banaswadi Road",
        "level": "1",
        "name": "Arrow",
        "opening_hours": "11:00-23:00",
        "phone": "916402980",
        "shop": "clothes"
      }
    },
    {
      "type": "node",
      "id": 4445088662,
      "lat": 13.0012099,
      "lon": 77.6324625,
      "tags": {
        "addr:full": "26/10, Banaswadi Main Road, Banaswadi Layout, Maruthi Sevanagar, Bangalore - 560033",
        "brand": "Biba",
        "brand:wikidata": "Q4902942",
        "level": "2",
        "name": "Biba",
        "name:kn": "ಬೀಬ",
        "opening_hours": "10:00-23:00",
        "phone": "080-23094043",
        "shop": "clothes",
        "website": "https://www.biba.in/"
      }
    },
    {
      "type": "node",
      "id": 4445092076,
      "lat": 13.000891,
      "lon": 77.632441,
      "tags": {
        "addr:city": "Bangalore",
        "addr:housenumber": "No. 26/10, Banaswadi Main Road, Banaswadi Layout, Maruthi Sevanagar",
        "addr:postcode": "560033",
        "addr:street": "Banaswadi Road",
        "level": "1",
        "name": "Celio(POI)",
        "opening_hours": "10:00-23:00",
        "phone": "080-23094019",
        "shop": "clothes",
        "website": "https://www.celio.com/"
      }
    },
    {
      "type": "node",
      "id": 4445094113,
      "lat": 13.0006977,
      "lon": 77.6325269,
      "tags": {
        "addr:city": "Bangalore",
        "addr:housenumber": "No. 26/10, Banaswadi Main Road, Banaswadi Layout, Maruthi Sevanagar",
        "addr:postcode": "560033",
        "addr:street": "Banaswadi Road",
        "level": "1",
        "name": "Flying Machine",
        "opening_hours": "11:00-23:00",
        "phone": "080-23094048",
        "shop": "clothes",
        "website": "www.flyingmachine.co.in"
      }
    },
    {
      "type": "node",
      "id": 4445095692,
      "lat": 13.0006977,
      "lon": 77.6327361,
      "tags": {
        "addr:city": "Bangalore",
        "addr:housenumber": "No. 26/10, Banaswadi Main Road, Banaswadi Layout, Maruthi Sevanagar,",
        "addr:postcode": "560033",
        "addr:street": "Banaswadi Road",
        "level": "2",
        "name": "Global Desi",
        "opening_hours": "11:00-23:00",
        "phone": "9538548800",
        "shop": "clothes",
        "website": "https://www.globaldesi.in/"
      }
    },
    {
      "type": "node",
      "id": 4445098776,
      "lat": 13.0006977,
      "lon": 77.6328058,
      "tags": {
        "addr:city": "Bangalore",
        "addr:housenumber": "No. 26/10, Banaswadi Main Road, Banaswadi Layout, Maruthi Sevanagar",
        "addr:postcode": "560033",
        "addr:street": "Banaswadi Road",
        "level": "2",
        "name": "Go Colors",
        "opening_hours": "10:00-23:00",
        "phone": "7676239416",
        "shop": "clothes",
        "website": "https://www.gocolors.co.in"
      }
    },
    {
      "type": "node",
      "id": 4445102291,
      "lat": 13.0015366,
      "lon": 77.632838,
      "tags": {
        "addr:full": "26/10, Banaswadi Main Road, Banaswadi Layout, Maruthi Sevanagar, Bangalore - 560033",
        "brand": "Jack & Jones",
        "brand:wikidata": "Q6077665",
        "level": "0",
        "name": "Jack & Jones",
        "opening_hours": "10:00-23:00",
        "phone": "080-23094010",
        "shop": "clothes",
        "website": "https://www.jackjones.com/"
      }
    },
    {
      "type": "node",
      "id": 4445105205,
      "lat": 13.0010139,
      "lon": 77.632838,
      "tags": {
        "addr:city": "Bangalore",
        "addr:housenumber": "No. 26/10, Banaswadi Main Road, Banaswadi Layout, Maruthi Sevanagar",
        "addr:postcode": "560033",
        "addr:street": "Banaswadi Road",
        "level": "1",
        "name": "Levis(Poi)",
        "opening_hours": "10:00-23:00",
        "phone": "080-23094031",
        "shop": "clothes",
        "website": "https://www.levis.com.au/"
      }
    },
    {
      "type": "node",
      "id": 4445109820,
      "lat": 13.0009067,
      "lon": 77.6326824,
      "tags": {
        "addr:city": "Bangalore",
        "addr:housenumber": "No. 26/10, Banaswadi Main Road, Banaswadi Layout, Maruthi Sevanagar",
        "addr:postcode": "560033",
        "addr:street": "Banaswadi Road",
        "level": "0",
        "name": "Marks And Spencer",
        "opening_hours": "11:00-23:00",
        "shop": "clothes",
        "website": "https://www.marksandspencer.com/"
      }
    },
    {
      "type": "node",
      "id": 4445117874,
      "lat": 13.0008257,
      "lon": 77.6328326,
      "tags": {
        "addr:city": "Bangalore",
        "addr:housenumber": "No. 26/10, Banaswadi Main Road, Banaswadi Layout, Maruthi Sevanagar",
        "addr:postcode": "560033",
        "addr:street": "Banaswadi Road",
        "brand": "Pepe Jeans",
        "brand:wikidata": "Q426992",
        "level": "1",
        "name": "Pepe Jeans",
        "opening_hours": "11:00-23:00",
        "phone": "080-23094022",
        "shop": "clothes",
        "website": "https://www.pepejeans.com/"
      }
    },
    {
      "type": "node",
      "id": 4445124766,
      "lat": 13.0011158,
      "lon": 77.6324517,
      "tags": {
        "addr:city": "Bangalore",
        "addr:housenumber": "No. 26/10, Banaswadi Main Road, Banaswadi Layout, Maruthi Sevanagar",
        "addr:postcode": "560033",
        "addr:street": "Banaswadi Road",
        "level": "2",
        "name": "Soch",
        "opening_hours": "10:00-23:00",
        "shop": "clothes",
        "website": "www.sochstudio.com"
      }
    },
    {
      "type": "node",
      "id": 4445128843,
      "lat": 13.0014529,
      "lon": 77.6327548,
      "tags": {
        "addr:full": "26/10, Banaswadi Main Road, Banaswadi Layout, Maruthi Sevanagar, Bangalore - 560033",
        "brand": "U.S. Polo Assn.",
        "brand:wikidata": "Q7863282",
        "level": "1",
        "name": "U.S. Polo Assn.",
        "opening_hours": "11:00-23:00",
        "phone": "080-23094031",
        "shop": "clothes",
        "website": "https://www.uspoloassn.com/"
      }
    },
    {
      "type": "node",
      "id": 4445137901,
      "lat": 13.001304,
      "lon": 77.6327334,
      "tags": {
        "addr:city": "Bangalore",
        "addr:housenumber": "No. 26/10, Banaswadi Main Road, Banaswadi Layout, Maruthi Sevanagar",
        "addr:postcode": "560033",
        "addr:street": "Banaswadi Road",
        "level": "0",
        "opening_hours": "11:00-23:00",
        "phone": "080-23094015",
        "shop": "clothes",
        "website": "https://www.veromoda.com/"
      }
    },
    {
      "type": "node",
      "id": 4445141696,
      "lat": 13.0023897,
      "lon": 77.629504,
      "tags": {
        "addr:city": "Bengaluru",
        "addr:housenumber": "#2/5",
        "addr:postcode": "560033",
        "addr:street": "4th Cross Road, jai bharathnagar",
        "amenity": "pharmacy",
        "healthcare": "pharmacy",
        "name": "Siddaiah Multi Speciality Clinic And Lab",
        "phone": "+919916130707"
      }
    },
    {
      "type": "node",
      "id": 4445154369,
      "lat": 13.0011289,
      "lon": 77.6325617,
      "tags": {
        "addr:city": "Bangalore",
        "addr:housenumber": "No. 26/10, Banaswadi Main Road, Banaswadi Layout, Maruthi Sevanagar",
        "addr:postcode": "560033",
        "addr:street": "Banaswadi Road",
        "level": "2",
        "name": "W",
        "opening_hours": "10:00-23:00",
        "phone": "080-23094012",
        "shop": "clothes",
        "website": "https://www.wforwomen.com/"
      }
    },
    {
      "type": "node",
      "id": 4445157674,
      "lat": 13.0010322,
      "lon": 77.6325429,
      "tags": {
        "addr:full": "26/10, Banaswadi Main Road, Banaswadi Layout, Maruthi Sevanagar, Bangalore - 560033",
        "brand": "Clarks",
        "brand:wikidata": "Q1095857",
        "level": "1",
        "name": "Clarks",
        "name:kn": "ಕ್ಲಾರ್ಕ್ಸ್",
        "opening_hours": "11:00-23:00",
        "shop": "shoes",
        "website": "https://www.clarks.in/"
      }
    },
    {
      "type": "node",
      "id": 4445159814,
      "lat": 13.0010635,
      "lon": 77.6327012,
      "tags": {
        "addr:city": "Bangalore",
        "addr:housenumber": "No. 26/10, Banaswadi Main Road, Banaswadi Layout, Maruthi Sevanagar",
        "addr:postcode": "560033",
        "addr:street": "Banaswadi Road",
        "brand": "Skechers",
        "brand:wikidata": "Q2945643",
        "level": "1",
        "name": "Skechers",
        "opening_hours": "11:00-23:00",
        "phone": "080-23094021",
        "shop": "shoes",
        "website": "https://www.skechers.com/"
      }
    },
    {
      "type": "node",
      "id": 4445161674,
      "lat": 13.0008205,
      "lon": 77.6324464,
      "tags": {
        "addr:city": "Bangalore",
        "addr:housenumber": "26/10",
        "addr:postcode": "560033",
        "addr:street": "Banaswadi layout",
        "level": "0",
        "name": "color bar",
        "opening_hours": "10:00-23:00",
        "phone": "080-23094045",
        "shop": "beauty",
        "website": "https://www.colorbarcosmetics.com/"
      }
    },
    {
      "type": "node",
      "id": 4445176613,
      "lat": 13.0008336,
      "lon": 77.6327495,
      "tags": {
        "addr:city": "Bangalore",
        "addr:housenumber": "26/10",
        "addr:postcode": "560033",
        "addr:street": "Banaswadi Road",
        "level": "0",
        "name": "revlon",
        "opening_hours": "10:00-23:00",
        "phone": "080-23094039",
        "shop": "beauty",
        "website": "https://www.revlon.com/"
      }
    },
    {
      "type": "node",
      "id": 4445182100,
      "lat": 13.0009459,
      "lon": 77.6328407,
      "tags": {
        "addr:full": "26/10, Banaswadi Main Road, Banaswadi Layout, Maruthi Sevanagar, Bangalore - 560033",
        "brand": "The Body Shop",
        "brand:wikidata": "Q837851",
        "name": "The Body Shop",
        "opening_hours": "10:00-23:00",
        "shop": "cosmetics"
      }
    },
    {
      "type": "node",
      "id": 4445183965,
      "lat": 13.0014686,
      "lon": 77.632838,
      "tags": {
        "addr:full": "26/10, Banaswadi Main Road, Banaswadi Layout, Maruthi Sevanagar, Bangalore - 560033",
        "level": "2",
        "name": "Chera Silver Jewellary",
        "opening_hours": "10:00-23:00",
        "shop": "jewelry"
      }
    },
    {
      "type": "node",
      "id": 4445195031,
      "lat": 13.0006924,
      "lon": 77.6326046,
      "tags": {
        "addr:full": "26/10, Banaswadi Main Road, Banaswadi Layout, Maruthi Sevanagar, Bangalore - 560033",
        "brand": "Mothercare",
        "brand:wikidata": "Q136738",
        "level": "2",
        "name": "Mothercare",
        "opening_hours": "11:00-23:00",
        "phone": "080-23094037",
        "shop": "baby_goods",
        "website": "https://www.mothercare.com/"
      }
    },
    {
      "type": "node",
      "id": 4445216241,
      "lat": 13.0007029,
      "lon": 77.6324786,
      "tags": {
        "addr:full": "26/10, Banaswadi Main Road, Banaswadi Layout, Maruthi Sevanagar, Bangalore - 560033",
        "level": "2",
        "name": "Bulchee",
        "opening_hours": "10:00-23:00",
        "phone": "080-23094046",
        "shop": "clothes",
        "website": "https://www.bulchee.com/"
      }
    },
    {
      "type": "node",
      "id": 4445229500,
      "lat": 13.0012386,
      "lon": 77.6325617,
      "tags": {
        "addr:full": "26/10, Banaswadi Main Road, Banaswadi Layout, Maruthi Sevanagar, Bangalore - 560033",
        "level": "1",
        "name": "Casio",
        "opening_hours": "10:00-23:00",
        "phone": "080-23094042",
        "shop": "clothes",
        "website": "https://www.casio.com/"
      }
    },
    {
      "type": "node",
      "id": 4445235542,
      "lat": 13.000959,
      "lon": 77.6325429,
      "tags": {
        "addr:full": "26/10, Banaswadi Main Road, Banaswadi Layout, Maruthi Sevanagar, Bangalore - 560033",
        "level": "0",
        "name": "Hidesign",
        "opening_hours": "10:00-23:00",
        "phone": "080-23094017",
        "shop": "clothes",
        "website": "https://hidesign.com/"
      }
    },
    {
      "type": "node",
      "id": 4445245274,
      "lat": 13.000993,
      "lon": 77.6327039,
      "tags": {
        "addr:full": "26/10, Banaswadi Main Road, Banaswadi Layout, Maruthi Sevanagar, Bangalore - 560033",
        "level": "0",
        "name": "Just Watches",
        "opening_hours": "10:00-23:00",
        "phone": "080-23904057",
        "shop": "clothes",
        "website": "https://www.justwatches.com/"
      }
    },
    {
      "type": "node",
      "id": 4445260573,
      "lat": 13.0007003,
      "lon": 77.6326663,
      "tags": {
        "addr:city": "Bangalore",
        "addr:housenumber": "26/10",
        "addr:postcode": "560033",
        "addr:street": "Banaswadi Main Road, Banaswadi Layout, Maruthi Sevanagar, Bengaluru,",
        "brand": "Sports Authority",
        "brand:wikidata": "Q7579688",
        "level": "1",
        "name": "Sports Authority",
        "opening_hours": "10:00-23:00",
        "phone": "080-23094023",
        "shop": "sports",
        "website": "https://www.adidas.co.in/"
      }
    },
    {
      "type": "node",
      "id": 4445272713,
      "lat": 13.0009041,
      "lon": 77.632618,
      "tags": {
        "addr:full": "26/10, Banaswadi Main Road, Banaswadi Layout, Maruthi Sevanagar, Bangalore - 560033",
        "brand": "Puma",
        "brand:wikidata": "Q157064",
        "level": "1",
        "name": "Puma",
        "opening_hours": "10:00-23:00",
        "phone": "080-23094024",
        "shop": "clothes",
        "website": "https://in.puma.com/in/en/home"
      }
    },
    {
      "type": "node",
      "id": 4445279008,
      "lat": 13.0008884,
      "lon": 77.6325456,
      "tags": {
        "addr:city": "Bangalore",
        "addr:housenumber": "26/10",
        "addr:postcode": "560033",
        "addr:street": "Banaswadi Main Road, Banaswadi Layout, Maruthi Sevanagar",
        "level": "1",
        "name": "Sports Station",
        "opening_hours": "10:00-23:00",
        "shop": "sports",
        "website": "https://www.sportstation.com/"
      }
    },
    {
      "type": "node",
      "id": 4447249418,
      "lat": 12.9997652,
      "lon": 77.6173181,
      "tags": {
        "addr:city": "bangalore",
        "addr:housenumber": "408",
        "addr:postcode": "5600043",
        "addr:street": "5th Main Rd HRBR Layout 1st Block HRBR Layout Kalyan Nagar HRBR Layout 1st Block HRBR Layout Kalyan Nagar",
        "amenity": "restaurant",
        "cuisine": "regional",
        "delivery": "yes",
        "name": "Shawarma king",
        "opening_hours": "12:30-23:30",
        "phone": "080 3202 8839",
        "smoking": "no",
        "takeaway": "yes"
      }
    },
    {
      "type": "node",
      "id": 4449313889,
      "lat": 13.0050034,
      "lon": 77.6233355,
      "tags": {
        "amenity": "atm",
        "brand": "HDFC Bank",
        "brand:wikidata": "Q631047",
        "name": "HDFC Bank",
        "operator": "HDFC Bank",
        "operator:wikidata": "Q631047",
        "short_name": "HDFC"
      }
    },
    {
      "type": "node",
      "id": 4489905432,
      "lat": 13.0028583,
      "lon": 77.6233425,
      "tags": {
        "addr:city": "Bangalore",
        "addr:housenumber": "23",
        "addr:postcode": "560005",
        "addr:street": "Balaji Layout, Cooke Town",
        "name": "Royale Iram Saloon And Spa",
        "opening_hours": "09:00-21:00",
        "phone": "9535093122",
        "shop": "beauty"
      }
    },
    {
      "type": "node",
      "id": 4490206308,
      "lat": 12.9995759,
      "lon": 77.6230526,
      "tags": {
        "addr:city": "Bangalore",
        "addr:housenumber": "No 100, Wheelers Road, Cooke Town, Bangalore - 560005",
        "addr:postcode": "560005",
        "addr:street": "Wheeler Road Extension",
        "name": "Village Super Market",
        "phone": "80-41534703",
        "shop": "supermarket"
      }
    },
    {
      "type": "node",
      "id": 4490335805,
      "lat": 12.9981117,
      "lon": 77.6153053,
      "tags": {
        "addr:city": "Bengaluru",
        "addr:housenumber": "83",
        "addr:postcode": "560005",
        "addr:street": "Mosque Rd, Bhadrappa Layout, Pulikeshi Nagar, Bengaluru,",
        "leisure": "sports_centre",
        "name": "Snap Fitness",
        "opening_hours": "5:00-23:00",
        "phone": "8065651050",
        "sport": "gymnasium",
        "website": "snapfitnessindia.com"
      }
    },
    {
      "type": "node",
      "id": 4490426429,
      "lat": 12.9962218,
      "lon": 77.6174002,
      "tags": {
        "addr:city": "Bangalore",
        "addr:postcode": "56005",
        "addr:street": "Wheeler Road",
        "leisure": "sports_centre",
        "name": "Steve's Gym",
        "opening_hours": "6:00-20:00",
        "phone": "8025353323",
        "website": "https://stevesgym.com/"
      }
    },
    {
      "type": "node",
      "id": 4490493255,
      "lat": 13.0021262,
      "lon": 77.6178476,
      "tags": {
        "addr:city": "Bangalore",
        "addr:housenumber": "3rd",
        "addr:postcode": "560084",
        "addr:street": "3rd Floor, No.14, Pottery Rd, Bhadrappa Layout, Richards Town, Bengaluru",
        "leisure": "sports_centre",
        "name": "Fitness Time",
        "opening_hours": "6:00-22:30",
        "phone": "9972848576",
        "sport": "gymnasium",
        "website": "https://fitnesstime.in/"
      }
    },
    {
      "type": "node",
      "id": 4570423792,
      "lat": 12.9983463,
      "lon": 77.6206293,
      "tags": {
        "amenity": "fast_food",
        "name": "Lemon Rice",
        "name:en": "Lemon Rice"
      }
    },
    {
      "type": "node",
      "id": 4577045761,
      "lat": 12.9983402,
      "lon": 77.6200927,
      "tags": {
        "amenity": "hospital",
        "name": "Government Maternity Home",
        "name:kn": "ಸರ್ಕಾರಿ ಮಾತೃತ್ವ ಮನೆ"
      }
    },
    {
      "type": "node",
      "id": 4577066596,
      "lat": 13.0039002,
      "lon": 77.6227483,
      "tags": {
        "amenity": "atm"
      }
    },
    {
      "type": "node",
      "id": 4582783591,
      "lat": 12.9980438,
      "lon": 77.6205601,
      "tags": {
        "name": "Thomsons",
        "name:en": "Thomsons",
        "shop": "bakery"
      }
    },
    {
      "type": "node",
      "id": 4582787590,
      "lat": 12.9978934,
      "lon": 77.6203017,
      "tags": {
        "amenity": "clinic",
        "name": "Saldana Diagnostic Center",
        "name:en": "Saldana Diagnostic Center"
      }
    },
    {
      "type": "node",
      "id": 4582794490,
      "lat": 12.998501,
      "lon": 77.6203996,
      "tags": {
        "shop": "butcher"
      }
    },
    {
      "type": "node",
      "id": 4582794589,
      "lat": 12.9984473,
      "lon": 77.6204212,
      "tags": {
        "shop": "greengrocer"
      }
    },
    {
      "type": "node",
      "id": 4582801689,
      "lat": 12.998375,
      "lon": 77.6204488,
      "tags": {
        "name": "Fresh vegetables",
        "name:en": "Fresh vegetables",
        "shop": "greengrocer"
      }
    },
    {
      "type": "node",
      "id": 4582813390,
      "lat": 12.9976423,
      "lon": 77.6175048,
      "tags": {
        "name": "Kiran expert dry cleaners",
        "name:en": "Kiran expert dry cleaners",
        "shop": "dry_cleaning"
      }
    },
    {
      "type": "node",
      "id": 4582817389,
      "lat": 13.0002512,
      "lon": 77.6190506,
      "tags": {
        "leisure": "fitness_centre",
        "name": "Shri Rajeev Gandhi Gym",
        "name:en": "Shri Rajeev Gandhi Gym"
      }
    },
    {
      "type": "node",
      "id": 4582870789,
      "lat": 13.0013207,
      "lon": 77.6235793,
      "tags": {
        "shop": "greengrocer"
      }
    },
    {
      "type": "node",
      "id": 4607621918,
      "lat": 12.9984122,
      "lon": 77.6204312,
      "tags": {
        "name": "Star Fresh Egg Center",
        "name:en": "Star Fresh Egg Center",
        "shop": "butcher"
      }
    },
    {
      "type": "node",
      "id": 4664862655,
      "lat": 13.0001887,
      "lon": 77.6180988,
      "tags": {
        "check_date": "2023-12-31",
        "name": "Crankmeister",
        "phone": "+91 88615 44666",
        "repair": "yes",
        "shop": "bicycle"
      }
    },
    {
      "type": "node",
      "id": 4757433421,
      "lat": 13.0054971,
      "lon": 77.6161129,
      "tags": {
        "amenity": "pharmacy",
        "healthcare": "pharmacy",
        "name": "Primecare Pharmacy",
        "name:en": "Primecare Pharmacy",
        "name:kn": "ಪ್ರೈಮ ಕೇರ್",
        "source": "survey",
        "website": "https://primecare.in/"
      }
    },
    {
      "type": "node",
      "id": 4844863347,
      "lat": 13.0012233,
      "lon": 77.629344,
      "tags": {
        "name": "Fusion wines",
        "name:en": "Fusion wines",
        "shop": "wine",
        "wheelchair": "no"
      }
    },
    {
      "type": "node",
      "id": 4844863349,
      "lat": 12.9968223,
      "lon": 77.6195998,
      "tags": {
        "amenity": "restaurant",
        "check_date": "2024-08-11",
        "name": "Dolphins",
        "name:en": "Dolphins"
      }
    },
    {
      "type": "node",
      "id": 4844863371,
      "lat": 12.9998566,
      "lon": 77.6251653,
      "tags": {
        "amenity": "restaurant",
        "diet:vegetarian": "only",
        "name": "Udapas Veg Restaurant",
        "name:en": "Udapas"
      }
    },
    {
      "type": "node",
      "id": 4844863372,
      "lat": 13.0010936,
      "lon": 77.6281785,
      "tags": {
        "name": "New Citizen Carz",
        "shop": "car"
      }
    },
    {
      "type": "node",
      "id": 4844863386,
      "lat": 12.9958599,
      "lon": 77.6202844,
      "tags": {
        "name": "International travel house Limited",
        "name:en": "International travel house Limited",
        "shop": "travel_agency"
      }
    },
    {
      "type": "node",
      "id": 4844865022,
      "lat": 13.0020607,
      "lon": 77.6324471,
      "tags": {
        "name": "Raghavendra Poona Store",
        "name:en": "Raghavendra Poona Store",
        "shop": "convenience"
      }
    },
    {
      "type": "node",
      "id": 4844865047,
      "lat": 12.9963245,
      "lon": 77.61771,
      "tags": {
        "name": "Digital Express",
        "name:en": "Digital Express",
        "shop": "electronics"
      }
    },
    {
      "type": "node",
      "id": 4844865048,
      "lat": 12.9974737,
      "lon": 77.6202808,
      "tags": {
        "amenity": "bank",
        "brand": "HDFC Bank",
        "brand:wikidata": "Q631047",
        "brand:wikipedia": "en:HDFC Bank",
        "name": "HDFC Bank",
        "name:en": "Hdfc Bank",
        "name:kn": "ಎಚ್ ಡಿ ಎಫ್ ಸಿ",
        "short_name": "HDFC",
        "website": "https://www.hdfcbank.com"
      }
    },
    {
      "type": "node",
      "id": 4844867523,
      "lat": 13.0021544,
      "lon": 77.6327813,
      "tags": {
        "name": "Sn digital",
        "name:en": "Sn digital",
        "shop": "computer"
      }
    },
    {
      "type": "node",
      "id": 4844867524,
      "lat": 12.9964814,
      "lon": 77.621145,
      "tags": {
        "amenity": "pharmacy",
        "name": "Manoj Medicals",
        "name:en": "Manoj Medicals"
      }
    },
    {
      "type": "node",
      "id": 4908564021,
      "lat": 13.0033147,
      "lon": 77.6324578,
      "tags": {
        "amenity": "fast_food",
        "indoor_seating": "no",
        "name": "Idli Shop",
        "name:en": "Idli Shop",
        "outdoor_seating": "no",
        "takeaway": "only"
      }
    },
    {
      "type": "node",
      "id": 5234714280,
      "lat": 13.0032264,
      "lon": 77.6313934,
      "tags": {
        "amenity": "place_of_worship",
        "name": "Sri Mariamman Temple",
        "name:kn": "ಮಾರಿಯಮ್ಮನ್‌ ದೇವಸ್ಥಾನ",
        "religion": "hindu"
      }
    },
    {
      "type": "node",
      "id": 5234717536,
      "lat": 13.0022482,
      "lon": 77.6324892,
      "tags": {
        "amenity": "place_of_worship",
        "denomination": "theravada",
        "name": "7th Day Adventist Malyalam Church",
        "religion": "christian"
      }
    },
    {
      "type": "node",
      "id": 5234720624,
      "lat": 13.0032488,
      "lon": 77.6314787,
      "tags": {
        "shop": "convenience"
      }
    },
    {
      "type": "node",
      "id": 5234720625,
      "lat": 13.0034433,
      "lon": 77.6323983,
      "tags": {
        "shop": "convenience"
      }
    },
    {
      "type": "node",
      "id": 5234732355,
      "lat": 13.0030721,
      "lon": 77.6305453,
      "tags": {
        "amenity": "fast_food",
        "name": "Sri Thirumala Cafe"
      }
    },
    {
      "type": "node",
      "id": 5234733921,
      "lat": 13.0029189,
      "lon": 77.6301438,
      "tags": {
        "shop": "convenience"
      }
    },
    {
      "type": "node",
      "id": 5234733993,
      "lat": 13.0034927,
      "lon": 77.629575,
      "tags": {
        "shop": "tailor"
      }
    },
    {
      "type": "node",
      "id": 5234740935,
      "lat": 13.0033059,
      "lon": 77.6290181,
      "tags": {
        "name": "Mano Provision Store",
        "shop": "convenience"
      }
    },
    {
      "type": "node",
      "id": 5283145296,
      "lat": 13.0051392,
      "lon": 77.6232666,
      "tags": {
        "name": "Baker's Craft",
        "shop": "bakery"
      }
    },
    {
      "type": "node",
      "id": 5283145302,
      "lat": 13.0040113,
      "lon": 77.6296845,
      "tags": {
        "addr:city": "Bengaluru",
        "addr:housenumber": "24",
        "addr:postcode": "560033",
        "addr:street": "2nd Cross Road",
        "name": "Vigneshwara Dry Cleaners",
        "shop": "dry_cleaning"
      }
    },
    {
      "type": "node",
      "id": 5283145303,
      "lat": 13.0047307,
      "lon": 77.6286191,
      "tags": {
        "addr:city": "Bengaluru",
        "addr:housenumber": "25",
        "addr:postcode": "560033",
        "addr:street": "3rd Cross Road",
        "addr:unit": "Vivekananda Nagar",
        "amenity": "place_of_worship",
        "name": "Christ Union Church of God",
        "religion": "christian"
      }
    },
    {
      "type": "node",
      "id": 5283145308,
      "lat": 13.0054488,
      "lon": 77.6252067,
      "tags": {
        "shop": "convenience"
      }
    },
    {
      "type": "node",
      "id": 5283145309,
      "lat": 13.0052704,
      "lon": 77.6251731,
      "tags": {
        "name": "Top Image",
        "shop": "beauty"
      }
    },
    {
      "type": "node",
      "id": 5283145310,
      "lat": 13.0057693,
      "lon": 77.6236686,
      "tags": {
        "name": "Yaseen Rabani Mutton and Chicken Stall",
        "shop": "butcher"
      }
    },
    {
      "type": "node",
      "id": 5931501711,
      "lat": 13.0039814,
      "lon": 77.6194436,
      "tags": {
        "amenity": "post_box",
        "collection_times": "Mo-Su 13:10",
        "colour": "red",
        "drive_through": "no",
        "name": "Postbox",
        "operator": "India Post",
        "operator:wikidata": "Q3519720"
      }
    },
    {
      "type": "node",
      "id": 6499748593,
      "lat": 13.0037844,
      "lon": 77.6228196,
      "tags": {
        "floor": "0-1",
        "name": "Mulberry Greens",
        "shop": "supermarket"
      }
    },
    {
      "type": "node",
      "id": 6499750801,
      "lat": 13.0037091,
      "lon": 77.6226122,
      "tags": {
        "addr:housenumber": "38",
        "addr:street": "Hutchins Road",
        "amenity": "restaurant",
        "floor": "1",
        "name": "Kerala Kitchen",
        "opening_hours": "Mo-Su 09:00-22:00",
        "phone": "9886848987"
      }
    },
    {
      "type": "node",
      "id": 6938781514,
      "lat": 13.0090828,
      "lon": 77.6235594,
      "tags": {
        "addr:district": "Bengaluru Urban",
        "addr:full": "Hennur Main Road Opposite Srirama Temple",
        "addr:postcode": "560043",
        "addr:state": "Karnataka",
        "amenity": "hospital",
        "healthcare": "hospital",
        "name": "K C Raju Multi Speciality Hospital",
        "source": "OpenGovernmentData"
      }
    },
    {
      "type": "node",
      "id": 6944231454,
      "lat": 12.9994472,
      "lon": 77.6162584,
      "tags": {
        "addr:district": "Bengaluru Urban",
        "addr:full": "Pillana Garden",
        "addr:postcode": "560045",
        "addr:state": "Karnataka",
        "amenity": "hospital",
        "name": "Mediscope Hospital Private Limited",
        "operator:type": "private",
        "source": "OpenGovernmentData",
        "website": "http://dpal.kar.nic.in/Kanunu%20padakosha%20PDF%20Files/Recognised%20Hospitals.pdf"
      }
    },
    {
      "type": "node",
      "id": 6945031202,
      "lat": 13.0080166,
      "lon": 77.6221479,
      "tags": {
        "addr:district": "Bengaluru Urban",
        "addr:full": "1 & 2, Hennur Road Cross, Lingarajpuram,Below Railway Flyover",
        "addr:postcode": "560084",
        "addr:state": "Karnataka",
        "amenity": "hospital",
        "name": "Sundar Hospital",
        "source": "OpenGovernmentData"
      }
    },
    {
      "type": "node",
      "id": 6947701109,
      "lat": 13.0087438,
      "lon": 77.6221512,
      "tags": {
        "addr:district": "Bengaluru Urban",
        "addr:full": "Lingarajpuram",
        "addr:postcode": "560084",
        "addr:state": "Karnataka",
        "amenity": "clinic",
        "name": "Vinay Nursing Home, Lingarajpuram",
        "source": "OpenGovernmentData"
      }
    },
    {
      "type": "node",
      "id": 7051254484,
      "lat": 13.0028312,
      "lon": 77.6320101,
      "tags": {
        "amenity": "place_of_worship",
        "description": "Beautiful templed loacted on a peaceful road.",
        "name": "Sri Raja Ganapathi Temple",
        "religion": "hindu",
        "source": "survey;local knowledge;gps;aerial imagery"
      }
    },
    {
      "type": "node",
      "id": 7178597796,
      "lat": 13.005019,
      "lon": 77.6239403,
      "tags": {
        "addr:city": "Bengaluru",
        "addr:country": "IN",
        "addr:hamlet": "St. Thomas Town",
        "addr:housenumber": "12",
        "addr:postcode": "560084",
        "addr:street": "Hutchins 2nd Cross",
        "name": "Patisserie Nitash",
        "shop": "bakery",
        "website": "https://www.nitash.in/"
      }
    },
    {
      "type": "node",
      "id": 7255929444,
      "lat": 12.998522,
      "lon": 77.6157112,
      "tags": {
        "amenity": "school",
        "name": "Bethesda Academy"
      }
    },
    {
      "type": "node",
      "id": 7255929445,
      "lat": 12.9995034,
      "lon": 77.6161296,
      "tags": {
        "amenity": "cafe",
        "name": "Cafe Arabica"
      }
    },
    {
      "type": "node",
      "id": 7255929448,
      "lat": 13.000439,
      "lon": 77.6156254,
      "tags": {
        "check_date": "2024-04-27",
        "name": "Carry Fresh",
        "shop": "supermarket",
        "wheelchair": "yes"
      }
    },
    {
      "type": "node",
      "id": 7255929449,
      "lat": 13.000456,
      "lon": 77.6153719,
      "tags": {
        "amenity": "restaurant",
        "name": "Royal Pavilion"
      }
    },
    {
      "type": "node",
      "id": 7817577921,
      "lat": 13.0040149,
      "lon": 77.6176333,
      "tags": {
        "amenity": "bank",
        "atm": "yes",
        "brand": "Axis Bank",
        "brand:wikidata": "Q2003549",
        "brand:wikipedia": "en:Axis Bank",
        "name": "Axis Bank",
        "name:kn": "ಆಕ್ಸಿಸ್ ಬ್ಯಾಂಕ್",
        "source": "survey",
        "wheelchair": "no"
      }
    },
    {
      "type": "node",
      "id": 7817577922,
      "lat": 13.0038285,
      "lon": 77.6154682,
      "tags": {
        "amenity": "pharmacy",
        "brand": "Apollo Pharmacy",
        "brand:wikidata": "Q62562612",
        "dispensing": "yes",
        "healthcare": "pharmacy",
        "name": "Apollo Pharmacy",
        "name:kn": "ಅಪೊಲೋ ಫಾರ್ಮಸಿ"
      }
    },
    {
      "type": "node",
      "id": 7828966697,
      "lat": 13.0050061,
      "lon": 77.6174117,
      "tags": {
        "drink:juice": "yes",
        "name": "Sugarcane Juice",
        "shop": "kiosk"
      }
    },
    {
      "type": "node",
      "id": 7828966698,
      "lat": 13.00506,
      "lon": 77.6174253,
      "tags": {
        "name": "Flower Shop",
        "shop": "florist"
      }
    },
    {
      "type": "node",
      "id": 7861978808,
      "lat": 13.0049336,
      "lon": 77.617151,
      "tags": {
        "name": "Lizz Salon and Spa",
        "shop": "hairdresser",
        "unisex": "yes"
      }
    },
    {
      "type": "node",
      "id": 7881321471,
      "lat": 13.0056111,
      "lon": 77.6161889,
      "tags": {
        "amenity": "kindergarten",
        "name": "International Montessori House of Children"
      }
    },
    {
      "type": "node",
      "id": 7881335487,
      "lat": 13.0053201,
      "lon": 77.6162395,
      "tags": {
        "drink:juice": "yes",
        "name": "Sugarcane Juice",
        "shop": "kiosk"
      }
    },
    {
      "type": "node",
      "id": 7941607043,
      "lat": 13.0039944,
      "lon": 77.6155412,
      "tags": {
        "amenity": "pharmacy",
        "brand": "MedPlus",
        "brand:wikidata": "Q65684234",
        "brand:wikipedia": "en:MedPlus",
        "dispensing": "yes",
        "healthcare": "pharmacy",
        "name": "MedPlus"
      }
    },
    {
      "type": "node",
      "id": 7941607044,
      "lat": 13.003937,
      "lon": 77.6155107,
      "tags": {
        "amenity": "atm",
        "brand": "State Bank of India",
        "brand:wikidata": "Q1340361",
        "name": "State Bank of India",
        "operator": "State Bank of India",
        "operator:wikidata": "Q1340361",
        "short_name": "SBI"
      }
    },
    {
      "type": "node",
      "id": 7944450116,
      "lat": 13.0018413,
      "lon": 77.6235055,
      "tags": {
        "amenity": "cafe",
        "name": "Sunny Side Up",
        "outdoor_seating": "yes"
      }
    },
    {
      "type": "node",
      "id": 7950513014,
      "lat": 13.0045948,
      "lon": 77.6226912,
      "tags": {
        "female": "yes",
        "name": "Blue Heaven Chinese Beauty Salon",
        "shop": "hairdresser"
      }
    },
    {
      "type": "node",
      "id": 7954170225,
      "lat": 13.0029444,
      "lon": 77.6171411,
      "tags": {
        "amenity": "kindergarten",
        "name": "Little Springs"
      }
    },
    {
      "type": "node",
      "id": 8006741421,
      "lat": 12.9994495,
      "lon": 77.6247073,
      "tags": {
        "name": "Rose garden",
        "name:en": "Rose garden",
        "shop": "alcohol"
      }
    },
    {
      "type": "node",
      "id": 8006741451,
      "lat": 13.0001934,
      "lon": 77.6229561,
      "tags": {
        "name": "SLV Stores",
        "shop": "convenience"
      }
    },
    {
      "type": "node",
      "id": 8047420106,
      "lat": 13.0015667,
      "lon": 77.6225943,
      "tags": {
        "addr:city": "Bangalore",
        "addr:postcode": "560005",
        "addr:street": "Lloyd Road",
        "amenity": "kindergarten",
        "check_date": "2023-06-16",
        "name": "Santorini Montessori"
      }
    },
    {
      "type": "node",
      "id": 8065138990,
      "lat": 13.0015538,
      "lon": 77.6236239,
      "tags": {
        "name": "Bandbox cleaner and dryer",
        "shop": "dry_cleaning"
      }
    },
    {
      "type": "node",
      "id": 8065138991,
      "lat": 13.0016107,
      "lon": 77.6236458,
      "tags": {
        "female": "yes",
        "male": "yes",
        "name": "Zill Salon",
        "shop": "hairdresser"
      }
    },
    {
      "type": "node",
      "id": 8065138992,
      "lat": 13.0015829,
      "lon": 77.6236346,
      "tags": {
        "amenity": "dentist",
        "healthcare": "dentist",
        "name": "Dr Nidhi's Clinic and Implant Centre"
      }
    },
    {
      "type": "node",
      "id": 8094098557,
      "lat": 13.0005177,
      "lon": 77.6233354,
      "tags": {
        "amenity": "post_box",
        "collection_times": "Mo-Sa 15:00; PH off",
        "colour": "red",
        "image": "https://thejeshgn.com/wp-content/uploads/2025/11/wp-1763006856510.jpg",
        "operator": "India Post",
        "operator:wikidata": "Q3519720"
      }
    },
    {
      "type": "node",
      "id": 8094098558,
      "lat": 13.0003323,
      "lon": 77.6233169,
      "tags": {
        "shop": "greengrocer"
      }
    },
    {
      "type": "node",
      "id": 8120700179,
      "lat": 12.9994204,
      "lon": 77.6226779,
      "tags": {
        "female": "yes",
        "name": "Poise Beauty Parlour",
        "opening_hours": "Mo-Sa 10:00-18:30; Su 10:00-14:00",
        "shop": "hairdresser"
      }
    },
    {
      "type": "node",
      "id": 8120700203,
      "lat": 13.000053,
      "lon": 77.6230462,
      "tags": {
        "male": "yes",
        "name": "Alankar Parlour",
        "shop": "hairdresser"
      }
    },
    {
      "type": "node",
      "id": 8120700204,
      "lat": 13.0001038,
      "lon": 77.6230624,
      "tags": {
        "amenity": "pharmacy",
        "healthcare": "pharmacy",
        "name": "Sarooj Pharma",
        "opening_hours": "10:00-14:00, 17:30-21:30",
        "shop": "chemist"
      }
    },
    {
      "type": "node",
      "id": 8120700205,
      "lat": 13.0001273,
      "lon": 77.6230304,
      "tags": {
        "female": "yes",
        "name": "Facevalue Beauty Salon",
        "shop": "hairdresser"
      }
    },
    {
      "type": "node",
      "id": 8120700207,
      "lat": 13.0001025,
      "lon": 77.6230436,
      "tags": {
        "name": "Eclat Tours and Travels",
        "shop": "travel_agency"
      }
    },
    {
      "type": "node",
      "id": 8120700208,
      "lat": 13.0001196,
      "lon": 77.623048,
      "tags": {
        "name": "Ladies Tailors",
        "shop": "tailor"
      }
    },
    {
      "type": "node",
      "id": 8168113612,
      "lat": 12.9988154,
      "lon": 77.6230626,
      "tags": {
        "name": "Animation Souk",
        "shop": "collector"
      }
    },
    {
      "type": "node",
      "id": 8182549217,
      "lat": 13.0000427,
      "lon": 77.620479,
      "tags": {
        "name": "India Emporium",
        "shop": "fabric"
      }
    },
    {
      "type": "node",
      "id": 8186304635,
      "lat": 12.9997409,
      "lon": 77.6214759,
      "tags": {
        "shop": "convenience"
      }
    },
    {
      "type": "node",
      "id": 8186304650,
      "lat": 13.0004506,
      "lon": 77.6218199,
      "tags": {
        "amenity": "pharmacy",
        "dispensing": "yes",
        "healthcare": "pharmacy",
        "name": "Axis Pharma and Dental Supplies"
      }
    },
    {
      "type": "node",
      "id": 8186304651,
      "lat": 13.0008456,
      "lon": 77.6219257,
      "tags": {
        "amenity": "bank",
        "atm": "yes",
        "brand": "Bank of Baroda",
        "brand:wikidata": "Q2003797",
        "brand:wikipedia": "en:Bank of Baroda",
        "name": "Bank of Baroda",
        "name:kn": "ಬ್ಯಾಂಕ್ ಆಫ್ ಬರೋಡ"
      }
    },
    {
      "type": "node",
      "id": 8187962393,
      "lat": 13.0015255,
      "lon": 77.6254644,
      "tags": {
        "addr:full": "No 9, 1st Cross Rd, D Costa Layout, Cooke Town, Bengaluru, Karnataka",
        "addr:state": "Karnataka",
        "amenity": "bank",
        "brand": "Union Bank of India",
        "brand:wikidata": "Q2004078",
        "brand:wikipedia": "en:Union Bank of India",
        "name": "Union Bank of India",
        "name:kn": "ಯೂನಿಯನ್ ಬ್ಯಾಂಕ್"
      }
    },
    {
      "type": "node",
      "id": 8187986351,
      "lat": 13.0022436,
      "lon": 77.621601,
      "tags": {
        "addr:full": "16, Hutchins Rd, Balaji Layout, Cooke Town, Bengaluru, Karnataka",
        "amenity": "clinic",
        "healthcare": "clinic",
        "healthcare:speciality": "physiotherapy",
        "name": "The orthopedics clinic",
        "opening_hours": "Mo-Fr 16:00-18:30",
        "phone": "+91 080 25466695"
      }
    },
    {
      "type": "node",
      "id": 8201455679,
      "lat": 13.0017516,
      "lon": 77.6253905,
      "tags": {
        "name": "KNR Electricals",
        "shop": "electrical"
      }
    },
    {
      "type": "node",
      "id": 8594821791,
      "lat": 13.0022702,
      "lon": 77.6216147,
      "tags": {
        "addr:full": "16, Hutchins Rd, Balaji Layout, Cooke Town, Bengaluru, Karnataka",
        "amenity": "clinic",
        "check_date": "2024-11-29",
        "healthcare": "clinic",
        "healthcare:speciality": "physiotherapy;acupuncture;allergology",
        "name": "Katherina Kasper Clinic",
        "name:kn": "ಕ್ಯಾಥರಿನ ಕ್ಯಾಸ್ಪರ್ ಕ್ಲಿನಿಕ್",
        "opening_hours": "Mo-Fr 08:00-12:00,15:30-17:30; Sa 08:00-12:00",
        "phone": "+91 080 25466695"
      }
    },
    {
      "type": "node",
      "id": 8594821792,
      "lat": 13.0022957,
      "lon": 77.621624,
      "tags": {
        "addr:city": "Bangalore",
        "addr:full": "16, Hutchins Rd, Balaji Layout, Cooke Town, Bengaluru, Karnataka",
        "addr:housenumber": "16",
        "addr:postcode": "560005",
        "addr:street": "Hutchins Main Road",
        "amenity": "clinic",
        "healthcare": "clinic",
        "name": "Katherina Kasper Leprosy Control Scheme",
        "opening_hours": "Mo-Fr 11:30-12:30",
        "phone": "+91 080 25466695"
      }
    },
    {
      "type": "node",
      "id": 8594849018,
      "lat": 13.0002611,
      "lon": 77.6208809,
      "tags": {
        "amenity": "clinic",
        "healthcare": "clinic",
        "healthcare:speciality": "paediatrics",
        "name": "Mathew Children's Specialist",
        "phone": "+91 080 25473578"
      }
    },
    {
      "type": "node",
      "id": 8890701649,
      "lat": 12.9988716,
      "lon": 77.6240463,
      "tags": {
        "name": "Paradise Store",
        "shop": "convenience"
      }
    },
    {
      "type": "node",
      "id": 8890701650,
      "lat": 12.9989045,
      "lon": 77.6240611,
      "tags": {
        "name": "Reliable India Group",
        "shop": "yes"
      }
    },
    {
      "type": "node",
      "id": 8890701663,
      "lat": 12.9994967,
      "lon": 77.6247784,
      "tags": {
        "name": "Deepa Tires",
        "shop": "tyres"
      }
    },
    {
      "type": "node",
      "id": 8895424327,
      "lat": 13.0002422,
      "lon": 77.6257839,
      "tags": {
        "name": "Dell Authorized Service Center",
        "shop": "computer"
      }
    },
    {
      "type": "node",
      "id": 8899492816,
      "lat": 13.0013412,
      "lon": 77.6149976,
      "tags": {
        "amenity": "car_rental",
        "name": "Self drive car rental @ Hi5 karZ",
        "opening_hours": "Mo-Fr 10:30-13:15,14:00-20:15; Sa 09:00-17:00; PH closed"
      }
    },
    {
      "type": "node",
      "id": 8916964740,
      "lat": 13.0042947,
      "lon": 77.6229746,
      "tags": {
        "amenity": "atm",
        "brand": "ICICI Bank",
        "brand:wikidata": "Q1653258",
        "brand:wikipedia": "en:ICICI Bank",
        "name": "ICICI Bank",
        "name:kn": "ಐಸಿಐಸಿಐ ಬ್ಯಾಂಕು",
        "operator": "ICICI Bank",
        "operator:wikidata": "Q1653258",
        "short_name": "ICICI"
      }
    },
    {
      "type": "node",
      "id": 8917134593,
      "lat": 13.001791,
      "lon": 77.6254329,
      "tags": {
        "name": "Sri Rama Provision Store",
        "shop": "convenience"
      }
    },
    {
      "type": "node",
      "id": 8963758102,
      "lat": 13.0022137,
      "lon": 77.6237059,
      "tags": {
        "female": "yes",
        "name": "My Look Beauty Parlour",
        "phone": "+919972515553",
        "shop": "hairdresser"
      }
    },
    {
      "type": "node",
      "id": 8963780195,
      "lat": 13.0036253,
      "lon": 77.6229463,
      "tags": {
        "name": "AM Bakers and Caterers",
        "shop": "bakery"
      }
    },
    {
      "type": "node",
      "id": 8963780196,
      "lat": 13.0036029,
      "lon": 77.6229833,
      "tags": {
        "name": "Epics Dress Circle",
        "shop": "tailor"
      }
    },
    {
      "type": "node",
      "id": 8963780197,
      "lat": 13.0034835,
      "lon": 77.6231624,
      "tags": {
        "name": "Bombay Salon",
        "shop": "hairdresser"
      }
    },
    {
      "type": "node",
      "id": 8980325760,
      "lat": 13.0031199,
      "lon": 77.6242269,
      "tags": {
        "name": "Max Clean",
        "shop": "dry_cleaning"
      }
    },
    {
      "type": "node",
      "id": 9032614448,
      "lat": 13.0023701,
      "lon": 77.6206046,
      "tags": {
        "name": "Tara Motors",
        "shop": "car_repair"
      }
    },
    {
      "type": "node",
      "id": 9032614449,
      "lat": 13.0023925,
      "lon": 77.6205595,
      "tags": {
        "name": "New Castle",
        "shop": "hairdresser"
      }
    },
    {
      "type": "node",
      "id": 9032614450,
      "lat": 13.002414,
      "lon": 77.6205145,
      "tags": {
        "name": "Numerology Zone",
        "shop": "psychic"
      }
    },
    {
      "type": "node",
      "id": 9038429824,
      "lat": 13.0028239,
      "lon": 77.6202302,
      "tags": {
        "shop": "convenience"
      }
    },
    {
      "type": "node",
      "id": 9038429825,
      "lat": 13.0028459,
      "lon": 77.620199,
      "tags": {
        "name": "Balaji Rao Ladies Tailor",
        "shop": "tailor"
      }
    },
    {
      "type": "node",
      "id": 9038429826,
      "lat": 13.0028654,
      "lon": 77.6201747,
      "tags": {
        "name": "Humsafar Dealer - Batteries",
        "shop": "trade"
      }
    },
    {
      "type": "node",
      "id": 9038429827,
      "lat": 13.0028842,
      "lon": 77.6201475,
      "tags": {
        "name": "GK Pro Sound and Light",
        "shop": "trade"
      }
    },
    {
      "type": "node",
      "id": 9038429828,
      "lat": 13.003078,
      "lon": 77.6198392,
      "tags": {
        "name": "Fashion House Ladies Tailor",
        "shop": "tailor"
      }
    },
    {
      "type": "node",
      "id": 9230690428,
      "lat": 12.9992268,
      "lon": 77.6160355,
      "tags": {
        "amenity": "cafe",
        "name": "Taj Tea House"
      }
    },
    {
      "type": "node",
      "id": 9230690429,
      "lat": 12.9994524,
      "lon": 77.6157635,
      "tags": {
        "amenity": "restaurant",
        "check_date": "2024-04-27",
        "cuisine": "regional",
        "diet:halal": "yes",
        "name": "Savoury"
      }
    },
    {
      "type": "node",
      "id": 9534308004,
      "lat": 12.9982475,
      "lon": 77.6153594,
      "tags": {
        "name": "Theobroma Patisserie",
        "shop": "bakery",
        "website": "https://theobroma.in/"
      }
    },
    {
      "type": "node",
      "id": 9740634164,
      "lat": 13.0015545,
      "lon": 77.6235582,
      "tags": {
        "shop": "florist"
      }
    },
    {
      "type": "node",
      "id": 9740697230,
      "lat": 13.0015427,
      "lon": 77.6235808,
      "tags": {
        "name": "Pluto Pet Food and Spa",
        "shop": "pet"
      }
    },
    {
      "type": "node",
      "id": 9786123495,
      "lat": 12.9997243,
      "lon": 77.6161519,
      "tags": {
        "amenity": "restaurant",
        "name": "Karama"
      }
    },
    {
      "type": "node",
      "id": 9786123496,
      "lat": 13.003654,
      "lon": 77.6166234,
      "tags": {
        "amenity": "bank",
        "atm": "yes",
        "brand": "CSB Bank",
        "brand:wikidata": "Q5053244",
        "name": "CSB Bank",
        "official_name": "Catholic Syrian Bank",
        "operator": "Catholic Syrian Bank"
      }
    },
    {
      "type": "node",
      "id": 9807092611,
      "lat": 13.0034403,
      "lon": 77.6212542,
      "tags": {
        "amenity": "bench",
        "backrest": "yes",
        "material": "stone",
        "seats": "3",
        "survey:date": "2023-09-21"
      }
    },
    {
      "type": "node",
      "id": 9811298547,
      "lat": 13.0034626,
      "lon": 77.6208589,
      "tags": {
        "amenity": "bench",
        "backrest": "yes",
        "material": "concrete",
        "seats": "3"
      }
    },
    {
      "type": "node",
      "id": 9811333736,
      "lat": 13.0032974,
      "lon": 77.6211717,
      "tags": {
        "amenity": "bench",
        "backrest": "yes",
        "material": "concrete",
        "seats": "3"
      }
    },
    {
      "type": "node",
      "id": 9811339317,
      "lat": 13.0035594,
      "lon": 77.6209737,
      "tags": {
        "amenity": "bench",
        "backrest": "yes",
        "material": "stone",
        "seats": "3",
        "survey:date": "2022-06-11"
      }
    },
    {
      "type": "node",
      "id": 9811339417,
      "lat": 13.0033932,
      "lon": 77.6209962,
      "tags": {
        "amenity": "bench",
        "backrest": "yes",
        "material": "stone",
        "seats": "3",
        "survey:date": "2022-06-11"
      }
    },
    {
      "type": "node",
      "id": 9815214017,
      "lat": 13.0037454,
      "lon": 77.6206159,
      "tags": {
        "amenity": "bench",
        "backrest": "yes",
        "material": "stone",
        "seats": "3",
        "survey:date": "2022-06-13"
      }
    },
    {
      "type": "node",
      "id": 9836821111,
      "lat": 13.0031206,
      "lon": 77.621492,
      "tags": {
        "amenity": "bench",
        "backrest": "yes",
        "material": "stone",
        "seats": "3"
      }
    },
    {
      "type": "node",
      "id": 9836821112,
      "lat": 13.003294,
      "lon": 77.621469,
      "tags": {
        "amenity": "bench",
        "backrest": "yes",
        "material": "stone",
        "seats": "3"
      }
    },
    {
      "type": "node",
      "id": 9851108117,
      "lat": 13.0038532,
      "lon": 77.6200183,
      "tags": {
        "amenity": "bench",
        "backrest": "yes",
        "material": "stone",
        "seats": "3",
        "survey:date": "2022-06-27"
      }
    },
    {
      "type": "node",
      "id": 10979409744,
      "lat": 12.9958745,
      "lon": 77.6213506,
      "tags": {
        "amenity": "fast_food",
        "brand": "Indira Canteen",
        "brand:wikidata": "Q36164828",
        "cuisine": "south_indian",
        "name": "Indira Canteen",
        "operator": "BBMP",
        "takeaway": "yes"
      }
    },
    {
      "type": "node",
      "id": 10979409745,
      "lat": 12.9961581,
      "lon": 77.6213264,
      "tags": {
        "addr:city": "Bengaluru",
        "addr:country": "IN",
        "addr:housenumber": "14",
        "addr:postcode": "560005",
        "addr:street": "Sundaramurthi Road",
        "addr:suburb": "Cox Town",
        "name": "Fresh World",
        "shop": "supermarket"
      }
    },
    {
      "type": "node",
      "id": 10979409746,
      "lat": 12.9966455,
      "lon": 77.6211025,
      "tags": {
        "addr:city": "Bengaluru",
        "addr:country": "IN",
        "addr:housenumber": "2/1",
        "addr:postcode": "560005",
        "addr:street": "MM Road",
        "addr:suburb": "Cox Town",
        "amenity": "clinic",
        "name": "Kirti Eye and Dental Hospital",
        "name:kn": "ಕೀರ್ತಿ ಐ ಅಂಡ್ ಡೆಂಟಲ್ ಹಾಸ್ಪಿಟಲ್"
      }
    },
    {
      "type": "node",
      "id": 10980098242,
      "lat": 13.0014615,
      "lon": 77.6239398,
      "tags": {
        "amenity": "doctors",
        "healthcare": "doctor",
        "healthcare:speciality": "orthopaedics",
        "phone": "+91 7349548470",
        "website": "https://www.drchiragthonse.com/"
      }
    },
    {
      "type": "node",
      "id": 10980098243,
      "lat": 13.0012722,
      "lon": 77.6239694,
      "tags": {
        "leisure": "fitness_centre",
        "name": "The Practice Room",
        "sport": "yoga",
        "website": "https://thepracticeroom.in"
      }
    },
    {
      "type": "node",
      "id": 10980098244,
      "lat": 13.0015283,
      "lon": 77.6236361,
      "tags": {
        "shop": "scooter"
      }
    },
    {
      "type": "node",
      "id": 10980098245,
      "lat": 13.0013211,
      "lon": 77.6238425,
      "tags": {
        "name": "Genesis",
        "opening_hours": "We-Mo 10:00-20:00; ",
        "shop": "hairdresser"
      }
    },
    {
      "type": "node",
      "id": 10980098246,
      "lat": 13.0013126,
      "lon": 77.6238641,
      "tags": {
        "name": "Genesis",
        "opening_hours": "We-Mo 10:00-20:00; ",
        "shop": "clothes"
      }
    },
    {
      "type": "node",
      "id": 10980098247,
      "lat": 13.00174,
      "lon": 77.6236628,
      "tags": {
        "amenity": "fast_food",
        "cuisine": "korean",
        "name": "Koriken"
      }
    },
    {
      "type": "node",
      "id": 11001956980,
      "lat": 13.0014092,
      "lon": 77.6236049,
      "tags": {
        "amenity": "fast_food",
        "cuisine": "juice"
      }
    },
    {
      "type": "node",
      "id": 11001957001,
      "lat": 13.0050907,
      "lon": 77.623253,
      "tags": {
        "male": "yes",
        "name": "Alankar Men's Parlour",
        "shop": "hairdresser"
      }
    },
    {
      "type": "node",
      "id": 11001999282,
      "lat": 13.0053041,
      "lon": 77.6232049,
      "tags": {
        "addr:city": "Bangalore",
        "addr:housenumber": "15",
        "addr:postcode": "560084",
        "addr:street": "Hutchins 2nd Cross",
        "amenity": "clinic",
        "healthcare": "clinic",
        "name": "Saalik's Healthcare Centre"
      }
    },
    {
      "type": "node",
      "id": 11003445652,
      "lat": 13.0050529,
      "lon": 77.6234902,
      "tags": {
        "name": "F H Fashion",
        "shop": "clothes"
      }
    },
    {
      "type": "node",
      "id": 11005461570,
      "lat": 13.0050579,
      "lon": 77.623362,
      "tags": {
        "amenity": "cafe",
        "name": "Cafe Hug"
      }
    },
    {
      "type": "node",
      "id": 11005461571,
      "lat": 13.0050303,
      "lon": 77.6233469,
      "tags": {
        "name": "Eddy's Mangalore Store",
        "shop": "convenience"
      }
    },
    {
      "type": "node",
      "id": 11005461585,
      "lat": 13.0047974,
      "lon": 77.6232354,
      "tags": {
        "amenity": "ice_cream",
        "name": "Video Dash"
      }
    },
    {
      "type": "node",
      "id": 11005461586,
      "lat": 13.0047794,
      "lon": 77.6232287,
      "tags": {
        "name": "Hot Chips",
        "shop": "snack"
      }
    },
    {
      "type": "node",
      "id": 11005461587,
      "lat": 13.0047583,
      "lon": 77.6232246,
      "tags": {
        "name": "Golden Broilers",
        "shop": "butcher"
      }
    },
    {
      "type": "node",
      "id": 11005461594,
      "lat": 13.0045175,
      "lon": 77.6231471,
      "tags": {
        "name": "Quraish Meat Shop",
        "shop": "butcher"
      }
    },
    {
      "type": "node",
      "id": 11005461597,
      "lat": 13.0044514,
      "lon": 77.6231278,
      "tags": {
        "name": "The Boutique",
        "shop": "clothes"
      }
    },
    {
      "type": "node",
      "id": 11005461598,
      "lat": 13.0044368,
      "lon": 77.6231251,
      "tags": {
        "name": "Bismallah Store",
        "shop": "convenience"
      }
    },
    {
      "type": "node",
      "id": 11005461599,
      "lat": 13.0043706,
      "lon": 77.6231079,
      "tags": {
        "name": "V S & Sons",
        "shop": "convenience"
      }
    },
    {
      "type": "node",
      "id": 11005461600,
      "lat": 13.0042997,
      "lon": 77.62308,
      "tags": {
        "name": "Hitaish Tele Links",
        "shop": "copyshop"
      }
    },
    {
      "type": "node",
      "id": 11005547709,
      "lat": 13.0040214,
      "lon": 77.622943,
      "tags": {
        "name": "Mobile Nation",
        "shop": "mobile_phone"
      }
    },
    {
      "type": "node",
      "id": 11005547710,
      "lat": 13.0040062,
      "lon": 77.622935,
      "tags": {
        "male": "yes",
        "name": "Trend Mens Salon",
        "shop": "hairdresser"
      }
    },
    {
      "type": "node",
      "id": 11005547711,
      "lat": 13.0039947,
      "lon": 77.6229271,
      "tags": {
        "amenity": "fast_food",
        "brand": "Five Star Chicken",
        "cuisine": "chicken",
        "delivery": "yes",
        "name": "Five Star Chicken",
        "takeaway": "yes"
      }
    },
    {
      "type": "node",
      "id": 11005547716,
      "lat": 13.0036865,
      "lon": 77.6225968,
      "tags": {
        "amenity": "cafe",
        "check_date": "2024-10-17",
        "name": "Olive Cafe",
        "name:kn": "ಆಲಿವ್ ಕಫ಼ೆ"
      }
    },
    {
      "type": "node",
      "id": 11005565898,
      "lat": 13.0054955,
      "lon": 77.6252182,
      "tags": {
        "name": "Nandini Milk and Curd",
        "shop": "dairy"
      }
    },
    {
      "type": "node",
      "id": 11005565899,
      "lat": 13.0055213,
      "lon": 77.6252264,
      "tags": {
        "name": "Hello Tele Links",
        "shop": "copyshop"
      }
    },
    {
      "type": "node",
      "id": 11046880966,
      "lat": 13.0048779,
      "lon": 77.6171409,
      "tags": {
        "amenity": "cafe",
        "delivery": "yes",
        "name": "Chez Kina",
        "shop": "bakery",
        "takeaway": "yes"
      }
    },
    {
      "type": "node",
      "id": 11096903665,
      "lat": 13.0002181,
      "lon": 77.6257065,
      "tags": {
        "amenity": "cafe",
        "check_date": "2024-08-11",
        "name": "Cafe Lazy Lad"
      }
    },
    {
      "type": "node",
      "id": 11096903669,
      "lat": 13.0017712,
      "lon": 77.627354,
      "tags": {
        "denomination": "catholic",
        "name": "Asian Trading Corporation",
        "religion": "christian",
        "shop": "gift",
        "short_name": "ATC"
      }
    },
    {
      "type": "node",
      "id": 11096914888,
      "lat": 12.9959033,
      "lon": 77.616713,
      "tags": {
        "access": "yes",
        "amenity": "toilets",
        "fee": "yes",
        "operator": "BBMP"
      }
    },
    {
      "type": "node",
      "id": 11126837816,
      "lat": 13.0011838,
      "lon": 77.6325676,
      "tags": {
        "alt_name": "Kentucky Fried Chicken",
        "alt_name:en": "Kentucky Fried Chicken",
        "alt_name:hi": "केंटुकी फ्राइड चिकन",
        "alt_name:pa": "ਕੈਂਟੁਕੀ ਫ੍ਰਾਈਡ ਚਿਕਨ",
        "alt_name:pnb": "کینٹکی فرائیڈ چکن",
        "alt_name:ur": "کینٹکی فرائیڈ چکن",
        "amenity": "fast_food",
        "brand": "KFC",
        "brand:en": "KFC",
        "brand:hi": "केएफसी",
        "brand:pa": "ਕੇਐਫਸੀ",
        "brand:pnb": "کے ایف سی",
        "brand:ur": "کے ایف سی",
        "brand:wikidata": "Q524757",
        "brand:wikipedia": "en:KFC",
        "cuisine": "chicken",
        "name": "KFC",
        "name:en": "KFC",
        "name:hi": "केएफसी",
        "name:pa": "ਕੇਐਫਸੀ",
        "name:pnb": "کے ایف سی",
        "name:ur": "کے ایف سی",
        "takeaway": "yes"
      }
    },
    {
      "type": "node",
      "id": 11126837817,
      "lat": 13.0008022,
      "lon": 77.6325501,
      "tags": {
        "amenity": "pub",
        "microbrewery": "yes",
        "name": "We:Neighbourhood"
      }
    },
    {
      "type": "node",
      "id": 11129099866,
      "lat": 12.9953074,
      "lon": 77.6216752,
      "tags": {
        "addr:city": "Bengaluru",
        "addr:country": "IN",
        "addr:housenumber": "51",
        "addr:postcode": "560005",
        "addr:street": "MM Road",
        "addr:suburb": "Cox Town",
        "contact:facebook": "breadtimestories.blr",
        "contact:instagram": "breadtimestories.blr",
        "email": "breadtimestories.blr@gmail.com",
        "name": "Breadtime Stories",
        "shop": "bakery",
        "website": "https://www.breadtimestories.in"
      }
    },
    {
      "type": "node",
      "id": 11148355821,
      "lat": 13.0056358,
      "lon": 77.6236258,
      "tags": {
        "addr:city": "Bangalore",
        "addr:country": "IN",
        "addr:housenumber": "43",
        "addr:postcode": "560084",
        "addr:street": "Hutchins 3rd Cross",
        "name": "Daily Fresh Fruits & Vegetables",
        "shop": "greengrocer"
      }
    },
    {
      "type": "node",
      "id": 11148355822,
      "lat": 13.0056129,
      "lon": 77.6236747,
      "tags": {
        "addr:city": "Bangalore",
        "addr:country": "IN",
        "addr:housenumber": "42",
        "addr:postcode": "560084",
        "addr:street": "Hutchins 3rd Cross",
        "amenity": "fast_food",
        "name": "Sri Manjunatha Tiffin Centre"
      }
    },
    {
      "type": "node",
      "id": 11156162841,
      "lat": 13.0053751,
      "lon": 77.6234665,
      "tags": {
        "amenity": "recycling",
        "recycling:paper": "yes",
        "recycling_type": "container"
      }
    },
    {
      "type": "node",
      "id": 11156162843,
      "lat": 13.0054525,
      "lon": 77.6235027,
      "tags": {
        "amenity": "dentist",
        "name": "Zenith Dental Care"
      }
    },
    {
      "type": "node",
      "id": 11156162875,
      "lat": 13.005856,
      "lon": 77.6230913,
      "tags": {
        "amenity": "post_box",
        "collection_times": "Mo-Su 16:00",
        "colour": "red",
        "image": "https://thejeshgn.com/wp-content/uploads/2025/11/wp-1763095687595.jpg",
        "operator": "India Post",
        "operator:wikidata": "Q3519720"
      }
    },
    {
      "type": "node",
      "id": 11158854854,
      "lat": 13.0057037,
      "lon": 77.6236392,
      "tags": {
        "name": "M Babu Store",
        "shop": "convenience"
      }
    },
    {
      "type": "node",
      "id": 11158854878,
      "lat": 13.0065933,
      "lon": 77.6239168,
      "tags": {
        "female": "yes",
        "name": "L'Orange Beauty Salon",
        "shop": "hairdresser"
      }
    },
    {
      "type": "node",
      "id": 11158854896,
      "lat": 13.0059961,
      "lon": 77.6236358,
      "tags": {
        "name": "Asha Cybernet",
        "opening_hours": "Mo-Th 10:00-14:30,15:30-21:30; Fr 10:30-13:00,16:00-21:30",
        "shop": "copyshop"
      }
    },
    {
      "type": "node",
      "id": 11158854897,
      "lat": 13.0059794,
      "lon": 77.6236264,
      "tags": {
        "amenity": "money_transfer",
        "name": "Asha Cybernet",
        "opening_hours": "Mo-Th 10:00-14:30,15:30-21:30; Fr 10:30-13:00,16:00-21:30"
      }
    },
    {
      "type": "node",
      "id": 11165098474,
      "lat": 13.0060366,
      "lon": 77.6235969,
      "tags": {
        "name": "Best Mutton Shop",
        "shop": "butcher"
      }
    },
    {
      "type": "node",
      "id": 11165132273,
      "lat": 13.0067974,
      "lon": 77.6244593,
      "tags": {
        "amenity": "dentist",
        "name": "Tooth Oral Care Centre",
        "opening_hours": "Mo-Sa 10:00-18:00",
        "phone": "+91 9894481 67924"
      }
    },
    {
      "type": "node",
      "id": 11165366175,
      "lat": 13.0010897,
      "lon": 77.6270489,
      "tags": {
        "amenity": "bank",
        "brand": "Axis Bank",
        "brand:wikidata": "Q2003549",
        "name": "Axis Bank"
      }
    },
    {
      "type": "node",
      "id": 11167159275,
      "lat": 13.004496,
      "lon": 77.626833,
      "tags": {
        "male": "yes",
        "name": "Kut Above Salon",
        "phone": "+91 97434 54622",
        "shop": "hairdresser"
      }
    },
    {
      "type": "node",
      "id": 11173721905,
      "lat": 13.0055606,
      "lon": 77.6271965,
      "tags": {
        "name": "Moosa Stores",
        "shop": "convenience"
      }
    },
    {
      "type": "node",
      "id": 11173721923,
      "lat": 13.0052614,
      "lon": 77.626996,
      "tags": {
        "amenity": "kindergarten",
        "name": "Chrysalis Hub"
      }
    },
    {
      "type": "node",
      "id": 11173721931,
      "lat": 13.0046355,
      "lon": 77.6268142,
      "tags": {
        "amenity": "fast_food"
      }
    },
    {
      "type": "node",
      "id": 11211898843,
      "lat": 13.0065349,
      "lon": 77.6237528,
      "tags": {
        "amenity": "doctors",
        "name": "Dr David Chico"
      }
    },
    {
      "type": "node",
      "id": 11211898906,
      "lat": 13.0062086,
      "lon": 77.6249783,
      "tags": {
        "amenity": "doctors",
        "healthcare:speciality": "homeopathy",
        "name": "St Josephs Homeopathic Clinic",
        "opening_hours": "Mo-Sa 09:00-12:30,16:00-19:30",
        "phone": "+91 9066519772"
      }
    },
    {
      "type": "node",
      "id": 11212337062,
      "lat": 13.0058168,
      "lon": 77.6267398,
      "tags": {
        "amenity": "college",
        "name": "Peniel Community College for Women"
      }
    },
    {
      "type": "node",
      "id": 11212337067,
      "lat": 13.0008846,
      "lon": 77.6235326,
      "tags": {
        "amenity": "clinic",
        "name": "Prestige Medical Healthcare PMHS",
        "phone": "+91 9886499994",
        "website": "https://www.pmhshealthcare.com/"
      }
    },
    {
      "type": "node",
      "id": 11212337083,
      "lat": 13.0064525,
      "lon": 77.6257253,
      "tags": {
        "name": "Royal Store",
        "shop": "convenience"
      }
    },
    {
      "type": "node",
      "id": 11217454983,
      "lat": 13.0077438,
      "lon": 77.6222917,
      "tags": {
        "shop": "tobacco"
      }
    },
    {
      "type": "node",
      "id": 11217454984,
      "lat": 13.0077353,
      "lon": 77.6223105,
      "tags": {
        "shop": "hardware"
      }
    },
    {
      "type": "node",
      "id": 11361217286,
      "lat": 13.002532,
      "lon": 77.620441,
      "tags": {
        "name": "New Castle Hair Dress",
        "shop": "hairdresser"
      }
    },
    {
      "type": "node",
      "id": 11449455841,
      "lat": 13.0007558,
      "lon": 77.620218,
      "tags": {
        "amenity": "place_of_worship",
        "religion": "hindu"
      }
    },
    {
      "type": "node",
      "id": 11449458279,
      "lat": 13.0010626,
      "lon": 77.6204192,
      "tags": {
        "amenity": "place_of_worship",
        "building": "chapel",
        "religion": "christian"
      }
    },
    {
      "type": "node",
      "id": 11449458280,
      "lat": 13.0011106,
      "lon": 77.6204373,
      "tags": {
        "amenity": "place_of_worship",
        "religion": "hindu"
      }
    },
    {
      "type": "node",
      "id": 11472852213,
      "lat": 13.00013,
      "lon": 77.6188894,
      "tags": {
        "check_date": "2023-12-31",
        "name": "East Aquarist",
        "opening_hours": "Mo-Sa 10:00-21:00; Su 16:00-21:00",
        "phone": "+91 99451 51612",
        "shop": "pet"
      }
    },
    {
      "type": "node",
      "id": 11472852214,
      "lat": 13.0003903,
      "lon": 77.6169515,
      "tags": {
        "check_date": "2023-12-31",
        "shop": "greengrocer"
      }
    },
    {
      "type": "node",
      "id": 11472852215,
      "lat": 13.0003625,
      "lon": 77.6169853,
      "tags": {
        "amenity": "pharmacy",
        "check_date": "2023-12-31",
        "healthcare": "pharmacy",
        "name": "Topmost Medicals"
      }
    },
    {
      "type": "node",
      "id": 11472852216,
      "lat": 13.0003005,
      "lon": 77.6173407,
      "tags": {
        "amenity": "dentist",
        "check_date": "2023-12-31",
        "healthcare": "dentist",
        "level": "3",
        "name": "Dr Noor Saira's Dental Studio",
        "phone": "+91 88849 26497"
      }
    },
    {
      "type": "node",
      "id": 11472852217,
      "lat": 13.0003295,
      "lon": 77.6173282,
      "tags": {
        "amenity": "restaurant",
        "check_date": "2023-12-31",
        "cuisine": "indian;biryani",
        "name": "Taj Hotel"
      }
    },
    {
      "type": "node",
      "id": 11472852219,
      "lat": 12.9997999,
      "lon": 77.619535,
      "tags": {
        "amenity": "driving_school",
        "check_date": "2023-12-31",
        "name": "Bangalore Driving School",
        "phone": "+91 85532 71717"
      }
    },
    {
      "type": "node",
      "id": 11472852220,
      "lat": 13.0003054,
      "lon": 77.6174328,
      "tags": {
        "check_date": "2023-12-31",
        "name": "Impress Salon & Spa",
        "shop": "hairdresser"
      }
    },
    {
      "type": "node",
      "id": 11472852221,
      "lat": 13.0003053,
      "lon": 77.6174621,
      "tags": {
        "check_date": "2023-12-31",
        "name": "Vantage Tourism",
        "phone": "+91 98805 19912",
        "shop": "travel_agency"
      }
    },
    {
      "type": "node",
      "id": 11472852222,
      "lat": 13.000276,
      "lon": 77.6176255,
      "tags": {
        "amenity": "bank",
        "atm": "yes",
        "brand": "UCO Bank",
        "brand:wikidata": "Q2005310",
        "check_date": "2023-12-31",
        "name": "UCO Bank",
        "name:kn": "ಯೂಕೊ ಬ್ಯಾಂಕ್",
        "opening_hours": "Mo-Fr 10:00-14:00,14:30-16:00"
      }
    },
    {
      "type": "node",
      "id": 11472852224,
      "lat": 12.9997443,
      "lon": 77.6196152,
      "tags": {
        "check_date": "2023-12-31",
        "name": "Shri Manjunatha Condiments",
        "shop": "convenience"
      }
    },
    {
      "type": "node",
      "id": 11472852225,
      "lat": 12.9997662,
      "lon": 77.6195855,
      "tags": {
        "amenity": "driving_school",
        "check_date": "2023-12-31",
        "name": "New National Motor Driving Training School",
        "phone": "+91 98454 77871"
      }
    },
    {
      "type": "node",
      "id": 11472852226,
      "lat": 13.0002715,
      "lon": 77.6177205,
      "tags": {
        "amenity": "restaurant",
        "check_date": "2023-12-31",
        "name": "Bucket Biryani"
      }
    },
    {
      "type": "node",
      "id": 11472852227,
      "lat": 12.9998454,
      "lon": 77.6194613,
      "tags": {
        "check_date": "2023-12-31",
        "shop": "convenience"
      }
    },
    {
      "type": "node",
      "id": 11472852228,
      "lat": 12.9998702,
      "lon": 77.6194112,
      "tags": {
        "check_date": "2023-12-31",
        "shop": "copyshop"
      }
    },
    {
      "type": "node",
      "id": 11472852230,
      "lat": 12.9999404,
      "lon": 77.6192949,
      "tags": {
        "check_date": "2023-12-31",
        "male": "yes",
        "name": "Headhealers Studio",
        "shop": "hairdresser"
      }
    },
    {
      "type": "node",
      "id": 11472852231,
      "lat": 13.0000074,
      "lon": 77.6191713,
      "tags": {
        "check_date": "2023-12-31",
        "male": "yes",
        "name": "Arabian Tailor",
        "shop": "tailor"
      }
    },
    {
      "type": "node",
      "id": 11472852232,
      "lat": 13.0002222,
      "lon": 77.61819,
      "tags": {
        "check_date": "2023-12-31",
        "female": "yes",
        "level": "1",
        "name": "Ashin's Ladies Salon",
        "shop": "hairdresser"
      }
    },
    {
      "type": "node",
      "id": 11472852233,
      "lat": 13.0001367,
      "lon": 77.6188756,
      "tags": {
        "amenity": "pharmacy",
        "check_date": "2023-12-31",
        "healthcare": "pharmacy",
        "name": "Sri Balaji Medicals"
      }
    },
    {
      "type": "node",
      "id": 11472852234,
      "lat": 13.000142,
      "lon": 77.618859,
      "tags": {
        "check_date": "2023-12-31",
        "name": "Leather's Mart Enterprise",
        "shop": "leather"
      }
    },
    {
      "type": "node",
      "id": 11472852235,
      "lat": 13.0001684,
      "lon": 77.6187683,
      "tags": {
        "amenity": "bar",
        "check_date": "2023-12-31",
        "name": "Shiva Shakti Bar and Restaurant"
      }
    },
    {
      "type": "node",
      "id": 11472852236,
      "lat": 13.0002257,
      "lon": 77.6185259,
      "tags": {
        "check_date": "2023-12-31",
        "name": "Puncture Shop",
        "shop": "tyres"
      }
    },
    {
      "type": "node",
      "id": 11472852237,
      "lat": 13.0002178,
      "lon": 77.6182102,
      "tags": {
        "check_date": "2023-12-31",
        "name": "Shabnam Fashions",
        "shop": "clothes"
      }
    },
    {
      "type": "node",
      "id": 11472852238,
      "lat": 13.0003724,
      "lon": 77.6167827,
      "tags": {
        "amenity": "restaurant",
        "check_date": "2023-12-31",
        "cuisine": "indian;kebab;persian",
        "name": "Sheesh Kebab"
      }
    },
    {
      "type": "node",
      "id": 11472852239,
      "lat": 13.0002142,
      "lon": 77.6181157,
      "tags": {
        "check_date": "2023-12-31",
        "name": "Primecore Infotech",
        "repair": "yes",
        "shop": "computer"
      }
    },
    {
      "type": "node",
      "id": 11472852240,
      "lat": 13.0002606,
      "lon": 77.6179319,
      "tags": {
        "check_date": "2023-12-31",
        "name": "World View Tours & Travels",
        "shop": "travel_agency"
      }
    },
    {
      "type": "node",
      "id": 11472852241,
      "lat": 13.000267,
      "lon": 77.6178923,
      "tags": {
        "amenity": "dentist",
        "check_date": "2023-12-31",
        "healthcare": "dentist",
        "name": "Smiles Dental Specialities"
      }
    },
    {
      "type": "node",
      "id": 11472852242,
      "lat": 13.0002804,
      "lon": 77.6174439,
      "tags": {
        "amenity": "restaurant",
        "check_date": "2023-12-31",
        "level": "1",
        "name": "Chichabas Dawat"
      }
    },
    {
      "type": "node",
      "id": 11473412154,
      "lat": 12.9998657,
      "lon": 77.6196688,
      "tags": {
        "access": "customers",
        "amenity": "toilets",
        "female": "yes",
        "male": "yes"
      }
    },
    {
      "type": "node",
      "id": 11557043272,
      "lat": 12.9948602,
      "lon": 77.6175033,
      "tags": {
        "addr:housenumber": "28",
        "addr:street": "Assayee Road",
        "alt_name": "Backer and Charlie",
        "amenity": "cafe",
        "check_date": "2024-01-27",
        "contact:instagram": "https://www.instagram.com/backerandcharlie",
        "delivery": "yes",
        "name": "Bäcker & Charlie",
        "outdoor_seating": "yes",
        "start_date": "2024-01-31",
        "takeaway": "yes",
        "toilets": "yes",
        "wheelchair": "limited"
      }
    },
    {
      "type": "node",
      "id": 11584464960,
      "lat": 13.0016951,
      "lon": 77.6236518,
      "tags": {
        "amenity": "cafe",
        "cuisine": "ice_cream;pizza;pasta",
        "name": "The Milton St. Cafe",
        "outdoor_seating": "yes"
      }
    },
    {
      "type": "node",
      "id": 11584464962,
      "lat": 13.0017943,
      "lon": 77.6236731,
      "tags": {
        "amenity": "parking_entrance",
        "parking": "underground"
      }
    },
    {
      "type": "node",
      "id": 11584464964,
      "lat": 13.0017512,
      "lon": 77.6236961,
      "tags": {
        "clothes": "women",
        "name": "Sabah",
        "shop": "clothes"
      }
    },
    {
      "type": "node",
      "id": 11822465878,
      "lat": 13.0013403,
      "lon": 77.6235811,
      "tags": {
        "amenity": "fast_food",
        "cuisine": "indian",
        "level": "1",
        "name": "Chota Swaad"
      }
    },
    {
      "type": "node",
      "id": 11822465879,
      "lat": 13.0014231,
      "lon": 77.6236111,
      "tags": {
        "amenity": "fast_food",
        "cuisine": "momos",
        "street_vendor": "yes"
      }
    },
    {
      "type": "node",
      "id": 11833289307,
      "lat": 12.9998764,
      "lon": 77.6251821,
      "tags": {
        "shop": "greengrocer"
      }
    },
    {
      "type": "node",
      "id": 11853263736,
      "lat": 12.999875,
      "lon": 77.6158562,
      "tags": {
        "check_date": "2024-04-27",
        "name": "Empire Tobacco Shop",
        "shop": "tobacco"
      }
    },
    {
      "type": "node",
      "id": 11853263737,
      "lat": 12.9998135,
      "lon": 77.6158643,
      "tags": {
        "check_date": "2024-04-27",
        "name": "Lalitha Wines",
        "shop": "alcohol"
      }
    },
    {
      "type": "node",
      "id": 11853263738,
      "lat": 12.9997738,
      "lon": 77.6158458,
      "tags": {
        "amenity": "dentist",
        "check_date": "2024-04-27",
        "healthcare": "dentist",
        "name": "Lakshmi Dental Clinic",
        "phone": "+91 98451 30949"
      }
    },
    {
      "type": "node",
      "id": 11853263739,
      "lat": 12.9997489,
      "lon": 77.6158472,
      "tags": {
        "check_date": "2024-04-27",
        "shop": "tailor"
      }
    },
    {
      "type": "node",
      "id": 11853263740,
      "lat": 12.9996997,
      "lon": 77.6158458,
      "tags": {
        "amenity": "fast_food",
        "check_date": "2024-04-27",
        "cuisine": "juice",
        "name": "Om Ganesh Fruit Juice Centre"
      }
    },
    {
      "type": "node",
      "id": 11853263741,
      "lat": 12.9996636,
      "lon": 77.6158292,
      "tags": {
        "check_date": "2024-04-27",
        "name": "Lusitania Foods",
        "shop": "butcher"
      }
    },
    {
      "type": "node",
      "id": 11853269023,
      "lat": 13.0001531,
      "lon": 77.615953,
      "tags": {
        "check_date": "2024-04-27",
        "name": "Heera Jewellers",
        "shop": "jewelry"
      }
    },
    {
      "type": "node",
      "id": 11853270212,
      "lat": 12.9990282,
      "lon": 77.6158396,
      "tags": {
        "check_date": "2024-04-27",
        "name": "Ajwa Travels Foreign Exchange",
        "shop": "travel_agency"
      }
    },
    {
      "type": "node",
      "id": 11853270504,
      "lat": 12.9989912,
      "lon": 77.6158195,
      "tags": {
        "check_date": "2024-04-27",
        "name": "Hira Perfumes",
        "shop": "perfumery"
      }
    },
    {
      "type": "node",
      "id": 11853272067,
      "lat": 12.9993902,
      "lon": 77.6160619,
      "tags": {
        "check_date": "2024-04-27",
        "name": "Casio Home Needs",
        "shop": "supermarket"
      }
    },
    {
      "type": "node",
      "id": 11853276286,
      "lat": 12.9993695,
      "lon": 77.6160179,
      "tags": {
        "amenity": "restaurant",
        "check_date": "2024-04-27",
        "name": "Dharmik Veg"
      }
    },
    {
      "type": "node",
      "id": 11853284861,
      "lat": 12.9999237,
      "lon": 77.6160969,
      "tags": {
        "amenity": "fast_food",
        "check_date": "2024-04-27",
        "name": "Dow Tow"
      }
    },
    {
      "type": "node",
      "id": 11853294535,
      "lat": 13.0012487,
      "lon": 77.6162988,
      "tags": {
        "amenity": "community_centre",
        "check_date": "2024-04-27",
        "name": "CMA Mahal"
      }
    },
    {
      "type": "node",
      "id": 11853294536,
      "lat": 13.0010474,
      "lon": 77.6162616,
      "tags": {
        "check_date": "2024-04-27",
        "name": "The Lassi Park",
        "shop": "beverages"
      }
    },
    {
      "type": "node",
      "id": 11853297551,
      "lat": 12.9998715,
      "lon": 77.6160916,
      "tags": {
        "check_date": "2024-04-27",
        "name": "Lassi Shop",
        "shop": "beverages"
      }
    },
    {
      "type": "node",
      "id": 11853313539,
      "lat": 13.0007216,
      "lon": 77.6165254,
      "tags": {
        "amenity": "post_office",
        "check_date": "2024-04-27",
        "name": "Fraser Town Sub Office",
        "operator": "India Post",
        "operator:wikidata": "Q3519720",
        "wheelchair": "yes"
      }
    },
    {
      "type": "node",
      "id": 11853313541,
      "lat": 13.0006904,
      "lon": 77.6167013,
      "tags": {
        "check_date": "2024-04-27",
        "name": "Namdhari's Fresh",
        "shop": "supermarket"
      }
    },
    {
      "type": "node",
      "id": 11853318903,
      "lat": 12.9998555,
      "lon": 77.6160901,
      "tags": {
        "check_date": "2024-04-27",
        "name": "Prince Unique Collection",
        "shop": "clothes"
      }
    },
    {
      "type": "node",
      "id": 11853328088,
      "lat": 12.9988722,
      "lon": 77.6157851,
      "tags": {
        "check_date": "2024-04-27",
        "name": "Soch",
        "shop": "clothes"
      }
    },
    {
      "type": "node",
      "id": 11853329076,
      "lat": 12.9993193,
      "lon": 77.6157833,
      "tags": {
        "amenity": "fast_food",
        "check_date": "2024-04-27",
        "cuisine": "juice",
        "name": "Om Ganesh Fruit Juice Centre"
      }
    },
    {
      "type": "node",
      "id": 11853329077,
      "lat": 12.9992932,
      "lon": 77.6157895,
      "tags": {
        "amenity": "restaurant",
        "check_date": "2024-04-27",
        "name": "Iftar Restaurant"
      }
    },
    {
      "type": "node",
      "id": 11853329078,
      "lat": 12.9992638,
      "lon": 77.6157778,
      "tags": {
        "check_date": "2024-04-27",
        "name": "Sangeetha",
        "name:kn": "ಸಂಗೀತ",
        "shop": "mobile_phone"
      }
    },
    {
      "type": "node",
      "id": 11853329079,
      "lat": 12.9992524,
      "lon": 77.6157573,
      "tags": {
        "check_date": "2024-04-27",
        "name": "Go Kite Travel Agency",
        "shop": "travel_agency"
      }
    },
    {
      "type": "node",
      "id": 11853329193,
      "lat": 12.9997803,
      "lon": 77.6160852,
      "tags": {
        "check_date": "2024-04-27",
        "name": "Fancy Hair Dressers",
        "shop": "hairdresser"
      }
    },
    {
      "type": "node",
      "id": 11853329194,
      "lat": 12.9990827,
      "lon": 77.6158796,
      "tags": {
        "check_date": "2024-04-27",
        "name": "Casio Gift Palace",
        "shop": "gift"
      }
    },
    {
      "type": "node",
      "id": 11853335919,
      "lat": 12.9982239,
      "lon": 77.6153159,
      "tags": {
        "addr:floor": "1",
        "beauty": "nails",
        "check_date": "2024-04-27",
        "name": "Lueur London",
        "shop": "beauty"
      }
    },
    {
      "type": "node",
      "id": 11853339111,
      "lat": 12.9982239,
      "lon": 77.6153159,
      "tags": {
        "check_date": "2024-04-27",
        "name": "Sreeraj Lassi Bar",
        "shop": "beverages"
      }
    },
    {
      "type": "node",
      "id": 11853518215,
      "lat": 13.0006814,
      "lon": 77.6166833,
      "tags": {
        "amenity": "clinic",
        "check_date": "2024-04-27",
        "healthcare": "clinic",
        "name": "Cardoza Clinic"
      }
    },
    {
      "type": "node",
      "id": 11853518216,
      "lat": 13.000325,
      "lon": 77.6171808,
      "tags": {
        "check_date": "2024-04-27",
        "shop": "garden_centre"
      }
    },
    {
      "type": "node",
      "id": 11853518218,
      "lat": 12.9996818,
      "lon": 77.6181637,
      "tags": {
        "check_date": "2024-04-27",
        "name": "Ocean Sea Foods",
        "shop": "seafood"
      }
    },
    {
      "type": "node",
      "id": 11853518219,
      "lat": 12.9996156,
      "lon": 77.618154,
      "tags": {
        "check_date": "2024-04-27",
        "name": "Delux Mutton and Chicken Stall",
        "shop": "butcher"
      }
    },
    {
      "type": "node",
      "id": 11853518221,
      "lat": 12.9995282,
      "lon": 77.6180974,
      "tags": {
        "check_date": "2024-04-27",
        "name": "Ronnie's Beauty Parlour",
        "shop": "beauty"
      }
    },
    {
      "type": "node",
      "id": 11853518222,
      "lat": 12.9995101,
      "lon": 77.6180956,
      "tags": {
        "check_date": "2024-04-27",
        "name": "Dilkush Chicken Kebab",
        "shop": "butcher"
      }
    },
    {
      "type": "node",
      "id": 11853518223,
      "lat": 12.9994804,
      "lon": 77.6180975,
      "tags": {
        "check_date": "2024-04-27",
        "name": "Nectar Fresh",
        "shop": "honey"
      }
    },
    {
      "type": "node",
      "id": 11853518231,
      "lat": 12.9989319,
      "lon": 77.617652,
      "tags": {
        "check_date": "2024-04-27",
        "leisure": "sports_centre",
        "name": "Free Kick"
      }
    },
    {
      "type": "node",
      "id": 11853518233,
      "lat": 12.9986922,
      "lon": 77.617763,
      "tags": {
        "amenity": "childcare",
        "check_date": "2024-04-27",
        "name": "Bright Kid Montessori House"
      }
    },
    {
      "type": "node",
      "id": 11853518234,
      "lat": 12.9985144,
      "lon": 77.6177881,
      "tags": {
        "amenity": "fast_food",
        "check_date": "2024-04-27",
        "name": "Cafe Idly"
      }
    },
    {
      "type": "node",
      "id": 11853518235,
      "lat": 12.9984494,
      "lon": 77.6175446,
      "tags": {
        "amenity": "place_of_worship",
        "check_date": "2024-04-27",
        "religion": "hindu"
      }
    },
    {
      "type": "node",
      "id": 11853518236,
      "lat": 12.9983725,
      "lon": 77.6179151,
      "tags": {
        "amenity": "place_of_worship",
        "check_date": "2024-04-27",
        "religion": "hindu"
      }
    },
    {
      "type": "node",
      "id": 11853518240,
      "lat": 12.9980789,
      "lon": 77.6176969,
      "tags": {
        "check_date": "2024-04-27",
        "name": "laundrokart.com",
        "shop": "laundry"
      }
    },
    {
      "type": "node",
      "id": 11853708683,
      "lat": 13.0006032,
      "lon": 77.6173736,
      "tags": {
        "amenity": "fast_food",
        "check_date": "2024-04-27",
        "cuisine": "juice",
        "name": "Cane Town"
      }
    },
    {
      "type": "node",
      "id": 11853708684,
      "lat": 13.0005882,
      "lon": 77.6173989,
      "tags": {
        "check_date": "2024-04-27",
        "name": "Fabric Spa",
        "shop": "laundry"
      }
    },
    {
      "type": "node",
      "id": 11853708685,
      "lat": 13.000671,
      "lon": 77.6173614,
      "tags": {
        "check_date": "2024-04-27",
        "name": "Al Malik Tours International",
        "shop": "travel_agency"
      }
    },
    {
      "type": "node",
      "id": 11853708686,
      "lat": 13.0005676,
      "lon": 77.6177086,
      "tags": {
        "amenity": "restaurant",
        "check_date": "2024-04-27",
        "name": "Arabian Mataan"
      }
    },
    {
      "type": "node",
      "id": 11853708687,
      "lat": 13.0005983,
      "lon": 77.6178333,
      "tags": {
        "amenity": "bank",
        "atm": "yes",
        "brand": "Indian Overseas Bank",
        "brand:wikidata": "Q2003611",
        "check_date": "2024-04-27",
        "name": "Indian Overseas Bank"
      }
    },
    {
      "type": "node",
      "id": 11853708688,
      "lat": 12.9999461,
      "lon": 77.6183385,
      "tags": {
        "check_date": "2024-04-27",
        "name": "Outlook",
        "shop": "hairdresser"
      }
    },
    {
      "type": "node",
      "id": 11853708689,
      "lat": 12.9999213,
      "lon": 77.6183352,
      "tags": {
        "check_date": "2024-04-27",
        "name": "Meat Treat",
        "shop": "butcher"
      }
    },
    {
      "type": "node",
      "id": 11853708690,
      "lat": 12.9998746,
      "lon": 77.618339,
      "tags": {
        "addr:housenumber": "5/2",
        "addr:street": "Kenchappa Road",
        "check_date": "2024-04-27",
        "name": "Mr. Electrical & Gas Appliances",
        "shop": "electrical"
      }
    },
    {
      "type": "node",
      "id": 11853708691,
      "lat": 12.9998214,
      "lon": 77.6183263,
      "tags": {
        "amenity": "fast_food",
        "check_date": "2024-04-27",
        "name": "Bismillah Biryani Point"
      }
    },
    {
      "type": "node",
      "id": 11853708692,
      "lat": 12.9995568,
      "lon": 77.618253,
      "tags": {
        "check_date": "2024-04-27",
        "name": "SB Stores",
        "shop": "convenience"
      }
    },
    {
      "type": "node",
      "id": 11853708696,
      "lat": 12.9993917,
      "lon": 77.6182696,
      "tags": {
        "amenity": "clinic",
        "check_date": "2024-04-27",
        "healthcare": "clinic",
        "name": "Sai Divine ENT"
      }
    },
    {
      "type": "node",
      "id": 11853708697,
      "lat": 12.9992893,
      "lon": 77.6181036,
      "tags": {
        "check_date": "2024-04-27",
        "name": "City Mart",
        "shop": "department_store"
      }
    },
    {
      "type": "node",
      "id": 11853708698,
      "lat": 12.9992495,
      "lon": 77.6180922,
      "tags": {
        "check_date": "2024-04-27",
        "name": "KK Vegetables & Fruits",
        "shop": "greengrocer"
      }
    },
    {
      "type": "node",
      "id": 11853708699,
      "lat": 12.9992128,
      "lon": 77.6180914,
      "tags": {
        "amenity": "fast_food",
        "check_date": "2024-04-27",
        "name": "Thakur Food Point"
      }
    },
    {
      "type": "node",
      "id": 11853708700,
      "lat": 12.9991979,
      "lon": 77.6181065,
      "tags": {
        "amenity": "fast_food",
        "check_date": "2024-04-27",
        "name": "Vishnu's"
      }
    },
    {
      "type": "node",
      "id": 11853708701,
      "lat": 12.9989684,
      "lon": 77.6180202,
      "tags": {
        "addr:housenumber": "29",
        "addr:street": "Kenchappa Road",
        "check_date": "2024-04-27",
        "name": "Sri Harsha Hairdresser",
        "shop": "hairdresser"
      }
    },
    {
      "type": "node",
      "id": 11853708702,
      "lat": 12.9989367,
      "lon": 77.6180205,
      "tags": {
        "check_date": "2024-04-27",
        "name": "Jayaraj Furniture",
        "shop": "furniture"
      }
    },
    {
      "type": "node",
      "id": 11853708703,
      "lat": 12.9989122,
      "lon": 77.6180182,
      "tags": {
        "check_date": "2024-04-27",
        "name": "New Look Men's Wear",
        "shop": "tailor"
      }
    },
    {
      "type": "node",
      "id": 11853708706,
      "lat": 12.9986449,
      "lon": 77.6179603,
      "tags": {
        "amenity": "restaurant",
        "check_date": "2024-04-27",
        "name": "Namma Dosa"
      }
    },
    {
      "type": "node",
      "id": 11853708707,
      "lat": 12.9985669,
      "lon": 77.6179429,
      "tags": {
        "amenity": "restaurant",
        "check_date": "2024-04-27",
        "name": "New Delicacy",
        "opening_hours": "11:30-23:00"
      }
    },
    {
      "type": "node",
      "id": 11917162002,
      "lat": 12.9962008,
      "lon": 77.6173604,
      "tags": {
        "amenity": "bank",
        "brand": "Canara Bank",
        "brand:en": "Canara Bank",
        "brand:hi": "केनरा बैंक",
        "brand:kn": "ಕೆನರಾ ಬ್ಯಾಂಕ್",
        "brand:pa": "ਕੇਨਰਾ ਬੈਂਕ",
        "brand:pnb": "کینرا بینک",
        "brand:ur": "کینرا بینک",
        "brand:wikidata": "Q2003777",
        "check_date": "2024-05-19",
        "name": "Canara Bank",
        "name:en": "Canara Bank",
        "name:hi": "केनरा बैंक",
        "name:kn": "ಕೆನರಾ ಬ್ಯಾಂಕ್",
        "name:pa": "ਕੇਨਰਾ ਬੈਂਕ",
        "name:pnb": "کینرا بینک",
        "name:ur": "کینرا بینک"
      }
    },
    {
      "type": "node",
      "id": 11917162003,
      "lat": 13.0012362,
      "lon": 77.6271051,
      "tags": {
        "amenity": "bank",
        "brand": "HDFC Bank",
        "brand:wikidata": "Q631047",
        "check_date": "2024-05-19",
        "name": "HDFC Bank",
        "short_name": "HDFC"
      }
    },
    {
      "type": "node",
      "id": 11917222394,
      "lat": 13.0082869,
      "lon": 77.6272517,
      "tags": {
        "amenity": "place_of_worship",
        "check_date": "2024-05-19",
        "religion": "hindu"
      }
    },
    {
      "type": "node",
      "id": 11917222395,
      "lat": 13.0087275,
      "lon": 77.6270271,
      "tags": {
        "check_date": "2024-05-19",
        "name": "Vignesh Fashions",
        "shop": "tailor"
      }
    },
    {
      "type": "node",
      "id": 11917222396,
      "lat": 13.0087274,
      "lon": 77.625714,
      "tags": {
        "check_date": "2024-05-19",
        "name": "AS Ladies Tailors",
        "shop": "tailor"
      }
    },
    {
      "type": "node",
      "id": 11917222397,
      "lat": 13.0082013,
      "lon": 77.625755,
      "tags": {
        "amenity": "kindergarten",
        "check_date": "2024-05-19",
        "name": "Little Ville"
      }
    },
    {
      "type": "node",
      "id": 11917222398,
      "lat": 13.0084817,
      "lon": 77.6232758,
      "tags": {
        "brand": "Honda",
        "brand:wikidata": "Q9584",
        "check_date": "2024-05-19",
        "name": "Honda",
        "shop": "motorcycle"
      }
    },
    {
      "type": "node",
      "id": 11917222399,
      "lat": 13.0100294,
      "lon": 77.6237528,
      "tags": {
        "check_date": "2024-05-19",
        "name": "Sangeetha Tailors",
        "shop": "tailor"
      }
    },
    {
      "type": "node",
      "id": 11953259366,
      "lat": 13.0016791,
      "lon": 77.6327085,
      "tags": {
        "addr:city": "Bangalore",
        "addr:district": "Bengaluru Urban",
        "addr:postcode": "560033",
        "addr:street": "Banaswadi Road",
        "amenity": "pub",
        "brewery": "various",
        "level": "2",
        "microbrewery": "yes",
        "mobile": "+91-9513649744",
        "name": "We Neighborhood Banaswadi",
        "payment:cash": "yes",
        "payment:credit_cards": "yes",
        "payment:debit_cards": "yes",
        "payment:upi": "yes",
        "smoking": "isolated",
        "website": "https://weneighborhood.in/",
        "wheelchair": "yes"
      }
    },
    {
      "type": "node",
      "id": 11982393482,
      "lat": 12.9962215,
      "lon": 77.6171763,
      "tags": {
        "amenity": "bank",
        "brand": "Jana Small Finance Bank",
        "brand:wikidata": "Q65122274",
        "check_date": "2024-06-15",
        "name": "Jana Small Finance Bank"
      }
    },
    {
      "type": "node",
      "id": 11983479257,
      "lat": 13.0037175,
      "lon": 77.6278791,
      "tags": {
        "name": "Opium Hair & Beauty Parlour",
        "shop": "beauty"
      }
    },
    {
      "type": "node",
      "id": 12103825746,
      "lat": 12.9966991,
      "lon": 77.6184919,
      "tags": {
        "check_date": "2024-08-11",
        "name": "New Mahesh Men's Salon",
        "shop": "hairdresser"
      }
    },
    {
      "type": "node",
      "id": 12103825748,
      "lat": 12.9963463,
      "lon": 77.6177673,
      "tags": {
        "check_date": "2024-08-11",
        "name": "Pearls Salon",
        "shop": "beauty"
      }
    },
    {
      "type": "node",
      "id": 12103968910,
      "lat": 13.0027344,
      "lon": 77.6283176,
      "tags": {
        "amenity": "place_of_worship",
        "check_date": "2024-08-11",
        "religion": "hindu"
      }
    },
    {
      "type": "node",
      "id": 12103968911,
      "lat": 13.0012012,
      "lon": 77.6292735,
      "tags": {
        "check_date": "2024-08-11",
        "name": "A Pet Shop",
        "shop": "pet"
      }
    },
    {
      "type": "node",
      "id": 12103968912,
      "lat": 13.0011822,
      "lon": 77.629166,
      "tags": {
        "amenity": "cafe",
        "check_date": "2024-08-11",
        "name": "Cake Kafe"
      }
    },
    {
      "type": "node",
      "id": 12103968915,
      "lat": 12.9969502,
      "lon": 77.6200616,
      "tags": {
        "check_date": "2024-08-11",
        "name": "Kundan Electronics",
        "shop": "electronics"
      }
    },
    {
      "type": "node",
      "id": 12169400829,
      "lat": 13.0018471,
      "lon": 77.6234912,
      "tags": {
        "name": "Coco Locco",
        "outdoor_seating": "yes",
        "shop": "pastry",
        "takeaway": "yes"
      }
    },
    {
      "type": "node",
      "id": 12432796826,
      "lat": 13.001244,
      "lon": 77.6236928,
      "tags": {
        "shop": "bakery"
      }
    },
    {
      "type": "node",
      "id": 12432796827,
      "lat": 13.0012262,
      "lon": 77.6236855,
      "tags": {
        "shop": "pet"
      }
    },
    {
      "type": "node",
      "id": 12432796828,
      "lat": 13.0012024,
      "lon": 77.6236766,
      "tags": {
        "shop": "dry_cleaning"
      }
    },
    {
      "type": "node",
      "id": 12432796829,
      "lat": 13.0011806,
      "lon": 77.6236652,
      "tags": {
        "amenity": "fast_food",
        "cuisine": "kebab;tandori",
        "name": "House of Tandoor"
      }
    },
    {
      "type": "node",
      "id": 12432796835,
      "lat": 13.0003062,
      "lon": 77.6233036,
      "tags": {
        "shop": "pastry"
      }
    },
    {
      "type": "node",
      "id": 12495403807,
      "lat": 12.9985311,
      "lon": 77.620385,
      "tags": {
        "brand": "Nandini",
        "brand:wikidata": "Q124374212",
        "name": "Nandini",
        "shop": "dairy"
      }
    },
    {
      "type": "node",
      "id": 12538503976,
      "lat": 13.0003766,
      "lon": 77.6233584,
      "tags": {
        "addr:city": "Bengaluru",
        "addr:postcode": "560005",
        "addr:street": "Wheeler Rd Ext, Balaji Layout, Cooke Town",
        "amenity": "bank",
        "brand": "State Bank of India",
        "brand:wikidata": "Q1340361",
        "name": "State Bank of India",
        "short_name": "SBI"
      }
    },
    {
      "type": "node",
      "id": 12630531191,
      "lat": 12.9958249,
      "lon": 77.6164556,
      "tags": {
        "amenity": "fast_food",
        "cuisine": "burger",
        "name": "Peppa Zzing"
      }
    },
    {
      "type": "node",
      "id": 12731646860,
      "lat": 13.0026761,
      "lon": 77.6224687,
      "tags": {
        "amenity": "bench",
        "backrest": "no",
        "material": "stone",
        "seats": "10"
      }
    },
    {
      "type": "node",
      "id": 12862846468,
      "lat": 12.9996589,
      "lon": 77.6161495,
      "tags": {
        "amenity": "fast_food",
        "cuisine": "burger",
        "delivery": "yes",
        "name": "Easy Bites by Empire",
        "takeaway": "yes"
      }
    },
    {
      "type": "node",
      "id": 12994043233,
      "lat": 13.0008849,
      "lon": 77.6240354,
      "tags": {
        "amenity": "waste_basket"
      }
    },
    {
      "type": "node",
      "id": 12994043234,
      "lat": 13.0008131,
      "lon": 77.6240569,
      "tags": {
        "amenity": "bench",
        "backrest": "no",
        "material": "stone"
      }
    },
    {
      "type": "node",
      "id": 12994043242,
      "lat": 13.0009433,
      "lon": 77.6241184,
      "tags": {
        "amenity": "bench",
        "backrest": "yes",
        "material": "stone"
      }
    },
    {
      "type": "node",
      "id": 12994043243,
      "lat": 13.0009312,
      "lon": 77.6241193,
      "tags": {
        "amenity": "bench",
        "backrest": "yes",
        "material": "stone"
      }
    },
    {
      "type": "node",
      "id": 12994043244,
      "lat": 13.000923,
      "lon": 77.6241112,
      "tags": {
        "amenity": "bench",
        "backrest": "yes",
        "material": "stone"
      }
    },
    {
      "type": "node",
      "id": 12994043245,
      "lat": 13.0006702,
      "lon": 77.6241339,
      "tags": {
        "amenity": "waste_basket"
      }
    },
    {
      "type": "node",
      "id": 12994043248,
      "lat": 13.001134,
      "lon": 77.6240864,
      "tags": {
        "amenity": "bench",
        "backrest": "no"
      }
    },
    {
      "type": "node",
      "id": 12994043249,
      "lat": 13.0010747,
      "lon": 77.6242654,
      "tags": {
        "amenity": "waste_basket",
        "check_date": "2024-04-15"
      }
    },
    {
      "type": "node",
      "id": 12994043250,
      "lat": 13.0011065,
      "lon": 77.624216,
      "tags": {
        "amenity": "waste_basket",
        "check_date": "2024-04-15"
      }
    },
    {
      "type": "node",
      "id": 13088666601,
      "lat": 13.0072959,
      "lon": 77.6241589,
      "tags": {
        "addr:street": "Hutchins Main Road",
        "amenity": "school",
        "name": "The Earth School"
      }
    },
    {
      "type": "node",
      "id": 13143950901,
      "lat": 12.9977025,
      "lon": 77.6217069,
      "tags": {
        "addr:housenumber": "114",
        "addr:postcode": "560005",
        "addr:street": "Wheeler Road",
        "name": "Bharat Gas Agency - Manav Enterprises",
        "opening_hours": "Mo-Sa 10:00-17:30",
        "phone": "098804 91280",
        "shop": "gas"
      }
    },
    {
      "type": "way",
      "id": 33725070,
      "center": {
        "lat": 13.0040986,
        "lon": 77.6169728
      },
      "tags": {
        "barrier": "fence",
        "leisure": "park",
        "name": "Richards Park",
        "name:kn": "ರಿಚರ್ಡ್ಸ್ ಉದ್ಯಾನವನ"
      }
    },
    {
      "type": "way",
      "id": 39158782,
      "center": {
        "lat": 13.0006821,
        "lon": 77.6187807
      },
      "tags": {
        "barrier": "wall",
        "leisure": "pitch",
        "name": "Bangalore East Playground",
        "sport": "soccer",
        "surface": "ground"
      }
    },
    {
      "type": "way",
      "id": 39158802,
      "center": {
        "lat": 13.006205,
        "lon": 77.619955
      },
      "tags": {
        "barrier": "wall",
        "landuse": "recreation_ground",
        "leisure": "pitch",
        "name": "St. Charles",
        "sport": "soccer;basketball;cricket"
      }
    },
    {
      "type": "way",
      "id": 72385373,
      "center": {
        "lat": 13.0009284,
        "lon": 77.624071
      },
      "tags": {
        "barrier": "fence",
        "leisure": "park",
        "name": "Milton Street Park"
      }
    },
    {
      "type": "way",
      "id": 169724902,
      "center": {
        "lat": 13.0061963,
        "lon": 77.6178491
      },
      "tags": {
        "amenity": "place_of_worship",
        "building": "church",
        "heritage": "2",
        "heritage:operator": "nmma",
        "heritage:website": "https://nmma.nic.in/nmma/exploreBuiltState.do?state=29",
        "name": "Holy Ghost Church",
        "name:kn": "ಹೋಲಿ ಘೋಸ್ಟ್ ಚರ್ಚ್",
        "ref:nmma": "KR20010671",
        "religion": "christian",
        "website": "https://www.cssr.in/index.php?q=content/holy-ghost-church-bangalore"
      }
    },
    {
      "type": "way",
      "id": 172952766,
      "center": {
        "lat": 13.0028911,
        "lon": 77.6158013
      },
      "tags": {
        "addr:city": "Bangalore",
        "addr:postcode": "560005",
        "addr:street": "Pottery Road",
        "amenity": "school",
        "name": "Clarence High School",
        "old_name": "Fraser Town European Day School",
        "phone": "+91 80 25470868",
        "start_date": "1914",
        "website": "http://www.clarencehighschool.net/",
        "wikipedia": "en:Clarence High School (Bangalore, India)"
      }
    },
    {
      "type": "way",
      "id": 217558961,
      "center": {
        "lat": 12.9954933,
        "lon": 77.6180858
      },
      "tags": {
        "leisure": "sports_centre",
        "name": "Indian Gymkhana"
      }
    },
    {
      "type": "way",
      "id": 217558963,
      "center": {
        "lat": 12.9938563,
        "lon": 77.6194601
      },
      "tags": {
        "amenity": "school",
        "name": "St. Aloysius High School"
      }
    },
    {
      "type": "way",
      "id": 217558972,
      "center": {
        "lat": 12.9946242,
        "lon": 77.6188542
      },
      "tags": {
        "leisure": "playground",
        "name": "Clarence High School Playground"
      }
    },
    {
      "type": "way",
      "id": 217558973,
      "center": {
        "lat": 13.002421,
        "lon": 77.6268484
      },
      "tags": {
        "amenity": "school",
        "landuse": "education",
        "name": "Maria Niketana School",
        "name:kn": "ಮರೀಯ ನಿಕೇತನ ಶಾಲೆ"
      }
    },
    {
      "type": "way",
      "id": 311623046,
      "center": {
        "lat": 13.0033402,
        "lon": 77.6171322
      },
      "tags": {
        "amenity": "social_facility",
        "building": "yes",
        "building:levels": "2",
        "name": "Stephen's Home for the Aged",
        "operator": "St. John's Church",
        "operator:type": "religious",
        "roof:colour": "#c66e4e",
        "social_facility": "nursing_home",
        "social_facility:for": "senior"
      }
    },
    {
      "type": "way",
      "id": 313327208,
      "center": {
        "lat": 13.0004541,
        "lon": 77.6239357
      },
      "tags": {
        "barrier": "fence",
        "leisure": "playground",
        "name": "High Street Park",
        "toilets:wheelchair": "no",
        "wheelchair": "no"
      }
    },
    {
      "type": "way",
      "id": 313396132,
      "center": {
        "lat": 13.0005492,
        "lon": 77.6236229
      },
      "tags": {
        "addr:city": "Bangalore",
        "addr:housenumber": "12",
        "addr:postcode": "560005",
        "addr:street": "High Street",
        "amenity": "place_of_worship",
        "building": "yes",
        "building:colour": "lightyellow",
        "building:levels": "3",
        "building:material": "stone",
        "denomination": "seventh_day_adventist",
        "name": "Seventh Day Adventist Church",
        "name:kn": "ಸೆವೆಂತ್ ಡೇ ಅಡ್ವೆಂಟಿಸ್ಟ್ ಪ್ರೌಢ ಚರ್ಚ್",
        "religion": "christian",
        "roof:colour": "dodgerblue"
      }
    },
    {
      "type": "way",
      "id": 313396175,
      "center": {
        "lat": 13.0005137,
        "lon": 77.6258781
      },
      "tags": {
        "amenity": "conference_centre",
        "building": "yes",
        "building:levels": "4",
        "name": "Don Bosco Provential House",
        "roof:colour": "gray"
      }
    },
    {
      "type": "way",
      "id": 313396177,
      "center": {
        "lat": 13.0005591,
        "lon": 77.6234676
      },
      "tags": {
        "amenity": "bank",
        "brand": "Canara Bank",
        "brand:en": "Canara Bank",
        "brand:hi": "केनरा बैंक",
        "brand:kn": "ಕೆನರಾ ಬ್ಯಾಂಕ್",
        "brand:pa": "ਕੇਨਰਾ ਬੈਂਕ",
        "brand:pnb": "کینرا بینک",
        "brand:ur": "کینرا بینک",
        "brand:wikidata": "Q2003777",
        "brand:wikipedia": "en:Canara Bank",
        "brand:wikipedia:pa": "ਕੇਨਰਾ ਬੈਂਕ",
        "building": "yes",
        "building:colour": "lightgray",
        "building:levels": "2",
        "building:material": "plaster",
        "name": "Canara Bank",
        "name:en": "Canara Bank",
        "name:hi": "केनरा बैंक",
        "name:kn": "ಕೆನರಾ ಬ್ಯಾಂಕ್",
        "name:pa": "ਕੇਨਰਾ ਬੈਂਕ",
        "name:pnb": "کینرا بینک",
        "name:ur": "کینرا بینک",
        "roof:colour": "gray"
      }
    },
    {
      "type": "way",
      "id": 313816690,
      "center": {
        "lat": 12.9994947,
        "lon": 77.6246862
      },
      "tags": {
        "amenity": "restaurant",
        "building": "yes",
        "name": "Rose Garden Bar & Restaurant",
        "roof:colour": "white"
      }
    },
    {
      "type": "way",
      "id": 328384111,
      "center": {
        "lat": 13.0009847,
        "lon": 77.6154873
      },
      "tags": {
        "amenity": "place_of_worship",
        "denomination": "sunni",
        "name": "Haji Sir Ismail Sait Masjid",
        "name:etymology:wikidata": "Q6084847",
        "religion": "muslim"
      }
    },
    {
      "type": "way",
      "id": 328384112,
      "center": {
        "lat": 13.0009577,
        "lon": 77.6156117
      },
      "tags": {
        "amenity": "place_of_worship",
        "building": "mosque",
        "denomination": "sunni",
        "religion": "muslim"
      }
    },
    {
      "type": "way",
      "id": 335581639,
      "center": {
        "lat": 13.0022819,
        "lon": 77.6211919
      },
      "tags": {
        "addr:city": "Bangalore",
        "addr:housenumber": "1/3",
        "addr:postcode": "560005",
        "addr:street": "Lazar Road",
        "amenity": "place_of_worship",
        "building": "yes",
        "building:levels": "2",
        "name": "Bethany Brethren Assembly",
        "religion": "christian",
        "roof:colour": "#c66e4e"
      }
    },
    {
      "type": "way",
      "id": 343882789,
      "center": {
        "lat": 13.0055013,
        "lon": 77.6219892
      },
      "tags": {
        "amenity": "monastery",
        "name": "Villa Borromeo"
      }
    },
    {
      "type": "way",
      "id": 343882801,
      "center": {
        "lat": 13.0059493,
        "lon": 77.6231289
      },
      "tags": {
        "amenity": "post_office",
        "building": "yes",
        "name": "St Thomastown Post Office",
        "name:kn": "ಸಂತ ಥಾಮಸ್ ಟೌನ್ ಅಂಚೆ ಕಚೇರಿ",
        "postal_code": "560084",
        "roof:colour": "#c66e4e",
        "toilets:wheelchair": "no",
        "wheelchair": "limited"
      }
    },
    {
      "type": "way",
      "id": 343885062,
      "center": {
        "lat": 12.9989232,
        "lon": 77.6252365
      },
      "tags": {
        "access": "private",
        "amenity": "food_court",
        "building": "yes"
      }
    },
    {
      "type": "way",
      "id": 344643275,
      "center": {
        "lat": 12.9987966,
        "lon": 77.6199599
      },
      "tags": {
        "leisure": "pitch",
        "sport": "tennis"
      }
    },
    {
      "type": "way",
      "id": 345954862,
      "center": {
        "lat": 12.9999803,
        "lon": 77.6144986
      },
      "tags": {
        "addr:district": "Bengaluru Urban",
        "addr:full": "No 1 Moore Market Square, Bourdillon Road, Fraser Town",
        "addr:postcode": "560005",
        "addr:state": "Karnataka",
        "amenity": "hospital",
        "building": "yes",
        "name": "Annasawmy Mudaliar General Hospital",
        "name:kn": "ಅಣ್ಣಸ್ವಾಮಿ ಮೊದಲಿಯಾರ್",
        "source": "OpenGovernmentData"
      }
    },
    {
      "type": "way",
      "id": 346011124,
      "center": {
        "lat": 12.9995594,
        "lon": 77.6201666
      },
      "tags": {
        "amenity": "marketplace"
      }
    },
    {
      "type": "way",
      "id": 346011125,
      "center": {
        "lat": 13.001086,
        "lon": 77.6181861
      },
      "tags": {
        "amenity": "parking",
        "parking": "surface"
      }
    },
    {
      "type": "way",
      "id": 346011130,
      "center": {
        "lat": 12.9995712,
        "lon": 77.6189351
      },
      "tags": {
        "amenity": "place_of_worship",
        "building": "temple",
        "religion": "hindu"
      }
    },
    {
      "type": "way",
      "id": 346015495,
      "center": {
        "lat": 13.0041,
        "lon": 77.6169496
      },
      "tags": {
        "building": "yes",
        "leisure": "bandstand",
        "source": "survey"
      }
    },
    {
      "type": "way",
      "id": 346019709,
      "center": {
        "lat": 13.0046459,
        "lon": 77.6195021
      },
      "tags": {
        "amenity": "social_facility",
        "building": "yes",
        "name": "Missionaries of Charity - Nirmala Shishubhavan",
        "opening_hours": "08:00-12:00,15:00-18:00; Th off",
        "roof:colour": "gray"
      }
    },
    {
      "type": "way",
      "id": 346019730,
      "center": {
        "lat": 13.0060537,
        "lon": 77.6160903
      },
      "tags": {
        "addr:housenumber": "8",
        "addr:street": "John Armstrong Road",
        "amenity": "place_of_worship",
        "building": "chapel",
        "building:levels": "2",
        "denomination": "catholic",
        "name": "Chapel of St.Gerard Majella",
        "religion": "christian",
        "roof:colour": "#c66e4e",
        "service_times": "Mo-Fr 18:00"
      }
    },
    {
      "type": "way",
      "id": 346025006,
      "center": {
        "lat": 13.0012071,
        "lon": 77.6240619
      },
      "tags": {
        "building": "yes",
        "name": "ಹಾಪ್‌ಕಾಮ್ಸ್",
        "roof:colour": "gray",
        "shop": "greengrocer"
      }
    },
    {
      "type": "way",
      "id": 346025222,
      "center": {
        "lat": 12.999408,
        "lon": 77.6203085
      },
      "tags": {
        "barrier": "fence",
        "leisure": "park",
        "name": "Sarvagna Park"
      }
    },
    {
      "type": "way",
      "id": 346282268,
      "center": {
        "lat": 13.0001156,
        "lon": 77.6208046
      },
      "tags": {
        "addr:city": "Bangalore",
        "addr:housenumber": "2",
        "addr:postcode": "560005",
        "addr:street": "Hutchins Main Road",
        "amenity": "place_of_worship",
        "building": "church",
        "building:colour": "aliceblue",
        "building:levels": "3",
        "building:material": "plaster",
        "denomination": "jehovahs_witness",
        "name": "Kingdom Hall of Jehovah's Witnesses",
        "religion": "christian",
        "roof:colour": "white"
      }
    },
    {
      "type": "way",
      "id": 346502802,
      "center": {
        "lat": 12.9970823,
        "lon": 77.6294393
      },
      "tags": {
        "addr:city": "Bengaluru",
        "addr:postcode": "560005",
        "addr:street": "Park Rd, Jeevanahalli, Jeevanhalli, Cox Town",
        "amenity": "recycling",
        "building": "yes",
        "name": "Dry Waste Collection Centre",
        "recycling:glass": "yes",
        "recycling:paper": "yes",
        "recycling:plastic": "yes",
        "recycling:plastic_bottles": "yes",
        "recycling:scrap_metal": "yes",
        "recycling_type": "centre"
      }
    },
    {
      "type": "way",
      "id": 347150615,
      "center": {
        "lat": 13.0067183,
        "lon": 77.6253425
      },
      "tags": {
        "amenity": "place_of_worship",
        "building": "mosque",
        "building:levels": "5",
        "religion": "muslim",
        "roof:colour": "dodgerblue"
      }
    },
    {
      "type": "way",
      "id": 347152627,
      "center": {
        "lat": 13.0052123,
        "lon": 77.6249694
      },
      "tags": {
        "addr:city": "Bangalore",
        "addr:housenumber": "3",
        "addr:postcode": "560084",
        "addr:street": "Hutchins 3rd Cross",
        "amenity": "kindergarten",
        "building": "yes",
        "building:levels": "1",
        "name": "Trotters Montessori School",
        "phone": "+919900518900",
        "roof:colour": "gray"
      }
    },
    {
      "type": "way",
      "id": 347174432,
      "center": {
        "lat": 13.0045011,
        "lon": 77.6229671
      },
      "tags": {
        "amenity": "place_of_worship",
        "building": "church",
        "building:levels": "1",
        "name": "Revival Centre Church",
        "religion": "christian",
        "roof:colour": "#c66e4e",
        "service_times": "Su 10:00, 18:00"
      }
    },
    {
      "type": "way",
      "id": 347174977,
      "center": {
        "lat": 13.0040407,
        "lon": 77.620684
      },
      "tags": {
        "addr:city": "Bangalore",
        "addr:housenumber": "25",
        "addr:postcode": "560005",
        "addr:street": "Davis Road",
        "amenity": "monastery",
        "building": "residential",
        "building:colour": "yellow",
        "building:levels": "1",
        "building:material": "plaster",
        "check_date": "2024-11-29",
        "denomination": "catholic",
        "name": "Vinayodaya",
        "name:kn": "ವಿನಯೋದಯ",
        "religion": "christian",
        "roof:colour": "gray",
        "roof:shape": "double_saltbox"
      }
    },
    {
      "type": "way",
      "id": 347175053,
      "center": {
        "lat": 13.003875,
        "lon": 77.6209439
      },
      "tags": {
        "addr:housenumber": "26",
        "addr:street": "Davis Road",
        "amenity": "monastery",
        "building": "residential",
        "building:colour": "slategrey",
        "building:levels": "3",
        "building:material": "stone",
        "check_date": "2024-10-17",
        "denomination": "catholic",
        "name": "Ursuline Convent",
        "name:kn": "ಉರ್‌ಸುಲೈ‌ನ್ ಕಾನ್ವೆಂಟ್",
        "religion": "christian",
        "roof:colour": "#c66e4e",
        "roof:shape": "flat"
      }
    },
    {
      "type": "way",
      "id": 347208719,
      "center": {
        "lat": 13.0052491,
        "lon": 77.6240152
      },
      "tags": {
        "addr:city": "Bangalore",
        "addr:country": "IN",
        "addr:housenumber": "35/1",
        "addr:postcode": "560084",
        "addr:street": "Hutchins 3rd Cross",
        "addr:suburb": "St Thomas Town",
        "amenity": "arts_centre",
        "building": "yes",
        "building:levels": "1",
        "email": "kanikestudios@gmail.com",
        "name": "Kānike",
        "roof:colour": "gray",
        "website": "https://www.kanike.in/"
      }
    },
    {
      "type": "way",
      "id": 347208740,
      "center": {
        "lat": 13.0039153,
        "lon": 77.6229087
      },
      "tags": {
        "building": "yes",
        "name": "Simla Stores",
        "roof:colour": "blue",
        "shop": "convenience"
      }
    },
    {
      "type": "way",
      "id": 347450104,
      "center": {
        "lat": 13.0023134,
        "lon": 77.6215608
      },
      "tags": {
        "addr:city": "Bangalore",
        "addr:housenumber": "16",
        "addr:postcode": "560005",
        "addr:street": "Hutchins Main Road",
        "amenity": "clinic",
        "building": "yes",
        "building:colour": "white",
        "building:levels": "3",
        "building:material": "plaster",
        "healthcare": "clinic",
        "roof:colour": "white"
      }
    },
    {
      "type": "way",
      "id": 347450143,
      "center": {
        "lat": 13.0033927,
        "lon": 77.6222552
      },
      "tags": {
        "addr:city": "Bangalore",
        "addr:housenumber": "36",
        "addr:postcode": "560005",
        "addr:street": "Davis Road",
        "amenity": "monastery",
        "building": "residential",
        "building:colour": "lightyellow",
        "building:material": "plaster",
        "check_date": "2024-10-17",
        "denomination": "catholic",
        "name": "Thejas Provential House",
        "name:kn": "ತೇಜಸ್ ಪ್ರಾವಿನ್ಷಯಲ್ ಹೌಸ್",
        "religion": "christian",
        "roof:colour": "white"
      }
    },
    {
      "type": "way",
      "id": 348251090,
      "center": {
        "lat": 13.0046855,
        "lon": 77.6265537
      },
      "tags": {
        "amenity": "place_of_worship",
        "building": "yes",
        "name": "Sri Siddhi Vinayaka Devasthana",
        "name:kn": "ಶ್ರೀ ಸಿದ್ಧಿವಿನಾಯಕ ದೇವಸ್ಥಾನ",
        "religion": "hindu",
        "roof:colour": "#c66e4e"
      }
    },
    {
      "type": "way",
      "id": 348567425,
      "center": {
        "lat": 12.9996394,
        "lon": 77.6210894
      },
      "tags": {
        "addr:city": "Bangalore",
        "addr:housenumber": "22",
        "addr:postcode": "560005",
        "addr:street": "Pottery Road",
        "amenity": "place_of_worship",
        "building": "church",
        "building:colour": "aliceblue",
        "building:levels": "1",
        "building:material": "plaster",
        "denomination": "brethren",
        "religion": "christian",
        "roof:colour": "gray",
        "service_times": "Su 10:00, 18:00"
      }
    },
    {
      "type": "way",
      "id": 350504312,
      "center": {
        "lat": 13.0018764,
        "lon": 77.62039
      },
      "tags": {
        "amenity": "place_of_worship",
        "building": "yes",
        "name": "Christadelphians",
        "religion": "christian",
        "roof:colour": "gray",
        "service_times": "Su 09:30-11:30"
      }
    },
    {
      "type": "way",
      "id": 350750588,
      "center": {
        "lat": 13.0012787,
        "lon": 77.6232544
      },
      "tags": {
        "addr:city": "Bangalore",
        "addr:housenumber": "4",
        "addr:postcode": "560005",
        "addr:street": "High Street Cross",
        "amenity": "place_of_worship",
        "building": "yes",
        "building:colour": "lightyellow",
        "building:material": "plaster",
        "check_date": "2023-08-25",
        "name": "Emmanuel Church",
        "religion": "christian",
        "roof:colour": "white",
        "service_times": "Su 10:00; Su 18:00"
      }
    },
    {
      "type": "way",
      "id": 350872983,
      "center": {
        "lat": 12.9981103,
        "lon": 77.6202423
      },
      "tags": {
        "amenity": "place_of_worship",
        "building": "church",
        "building:levels": "2",
        "name": "St Peters Tamil Church",
        "religion": "christian"
      }
    },
    {
      "type": "way",
      "id": 351582432,
      "center": {
        "lat": 12.9969574,
        "lon": 77.6191261
      },
      "tags": {
        "amenity": "recycling",
        "building": "yes",
        "name": "Kamala Refinery",
        "recycling:scrap_metal": "yes",
        "recycling_type": "centre"
      }
    },
    {
      "type": "way",
      "id": 351810509,
      "center": {
        "lat": 13.0006058,
        "lon": 77.6224957
      },
      "tags": {
        "addr:city": "Bangalore",
        "addr:housenumber": "1",
        "addr:postcode": "560005",
        "addr:street": "Lewis Road",
        "building": "yes",
        "building:colour": "lightyellow",
        "building:levels": "2",
        "building:material": "plaster",
        "check_date": "2023-12-31",
        "name": "Lightroom Bookstore",
        "roof:colour": "gray",
        "shop": "books"
      }
    },
    {
      "type": "way",
      "id": 351810653,
      "center": {
        "lat": 13.0010159,
        "lon": 77.6236265
      },
      "tags": {
        "amenity": "music_school",
        "building": "yes",
        "building:colour": "lightyellow",
        "building:levels": "3",
        "building:material": "plaster",
        "building:use": "commercial",
        "name": "Music Central",
        "opening_hours": "Mo-Sa 10:00-20:00",
        "roof:colour": "gray",
        "website": "https://www.musiccentral.in/"
      }
    },
    {
      "type": "way",
      "id": 351810824,
      "center": {
        "lat": 13.0012853,
        "lon": 77.6238333
      },
      "tags": {
        "building": "yes",
        "building:levels": "2",
        "female": "yes",
        "name": "Genesis Spa Salon Boutique",
        "opening_hours": "Mo-Su 10:00-20:00; Tu off",
        "roof:colour": "gray",
        "shop": "hairdresser"
      }
    },
    {
      "type": "way",
      "id": 352198878,
      "center": {
        "lat": 12.9994109,
        "lon": 77.6244306
      },
      "tags": {
        "addr:city": "Bangalore",
        "addr:housenumber": "5",
        "addr:postcode": "560005",
        "addr:street": "Banaswadi Road",
        "amenity": "monastery",
        "building": "yes",
        "building:colour": "lightblue",
        "building:material": "plaster",
        "denomination": "catholic",
        "name": "St. Vincent House",
        "religion": "christian",
        "roof:colour": "white"
      }
    },
    {
      "type": "way",
      "id": 363457167,
      "center": {
        "lat": 13.0068955,
        "lon": 77.6165907
      },
      "tags": {
        "leisure": "pitch"
      }
    },
    {
      "type": "way",
      "id": 363458473,
      "center": {
        "lat": 13.0049679,
        "lon": 77.6197408
      },
      "tags": {
        "amenity": "fuel",
        "brand": "Indian Oil",
        "brand:wikidata": "Q1289348",
        "compressed_air": "yes",
        "name": "Indian Oil"
      }
    },
    {
      "type": "way",
      "id": 365234334,
      "center": {
        "lat": 13.0042468,
        "lon": 77.6159177
      },
      "tags": {
        "addr:housenumber": "7",
        "addr:street": "Hall Road",
        "amenity": "community_centre",
        "building": "yes",
        "building:levels": "1",
        "name": "Bungalow 7",
        "name:kn": "ಬಂಗ್ಲಾ ೭",
        "roof:colour": "white"
      }
    },
    {
      "type": "way",
      "id": 376802897,
      "center": {
        "lat": 13.0047394,
        "lon": 77.6269836
      },
      "tags": {
        "leisure": "park",
        "mobile": "+91 98808 01223",
        "name": "BBPM Park Ward 27",
        "operator": "BBMP"
      }
    },
    {
      "type": "way",
      "id": 385070464,
      "center": {
        "lat": 13.0012762,
        "lon": 77.6326046
      },
      "tags": {
        "name": "Orion East Mall",
        "operator": "Orion Malls",
        "shop": "mall"
      }
    },
    {
      "type": "way",
      "id": 385200731,
      "center": {
        "lat": 13.0006187,
        "lon": 77.6214792
      },
      "tags": {
        "leisure": "park",
        "name": "Cooke Town Park",
        "name:en": "Cooke Town Park",
        "name:kn": "ಕುಕ್ ಟೌನ್ ಉದ್ಯಾನವನ"
      }
    },
    {
      "type": "way",
      "id": 411052127,
      "center": {
        "lat": 12.9989467,
        "lon": 77.6143957
      },
      "tags": {
        "amenity": "school",
        "name": "Annaswamy Mudaliar High School",
        "name:kn": "ಅಣ್ಣಾಸ್ವಾಮಿ ಮುದಲಿಯಾರ್ ಪ್ರೌಢಶಾಲೆ"
      }
    },
    {
      "type": "way",
      "id": 462300034,
      "center": {
        "lat": 13.0002009,
        "lon": 77.6194417
      },
      "tags": {
        "leisure": "park",
        "name": "East park"
      }
    },
    {
      "type": "way",
      "id": 754824542,
      "center": {
        "lat": 13.0028296,
        "lon": 77.6319981
      },
      "tags": {
        "description": "A peaceful courtyard and green park within which a temple is loacted.",
        "leisure": "park",
        "name": "Sri Raja Ganapathi Temple park",
        "operator": "Raja Ganapathi Priests",
        "source": "survey;local knowledge;aerial imagery;gps"
      }
    },
    {
      "type": "way",
      "id": 775448741,
      "center": {
        "lat": 13.00614,
        "lon": 77.6216655
      },
      "tags": {
        "amenity": "school",
        "barrier": "wall",
        "landuse": "education",
        "name": "St. Charles Girls High School",
        "name:en": "St. Charles Girls High School"
      }
    },
    {
      "type": "way",
      "id": 837561053,
      "center": {
        "lat": 13.0040301,
        "lon": 77.6167034
      },
      "tags": {
        "access": "yes",
        "leisure": "playground",
        "source": "survey"
      }
    },
    {
      "type": "way",
      "id": 851768208,
      "center": {
        "lat": 13.0031434,
        "lon": 77.6208941
      },
      "tags": {
        "amenity": "monastery",
        "building": "residential",
        "building:colour": "pink",
        "building:levels": "3",
        "building:material": "plaster",
        "check_date": "2024-10-17",
        "denomination": "catholic",
        "name": "Nirmala House",
        "name:kn": "ನಿರ್ಮಲ ಹೌಸ್",
        "religion": "christian",
        "roof:colour": "gray"
      }
    },
    {
      "type": "way",
      "id": 851768211,
      "center": {
        "lat": 13.0030456,
        "lon": 77.6211715
      },
      "tags": {
        "addr:housenumber": "16",
        "addr:street": "Davis Road",
        "amenity": "monastery",
        "building": "residential",
        "building:colour": "lightyellow",
        "building:levels": "3",
        "building:material": "plaster",
        "denomination": "catholic",
        "name": "St Josephs Convent",
        "name:kn": "ಸೇಂಟ್ ಜೋಸೆಫ್ ಕಾನ್ವೆಂಟ್",
        "religion": "christian",
        "roof:colour": "gray"
      }
    },
    {
      "type": "way",
      "id": 853107526,
      "center": {
        "lat": 13.0026129,
        "lon": 77.6166965
      },
      "tags": {
        "addr:city": "Bangalore",
        "addr:housenumber": "10",
        "addr:postcode": "560005",
        "addr:street": "Pottery Road",
        "amenity": "place_of_worship",
        "building": "church",
        "name": "Mizpah Telugu Church",
        "religion": "christian",
        "roof:colour": "#c66e4e",
        "service_times": "Su 09:30 - 12:00"
      }
    },
    {
      "type": "way",
      "id": 865277256,
      "center": {
        "lat": 13.0012361,
        "lon": 77.6251298
      },
      "tags": {
        "amenity": "school",
        "landuse": "education"
      }
    },
    {
      "type": "way",
      "id": 925592816,
      "center": {
        "lat": 13.0009436,
        "lon": 77.6214621
      },
      "tags": {
        "addr:city": "Bangalore",
        "addr:housenumber": "12",
        "addr:postcode": "560005",
        "addr:street": "Hutchins Main Road",
        "amenity": "dentist",
        "building": "semidetached_house",
        "building:colour": "red",
        "building:material": "plaster",
        "healthcare": "dentist",
        "name": "Dental Health Clinic",
        "roof:colour": "white"
      }
    },
    {
      "type": "way",
      "id": 926165652,
      "center": {
        "lat": 13.0024873,
        "lon": 77.6216594
      },
      "tags": {
        "amenity": "social_facility",
        "building": "residential",
        "building:colour": "gray",
        "building:levels": "5",
        "building:material": "stone",
        "roof:colour": "white",
        "social_facility": "assisted_living"
      }
    },
    {
      "type": "way",
      "id": 961091789,
      "center": {
        "lat": 12.9990478,
        "lon": 77.6242516
      },
      "tags": {
        "amenity": "cafe",
        "building": "yes",
        "building:levels": "2",
        "name": "Sanctuary",
        "roof:colour": "white"
      }
    },
    {
      "type": "way",
      "id": 961091791,
      "center": {
        "lat": 12.9999491,
        "lon": 77.6252175
      },
      "tags": {
        "addr:city": "Bangalore",
        "addr:housenumber": "12/2",
        "addr:postcode": "560005",
        "addr:street": "Banaswadi Road",
        "building": "yes",
        "building:colour": "white",
        "building:material": "plaster",
        "name": "12/2",
        "opening_hours": "10:30 - 19:00",
        "roof:colour": "gray",
        "shop": "gift"
      }
    },
    {
      "type": "way",
      "id": 961651327,
      "center": {
        "lat": 13.0005642,
        "lon": 77.622022
      },
      "tags": {
        "amenity": "college",
        "landuse": "education"
      }
    },
    {
      "type": "way",
      "id": 965384354,
      "center": {
        "lat": 13.002281,
        "lon": 77.6205202
      },
      "tags": {
        "amenity": "place_of_worship",
        "building": "yes",
        "name": "Sri Kalikka Mageshwari Temple",
        "religion": "hindu",
        "roof:colour": "gray",
        "service_times": "09:00-13:00; 17:00-20:30"
      }
    },
    {
      "type": "way",
      "id": 974057969,
      "center": {
        "lat": 13.0032683,
        "lon": 77.6195234
      },
      "tags": {
        "amenity": "place_of_worship",
        "building": "yes",
        "religion": "hindu"
      }
    },
    {
      "type": "way",
      "id": 976724249,
      "center": {
        "lat": 13.0024912,
        "lon": 77.6199198
      },
      "tags": {
        "leisure": "garden"
      }
    },
    {
      "type": "way",
      "id": 1107016495,
      "center": {
        "lat": 12.9993467,
        "lon": 77.619613
      },
      "tags": {
        "alt_name": "Frazer Town Police Station",
        "amenity": "police",
        "name": "Pulakeshi Nagar Police Station",
        "name:kn": "ಪುಲಕೇಶಿನಗರ ಆರಕ್ಷಕ ಠಾಣೆ"
      }
    },
    {
      "type": "way",
      "id": 1107016496,
      "center": {
        "lat": 13.000253,
        "lon": 77.6163044
      },
      "tags": {
        "amenity": "school",
        "name": "Haji Sir Ismail Sait Government Urdu and English Higher Primary School",
        "name:etymology:wikidata": "Q6084847"
      }
    },
    {
      "type": "way",
      "id": 1125007550,
      "center": {
        "lat": 12.9921005,
        "lon": 77.6252113
      },
      "tags": {
        "golf:course": "18_hole",
        "landuse": "grass",
        "leisure": "golf_course",
        "name": "MEG Golf Course"
      }
    },
    {
      "type": "way",
      "id": 1175723664,
      "center": {
        "lat": 13.0004899,
        "lon": 77.628378
      },
      "tags": {
        "leisure": "park"
      }
    },
    {
      "type": "way",
      "id": 1184671465,
      "center": {
        "lat": 13.0035424,
        "lon": 77.625954
      },
      "tags": {
        "amenity": "conference_centre",
        "building": "yes",
        "name": "Catholic Bishops of India Convention Centre",
        "roof:colour": "gray"
      }
    },
    {
      "type": "way",
      "id": 1195585405,
      "center": {
        "lat": 13.0035238,
        "lon": 77.6264726
      },
      "tags": {
        "leisure": "sports_centre",
        "name": "Rush Arena",
        "sport": "soccer;pickleball",
        "website": "https://www.myrush.in/rusharena"
      }
    },
    {
      "type": "way",
      "id": 1202577040,
      "center": {
        "lat": 13.0025954,
        "lon": 77.6153961
      },
      "tags": {
        "access": "private",
        "leisure": "pitch",
        "sport": "basketball"
      }
    },
    {
      "type": "way",
      "id": 1203511152,
      "center": {
        "lat": 13.0055055,
        "lon": 77.6235731
      },
      "tags": {
        "building": "retail",
        "building:levels": "1",
        "name": "Om Shanti General Store",
        "roof:colour": "gray",
        "shop": "convenience"
      }
    },
    {
      "type": "way",
      "id": 1208025544,
      "center": {
        "lat": 13.0055456,
        "lon": 77.6263309
      },
      "tags": {
        "access": "private",
        "addr:city": "Bangalore",
        "addr:country": "IN",
        "addr:housenumber": "27",
        "addr:postcode": "560084",
        "addr:street": "Wheeler Road Extension Cross",
        "leisure": "pitch",
        "sport": "badminton"
      }
    },
    {
      "type": "way",
      "id": 1210714637,
      "center": {
        "lat": 13.0076393,
        "lon": 77.6234246
      },
      "tags": {
        "addr:postcode": "560084",
        "addr:street": "Hutchins Road, 6th Cross",
        "amenity": "community_centre",
        "community_centre:for": "disabled",
        "name": "The Association of People with Disability",
        "phone": "+91 80 2547 5165",
        "website": "https://www.apd-india.org/",
        "wheelchair": "yes"
      }
    },
    {
      "type": "way",
      "id": 1210714641,
      "center": {
        "lat": 13.0076148,
        "lon": 77.6221388
      },
      "tags": {
        "amenity": "place_of_worship",
        "building": "temple",
        "religion": "hindu",
        "roof:colour": "gray"
      }
    },
    {
      "type": "way",
      "id": 1217671311,
      "center": {
        "lat": 12.9973095,
        "lon": 77.6212792
      },
      "tags": {
        "amenity": "school",
        "name": "Government First Grade College",
        "name:kn": "ಸರಕಾರಿ ಪ್ರಥಮ ದರ್ಜೆ ಕಾಲೇಜು"
      }
    },
    {
      "type": "way",
      "id": 1233815376,
      "center": {
        "lat": 13.0014099,
        "lon": 77.6206848
      },
      "tags": {
        "landuse": "industrial",
        "name": "Dhobi Ghat",
        "name:kn": "ಧೋಬಿ ಘಾಟ್",
        "shop": "laundry"
      }
    },
    {
      "type": "way",
      "id": 1235785958,
      "center": {
        "lat": 13.0001441,
        "lon": 77.6219175
      },
      "tags": {
        "access": "private",
        "leisure": "swimming_pool",
        "location": "roof"
      }
    },
    {
      "type": "way",
      "id": 1235866763,
      "center": {
        "lat": 12.9989358,
        "lon": 77.6247001
      },
      "tags": {
        "access": "private",
        "amenity": "place_of_worship",
        "building": "yes",
        "religion": "hindu"
      }
    },
    {
      "type": "way",
      "id": 1235866764,
      "center": {
        "lat": 12.9992424,
        "lon": 77.6249225
      },
      "tags": {
        "access": "private",
        "amenity": "parking",
        "parking": "surface"
      }
    },
    {
      "type": "way",
      "id": 1235866765,
      "center": {
        "lat": 12.9983555,
        "lon": 77.6241946
      },
      "tags": {
        "access": "private",
        "leisure": "pitch",
        "lit": "yes",
        "sport": "soccer"
      }
    },
    {
      "type": "way",
      "id": 1235866766,
      "center": {
        "lat": 12.9983628,
        "lon": 77.6254509
      },
      "tags": {
        "access": "private",
        "amenity": "toilets",
        "building": "yes",
        "female": "yes",
        "male": "yes"
      }
    },
    {
      "type": "way",
      "id": 1235866773,
      "center": {
        "lat": 12.9957741,
        "lon": 77.6258859
      },
      "tags": {
        "access": "private",
        "amenity": "parking",
        "parking": "surface"
      }
    },
    {
      "type": "way",
      "id": 1236005325,
      "center": {
        "lat": 13.001647,
        "lon": 77.6249178
      },
      "tags": {
        "access": "private",
        "leisure": "swimming_pool"
      }
    },
    {
      "type": "way",
      "id": 1267604513,
      "center": {
        "lat": 12.9954087,
        "lon": 77.6178134
      },
      "tags": {
        "leisure": "pitch",
        "sport": "basketball"
      }
    },
    {
      "type": "way",
      "id": 1267604514,
      "center": {
        "lat": 12.9955902,
        "lon": 77.6176384
      },
      "tags": {
        "leisure": "pitch",
        "sport": "tennis"
      }
    },
    {
      "type": "way",
      "id": 1292674571,
      "center": {
        "lat": 13.0008937,
        "lon": 77.6275757
      },
      "tags": {
        "amenity": "place_of_worship",
        "landuse": "religious",
        "name": "Bangalore East Marthoma Church",
        "name:kn": "ಬೆಂಗಳೂರು ಪೂರ್ವ ಮಾರಥೋಮ ಚರ್ಚ್",
        "religion": "christian"
      }
    },
    {
      "type": "way",
      "id": 1292674572,
      "center": {
        "lat": 13.0005039,
        "lon": 77.6267799
      },
      "tags": {
        "amenity": "place_of_worship",
        "landuse": "religious",
        "name": "St. Thomas Orthodox Church",
        "name:kn": "ಸಂತ ಥಾಮಸ್ ಆರ್ಥಡಾಕ್ಸ ಚರ್ಚ್",
        "religion": "christian"
      }
    },
    {
      "type": "way",
      "id": 1292674656,
      "center": {
        "lat": 13.0015823,
        "lon": 77.6315101
      },
      "tags": {
        "amenity": "fuel",
        "brand": "Bharat Petroleum",
        "brand:wikidata": "Q854826",
        "compressed_air": "yes",
        "name": "Bharat Petroleum",
        "name:kn": "ಭಾರತ್ ಪೆಟ್ರೋಲಿಯಂ",
        "toilets:wheelchair": "no",
        "wheelchair": "limited"
      }
    },
    {
      "type": "way",
      "id": 1343685279,
      "center": {
        "lat": 13.0035353,
        "lon": 77.6265573
      },
      "tags": {
        "leisure": "pitch",
        "sport": "soccer"
      }
    },
    {
      "type": "way",
      "id": 1343685280,
      "center": {
        "lat": 13.0033836,
        "lon": 77.6262367
      },
      "tags": {
        "leisure": "pitch",
        "sport": "pickleball"
      }
    },
    {
      "type": "way",
      "id": 1343685281,
      "center": {
        "lat": 13.0033598,
        "lon": 77.6263168
      },
      "tags": {
        "leisure": "pitch",
        "sport": "pickleball"
      }
    },
    {
      "type": "way",
      "id": 1343685282,
      "center": {
        "lat": 13.0035182,
        "lon": 77.6263617
      },
      "tags": {
        "leisure": "pitch",
        "sport": "pickleball"
      }
    },
    {
      "type": "way",
      "id": 1343685283,
      "center": {
        "lat": 13.0036793,
        "lon": 77.6264065
      },
      "tags": {
        "leisure": "pitch",
        "sport": "pickleball"
      }
    },
    {
      "type": "way",
      "id": 1343685284,
      "center": {
        "lat": 13.0039156,
        "lon": 77.6266797
      },
      "tags": {
        "access": "customers",
        "amenity": "parking",
        "parking": "surface"
      }
    },
    {
      "type": "way",
      "id": 1343685286,
      "center": {
        "lat": 13.0031652,
        "lon": 77.6263757
      },
      "tags": {
        "leisure": "bleachers"
      }
    },
    {
      "type": "way",
      "id": 1343685287,
      "center": {
        "lat": 13.0032627,
        "lon": 77.6261158
      },
      "tags": {
        "access": "customers",
        "amenity": "toilets",
        "building": "yes"
      }
    },
    {
      "type": "way",
      "id": 1350607175,
      "center": {
        "lat": 12.9957881,
        "lon": 77.6186034
      },
      "tags": {
        "access": "customers",
        "amenity": "parking",
        "parking": "surface"
      }
    },
    {
      "type": "way",
      "id": 1350607177,
      "center": {
        "lat": 12.9949693,
        "lon": 77.6194125
      },
      "tags": {
        "amenity": "place_of_worship",
        "landuse": "religious",
        "religion": "hindu"
      }
    },
    {
      "type": "way",
      "id": 1350607179,
      "center": {
        "lat": 12.9984364,
        "lon": 77.6203075
      },
      "tags": {
        "amenity": "marketplace",
        "landuse": "retail",
        "name": "Cox Town Market"
      }
    },
    {
      "type": "way",
      "id": 1350607181,
      "center": {
        "lat": 12.9989578,
        "lon": 77.6199465
      },
      "tags": {
        "amenity": "community_centre",
        "name": "Women's Indian Association"
      }
    },
    {
      "type": "way",
      "id": 1354185330,
      "center": {
        "lat": 13.0060353,
        "lon": 77.6170324
      },
      "tags": {
        "amenity": "parking"
      }
    },
    {
      "type": "way",
      "id": 1375061408,
      "center": {
        "lat": 12.997406,
        "lon": 77.6176512
      },
      "tags": {
        "addr:city": "Bangalore",
        "addr:postcode": "56005",
        "addr:street": "Buddha Vihar Road",
        "amenity": "place_of_worship",
        "denomination": "tibetan",
        "name": "Buddha Vihar",
        "name:hi": "बुद्धा विहार",
        "name:kn": "ಬುದ್ಧ ವಿಹಾರ್",
        "religion": "buddhist",
        "service_times": "Su 11:00-13:00",
        "start_date": "1907"
      }
    },
    {
      "type": "way",
      "id": 1375063573,
      "center": {
        "lat": 13.0055554,
        "lon": 77.6236231
      },
      "tags": {
        "access": "yes",
        "amenity": "motorcycle_parking",
        "capacity": "8",
        "fee": "no",
        "orientation": "perpendicular",
        "parking": "street_side",
        "smoothness": "intermediate",
        "supervised": "no",
        "surface": "paved"
      }
    },
    {
      "type": "way",
      "id": 1414057816,
      "center": {
        "lat": 13.0011729,
        "lon": 77.6241482
      },
      "tags": {
        "amenity": "shelter",
        "building": "yes",
        "shelter_type": "gazebo"
      }
    },
    {
      "type": "way",
      "id": 1432471479,
      "center": {
        "lat": 13.0055679,
        "lon": 77.6280728
      },
      "tags": {
        "access": "permissive",
        "amenity": "parking",
        "parking": "surface"
      }
    }
  ]
}