{
  "area_name": "Banashankari Temple Ward",
  "osm_id": 19884563,
  "osm_type": "relation",
  "place_type": "administrative",
  "amenity_count": 22,
  "amenities": [
    {
      "type": "node",
      "id": 6947556032,
      "lat": 12.9074269,
      "lon": 77.5716318,
      "tags": {
        "addr:district": "Bengaluru Urban",
        "addr:full": "11/2 8Th Cross, Gangadhar Nagar 100 Ring Road, J.P Nagar Post",
        "addr:postcode": "560078",
        "addr:state": "Karnataka",
        "amenity": "hospital",
        "name": "R.R. Hospital and Trauma Centre",
        "source": "OpenGovernmentData"
      }
    },
    {
      "type": "node",
      "id": 8776646948,
      "lat": 12.9128623,
      "lon": 77.5714903,
      "tags": {
        "addr:city": "Bangalore",
        "addr:housenumber": "64/2, Sarakki Main Rd, Sarakki Nagar,",
        "addr:postcode": "560078",
        "addr:street": "4th Cross Road",
        "amenity": "hospital",
        "healthcare": "hospital",
        "healthcare:speciality": "physiotherapy;physiotherapist",
        "name": "Healing Hands Advanced Physiotherapy Clinic",
        "operator": "www.hhphysio.com",
        "operator:type": "private"
      }
    },
    {
      "type": "node",
      "id": 11292276523,
      "lat": 12.9069289,
      "lon": 77.5731279,
      "tags": {
        "access": "yes",
        "amenity": "drinking_water",
        "bottle": "yes",
        "indoor": "yes",
        "level": "1"
      }
    },
    {
      "type": "node",
      "id": 11292276524,
      "lat": 12.9073783,
      "lon": 77.5729982,
      "tags": {
        "access": "customers",
        "amenity": "drinking_water",
        "bottle": "yes",
        "indoor": "yes",
        "level": "1"
      }
    },
    {
      "type": "node",
      "id": 11292276525,
      "lat": 12.9068376,
      "lon": 77.5731978,
      "tags": {
        "access": "yes",
        "amenity": "toilets",
        "female": "yes",
        "level": "1",
        "male": "yes",
        "operator": "BMRCL",
        "toilets:handwashing": "yes",
        "toilets:position": "urinal"
      }
    },
    {
      "type": "node",
      "id": 11364084198,
      "lat": 12.9153707,
      "lon": 77.5735293,
      "tags": {
        "access": "yes",
        "addr:floor": "1",
        "amenity": "drinking_water",
        "fee": "no",
        "operator": "BMRCL"
      }
    },
    {
      "type": "node",
      "id": 12219073510,
      "lat": 12.9158099,
      "lon": 77.5735177,
      "tags": {
        "name": "Nandini",
        "shop": "diary"
      }
    },
    {
      "type": "node",
      "id": 12512478217,
      "lat": 12.916536,
      "lon": 77.5734517,
      "tags": {
        "brand": "Nandini",
        "brand:wikidata": "Q124374212",
        "name": "Nandini",
        "shop": "dairy"
      }
    },
    {
      "type": "node",
      "id": 12512478240,
      "lat": 12.9070922,
      "lon": 77.5730158,
      "tags": {
        "access": "yes",
        "amenity": "motorcycle_parking",
        "covered": "yes",
        "fee": "yes",
        "operator": "BMRCL",
        "parking": "surface"
      }
    },
    {
      "type": "way",
      "id": 118411727,
      "center": {
        "lat": 12.9158758,
        "lon": 77.573059
      },
      "tags": {
        "amenity": "place_of_worship",
        "name": "Banashankari Temple",
        "name:kn": "ಬನಶಂಕರಿ ದೇವಸ್ಥಾನ",
        "religion": "hindu"
      }
    },
    {
      "type": "way",
      "id": 334647977,
      "center": {
        "lat": 12.9156215,
        "lon": 77.5731989
      },
      "tags": {
        "amenity": "place_of_worship",
        "building": "yes",
        "religion": "hindu"
      }
    },
    {
      "type": "way",
      "id": 790005417,
      "center": {
        "lat": 12.9109524,
        "lon": 77.5716388
      },
      "tags": {
        "amenity": "place_of_worship",
        "building": "yes",
        "name": "Masjid At-Tawheed Ahle Hadees",
        "religion": "muslim"
      }
    },
    {
      "type": "way",
      "id": 1044521107,
      "center": {
        "lat": 12.9141478,
        "lon": 77.5689536
      },
      "tags": {
        "amenity": "college",
        "name": "National Power Training Institute",
        "office": "educational_institution"
      }
    },
    {
      "type": "way",
      "id": 1263805882,
      "center": {
        "lat": 12.9080004,
        "lon": 77.5712087
      },
      "tags": {
        "amenity": "fuel",
        "brand": "Bharat Petroleum",
        "brand:wikidata": "Q854826",
        "name": "Bharath Petroleum",
        "name:en": "Bharath Petroleum",
        "name:kn": "ಭಾರತ್ ಪೆಟ್ರೋಲಿಯಂ",
        "opening_hours": "24/7",
        "source": "gps"
      }
    },
    {
      "type": "way",
      "id": 1271076833,
      "center": {
        "lat": 12.9091226,
        "lon": 77.5706097
      },
      "tags": {
        "leisure": "park"
      }
    },
    {
      "type": "way",
      "id": 1271076834,
      "center": {
        "lat": 12.9089357,
        "lon": 77.5703496
      },
      "tags": {
        "leisure": "playground"
      }
    },
    {
      "type": "way",
      "id": 1271076836,
      "center": {
        "lat": 12.9090654,
        "lon": 77.5712328
      },
      "tags": {
        "amenity": "place_of_worship",
        "name": "Jamia Masjid",
        "name:kn": "ಜಮ ಮಸೀದಿ",
        "religion": "muslim"
      }
    },
    {
      "type": "way",
      "id": 1271076839,
      "center": {
        "lat": 12.9097171,
        "lon": 77.5711919
      },
      "tags": {
        "leisure": "park"
      }
    },
    {
      "type": "way",
      "id": 1352350874,
      "center": {
        "lat": 12.9082544,
        "lon": 77.5728142
      },
      "tags": {
        "amenity": "place_of_worship",
        "building": "yes",
        "religion": "hindu"
      }
    },
    {
      "type": "way",
      "id": 1352350876,
      "center": {
        "lat": 12.9071391,
        "lon": 77.5728088
      },
      "tags": {
        "amenity": "place_of_worship",
        "building": "yes",
        "religion": "christian"
      }
    },
    {
      "type": "way",
      "id": 1385509256,
      "center": {
        "lat": 12.9138262,
        "lon": 77.5730135
      },
      "tags": {
        "leisure": "park"
      }
    },
    {
      "type": "way",
      "id": 1385509257,
      "center": {
        "lat": 12.9141294,
        "lon": 77.5729387
      },
      "tags": {
        "leisure": "park"
      }
    }
  ]
}