{
  "area_name": "Banaswadi",
  "osm_id": 443807287,
  "osm_type": "node",
  "place_type": "suburb",
  "amenity_count": 197,
  "amenities": [
    {
      "type": "node",
      "id": 595305848,
      "lat": 13.0230704,
      "lon": 77.6508206,
      "tags": {
        "addr:street": "Horamavu Agara Main Road",
        "amenity": "pharmacy",
        "brand": "Apollo Pharmacy",
        "brand:wikidata": "Q62562612",
        "healthcare": "pharmacy",
        "name": "Apollo Pharmacy",
        "name:kn": "ಅಪೊಲೋ ಫಾರ್ಮಸಿ"
      }
    },
    {
      "type": "node",
      "id": 595305917,
      "lat": 13.0224257,
      "lon": 77.6508337,
      "tags": {
        "addr:street": "Horamavu Agara Main Road",
        "brand": "More",
        "brand:wikidata": "Q6910891",
        "name": "More",
        "shop": "supermarket"
      }
    },
    {
      "type": "node",
      "id": 595308644,
      "lat": 13.0218507,
      "lon": 77.6501901,
      "tags": {
        "addr:street": "Outer Ring Road",
        "amenity": "bank",
        "atm": "yes",
        "brand": "Karnataka Bank",
        "brand:wikidata": "Q2042632",
        "name": "Karnataka Bank",
        "name:kn": "ಕರ್ನಾಟಕ ಬ್ಯಾಂಕ್"
      }
    },
    {
      "type": "node",
      "id": 833729924,
      "lat": 13.0223265,
      "lon": 77.6505234,
      "tags": {
        "amenity": "conference_centre",
        "name": "VVCH Conference Hall"
      }
    },
    {
      "type": "node",
      "id": 1279116236,
      "lat": 13.022202,
      "lon": 77.6507704,
      "tags": {
        "addr:street": "Horamavu Agara Main Road",
        "name": "City Pearl",
        "shop": "supermarket"
      }
    },
    {
      "type": "node",
      "id": 1280318946,
      "lat": 13.0228757,
      "lon": 77.6509402,
      "tags": {
        "addr:street": "Horamavu Agara Main Road",
        "name": "7 Days",
        "shop": "supermarket"
      }
    },
    {
      "type": "node",
      "id": 1533923521,
      "lat": 13.0201633,
      "lon": 77.6565925,
      "tags": {
        "addr:postcode": "560043",
        "addr:street": "Horamavu Main Road",
        "amenity": "bank",
        "atm": "yes",
        "brand": "State Bank of India",
        "brand:wikidata": "Q1340361",
        "brand:wikipedia": "en:State Bank of India",
        "name": "State Bank of India",
        "name:kn": "ಭಾರತೀಯ ಸ್ಟೇಟ್ ಬ್ಯಾಂಕ್",
        "short_name": "SBI"
      }
    },
    {
      "type": "node",
      "id": 1670718780,
      "lat": 13.0220854,
      "lon": 77.6505416,
      "tags": {
        "amenity": "atm",
        "operator": "Axis Bank ATM"
      }
    },
    {
      "type": "node",
      "id": 1725094649,
      "lat": 13.0187152,
      "lon": 77.6555768,
      "tags": {
        "amenity": "restaurant",
        "cuisine": "indian",
        "name": "Bhagini",
        "name:kn": "ಭಾಗಿನಿ",
        "opening_hours": "Mo-Fr 08:30-20:00"
      }
    },
    {
      "type": "node",
      "id": 1742633026,
      "lat": 13.0148407,
      "lon": 77.6495896,
      "tags": {
        "amenity": "bank",
        "atm": "yes",
        "brand": "Andhra Bank",
        "brand:wikidata": "Q2003476",
        "brand:wikipedia": "en:Andhra Bank",
        "name": "Andhra Bank",
        "name:en": "Andhra Bank",
        "name:kn": "ಆಂಧ್ರ ಬ್ಯಾಂಕ್",
        "website": "https://www.andhrabank.in"
      }
    },
    {
      "type": "node",
      "id": 1742635196,
      "lat": 13.0149612,
      "lon": 77.6438861,
      "tags": {
        "amenity": "fast_food",
        "cuisine": "coffee_shop",
        "name": "Cuppa"
      }
    },
    {
      "type": "node",
      "id": 1742635612,
      "lat": 13.0150344,
      "lon": 77.6437466,
      "tags": {
        "name": "Pacer Yamaha showroom",
        "shop": "motorcycle"
      }
    },
    {
      "type": "node",
      "id": 1742637590,
      "lat": 13.0155149,
      "lon": 77.6430312,
      "tags": {
        "amenity": "place_of_worship",
        "check_date": "2024-07-10",
        "name": "Om Shakthi Temple",
        "name:kn": "ಓಂ ಶಕ್ತಿ ದೇವಸ್ಥಾನ",
        "religion": "hindu"
      }
    },
    {
      "type": "node",
      "id": 1742639143,
      "lat": 13.0159282,
      "lon": 77.6430921,
      "tags": {
        "name": "City Honda",
        "shop": "motorcycle"
      }
    },
    {
      "type": "node",
      "id": 1742640276,
      "lat": 13.0151076,
      "lon": 77.645262,
      "tags": {
        "amenity": "bank",
        "atm": "yes",
        "name": "Vijaya Bank",
        "name:kn": "ವಿಜಯ ಬ್ಯಾಂಕು"
      }
    },
    {
      "type": "node",
      "id": 1742641132,
      "lat": 13.0145928,
      "lon": 77.6462464,
      "tags": {
        "amenity": "bank",
        "atm": "yes",
        "brand": "Bank of Maharashtra",
        "brand:wikidata": "Q2004304",
        "brand:wikipedia": "en:Bank of Maharashtra",
        "name": "Bank of Maharashtra",
        "name:en": "Bank of Maharashtra",
        "website": "https://www.bankofmaharashtra.in/"
      }
    },
    {
      "type": "node",
      "id": 1742641459,
      "lat": 13.0147104,
      "lon": 77.6462571,
      "tags": {
        "amenity": "library",
        "name": "Just Books"
      }
    },
    {
      "type": "node",
      "id": 1742643868,
      "lat": 13.018092,
      "lon": 77.6474963,
      "tags": {
        "amenity": "cafe",
        "brand": "Cafe Coffee Day",
        "brand:wikidata": "Q5017235",
        "cuisine": "coffee_shop",
        "name": "Cafe Coffee Day",
        "name:kn": "ಕಫೆ ಕಾಫಿ ಡೇ",
        "takeaway": "yes"
      }
    },
    {
      "type": "node",
      "id": 1742644867,
      "lat": 13.0183141,
      "lon": 77.647035,
      "tags": {
        "amenity": "atm",
        "check_date": "2024-08-17",
        "operator": "IOB"
      }
    },
    {
      "type": "node",
      "id": 1742647037,
      "lat": 13.0183846,
      "lon": 77.647491,
      "tags": {
        "name": "Home Needs",
        "shop": "convenience"
      }
    },
    {
      "type": "node",
      "id": 1742657374,
      "lat": 13.0180867,
      "lon": 77.6459406,
      "tags": {
        "amenity": "post_office",
        "name": "Post Office",
        "name:kn": "ಅಂಚೆ ಕಛೇರಿ"
      }
    },
    {
      "type": "node",
      "id": 1743937742,
      "lat": 13.0144106,
      "lon": 77.6427176,
      "tags": {
        "amenity": "restaurant",
        "cuisine": "indian",
        "name": "Adigas Annapoorna",
        "name:kn": "ಅಡಿಗಾಸ್ ಅನ್ನಪೂರ್ಣ"
      }
    },
    {
      "type": "node",
      "id": 1743937872,
      "lat": 13.0127328,
      "lon": 77.6481357,
      "tags": {
        "brand": "More",
        "brand:wikidata": "Q6910891",
        "name": "More",
        "shop": "supermarket"
      }
    },
    {
      "type": "node",
      "id": 1743939029,
      "lat": 13.0119854,
      "lon": 77.6475134,
      "tags": {
        "amenity": "restaurant",
        "cuisine": "indian",
        "name": "Srinidhi Upchaar",
        "name:kn": "ಶ್ರೀನಿಧಿ ಉಪಚಾರ್"
      }
    },
    {
      "type": "node",
      "id": 1743939200,
      "lat": 13.0126649,
      "lon": 77.6474598,
      "tags": {
        "amenity": "bar",
        "name": "Sreeraj Lassi Bar"
      }
    },
    {
      "type": "node",
      "id": 2272445792,
      "lat": 13.0129544,
      "lon": 77.6577623,
      "tags": {
        "amenity": "place_of_worship",
        "name": "Sri Valampuri Vinayagar Temple",
        "religion": "hindu"
      }
    },
    {
      "type": "node",
      "id": 2272446785,
      "lat": 13.0141643,
      "lon": 77.6575124,
      "tags": {
        "amenity": "school",
        "name": "New Baldwins School"
      }
    },
    {
      "type": "node",
      "id": 2272455276,
      "lat": 13.0124345,
      "lon": 77.6580271,
      "tags": {
        "addr:district": "Bengaluru Urban",
        "addr:full": "No. 699, 3Road Main Road,Bhuvanagiri Layout,(O.M.B.R),Doddabanasawadi",
        "addr:postcode": "560043",
        "addr:state": "Karnataka",
        "amenity": "hospital",
        "name": "Srivijaya Speciality Hospital",
        "source": "OpenGovernmentData"
      }
    },
    {
      "type": "node",
      "id": 2473253524,
      "lat": 13.0107913,
      "lon": 77.6588641,
      "tags": {
        "amenity": "place_of_worship",
        "name": "Chowdeshwari Temple B Channasandra, Banasawadi",
        "religion": "hindu"
      }
    },
    {
      "type": "node",
      "id": 2473254869,
      "lat": 13.0109838,
      "lon": 77.6593955,
      "tags": {
        "addr:street": "B Channasandra, Bennigana Halli",
        "amenity": "place_of_worship",
        "name": "Sri Muneshwara Temple",
        "name:kn": "ಮುನೇಶ್ವರ ದೇವಸ್ಥಾನ",
        "religion": "hindu"
      }
    },
    {
      "type": "node",
      "id": 2624203093,
      "lat": 13.0185804,
      "lon": 77.6534032,
      "tags": {
        "amenity": "cafe",
        "name": "Daily Bread"
      }
    },
    {
      "type": "node",
      "id": 2624209440,
      "lat": 13.0189051,
      "lon": 77.6567845,
      "tags": {
        "amenity": "cafe",
        "name": "Cafe Coffee Day",
        "name:kn": "ಕಫೆ ಕಾಫಿ ಡೇ"
      }
    },
    {
      "type": "node",
      "id": 2624211636,
      "lat": 13.0219675,
      "lon": 77.6549932,
      "tags": {
        "amenity": "place_of_worship",
        "name": "Ganesha Temple",
        "name:kn": "ಗಣೇಶ ದೇವಸ್ಥಾನ",
        "religion": "hindu"
      }
    },
    {
      "type": "node",
      "id": 2625715089,
      "lat": 13.0198168,
      "lon": 77.6562684,
      "tags": {
        "amenity": "pharmacy",
        "name": "Maruthi Medicals"
      }
    },
    {
      "type": "node",
      "id": 2625715090,
      "lat": 13.0191488,
      "lon": 77.6562873,
      "tags": {
        "name": "Bhagath Motors - Hero",
        "shop": "motorcycle"
      }
    },
    {
      "type": "node",
      "id": 2663992465,
      "lat": 13.0179673,
      "lon": 77.6538152,
      "tags": {
        "amenity": "atm",
        "brand": "HDFC Bank",
        "brand:wikidata": "Q631047",
        "name": "HDFC Bank",
        "name:kn": "ಎಚ್ ಡಿ ಎಫ್ ಸಿ",
        "operator": "HDFC Bank",
        "operator:wikidata": "Q631047",
        "short_name": "HDFC"
      }
    },
    {
      "type": "node",
      "id": 4242720007,
      "lat": 13.0085079,
      "lon": 77.6514124,
      "tags": {
        "amenity": "community_centre",
        "name": "Parvati Kalyana Mantapa"
      }
    },
    {
      "type": "node",
      "id": 4296135863,
      "lat": 13.0134659,
      "lon": 77.6605864,
      "tags": {
        "addr:district": "Bengaluru Urban",
        "addr:full": "Ranamurthy Nagar Main Road Banaswadi",
        "addr:postcode": "560043",
        "addr:state": "Karnataka",
        "amenity": "clinic",
        "name": "Asha Nursing Home",
        "source": "OpenGovernmentData"
      }
    },
    {
      "type": "node",
      "id": 4349443891,
      "lat": 13.0169826,
      "lon": 77.6432959,
      "tags": {
        "addr:district": "Bengaluru Urban",
        "addr:full": "Kalyan Nagar, Bengaluru",
        "addr:postcode": "560043",
        "addr:state": "Karnataka",
        "amenity": "hospital",
        "name": "Trilife Hospital",
        "source": "Local Knowledge"
      }
    },
    {
      "type": "node",
      "id": 4445955282,
      "lat": 13.0203944,
      "lon": 77.6512682,
      "tags": {
        "addr:city": "BANGALORE",
        "addr:housenumber": "914, 5th A Cross Road",
        "addr:postcode": "560043",
        "addr:street": "Outer Ring Road",
        "amenity": "hospital",
        "emergency": "yes",
        "name": "Procare Hospital",
        "phone": "080 4162 0620",
        "website": "080 4162 0620"
      }
    },
    {
      "type": "node",
      "id": 4446949042,
      "lat": 13.0180644,
      "lon": 77.6548189,
      "tags": {
        "addr:city": "bangalore",
        "addr:housenumber": "4C-1008",
        "addr:postcode": "560043",
        "addr:street": "First Floor, Tavarekere Main Rd, BTM Layout",
        "amenity": "restaurant",
        "cuisine": "regional",
        "delivery": "yes",
        "name": "Yogis Donne Biryani",
        "opening_hours": "07:00-22:00",
        "smoking": "no",
        "takeaway": "yes"
      }
    },
    {
      "type": "node",
      "id": 4447317940,
      "lat": 13.0149162,
      "lon": 77.6466021,
      "tags": {
        "addr:city": "Bangalore",
        "addr:country": "IN",
        "addr:hamlet": "HRBR Layout",
        "addr:housenumber": "309",
        "addr:postcode": "560043",
        "addr:street": "7th Main Road",
        "addr:suburb": "Kalyan Nagar",
        "amenity": "restaurant",
        "check_date": "2025-03-17",
        "cuisine": "korean",
        "delivery": "yes",
        "microbrewery": "no",
        "name": "Hi Seoul",
        "opening_hours": "11:30-15:00,17:30-22:00",
        "outdoor_seating": "no",
        "phone": "098457 71657",
        "reservation": "recommended",
        "smoking": "no",
        "takeaway": "yes"
      }
    },
    {
      "type": "node",
      "id": 4488027411,
      "lat": 13.015208,
      "lon": 77.6561956,
      "tags": {
        "addr:city": "Bangalore",
        "addr:housenumber": "21",
        "addr:postcode": "560043",
        "addr:street": "Banaswadi Main Road",
        "name": "Samarth Rice Traders",
        "phone": "(91)-80-33293546",
        "shop": "supermarket"
      }
    },
    {
      "type": "node",
      "id": 4488387330,
      "lat": 13.0101133,
      "lon": 77.6518108,
      "tags": {
        "addr:city": "bangalore",
        "addr:postcode": "560043",
        "addr:street": "B Channasandra Main Road",
        "name": "Naturals Unisex Salon And Spa",
        "phone": "0804090 8545",
        "shop": "beauty"
      }
    },
    {
      "type": "node",
      "id": 4489719491,
      "lat": 13.0184107,
      "lon": 77.6545173,
      "tags": {
        "amenity": "atm",
        "brand": "Axis Bank",
        "brand:wikidata": "Q2003549",
        "operator": "Axis Bank",
        "operator:wikidata": "Q2003549"
      }
    },
    {
      "type": "node",
      "id": 4489738690,
      "lat": 13.0184011,
      "lon": 77.6544876,
      "tags": {
        "amenity": "bank",
        "brand": "Axis Bank",
        "brand:wikidata": "Q2003549",
        "brand:wikipedia": "en:Axis Bank",
        "name": "Axis Bank",
        "name:en": "Axis Bank",
        "name:kn": "ಅಕ್ಸಿಸ್ ಬ್ಯಾಂಕ್",
        "operator": "Axis",
        "website": "https://www.axisbank.com"
      }
    },
    {
      "type": "node",
      "id": 4489763428,
      "lat": 13.0131486,
      "lon": 77.6481052,
      "tags": {
        "addr:city": "bangalore",
        "addr:housenumber": "6",
        "addr:postcode": "560043",
        "addr:street": "1st Floor, 1st Cross, Banswadi Main Road, Dodda Banaswadi",
        "name": "Venus Unisex Salon",
        "opening_hours": "11:00-21:00",
        "phone": "9916248091",
        "shop": "beauty"
      }
    },
    {
      "type": "node",
      "id": 4489775073,
      "lat": 13.0197253,
      "lon": 77.6474507,
      "tags": {
        "addr:city": "bangalore",
        "addr:housenumber": "707",
        "addr:postcode": "560043",
        "addr:street": "3rd Cross, 1st Block, Hrbr Layout, Kalyan Nagar",
        "name": "Elite Unisex Spa And Saloon",
        "opening_hours": "09:00-21:30",
        "phone": "80-65655909",
        "shop": "beauty"
      }
    },
    {
      "type": "node",
      "id": 4489848616,
      "lat": 13.0202407,
      "lon": 77.6551359,
      "tags": {
        "addr:city": "bangalore",
        "addr:housenumber": "34",
        "addr:postcode": "560043",
        "addr:street": "Outer Ring Road",
        "name": "Qi Spa and Salon",
        "opening_hours": "09:00-21:30",
        "phone": "8296137528",
        "shop": "beauty"
      }
    },
    {
      "type": "node",
      "id": 4489857253,
      "lat": 13.0198978,
      "lon": 77.6474795,
      "tags": {
        "addr:city": "bangalore",
        "addr:housenumber": "9",
        "addr:postcode": "560043",
        "addr:street": "9th Mn Rd, 4th Crs, 1st Blk, Hrbr Lyt, Kalyan Nagar",
        "name": "Magic Mirror Unisex Spa And Salon",
        "opening_hours": "09:00-21:30",
        "phone": "9916690550",
        "shop": "beauty"
      }
    },
    {
      "type": "node",
      "id": 4550334590,
      "lat": 13.0183685,
      "lon": 77.6533179,
      "tags": {
        "name": "ಕೀರ್ತಿ ಫುಡ್ ಮಾರ್ಟ್",
        "name:en": "Keerthi foodmart",
        "name:kn": "ಕೀರ್ತಿ ಫುಡ್ ಮಾರ್ಟ್",
        "shop": "department_store"
      }
    },
    {
      "type": "node",
      "id": 4550334793,
      "lat": 13.0189973,
      "lon": 77.654444,
      "tags": {
        "shop": "car_repair"
      }
    },
    {
      "type": "node",
      "id": 4550395394,
      "lat": 13.0184261,
      "lon": 77.653514,
      "tags": {
        "amenity": "atm",
        "operator": "Oriental Bank of Commerce"
      }
    },
    {
      "type": "node",
      "id": 4550422492,
      "lat": 13.0190302,
      "lon": 77.6545564,
      "tags": {
        "amenity": "cafe",
        "name": "Chai",
        "name:en": "Chai"
      }
    },
    {
      "type": "node",
      "id": 4550426290,
      "lat": 13.0184293,
      "lon": 77.6535496,
      "tags": {
        "amenity": "bank",
        "brand": "Oriental Bank of Commerce",
        "brand:wikidata": "Q367008",
        "brand:wikipedia": "en:Oriental Bank of Commerce",
        "name": "Oriental Bank of Commerce",
        "name:en": "Oriental Bank of Commerce",
        "short_name": "OBC",
        "website": "https://www.obcindia.co.in"
      }
    },
    {
      "type": "node",
      "id": 4551591893,
      "lat": 13.018127,
      "lon": 77.6541641,
      "tags": {
        "name": "Wurfe Kitchen",
        "name:en": "Wurfe Kitchen",
        "shop": "furniture"
      }
    },
    {
      "type": "node",
      "id": 4558072689,
      "lat": 13.0182115,
      "lon": 77.6544644,
      "tags": {
        "amenity": "fast_food",
        "name": "Kolkata Roll on Dial",
        "name:en": "Kolkata Roll on Dial",
        "phone": "080-413002225"
      }
    },
    {
      "type": "node",
      "id": 4558318692,
      "lat": 13.0182197,
      "lon": 77.6545197,
      "tags": {
        "amenity": "restaurant",
        "name": "Ambur Hot Dum Biriyaani",
        "name:en": "Ambur Hot Dum Biriyaani",
        "name:kn": "ಅಂಬುರ್ ಬಿರಿಯಾನಿ"
      }
    },
    {
      "type": "node",
      "id": 4586355539,
      "lat": 13.0148983,
      "lon": 77.646793,
      "tags": {
        "addr:city": "bangalore",
        "addr:housenumber": "201",
        "addr:postcode": "560043",
        "addr:street": "9th Main Road",
        "amenity": "ice_cream",
        "check_date": "2025-03-17",
        "name": "Ibaco",
        "opening_hours": "11:00 - 23:00",
        "phone": "+91 9900038530"
      }
    },
    {
      "type": "node",
      "id": 4702180791,
      "lat": 13.0151589,
      "lon": 77.6451446,
      "tags": {
        "addr:housenumber": "805",
        "addr:street": "2nd Cross Road",
        "amenity": "clinic",
        "name": "Express Clinic",
        "name:en": "Express Clinic",
        "phone": "+91-080-42234552"
      }
    },
    {
      "type": "node",
      "id": 4784848418,
      "lat": 13.0097185,
      "lon": 77.6444698,
      "tags": {
        "addr:city": "Bangalore",
        "addr:full": "586, 3rd Cross Road, Near Maruthi School Bus Stop, Erappa Layout, Subbaiahna Palya, Banaswadi, Bangalore - 560043",
        "addr:housenumber": "586",
        "addr:postcode": "560043",
        "addr:street": "3rd Cross Road",
        "amenity": "bank",
        "atm": "yes",
        "brand": "Syndicate Bank",
        "brand:wikidata": "Q2004088",
        "name": "Syndicate Bank",
        "name:en": "Syndicate Bank",
        "name:kn": "ಸಿಂಡಿಕೇಟ್ ಬ್ಯಾಂಕ್",
        "website": "https://www.syndicatebank.in"
      }
    },
    {
      "type": "node",
      "id": 4839771323,
      "lat": 13.0132508,
      "lon": 77.6497633,
      "tags": {
        "addr:postcode": "560043",
        "addr:street": "Banaswadi Main Road",
        "amenity": "pharmacy",
        "name": "Religare Pharmacy",
        "name:en": "Religare Pharmacy",
        "opening_hours": "Mo-Su 09:00-23:00"
      }
    },
    {
      "type": "node",
      "id": 4839789221,
      "lat": 13.0128275,
      "lon": 77.6506438,
      "tags": {
        "addr:postcode": "560043",
        "addr:street": "6th Cross Road",
        "amenity": "car_wash",
        "name": "Tip Top Shiners",
        "name:en": "Tip Top Shiners",
        "opening_hours": "Mo-Su 09:00-21:00"
      }
    },
    {
      "type": "node",
      "id": 4844863328,
      "lat": 13.0106572,
      "lon": 77.6454963,
      "tags": {
        "name": "Digital world",
        "name:en": "Digital world",
        "shop": "electronics"
      }
    },
    {
      "type": "node",
      "id": 4844863329,
      "lat": 13.0118637,
      "lon": 77.6474039,
      "tags": {
        "leisure": "fitness_centre",
        "name": "Fitness World",
        "name:en": "Fitness World"
      }
    },
    {
      "type": "node",
      "id": 4844863330,
      "lat": 13.0129746,
      "lon": 77.6479687,
      "tags": {
        "amenity": "restaurant",
        "name": "New Shanti sagar",
        "name:en": "New Shanti sagar"
      }
    },
    {
      "type": "node",
      "id": 4844863331,
      "lat": 13.0185287,
      "lon": 77.6549166,
      "tags": {
        "name": "India carZ",
        "name:en": "India carZ",
        "shop": "car"
      }
    },
    {
      "type": "node",
      "id": 4844863332,
      "lat": 13.0205159,
      "lon": 77.6530997,
      "tags": {
        "name": "Havells",
        "name:en": "Havells",
        "shop": "electronics"
      }
    },
    {
      "type": "node",
      "id": 4844865027,
      "lat": 13.0103924,
      "lon": 77.6484101,
      "tags": {
        "amenity": "clinic",
        "name": "Health and hijama clinic",
        "name:en": "Health and hijama clinic"
      }
    },
    {
      "type": "node",
      "id": 4844865028,
      "lat": 13.0208846,
      "lon": 77.6524026,
      "tags": {
        "name": "Exide",
        "name:en": "Exide",
        "shop": "car_parts"
      }
    },
    {
      "type": "node",
      "id": 4945660322,
      "lat": 13.0124591,
      "lon": 77.6483105,
      "tags": {
        "amenity": "bank",
        "brand": "Federal Bank",
        "brand:wikidata": "Q2044983",
        "name": "Federal Bank",
        "name:en": "Federal Bank",
        "name:kn": "ಫೆಡೆರಲ್ ಬ್ಯಾಂಕ್"
      }
    },
    {
      "type": "node",
      "id": 5080801905,
      "lat": 13.0085915,
      "lon": 77.64736,
      "tags": {
        "amenity": "school"
      }
    },
    {
      "type": "node",
      "id": 5087470221,
      "lat": 13.0128826,
      "lon": 77.6501814,
      "tags": {
        "addr:postcode": "560043",
        "addr:street": "6th Cross Road",
        "name": "Kanti Sweets OMBR Layout",
        "name:en": "Kanti Sweets OMBR Layout",
        "opening_hours": "Mo-Su 09:00-22:30",
        "shop": "confectionery"
      }
    },
    {
      "type": "node",
      "id": 5112182301,
      "lat": 13.0090127,
      "lon": 77.6562397,
      "tags": {
        "amenity": "bank",
        "atm": "yes",
        "drive_through": "no",
        "name": "Vijaya Bank",
        "name:kn": "ವಿಜಯ ಬ್ಯಾಂಕು",
        "operator": "Vijaya Bank"
      }
    },
    {
      "type": "node",
      "id": 5112185895,
      "lat": 13.0086666,
      "lon": 77.6559015,
      "tags": {
        "addr:city": "Bangalore",
        "addr:district": "Bengaluru Urban",
        "addr:housenumber": "201",
        "addr:postcode": "560043",
        "addr:street": "B Channasandra Main Road",
        "amenity": "restaurant",
        "cuisine": "regional;indian;breakfast",
        "name": "Raghavendra Bhavan",
        "name:kn": "ರಾಘವೇಂದ್ರ ಭವನ",
        "takeaway": "yes"
      }
    },
    {
      "type": "node",
      "id": 5112186034,
      "lat": 13.0086948,
      "lon": 77.6555825,
      "tags": {
        "name": "Freshworld Super Market",
        "shop": "supermarket"
      }
    },
    {
      "type": "node",
      "id": 5112187604,
      "lat": 13.0090912,
      "lon": 77.656317,
      "tags": {
        "amenity": "hospital",
        "name": "Subramanium Medicine Store"
      }
    },
    {
      "type": "node",
      "id": 5112191947,
      "lat": 13.0104342,
      "lon": 77.6583242,
      "tags": {
        "addr:district": "Bengaluru Urban",
        "addr:full": "6C - 335, 4Th C Main Road, 6Th Cross Ombr Layout Bhuvanagiri",
        "addr:postcode": "560041",
        "addr:state": "Karnataka",
        "amenity": "hospital",
        "name": "Chaya Super Speciality Hospital",
        "source": "OpenGovernmentData"
      }
    },
    {
      "type": "node",
      "id": 5255533507,
      "lat": 13.008896,
      "lon": 77.6557901,
      "tags": {
        "brand": "More",
        "brand:wikidata": "Q6910891",
        "name": "More",
        "shop": "supermarket"
      }
    },
    {
      "type": "node",
      "id": 5255533512,
      "lat": 13.0086124,
      "lon": 77.6555434,
      "tags": {
        "amenity": "fast_food",
        "brand": "Domino's",
        "brand:ks": "ڈومینوز",
        "brand:pa": "ਡੋਮੀਨੋਜ਼",
        "brand:ur": "ڈومینوز",
        "brand:wikidata": "Q839466",
        "brand:wikipedia": "en:Domino's Pizza",
        "cuisine": "pizza",
        "name": "Domino's",
        "name:kn": "ಡಾಮಿನೋಸ್",
        "name:ks": "ڈومینوز",
        "name:pa": "ਡੋਮੀਨੋਜ਼",
        "name:ur": "ڈومینوز",
        "takeaway": "yes"
      }
    },
    {
      "type": "node",
      "id": 5255533513,
      "lat": 13.0102536,
      "lon": 77.6579312,
      "tags": {
        "amenity": "bank",
        "brand": "Axis Bank",
        "brand:wikidata": "Q2003549",
        "name": "Axis Bank",
        "name:kn": "ಅಕ್ಸಿಸ್ ಬ್ಯಾಂಕ್"
      }
    },
    {
      "type": "node",
      "id": 5255533514,
      "lat": 13.0101171,
      "lon": 77.6573914,
      "tags": {
        "amenity": "restaurant",
        "name": "Malik Deenar"
      }
    },
    {
      "type": "node",
      "id": 5255533519,
      "lat": 13.0088489,
      "lon": 77.6591724,
      "tags": {
        "amenity": "car_wash",
        "name": "Bosch Car Service"
      }
    },
    {
      "type": "node",
      "id": 5570654721,
      "lat": 13.014431,
      "lon": 77.6580134,
      "tags": {
        "amenity": "restaurant",
        "name": "New Udipi Park"
      }
    },
    {
      "type": "node",
      "id": 6938949273,
      "lat": 13.0186045,
      "lon": 77.6479433,
      "tags": {
        "addr:district": "Bengaluru Urban",
        "addr:full": "No. 3Ac 902, 3Road A Cross, 1st Block,9Th A Main, Kalyannagar",
        "addr:postcode": "560043",
        "addr:state": "Karnataka",
        "amenity": "hospital",
        "name": "Lokhande S Hospital",
        "source": "OpenGovernmentData"
      }
    },
    {
      "type": "node",
      "id": 6939069014,
      "lat": 13.0144467,
      "lon": 77.6427305,
      "tags": {
        "addr:district": "Bengaluru Urban",
        "addr:full": "# 924, 80 Feet Road, Kalyan Nagar, Next To Adigas Hotel",
        "addr:postcode": "560033",
        "addr:state": "Karnataka",
        "amenity": "clinic",
        "name": "Pratham Ent and Child Care Centre",
        "source": "OpenGovernmentData"
      }
    },
    {
      "type": "node",
      "id": 6944392375,
      "lat": 13.0205082,
      "lon": 77.6509675,
      "tags": {
        "addr:district": "Bengaluru Urban",
        "addr:full": "904, 1st Block, Hrbr Layout (Near Overhead Water Tank, Outer Ring Road) Bansawadi",
        "addr:postcode": "560043",
        "addr:state": "Karnataka",
        "amenity": "hospital",
        "name": "Banasawadi Hospital",
        "name:kn": "ಬಾನಸವಾಡಿ ಆಸ್ಪತ್ರೆ",
        "source": "OpenGovernmentData"
      }
    },
    {
      "type": "node",
      "id": 6945434031,
      "lat": 13.0147224,
      "lon": 77.6515616,
      "tags": {
        "addr:district": "Bengaluru Urban",
        "addr:full": "No.60, Near Banaswadi Bus Stop, Banaswadi Main Road",
        "addr:postcode": "560043",
        "addr:state": "Karnataka",
        "amenity": "hospital",
        "name": "Srinivasa Eye Hospital",
        "source": "OpenGovernmentData"
      }
    },
    {
      "type": "node",
      "id": 6947499707,
      "lat": 13.0178594,
      "lon": 77.6547577,
      "tags": {
        "addr:district": "Bengaluru Urban",
        "addr:full": "No.1013, 1st Block, 3 Road Cross, Hrbr Layout, Kalyan Nagar",
        "addr:postcode": "560043",
        "addr:state": "Karnataka",
        "amenity": "hospital",
        "name": "Dr.Zamindar Microsurgical Eye Centre",
        "operator:type": "private",
        "source": "OpenGovernmentData",
        "website": "https://drzamindarseyecentre.com/"
      }
    },
    {
      "type": "node",
      "id": 7572131828,
      "lat": 13.0209741,
      "lon": 77.6573009,
      "tags": {
        "addr:district": "Bengaluru Urban",
        "addr:full": "Horamavu Main Road, Kallumantapa, Horamavu, Bengaluru",
        "addr:postcode": "560043",
        "addr:state": "Karnataka",
        "amenity": "clinic",
        "name": "Maneet Poly Clinic",
        "source": "Local Knowledge"
      }
    },
    {
      "type": "node",
      "id": 7577248180,
      "lat": 13.0096223,
      "lon": 77.6556985,
      "tags": {
        "addr:district": "Bengaluru Urban",
        "addr:full": "OMBR Layout, Banaswadi, Bengaluru",
        "addr:postcode": "560043",
        "addr:state": "Karnataka",
        "amenity": "clinic",
        "name": "Raja Rama's Homeopathy & Ayurvedic Centre",
        "source": "Local Knowledge"
      }
    },
    {
      "type": "node",
      "id": 7577248181,
      "lat": 13.012005,
      "lon": 77.647777,
      "tags": {
        "addr:district": "Bengaluru Urban",
        "addr:full": "Banaswadi, Bengaluru",
        "addr:postcode": "560043",
        "addr:state": "Karnataka",
        "amenity": "clinic",
        "name": "Poorna Heart and Women's Clinic",
        "source": "Local Knowledge"
      }
    },
    {
      "type": "node",
      "id": 7577248186,
      "lat": 13.0193799,
      "lon": 77.6535352,
      "tags": {
        "addr:district": "Bengaluru Urban",
        "addr:full": "HRBR Layout, Banaswadi, Bengaluru",
        "addr:postcode": "560043",
        "addr:state": "Karnataka",
        "amenity": "hospital",
        "name": "Shishuka Children's Speciality Hospital",
        "source": "Local Knowledge"
      }
    },
    {
      "type": "node",
      "id": 7577248188,
      "lat": 13.0184835,
      "lon": 77.6543091,
      "tags": {
        "addr:district": "Bengaluru Urban",
        "addr:full": "HRBR Layout, Kalyan Nagar, Bengaluru",
        "addr:postcode": "560043",
        "addr:state": "Karnataka",
        "amenity": "dentist",
        "name": "Archak Dental",
        "source": "Local Knowledge"
      }
    },
    {
      "type": "node",
      "id": 7577248192,
      "lat": 13.0187276,
      "lon": 77.6531389,
      "tags": {
        "addr:district": "Bengaluru Urban",
        "addr:full": "HRBR Layout, Banaswadi, Bengaluru",
        "addr:postcode": "560043",
        "addr:state": "Karnataka",
        "amenity": "clinic",
        "name": "IMAX Clinic",
        "source": "Local Knowledge"
      }
    },
    {
      "type": "node",
      "id": 7577248193,
      "lat": 13.0091103,
      "lon": 77.6579493,
      "tags": {
        "addr:district": "Bengaluru Urban",
        "addr:full": "Lal Bahadur Nagar, Kasturi Nagar, Bengaluru",
        "addr:postcode": "560043",
        "addr:state": "Karnataka",
        "amenity": "hospital",
        "name": "Skin Remediez",
        "source": "Local Knowledge"
      }
    },
    {
      "type": "node",
      "id": 7577248194,
      "lat": 13.0148814,
      "lon": 77.6555197,
      "tags": {
        "addr:district": "Bengaluru Urban",
        "addr:full": "Ramamurthy Nagar Main Road, Banasawadi, Bengaluru",
        "addr:postcode": "560043",
        "addr:state": "Karnataka",
        "amenity": "clinic",
        "name": "Pranav Diabetes Centre",
        "source": "Local Knowledge"
      }
    },
    {
      "type": "node",
      "id": 7577248195,
      "lat": 13.0089068,
      "lon": 77.656123,
      "tags": {
        "addr:district": "Bengaluru Urban",
        "addr:full": "Channasandra, Kasturi Nagar, Bengaluru",
        "addr:postcode": "560043",
        "addr:state": "Karnataka",
        "amenity": "clinic",
        "name": "Janani Women & Kids Clinic",
        "source": "Local Knowledge"
      }
    },
    {
      "type": "node",
      "id": 7577248199,
      "lat": 13.0195123,
      "lon": 77.6475205,
      "tags": {
        "addr:district": "Bengaluru Urban",
        "addr:full": "Kalyan Nagar, Bengaluru",
        "addr:postcode": "560043",
        "addr:state": "Karnataka",
        "amenity": "clinic",
        "name": "Twinkle Kids Child Care Speciality Clinic",
        "source": "Local Knowledge"
      }
    },
    {
      "type": "node",
      "id": 7577248200,
      "lat": 13.0120265,
      "lon": 77.6477552,
      "tags": {
        "addr:district": "Bengaluru Urban",
        "addr:full": "Banaswadi, Bengaluru",
        "addr:postcode": "560043",
        "addr:state": "Karnataka",
        "amenity": "clinic",
        "name": "Nainda Advanced Eye Care Centre",
        "source": "Local Knowledge"
      }
    },
    {
      "type": "node",
      "id": 7577248202,
      "lat": 13.0116786,
      "lon": 77.6470294,
      "tags": {
        "addr:district": "Bengaluru Urban",
        "addr:full": "Balaji Layout, OMBR Layout, Banaswadi, Bengaluru",
        "addr:postcode": "560043",
        "addr:state": "Karnataka",
        "amenity": "clinic",
        "name": "Roots Skin Clinic"
      }
    },
    {
      "type": "node",
      "id": 7577248210,
      "lat": 13.017856,
      "lon": 77.646249,
      "tags": {
        "addr:district": "Bengaluru Urban",
        "addr:full": "HRBR Layout, Banaswadi, Bengaluru",
        "addr:postcode": "560043",
        "addr:state": "Karnataka",
        "amenity": "clinic",
        "name": "Vivekananda Health Global - Ayurveda, Naturopathy & Yoga",
        "source": "Local Knowledge"
      }
    },
    {
      "type": "node",
      "id": 7577248212,
      "lat": 13.0090467,
      "lon": 77.653918,
      "tags": {
        "addr:district": "Bengaluru Urban",
        "addr:full": "OMBR Layout, Banaswadi, Bengaluru",
        "addr:postcode": "560043",
        "addr:state": "Karnataka",
        "amenity": "doctors",
        "name": "Dr. Naeem Sadiq",
        "source": "Local Knowledge"
      }
    },
    {
      "type": "node",
      "id": 7577248219,
      "lat": 13.013776,
      "lon": 77.646793,
      "tags": {
        "addr:district": "Bengaluru Urban",
        "addr:full": "Balaji Layout, Subbaiahnapalya, Banaswadi, Bengaluru",
        "addr:postcode": "560043",
        "addr:state": "Karnataka",
        "amenity": "clinic",
        "name": "Krupa Homeopathic Clinic",
        "source": "Local Knowledge"
      }
    },
    {
      "type": "node",
      "id": 7577248221,
      "lat": 13.0201491,
      "lon": 77.6516628,
      "tags": {
        "addr:district": "Bengaluru Urban",
        "addr:full": "HRBR Layout, Kalyan Nagar, Bengaluru",
        "addr:postcode": "560043",
        "addr:state": "Karnataka",
        "amenity": "hospital",
        "name": "Ovum Birthing Centre",
        "source": "Local Knowledge"
      }
    },
    {
      "type": "node",
      "id": 7577248225,
      "lat": 13.01213,
      "lon": 77.647984,
      "tags": {
        "addr:district": "Bengaluru Urban",
        "addr:full": "Banaswadi, Bengaluru",
        "addr:postcode": "560043",
        "addr:state": "Karnataka",
        "amenity": "clinic",
        "name": "Vardhan Fertility",
        "source": "Local Knowledge"
      }
    },
    {
      "type": "node",
      "id": 7577248231,
      "lat": 13.0151401,
      "lon": 77.6559684,
      "tags": {
        "addr:district": "Bengaluru Urban",
        "addr:full": "Annaiah Reddy Layout, Banaswadi, Bengaluru",
        "addr:postcode": "560043",
        "addr:state": "Karnataka",
        "amenity": "clinic",
        "name": "Premji Occupational Therapy & Rehabilitation Centre",
        "source": "Local Knowledge"
      }
    },
    {
      "type": "node",
      "id": 7577248235,
      "lat": 13.0102697,
      "lon": 77.6525909,
      "tags": {
        "addr:district": "Bengaluru Urban",
        "addr:full": "OMBR Layout, Banaswadi, Bengaluru",
        "addr:postcode": "560043",
        "addr:state": "Karnataka",
        "amenity": "hospital",
        "name": "Motherhood Women & Children Hospital",
        "source": "Local Knowledge"
      }
    },
    {
      "type": "node",
      "id": 7577248236,
      "lat": 13.0136545,
      "lon": 77.6599916,
      "tags": {
        "addr:district": "Bengaluru Urban",
        "addr:full": "Green Park Layout, Banaswadi, Bengaluru",
        "addr:postcode": "560043",
        "addr:state": "Karnataka",
        "amenity": "clinic",
        "name": "M J Child Clinic",
        "source": "Local Knowledge"
      }
    },
    {
      "type": "node",
      "id": 7577248251,
      "lat": 13.013821,
      "lon": 77.660555,
      "tags": {
        "addr:district": "Bengaluru Urban",
        "addr:full": "Dodda Banaswadi Road, Bengaluru",
        "addr:postcode": "560043",
        "addr:state": "Karnataka",
        "amenity": "clinic",
        "name": "Dr. Murthy Ayurved Clinic",
        "source": "Local Knowledge"
      }
    },
    {
      "type": "node",
      "id": 7577248254,
      "lat": 13.0166883,
      "lon": 77.6604049,
      "tags": {
        "addr:district": "Bengaluru Urban",
        "addr:full": "Ramamurthy Nagar, Kuvempu Nagar, Bellandur, Bengaluru",
        "addr:postcode": "560043",
        "addr:state": "Karnataka",
        "amenity": "hospital",
        "name": "Super Specialty Eye Hospital",
        "source": "Local Knowledge"
      }
    },
    {
      "type": "node",
      "id": 7577248255,
      "lat": 13.0102168,
      "lon": 77.6580368,
      "tags": {
        "addr:district": "Bengaluru Urban",
        "addr:full": "Channasandra, Bengaluru",
        "addr:postcode": "560043",
        "addr:state": "Karnataka",
        "amenity": "clinic",
        "name": "Ashwini Clinic",
        "name:kn": "ಅಶ್ವಿನಿ ಚಿಕಿತ್ಸಾಲಯ",
        "source": "Local Knowledge"
      }
    },
    {
      "type": "node",
      "id": 7577248260,
      "lat": 13.013761,
      "lon": 77.648529,
      "tags": {
        "addr:district": "Bengaluru Urban",
        "addr:full": "Balaji Layout, Subbaiahnapalya, Banaswadi, Bengaluru",
        "addr:postcode": "560043",
        "addr:state": "Karnataka",
        "amenity": "hospital",
        "name": "Endocrine Speciality Centre",
        "source": "Local Knowledge"
      }
    },
    {
      "type": "node",
      "id": 7577248264,
      "lat": 13.00975,
      "lon": 77.6568,
      "tags": {
        "addr:district": "Bengaluru Urban",
        "addr:full": "Lakshmamma Layout, Banaswadi, Bengaluru",
        "addr:postcode": "560043",
        "addr:state": "Karnataka",
        "amenity": "clinic",
        "name": "Sneha Clinic",
        "source": "Local Knowledge"
      }
    },
    {
      "type": "node",
      "id": 7577248266,
      "lat": 13.0188119,
      "lon": 77.647187,
      "tags": {
        "addr:district": "Bengaluru Urban",
        "addr:full": "HRBR Layout, Banaswadi, Bengaluru",
        "addr:postcode": "560043",
        "addr:state": "Karnataka",
        "amenity": "hospital",
        "check_date": "2024-08-17",
        "name": "Anjani Women's Day Care Hospital",
        "source": "Local Knowledge"
      }
    },
    {
      "type": "node",
      "id": 7577248278,
      "lat": 13.0109537,
      "lon": 77.6476418,
      "tags": {
        "addr:district": "Bengaluru Urban",
        "addr:full": "Chikka Banaswadi, Banaswadi, Bengaluru",
        "addr:postcode": "560043",
        "addr:state": "Karnataka",
        "amenity": "hospital",
        "name": "Milaan Hospital",
        "source": "Local Knowledge"
      }
    },
    {
      "type": "node",
      "id": 7577248279,
      "lat": 13.020084,
      "lon": 77.654053,
      "tags": {
        "addr:district": "Bengaluru Urban",
        "addr:full": "Nanjappa Garden, Horamavu, Bengaluru",
        "addr:postcode": "560043",
        "addr:state": "Karnataka",
        "amenity": "hospital",
        "name": "Cloudnine Hospital",
        "source": "Local Knowledge"
      }
    },
    {
      "type": "node",
      "id": 7577248280,
      "lat": 13.0151223,
      "lon": 77.6544807,
      "tags": {
        "addr:district": "Bengaluru Urban",
        "addr:full": "Annaiah Reddy Layout, Banasawadi, Bengaluru",
        "addr:postcode": "560043",
        "addr:state": "Karnataka",
        "amenity": "dentist",
        "name": "Dr. Anil's Dental Clinic",
        "source": "Local Knowledge"
      }
    },
    {
      "type": "node",
      "id": 7577248281,
      "lat": 13.0112923,
      "lon": 77.6573558,
      "tags": {
        "addr:district": "Bengaluru Urban",
        "addr:full": "Bhuvanagiri, OMBR Layout, Banaswadi, Bengaluru",
        "addr:postcode": "560043",
        "addr:state": "Karnataka",
        "amenity": "clinic",
        "name": "Shanthi Women's Healthcare Centre",
        "source": "Local Knowledge"
      }
    },
    {
      "type": "node",
      "id": 9271698481,
      "lat": 13.0131524,
      "lon": 77.6483783,
      "tags": {
        "beauty": "nails",
        "name": "Shaakya",
        "shop": "beauty"
      }
    },
    {
      "type": "node",
      "id": 10303904023,
      "lat": 13.0174217,
      "lon": 77.6588824,
      "tags": {
        "amenity": "place_of_worship",
        "check_date": "2023-01-04",
        "name": "Sri Veera Anjaneya Swami Temple",
        "religion": "hindu",
        "source": "survey"
      }
    },
    {
      "type": "node",
      "id": 10558850380,
      "lat": 13.0163701,
      "lon": 77.6473761,
      "tags": {
        "name": "K-Food Antenna Shop",
        "note": "Korean store",
        "shop": "supermarket"
      }
    },
    {
      "type": "node",
      "id": 10651832563,
      "lat": 13.0180125,
      "lon": 77.6525441,
      "tags": {
        "amenity": "restaurant",
        "name": "De Grand"
      }
    },
    {
      "type": "node",
      "id": 10651832568,
      "lat": 13.0178721,
      "lon": 77.6521625,
      "tags": {
        "amenity": "restaurant",
        "name": "Desi Masala"
      }
    },
    {
      "type": "node",
      "id": 10731175591,
      "lat": 13.0219409,
      "lon": 77.6477666,
      "tags": {
        "amenity": "cafe",
        "name": "Nimma Local"
      }
    },
    {
      "type": "node",
      "id": 11250389086,
      "lat": 13.0113802,
      "lon": 77.6465207,
      "tags": {
        "brand": "Snack Shop",
        "check_date": "2023-10-09",
        "description": "Sweets and Savouries",
        "name": "Sri Bharani Mixtures",
        "shop": "convenience"
      }
    },
    {
      "type": "node",
      "id": 11250389087,
      "lat": 13.0063718,
      "lon": 77.6513121,
      "tags": {
        "check_date": "2023-10-09",
        "name": "Shiva Laptops",
        "opening_hours": "10:00-20:00",
        "payment:cash": "yes",
        "payment:upi": "yes",
        "phone": "+91 78925 56897",
        "shop": "computer"
      }
    },
    {
      "type": "node",
      "id": 11575753883,
      "lat": 13.0117532,
      "lon": 77.6470108,
      "tags": {
        "name": "IFB Point",
        "shop": "electronics",
        "wheelchair": "no"
      }
    },
    {
      "type": "node",
      "id": 11575755772,
      "lat": 13.0126685,
      "lon": 77.6466543,
      "tags": {
        "amenity": "car_wash",
        "name": "Smart Car Wash",
        "wheelchair": "yes"
      }
    },
    {
      "type": "node",
      "id": 11575755773,
      "lat": 13.0127702,
      "lon": 77.6466864,
      "tags": {
        "brand": "cult.fit",
        "leisure": "fitness_centre",
        "name": "cult.fit",
        "sport": "fitness"
      }
    },
    {
      "type": "node",
      "id": 11703427677,
      "lat": 13.0175521,
      "lon": 77.6551056,
      "tags": {
        "name": "Hi Style World",
        "payment:cash": "yes",
        "payment:cheque": "yes",
        "payment:contactless": "yes",
        "shop": "furniture"
      }
    },
    {
      "type": "node",
      "id": 12178421101,
      "lat": 13.0128114,
      "lon": 77.6483893,
      "tags": {
        "amenity": "restaurant",
        "contact:instagram": "theshokudorestaurant",
        "cuisine": "asian",
        "email": "info@shokudo.in",
        "name": "Shokudo Select",
        "opening_hours": "12:00-23:00",
        "phone": "+91 7019013088",
        "website": "https://shokudo.in/"
      }
    },
    {
      "type": "node",
      "id": 12306807001,
      "lat": 13.0149167,
      "lon": 77.6568687,
      "tags": {
        "addr:postcode": "560043",
        "addr:street": "2 B Main Road",
        "name": "Imperial Dry Cleaners",
        "shop": "laundry"
      }
    },
    {
      "type": "node",
      "id": 12450551973,
      "lat": 13.0211537,
      "lon": 77.6519077,
      "tags": {
        "amenity": "cafe",
        "name": "Brewsom Coffee"
      }
    },
    {
      "type": "node",
      "id": 12538079771,
      "lat": 13.0146398,
      "lon": 77.6462474,
      "tags": {
        "amenity": "place_of_worship",
        "name": "Vision Immanuel - Bangalore Korean Community",
        "religion": "christian"
      }
    },
    {
      "type": "node",
      "id": 12538079772,
      "lat": 13.0153582,
      "lon": 77.646874,
      "tags": {
        "amenity": "cafe",
        "name": "The Lit Caffe"
      }
    },
    {
      "type": "node",
      "id": 12538079774,
      "lat": 13.0161235,
      "lon": 77.6474077,
      "tags": {
        "name": "Seela Korean Mart",
        "shop": "supermarket"
      }
    },
    {
      "type": "node",
      "id": 12638457255,
      "lat": 13.0063802,
      "lon": 77.6504432,
      "tags": {
        "amenity": "fast_food",
        "fast_food": "cafeteria",
        "name": "CMR Collage cafeteria"
      }
    },
    {
      "type": "node",
      "id": 12638457280,
      "lat": 13.0062138,
      "lon": 77.6508142,
      "tags": {
        "amenity": "conference_centre",
        "name": "CMRU Auditorium"
      }
    },
    {
      "type": "node",
      "id": 12638482899,
      "lat": 13.0062045,
      "lon": 77.6506157,
      "tags": {
        "amenity": "conference_centre",
        "name": "AV Hall"
      }
    },
    {
      "type": "node",
      "id": 12672284473,
      "lat": 13.0145341,
      "lon": 77.649062,
      "tags": {
        "amenity": "cafe",
        "check_date": "2025-03-17",
        "name": "The Coffee Brewery"
      }
    },
    {
      "type": "node",
      "id": 12672284474,
      "lat": 13.0147128,
      "lon": 77.6492186,
      "tags": {
        "amenity": "cafe",
        "check_date": "2025-03-17",
        "name": "11:11 Reserve"
      }
    },
    {
      "type": "node",
      "id": 12672284475,
      "lat": 13.0146172,
      "lon": 77.6491594,
      "tags": {
        "amenity": "restaurant",
        "check_date": "2025-03-17",
        "name": "Baileys Cafe and Restaurant"
      }
    },
    {
      "type": "node",
      "id": 12809397084,
      "lat": 13.0190566,
      "lon": 77.6515321,
      "tags": {
        "addr:housenumber": "959",
        "addr:street": "3rd Cross Road",
        "addr:suburb": "Kalyan Nagar",
        "amenity": "restaurant",
        "contact:instagram": "theindianeateryblr",
        "name": "The Indian Eatery"
      }
    },
    {
      "type": "node",
      "id": 12952263222,
      "lat": 13.0193662,
      "lon": 77.6472433,
      "tags": {
        "name": "Seven Eleven Cakes",
        "shop": "pastry"
      }
    },
    {
      "type": "node",
      "id": 12952263223,
      "lat": 13.019736,
      "lon": 77.6475142,
      "tags": {
        "amenity": "fast_food"
      }
    },
    {
      "type": "node",
      "id": 12952263230,
      "lat": 13.022118,
      "lon": 77.648854,
      "tags": {
        "amenity": "shelter",
        "shelter_type": "gazebo"
      }
    },
    {
      "type": "node",
      "id": 13013182897,
      "lat": 13.0196646,
      "lon": 77.6550064,
      "tags": {
        "addr:floor": "G",
        "amenity": "restaurant",
        "check_date": "2025-07-20",
        "level": "0",
        "name": "Manyata"
      }
    },
    {
      "type": "node",
      "id": 13065064242,
      "lat": 13.0202419,
      "lon": 77.6516186,
      "tags": {
        "amenity": "hospital",
        "healthcare": "hospital",
        "name": "Motherhood"
      }
    },
    {
      "type": "node",
      "id": 13131399191,
      "lat": 13.0124799,
      "lon": 77.6526379,
      "tags": {
        "addr:city": "Bengaluru East City Corporation",
        "addr:housenumber": "412",
        "addr:postcode": "560043",
        "addr:street": "5th Cross Road",
        "amenity": "cafe",
        "cuisine": "coffee_shop;tea",
        "internet_access": "no",
        "name": "Tea Shop",
        "opening_hours": "Mo-Su 09:00-21:00",
        "outdoor_seating": "yes"
      }
    },
    {
      "type": "way",
      "id": 46953029,
      "center": {
        "lat": 13.0115276,
        "lon": 77.6504879
      },
      "tags": {
        "amenity": "school",
        "name": "Mariam Nilaya High School"
      }
    },
    {
      "type": "way",
      "id": 160470308,
      "center": {
        "lat": 13.0129862,
        "lon": 77.6475998
      },
      "tags": {
        "building": "yes",
        "name": "Food World",
        "name:kn": "ಫುಡ್ ವರ್ಲ್ಡ್",
        "shop": "supermarket"
      }
    },
    {
      "type": "way",
      "id": 160470310,
      "center": {
        "lat": 13.0127079,
        "lon": 77.6475927
      },
      "tags": {
        "amenity": "restaurant",
        "building": "yes",
        "name": "Tamarind"
      }
    },
    {
      "type": "way",
      "id": 160470311,
      "center": {
        "lat": 13.016985,
        "lon": 77.6590561
      },
      "tags": {
        "building": "yes",
        "name": "Smart Bazaar",
        "shop": "supermarket",
        "wheelchair": "yes"
      }
    },
    {
      "type": "way",
      "id": 217937696,
      "center": {
        "lat": 13.0118753,
        "lon": 77.6591927
      },
      "tags": {
        "leisure": "park",
        "name": "Bhuvanagiri Park",
        "name:kn": "ಭುವನಗಿರಿ ಉದ್ಯಾನವನ"
      }
    },
    {
      "type": "way",
      "id": 232875109,
      "center": {
        "lat": 13.008287,
        "lon": 77.6581534
      },
      "tags": {
        "leisure": "park",
        "name": "Green View Welfare Park"
      }
    },
    {
      "type": "way",
      "id": 239547642,
      "center": {
        "lat": 13.0061592,
        "lon": 77.6507354
      },
      "tags": {
        "addr:housenumber": "CA 2",
        "addr:postcode": "560043",
        "addr:street": "3rd Cross, 6th 'A' Ma, 4th Main Road, East of NGEF Layout, Bennigana Halli",
        "amenity": "college",
        "name": "CMR College",
        "operator": "CMR University"
      }
    },
    {
      "type": "way",
      "id": 239548076,
      "center": {
        "lat": 13.0074593,
        "lon": 77.6552191
      },
      "tags": {
        "addr:street": "Channasandra Main Road, Gurijiya Gutta, Bennigana Halli",
        "amenity": "school",
        "name": "Sri Chaithanya PU college Banasawadi"
      }
    },
    {
      "type": "way",
      "id": 256948011,
      "center": {
        "lat": 13.0187259,
        "lon": 77.657214
      },
      "tags": {
        "building": "yes",
        "name": "Khivraj Motors - Bajaj",
        "shop": "motorcycle"
      }
    },
    {
      "type": "way",
      "id": 329411701,
      "center": {
        "lat": 13.0100331,
        "lon": 77.6569506
      },
      "tags": {
        "amenity": "school"
      }
    },
    {
      "type": "way",
      "id": 346521829,
      "center": {
        "lat": 13.0146094,
        "lon": 77.6464563
      },
      "tags": {
        "addr:postcode": "560043",
        "addr:street": "2nd Cross Road",
        "amenity": "hospital",
        "building:levels": "2",
        "healthcare": "hospital",
        "name": "Indicus"
      }
    },
    {
      "type": "way",
      "id": 346734769,
      "center": {
        "lat": 13.0172514,
        "lon": 77.6510526
      },
      "tags": {
        "addr:postcode": "560043",
        "addr:street": "100 Feet Road",
        "amenity": "post_office",
        "building": "yes",
        "name": "Kalyannagar post office",
        "name:en": "Kalyannagar post office",
        "name:kn": "ಕಲ್ಯಾಣನಗರ ಅಂಚೆ ಕಛೇರಿ"
      }
    },
    {
      "type": "way",
      "id": 350750824,
      "center": {
        "lat": 13.0171298,
        "lon": 77.6432944
      },
      "tags": {
        "addr:postcode": "560043,",
        "addr:street": "8th Main Road (west)",
        "amenity": "hospital",
        "check_date": "2024-09-18",
        "name": "Ovum Hospitals"
      }
    },
    {
      "type": "way",
      "id": 362934648,
      "center": {
        "lat": 13.0196335,
        "lon": 77.6516538
      },
      "tags": {
        "leisure": "park"
      }
    },
    {
      "type": "way",
      "id": 363870191,
      "center": {
        "lat": 13.0152635,
        "lon": 77.6467105
      },
      "tags": {
        "addr:postcode": "560043",
        "addr:street": "8th E Main Road",
        "amenity": "hospital",
        "healthcare": "hospital",
        "healthcare:speciality": "general",
        "name": "Sharada Medicals"
      }
    },
    {
      "type": "way",
      "id": 687216883,
      "center": {
        "lat": 13.0206384,
        "lon": 77.6513784
      },
      "tags": {
        "leisure": "park"
      }
    },
    {
      "type": "way",
      "id": 687216884,
      "center": {
        "lat": 13.0211276,
        "lon": 77.6511902
      },
      "tags": {
        "leisure": "park",
        "name": "Babusabpalya Park",
        "wheelchair": "limited"
      }
    },
    {
      "type": "way",
      "id": 726934591,
      "center": {
        "lat": 13.011171,
        "lon": 77.652372
      },
      "tags": {
        "leisure": "park"
      }
    },
    {
      "type": "way",
      "id": 726934670,
      "center": {
        "lat": 13.0120749,
        "lon": 77.6534731
      },
      "tags": {
        "leisure": "park",
        "name": "Bhuvanagiri Park",
        "name:kn": "ಭುವನಗಿರಿ ಉದ್ಯಾನವನ"
      }
    },
    {
      "type": "way",
      "id": 1132387739,
      "center": {
        "lat": 13.0179107,
        "lon": 77.6470515
      },
      "tags": {
        "addr:city": "HRBR Layout Kalyan Nagar 1 Block, Banasawadi",
        "addr:street": "3rd Cross Road",
        "amenity": "place_of_worship",
        "check_date": "2024-08-17",
        "landuse": "religious",
        "name": "Maha Ganapathi Temple",
        "name:kn": "ಮಹಾ ಗಣಪತಿ ದೇವಸ್ಥಾನ",
        "religion": "hindu"
      }
    },
    {
      "type": "way",
      "id": 1263380580,
      "center": {
        "lat": 13.0119515,
        "lon": 77.6466304
      },
      "tags": {
        "amenity": "fuel",
        "brand": "Bharat Petroleum",
        "brand:wikidata": "Q854826",
        "name": "Bharat Petroleum"
      }
    },
    {
      "type": "way",
      "id": 1266019411,
      "center": {
        "lat": 13.0178224,
        "lon": 77.6492556
      },
      "tags": {
        "amenity": "school"
      }
    },
    {
      "type": "way",
      "id": 1275463639,
      "center": {
        "lat": 13.0134636,
        "lon": 77.6497514
      },
      "tags": {
        "amenity": "fuel"
      }
    },
    {
      "type": "way",
      "id": 1275463642,
      "center": {
        "lat": 13.0153197,
        "lon": 77.6510385
      },
      "tags": {
        "amenity": "parking",
        "parking": "surface"
      }
    },
    {
      "type": "way",
      "id": 1302326936,
      "center": {
        "lat": 13.0200844,
        "lon": 77.6518588
      },
      "tags": {
        "amenity": "parking"
      }
    },
    {
      "type": "way",
      "id": 1315908933,
      "center": {
        "lat": 13.020869,
        "lon": 77.6500004
      },
      "tags": {
        "leisure": "park"
      }
    },
    {
      "type": "way",
      "id": 1315908993,
      "center": {
        "lat": 13.0186335,
        "lon": 77.6457268
      },
      "tags": {
        "leisure": "pitch"
      }
    },
    {
      "type": "way",
      "id": 1315908994,
      "center": {
        "lat": 13.0186462,
        "lon": 77.6459148
      },
      "tags": {
        "leisure": "playground"
      }
    },
    {
      "type": "way",
      "id": 1315908996,
      "center": {
        "lat": 13.0187528,
        "lon": 77.6461709
      },
      "tags": {
        "leisure": "park",
        "name": "HRBR Park"
      }
    },
    {
      "type": "way",
      "id": 1339170906,
      "center": {
        "lat": 13.0132456,
        "lon": 77.6512745
      },
      "tags": {
        "access": "private",
        "leisure": "swimming_pool"
      }
    },
    {
      "type": "way",
      "id": 1347720004,
      "center": {
        "lat": 13.0204758,
        "lon": 77.655831
      },
      "tags": {
        "access": "private",
        "leisure": "swimming_pool"
      }
    },
    {
      "type": "way",
      "id": 1364481598,
      "center": {
        "lat": 13.0095735,
        "lon": 77.6483665
      },
      "tags": {
        "addr:city": "Bangalore",
        "addr:postcode": "560043",
        "addr:street": "Banaswadi",
        "amenity": "place_of_worship",
        "check_date": "2024-09-18",
        "denomination": "catholic",
        "name": "St. Vincent Pallotti Church",
        "religion": "christian"
      }
    },
    {
      "type": "way",
      "id": 1364481599,
      "center": {
        "lat": 13.0116118,
        "lon": 77.6459969
      },
      "tags": {
        "amenity": "fire_station",
        "landuse": "commercial",
        "name": "Banaswadi Fire Station",
        "name:kn": "ಬಾಣಸವಾಡಿ ಅಗ್ನಿಶಾಮಕ ಠಾಣೆ"
      }
    },
    {
      "type": "way",
      "id": 1364481614,
      "center": {
        "lat": 13.0128418,
        "lon": 77.6428309
      },
      "tags": {
        "amenity": "fuel",
        "brand": "Bharat Petroleum",
        "brand:wikidata": "Q854826",
        "compressed_air": "yes",
        "name": "Matrushree Petrol / Gas Station",
        "operator": "Bharat Petroleum"
      }
    },
    {
      "type": "way",
      "id": 1364697717,
      "center": {
        "lat": 13.009651,
        "lon": 77.6436983
      },
      "tags": {
        "amenity": "events_venue",
        "landuse": "commercial"
      }
    },
    {
      "type": "way",
      "id": 1364736446,
      "center": {
        "lat": 13.0063417,
        "lon": 77.6506168
      },
      "tags": {
        "leisure": "playground",
        "name": "CMRU Playground & Basket ball court"
      }
    },
    {
      "type": "way",
      "id": 1366023291,
      "center": {
        "lat": 13.0087502,
        "lon": 77.6444553
      },
      "tags": {
        "amenity": "school",
        "education": "school",
        "name": "Maruthi Vidyalaya",
        "name:kn": "ಮಾರುತಿ ವಿದ್ಯಾಲಯ"
      }
    },
    {
      "type": "way",
      "id": 1366533577,
      "center": {
        "lat": 13.0097817,
        "lon": 77.6524884
      },
      "tags": {
        "amenity": "college",
        "landuse": "education",
        "name": "New Shores International College"
      }
    },
    {
      "type": "way",
      "id": 1366533609,
      "center": {
        "lat": 13.0132214,
        "lon": 77.6522959
      },
      "tags": {
        "amenity": "place_of_worship",
        "landuse": "religious",
        "name": "Banaswadi Anjaneya Temple",
        "name:kn": "ಬಾಣಸವಾಡಿ ಆಂಜನೇಯ ದೇವಸ್ಥಾನ",
        "religion": "hindu"
      }
    },
    {
      "type": "way",
      "id": 1366533813,
      "center": {
        "lat": 13.0150504,
        "lon": 77.6575403
      },
      "tags": {
        "addr:street": "Banaswadi Main Rd, Banasawadi",
        "amenity": "school",
        "name": "New Baldwins School"
      }
    },
    {
      "type": "way",
      "id": 1366744185,
      "center": {
        "lat": 13.0110872,
        "lon": 77.6463117
      },
      "tags": {
        "addr:postcode": "560043",
        "addr:street": "Banaswadi Main Road",
        "amenity": "fuel",
        "brand": "Hindustan Petroleum",
        "brand:wikidata": "Q1619375",
        "name": "HP Petrol Pump",
        "name:en": "HP Petrol Pump",
        "name:kn": "ಹಿಂದುಸ್ತಾನ್ ಪೆಟ್ರೋಲಿಯಂ",
        "official_name": "Hindustan Petroleum"
      }
    },
    {
      "type": "way",
      "id": 1366744186,
      "center": {
        "lat": 13.0107611,
        "lon": 77.6465591
      },
      "tags": {
        "leisure": "park",
        "name": "OMBR Layout Park"
      }
    },
    {
      "type": "way",
      "id": 1366744417,
      "center": {
        "lat": 13.0119693,
        "lon": 77.6515794
      },
      "tags": {
        "amenity": "place_of_worship",
        "name": "Bethel CSI Church",
        "religion": "christian"
      }
    },
    {
      "type": "way",
      "id": 1371961980,
      "center": {
        "lat": 13.0085667,
        "lon": 77.650975
      },
      "tags": {
        "addr:postcode": "560043",
        "addr:street": "B Channasandra Main Road",
        "amenity": "school",
        "name": "St. George College of Management, Science & Nursing",
        "website": "http://www.stgeorgecollege.org"
      }
    },
    {
      "type": "way",
      "id": 1410597947,
      "center": {
        "lat": 13.0144583,
        "lon": 77.6521187
      },
      "tags": {
        "amenity": "place_of_worship",
        "building": "yes",
        "religion": "hindu"
      }
    },
    {
      "type": "way",
      "id": 1410597948,
      "center": {
        "lat": 13.0103596,
        "lon": 77.644748
      },
      "tags": {
        "amenity": "marketplace",
        "landuse": "retail",
        "shop": "greengrocer"
      }
    },
    {
      "type": "way",
      "id": 1410597951,
      "center": {
        "lat": 13.0098523,
        "lon": 77.6439029
      },
      "tags": {
        "amenity": "fuel"
      }
    }
  ]
}