{
  "area_name": "Banashankari 6th Stage",
  "osm_id": 10233407655,
  "osm_type": "node",
  "place_type": "suburb",
  "amenity_count": 10,
  "amenities": [
    {
      "type": "node",
      "id": 13245148771,
      "lat": 12.8825205,
      "lon": 77.5165647,
      "tags": {
        "amenity": "restaurant",
        "name": "The Green Village Restaurant"
      }
    },
    {
      "type": "node",
      "id": 13245148776,
      "lat": 12.8847822,
      "lon": 77.5164708,
      "tags": {
        "amenity": "restaurant",
        "name": "Karishma Valley Restaurant"
      }
    },
    {
      "type": "node",
      "id": 13245148777,
      "lat": 12.8882126,
      "lon": 77.516275,
      "tags": {
        "amenity": "restaurant",
        "name": "Season 18 Lounge and Kitchen"
      }
    },
    {
      "type": "node",
      "id": 13245148778,
      "lat": 12.888414,
      "lon": 77.5162697,
      "tags": {
        "amenity": "restaurant",
        "name": "MBR Grand"
      }
    },
    {
      "type": "node",
      "id": 13245148804,
      "lat": 12.8794534,
      "lon": 77.5166962,
      "tags": {
        "amenity": "restaurant",
        "name": "Range"
      }
    },
    {
      "type": "node",
      "id": 13245148812,
      "lat": 12.8781343,
      "lon": 77.5166908,
      "tags": {
        "brand": "Nandini",
        "brand:wikidata": "Q124374212",
        "name": "Nandini",
        "shop": "dairy"
      }
    },
    {
      "type": "way",
      "id": 1302638873,
      "center": {
        "lat": 12.8781579,
        "lon": 77.5130235
      },
      "tags": {
        "amenity": "college",
        "name": "RV College of Architecture",
        "website": "https://rvca.edu.in/",
        "wheelchair": "yes"
      }
    },
    {
      "type": "way",
      "id": 1442517463,
      "center": {
        "lat": 12.8930353,
        "lon": 77.5162214
      },
      "tags": {
        "leisure": "park"
      }
    },
    {
      "type": "way",
      "id": 1442547239,
      "center": {
        "lat": 12.8793096,
        "lon": 77.5167492
      },
      "tags": {
        "amenity": "fuel",
        "brand": "Nayara",
        "brand:wikidata": "Q5399377",
        "name": "Nayara"
      }
    },
    {
      "type": "way",
      "id": 1443402179,
      "center": {
        "lat": 12.8810033,
        "lon": 77.516613
      },
      "tags": {
        "amenity": "place_of_worship",
        "building": "yes",
        "religion": "hindu"
      }
    }
  ]
}