{
  "area_name": "Bangarappa Nagara",
  "osm_id": 19884528,
  "osm_type": "relation",
  "place_type": "administrative",
  "amenity_count": 123,
  "amenities": [
    {
      "type": "node",
      "id": 841805585,
      "lat": 12.9135232,
      "lon": 77.5289628,
      "tags": {
        "amenity": "place_of_worship",
        "name": "Kumaraswamy Temple",
        "name:kn": "ಕುಮಾರಸ್ವಾಮಿ ದೇವಸ್ಥಾನ",
        "religion": "hindu"
      }
    },
    {
      "type": "node",
      "id": 1363243783,
      "lat": 12.944784,
      "lon": 77.5290622,
      "tags": {
        "addr:street": "Outer Ring Road",
        "brand": "Maruti Suzuki",
        "brand:wikidata": "Q963718",
        "name": "Kalyani Motors",
        "shop": "car"
      }
    },
    {
      "type": "node",
      "id": 1463578306,
      "lat": 12.9136589,
      "lon": 77.5244341,
      "tags": {
        "amenity": "place_of_worship",
        "name": "Kalabhairava Temple",
        "name:kn": "ಕಾಲಭೈರವ ಮಂದಿರ",
        "religion": "hindu"
      }
    },
    {
      "type": "node",
      "id": 1463578913,
      "lat": 12.9133609,
      "lon": 77.5248364,
      "tags": {
        "amenity": "place_of_worship",
        "name": "Gayatri Temple",
        "name:kn": "ಗಾಯತ್ರಿ ದೇವಸ್ಥಾನ",
        "religion": "hindu"
      }
    },
    {
      "type": "node",
      "id": 1463579863,
      "lat": 12.9141975,
      "lon": 77.5293801,
      "tags": {
        "amenity": "place_of_worship",
        "name": "Kaalikamba Temple",
        "name:kn": "ಕಾಳಿಕಾಂಬ ದೇವಸ್ಥಾನ",
        "religion": "hindu",
        "wheelchair": "no"
      }
    },
    {
      "type": "node",
      "id": 1463580356,
      "lat": 12.9126035,
      "lon": 77.5289754,
      "tags": {
        "amenity": "place_of_worship",
        "name": "Sri Shanmukha Temple",
        "name:kn": "ಶ್ರೀ ಶಣ್ಮುಖ ದೇವಸ್ಥಾನ",
        "religion": "hindu"
      }
    },
    {
      "type": "node",
      "id": 1463584104,
      "lat": 12.9125086,
      "lon": 77.5271968,
      "tags": {
        "amenity": "school",
        "name": "Swargarani"
      }
    },
    {
      "type": "node",
      "id": 1463585629,
      "lat": 12.9100406,
      "lon": 77.5281785,
      "tags": {
        "leisure": "swimming_pool"
      }
    },
    {
      "type": "node",
      "id": 1471928775,
      "lat": 12.9094182,
      "lon": 77.5274725,
      "tags": {
        "amenity": "pub",
        "name": "Sun Pub"
      }
    },
    {
      "type": "node",
      "id": 1474854791,
      "lat": 12.9443703,
      "lon": 77.5288119,
      "tags": {
        "name": "Kalyani Motors Private Limited",
        "shop": "car"
      }
    },
    {
      "type": "node",
      "id": 1474854798,
      "lat": 12.9397172,
      "lon": 77.5238766,
      "tags": {
        "amenity": "fuel",
        "brand": "Indian Oil",
        "brand:wikidata": "Q1289348",
        "brand:wikipedia": "en:Indian Oil Corporation",
        "name": "Indian Oil Petrol Pump",
        "name:kn": "ಇಂಡಿಯನ್ ಆಯಿಲ್"
      }
    },
    {
      "type": "node",
      "id": 1644443078,
      "lat": 12.9017846,
      "lon": 77.5183793,
      "tags": {
        "addr:city": "Bangalore",
        "addr:country": "IN",
        "addr:housename": "RNSIT",
        "addr:postcode": "560098",
        "addr:street": "Uttarahalli Kengeri Main Road",
        "alt_name": "RNSIT",
        "amenity": "college",
        "contact:fax": "+918028611882",
        "contact:phone": "+918028611880",
        "contact:website": "http://rnsit.ac.in/",
        "name": "RNS Institute of Technology",
        "source": "Local knowledge",
        "wikidata": "Q7277277",
        "wikipedia": "en:RNS Institute of Technology"
      }
    },
    {
      "type": "node",
      "id": 1851132705,
      "lat": 12.910612,
      "lon": 77.5288637,
      "tags": {
        "amenity": "parking_space"
      }
    },
    {
      "type": "node",
      "id": 2146315474,
      "lat": 12.9022871,
      "lon": 77.5185188,
      "tags": {
        "amenity": "bank",
        "atm": "no",
        "brand": "Canara Bank",
        "brand:pa": "ਕੇਨਰਾ ਬੈਂਕ",
        "brand:ur": "کینرا بینک",
        "brand:wikidata": "Q2003777",
        "brand:wikipedia": "en:Canara Bank",
        "brand:wikipedia:pa": "ਕੇਨਰਾ ਬੈਂਕ",
        "name": "Canara Bank",
        "name:kn": "ಕೆನರಾ ಬ್ಯಾಂಕ್",
        "name:pa": "ਕੇਨਰਾ ਬੈਂਕ",
        "name:ur": "کینرا بینک",
        "website": "https://www.canarabank.com/"
      }
    },
    {
      "type": "node",
      "id": 2146315478,
      "lat": 12.9023899,
      "lon": 77.5176413,
      "tags": {
        "amenity": "library",
        "name:kn": "ಗ್ರಂಥಾಲಯ"
      }
    },
    {
      "type": "node",
      "id": 5109210000,
      "lat": 12.9400466,
      "lon": 77.5242659,
      "tags": {
        "amenity": "bar",
        "name": "Ashwini Bar and Restaurant"
      }
    },
    {
      "type": "node",
      "id": 5109210001,
      "lat": 12.9411112,
      "lon": 77.52503,
      "tags": {
        "amenity": "atm",
        "brand": "Karnataka Bank",
        "brand:wikidata": "Q2042632",
        "operator": "Karnataka Bank",
        "operator:wikidata": "Q2042632"
      }
    },
    {
      "type": "node",
      "id": 5277512112,
      "lat": 12.9138086,
      "lon": 77.5273633,
      "tags": {
        "amenity": "hospital",
        "name": "Usha Vikranth Diagnostic Center and Hospital"
      }
    },
    {
      "type": "node",
      "id": 5406804453,
      "lat": 12.9122894,
      "lon": 77.5232541,
      "tags": {
        "access": "customers",
        "leisure": "swimming_pool",
        "name": "Best Club Pool"
      }
    },
    {
      "type": "node",
      "id": 6621696647,
      "lat": 12.9433649,
      "lon": 77.5266311,
      "tags": {
        "amenity": "atm",
        "brand": "Axis Bank",
        "brand:wikidata": "Q2003549",
        "operator": "Axis Bank",
        "operator:wikidata": "Q2003549"
      }
    },
    {
      "type": "node",
      "id": 6899554649,
      "lat": 12.9424879,
      "lon": 77.5258827,
      "tags": {
        "amenity": "pharmacy",
        "name": "Mysore Road Hi-Tech Pharma"
      }
    },
    {
      "type": "node",
      "id": 6899554650,
      "lat": 12.938738,
      "lon": 77.5230114,
      "tags": {
        "amenity": "college",
        "name": "Vidya Vikas Polytechnic"
      }
    },
    {
      "type": "node",
      "id": 7176651698,
      "lat": 12.9417677,
      "lon": 77.5258988,
      "tags": {
        "amenity": "school",
        "name": "B M Valley School"
      }
    },
    {
      "type": "node",
      "id": 8187964015,
      "lat": 12.9144145,
      "lon": 77.5208702,
      "tags": {
        "addr:city": "Bengaluru",
        "addr:full": "Site No 188, 4th Stage, Halagevadarahalli Layout, Nxt to Smart Outlet, IV Stage 3 Block, 4th Stage, RR Nagar, Bengaluru, Karnataka",
        "addr:postcode": "560098",
        "addr:state": "Karnataka",
        "amenity": "bank",
        "atm": "yes",
        "brand": "HDFC Bank",
        "brand:wikidata": "Q631047",
        "brand:wikipedia": "en:HDFC Bank",
        "drive_through": "no",
        "name": "HDFC Bank",
        "name:kn": "ಎಚ್ ಡಿ ಎಫ್ ಸಿ",
        "website": "https://www.hdfcbank.com/"
      }
    },
    {
      "type": "node",
      "id": 8282341342,
      "lat": 12.9143782,
      "lon": 77.5210809,
      "tags": {
        "addr:city": "Bengaluru",
        "addr:postcode": "560098",
        "addr:street": "1st Main Rd, IV Stage 3 Block, 4th Stage, RR Nagar",
        "amenity": "post_office",
        "name": "Rajarajeshwari Nagar Post Office",
        "name:kn": "ಅಂಚೆ ಕಛೇರಿ"
      }
    },
    {
      "type": "node",
      "id": 8282374864,
      "lat": 12.9130094,
      "lon": 77.5210675,
      "tags": {
        "amenity": "bank",
        "atm": "yes",
        "brand": "State Bank of India",
        "brand:wikidata": "Q1340361",
        "brand:wikipedia": "en:State Bank of India",
        "name": "State Bank of India"
      }
    },
    {
      "type": "node",
      "id": 10567529770,
      "lat": 12.9331955,
      "lon": 77.5261218,
      "tags": {
        "access": "yes",
        "amenity": "toilets",
        "fee": "no",
        "female": "yes",
        "male": "yes",
        "name": "Community Toilet",
        "opening_hours": "24/7",
        "operator": "ಬೃಹತ್ ಬೆಂಗಳೂರು ಮಹಾನಗರ ಪಾಲಿಕೆ",
        "operator:en": "Bruhat Bengaluru Mahanagara Palike",
        "operator:ka": "ಬೃಹತ್ ಬೆಂಗಳೂರು ಮಹಾನಗರ ಪಾಲಿಕೆ",
        "operator:short": "BBMP",
        "operator:wikidata": "Q4978693",
        "toilets:disposal": "flush",
        "wheelchair": "yes"
      }
    },
    {
      "type": "node",
      "id": 10957841079,
      "lat": 12.9404174,
      "lon": 77.525115,
      "tags": {
        "amenity": "cinema",
        "brand": "PVR Cinemas",
        "brand:wikidata": "Q3359908",
        "building:floor": "4",
        "name": "PVR Cinemas",
        "screen": "7",
        "short_name": "PVR"
      }
    },
    {
      "type": "node",
      "id": 10957841080,
      "lat": 12.9403965,
      "lon": 77.5254154,
      "tags": {
        "amenity": "fast_food",
        "brand": "Subway",
        "brand:wikidata": "Q244457",
        "building:floor": "3",
        "cuisine": "sandwich",
        "drive_through": "no",
        "name": "Subway",
        "takeaway": "yes"
      }
    },
    {
      "type": "node",
      "id": 10957841081,
      "lat": 12.9401822,
      "lon": 77.5253256,
      "tags": {
        "amenity": "fast_food",
        "brand": "Burger King",
        "brand:wikidata": "Q177054",
        "building:floor": "3",
        "cuisine": "burger",
        "drive_through": "no",
        "name": "Burger King",
        "opening_hours": "Mo-Su 11:00-23:00",
        "takeaway": "yes"
      }
    },
    {
      "type": "node",
      "id": 10957841082,
      "lat": 12.9402744,
      "lon": 77.5253631,
      "tags": {
        "amenity": "restaurant",
        "brand": "Pizza Hut",
        "brand:wikidata": "Q191615",
        "building:floor": "3",
        "cuisine": "pizza",
        "name": "Pizza Hut",
        "opening_hours": "Mo-Su 11:00-23:00",
        "takeaway": "yes"
      }
    },
    {
      "type": "node",
      "id": 11300154559,
      "lat": 12.9403206,
      "lon": 77.5253838,
      "tags": {
        "alt_name": "Kentucky Fried Chicken",
        "alt_name:en": "Kentucky Fried Chicken",
        "alt_name:hi": "केंटुकी फ्राइड चिकन",
        "alt_name:pa": "ਕੈਂਟੁਕੀ ਫ੍ਰਾਈਡ ਚਿਕਨ",
        "alt_name:pnb": "کینٹکی فرائیڈ چکن",
        "alt_name:ur": "کینٹکی فرائیڈ چکن",
        "amenity": "fast_food",
        "brand": "KFC",
        "brand:en": "KFC",
        "brand:hi": "केएफसी",
        "brand:pa": "ਕੇਐਫਸੀ",
        "brand:pnb": "کے ایف سی",
        "brand:ur": "کے ایف سی",
        "brand:wikidata": "Q524757",
        "building:floor": "3",
        "cuisine": "chicken",
        "drive_through": "no",
        "name": "KFC",
        "name:en": "KFC",
        "name:hi": "केएफसी",
        "name:pa": "ਕੇਐਫਸੀ",
        "name:pnb": "کے ایف سی",
        "name:ur": "کے ایف سی",
        "opening_hours": "Mo-Su 11:00-23:00",
        "takeaway": "yes"
      }
    },
    {
      "type": "node",
      "id": 11300154560,
      "lat": 12.9404349,
      "lon": 77.5254297,
      "tags": {
        "amenity": "fast_food",
        "building:floor": "3",
        "drive_through": "no",
        "name": "MBA Chatwaala",
        "opening_hours": "Mo-Sa 12:00-22:00; Su 12:00-22:30"
      }
    },
    {
      "type": "node",
      "id": 11300154561,
      "lat": 12.9402277,
      "lon": 77.5253419,
      "tags": {
        "amenity": "fast_food",
        "building:floor": "3",
        "cuisine": "south_indian;indian",
        "diet:vegetarian": "yes",
        "drive_through": "no",
        "name": "Shivsagar Restaurant",
        "opening_hours": "Mo-Su 07:30-23:00"
      }
    },
    {
      "type": "node",
      "id": 11300154562,
      "lat": 12.9401276,
      "lon": 77.5253013,
      "tags": {
        "amenity": "ice_cream",
        "building:floor": "3",
        "name": "Dock Frost'd",
        "opening_hours": "Mo-Su 11:00-23:00"
      }
    },
    {
      "type": "node",
      "id": 11300154563,
      "lat": 12.9404593,
      "lon": 77.5253435,
      "tags": {
        "amenity": "fast_food",
        "brand": "Wow! Momo",
        "brand:wikidata": "Q8037446",
        "building:floor": "3",
        "cuisine": "momo",
        "name": "Wow! Momo",
        "opening_hours": "Mo-Su 11:00-23:00",
        "takeaway": "yes"
      }
    },
    {
      "type": "node",
      "id": 11300154564,
      "lat": 12.9403644,
      "lon": 77.5253986,
      "tags": {
        "amenity": "fast_food",
        "building:floor": "3",
        "cuisine": "indian",
        "diet:non-vegetarian": "yes",
        "drive_through": "no",
        "name": "Charminar"
      }
    },
    {
      "type": "node",
      "id": 11300154565,
      "lat": 12.9401567,
      "lon": 77.5252131,
      "tags": {
        "amenity": "fast_food",
        "building:floor": "3",
        "cuisine": "juice",
        "drive_through": "no",
        "name": "Squeez juice bar"
      }
    },
    {
      "type": "node",
      "id": 11300154566,
      "lat": 12.9402157,
      "lon": 77.525289,
      "tags": {
        "brand": "Cromā",
        "brand:wikidata": "Q5187683",
        "building:floor": "1",
        "name": "Cromā",
        "opening_hours": "Mo-Su 10:30-22:00",
        "shop": "electronics"
      }
    },
    {
      "type": "node",
      "id": 11300154567,
      "lat": 12.9403808,
      "lon": 77.5253327,
      "tags": {
        "name": "Westside",
        "opening_hours": "Mo-Su 10:00-22:00",
        "shop": "clothes"
      }
    },
    {
      "type": "node",
      "id": 11300209370,
      "lat": 12.9404757,
      "lon": 77.5252607,
      "tags": {
        "building:floor": "1",
        "name": "Srinidhi Silks",
        "opening_hours": "Mo-Su 11:00-20:00",
        "shop": "clothes"
      }
    },
    {
      "type": "node",
      "id": 11300209371,
      "lat": 12.9401829,
      "lon": 77.5251434,
      "tags": {
        "building:floor": "1",
        "name": "Celebrate Life Family Salon",
        "opening_hours": "Mo-Su 10:00-21:00",
        "shop": "hairdresser"
      }
    },
    {
      "type": "node",
      "id": 11306481636,
      "lat": 12.929597,
      "lon": 77.5343709,
      "tags": {
        "amenity": "school",
        "check_date": "2023-11-02",
        "name": "Sharada Shri Public School"
      }
    },
    {
      "type": "node",
      "id": 11773440460,
      "lat": 12.9400091,
      "lon": 77.5249963,
      "tags": {
        "access": "permissive",
        "amenity": "parking_entrance",
        "parking": "underground"
      }
    },
    {
      "type": "node",
      "id": 11968173027,
      "lat": 12.8982949,
      "lon": 77.5222983,
      "tags": {
        "addr:city": "Bengaluru",
        "addr:district": "Bengaluru",
        "addr:postcode": "560098",
        "addr:street": "Channasandra",
        "name": "Cake Ninja",
        "opening_hours": "Mo-Su 09:00-21:00",
        "payment:cash": "yes",
        "payment:contactless": "yes",
        "payment:google_pay": "yes",
        "phone": "+91-8867259465",
        "shop": "bakery"
      }
    },
    {
      "type": "node",
      "id": 12051383426,
      "lat": 12.9092956,
      "lon": 77.5275152,
      "tags": {
        "amenity": "cafe",
        "check_date": "2024-07-13",
        "name": "Secrets Of Bengaluru",
        "payment:cash": "yes",
        "payment:credit_cards": "yes",
        "payment:debit_cards": "yes",
        "wheelchair": "no"
      }
    },
    {
      "type": "node",
      "id": 12343480340,
      "lat": 12.9403258,
      "lon": 77.5247379,
      "tags": {
        "addr:floor": "G",
        "amenity": "cafe",
        "brand": "Starbucks",
        "brand:wikidata": "Q37158",
        "check_date": "2024-11-15",
        "cuisine": "coffee_shop",
        "level": "0",
        "name": "Starbucks",
        "official_name": "Starbucks Coffee",
        "takeaway": "yes"
      }
    },
    {
      "type": "node",
      "id": 12343542704,
      "lat": 12.9403258,
      "lon": 77.5247379,
      "tags": {
        "addr:floor": "G",
        "amenity": "cafe",
        "brand": "Starbucks",
        "brand:wikidata": "Q37158",
        "check_date": "2024-11-15",
        "cuisine": "coffee_shop",
        "level": "0",
        "name": "Starbucks",
        "official_name": "Starbucks Coffee",
        "takeaway": "yes"
      }
    },
    {
      "type": "node",
      "id": 12345190706,
      "lat": 12.9403258,
      "lon": 77.5247379,
      "tags": {
        "addr:floor": "G",
        "amenity": "cafe",
        "brand": "Starbucks",
        "brand:wikidata": "Q37158",
        "check_date": "2024-11-15",
        "cuisine": "coffee_shop",
        "level": "0",
        "name": "Starbucks",
        "official_name": "Starbucks Coffee",
        "takeaway": "yes"
      }
    },
    {
      "type": "node",
      "id": 12539064793,
      "lat": 12.9132031,
      "lon": 77.5209553,
      "tags": {
        "addr:city": "Bengaluru",
        "addr:housenumber": "196",
        "addr:postcode": "560098",
        "addr:street": "BEML Layout, IV Stage 3 Block, 4th Stage, Rajarajeshwari Nagar",
        "name": "Shopping City Hypermarket",
        "shop": "supermarket"
      }
    },
    {
      "type": "node",
      "id": 13127367968,
      "lat": 12.9296878,
      "lon": 77.5209957,
      "tags": {
        "amenity": "shelter",
        "shelter_type": "gazebo"
      }
    },
    {
      "type": "node",
      "id": 13127367969,
      "lat": 12.929544,
      "lon": 77.5213525,
      "tags": {
        "amenity": "shelter",
        "shelter_type": "gazebo"
      }
    },
    {
      "type": "way",
      "id": 173050863,
      "center": {
        "lat": 12.9125511,
        "lon": 77.5229814
      },
      "tags": {
        "leisure": "track",
        "name": "BEML Club",
        "sport": "athletics"
      }
    },
    {
      "type": "way",
      "id": 204638927,
      "center": {
        "lat": 12.9021129,
        "lon": 77.5190255
      },
      "tags": {
        "air_conditioning": "no",
        "amenity": "bank",
        "atm": "yes",
        "brand": "Canara Bank",
        "brand:en": "Canara Bank",
        "brand:hi": "केनरा बैंक",
        "brand:kn": "ಕೆನರಾ ಬ್ಯಾಂಕ್",
        "brand:pa": "ਕੇਨਰਾ ਬੈਂਕ",
        "brand:pnb": "کینرا بینک",
        "brand:ur": "کینرا بینک",
        "brand:wikidata": "Q2003777",
        "building": "yes",
        "drive_through": "no",
        "name": "Canara Bank",
        "name:en": "Canara Bank",
        "name:hi": "केनरा बैंक",
        "name:kn": "ಕೆನರಾ ಬ್ಯಾಂಕ್",
        "name:pa": "ਕੇਨਰਾ ਬੈਂਕ",
        "name:pnb": "کینرا بینک",
        "name:ur": "کینرا بینک",
        "opening_hours": "24/7"
      }
    },
    {
      "type": "way",
      "id": 204638928,
      "center": {
        "lat": 12.9022437,
        "lon": 77.5194137
      },
      "tags": {
        "amenity": "food_court",
        "building": "yes",
        "internet_access": "no",
        "name": "Canteen",
        "opening_hours": "Mo-Sat 08:00 to 16:00"
      }
    },
    {
      "type": "way",
      "id": 204638933,
      "center": {
        "lat": 12.9020125,
        "lon": 77.518
      },
      "tags": {
        "amenity": "fountain",
        "drinking_water": "no",
        "fountain": "decorative",
        "lit": "no",
        "name": "Fountain"
      }
    },
    {
      "type": "way",
      "id": 204638938,
      "center": {
        "lat": 12.9000202,
        "lon": 77.5183332
      },
      "tags": {
        "amenity": "place_of_worship",
        "building": "yes",
        "denomination": "shaivist",
        "name": "Shiva Temple",
        "name:kn": "ಶಿವ ದೇವಸ್ಥಾನ",
        "religion": "hindu"
      }
    },
    {
      "type": "way",
      "id": 204638939,
      "center": {
        "lat": 12.9025379,
        "lon": 77.518397
      },
      "tags": {
        "amenity": "toilets",
        "fee": "no",
        "female": "yes",
        "male": "yes",
        "name:kn": "ಶೌಚಾಲಯ"
      }
    },
    {
      "type": "way",
      "id": 204638940,
      "center": {
        "lat": 12.902123,
        "lon": 77.5185521
      },
      "tags": {
        "amenity": "theatre"
      }
    },
    {
      "type": "way",
      "id": 204638954,
      "center": {
        "lat": 12.9019814,
        "lon": 77.5194891
      },
      "tags": {
        "amenity": "parking"
      }
    },
    {
      "type": "way",
      "id": 204638955,
      "center": {
        "lat": 12.9019634,
        "lon": 77.5195466
      },
      "tags": {
        "amenity": "parking"
      }
    },
    {
      "type": "way",
      "id": 347417614,
      "center": {
        "lat": 12.926744,
        "lon": 77.5265184
      },
      "tags": {
        "leisure": "garden"
      }
    },
    {
      "type": "way",
      "id": 348121410,
      "center": {
        "lat": 12.9137835,
        "lon": 77.5209062
      },
      "tags": {
        "addr:city": "Bengaluru",
        "addr:district": "Bangalore",
        "addr:housenumber": "193",
        "addr:postcode": "560098",
        "addr:street": "Jawaharlal Nehru Road",
        "amenity": "cafe",
        "building": "amenity",
        "cuisine": "sandwich;chinese;italian;indian;mexican",
        "name": "Board 4 Bored",
        "website": "Board4Bored.in"
      }
    },
    {
      "type": "way",
      "id": 348866051,
      "center": {
        "lat": 12.9353345,
        "lon": 77.5329892
      },
      "tags": {
        "addr:city": "Bengaluru",
        "addr:district": "Bengaluru Urban",
        "addr:postcode": "560083",
        "amenity": "cafe",
        "building": "yes",
        "cuisine": "italian",
        "name": "Cafe Down The Alley",
        "outdoor_seating": "no"
      }
    },
    {
      "type": "way",
      "id": 362914141,
      "center": {
        "lat": 12.9295564,
        "lon": 77.5212498
      },
      "tags": {
        "leisure": "park",
        "name": "Siddalingaiah Park"
      }
    },
    {
      "type": "way",
      "id": 401829358,
      "center": {
        "lat": 12.9237378,
        "lon": 77.5233068
      },
      "tags": {
        "amenity": "school",
        "name": "National Hill View Public School"
      }
    },
    {
      "type": "way",
      "id": 687910163,
      "center": {
        "lat": 12.9354597,
        "lon": 77.532337
      },
      "tags": {
        "amenity": "parking",
        "operator": "PES Student Parking Lot"
      }
    },
    {
      "type": "way",
      "id": 687910164,
      "center": {
        "lat": 12.9353047,
        "lon": 77.531819
      },
      "tags": {
        "leisure": "pitch",
        "name": "Cricket Pitches",
        "name:kn": "ಕ್ರಿಕೆಟ್ ಆಟದ ಮೈದಾನ"
      }
    },
    {
      "type": "way",
      "id": 687911440,
      "center": {
        "lat": 12.9348535,
        "lon": 77.5321405
      },
      "tags": {
        "amenity": "university",
        "name": "PES University",
        "name:kn": "ಪಿಇಎಸ್ ವಿಶ್ವವಿದ್ಯಾಲಯ"
      }
    },
    {
      "type": "way",
      "id": 721685566,
      "center": {
        "lat": 12.9320622,
        "lon": 77.5275863
      },
      "tags": {
        "amenity": "community_centre",
        "landuse": "commercial",
        "name": "V Legacy"
      }
    },
    {
      "type": "way",
      "id": 729214166,
      "center": {
        "lat": 12.9411567,
        "lon": 77.5308904
      },
      "tags": {
        "amenity": "events_venue",
        "landuse": "commercial",
        "name": "Nandi Link Grounds"
      }
    },
    {
      "type": "way",
      "id": 729214178,
      "center": {
        "lat": 12.9307746,
        "lon": 77.5208241
      },
      "tags": {
        "leisure": "pitch",
        "sport": "tennis"
      }
    },
    {
      "type": "way",
      "id": 729214179,
      "center": {
        "lat": 12.9312491,
        "lon": 77.5213766
      },
      "tags": {
        "leisure": "pitch",
        "sport": "tennis"
      }
    },
    {
      "type": "way",
      "id": 729214180,
      "center": {
        "lat": 12.9314851,
        "lon": 77.5219687
      },
      "tags": {
        "leisure": "swimming_pool"
      }
    },
    {
      "type": "way",
      "id": 734149443,
      "center": {
        "lat": 12.9403168,
        "lon": 77.5250986
      },
      "tags": {
        "building": "retail",
        "building:levels": "4",
        "shop": "mall"
      }
    },
    {
      "type": "way",
      "id": 736950242,
      "center": {
        "lat": 12.9287127,
        "lon": 77.5291
      },
      "tags": {
        "amenity": "school",
        "name": "National Hill View Public School"
      }
    },
    {
      "type": "way",
      "id": 766650745,
      "center": {
        "lat": 12.9272671,
        "lon": 77.5262224
      },
      "tags": {
        "amenity": "college",
        "name": "Global Academy of Technology"
      }
    },
    {
      "type": "way",
      "id": 768703804,
      "center": {
        "lat": 12.9393941,
        "lon": 77.5271146
      },
      "tags": {
        "leisure": "pitch",
        "sport": "tennis"
      }
    },
    {
      "type": "way",
      "id": 768703805,
      "center": {
        "lat": 12.9392375,
        "lon": 77.5265431
      },
      "tags": {
        "access": "private",
        "leisure": "swimming_pool"
      }
    },
    {
      "type": "way",
      "id": 768703807,
      "center": {
        "lat": 12.94023,
        "lon": 77.5267511
      },
      "tags": {
        "leisure": "garden"
      }
    },
    {
      "type": "way",
      "id": 946132235,
      "center": {
        "lat": 12.9395614,
        "lon": 77.5261861
      },
      "tags": {
        "leisure": "park"
      }
    },
    {
      "type": "way",
      "id": 946132236,
      "center": {
        "lat": 12.9398018,
        "lon": 77.5274279
      },
      "tags": {
        "leisure": "pitch",
        "sport": "tennis"
      }
    },
    {
      "type": "way",
      "id": 946132237,
      "center": {
        "lat": 12.939873,
        "lon": 77.5272588
      },
      "tags": {
        "leisure": "pitch",
        "sport": "basketball"
      }
    },
    {
      "type": "way",
      "id": 946132245,
      "center": {
        "lat": 12.9412206,
        "lon": 77.5264552
      },
      "tags": {
        "leisure": "swimming_pool"
      }
    },
    {
      "type": "way",
      "id": 946132246,
      "center": {
        "lat": 12.9409884,
        "lon": 77.526448
      },
      "tags": {
        "leisure": "park"
      }
    },
    {
      "type": "way",
      "id": 1120154292,
      "center": {
        "lat": 12.9007364,
        "lon": 77.5173828
      },
      "tags": {
        "addr:city": "Bangalore",
        "addr:country": "IN",
        "addr:housename": "RNSIT",
        "addr:postcode": "560098",
        "addr:street": "Uttarahalli Kengeri Main Road",
        "alt_name": "RNSIT",
        "amenity": "college",
        "contact:fax": "+918028611882",
        "contact:phone": "+918028611880",
        "contact:website": "http://rnsit.ac.in/",
        "name": "RNS Institute of Technology",
        "source": "Local knowledge",
        "wikidata": "Q7277277",
        "wikipedia": "en:RNS Institute of Technology"
      }
    },
    {
      "type": "way",
      "id": 1182315647,
      "center": {
        "lat": 12.9195053,
        "lon": 77.5383509
      },
      "tags": {
        "amenity": "community_centre",
        "landuse": "commercial",
        "name": "Aditya Kalyana Mantapa"
      }
    },
    {
      "type": "way",
      "id": 1182315656,
      "center": {
        "lat": 12.9264187,
        "lon": 77.5216783
      },
      "tags": {
        "amenity": "hospital",
        "name": "SS Sparsh Hospital"
      }
    },
    {
      "type": "way",
      "id": 1182315665,
      "center": {
        "lat": 12.93463,
        "lon": 77.533221
      },
      "tags": {
        "leisure": "pitch",
        "name": "Football Ground",
        "name:kn": "ಫುಟ್ಬಾಲ್ ಆಟದ ಮೈದಾನ",
        "sport": "soccer"
      }
    },
    {
      "type": "way",
      "id": 1219767953,
      "center": {
        "lat": 12.9391869,
        "lon": 77.5265887
      },
      "tags": {
        "amenity": "community_centre",
        "building": "yes",
        "club": "yes",
        "name": "Salarpuria Sattva Divinity Clubhouse"
      }
    },
    {
      "type": "way",
      "id": 1224937859,
      "center": {
        "lat": 12.9005302,
        "lon": 77.517894
      },
      "tags": {
        "amenity": "conference_centre",
        "building": "yes",
        "internet_access": "yes",
        "internet_access:fee": "no",
        "name": "RNSIT auditorium"
      }
    },
    {
      "type": "way",
      "id": 1224941277,
      "center": {
        "lat": 12.9020111,
        "lon": 77.519312
      },
      "tags": {
        "access": "students",
        "hoops": "2",
        "leisure": "pitch",
        "lit": "no",
        "name": "Basketball Court",
        "name:kn": "ಬಾಸ್ಕೆಟ್ ಬಾಲ್",
        "sport": "basketball",
        "surface": "paved"
      }
    },
    {
      "type": "way",
      "id": 1265721096,
      "center": {
        "lat": 12.9415122,
        "lon": 77.5254268
      },
      "tags": {
        "access": "yes",
        "amenity": "parking",
        "fee": "yes",
        "name": "Nayandahalli Metro Station Parking",
        "operator": "BMRCL",
        "parking": "surface"
      }
    },
    {
      "type": "way",
      "id": 1265721109,
      "center": {
        "lat": 12.9312596,
        "lon": 77.52128
      },
      "tags": {
        "leisure": "park"
      }
    },
    {
      "type": "way",
      "id": 1265721110,
      "center": {
        "lat": 12.9303518,
        "lon": 77.5209496
      },
      "tags": {
        "leisure": "sports_centre",
        "name": "Sky Sports Arena"
      }
    },
    {
      "type": "way",
      "id": 1265721210,
      "center": {
        "lat": 12.9360657,
        "lon": 77.5188012
      },
      "tags": {
        "access": "yes",
        "amenity": "motorcycle_parking",
        "capacity": "100",
        "fee": "yes",
        "name": "Rajarajeshwari Nagar Metro Station Parking",
        "operator": "BMRCL",
        "parking": "surface"
      }
    },
    {
      "type": "way",
      "id": 1265721214,
      "center": {
        "lat": 12.9381836,
        "lon": 77.5222149
      },
      "tags": {
        "amenity": "fuel",
        "brand": "Indian Oil",
        "brand:wikidata": "Q1289348",
        "brand:wikipedia": "en:Indian Oil Corporation",
        "name": "Indian Oil",
        "name:kn": "ಇಂಡಿಯನ್ ಆಯಿಲ್",
        "operator": "Indian Oil"
      }
    },
    {
      "type": "way",
      "id": 1287589789,
      "center": {
        "lat": 12.9317173,
        "lon": 77.5320307
      },
      "tags": {
        "amenity": "parking",
        "parking": "surface"
      }
    },
    {
      "type": "way",
      "id": 1329553338,
      "center": {
        "lat": 12.9015561,
        "lon": 77.5134393
      },
      "tags": {
        "leisure": "park"
      }
    },
    {
      "type": "way",
      "id": 1329553364,
      "center": {
        "lat": 12.9079151,
        "lon": 77.5251633
      },
      "tags": {
        "amenity": "school"
      }
    },
    {
      "type": "way",
      "id": 1329553365,
      "center": {
        "lat": 12.9099158,
        "lon": 77.5239548
      },
      "tags": {
        "leisure": "park"
      }
    },
    {
      "type": "way",
      "id": 1329553366,
      "center": {
        "lat": 12.9128335,
        "lon": 77.5241356
      },
      "tags": {
        "leisure": "park"
      }
    },
    {
      "type": "way",
      "id": 1329553368,
      "center": {
        "lat": 12.9131802,
        "lon": 77.5241406
      },
      "tags": {
        "leisure": "park"
      }
    },
    {
      "type": "way",
      "id": 1329553369,
      "center": {
        "lat": 12.9135289,
        "lon": 77.5241779
      },
      "tags": {
        "leisure": "park"
      }
    },
    {
      "type": "way",
      "id": 1329553370,
      "center": {
        "lat": 12.9140204,
        "lon": 77.5241895
      },
      "tags": {
        "leisure": "park"
      }
    },
    {
      "type": "way",
      "id": 1329553371,
      "center": {
        "lat": 12.912038,
        "lon": 77.5240965
      },
      "tags": {
        "leisure": "park"
      }
    },
    {
      "type": "way",
      "id": 1329553372,
      "center": {
        "lat": 12.9066937,
        "lon": 77.5217239
      },
      "tags": {
        "amenity": "bus_station",
        "landuse": "garages"
      }
    },
    {
      "type": "way",
      "id": 1363986204,
      "center": {
        "lat": 12.9099916,
        "lon": 77.5283423
      },
      "tags": {
        "leisure": "resort",
        "name": "Shakthi Hill Resorts"
      }
    },
    {
      "type": "way",
      "id": 1363986258,
      "center": {
        "lat": 12.9283177,
        "lon": 77.529625
      },
      "tags": {
        "leisure": "park"
      }
    },
    {
      "type": "way",
      "id": 1363986274,
      "center": {
        "lat": 12.9334026,
        "lon": 77.5273969
      },
      "tags": {
        "leisure": "park"
      }
    },
    {
      "type": "way",
      "id": 1363986279,
      "center": {
        "lat": 12.9371611,
        "lon": 77.5306442
      },
      "tags": {
        "leisure": "sports_centre",
        "name": "Pase Sports Arena"
      }
    },
    {
      "type": "way",
      "id": 1427896139,
      "center": {
        "lat": 12.930829,
        "lon": 77.5212748
      },
      "tags": {
        "leisure": "pitch",
        "sport": "tennis"
      }
    },
    {
      "type": "way",
      "id": 1427923145,
      "center": {
        "lat": 12.9257312,
        "lon": 77.5262355
      },
      "tags": {
        "leisure": "pitch"
      }
    },
    {
      "type": "way",
      "id": 1427923146,
      "center": {
        "lat": 12.9257489,
        "lon": 77.526462
      },
      "tags": {
        "leisure": "pitch",
        "sport": "basketball"
      }
    },
    {
      "type": "way",
      "id": 1427923323,
      "center": {
        "lat": 12.9298852,
        "lon": 77.5226436
      },
      "tags": {
        "amenity": "school",
        "landuse": "education",
        "name": "Ashwini School"
      }
    },
    {
      "type": "way",
      "id": 1427923338,
      "center": {
        "lat": 12.9296392,
        "lon": 77.5211662
      },
      "tags": {
        "leisure": "playground"
      }
    },
    {
      "type": "way",
      "id": 1427963609,
      "center": {
        "lat": 12.9318419,
        "lon": 77.5222202
      },
      "tags": {
        "amenity": "theatre",
        "theatre:type": "amphi"
      }
    },
    {
      "type": "way",
      "id": 1443180034,
      "center": {
        "lat": 12.9443785,
        "lon": 77.5294528
      },
      "tags": {
        "amenity": "fuel"
      }
    },
    {
      "type": "way",
      "id": 1443180035,
      "center": {
        "lat": 12.9441243,
        "lon": 77.5295546
      },
      "tags": {
        "amenity": "fuel",
        "brand": "Hindustan Petroleum",
        "brand:wikidata": "Q1619375",
        "brand:wikipedia": "en:Hindustan Petroleum",
        "name": "HP",
        "official_name": "Hindustan Petroleum"
      }
    },
    {
      "type": "way",
      "id": 1444464468,
      "center": {
        "lat": 12.9273447,
        "lon": 77.5264765
      },
      "tags": {
        "leisure": "garden"
      }
    },
    {
      "type": "way",
      "id": 1444464470,
      "center": {
        "lat": 12.9248664,
        "lon": 77.5264547
      },
      "tags": {
        "access": "permissive",
        "amenity": "parking",
        "parking": "surface"
      }
    },
    {
      "type": "way",
      "id": 1444464471,
      "center": {
        "lat": 12.9245252,
        "lon": 77.5260847
      },
      "tags": {
        "access": "permissive",
        "amenity": "parking",
        "parking": "surface"
      }
    },
    {
      "type": "way",
      "id": 1449386785,
      "center": {
        "lat": 12.9366071,
        "lon": 77.5302506
      },
      "tags": {
        "leisure": "pitch",
        "sport": "soccer"
      }
    }
  ]
}