{
  "area_name": "Basavanagudi",
  "osm_id": 429937956,
  "osm_type": "node",
  "place_type": "suburb",
  "amenity_count": 475,
  "amenities": [
    {
      "type": "node",
      "id": 303938132,
      "lat": 12.9365895,
      "lon": 77.5804447,
      "tags": {
        "addr:street": "Elephant Cave Road",
        "amenity": "fuel",
        "brand": "Bharat Petroleum",
        "brand:wikidata": "Q854826",
        "name": "Bharat Petroleum",
        "name:kn": "ಭಾರತ್ ಪೆಟ್ರೋಲಿಯಂ",
        "operator": "Bharat Petroleum"
      }
    },
    {
      "type": "node",
      "id": 582384953,
      "lat": 12.9376734,
      "lon": 77.5802836,
      "tags": {
        "addr:district": "Bengaluru Urban",
        "addr:full": "202, R.V.Road",
        "addr:postcode": "560001",
        "addr:state": "Karnataka",
        "addr:street": "Rashtriya Vidyalaya Road",
        "amenity": "hospital",
        "email": "info@Bengaluruhospital.co.in",
        "healthcare": "hospital",
        "name": "Bengaluru Hospital, Susruta Medical Aid AndResearch Home Limited",
        "name:kn": "ಬೆಂಗಳೂರು ಆಸ್ಪತ್ರೆ",
        "operator:type": "private",
        "source": "OpenGovernmentData",
        "website": "http://dpal.kar.nic.in/Kanunu%20padakosha%20PDF%20Files/Recognised%20Hospitals.pdf"
      }
    },
    {
      "type": "node",
      "id": 676872647,
      "lat": 12.9478734,
      "lon": 77.580172,
      "tags": {
        "amenity": "toilets",
        "check_date": "2022-08-11",
        "fee": "yes",
        "wheelchair": "no"
      }
    },
    {
      "type": "node",
      "id": 683352653,
      "lat": 12.9484631,
      "lon": 77.5798653,
      "tags": {
        "amenity": "atm",
        "brand": "Citibank",
        "brand:wikidata": "Q857063",
        "name": "Citibank",
        "name:kn": "ಸಿಟಿಬ್ಯಾಂಕ್",
        "operator": "Citibank",
        "operator:wikidata": "Q857063",
        "short_name": "Citi",
        "wheelchair": "no"
      }
    },
    {
      "type": "node",
      "id": 762086049,
      "lat": 12.9489556,
      "lon": 77.5762549,
      "tags": {
        "amenity": "public_building",
        "name": "Kanyaka Parameshwari Nilaya"
      }
    },
    {
      "type": "node",
      "id": 1015924313,
      "lat": 12.9387689,
      "lon": 77.5841184,
      "tags": {
        "amenity": "school",
        "name": "Community English High School"
      }
    },
    {
      "type": "node",
      "id": 1018894416,
      "lat": 12.9355883,
      "lon": 77.5808383,
      "tags": {
        "addr:street": "Elephant Cave Road",
        "amenity": "library",
        "name": "City Central Library",
        "name:kn": "ನಗರ ಗ್ರಂಥಾಲಯ"
      }
    },
    {
      "type": "node",
      "id": 1058171422,
      "lat": 12.9447608,
      "lon": 77.5740606,
      "tags": {
        "addr:city": "Bangalore",
        "addr:street": "Krishna Rajendra Road",
        "amenity": "post_office",
        "name": "Basawanagudi Post Office",
        "name:kn": "ಬಸವನಗುಡಿ ಅಂಚೆ ಕಛೇರಿ"
      }
    },
    {
      "type": "node",
      "id": 1080729956,
      "lat": 12.9443745,
      "lon": 77.5695112,
      "tags": {
        "addr:street": "Bugle Rock Road",
        "amenity": "place_of_worship",
        "name": "Karanji Anjaneya Temple",
        "name:kn": "ಕಾರಂಜಿ ಅಂಜನೇಯ ದೇವಸ್ತಾನ",
        "religion": "hindu",
        "wheelchair": "no"
      }
    },
    {
      "type": "node",
      "id": 1085578877,
      "lat": 12.9443687,
      "lon": 77.573044,
      "tags": {
        "amenity": "bank",
        "atm": "yes",
        "brand": "Canara Bank",
        "brand:en": "Canara Bank",
        "brand:hi": "केनरा बैंक",
        "brand:kn": "ಕೆನರಾ ಬ್ಯಾಂಕ್",
        "brand:pa": "ਕੇਨਰਾ ਬੈਂਕ",
        "brand:pnb": "کینرا بینک",
        "brand:ur": "کینرا بینک",
        "brand:wikidata": "Q2003777",
        "brand:wikipedia": "en:Canara Bank",
        "brand:wikipedia:pa": "ਕੇਨਰਾ ਬੈਂਕ",
        "name": "Canara Bank",
        "name:en": "Canara Bank",
        "name:hi": "केनरा बैंक",
        "name:kn": "ಕೆನರಾ ಬ್ಯಾಂಕ್",
        "name:pa": "ਕੇਨਰਾ ਬੈਂਕ",
        "name:pnb": "کینرا بینک",
        "name:ur": "کینرا بینک",
        "website": "https://www.canarabank.com/"
      }
    },
    {
      "type": "node",
      "id": 1360190627,
      "lat": 12.9363255,
      "lon": 77.5767626,
      "tags": {
        "addr:housenumber": "19/2",
        "addr:street": "South End Main Road",
        "alt_name": "Upahara Darshini",
        "amenity": "restaurant",
        "cuisine": "regional",
        "name": "U D Residency",
        "name:kn": "ಯು ಡಿ ರೆಸಿಡೆನ್ಸಿ"
      }
    },
    {
      "type": "node",
      "id": 1438214050,
      "lat": 12.9365,
      "lon": 77.582432,
      "tags": {
        "amenity": "bank",
        "atm": "yes",
        "brand": "HDFC Bank",
        "brand:wikidata": "Q631047",
        "brand:wikipedia": "en:HDFC Bank",
        "name": "HDFC Bank",
        "name:kn": "ಎಚ್ ಡಿ ಎಫ್ ಸಿ",
        "short_name": "HDFC",
        "website": "https://www.hdfcbank.com"
      }
    },
    {
      "type": "node",
      "id": 1449021351,
      "lat": 12.9420282,
      "lon": 77.5802856,
      "tags": {
        "addr:city": "Bangalore",
        "addr:postcode": "560004",
        "addr:street": "Rashtriya Vidyalaya Road",
        "amenity": "fuel",
        "brand": "Indian Oil",
        "brand:wikidata": "Q1289348",
        "brand:wikipedia": "en:Indian Oil Corporation",
        "compressed_air": "yes",
        "name": "Indian Oil",
        "name:kn": "ಇಂಡಿಯನ್ ಆಯಿಲ್"
      }
    },
    {
      "type": "node",
      "id": 1464749398,
      "lat": 12.9432335,
      "lon": 77.5700564,
      "tags": {
        "amenity": "fountain"
      }
    },
    {
      "type": "node",
      "id": 1464751687,
      "lat": 12.9409932,
      "lon": 77.5671094,
      "tags": {
        "amenity": "place_of_worship",
        "name": "Puttige Mutt",
        "name:kn": "ಪುತ್ತಿಗೆ ಮಠ",
        "religion": "hindu"
      }
    },
    {
      "type": "node",
      "id": 1464752453,
      "lat": 12.9395396,
      "lon": 77.5667848,
      "tags": {
        "addr:street": "Bull Temple Road",
        "amenity": "social_centre",
        "name": "Gokhale Institute of Public Affairs",
        "website": "http://gipa-bng.org/"
      }
    },
    {
      "type": "node",
      "id": 1465008466,
      "lat": 12.9454627,
      "lon": 77.5714069,
      "tags": {
        "addr:street": "Gandhi Bazar",
        "name": "Ladies Wear House",
        "shop": "clothes"
      }
    },
    {
      "type": "node",
      "id": 1465008470,
      "lat": 12.9442215,
      "lon": 77.5725983,
      "tags": {
        "addr:street": "Gandhi Bazaar Main Road",
        "amenity": "bank",
        "brand": "Corporation Bank",
        "brand:wikidata": "Q2003387",
        "brand:wikipedia": "en:Corporation Bank",
        "name": "Corporation Bank",
        "name:en": "Corporation Bank",
        "name:kn": "ಕಾರ್ಪರೇಷನ್ ಬ್ಯಾಂಕ್",
        "source": "survey",
        "website": "https://corpbank.com/"
      }
    },
    {
      "type": "node",
      "id": 1465009282,
      "lat": 12.9444504,
      "lon": 77.5722351,
      "tags": {
        "addr:street": "Gandhi Bazar Main Road",
        "name": "Food world",
        "name:kn": "ಫುಡ್ ವರ್ಲ್ಡ್",
        "shop": "supermarket"
      }
    },
    {
      "type": "node",
      "id": 1466328820,
      "lat": 12.9372141,
      "lon": 77.568841,
      "tags": {
        "addr:street": "N.R. Colony, 1st Main Road",
        "amenity": "bank",
        "atm": "yes",
        "brand": "Syndicate Bank",
        "brand:wikidata": "Q2004088",
        "name": "Syndicate Bank",
        "name:en": "Syndicate Bank",
        "name:kn": "ಸಿಂಡಿಕೇಟ್ ಬ್ಯಾಂಕ್",
        "website": "https://www.syndicatebank.in"
      }
    },
    {
      "type": "node",
      "id": 1466328827,
      "lat": 12.9370677,
      "lon": 77.568849,
      "tags": {
        "amenity": "atm",
        "brand": "Syndicate Bank",
        "brand:wikidata": "Q2004088",
        "name": "Syndicate Bank",
        "name:kn": "ಸಿಂಡಿಕೇಟ್ ಬ್ಯಾಂಕ್",
        "operator": "Syndicate Bank",
        "operator:wikidata": "Q2004088"
      }
    },
    {
      "type": "node",
      "id": 1466380358,
      "lat": 12.9370493,
      "lon": 77.5686801,
      "tags": {
        "amenity": "pharmacy",
        "healthcare": "pharmacy",
        "name": "Sagar Pharmacy"
      }
    },
    {
      "type": "node",
      "id": 1466730152,
      "lat": 12.9440288,
      "lon": 77.5727582,
      "tags": {
        "amenity": "restaurant",
        "name": "Shiv sagar",
        "name:kn": "ಶಿವ್ ಸಾಗರ್",
        "wheelchair": "no"
      }
    },
    {
      "type": "node",
      "id": 1466730374,
      "lat": 12.944502,
      "lon": 77.5728401,
      "tags": {
        "amenity": "cafe",
        "brand": "Cafe Coffee Day",
        "brand:wikidata": "Q5017235",
        "cuisine": "coffee_shop",
        "name": "Cafe Coffee Day",
        "name:kn": "ಕಫೆ ಕಾಫಿ ಡೇ",
        "takeaway": "yes"
      }
    },
    {
      "type": "node",
      "id": 1466730411,
      "lat": 12.9444313,
      "lon": 77.5729353,
      "tags": {
        "amenity": "restaurant",
        "diet:vegetarian": "only",
        "name": "Adyar Anand Bhavan",
        "name:kn": "ಆದ್ಯಾರ್ ಆನಂದ ಭವನ",
        "toilets:wheelchair": "no",
        "wheelchair": "no"
      }
    },
    {
      "type": "node",
      "id": 1466730665,
      "lat": 12.948348,
      "lon": 77.5807071,
      "tags": {
        "amenity": "fountain"
      }
    },
    {
      "type": "node",
      "id": 1466735001,
      "lat": 12.9393809,
      "lon": 77.5712615,
      "tags": {
        "alt_name": "Bhavani Kangans",
        "name": "Bhavani Bangles",
        "shop": "jewelry"
      }
    },
    {
      "type": "node",
      "id": 1470553269,
      "lat": 12.9369341,
      "lon": 77.5691786,
      "tags": {
        "name": "Samipa Bakery",
        "shop": "bakery"
      }
    },
    {
      "type": "node",
      "id": 1470553312,
      "lat": 12.9333166,
      "lon": 77.5726226,
      "tags": {
        "amenity": "school",
        "name": "Sri Kumaran Children's Home"
      }
    },
    {
      "type": "node",
      "id": 1470553313,
      "lat": 12.935381,
      "lon": 77.570171,
      "tags": {
        "amenity": "place_of_worship",
        "name": "Sai Baba Temple",
        "name:kn": "ಸಾಯಿಬಾಬಾ ದೇವಸ್ಥಾನ",
        "religion": "hindu"
      }
    },
    {
      "type": "node",
      "id": 1470553332,
      "lat": 12.9356689,
      "lon": 77.5699296,
      "tags": {
        "alt_name": "Samaja Seva Mandali Kannada Primary School",
        "amenity": "school",
        "name": "SSM Primary School"
      }
    },
    {
      "type": "node",
      "id": 1470553336,
      "lat": 12.9383716,
      "lon": 77.5700155,
      "tags": {
        "amenity": "fast_food",
        "cuisine": "indian",
        "name": "Srinivasa Cool Corner"
      }
    },
    {
      "type": "node",
      "id": 1473887315,
      "lat": 12.942427,
      "lon": 77.5671829,
      "tags": {
        "amenity": "place_of_worship",
        "check_date": "2023-09-19",
        "name": "Sri Raghavendra Swami Mutt",
        "name:kn": "ರಾಘವೇಂದ್ರ ಸ್ವಾಮಿ ಮಠ",
        "religion": "hindu"
      }
    },
    {
      "type": "node",
      "id": 1473887316,
      "lat": 12.940068,
      "lon": 77.5686776,
      "tags": {
        "leisure": "pitch",
        "name": "APS Playground"
      }
    },
    {
      "type": "node",
      "id": 1473896401,
      "lat": 12.9453673,
      "lon": 77.5672085,
      "tags": {
        "amenity": "school",
        "name": "Nevaditha school"
      }
    },
    {
      "type": "node",
      "id": 1473898703,
      "lat": 12.9423037,
      "lon": 77.5713284,
      "tags": {
        "name": "Rama Rao & sons",
        "shop": "jewelry"
      }
    },
    {
      "type": "node",
      "id": 1473899970,
      "lat": 12.9408398,
      "lon": 77.5732596,
      "tags": {
        "amenity": "library",
        "name:kn": "ಗ್ರಂಥಾಲಯ"
      }
    },
    {
      "type": "node",
      "id": 1473921774,
      "lat": 12.9458714,
      "lon": 77.5675192,
      "tags": {
        "addr:district": "Bengaluru Urban",
        "addr:full": "No.81,Bulltemple Road,Near Ramakrishna Ashram",
        "addr:postcode": "560019",
        "addr:state": "Karnataka",
        "addr:street": "Shyamaraja Iyengar Road",
        "amenity": "hospital",
        "emergency": "no",
        "name": "Shekar Hospital",
        "name:en": "Shekhar Hospital",
        "name:hi": "शेखर हॉस्पिटल",
        "name:kn": "ಶೇಖರ್ ಹಾಸ್ಪಿಟಲ್",
        "source": "OpenGovernmentData"
      }
    },
    {
      "type": "node",
      "id": 1473921785,
      "lat": 12.9455787,
      "lon": 77.5679644,
      "tags": {
        "amenity": "school",
        "name": "BASE"
      }
    },
    {
      "type": "node",
      "id": 1473921794,
      "lat": 12.9462008,
      "lon": 77.5679859,
      "tags": {
        "amenity": "fuel",
        "brand": "Indian Oil",
        "brand:wikidata": "Q1289348",
        "name": "Bull Temple Filling Station"
      }
    },
    {
      "type": "node",
      "id": 1473921798,
      "lat": 12.9449194,
      "lon": 77.5680581,
      "tags": {
        "addr:street": "Bull Temple Road",
        "amenity": "restaurant",
        "name": "Cane-o-La",
        "name:kn": "ಕೆನ್-ಒ-ಲಾ",
        "wheelchair": "no"
      }
    },
    {
      "type": "node",
      "id": 1473921812,
      "lat": 12.9446167,
      "lon": 77.5677552,
      "tags": {
        "amenity": "atm",
        "brand": "State Bank of India",
        "brand:wikidata": "Q1340361",
        "fee": "no",
        "name": "State Bank of India",
        "operator": "State Bank of India",
        "operator:wikidata": "Q1340361",
        "short_name": "SBI"
      }
    },
    {
      "type": "node",
      "id": 1474259226,
      "lat": 12.9364201,
      "lon": 77.5828954,
      "tags": {
        "addr:district": "Bengaluru Urban",
        "addr:full": "806/1, 15Th Cross 3Road Block Jayanagar",
        "addr:postcode": "560011",
        "addr:state": "Karnataka",
        "amenity": "clinic",
        "dispensing": "no",
        "healthcare": "clinic",
        "name": "Ramkrishna Nursing Home",
        "source": "OpenGovernmentData"
      }
    },
    {
      "type": "node",
      "id": 1791592717,
      "lat": 12.9484672,
      "lon": 77.5716218,
      "tags": {
        "addr:street": "Uttaradi Mutt Road",
        "amenity": "bank",
        "atm": "yes",
        "brand": "Bank of Maharashtra",
        "brand:wikidata": "Q2004304",
        "brand:wikipedia": "en:Bank of Maharashtra",
        "name": "Bank of Maharashtra",
        "name:en": "Bank of Maharashtra",
        "website": "https://www.bankofmaharashtra.in/",
        "wheelchair": "no"
      }
    },
    {
      "type": "node",
      "id": 1791595069,
      "lat": 12.9500017,
      "lon": 77.5721635,
      "tags": {
        "amenity": "atm",
        "fee": "no",
        "operator": "State Bank Of Indi"
      }
    },
    {
      "type": "node",
      "id": 1794008864,
      "lat": 12.9451475,
      "lon": 77.5719389,
      "tags": {
        "amenity": "atm",
        "brand": "Citibank",
        "brand:wikidata": "Q857063",
        "drive_through": "no",
        "fee": "no",
        "name": "Citibank",
        "operator": "Citibank",
        "operator:wikidata": "Q857063",
        "short_name": "Citi",
        "wheelchair": "no"
      }
    },
    {
      "type": "node",
      "id": 1794017010,
      "lat": 12.9452338,
      "lon": 77.579897,
      "tags": {
        "addr:street": "Rashtriya Vidyalaya Road",
        "name": "Madhiraa",
        "shop": "alcohol"
      }
    },
    {
      "type": "node",
      "id": 1796633495,
      "lat": 12.9450945,
      "lon": 77.5679803,
      "tags": {
        "amenity": "fast_food",
        "brand": "Domino's",
        "brand:ks": "ڈومینوز",
        "brand:pa": "ਡੋਮੀਨੋਜ਼",
        "brand:ur": "ڈومینوز",
        "brand:wikidata": "Q839466",
        "brand:wikipedia": "en:Domino's Pizza",
        "cuisine": "pizza",
        "name": "Domino's",
        "name:ks": "ڈومینوز",
        "name:pa": "ਡੋਮੀਨੋਜ਼",
        "name:ur": "ڈومینوز",
        "takeaway": "yes"
      }
    },
    {
      "type": "node",
      "id": 1902387772,
      "lat": 12.9444288,
      "lon": 77.5724461,
      "tags": {
        "amenity": "bank",
        "brand": "Indian Bank",
        "brand:wikidata": "Q2003789",
        "brand:wikipedia": "en:Indian Bank",
        "name": "Indian Bank",
        "name:en": "Indian Bank",
        "name:kn": "ಇಂಡಿಯನ್ ಬ್ಯಾಂಕ್",
        "source": "survey",
        "website": "https://www.indianbank.in/"
      }
    },
    {
      "type": "node",
      "id": 1916600665,
      "lat": 12.9489694,
      "lon": 77.577188,
      "tags": {
        "amenity": "fast_food",
        "name": "Sri Vasavi Condiments",
        "name:kn": "ಬಸವನಗುಡಿ ಟಿಫಿನ್ ರೂಮ್",
        "wheelchair": "no"
      }
    },
    {
      "type": "node",
      "id": 1923720117,
      "lat": 12.9458998,
      "lon": 77.5717344,
      "tags": {
        "amenity": "atm",
        "brand": "ICICI Bank",
        "brand:wikidata": "Q1653258",
        "name": "ICICI Bank",
        "name:kn": "ಐಸಿಐಸಿಐ ಬ್ಯಾಂಕು",
        "operator": "ICICI Bank",
        "operator:wikidata": "Q1653258",
        "short_name": "ICICI",
        "source:name": "survey"
      }
    },
    {
      "type": "node",
      "id": 1923771946,
      "lat": 12.9457543,
      "lon": 77.5724936,
      "tags": {
        "amenity": "bank",
        "name": "Sree Charan Bank",
        "name:kn": "ಶ್ರೀ ಚರಣ್ ಬ್ಯಾಂಕ್",
        "source:name": "survey"
      }
    },
    {
      "type": "node",
      "id": 1990628296,
      "lat": 12.9472021,
      "lon": 77.5714429,
      "tags": {
        "name": "Mahila",
        "name:kn": "ಮಹಿಳಾ",
        "shop": "jewelry",
        "wheelchair": "no"
      }
    },
    {
      "type": "node",
      "id": 2057197440,
      "lat": 12.9491655,
      "lon": 77.5798273,
      "tags": {
        "amenity": "restaurant",
        "cuisine": "indian",
        "name": "Kamat",
        "name:kn": "ಕಾಮತ್",
        "operator": "Kamat",
        "wheelchair": "no"
      }
    },
    {
      "type": "node",
      "id": 2057197603,
      "lat": 12.9479149,
      "lon": 77.5794869,
      "tags": {
        "amenity": "fuel",
        "brand": "Bharat Petroleum",
        "brand:wikidata": "Q854826",
        "name": "Bharat Petroleum",
        "name:kn": "ಭಾರತ್ ಪೆಟ್ರೋಲಿಯಂ",
        "operator": "Bharat Petroleum"
      }
    },
    {
      "type": "node",
      "id": 2076240844,
      "lat": 12.937055,
      "lon": 77.5784773,
      "tags": {
        "amenity": "atm",
        "brand": "Citibank",
        "brand:wikidata": "Q857063",
        "name": "Citibank",
        "opening_hours": "24/7",
        "operator": "Citibank",
        "operator:wikidata": "Q857063",
        "short_name": "Citi"
      }
    },
    {
      "type": "node",
      "id": 2255802679,
      "lat": 12.9461645,
      "lon": 77.5734435,
      "tags": {
        "amenity": "restaurant",
        "diet:vegetarian": "only",
        "name": "Jain Bhavan",
        "name:kn": "ಜೈನ ಭವನ"
      }
    },
    {
      "type": "node",
      "id": 2405825519,
      "lat": 12.9439037,
      "lon": 77.5819302,
      "tags": {
        "amenity": "waste_basket",
        "check_date": "2023-12-30",
        "source": "survey"
      }
    },
    {
      "type": "node",
      "id": 2405825526,
      "lat": 12.9439687,
      "lon": 77.5807339,
      "tags": {
        "amenity": "waste_basket",
        "source": "survey"
      }
    },
    {
      "type": "node",
      "id": 2405825551,
      "lat": 12.9448672,
      "lon": 77.5803081,
      "tags": {
        "amenity": "waste_basket",
        "source": "survey"
      }
    },
    {
      "type": "node",
      "id": 2405825652,
      "lat": 12.9463416,
      "lon": 77.5802948,
      "tags": {
        "amenity": "waste_basket",
        "source": "survey"
      }
    },
    {
      "type": "node",
      "id": 2405825716,
      "lat": 12.9471294,
      "lon": 77.5803062,
      "tags": {
        "amenity": "waste_basket",
        "source": "survey"
      }
    },
    {
      "type": "node",
      "id": 2405825778,
      "lat": 12.9478878,
      "lon": 77.5803242,
      "tags": {
        "amenity": "waste_basket",
        "source": "survey"
      }
    },
    {
      "type": "node",
      "id": 2405825782,
      "lat": 12.9482156,
      "lon": 77.5804124,
      "tags": {
        "amenity": "waste_basket",
        "source": "survey"
      }
    },
    {
      "type": "node",
      "id": 2405825792,
      "lat": 12.948499,
      "lon": 77.5805392,
      "tags": {
        "amenity": "bench",
        "source": "survey"
      }
    },
    {
      "type": "node",
      "id": 2405825793,
      "lat": 12.9485333,
      "lon": 77.5805682,
      "tags": {
        "amenity": "bench",
        "source": "survey"
      }
    },
    {
      "type": "node",
      "id": 2405825795,
      "lat": 12.9485561,
      "lon": 77.5806108,
      "tags": {
        "amenity": "bench",
        "source": "survey"
      }
    },
    {
      "type": "node",
      "id": 2405825799,
      "lat": 12.9487692,
      "lon": 77.5807426,
      "tags": {
        "amenity": "waste_basket",
        "source": "survey"
      }
    },
    {
      "type": "node",
      "id": 3118804213,
      "lat": 12.9394505,
      "lon": 77.5839294,
      "tags": {
        "alt_name": "Goli Vada Pav No.1",
        "amenity": "fast_food",
        "brand": "Goli Vada Pav",
        "brand:wikidata": "Q5580697",
        "cuisine": "indian",
        "name": "Goli Vada Pav",
        "name:kn": "ಗೋಲಿ ವಡ ಪಾವ್",
        "takeaway": "yes"
      }
    },
    {
      "type": "node",
      "id": 3118804214,
      "lat": 12.9395055,
      "lon": 77.5839162,
      "tags": {
        "amenity": "fast_food",
        "check_date:opening_hours": "2023-10-22",
        "cuisine": "indian",
        "name": "Karnataka Bhel House",
        "opening_hours": "16:00-21:00"
      }
    },
    {
      "type": "node",
      "id": 3148484487,
      "lat": 12.9400476,
      "lon": 77.5828215,
      "tags": {
        "name": "Veena Musicals Service Center",
        "shop": "musical_instrument"
      }
    },
    {
      "type": "node",
      "id": 3148484488,
      "lat": 12.9393363,
      "lon": 77.5824542,
      "tags": {
        "name": "New Veena Musicals",
        "shop": "musical_instrument"
      }
    },
    {
      "type": "node",
      "id": 3148753000,
      "lat": 12.9457315,
      "lon": 77.5717632,
      "tags": {
        "amenity": "community_centre",
        "name": "HB Samaja Convention Hall"
      }
    },
    {
      "type": "node",
      "id": 3401948659,
      "lat": 12.9402766,
      "lon": 77.58412,
      "tags": {
        "addr:street": "9th Main Road",
        "name": "Nandini Milk Shoppe",
        "operator": "Mother Dairy",
        "shop": "dairy"
      }
    },
    {
      "type": "node",
      "id": 3401950347,
      "lat": 12.9416428,
      "lon": 77.5842724,
      "tags": {
        "addr:street": "4th Cross Road",
        "name": "Sagar Vajra",
        "shop": "jewelry"
      }
    },
    {
      "type": "node",
      "id": 3401950349,
      "lat": 12.940504,
      "lon": 77.5840047,
      "tags": {
        "name": "Arnav",
        "shop": "jewelry"
      }
    },
    {
      "type": "node",
      "id": 3401950350,
      "lat": 12.9402086,
      "lon": 77.5839778,
      "tags": {
        "addr:street": "9th Main Road",
        "leisure": "sports_centre",
        "name": "Studio Venus",
        "note": "Aerobics, dance"
      }
    },
    {
      "type": "node",
      "id": 3401952831,
      "lat": 12.9404021,
      "lon": 77.584112,
      "tags": {
        "addr:street": "9th Main Road",
        "brand": "HOPCOMS",
        "brand:wikidata": "Q22908959",
        "name": "HOPCOMS",
        "name:kn": "ಹಾಪ್ ಕಾಮ್ಸ್",
        "shop": "greengrocer"
      }
    },
    {
      "type": "node",
      "id": 3401975611,
      "lat": 12.9382238,
      "lon": 77.5838823,
      "tags": {
        "amenity": "clinic",
        "name": "Jnanakshi Eye Clinic"
      }
    },
    {
      "type": "node",
      "id": 3401984698,
      "lat": 12.9397408,
      "lon": 77.5829526,
      "tags": {
        "name": "Suhas Medicals",
        "shop": "chemist"
      }
    },
    {
      "type": "node",
      "id": 3401984699,
      "lat": 12.9392065,
      "lon": 77.5827357,
      "tags": {
        "amenity": "atm",
        "brand": "Canara Bank",
        "brand:en": "Canara Bank",
        "brand:hi": "केनरा बैंक",
        "brand:kn": "ಕೆನರಾ ಬ್ಯಾಂಕ್",
        "brand:pa": "ਕੇਨਰਾ ਬੈਂਕ",
        "brand:pnb": "کینرا بینک",
        "brand:ur": "کینرا بینک",
        "brand:wikidata": "Q2003777",
        "brand:wikipedia": "en:Canara Bank",
        "brand:wikipedia:pa": "ਕੇਨਰਾ ਬੈਂਕ",
        "name": "Canara Bank",
        "name:en": "Canara Bank",
        "name:hi": "केनरा बैंक",
        "name:kn": "ಕೆನರಾ ಬ್ಯಾಂಕ್",
        "name:pa": "ਕੇਨਰਾ ਬੈਂਕ",
        "name:pnb": "کینرا بینک",
        "name:ur": "کینرا بینک",
        "operator": "Canara Bank",
        "operator:wikidata": "Q2003777"
      }
    },
    {
      "type": "node",
      "id": 3401984951,
      "lat": 12.9390863,
      "lon": 77.5827169,
      "tags": {
        "amenity": "community_centre",
        "name": "Samaj Seva Sangha",
        "name:kn": "ಸಮಾಜ ಸೇವಾ ಸಂಘ"
      }
    },
    {
      "type": "node",
      "id": 3401986202,
      "lat": 12.9379857,
      "lon": 77.5828269,
      "tags": {
        "name": "Raghavendra Medicals",
        "shop": "chemist"
      }
    },
    {
      "type": "node",
      "id": 3401988084,
      "lat": 12.9382066,
      "lon": 77.582902,
      "tags": {
        "amenity": "dentist",
        "name": "Dental Health Clinic"
      }
    },
    {
      "type": "node",
      "id": 3401988085,
      "lat": 12.9381478,
      "lon": 77.5828269,
      "tags": {
        "amenity": "atm",
        "brand": "Bank of India",
        "brand:wikidata": "Q2004439",
        "name": "Bank of India",
        "operator": "Bank of India",
        "operator:wikidata": "Q2004439"
      }
    },
    {
      "type": "node",
      "id": 3453283476,
      "lat": 12.9424031,
      "lon": 77.5802815,
      "tags": {
        "addr:city": "Bangalore",
        "addr:postcode": "560004",
        "addr:street": "Rashtriya Vidyalaya Road",
        "name": "SPG Infotech",
        "operator": "Anjanadri",
        "shop": "computer"
      }
    },
    {
      "type": "node",
      "id": 3455381019,
      "lat": 12.9454151,
      "lon": 77.5709801,
      "tags": {
        "addr:city": "Bangalore",
        "addr:street": "Gandhi Bazaar Main Road",
        "amenity": "fast_food",
        "cuisine": "regional",
        "name": "Ice Thunder"
      }
    },
    {
      "type": "node",
      "id": 3656275411,
      "lat": 12.9369639,
      "lon": 77.5721872,
      "tags": {
        "addr:city": "Bangalore",
        "addr:postcode": "560004",
        "addr:street": "South End Road",
        "name": "Nandini Milk Parlour",
        "name:kn": "ನಂದಿನಿ ಹಾಲಿನ ಅಂಗಡಿ",
        "opening_hours": "06:00-22:30",
        "operator": "Karnataka Milk Federation",
        "shop": "dairy"
      }
    },
    {
      "type": "node",
      "id": 3751673527,
      "lat": 12.9366381,
      "lon": 77.5752413,
      "tags": {
        "addr:city": "Bangalore",
        "addr:street": "South End Road",
        "brand": "Reliance Fresh",
        "brand:wikidata": "Q7311014",
        "brand:wikipedia": "en:Reliance Fresh",
        "name": "Reliance Fresh",
        "name:kn": "ರಿಲೈಯನ್ಸ್ ಫ್ರೆಶ್",
        "operator": "Reliance",
        "shop": "supermarket"
      }
    },
    {
      "type": "node",
      "id": 3832792606,
      "lat": 12.9365007,
      "lon": 77.5811501,
      "tags": {
        "level": "0",
        "name": "Impronta@11",
        "shop": "Printer"
      }
    },
    {
      "type": "node",
      "id": 3832797416,
      "lat": 12.9369895,
      "lon": 77.5810697,
      "tags": {
        "level": "0,1,2",
        "name": "PSR Silks",
        "shop": "clothes"
      }
    },
    {
      "type": "node",
      "id": 3832797417,
      "lat": 12.9372349,
      "lon": 77.581058,
      "tags": {
        "level": "0,1",
        "name": "Nandini Silks",
        "shop": "clothes"
      }
    },
    {
      "type": "node",
      "id": 3832798964,
      "lat": 12.936898,
      "lon": 77.5810241,
      "tags": {
        "amenity": "parking",
        "capacity": "3",
        "parking": "surface"
      }
    },
    {
      "type": "node",
      "id": 3832806735,
      "lat": 12.9368947,
      "lon": 77.5819858,
      "tags": {
        "addr:street": "7th Main Road",
        "brand": "Josco Jewellers",
        "brand:wikidata": "Q99521002",
        "level": "0",
        "name": "Josco Jewellers",
        "shop": "jewelry"
      }
    },
    {
      "type": "node",
      "id": 3832806736,
      "lat": 12.9368818,
      "lon": 77.5820785,
      "tags": {
        "amenity": "clinic",
        "level": "1",
        "name": "Healios"
      }
    },
    {
      "type": "node",
      "id": 3832812311,
      "lat": 12.9370584,
      "lon": 77.5819902,
      "tags": {
        "amenity": "post_office",
        "level": "0",
        "name": "Blue Dart-DHL Couriers",
        "operator": "DHL"
      }
    },
    {
      "type": "node",
      "id": 3833904203,
      "lat": 12.935048,
      "lon": 77.5743056,
      "tags": {
        "amenity": "atm",
        "name": "State ATM",
        "operator": "RSBL"
      }
    },
    {
      "type": "node",
      "id": 3833905730,
      "lat": 12.9351238,
      "lon": 77.5741634,
      "tags": {
        "amenity": "atm",
        "brand": "State Bank of India",
        "brand:wikidata": "Q1340361",
        "name": "State Bank of India",
        "name:kn": "ಭಾರತೀಯ ಸ್ಟೇಟ್ ಬ್ಯಾಂಕ್",
        "operator": "State Bank of India",
        "operator:wikidata": "Q1340361",
        "short_name": "SBI"
      }
    },
    {
      "type": "node",
      "id": 3833906364,
      "lat": 12.9354545,
      "lon": 77.5739623,
      "tags": {
        "amenity": "atm",
        "brand": "Karnataka Bank",
        "brand:wikidata": "Q2042632",
        "name": "Karnataka Bank",
        "name:kn": "ಕರ್ನಾಟಕ ಬ್ಯಾಂಕ್",
        "operator": "Karnataka Bank",
        "operator:wikidata": "Q2042632"
      }
    },
    {
      "type": "node",
      "id": 3946293404,
      "lat": 12.940566,
      "lon": 77.5708321,
      "tags": {
        "addr:housenumber": "32",
        "addr:street": "32, Mallikarjuna Temple Road",
        "name": "Veena Works",
        "phone": "9845744693",
        "shop": "musical_instrument"
      }
    },
    {
      "type": "node",
      "id": 3946296441,
      "lat": 12.9394431,
      "lon": 77.5714279,
      "tags": {
        "addr:street": "DVG Road",
        "name": "Mane Holige",
        "opening_hours": "Mo-Su 10:00-21:30",
        "phone": "+919886584789 9742672871",
        "shop": "confectionery"
      }
    },
    {
      "type": "node",
      "id": 4173858166,
      "lat": 12.9476142,
      "lon": 77.5797544,
      "tags": {
        "amenity": "restaurant",
        "cuisine": "indian",
        "name": "Meera Delicacy"
      }
    },
    {
      "type": "node",
      "id": 4254064797,
      "lat": 12.9378029,
      "lon": 77.5755637,
      "tags": {
        "amenity": "bank",
        "brand": "ICICI Bank",
        "brand:wikidata": "Q1653258",
        "name": "ICICI Bank",
        "name:en": "ICICI Bank",
        "name:kn": "ಐಸಿಐಸಿಐ ಬ್ಯಾಂಕು",
        "opening_hours": "Mo-Fr 10:00-17:00; Sa 10:00-12:00",
        "short_name": "ICICI",
        "website": "https://www.icicibank.com"
      }
    },
    {
      "type": "node",
      "id": 4254080490,
      "lat": 12.940402,
      "lon": 77.5766481,
      "tags": {
        "amenity": "atm",
        "brand": "Federal Bank",
        "brand:wikidata": "Q2044983",
        "name": "Federal Bank",
        "operator": "Federal Bank",
        "operator:wikidata": "Q2044983"
      }
    },
    {
      "type": "node",
      "id": 4254094089,
      "lat": 12.9404668,
      "lon": 77.5757675,
      "tags": {
        "addr:postcode": "560004",
        "addr:street": "Deewan Madhava Rao Road",
        "amenity": "bank",
        "brand": "IDBI Bank",
        "brand:wikidata": "Q3633485",
        "brand:wikipedia": "en:IDBI Bank",
        "name": "IDBI Bank",
        "name:kn": "ಐಡಿಬಿಐ ಬ್ಯಾಂಕ್",
        "old_name": "Industrial Development Bank of India",
        "opening_hours": "Mo-Fr 10:00-16:00; Sa 10:00-12:00",
        "short_name": "IDBI",
        "website": "https://www.idbi.com"
      }
    },
    {
      "type": "node",
      "id": 4254126595,
      "lat": 12.9378558,
      "lon": 77.5755369,
      "tags": {
        "amenity": "atm",
        "brand": "ICICI Bank",
        "brand:wikidata": "Q1653258",
        "name": "ICICI Bank",
        "opening_hours": "24/7",
        "operator": "ICICI Bank",
        "operator:wikidata": "Q1653258",
        "short_name": "ICICI"
      }
    },
    {
      "type": "node",
      "id": 4255663990,
      "lat": 12.9398043,
      "lon": 77.5755209,
      "tags": {
        "name": "Cake Yard",
        "shop": "bakery"
      }
    },
    {
      "type": "node",
      "id": 4255667390,
      "lat": 12.9370786,
      "lon": 77.5752292,
      "tags": {
        "amenity": "fast_food",
        "cuisine": "regional",
        "name": "Presto",
        "opening_hours": "Mo-Su 08:00-21:00"
      }
    },
    {
      "type": "node",
      "id": 4349307192,
      "lat": 12.9485535,
      "lon": 77.5748248,
      "tags": {
        "amenity": "hospital",
        "check_date": "2024-03-09",
        "healthcare:speciality": "gynaecology",
        "name": "Sagar Chandramma Hospitals",
        "name:en": "Sagar Chandramma Hospitals"
      }
    },
    {
      "type": "node",
      "id": 4349316995,
      "lat": 12.9455735,
      "lon": 77.5712921,
      "tags": {
        "amenity": "pharmacy",
        "healthcare": "pharmacy",
        "name": "Pavitra Medicals"
      }
    },
    {
      "type": "node",
      "id": 4349316996,
      "lat": 12.9453567,
      "lon": 77.5710944,
      "tags": {
        "name": "Seema Art Jewellery",
        "shop": "jewelry"
      }
    },
    {
      "type": "node",
      "id": 4349317394,
      "lat": 12.9450336,
      "lon": 77.5715059,
      "tags": {
        "addr:housenumber": "22",
        "addr:street": "Gandhi Bazaar Main Road",
        "name": "BN Sreekantiah And Sons",
        "shop": "convenience"
      }
    },
    {
      "type": "node",
      "id": 4349317395,
      "lat": 12.9450199,
      "lon": 77.5714286,
      "tags": {
        "name": "Priyanka Silks",
        "shop": "clothes"
      }
    },
    {
      "type": "node",
      "id": 4349317396,
      "lat": 12.9453667,
      "lon": 77.5709983,
      "tags": {
        "amenity": "restaurant",
        "name": "Timepass Dinner"
      }
    },
    {
      "type": "node",
      "id": 4349331891,
      "lat": 12.9450571,
      "lon": 77.5716432,
      "tags": {
        "name": "Flower Market",
        "shop": "florist"
      }
    },
    {
      "type": "node",
      "id": 4349331892,
      "lat": 12.9450077,
      "lon": 77.5715689,
      "tags": {
        "name": "Parimala Sweets",
        "shop": "confectionery"
      }
    },
    {
      "type": "node",
      "id": 4349344090,
      "lat": 12.945197,
      "lon": 77.5712783,
      "tags": {
        "name": "Choice Footwear",
        "shop": "shoes"
      }
    },
    {
      "type": "node",
      "id": 4349370589,
      "lat": 12.9434782,
      "lon": 77.5817744,
      "tags": {
        "amenity": "place_of_worship",
        "name": "Siddharda Ashrama"
      }
    },
    {
      "type": "node",
      "id": 4349371191,
      "lat": 12.9434737,
      "lon": 77.5829251,
      "tags": {
        "amenity": "place_of_worship"
      }
    },
    {
      "type": "node",
      "id": 4362723794,
      "lat": 12.9453043,
      "lon": 77.5798656,
      "tags": {
        "amenity": "pharmacy",
        "healthcare": "pharmacy",
        "name": "Basavangudi Medical Centre"
      }
    },
    {
      "type": "node",
      "id": 4362762990,
      "lat": 12.9437347,
      "lon": 77.5799634,
      "tags": {
        "amenity": "atm",
        "operator": "Lakshmi Nivas Bank"
      }
    },
    {
      "type": "node",
      "id": 4362765797,
      "lat": 12.9472769,
      "lon": 77.5799705,
      "tags": {
        "amenity": "atm",
        "brand": "Bank of Baroda",
        "brand:wikidata": "Q2003797",
        "name": "Bank of Baroda",
        "operator": "Bank of Baroda",
        "operator:wikidata": "Q2003797"
      }
    },
    {
      "type": "node",
      "id": 4362770794,
      "lat": 12.9382297,
      "lon": 77.5802736,
      "tags": {
        "amenity": "bar",
        "name": "South Point"
      }
    },
    {
      "type": "node",
      "id": 4362807789,
      "lat": 12.947717,
      "lon": 77.5798294,
      "tags": {
        "amenity": "atm",
        "operator": "Lakshmi Vilas Bank"
      }
    },
    {
      "type": "node",
      "id": 4443323771,
      "lat": 12.9371526,
      "lon": 77.5728792,
      "tags": {
        "addr:city": "Bangalore",
        "addr:housenumber": "49",
        "addr:postcode": "560004",
        "addr:street": "S Kariyappa Road",
        "amenity": "restaurant",
        "cuisine": "regional",
        "delivery": "yes",
        "name": "Presto",
        "name:kn": "ಪ್ರೆಸ್ಟೋ",
        "opening_hours": "08:00-23:00",
        "phone": "080 2662 2058",
        "smoking": "no"
      }
    },
    {
      "type": "node",
      "id": 4443365241,
      "lat": 12.9462613,
      "lon": 77.5703662,
      "tags": {
        "addr:city": "Bangalore",
        "addr:housenumber": "112",
        "addr:postcode": "560004",
        "addr:street": "Gandhi Bazar Main Road, Basavanagudi",
        "amenity": "restaurant",
        "cuisine": "regional",
        "delivery": "yes",
        "diet:vegetarian": "only",
        "name": "Baisakhi Vegetarian Restaurant",
        "opening_hours": "Mo-Su 12:30-16:00, 19:00-23:00",
        "phone": "+91 80 6533 9999",
        "smoking": "no",
        "takeaway": "yes"
      }
    },
    {
      "type": "node",
      "id": 4443397448,
      "lat": 12.9446256,
      "lon": 77.569918,
      "tags": {
        "addr:city": "Bangalore",
        "addr:housenumber": "8",
        "addr:postcode": "560004",
        "addr:street": "Behind BMS College of Engineering",
        "amenity": "restaurant",
        "cuisine": "regional",
        "delivery": "yes",
        "name": "Szechuan Dragon Chinese Restaurant",
        "opening_hours": "12-16, 7-23",
        "phone": "096635 67711",
        "smoking": "no"
      }
    },
    {
      "type": "node",
      "id": 4445197030,
      "lat": 12.9418834,
      "lon": 77.5707551,
      "tags": {
        "addr:city": "Bangalore",
        "addr:housenumber": "26",
        "addr:postcode": "560004",
        "addr:street": "DVG Road, Basavanagudi",
        "amenity": "restaurant",
        "cuisine": "regional",
        "delivery": "yes",
        "name": "Nisarga Garden Restaurant",
        "phone": "+91 94482 61574",
        "smoking": "no",
        "takeaway": "yes"
      }
    },
    {
      "type": "node",
      "id": 4445209596,
      "lat": 12.9406714,
      "lon": 77.5703714,
      "tags": {
        "addr:city": "Bangalore",
        "addr:postcode": "560004",
        "addr:street": "Mallikarjuna Temple St",
        "amenity": "restaurant",
        "cuisine": "regional",
        "delivery": "yes",
        "name": "Puliyogare Point",
        "opening_hours": "07:00-21:30",
        "phone": "+91 99869 53484",
        "smoking": "no",
        "takeaway": "yes"
      }
    },
    {
      "type": "node",
      "id": 4445214907,
      "lat": 12.9394749,
      "lon": 77.5776672,
      "tags": {
        "addr:city": "Bangalore",
        "addr:housenumber": "2/2",
        "addr:postcode": "560004",
        "addr:street": "Pattalamma Temple Road, 3rd Block, Jaya Nagar East",
        "amenity": "restaurant",
        "cuisine": "regional",
        "delivery": "yes",
        "name": "Cafe Mondo",
        "opening_hours": "11:00-23:00",
        "phone": "080 4208 8686",
        "smoking": "no",
        "takeaway": "yes"
      }
    },
    {
      "type": "node",
      "id": 4445233886,
      "lat": 12.9473154,
      "lon": 77.5690141,
      "tags": {
        "addr:city": "Bangalore",
        "addr:housenumber": "93",
        "addr:postcode": "560004",
        "addr:street": "Gandhi Bazaar Main Rd, Gandhi Bazaar, Basavanagudi",
        "amenity": "restaurant",
        "cuisine": "regional",
        "delivery": "yes",
        "name": "Hotel New Atithya",
        "opening_hours": "07:00:30-15:30, 17:00-23:30",
        "phone": "080 2650 8150",
        "smoking": "no",
        "takeaway": "yes"
      }
    },
    {
      "type": "node",
      "id": 4445259436,
      "lat": 12.9446421,
      "lon": 77.5719424,
      "tags": {
        "addr:city": "Bangalore",
        "addr:postcode": "560004",
        "addr:street": "Puttana Rd, Gandhi Bazaar",
        "amenity": "restaurant",
        "cuisine": "regional",
        "delivery": "yes",
        "name": "New Prashanth Hotel",
        "phone": "099803 04249",
        "smoking": "no",
        "takeaway": "yes"
      }
    },
    {
      "type": "node",
      "id": 4445281666,
      "lat": 12.9379147,
      "lon": 77.5748672,
      "tags": {
        "addr:city": "Bangalore",
        "addr:housenumber": "49/1",
        "addr:postcode": "560004",
        "addr:street": "S Kariyappa Road, South End Road, Basavanagudi, Opposite To Balaji Medicals",
        "amenity": "restaurant",
        "cuisine": "regional",
        "delivery": "yes",
        "name": "Thindi Katte",
        "phone": "080 2662 2058",
        "smoking": "no"
      }
    },
    {
      "type": "node",
      "id": 4445291691,
      "lat": 12.947549,
      "lon": 77.5739319,
      "tags": {
        "addr:city": "Bangalore",
        "addr:postcode": "560004",
        "addr:street": "K R Road, Basavangudi",
        "amenity": "restaurant",
        "cuisine": "regional",
        "delivery": "yes",
        "name": "Cool corner",
        "opening_hours": "08:00-22:00",
        "phone": "080 2691 6505",
        "smoking": "no",
        "takeaway": "yes"
      }
    },
    {
      "type": "node",
      "id": 4445298694,
      "lat": 12.9387861,
      "lon": 77.5799087,
      "tags": {
        "addr:city": "Bangalore",
        "addr:housenumber": "18",
        "addr:postcode": "560004",
        "addr:street": "R V Road, Basavanagudi, Near South End Circle",
        "amenity": "restaurant",
        "cuisine": "regional",
        "delivery": "yes",
        "name": "New Shanthi Sagar",
        "opening_hours": "07:30-21:30",
        "phone": "080 2657 9968",
        "smoking": "no",
        "takeaway": "yes"
      }
    },
    {
      "type": "node",
      "id": 4445303925,
      "lat": 12.9470578,
      "lon": 77.5714933,
      "tags": {
        "addr:city": "Bangalore",
        "addr:postcode": "560004",
        "addr:street": "DVG Road, Gandhi Bazaar, Basavanagudi",
        "amenity": "restaurant",
        "cuisine": "regional",
        "delivery": "yes",
        "name": "Maha Lakshmi Tiffin Room",
        "opening_hours": "Mo-Tu 06:30-11:30,14:30-20:00; Th-Su 06:30-11:30,14:30-20:00",
        "phone": "080 2290 6305",
        "smoking": "no"
      }
    },
    {
      "type": "node",
      "id": 4445314674,
      "lat": 12.9448665,
      "lon": 77.5715764,
      "tags": {
        "addr:city": "Bengaluru",
        "addr:postcode": "560004",
        "addr:street": "DVG Road, Gandhi Bazaar, Basavanagudi",
        "amenity": "restaurant",
        "cuisine": "regional",
        "delivery": "yes",
        "name": "Ice Thunder",
        "opening_hours": "08:30-21:30",
        "smoking": "no",
        "takeaway": "yes"
      }
    },
    {
      "type": "node",
      "id": 4445323668,
      "lat": 12.937747,
      "lon": 77.5758056,
      "tags": {
        "addr:city": "Bangalore",
        "addr:postcode": "560004",
        "addr:street": "S End Rd, Basavanagudi",
        "amenity": "restaurant",
        "cuisine": "regional",
        "delivery": "yes",
        "name": "Imperial Plaza",
        "smoking": "no"
      }
    },
    {
      "type": "node",
      "id": 4445337724,
      "lat": 12.947133,
      "lon": 77.5694107,
      "tags": {
        "addr:city": "Bengaluru",
        "addr:housenumber": "95",
        "addr:postcode": "560004",
        "addr:street": "Gandhi Bazaar, Basavanagudi",
        "amenity": "cafe",
        "brand": "Cafe Coffee Day",
        "brand:wikidata": "Q5017235",
        "cuisine": "coffee_shop",
        "delivery": "yes",
        "name": "Cafe Coffee Day",
        "name:kn": "ಕಫೆ ಕಾಫಿ ಡೇ",
        "opening_hours": "11:00-23:00",
        "phone": "080 3256 9590",
        "smoking": "no",
        "takeaway": "yes",
        "website": "https://www.cafecoffeeday.com/"
      }
    },
    {
      "type": "node",
      "id": 4445351321,
      "lat": 12.9471057,
      "lon": 77.5716965,
      "tags": {
        "addr:city": "Bangalore",
        "addr:housenumber": "22",
        "addr:postcode": "560004",
        "addr:street": "Govindappa Road, V.C Plaza, Next To Suvarna Silk, DVG Road, Gandhi Bazaar, Basavanagudi",
        "amenity": "restaurant",
        "cuisine": "regional",
        "delivery": "yes",
        "name": "Thanco's Natural Ice Cream",
        "opening_hours": "11:00-23:00",
        "phone": "080 4099 7919",
        "smoking": "no",
        "takeaway": "yes",
        "website": "www.thancosnatural.com"
      }
    },
    {
      "type": "node",
      "id": 4445727000,
      "lat": 12.9385441,
      "lon": 77.5699295,
      "tags": {
        "addr:city": "Bangalore",
        "addr:postcode": "560004",
        "addr:street": "E Anjaneya Temple St, NR Colony, Basavanagudi",
        "amenity": "restaurant",
        "cuisine": "regional",
        "delivery": "yes",
        "name": "Harshi Super Sandwich",
        "opening_hours": "10:00-21:30",
        "phone": "095357 36455",
        "smoking": "no",
        "takeaway": "yes",
        "website": "https://sites.google.com/site/harshisupersandwich/"
      }
    },
    {
      "type": "node",
      "id": 4445737595,
      "lat": 12.9365742,
      "lon": 77.5739529,
      "tags": {
        "addr:city": "Bangalore",
        "addr:housenumber": "35-1",
        "addr:postcode": "560004",
        "addr:street": "Kanakpur Road, Basavanagudi",
        "amenity": "restaurant",
        "cuisine": "regional",
        "delivery": "yes",
        "name": "Vybhava",
        "opening_hours": "06:30-22:30",
        "phone": "080 2665 3198",
        "smoking": "no",
        "takeaway": "yes"
      }
    },
    {
      "type": "node",
      "id": 4445742395,
      "lat": 12.937044,
      "lon": 77.5753259,
      "tags": {
        "addr:city": "Bangalore",
        "addr:housenumber": "49",
        "addr:postcode": "560004",
        "addr:street": "Nittoor Bhavana, S Kariyappa Road, Basavanagudi",
        "amenity": "restaurant",
        "cuisine": "regional",
        "delivery": "yes",
        "name": "The Other Crescent",
        "opening_hours": "07:00-22:30",
        "phone": "080 2662 2058",
        "smoking": "no",
        "takeaway": "yes"
      }
    },
    {
      "type": "node",
      "id": 4445757328,
      "lat": 12.9373404,
      "lon": 77.579911,
      "tags": {
        "addr:city": "Bangalore",
        "addr:housenumber": "5",
        "addr:postcode": "560004",
        "addr:street": "RV Road, South End Circle, Opp Bangalore Hospital, Basavanagudi",
        "amenity": "restaurant",
        "cuisine": "regional",
        "delivery": "yes",
        "name": "Hotel Sanman",
        "phone": "080 2657 0065",
        "smoking": "no",
        "takeaway": "yes"
      }
    },
    {
      "type": "node",
      "id": 4445782638,
      "lat": 12.9363723,
      "lon": 77.5682018,
      "tags": {
        "addr:city": "Bangalore",
        "addr:housenumber": "115/121",
        "addr:postcode": "560004",
        "addr:street": "4th Main Road, 4th Stage,Thyagaraja Nagar",
        "amenity": "restaurant",
        "cuisine": "regional",
        "delivery": "yes",
        "name": "Amandé Patisserie",
        "opening_hours": "09:00-18:00",
        "phone": "080 2676 1080",
        "smoking": "no",
        "takeaway": "yes",
        "website": "https://amande.co.in/"
      }
    },
    {
      "type": "node",
      "id": 4445799119,
      "lat": 12.9488056,
      "lon": 77.5743239,
      "tags": {
        "addr:city": "Bangalore",
        "addr:postcode": "560004",
        "addr:street": "Kavi Lakshmisha Rd, Vishweshwarapura, Shankarapura",
        "amenity": "restaurant",
        "cuisine": "regional",
        "delivery": "yes",
        "name": "Bakery World",
        "opening_hours": "07:00-22:00",
        "phone": "080 4093 7384",
        "smoking": "no",
        "takeaway": "yes"
      }
    },
    {
      "type": "node",
      "id": 4446525169,
      "lat": 12.9464613,
      "lon": 77.57609,
      "tags": {
        "addr:full": "80 Feet Road, 5th Cross Road, Chandra Layout, Vijay Nagar, Bangalore - 560040",
        "alt_name": "Goli Vada Pav No.1",
        "amenity": "fast_food",
        "brand": "Goli Vada Pav",
        "brand:wikidata": "Q5580697",
        "cuisine": "indian",
        "name": "Goli Vada Pav",
        "name:kn": "ಗೋಲಿ ವಡ ಪಾವ್",
        "opening_hours": "10:00-22:00",
        "phone": "+91 9845315071",
        "takeaway": "yes",
        "website": "https://www.golivadapav.com/"
      }
    },
    {
      "type": "node",
      "id": 4446980627,
      "lat": 12.9348997,
      "lon": 77.573964,
      "tags": {
        "addr:city": "Bangalore",
        "addr:postcode": "560010",
        "addr:street": "rajajinagar",
        "amenity": "pharmacy",
        "healthcare": "pharmacy",
        "name": "Prashanth Pharma",
        "phone": "8022512593",
        "source": "www.asklaila.com"
      }
    },
    {
      "type": "node",
      "id": 4447071065,
      "lat": 12.944786,
      "lon": 77.5717922,
      "tags": {
        "amenity": "restaurant"
      }
    },
    {
      "type": "node",
      "id": 4447071066,
      "lat": 12.9447626,
      "lon": 77.5717734,
      "tags": {
        "addr:city": "Bangalore",
        "addr:housenumber": "17",
        "addr:postcode": "560004",
        "addr:street": "Next to cake ghar,Gandhi Bazaar Main Rd, Gandhi Bazaar, Basavanagudi",
        "amenity": "restaurant",
        "cuisine": "regional",
        "delivery": "yes",
        "name": "U.D Roti Ghar &Cake ghar",
        "opening_hours": "07:30-22:30",
        "phone": "080 2662 2760",
        "smoking": "no",
        "takeaway": "yes",
        "website": "https://www.facebook.com/rotighar"
      }
    },
    {
      "type": "node",
      "id": 4447072621,
      "lat": 12.9446144,
      "lon": 77.5729301,
      "tags": {
        "addr:city": "Bangalore",
        "addr:housenumber": "198",
        "addr:postcode": "560004",
        "addr:street": "3rd Floor, Gandhi Bazaar Main Road, Gandhi Bazaar, Basavanagudi",
        "amenity": "restaurant",
        "cuisine": "regional",
        "delivery": "yes",
        "name": "Soho Bar & Grill",
        "opening_hours": "11:30-23:30",
        "phone": "080 4160 9443",
        "smoking": "no",
        "takeaway": "yes",
        "website": "http://www.31southparkhotel.com/sohobar.html"
      }
    },
    {
      "type": "node",
      "id": 4447076724,
      "lat": 12.9444068,
      "lon": 77.5709394,
      "tags": {
        "addr:city": "Bangalore",
        "addr:housenumber": "142/143",
        "addr:postcode": "560004",
        "addr:street": "1st Floor, GR Plaza, DVG Road, Gandhi Bazaar, Basavanagudi",
        "amenity": "restaurant",
        "cuisine": "regional",
        "name": "Gokul Veg",
        "opening_hours": "11:00-22:30",
        "phone": "080 2662 7612",
        "smoking": "no",
        "takeaway": "yes",
        "website": "https://www.gokulveg.in/"
      }
    },
    {
      "type": "node",
      "id": 4447078189,
      "lat": 12.9378405,
      "lon": 77.574857,
      "tags": {
        "addr:city": "Bangalore",
        "addr:housenumber": "49",
        "addr:postcode": "560004",
        "addr:street": "S Kariyappa Road, Basavanagudi",
        "amenity": "restaurant",
        "cuisine": "regional",
        "delivery": "yes",
        "name": "Presto",
        "name:kn": "ಪ್ರೆಸ್ಟೋ",
        "opening_hours": "08:00-23:00",
        "phone": "080 2662 2058",
        "smoking": "no",
        "takeaway": "yes"
      }
    },
    {
      "type": "node",
      "id": 4447082895,
      "lat": 12.9396288,
      "lon": 77.5667866,
      "tags": {
        "addr:city": "Bangalore",
        "addr:postcode": "560004",
        "addr:street": "Bull Temple Road",
        "amenity": "restaurant",
        "cuisine": "regional",
        "delivery": "yes",
        "name": "Kamath Bugle Rock",
        "opening_hours": "07:00-22:30",
        "phone": "080 4124 1112",
        "smoking": "no",
        "takeaway": "yes"
      }
    },
    {
      "type": "node",
      "id": 4447085544,
      "lat": 12.9415832,
      "lon": 77.5770807,
      "tags": {
        "addr:city": "bangalore",
        "addr:housenumber": "93",
        "addr:postcode": "560004",
        "addr:street": "Kanakapura Rd, Basavanagudi",
        "amenity": "restaurant",
        "cuisine": "regional",
        "delivery": "yes",
        "name": "The Rogue Elephant",
        "opening_hours": "11:00-20:30",
        "phone": "098456 64681",
        "smoking": "no"
      }
    },
    {
      "type": "node",
      "id": 4447090061,
      "lat": 12.9458476,
      "lon": 77.5710517,
      "tags": {
        "addr:city": "Bangalore",
        "addr:housenumber": "32",
        "addr:postcode": "560004",
        "addr:street": "Gandhi Bazaar Main Rd, Gandhi Bazaar, Basavanagudi",
        "amenity": "restaurant",
        "cuisine": "regional",
        "name": "Udupi Sri Krishna Bhavan",
        "opening_hours": "07:30-20:30"
      }
    },
    {
      "type": "node",
      "id": 4447099380,
      "lat": 12.9403117,
      "lon": 77.5798319,
      "tags": {
        "addr:city": "Bangalore",
        "addr:housenumber": "31",
        "addr:postcode": "560004",
        "addr:street": "Opposite Vijaya College, RV Road, Basavanagudi",
        "amenity": "restaurant",
        "cuisine": "regional",
        "delivery": "yes",
        "name": "Kabab Magic",
        "opening_hours": "12:30-23:00",
        "phone": "080 2657 0381",
        "smoking": "no"
      }
    },
    {
      "type": "node",
      "id": 4447105420,
      "lat": 12.9377243,
      "lon": 77.5794545,
      "tags": {
        "addr:city": "Bangalore",
        "addr:housenumber": "23",
        "addr:postcode": "560004",
        "addr:street": "Patalamma Street, Basavanagudi",
        "amenity": "restaurant",
        "cuisine": "regional",
        "delivery": "yes",
        "name": "Leanin Tree Art Cafe",
        "opening_hours": "11:00-23:00",
        "phone": "098862 18518",
        "smoking": "no",
        "takeaway": "yes"
      }
    },
    {
      "type": "node",
      "id": 4447110450,
      "lat": 12.9444202,
      "lon": 77.5729266,
      "tags": {
        "addr:city": "Bangalore",
        "addr:postcode": "560004",
        "addr:street": "Gandhi Bazaar Main Rd, Gandhi Bazaar, Basavanagudi",
        "amenity": "restaurant",
        "cuisine": "regional",
        "delivery": "yes",
        "name": "Hungerez",
        "opening_hours": "11:00-22:00",
        "phone": "097424 00031",
        "smoking": "no",
        "takeaway": "yes",
        "website": "http://www.hungerez.com/"
      }
    },
    {
      "type": "node",
      "id": 4447114176,
      "lat": 12.9444107,
      "lon": 77.5721169,
      "tags": {
        "addr:city": "Bangalore",
        "addr:postcode": "560004",
        "addr:street": "3rd Floor, Above Reliance Trends, 10, Gandhi Bazaar Main Rd, Basavanagudi",
        "amenity": "restaurant",
        "cuisine": "regional",
        "delivery": "yes",
        "name": "Grand Village",
        "opening_hours": "12:00-14:30, 19-22:30",
        "phone": "080 2661 2447",
        "smoking": "no"
      }
    },
    {
      "type": "node",
      "id": 4447124200,
      "lat": 12.9376671,
      "lon": 77.5676462,
      "tags": {
        "addr:city": "Bangalore",
        "addr:postcode": "560004",
        "addr:street": "7th Cross Road, NR Colony, Basavangudi,",
        "amenity": "restaurant",
        "cuisine": "regional",
        "delivery": "no",
        "name": "Hotel Dwarka",
        "opening_hours": "We-Su 07:00-20:30",
        "phone": "080 2590 5217",
        "smoking": "no",
        "takeaway": "yes"
      }
    },
    {
      "type": "node",
      "id": 4447127000,
      "lat": 12.9440883,
      "lon": 77.5725864,
      "tags": {
        "addr:city": "Bangalore",
        "addr:housenumber": "5",
        "addr:postcode": "560004",
        "addr:street": "Mallaraiah Complex, 1st Floor, Gandhi Bazaar Main Rd, Gandhi Bazaar, Basavanagud",
        "amenity": "restaurant",
        "cuisine": "regional",
        "delivery": "yes",
        "name": "Pramukh Family Restaurant - Prassidhi Enterprises",
        "opening_hours": "11:30-23:30",
        "phone": "080 2662 2484",
        "smoking": "no",
        "takeaway": "yes"
      }
    },
    {
      "type": "node",
      "id": 4447135317,
      "lat": 12.9450065,
      "lon": 77.5714721,
      "tags": {
        "addr:city": "Bengaluru",
        "addr:housenumber": "32",
        "addr:postcode": "560004",
        "addr:street": "Gandhi Bazaar Main Road, Basavanagudi",
        "amenity": "restaurant",
        "cuisine": "regional",
        "delivery": "yes",
        "diet:vegetarian": "yes",
        "name": "Vidyarthi Bhavan",
        "name:kn": "ವಿದ್ಯಾರ್ಥಿ ಭವನ",
        "opening_hours": "Mo-Th 06:30-11:30, Mo-Th 14:00-20:00, Sa-Su 06:30-12:00, Sa-Su 14:30-20:00",
        "phone": "+91 80 2667 7588",
        "smoking": "no",
        "takeaway": "yes",
        "website": "https://vidyarthibhavan.in",
        "wikidata": "Q7928217",
        "wikipedia": "en:Vidyarthi Bhavan"
      }
    },
    {
      "type": "node",
      "id": 4447143200,
      "lat": 12.9375122,
      "lon": 77.5759985,
      "tags": {
        "addr:city": "Bangalore",
        "addr:postcode": "560070",
        "addr:street": "S End Rd, Yediyur, Basavanagudi",
        "amenity": "restaurant",
        "cuisine": "regional",
        "delivery": "yes",
        "name": "Gandharva Family Restaurant",
        "phone": "080 2663 1181",
        "smoking": "no"
      }
    },
    {
      "type": "node",
      "id": 4447161307,
      "lat": 12.938888,
      "lon": 77.5755794,
      "tags": {
        "addr:city": "Bangalore",
        "addr:postcode": "560004",
        "addr:street": "Kankapura Road, Yediyur, Basavanagudi",
        "amenity": "restaurant",
        "cuisine": "regional",
        "delivery": "yes",
        "name": "South Thindies",
        "opening_hours": "06:00-15:30,16:30-22:30",
        "smoking": "no"
      }
    },
    {
      "type": "node",
      "id": 4447163847,
      "lat": 12.9445488,
      "lon": 77.57272,
      "tags": {
        "addr:city": "Bangalore",
        "addr:postcode": "560004",
        "addr:street": "Gandhi Bazar Main Road",
        "alt_name": "A2B",
        "amenity": "restaurant",
        "brand": "Adyar Ananda Bhavan",
        "brand:wikidata": "Q15178238",
        "cuisine": "regional",
        "delivery": "yes",
        "diet:vegetarian": "only",
        "email": "info@aabsweets.com",
        "name": "Adyar Ananda Bhavan",
        "name:kn": "ಆದ್ಯಾರ್ ಆನಂದ ಭವನ",
        "operator": "Adyar Ananda Bhavan",
        "phone": "+91 80 4120 3999",
        "smoking": "no",
        "website": "https://aabsweets.com"
      }
    },
    {
      "type": "node",
      "id": 4488134472,
      "lat": 12.948401,
      "lon": 77.5712754,
      "tags": {
        "addr:city": "Bangalore",
        "addr:housenumber": "No. 11",
        "addr:postcode": "560004",
        "addr:street": "Vanivilas Road, Near Flyover, Basavanagudi",
        "name": "Sports 'N' Style",
        "opening_hours": "12:00-21:00",
        "phone": "080 2667 2227",
        "shop": "sports"
      }
    },
    {
      "type": "node",
      "id": 4488407044,
      "lat": 12.9390091,
      "lon": 77.5755401,
      "tags": {
        "addr:city": "Bangalore",
        "addr:postcode": "560004",
        "addr:street": "Reservoir Street",
        "name": "Eden Unisex Spa And Salon",
        "opening_hours": "09:30-18:30",
        "phone": "8033537010",
        "shop": "beauty",
        "website": "https://www.edenspa.asia/"
      }
    },
    {
      "type": "node",
      "id": 4489397789,
      "lat": 12.9484803,
      "lon": 77.5718678,
      "tags": {
        "addr:city": "Bangalore",
        "addr:housenumber": "5",
        "addr:postcode": "560004",
        "addr:street": "Aaradya Complex, 21/1, Vanivilas Road, Near-National College, Basavanagudi",
        "name": "Planet Sports",
        "opening_hours": "09:30-21:30",
        "phone": "+919845374453",
        "shop": "sports"
      }
    },
    {
      "type": "node",
      "id": 4489878612,
      "lat": 12.940781,
      "lon": 77.5730429,
      "tags": {
        "addr:city": "Bangalore",
        "addr:postcode": "560004",
        "addr:street": "Netta Kalappa Circle",
        "leisure": "sports_centre",
        "name": "Fitness 24/7",
        "opening_hours": "05:00-23:00",
        "phone": "080 4097 0718"
      }
    },
    {
      "type": "node",
      "id": 4506524892,
      "lat": 12.9399994,
      "lon": 77.5719477,
      "tags": {
        "addr:postcode": "560004",
        "addr:street": "Puttana Road",
        "amenity": "theatre",
        "name": "ಅಂತರಂಗ",
        "name:en": "Antharanga",
        "name:kn": "ಅಂತರಂಗ",
        "phone": "98866 24687",
        "website": "http://www.antharanga.in"
      }
    },
    {
      "type": "node",
      "id": 4621578591,
      "lat": 12.9469892,
      "lon": 77.5690135,
      "tags": {
        "name": "Band Box",
        "name:en": "Band Box",
        "shop": "laundry"
      }
    },
    {
      "type": "node",
      "id": 4655064781,
      "lat": 12.9427251,
      "lon": 77.5712748,
      "tags": {
        "addr:city": "Bangalore",
        "addr:housenumber": "121",
        "addr:postcode": "560004",
        "addr:street": "D V Gundappa Road",
        "amenity": "bank",
        "brand": "Allahabad Bank",
        "brand:wikidata": "Q2018840",
        "brand:wikipedia": "en:Allahabad Bank",
        "fax": "080-26625632",
        "name": "Allahabad Bank",
        "name:en": "Allahabad Bank",
        "name:kn": "ಅಲ್ಲಹಾಬಾದ್ ಬ್ಯಾಂಕ್",
        "phone": "080-26679442",
        "phone_1": "080-26625632",
        "website": "https://www.allahabadbank.in"
      }
    },
    {
      "type": "node",
      "id": 4703448590,
      "lat": 12.9449149,
      "lon": 77.5677557,
      "tags": {
        "name": "3M Car Care",
        "name:en": "3M Car Care",
        "shop": "car_parts"
      }
    },
    {
      "type": "node",
      "id": 4824986021,
      "lat": 12.9434017,
      "lon": 77.5771336,
      "tags": {
        "amenity": "fuel",
        "brand": "Bharat Petroleum",
        "brand:wikidata": "Q854826",
        "name": "Bharat Petroleum",
        "name:en": "Bharat Petroleum",
        "name:kn": "ಭಾರತ್ ಪೆಟ್ರೋಲಿಯಂ"
      }
    },
    {
      "type": "node",
      "id": 4828690974,
      "lat": 12.9365826,
      "lon": 77.5797991,
      "tags": {
        "amenity": "clock",
        "check_date": "2022-12-23",
        "display": "analog",
        "support": "pole",
        "visibility": "area"
      }
    },
    {
      "type": "node",
      "id": 4884891000,
      "lat": 12.9377734,
      "lon": 77.5690046,
      "tags": {
        "amenity": "place_of_worship",
        "name": "Ambabavani Temple",
        "name:kn": "ಅಂಬಭವಾನಿ",
        "religion": "hindu"
      }
    },
    {
      "type": "node",
      "id": 5078108577,
      "lat": 12.9425836,
      "lon": 77.5815226,
      "tags": {
        "addr:street": "6th Main, Hanumanth Nagar",
        "amenity": "place_of_worship",
        "denomination": "hindu",
        "description": "Hindu Temple",
        "name": "Andaal Rangamannaar Temple"
      }
    },
    {
      "type": "node",
      "id": 5078108718,
      "lat": 12.942297,
      "lon": 77.581498,
      "tags": {
        "addr:street": "6th Main, Hanumanth Nagar",
        "amenity": "place_of_worship",
        "name": "Andaal Rangamannaar Temple Hall"
      }
    },
    {
      "type": "node",
      "id": 5217775516,
      "lat": 12.9369431,
      "lon": 77.5791459,
      "tags": {
        "addr:city": "Bangalore",
        "addr:postcode": "560004",
        "addr:street": "South End Road",
        "name": "VLCC",
        "shop": "beauty"
      }
    },
    {
      "type": "node",
      "id": 5234717428,
      "lat": 12.93656,
      "lon": 77.5804636,
      "tags": {
        "amenity": "atm",
        "brand": "Canara Bank",
        "brand:en": "Canara Bank",
        "brand:hi": "केनरा बैंक",
        "brand:kn": "ಕೆನರಾ ಬ್ಯಾಂಕ್",
        "brand:pa": "ਕੇਨਰਾ ਬੈਂਕ",
        "brand:pnb": "کینرا بینک",
        "brand:ur": "کینرا بینک",
        "brand:wikidata": "Q2003777",
        "name": "Canara Bank",
        "name:en": "Canara Bank",
        "name:hi": "केनरा बैंक",
        "name:kn": "ಕೆನರಾ ಬ್ಯಾಂಕ್",
        "name:pa": "ਕੇਨਰਾ ਬੈਂਕ",
        "name:pnb": "کینرا بینک",
        "name:ur": "کینرا بینک",
        "operator": "Canara Bank",
        "operator:wikidata": "Q2003777"
      }
    },
    {
      "type": "node",
      "id": 5234720398,
      "lat": 12.939466,
      "lon": 77.5776226,
      "tags": {
        "amenity": "clinic",
        "healthcare": "clinic",
        "name": "Ambuja Healthcare"
      }
    },
    {
      "type": "node",
      "id": 5234722241,
      "lat": 12.9386918,
      "lon": 77.5781098,
      "tags": {
        "amenity": "bank",
        "brand": "State Bank of India",
        "brand:wikidata": "Q1340361",
        "name": "State Bank of India",
        "name:kn": "ಭಾರತೀಯ ಸ್ಟೇಟ್ ಬ್ಯಾಂಕ್",
        "short_name": "SBI"
      }
    },
    {
      "type": "node",
      "id": 5234722569,
      "lat": 12.9385769,
      "lon": 77.5782578,
      "tags": {
        "name": "Ramraj",
        "shop": "clothes"
      }
    },
    {
      "type": "node",
      "id": 5234724313,
      "lat": 12.9382437,
      "lon": 77.5785496,
      "tags": {
        "name": "Mattress Firm",
        "operator": "KurlOn",
        "shop": "bed"
      }
    },
    {
      "type": "node",
      "id": 5234740176,
      "lat": 12.9403707,
      "lon": 77.5730845,
      "tags": {
        "amenity": "toilets",
        "unisex": "yes"
      }
    },
    {
      "type": "node",
      "id": 5234740899,
      "lat": 12.9416336,
      "lon": 77.5767895,
      "tags": {
        "amenity": "place_of_worship",
        "name": "Shree Renuka Yellamma Devi Temple",
        "religion": "hindu"
      }
    },
    {
      "type": "node",
      "id": 5234742318,
      "lat": 12.942235,
      "lon": 77.5713091,
      "tags": {
        "amenity": "motorcycle_parking"
      }
    },
    {
      "type": "node",
      "id": 5234750135,
      "lat": 12.946047,
      "lon": 77.5784123,
      "tags": {
        "amenity": "bank",
        "brand": "Canara Bank",
        "brand:en": "Canara Bank",
        "brand:hi": "केनरा बैंक",
        "brand:kn": "ಕೆನರಾ ಬ್ಯಾಂಕ್",
        "brand:pa": "ਕੇਨਰਾ ਬੈਂਕ",
        "brand:pnb": "کینرا بینک",
        "brand:ur": "کینرا بینک",
        "brand:wikidata": "Q2003777",
        "brand:wikipedia": "en:Canara Bank",
        "brand:wikipedia:pa": "ਕੇਨਰਾ ਬੈਂਕ",
        "name": "Canara Bank",
        "name:en": "Canara Bank",
        "name:hi": "केनरा बैंक",
        "name:kn": "ಕೆನರಾ ಬ್ಯಾಂಕ್",
        "name:pa": "ਕੇਨਰਾ ਬੈਂਕ",
        "name:pnb": "کینرا بینک",
        "name:ur": "کینرا بینک"
      }
    },
    {
      "type": "node",
      "id": 5234759165,
      "lat": 12.9437494,
      "lon": 77.5716777,
      "tags": {
        "amenity": "fast_food",
        "name": "Asha Sweets and Snacks"
      }
    },
    {
      "type": "node",
      "id": 5234763498,
      "lat": 12.9437578,
      "lon": 77.5712628,
      "tags": {
        "amenity": "bank",
        "brand": "Syndicate Bank",
        "brand:wikidata": "Q2004088",
        "name": "Syndicate Bank",
        "name:kn": "ಸಿಂಡಿಕೇಟ್ ಬ್ಯಾಂಕ್"
      }
    },
    {
      "type": "node",
      "id": 5246614722,
      "lat": 12.9467131,
      "lon": 77.5692249,
      "tags": {
        "addr:housenumber": "65",
        "amenity": "pharmacy",
        "healthcare": "pharmacy",
        "name": "Ayurvedic Pharmacy",
        "name:kn": "ಆಯುರ್ವೇದ ಔಷದಾಲಯ",
        "name:ru": "Аюрведические препараты"
      }
    },
    {
      "type": "node",
      "id": 5306017405,
      "lat": 12.9480048,
      "lon": 77.5699568,
      "tags": {
        "amenity": "ice_cream",
        "brand": "Baskin-Robbins",
        "brand:wikidata": "Q584601",
        "cuisine": "ice_cream",
        "name": "Baskin-Robbins",
        "name:kn": "ಬಸ್ಕಿನ್ ರಾಬಿನ್ಸ್"
      }
    },
    {
      "type": "node",
      "id": 5306017406,
      "lat": 12.9480153,
      "lon": 77.5696644,
      "tags": {
        "name": "Girias",
        "shop": "electronics"
      }
    },
    {
      "type": "node",
      "id": 5306017410,
      "lat": 12.9437583,
      "lon": 77.5665638,
      "tags": {
        "amenity": "restaurant",
        "name": "Dakshin Kitchen"
      }
    },
    {
      "type": "node",
      "id": 5306017411,
      "lat": 12.9437988,
      "lon": 77.5665812,
      "tags": {
        "amenity": "restaurant",
        "name": "Chinese Kitchen"
      }
    },
    {
      "type": "node",
      "id": 5306746586,
      "lat": 12.9492282,
      "lon": 77.5798434,
      "tags": {
        "amenity": "doctors",
        "healthcare": "doctor",
        "name": "Srinivasa Clinic"
      }
    },
    {
      "type": "node",
      "id": 5306746589,
      "lat": 12.9495157,
      "lon": 77.5797871,
      "tags": {
        "name": "Ramya Beauty Parlor",
        "shop": "beauty"
      }
    },
    {
      "type": "node",
      "id": 5306746590,
      "lat": 12.9495419,
      "lon": 77.5798273,
      "tags": {
        "amenity": "atm",
        "brand": "HDFC Bank",
        "brand:wikidata": "Q631047",
        "name": "HDFC Bank",
        "name:kn": "ಎಚ್ ಡಿ ಎಫ್ ಸಿ",
        "operator": "HDFC Bank",
        "operator:wikidata": "Q631047",
        "short_name": "HDFC"
      }
    },
    {
      "type": "node",
      "id": 5530812455,
      "lat": 12.9400337,
      "lon": 77.5730676,
      "tags": {
        "addr:city": "Bangalore",
        "addr:postcode": "560004",
        "addr:street": "Netta Kalappa Circle",
        "amenity": "place_of_worship",
        "name": "Ganesha Temple",
        "name:kn": "ಗಣೇಶ ದೇವಸ್ಥಾನ",
        "religion": "hindu"
      }
    },
    {
      "type": "node",
      "id": 6349089553,
      "lat": 12.9357317,
      "lon": 77.57751,
      "tags": {
        "addr:place": "Jayanagar",
        "amenity": "school",
        "isced:level": "2",
        "name": "Vijaya HPS Jayanagar",
        "name:kn": "ವಿಜಯ ಹಿರಿಯ ಪ್ರಾಥಮಿಕ ಶಾಲೆ ಜಯನಗರ",
        "operator": "Department of Education",
        "school": "primary"
      }
    },
    {
      "type": "node",
      "id": 6938775853,
      "lat": 12.9463129,
      "lon": 77.5796349,
      "tags": {
        "addr:district": "Bengaluru Urban",
        "addr:full": "No-9/91, Govindappa Road, Basavana Gudi",
        "addr:postcode": "560004",
        "addr:state": "Karnataka",
        "amenity": "clinic",
        "healthcare": "clinic",
        "name": "Medikeris Superspecaility Ent Centre",
        "operator:type": "private",
        "source": "OpenGovernmentData",
        "website": "http://www.medikerihospital.com/"
      }
    },
    {
      "type": "node",
      "id": 6938864297,
      "lat": 12.9417462,
      "lon": 77.580349,
      "tags": {
        "addr:district": "Bengaluru Urban",
        "addr:full": "CGHS Dispensary No.6, Jayanagar No.57/190,R.V.Road, 2nd Block, Jayanagar",
        "addr:postcode": "560011",
        "addr:state": "Karnataka",
        "amenity": "clinic",
        "health_facility:type": "dispensary",
        "healthcare": "centre",
        "name": "CGHS Dispensary No.6",
        "operator:type": "government",
        "source": "OpenGovernmentData",
        "website": "http://nb.bsf.gov.in/CGHS%20DIspenseries.pdf"
      }
    },
    {
      "type": "node",
      "id": 6938992707,
      "lat": 12.9366323,
      "lon": 77.5740431,
      "tags": {
        "addr:district": "Bengaluru Urban",
        "addr:full": "#42/77, South End Road, Basavanagudi",
        "addr:postcode": "560004",
        "addr:state": "Karnataka",
        "amenity": "clinic",
        "name": "Bharathi Nursing Home",
        "source": "OpenGovernmentData"
      }
    },
    {
      "type": "node",
      "id": 6944138101,
      "lat": 12.9484796,
      "lon": 77.5720472,
      "tags": {
        "addr:district": "Bengaluru Urban",
        "addr:full": "#356/1, 1st Cross, 1st Block, Jayanagar, Near Ashoka Pillar",
        "addr:postcode": "560011",
        "addr:state": "Karnataka",
        "amenity": "clinic",
        "name": "Lalbagh Nursing Home & IVF Centre",
        "source": "OpenGovernmentData",
        "website": "https://www.lalbaghivf.com/"
      }
    },
    {
      "type": "node",
      "id": 6944392363,
      "lat": 12.938853,
      "lon": 77.5786096,
      "tags": {
        "addr:district": "Bengaluru Urban",
        "addr:full": "9, Patalamma Temple Street, Basavanagudi",
        "addr:postcode": "560004",
        "addr:state": "Karnataka",
        "amenity": "hospital",
        "name": "Av Hospital",
        "source": "OpenGovernmentData"
      }
    },
    {
      "type": "node",
      "id": 6944507652,
      "lat": 12.9403012,
      "lon": 77.5764705,
      "tags": {
        "addr:district": "Bengaluru Urban",
        "addr:full": "1,Dewan N, Madhava Rao Road, Basavanagudi",
        "addr:postcode": "560004",
        "addr:state": "Karnataka",
        "amenity": "hospital",
        "healthcare": "hospital",
        "name": "Gunasheela Surgical and Maternity Hospital",
        "source": "OpenGovernmentData"
      }
    },
    {
      "type": "node",
      "id": 6944888150,
      "lat": 12.9496114,
      "lon": 77.5790786,
      "tags": {
        "addr:district": "Bengaluru Urban",
        "addr:full": "37, M.N. Krishna Rao Road, Opp Lalbagh West Gate",
        "addr:postcode": "560004",
        "addr:state": "Karnataka",
        "amenity": "hospital",
        "healthcare": "hospital",
        "name": "Jyothi The Lasik Vision Centre",
        "source": "OpenGovernmentData"
      }
    },
    {
      "type": "node",
      "id": 6945341656,
      "lat": 12.9484427,
      "lon": 77.5719805,
      "tags": {
        "addr:district": "Bengaluru Urban",
        "addr:full": "Aaradhya Complex, No.21/1, Vanivilas Road, Next To National College",
        "addr:postcode": "560004",
        "addr:state": "Karnataka",
        "amenity": "clinic",
        "name": "Prakash Eye Clinic",
        "source": "OpenGovernmentData"
      }
    },
    {
      "type": "node",
      "id": 6948030639,
      "lat": 12.9409351,
      "lon": 77.5787075,
      "tags": {
        "addr:district": "Bengaluru Urban",
        "addr:full": "88/3, K.R.Road,Basavanagudi",
        "addr:postcode": "560004",
        "addr:state": "Karnataka",
        "amenity": "clinic",
        "name": "B.M.S. Nursing Home",
        "source": "OpenGovernmentData"
      }
    },
    {
      "type": "node",
      "id": 6948244430,
      "lat": 12.9456627,
      "lon": 77.570339,
      "tags": {
        "addr:district": "Bengaluru Urban",
        "addr:full": "N0:55, Gandhi Bazaar, Facing E.A.T Street",
        "addr:postcode": "560004",
        "addr:state": "Karnataka",
        "amenity": "clinic",
        "name": "Sham Singh Nursing Home",
        "source": "OpenGovernmentData"
      }
    },
    {
      "type": "node",
      "id": 7018761629,
      "lat": 12.9379662,
      "lon": 77.568428,
      "tags": {
        "addr:city": "Bengaluru",
        "addr:street": "Subbrama Chetty Road",
        "amenity": "pharmacy",
        "brand": "Apollo Pharmacy",
        "brand:wikidata": "Q62562612",
        "dispensing": "yes",
        "drive_through": "no",
        "healthcare": "pharmacy",
        "name": "Apollo Pharmacy",
        "name:kn": "ಅಪೋಲೋ ಫಾರ್ಮಸಿ",
        "operator": "Apollo Pharmacy"
      }
    },
    {
      "type": "node",
      "id": 7043198419,
      "lat": 12.9487805,
      "lon": 77.5798256,
      "tags": {
        "name": "Kamat Tourist",
        "shop": "ticket"
      }
    },
    {
      "type": "node",
      "id": 7044834775,
      "lat": 12.9422487,
      "lon": 77.568503,
      "tags": {
        "leisure": "fitness_station"
      }
    },
    {
      "type": "node",
      "id": 7281512285,
      "lat": 12.9417567,
      "lon": 77.5687277,
      "tags": {
        "amenity": "place_of_worship",
        "name": "Bull Temple",
        "religion": "hindu"
      }
    },
    {
      "type": "node",
      "id": 7576958021,
      "lat": 12.9479573,
      "lon": 77.5798704,
      "tags": {
        "addr:district": "Bengaluru Urban",
        "addr:full": "MN Krishna Rao Road, Basavanagudi, Bengaluru",
        "addr:postcode": "560004",
        "addr:state": "Karnataka",
        "amenity": "clinic",
        "healthcare": "clinic",
        "name": "Life is Beautiful Clinic",
        "source": "Local Knowledge"
      }
    },
    {
      "type": "node",
      "id": 7576958024,
      "lat": 12.94786,
      "lon": 77.5716596,
      "tags": {
        "addr:district": "Bengaluru Urban",
        "addr:full": "DVG Road, Gandhi Bazaar, Basavanagudi, Bengaluru",
        "addr:postcode": "560004",
        "addr:state": "Karnataka",
        "amenity": "clinic",
        "name": "Preeti ENT Clinic",
        "source": "Local Knowledge"
      }
    },
    {
      "type": "node",
      "id": 7576958033,
      "lat": 12.9405198,
      "lon": 77.5794387,
      "tags": {
        "addr:district": "Bengaluru Urban",
        "addr:full": "Basavanagudi, Bengaluru",
        "addr:postcode": "560004",
        "addr:state": "Karnataka",
        "amenity": "hospital",
        "name": "Bangaluru Unani Hospital",
        "source": "Local Knowledge"
      }
    },
    {
      "type": "node",
      "id": 7576958034,
      "lat": 12.9454948,
      "lon": 77.5704845,
      "tags": {
        "addr:district": "Bengaluru Urban",
        "addr:full": "BKS Iyengar Road, Gandhi Bazaar, Basavanagudi, Bengaluru",
        "addr:state": "Karnataka",
        "amenity": "clinic",
        "name": "Vaidya shaam singh memorial nursing home",
        "source": "Local Knowledge"
      }
    },
    {
      "type": "node",
      "id": 7576958044,
      "lat": 12.937954,
      "lon": 77.575488,
      "tags": {
        "addr:district": "Bengaluru Urban",
        "addr:full": "Kanakapura Road, Basavanagudi, Bengaluru",
        "addr:postcode": "560004",
        "addr:state": "Karnataka",
        "amenity": "clinic",
        "name": "Ragvan Clinic",
        "source": "Local Knowledge"
      }
    },
    {
      "type": "node",
      "id": 7576958045,
      "lat": 12.945591,
      "lon": 77.5712865,
      "tags": {
        "addr:district": "Bengaluru Urban",
        "addr:full": "DVG Road, Gandhi Bazaar, Basavanagudi, Bengaluru",
        "addr:postcode": "560004",
        "addr:state": "Karnataka",
        "amenity": "hospital",
        "name": "Mitralaya Hospital",
        "source": "Local Knowledge"
      }
    },
    {
      "type": "node",
      "id": 7576958046,
      "lat": 12.9398513,
      "lon": 77.5740326,
      "tags": {
        "addr:district": "Bengaluru Urban",
        "addr:full": "Basavanagudi, Bengaluru",
        "addr:postcode": "560004",
        "addr:state": "Karnataka",
        "amenity": "clinic",
        "healthcare": "clinic",
        "name": "Ashirvad Clinic",
        "source": "Local Knowledge"
      }
    },
    {
      "type": "node",
      "id": 7576958047,
      "lat": 12.949269,
      "lon": 77.579839,
      "tags": {
        "addr:district": "Bengaluru Urban",
        "addr:full": "RV Road, Upparahalli, Basavanagudi, Bengaluru",
        "addr:postcode": "560004",
        "addr:state": "Karnataka",
        "amenity": "clinic",
        "healthcare": "clinic",
        "name": "Srinivasa Clinic",
        "source": "Local Knowledge"
      }
    },
    {
      "type": "node",
      "id": 7576958050,
      "lat": 12.9459422,
      "lon": 77.5717473,
      "tags": {
        "addr:district": "Bengaluru Urban",
        "addr:full": "Gandhi Bazaar, Basavanagudi, Bengaluru",
        "addr:postcode": "560004",
        "addr:state": "Karnataka",
        "amenity": "clinic",
        "name": "Medall Healthcare",
        "source": "Local Knowledge"
      }
    },
    {
      "type": "node",
      "id": 7576958053,
      "lat": 12.9489343,
      "lon": 77.5795464,
      "tags": {
        "addr:district": "Bengaluru Urban",
        "addr:full": "Rashtriya Vidyalaya Road, Vishweshwarapura, Basavanagudi, Bengaluru",
        "addr:postcode": "560004",
        "addr:state": "Karnataka",
        "amenity": "clinic",
        "name": "Taranatha Ayurveda Mandira",
        "source": "Local Knowledge"
      }
    },
    {
      "type": "node",
      "id": 7576958057,
      "lat": 12.9365488,
      "lon": 77.5762726,
      "tags": {
        "addr:district": "Bengaluru Urban",
        "addr:full": "Vijayarangam Layout, Basavanagudi, Bengaluru",
        "addr:postcode": "560070",
        "addr:state": "Karnataka",
        "amenity": "clinic",
        "name": "Padma Sanjeev Clinic",
        "source": "Local Knowledge"
      }
    },
    {
      "type": "node",
      "id": 7576958058,
      "lat": 12.9407834,
      "lon": 77.5713263,
      "tags": {
        "addr:district": "Bengaluru Urban",
        "addr:full": "DVG Road, Basavanagudi, Bengaluru",
        "addr:postcode": "560004",
        "addr:state": "Karnataka",
        "amenity": "clinic",
        "name": "Shubha Clinic",
        "source": "Local Knowledge"
      }
    },
    {
      "type": "node",
      "id": 7576958065,
      "lat": 12.945944,
      "lon": 77.567404,
      "tags": {
        "addr:district": "Bengaluru Urban",
        "addr:full": "Bull Temple Road, Hanumanthnagar, Bengaluru",
        "addr:postcode": "560019",
        "addr:state": "Karnataka",
        "amenity": "hospital",
        "name": "Shekhar Hospital",
        "source": "Local Knowledge"
      }
    },
    {
      "type": "node",
      "id": 7576958069,
      "lat": 12.9450794,
      "lon": 77.5680498,
      "tags": {
        "addr:district": "Bengaluru Urban",
        "addr:full": "Gandhi Bazaar, Basavanagudi, Bengaluru",
        "addr:state": "Karnataka",
        "amenity": "clinic",
        "healthcare": "clinic",
        "name": "ENT Care Centre",
        "source": "Local Knowledge"
      }
    },
    {
      "type": "node",
      "id": 7576958072,
      "lat": 12.944704,
      "lon": 77.56797,
      "tags": {
        "addr:district": "Bengaluru Urban",
        "addr:full": "Gandhi Bazaar, Basavanagudi, Bengaluru",
        "addr:postcode": "560004",
        "addr:state": "Karnataka",
        "amenity": "clinic",
        "healthcare": "clinic",
        "name": "Kshema Childrens Surgical Clinic",
        "source": "Local Knowledge"
      }
    },
    {
      "type": "node",
      "id": 7576958077,
      "lat": 12.9464444,
      "lon": 77.5712393,
      "tags": {
        "addr:district": "Bengaluru Urban",
        "addr:full": "Govindappa Road, Gandhi Bazaar, Basavanagudi, Bengaluru",
        "addr:postcode": "560004",
        "addr:state": "Karnataka",
        "amenity": "clinic",
        "healthcare": "clinic",
        "name": "Sree Homeopathic Clinic",
        "name:kn": "ಶ್ರೀ ಹೊಮಿಯೋಪತಿ ಕ್ಲಿನಿಕ್",
        "source": "Local Knowledge"
      }
    },
    {
      "type": "node",
      "id": 7576958078,
      "lat": 12.939882,
      "lon": 77.573989,
      "tags": {
        "addr:district": "Bengaluru Urban",
        "addr:full": "Krishna Rajendra Road, Basavanagudi, Bengaluru",
        "addr:postcode": "560004",
        "addr:state": "Karnataka",
        "amenity": "hospital",
        "healthcare": "hospital",
        "name": "Khincha Orthopaedic Centre",
        "source": "Local Knowledge"
      }
    },
    {
      "type": "node",
      "id": 7576958087,
      "lat": 12.940859,
      "lon": 77.570214,
      "tags": {
        "addr:district": "Bengaluru Urban",
        "addr:full": "Basavanagudi, Bengaluru",
        "addr:postcode": "560004",
        "addr:state": "Karnataka",
        "amenity": "clinic",
        "name": "Jubilee Nursing Home",
        "source": "Local Knowledge"
      }
    },
    {
      "type": "node",
      "id": 7576958089,
      "lat": 12.9434996,
      "lon": 77.5796583,
      "tags": {
        "addr:district": "Bengaluru Urban",
        "addr:full": "Basavanagudi, Bengaluru",
        "addr:postcode": "560004",
        "addr:state": "Karnataka",
        "amenity": "hospital",
        "healthcare": "hospital",
        "name": "Trinity Hospital and Heart Foundation",
        "source": "Local Knowledge"
      }
    },
    {
      "type": "node",
      "id": 7576958093,
      "lat": 12.9420276,
      "lon": 77.575634,
      "tags": {
        "addr:district": "Bengaluru Urban",
        "addr:full": "M N Krishna Rao Park Road, Basavanagudi, Bengaluru",
        "addr:postcode": "560070",
        "addr:state": "Karnataka",
        "amenity": "hospital",
        "healthcare": "hospital",
        "name": "Matha Pitha Hospital",
        "source": "Local Knowledge"
      }
    },
    {
      "type": "node",
      "id": 7576958098,
      "lat": 12.94269,
      "lon": 77.571261,
      "tags": {
        "addr:district": "Bengaluru Urban",
        "addr:full": "DVG Road, Basavanagudi, Bengaluru",
        "addr:postcode": "560004",
        "addr:state": "Karnataka",
        "amenity": "clinic",
        "name": "Happy Clinics - Multispeciality",
        "source": "Local Knowledge"
      }
    },
    {
      "type": "node",
      "id": 7576958101,
      "lat": 12.9471425,
      "lon": 77.5692626,
      "tags": {
        "addr:district": "Bengaluru Urban",
        "addr:full": "Gandhi Bazaar Main Road, Basavanagudi, Bengaluru",
        "addr:postcode": "560004",
        "addr:state": "Karnataka",
        "amenity": "clinic",
        "name": "Skin, Allergy, Cosmetology & Hair Clinic",
        "source": "Local Knowledge"
      }
    },
    {
      "type": "node",
      "id": 7576958108,
      "lat": 12.9380136,
      "lon": 77.5838278,
      "tags": {
        "addr:district": "Bengaluru Urban",
        "addr:full": "Jaya Nagar East, Jayanagar, Bengaluru",
        "addr:postcode": "560011",
        "addr:state": "Karnataka",
        "amenity": "dentist",
        "name": "Perfect Smiles Dental Clinic",
        "source": "Local Knowledge"
      }
    },
    {
      "type": "node",
      "id": 7576958111,
      "lat": 12.9487692,
      "lon": 77.5793662,
      "tags": {
        "addr:district": "Bengaluru Urban",
        "addr:full": "R.V. Road, V.V. Puram, Bengaluru",
        "addr:postcode": "560004",
        "addr:state": "Karnataka",
        "amenity": "clinic",
        "name": "Synergy Diabetes Clinic",
        "source": "Local Knowledge"
      }
    },
    {
      "type": "node",
      "id": 7576958112,
      "lat": 12.9444744,
      "lon": 77.5721845,
      "tags": {
        "addr:district": "Bengaluru Urban",
        "addr:full": "Near Corporation Bank, Basavanagudi, Bengaluru",
        "addr:postcode": "560004",
        "addr:state": "Karnataka",
        "amenity": "dentist",
        "name": "Partha Dental Clinic",
        "source": "Local Knowledge"
      }
    },
    {
      "type": "node",
      "id": 7576958115,
      "lat": 12.948062,
      "lon": 77.577411,
      "tags": {
        "addr:district": "Bengaluru Urban",
        "addr:full": "Vanivilas Road, Kanakapura, Visvesvarapuram, Basavanagudi, Bengaluru",
        "addr:postcode": "560004",
        "addr:state": "Karnataka",
        "amenity": "clinic",
        "healthcare": "clinic",
        "name": "Sri Sri Ayurveda Clinic",
        "source": "Local Knowledge"
      }
    },
    {
      "type": "node",
      "id": 7576958117,
      "lat": 12.9479647,
      "lon": 77.5696395,
      "tags": {
        "addr:district": "Bengaluru Urban",
        "addr:full": "Vanivilas Road, Gandhi Bazaar, Basavanagudi, Bengaluru",
        "addr:postcode": "560004",
        "addr:state": "Karnataka",
        "amenity": "hospital",
        "name": "Swastik Eye Hospital",
        "source": "Local Knowledge"
      }
    },
    {
      "type": "node",
      "id": 7576958118,
      "lat": 12.9458294,
      "lon": 77.5799015,
      "tags": {
        "addr:district": "Bengaluru Urban",
        "addr:full": "Rashtriya Vidyalaya Road, Basavanagudi, Bengaluru",
        "addr:postcode": "560004",
        "addr:state": "Karnataka",
        "amenity": "hospital",
        "healthcare": "hospital",
        "name": "Dave Gray Hospital",
        "source": "Local Knowledge"
      }
    },
    {
      "type": "node",
      "id": 7795248555,
      "lat": 12.937033,
      "lon": 77.5756045,
      "tags": {
        "addr:city": "Bengaluru",
        "addr:postcode": "560070",
        "addr:street": "South End Road",
        "name": "Balaji Medicals",
        "name:kn": "ಬಾಲಾಜಿ ಮೆಡಿಕಲ್",
        "shop": "chemist"
      }
    },
    {
      "type": "node",
      "id": 8408521644,
      "lat": 12.9378288,
      "lon": 77.5692035,
      "tags": {
        "name": "Nandini Milk Booth",
        "name:kn": "ನಂದಿನಿ ಹಾಲಿನ ಅಂಗಡಿ",
        "shop": "dairy"
      }
    },
    {
      "type": "node",
      "id": 9417473954,
      "lat": 12.939212,
      "lon": 77.5838982,
      "tags": {
        "addr:floor": "0",
        "air_conditioning": "no",
        "amenity": "fast_food",
        "check_date": "2025-01-10",
        "cuisine": "south_indian",
        "diet:vegetarian": "yes",
        "level": "0",
        "name": "Bengaluru Cafe",
        "outdoor_seating": "no",
        "takeaway": "yes",
        "toilets": "no"
      }
    },
    {
      "type": "node",
      "id": 9709504787,
      "lat": 12.9421932,
      "lon": 77.5703658,
      "tags": {
        "name": "Nandini Milk Parlour",
        "shop": "dairy"
      }
    },
    {
      "type": "node",
      "id": 9709504788,
      "lat": 12.9447987,
      "lon": 77.5701606,
      "tags": {
        "shop": "coffee"
      }
    },
    {
      "type": "node",
      "id": 9709504793,
      "lat": 12.9437492,
      "lon": 77.5704168,
      "tags": {
        "name": "KC Das",
        "shop": "confectionery"
      }
    },
    {
      "type": "node",
      "id": 9709504794,
      "lat": 12.9423069,
      "lon": 77.5705221,
      "tags": {
        "amenity": "fast_food",
        "cuisine": "regional",
        "name": "by2coffee",
        "takeaway": "yes"
      }
    },
    {
      "type": "node",
      "id": 9709504795,
      "lat": 12.942301,
      "lon": 77.570453,
      "tags": {
        "amenity": "fast_food",
        "cuisine": "regional",
        "name": "Bombay and Kolkata Chats"
      }
    },
    {
      "type": "node",
      "id": 9709504796,
      "lat": 12.9422931,
      "lon": 77.5717552,
      "tags": {
        "name": "Sri Krishna Sweets",
        "shop": "confectionery"
      }
    },
    {
      "type": "node",
      "id": 9723871257,
      "lat": 12.9458071,
      "lon": 77.5711182,
      "tags": {
        "branch": "National college",
        "brand": "Kanli Sweets",
        "shop": "bakery"
      }
    },
    {
      "type": "node",
      "id": 9838481918,
      "lat": 12.9330538,
      "lon": 77.5755323,
      "tags": {
        "amenity": "post_box",
        "survey:date": "2022-06-22"
      }
    },
    {
      "type": "node",
      "id": 9906246579,
      "lat": 12.9438302,
      "lon": 77.5843415,
      "tags": {
        "access": "yes",
        "amenity": "toilets",
        "check_date": "2025-07-12",
        "fee": "no",
        "operator": "ಬೃಹತ್ ಬೆಂಗಳೂರು ಮಹಾನಗರ ಪಾಲಿಕೆ",
        "operator:en": "Bruhat Bengaluru Mahanagara Palike",
        "operator:ka": "ಬೃಹತ್ ಬೆಂಗಳೂರು ಮಹಾನಗರ ಪಾಲಿಕೆ",
        "operator:short": "BBMP",
        "operator:wikidata": "Q4978693"
      }
    },
    {
      "type": "node",
      "id": 9922831533,
      "lat": 12.9485237,
      "lon": 77.581336,
      "tags": {
        "amenity": "waste_basket",
        "source": "survey"
      }
    },
    {
      "type": "node",
      "id": 9922831534,
      "lat": 12.9484679,
      "lon": 77.5811473,
      "tags": {
        "amenity": "bench",
        "backrest": "yes",
        "material": "wood",
        "seats": "2",
        "source": "survey"
      }
    },
    {
      "type": "node",
      "id": 9922831535,
      "lat": 12.9484963,
      "lon": 77.5812019,
      "tags": {
        "amenity": "bench",
        "backrest": "yes",
        "material": "wood",
        "seats": "2",
        "source": "survey"
      }
    },
    {
      "type": "node",
      "id": 9922831536,
      "lat": 12.9484502,
      "lon": 77.5810062,
      "tags": {
        "amenity": "bench",
        "backrest": "yes",
        "material": "wood",
        "seats": "2",
        "source": "survey"
      }
    },
    {
      "type": "node",
      "id": 9922831537,
      "lat": 12.9484636,
      "lon": 77.5810705,
      "tags": {
        "amenity": "bench",
        "backrest": "yes",
        "material": "wood",
        "seats": "2",
        "source": "survey"
      }
    },
    {
      "type": "node",
      "id": 9922831538,
      "lat": 12.9484923,
      "lon": 77.5809176,
      "tags": {
        "amenity": "drinking_water"
      }
    },
    {
      "type": "node",
      "id": 9922831542,
      "lat": 12.9476859,
      "lon": 77.5801036,
      "tags": {
        "access": "yes",
        "amenity": "toilets",
        "fee": "no",
        "operator": "ಬೃಹತ್ ಬೆಂಗಳೂರು ಮಹಾನಗರ ಪಾಲಿಕೆ",
        "operator:en": "Bruhat Bengaluru Mahanagara Palike",
        "operator:ka": "ಬೃಹತ್ ಬೆಂಗಳೂರು ಮಹಾನಗರ ಪಾಲಿಕೆ",
        "operator:short": "BBMP",
        "operator:wikidata": "Q4978693",
        "wheelchair": "no"
      }
    },
    {
      "type": "node",
      "id": 10242924678,
      "lat": 12.9362412,
      "lon": 77.5798381,
      "tags": {
        "amenity": "recycling",
        "name": "BBMP Dry Waste Collection Center",
        "recycling_type": "centre"
      }
    },
    {
      "type": "node",
      "id": 10823514250,
      "lat": 12.9376767,
      "lon": 77.5717354,
      "tags": {
        "amenity": "drinking_water"
      }
    },
    {
      "type": "node",
      "id": 10853093227,
      "lat": 12.9472886,
      "lon": 77.5798621,
      "tags": {
        "amenity": "fuel",
        "brand": "Go Gas",
        "name": "Go Gas"
      }
    },
    {
      "type": "node",
      "id": 11160555868,
      "lat": 12.9364983,
      "lon": 77.5782121,
      "tags": {
        "addr:city": "Bengaluru",
        "addr:housename": "Surana College",
        "addr:housenumber": "16",
        "addr:postcode": "560002",
        "addr:street": "South End Road",
        "addr:suburb": "Basavangudi",
        "amenity": "language_school",
        "language:ja": "main",
        "name": "Sakuraa Nihongo Resource Centre",
        "opening_hours": "Sa-Su 10:00-17:00",
        "phone": "+91 89043 90300",
        "short_name": "SNRC",
        "website": "https://snrc.co.in"
      }
    },
    {
      "type": "node",
      "id": 11178064777,
      "lat": 12.9485138,
      "lon": 77.5723246,
      "tags": {
        "amenity": "post_box",
        "operator": "India Post",
        "operator:wikidata": "Q3519720"
      }
    },
    {
      "type": "node",
      "id": 11178108195,
      "lat": 12.9479187,
      "lon": 77.5702354,
      "tags": {
        "check_date": "2022-11-04",
        "name": "Golden Touch Gents",
        "payment:mastercard": "yes",
        "payment:visa": "yes",
        "shop": "beauty",
        "wheelchair": "yes"
      }
    },
    {
      "type": "node",
      "id": 11178120903,
      "lat": 12.9479601,
      "lon": 77.5688993,
      "tags": {
        "check_date": "2023-09-09",
        "leisure": "fitness_centre",
        "name": "Shield's Fitness Club"
      }
    },
    {
      "type": "node",
      "id": 11178134961,
      "lat": 12.9484774,
      "lon": 77.5705547,
      "tags": {
        "amenity": "place_of_worship",
        "check_date": "2023-09-09",
        "name": "Sri Adi Basavanna Temple",
        "religion": "hindu"
      }
    },
    {
      "type": "node",
      "id": 11178135455,
      "lat": 12.9489174,
      "lon": 77.5701202,
      "tags": {
        "amenity": "place_of_worship",
        "check_date": "2025-11-19",
        "internet_access": "no",
        "name": "Sri Channakeshwara Temple",
        "religion": "hindu",
        "wheelchair": "no"
      }
    },
    {
      "type": "node",
      "id": 11178139428,
      "lat": 12.9480728,
      "lon": 77.5702389,
      "tags": {
        "beauty": "nails",
        "check_date": "2023-09-09",
        "name": "Dream Family Saloon",
        "shop": "beauty"
      }
    },
    {
      "type": "node",
      "id": 11178141192,
      "lat": 12.9480492,
      "lon": 77.5697053,
      "tags": {
        "alt_name": "Haldiram",
        "amenity": "fast_food",
        "brand": "Haldiram's",
        "brand:wikidata": "Q17054442",
        "check_date": "2023-09-09",
        "cuisine": "indian",
        "internet_access": "wlan",
        "internet_access:fee": "no",
        "name": "Haldiram's",
        "shop": "bakery",
        "takeaway": "yes"
      }
    },
    {
      "type": "node",
      "id": 11178164611,
      "lat": 12.948035,
      "lon": 77.570008,
      "tags": {
        "check_date": "2025-11-19",
        "check_date:opening_hours": "2025-11-19",
        "name": "James Bond Dry Cleaners",
        "opening_hours": "Mo-Su 08:00-23:00",
        "shop": "dry_cleaning"
      }
    },
    {
      "type": "node",
      "id": 11178643872,
      "lat": 12.9473044,
      "lon": 77.5683693,
      "tags": {
        "name": "Titan Eye+",
        "shop": "optician"
      }
    },
    {
      "type": "node",
      "id": 11178643885,
      "lat": 12.9464283,
      "lon": 77.5695149,
      "tags": {
        "amenity": "bank",
        "name": "The National Co-operative Bank"
      }
    },
    {
      "type": "node",
      "id": 11201313858,
      "lat": 12.9425184,
      "lon": 77.5674319,
      "tags": {
        "amenity": "place_of_worship",
        "check_date": "2023-09-19",
        "name": "Venkateshwara Swamy Temple",
        "religion": "hindu"
      }
    },
    {
      "type": "node",
      "id": 11215379266,
      "lat": 12.9450542,
      "lon": 77.5679702,
      "tags": {
        "amenity": "music_school",
        "check_date": "2023-09-24",
        "name": "RB Academy",
        "phone": "+91 70222 33334"
      }
    },
    {
      "type": "node",
      "id": 11215379267,
      "lat": 12.9448759,
      "lon": 77.5680072,
      "tags": {
        "amenity": "bank",
        "brand": "Indian Overseas Bank",
        "brand:wikidata": "Q2003611",
        "check_date": "2023-09-24",
        "name": "Indian Overseas Bank"
      }
    },
    {
      "type": "node",
      "id": 11215379268,
      "lat": 12.9440476,
      "lon": 77.5680376,
      "tags": {
        "check_date": "2023-09-24",
        "name": "Desire Naturals",
        "shop": "confectionery"
      }
    },
    {
      "type": "node",
      "id": 11215814226,
      "lat": 12.9444805,
      "lon": 77.5680289,
      "tags": {
        "name": "Cake Yard",
        "shop": "bakery"
      }
    },
    {
      "type": "node",
      "id": 11215814229,
      "lat": 12.9445203,
      "lon": 77.5680128,
      "tags": {
        "name": "Sri Sai Flowers",
        "shop": "florist"
      }
    },
    {
      "type": "node",
      "id": 11215814230,
      "lat": 12.9445615,
      "lon": 77.5680082,
      "tags": {
        "amenity": "fast_food",
        "cuisine": "juice",
        "name": "Oye Lassi"
      }
    },
    {
      "type": "node",
      "id": 11215814231,
      "lat": 12.944634,
      "lon": 77.5680511,
      "tags": {
        "amenity": "restaurant",
        "cuisine": "south_indian",
        "name": "Iyengars Inn"
      }
    },
    {
      "type": "node",
      "id": 11215839940,
      "lat": 12.944719,
      "lon": 77.5680591,
      "tags": {
        "amenity": "fast_food",
        "brand": "Subway",
        "brand:wikidata": "Q244457",
        "cuisine": "sandwich",
        "name": "Subway",
        "takeaway": "yes"
      }
    },
    {
      "type": "node",
      "id": 11215840056,
      "lat": 12.9435636,
      "lon": 77.5677399,
      "tags": {
        "check_date": "2025-01-01",
        "name": "Veggo Farms",
        "shop": "dairy"
      }
    },
    {
      "type": "node",
      "id": 11215840059,
      "lat": 12.9433205,
      "lon": 77.5677668,
      "tags": {
        "amenity": "cafe",
        "name": "Juice Junction"
      }
    },
    {
      "type": "node",
      "id": 11215840060,
      "lat": 12.9433499,
      "lon": 77.5677507,
      "tags": {
        "name": "The Charisma Bridal Makeover",
        "shop": "beauty"
      }
    },
    {
      "type": "node",
      "id": 11215933556,
      "lat": 12.9467429,
      "lon": 77.5735181,
      "tags": {
        "amenity": "bank",
        "atm": "yes",
        "brand": "State Bank of India",
        "brand:wikidata": "Q1340361",
        "name": "State Bank of India",
        "name:kn": "ಎಸ್ ಬಿ ಐ",
        "short_name": "SBI"
      }
    },
    {
      "type": "node",
      "id": 11215959792,
      "lat": 12.9445902,
      "lon": 77.5720945,
      "tags": {
        "name": "Reliance Trends",
        "shop": "clothes"
      }
    },
    {
      "type": "node",
      "id": 11215990965,
      "lat": 12.9478552,
      "lon": 77.579887,
      "tags": {
        "amenity": "bench",
        "backrest": "yes",
        "material": "stone"
      }
    },
    {
      "type": "node",
      "id": 11215990966,
      "lat": 12.9478695,
      "lon": 77.5798863,
      "tags": {
        "amenity": "bench",
        "backrest": "yes",
        "material": "stone"
      }
    },
    {
      "type": "node",
      "id": 11215990973,
      "lat": 12.9475467,
      "lon": 77.5797314,
      "tags": {
        "amenity": "restaurant",
        "cuisine": "indian",
        "name": "Lalbagh Grand"
      }
    },
    {
      "type": "node",
      "id": 11215990978,
      "lat": 12.947648,
      "lon": 77.5798005,
      "tags": {
        "amenity": "ice_cream",
        "name": "Ibaco"
      }
    },
    {
      "type": "node",
      "id": 11215991026,
      "lat": 12.9458365,
      "lon": 77.576673,
      "tags": {
        "name": "Continental",
        "shop": "tyres"
      }
    },
    {
      "type": "node",
      "id": 11314428137,
      "lat": 12.9404688,
      "lon": 77.5713638,
      "tags": {
        "amenity": "cafe",
        "cafe": "board_game",
        "contact:instagram": "board4bored_official",
        "name": "Board 4 Bored"
      }
    },
    {
      "type": "node",
      "id": 11348912168,
      "lat": 12.945679,
      "lon": 77.5711812,
      "tags": {
        "name": "Cycle World",
        "service:bicycle:repair": "yes",
        "service:bicycle:retail": "yes",
        "shop": "bicycle"
      }
    },
    {
      "type": "node",
      "id": 11386000340,
      "lat": 12.9397127,
      "lon": 77.5840912,
      "tags": {
        "amenity": "toilets",
        "fee": "yes",
        "name": "Public toilet"
      }
    },
    {
      "type": "node",
      "id": 11386048190,
      "lat": 12.9394346,
      "lon": 77.5838621,
      "tags": {
        "name": "Fruits shop",
        "shop": "greengrocer"
      }
    },
    {
      "type": "node",
      "id": 11386048191,
      "lat": 12.9394464,
      "lon": 77.5838952,
      "tags": {
        "amenity": "fast_food",
        "name": "Elaneeru(Tender coconut)"
      }
    },
    {
      "type": "node",
      "id": 11468627259,
      "lat": 12.9440457,
      "lon": 77.5829918,
      "tags": {
        "amenity": "waste_basket"
      }
    },
    {
      "type": "node",
      "id": 11468627260,
      "lat": 12.9439403,
      "lon": 77.582882,
      "tags": {
        "amenity": "waste_basket"
      }
    },
    {
      "type": "node",
      "id": 11468627261,
      "lat": 12.9438969,
      "lon": 77.5822454,
      "tags": {
        "amenity": "waste_basket"
      }
    },
    {
      "type": "node",
      "id": 11468627262,
      "lat": 12.9438682,
      "lon": 77.5813509,
      "tags": {
        "amenity": "waste_basket"
      }
    },
    {
      "type": "node",
      "id": 11468627263,
      "lat": 12.9443742,
      "lon": 77.5811979,
      "tags": {
        "amenity": "waste_basket"
      }
    },
    {
      "type": "node",
      "id": 11468627264,
      "lat": 12.9444373,
      "lon": 77.5812217,
      "tags": {
        "amenity": "bench",
        "backrest": "yes"
      }
    },
    {
      "type": "node",
      "id": 11468627265,
      "lat": 12.9452266,
      "lon": 77.5814377,
      "tags": {
        "amenity": "waste_basket"
      }
    },
    {
      "type": "node",
      "id": 11468627266,
      "lat": 12.945364,
      "lon": 77.5814803,
      "tags": {
        "amenity": "bench",
        "backrest": "yes"
      }
    },
    {
      "type": "node",
      "id": 11468627267,
      "lat": 12.9455418,
      "lon": 77.5814797,
      "tags": {
        "amenity": "bench",
        "backrest": "yes"
      }
    },
    {
      "type": "node",
      "id": 11468627268,
      "lat": 12.9457694,
      "lon": 77.5815104,
      "tags": {
        "amenity": "waste_basket"
      }
    },
    {
      "type": "node",
      "id": 11468699669,
      "lat": 12.9459206,
      "lon": 77.5815291,
      "tags": {
        "amenity": "bench",
        "backrest": "yes"
      }
    },
    {
      "type": "node",
      "id": 11468699670,
      "lat": 12.9460783,
      "lon": 77.5815645,
      "tags": {
        "amenity": "bench",
        "backrest": "yes"
      }
    },
    {
      "type": "node",
      "id": 11468699671,
      "lat": 12.9461993,
      "lon": 77.5815966,
      "tags": {
        "amenity": "bench",
        "backrest": "yes"
      }
    },
    {
      "type": "node",
      "id": 11468699672,
      "lat": 12.9462785,
      "lon": 77.5816307,
      "tags": {
        "amenity": "waste_basket"
      }
    },
    {
      "type": "node",
      "id": 11468699673,
      "lat": 12.9465015,
      "lon": 77.5816882,
      "tags": {
        "amenity": "bench",
        "backrest": "yes"
      }
    },
    {
      "type": "node",
      "id": 11468699674,
      "lat": 12.9467045,
      "lon": 77.5817274,
      "tags": {
        "amenity": "bench",
        "backrest": "yes"
      }
    },
    {
      "type": "node",
      "id": 11468699675,
      "lat": 12.9468784,
      "lon": 77.5817496,
      "tags": {
        "amenity": "bench",
        "backrest": "yes"
      }
    },
    {
      "type": "node",
      "id": 11468699676,
      "lat": 12.947,
      "lon": 77.5817368,
      "tags": {
        "amenity": "waste_basket"
      }
    },
    {
      "type": "node",
      "id": 11468699677,
      "lat": 12.9472714,
      "lon": 77.5817281,
      "tags": {
        "amenity": "waste_basket"
      }
    },
    {
      "type": "node",
      "id": 11468699678,
      "lat": 12.9474742,
      "lon": 77.5816435,
      "tags": {
        "amenity": "bench",
        "backrest": "no"
      }
    },
    {
      "type": "node",
      "id": 11468699679,
      "lat": 12.9476314,
      "lon": 77.5814638,
      "tags": {
        "amenity": "waste_basket"
      }
    },
    {
      "type": "node",
      "id": 11468699680,
      "lat": 12.9477532,
      "lon": 77.5813866,
      "tags": {
        "amenity": "bench",
        "backrest": "yes"
      }
    },
    {
      "type": "node",
      "id": 11468699681,
      "lat": 12.9478352,
      "lon": 77.5813691,
      "tags": {
        "amenity": "bench",
        "backrest": "no"
      }
    },
    {
      "type": "node",
      "id": 11468699682,
      "lat": 12.9479148,
      "lon": 77.5813009,
      "tags": {
        "amenity": "bench",
        "backrest": "yes"
      }
    },
    {
      "type": "node",
      "id": 11468699683,
      "lat": 12.948031,
      "lon": 77.5812922,
      "tags": {
        "amenity": "bench",
        "backrest": "yes"
      }
    },
    {
      "type": "node",
      "id": 11693735533,
      "lat": 12.9419235,
      "lon": 77.5712377,
      "tags": {
        "addr:city": "Bangaluru",
        "addr:district": "Bengaluru",
        "addr:postcode": "560004",
        "addr:street": "No 16, DVG Gundappa Rd, opp. to Krishna Sweets, Diagonally, Basavanagudi",
        "name": "Hema Jewellers, DVG Road",
        "phone": "8448448741",
        "shop": "jewelry"
      }
    },
    {
      "type": "node",
      "id": 11809048606,
      "lat": 12.9349752,
      "lon": 77.5754181,
      "tags": {
        "addr:housenumber": "36/11",
        "addr:street": "Kanakapura Road",
        "name": "Dermapeeks",
        "shop": "yes"
      }
    },
    {
      "type": "node",
      "id": 11827173636,
      "lat": 12.9477417,
      "lon": 77.5793843,
      "tags": {
        "addr:postcode": "560004",
        "amenity": "doctors",
        "check_date": "2024-04-18",
        "email": "jyothilasikvision@gmail.com",
        "healthcare": "doctor",
        "healthcare:speciality": "ophthalmology",
        "name": "Jyothi The Lasik Vision Centre",
        "opening_hours": "Mo-Sa 10:00-18:00; Su off",
        "phone": "+91 80 2656 7878; +91 80 4096 7878; +91 93800 65139",
        "website": "https://www.jyothilasik.com"
      }
    },
    {
      "type": "node",
      "id": 12000053550,
      "lat": 12.9485766,
      "lon": 77.5806648,
      "tags": {
        "amenity": "bench",
        "backrest": "yes"
      }
    },
    {
      "type": "node",
      "id": 12000061698,
      "lat": 12.948785,
      "lon": 77.5812241,
      "tags": {
        "amenity": "bench",
        "backrest": "yes",
        "material": "wood",
        "seats": "3"
      }
    },
    {
      "type": "node",
      "id": 12000067105,
      "lat": 12.9486908,
      "lon": 77.5808158,
      "tags": {
        "amenity": "bench",
        "backrest": "yes",
        "material": "wood",
        "seats": "3"
      }
    },
    {
      "type": "node",
      "id": 12000067106,
      "lat": 12.9487856,
      "lon": 77.5809973,
      "tags": {
        "amenity": "bench",
        "backrest": "yes",
        "material": "wood",
        "seats": "2"
      }
    },
    {
      "type": "node",
      "id": 12000067107,
      "lat": 12.9487785,
      "lon": 77.5810786,
      "tags": {
        "amenity": "bench",
        "backrest": "yes",
        "material": "wood",
        "seats": "2"
      }
    },
    {
      "type": "node",
      "id": 12000079741,
      "lat": 12.9485218,
      "lon": 77.5813824,
      "tags": {
        "amenity": "waste_basket",
        "colour": "green"
      }
    },
    {
      "type": "node",
      "id": 12000081609,
      "lat": 12.948523,
      "lon": 77.5814169,
      "tags": {
        "amenity": "bench",
        "backrest": "yes",
        "material": "wood",
        "seats": "2"
      }
    },
    {
      "type": "node",
      "id": 12000217925,
      "lat": 12.9503,
      "lon": 77.5738513,
      "tags": {
        "access": "permissive",
        "amenity": "toilets",
        "check_date": "2024-06-22",
        "female": "yes",
        "level": "1",
        "male": "yes",
        "operator": "BMRCL",
        "toilets:handwashing": "yes",
        "toilets:position": "urinal"
      }
    },
    {
      "type": "node",
      "id": 12000298579,
      "lat": 12.9464586,
      "lon": 77.5789472,
      "tags": {
        "name": "Nandini",
        "shop": "milk"
      }
    },
    {
      "type": "node",
      "id": 12000301387,
      "lat": 12.9462618,
      "lon": 77.579768,
      "tags": {
        "name": "Sree Bhagvan Traders",
        "shop": "wholesale"
      }
    },
    {
      "type": "node",
      "id": 12009229078,
      "lat": 12.9380741,
      "lon": 77.5792676,
      "tags": {
        "addr:housenumber": "18",
        "addr:street": "Patalamma Road",
        "name": "Ashirwad Supermarket",
        "shop": "supermarket"
      }
    },
    {
      "type": "node",
      "id": 12009574028,
      "lat": 12.9482237,
      "lon": 77.5805186,
      "tags": {
        "amenity": "waste_basket"
      }
    },
    {
      "type": "node",
      "id": 12009574029,
      "lat": 12.9484159,
      "lon": 77.5809324,
      "tags": {
        "amenity": "bench",
        "backrest": "yes"
      }
    },
    {
      "type": "node",
      "id": 12009574030,
      "lat": 12.9484662,
      "lon": 77.5809022,
      "tags": {
        "amenity": "bench",
        "backrest": "yes"
      }
    },
    {
      "type": "node",
      "id": 12009574031,
      "lat": 12.9485211,
      "lon": 77.5808499,
      "tags": {
        "amenity": "bench",
        "backrest": "yes"
      }
    },
    {
      "type": "node",
      "id": 12009574032,
      "lat": 12.9485629,
      "lon": 77.5807929,
      "tags": {
        "amenity": "bench",
        "backrest": "yes"
      }
    },
    {
      "type": "node",
      "id": 12009574033,
      "lat": 12.948574,
      "lon": 77.5807299,
      "tags": {
        "amenity": "bench",
        "backrest": "yes"
      }
    },
    {
      "type": "node",
      "id": 12048924773,
      "lat": 12.9382871,
      "lon": 77.5799952,
      "tags": {
        "access": "permissive",
        "amenity": "drinking_water",
        "fee": "no",
        "indoor": "yes",
        "level": "1",
        "operator": "BMRCL"
      }
    },
    {
      "type": "node",
      "id": 12048924774,
      "lat": 12.93857,
      "lon": 77.5801176,
      "tags": {
        "amenity": "atm",
        "check_date": "2024-07-12",
        "level": "1"
      }
    },
    {
      "type": "node",
      "id": 12048924775,
      "lat": 12.9379782,
      "lon": 77.5800181,
      "tags": {
        "amenity": "atm",
        "check_date": "2024-07-12",
        "level": "1"
      }
    },
    {
      "type": "node",
      "id": 12161153127,
      "lat": 12.9461753,
      "lon": 77.5801491,
      "tags": {
        "access": "customers",
        "amenity": "drinking_water",
        "fee": "no",
        "indoor": "yes",
        "level": "1",
        "operator": "BMRCL"
      }
    },
    {
      "type": "node",
      "id": 12161153128,
      "lat": 12.9461746,
      "lon": 77.5799556,
      "tags": {
        "access": "customers",
        "amenity": "drinking_water",
        "fee": "no",
        "indoor": "yes",
        "level": "1",
        "operator": "BMRCL"
      }
    },
    {
      "type": "node",
      "id": 12161153129,
      "lat": 12.9464594,
      "lon": 77.5801001,
      "tags": {
        "amenity": "atm",
        "brand": "State Bank of India",
        "brand:wikidata": "Q1340361",
        "check_date": "2024-09-07",
        "covered": "yes",
        "indoor": "yes",
        "level": "1",
        "operator": "State Bank of India",
        "operator:wikidata": "Q1340361",
        "short_name": "SBI"
      }
    },
    {
      "type": "node",
      "id": 12161169167,
      "lat": 12.9462343,
      "lon": 77.580172,
      "tags": {
        "amenity": "waste_basket"
      }
    },
    {
      "type": "node",
      "id": 12177633672,
      "lat": 12.9385273,
      "lon": 77.5819787,
      "tags": {
        "air_conditioning": "no",
        "amenity": "fast_food",
        "check_date": "2024-09-15",
        "cuisine": "south_indian",
        "diet:vegetarian": "yes",
        "level": "0",
        "name": "Namma SLN",
        "outdoor_seating": "no",
        "takeaway": "yes",
        "toilets": "no"
      }
    },
    {
      "type": "node",
      "id": 12208448686,
      "lat": 12.9370597,
      "lon": 77.5731459,
      "tags": {
        "amenity": "cafe",
        "contact:instagram": "brewinguntoldstories",
        "cuisine": "coffee_shop",
        "name": "Brewing Untold Stories"
      }
    },
    {
      "type": "node",
      "id": 12229433949,
      "lat": 12.9458621,
      "lon": 77.5686701,
      "tags": {
        "addr:housenumber": "50",
        "addr:street": "West Ankjaneya Street",
        "amenity": "fast_food",
        "description": "Local food joint",
        "name": "Cubbonpete Tiffin Rooms"
      }
    },
    {
      "type": "node",
      "id": 12466442937,
      "lat": 12.9463785,
      "lon": 77.5680606,
      "tags": {
        "amenity": "fuel",
        "brand": "Indian Oil",
        "brand:wikidata": "Q1289348",
        "check_date": "2025-01-01",
        "name": "Indian Oil"
      }
    },
    {
      "type": "node",
      "id": 12466442938,
      "lat": 12.9451436,
      "lon": 77.5680133,
      "tags": {
        "amenity": "restaurant",
        "check_date": "2025-01-01",
        "diet:vegetarian": "yes",
        "name": "Vijayalakshmi"
      }
    },
    {
      "type": "node",
      "id": 12466442939,
      "lat": 12.9439818,
      "lon": 77.5680418,
      "tags": {
        "check_date": "2025-01-01",
        "name": "Parshwantha Traders",
        "shop": "rice"
      }
    },
    {
      "type": "node",
      "id": 12466444176,
      "lat": 12.9434263,
      "lon": 77.5677477,
      "tags": {
        "check_date": "2025-01-01",
        "name": "Sreenivasa Brahmins Bakery",
        "shop": "bakery"
      }
    },
    {
      "type": "node",
      "id": 12466444177,
      "lat": 12.9433441,
      "lon": 77.5677341,
      "tags": {
        "check_date": "2025-01-01",
        "name": "Hara Tattooz",
        "shop": "tattoo"
      }
    },
    {
      "type": "node",
      "id": 12492566397,
      "lat": 12.9383537,
      "lon": 77.5802162,
      "tags": {
        "amenity": "charging_station",
        "charging_station:battery_swapping": "yes",
        "fee": "yes",
        "level": "0",
        "motorcar": "no",
        "motorcycle": "yes",
        "name": "Honda e:swap",
        "operator": "Honda e:swap"
      }
    },
    {
      "type": "node",
      "id": 12538682585,
      "lat": 12.9437799,
      "lon": 77.5714421,
      "tags": {
        "name": "Akruti Books",
        "note": "Previously located in Rajajinagar",
        "shop": "books"
      }
    },
    {
      "type": "node",
      "id": 12546212501,
      "lat": 12.9380412,
      "lon": 77.5692291,
      "tags": {
        "amenity": "restaurant",
        "name": "Uttara Karnatakada Gama Gama"
      }
    },
    {
      "type": "node",
      "id": 12697993702,
      "lat": 12.9401608,
      "lon": 77.5839468,
      "tags": {
        "addr:floor": "G",
        "amenity": "cafe",
        "check_date": "2025-09-28",
        "cuisine": "coffee_shop",
        "level": "0",
        "name": "block two coffee",
        "opening_hours": "08:00-23:00",
        "takeaway": "only",
        "wheelchair": "yes"
      }
    },
    {
      "type": "node",
      "id": 12856900604,
      "lat": 12.9381367,
      "lon": 77.5800311,
      "tags": {
        "access": "permissive",
        "addr:floor": "1",
        "amenity": "toilets",
        "female": "yes",
        "fixme": "Accurate location within station",
        "level": "1",
        "male": "yes",
        "operator": "BMRCL",
        "toilets:handwashing": "yes",
        "toilets:position": "urinal"
      }
    },
    {
      "type": "node",
      "id": 12856900605,
      "lat": 12.9461567,
      "lon": 77.579999,
      "tags": {
        "access": "permissive",
        "addr:floor": "1",
        "amenity": "toilets",
        "female": "yes",
        "fixme": "Accurate location within station",
        "level": "1",
        "male": "yes",
        "operator": "BMRCL",
        "toilets:handwashing": "yes",
        "toilets:position": "urinal"
      }
    },
    {
      "type": "node",
      "id": 12995318302,
      "lat": 12.9402131,
      "lon": 77.5841605,
      "tags": {
        "amenity": "bench",
        "armrest": "yes",
        "backrest": "yes",
        "material": "stone",
        "seats": "2"
      }
    },
    {
      "type": "node",
      "id": 12995318303,
      "lat": 12.9394331,
      "lon": 77.5843733,
      "tags": {
        "amenity": "bench",
        "armrest": "yes",
        "backrest": "yes",
        "material": "stone",
        "seats": "2"
      }
    },
    {
      "type": "node",
      "id": 12995318304,
      "lat": 12.9394357,
      "lon": 77.5843367,
      "tags": {
        "amenity": "bench",
        "armrest": "no",
        "backrest": "no",
        "material": "stone",
        "seats": "2"
      }
    },
    {
      "type": "node",
      "id": 12995318316,
      "lat": 12.9401848,
      "lon": 77.5841593,
      "tags": {
        "amenity": "bench",
        "armrest": "yes",
        "backrest": "yes",
        "material": "stone",
        "seats": "2"
      }
    },
    {
      "type": "node",
      "id": 12995318319,
      "lat": 12.9410031,
      "lon": 77.5840085,
      "tags": {
        "amenity": "bench",
        "armrest": "no",
        "backrest": "no",
        "material": "stone",
        "seats": "6"
      }
    },
    {
      "type": "node",
      "id": 12995318324,
      "lat": 12.9434469,
      "lon": 77.5830527,
      "tags": {
        "amenity": "fast_food",
        "brand": "Indira Canteen",
        "brand:wikidata": "Q36164828",
        "check_date": "2025-07-12",
        "cuisine": "south_indian",
        "name": "Indira Canteen",
        "operator": "BBMP",
        "takeaway": "yes"
      }
    },
    {
      "type": "node",
      "id": 12995318325,
      "lat": 12.9394317,
      "lon": 77.5844069,
      "tags": {
        "amenity": "bench",
        "armrest": "yes",
        "backrest": "yes",
        "material": "stone",
        "seats": "2"
      }
    },
    {
      "type": "node",
      "id": 12995318330,
      "lat": 12.9394849,
      "lon": 77.5839119,
      "tags": {
        "amenity": "fast_food",
        "check_date": "2025-07-12",
        "name": "Umesh Dosa Point"
      }
    },
    {
      "type": "node",
      "id": 13011339074,
      "lat": 12.9403289,
      "lon": 77.5798713,
      "tags": {
        "amenity": "cafe",
        "check_date": "2025-07-19",
        "name": "Cafe Amudham"
      }
    },
    {
      "type": "node",
      "id": 13131428225,
      "lat": 12.9479933,
      "lon": 77.580087,
      "tags": {
        "addr:city": "Bengaluru",
        "addr:housenumber": "Lalbagh West Gate",
        "addr:street": "Rashtriya Vidyalaya Road",
        "name": "Tea Stall",
        "shop": "supermarket"
      }
    },
    {
      "type": "node",
      "id": 13154523676,
      "lat": 12.938528,
      "lon": 77.5803599,
      "tags": {
        "amenity": "cafe",
        "name": "Lassi Shop",
        "shop": "beverages",
        "wheelchair": "no"
      }
    },
    {
      "type": "node",
      "id": 13179711051,
      "lat": 12.9401705,
      "lon": 77.583974,
      "tags": {
        "amenity": "bench"
      }
    },
    {
      "type": "node",
      "id": 13288507189,
      "lat": 12.9453221,
      "lon": 77.577083,
      "tags": {
        "amenity": "restaurant",
        "name": "Moonstone"
      }
    },
    {
      "type": "node",
      "id": 13294460164,
      "lat": 12.9446046,
      "lon": 77.5791252,
      "tags": {
        "amenity": "place_of_worship",
        "religion": "hindu"
      }
    },
    {
      "type": "way",
      "id": 15802464,
      "center": {
        "lat": 12.9488929,
        "lon": 77.5866687
      },
      "tags": {
        "leisure": "park",
        "name": "Lalbagh Botanical Gardens",
        "name:kn": "ಲಾಲ್‌ಬಾಗ್ ಸಸ್ಯೋದ್ಯಾನ",
        "name:te": "లాల్‌బాగ్ వృక్షశాస్త్ర ఉద్యానవనం",
        "tourism": "attraction",
        "wikidata": "Q200711",
        "wikimedia_commons": "Category:Lalbagh Botanical Garden",
        "wikipedia": "en:Lal Bagh"
      }
    },
    {
      "type": "way",
      "id": 15802611,
      "center": {
        "lat": 12.9421447,
        "lon": 77.5753387
      },
      "tags": {
        "heritage": "2",
        "heritage:operator": "nmma",
        "heritage:website": "https://nmma.nic.in/nmma/exploreBuiltState.do?state=29",
        "leisure": "park",
        "name": "MN Krishna Rao Park",
        "name:kn": "ಕೃಷ್ಣ ರಾವ ಉದ್ಯಾನ",
        "ref:nmma": "KR20010688"
      }
    },
    {
      "type": "way",
      "id": 38752414,
      "center": {
        "lat": 12.9488247,
        "lon": 77.5729782
      },
      "tags": {
        "amenity": "school",
        "name": "National College and School",
        "name:kn": "ನ್ಯಾಶನಲ್ ಕಾಲೇಜು",
        "wheelchair": "limited"
      }
    },
    {
      "type": "way",
      "id": 40629056,
      "center": {
        "lat": 12.9511038,
        "lon": 77.5739205
      },
      "tags": {
        "leisure": "park"
      }
    },
    {
      "type": "way",
      "id": 40629064,
      "center": {
        "lat": 12.943131,
        "lon": 77.5743868
      },
      "tags": {
        "alt_name": "Government School",
        "amenity": "school",
        "name": "Karnataka Public School",
        "name:kn": "ಸರ್ಕಾರಿ ಶಾಲೆ"
      }
    },
    {
      "type": "way",
      "id": 40629065,
      "center": {
        "lat": 12.9439821,
        "lon": 77.5732623
      },
      "tags": {
        "leisure": "park",
        "name": "Jayanti Garden"
      }
    },
    {
      "type": "way",
      "id": 40629066,
      "center": {
        "lat": 12.9440072,
        "lon": 77.5772025
      },
      "tags": {
        "leisure": "park",
        "name": "Madhava Rao Park",
        "name:etymology:wikidata": "Q5793366",
        "name:kn": "ಮಾಧವ ರಾವ್ ಉದ್ಯಾನವನ"
      }
    },
    {
      "type": "way",
      "id": 40629072,
      "center": {
        "lat": 12.9401789,
        "lon": 77.5772974
      },
      "tags": {
        "leisure": "pitch",
        "name": "Home School Grounds"
      }
    },
    {
      "type": "way",
      "id": 40629074,
      "center": {
        "lat": 12.9398471,
        "lon": 77.584306
      },
      "tags": {
        "leisure": "park"
      }
    },
    {
      "type": "way",
      "id": 130863019,
      "center": {
        "lat": 12.9393622,
        "lon": 77.5833869
      },
      "tags": {
        "amenity": "public_building",
        "building": "yes",
        "name": "BBMP Complex (Jayanagar 2nd Block)",
        "name:kn": "ಬಿಬಿಎಂಪಿ ಸಂಕೀರ್ಣ"
      }
    },
    {
      "type": "way",
      "id": 133115272,
      "center": {
        "lat": 12.9486891,
        "lon": 77.5756679
      },
      "tags": {
        "amenity": "school",
        "check_date": "2024-04-08",
        "name": "Vasavi Vidya Nikethan School",
        "name:kn": "ವಾಸವಿ ವಿದ್ಯಾನಿಕೇತನ ಶಾಲೆ"
      }
    },
    {
      "type": "way",
      "id": 133117440,
      "center": {
        "lat": 12.9423054,
        "lon": 77.5666933
      },
      "tags": {
        "amenity": "library",
        "building": "yes",
        "check_date": "2025-06-22",
        "name": "BMS College Of Architecture",
        "name:kn": "ಬಿ ಎಂ ಎಸ್ ವಾಸ್ತುಶಿಲ್ಪ ಕಾಲೇಜು",
        "operator:type": "private"
      }
    },
    {
      "type": "way",
      "id": 162389318,
      "center": {
        "lat": 12.9413073,
        "lon": 77.5664897
      },
      "tags": {
        "access": "customers",
        "amenity": "parking",
        "fee": "no",
        "name": "BMS College Parking",
        "parking": "surface"
      }
    },
    {
      "type": "way",
      "id": 162389319,
      "center": {
        "lat": 12.9411519,
        "lon": 77.5665825
      },
      "tags": {
        "leisure": "park"
      }
    },
    {
      "type": "way",
      "id": 162871259,
      "center": {
        "lat": 12.941891,
        "lon": 77.5665178
      },
      "tags": {
        "leisure": "park"
      }
    },
    {
      "type": "way",
      "id": 172845845,
      "center": {
        "lat": 12.9415239,
        "lon": 77.5659049
      },
      "tags": {
        "amenity": "college",
        "name": "BMS College of Engineering",
        "name:kn": "ಬಿಎಂಎಸ್ ತಾಂತ್ರಿಕ ಮಹಾವಿದ್ಯಾಲಯ",
        "wikidata": "Q4833841",
        "wikimedia_commons": "Category:B. M. Sreenivasaiah College of Engineering",
        "wikipedia": "en:B.M.S. College of Engineering"
      }
    },
    {
      "type": "way",
      "id": 188433928,
      "center": {
        "lat": 12.9409007,
        "lon": 77.5734925
      },
      "tags": {
        "amenity": "community_centre",
        "building": "yes",
        "name": "Dwarakanath Bhavan",
        "name:kn": "ದ್ವಾರಕನಾಥ ಭವನ"
      }
    },
    {
      "type": "way",
      "id": 197373883,
      "center": {
        "lat": 12.9369901,
        "lon": 77.5784172
      },
      "tags": {
        "amenity": "bank",
        "brand": "Citibank",
        "brand:wikidata": "Q857063",
        "building": "yes",
        "name": "Citibank",
        "name:kn": "ಸಿಟಿಬ್ಯಾಂಕ್",
        "opening_hours": "Mo-Fr 09:00-18:00; Sa 09:00-14:00; Su off",
        "operator": "Citigroup",
        "short_name": "Citi"
      }
    },
    {
      "type": "way",
      "id": 197373901,
      "center": {
        "lat": 12.9370961,
        "lon": 77.5764902
      },
      "tags": {
        "amenity": "community_centre",
        "building": "yes",
        "name": "Shiva Shakthi Convention Hall"
      }
    },
    {
      "type": "way",
      "id": 197373906,
      "center": {
        "lat": 12.9363361,
        "lon": 77.5782076
      },
      "tags": {
        "amenity": "college",
        "building": "yes",
        "name": "Surana College",
        "name:kn": "ಸುರಾನ ಕಾಲೇಜು",
        "website": "https://www.suranacollege.edu.in/",
        "wikidata": "Q7645383",
        "wikimedia_commons": "Category:Surana College",
        "wikipedia": "en:Surana College"
      }
    },
    {
      "type": "way",
      "id": 202799608,
      "center": {
        "lat": 12.9411323,
        "lon": 77.5808612
      },
      "tags": {
        "amenity": "school",
        "name": "Bangalore Higher Secondary School (BHSS)",
        "name:kn": "ಬೆಂಗಳೂರು ಪ್ರೌಡ ಶಾಲೆ"
      }
    },
    {
      "type": "way",
      "id": 257203639,
      "center": {
        "lat": 12.940415,
        "lon": 77.5808636
      },
      "tags": {
        "amenity": "college",
        "name": "Vijaya College",
        "name:kn": "ವಿಜಯ ಕಾಲೇಜು"
      }
    },
    {
      "type": "way",
      "id": 299877333,
      "center": {
        "lat": 12.9421433,
        "lon": 77.5692538
      },
      "tags": {
        "fixme": "borders",
        "leisure": "park",
        "name": "Bugle Rock Park",
        "name:kn": "ಕಹಳೆಬಂಡೆ ಉದ್ಯಾನವನ",
        "wikidata": "Q4986214",
        "wikimedia_commons": "Category:Bugle Rock",
        "wikipedia": "en:Bugle Rock"
      }
    },
    {
      "type": "way",
      "id": 299877334,
      "center": {
        "lat": 12.9418582,
        "lon": 77.5679447
      },
      "tags": {
        "addr:street": "Bull Temple Road",
        "alt_name": "Basava Temple",
        "amenity": "place_of_worship",
        "building": "temple",
        "name": "Shri Doddabasavanna Temple",
        "name:kn": "ಶ್ರೀ ದೊಡ್ಡಬಸವಣ್ಣ ದೇವಸ್ಥಾನ",
        "religion": "hindu"
      }
    },
    {
      "type": "way",
      "id": 299877335,
      "center": {
        "lat": 12.942878,
        "lon": 77.5682145
      },
      "tags": {
        "addr:street": "Bull Temple Road",
        "amenity": "place_of_worship",
        "building": "temple",
        "name": "Dodda Ganesha Temple",
        "name:kn": "ದೊಡ್ಡ ಗಣೇಶ ಗುಡಿ",
        "religion": "hindu",
        "wikipedia": "en:Dodda Basavana Gudi"
      }
    },
    {
      "type": "way",
      "id": 327061225,
      "center": {
        "lat": 12.9400303,
        "lon": 77.5687111
      },
      "tags": {
        "leisure": "pitch"
      }
    },
    {
      "type": "way",
      "id": 335704461,
      "center": {
        "lat": 12.940526,
        "lon": 77.5761071
      },
      "tags": {
        "amenity": "parking"
      }
    },
    {
      "type": "way",
      "id": 338245372,
      "center": {
        "lat": 12.9432616,
        "lon": 77.5807346
      },
      "tags": {
        "amenity": "college",
        "name": "R V Teachers College"
      }
    },
    {
      "type": "way",
      "id": 338245809,
      "center": {
        "lat": 12.9430855,
        "lon": 77.5801805
      },
      "tags": {
        "addr:city": "Bangalore",
        "addr:postcode": "560004",
        "addr:street": "Rashtriya Vidyalaya Road",
        "amenity": "place_of_worship",
        "building": "yes",
        "name": "Shri Vallabhamba Ganapathi and Shaneshwara Temple",
        "religion": "hindu"
      }
    },
    {
      "type": "way",
      "id": 338245947,
      "center": {
        "lat": 12.9426104,
        "lon": 77.5802791
      },
      "tags": {
        "addr:city": "Bangalore",
        "addr:postcode": "560004",
        "addr:street": "Rashtriya Vidyalaya Road",
        "amenity": "bank",
        "atm": "no",
        "brand": "Central Bank of India",
        "brand:wikidata": "Q2007090",
        "brand:wikipedia": "en:Central Bank of India",
        "building": "yes",
        "name": "Central Bank of India",
        "name:en": "Central Bank of India",
        "name:kn": "ಸೆಂಟ್ರಲ್ ಬ್ಯಾಂಕ್",
        "opening_hours": "Mo-Fr 09:00-16:00, Sa 09:00-13:00",
        "website": "https://www.centralbankofindia.co.in"
      }
    },
    {
      "type": "way",
      "id": 338246149,
      "center": {
        "lat": 12.9427359,
        "lon": 77.5803146
      },
      "tags": {
        "addr:city": "Bangalore",
        "addr:housenumber": "545",
        "addr:postcode": "560004",
        "addr:street": "Rashtriya Vidyalaya Road",
        "building": "yes",
        "name": "Krishna Jewelers",
        "opening_hours": "11 am to 2 pm, 4pm to 8 pm;Sunday Holiday",
        "operator": "Prasad M N",
        "phone": "9844127656",
        "shop": "jewelry"
      }
    },
    {
      "type": "way",
      "id": 338314532,
      "center": {
        "lat": 12.938534,
        "lon": 77.5756549
      },
      "tags": {
        "addr:city": "Bangalore",
        "addr:street": "Kanakapura Road",
        "amenity": "fast_food",
        "building": "yes",
        "cuisine": "regional",
        "delivery": "no",
        "name": "South Thindis",
        "takeaway": "yes"
      }
    },
    {
      "type": "way",
      "id": 338316411,
      "center": {
        "lat": 12.9428019,
        "lon": 77.5797641
      },
      "tags": {
        "addr:city": "Bangalore",
        "addr:postcode": "560004",
        "addr:street": "Rashtriya Vidyalaya Road",
        "building": "yes",
        "name": "Silicon Honda Service Station and Dealership",
        "shop": "motorcycle"
      }
    },
    {
      "type": "way",
      "id": 338457515,
      "center": {
        "lat": 12.9441426,
        "lon": 77.5741238
      },
      "tags": {
        "addr:city": "Bangalore",
        "addr:street": "Krishna Rajendra Road",
        "amenity": "kindergarten",
        "name": "Tenbroeck Academy"
      }
    },
    {
      "type": "way",
      "id": 345968568,
      "center": {
        "lat": 12.9452329,
        "lon": 77.569263
      },
      "tags": {
        "amenity": "events_venue",
        "building": "yes",
        "name": "Sree Radha Krishna Convention Centre"
      }
    },
    {
      "type": "way",
      "id": 346703040,
      "center": {
        "lat": 12.9447698,
        "lon": 77.5700456
      },
      "tags": {
        "amenity": "events_venue",
        "building": "yes",
        "name": "Sree Bhavani Kalyana Mantapa"
      }
    },
    {
      "type": "way",
      "id": 346703555,
      "center": {
        "lat": 12.9451773,
        "lon": 77.5675211
      },
      "tags": {
        "amenity": "community_centre",
        "building": "yes",
        "building:levels": "3",
        "name": "SBN Hall",
        "name:kn": "ಎಸ್.ಬಿ.ಎನ್ ಕಲ್ಯಾಣ ಮಂಟಪ"
      }
    },
    {
      "type": "way",
      "id": 346744101,
      "center": {
        "lat": 12.9461969,
        "lon": 77.5674238
      },
      "tags": {
        "addr:postcode": "560019",
        "addr:street": "Bull Temple Road",
        "amenity": "community_centre",
        "building": "yes",
        "name": "Ganjam Mantap",
        "wheelchair": "no"
      }
    },
    {
      "type": "way",
      "id": 346756057,
      "center": {
        "lat": 12.9439975,
        "lon": 77.5763287
      },
      "tags": {
        "amenity": "library",
        "building": "yes",
        "name": "World Culture Library"
      }
    },
    {
      "type": "way",
      "id": 347182374,
      "center": {
        "lat": 12.9486853,
        "lon": 77.5718879
      },
      "tags": {
        "addr:city": "Bangalore",
        "amenity": "place_of_worship",
        "building": "yes",
        "description": "Uttaradhi Mutt",
        "name": "Digvijaya Lakshmi Narasimha Temple",
        "name:kn": "ದಿಗ್ವಿಜಯ ಲಕ್ಷ್ಮಿನರಸಿಂಹ ದೇವಸ್ಥಾನ",
        "religion": "hindu"
      }
    },
    {
      "type": "way",
      "id": 347216082,
      "center": {
        "lat": 12.9483972,
        "lon": 77.5704979
      },
      "tags": {
        "building": "yes",
        "name": "Battery Mark Exide Care",
        "shop": "car_parts"
      }
    },
    {
      "type": "way",
      "id": 347437479,
      "center": {
        "lat": 12.9433275,
        "lon": 77.5682752
      },
      "tags": {
        "addr:street": "Bull Temple Road",
        "amenity": "townhall",
        "building": "yes",
        "name": "Sri Dharmasthala Manjunathaswamy Kalyana Mantapa",
        "name:kn": "ಶ್ರೀ ಮಂಜುನಾಥಸ್ವಾಮಿ ಕಲ್ಯಾಣ ಮಂಟಪ"
      }
    },
    {
      "type": "way",
      "id": 347480195,
      "center": {
        "lat": 12.9463814,
        "lon": 77.5734611
      },
      "tags": {
        "amenity": "place_of_worship",
        "name": "Vimalnath Jain Temple",
        "name:kn": "ವಿಮಲನಾಥ ಜೈನ ದೇವಾಲಯ",
        "religion": "jain"
      }
    },
    {
      "type": "way",
      "id": 347489268,
      "center": {
        "lat": 12.937231,
        "lon": 77.579479
      },
      "tags": {
        "amenity": "pharmacy",
        "building": "yes",
        "healthcare": "pharmacy",
        "name": "Shubha Ayurvedic Center"
      }
    },
    {
      "type": "way",
      "id": 347504826,
      "center": {
        "lat": 12.9479261,
        "lon": 77.5709428
      },
      "tags": {
        "amenity": "clinic",
        "building": "yes",
        "healthcare": "clinic",
        "name": "Amruth Ayurvedic Center",
        "name:kn": "ಅಮೃತ ಆಯುರ್ವೇದ"
      }
    },
    {
      "type": "way",
      "id": 347505016,
      "center": {
        "lat": 12.9479213,
        "lon": 77.5707129
      },
      "tags": {
        "amenity": "school",
        "building": "yes",
        "name": "Magadi Karanikara Vaidika Dharma Pathashala Trust",
        "name:kn": "ಮಾಗಡಿ ಕರಣಿಕರ ವೈಧಿಕ ಧರ್ಮ ಪಾಠಶಾಲೆ"
      }
    },
    {
      "type": "way",
      "id": 347533654,
      "center": {
        "lat": 12.9356593,
        "lon": 77.5797407
      },
      "tags": {
        "addr:city": "Bangalore",
        "addr:street": "Rashtriya Vidyalaya Road",
        "building": "yes",
        "leisure": "sports_centre",
        "name": "Navatara badminton academy"
      }
    },
    {
      "type": "way",
      "id": 347564363,
      "center": {
        "lat": 12.9380404,
        "lon": 77.5686782
      },
      "tags": {
        "addr:city": "Bengaluru",
        "addr:street": "Subbrama Chetty Road",
        "amenity": "restaurant",
        "building": "yes",
        "cuisine": "regional",
        "delivery": "no",
        "description": "Onion and Garlic not used in food preparation; Sambar not provided; Chutney only",
        "name": "South Kitchen",
        "name:kn": "ಸೌತ್ ಕಿಚನ್",
        "opening_hours": "06:00-12:00,16:00-21:00",
        "smoking": "no",
        "takeaway": "yes"
      }
    },
    {
      "type": "way",
      "id": 347564483,
      "center": {
        "lat": 12.9428531,
        "lon": 77.5730351
      },
      "tags": {
        "amenity": "community_centre",
        "building": "yes",
        "name": "Dwaraka Samsthana Hall",
        "name:kn": "ದ್ವಾರಕ ಸಂಸ್ಥಾನ ಹಾಲ್"
      }
    },
    {
      "type": "way",
      "id": 348284790,
      "center": {
        "lat": 12.9392713,
        "lon": 77.5722594
      },
      "tags": {
        "addr:city": "Bangalore",
        "addr:housenumber": "167/B",
        "addr:postcode": "560004",
        "addr:street": "Subbarama ChettyRoad,Basavanagudi",
        "amenity": "bank",
        "brand": "Union Bank of India",
        "brand:wikidata": "Q2004078",
        "building": "yes",
        "building:levels": "2",
        "name": "Union Bank of India",
        "name:kn": "ಕಾರ್ಪೋರೇಶನ್ ಬ್ಯಾಂಕ್"
      }
    },
    {
      "type": "way",
      "id": 348497980,
      "center": {
        "lat": 12.9365898,
        "lon": 77.5778304
      },
      "tags": {
        "addr:city": "Bangalore",
        "addr:postcode": "560004",
        "addr:street": "South End Road",
        "amenity": "bank",
        "atm": "yes",
        "brand": "Bank of Baroda",
        "brand:wikidata": "Q2003797",
        "building": "yes",
        "name": "Bank of Baroda",
        "name:kn": "ವಿಜಯ ಬ್ಯಾಂಕು",
        "opening_hours": "Mo-Fr 09:30-14:00; Sa[2,4] off; Sa[1,3,5] 09:30-14:00; Su off; PH off",
        "phone": "+91-80-22442371",
        "source": "https://www.vijayabank.com/Help-Desk/Branches"
      }
    },
    {
      "type": "way",
      "id": 350572306,
      "center": {
        "lat": 12.9378721,
        "lon": 77.5674301
      },
      "tags": {
        "amenity": "restaurant",
        "building": "yes",
        "name": "Kumara Bhavana",
        "name:kn": "ಕುಮಾರ ಭವನ"
      }
    },
    {
      "type": "way",
      "id": 351163480,
      "center": {
        "lat": 12.9430447,
        "lon": 77.567454
      },
      "tags": {
        "amenity": "events_venue",
        "building": "yes",
        "name": "Sri Nijaguna Kshetra"
      }
    },
    {
      "type": "way",
      "id": 352455939,
      "center": {
        "lat": 12.937797,
        "lon": 77.5704139
      },
      "tags": {
        "amenity": "place_of_worship",
        "building": "yes",
        "denomination": "hindu",
        "name": "Raghavendra Swamy Temple",
        "name:kn": "ರಾಘವೇಂದ್ರ ಸ್ವಾಮಿ ದೇವಸ್ಥಾನ",
        "religion": "hindu"
      }
    },
    {
      "type": "way",
      "id": 361108347,
      "center": {
        "lat": 12.9400755,
        "lon": 77.5730879
      },
      "tags": {
        "addr:city": "Bengaluru",
        "addr:postcode": "560004",
        "addr:street": "Nettakallappa Cir, Basavanagudi",
        "amenity": "place_of_worship",
        "building": "yes",
        "name": "Shri Varasiddhi Vinayaka Temple",
        "religion": "hindu"
      }
    },
    {
      "type": "way",
      "id": 361108397,
      "center": {
        "lat": 12.9400943,
        "lon": 77.5732639
      },
      "tags": {
        "leisure": "pitch",
        "lit": "yes",
        "sport": "volleyball",
        "surface": "dirt"
      }
    },
    {
      "type": "way",
      "id": 362907458,
      "center": {
        "lat": 12.9375529,
        "lon": 77.5690154
      },
      "tags": {
        "designation": "BBMP Park",
        "leisure": "park"
      }
    },
    {
      "type": "way",
      "id": 362907846,
      "center": {
        "lat": 12.9378191,
        "lon": 77.5714966
      },
      "tags": {
        "leisure": "park",
        "name": "Shamanna Park",
        "name:kn": "ಶಾಮಣ್ಣ ಉದ್ಯಾನವನ"
      }
    },
    {
      "type": "way",
      "id": 490824219,
      "center": {
        "lat": 12.9380703,
        "lon": 77.569026
      },
      "tags": {
        "addr:city": "Bengaluru",
        "addr:street": "Subbrama Chetty Road",
        "amenity": "bus_station",
        "building": "yes",
        "bus": "yes",
        "internet_access": "no",
        "name": "N. R. Colony Bus Station",
        "name:kn": "ಎನ್.  ಆರ್.  ಕಾಲೋನಿ ಬಸ್ ನಿಲ್ದಾಣ",
        "operator": "BMTC",
        "public_transport": "station"
      }
    },
    {
      "type": "way",
      "id": 496821816,
      "center": {
        "lat": 12.9377267,
        "lon": 77.5697859
      },
      "tags": {
        "amenity": "hospital",
        "building": "yes",
        "healthcare": "hospital",
        "name": "Government Maternity Hospital",
        "name:kn": "ಸರಕಾರಿ ಹೆರಿಗೆ ಆಸ್ಪತ್ರೆ"
      }
    },
    {
      "type": "way",
      "id": 525505250,
      "center": {
        "lat": 12.9377938,
        "lon": 77.5706994
      },
      "tags": {
        "addr:city": "Bangalore",
        "amenity": "place_of_worship",
        "building": "yes",
        "denomination": "hindu",
        "name": "Sri Rama Temple",
        "name:kn": "ಶ್ರೀ ರಾಮ ದೇವಸ್ಥಾನ",
        "religion": "hindu"
      }
    },
    {
      "type": "way",
      "id": 525506839,
      "center": {
        "lat": 12.9408006,
        "lon": 77.5689519
      },
      "tags": {
        "addr:city": "Bengaluru",
        "addr:postcode": "560004",
        "addr:street": "Mallikarjuna Temple St, Basavanagudi",
        "amenity": "place_of_worship",
        "building": "yes",
        "name": "Shri Mallikarjuna Swamy Devasthana",
        "religion": "hindu"
      }
    },
    {
      "type": "way",
      "id": 687319732,
      "center": {
        "lat": 12.9413364,
        "lon": 77.5674679
      },
      "tags": {
        "addr:district": "Bengaluru Urban",
        "addr:full": "618, Sri Mallikarjuna Swamy Temple St, N.R. Colony",
        "addr:postcode": "560019",
        "addr:state": "Karnataka",
        "amenity": "hospital",
        "name": "BMS Hospital",
        "source": "OpenGovernmentData"
      }
    },
    {
      "type": "way",
      "id": 687319737,
      "center": {
        "lat": 12.9400098,
        "lon": 77.5677654
      },
      "tags": {
        "addr:street": "Bull Temple Road",
        "amenity": "school",
        "name": "APS Public School",
        "name:kn": "ಎಪಿಎಸ್ ಪಬ್ಲಿಕ್ ಶಾಲೆ"
      }
    },
    {
      "type": "way",
      "id": 977371897,
      "center": {
        "lat": 12.950672,
        "lon": 77.577026
      },
      "tags": {
        "amenity": "place_of_worship",
        "building": "temple",
        "denomination": "swethambar",
        "name": "Simandhar Swami Shanti Suriji Dadawadi Jain Temple",
        "religion": "jain"
      }
    },
    {
      "type": "way",
      "id": 990830460,
      "center": {
        "lat": 12.9441015,
        "lon": 77.5715902
      },
      "tags": {
        "leisure": "park"
      }
    },
    {
      "type": "way",
      "id": 1134063891,
      "center": {
        "lat": 12.9467942,
        "lon": 77.5798276
      },
      "tags": {
        "amenity": "restaurant",
        "building": "yes"
      }
    },
    {
      "type": "way",
      "id": 1163783145,
      "center": {
        "lat": 12.9371459,
        "lon": 77.5691968
      },
      "tags": {
        "amenity": "marketplace"
      }
    },
    {
      "type": "way",
      "id": 1163783146,
      "center": {
        "lat": 12.9376192,
        "lon": 77.569067
      },
      "tags": {
        "leisure": "playground"
      }
    },
    {
      "type": "way",
      "id": 1163783152,
      "center": {
        "lat": 12.9378158,
        "lon": 77.5716137
      },
      "tags": {
        "leisure": "playground"
      }
    },
    {
      "type": "way",
      "id": 1167155057,
      "center": {
        "lat": 12.943176,
        "lon": 77.5797756
      },
      "tags": {
        "amenity": "fuel",
        "brand": "Total",
        "brand:wikidata": "Q154037",
        "name": "Total"
      }
    },
    {
      "type": "way",
      "id": 1203069049,
      "center": {
        "lat": 12.9449712,
        "lon": 77.5666634
      },
      "tags": {
        "amenity": "school"
      }
    },
    {
      "type": "way",
      "id": 1206377083,
      "center": {
        "lat": 12.9439927,
        "lon": 77.5745175
      },
      "tags": {
        "amenity": "school",
        "name": "Sri Chaitanya Techno School"
      }
    },
    {
      "type": "way",
      "id": 1206377096,
      "center": {
        "lat": 12.9438567,
        "lon": 77.5740961
      },
      "tags": {
        "leisure": "swimming_pool",
        "sport": "swimming"
      }
    },
    {
      "type": "way",
      "id": 1206377098,
      "center": {
        "lat": 12.9441051,
        "lon": 77.5761955
      },
      "tags": {
        "amenity": "events_venue",
        "barrier": "wall",
        "name": "Indian Institute of World Culture",
        "website": "https://iiwc.in/",
        "wikidata": "Q7741861"
      }
    },
    {
      "type": "way",
      "id": 1206377099,
      "center": {
        "lat": 12.9440353,
        "lon": 77.5760668
      },
      "tags": {
        "amenity": "events_venue",
        "building": "yes",
        "name": "Wadia Hall"
      }
    },
    {
      "type": "way",
      "id": 1206377100,
      "center": {
        "lat": 12.9440279,
        "lon": 77.5762
      },
      "tags": {
        "amenity": "arts_centre",
        "building": "yes",
        "name": "Arts Gallery"
      }
    },
    {
      "type": "way",
      "id": 1206697239,
      "center": {
        "lat": 12.9473285,
        "lon": 77.5698824
      },
      "tags": {
        "amenity": "school"
      }
    },
    {
      "type": "way",
      "id": 1210572427,
      "center": {
        "lat": 12.9433231,
        "lon": 77.5674959
      },
      "tags": {
        "amenity": "school",
        "name": "NET School"
      }
    },
    {
      "type": "way",
      "id": 1210572433,
      "center": {
        "lat": 12.9441556,
        "lon": 77.567633
      },
      "tags": {
        "leisure": "park"
      }
    },
    {
      "type": "way",
      "id": 1210592626,
      "center": {
        "lat": 12.9473878,
        "lon": 77.5797003
      },
      "tags": {
        "amenity": "fuel",
        "brand": "Gail Gas",
        "fuel:cng": "yes",
        "self_service": "no"
      }
    },
    {
      "type": "way",
      "id": 1272455589,
      "center": {
        "lat": 12.937058,
        "lon": 77.5767783
      },
      "tags": {
        "amenity": "fuel"
      }
    },
    {
      "type": "way",
      "id": 1272455789,
      "center": {
        "lat": 12.942394,
        "lon": 77.5772006
      },
      "tags": {
        "amenity": "school",
        "name": "The Kenmore English School"
      }
    },
    {
      "type": "way",
      "id": 1294956169,
      "center": {
        "lat": 12.947928,
        "lon": 77.5694366
      },
      "tags": {
        "amenity": "parking",
        "parking": "surface"
      }
    },
    {
      "type": "way",
      "id": 1296053203,
      "center": {
        "lat": 12.9490876,
        "lon": 77.5807097
      },
      "tags": {
        "amenity": "school",
        "name": "RV Public School",
        "wikidata": "Q22032304"
      }
    },
    {
      "type": "way",
      "id": 1330344687,
      "center": {
        "lat": 12.9421865,
        "lon": 77.5743328
      },
      "tags": {
        "amenity": "police",
        "name": "Basavangudi Police Station",
        "name:kn": "ಬಸವನಗುಡಿ ಪೋಲಿಸ್ ಠಾಣೆ"
      }
    },
    {
      "type": "way",
      "id": 1330344689,
      "center": {
        "lat": 12.940149,
        "lon": 77.574169
      },
      "tags": {
        "leisure": "sports_centre",
        "name": "Maracana Sports Arena"
      }
    },
    {
      "type": "way",
      "id": 1330344691,
      "center": {
        "lat": 12.9399296,
        "lon": 77.5736937
      },
      "tags": {
        "leisure": "park"
      }
    },
    {
      "type": "way",
      "id": 1350390235,
      "center": {
        "lat": 12.9372378,
        "lon": 77.5814124
      },
      "tags": {
        "amenity": "school"
      }
    },
    {
      "type": "way",
      "id": 1350390237,
      "center": {
        "lat": 12.9353265,
        "lon": 77.581852
      },
      "tags": {
        "amenity": "place_of_worship",
        "landuse": "religious",
        "name": "Shree Patalamma Temple",
        "name:kn": "ಶ್ರೀ ಪಟಾಲಮ್ಮ ದೇವಾಲಯ",
        "religion": "hindu"
      }
    },
    {
      "type": "way",
      "id": 1350600840,
      "center": {
        "lat": 12.9445131,
        "lon": 77.5725626
      },
      "tags": {
        "amenity": "motorcycle_parking",
        "fee": "no",
        "parking": "street_side"
      }
    },
    {
      "type": "way",
      "id": 1414633957,
      "center": {
        "lat": 12.9433894,
        "lon": 77.5832149
      },
      "tags": {
        "leisure": "playground"
      }
    },
    {
      "type": "way",
      "id": 1449723938,
      "center": {
        "lat": 12.9403835,
        "lon": 77.579046
      },
      "tags": {
        "amenity": "place_of_worship",
        "landuse": "religious",
        "religion": "muslim"
      }
    },
    {
      "type": "way",
      "id": 1449723942,
      "center": {
        "lat": 12.9403342,
        "lon": 77.5787453
      },
      "tags": {
        "amenity": "college"
      }
    },
    {
      "type": "way",
      "id": 1449723980,
      "center": {
        "lat": 12.9430877,
        "lon": 77.5779505
      },
      "tags": {
        "amenity": "place_of_worship",
        "denomination": "anglican",
        "landuse": "religious",
        "name": "Christ Church",
        "religion": "christian"
      }
    }
  ]
}