{
  "area_name": "Basaveshwara Nagara",
  "osm_id": 19883276,
  "osm_type": "relation",
  "place_type": "administrative",
  "amenity_count": 110,
  "amenities": [
    {
      "type": "node",
      "id": 519549716,
      "lat": 12.9967798,
      "lon": 77.5404068,
      "tags": {
        "addr:street": "WOC Road",
        "amenity": "fuel",
        "brand": "Indian Oil",
        "brand:wikidata": "Q1289348",
        "brand:wikipedia": "en:Indian Oil Corporation",
        "name": "Indian Oil",
        "operator": "Indian Oil",
        "wheelchair": "yes"
      }
    },
    {
      "type": "node",
      "id": 519549739,
      "lat": 12.9929911,
      "lon": 77.5390937,
      "tags": {
        "addr:city": "Basaveshwara Nagar, Bangalore",
        "addr:street": "WOC Road",
        "amenity": "atm",
        "brand": "ICICI Bank",
        "brand:wikidata": "Q1653258",
        "name": "ICICI Bank",
        "name:kn": "ಐಸಿಐಸಿಐ ಬ್ಯಾಂಕು",
        "operator": "ICICI Bank",
        "operator:wikidata": "Q1653258",
        "short_name": "ICICI"
      }
    },
    {
      "type": "node",
      "id": 519549757,
      "lat": 12.9965228,
      "lon": 77.5423272,
      "tags": {
        "addr:city": "Basaveshwara Nagar, Bangalore",
        "amenity": "school",
        "name": "St Charles High School"
      }
    },
    {
      "type": "node",
      "id": 529780984,
      "lat": 12.9885908,
      "lon": 77.5442935,
      "tags": {
        "amenity": "school",
        "name": "Carmel High School",
        "name:kn": "ಕಾರ್ಮೆಲ್ ಪ್ರೌಡಶಾಲೆ",
        "wheelchair": "limited"
      }
    },
    {
      "type": "node",
      "id": 530343291,
      "lat": 12.993098,
      "lon": 77.5421028,
      "tags": {
        "addr:city": "Basaveshwara Nagar, Bangalore",
        "amenity": "place_of_worship",
        "name": "Temple",
        "name:kn": "ದೇವಸ್ಥಾನ",
        "religion": "hindu"
      }
    },
    {
      "type": "node",
      "id": 530353033,
      "lat": 12.9978931,
      "lon": 77.5436127,
      "tags": {
        "addr:city": "Basaveshwara Nagar, Bangalore",
        "addr:housenumber": "877",
        "addr:postcode": "560079",
        "addr:street": "Modi Hospital Road (West of Chord Road)",
        "amenity": "hospital",
        "email": "pristinehospitals@pristinehospitals.com",
        "fax": "+91-80-41354455",
        "healthcare": "hospital",
        "name": "Pristline Hospital",
        "name:kn": "ಪ್ರಿಸ್ಟೀನ್ ಆಸ್ಪತ್ರೆ",
        "phone": "+91-80-41354444;+91-80-51270776",
        "website": "http://www.pristinehospitals.com/"
      }
    },
    {
      "type": "node",
      "id": 530720679,
      "lat": 12.9972514,
      "lon": 77.541656,
      "tags": {
        "shop": "convenience"
      }
    },
    {
      "type": "node",
      "id": 994628616,
      "lat": 12.9931738,
      "lon": 77.5391448,
      "tags": {
        "addr:city": "Basaveshwara Nagar, Bangalore",
        "addr:street": "WOC Road",
        "name": "Bhutan Board Furniture",
        "shop": "furniture"
      }
    },
    {
      "type": "node",
      "id": 997416979,
      "lat": 12.9939121,
      "lon": 77.5394136,
      "tags": {
        "addr:street": "WOC Road",
        "amenity": "toilets",
        "fee": "yes",
        "name": "Public Toilet",
        "name:kn": "ಸಾರ್ವಜನಿಕ ಶೌಚಾಲಯ",
        "wheelchair": "no"
      }
    },
    {
      "type": "node",
      "id": 997417046,
      "lat": 12.9972009,
      "lon": 77.540616,
      "tags": {
        "addr:city": "Basaveshwara Nagar, Bangalore",
        "amenity": "restaurant",
        "brand": "Pizza Hut",
        "brand:wikidata": "Q191615",
        "cuisine": "pizza",
        "name": "Pizza Hut",
        "name:kn": "ಪಿಜ್ಜಾ ಹಟ್",
        "operator": "Pizza Hut",
        "wheelchair": "no"
      }
    },
    {
      "type": "node",
      "id": 1024942731,
      "lat": 12.9899522,
      "lon": 77.5378467,
      "tags": {
        "amenity": "bank",
        "atm": "yes",
        "brand": "Bank of India",
        "brand:wikidata": "Q2004439",
        "brand:wikipedia": "en:Bank of India",
        "name": "Bank of India",
        "name:en": "Bank of India",
        "short_name": "BoI",
        "website": "http://www.bankofindia.co.in"
      }
    },
    {
      "type": "node",
      "id": 1024942747,
      "lat": 12.9958306,
      "lon": 77.5401339,
      "tags": {
        "addr:street": "WOC Road",
        "amenity": "bank",
        "atm": "yes",
        "brand": "Axis Bank",
        "brand:wikidata": "Q2003549",
        "brand:wikipedia": "en:Axis Bank",
        "name": "Axis Bank",
        "name:en": "Axis Bank",
        "name:kn": "ಆಕ್ಸಿಸ್ ಬ್ಯಾಂಕ್",
        "website": "https://www.axisbank.com",
        "wheelchair": "no"
      }
    },
    {
      "type": "node",
      "id": 1440197001,
      "lat": 12.9860568,
      "lon": 77.5418754,
      "tags": {
        "addr:housename": "Karnataka State Co-op Apex Bank",
        "addr:housenumber": "No 1",
        "addr:postcode": "560079",
        "addr:street": "15th Main, 3rd Stage, Basaveshwaranagar",
        "amenity": "bank",
        "atm": "no",
        "name": "Karnataka State Co-op Apex Bank"
      }
    },
    {
      "type": "node",
      "id": 1467501725,
      "lat": 12.988545,
      "lon": 77.5377868,
      "tags": {
        "amenity": "restaurant",
        "name": "New Shanti Sagar",
        "name:kn": "ನ್ಯೂ ಶಾರದ"
      }
    },
    {
      "type": "node",
      "id": 1809624008,
      "lat": 12.9886227,
      "lon": 77.5378109,
      "tags": {
        "amenity": "restaurant",
        "name": "Nisarga Andhra Style",
        "name:kn": "ನಿಸರ್ಗ ಅಂಧ್ರ ಸ್ಟೈಲ್"
      }
    },
    {
      "type": "node",
      "id": 2027517345,
      "lat": 12.9984475,
      "lon": 77.5423888,
      "tags": {
        "addr:housename": "Near Shankar Mutt",
        "addr:street": "Modi Hospital road",
        "name": "Next Electronic Shop",
        "shop": "hifi",
        "website": "www.next.co.in"
      }
    },
    {
      "type": "node",
      "id": 2027517361,
      "lat": 12.991257,
      "lon": 77.5384096,
      "tags": {
        "addr:city": "Bangalore",
        "addr:housename": "Basaveshwara Nagar",
        "addr:postcode": "560079",
        "addr:street": "Siddhaiah Puranik Road",
        "amenity": "atm",
        "name": "Karnataka Bank Money Plant",
        "operator": "Karnatakaa Bank"
      }
    },
    {
      "type": "node",
      "id": 2245111330,
      "lat": 12.9888754,
      "lon": 77.5378467,
      "tags": {
        "brand": "Bata",
        "brand:wikidata": "Q688082",
        "name": "Bata",
        "name:kn": "ಬಾಟಾ",
        "shop": "shoes"
      }
    },
    {
      "type": "node",
      "id": 2245131003,
      "lat": 12.9915322,
      "lon": 77.5382491,
      "tags": {
        "name": "Airtel Relationship Centre",
        "name:kn": "ಏರ್ಟೆಲ್",
        "shop": "customer_service"
      }
    },
    {
      "type": "node",
      "id": 2245145511,
      "lat": 12.9914936,
      "lon": 77.538699,
      "tags": {
        "addr:city": "Bangalore",
        "addr:housenumber": "491/A",
        "addr:street": "8th Main Road",
        "amenity": "ice_cream",
        "brand": "Polar Bear",
        "name": "Polar Bear",
        "opening_hours": "Mo-Su 11:00-23:00",
        "phone": "+91 80 2322 5704",
        "website": "https://polarbear.co.in/"
      }
    },
    {
      "type": "node",
      "id": 2247443467,
      "lat": 12.991114,
      "lon": 77.5407958,
      "tags": {
        "amenity": "restaurant",
        "cuisine": "indian",
        "name": "Davanagere Benne Dose",
        "name:kn": "ದಾವಣಗೆರೆ ಬೆಣ್ಣೆ ದೋಸೆ",
        "wheelchair": "no"
      }
    },
    {
      "type": "node",
      "id": 2249069522,
      "lat": 12.9856882,
      "lon": 77.5435424,
      "tags": {
        "addr:district": "Bengaluru Urban",
        "addr:full": "#6, Thimmaiah Layout, 1st Main 3rd D Cross, 3rd Stage, 2nd Block",
        "addr:postcode": "560079",
        "addr:state": "Karnataka",
        "addr:subdistrict": "Basaveshwaranagar",
        "amenity": "hospital",
        "name": "Shanbhag Hospital",
        "operator:type": "private",
        "source": "OpenGovernmentData",
        "website": "http://snsvo7.seekandsource.com/shanbhag/",
        "wheelchair": "yes"
      }
    },
    {
      "type": "node",
      "id": 2268407035,
      "lat": 12.9946566,
      "lon": 77.5397544,
      "tags": {
        "addr:district": "Bengaluru Urban",
        "addr:full": "No. 463, 1st Block, 3Road Stage, Dr.Siddaiah Puranika Road, Basaveshwaranagear",
        "addr:postcode": "560079",
        "addr:state": "Karnataka",
        "amenity": "hospital",
        "healthcare": "hospital",
        "name": "Trupti Nursing Home",
        "source": "OpenGovernmentData"
      }
    },
    {
      "type": "node",
      "id": 2400390754,
      "lat": 12.991344,
      "lon": 77.5382423,
      "tags": {
        "name": "Bombay Dyeing",
        "name:kn": "ಬೊಂಬೆ ಡೈಯಿಂಗ್",
        "shop": "clothes"
      }
    },
    {
      "type": "node",
      "id": 2480862321,
      "lat": 12.9931607,
      "lon": 77.5394749,
      "tags": {
        "addr:city": "Bangalore",
        "addr:housename": "3rd Phase, Basaveshwara Nagar",
        "addr:street": "10th Main",
        "amenity": "fast_food",
        "cuisine": "indian_chats",
        "name": "Shree Vinayaka Juice & Chat Center"
      }
    },
    {
      "type": "node",
      "id": 2497073980,
      "lat": 12.9894445,
      "lon": 77.5379861,
      "tags": {
        "addr:city": "Bangalore",
        "addr:housename": "Near Havanur Circle, Basaveshwaranagar",
        "addr:street": "1st main Basaveshwaranagar",
        "amenity": "ice_cream",
        "name": "Arun Ice Cream"
      }
    },
    {
      "type": "node",
      "id": 2497073985,
      "lat": 12.9900378,
      "lon": 77.537746,
      "tags": {
        "addr:city": "Bangalore",
        "addr:housename": "Near Havanur Circle, Basaveshwara Nagar",
        "addr:housenumber": "313, 313/A",
        "addr:street": "1st main Basaveshwaranagar",
        "amenity": "college",
        "name": "Zee Institute of Creative Arts",
        "name:en": "ZICA",
        "operator": "Zee",
        "phone": "+91 80 66490571"
      }
    },
    {
      "type": "node",
      "id": 2497073991,
      "lat": 12.989651,
      "lon": 77.5377152,
      "tags": {
        "addr:city": "Bangalore",
        "addr:housename": "Opp Bank of India, Basaveshwara Nagar",
        "addr:street": "1st main Basaveshwaranagar",
        "amenity": "cafe",
        "cuisine": "coffee_shop",
        "internet_access": "no",
        "name": "Fresh and ground"
      }
    },
    {
      "type": "node",
      "id": 2503514154,
      "lat": 12.9930606,
      "lon": 77.5391103,
      "tags": {
        "addr:city": "Bangalore",
        "addr:housename": "Opp Panacea Hospital, Basaveshwara Nagar",
        "addr:postcode": "560079",
        "addr:street": "1st Cross Road",
        "amenity": "dentist",
        "healthcare": "dentist",
        "name": "Narayana Dental Hospital"
      }
    },
    {
      "type": "node",
      "id": 2503514687,
      "lat": 12.9917578,
      "lon": 77.5386852,
      "tags": {
        "addr:city": "Bangalore",
        "addr:housename": "Near 8th Main Intersection",
        "addr:postcode": "560079",
        "addr:street": "Siddhaiah Puranik Road",
        "name": "Prestige Smart Kitchen",
        "name:en": "PSK",
        "shop": "kitchen"
      }
    },
    {
      "type": "node",
      "id": 2503514688,
      "lat": 12.991912,
      "lon": 77.5386905,
      "tags": {
        "addr:city": "Bangalore",
        "addr:housename": "Near 8th Main Intersection",
        "addr:postcode": "560079",
        "addr:street": "Siddhaiah Puranik Road",
        "amenity": "clinic",
        "healthcare": "clinic",
        "name": "Positive Homeopathy"
      }
    },
    {
      "type": "node",
      "id": 2505742898,
      "lat": 12.991155,
      "lon": 77.5383908,
      "tags": {
        "amenity": "atm",
        "brand": "IndusInd Bank",
        "brand:wikidata": "Q2040323",
        "name": "IndusInd Bank",
        "operator": "IndusInd Bank",
        "operator:wikidata": "Q2040323"
      }
    },
    {
      "type": "node",
      "id": 2505742902,
      "lat": 12.9932236,
      "lon": 77.5391579,
      "tags": {
        "addr:city": "Bangalore",
        "addr:housename": "Basaveshwara Nagar",
        "addr:postcode": "560079",
        "addr:street": "Siddhaiah Puranik Road",
        "name": "Kalasangam",
        "shop": "clothes"
      }
    },
    {
      "type": "node",
      "id": 2505742907,
      "lat": 12.9931034,
      "lon": 77.5391257,
      "tags": {
        "addr:city": "Bangalore",
        "addr:housename": "Opp Panacea Hospital, Basaweshwara Nagar",
        "addr:postcode": "560079",
        "addr:street": "Siddhaiah Puranik Road",
        "name": "Master Kitchen",
        "shop": "kitchen"
      }
    },
    {
      "type": "node",
      "id": 2505742917,
      "lat": 12.9918738,
      "lon": 77.5386617,
      "tags": {
        "addr:city": "Bangalore",
        "addr:housename": "Near 8th Main Junction, Basaweshwara Nagar",
        "addr:postcode": "560079",
        "addr:street": "Siddhaiah Puranik Road",
        "name": "On Track Mobiles",
        "shop": "mobile_phone"
      }
    },
    {
      "type": "node",
      "id": 2505742918,
      "lat": 12.9920018,
      "lon": 77.5387341,
      "tags": {
        "addr:city": "Bangalore",
        "addr:housename": "opp Titan Eye+, Basaweshwara Nagar",
        "addr:postcode": "560079",
        "addr:street": "Siddhaiah Puranik Road",
        "name": "Punjab Handlooms",
        "shop": "clothes"
      }
    },
    {
      "type": "node",
      "id": 2505742936,
      "lat": 12.9893282,
      "lon": 77.5379751,
      "tags": {
        "addr:city": "Bangalore",
        "addr:housename": "Basaweshwara Nagar",
        "addr:postcode": "560079",
        "addr:street": "Siddhaiah Puranik Road",
        "amenity": "ice_cream",
        "name": "Amul Ice Cream"
      }
    },
    {
      "type": "node",
      "id": 2505742941,
      "lat": 12.9884317,
      "lon": 77.5377873,
      "tags": {
        "addr:city": "Bangalore",
        "addr:housename": "Neat Pavithra Paradise, Havanur Circle, Basaweshwara Nagar",
        "addr:postcode": "560079",
        "addr:street": "Siddhaiah Puranik Road",
        "name": "KSIC Silks",
        "shop": "clothes"
      }
    },
    {
      "type": "node",
      "id": 2587490997,
      "lat": 12.9915093,
      "lon": 77.538526,
      "tags": {
        "name": "Ice Fort Ice Creams",
        "shop": "yes"
      }
    },
    {
      "type": "node",
      "id": 3740406895,
      "lat": 12.9886459,
      "lon": 77.5375264,
      "tags": {
        "amenity": "fast_food",
        "brand": "McDonald's",
        "brand:pa": "ਮੈਕਡੋਨਲਡ’ਜ਼",
        "brand:ur": "مکڈونلڈز",
        "brand:wikidata": "Q38076",
        "brand:wikipedia": "en:McDonald's",
        "brand:wikipedia:pa": "ਮੈਕਡੋਨਲਡ’ਜ਼",
        "brand:wikipedia:ur": "مکڈونلڈز",
        "cuisine": "burger",
        "name": "McDonald's",
        "name:kn": "ಮ್ಯಾಕ್‌ಡೊನಾಲ್ಡ್ಸ್",
        "name:pa": "ਮੈਕਡੋਨਲਡ’ਜ਼",
        "name:ur": "مکڈونلڈز",
        "takeaway": "yes"
      }
    },
    {
      "type": "node",
      "id": 4004502433,
      "lat": 12.993765,
      "lon": 77.5393225,
      "tags": {
        "amenity": "college",
        "name": "S Cadambi Pre University College"
      }
    },
    {
      "type": "node",
      "id": 4036600738,
      "lat": 12.9879988,
      "lon": 77.5381661,
      "tags": {
        "cuisine": "indian",
        "name": "Tango Sandwich Centre",
        "shop": "fast_food"
      }
    },
    {
      "type": "node",
      "id": 4036604298,
      "lat": 12.9886368,
      "lon": 77.534281,
      "tags": {
        "amenity": "car_wash",
        "name": "Ventateshwara Car Wash"
      }
    },
    {
      "type": "node",
      "id": 4073025961,
      "lat": 12.9902696,
      "lon": 77.5358713,
      "tags": {
        "amenity": "library",
        "designation": "Library",
        "name": "Nagara Kendra Granthalaya (City Central Library)",
        "name:kn": "ನಗರ ಕೇಂದ್ರ ಗ್ರಂಥಾಲಯ"
      }
    },
    {
      "type": "node",
      "id": 4073175528,
      "lat": 12.9916895,
      "lon": 77.5375425,
      "tags": {
        "amenity": "bank",
        "atm": "yes",
        "brand": "Central Bank of India",
        "brand:wikidata": "Q2007090",
        "brand:wikipedia": "en:Central Bank of India",
        "name": "Central Bank of India",
        "name:en": "Central Bank of India",
        "website": "https://www.centralbankofindia.co.in"
      }
    },
    {
      "type": "node",
      "id": 4073175529,
      "lat": 12.9904129,
      "lon": 77.535888,
      "tags": {
        "name": "KMF - Nandini Milk Parlour",
        "shop": "dairy"
      }
    },
    {
      "type": "node",
      "id": 4073175532,
      "lat": 12.9928087,
      "lon": 77.5390197,
      "tags": {
        "addr:city": "Bangalore",
        "addr:housename": "Near Panacea Hospital, Basaweshwara Nagar",
        "addr:postcode": "560079",
        "addr:street": "Siddhaiah Puranik Road",
        "clothes": "women;men",
        "name": "People",
        "shop": "clothes"
      }
    },
    {
      "type": "node",
      "id": 4073230950,
      "lat": 12.9917285,
      "lon": 77.5386255,
      "tags": {
        "name": "Tata Docomo Customer Servie",
        "shop": "customer_service"
      }
    },
    {
      "type": "node",
      "id": 4087635781,
      "lat": 12.9866737,
      "lon": 77.5408083,
      "tags": {
        "amenity": "fast_food",
        "name": "Bansuri"
      }
    },
    {
      "type": "node",
      "id": 4087635783,
      "lat": 12.9884235,
      "lon": 77.5352159,
      "tags": {
        "amenity": "fast_food",
        "name": "Mahadeshwara Chats"
      }
    },
    {
      "type": "node",
      "id": 4087675581,
      "lat": 12.9902817,
      "lon": 77.5378602,
      "tags": {
        "amenity": "restaurant",
        "cuisine": "regional",
        "name": "Priyadarshini Grand",
        "smoking": "no",
        "takeaway": "yes"
      }
    },
    {
      "type": "node",
      "id": 4402345272,
      "lat": 12.9898833,
      "lon": 77.5374156,
      "tags": {
        "amenity": "pharmacy",
        "name": "Sudarshan Medicals"
      }
    },
    {
      "type": "node",
      "id": 4447535055,
      "lat": 12.9879713,
      "lon": 77.5402233,
      "tags": {
        "addr:city": "Banglore",
        "addr:postcode": "560079",
        "addr:street": "4th Main Rd, KHB Colony, Basaveshwar Nagar,",
        "amenity": "school",
        "name": "Traffic Police Station Kamakshipalya",
        "name:kn": "ಕಾಮಾಕ್ಷಿಪಾಳ್ಯ ಸಂಚಾರ ಪೊಲೀಸ್ ಠಾಣೆ",
        "phone": "NA",
        "website": "NA"
      }
    },
    {
      "type": "node",
      "id": 4477057217,
      "lat": 12.9853846,
      "lon": 77.5444298,
      "tags": {
        "addr:city": "Bangalore",
        "addr:housenumber": "80",
        "addr:postcode": "560079",
        "addr:street": "1st Main Basaveshwaranagar",
        "amenity": "college",
        "contact:phone": "7022627374",
        "contact:phone_2": "7022627325",
        "name": "Allen Career Institute",
        "website": "https://www.allen.ac.in/"
      }
    },
    {
      "type": "node",
      "id": 4488494322,
      "lat": 12.9888729,
      "lon": 77.536874,
      "tags": {
        "addr:city": "Bangalore",
        "addr:housenumber": "18",
        "addr:postcode": "560079",
        "addr:street": "1st Main Basaveshwaranagar",
        "name": "Touch Spa & Salons",
        "opening_hours": "10:00-19:030",
        "phone": "080 2335 9620",
        "shop": "beauty",
        "website": "miracletouch.in"
      }
    },
    {
      "type": "node",
      "id": 4489804408,
      "lat": 12.9883892,
      "lon": 77.5367931,
      "tags": {
        "addr:city": "Bangalore",
        "addr:housenumber": "No.173/A",
        "addr:postcode": "560050",
        "addr:street": "50 Feet Road,2nd Block Hanumanth Nagar, Banashankari 1st Stage",
        "name": "Yemkay Supermarket",
        "phone": "80-33518340",
        "shop": "supermarket"
      }
    },
    {
      "type": "node",
      "id": 5086281341,
      "lat": 12.9868452,
      "lon": 77.5403901,
      "tags": {
        "name": "Soumya Medicals",
        "shop": "medical_supply"
      }
    },
    {
      "type": "node",
      "id": 5825285991,
      "lat": 12.9929612,
      "lon": 77.5390735,
      "tags": {
        "amenity": "fast_food",
        "cuisine": "indian;regional",
        "name": "Kanti sweets",
        "takeaway": "yes"
      }
    },
    {
      "type": "node",
      "id": 5846733389,
      "lat": 12.9880976,
      "lon": 77.5376599,
      "tags": {
        "name": "Pavithra Paradise",
        "payment:coins": "yes",
        "payment:debit_cards": "yes",
        "payment:notes": "yes",
        "shop": "bakery"
      }
    },
    {
      "type": "node",
      "id": 6017445198,
      "lat": 12.997555,
      "lon": 77.5445911,
      "tags": {
        "amenity": "restaurant",
        "cuisine": "regional",
        "delivery": "yes",
        "name": "Raata",
        "takeaway": "yes"
      }
    },
    {
      "type": "node",
      "id": 6093573541,
      "lat": 12.9883671,
      "lon": 77.5356916,
      "tags": {
        "amenity": "pharmacy",
        "name": "Moulya Medicals"
      }
    },
    {
      "type": "node",
      "id": 6947033494,
      "lat": 12.9980009,
      "lon": 77.5432779,
      "tags": {
        "addr:district": "Bengaluru Urban",
        "addr:full": "No.877, Modi Hospital Road, West of Chord Road, II Stage Extension",
        "addr:postcode": "560086",
        "addr:state": "Karnataka",
        "amenity": "hospital",
        "healthcare": "hospital",
        "name": "Pristine Hospital",
        "name:kn": "ಪ್ರಿಸ್ಟೀನ್ ಆಸ್ಪತ್ರೆ",
        "operator:type": "private",
        "source": "OpenGovernmentData",
        "website": "http://pristinehospitals.com/"
      }
    },
    {
      "type": "node",
      "id": 6947707901,
      "lat": 12.9895981,
      "lon": 77.5388995,
      "tags": {
        "addr:district": "Bengaluru Urban",
        "addr:full": "425/A, 6Th Main Road 3Road Stage, 3Road Block Basaveshwara Nagar",
        "addr:postcode": "560079",
        "addr:state": "Karnataka",
        "amenity": "clinic",
        "name": "Matru Nursing Home And Trauma Care Centre",
        "source": "OpenGovernmentData"
      }
    },
    {
      "type": "node",
      "id": 8187962425,
      "lat": 12.9977915,
      "lon": 77.5437368,
      "tags": {
        "addr:full": "760 A, 1st Floor, Narendra Chambers, Dr MC Modi Hospital Rd, West of Chord Road 2nd Stage, Indiranagar, Basaveshwar Nagar, Bengaluru, Karnataka",
        "addr:state": "Karnataka",
        "amenity": "bank",
        "brand": "State Bank of India",
        "brand:wikidata": "Q1340361",
        "brand:wikipedia": "en:State Bank of India",
        "name": "State Bank of India",
        "short_name": "SBI"
      }
    },
    {
      "type": "node",
      "id": 8442182841,
      "lat": 12.9978,
      "lon": 77.5407596,
      "tags": {
        "brand": "Fabindia",
        "brand:wikidata": "Q5427779",
        "name": "Fabindia",
        "shop": "clothes"
      }
    },
    {
      "type": "node",
      "id": 8442182842,
      "lat": 12.9977569,
      "lon": 77.5407442,
      "tags": {
        "amenity": "clinic",
        "name": "Sharma Nethralaya",
        "shop": "optician"
      }
    },
    {
      "type": "node",
      "id": 8442182844,
      "lat": 12.9977281,
      "lon": 77.5408233,
      "tags": {
        "amenity": "bank",
        "atm": "yes",
        "brand": "Equitas Small Finance Bank",
        "brand:wikidata": "Q29467249",
        "name": "Equitas Small Finance Bank"
      }
    },
    {
      "type": "node",
      "id": 8442182845,
      "lat": 12.9978471,
      "lon": 77.5407804,
      "tags": {
        "name": "Health and Glow",
        "shop": "beauty"
      }
    },
    {
      "type": "node",
      "id": 9063447833,
      "lat": 12.9870447,
      "lon": 77.5422372,
      "tags": {
        "amenity": "cafe",
        "name": "Rasayana coffee bar"
      }
    },
    {
      "type": "node",
      "id": 9161008305,
      "lat": 12.9940202,
      "lon": 77.5394936,
      "tags": {
        "name": "bake ur wish",
        "shop": "pastry"
      }
    },
    {
      "type": "node",
      "id": 9161008310,
      "lat": 12.9960692,
      "lon": 77.540254,
      "tags": {
        "name": "The Cake Factory",
        "shop": "pastry"
      }
    },
    {
      "type": "node",
      "id": 9161008311,
      "lat": 12.9955335,
      "lon": 77.5400716,
      "tags": {
        "brand": "pepperfry",
        "name": "pepperfry",
        "operator": "pepperfry",
        "shop": "furniture",
        "website": "https://www.pepperfry.com"
      }
    },
    {
      "type": "node",
      "id": 9574153221,
      "lat": 12.9986945,
      "lon": 77.5420618,
      "tags": {
        "name": "Amma's Pastries",
        "shop": "bakery"
      }
    },
    {
      "type": "node",
      "id": 9574153222,
      "lat": 12.9985298,
      "lon": 77.5422657,
      "tags": {
        "amenity": "bank",
        "atm": "yes",
        "brand": "Kotak Mahindra Bank",
        "brand:wikidata": "Q2040404",
        "name": "Kotak Mahindra Bank",
        "name:kn": "ಕೋಟಕ್ ಮಹಿಂದ್ರ ಬ್ಯಾಂಕ್",
        "operator": "Kotak Mahindra Bank"
      }
    },
    {
      "type": "node",
      "id": 10749106802,
      "lat": 12.9884873,
      "lon": 77.5348037,
      "tags": {
        "name": "Skanda Fashions",
        "shop": "clothes"
      }
    },
    {
      "type": "node",
      "id": 10749130205,
      "lat": 12.988439,
      "lon": 77.534555,
      "tags": {
        "amenity": "fast_food",
        "name": "Kaati Rolls"
      }
    },
    {
      "type": "node",
      "id": 10749130206,
      "lat": 12.9884468,
      "lon": 77.5346227,
      "tags": {
        "amenity": "restaurant",
        "cuisine": "multicuisine",
        "name": "Sirimane"
      }
    },
    {
      "type": "node",
      "id": 11117270549,
      "lat": 12.9899954,
      "lon": 77.5372124,
      "tags": {
        "amenity": "cafe",
        "name": "Glen's Bakehouse",
        "shop": "bakery"
      }
    },
    {
      "type": "node",
      "id": 11906537349,
      "lat": 12.9883959,
      "lon": 77.5358123,
      "tags": {
        "amenity": "atm",
        "brand": "Karnataka Bank",
        "brand:wikidata": "Q2042632",
        "fee": "Karnataka Bank ATM",
        "operator": "Karnataka Bank",
        "operator:wikidata": "Q2042632"
      }
    },
    {
      "type": "node",
      "id": 11913334196,
      "lat": 12.9867896,
      "lon": 77.5423336,
      "tags": {
        "check_date": "2024-05-17",
        "name": "GK Vale",
        "shop": "photo"
      }
    },
    {
      "type": "node",
      "id": 11913334295,
      "lat": 12.9867617,
      "lon": 77.542063,
      "tags": {
        "check_date": "2024-05-17",
        "name": "Ganesh Green Tea",
        "shop": "tea"
      }
    },
    {
      "type": "node",
      "id": 11913334987,
      "lat": 12.9865586,
      "lon": 77.5422486,
      "tags": {
        "check_date": "2024-05-17",
        "name": "Usha Shringar",
        "shop": "beauty"
      }
    },
    {
      "type": "node",
      "id": 11917795792,
      "lat": 12.9864809,
      "lon": 77.5422287,
      "tags": {
        "check_date": "2024-05-17",
        "name": "Cheveux",
        "shop": "hairdresser"
      }
    },
    {
      "type": "node",
      "id": 11917795793,
      "lat": 12.9865869,
      "lon": 77.5422792,
      "tags": {
        "check_date": "2024-05-17",
        "name": "Nithya Garments",
        "shop": "clothes"
      }
    },
    {
      "type": "node",
      "id": 12408853763,
      "lat": 12.9926112,
      "lon": 77.5391934,
      "tags": {
        "amenity": "cafe",
        "check_date": "2024-12-10",
        "name": "Socialize"
      }
    },
    {
      "type": "node",
      "id": 12441126050,
      "lat": 12.9991923,
      "lon": 77.5412223,
      "tags": {
        "shop": "greengrocer"
      }
    },
    {
      "type": "node",
      "id": 12441867970,
      "lat": 12.9916231,
      "lon": 77.5385334,
      "tags": {
        "access": "yes",
        "amenity": "toilets",
        "fee": "yes"
      }
    },
    {
      "type": "node",
      "id": 12520580167,
      "lat": 12.9881733,
      "lon": 77.5370466,
      "tags": {
        "alt_name": "KPN Super Market",
        "name": "Carry Fresh home",
        "shop": "supermarket"
      }
    },
    {
      "type": "way",
      "id": 42445763,
      "center": {
        "lat": 12.9959343,
        "lon": 77.5413651
      },
      "tags": {
        "leisure": "park"
      }
    },
    {
      "type": "way",
      "id": 42475178,
      "center": {
        "lat": 12.9979812,
        "lon": 77.5417661
      },
      "tags": {
        "leisure": "park"
      }
    },
    {
      "type": "way",
      "id": 42475182,
      "center": {
        "lat": 12.9956531,
        "lon": 77.5437827
      },
      "tags": {
        "leisure": "park"
      }
    },
    {
      "type": "way",
      "id": 133756163,
      "center": {
        "lat": 12.9897894,
        "lon": 77.535985
      },
      "tags": {
        "leisure": "park",
        "name": "Sir M Vishweshwaraya Park (Monkey Park)",
        "name:etymology:wikidata": "Q741700",
        "name:kn": "ವಿಶ್ವೇಶ್ವರಯ್ಯ ಉದ್ಯಾನವನ"
      }
    },
    {
      "type": "way",
      "id": 133756195,
      "center": {
        "lat": 12.9911963,
        "lon": 77.5341081
      },
      "tags": {
        "leisure": "park",
        "name": "SBI officers colony park"
      }
    },
    {
      "type": "way",
      "id": 354557129,
      "center": {
        "lat": 12.9914025,
        "lon": 77.5357164
      },
      "tags": {
        "addr:city": "Bangalore",
        "addr:postcode": "560079",
        "addr:street": "6 main Basaveshwarnagar",
        "amenity": "school",
        "building": "school",
        "name": "VLS International School"
      }
    },
    {
      "type": "way",
      "id": 354557501,
      "center": {
        "lat": 12.9898665,
        "lon": 77.5377091
      },
      "tags": {
        "amenity": "bank",
        "brand": "Bank of India",
        "brand:wikidata": "Q2004439",
        "brand:wikipedia": "en:Bank of India",
        "building": "yes",
        "name": "Bank of India",
        "name:en": "Bank of India",
        "name:kn": "ಬ್ಯಾಂಕ್ ಅಫ್ ಇಂಡಿಯ",
        "short_name": "BoI",
        "website": "http://www.bankofindia.co.in"
      }
    },
    {
      "type": "way",
      "id": 354557584,
      "center": {
        "lat": 12.9916248,
        "lon": 77.5374776
      },
      "tags": {
        "amenity": "bank",
        "atm": "yes",
        "brand": "Central Bank of India",
        "brand:wikidata": "Q2007090",
        "brand:wikipedia": "en:Central Bank of India",
        "building": "yes",
        "name": "Central Bank of India",
        "name:en": "Central Bank of India",
        "name:kn": "ಸೆಂಟ್ರಲ್ ಬ್ಯಾಂಕ್",
        "website": "https://www.centralbankofindia.co.in"
      }
    },
    {
      "type": "way",
      "id": 354557995,
      "center": {
        "lat": 12.9885435,
        "lon": 77.5344927
      },
      "tags": {
        "amenity": "bank",
        "brand": "State Bank of India",
        "brand:wikidata": "Q1340361",
        "brand:wikipedia": "en:State Bank of India",
        "name": "State Bank of India",
        "name:kn": "ಭಾರತೀಯ ಸ್ಟೇಟ್ ಬ್ಯಾಂಕ್",
        "short_name": "SBI",
        "website": "https://www.sbi.co.in"
      }
    },
    {
      "type": "way",
      "id": 404739433,
      "center": {
        "lat": 12.9902514,
        "lon": 77.5358942
      },
      "tags": {
        "addr:city": "Basaveshwaranagar, Bangalore",
        "addr:housename": "Bangalore One",
        "addr:postcode": "560079",
        "addr:street": "1st F Cross, 3rd stage, 4th block",
        "amenity": "public_building",
        "building": "yes",
        "name": "Bangalore One, Basaveshwaranagar",
        "name:kn": "ಬೆಂಗಳೂರು ಓನ್"
      }
    },
    {
      "type": "way",
      "id": 405079331,
      "center": {
        "lat": 12.9920019,
        "lon": 77.5342419
      },
      "tags": {
        "amenity": "public_building",
        "building": "yes",
        "name": "Municipal Corporation Office",
        "name:kn": "ಬೃ ಬೆಂ ಮ ಪಾ ಕಛೇರಿ"
      }
    },
    {
      "type": "way",
      "id": 405079334,
      "center": {
        "lat": 12.9910814,
        "lon": 77.5355729
      },
      "tags": {
        "amenity": "school",
        "leisure": "pitch",
        "name": "VLS International School grounds"
      }
    },
    {
      "type": "way",
      "id": 405081112,
      "center": {
        "lat": 12.9901503,
        "lon": 77.5362593
      },
      "tags": {
        "leisure": "pitch"
      }
    },
    {
      "type": "way",
      "id": 422974248,
      "center": {
        "lat": 12.9915349,
        "lon": 77.5347453
      },
      "tags": {
        "leisure": "park"
      }
    },
    {
      "type": "way",
      "id": 618592983,
      "center": {
        "lat": 12.9897882,
        "lon": 77.5381094
      },
      "tags": {
        "building": "yes",
        "name": "Mangala Sweets",
        "shop": "bakery"
      }
    },
    {
      "type": "way",
      "id": 851795158,
      "center": {
        "lat": 12.987142,
        "lon": 77.5426794
      },
      "tags": {
        "amenity": "college",
        "name": "VVS Girls College"
      }
    },
    {
      "type": "way",
      "id": 909240053,
      "center": {
        "lat": 12.9974668,
        "lon": 77.5409806
      },
      "tags": {
        "leisure": "park"
      }
    },
    {
      "type": "way",
      "id": 909240054,
      "center": {
        "lat": 12.9976349,
        "lon": 77.5408214
      },
      "tags": {
        "leisure": "park"
      }
    },
    {
      "type": "way",
      "id": 991531037,
      "center": {
        "lat": 12.9936034,
        "lon": 77.539461
      },
      "tags": {
        "addr:city": "Basaveshwara Nagar, Bangalore",
        "addr:postcode": "560079",
        "addr:street": "10th Main, 3rd Stage, West Of Chord Road",
        "amenity": "school",
        "name": "S Cadambi Vidya Kendra English Secondary School",
        "phone": "+91 80 23232831"
      }
    },
    {
      "type": "way",
      "id": 1069253451,
      "center": {
        "lat": 12.9886281,
        "lon": 77.5443632
      },
      "tags": {
        "amenity": "school",
        "name": "Carmel High School",
        "name:kn": "ಕಾರ್ಮೆಲ್ ಪ್ರೌಡಶಾಲೆ",
        "wheelchair": "limited"
      }
    },
    {
      "type": "way",
      "id": 1069253452,
      "center": {
        "lat": 12.988239,
        "lon": 77.5450381
      },
      "tags": {
        "amenity": "college",
        "name": "Carmel PUC"
      }
    },
    {
      "type": "way",
      "id": 1393083788,
      "center": {
        "lat": 12.997424,
        "lon": 77.5446699
      },
      "tags": {
        "access": "customers",
        "amenity": "parking",
        "parking": "surface"
      }
    }
  ]
}