{
  "area_name": "Basavanapura",
  "osm_id": 19883501,
  "osm_type": "relation",
  "place_type": "administrative",
  "amenity_count": 32,
  "amenities": [
    {
      "type": "node",
      "id": 1706627968,
      "lat": 13.0046542,
      "lon": 77.7125955,
      "tags": {
        "amenity": "place_of_worship",
        "name": "Muneshwara Temple",
        "name:kn": "ಮುನೇಶ್ವರ ದೇವಸ್ಥಾನ",
        "religion": "hindu"
      }
    },
    {
      "type": "node",
      "id": 7572131836,
      "lat": 13.0045892,
      "lon": 77.7083063,
      "tags": {
        "addr:district": "Bengaluru Urban",
        "addr:full": "Krishnarajapura, Bengaluru",
        "addr:postcode": "560036",
        "addr:state": "Karnataka",
        "amenity": "clinic",
        "name": "Sri Krishna Physiotherapy Clinic",
        "source": "Local Knowledge"
      }
    },
    {
      "type": "node",
      "id": 7572131858,
      "lat": 13.0044028,
      "lon": 77.7094874,
      "tags": {
        "addr:district": "Bengaluru Urban",
        "addr:full": "Priyadarshini Layout, Krishnarajapura, Bengaluru",
        "addr:postcode": "560036",
        "addr:state": "Karnataka",
        "amenity": "clinic",
        "name": "Sandhya Clinic",
        "source": "Local Knowledge"
      }
    },
    {
      "type": "node",
      "id": 7572131871,
      "lat": 13.0044286,
      "lon": 77.7102387,
      "tags": {
        "addr:district": "Bengaluru Urban",
        "addr:full": "Devasandra Main Road, Krishnarajapura, Bengaluru",
        "addr:postcode": "560036",
        "addr:state": "Karnataka",
        "amenity": "dentist",
        "name": "Dental Frames Dental Clinic",
        "source": "Local Knowledge"
      }
    },
    {
      "type": "node",
      "id": 7572131875,
      "lat": 13.00509,
      "lon": 77.710878,
      "tags": {
        "addr:district": "Bengaluru Urban",
        "addr:full": "Ayyappa Nagar, Krishnarajapura, Bengaluru",
        "addr:postcode": "560036",
        "addr:state": "Karnataka",
        "amenity": "clinic",
        "name": "Sri Sai Child Clinic",
        "source": "Local Knowledge"
      }
    },
    {
      "type": "node",
      "id": 7572131882,
      "lat": 13.01064,
      "lon": 77.710585,
      "tags": {
        "addr:district": "Bengaluru Urban",
        "addr:full": "Krishnarajapura, Bengaluru",
        "addr:postcode": "560049",
        "addr:state": "Karnataka",
        "amenity": "clinic",
        "name": "Sri Manjunatha Clinic",
        "source": "Local Knowledge"
      }
    },
    {
      "type": "node",
      "id": 7572131940,
      "lat": 13.0044733,
      "lon": 77.7082449,
      "tags": {
        "addr:district": "Bengaluru Urban",
        "addr:full": "Priyadarshini Layout, Ayyappa Nagar, Krishnarajapura, Bengaluru",
        "addr:postcode": "560036",
        "addr:state": "Karnataka",
        "amenity": "clinic",
        "name": "Sri Manjunatha Clinic",
        "source": "Local Knowledge",
        "wheelchair": "no"
      }
    },
    {
      "type": "node",
      "id": 9136927427,
      "lat": 13.0102236,
      "lon": 77.7063424,
      "tags": {
        "amenity": "pharmacy",
        "check_date:opening_hours": "2022-07-20",
        "name": "Rashi Medical Stores",
        "opening_hours": "Mo-Su 07:00-10:00"
      }
    },
    {
      "type": "node",
      "id": 11998955850,
      "lat": 13.0045802,
      "lon": 77.7167366,
      "tags": {
        "amenity": "pharmacy",
        "healthcare": "pharmacy",
        "name": "Saptagiri Pharmacy"
      }
    },
    {
      "type": "node",
      "id": 11998955851,
      "lat": 13.0045882,
      "lon": 77.7167045,
      "tags": {
        "amenity": "clinic",
        "healthcare": "clinic",
        "name": "Saptagiri Health Care"
      }
    },
    {
      "type": "node",
      "id": 11998955856,
      "lat": 13.0045552,
      "lon": 77.7165947,
      "tags": {
        "name": "Familiy Choice supermarket",
        "shop": "supermarket"
      }
    },
    {
      "type": "node",
      "id": 13012919955,
      "lat": 13.0045711,
      "lon": 77.7174766,
      "tags": {
        "check_date": "2025-07-20",
        "name": "Reliance Smart",
        "shop": "department_store"
      }
    },
    {
      "type": "node",
      "id": 13012919957,
      "lat": 13.0045856,
      "lon": 77.7175488,
      "tags": {
        "amenity": "fast_food",
        "brand": "Subway",
        "brand:wikidata": "Q244457",
        "check_date": "2025-07-20",
        "cuisine": "sandwich",
        "name": "Subway",
        "takeaway": "yes"
      }
    },
    {
      "type": "node",
      "id": 13012919958,
      "lat": 13.0045897,
      "lon": 77.7176126,
      "tags": {
        "amenity": "restaurant",
        "brand": "Pizza Hut",
        "brand:wikidata": "Q191615",
        "check_date": "2025-07-20",
        "cuisine": "pizza",
        "name": "Pizza Hut"
      }
    },
    {
      "type": "node",
      "id": 13012919959,
      "lat": 13.0046353,
      "lon": 77.7174766,
      "tags": {
        "check_date": "2025-07-20",
        "leisure": "fitness_centre",
        "name": "Crunch Fitness"
      }
    },
    {
      "type": "node",
      "id": 13012919960,
      "lat": 13.004567,
      "lon": 77.7176657,
      "tags": {
        "amenity": "cafe",
        "check_date": "2025-07-20",
        "cuisine": "coffee_shop",
        "name": "The Coffee Brewery"
      }
    },
    {
      "type": "node",
      "id": 13012919961,
      "lat": 13.0045752,
      "lon": 77.7177464,
      "tags": {
        "check_date": "2025-07-20",
        "name": "Dry Fruits House",
        "shop": "nuts"
      }
    },
    {
      "type": "node",
      "id": 13012919962,
      "lat": 13.0045773,
      "lon": 77.7173895,
      "tags": {
        "check_date": "2025-07-20",
        "name": "Just Bake",
        "shop": "bakery"
      }
    },
    {
      "type": "way",
      "id": 158466991,
      "center": {
        "lat": 13.0065365,
        "lon": 77.7172162
      },
      "tags": {
        "amenity": "place_of_worship",
        "name": "Bethel Methodist Church",
        "religion": "christian",
        "wheelchair": "limited"
      }
    },
    {
      "type": "way",
      "id": 252086267,
      "center": {
        "lat": 13.0062625,
        "lon": 77.704755
      },
      "tags": {
        "amenity": "school",
        "name": "Chaitanya School",
        "name:kn": "ಚೈತಾಣ್ಯ ಶಾಲೆ"
      }
    },
    {
      "type": "way",
      "id": 346552942,
      "center": {
        "lat": 13.00883,
        "lon": 77.7082791
      },
      "tags": {
        "addr:city": "bangalore",
        "addr:housenumber": "Vijaya Bank Colony, Gokula Layout, Krishnarajapura, Bengaluru, Karnataka 560036",
        "addr:postcode": "560036",
        "addr:street": "Basavanapura Main Road",
        "amenity": "place_of_worship",
        "building": "yes",
        "name": "Masjid-e-Mahmoodiya",
        "name:kn": "ಮಸ್ಜಿೀದ್ ಎ ಮಹ್ಮೂದಿಯ",
        "religion": "muslim"
      }
    },
    {
      "type": "way",
      "id": 502612760,
      "center": {
        "lat": 13.0072228,
        "lon": 77.7092004
      },
      "tags": {
        "addr:city": "bangalore",
        "addr:housenumber": "K.R Puram, Swathantra Nagar, Krishnarajapura, Gokula Layout, Krishnarajapura",
        "addr:postcode": "560049",
        "amenity": "place_of_worship",
        "building": "yes",
        "name": "Sri Om Shakti Adiparashakthi Temple",
        "religion": "hindu"
      }
    },
    {
      "type": "way",
      "id": 1251508618,
      "center": {
        "lat": 13.013204,
        "lon": 77.716054
      },
      "tags": {
        "amenity": "place_of_worship",
        "name": "Our Lady of Lourdes",
        "religion": "christian"
      }
    },
    {
      "type": "way",
      "id": 1329529354,
      "center": {
        "lat": 13.0081394,
        "lon": 77.7186957
      },
      "tags": {
        "leisure": "pitch",
        "sport": "basketball"
      }
    },
    {
      "type": "way",
      "id": 1329529355,
      "center": {
        "lat": 13.0083658,
        "lon": 77.718734
      },
      "tags": {
        "leisure": "pitch",
        "sport": "tennis"
      }
    },
    {
      "type": "way",
      "id": 1329529356,
      "center": {
        "lat": 13.0081867,
        "lon": 77.7189051
      },
      "tags": {
        "access": "private",
        "leisure": "swimming_pool"
      }
    },
    {
      "type": "way",
      "id": 1429161298,
      "center": {
        "lat": 13.0090149,
        "lon": 77.7183776
      },
      "tags": {
        "amenity": "school",
        "name": "Mar Thoma School"
      }
    },
    {
      "type": "way",
      "id": 1429161307,
      "center": {
        "lat": 13.0102341,
        "lon": 77.7113471
      },
      "tags": {
        "leisure": "park"
      }
    },
    {
      "type": "way",
      "id": 1429161308,
      "center": {
        "lat": 13.0102641,
        "lon": 77.7118229
      },
      "tags": {
        "amenity": "place_of_worship",
        "landuse": "religious",
        "religion": "hindu"
      }
    },
    {
      "type": "way",
      "id": 1429161313,
      "center": {
        "lat": 13.0096578,
        "lon": 77.7151675
      },
      "tags": {
        "amenity": "college",
        "name": "SEA College"
      }
    },
    {
      "type": "way",
      "id": 1429161354,
      "center": {
        "lat": 13.0085352,
        "lon": 77.7055921
      },
      "tags": {
        "amenity": "school",
        "name": "Indus Valley College"
      }
    },
    {
      "type": "way",
      "id": 1429161430,
      "center": {
        "lat": 13.0089404,
        "lon": 77.7052689
      },
      "tags": {
        "amenity": "school",
        "name": "Guntur Oxford School"
      }
    }
  ]
}