{
  "area_name": "BEML Layout 5th Stage",
  "osm_id": 8699676986,
  "osm_type": "node",
  "place_type": "neighbourhood",
  "amenity_count": 64,
  "amenities": [
    {
      "type": "node",
      "id": 1463578306,
      "lat": 12.9136589,
      "lon": 77.5244341,
      "tags": {
        "amenity": "place_of_worship",
        "name": "Kalabhairava Temple",
        "name:kn": "ಕಾಲಭೈರವ ಮಂದಿರ",
        "religion": "hindu"
      }
    },
    {
      "type": "node",
      "id": 1463578913,
      "lat": 12.9133609,
      "lon": 77.5248364,
      "tags": {
        "amenity": "place_of_worship",
        "name": "Gayatri Temple",
        "name:kn": "ಗಾಯತ್ರಿ ದೇವಸ್ಥಾನ",
        "religion": "hindu"
      }
    },
    {
      "type": "node",
      "id": 1463580356,
      "lat": 12.9126035,
      "lon": 77.5289754,
      "tags": {
        "amenity": "place_of_worship",
        "name": "Sri Shanmukha Temple",
        "name:kn": "ಶ್ರೀ ಶಣ್ಮುಖ ದೇವಸ್ಥಾನ",
        "religion": "hindu"
      }
    },
    {
      "type": "node",
      "id": 1463584104,
      "lat": 12.9125086,
      "lon": 77.5271968,
      "tags": {
        "amenity": "school",
        "name": "Swargarani"
      }
    },
    {
      "type": "node",
      "id": 1463585629,
      "lat": 12.9100406,
      "lon": 77.5281785,
      "tags": {
        "leisure": "swimming_pool"
      }
    },
    {
      "type": "node",
      "id": 1463804689,
      "lat": 12.9149661,
      "lon": 77.5208319,
      "tags": {
        "addr:city": "Bengaluru",
        "addr:housenumber": "No. 1148",
        "addr:postcode": "560098",
        "addr:street": "Kanakadasa Circle, BEML Layout 3rd Stage, RR Nagar,",
        "name": "Kanti Sweets",
        "shop": "bakery"
      }
    },
    {
      "type": "node",
      "id": 1471928775,
      "lat": 12.9094182,
      "lon": 77.5274725,
      "tags": {
        "amenity": "pub",
        "name": "Sun Pub"
      }
    },
    {
      "type": "node",
      "id": 1644443078,
      "lat": 12.9017846,
      "lon": 77.5183793,
      "tags": {
        "addr:city": "Bangalore",
        "addr:country": "IN",
        "addr:housename": "RNSIT",
        "addr:postcode": "560098",
        "addr:street": "Uttarahalli Kengeri Main Road",
        "alt_name": "RNSIT",
        "amenity": "college",
        "contact:fax": "+918028611882",
        "contact:phone": "+918028611880",
        "contact:website": "http://rnsit.ac.in/",
        "name": "RNS Institute of Technology",
        "source": "Local knowledge",
        "wikidata": "Q7277277",
        "wikipedia": "en:RNS Institute of Technology"
      }
    },
    {
      "type": "node",
      "id": 1851132705,
      "lat": 12.910612,
      "lon": 77.5288637,
      "tags": {
        "amenity": "parking_space"
      }
    },
    {
      "type": "node",
      "id": 2146315474,
      "lat": 12.9022871,
      "lon": 77.5185188,
      "tags": {
        "amenity": "bank",
        "atm": "no",
        "brand": "Canara Bank",
        "brand:pa": "ਕੇਨਰਾ ਬੈਂਕ",
        "brand:ur": "کینرا بینک",
        "brand:wikidata": "Q2003777",
        "brand:wikipedia": "en:Canara Bank",
        "brand:wikipedia:pa": "ਕੇਨਰਾ ਬੈਂਕ",
        "name": "Canara Bank",
        "name:kn": "ಕೆನರಾ ಬ್ಯಾಂಕ್",
        "name:pa": "ਕੇਨਰਾ ਬੈਂਕ",
        "name:ur": "کینرا بینک",
        "website": "https://www.canarabank.com/"
      }
    },
    {
      "type": "node",
      "id": 2146315478,
      "lat": 12.9023899,
      "lon": 77.5176413,
      "tags": {
        "amenity": "library",
        "name:kn": "ಗ್ರಂಥಾಲಯ"
      }
    },
    {
      "type": "node",
      "id": 4210670194,
      "lat": 12.9162563,
      "lon": 77.520671,
      "tags": {
        "amenity": "restaurant",
        "cuisine": "indian",
        "name": "Kaapi Katte",
        "name:kn": "ಕಾಫಿ ಕಟ್ಟೆ",
        "smoking": "no"
      }
    },
    {
      "type": "node",
      "id": 4210670195,
      "lat": 12.9151347,
      "lon": 77.5207569,
      "tags": {
        "name": "Just Bake",
        "name:kn": "ಜಸ್ಟ್ ಬೇಕ್",
        "shop": "bakery"
      }
    },
    {
      "type": "node",
      "id": 4210670196,
      "lat": 12.9061516,
      "lon": 77.5209983,
      "tags": {
        "amenity": "restaurant",
        "cuisine": "regional",
        "name": "OSR Andhra Spice"
      }
    },
    {
      "type": "node",
      "id": 5277512092,
      "lat": 12.9147197,
      "lon": 77.5179327,
      "tags": {
        "amenity": "fast_food",
        "name": "Santhrupthi Hotel"
      }
    },
    {
      "type": "node",
      "id": 5277512112,
      "lat": 12.9138086,
      "lon": 77.5273633,
      "tags": {
        "amenity": "hospital",
        "name": "Usha Vikranth Diagnostic Center and Hospital"
      }
    },
    {
      "type": "node",
      "id": 5406804453,
      "lat": 12.9122894,
      "lon": 77.5232541,
      "tags": {
        "access": "customers",
        "leisure": "swimming_pool",
        "name": "Best Club Pool"
      }
    },
    {
      "type": "node",
      "id": 6418742985,
      "lat": 12.9048912,
      "lon": 77.5280275,
      "tags": {
        "name": "City Mart",
        "shop": "department_store"
      }
    },
    {
      "type": "node",
      "id": 6944095850,
      "lat": 12.9162321,
      "lon": 77.5165567,
      "tags": {
        "addr:district": "Bengaluru Urban",
        "addr:full": "No-1406, 8Th Main, 7Th Cross 5Th Stage, 1st Phase,Beml Layout, Rajarajeswaringar",
        "addr:postcode": "560098",
        "addr:state": "Karnataka",
        "amenity": "clinic",
        "name": "Sudhanva Health Care",
        "source": "OpenGovernmentData"
      }
    },
    {
      "type": "node",
      "id": 6944578226,
      "lat": 12.910823,
      "lon": 77.5207892,
      "tags": {
        "addr:district": "Bengaluru Urban",
        "addr:full": "No.886, Beml Layout,Near Police Station Main Road,Rajarajeshwari Nagar",
        "addr:postcode": "560098",
        "addr:state": "Karnataka",
        "amenity": "hospital",
        "name": "Unity Hospital, Bengaluru Urban",
        "source": "OpenGovernmentData"
      }
    },
    {
      "type": "node",
      "id": 8187964015,
      "lat": 12.9144145,
      "lon": 77.5208702,
      "tags": {
        "addr:city": "Bengaluru",
        "addr:full": "Site No 188, 4th Stage, Halagevadarahalli Layout, Nxt to Smart Outlet, IV Stage 3 Block, 4th Stage, RR Nagar, Bengaluru, Karnataka",
        "addr:postcode": "560098",
        "addr:state": "Karnataka",
        "amenity": "bank",
        "atm": "yes",
        "brand": "HDFC Bank",
        "brand:wikidata": "Q631047",
        "brand:wikipedia": "en:HDFC Bank",
        "drive_through": "no",
        "name": "HDFC Bank",
        "name:kn": "ಎಚ್ ಡಿ ಎಫ್ ಸಿ",
        "website": "https://www.hdfcbank.com/"
      }
    },
    {
      "type": "node",
      "id": 8282341342,
      "lat": 12.9143782,
      "lon": 77.5210809,
      "tags": {
        "addr:city": "Bengaluru",
        "addr:postcode": "560098",
        "addr:street": "1st Main Rd, IV Stage 3 Block, 4th Stage, RR Nagar",
        "amenity": "post_office",
        "name": "Rajarajeshwari Nagar Post Office",
        "name:kn": "ಅಂಚೆ ಕಛೇರಿ"
      }
    },
    {
      "type": "node",
      "id": 8282374864,
      "lat": 12.9130094,
      "lon": 77.5210675,
      "tags": {
        "amenity": "bank",
        "atm": "yes",
        "brand": "State Bank of India",
        "brand:wikidata": "Q1340361",
        "brand:wikipedia": "en:State Bank of India",
        "name": "State Bank of India"
      }
    },
    {
      "type": "node",
      "id": 8984816719,
      "lat": 12.9084569,
      "lon": 77.5119601,
      "tags": {
        "addr:city": "Bengaluru",
        "addr:postcode": "560098",
        "addr:street": "Old Manipal Hospital Road",
        "name": "Reliance Smart Point",
        "operator": "Reliance",
        "payment:cash": "yes",
        "payment:credit_cards": "yes",
        "payment:debit_cards": "yes",
        "shop": "supermarket"
      }
    },
    {
      "type": "node",
      "id": 9838551995,
      "lat": 12.9167617,
      "lon": 77.5216256,
      "tags": {
        "amenity": "place_of_worship",
        "name": "Sangameshwara Temple",
        "name:kn": "ಸಂಗಮೇಶ್ವರ ದೇವಾಲಯ",
        "religion": "hindu"
      }
    },
    {
      "type": "node",
      "id": 12051383426,
      "lat": 12.9092956,
      "lon": 77.5275152,
      "tags": {
        "amenity": "cafe",
        "check_date": "2024-07-13",
        "name": "Secrets Of Bengaluru",
        "payment:cash": "yes",
        "payment:credit_cards": "yes",
        "payment:debit_cards": "yes",
        "wheelchair": "no"
      }
    },
    {
      "type": "node",
      "id": 12492808022,
      "lat": 12.9096478,
      "lon": 77.5130175,
      "tags": {
        "amenity": "cinema",
        "name": "Movietime"
      }
    },
    {
      "type": "node",
      "id": 12539064793,
      "lat": 12.9132031,
      "lon": 77.5209553,
      "tags": {
        "addr:city": "Bengaluru",
        "addr:housenumber": "196",
        "addr:postcode": "560098",
        "addr:street": "BEML Layout, IV Stage 3 Block, 4th Stage, Rajarajeshwari Nagar",
        "name": "Shopping City Hypermarket",
        "shop": "supermarket"
      }
    },
    {
      "type": "node",
      "id": 13013588706,
      "lat": 12.9112491,
      "lon": 77.5133944,
      "tags": {
        "amenity": "restaurant",
        "name": "154 Breakfast Club"
      }
    },
    {
      "type": "node",
      "id": 13288585237,
      "lat": 12.9075231,
      "lon": 77.5119377,
      "tags": {
        "addr:city": "Bengaluru",
        "addr:country": "IN",
        "amenity": "restaurant",
        "cuisine": "pizza",
        "delivery": "yes",
        "name": "Mad Doh Sourdough Pizzeria",
        "reservation": "yes",
        "takeaway": "yes",
        "toilets": "yes"
      }
    },
    {
      "type": "way",
      "id": 132913842,
      "center": {
        "lat": 12.908884,
        "lon": 77.5136186
      },
      "tags": {
        "alt_name": "Jayadev Memorial Rashtrotthana Hospital and Research Centre",
        "amenity": "hospital",
        "healthcare": "hospital",
        "name": "Manipal Speciality Hospital",
        "website": "https://www.rashtrotthanahospital.com/"
      }
    },
    {
      "type": "way",
      "id": 173050863,
      "center": {
        "lat": 12.9125511,
        "lon": 77.5229814
      },
      "tags": {
        "leisure": "track",
        "name": "BEML Club",
        "sport": "athletics"
      }
    },
    {
      "type": "way",
      "id": 173051066,
      "center": {
        "lat": 12.9161336,
        "lon": 77.5218978
      },
      "tags": {
        "leisure": "park",
        "name": "Sangameshwara Park",
        "name:kn": "ಸಂಗಮೇಶ್ವರ ಪಾರ್ಕ್"
      }
    },
    {
      "type": "way",
      "id": 173051068,
      "center": {
        "lat": 12.9119509,
        "lon": 77.5204567
      },
      "tags": {
        "leisure": "park"
      }
    },
    {
      "type": "way",
      "id": 204638927,
      "center": {
        "lat": 12.9021129,
        "lon": 77.5190255
      },
      "tags": {
        "air_conditioning": "no",
        "amenity": "bank",
        "atm": "yes",
        "brand": "Canara Bank",
        "brand:en": "Canara Bank",
        "brand:hi": "केनरा बैंक",
        "brand:kn": "ಕೆನರಾ ಬ್ಯಾಂಕ್",
        "brand:pa": "ਕੇਨਰਾ ਬੈਂਕ",
        "brand:pnb": "کینرا بینک",
        "brand:ur": "کینرا بینک",
        "brand:wikidata": "Q2003777",
        "building": "yes",
        "drive_through": "no",
        "name": "Canara Bank",
        "name:en": "Canara Bank",
        "name:hi": "केनरा बैंक",
        "name:kn": "ಕೆನರಾ ಬ್ಯಾಂಕ್",
        "name:pa": "ਕੇਨਰਾ ਬੈਂਕ",
        "name:pnb": "کینرا بینک",
        "name:ur": "کینرا بینک",
        "opening_hours": "24/7"
      }
    },
    {
      "type": "way",
      "id": 204638928,
      "center": {
        "lat": 12.9022437,
        "lon": 77.5194137
      },
      "tags": {
        "amenity": "food_court",
        "building": "yes",
        "internet_access": "no",
        "name": "Canteen",
        "opening_hours": "Mo-Sat 08:00 to 16:00"
      }
    },
    {
      "type": "way",
      "id": 204638933,
      "center": {
        "lat": 12.9020125,
        "lon": 77.518
      },
      "tags": {
        "amenity": "fountain",
        "drinking_water": "no",
        "fountain": "decorative",
        "lit": "no",
        "name": "Fountain"
      }
    },
    {
      "type": "way",
      "id": 204638938,
      "center": {
        "lat": 12.9000202,
        "lon": 77.5183332
      },
      "tags": {
        "amenity": "place_of_worship",
        "building": "yes",
        "denomination": "shaivist",
        "name": "Shiva Temple",
        "name:kn": "ಶಿವ ದೇವಸ್ಥಾನ",
        "religion": "hindu"
      }
    },
    {
      "type": "way",
      "id": 204638939,
      "center": {
        "lat": 12.9025379,
        "lon": 77.518397
      },
      "tags": {
        "amenity": "toilets",
        "fee": "no",
        "female": "yes",
        "male": "yes",
        "name:kn": "ಶೌಚಾಲಯ"
      }
    },
    {
      "type": "way",
      "id": 204638940,
      "center": {
        "lat": 12.902123,
        "lon": 77.5185521
      },
      "tags": {
        "amenity": "theatre"
      }
    },
    {
      "type": "way",
      "id": 204638954,
      "center": {
        "lat": 12.9019814,
        "lon": 77.5194891
      },
      "tags": {
        "amenity": "parking"
      }
    },
    {
      "type": "way",
      "id": 204638955,
      "center": {
        "lat": 12.9019634,
        "lon": 77.5195466
      },
      "tags": {
        "amenity": "parking"
      }
    },
    {
      "type": "way",
      "id": 348121410,
      "center": {
        "lat": 12.9137835,
        "lon": 77.5209062
      },
      "tags": {
        "addr:city": "Bengaluru",
        "addr:district": "Bangalore",
        "addr:housenumber": "193",
        "addr:postcode": "560098",
        "addr:street": "Jawaharlal Nehru Road",
        "amenity": "cafe",
        "building": "amenity",
        "cuisine": "sandwich;chinese;italian;indian;mexican",
        "name": "Board 4 Bored",
        "website": "Board4Bored.in"
      }
    },
    {
      "type": "way",
      "id": 729214193,
      "center": {
        "lat": 12.9109301,
        "lon": 77.5124248
      },
      "tags": {
        "leisure": "swimming_pool"
      }
    },
    {
      "type": "way",
      "id": 1120154288,
      "center": {
        "lat": 12.9126949,
        "lon": 77.5124865
      },
      "tags": {
        "addr:city": "Bengaluru",
        "addr:postcode": "560098",
        "addr:street": "Kenchenahalli Main Road",
        "amenity": "school",
        "education": "school",
        "name": "Shri Jnanakshi Vidyaniketan",
        "name:kn": "ಜ್ಞಾನಾಕ್ಷಿ ವಿದ್ಯಾನಿಕೇತನ"
      }
    },
    {
      "type": "way",
      "id": 1120154292,
      "center": {
        "lat": 12.9007364,
        "lon": 77.5173828
      },
      "tags": {
        "addr:city": "Bangalore",
        "addr:country": "IN",
        "addr:housename": "RNSIT",
        "addr:postcode": "560098",
        "addr:street": "Uttarahalli Kengeri Main Road",
        "alt_name": "RNSIT",
        "amenity": "college",
        "contact:fax": "+918028611882",
        "contact:phone": "+918028611880",
        "contact:website": "http://rnsit.ac.in/",
        "name": "RNS Institute of Technology",
        "source": "Local knowledge",
        "wikidata": "Q7277277",
        "wikipedia": "en:RNS Institute of Technology"
      }
    },
    {
      "type": "way",
      "id": 1203175487,
      "center": {
        "lat": 12.9066177,
        "lon": 77.5289512
      },
      "tags": {
        "leisure": "park"
      }
    },
    {
      "type": "way",
      "id": 1203175488,
      "center": {
        "lat": 12.9035901,
        "lon": 77.5289619
      },
      "tags": {
        "leisure": "park"
      }
    },
    {
      "type": "way",
      "id": 1224937859,
      "center": {
        "lat": 12.9005302,
        "lon": 77.517894
      },
      "tags": {
        "amenity": "conference_centre",
        "building": "yes",
        "internet_access": "yes",
        "internet_access:fee": "no",
        "name": "RNSIT auditorium"
      }
    },
    {
      "type": "way",
      "id": 1224941277,
      "center": {
        "lat": 12.9020111,
        "lon": 77.519312
      },
      "tags": {
        "access": "students",
        "hoops": "2",
        "leisure": "pitch",
        "lit": "no",
        "name": "Basketball Court",
        "name:kn": "ಬಾಸ್ಕೆಟ್ ಬಾಲ್",
        "sport": "basketball",
        "surface": "paved"
      }
    },
    {
      "type": "way",
      "id": 1315659137,
      "center": {
        "lat": 12.9090263,
        "lon": 77.5124855
      },
      "tags": {
        "amenity": "fuel"
      }
    },
    {
      "type": "way",
      "id": 1329553295,
      "center": {
        "lat": 12.904035,
        "lon": 77.5272748
      },
      "tags": {
        "access": "private",
        "leisure": "swimming_pool"
      }
    },
    {
      "type": "way",
      "id": 1329553364,
      "center": {
        "lat": 12.9079151,
        "lon": 77.5251633
      },
      "tags": {
        "amenity": "school"
      }
    },
    {
      "type": "way",
      "id": 1329553365,
      "center": {
        "lat": 12.9099158,
        "lon": 77.5239548
      },
      "tags": {
        "leisure": "park"
      }
    },
    {
      "type": "way",
      "id": 1329553366,
      "center": {
        "lat": 12.9128335,
        "lon": 77.5241356
      },
      "tags": {
        "leisure": "park"
      }
    },
    {
      "type": "way",
      "id": 1329553368,
      "center": {
        "lat": 12.9131802,
        "lon": 77.5241406
      },
      "tags": {
        "leisure": "park"
      }
    },
    {
      "type": "way",
      "id": 1329553369,
      "center": {
        "lat": 12.9135289,
        "lon": 77.5241779
      },
      "tags": {
        "leisure": "park"
      }
    },
    {
      "type": "way",
      "id": 1329553370,
      "center": {
        "lat": 12.9140204,
        "lon": 77.5241895
      },
      "tags": {
        "leisure": "park"
      }
    },
    {
      "type": "way",
      "id": 1329553371,
      "center": {
        "lat": 12.912038,
        "lon": 77.5240965
      },
      "tags": {
        "leisure": "park"
      }
    },
    {
      "type": "way",
      "id": 1329553372,
      "center": {
        "lat": 12.9066937,
        "lon": 77.5217239
      },
      "tags": {
        "amenity": "bus_station",
        "landuse": "garages"
      }
    },
    {
      "type": "way",
      "id": 1350416432,
      "center": {
        "lat": 12.9094652,
        "lon": 77.5130242
      },
      "tags": {
        "landuse": "retail",
        "name": "YGR Signature Mall",
        "shop": "mall"
      }
    },
    {
      "type": "way",
      "id": 1363986204,
      "center": {
        "lat": 12.9099916,
        "lon": 77.5283423
      },
      "tags": {
        "leisure": "resort",
        "name": "Shakthi Hill Resorts"
      }
    },
    {
      "type": "way",
      "id": 1427923024,
      "center": {
        "lat": 12.912279,
        "lon": 77.5138731
      },
      "tags": {
        "amenity": "fuel",
        "brand": "Indian Oil",
        "brand:wikidata": "Q1289348",
        "name": "Indian Oil"
      }
    },
    {
      "type": "way",
      "id": 1443188659,
      "center": {
        "lat": 12.9128125,
        "lon": 77.520516
      },
      "tags": {
        "addr:city": "Bengaluru",
        "addr:postcode": "560098",
        "addr:street": "Mysore Road, Rajarajeshwari Nagar, Sachidananda Nagar, RR Nagar",
        "amenity": "police",
        "name": "Rajarajeshwari Nagar Police Station",
        "name:kn": "ಆರಕ್ಷಕ ಠಾಣೆ",
        "phone": "080 2294 2559"
      }
    }
  ]
}