{
  "area_name": "BEML Layout 7th Phase",
  "osm_id": 8700678299,
  "osm_type": "node",
  "place_type": "neighbourhood",
  "amenity_count": 41,
  "amenities": [
    {
      "type": "node",
      "id": 3485239573,
      "lat": 12.9193173,
      "lon": 77.5041769,
      "tags": {
        "amenity": "cafe",
        "cuisine": "coffee_shop",
        "name": "Café Coffee Day",
        "name:kn": "ಕಫೆ ಕಾಫಿ ಡೇ"
      }
    },
    {
      "type": "node",
      "id": 3485273429,
      "lat": 12.9168148,
      "lon": 77.5040278,
      "tags": {
        "amenity": "parking",
        "designation": "Mindtree Official Parking Area for both two and four wheelers",
        "name": "Mindtree Global Village, Parking Area",
        "park_ride": "yes",
        "parking": "surface"
      }
    },
    {
      "type": "node",
      "id": 5015926769,
      "lat": 12.9222139,
      "lon": 77.5000264,
      "tags": {
        "name": "Apple Office Solutions",
        "shop": "stationery"
      }
    },
    {
      "type": "node",
      "id": 5015926770,
      "lat": 12.9222854,
      "lon": 77.4999496,
      "tags": {
        "shop": "copyshop"
      }
    },
    {
      "type": "node",
      "id": 5075573721,
      "lat": 12.9220858,
      "lon": 77.4953504,
      "tags": {
        "addr:housenumber": "#749/1",
        "addr:postcode": "560059",
        "addr:street": "Bangalore-Mysore Road",
        "amenity": "restaurant",
        "cuisine": "fine_dining",
        "diet:vegetarian": "yes",
        "email": "raihospitality24@gmail.com",
        "internet_access": "wlan",
        "name": "royal andaaz",
        "name:en": "royal andaaz",
        "name:hi": "रॉयल अन्दाज़",
        "opening_hours": "Mo-Su 07:30-17:00, 18:00-23:00",
        "operator": "Nikita rai;Rai hospitality",
        "phone": "+91 90714 20001"
      }
    },
    {
      "type": "node",
      "id": 5167596348,
      "lat": 12.9223401,
      "lon": 77.4998622,
      "tags": {
        "amenity": "toilets",
        "female": "yes",
        "male": "no"
      }
    },
    {
      "type": "node",
      "id": 5167596393,
      "lat": 12.9230231,
      "lon": 77.4986442,
      "tags": {
        "amenity": "toilets"
      }
    },
    {
      "type": "node",
      "id": 5172791588,
      "lat": 12.922463,
      "lon": 77.4998007,
      "tags": {
        "amenity": "drinking_water",
        "check_date": "2025-06-16"
      }
    },
    {
      "type": "node",
      "id": 5218115318,
      "lat": 12.9225504,
      "lon": 77.4997608,
      "tags": {
        "amenity": "drinking_water"
      }
    },
    {
      "type": "node",
      "id": 5407171230,
      "lat": 12.9227844,
      "lon": 77.4980824,
      "tags": {
        "access": "permissive",
        "amenity": "toilets",
        "changing_table": "no",
        "fee": "no",
        "male": "yes"
      }
    },
    {
      "type": "node",
      "id": 6254207185,
      "lat": 12.9102591,
      "lon": 77.4901432,
      "tags": {
        "amenity": "place_of_worship",
        "name": "Pushpa Sadan",
        "religion": "christian"
      }
    },
    {
      "type": "node",
      "id": 6284085149,
      "lat": 12.9224052,
      "lon": 77.4990502,
      "tags": {
        "amenity": "toilets"
      }
    },
    {
      "type": "node",
      "id": 6284085150,
      "lat": 12.9230872,
      "lon": 77.5005296,
      "tags": {
        "amenity": "toilets",
        "male": "yes"
      }
    },
    {
      "type": "node",
      "id": 6813444929,
      "lat": 12.9229823,
      "lon": 77.4997634,
      "tags": {
        "amenity": "toilets"
      }
    },
    {
      "type": "node",
      "id": 6918664411,
      "lat": 12.9223117,
      "lon": 77.4998975,
      "tags": {
        "amenity": "toilets",
        "female": "no",
        "male": "yes"
      }
    },
    {
      "type": "way",
      "id": 55685638,
      "center": {
        "lat": 12.9232,
        "lon": 77.5006374
      },
      "tags": {
        "alt_name": "Rashtreeya Vidyalaya College of Engineering",
        "amenity": "college",
        "full_name": "Rashtreeya Vidyalaya College of Engineering",
        "local_ref": "RVCE",
        "name": "R. V. College of Engineering",
        "name:kn": "ರಾಷ್ಟ್ರೀಯ ವಿದ್ಯಾಲಯ ತಾಂತ್ರಿಕ ಮಹಾವಿದ್ಯಾಲಯ",
        "short_name": "RVCE",
        "website": "https://rvce.edu.in",
        "wikidata": "Q7273419",
        "wikimedia_commons": "Category:R.V. College of Engineering",
        "wikipedia": "en:R.V. College of Engineering"
      }
    },
    {
      "type": "way",
      "id": 133052402,
      "center": {
        "lat": 12.923192,
        "lon": 77.5006905
      },
      "tags": {
        "amenity": "library",
        "building": "university",
        "building:levels": "4",
        "name:kn": "ಗ್ರಂಥಾಲಯ"
      }
    },
    {
      "type": "way",
      "id": 331547213,
      "center": {
        "lat": 12.9012695,
        "lon": 77.4972635
      },
      "tags": {
        "amenity": "college",
        "landuse": "education",
        "name": "Adichunchanagiri Shikshana Trust",
        "name:kn": "ಆದಿಚುಂಚನಗಿರಿ ಶಿಕ್ಷಣ ಸಂಸ್ಥೆ"
      }
    },
    {
      "type": "way",
      "id": 513025074,
      "center": {
        "lat": 12.9223901,
        "lon": 77.4996843
      },
      "tags": {
        "amenity": "fast_food",
        "building": "university",
        "name": "Food Court"
      }
    },
    {
      "type": "way",
      "id": 532559714,
      "center": {
        "lat": 12.922639,
        "lon": 77.4990152
      },
      "tags": {
        "amenity": "motorcycle_parking",
        "covered": "no"
      }
    },
    {
      "type": "way",
      "id": 581289535,
      "center": {
        "lat": 12.9227917,
        "lon": 77.498263
      },
      "tags": {
        "leisure": "outdoor_seating"
      }
    },
    {
      "type": "way",
      "id": 581289536,
      "center": {
        "lat": 12.9227409,
        "lon": 77.498485
      },
      "tags": {
        "area": "yes",
        "highway": "pedestrian",
        "leisure": "outdoor_seating"
      }
    },
    {
      "type": "way",
      "id": 581289538,
      "center": {
        "lat": 12.9222112,
        "lon": 77.4997878
      },
      "tags": {
        "area": "yes",
        "highway": "pedestrian",
        "leisure": "outdoor_seating"
      }
    },
    {
      "type": "way",
      "id": 636268134,
      "center": {
        "lat": 12.9229593,
        "lon": 77.4980661
      },
      "tags": {
        "leisure": "garden"
      }
    },
    {
      "type": "way",
      "id": 695545687,
      "center": {
        "lat": 12.9223744,
        "lon": 77.4989098
      },
      "tags": {
        "leisure": "garden"
      }
    },
    {
      "type": "way",
      "id": 695545709,
      "center": {
        "lat": 12.9222969,
        "lon": 77.4986562
      },
      "tags": {
        "leisure": "garden"
      }
    },
    {
      "type": "way",
      "id": 695545710,
      "center": {
        "lat": 12.923012,
        "lon": 77.4999864
      },
      "tags": {
        "leisure": "garden"
      }
    },
    {
      "type": "way",
      "id": 726476899,
      "center": {
        "lat": 12.9191609,
        "lon": 77.4909124
      },
      "tags": {
        "building": "yes",
        "shop": "yes"
      }
    },
    {
      "type": "way",
      "id": 726511541,
      "center": {
        "lat": 12.9196133,
        "lon": 77.4910425
      },
      "tags": {
        "leisure": "park"
      }
    },
    {
      "type": "way",
      "id": 726521045,
      "center": {
        "lat": 12.9117658,
        "lon": 77.4938608
      },
      "tags": {
        "leisure": "park"
      }
    },
    {
      "type": "way",
      "id": 816978768,
      "center": {
        "lat": 12.9230141,
        "lon": 77.4959523
      },
      "tags": {
        "addr:housenumber": "Duvasapalya, Stage II, Kengeri Satellite Town, Bengaluru, Karnataka",
        "addr:postcode": "560059",
        "addr:street": "Bangalore-Mysore Road",
        "amenity": "restaurant",
        "building": "yes",
        "cuisine": "regional;north_indian",
        "name": "Chetan Dhaba"
      }
    },
    {
      "type": "way",
      "id": 1050584162,
      "center": {
        "lat": 12.9230209,
        "lon": 77.4954283
      },
      "tags": {
        "addr:city": "Bengaluru",
        "addr:housenumber": "78/2",
        "addr:postcode": "560059",
        "addr:street": "Bangalore-Mysore Road, Near RV College of Engineering, Valagerahalli",
        "brand": "Kia",
        "name": "PPS Kia Showroom Mysore Road",
        "not:brand:wikidata": "Q35349",
        "opening_hours": "Mo-Su 09:30-19:30",
        "phone": "06309990010",
        "shop": "car"
      }
    },
    {
      "type": "way",
      "id": 1157248009,
      "center": {
        "lat": 12.9102556,
        "lon": 77.4956636
      },
      "tags": {
        "amenity": "monastery",
        "fixme": "Boundaries of the area",
        "landuse": "religious",
        "name": "Sawan Durbar Ashram",
        "religion": "hindu"
      }
    },
    {
      "type": "way",
      "id": 1157248024,
      "center": {
        "lat": 12.9097857,
        "lon": 77.4899319
      },
      "tags": {
        "amenity": "school",
        "name": "St. Theresa's School",
        "name:kn": "ಸಂತ ತೆರೇಸರ ಶಾಲೆ"
      }
    },
    {
      "type": "way",
      "id": 1219569970,
      "center": {
        "lat": 12.9178655,
        "lon": 77.4992311
      },
      "tags": {
        "access": "permissive",
        "amenity": "parking",
        "parking": "surface"
      }
    },
    {
      "type": "way",
      "id": 1265724895,
      "center": {
        "lat": 12.9176608,
        "lon": 77.5017965
      },
      "tags": {
        "access": "permissive",
        "amenity": "parking",
        "parking": "surface"
      }
    },
    {
      "type": "way",
      "id": 1265724922,
      "center": {
        "lat": 12.91304,
        "lon": 77.5073386
      },
      "tags": {
        "leisure": "park"
      }
    },
    {
      "type": "way",
      "id": 1286468298,
      "center": {
        "lat": 12.9206857,
        "lon": 77.4992256
      },
      "tags": {
        "leisure": "park"
      }
    },
    {
      "type": "way",
      "id": 1286468299,
      "center": {
        "lat": 12.9192586,
        "lon": 77.4987668
      },
      "tags": {
        "access": "permissive",
        "amenity": "parking",
        "parking": "surface"
      }
    },
    {
      "type": "way",
      "id": 1327820764,
      "center": {
        "lat": 12.9220627,
        "lon": 77.5011313
      },
      "tags": {
        "leisure": "park"
      }
    },
    {
      "type": "way",
      "id": 1341013551,
      "center": {
        "lat": 12.922564,
        "lon": 77.4989944
      },
      "tags": {
        "amenity": "motorcycle_parking",
        "capacity": "20"
      }
    }
  ]
}