{
  "area_name": "Bharath Aikya Ward",
  "osm_id": 19883313,
  "osm_type": "relation",
  "place_type": "administrative",
  "amenity_count": 391,
  "amenities": [
    {
      "type": "node",
      "id": 1041134302,
      "lat": 12.9832283,
      "lon": 77.7080008,
      "tags": {
        "addr:street": "ITPL Main Road",
        "amenity": "post_office",
        "brand": "Blue Dart Express",
        "brand:short": "Blue Dart",
        "brand:wikidata": "Q54621493",
        "landuse": "commercial",
        "name": "Blue Dart",
        "operator": "Blue Dart Express",
        "operator:short": "Blue Dart",
        "operator:wikidata": "Q54621493",
        "post_office:type": "post_annex"
      }
    },
    {
      "type": "node",
      "id": 1093355132,
      "lat": 12.9799414,
      "lon": 77.7271148,
      "tags": {
        "name": "The Raymond Shop",
        "shop": "clothes"
      }
    },
    {
      "type": "node",
      "id": 1093355138,
      "lat": 12.9798305,
      "lon": 77.7271038,
      "tags": {
        "amenity": "atm",
        "check_date": "2025-08-07",
        "operator": "HDFC ATM"
      }
    },
    {
      "type": "node",
      "id": 1093355140,
      "lat": 12.9800208,
      "lon": 77.7271185,
      "tags": {
        "addr:city": "Bangalore",
        "addr:postcode": "560066",
        "addr:street": "8th Road",
        "amenity": "restaurant",
        "cuisine": "chinese;thai",
        "name": "Beijing Bites",
        "name:kn": "ಬೀಜಿಂಗ್ ಬೈಟ್ಸ್",
        "phone": "+91-80-40930388;+91-80-40930488",
        "website": "https://www.beijingbites.com/"
      }
    },
    {
      "type": "node",
      "id": 1093355147,
      "lat": 12.9781581,
      "lon": 77.7250546,
      "tags": {
        "amenity": "school",
        "name": "Jetking Computer Hardware and Networking"
      }
    },
    {
      "type": "node",
      "id": 1093355153,
      "lat": 12.9797287,
      "lon": 77.7271089,
      "tags": {
        "amenity": "hospital",
        "name": "Dr. Batra Clinic"
      }
    },
    {
      "type": "node",
      "id": 1160603218,
      "lat": 12.9783158,
      "lon": 77.7123264,
      "tags": {
        "amenity": "cafe",
        "brand": "Cafe Coffee Day",
        "brand:wikidata": "Q5017235",
        "cuisine": "coffee_shop",
        "name": "Cafe Coffee Day",
        "name:kn": "ಕಫೆ ಕಾಫಿ ಡೇ",
        "takeaway": "yes"
      }
    },
    {
      "type": "node",
      "id": 1366802650,
      "lat": 12.9674469,
      "lon": 77.7166937,
      "tags": {
        "amenity": "pharmacy",
        "name": "Pavan Medical"
      }
    },
    {
      "type": "node",
      "id": 1371859172,
      "lat": 12.9652711,
      "lon": 77.7135279,
      "tags": {
        "amenity": "bank",
        "atm": "yes",
        "branch": "Kundalahalli Branch",
        "brand": "State Bank of India",
        "brand:wikidata": "Q1340361",
        "brand:wikipedia": "en:State Bank of India",
        "name": "State Bank of India",
        "short_name": "SBI"
      }
    },
    {
      "type": "node",
      "id": 1373903942,
      "lat": 12.9711033,
      "lon": 77.7119389,
      "tags": {
        "amenity": "pharmacy",
        "brand": "MedPlus",
        "brand:wikidata": "Q65684234",
        "check_date": "2023-02-08",
        "drive_through": "no",
        "healthcare": "pharmacy",
        "internet_access": "no",
        "name": "MedPlus",
        "payment:mastercard": "yes",
        "payment:upi": "yes",
        "payment:visa": "yes",
        "source": "survey",
        "wheelchair": "no"
      }
    },
    {
      "type": "node",
      "id": 1399447336,
      "lat": 12.9831083,
      "lon": 77.707991,
      "tags": {
        "addr:street": "Graphite India Road",
        "amenity": "kindergarten",
        "name": "Klay Day Care"
      }
    },
    {
      "type": "node",
      "id": 1585678331,
      "lat": 12.9795374,
      "lon": 77.7207285,
      "tags": {
        "amenity": "parking"
      }
    },
    {
      "type": "node",
      "id": 3270010723,
      "lat": 12.9768424,
      "lon": 77.7103746,
      "tags": {
        "addr:city": "Mahadevapura, Bangalore",
        "addr:postcode": "560048",
        "amenity": "hospital",
        "check_date": "2025-10-30",
        "email": "info@rxdx.in",
        "healthcare": "hospital",
        "healthcare:speciality": "physiotherapy",
        "name": "Telerad Rx Dx Health Care Whitefield",
        "operator": "RxDx",
        "operator:type": "private",
        "phone": "+91-80-49261111;+91-80-40187588",
        "website": "https://rxdx.in/"
      }
    },
    {
      "type": "node",
      "id": 4142109989,
      "lat": 12.9661558,
      "lon": 77.7137122,
      "tags": {
        "fixme": "not an embassy, but what?",
        "name": "Bluemeric Technologies",
        "opening_hours": "Mo-Fr 10:00-19:00",
        "shop": "yes",
        "website": "www.bluemeric.com"
      }
    },
    {
      "type": "node",
      "id": 4215309991,
      "lat": 12.966188,
      "lon": 77.7139019,
      "tags": {
        "amenity": "bank",
        "brand": "Canara Bank",
        "brand:en": "Canara Bank",
        "brand:hi": "केनरा बैंक",
        "brand:kn": "ಕೆನರಾ ಬ್ಯಾಂಕ್",
        "brand:pa": "ਕੇਨਰਾ ਬੈਂਕ",
        "brand:pnb": "کینرا بینک",
        "brand:ur": "کینرا بینک",
        "brand:wikidata": "Q2003777",
        "brand:wikipedia": "en:Canara Bank",
        "brand:wikipedia:pa": "ਕੇਨਰਾ ਬੈਂਕ",
        "check_date": "2024-07-13",
        "name": "Canara Bank",
        "name:en": "Canara Bank",
        "name:hi": "केनरा बैंक",
        "name:kn": "ಕೆನರಾ ಬ್ಯಾಂಕ್",
        "name:pa": "ਕੇਨਰਾ ਬੈਂਕ",
        "name:pnb": "کینرا بینک",
        "name:ur": "کینرا بینک",
        "website": "https://www.canarabank.com/"
      }
    },
    {
      "type": "node",
      "id": 4446225748,
      "lat": 12.9670599,
      "lon": 77.7131214,
      "tags": {
        "addr:city": "Bengaluru",
        "addr:postcode": "560037",
        "addr:street": "Munnekollal Main Rd, Munekollal, Karnataka",
        "amenity": "pharmacy",
        "name": "Ram speciality clinic",
        "phone": "+919738968438"
      }
    },
    {
      "type": "node",
      "id": 4488050031,
      "lat": 12.9703806,
      "lon": 77.712242,
      "tags": {
        "addr:city": "Bangalore",
        "addr:postcode": "560037",
        "addr:street": "I T P L Main Road",
        "name": "Maruthi Novelty",
        "shop": "general",
        "wheelchair": "no"
      }
    },
    {
      "type": "node",
      "id": 4861743445,
      "lat": 12.9676761,
      "lon": 77.7167208,
      "tags": {
        "addr:city": "Bangalore",
        "addr:housenumber": "1, 1st Floor, Akhitaan",
        "addr:street": "Kundanahalli Cross Road, Brookfield",
        "beauty": "hair",
        "cuisine": "north_indian;rajasthani",
        "diet:vegetarian": "yes",
        "name": "YLG Salon",
        "opening_hours": "Mo-Su 11:00-20:00",
        "operator": "You Look Good",
        "outdoor_seating": "no",
        "shop": "beauty",
        "smoking": "no",
        "takeaway": "yes",
        "website": "https://www.ylgindia.com/"
      }
    },
    {
      "type": "node",
      "id": 5053373346,
      "lat": 12.9769456,
      "lon": 77.7248797,
      "tags": {
        "amenity": "restaurant",
        "name": "Absolute Barbecue - Whitefield"
      }
    },
    {
      "type": "node",
      "id": 5133342220,
      "lat": 12.976875,
      "lon": 77.7256826,
      "tags": {
        "amenity": "ice_cream",
        "brand": "Cold Stone Creamery",
        "brand:wikidata": "Q1094923",
        "cuisine": "ice_cream",
        "name": "Cold Stone Creamery"
      }
    },
    {
      "type": "node",
      "id": 5133344122,
      "lat": 12.9769165,
      "lon": 77.7252495,
      "tags": {
        "amenity": "cafe",
        "name": "Myka",
        "phone": "+91 9740761664",
        "website": "https://mykacafeandboutique.com/"
      }
    },
    {
      "type": "node",
      "id": 5242423052,
      "lat": 12.9675073,
      "lon": 77.7165207,
      "tags": {
        "name": "Star Bike Point",
        "shop": "car_repair",
        "wheelchair": "no"
      }
    },
    {
      "type": "node",
      "id": 5536102141,
      "lat": 12.9705626,
      "lon": 77.7125878,
      "tags": {
        "check_date": "2025-10-30",
        "name": "The Liquor Library",
        "shop": "alcohol"
      }
    },
    {
      "type": "node",
      "id": 5536102143,
      "lat": 12.9701245,
      "lon": 77.7127182,
      "tags": {
        "shop": "car_repair"
      }
    },
    {
      "type": "node",
      "id": 5536102144,
      "lat": 12.9708488,
      "lon": 77.7120993,
      "tags": {
        "amenity": "pharmacy",
        "check_date": "2025-11-22",
        "dispensing": "no",
        "drive_through": "no",
        "healthcare": "pharmacy",
        "name": "Ramdev Medical",
        "wheelchair": "no"
      }
    },
    {
      "type": "node",
      "id": 5571222371,
      "lat": 12.9702565,
      "lon": 77.7122947,
      "tags": {
        "addr:floor": "G",
        "check_date": "2024-12-23",
        "internet_access": "wlan",
        "internet_access:fee": "customers",
        "level": "0",
        "name": "Hetvi Print Stationery",
        "payment:cash": "yes",
        "payment:credit_cards": "no",
        "payment:debit_cards": "yes",
        "shop": "stationery",
        "wheelchair": "limited"
      }
    },
    {
      "type": "node",
      "id": 5571222373,
      "lat": 12.9701931,
      "lon": 77.7123561,
      "tags": {
        "name": "Chaitanya Medicals",
        "shop": "medical_supply",
        "wheelchair": "no"
      }
    },
    {
      "type": "node",
      "id": 5571222374,
      "lat": 12.9701722,
      "lon": 77.7123588,
      "tags": {
        "check_date": "2024-12-23",
        "male": "yes",
        "name": "ANP Mens Parlour",
        "shop": "hairdresser",
        "wheelchair": "no"
      }
    },
    {
      "type": "node",
      "id": 5571222375,
      "lat": 12.9704006,
      "lon": 77.712237,
      "tags": {
        "female": "yes",
        "male": "yes",
        "name": "Creative Style Unisex Salon",
        "shop": "hairdresser",
        "wheelchair": "no"
      }
    },
    {
      "type": "node",
      "id": 5571222376,
      "lat": 12.9703332,
      "lon": 77.7122523,
      "tags": {
        "name": "Mathaji Electricals",
        "shop": "electronics",
        "wheelchair": "no"
      }
    },
    {
      "type": "node",
      "id": 5571222381,
      "lat": 12.9703537,
      "lon": 77.7127228,
      "tags": {
        "amenity": "smoking_area"
      }
    },
    {
      "type": "node",
      "id": 5611680989,
      "lat": 12.9805421,
      "lon": 77.7120973,
      "tags": {
        "alt_name": "Oregano Whitefield",
        "amenity": "restaurant",
        "cuisine": "international",
        "name": "Oregano"
      }
    },
    {
      "type": "node",
      "id": 5637428721,
      "lat": 12.9772958,
      "lon": 77.725534,
      "tags": {
        "amenity": "restaurant",
        "cuisine": "international",
        "name": "Flechazo"
      }
    },
    {
      "type": "node",
      "id": 5833741146,
      "lat": 12.9769435,
      "lon": 77.7249482,
      "tags": {
        "addr:city": "Bangalore",
        "addr:postcode": "560066",
        "addr:street": "2nd Road",
        "amenity": "restaurant",
        "cuisine": "indian",
        "diet:vegetarian": "yes",
        "name": "Konaseema Vantillu"
      }
    },
    {
      "type": "node",
      "id": 5928669348,
      "lat": 12.9848221,
      "lon": 77.7111977,
      "tags": {
        "addr:city": "Bangalore",
        "addr:housenumber": "1",
        "addr:postcode": "560048",
        "addr:street": "NCPR Industrial Layout, Seetharampalya, Hoodi Main Road",
        "amenity": "restaurant",
        "cuisine": "indian",
        "delivery": "yes",
        "name": "Yumatos",
        "opening_hours": "Mo-Su 10:00-22:30",
        "takeaway": "yes"
      }
    },
    {
      "type": "node",
      "id": 6013565861,
      "lat": 12.966089,
      "lon": 77.7023894,
      "tags": {
        "addr:city": "Marathhalli, Bangalore",
        "addr:street": "Service Road",
        "check_date": "2024-09-18",
        "name": "Royal Enfield Exclusive Service Centre",
        "shop": "motorcycle_repair",
        "source": "survey"
      }
    },
    {
      "type": "node",
      "id": 6034177868,
      "lat": 12.9660184,
      "lon": 77.7119979,
      "tags": {
        "amenity": "library",
        "internet_access": "wlan",
        "name": "CMRIT Library",
        "opening_hours": "Mo-Fr 08:00-19:30"
      }
    },
    {
      "type": "node",
      "id": 6034177869,
      "lat": 12.9660713,
      "lon": 77.7122695,
      "tags": {
        "amenity": "theatre",
        "name": "Dhwani Auditorium"
      }
    },
    {
      "type": "node",
      "id": 6034197732,
      "lat": 12.9666784,
      "lon": 77.7114169,
      "tags": {
        "amenity": "toilets"
      }
    },
    {
      "type": "node",
      "id": 6034197733,
      "lat": 12.9667676,
      "lon": 77.7116241,
      "tags": {
        "leisure": "fitness_centre"
      }
    },
    {
      "type": "node",
      "id": 6216303181,
      "lat": 12.9820349,
      "lon": 77.7087096,
      "tags": {
        "amenity": "restaurant"
      }
    },
    {
      "type": "node",
      "id": 6216304209,
      "lat": 12.9824221,
      "lon": 77.7086483,
      "tags": {
        "addr:city": "Bengaluru",
        "addr:postcode": "560048",
        "addr:street": "Kundalahalli Main Road",
        "amenity": "pub",
        "contact:instagram": "biergartenbangalore",
        "cuisine": "burger;pizza;regional;sandwich",
        "delivery": "no",
        "facebook": "https://www.facebook.com/biergartenbangalore/",
        "indoor_seating": "yes",
        "microbrewery": "yes",
        "name": "BierGarten Brewery & Kitchen",
        "opening_hours": "Su-Th 12:00-00:00; Fr-Sa 12:00-01:00",
        "outdoor_seating": "yes",
        "smoking": "isolated",
        "takeaway": "yes"
      }
    },
    {
      "type": "node",
      "id": 6235809888,
      "lat": 12.9785438,
      "lon": 77.7111721,
      "tags": {
        "amenity": "restaurant",
        "name": "New Udupi Garden",
        "opening_hours": "Mo-Sa 06:00-22:00"
      }
    },
    {
      "type": "node",
      "id": 7511152439,
      "lat": 12.9658605,
      "lon": 77.7120227,
      "tags": {
        "amenity": "toilets"
      }
    },
    {
      "type": "node",
      "id": 7511152440,
      "lat": 12.9663806,
      "lon": 77.7110665,
      "tags": {
        "amenity": "toilets"
      }
    },
    {
      "type": "node",
      "id": 7511152441,
      "lat": 12.9658788,
      "lon": 77.7112555,
      "tags": {
        "amenity": "toilets"
      }
    },
    {
      "type": "node",
      "id": 7518127508,
      "lat": 12.9658359,
      "lon": 77.7112826,
      "tags": {
        "amenity": "drinking_water"
      }
    },
    {
      "type": "node",
      "id": 7518141837,
      "lat": 12.9666425,
      "lon": 77.7114362,
      "tags": {
        "amenity": "cafe"
      }
    },
    {
      "type": "node",
      "id": 7518141838,
      "lat": 12.9663686,
      "lon": 77.7110717,
      "tags": {
        "amenity": "drinking_water"
      }
    },
    {
      "type": "node",
      "id": 7518337053,
      "lat": 12.9667228,
      "lon": 77.7116352,
      "tags": {
        "leisure": "fitness_centre"
      }
    },
    {
      "type": "node",
      "id": 8841166970,
      "lat": 12.9708058,
      "lon": 77.7120837,
      "tags": {
        "amenity": "post_office",
        "brand": "Desk to Desk Courier & Cargo",
        "brand:short": "DTDC",
        "brand:wikidata": "Q55608802",
        "check_date": "2025-11-22",
        "name": "DTDC Courier",
        "operator": "Desk to Desk Courier & Cargo",
        "operator:short": "DTDC",
        "operator:wikidata": "Q55608802",
        "wheelchair": "no"
      }
    },
    {
      "type": "node",
      "id": 9874713061,
      "lat": 12.9709124,
      "lon": 77.7119406,
      "tags": {
        "air_conditioning": "no",
        "amenity": "restaurant",
        "check_date": "2023-02-08",
        "cuisine": "biryani",
        "diet:vegetarian": "yes",
        "indoor_seating": "yes",
        "name": "SKM Ambur Hot Dum Biryani",
        "outdoor_seating": "no",
        "payment:credit_cards": "no",
        "payment:debit_cards": "no",
        "smoking": "no",
        "source": "survey",
        "wheelchair": "no"
      }
    },
    {
      "type": "node",
      "id": 9909036719,
      "lat": 12.969231,
      "lon": 77.7013535,
      "tags": {
        "check_date": "2024-09-04",
        "name": "Jodhpuri Furniture",
        "payment:credit_cards": "yes",
        "payment:debit_cards": "yes",
        "shop": "furniture",
        "website": "https://www.jodhpurifurniture.com/",
        "wheelchair": "no"
      }
    },
    {
      "type": "node",
      "id": 9945573640,
      "lat": 12.9706531,
      "lon": 77.7121508,
      "tags": {
        "addr:floor": "G",
        "check_date": "2024-12-23",
        "indoor_seating": "no",
        "internet_access": "no",
        "level": "0",
        "name": "Satya Sai Bakery",
        "outdoor_seating": "no",
        "shop": "bakery",
        "takeaway": "only",
        "wheelchair": "no"
      }
    },
    {
      "type": "node",
      "id": 9953100005,
      "lat": 12.9720668,
      "lon": 77.7093105,
      "tags": {
        "amenity": "parking_entrance",
        "parking": "underground"
      }
    },
    {
      "type": "node",
      "id": 9980237115,
      "lat": 12.9716395,
      "lon": 77.7078552,
      "tags": {
        "amenity": "parking_entrance",
        "parking": "underground"
      }
    },
    {
      "type": "node",
      "id": 9980275626,
      "lat": 12.9707731,
      "lon": 77.7084807,
      "tags": {
        "amenity": "parking_entrance",
        "parking": "underground"
      }
    },
    {
      "type": "node",
      "id": 9980275627,
      "lat": 12.9710322,
      "lon": 77.7086229,
      "tags": {
        "amenity": "parking_entrance",
        "parking": "underground"
      }
    },
    {
      "type": "node",
      "id": 10034052340,
      "lat": 12.9716954,
      "lon": 77.711696,
      "tags": {
        "amenity": "fast_food",
        "check_date": "2025-09-04",
        "name": "Laddoos",
        "wheelchair": "no"
      }
    },
    {
      "type": "node",
      "id": 10049459241,
      "lat": 12.9708452,
      "lon": 77.7078269,
      "tags": {
        "amenity": "fountain"
      }
    },
    {
      "type": "node",
      "id": 10049459248,
      "lat": 12.9715377,
      "lon": 77.7081105,
      "tags": {
        "amenity": "parking_entrance",
        "parking": "underground"
      }
    },
    {
      "type": "node",
      "id": 10049494520,
      "lat": 12.9716124,
      "lon": 77.7117564,
      "tags": {
        "name": "Midas Daily",
        "shop": "supermarket"
      }
    },
    {
      "type": "node",
      "id": 10093104864,
      "lat": 12.9702593,
      "lon": 77.7075337,
      "tags": {
        "amenity": "parking_entrance",
        "parking": "underground"
      }
    },
    {
      "type": "node",
      "id": 10276021138,
      "lat": 12.9797947,
      "lon": 77.7271044,
      "tags": {
        "addr:city": "Bangalore",
        "addr:street": "8th Road",
        "amenity": "fast_food",
        "cuisine": "pizza",
        "drive_through": "no",
        "indoor_seating": "yes",
        "name": "La Pino'z Pizza",
        "outdoor_seating": "yes",
        "phone": "+91 8238008087",
        "website": "https://lapinozpizza.in"
      }
    },
    {
      "type": "node",
      "id": 10291118239,
      "lat": 12.9732157,
      "lon": 77.7101827,
      "tags": {
        "addr:city": "Bengaluru",
        "addr:country": "IN",
        "addr:housename": "Prestige Technostar",
        "addr:postcode": "560048",
        "addr:street": "ITPL Main Road",
        "addr:suburb": "Doddanekundi",
        "addr:unit": "B3",
        "amenity": "coworking_space",
        "brand": "The Executive Centre",
        "email": "bangalore@executivecentre.com",
        "fee": "yes",
        "level": "8",
        "name": "The Executive Centre",
        "office": "coworking",
        "operator": "The Executive Centre",
        "phone": "+91 80 6862 8888",
        "website": "https://www.executivecentre.com/en-in/office-space/prestige-technostar"
      }
    },
    {
      "type": "node",
      "id": 10617518511,
      "lat": 12.971049,
      "lon": 77.7119519,
      "tags": {
        "check_date": "2023-02-08",
        "internet_access": "no",
        "name": "Print Point",
        "payment:credit_cards": "no",
        "payment:debit_cards": "no",
        "shop": "copyshop",
        "source": "survey",
        "wheelchair": "no"
      }
    },
    {
      "type": "node",
      "id": 10651190533,
      "lat": 12.9822815,
      "lon": 77.708899,
      "tags": {
        "amenity": "bank",
        "brand": "HDFC Bank",
        "brand:wikidata": "Q631047",
        "name": "HDFC Bank",
        "operator": "HDFC Bank",
        "short_name": "HDFC"
      }
    },
    {
      "type": "node",
      "id": 10651190534,
      "lat": 12.9822648,
      "lon": 77.7087862,
      "tags": {
        "email": "contact@gamingalaxy.in",
        "fee": "yes",
        "leisure": "escape_game",
        "name": "gamingalaxy",
        "phone": "+91 6364016789",
        "website": "https://gamingalaxy.in"
      }
    },
    {
      "type": "node",
      "id": 10651299049,
      "lat": 12.9769023,
      "lon": 77.7253279,
      "tags": {
        "amenity": "bank",
        "brand": "ICICI Bank",
        "brand:wikidata": "Q1653258",
        "name": "ICICI Bank",
        "short_name": "ICICI"
      }
    },
    {
      "type": "node",
      "id": 10675551013,
      "lat": 12.9663948,
      "lon": 77.7080119,
      "tags": {
        "amenity": "place_of_worship",
        "name": "Kateriamma and Shiva Temple",
        "religion": "hindu"
      }
    },
    {
      "type": "node",
      "id": 10676221190,
      "lat": 12.9704711,
      "lon": 77.7069485,
      "tags": {
        "name": "Reddy Stores",
        "shop": "convenience"
      }
    },
    {
      "type": "node",
      "id": 10676221191,
      "lat": 12.9704418,
      "lon": 77.7069478,
      "tags": {
        "amenity": "fast_food",
        "cuisine": "juice",
        "name": "Sri Ganesh Fruit Juice Center"
      }
    },
    {
      "type": "node",
      "id": 10678572931,
      "lat": 12.9760449,
      "lon": 77.717983,
      "tags": {
        "amenity": "restaurant",
        "name": "Sashay Taproom Kitchen",
        "opening_hours": "Mo-Su 12:00-24:00",
        "outdoor_seating": "yes"
      }
    },
    {
      "type": "node",
      "id": 10715811635,
      "lat": 12.9800429,
      "lon": 77.7270481,
      "tags": {
        "amenity": "restaurant",
        "check_date": "2025-07-08",
        "diet:vegetarian": "yes",
        "level": "0",
        "name": "New Udupi Delicacy"
      }
    },
    {
      "type": "node",
      "id": 10715811640,
      "lat": 12.9775392,
      "lon": 77.7249491,
      "tags": {
        "amenity": "kindergarten",
        "name": "Klay Pre School"
      }
    },
    {
      "type": "node",
      "id": 10715829338,
      "lat": 12.979944,
      "lon": 77.7232137,
      "tags": {
        "amenity": "atm",
        "brand": "State Bank of India",
        "brand:wikidata": "Q1340361",
        "operator": "State Bank of India",
        "operator:wikidata": "Q1340361",
        "short_name": "SBI"
      }
    },
    {
      "type": "node",
      "id": 10760815446,
      "lat": 12.9798928,
      "lon": 77.727045,
      "tags": {
        "amenity": "pharmacy",
        "check_date": "2025-08-07",
        "healthcare": "pharmacy",
        "name": "Dalvkot"
      }
    },
    {
      "type": "node",
      "id": 11107550464,
      "lat": 12.9652669,
      "lon": 77.7136731,
      "tags": {
        "amenity": "fast_food",
        "name": "The Fry Shack"
      }
    },
    {
      "type": "node",
      "id": 11107550465,
      "lat": 12.9650844,
      "lon": 77.7134968,
      "tags": {
        "female": "yes",
        "male": "yes",
        "name": "Dream Big",
        "shop": "hairdresser"
      }
    },
    {
      "type": "node",
      "id": 11215614043,
      "lat": 12.9772183,
      "lon": 77.724899,
      "tags": {
        "amenity": "restaurant",
        "name": "Biryani by kilo"
      }
    },
    {
      "type": "node",
      "id": 11215614045,
      "lat": 12.9769205,
      "lon": 77.7261425,
      "tags": {
        "amenity": "restaurant",
        "check_date": "2025-11-07",
        "diet:vegetarian": "yes",
        "name": "Essotto"
      }
    },
    {
      "type": "node",
      "id": 11215614046,
      "lat": 12.9772948,
      "lon": 77.724876,
      "tags": {
        "amenity": "parking_entrance",
        "parking": "underground"
      }
    },
    {
      "type": "node",
      "id": 11215614050,
      "lat": 12.9772525,
      "lon": 77.7249005,
      "tags": {
        "amenity": "restaurant",
        "cuisine": "pizza",
        "name": "Brik Oven"
      }
    },
    {
      "type": "node",
      "id": 11215614057,
      "lat": 12.9768791,
      "lon": 77.7260384,
      "tags": {
        "amenity": "parking_entrance",
        "parking": "multi-storey"
      }
    },
    {
      "type": "node",
      "id": 11220766885,
      "lat": 12.9770931,
      "lon": 77.7267279,
      "tags": {
        "access": "yes",
        "amenity": "toilets",
        "check_date": "2025-07-01",
        "fee": "no",
        "female": "yes",
        "male": "yes"
      }
    },
    {
      "type": "node",
      "id": 11220766886,
      "lat": 12.9769077,
      "lon": 77.7267157,
      "tags": {
        "amenity": "pharmacy",
        "check_date": "2025-06-24",
        "name": "Dava Dost"
      }
    },
    {
      "type": "node",
      "id": 11274969773,
      "lat": 12.9736914,
      "lon": 77.70845,
      "tags": {
        "amenity": "school",
        "name": "The Alternative Learning Community",
        "short_name": "TALC",
        "website": "https://www.thealternativelearningcommunity.com"
      }
    },
    {
      "type": "node",
      "id": 11297456549,
      "lat": 12.9841826,
      "lon": 77.708424,
      "tags": {
        "check_date": "2023-10-29",
        "name": "Sahukar Chai",
        "shop": "tea"
      }
    },
    {
      "type": "node",
      "id": 11297456550,
      "lat": 12.9840471,
      "lon": 77.7084168,
      "tags": {
        "amenity": "fast_food",
        "check_date": "2023-10-29",
        "name": "Ambur Hot Dum Biryani"
      }
    },
    {
      "type": "node",
      "id": 11297540605,
      "lat": 12.9772701,
      "lon": 77.7216639,
      "tags": {
        "amenity": "bench",
        "backrest": "yes",
        "colour": "green",
        "material": "concrete",
        "seats": "2"
      }
    },
    {
      "type": "node",
      "id": 11297540606,
      "lat": 12.9772124,
      "lon": 77.72167,
      "tags": {
        "amenity": "bench",
        "backrest": "yes",
        "colour": "yellow",
        "material": "concrete",
        "seats": "2"
      }
    },
    {
      "type": "node",
      "id": 11298101291,
      "lat": 12.9777623,
      "lon": 77.715248,
      "tags": {
        "access": "yes",
        "amenity": "motorcycle_parking",
        "fee": "yes"
      }
    },
    {
      "type": "node",
      "id": 11298101292,
      "lat": 12.981279,
      "lon": 77.7088355,
      "tags": {
        "access": "private",
        "amenity": "motorcycle_parking",
        "covered": "yes",
        "description": "Staff parking",
        "fee": "no"
      }
    },
    {
      "type": "node",
      "id": 11298101293,
      "lat": 12.9812718,
      "lon": 77.7085472,
      "tags": {
        "access": "yes",
        "amenity": "motorcycle_parking",
        "covered": "yes",
        "fee": "no"
      }
    },
    {
      "type": "node",
      "id": 11298101294,
      "lat": 12.9804766,
      "lon": 77.7087624,
      "tags": {
        "access": "yes",
        "amenity": "motorcycle_parking",
        "covered": "yes",
        "fee": "no"
      }
    },
    {
      "type": "node",
      "id": 11309756297,
      "lat": 12.9717655,
      "lon": 77.7072893,
      "tags": {
        "amenity": "fast_food",
        "check_date": "2023-11-03",
        "indoor_seating": "no",
        "name": "Kolkata Famous Rolls",
        "outdoor_seating": "no",
        "takeaway": "only"
      }
    },
    {
      "type": "node",
      "id": 11309756298,
      "lat": 12.9717812,
      "lon": 77.7072495,
      "tags": {
        "check_date": "2023-11-03",
        "name": "Chai Venue",
        "shop": "tea"
      }
    },
    {
      "type": "node",
      "id": 11329638655,
      "lat": 12.9741378,
      "lon": 77.7128003,
      "tags": {
        "amenity": "parking_entrance",
        "parking": "underground"
      }
    },
    {
      "type": "node",
      "id": 11329665797,
      "lat": 12.9734514,
      "lon": 77.7121758,
      "tags": {
        "amenity": "parking_entrance",
        "parking": "underground"
      }
    },
    {
      "type": "node",
      "id": 11343348771,
      "lat": 12.9795657,
      "lon": 77.7163088,
      "tags": {
        "amenity": "parking_entrance",
        "parking": "underground"
      }
    },
    {
      "type": "node",
      "id": 11361570770,
      "lat": 12.9810385,
      "lon": 77.7091091,
      "tags": {
        "amenity": "parking_entrance",
        "parking": "underground"
      }
    },
    {
      "type": "node",
      "id": 11371672503,
      "lat": 12.9808748,
      "lon": 77.7114066,
      "tags": {
        "access": "private",
        "amenity": "parking_entrance",
        "parking": "underground"
      }
    },
    {
      "type": "node",
      "id": 11407557712,
      "lat": 12.968111,
      "lon": 77.7168879,
      "tags": {
        "access": "private",
        "amenity": "parking_entrance",
        "parking": "underground"
      }
    },
    {
      "type": "node",
      "id": 11407557714,
      "lat": 12.968341,
      "lon": 77.7166119,
      "tags": {
        "access": "private",
        "amenity": "parking_entrance",
        "parking": "underground"
      }
    },
    {
      "type": "node",
      "id": 11429434927,
      "lat": 12.9810372,
      "lon": 77.7087623,
      "tags": {
        "amenity": "ticket_validator",
        "barrier": "gate",
        "fee": "yes",
        "level": "1",
        "network": "Namma Metro",
        "operator": "Bangalore Metro Rail Corporation Limited",
        "wheelchair": "yes"
      }
    },
    {
      "type": "node",
      "id": 11446204194,
      "lat": 12.9809967,
      "lon": 77.712311,
      "tags": {
        "amenity": "bench",
        "material": "concrete"
      }
    },
    {
      "type": "node",
      "id": 11446204199,
      "lat": 12.9824322,
      "lon": 77.7123814,
      "tags": {
        "amenity": "bench",
        "backrest": "yes",
        "material": "concrete"
      }
    },
    {
      "type": "node",
      "id": 11446273547,
      "lat": 12.9805726,
      "lon": 77.7160131,
      "tags": {
        "access": "private",
        "amenity": "parking_entrance",
        "parking": "underground"
      }
    },
    {
      "type": "node",
      "id": 11446289374,
      "lat": 12.9800674,
      "lon": 77.7147672,
      "tags": {
        "access": "private",
        "amenity": "parking_entrance",
        "parking": "underground"
      }
    },
    {
      "type": "node",
      "id": 11446289378,
      "lat": 12.9806491,
      "lon": 77.7148953,
      "tags": {
        "access": "private",
        "amenity": "parking_entrance",
        "parking": "underground"
      }
    },
    {
      "type": "node",
      "id": 11446289381,
      "lat": 12.9806922,
      "lon": 77.7175152,
      "tags": {
        "access": "private",
        "amenity": "parking_entrance",
        "parking": "underground"
      }
    },
    {
      "type": "node",
      "id": 11472845559,
      "lat": 12.9704092,
      "lon": 77.7126394,
      "tags": {
        "air_conditioning": "no",
        "amenity": "restaurant",
        "diet:vegetarian": "only",
        "indoor_seating": "yes",
        "name": "Hotel Mayura Sagar",
        "outdoor_seating": "yes",
        "smoking": "no",
        "wheelchair": "no"
      }
    },
    {
      "type": "node",
      "id": 11488303731,
      "lat": 12.9716152,
      "lon": 77.7097137,
      "tags": {
        "amenity": "food_court",
        "level": "-1"
      }
    },
    {
      "type": "node",
      "id": 11488303737,
      "lat": 12.9708364,
      "lon": 77.708717,
      "tags": {
        "amenity": "smoking_area",
        "bench": "no",
        "bin": "yes",
        "shelter": "yes"
      }
    },
    {
      "type": "node",
      "id": 11519266309,
      "lat": 12.9713878,
      "lon": 77.7108089,
      "tags": {
        "access": "private",
        "amenity": "parking_entrance",
        "parking": "underground"
      }
    },
    {
      "type": "node",
      "id": 11519266332,
      "lat": 12.9715798,
      "lon": 77.7080737,
      "tags": {
        "amenity": "smoking_area",
        "bench": "yes",
        "bin": "yes",
        "shelter": "yes"
      }
    },
    {
      "type": "node",
      "id": 11519266333,
      "lat": 12.9720503,
      "lon": 77.7085578,
      "tags": {
        "amenity": "fast_food",
        "brand": "Domino's",
        "brand:wikidata": "Q839466",
        "cuisine": "pizza",
        "name": "Domino's",
        "name:kn": "ಡಾಮಿನೋಸ್",
        "note": "Not accessible to general public, only those with SEZ cards can visit it.",
        "takeaway": "yes"
      }
    },
    {
      "type": "node",
      "id": 11519266342,
      "lat": 12.9707518,
      "lon": 77.7077384,
      "tags": {
        "amenity": "cafe",
        "description": "Only accessible to people with SEZ access.",
        "name": "Chai Gully",
        "outdoor_seating": "yes"
      }
    },
    {
      "type": "node",
      "id": 11519274306,
      "lat": 12.9726903,
      "lon": 77.7105745,
      "tags": {
        "access": "private",
        "amenity": "parking_entrance",
        "parking": "underground"
      }
    },
    {
      "type": "node",
      "id": 11519274307,
      "lat": 12.9728827,
      "lon": 77.7102137,
      "tags": {
        "access": "private",
        "amenity": "parking_entrance",
        "parking": "underground"
      }
    },
    {
      "type": "node",
      "id": 11534647618,
      "lat": 12.9794712,
      "lon": 77.725397,
      "tags": {
        "amenity": "parking_entrance",
        "parking": "underground"
      }
    },
    {
      "type": "node",
      "id": 11575590417,
      "lat": 12.982224,
      "lon": 77.7087599,
      "tags": {
        "amenity": "pub",
        "contact:instagram": "blrbrewing",
        "name": "BLR Brewing Co",
        "phone": "+91 8071174545",
        "website": "https://www.blrbrewing.com/"
      }
    },
    {
      "type": "node",
      "id": 11633925997,
      "lat": 12.9731838,
      "lon": 77.7112797,
      "tags": {
        "access": "yes",
        "amenity": "bicycle_parking",
        "bicycle_parking": "stands",
        "capacity": "2",
        "covered": "no",
        "fee": "no",
        "operator": "DULT",
        "operator:type": "public"
      }
    },
    {
      "type": "node",
      "id": 11642112406,
      "lat": 12.9873708,
      "lon": 77.7118608,
      "tags": {
        "amenity": "bicycle_rental",
        "capacity": "4",
        "name": "Tilt Bicycle Rental",
        "operator": "Tilt",
        "operator:type": "private"
      }
    },
    {
      "type": "node",
      "id": 11642160030,
      "lat": 12.988135,
      "lon": 77.7120732,
      "tags": {
        "access": "private",
        "amenity": "parking_entrance"
      }
    },
    {
      "type": "node",
      "id": 11642160040,
      "lat": 12.9881607,
      "lon": 77.711556,
      "tags": {
        "access": "private",
        "amenity": "parking_entrance"
      }
    },
    {
      "type": "node",
      "id": 11642208651,
      "lat": 12.988489,
      "lon": 77.7116945,
      "tags": {
        "name": "DusMinute",
        "shop": "department_store"
      }
    },
    {
      "type": "node",
      "id": 11642208652,
      "lat": 12.9883854,
      "lon": 77.7118988,
      "tags": {
        "shop": "hairdresser"
      }
    },
    {
      "type": "node",
      "id": 11642208653,
      "lat": 12.9884057,
      "lon": 77.7116945,
      "tags": {
        "amenity": "pharmacy",
        "brand": "Apollo Pharmacy",
        "brand:wikidata": "Q62562612",
        "dispensing": "yes",
        "healthcare": "pharmacy",
        "name": "Apollo Pharmacy",
        "name:kn": "ಅಪೋಲೋ ಫಾರ್ಮಸಿ"
      }
    },
    {
      "type": "node",
      "id": 11659647100,
      "lat": 12.976918,
      "lon": 77.7101701,
      "tags": {
        "access": "yes",
        "amenity": "bicycle_parking",
        "bicycle_parking": "stands",
        "capacity": "4",
        "colour": "yellow",
        "covered": "no",
        "fee": "no",
        "operator": "DULT",
        "operator:type": "government"
      }
    },
    {
      "type": "node",
      "id": 11799139352,
      "lat": 12.973613,
      "lon": 77.7154411,
      "tags": {
        "amenity": "restaurant",
        "name": "Maa Vindhu Bhojanam"
      }
    },
    {
      "type": "node",
      "id": 11799139355,
      "lat": 12.9736162,
      "lon": 77.7150663,
      "tags": {
        "amenity": "cafe",
        "name": "Cafe 19"
      }
    },
    {
      "type": "node",
      "id": 11799207833,
      "lat": 12.9727779,
      "lon": 77.714847,
      "tags": {
        "name": "Real Value Mart",
        "shop": "supermarket"
      }
    },
    {
      "type": "node",
      "id": 11799207842,
      "lat": 12.9737103,
      "lon": 77.7148651,
      "tags": {
        "amenity": "fast_food",
        "cuisine": "juice",
        "name": "Ice Burg"
      }
    },
    {
      "type": "node",
      "id": 11799207889,
      "lat": 12.9742756,
      "lon": 77.714731,
      "tags": {
        "access": "private",
        "amenity": "parking_entrance",
        "parking": "underground"
      }
    },
    {
      "type": "node",
      "id": 11799207910,
      "lat": 12.9742684,
      "lon": 77.7141087,
      "tags": {
        "access": "private",
        "amenity": "parking_entrance",
        "parking": "underground"
      }
    },
    {
      "type": "node",
      "id": 11799207955,
      "lat": 12.9779455,
      "lon": 77.7118175,
      "tags": {
        "amenity": "parking",
        "parking": "underground"
      }
    },
    {
      "type": "node",
      "id": 11799207964,
      "lat": 12.9779261,
      "lon": 77.7119633,
      "tags": {
        "amenity": "parking",
        "parking": "underground"
      }
    },
    {
      "type": "node",
      "id": 11826815328,
      "lat": 12.9759714,
      "lon": 77.7177511,
      "tags": {
        "access": "customers",
        "amenity": "parking_entrance",
        "parking": "underground"
      }
    },
    {
      "type": "node",
      "id": 11832523309,
      "lat": 12.9676679,
      "lon": 77.716677,
      "tags": {
        "amenity": "fast_food",
        "brand": "Beijing Bites",
        "brand:wikidata": "Q124374289",
        "cuisine": "chinese",
        "delivery": "yes",
        "name": "Beijing Bites",
        "takeaway": "yes",
        "wheelchair": "no"
      }
    },
    {
      "type": "node",
      "id": 11871599802,
      "lat": 12.9708631,
      "lon": 77.7070089,
      "tags": {
        "air_conditioning": "yes",
        "amenity": "restaurant",
        "indoor_seating": "yes",
        "level": "0,1",
        "name": "Sri Udupi Swaad",
        "outdoor_seating": "no"
      }
    },
    {
      "type": "node",
      "id": 11891881942,
      "lat": 12.968751,
      "lon": 77.7072133,
      "tags": {
        "amenity": "smoking_area",
        "bench": "yes",
        "bin": "yes",
        "shelter": "no"
      }
    },
    {
      "type": "node",
      "id": 11895221933,
      "lat": 12.965314,
      "lon": 77.7139915,
      "tags": {
        "name": "New Mangalore Stores",
        "shop": "convenience"
      }
    },
    {
      "type": "node",
      "id": 11896704670,
      "lat": 12.9769384,
      "lon": 77.7250069,
      "tags": {
        "name": "Liqour Library",
        "shop": "alcohol"
      }
    },
    {
      "type": "node",
      "id": 11898999666,
      "lat": 12.9776378,
      "lon": 77.7159786,
      "tags": {
        "access": "yes",
        "amenity": "motorcycle_parking",
        "bicycle": "yes",
        "covered": "yes",
        "fee": "yes"
      }
    },
    {
      "type": "node",
      "id": 11898999667,
      "lat": 12.9776501,
      "lon": 77.7160446,
      "tags": {
        "access": "yes",
        "amenity": "bicycle_parking",
        "bicycle_parking": "shed",
        "charge": "1 INR",
        "covered": "yes",
        "fee": "yes",
        "note": "Not really a shed, bicycles are permitted to park next to bikes in the cavity in the building, if they pay a fee"
      }
    },
    {
      "type": "node",
      "id": 12000719528,
      "lat": 12.9775829,
      "lon": 77.7155956,
      "tags": {
        "access": "customers",
        "amenity": "ticket_validator",
        "barrier": "gate",
        "level": "1",
        "network": "Namma Metro",
        "operator": "BMRCL",
        "wheelchair": "yes"
      }
    },
    {
      "type": "node",
      "id": 12046469618,
      "lat": 12.9727903,
      "lon": 77.7014429,
      "tags": {
        "amenity": "atm",
        "brand": "Axis Bank",
        "brand:wikidata": "Q2003549",
        "check_date": "2024-07-10",
        "operator": "Axis Bank",
        "operator:wikidata": "Q2003549"
      }
    },
    {
      "type": "node",
      "id": 12046469619,
      "lat": 12.9728694,
      "lon": 77.701613,
      "tags": {
        "amenity": "pharmacy",
        "check_date": "2024-07-10",
        "drive_through": "no",
        "healthcare": "pharmacy",
        "name": "Sri Ganesh Medicals & General Stores",
        "phone": "+91 97423 97442",
        "source": "survey",
        "wheelchair": "no"
      }
    },
    {
      "type": "node",
      "id": 12050443667,
      "lat": 12.9655969,
      "lon": 77.713901,
      "tags": {
        "check_date": "2024-07-13",
        "name": "Glamon Unisex Salon & Spa",
        "shop": "hairdresser"
      }
    },
    {
      "type": "node",
      "id": 12050443668,
      "lat": 12.9656615,
      "lon": 77.7138986,
      "tags": {
        "amenity": "fast_food",
        "check_date": "2024-07-13",
        "name": "Nataraj Chole Bhature"
      }
    },
    {
      "type": "node",
      "id": 12050450471,
      "lat": 12.9746893,
      "lon": 77.7111259,
      "tags": {
        "amenity": "place_of_worship",
        "check_date": "2025-10-30",
        "religion": "hindu"
      }
    },
    {
      "type": "node",
      "id": 12050489469,
      "lat": 12.9657777,
      "lon": 77.7138722,
      "tags": {
        "amenity": "fast_food",
        "check_date": "2024-07-13",
        "name": "NBN Military Hotel"
      }
    },
    {
      "type": "node",
      "id": 12050489470,
      "lat": 12.9657233,
      "lon": 77.7138797,
      "tags": {
        "check_date": "2024-07-13",
        "name": "Hi-Tech Mobile",
        "shop": "mobile_phone"
      }
    },
    {
      "type": "node",
      "id": 12050489473,
      "lat": 12.9658922,
      "lon": 77.7138464,
      "tags": {
        "amenity": "clinic",
        "check_date": "2024-07-13",
        "healthcare": "clinic",
        "name": "Manipal Clinics"
      }
    },
    {
      "type": "node",
      "id": 12050489474,
      "lat": 12.9659365,
      "lon": 77.7138374,
      "tags": {
        "check_date": "2024-07-13",
        "leisure": "fitness_centre",
        "name": "Gym X"
      }
    },
    {
      "type": "node",
      "id": 12050489475,
      "lat": 12.9660424,
      "lon": 77.7138251,
      "tags": {
        "amenity": "kindergarten",
        "check_date": "2024-07-13",
        "name": "Eurokids"
      }
    },
    {
      "type": "node",
      "id": 12161386683,
      "lat": 12.9706387,
      "lon": 77.7060326,
      "tags": {
        "access": "private",
        "amenity": "parking_entrance",
        "parking": "underground"
      }
    },
    {
      "type": "node",
      "id": 12164756014,
      "lat": 12.9725933,
      "lon": 77.7009999,
      "tags": {
        "amenity": "restaurant",
        "indoor_seating": "yes",
        "name": "Koikod",
        "outdoor_seating": "no"
      }
    },
    {
      "type": "node",
      "id": 12164756015,
      "lat": 12.9726116,
      "lon": 77.7010806,
      "tags": {
        "name": "Open Mart",
        "shop": "supermarket"
      }
    },
    {
      "type": "node",
      "id": 12164756016,
      "lat": 12.9725717,
      "lon": 77.7009191,
      "tags": {
        "name": "Gulmohar Botique",
        "shop": "clothes"
      }
    },
    {
      "type": "node",
      "id": 12164756017,
      "lat": 12.9726569,
      "lon": 77.7011724,
      "tags": {
        "name": "Parco",
        "shop": "bakery"
      }
    },
    {
      "type": "node",
      "id": 12164756040,
      "lat": 12.973695,
      "lon": 77.7062235,
      "tags": {
        "access": "private",
        "amenity": "parking_entrance",
        "parking": "underground"
      }
    },
    {
      "type": "node",
      "id": 12187611682,
      "lat": 12.9809553,
      "lon": 77.7116675,
      "tags": {
        "access": "private",
        "amenity": "parking_entrance",
        "parking": "underground"
      }
    },
    {
      "type": "node",
      "id": 12187611685,
      "lat": 12.9809918,
      "lon": 77.7116952,
      "tags": {
        "access": "private",
        "amenity": "parking_entrance",
        "parking": "underground"
      }
    },
    {
      "type": "node",
      "id": 12199128515,
      "lat": 12.9692627,
      "lon": 77.7122767,
      "tags": {
        "amenity": "pharmacy",
        "check_date": "2024-09-25",
        "healthcare": "pharmacy",
        "name": "Ganesh Medicals"
      }
    },
    {
      "type": "node",
      "id": 12209237276,
      "lat": 12.972399,
      "lon": 77.7004172,
      "tags": {
        "amenity": "car_wash"
      }
    },
    {
      "type": "node",
      "id": 12209237277,
      "lat": 12.9725127,
      "lon": 77.7006733,
      "tags": {
        "shop": "motorcycle_repair"
      }
    },
    {
      "type": "node",
      "id": 12211278636,
      "lat": 12.9723405,
      "lon": 77.7074025,
      "tags": {
        "leisure": "fitness_centre"
      }
    },
    {
      "type": "node",
      "id": 12432747643,
      "lat": 12.977065,
      "lon": 77.7249482,
      "tags": {
        "amenity": "restaurant",
        "name": "Babai Hotel"
      }
    },
    {
      "type": "node",
      "id": 12443448765,
      "lat": 12.9697834,
      "lon": 77.7125025,
      "tags": {
        "addr:housenumber": "139",
        "addr:street": "4th Cross Road",
        "check_date": "2024-12-22",
        "internet_access": "no",
        "name": "Clip'n'Copy",
        "shop": "stationery",
        "wheelchair": "limited"
      }
    },
    {
      "type": "node",
      "id": 12462598540,
      "lat": 12.977003,
      "lon": 77.7267208,
      "tags": {
        "amenity": "restaurant",
        "check_date": "2025-06-24",
        "level": "0",
        "name": "Bangalore Dosa",
        "opening_hours": "Mo-Fr 06:30-22:30"
      }
    },
    {
      "type": "node",
      "id": 12500582183,
      "lat": 12.9714686,
      "lon": 77.706628,
      "tags": {
        "amenity": "ice_cream",
        "brand": "Baskin-Robbins",
        "brand:wikidata": "Q584601",
        "cuisine": "ice_cream",
        "name": "Baskin-Robbins"
      }
    },
    {
      "type": "node",
      "id": 12767981104,
      "lat": 12.980602,
      "lon": 77.7092104,
      "tags": {
        "amenity": "hospital",
        "name": "Narayana Nethralaya",
        "opening_hours": "Mo-Sa 08:30-18:00",
        "phone": "08066121658",
        "website": "https://www.narayananethralaya.org/"
      }
    },
    {
      "type": "node",
      "id": 12886637756,
      "lat": 12.967143,
      "lon": 77.7075125,
      "tags": {
        "amenity": "bench",
        "armrest": "no",
        "backrest": "no",
        "material": "stone",
        "seats": "4"
      }
    },
    {
      "type": "node",
      "id": 12886637757,
      "lat": 12.9669411,
      "lon": 77.7076136,
      "tags": {
        "amenity": "waste_basket",
        "colour": "green",
        "material": "plastic"
      }
    },
    {
      "type": "node",
      "id": 12886637758,
      "lat": 12.9669411,
      "lon": 77.7076136,
      "tags": {
        "amenity": "bench",
        "armrest": "no",
        "backrest": "yes",
        "material": "stone",
        "seats": "4"
      }
    },
    {
      "type": "node",
      "id": 12886637759,
      "lat": 12.9669411,
      "lon": 77.7076136,
      "tags": {
        "amenity": "bench",
        "armrest": "no",
        "backrest": "no",
        "material": "stone",
        "seats": "4"
      }
    },
    {
      "type": "node",
      "id": 12886637764,
      "lat": 12.965493,
      "lon": 77.7081374,
      "tags": {
        "amenity": "bench",
        "armrest": "no",
        "backrest": "yes",
        "material": "stone",
        "seats": "4"
      }
    },
    {
      "type": "node",
      "id": 12898733385,
      "lat": 12.9770025,
      "lon": 77.7268351,
      "tags": {
        "amenity": "bench",
        "armrest": "yes",
        "backrest": "yes",
        "direction": "95",
        "material": "metal",
        "seats": "3"
      }
    },
    {
      "type": "node",
      "id": 12930139204,
      "lat": 12.96468,
      "lon": 77.711295,
      "tags": {
        "amenity": "bench"
      }
    },
    {
      "type": "node",
      "id": 12930139210,
      "lat": 12.9638732,
      "lon": 77.7089438,
      "tags": {
        "addr:floor": "G;1",
        "addr:housenumber": "274",
        "addr:street": "AECS Layout, AECS Main Road",
        "amenity": "kindergarten",
        "check_date": "2025-06-04",
        "level": "0;1",
        "name": "Hello kidz"
      }
    },
    {
      "type": "node",
      "id": 12930139218,
      "lat": 12.9643576,
      "lon": 77.7111797,
      "tags": {
        "amenity": "bench"
      }
    },
    {
      "type": "node",
      "id": 12930139226,
      "lat": 12.9642814,
      "lon": 77.7109293,
      "tags": {
        "amenity": "bench"
      }
    },
    {
      "type": "node",
      "id": 12946538926,
      "lat": 12.982368,
      "lon": 77.7087588,
      "tags": {
        "amenity": "restaurant",
        "check_date": "2025-06-23",
        "cuisine": "japanese",
        "name": "Hachi by Tenya"
      }
    },
    {
      "type": "node",
      "id": 12948842107,
      "lat": 12.9769536,
      "lon": 77.7267169,
      "tags": {
        "amenity": "shelter",
        "name": "Women Waiting Lounge (Under Nirbhaya Scheme)",
        "shelter_type": "public_transport"
      }
    },
    {
      "type": "node",
      "id": 12977423652,
      "lat": 12.9688976,
      "lon": 77.7015009,
      "tags": {
        "amenity": "atm",
        "brand": "IDFC First Bank",
        "brand:wikidata": "Q22031467",
        "check_date": "2025-07-04",
        "opening_hours": "24/7",
        "operator": "IDFC First Bank",
        "operator:wikidata": "Q22031467",
        "wheelchair": "no"
      }
    },
    {
      "type": "node",
      "id": 12977423653,
      "lat": 12.9689452,
      "lon": 77.7014681,
      "tags": {
        "amenity": "bank",
        "brand": "IDFC First Bank",
        "brand:wikidata": "Q22031467",
        "check_date": "2025-07-04",
        "name": "IDFC First Bank",
        "wheelchair": "no"
      }
    },
    {
      "type": "node",
      "id": 12981491763,
      "lat": 12.9787167,
      "lon": 77.7112515,
      "tags": {
        "amenity": "restaurant",
        "check_date": "2025-07-06",
        "name": "Sinchana Food Court"
      }
    },
    {
      "type": "node",
      "id": 12981491764,
      "lat": 12.9790577,
      "lon": 77.7114144,
      "tags": {
        "check_date": "2025-07-06",
        "name": "G. K. B Indian Bikes",
        "shop": "motorcycle_repair"
      }
    },
    {
      "type": "node",
      "id": 12981491765,
      "lat": 12.9793525,
      "lon": 77.7118747,
      "tags": {
        "amenity": "kindergarten",
        "check_date": "2025-07-06",
        "name": "Footprints"
      }
    },
    {
      "type": "node",
      "id": 12981491768,
      "lat": 12.9792441,
      "lon": 77.7125699,
      "tags": {
        "amenity": "cafe",
        "check_date": "2025-07-06",
        "name": "The Chef"
      }
    },
    {
      "type": "node",
      "id": 12981491769,
      "lat": 12.9791045,
      "lon": 77.7125282,
      "tags": {
        "amenity": "fast_food",
        "check_date": "2025-07-06",
        "cuisine": "juice",
        "name": "Chai Venue"
      }
    },
    {
      "type": "node",
      "id": 12981491770,
      "lat": 12.9793229,
      "lon": 77.7122318,
      "tags": {
        "check_date": "2025-07-06",
        "name": "Vivek Tailors",
        "shop": "tailor"
      }
    },
    {
      "type": "node",
      "id": 13037172166,
      "lat": 12.9716615,
      "lon": 77.7055735,
      "tags": {
        "amenity": "cafe",
        "check_date": "2025-07-30",
        "name": "Mr Bakes Cafe"
      }
    },
    {
      "type": "node",
      "id": 13037172167,
      "lat": 12.9713945,
      "lon": 77.7063241,
      "tags": {
        "amenity": "cafe",
        "check_date": "2025-07-30",
        "name": "Teaday"
      }
    },
    {
      "type": "node",
      "id": 13049395284,
      "lat": 12.9651695,
      "lon": 77.7132267,
      "tags": {
        "amenity": "school",
        "check_date": "2025-08-05",
        "name": "Global/Art"
      }
    },
    {
      "type": "node",
      "id": 13049395285,
      "lat": 12.9652449,
      "lon": 77.7134399,
      "tags": {
        "amenity": "school",
        "check_date": "2025-08-05",
        "mobile": "+91 74112 74433",
        "name": "School Of Athens"
      }
    },
    {
      "type": "node",
      "id": 13088970071,
      "lat": 12.9692205,
      "lon": 77.7169679,
      "tags": {
        "addr:city": "Bengaluru",
        "addr:district": "Whitefield",
        "addr:postcode": "560037",
        "addr:street": "ITPL Main Rd, EPIP Zone Brookefield",
        "amenity": "restaurant",
        "cuisine": "global",
        "diet:local": "yes",
        "diet:meat": "yes",
        "diet:vegan": "yes",
        "diet:vegetarian": "yes",
        "email": "blkru_dining@hilton.com",
        "internet_access": "yes",
        "internet_access:fee": "no",
        "name": "1882 Restaurant",
        "opening_hours": "06:30 - 23:00",
        "phone": "+91 63664 35034",
        "website": "https://www.hilton.com/en/hotels/blrkudi-doubletree-bengaluru-whitefield/dining/",
        "wheelchair": "yes"
      }
    },
    {
      "type": "node",
      "id": 13119024306,
      "lat": 12.9716903,
      "lon": 77.7117419,
      "tags": {
        "addr:floor": "1",
        "amenity": "restaurant",
        "check_date": "2025-09-04",
        "cuisine": "regional",
        "level": "1",
        "name": "Andhra Biryanis",
        "wheelchair": "no"
      }
    },
    {
      "type": "node",
      "id": 13120636975,
      "lat": 12.9857026,
      "lon": 77.7077508,
      "tags": {
        "addr:housenumber": "Plot no 14",
        "addr:postcode": "560048",
        "addr:street": "Kundalahalli Main Road",
        "amenity": "fuel",
        "name": "Hindustan Petroleum",
        "opening_hours": "24/7",
        "phone": "+919888751222",
        "self_service": "no",
        "website": "https://petrolpump.hpretail.in/hindustan-petroleum-corporation-limited-vriddhii-fuels-petrol-pump-itpl-main-road-bengaluru-419690/Home"
      }
    },
    {
      "type": "node",
      "id": 13122918092,
      "lat": 12.9868603,
      "lon": 77.7107398,
      "tags": {
        "access": "private",
        "amenity": "parking_entrance",
        "parking": "underground"
      }
    },
    {
      "type": "node",
      "id": 13122918098,
      "lat": 12.9868503,
      "lon": 77.71023,
      "tags": {
        "access": "private",
        "amenity": "parking_entrance",
        "parking": "underground"
      }
    },
    {
      "type": "node",
      "id": 13152141906,
      "lat": 12.9796467,
      "lon": 77.7107513,
      "tags": {
        "access": "private",
        "amenity": "parking_entrance",
        "parking": "underground"
      }
    },
    {
      "type": "node",
      "id": 13152141932,
      "lat": 12.9812208,
      "lon": 77.7100707,
      "tags": {
        "access": "private",
        "amenity": "parking_entrance",
        "parking": "underground"
      }
    },
    {
      "type": "node",
      "id": 13164448981,
      "lat": 12.9722898,
      "lon": 77.7136702,
      "tags": {
        "access": "private",
        "amenity": "parking_entrance",
        "parking": "underground"
      }
    },
    {
      "type": "node",
      "id": 13164464004,
      "lat": 12.9717017,
      "lon": 77.7142777,
      "tags": {
        "access": "private",
        "amenity": "parking_entrance",
        "parking": "underground"
      }
    },
    {
      "type": "node",
      "id": 13165790155,
      "lat": 12.971256,
      "lon": 77.7153077,
      "tags": {
        "access": "private",
        "amenity": "parking_entrance",
        "parking": "underground"
      }
    },
    {
      "type": "node",
      "id": 13165790162,
      "lat": 12.9700615,
      "lon": 77.7146264,
      "tags": {
        "access": "private",
        "amenity": "parking_entrance",
        "parking": "underground"
      }
    },
    {
      "type": "node",
      "id": 13165790166,
      "lat": 12.9712769,
      "lon": 77.7146224,
      "tags": {
        "access": "private",
        "amenity": "parking_entrance",
        "parking": "underground"
      }
    },
    {
      "type": "node",
      "id": 13165790203,
      "lat": 12.9708581,
      "lon": 77.7150522,
      "tags": {
        "access": "private",
        "amenity": "parking_entrance",
        "parking": "underground"
      }
    },
    {
      "type": "node",
      "id": 13165790206,
      "lat": 12.9701693,
      "lon": 77.7153761,
      "tags": {
        "access": "private",
        "amenity": "parking_entrance",
        "parking": "underground"
      }
    },
    {
      "type": "node",
      "id": 13286851347,
      "lat": 12.9768506,
      "lon": 77.7265063,
      "tags": {
        "amenity": "restaurant",
        "check_date": "2025-11-07",
        "name": "Nura"
      }
    },
    {
      "type": "node",
      "id": 13310052105,
      "lat": 12.9784844,
      "lon": 77.7108237,
      "tags": {
        "access": "customers",
        "leisure": "pitch",
        "name": "Swysh",
        "sport": "pickleball"
      }
    },
    {
      "type": "node",
      "id": 13316084769,
      "lat": 12.9700537,
      "lon": 77.7069027,
      "tags": {
        "addr:floor": "G",
        "air_conditioning": "no",
        "amenity": "cafe",
        "check_date": "2025-11-20",
        "cuisine": "coffee_shop",
        "internet_access": "no",
        "level": "0",
        "name": "Coffee Nivas",
        "outdoor_seating": "no",
        "payment:cards": "no",
        "payment:cash": "yes",
        "payment:credit_cards": "no",
        "payment:debit_cards": "no",
        "wheelchair": "no"
      }
    },
    {
      "type": "node",
      "id": 13319110552,
      "lat": 12.9713657,
      "lon": 77.7061327,
      "tags": {
        "check_date": "2025-11-20",
        "name": "Bangalore Horticulture",
        "shop": "greengrocer"
      }
    },
    {
      "type": "node",
      "id": 13319110553,
      "lat": 12.9714555,
      "lon": 77.7065292,
      "tags": {
        "amenity": "pharmacy",
        "check_date": "2025-11-20",
        "healthcare": "pharmacy",
        "name": "P N Medicals"
      }
    },
    {
      "type": "node",
      "id": 13319110554,
      "lat": 12.9712977,
      "lon": 77.7062723,
      "tags": {
        "check_date": "2025-11-20",
        "name": "H2O",
        "shop": "hairdresser"
      }
    },
    {
      "type": "node",
      "id": 13319110555,
      "lat": 12.9713128,
      "lon": 77.7061831,
      "tags": {
        "access": "customers",
        "covered": "yes",
        "fee": "yes",
        "indoor": "yes",
        "leisure": "pitch",
        "level": "4",
        "lit": "yes",
        "name": "Sporthood Badminton Centre Doddanekundi",
        "sport": "badminton"
      }
    },
    {
      "type": "node",
      "id": 13319132767,
      "lat": 12.9714822,
      "lon": 77.7064388,
      "tags": {
        "check_date": "2025-11-20",
        "name": "Grace",
        "shop": "bakery"
      }
    },
    {
      "type": "node",
      "id": 13319132768,
      "lat": 12.9713995,
      "lon": 77.7068864,
      "tags": {
        "amenity": "cafe",
        "check_date": "2025-11-20",
        "cuisine": "bubble_tea",
        "name": "Hyderabad Special Irani Chai"
      }
    },
    {
      "type": "node",
      "id": 13319132769,
      "lat": 12.9714229,
      "lon": 77.7069059,
      "tags": {
        "addr:floor": "G",
        "amenity": "fast_food",
        "check_date": "2025-11-20",
        "level": "0",
        "name": "Ahaa Cafe"
      }
    },
    {
      "type": "node",
      "id": 13319132770,
      "lat": 12.9714822,
      "lon": 77.7064388,
      "tags": {
        "check_date": "2025-11-20",
        "name": "Grace",
        "shop": "bakery"
      }
    },
    {
      "type": "node",
      "id": 13319132771,
      "lat": 12.9713995,
      "lon": 77.7068864,
      "tags": {
        "amenity": "cafe",
        "check_date": "2025-11-20",
        "cuisine": "bubble_tea",
        "name": "Hyderabad Special Irani Chai"
      }
    },
    {
      "type": "node",
      "id": 13319132772,
      "lat": 12.9714229,
      "lon": 77.7069059,
      "tags": {
        "addr:floor": "G",
        "amenity": "fast_food",
        "check_date": "2025-11-20",
        "level": "0",
        "name": "Ahaa Cafe"
      }
    },
    {
      "type": "way",
      "id": 45268415,
      "center": {
        "lat": 12.9789949,
        "lon": 77.7190255
      },
      "tags": {
        "addr:plot": "121",
        "amenity": "exhibition_hall",
        "barrier": "wall",
        "check_date": "2025-11-23",
        "email": "md@ktpo.org",
        "name": "Karnataka Trade Promotion Organisation - KTPO"
      }
    },
    {
      "type": "way",
      "id": 122403363,
      "center": {
        "lat": 12.9863803,
        "lon": 77.7068884
      },
      "tags": {
        "addr:city": "Mahadevapura, Bangalore",
        "addr:street": "Graphite India Road",
        "amenity": "school",
        "barrier": "wall",
        "name": "Gopalan National School"
      }
    },
    {
      "type": "way",
      "id": 122668450,
      "center": {
        "lat": 12.9775672,
        "lon": 77.7131084
      },
      "tags": {
        "addr:city": "Bangalore",
        "addr:country": "IN",
        "addr:housenumber": "136,137",
        "addr:postcode": "560066",
        "addr:street": "EPIP Area, Road No. 1, Opp SAP Labs",
        "amenity": "restaurant",
        "building": "yes",
        "phone": "+91 80 6622 6969",
        "tourism": "hotel"
      }
    },
    {
      "type": "way",
      "id": 122668481,
      "center": {
        "lat": 12.9794494,
        "lon": 77.7199175
      },
      "tags": {
        "amenity": "events_venue",
        "building": "commercial",
        "building:levels": "2",
        "name": "KTPO Exhibhition and Convention Center"
      }
    },
    {
      "type": "way",
      "id": 122691466,
      "center": {
        "lat": 12.9665657,
        "lon": 77.7123549
      },
      "tags": {
        "addr:full": "132 AECS Layout ITPL Main Road, Kundalahalli Bangalore 560037",
        "amenity": "college",
        "barrier": "wall",
        "email": "info@cmrit.ac.in",
        "name": "CMR Institute of Technology",
        "phone": "+91 80 28524466",
        "website": "https://www.cmrit.ac.in/",
        "wikidata": "Q5012995",
        "wikipedia": "en:CMR Institute of Technology"
      }
    },
    {
      "type": "way",
      "id": 123613264,
      "center": {
        "lat": 12.9788071,
        "lon": 77.7099307
      },
      "tags": {
        "addr:full": "5A, Graphite India Road, Mahadevapura, Bangalore - 560048",
        "brand": "Hyundai",
        "brand:wikidata": "Q55931",
        "email": "amplws_13@rediffmail.com",
        "name": "Advaith Hyundai Service",
        "name:kn": "ಅದ್ವೈತ ಹ್ಯುಂಡೈ",
        "operator": "Advaith",
        "phone": "+91-80-22976182",
        "shop": "car"
      }
    },
    {
      "type": "way",
      "id": 181464980,
      "center": {
        "lat": 12.9791704,
        "lon": 77.7204728
      },
      "tags": {
        "leisure": "garden"
      }
    },
    {
      "type": "way",
      "id": 181695452,
      "center": {
        "lat": 12.9793732,
        "lon": 77.7148716
      },
      "tags": {
        "amenity": "cafe",
        "building": "yes",
        "name": "Open Canopy"
      }
    },
    {
      "type": "way",
      "id": 181695465,
      "center": {
        "lat": 12.9792452,
        "lon": 77.7149548
      },
      "tags": {
        "amenity": "cafe",
        "building": "yes",
        "name": "Open Canopy"
      }
    },
    {
      "type": "way",
      "id": 181695493,
      "center": {
        "lat": 12.979266,
        "lon": 77.7148475
      },
      "tags": {
        "amenity": "cafe",
        "building": "yes",
        "name": "Open Canopy"
      }
    },
    {
      "type": "way",
      "id": 181695499,
      "center": {
        "lat": 12.9804032,
        "lon": 77.7167348
      },
      "tags": {
        "access": "private",
        "amenity": "parking",
        "parking": "street_side"
      }
    },
    {
      "type": "way",
      "id": 183042756,
      "center": {
        "lat": 12.9773097,
        "lon": 77.715083
      },
      "tags": {
        "access": "private",
        "leisure": "swimming_pool"
      }
    },
    {
      "type": "way",
      "id": 323234499,
      "center": {
        "lat": 12.9750501,
        "lon": 77.7133947
      },
      "tags": {
        "email": "hello@powerplayindia.com",
        "leisure": "sports_centre",
        "name": "PowerPlay One",
        "phone": "+91 9980451000",
        "sport": "cricket;table_tennis",
        "website": "https://www.powerplayindia.com"
      }
    },
    {
      "type": "way",
      "id": 346842851,
      "center": {
        "lat": 12.9841618,
        "lon": 77.7077841
      },
      "tags": {
        "addr:city": "Bengaluru",
        "addr:housenumber": "243/17-B",
        "addr:postcode": "560048",
        "addr:street": "Doddanakundi Industrial Area 2",
        "alt_name": "BMW Deutsche Motoren Service Centre",
        "brand": "BMW",
        "brand:wikidata": "Q26678",
        "building": "yes",
        "name": "BMW",
        "shop": "car"
      }
    },
    {
      "type": "way",
      "id": 346843087,
      "center": {
        "lat": 12.9840091,
        "lon": 77.706795
      },
      "tags": {
        "access": "private",
        "amenity": "parking",
        "parking": "surface"
      }
    },
    {
      "type": "way",
      "id": 347244127,
      "center": {
        "lat": 12.9685921,
        "lon": 77.7160446
      },
      "tags": {
        "access": "private",
        "leisure": "swimming_pool",
        "location": "outdoor",
        "swimming_pool": "wading"
      }
    },
    {
      "type": "way",
      "id": 351060167,
      "center": {
        "lat": 12.9876239,
        "lon": 77.7103214
      },
      "tags": {
        "brand": "Bosch Car Service",
        "brand:wikidata": "Q894368",
        "building": "commercial",
        "name": "Bosch Car Service Center",
        "name:kn": "ಬೋಷ್",
        "operator": "Bosch",
        "shop": "car_repair"
      }
    },
    {
      "type": "way",
      "id": 398996840,
      "center": {
        "lat": 12.9813439,
        "lon": 77.7138944
      },
      "tags": {
        "leisure": "pitch",
        "sport": "futsal"
      }
    },
    {
      "type": "way",
      "id": 398996849,
      "center": {
        "lat": 12.9813933,
        "lon": 77.7142831
      },
      "tags": {
        "email": "hello@powerplayindia.com",
        "leisure": "sports_centre",
        "name": "PowerPlay Two",
        "phone": "+91 9980451000",
        "sport": "futsal;badminton;cricket",
        "website": "https://www.powerplayindia.com"
      }
    },
    {
      "type": "way",
      "id": 398996850,
      "center": {
        "lat": 12.9811636,
        "lon": 77.7138657
      },
      "tags": {
        "leisure": "pitch",
        "sport": "futsal"
      }
    },
    {
      "type": "way",
      "id": 414834999,
      "center": {
        "lat": 12.9663964,
        "lon": 77.7117076
      },
      "tags": {
        "Ground": "Cricket Ground",
        "leisure": "pitch",
        "name": "play ground"
      }
    },
    {
      "type": "way",
      "id": 414837820,
      "center": {
        "lat": 12.9741304,
        "lon": 77.7152631
      },
      "tags": {
        "leisure": "park"
      }
    },
    {
      "type": "way",
      "id": 414837845,
      "center": {
        "lat": 12.9720228,
        "lon": 77.7009637
      },
      "tags": {
        "leisure": "sports_centre",
        "name": "Whitefield United Sports Arena"
      }
    },
    {
      "type": "way",
      "id": 464282944,
      "center": {
        "lat": 12.9685895,
        "lon": 77.7022979
      },
      "tags": {
        "leisure": "park",
        "name": "BBMP Park",
        "name:kn": "ಬೃ. ಬೆ. ಮ. ಪಾ. ಉದ್ಯಾನವನ",
        "operator": "ಬೃಹತ್ ಬೆಂಗಳೂರು ಮಹಾನಗರ ಪಾಲಿಕೆ",
        "operator:en": "Bruhat Bengaluru Mahanagara Palike",
        "operator:ka": "ಬೃಹತ್ ಬೆಂಗಳೂರು ಮಹಾನಗರ ಪಾಲಿಕೆ",
        "operator:short": "BBMP",
        "operator:type": "government",
        "operator:wikidata": "Q4978693"
      }
    },
    {
      "type": "way",
      "id": 494680607,
      "center": {
        "lat": 12.977753,
        "lon": 77.7111914
      },
      "tags": {
        "check_date": "2025-11-23",
        "landuse": "retail",
        "name": "Nandi Toyota",
        "name:kn": "ನಂದಿ ಟೊಯೋಟ",
        "shop": "car"
      }
    },
    {
      "type": "way",
      "id": 540651838,
      "center": {
        "lat": 12.9707819,
        "lon": 77.7126186
      },
      "tags": {
        "addr:city": "Bengaluru",
        "addr:housenumber": "1",
        "addr:postcode": "560037",
        "addr:street": "Kundalahalli Main Road",
        "air_conditioning": "no",
        "amenity": "fast_food",
        "bar": "no",
        "brand": "The Rameshwaram Cafe",
        "brand:wikidata": "Q124374630",
        "building": "yes",
        "check_date": "2025-10-30",
        "cuisine": "south_indian",
        "diet:vegetarian": "only",
        "indoor_seating": "yes",
        "internet_access": "no",
        "level": "0",
        "microbrewery": "no",
        "name": "The Rameshwaram Cafe",
        "outdoor_seating": "no",
        "payment:credit_cards": "yes",
        "payment:debit_cards": "yes",
        "reservation": "no",
        "smoking": "no",
        "source": "local knowledge",
        "takeaway": "yes",
        "toilets": "yes",
        "toilets:wheelchair": "no",
        "website": "https://therameshwaramcafe.org/",
        "wheelchair": "no"
      }
    },
    {
      "type": "way",
      "id": 540755867,
      "center": {
        "lat": 12.9652273,
        "lon": 77.7084177
      },
      "tags": {
        "leisure": "playground",
        "name": "Chinnappanahalli Lake Park",
        "name:kn": "ಚಿನ್ನಪ್ಪನಹಳ್ಳಿ ಉದ್ಯಾನವನ",
        "service_times": "Su 06:00-18:00"
      }
    },
    {
      "type": "way",
      "id": 577482796,
      "center": {
        "lat": 12.9706225,
        "lon": 77.715035
      },
      "tags": {
        "access": "yes",
        "leisure": "swimming_pool"
      }
    },
    {
      "type": "way",
      "id": 577482799,
      "center": {
        "lat": 12.9705778,
        "lon": 77.7149256
      },
      "tags": {
        "leisure": "pitch",
        "sport": "volleyball"
      }
    },
    {
      "type": "way",
      "id": 577482801,
      "center": {
        "lat": 12.9706728,
        "lon": 77.7147289
      },
      "tags": {
        "leisure": "park"
      }
    },
    {
      "type": "way",
      "id": 577482805,
      "center": {
        "lat": 12.9708745,
        "lon": 77.7154778
      },
      "tags": {
        "leisure": "park"
      }
    },
    {
      "type": "way",
      "id": 577482807,
      "center": {
        "lat": 12.9705436,
        "lon": 77.71549
      },
      "tags": {
        "leisure": "park"
      }
    },
    {
      "type": "way",
      "id": 577482811,
      "center": {
        "lat": 12.9700315,
        "lon": 77.7149457
      },
      "tags": {
        "amenity": "parking"
      }
    },
    {
      "type": "way",
      "id": 577482814,
      "center": {
        "lat": 12.9699332,
        "lon": 77.714721
      },
      "tags": {
        "amenity": "parking"
      }
    },
    {
      "type": "way",
      "id": 577482816,
      "center": {
        "lat": 12.969904,
        "lon": 77.7151607
      },
      "tags": {
        "amenity": "recycling",
        "recycling_type": "centre"
      }
    },
    {
      "type": "way",
      "id": 578459285,
      "center": {
        "lat": 12.9720338,
        "lon": 77.7116273
      },
      "tags": {
        "addr:city": "Bengaluru",
        "addr:postcode": "560037",
        "addr:street": "ITPL Main Road,Kundalahalli Colony, Brookefield",
        "amenity": "place_of_worship",
        "building": "yes",
        "description": "ಹನುಮಾನ್ ಮಂದಿರ",
        "name": "Shree Prasanna Anjaneyaswamy Temple",
        "religion": "hindu"
      }
    },
    {
      "type": "way",
      "id": 582562270,
      "center": {
        "lat": 12.9662303,
        "lon": 77.7071598
      },
      "tags": {
        "leisure": "park"
      }
    },
    {
      "type": "way",
      "id": 627693464,
      "center": {
        "lat": 12.9707171,
        "lon": 77.7055713
      },
      "tags": {
        "leisure": "swimming_pool"
      }
    },
    {
      "type": "way",
      "id": 640540672,
      "center": {
        "lat": 12.9668743,
        "lon": 77.7118049
      },
      "tags": {
        "leisure": "pitch",
        "name": "Volleyball Court",
        "name:kn": "ವಾಲಿಬಾಲ್",
        "sport": "volleyball"
      }
    },
    {
      "type": "way",
      "id": 640540674,
      "center": {
        "lat": 12.9669088,
        "lon": 77.7114335
      },
      "tags": {
        "leisure": "pitch",
        "name": "Basketball court 1",
        "sport": "basketball"
      }
    },
    {
      "type": "way",
      "id": 640540675,
      "center": {
        "lat": 12.9669336,
        "lon": 77.7115048
      },
      "tags": {
        "leisure": "pitch",
        "name": "Basketball court 2",
        "sport": "basketball"
      }
    },
    {
      "type": "way",
      "id": 640540676,
      "center": {
        "lat": 12.9669492,
        "lon": 77.7115907
      },
      "tags": {
        "leisure": "outdoor_seating",
        "name": "basketball sitting area"
      }
    },
    {
      "type": "way",
      "id": 640540677,
      "center": {
        "lat": 12.9668751,
        "lon": 77.7113409
      },
      "tags": {
        "leisure": "outdoor_seating",
        "name": "outdoor seating"
      }
    },
    {
      "type": "way",
      "id": 647669134,
      "center": {
        "lat": 12.9718834,
        "lon": 77.7117298
      },
      "tags": {
        "amenity": "parking",
        "fee": "no",
        "informal": "yes"
      }
    },
    {
      "type": "way",
      "id": 647669144,
      "center": {
        "lat": 12.968185,
        "lon": 77.7144214
      },
      "tags": {
        "leisure": "garden"
      }
    },
    {
      "type": "way",
      "id": 647669145,
      "center": {
        "lat": 12.9682192,
        "lon": 77.7141592
      },
      "tags": {
        "leisure": "garden"
      }
    },
    {
      "type": "way",
      "id": 647669146,
      "center": {
        "lat": 12.9681625,
        "lon": 77.7146673
      },
      "tags": {
        "leisure": "garden"
      }
    },
    {
      "type": "way",
      "id": 647669149,
      "center": {
        "lat": 12.9690623,
        "lon": 77.7144479
      },
      "tags": {
        "leisure": "garden"
      }
    },
    {
      "type": "way",
      "id": 802961138,
      "center": {
        "lat": 12.9670994,
        "lon": 77.7124498
      },
      "tags": {
        "amenity": "motorcycle_parking",
        "name": "Student Parking"
      }
    },
    {
      "type": "way",
      "id": 802961953,
      "center": {
        "lat": 12.9666662,
        "lon": 77.7121997
      },
      "tags": {
        "amenity": "parking",
        "name": "Faculty Parking"
      }
    },
    {
      "type": "way",
      "id": 802976296,
      "center": {
        "lat": 12.9671377,
        "lon": 77.7129313
      },
      "tags": {
        "amenity": "parking",
        "name": "Car Parking"
      }
    },
    {
      "type": "way",
      "id": 802983280,
      "center": {
        "lat": 12.9672223,
        "lon": 77.7124474
      },
      "tags": {
        "amenity": "parking",
        "name": "Car Parking"
      }
    },
    {
      "type": "way",
      "id": 805098053,
      "center": {
        "lat": 12.966834,
        "lon": 77.7112364
      },
      "tags": {
        "leisure": "outdoor_seating",
        "name": "outdoor seating"
      }
    },
    {
      "type": "way",
      "id": 805155174,
      "center": {
        "lat": 12.9670263,
        "lon": 77.711743
      },
      "tags": {
        "leisure": "outdoor_seating",
        "name": "outdoor seating"
      }
    },
    {
      "type": "way",
      "id": 805155362,
      "center": {
        "lat": 12.9669942,
        "lon": 77.7109522
      },
      "tags": {
        "amenity": "waste_disposal"
      }
    },
    {
      "type": "way",
      "id": 992731942,
      "center": {
        "lat": 12.9737038,
        "lon": 77.7099428
      },
      "tags": {
        "access": "permissive",
        "amenity": "parking",
        "building": "parking",
        "building:levels": "6",
        "name": "MLCP",
        "operator": "Prestige Technostar",
        "parking": "multi-storey"
      }
    },
    {
      "type": "way",
      "id": 1065289736,
      "center": {
        "lat": 12.9718522,
        "lon": 77.7086894
      },
      "tags": {
        "leisure": "park"
      }
    },
    {
      "type": "way",
      "id": 1065289739,
      "center": {
        "lat": 12.9733363,
        "lon": 77.7107065
      },
      "tags": {
        "leisure": "park"
      }
    },
    {
      "type": "way",
      "id": 1073952495,
      "center": {
        "lat": 12.9714565,
        "lon": 77.7160258
      },
      "tags": {
        "leisure": "common",
        "natural": "scrub"
      }
    },
    {
      "type": "way",
      "id": 1082259059,
      "center": {
        "lat": 12.9715033,
        "lon": 77.7040949
      },
      "tags": {
        "amenity": "school",
        "building": "school",
        "name": "Ekya School"
      }
    },
    {
      "type": "way",
      "id": 1083400633,
      "center": {
        "lat": 12.9722396,
        "lon": 77.7142034
      },
      "tags": {
        "leisure": "swimming_pool"
      }
    },
    {
      "type": "way",
      "id": 1083507311,
      "center": {
        "lat": 12.9672401,
        "lon": 77.7138461
      },
      "tags": {
        "leisure": "swimming_pool"
      }
    },
    {
      "type": "way",
      "id": 1084192094,
      "center": {
        "lat": 12.9730525,
        "lon": 77.7079393
      },
      "tags": {
        "addr:city": "Bengaluru",
        "addr:postcode": "560048",
        "addr:street": "Doddanakundi Industrial Area 2, Phase 1, Doddanekkundi",
        "amenity": "place_of_worship",
        "building": "yes",
        "name": "Shri Yedugaramma Devi Temple",
        "religion": "hindu"
      }
    },
    {
      "type": "way",
      "id": 1084474518,
      "center": {
        "lat": 12.9873357,
        "lon": 77.711611
      },
      "tags": {
        "access": "private",
        "leisure": "swimming_pool",
        "lit": "yes",
        "location": "outdoor"
      }
    },
    {
      "type": "way",
      "id": 1084701601,
      "center": {
        "lat": 12.9820599,
        "lon": 77.7107596
      },
      "tags": {
        "access": "private",
        "leisure": "pitch",
        "sport": "tennis"
      }
    },
    {
      "type": "way",
      "id": 1084701602,
      "center": {
        "lat": 12.9820326,
        "lon": 77.7109677
      },
      "tags": {
        "access": "private",
        "leisure": "pitch",
        "sport": "tennis"
      }
    },
    {
      "type": "way",
      "id": 1084701603,
      "center": {
        "lat": 12.9820041,
        "lon": 77.711182
      },
      "tags": {
        "leisure": "pitch",
        "sport": "basketball"
      }
    },
    {
      "type": "way",
      "id": 1084701604,
      "center": {
        "lat": 12.9816504,
        "lon": 77.7109571
      },
      "tags": {
        "amenity": "community_centre",
        "building": "yes",
        "name": "Club House"
      }
    },
    {
      "type": "way",
      "id": 1085398675,
      "center": {
        "lat": 12.9706045,
        "lon": 77.712272
      },
      "tags": {
        "access": "yes",
        "amenity": "toilets",
        "building": "yes",
        "check_date": "2024-12-23",
        "fee": "yes",
        "layer": "1",
        "wheelchair": "no"
      }
    },
    {
      "type": "way",
      "id": 1085398676,
      "center": {
        "lat": 12.9700684,
        "lon": 77.7115692
      },
      "tags": {
        "amenity": "place_of_worship",
        "building": "yes",
        "name": "Mariamma Temple",
        "name:kn": "ಮಾರಿಯಮ್ಮ ದೇವಸ್ಥಾನ",
        "religion": "hindu"
      }
    },
    {
      "type": "way",
      "id": 1089516705,
      "center": {
        "lat": 12.9712421,
        "lon": 77.7075502
      },
      "tags": {
        "leisure": "garden"
      }
    },
    {
      "type": "way",
      "id": 1089516706,
      "center": {
        "lat": 12.9705398,
        "lon": 77.7073683
      },
      "tags": {
        "leisure": "garden"
      }
    },
    {
      "type": "way",
      "id": 1097534263,
      "center": {
        "lat": 12.9708483,
        "lon": 77.7075051
      },
      "tags": {
        "leisure": "garden"
      }
    },
    {
      "type": "way",
      "id": 1104753180,
      "center": {
        "lat": 12.9783415,
        "lon": 77.7112436
      },
      "tags": {
        "addr:full": "2nd Road, EPIP Industrial Area, Whitefield, Bangalore",
        "amenity": "fuel",
        "brand": "Indian Oil",
        "brand:wikidata": "Q1289348",
        "check_date": "2025-11-07",
        "compressed_air": "yes",
        "name": "Indian Oil",
        "name:kn": "ಇಂಡಿಯನ್ ಆಯಿಲ್",
        "operator": "Indian Oil"
      }
    },
    {
      "type": "way",
      "id": 1130678784,
      "center": {
        "lat": 12.9826703,
        "lon": 77.7078952
      },
      "tags": {
        "amenity": "fuel",
        "brand": "Shell",
        "brand:wikidata": "Q110716465",
        "brand:wikipedia": "en:Royal Dutch Shell",
        "compressed_air": "yes",
        "fuel:diesel": "yes",
        "fuel:gasoline": "yes",
        "landuse": "commercial",
        "name": "Shell",
        "name:kn": "ಶೆಲ್",
        "opening_hours": "24/7",
        "operator": "Shell",
        "payment:cash": "yes",
        "payment:credit_cards": "yes",
        "payment:debit_cards": "yes",
        "payment:electronic_purses": "yes"
      }
    },
    {
      "type": "way",
      "id": 1135846652,
      "center": {
        "lat": 12.9718185,
        "lon": 77.7141719
      },
      "tags": {
        "leisure": "swimming_pool"
      }
    },
    {
      "type": "way",
      "id": 1135846653,
      "center": {
        "lat": 12.9719699,
        "lon": 77.7151731
      },
      "tags": {
        "leisure": "swimming_pool"
      }
    },
    {
      "type": "way",
      "id": 1135846658,
      "center": {
        "lat": 12.9857824,
        "lon": 77.7140261
      },
      "tags": {
        "amenity": "school",
        "name": "EuroSchool Whitefield"
      }
    },
    {
      "type": "way",
      "id": 1144281250,
      "center": {
        "lat": 12.9826593,
        "lon": 77.708601
      },
      "tags": {
        "amenity": "fuel",
        "brand": "TotalEnergies",
        "brand:wikidata": "Q154037",
        "brand_1": "Totalgaz",
        "compressed_air": "yes",
        "fuel:lpg": "yes",
        "landuse": "commercial",
        "name": "Esskay Totalgaz"
      }
    },
    {
      "type": "way",
      "id": 1147692545,
      "center": {
        "lat": 12.9771653,
        "lon": 77.7265033
      },
      "tags": {
        "amenity": "bus_station",
        "bus": "yes",
        "check_date": "2025-06-09",
        "name": "Vydehi TTMC",
        "name:kn": "ವೈದೇಹಿ",
        "network": "BMTC",
        "official_name": "Whitefield TTMC",
        "operator": "BMTC",
        "public_transport": "station"
      }
    },
    {
      "type": "way",
      "id": 1150511285,
      "center": {
        "lat": 12.9725414,
        "lon": 77.7078105
      },
      "tags": {
        "access": "customers",
        "amenity": "charging_station",
        "brand": "Shell",
        "capacity": "4",
        "fee": "no",
        "operator": "Shell",
        "operator:wikidata": "Q110716465"
      }
    },
    {
      "type": "way",
      "id": 1150511286,
      "center": {
        "lat": 12.9732724,
        "lon": 77.7088218
      },
      "tags": {
        "name": "Advaith Hyundai",
        "name:kn": "ಅದ್ವೈತ ಹ್ಯುಂಡೈ",
        "shop": "car"
      }
    },
    {
      "type": "way",
      "id": 1151912873,
      "center": {
        "lat": 12.9805799,
        "lon": 77.7169775
      },
      "tags": {
        "access": "private",
        "amenity": "parking",
        "building": "parking",
        "building:levels": "12",
        "parking": "multi-storey"
      }
    },
    {
      "type": "way",
      "id": 1152486232,
      "center": {
        "lat": 12.9782611,
        "lon": 77.7159242
      },
      "tags": {
        "leisure": "pitch",
        "sport": "tennis"
      }
    },
    {
      "type": "way",
      "id": 1157146292,
      "center": {
        "lat": 12.9768902,
        "lon": 77.7258147
      },
      "tags": {
        "amenity": "parking"
      }
    },
    {
      "type": "way",
      "id": 1181138335,
      "center": {
        "lat": 12.9712874,
        "lon": 77.7142406
      },
      "tags": {
        "access": "private",
        "leisure": "swimming_pool",
        "location": "outdoor",
        "swimming_pool": "outdoor"
      }
    },
    {
      "type": "way",
      "id": 1190294271,
      "center": {
        "lat": 12.9862719,
        "lon": 77.7067118
      },
      "tags": {
        "access": "private",
        "leisure": "pitch",
        "sport": "basketball"
      }
    },
    {
      "type": "way",
      "id": 1203990539,
      "center": {
        "lat": 12.9709011,
        "lon": 77.7074965
      },
      "tags": {
        "leisure": "garden"
      }
    },
    {
      "type": "way",
      "id": 1214864411,
      "center": {
        "lat": 12.9645339,
        "lon": 77.7120294
      },
      "tags": {
        "amenity": "training",
        "building": "yes",
        "training": "art"
      }
    },
    {
      "type": "way",
      "id": 1216840023,
      "center": {
        "lat": 12.9736304,
        "lon": 77.7093964
      },
      "tags": {
        "access": "private",
        "leisure": "pitch",
        "sport": "futsal"
      }
    },
    {
      "type": "way",
      "id": 1216840033,
      "center": {
        "lat": 12.9790305,
        "lon": 77.7056774
      },
      "tags": {
        "brand": "Škoda",
        "brand:wikidata": "Q29637",
        "landuse": "industrial",
        "name": "Raj Skoda Repair",
        "shop": "car_repair"
      }
    },
    {
      "type": "way",
      "id": 1216840045,
      "center": {
        "lat": 12.9741674,
        "lon": 77.7084603
      },
      "tags": {
        "amenity": "parking",
        "parking": "surface"
      }
    },
    {
      "type": "way",
      "id": 1216840046,
      "center": {
        "lat": 12.9735199,
        "lon": 77.7094525
      },
      "tags": {
        "access": "private",
        "leisure": "pitch",
        "sport": "tennis"
      }
    },
    {
      "type": "way",
      "id": 1219331350,
      "center": {
        "lat": 12.9833896,
        "lon": 77.7084842
      },
      "tags": {
        "access": "private",
        "amenity": "parking",
        "covered": "yes"
      }
    },
    {
      "type": "way",
      "id": 1222938389,
      "center": {
        "lat": 12.9792619,
        "lon": 77.7160208
      },
      "tags": {
        "access": "private",
        "leisure": "pitch",
        "sport": "basketball"
      }
    },
    {
      "type": "way",
      "id": 1225162207,
      "center": {
        "lat": 12.9806621,
        "lon": 77.7106158
      },
      "tags": {
        "access": "private",
        "amenity": "parking",
        "parking": "street_side"
      }
    },
    {
      "type": "way",
      "id": 1232319856,
      "center": {
        "lat": 12.9812408,
        "lon": 77.708747
      },
      "tags": {
        "indoor": "room",
        "layer": "1",
        "payment:cash": "yes",
        "payment:upi": "yes",
        "room": "shop",
        "shop": "ticket",
        "tickets:public_transport": "yes"
      }
    },
    {
      "type": "way",
      "id": 1233514056,
      "center": {
        "lat": 12.9811241,
        "lon": 77.7142288
      },
      "tags": {
        "access": "customers",
        "amenity": "parking",
        "parking": "surface"
      }
    },
    {
      "type": "way",
      "id": 1233514058,
      "center": {
        "lat": 12.9805932,
        "lon": 77.713661
      },
      "tags": {
        "leisure": "pitch",
        "sport": "cricket_nets"
      }
    },
    {
      "type": "way",
      "id": 1233514062,
      "center": {
        "lat": 12.9825763,
        "lon": 77.7123968
      },
      "tags": {
        "leisure": "playground"
      }
    },
    {
      "type": "way",
      "id": 1233518880,
      "center": {
        "lat": 12.980172,
        "lon": 77.7133958
      },
      "tags": {
        "amenity": "kindergarten",
        "max_age": "6",
        "min_age": "2",
        "name": "Kinfolk",
        "phone": "+91 72042 34333",
        "website": "https://kinfolkedu.com/"
      }
    },
    {
      "type": "way",
      "id": 1233518883,
      "center": {
        "lat": 12.9783664,
        "lon": 77.7119258
      },
      "tags": {
        "access": "private",
        "amenity": "parking",
        "name": "RMZ NXT Visitor's Parking"
      }
    },
    {
      "type": "way",
      "id": 1233518894,
      "center": {
        "lat": 12.9800139,
        "lon": 77.7140093
      },
      "tags": {
        "access": "private",
        "amenity": "parking",
        "parking": "surface"
      }
    },
    {
      "type": "way",
      "id": 1233523922,
      "center": {
        "lat": 12.9809709,
        "lon": 77.7151477
      },
      "tags": {
        "access": "private",
        "amenity": "parking",
        "parking": "street_side"
      }
    },
    {
      "type": "way",
      "id": 1233523928,
      "center": {
        "lat": 12.9806883,
        "lon": 77.7165816
      },
      "tags": {
        "access": "private",
        "amenity": "parking",
        "parking": "street_side"
      }
    },
    {
      "type": "way",
      "id": 1235735234,
      "center": {
        "lat": 12.9860095,
        "lon": 77.7011882
      },
      "tags": {
        "access": "permissive",
        "amenity": "parking",
        "parking": "surface"
      }
    },
    {
      "type": "way",
      "id": 1237037089,
      "center": {
        "lat": 12.9696805,
        "lon": 77.7088349
      },
      "tags": {
        "access": "private",
        "leisure": "pitch",
        "sport": "basketball;soccer;volleyball",
        "surface": "artificial_turf"
      }
    },
    {
      "type": "way",
      "id": 1237037092,
      "center": {
        "lat": 12.9715796,
        "lon": 77.7080695
      },
      "tags": {
        "amenity": "shelter",
        "bench": "yes",
        "building": "yes",
        "shelter_type": "picnic_shelter"
      }
    },
    {
      "type": "way",
      "id": 1237157996,
      "center": {
        "lat": 12.970999,
        "lon": 77.7075253
      },
      "tags": {
        "leisure": "garden"
      }
    },
    {
      "type": "way",
      "id": 1238759200,
      "center": {
        "lat": 12.9846031,
        "lon": 77.7053455
      },
      "tags": {
        "access": "private",
        "leisure": "swimming_pool"
      }
    },
    {
      "type": "way",
      "id": 1239913133,
      "center": {
        "lat": 12.9712318,
        "lon": 77.7108815
      },
      "tags": {
        "leisure": "garden"
      }
    },
    {
      "type": "way",
      "id": 1239913135,
      "center": {
        "lat": 12.9713556,
        "lon": 77.7109479
      },
      "tags": {
        "leisure": "garden"
      }
    },
    {
      "type": "way",
      "id": 1241434301,
      "center": {
        "lat": 12.978961,
        "lon": 77.7242948
      },
      "tags": {
        "access": "private",
        "amenity": "parking",
        "parking": "surface",
        "surface": "concrete"
      }
    },
    {
      "type": "way",
      "id": 1241956511,
      "center": {
        "lat": 12.9708477,
        "lon": 77.7087308
      },
      "tags": {
        "leisure": "bleachers"
      }
    },
    {
      "type": "way",
      "id": 1241956512,
      "center": {
        "lat": 12.9711723,
        "lon": 77.7095527
      },
      "tags": {
        "leisure": "bleachers"
      }
    },
    {
      "type": "way",
      "id": 1252509972,
      "center": {
        "lat": 12.9875226,
        "lon": 77.7115161
      },
      "tags": {
        "access": "private",
        "hoops": "1",
        "leisure": "pitch",
        "lit": "yes",
        "name": "Godrej Air Basketball Half Court",
        "sport": "basketball",
        "surface": "artificial_turf"
      }
    },
    {
      "type": "way",
      "id": 1252510394,
      "center": {
        "lat": 12.987768,
        "lon": 77.7115184
      },
      "tags": {
        "access": "private",
        "leisure": "pitch",
        "name": "Outdoor Chess Board at Godrej Air",
        "sport": "chess",
        "surface": "paved"
      }
    },
    {
      "type": "way",
      "id": 1252516688,
      "center": {
        "lat": 12.9877746,
        "lon": 77.7121169
      },
      "tags": {
        "amenity": "shelter",
        "bench": "yes",
        "building": "roof",
        "lit": "yes",
        "shelter_type": "gazebo"
      }
    },
    {
      "type": "way",
      "id": 1252518541,
      "center": {
        "lat": 12.9860166,
        "lon": 77.7116673
      },
      "tags": {
        "amenity": "theatre",
        "name": "Godrej Air Amphitheatre",
        "theatre:type": "amphi"
      }
    },
    {
      "type": "way",
      "id": 1270575630,
      "center": {
        "lat": 12.9771746,
        "lon": 77.7100683
      },
      "tags": {
        "amenity": "parking",
        "parking": "street_side"
      }
    },
    {
      "type": "way",
      "id": 1272139275,
      "center": {
        "lat": 12.9762552,
        "lon": 77.7173035
      },
      "tags": {
        "access": "customers",
        "amenity": "parking",
        "parking": "surface"
      }
    },
    {
      "type": "way",
      "id": 1278772113,
      "center": {
        "lat": 12.985689,
        "lon": 77.7028117
      },
      "tags": {
        "access": "permissive",
        "amenity": "parking",
        "parking": "surface"
      }
    },
    {
      "type": "way",
      "id": 1278772124,
      "center": {
        "lat": 12.9868126,
        "lon": 77.6981663
      },
      "tags": {
        "alt_name": "Yeklgata Lake Park",
        "leisure": "park",
        "name": "Goshala Lake Park"
      }
    },
    {
      "type": "way",
      "id": 1294964815,
      "center": {
        "lat": 12.9775445,
        "lon": 77.7156192
      },
      "tags": {
        "access": "customers",
        "amenity": "toilets",
        "indoor": "room",
        "level": "1",
        "room": "toilet",
        "wheelchair": "yes"
      }
    },
    {
      "type": "way",
      "id": 1302227127,
      "center": {
        "lat": 12.9857712,
        "lon": 77.7106084
      },
      "tags": {
        "access": "private",
        "leisure": "swimming_pool"
      }
    },
    {
      "type": "way",
      "id": 1302227128,
      "center": {
        "lat": 12.9863139,
        "lon": 77.7106302
      },
      "tags": {
        "access": "private",
        "leisure": "swimming_pool"
      }
    },
    {
      "type": "way",
      "id": 1302227131,
      "center": {
        "lat": 12.9843373,
        "lon": 77.7125499
      },
      "tags": {
        "access": "private",
        "leisure": "swimming_pool"
      }
    },
    {
      "type": "way",
      "id": 1302227132,
      "center": {
        "lat": 12.9847366,
        "lon": 77.7129243
      },
      "tags": {
        "access": "private",
        "leisure": "pitch",
        "sport": "tennis"
      }
    },
    {
      "type": "way",
      "id": 1314299073,
      "center": {
        "lat": 12.9713471,
        "lon": 77.7052966
      },
      "tags": {
        "access": "private",
        "leisure": "pitch",
        "sport": "basketball"
      }
    },
    {
      "type": "way",
      "id": 1314299074,
      "center": {
        "lat": 12.9713936,
        "lon": 77.704972
      },
      "tags": {
        "leisure": "pitch"
      }
    },
    {
      "type": "way",
      "id": 1319576360,
      "center": {
        "lat": 12.9714721,
        "lon": 77.7044284
      },
      "tags": {
        "amenity": "school"
      }
    },
    {
      "type": "way",
      "id": 1343936609,
      "center": {
        "lat": 12.9685936,
        "lon": 77.7118346
      },
      "tags": {
        "access": "private",
        "leisure": "swimming_pool",
        "location": "outdoor",
        "swimming_pool": "personal"
      }
    },
    {
      "type": "way",
      "id": 1382948058,
      "center": {
        "lat": 12.979474,
        "lon": 77.7101648
      },
      "tags": {
        "access": "customers",
        "leisure": "swimming_pool",
        "location": "roof"
      }
    },
    {
      "type": "way",
      "id": 1427467748,
      "center": {
        "lat": 12.985749,
        "lon": 77.7108949
      },
      "tags": {
        "access": "private",
        "leisure": "playground"
      }
    },
    {
      "type": "way",
      "id": 1427467749,
      "center": {
        "lat": 12.9845744,
        "lon": 77.7126131
      },
      "tags": {
        "access": "private",
        "backrest": "yes",
        "leisure": "bleachers"
      }
    },
    {
      "type": "way",
      "id": 1427467750,
      "center": {
        "lat": 12.9845525,
        "lon": 77.7126436
      },
      "tags": {
        "access": "private",
        "amenity": "theatre",
        "theatre:type": "amphi"
      }
    },
    {
      "type": "way",
      "id": 1427467751,
      "center": {
        "lat": 12.9845855,
        "lon": 77.7128005
      },
      "tags": {
        "access": "private",
        "leisure": "playground"
      }
    },
    {
      "type": "way",
      "id": 1427467838,
      "center": {
        "lat": 12.9872872,
        "lon": 77.710279
      },
      "tags": {
        "access": "private",
        "leisure": "pitch"
      }
    },
    {
      "type": "way",
      "id": 1427467845,
      "center": {
        "lat": 12.9872884,
        "lon": 77.7107264
      },
      "tags": {
        "access": "private",
        "amenity": "theatre",
        "theatre:type": "amphi"
      }
    },
    {
      "type": "way",
      "id": 1427467846,
      "center": {
        "lat": 12.9876788,
        "lon": 77.7106179
      },
      "tags": {
        "access": "private",
        "leisure": "pitch",
        "sport": "tennis"
      }
    },
    {
      "type": "way",
      "id": 1427467847,
      "center": {
        "lat": 12.9879174,
        "lon": 77.7106214
      },
      "tags": {
        "access": "private",
        "leisure": "pitch",
        "sport": "basketball"
      }
    },
    {
      "type": "way",
      "id": 1427467848,
      "center": {
        "lat": 12.9863218,
        "lon": 77.7102339
      },
      "tags": {
        "access": "private",
        "leisure": "playground"
      }
    },
    {
      "type": "way",
      "id": 1430787635,
      "center": {
        "lat": 12.9838079,
        "lon": 77.7095599
      },
      "tags": {
        "access": "private",
        "leisure": "swimming_pool"
      }
    },
    {
      "type": "way",
      "id": 1430787636,
      "center": {
        "lat": 12.9835844,
        "lon": 77.7093939
      },
      "tags": {
        "access": "private",
        "leisure": "playground"
      }
    },
    {
      "type": "way",
      "id": 1430787639,
      "center": {
        "lat": 12.9838793,
        "lon": 77.7103723
      },
      "tags": {
        "access": "private",
        "amenity": "parking",
        "parking": "surface"
      }
    },
    {
      "type": "way",
      "id": 1430787672,
      "center": {
        "lat": 12.9820481,
        "lon": 77.7101257
      },
      "tags": {
        "leisure": "pitch",
        "sport": "cricket"
      }
    },
    {
      "type": "way",
      "id": 1430787675,
      "center": {
        "lat": 12.9798538,
        "lon": 77.7113833
      },
      "tags": {
        "access": "private",
        "leisure": "playground"
      }
    },
    {
      "type": "way",
      "id": 1430787676,
      "center": {
        "lat": 12.980388,
        "lon": 77.7116802
      },
      "tags": {
        "hoops": "1",
        "leisure": "pitch",
        "sport": "basketball"
      }
    },
    {
      "type": "way",
      "id": 1430787677,
      "center": {
        "lat": 12.9805187,
        "lon": 77.7116444
      },
      "tags": {
        "access": "private",
        "leisure": "playground"
      }
    },
    {
      "type": "way",
      "id": 1430787678,
      "center": {
        "lat": 12.9806666,
        "lon": 77.711652
      },
      "tags": {
        "access": "private",
        "amenity": "parking",
        "parking": "surface"
      }
    },
    {
      "type": "way",
      "id": 1430787679,
      "center": {
        "lat": 12.981657,
        "lon": 77.7113548
      },
      "tags": {
        "access": "private",
        "leisure": "playground"
      }
    },
    {
      "type": "way",
      "id": 1430787680,
      "center": {
        "lat": 12.9817573,
        "lon": 77.710527
      },
      "tags": {
        "access": "private",
        "leisure": "playground"
      }
    },
    {
      "type": "way",
      "id": 1430787681,
      "center": {
        "lat": 12.9820333,
        "lon": 77.7113596
      },
      "tags": {
        "access": "private",
        "leisure": "pitch",
        "sport": "volleyball"
      }
    },
    {
      "type": "way",
      "id": 1430787682,
      "center": {
        "lat": 12.9823094,
        "lon": 77.7104389
      },
      "tags": {
        "access": "private",
        "leisure": "playground"
      }
    },
    {
      "type": "way",
      "id": 1430787683,
      "center": {
        "lat": 12.9822623,
        "lon": 77.7101311
      },
      "tags": {
        "access": "private",
        "leisure": "playground"
      }
    },
    {
      "type": "way",
      "id": 1432192572,
      "center": {
        "lat": 12.9736283,
        "lon": 77.714659
      },
      "tags": {
        "access": "private",
        "leisure": "pitch",
        "sport": "basketball"
      }
    },
    {
      "type": "way",
      "id": 1432192573,
      "center": {
        "lat": 12.9736979,
        "lon": 77.7145312
      },
      "tags": {
        "access": "private",
        "leisure": "playground"
      }
    },
    {
      "type": "way",
      "id": 1432192574,
      "center": {
        "lat": 12.9718563,
        "lon": 77.7132199
      },
      "tags": {
        "access": "private",
        "leisure": "pitch",
        "sport": "chess"
      }
    },
    {
      "type": "way",
      "id": 1432192575,
      "center": {
        "lat": 12.9716149,
        "lon": 77.7135217
      },
      "tags": {
        "access": "private",
        "leisure": "playground"
      }
    },
    {
      "type": "way",
      "id": 1432192577,
      "center": {
        "lat": 12.9716745,
        "lon": 77.7147636
      },
      "tags": {
        "leisure": "bleachers"
      }
    },
    {
      "type": "way",
      "id": 1432192578,
      "center": {
        "lat": 12.9719582,
        "lon": 77.7144834
      },
      "tags": {
        "access": "private",
        "leisure": "playground"
      }
    },
    {
      "type": "way",
      "id": 1432192579,
      "center": {
        "lat": 12.9721532,
        "lon": 77.7144846
      },
      "tags": {
        "access": "private",
        "leisure": "pitch"
      }
    },
    {
      "type": "way",
      "id": 1432192581,
      "center": {
        "lat": 12.9726124,
        "lon": 77.7068577
      },
      "tags": {
        "access": "private",
        "leisure": "swimming_pool"
      }
    },
    {
      "type": "way",
      "id": 1432192582,
      "center": {
        "lat": 12.97216,
        "lon": 77.7068838
      },
      "tags": {
        "access": "private",
        "leisure": "swimming_pool"
      }
    },
    {
      "type": "way",
      "id": 1432192591,
      "center": {
        "lat": 12.9708376,
        "lon": 77.7052489
      },
      "tags": {
        "access": "private",
        "leisure": "playground"
      }
    },
    {
      "type": "way",
      "id": 1432357805,
      "center": {
        "lat": 12.9694672,
        "lon": 77.7159467
      },
      "tags": {
        "access": "private",
        "leisure": "playground"
      }
    }
  ]
}