{
  "area_name": "Bharathi Nagar",
  "osm_id": 9977355585,
  "osm_type": "node",
  "place_type": "neighbourhood",
  "amenity_count": 18,
  "amenities": [
    {
      "type": "node",
      "id": 1464784842,
      "lat": 13.1463768,
      "lon": 77.6181865,
      "tags": {
        "amenity": "cafe",
        "name": "Cafe Coffee Day",
        "name:kn": "ಕಫೆ ಕಾಫಿ ಡೇ"
      }
    },
    {
      "type": "node",
      "id": 1464784875,
      "lat": 13.1458876,
      "lon": 77.6180972,
      "tags": {
        "amenity": "bar",
        "name": "Bhagini",
        "name:kn": "ಭಗಿನಿ"
      }
    },
    {
      "type": "node",
      "id": 11889550062,
      "lat": 13.1433356,
      "lon": 77.618545,
      "tags": {
        "amenity": "place_of_worship",
        "religion": "hindu"
      }
    },
    {
      "type": "node",
      "id": 13155761023,
      "lat": 13.1402313,
      "lon": 77.6180424,
      "tags": {
        "check_date": "2025-09-19",
        "name": "Mahindra",
        "shop": "car"
      }
    },
    {
      "type": "way",
      "id": 720468316,
      "center": {
        "lat": 13.145195,
        "lon": 77.6168442
      },
      "tags": {
        "addr:street": "HUNASAMARANHALLI",
        "building": "yes",
        "name": "Medicate",
        "shop": "medical_supply"
      }
    },
    {
      "type": "way",
      "id": 720469069,
      "center": {
        "lat": 13.144381,
        "lon": 77.6179891
      },
      "tags": {
        "addr:street": "HUNASAMARANHALLI",
        "building": "yes",
        "leisure": "fitness_centre",
        "name": "Fitness Den"
      }
    },
    {
      "type": "way",
      "id": 1068394015,
      "center": {
        "lat": 13.140549,
        "lon": 77.6180663
      },
      "tags": {
        "amenity": "fuel",
        "brand": "Indian Oil",
        "brand:wikidata": "Q1289348",
        "check_date": "2025-03-02",
        "compressed_air": "yes",
        "name": "Indian Oil"
      }
    },
    {
      "type": "way",
      "id": 1116926302,
      "center": {
        "lat": 13.142885,
        "lon": 77.6161887
      },
      "tags": {
        "landuse": "commercial",
        "name": "Spinny Park",
        "second_hand": "only",
        "shop": "car"
      }
    },
    {
      "type": "way",
      "id": 1272839479,
      "center": {
        "lat": 13.1475158,
        "lon": 77.6190606
      },
      "tags": {
        "leisure": "park"
      }
    },
    {
      "type": "way",
      "id": 1272839480,
      "center": {
        "lat": 13.1470158,
        "lon": 77.6186368
      },
      "tags": {
        "access": "private",
        "amenity": "parking",
        "parking": "surface"
      }
    },
    {
      "type": "way",
      "id": 1272839482,
      "center": {
        "lat": 13.1482008,
        "lon": 77.6191297
      },
      "tags": {
        "leisure": "park"
      }
    },
    {
      "type": "way",
      "id": 1272839495,
      "center": {
        "lat": 13.1451013,
        "lon": 77.6172186
      },
      "tags": {
        "amenity": "school"
      }
    },
    {
      "type": "way",
      "id": 1272839496,
      "center": {
        "lat": 13.1314249,
        "lon": 77.6218961
      },
      "tags": {
        "leisure": "pitch",
        "sport": "basketball"
      }
    },
    {
      "type": "way",
      "id": 1272839497,
      "center": {
        "lat": 13.1313876,
        "lon": 77.6206452
      },
      "tags": {
        "leisure": "pitch",
        "sport": "tennis"
      }
    },
    {
      "type": "way",
      "id": 1272839498,
      "center": {
        "lat": 13.1319714,
        "lon": 77.6206894
      },
      "tags": {
        "leisure": "pitch",
        "sport": "basketball"
      }
    },
    {
      "type": "way",
      "id": 1272839499,
      "center": {
        "lat": 13.1319916,
        "lon": 77.6203443
      },
      "tags": {
        "leisure": "pitch",
        "sport": "basketball"
      }
    },
    {
      "type": "way",
      "id": 1280104584,
      "center": {
        "lat": 13.14367,
        "lon": 77.6162262
      },
      "tags": {
        "amenity": "college",
        "name": "SJPU PU College"
      }
    },
    {
      "type": "way",
      "id": 1280939856,
      "center": {
        "lat": 13.1402398,
        "lon": 77.6157475
      },
      "tags": {
        "leisure": "park"
      }
    }
  ]
}