{
  "area_name": "Bhattarahalli",
  "osm_id": 2126383133,
  "osm_type": "node",
  "place_type": "neighbourhood",
  "amenity_count": 25,
  "amenities": [
    {
      "type": "node",
      "id": 1364096477,
      "lat": 13.0263921,
      "lon": 77.7213783,
      "tags": {
        "amenity": "fuel",
        "brand": "Bharat Petroleum",
        "brand:wikidata": "Q854826",
        "name": "Bharat Petroleum"
      }
    },
    {
      "type": "node",
      "id": 1468617486,
      "lat": 13.0200035,
      "lon": 77.7088068,
      "tags": {
        "amenity": "restaurant",
        "cuisine": "indian",
        "name": "Bhagini Residency",
        "name:kn": "ಭಾಗಿನಿ ರೆಸಿಡೆನ್ಸಿ"
      }
    },
    {
      "type": "node",
      "id": 1725212205,
      "lat": 13.020102,
      "lon": 77.7090994,
      "tags": {
        "amenity": "atm",
        "brand": "Bank of India",
        "brand:wikidata": "Q2004439",
        "name": "Bank of India",
        "operator": "Bank of India",
        "operator:wikidata": "Q2004439"
      }
    },
    {
      "type": "node",
      "id": 1725212210,
      "lat": 13.0229634,
      "lon": 77.7138587,
      "tags": {
        "amenity": "bar",
        "name": "Bruice Bar & Restaurant"
      }
    },
    {
      "type": "node",
      "id": 1725212213,
      "lat": 13.0233955,
      "lon": 77.7145913,
      "tags": {
        "amenity": "bar",
        "name": "Manu Bar & Restaurant"
      }
    },
    {
      "type": "node",
      "id": 4489782307,
      "lat": 13.020453,
      "lon": 77.7090922,
      "tags": {
        "addr:city": "bangalore",
        "addr:housenumber": "#29/32",
        "addr:postcode": "560049",
        "addr:street": "Venkatadri Complex, Above Cafe Coffee Day, Battarahalli, Old Madras Road, Bhadrappa Layout, Sannatammanahalli, Battarahalli",
        "leisure": "sports_centre",
        "level": "3",
        "name": "Vigour Fitness",
        "opening_hours": "06:00-22:00",
        "phone": "9035002761",
        "sport": "gymnastics"
      }
    },
    {
      "type": "node",
      "id": 4489830104,
      "lat": 13.0201214,
      "lon": 77.7091912,
      "tags": {
        "addr:city": "Bengaluru,",
        "addr:housenumber": "#29/32",
        "addr:postcode": "560049",
        "addr:street": ", 3rd Floor, Venkatadri Complex, Above Cafe Coffee Day, Battarahalli, Old Madras Road, Sannatammanahalli, Battarahalli",
        "leisure": "sports_centre",
        "name": "Vigour Fitness",
        "opening_hours": "6:00-10:00",
        "phone": "090350 02761"
      }
    },
    {
      "type": "node",
      "id": 4689872196,
      "lat": 13.0215807,
      "lon": 77.7128053,
      "tags": {
        "addr:district": "Bengaluru Urban",
        "addr:full": "Road , Casross Opposite Tc Palya Bus Store Old Madars Road",
        "addr:postcode": "560049",
        "addr:state": "Karnataka",
        "amenity": "hospital",
        "name": "Sathya Sai Lake Side Ortho Hospital",
        "name:en": "Satya Sai",
        "source": "OpenGovernmentData"
      }
    },
    {
      "type": "node",
      "id": 6849360686,
      "lat": 13.0241609,
      "lon": 77.7063349,
      "tags": {
        "amenity": "restaurant",
        "name": "Tibet Kitchen"
      }
    },
    {
      "type": "node",
      "id": 8368056517,
      "lat": 13.0234795,
      "lon": 77.7060652,
      "tags": {
        "addr:housenumber": "9-10",
        "addr:postcode": "560049",
        "addr:street": "Kethiganur Main Road",
        "name": "Akshay Bakery",
        "name:en": "Akshay Bakery & Sweets",
        "opening_hours": "Mo-Su 07:00-22:00",
        "phone": "098454 51522",
        "shop": "bakery"
      }
    },
    {
      "type": "node",
      "id": 13013978944,
      "lat": 13.0286575,
      "lon": 77.7078921,
      "tags": {
        "amenity": "restaurant",
        "name": "The Indian Saga"
      }
    },
    {
      "type": "node",
      "id": 13183384735,
      "lat": 13.0189286,
      "lon": 77.7088958,
      "tags": {
        "access": "private",
        "amenity": "parking_entrance"
      }
    },
    {
      "type": "node",
      "id": 13183384737,
      "lat": 13.0188653,
      "lon": 77.7089194,
      "tags": {
        "access": "private",
        "amenity": "parking_entrance"
      }
    },
    {
      "type": "way",
      "id": 137589946,
      "center": {
        "lat": 13.019398,
        "lon": 77.7073728
      },
      "tags": {
        "amenity": "restaurant",
        "name": "Purvi Multi-cuisine"
      }
    },
    {
      "type": "way",
      "id": 160464124,
      "center": {
        "lat": 13.019561,
        "lon": 77.7079007
      },
      "tags": {
        "amenity": "fuel",
        "brand": "Indian Oil",
        "brand:wikidata": "Q1289348",
        "building": "shelter",
        "name": "Indian Oil",
        "name:kn": "ಇಂಡಿಯನ್ ಆಯಿಲ್"
      }
    },
    {
      "type": "way",
      "id": 239759555,
      "center": {
        "lat": 13.0249583,
        "lon": 77.7151415
      },
      "tags": {
        "addr:city": "K.R Puram",
        "addr:street": "Old Madras Road",
        "amenity": "college",
        "name": "SJES College"
      }
    },
    {
      "type": "way",
      "id": 347029097,
      "center": {
        "lat": 13.0198187,
        "lon": 77.7097234
      },
      "tags": {
        "amenity": "restaurant",
        "brand": "Adyar Ananda Bhavan",
        "brand:wikidata": "Q15178238",
        "building": "yes",
        "name": "Adyar Ananda Bhavan",
        "name:kn": "ಆದ್ಯಾರ್ ಆನಂದ ಭವನ",
        "shop": "confectionery"
      }
    },
    {
      "type": "way",
      "id": 1196104385,
      "center": {
        "lat": 13.025362,
        "lon": 77.706808
      },
      "tags": {
        "amenity": "college",
        "name": "Garden City University"
      }
    },
    {
      "type": "way",
      "id": 1241563220,
      "center": {
        "lat": 13.020169,
        "lon": 77.7155508
      },
      "tags": {
        "amenity": "school",
        "name": "Blossom International School"
      }
    },
    {
      "type": "way",
      "id": 1339756838,
      "center": {
        "lat": 13.0231353,
        "lon": 77.7089239
      },
      "tags": {
        "leisure": "park"
      }
    },
    {
      "type": "way",
      "id": 1421738900,
      "center": {
        "lat": 13.0268301,
        "lon": 77.7056797
      },
      "tags": {
        "access": "private",
        "leisure": "swimming_pool"
      }
    },
    {
      "type": "way",
      "id": 1421738901,
      "center": {
        "lat": 13.02657,
        "lon": 77.7056876
      },
      "tags": {
        "leisure": "garden"
      }
    },
    {
      "type": "way",
      "id": 1421739089,
      "center": {
        "lat": 13.028984,
        "lon": 77.7049604
      },
      "tags": {
        "amenity": "school"
      }
    },
    {
      "type": "way",
      "id": 1421739102,
      "center": {
        "lat": 13.0265005,
        "lon": 77.7070029
      },
      "tags": {
        "leisure": "sports_centre"
      }
    },
    {
      "type": "way",
      "id": 1433581994,
      "center": {
        "lat": 13.0222082,
        "lon": 77.7142207
      },
      "tags": {
        "amenity": "fuel"
      }
    }
  ]
}