{
  "area_name": "BHCS Layout",
  "osm_id": 12629973368,
  "osm_type": "node",
  "place_type": "neighbourhood",
  "amenity_count": 45,
  "amenities": [
    {
      "type": "node",
      "id": 1463585629,
      "lat": 12.9100406,
      "lon": 77.5281785,
      "tags": {
        "leisure": "swimming_pool"
      }
    },
    {
      "type": "node",
      "id": 1471928775,
      "lat": 12.9094182,
      "lon": 77.5274725,
      "tags": {
        "amenity": "pub",
        "name": "Sun Pub"
      }
    },
    {
      "type": "node",
      "id": 1644374632,
      "lat": 12.9046486,
      "lon": 77.5297658,
      "tags": {
        "amenity": "place_of_worship",
        "denomination": "shaktism",
        "name": "Patalamma Temple",
        "name:kn": "ಪಟಾಲಮ್ಮ ದೇವಸ್ಥಾನ",
        "religion": "hindu",
        "source": "Local knowledge"
      }
    },
    {
      "type": "node",
      "id": 2105729079,
      "lat": 12.9033155,
      "lon": 77.5344794,
      "tags": {
        "amenity": "bench",
        "backrest": "no",
        "colour": "gray",
        "material": "stone",
        "seats": "3"
      }
    },
    {
      "type": "node",
      "id": 2105729080,
      "lat": 12.9033373,
      "lon": 77.5345629,
      "tags": {
        "amenity": "bench",
        "backrest": "no",
        "colour": "gray",
        "material": "stone",
        "seats": "10"
      }
    },
    {
      "type": "node",
      "id": 2105729083,
      "lat": 12.9034474,
      "lon": 77.534431,
      "tags": {
        "amenity": "bench",
        "backrest": "no",
        "colour": "gray",
        "material": "stone",
        "seats": "3"
      }
    },
    {
      "type": "node",
      "id": 4210670196,
      "lat": 12.9061516,
      "lon": 77.5209983,
      "tags": {
        "amenity": "restaurant",
        "cuisine": "regional",
        "name": "OSR Andhra Spice"
      }
    },
    {
      "type": "node",
      "id": 4545856993,
      "lat": 12.9070254,
      "lon": 77.5331667,
      "tags": {
        "addr:street": "Dr. Vishnuvardhan Road",
        "amenity": "restaurant",
        "cuisine": "chinese;fish_and_chips;chicken;indian",
        "diet:vegetarian": "yes",
        "name": "Rotti Mane Dhabha",
        "name:en": "Rotti Mane Dhabha"
      }
    },
    {
      "type": "node",
      "id": 6418742985,
      "lat": 12.9048912,
      "lon": 77.5280275,
      "tags": {
        "name": "City Mart",
        "shop": "department_store"
      }
    },
    {
      "type": "node",
      "id": 11885861242,
      "lat": 12.9038928,
      "lon": 77.5307716,
      "tags": {
        "addr:city": "Bengaluru",
        "addr:housenumber": "469",
        "addr:postcode": "560061",
        "addr:street": "Rajarajeshwari CMC, Sri BL Lekkegowda Nagara The Bharath Housing Co Operative, Society Ltd, Uttarahalli Hobli",
        "air_conditioning": "yes",
        "amenity": "restaurant",
        "contact:facebook": "https://www.facebook.com/Restaurant.Paakashala1/",
        "cuisine": "north_indian;south_indian;chinese",
        "delivery": "yes",
        "diet:vegetarian": "yes",
        "image": "https://paakashala.com/360/HeritageUttarahalli/",
        "name": "Paakashala Heritage",
        "opening_hours": "Mo-Su 06:30-22:30",
        "phone": "08867302229",
        "website": "https://paakashala.com/",
        "website:menu": "https://paakashala.com/paakashala_full_menu.pdf"
      }
    },
    {
      "type": "node",
      "id": 11968173027,
      "lat": 12.8982949,
      "lon": 77.5222983,
      "tags": {
        "addr:city": "Bengaluru",
        "addr:district": "Bengaluru",
        "addr:postcode": "560098",
        "addr:street": "Channasandra",
        "name": "Cake Ninja",
        "opening_hours": "Mo-Su 09:00-21:00",
        "payment:cash": "yes",
        "payment:contactless": "yes",
        "payment:google_pay": "yes",
        "phone": "+91-8867259465",
        "shop": "bakery"
      }
    },
    {
      "type": "node",
      "id": 12051383426,
      "lat": 12.9092956,
      "lon": 77.5275152,
      "tags": {
        "amenity": "cafe",
        "check_date": "2024-07-13",
        "name": "Secrets Of Bengaluru",
        "payment:cash": "yes",
        "payment:credit_cards": "yes",
        "payment:debit_cards": "yes",
        "wheelchair": "no"
      }
    },
    {
      "type": "node",
      "id": 12300982646,
      "lat": 12.8963244,
      "lon": 77.5250177,
      "tags": {
        "amenity": "shelter",
        "shelter_type": "gazebo"
      }
    },
    {
      "type": "node",
      "id": 12300982647,
      "lat": 12.8957727,
      "lon": 77.5254951,
      "tags": {
        "amenity": "shelter",
        "shelter_type": "gazebo"
      }
    },
    {
      "type": "way",
      "id": 202675799,
      "center": {
        "lat": 12.9018662,
        "lon": 77.5326071
      },
      "tags": {
        "leisure": "park"
      }
    },
    {
      "type": "way",
      "id": 204638928,
      "center": {
        "lat": 12.9022437,
        "lon": 77.5194137
      },
      "tags": {
        "amenity": "food_court",
        "building": "yes",
        "internet_access": "no",
        "name": "Canteen",
        "opening_hours": "Mo-Sat 08:00 to 16:00"
      }
    },
    {
      "type": "way",
      "id": 204638954,
      "center": {
        "lat": 12.9019814,
        "lon": 77.5194891
      },
      "tags": {
        "amenity": "parking"
      }
    },
    {
      "type": "way",
      "id": 204638955,
      "center": {
        "lat": 12.9019634,
        "lon": 77.5195466
      },
      "tags": {
        "amenity": "parking"
      }
    },
    {
      "type": "way",
      "id": 614208151,
      "center": {
        "lat": 12.8985074,
        "lon": 77.5274508
      },
      "tags": {
        "amenity": "school",
        "name": "National Public School, Banashankari",
        "name:kn": "ರಾಷ್ಟ್ರೀಯ ಸಾರ್ವಜನಿಕ ಶಾಲೆ, ಬನಶಂಕರಿ"
      }
    },
    {
      "type": "way",
      "id": 1120154292,
      "center": {
        "lat": 12.9007364,
        "lon": 77.5173828
      },
      "tags": {
        "addr:city": "Bangalore",
        "addr:country": "IN",
        "addr:housename": "RNSIT",
        "addr:postcode": "560098",
        "addr:street": "Uttarahalli Kengeri Main Road",
        "alt_name": "RNSIT",
        "amenity": "college",
        "contact:fax": "+918028611882",
        "contact:phone": "+918028611880",
        "contact:website": "http://rnsit.ac.in/",
        "name": "RNS Institute of Technology",
        "source": "Local knowledge",
        "wikidata": "Q7277277",
        "wikipedia": "en:RNS Institute of Technology"
      }
    },
    {
      "type": "way",
      "id": 1203175487,
      "center": {
        "lat": 12.9066177,
        "lon": 77.5289512
      },
      "tags": {
        "leisure": "park"
      }
    },
    {
      "type": "way",
      "id": 1203175488,
      "center": {
        "lat": 12.9035901,
        "lon": 77.5289619
      },
      "tags": {
        "leisure": "park"
      }
    },
    {
      "type": "way",
      "id": 1203175522,
      "center": {
        "lat": 12.8995697,
        "lon": 77.5331985
      },
      "tags": {
        "leisure": "park"
      }
    },
    {
      "type": "way",
      "id": 1203175523,
      "center": {
        "lat": 12.9029418,
        "lon": 77.5321289
      },
      "tags": {
        "amenity": "school",
        "name": "National Public School, Uttarahalli"
      }
    },
    {
      "type": "way",
      "id": 1203175524,
      "center": {
        "lat": 12.9028633,
        "lon": 77.534034
      },
      "tags": {
        "amenity": "school",
        "name": "The Happy Valley School"
      }
    },
    {
      "type": "way",
      "id": 1203175528,
      "center": {
        "lat": 12.8996396,
        "lon": 77.529611
      },
      "tags": {
        "leisure": "park"
      }
    },
    {
      "type": "way",
      "id": 1203175529,
      "center": {
        "lat": 12.8981765,
        "lon": 77.5276959
      },
      "tags": {
        "leisure": "sports_centre"
      }
    },
    {
      "type": "way",
      "id": 1203175535,
      "center": {
        "lat": 12.8961623,
        "lon": 77.5252416
      },
      "tags": {
        "leisure": "park",
        "name": "BDA Sculpture Park"
      }
    },
    {
      "type": "way",
      "id": 1224941277,
      "center": {
        "lat": 12.9020111,
        "lon": 77.519312
      },
      "tags": {
        "access": "students",
        "hoops": "2",
        "leisure": "pitch",
        "lit": "no",
        "name": "Basketball Court",
        "name:kn": "ಬಾಸ್ಕೆಟ್ ಬಾಲ್",
        "sport": "basketball",
        "surface": "paved"
      }
    },
    {
      "type": "way",
      "id": 1329553246,
      "center": {
        "lat": 12.8975667,
        "lon": 77.5278407
      },
      "tags": {
        "leisure": "pitch"
      }
    },
    {
      "type": "way",
      "id": 1329553248,
      "center": {
        "lat": 12.8967192,
        "lon": 77.5293574
      },
      "tags": {
        "amenity": "school"
      }
    },
    {
      "type": "way",
      "id": 1329553265,
      "center": {
        "lat": 12.9064785,
        "lon": 77.5323113
      },
      "tags": {
        "leisure": "park"
      }
    },
    {
      "type": "way",
      "id": 1329553266,
      "center": {
        "lat": 12.903497,
        "lon": 77.530031
      },
      "tags": {
        "leisure": "pitch"
      }
    },
    {
      "type": "way",
      "id": 1329553267,
      "center": {
        "lat": 12.903718,
        "lon": 77.5301536
      },
      "tags": {
        "leisure": "pitch"
      }
    },
    {
      "type": "way",
      "id": 1329553295,
      "center": {
        "lat": 12.904035,
        "lon": 77.5272748
      },
      "tags": {
        "access": "private",
        "leisure": "swimming_pool"
      }
    },
    {
      "type": "way",
      "id": 1329553309,
      "center": {
        "lat": 12.8957165,
        "lon": 77.5311915
      },
      "tags": {
        "leisure": "park"
      }
    },
    {
      "type": "way",
      "id": 1329553310,
      "center": {
        "lat": 12.8961342,
        "lon": 77.5310781
      },
      "tags": {
        "leisure": "pitch",
        "sport": "basketball"
      }
    },
    {
      "type": "way",
      "id": 1329553311,
      "center": {
        "lat": 12.8958327,
        "lon": 77.5310633
      },
      "tags": {
        "leisure": "pitch",
        "sport": "tennis"
      }
    },
    {
      "type": "way",
      "id": 1329553313,
      "center": {
        "lat": 12.8988925,
        "lon": 77.527953
      },
      "tags": {
        "access": "private",
        "leisure": "swimming_pool"
      }
    },
    {
      "type": "way",
      "id": 1329553314,
      "center": {
        "lat": 12.8989059,
        "lon": 77.5277337
      },
      "tags": {
        "access": "private",
        "leisure": "swimming_pool"
      }
    },
    {
      "type": "way",
      "id": 1329553364,
      "center": {
        "lat": 12.9079151,
        "lon": 77.5251633
      },
      "tags": {
        "amenity": "school"
      }
    },
    {
      "type": "way",
      "id": 1329553372,
      "center": {
        "lat": 12.9066937,
        "lon": 77.5217239
      },
      "tags": {
        "amenity": "bus_station",
        "landuse": "garages"
      }
    },
    {
      "type": "way",
      "id": 1353399765,
      "center": {
        "lat": 12.8958094,
        "lon": 77.5301333
      },
      "tags": {
        "leisure": "park"
      }
    },
    {
      "type": "way",
      "id": 1353399766,
      "center": {
        "lat": 12.8978757,
        "lon": 77.5292807
      },
      "tags": {
        "access": "private",
        "leisure": "swimming_pool"
      }
    },
    {
      "type": "way",
      "id": 1363986204,
      "center": {
        "lat": 12.9099916,
        "lon": 77.5283423
      },
      "tags": {
        "leisure": "resort",
        "name": "Shakthi Hill Resorts"
      }
    }
  ]
}