{
  "area_name": "Bhoganahalli",
  "osm_id": 10702267161,
  "osm_type": "node",
  "place_type": "neighbourhood",
  "amenity_count": 141,
  "amenities": [
    {
      "type": "node",
      "id": 3392582693,
      "lat": 12.9262377,
      "lon": 77.6988568,
      "tags": {
        "amenity": "kindergarten",
        "name": "New Horizon Vidya Mandir",
        "wheelchair": "limited"
      }
    },
    {
      "type": "node",
      "id": 4445111067,
      "lat": 12.9230111,
      "lon": 77.6953977,
      "tags": {
        "addr:city": "Bangalore",
        "addr:housenumber": "303/65/1A",
        "addr:postcode": "560035",
        "addr:street": "Benaka Complex, Sarjapura Road, Carmelaram Post, Ground Floor, Kaikondrahalli,",
        "amenity": "bank",
        "atm": "yes",
        "brand": "Axis Bank",
        "brand:wikidata": "Q2003549",
        "brand:wikipedia": "en:Axis Bank",
        "drive_through": "no",
        "level": "0",
        "name": "Axis Bank",
        "name:en": "Axis Bank",
        "name:kn": "ಅಕ್ಸಿಸ್ ಬ್ಯಾಂಕು",
        "opening_hours": "10:30-16:00",
        "phone": "080-28439058, 28439060, 1800 209 5577",
        "website": "https://www.axisbank.com"
      }
    },
    {
      "type": "node",
      "id": 4445113182,
      "lat": 12.9226179,
      "lon": 77.695489,
      "tags": {
        "addr:city": "Bangalore",
        "addr:housenumber": "114/1",
        "addr:postcode": "560103",
        "addr:street": "Green Elegance Apartment, Opposite Adarsh Palm Villas, Kaadubeesanahalli Rd, Devarabisanahalli, Doddakannelli",
        "name": "Grand City Supermarket",
        "opening_hours": "07:15-21:30",
        "phone": "080 2563 9555",
        "shop": "convenience",
        "website": "http://www.badaavane.in/nearby/Bangalore/Bellandur/Adarsh-Palm-Retreat"
      }
    },
    {
      "type": "node",
      "id": 5536129478,
      "lat": 12.9311048,
      "lon": 77.6937955,
      "tags": {
        "amenity": "smoking_area",
        "bench": "yes",
        "bin": "yes",
        "shelter": "yes"
      }
    },
    {
      "type": "node",
      "id": 5970468024,
      "lat": 12.9334937,
      "lon": 77.7057784,
      "tags": {
        "amenity": "place_of_worship",
        "name": "Shiva Temple",
        "name:kn": "ಶಿವ ದೇವಸ್ಥಾನ",
        "religion": "hindu"
      }
    },
    {
      "type": "node",
      "id": 7265452821,
      "lat": 12.9227079,
      "lon": 77.6954745,
      "tags": {
        "addr:city": "Bangalore",
        "addr:housenumber": "4th Floor, Saroj Bank Square",
        "addr:postcode": "560103",
        "addr:street": "Gear School ROad",
        "brand": "FlexSpot",
        "leisure": "fitness_centre",
        "name": "FlexSpot Doddakannelli",
        "opening_hours": "Mo-Su 05:30-22:00",
        "phone": "+918970779977",
        "sport": "fitness;gymnastics;yoga;exercise",
        "website": "https://flexspot.in"
      }
    },
    {
      "type": "node",
      "id": 9759551595,
      "lat": 12.9335397,
      "lon": 77.6968456,
      "tags": {
        "amenity": "restaurant",
        "check_date": "2025-06-21",
        "indoor_seating": "yes",
        "level": "0",
        "name": "Shanti Sagar",
        "outdoor_seating": "yes"
      }
    },
    {
      "type": "node",
      "id": 9772636711,
      "lat": 12.9317951,
      "lon": 77.6962703,
      "tags": {
        "amenity": "fountain"
      }
    },
    {
      "type": "node",
      "id": 9781262329,
      "lat": 12.9268186,
      "lon": 77.69495,
      "tags": {
        "amenity": "pharmacy",
        "dispensing": "yes",
        "healthcare": "pharmacy",
        "name": "Jangu Pharma"
      }
    },
    {
      "type": "node",
      "id": 9781262330,
      "lat": 12.9270721,
      "lon": 77.694891,
      "tags": {
        "amenity": "restaurant",
        "diet:vegetarian": "yes",
        "indoor_seating": "yes",
        "name": "Sri Vishnu Priya Veg",
        "outdoor_seating": "yes"
      }
    },
    {
      "type": "node",
      "id": 9781262368,
      "lat": 12.9250932,
      "lon": 77.6947328,
      "tags": {
        "name": "New Classic Mens Saloon",
        "shop": "hairdresser"
      }
    },
    {
      "type": "node",
      "id": 9795107206,
      "lat": 12.9334046,
      "lon": 77.6968406,
      "tags": {
        "name": "Sansar",
        "opening_hours": "Mo-Su 7:30-22:00",
        "shop": "supermarket"
      }
    },
    {
      "type": "node",
      "id": 9795107207,
      "lat": 12.9335444,
      "lon": 77.6968996,
      "tags": {
        "level": "1",
        "name": "Style Wavz",
        "shop": "hairdresser"
      }
    },
    {
      "type": "node",
      "id": 9795107214,
      "lat": 12.9343959,
      "lon": 77.6970325,
      "tags": {
        "amenity": "clinic",
        "check_date": "2025-06-21",
        "healthcare": "clinic",
        "level": "0",
        "name": "Nurture"
      }
    },
    {
      "type": "node",
      "id": 9798012407,
      "lat": 12.9318908,
      "lon": 77.6970976,
      "tags": {
        "access": "private",
        "amenity": "parking_entrance",
        "parking": "underground"
      }
    },
    {
      "type": "node",
      "id": 9812418518,
      "lat": 12.9344448,
      "lon": 77.6970847,
      "tags": {
        "level": "1",
        "name": "Lakme",
        "shop": "beauty"
      }
    },
    {
      "type": "node",
      "id": 9819692877,
      "lat": 12.9292665,
      "lon": 77.6948478,
      "tags": {
        "amenity": "restaurant",
        "indoor_seating": "yes",
        "name": "For Food Lovers",
        "outdoor_seating": "no"
      }
    },
    {
      "type": "node",
      "id": 9819692886,
      "lat": 12.9264576,
      "lon": 77.6949779,
      "tags": {
        "amenity": "restaurant",
        "cuisine": "biryani",
        "name": "Ambur Hot Dum Biryani",
        "takeaway": "only"
      }
    },
    {
      "type": "node",
      "id": 9819692887,
      "lat": 12.9258733,
      "lon": 77.6947064,
      "tags": {
        "amenity": "restaurant",
        "cuisine": "biryani",
        "name": "Ambur Dum Biryani"
      }
    },
    {
      "type": "node",
      "id": 9819692888,
      "lat": 12.9251466,
      "lon": 77.6949277,
      "tags": {
        "name": "Classic Florist",
        "shop": "florist",
        "wheelchair": "limited"
      }
    },
    {
      "type": "node",
      "id": 9819692889,
      "lat": 12.9247414,
      "lon": 77.6945894,
      "tags": {
        "amenity": "restaurant",
        "diet:vegetarian": "yes",
        "name": "Sri Udupi Veg"
      }
    },
    {
      "type": "node",
      "id": 9819692890,
      "lat": 12.9249166,
      "lon": 77.694398,
      "tags": {
        "name": "Sri Ganesh Cycle Repair",
        "service:bicycle:repair": "yes",
        "shop": "bicycle"
      }
    },
    {
      "type": "node",
      "id": 9819692897,
      "lat": 12.9308468,
      "lon": 77.7031514,
      "tags": {
        "name": "Bakes and Drinks",
        "shop": "bakery"
      }
    },
    {
      "type": "node",
      "id": 9824050828,
      "lat": 12.9191953,
      "lon": 77.6965268,
      "tags": {
        "addr:city": "Bengaluru",
        "addr:district": "Bengaluru Urban",
        "addr:postcode": "560035",
        "addr:street": "Gear School road",
        "amenity": "restaurant",
        "cuisine": "indian;tapas;tea",
        "diet:vegetarian": "yes",
        "indoor_seating": "yes",
        "name": "Taste Indies",
        "outdoor_seating": "yes"
      }
    },
    {
      "type": "node",
      "id": 9828595271,
      "lat": 12.9231022,
      "lon": 77.6953848,
      "tags": {
        "level": "0",
        "name": "Godrej Nature's Basket",
        "operator": "Godrej",
        "shop": "greengrocer"
      }
    },
    {
      "type": "node",
      "id": 9840902127,
      "lat": 12.9343858,
      "lon": 77.6973253,
      "tags": {
        "name": "Beany Bread",
        "shop": "bakery"
      }
    },
    {
      "type": "node",
      "id": 9842001436,
      "lat": 12.9268666,
      "lon": 77.6949367,
      "tags": {
        "name": "Mayuri Wines",
        "shop": "wine"
      }
    },
    {
      "type": "node",
      "id": 9842001437,
      "lat": 12.926973,
      "lon": 77.6949031,
      "tags": {
        "amenity": "restaurant",
        "cuisine": "biryani",
        "diet:non-vegetarian": "yes",
        "name": "Kabab Dinne Biryani House"
      }
    },
    {
      "type": "node",
      "id": 9842001438,
      "lat": 12.9263733,
      "lon": 77.6949793,
      "tags": {
        "name": "M. A. H. Bike Care",
        "shop": "motorcycle_repair"
      }
    },
    {
      "type": "node",
      "id": 9842001439,
      "lat": 12.9263992,
      "lon": 77.6949769,
      "tags": {
        "amenity": "fast_food",
        "cuisine": "indian;sweets",
        "indoor_seating": "yes",
        "name": "Rajasthani Sweets",
        "outdoor_seating": "no"
      }
    },
    {
      "type": "node",
      "id": 9842001440,
      "lat": 12.9264297,
      "lon": 77.6949776,
      "tags": {
        "air_conditioning": "no",
        "amenity": "fast_food",
        "cuisine": "juice",
        "indoor_seating": "yes",
        "name": "Vivid Cool Hot Joint",
        "outdoor_seating": "no"
      }
    },
    {
      "type": "node",
      "id": 9842001441,
      "lat": 12.9260899,
      "lon": 77.6947257,
      "tags": {
        "name": "Spin Cycles",
        "shop": "laundry",
        "website": "https://spincycles.in"
      }
    },
    {
      "type": "node",
      "id": 9842001446,
      "lat": 12.9248906,
      "lon": 77.6947593,
      "tags": {
        "amenity": "fast_food",
        "cuisine": "juice",
        "indoor_seating": "no",
        "name": "Sri Renukamba Juice and Condiments",
        "outdoor_seating": "no",
        "takeaway": "only"
      }
    },
    {
      "type": "node",
      "id": 9842001457,
      "lat": 12.9229365,
      "lon": 77.6954203,
      "tags": {
        "level": "0",
        "name": "Interior Skills",
        "shop": "interior_decoration"
      }
    },
    {
      "type": "node",
      "id": 9842001462,
      "lat": 12.921988,
      "lon": 77.6955252,
      "tags": {
        "laundry_service": "yes",
        "name": "Laundrology",
        "self_service": "no",
        "shop": "laundry",
        "wheelchair": "limited"
      }
    },
    {
      "type": "node",
      "id": 9842001463,
      "lat": 12.9220265,
      "lon": 77.6955226,
      "tags": {
        "name": "Mannat Botique",
        "shop": "tailor",
        "wheelchair": "limited"
      }
    },
    {
      "type": "node",
      "id": 9842001476,
      "lat": 12.9207276,
      "lon": 77.696035,
      "tags": {
        "amenity": "fast_food",
        "cuisine": "chips",
        "name": "Sri Venkateshwara Hot Chips"
      }
    },
    {
      "type": "node",
      "id": 9842001477,
      "lat": 12.9206851,
      "lon": 77.6960765,
      "tags": {
        "amenity": "fast_food",
        "cuisine": "chicken",
        "diet:non-vegetarian": "yes",
        "name": "ChicaGo Fried Chicken"
      }
    },
    {
      "type": "node",
      "id": 9842001478,
      "lat": 12.9206508,
      "lon": 77.6961003,
      "tags": {
        "name": "Prime Cut",
        "shop": "seafood"
      }
    },
    {
      "type": "node",
      "id": 9862571099,
      "lat": 12.9352256,
      "lon": 77.7026481,
      "tags": {
        "name": "AZ Home Needs",
        "shop": "supermarket"
      }
    },
    {
      "type": "node",
      "id": 11180730490,
      "lat": 12.924634,
      "lon": 77.6962918,
      "tags": {
        "amenity": "parking_entrance",
        "parking": "underground"
      }
    },
    {
      "type": "node",
      "id": 11180730498,
      "lat": 12.9239244,
      "lon": 77.696438,
      "tags": {
        "amenity": "parking_entrance",
        "parking": "underground"
      }
    },
    {
      "type": "node",
      "id": 11232355771,
      "lat": 12.928063,
      "lon": 77.6923719,
      "tags": {
        "amenity": "food_court",
        "name": "K Block Cafeteria"
      }
    },
    {
      "type": "node",
      "id": 11232355776,
      "lat": 12.9274655,
      "lon": 77.6921904,
      "tags": {
        "amenity": "food_court",
        "name": "D Block Cafeteria"
      }
    },
    {
      "type": "node",
      "id": 11535639641,
      "lat": 12.9234005,
      "lon": 77.6950845,
      "tags": {
        "amenity": "pharmacy",
        "brand": "Apollo Pharmacy",
        "brand:wikidata": "Q62562612",
        "check_date": "2024-01-21",
        "healthcare": "pharmacy",
        "name": "Apollo Pharmacy",
        "payment:cash": "yes",
        "payment:credit_cards": "yes",
        "payment:debit_cards": "yes",
        "source": "survey"
      }
    },
    {
      "type": "node",
      "id": 11535944287,
      "lat": 12.9322271,
      "lon": 77.6940849,
      "tags": {
        "amenity": "parking_entrance",
        "maxheight": "2.5",
        "parking": "underground"
      }
    },
    {
      "type": "node",
      "id": 11535944291,
      "lat": 12.9322018,
      "lon": 77.6944201,
      "tags": {
        "amenity": "parking_entrance",
        "maxheight": "2.5",
        "parking": "underground"
      }
    },
    {
      "type": "node",
      "id": 11703586228,
      "lat": 12.9327773,
      "lon": 77.6983153,
      "tags": {
        "amenity": "parking_entrance",
        "parking": "underground"
      }
    },
    {
      "type": "node",
      "id": 11703586232,
      "lat": 12.9333482,
      "lon": 77.6981325,
      "tags": {
        "access": "private",
        "amenity": "parking_entrance",
        "parking": "underground"
      }
    },
    {
      "type": "node",
      "id": 12254553112,
      "lat": 12.9240711,
      "lon": 77.6956953,
      "tags": {
        "access": "private",
        "amenity": "parking_entrance",
        "level": "-2",
        "parking": "multi-storey"
      }
    },
    {
      "type": "node",
      "id": 12255466537,
      "lat": 12.9236973,
      "lon": 77.6955445,
      "tags": {
        "access": "private",
        "amenity": "parking_entrance",
        "level": "-2",
        "parking": "multi-storey"
      }
    },
    {
      "type": "node",
      "id": 12435048098,
      "lat": 12.9338218,
      "lon": 77.7001299,
      "tags": {
        "amenity": "parking_entrance",
        "level": "-1"
      }
    },
    {
      "type": "node",
      "id": 12435048099,
      "lat": 12.9335609,
      "lon": 77.7006077,
      "tags": {
        "amenity": "parking_entrance",
        "level": "-1"
      }
    },
    {
      "type": "node",
      "id": 12448016921,
      "lat": 12.9251984,
      "lon": 77.6952239,
      "tags": {
        "amenity": "place_of_worship"
      }
    },
    {
      "type": "node",
      "id": 12448016922,
      "lat": 12.9247306,
      "lon": 77.6947359,
      "tags": {
        "addr:street": "Devarabeesanahalli Road",
        "amenity": "place_of_worship",
        "name": "Sri Haanuman Temple",
        "religion": "hindu"
      }
    },
    {
      "type": "node",
      "id": 12460935514,
      "lat": 12.9322938,
      "lon": 77.6966227,
      "tags": {
        "addr:floor": "G;1;2",
        "air_conditioning": "yes",
        "brand": "Zudio",
        "brand:wikidata": "Q123375926",
        "check_date": "2024-12-29",
        "clothes": "women;men;children;accessories",
        "level": "0;1;2",
        "name": "Zudio",
        "opening_hours": "11:00-21:00",
        "payment:cash": "yes",
        "payment:credit_cards": "yes",
        "payment:debit_cards": "yes",
        "second_hand": "no",
        "shop": "clothes",
        "source": "survey",
        "wheelchair": "limited"
      }
    },
    {
      "type": "node",
      "id": 12862846449,
      "lat": 12.929302,
      "lon": 77.6948462,
      "tags": {
        "amenity": "fast_food",
        "cuisine": "burger",
        "delivery": "yes",
        "name": "Nashville Fried Chicken",
        "takeaway": "yes"
      }
    },
    {
      "type": "node",
      "id": 13062869348,
      "lat": 12.9279907,
      "lon": 77.6918155,
      "tags": {
        "addr:city": "Bengaluru",
        "addr:country": "IN",
        "amenity": "cafe",
        "brand": "Starbucks",
        "brand:wikidata": "Q37158",
        "cuisine": "coffee_shop",
        "name": "Starbucks",
        "official_name": "Starbucks Coffee",
        "takeaway": "yes"
      }
    },
    {
      "type": "way",
      "id": 343615291,
      "center": {
        "lat": 12.9214722,
        "lon": 77.6944342
      },
      "tags": {
        "leisure": "park"
      }
    },
    {
      "type": "way",
      "id": 347216188,
      "center": {
        "lat": 12.9247293,
        "lon": 77.694741
      },
      "tags": {
        "addr:city": "Bangalore",
        "addr:postcode": "560103",
        "addr:street": "Bellandur",
        "amenity": "place_of_worship",
        "building": "yes",
        "name": "Sri Karya Siddhi Veera Anjaneya Swamy Temple",
        "religion": "hindu"
      }
    },
    {
      "type": "way",
      "id": 347475288,
      "center": {
        "lat": 12.9326524,
        "lon": 77.6967852
      },
      "tags": {
        "air_conditioning": "yes",
        "amenity": "pub",
        "building": "retail",
        "check_date": "2025-06-21",
        "indoor_seating": "yes",
        "name": "Deck of Brews",
        "outdoor_seating": "yes",
        "payment:mastercard": "yes",
        "payment:visa": "yes",
        "real_fire": "no",
        "smoking": "separated",
        "source": "survey",
        "toilets": "yes"
      }
    },
    {
      "type": "way",
      "id": 539497583,
      "center": {
        "lat": 12.919951,
        "lon": 77.6945105
      },
      "tags": {
        "leisure": "pitch"
      }
    },
    {
      "type": "way",
      "id": 632313640,
      "center": {
        "lat": 12.9331522,
        "lon": 77.7058809
      },
      "tags": {
        "leisure": "park",
        "name": "Skanda Nirvana Children's Park"
      }
    },
    {
      "type": "way",
      "id": 647218070,
      "center": {
        "lat": 12.9350558,
        "lon": 77.6982612
      },
      "tags": {
        "leisure": "swimming_pool"
      }
    },
    {
      "type": "way",
      "id": 647312315,
      "center": {
        "lat": 12.9350768,
        "lon": 77.6985676
      },
      "tags": {
        "leisure": "garden"
      }
    },
    {
      "type": "way",
      "id": 1056795650,
      "center": {
        "lat": 12.9179884,
        "lon": 77.6976055
      },
      "tags": {
        "access": "private",
        "hoops": "2",
        "leisure": "pitch",
        "lit": "no",
        "sport": "basketball"
      }
    },
    {
      "type": "way",
      "id": 1056795651,
      "center": {
        "lat": 12.9181813,
        "lon": 77.6974507
      },
      "tags": {
        "access": "private",
        "leisure": "pitch",
        "lit": "no",
        "sport": "tennis",
        "surface": "concrete"
      }
    },
    {
      "type": "way",
      "id": 1056795652,
      "center": {
        "lat": 12.9180728,
        "lon": 77.6975289
      },
      "tags": {
        "access": "private",
        "hoops": "4",
        "leisure": "pitch",
        "lit": "no",
        "sport": "basketball",
        "surface": "paving_stones"
      }
    },
    {
      "type": "way",
      "id": 1060953963,
      "center": {
        "lat": 12.9313879,
        "lon": 77.6966405
      },
      "tags": {
        "access": "private",
        "leisure": "pitch",
        "sport": "tennis"
      }
    },
    {
      "type": "way",
      "id": 1060953978,
      "center": {
        "lat": 12.9261178,
        "lon": 77.695902
      },
      "tags": {
        "access": "private",
        "leisure": "swimming_pool"
      }
    },
    {
      "type": "way",
      "id": 1060953979,
      "center": {
        "lat": 12.9259413,
        "lon": 77.6962783
      },
      "tags": {
        "access": "private",
        "leisure": "pitch",
        "sport": "tennis"
      }
    },
    {
      "type": "way",
      "id": 1060953989,
      "center": {
        "lat": 12.9291473,
        "lon": 77.6957561
      },
      "tags": {
        "leisure": "pitch",
        "sport": "soccer"
      }
    },
    {
      "type": "way",
      "id": 1061038559,
      "center": {
        "lat": 12.9338818,
        "lon": 77.6975708
      },
      "tags": {
        "amenity": "school",
        "check_date": "2023-04-05",
        "email": "principal@newhorizongurukul.in",
        "name": "New Horizon Gurukul",
        "opening_hours": "Mo-Sa 08:15-16:00; Su,PH off",
        "phone": "+91 80 4814 7031; +91 96633 97146",
        "source": "survey",
        "website": "https://newhorizongurukul.in",
        "wheelchair": "no"
      }
    },
    {
      "type": "way",
      "id": 1061038565,
      "center": {
        "lat": 12.9356402,
        "lon": 77.6984571
      },
      "tags": {
        "addr:city": "Kadubeesinhalli",
        "addr:housenumber": "77/7,Panathur VillageRoad, Kadabisanahalli,, Behind Cessna Business Park,, Kaverappa Layout",
        "addr:postcode": "560103",
        "addr:street": "Panathur Main Road",
        "amenity": "school",
        "check_date": "2025-06-21",
        "name": "Geetanjali Olympiad School",
        "name:kn": "ಗೀತಾಂಜಲಿ ಒಲಿಂಪಿಯಾಡ್ ಸ್ಕೂಲ್"
      }
    },
    {
      "type": "way",
      "id": 1061041084,
      "center": {
        "lat": 12.9318492,
        "lon": 77.6940216
      },
      "tags": {
        "access": "customers",
        "amenity": "parking",
        "building": "yes",
        "fee": "no",
        "parking": "multi-storey"
      }
    },
    {
      "type": "way",
      "id": 1064020744,
      "center": {
        "lat": 12.9314893,
        "lon": 77.6955671
      },
      "tags": {
        "access": "private",
        "leisure": "swimming_pool"
      }
    },
    {
      "type": "way",
      "id": 1064573623,
      "center": {
        "lat": 12.9346321,
        "lon": 77.6979833
      },
      "tags": {
        "leisure": "swimming_pool"
      }
    },
    {
      "type": "way",
      "id": 1064573624,
      "center": {
        "lat": 12.9329712,
        "lon": 77.6977417
      },
      "tags": {
        "leisure": "swimming_pool"
      }
    },
    {
      "type": "way",
      "id": 1065090521,
      "center": {
        "lat": 12.9270424,
        "lon": 77.6987619
      },
      "tags": {
        "access": "private",
        "leisure": "pitch",
        "sport": "tennis"
      }
    },
    {
      "type": "way",
      "id": 1065090523,
      "center": {
        "lat": 12.9338419,
        "lon": 77.6977894
      },
      "tags": {
        "hoops": "4",
        "leisure": "pitch",
        "sport": "basketball"
      }
    },
    {
      "type": "way",
      "id": 1066396977,
      "center": {
        "lat": 12.9216928,
        "lon": 77.6962502
      },
      "tags": {
        "leisure": "swimming_pool"
      }
    },
    {
      "type": "way",
      "id": 1066396978,
      "center": {
        "lat": 12.9215213,
        "lon": 77.6962343
      },
      "tags": {
        "leisure": "swimming_pool"
      }
    },
    {
      "type": "way",
      "id": 1066506674,
      "center": {
        "lat": 12.9285265,
        "lon": 77.6953872
      },
      "tags": {
        "leisure": "swimming_pool"
      }
    },
    {
      "type": "way",
      "id": 1066848432,
      "center": {
        "lat": 12.931011,
        "lon": 77.6956947
      },
      "tags": {
        "leisure": "park"
      }
    },
    {
      "type": "way",
      "id": 1070483705,
      "center": {
        "lat": 12.9210273,
        "lon": 77.6950704
      },
      "tags": {
        "leisure": "pitch",
        "sport": "tennis"
      }
    },
    {
      "type": "way",
      "id": 1070483706,
      "center": {
        "lat": 12.9216883,
        "lon": 77.6943708
      },
      "tags": {
        "leisure": "pitch",
        "sport": "basketball"
      }
    },
    {
      "type": "way",
      "id": 1070483707,
      "center": {
        "lat": 12.9216847,
        "lon": 77.6944893
      },
      "tags": {
        "leisure": "pitch",
        "sport": "tennis"
      }
    },
    {
      "type": "way",
      "id": 1070483717,
      "center": {
        "lat": 12.9203108,
        "lon": 77.6967864
      },
      "tags": {
        "addr:district": "Bengaluru Urban",
        "addr:housenumber": "87/3",
        "addr:postcode": "560103",
        "addr:street": "Gear School Road",
        "building": "retail",
        "name": "Mango Hypermarket",
        "phone": "+91 9513 314 911",
        "shop": "supermarket",
        "website": "https://mangohypermarket.in/"
      }
    },
    {
      "type": "way",
      "id": 1070483720,
      "center": {
        "lat": 12.9200225,
        "lon": 77.6967442
      },
      "tags": {
        "access": "customers",
        "amenity": "parking",
        "parking": "surface"
      }
    },
    {
      "type": "way",
      "id": 1070509114,
      "center": {
        "lat": 12.9340083,
        "lon": 77.6998931
      },
      "tags": {
        "leisure": "pitch",
        "sport": "tennis"
      }
    },
    {
      "type": "way",
      "id": 1070509115,
      "center": {
        "lat": 12.933976,
        "lon": 77.7002748
      },
      "tags": {
        "access": "private",
        "leisure": "swimming_pool",
        "location": "outdoor",
        "swimming_pool": "outdoor"
      }
    },
    {
      "type": "way",
      "id": 1072738477,
      "center": {
        "lat": 12.9291113,
        "lon": 77.6953745
      },
      "tags": {
        "leisure": "sports_centre",
        "name": "Kalavedhi Sports Academy"
      }
    },
    {
      "type": "way",
      "id": 1072738478,
      "center": {
        "lat": 12.9296045,
        "lon": 77.6949781
      },
      "tags": {
        "air_conditioning": "no",
        "amenity": "restaurant",
        "building": "yes",
        "building:levels": "1",
        "cuisine": "regional;andhra",
        "indoor_seating": "yes",
        "name": "Sri Lakshmi Venkateshwara Deluxe Mess",
        "outdoor_seating": "no"
      }
    },
    {
      "type": "way",
      "id": 1072738480,
      "center": {
        "lat": 12.925278,
        "lon": 77.6947147
      },
      "tags": {
        "amenity": "place_of_worship",
        "building": "yes",
        "check_date": "2024-01-21",
        "name": "Sri Shaneswara Swamy Temple",
        "name:kn": "ಶ್ರೀ ಶನೇಶ್ವರ ಸ್ವಾಮಿ ದೇವಸ್ಥಾನ",
        "religion": "hindu",
        "source": "survey"
      }
    },
    {
      "type": "way",
      "id": 1072738482,
      "center": {
        "lat": 12.9229821,
        "lon": 77.6953285
      },
      "tags": {
        "access": "customers",
        "amenity": "parking",
        "fee": "no",
        "parking": "surface",
        "surface": "concrete"
      }
    },
    {
      "type": "way",
      "id": 1072904781,
      "center": {
        "lat": 12.9209632,
        "lon": 77.6958835
      },
      "tags": {
        "access": "customers",
        "amenity": "parking",
        "fee": "no",
        "parking": "surface",
        "surface": "concrete"
      }
    },
    {
      "type": "way",
      "id": 1072904782,
      "center": {
        "lat": 12.9267404,
        "lon": 77.6960568
      },
      "tags": {
        "leisure": "swimming_pool"
      }
    },
    {
      "type": "way",
      "id": 1075464261,
      "center": {
        "lat": 12.9342842,
        "lon": 77.6977305
      },
      "tags": {
        "amenity": "kindergarten",
        "name": "Little Elly's Preschool"
      }
    },
    {
      "type": "way",
      "id": 1075542786,
      "center": {
        "lat": 12.9333648,
        "lon": 77.697485
      },
      "tags": {
        "access": "customers",
        "amenity": "parking",
        "fee": "yes",
        "parking": "surface"
      }
    },
    {
      "type": "way",
      "id": 1196486570,
      "center": {
        "lat": 12.9276919,
        "lon": 77.6915721
      },
      "tags": {
        "leisure": "sports_centre",
        "name": "Sports Zone"
      }
    },
    {
      "type": "way",
      "id": 1196486572,
      "center": {
        "lat": 12.929697,
        "lon": 77.6922799
      },
      "tags": {
        "full_name": "Embassy Tech Village Central Park",
        "leisure": "park",
        "name": "ETV Central Park"
      }
    },
    {
      "type": "way",
      "id": 1206567719,
      "center": {
        "lat": 12.9242026,
        "lon": 77.6959588
      },
      "tags": {
        "access": "private",
        "leisure": "swimming_pool",
        "location": "outdoor",
        "swimming_pool": "outdoor"
      }
    },
    {
      "type": "way",
      "id": 1212362584,
      "center": {
        "lat": 12.9283348,
        "lon": 77.6920094
      },
      "tags": {
        "amenity": "theatre",
        "area": "yes",
        "area:highway": "footway",
        "highway": "footway",
        "name": "Amphitheatre",
        "theatre:type": "amphi"
      }
    },
    {
      "type": "way",
      "id": 1213218541,
      "center": {
        "lat": 12.9279748,
        "lon": 77.6927609
      },
      "tags": {
        "leisure": "garden",
        "name": "Maze Garden"
      }
    },
    {
      "type": "way",
      "id": 1242290047,
      "center": {
        "lat": 12.9207617,
        "lon": 77.6944751
      },
      "tags": {
        "access": "private",
        "leisure": "swimming_pool"
      }
    },
    {
      "type": "way",
      "id": 1242290048,
      "center": {
        "lat": 12.9206739,
        "lon": 77.6943144
      },
      "tags": {
        "access": "private",
        "leisure": "swimming_pool"
      }
    },
    {
      "type": "way",
      "id": 1242290049,
      "center": {
        "lat": 12.9206072,
        "lon": 77.6944699
      },
      "tags": {
        "access": "private",
        "leisure": "swimming_pool"
      }
    },
    {
      "type": "way",
      "id": 1242490864,
      "center": {
        "lat": 12.9209017,
        "lon": 77.6945151
      },
      "tags": {
        "leisure": "playground"
      }
    },
    {
      "type": "way",
      "id": 1242730694,
      "center": {
        "lat": 12.9295858,
        "lon": 77.6922795
      },
      "tags": {
        "amenity": "fountain",
        "full_name": "Embassy Tech Village Water Fountain",
        "name": "ETV Water Fountain"
      }
    },
    {
      "type": "way",
      "id": 1242730702,
      "center": {
        "lat": 12.9293833,
        "lon": 77.6929448
      },
      "tags": {
        "amenity": "theatre",
        "full_name": "Embassy Tech Village Amphitheatre",
        "name": "ETV Amphitheatre",
        "theatre:type": "amphi"
      }
    },
    {
      "type": "way",
      "id": 1261923156,
      "center": {
        "lat": 12.9313608,
        "lon": 77.7024498
      },
      "tags": {
        "leisure": "pitch",
        "sport": "soccer"
      }
    },
    {
      "type": "way",
      "id": 1274571822,
      "center": {
        "lat": 12.9269524,
        "lon": 77.6984372
      },
      "tags": {
        "access": "private",
        "leisure": "park"
      }
    },
    {
      "type": "way",
      "id": 1274571826,
      "center": {
        "lat": 12.924627,
        "lon": 77.6965115
      },
      "tags": {
        "leisure": "playground"
      }
    },
    {
      "type": "way",
      "id": 1274571827,
      "center": {
        "lat": 12.9243002,
        "lon": 77.6965115
      },
      "tags": {
        "leisure": "park"
      }
    },
    {
      "type": "way",
      "id": 1292678252,
      "center": {
        "lat": 12.9317837,
        "lon": 77.7069125
      },
      "tags": {
        "leisure": "park"
      }
    },
    {
      "type": "way",
      "id": 1311554394,
      "center": {
        "lat": 12.9292503,
        "lon": 77.7034837
      },
      "tags": {
        "leisure": "sports_centre",
        "name": "Fisto Panathur PK Sports"
      }
    },
    {
      "type": "way",
      "id": 1311554396,
      "center": {
        "lat": 12.9288336,
        "lon": 77.7054036
      },
      "tags": {
        "access": "private",
        "leisure": "swimming_pool"
      }
    },
    {
      "type": "way",
      "id": 1324298563,
      "center": {
        "lat": 12.9239921,
        "lon": 77.6952108
      },
      "tags": {
        "access": "private",
        "amenity": "parking",
        "capacity": "6",
        "parking_space": "normal"
      }
    },
    {
      "type": "way",
      "id": 1324951966,
      "center": {
        "lat": 12.9277291,
        "lon": 77.6986045
      },
      "tags": {
        "access": "private",
        "leisure": "swimming_pool"
      }
    },
    {
      "type": "way",
      "id": 1324951967,
      "center": {
        "lat": 12.9272787,
        "lon": 77.6985064
      },
      "tags": {
        "amenity": "parking_space"
      }
    },
    {
      "type": "way",
      "id": 1324951968,
      "center": {
        "lat": 12.927394,
        "lon": 77.6990049
      },
      "tags": {
        "amenity": "parking_space"
      }
    },
    {
      "type": "way",
      "id": 1324951969,
      "center": {
        "lat": 12.9280008,
        "lon": 77.6991807
      },
      "tags": {
        "amenity": "parking_space"
      }
    },
    {
      "type": "way",
      "id": 1324951970,
      "center": {
        "lat": 12.9282027,
        "lon": 77.6982848
      },
      "tags": {
        "amenity": "parking_space"
      }
    },
    {
      "type": "way",
      "id": 1324951971,
      "center": {
        "lat": 12.9275185,
        "lon": 77.6981953
      },
      "tags": {
        "amenity": "parking_space"
      }
    },
    {
      "type": "way",
      "id": 1324957726,
      "center": {
        "lat": 12.9217291,
        "lon": 77.6956659
      },
      "tags": {
        "amenity": "parking_space"
      }
    },
    {
      "type": "way",
      "id": 1324957727,
      "center": {
        "lat": 12.9217031,
        "lon": 77.696866
      },
      "tags": {
        "amenity": "parking_space"
      }
    },
    {
      "type": "way",
      "id": 1324957728,
      "center": {
        "lat": 12.9211886,
        "lon": 77.6965451
      },
      "tags": {
        "amenity": "parking_space"
      }
    },
    {
      "type": "way",
      "id": 1324957729,
      "center": {
        "lat": 12.9212396,
        "lon": 77.69592
      },
      "tags": {
        "amenity": "parking_space"
      }
    },
    {
      "type": "way",
      "id": 1329010236,
      "center": {
        "lat": 12.9243824,
        "lon": 77.6950432
      },
      "tags": {
        "amenity": "parking"
      }
    },
    {
      "type": "way",
      "id": 1336849090,
      "center": {
        "lat": 12.9210303,
        "lon": 77.6953755
      },
      "tags": {
        "leisure": "pitch",
        "sport": "basketball"
      }
    },
    {
      "type": "way",
      "id": 1341445839,
      "center": {
        "lat": 12.9295186,
        "lon": 77.703653
      },
      "tags": {
        "access": "private",
        "leisure": "swimming_pool"
      }
    },
    {
      "type": "way",
      "id": 1347911181,
      "center": {
        "lat": 12.9256971,
        "lon": 77.6924597
      },
      "tags": {
        "amenity": "place_of_worship",
        "building": "yes",
        "religion": "hindu"
      }
    },
    {
      "type": "way",
      "id": 1348969197,
      "center": {
        "lat": 12.9256004,
        "lon": 77.6934825
      },
      "tags": {
        "amenity": "place_of_worship",
        "building": "yes",
        "religion": "hindu"
      }
    },
    {
      "type": "way",
      "id": 1348969198,
      "center": {
        "lat": 12.9255393,
        "lon": 77.6934821
      },
      "tags": {
        "amenity": "place_of_worship",
        "building": "yes",
        "religion": "hindu"
      }
    },
    {
      "type": "way",
      "id": 1348969199,
      "center": {
        "lat": 12.9254697,
        "lon": 77.693498
      },
      "tags": {
        "amenity": "place_of_worship",
        "building": "yes",
        "religion": "hindu"
      }
    },
    {
      "type": "way",
      "id": 1348969200,
      "center": {
        "lat": 12.9254007,
        "lon": 77.6934616
      },
      "tags": {
        "amenity": "place_of_worship",
        "building": "yes",
        "religion": "hindu"
      }
    },
    {
      "type": "way",
      "id": 1427908169,
      "center": {
        "lat": 12.9272417,
        "lon": 77.6973845
      },
      "tags": {
        "access": "private",
        "leisure": "park"
      }
    },
    {
      "type": "way",
      "id": 1427908170,
      "center": {
        "lat": 12.9275116,
        "lon": 77.6974176
      },
      "tags": {
        "access": "private",
        "leisure": "swimming_pool"
      }
    },
    {
      "type": "way",
      "id": 1427908171,
      "center": {
        "lat": 12.927113,
        "lon": 77.6975243
      },
      "tags": {
        "access": "private",
        "leisure": "pitch",
        "sport": "tennis"
      }
    },
    {
      "type": "way",
      "id": 1454919867,
      "center": {
        "lat": 12.9314622,
        "lon": 77.7087049
      },
      "tags": {
        "leisure": "park"
      }
    },
    {
      "type": "way",
      "id": 1454919868,
      "center": {
        "lat": 12.9334574,
        "lon": 77.7066395
      },
      "tags": {
        "access": "private",
        "leisure": "swimming_pool"
      }
    }
  ]
}