{
  "area_name": "Binnypete",
  "osm_id": 19883273,
  "osm_type": "relation",
  "place_type": "administrative",
  "amenity_count": 6,
  "amenities": [
    {
      "type": "node",
      "id": 4130960190,
      "lat": 12.965813,
      "lon": 77.5622167,
      "tags": {
        "addr:street": "Tank Bund Road",
        "amenity": "cinema",
        "brand": "Cinepolis",
        "brand:wikidata": "Q5686673",
        "name": "Cinepolis ETA Mall"
      }
    },
    {
      "type": "node",
      "id": 4881135463,
      "lat": 12.965491,
      "lon": 77.5616184,
      "tags": {
        "brand": "Decathlon",
        "brand:wikidata": "Q509349",
        "name": "Decathlon",
        "shop": "sports"
      }
    },
    {
      "type": "node",
      "id": 5848373887,
      "lat": 12.9651869,
      "lon": 77.5617183,
      "tags": {
        "name": "Metro Cash and Carry",
        "shop": "supermarket"
      }
    },
    {
      "type": "node",
      "id": 10242924681,
      "lat": 12.9675164,
      "lon": 77.5635708,
      "tags": {
        "amenity": "recycling",
        "name": "BBMP Dry Waste Collection Center",
        "name:kn": "ಒಣ ತ್ಯಾಜ್ಯ ನಿರ್ವಹಣೆಗೆ ಸ್ಥಳ",
        "recycling_type": "centre"
      }
    },
    {
      "type": "way",
      "id": 346504152,
      "center": {
        "lat": 12.9656763,
        "lon": 77.5616212
      },
      "tags": {
        "alt_name": "Binnypet Mall",
        "building": "yes",
        "name": "ETA Namma Mall",
        "name:en": "ETA Mall",
        "shop": "mall"
      }
    },
    {
      "type": "way",
      "id": 1307300212,
      "center": {
        "lat": 12.9654225,
        "lon": 77.559297
      },
      "tags": {
        "leisure": "park"
      }
    }
  ]
}