{
  "area_name": "BOOHBCS Layout",
  "osm_id": 10931504797,
  "osm_type": "node",
  "place_type": "neighbourhood",
  "amenity_count": 25,
  "amenities": [
    {
      "type": "node",
      "id": 12164851525,
      "lat": 12.8795039,
      "lon": 77.5523243,
      "tags": {
        "amenity": "parking_entrance"
      }
    },
    {
      "type": "node",
      "id": 12323456989,
      "lat": 12.8799184,
      "lon": 77.5535523,
      "tags": {
        "addr:street": "Swami Vivekananda Road, Off Kanakapura Road, Doddakallandra, Bengaluru",
        "name": "ItsyBitsy",
        "shop": "craft",
        "website": "https://itsybitsy.in"
      }
    },
    {
      "type": "node",
      "id": 12323521698,
      "lat": 12.8798391,
      "lon": 77.5536018,
      "tags": {
        "name": "Royal Touch Mens Salon",
        "shop": "beauty"
      }
    },
    {
      "type": "node",
      "id": 12323528963,
      "lat": 12.8799238,
      "lon": 77.5535447,
      "tags": {
        "amenity": "pharmacy",
        "name": "Aloha Pharmacy"
      }
    },
    {
      "type": "node",
      "id": 12323610631,
      "lat": 12.8799756,
      "lon": 77.5535431,
      "tags": {
        "addr:city": "Doddakallasandra",
        "addr:district": "Bengaluru",
        "addr:street": "Swamy Vivekanandha Road",
        "name": "Amma Pastries",
        "payment:cash": "yes",
        "payment:upi": "yes",
        "shop": "bakery"
      }
    },
    {
      "type": "node",
      "id": 12508589559,
      "lat": 12.8774654,
      "lon": 77.5464993,
      "tags": {
        "access": "private",
        "amenity": "parking_entrance",
        "parking": "underground"
      }
    },
    {
      "type": "node",
      "id": 12508589562,
      "lat": 12.8774364,
      "lon": 77.5466045,
      "tags": {
        "access": "private",
        "amenity": "parking_entrance",
        "parking": "underground"
      }
    },
    {
      "type": "node",
      "id": 13149575752,
      "lat": 12.879743,
      "lon": 77.5537562,
      "tags": {
        "amenity": "pharmacy",
        "name": "Medplus Pharmacy"
      }
    },
    {
      "type": "way",
      "id": 362882629,
      "center": {
        "lat": 12.8783453,
        "lon": 77.5563216
      },
      "tags": {
        "leisure": "park"
      }
    },
    {
      "type": "way",
      "id": 362882630,
      "center": {
        "lat": 12.8790983,
        "lon": 77.5579758
      },
      "tags": {
        "leisure": "park"
      }
    },
    {
      "type": "way",
      "id": 362883587,
      "center": {
        "lat": 12.8663897,
        "lon": 77.5621456
      },
      "tags": {
        "leisure": "park"
      }
    },
    {
      "type": "way",
      "id": 710637794,
      "center": {
        "lat": 12.8739355,
        "lon": 77.5595153
      },
      "tags": {
        "amenity": "school",
        "email": "info@mutha.edu.in",
        "name": "The Mutha School",
        "operator": "Mutha Foundation",
        "operator:type": "private",
        "phone": "+91 99450 27007",
        "school:gender": "mixed",
        "website": "https://mutha.edu.in"
      }
    },
    {
      "type": "way",
      "id": 781680964,
      "center": {
        "lat": 12.8765446,
        "lon": 77.5538949
      },
      "tags": {
        "leisure": "sports_centre"
      }
    },
    {
      "type": "way",
      "id": 946132227,
      "center": {
        "lat": 12.8731231,
        "lon": 77.5636683
      },
      "tags": {
        "leisure": "park"
      }
    },
    {
      "type": "way",
      "id": 1176579508,
      "center": {
        "lat": 12.8719713,
        "lon": 77.5560321
      },
      "tags": {
        "leisure": "park"
      }
    },
    {
      "type": "way",
      "id": 1176579511,
      "center": {
        "lat": 12.8747508,
        "lon": 77.5609211
      },
      "tags": {
        "amenity": "place_of_worship",
        "name": "Avalahalli Masjid",
        "name:kn": "ಅವಲಹಳ್ಳಿ ಮಸ್ಜಿದ್",
        "religion": "muslim"
      }
    },
    {
      "type": "way",
      "id": 1176579513,
      "center": {
        "lat": 12.8758843,
        "lon": 77.5615653
      },
      "tags": {
        "amenity": "school",
        "name": "Doddakalasandra Government High School"
      }
    },
    {
      "type": "way",
      "id": 1176579517,
      "center": {
        "lat": 12.8786008,
        "lon": 77.5555302
      },
      "tags": {
        "amenity": "place_of_worship",
        "religion": "hindu"
      }
    },
    {
      "type": "way",
      "id": 1176579522,
      "center": {
        "lat": 12.8787667,
        "lon": 77.5597161
      },
      "tags": {
        "leisure": "park"
      }
    },
    {
      "type": "way",
      "id": 1242574024,
      "center": {
        "lat": 12.8804372,
        "lon": 77.5552609
      },
      "tags": {
        "leisure": "park"
      }
    },
    {
      "type": "way",
      "id": 1263387780,
      "center": {
        "lat": 12.8763876,
        "lon": 77.5491073
      },
      "tags": {
        "leisure": "park"
      }
    },
    {
      "type": "way",
      "id": 1263387781,
      "center": {
        "lat": 12.875914,
        "lon": 77.5489599
      },
      "tags": {
        "leisure": "park"
      }
    },
    {
      "type": "way",
      "id": 1345637499,
      "center": {
        "lat": 12.8653922,
        "lon": 77.5581326
      },
      "tags": {
        "access": "private",
        "leisure": "swimming_pool"
      }
    },
    {
      "type": "way",
      "id": 1347917770,
      "center": {
        "lat": 12.8808484,
        "lon": 77.5532915
      },
      "tags": {
        "leisure": "park"
      }
    },
    {
      "type": "way",
      "id": 1349974770,
      "center": {
        "lat": 12.8754391,
        "lon": 77.5517706
      },
      "tags": {
        "leisure": "park"
      }
    }
  ]
}