{
  "area_name": "Buvaneswari Nagara",
  "osm_id": 7299778050,
  "osm_type": "node",
  "place_type": "neighbourhood",
  "amenity_count": 210,
  "amenities": [
    {
      "type": "node",
      "id": 1097927623,
      "lat": 13.0592352,
      "lon": 77.5939566,
      "tags": {
        "addr:street": "Bellary Road",
        "amenity": "school",
        "name": "Green Country Public School"
      }
    },
    {
      "type": "node",
      "id": 1472114366,
      "lat": 13.0579806,
      "lon": 77.5942266,
      "tags": {
        "check_date": "2024-07-11",
        "name": "Maruti Service Center",
        "operator": "RNS Motors",
        "shop": "car_repair"
      }
    },
    {
      "type": "node",
      "id": 1472121766,
      "lat": 13.0583621,
      "lon": 77.5982875,
      "tags": {
        "amenity": "school",
        "name": "Sharada School",
        "name:kn": "ಶಾರದ ಶಾಲೆ"
      }
    },
    {
      "type": "node",
      "id": 1472129202,
      "lat": 13.0582262,
      "lon": 77.5982124,
      "tags": {
        "amenity": "place_of_worship",
        "name": "Ganapati Temple",
        "name:kn": "ಗಣಪತಿ ದೇವಸ್ಥಾನ",
        "religion": "hindu"
      }
    },
    {
      "type": "node",
      "id": 1472131638,
      "lat": 13.0553806,
      "lon": 77.6026206,
      "tags": {
        "brand": "Reliance Fresh",
        "brand:wikidata": "Q7311014",
        "changing_table": "no",
        "level": "0",
        "name": "Reliance Fresh",
        "name:kn": "ರಿಲಾಯನ್ಸ್ ಫ್ರೆಶ್",
        "opening_hours": "PH,Mo-Su 07:29-12:00",
        "shop": "supermarket",
        "toilets": "no",
        "toilets:access": "private",
        "toilets:wheelchair": "no",
        "wheelchair": "no"
      }
    },
    {
      "type": "node",
      "id": 1472143499,
      "lat": 13.0585815,
      "lon": 77.5988078,
      "tags": {
        "name": "Daily Needs",
        "shop": "convenience"
      }
    },
    {
      "type": "node",
      "id": 1472761524,
      "lat": 13.0552619,
      "lon": 77.6020449,
      "tags": {
        "amenity": "pharmacy",
        "name": "Medical Shop"
      }
    },
    {
      "type": "node",
      "id": 1473175979,
      "lat": 13.0577696,
      "lon": 77.5950588,
      "tags": {
        "amenity": "restaurant",
        "check_date": "2024-07-11",
        "cuisine": "chinese",
        "name": "Sanjay Food Junction",
        "name:kn": "ಸಂಜಯ್ ಫುಡ್ ಜಂಕ್ಷನ್",
        "opening_hours": "PH,Mo-Su 09:00-23:45"
      }
    },
    {
      "type": "node",
      "id": 2616233221,
      "lat": 13.053347,
      "lon": 77.5980418,
      "tags": {
        "amenity": "restaurant",
        "name": "Kerala Coast"
      }
    },
    {
      "type": "node",
      "id": 2616233222,
      "lat": 13.0514047,
      "lon": 77.6011967,
      "tags": {
        "amenity": "place_of_worship",
        "name": "Sri Kalyana Lakshmi Venkateshwara Temple",
        "religion": "hindu"
      }
    },
    {
      "type": "node",
      "id": 2616233224,
      "lat": 13.0499598,
      "lon": 77.5976135,
      "tags": {
        "amenity": "atm",
        "brand": "ICICI Bank",
        "brand:wikidata": "Q1653258",
        "name": "ICICI Bank",
        "operator": "ICICI Bank",
        "operator:wikidata": "Q1653258",
        "short_name": "ICICI"
      }
    },
    {
      "type": "node",
      "id": 4424584190,
      "lat": 13.0493264,
      "lon": 77.6042774,
      "tags": {
        "amenity": "post_box",
        "name": "Indian Post"
      }
    },
    {
      "type": "node",
      "id": 4445599296,
      "lat": 13.0499324,
      "lon": 77.5980885,
      "tags": {
        "addr:city": "Bangalore",
        "addr:postcode": "560024",
        "addr:street": "Vayunandana Layout, Hebbal Kempapura",
        "amenity": "restaurant",
        "cuisine": "regional",
        "delivery": "yes",
        "name": "Desi Tadka",
        "opening_hours": "09:00-22:00",
        "phone": "080 4965 3579",
        "smoking": "no",
        "takeaway": "yes"
      }
    },
    {
      "type": "node",
      "id": 4445633509,
      "lat": 13.0496657,
      "lon": 77.597496,
      "tags": {
        "addr:city": "Bangalore",
        "addr:postcode": "560024",
        "addr:street": "Kempapura Main Road, Rajeshwarinagar New Colony, Near-Syndicate Bank, Hebbal",
        "amenity": "restaurant",
        "cuisine": "regional",
        "delivery": "yes",
        "name": "Swastik Bar & Restaurant",
        "opening_hours": "10:30-23:30",
        "phone": "099804 34206",
        "smoking": "no",
        "takeaway": "yes"
      }
    },
    {
      "type": "node",
      "id": 4445729851,
      "lat": 13.04937,
      "lon": 77.5969095,
      "tags": {
        "addr:city": "Bangalore",
        "addr:housenumber": "#381",
        "addr:postcode": "560024",
        "addr:street": "Kempapura Main Rd, ayunandana Layout, Hebbal Kempapura",
        "amenity": "pharmacy",
        "brand": "MedPlus",
        "brand:wikidata": "Q65684234",
        "healthcare": "pharmacy",
        "name": "MedPlus",
        "name:kn": "ಮೆಡ್‍ಪ್ಲಸ್",
        "phone": "080 2295 7575",
        "source": "http://www.bangalorehospital.co.in/"
      }
    },
    {
      "type": "node",
      "id": 4822629787,
      "lat": 13.0551593,
      "lon": 77.599306,
      "tags": {
        "amenity": "bank",
        "brand": "Canara Bank",
        "brand:en": "Canara Bank",
        "brand:hi": "केनरा बैंक",
        "brand:kn": "ಕೆನರಾ ಬ್ಯಾಂಕ್",
        "brand:pa": "ਕੇਨਰਾ ਬੈਂਕ",
        "brand:pnb": "کینرا بینک",
        "brand:ur": "کینرا بینک",
        "brand:wikidata": "Q2003777",
        "name": "Canara Bank",
        "name:en": "Canara Bank",
        "name:hi": "केनरा बैंक",
        "name:kn": "ಕೆನರಾ ಬ್ಯಾಂಕ್",
        "name:pa": "ਕੇਨਰਾ ਬੈਂਕ",
        "name:pnb": "کینرا بینک",
        "name:ur": "کینرا بینک"
      }
    },
    {
      "type": "node",
      "id": 4822629788,
      "lat": 13.0552073,
      "lon": 77.6002026,
      "tags": {
        "amenity": "bank",
        "brand": "Union Bank of India",
        "brand:wikidata": "Q2004078",
        "name": "Union Bank of India"
      }
    },
    {
      "type": "node",
      "id": 4822629789,
      "lat": 13.0551743,
      "lon": 77.6007325,
      "tags": {
        "amenity": "pharmacy",
        "name": "Manjunatha Medicals",
        "opening_hours": "PH,Mo-Su 09:00-23:30"
      }
    },
    {
      "type": "node",
      "id": 4822629790,
      "lat": 13.0552084,
      "lon": 77.6008534,
      "tags": {
        "name": "Nice mart",
        "opening_hours": "PH,Mo-Su 07:30-22:30",
        "shop": "supermarket"
      }
    },
    {
      "type": "node",
      "id": 4822629794,
      "lat": 13.0569362,
      "lon": 77.6004968,
      "tags": {
        "amenity": "kindergarten",
        "check_date": "2024-07-08",
        "name": "EuroKids"
      }
    },
    {
      "type": "node",
      "id": 4822629795,
      "lat": 13.0585467,
      "lon": 77.6032984,
      "tags": {
        "access": "private",
        "leisure": "playground",
        "name": "Ovation Badminton Center"
      }
    },
    {
      "type": "node",
      "id": 4922632921,
      "lat": 13.0500016,
      "lon": 77.5975254,
      "tags": {
        "amenity": "atm",
        "brand": "State Bank of India",
        "brand:wikidata": "Q1340361",
        "name": "State Bank of India",
        "name:kn": "ಎಸ್ ಬಿ ಐ",
        "operator": "State Bank of India",
        "operator:wikidata": "Q1340361",
        "short_name": "SBI"
      }
    },
    {
      "type": "node",
      "id": 5434550525,
      "lat": 13.0492695,
      "lon": 77.6038518,
      "tags": {
        "addr:postcode": "560024",
        "name": "Families Supermarket",
        "shop": "supermarket"
      }
    },
    {
      "type": "node",
      "id": 5434550526,
      "lat": 13.0552098,
      "lon": 77.6026488,
      "tags": {
        "air_conditioning": "no",
        "amenity": "fast_food",
        "baby_feeding": "no",
        "changing_table": "no",
        "highchair": "no",
        "indoor_seating": "yes",
        "internet_access": "no",
        "internet_access:fee": "no",
        "kids_area:supervised": "yes",
        "level": "1",
        "name": "Udupi Utsav",
        "name:kn": "ಉಡುಪಿ ಉತ್ಸವ",
        "opening_hours": "PH,Mo-Su 06:45-22:45",
        "smoking": "no",
        "takeaway": "yes",
        "toilets": "yes",
        "toilets:access": "customers",
        "toilets:wheelchair": "no",
        "wheelchair": "no"
      }
    },
    {
      "type": "node",
      "id": 5434553922,
      "lat": 13.0494493,
      "lon": 77.5970187,
      "tags": {
        "amenity": "bank",
        "brand": "Syndicate Bank",
        "brand:wikidata": "Q2004088",
        "name": "Syndicate Bank",
        "name:kn": "ಸಿಂಡಿಕೇಟ್ ಬ್ಯಾಂಕ್",
        "opening_hours": "Mo-Fr 09:00-16:00"
      }
    },
    {
      "type": "node",
      "id": 5434601223,
      "lat": 13.050471,
      "lon": 77.5976521,
      "tags": {
        "amenity": "fast_food",
        "name": "Srinidhi Sagar",
        "name:kn": "ಶ್ರೀನಿಧಿ ಸಾಗರ"
      }
    },
    {
      "type": "node",
      "id": 5434601224,
      "lat": 13.0499864,
      "lon": 77.5977223,
      "tags": {
        "alt_name": "Goli Vada Pav No.1",
        "amenity": "fast_food",
        "brand": "Goli Vada Pav",
        "brand:wikidata": "Q5580697",
        "cuisine": "indian",
        "name": "Goli Vada Pav",
        "name:kn": "ಗೋಲಿ ವಡ ಪಾವ್",
        "takeaway": "yes"
      }
    },
    {
      "type": "node",
      "id": 5520247373,
      "lat": 13.0582417,
      "lon": 77.6024676,
      "tags": {
        "name": "Karya siddhi hanuman",
        "shop": "religion"
      }
    },
    {
      "type": "node",
      "id": 5520247374,
      "lat": 13.0562451,
      "lon": 77.6012716,
      "tags": {
        "amenity": "clinic",
        "description": "computerized ecg, exercise ecg, heart scan",
        "name": "Hebbal Medical Center",
        "name:kn": "ಹೆಬ್ಬಾಳ ಆರೋಗ್ಯ ಕೇಂದ್ರ",
        "opening_hours": "Mo-Sa 10:00-13:00,18:00-21:00; Su 10:00-12:00",
        "phone": "8105999980"
      }
    },
    {
      "type": "node",
      "id": 5520247469,
      "lat": 13.0553127,
      "lon": 77.6012466,
      "tags": {
        "addr:district": "Bengaluru Urban",
        "addr:full": "Varma Layout, Bhuvaneswari Nagar, Hebbal, Bengaluru",
        "addr:postcode": "560092",
        "addr:state": "Karnataka",
        "amenity": "dentist",
        "name": "D care speciality dental clinic",
        "opening_hours": "Mo-Sa 09:30-13:00, 05:30-21:00; Su 09:30-13:00",
        "source": "Local Knowledge"
      }
    },
    {
      "type": "node",
      "id": 5520247470,
      "lat": 13.0552316,
      "lon": 77.6012225,
      "tags": {
        "amenity": "clinic",
        "healthcare": "physiotherapist",
        "name": "Physiotherapy clinic",
        "phone": "9731273126"
      }
    },
    {
      "type": "node",
      "id": 5520247471,
      "lat": 13.0551563,
      "lon": 77.6014292,
      "tags": {
        "name": "Jagdeesh stationary",
        "shop": "gift"
      }
    },
    {
      "type": "node",
      "id": 5520247484,
      "lat": 13.0562676,
      "lon": 77.6004766,
      "tags": {
        "amenity": "kindergarten",
        "name": "Little Elly Preschool"
      }
    },
    {
      "type": "node",
      "id": 5520247485,
      "lat": 13.0555591,
      "lon": 77.6003017,
      "tags": {
        "amenity": "car_rental",
        "name": "Travel cabs"
      }
    },
    {
      "type": "node",
      "id": 5520247486,
      "lat": 13.0551587,
      "lon": 77.6002965,
      "tags": {
        "name": "Aishwarya Bakery",
        "shop": "bakery"
      }
    },
    {
      "type": "node",
      "id": 5520247487,
      "lat": 13.0567164,
      "lon": 77.6023658,
      "tags": {
        "amenity": "place_of_worship",
        "name": "Sri Lakshmi Temple",
        "name:kn": "ಲಕ್ಷ್ಮಿ ದೇವಸ್ಥಾನ",
        "religion": "hindu",
        "shop": "religion"
      }
    },
    {
      "type": "node",
      "id": 5520247488,
      "lat": 13.0557218,
      "lon": 77.6006233,
      "tags": {
        "amenity": "kindergarten",
        "name": "Tots & teens"
      }
    },
    {
      "type": "node",
      "id": 5520247489,
      "lat": 13.0552254,
      "lon": 77.6019284,
      "tags": {
        "name": "Sri Annapoorneshwari Bakery",
        "opening_hours": "PH,Mo-Su 07:30-22:45",
        "shop": "bakery"
      }
    },
    {
      "type": "node",
      "id": 5520247491,
      "lat": 13.0552023,
      "lon": 77.6021755,
      "tags": {
        "amenity": "atm",
        "brand": "State Bank of India",
        "brand:wikidata": "Q1340361",
        "check_date": "2024-12-28",
        "name": "State Bank of India",
        "name:kn": "ಭಾರತೀಯ ಸ್ಟೇಟ್ ಬ್ಯಾಂಕ್",
        "operator": "State Bank of India",
        "operator:wikidata": "Q1340361",
        "short_name": "SBI"
      }
    },
    {
      "type": "node",
      "id": 5520247492,
      "lat": 13.0554196,
      "lon": 77.6027913,
      "tags": {
        "name": "Santosh Jewellers",
        "shop": "jewelry"
      }
    },
    {
      "type": "node",
      "id": 5520247493,
      "lat": 13.0553658,
      "lon": 77.6030345,
      "tags": {
        "amenity": "pharmacy",
        "name": "Sandeep medicals"
      }
    },
    {
      "type": "node",
      "id": 5520247494,
      "lat": 13.0554077,
      "lon": 77.6026614,
      "tags": {
        "amenity": "fast_food",
        "name": "Chings"
      }
    },
    {
      "type": "node",
      "id": 5520248051,
      "lat": 13.0556948,
      "lon": 77.6003197,
      "tags": {
        "amenity": "kindergarten",
        "name": "Kriya preschool"
      }
    },
    {
      "type": "node",
      "id": 5520248052,
      "lat": 13.0553431,
      "lon": 77.6018446,
      "tags": {
        "amenity": "clinic",
        "name": "We care clinic"
      }
    },
    {
      "type": "node",
      "id": 5520248122,
      "lat": 13.0584437,
      "lon": 77.6025902,
      "tags": {
        "name": "Sri subrahmanya temple",
        "shop": "religion"
      }
    },
    {
      "type": "node",
      "id": 5520248452,
      "lat": 13.0553344,
      "lon": 77.6002401,
      "tags": {
        "check_date": "2024-07-08",
        "name": "Visiontech Opticals",
        "shop": "optician"
      }
    },
    {
      "type": "node",
      "id": 5520248629,
      "lat": 13.0551835,
      "lon": 77.6014661,
      "tags": {
        "name": "Fashion wear",
        "shop": "clothes"
      }
    },
    {
      "type": "node",
      "id": 5520248630,
      "lat": 13.0543228,
      "lon": 77.6014986,
      "tags": {
        "name": "Rithu saree collection",
        "shop": "clothes"
      }
    },
    {
      "type": "node",
      "id": 5520248631,
      "lat": 13.0551877,
      "lon": 77.6015928,
      "tags": {
        "amenity": "fast_food",
        "name": "Sri sai hot chips",
        "opening_hours": "PH,Mo-Su 08:00-22:00"
      }
    },
    {
      "type": "node",
      "id": 5520248632,
      "lat": 13.0551933,
      "lon": 77.6016426,
      "tags": {
        "amenity": "fast_food",
        "name": "Anu Sri"
      }
    },
    {
      "type": "node",
      "id": 5520248633,
      "lat": 13.0558683,
      "lon": 77.6001085,
      "tags": {
        "amenity": "clinic",
        "name": "Krishna Clinic",
        "name:kn": "ಕೃಷ್ಣ ಚಿಕಿತ್ಸಾಲಯ"
      }
    },
    {
      "type": "node",
      "id": 5520248634,
      "lat": 13.0551777,
      "lon": 77.6016728,
      "tags": {
        "name": "Mataji mobile and electronics",
        "opening_hours": "PH,Mo-Su 08:30-21:30",
        "shop": "mobile_phone"
      }
    },
    {
      "type": "node",
      "id": 5520248636,
      "lat": 13.0589676,
      "lon": 77.6031563,
      "tags": {
        "leisure": "sports_centre",
        "name": "SA elite sports"
      }
    },
    {
      "type": "node",
      "id": 5520248637,
      "lat": 13.0551606,
      "lon": 77.6004459,
      "tags": {
        "check_date": "2024-07-08",
        "name": "MS Traders",
        "shop": "hardware"
      }
    },
    {
      "type": "node",
      "id": 5520248638,
      "lat": 13.0552591,
      "lon": 77.6018292,
      "tags": {
        "amenity": "driving_school",
        "name": "Bhavani Driving school"
      }
    },
    {
      "type": "node",
      "id": 5520248641,
      "lat": 13.0551732,
      "lon": 77.6025151,
      "tags": {
        "name": "Nandini",
        "name:kn": "ನಂದಿನಿ",
        "opening_hours": "PH,Mo-Su 06:00-23:00",
        "shop": "dairy"
      }
    },
    {
      "type": "node",
      "id": 5520248642,
      "lat": 13.0553708,
      "lon": 77.6029726,
      "tags": {
        "name": "Balaji stores",
        "shop": "gift"
      }
    },
    {
      "type": "node",
      "id": 5520248643,
      "lat": 13.0554489,
      "lon": 77.6031778,
      "tags": {
        "amenity": "atm",
        "brand": "ICICI Bank",
        "brand:wikidata": "Q1653258",
        "name": "ICICI Bank",
        "name:kn": "ಐಸಿಐಸಿಐ ಬ್ಯಾಂಕು",
        "operator": "ICICI Bank",
        "operator:wikidata": "Q1653258",
        "short_name": "ICICI"
      }
    },
    {
      "type": "node",
      "id": 5520248644,
      "lat": 13.0554169,
      "lon": 77.6032158,
      "tags": {
        "name": "Mahalakshmi electricals",
        "shop": "electrical"
      }
    },
    {
      "type": "node",
      "id": 5520248777,
      "lat": 13.0550867,
      "lon": 77.6001726,
      "tags": {
        "name": "Choice mens salon",
        "shop": "beauty"
      }
    },
    {
      "type": "node",
      "id": 5520248783,
      "lat": 13.0554023,
      "lon": 77.6020789,
      "tags": {
        "amenity": "clinic",
        "name": "We care clinic"
      }
    },
    {
      "type": "node",
      "id": 5520248784,
      "lat": 13.055217,
      "lon": 77.6020252,
      "tags": {
        "name": "Sugreshwara provision store",
        "opening_hours": "PH,Mo-Su 07:00-22:30",
        "shop": "yes"
      }
    },
    {
      "type": "node",
      "id": 5520248785,
      "lat": 13.0552204,
      "lon": 77.6022782,
      "tags": {
        "name": "Bharath dry cleaners",
        "opening_hours": "Mo-Sa 09:00-21:00",
        "shop": "dry_cleaning"
      }
    },
    {
      "type": "node",
      "id": 5520248786,
      "lat": 13.0553748,
      "lon": 77.6027984,
      "tags": {
        "name": "Bhyaraveshwar rice traders",
        "shop": "yes"
      }
    },
    {
      "type": "node",
      "id": 5520248787,
      "lat": 13.0553857,
      "lon": 77.60315,
      "tags": {
        "name": "Mahaveer fashion",
        "shop": "fashion"
      }
    },
    {
      "type": "node",
      "id": 5520248788,
      "lat": 13.0554192,
      "lon": 77.6032016,
      "tags": {
        "name": "N.S mens parlour",
        "shop": "beauty"
      }
    },
    {
      "type": "node",
      "id": 5520248789,
      "lat": 13.0554387,
      "lon": 77.6027095,
      "tags": {
        "name": "Warzone",
        "shop": "games"
      }
    },
    {
      "type": "node",
      "id": 5520248821,
      "lat": 13.0554499,
      "lon": 77.6002759,
      "tags": {
        "name": "Shiva enterprises",
        "shop": "hardware"
      }
    },
    {
      "type": "node",
      "id": 5520250461,
      "lat": 13.0554795,
      "lon": 77.6023622,
      "tags": {
        "amenity": "clinic",
        "name": "Ayushmitra clinic"
      }
    },
    {
      "type": "node",
      "id": 5520252186,
      "lat": 13.0566666,
      "lon": 77.6013169,
      "tags": {
        "name": "Chowdeshwari Traders",
        "shop": "hardware"
      }
    },
    {
      "type": "node",
      "id": 5520252188,
      "lat": 13.055404,
      "lon": 77.6027452,
      "tags": {
        "amenity": "clinic",
        "name": "Sham's Child and Adult Care"
      }
    },
    {
      "type": "node",
      "id": 5520252317,
      "lat": 13.0551582,
      "lon": 77.6004529,
      "tags": {
        "check_date": "2024-07-08",
        "name": "Pragathi Chicken Centre",
        "shop": "farm"
      }
    },
    {
      "type": "node",
      "id": 5520252320,
      "lat": 13.0551939,
      "lon": 77.6022105,
      "tags": {
        "name": "Bhoomi Herbal Beauty Parlour",
        "shop": "beauty"
      }
    },
    {
      "type": "node",
      "id": 5520252371,
      "lat": 13.055175,
      "lon": 77.6003703,
      "tags": {
        "air_conditioning": "no",
        "amenity": "fast_food",
        "name": "Ruchi curry point"
      }
    },
    {
      "type": "node",
      "id": 5520252373,
      "lat": 13.0552036,
      "lon": 77.6018338,
      "tags": {
        "name": "Radhakrishna fancy store",
        "shop": "yes"
      }
    },
    {
      "type": "node",
      "id": 5520252374,
      "lat": 13.0553376,
      "lon": 77.6021935,
      "tags": {
        "amenity": "atm",
        "brand": "Bank of Baroda",
        "brand:wikidata": "Q2003797",
        "cash_in": "no",
        "name": "Bank of Baroda",
        "name:kn": "ಬ್ಯಾಂಕ್ ಆಫ್ ಬರೋಡ",
        "operator": "Bank of Baroda",
        "operator:wikidata": "Q2003797"
      }
    },
    {
      "type": "node",
      "id": 5520252375,
      "lat": 13.0552027,
      "lon": 77.6028234,
      "tags": {
        "addr:district": "Bengaluru Urban",
        "addr:full": "Bhuvaneswari Nagar, Hebbal Kempapura, Bengaluru",
        "addr:postcode": "560024",
        "addr:state": "Karnataka",
        "amenity": "hospital",
        "healthcare": "yes",
        "name": "Care Health",
        "source": "Local Knowledge"
      }
    },
    {
      "type": "node",
      "id": 5520252376,
      "lat": 13.0554214,
      "lon": 77.6028101,
      "tags": {
        "amenity": "fast_food",
        "name": "Maa Binduvasini Chats corner"
      }
    },
    {
      "type": "node",
      "id": 5520252377,
      "lat": 13.0554001,
      "lon": 77.6028356,
      "tags": {
        "name": "Anmol garments",
        "shop": "clothes"
      }
    },
    {
      "type": "node",
      "id": 5520252378,
      "lat": 13.0553818,
      "lon": 77.6030497,
      "tags": {
        "name": "Chamundeswari Electricals",
        "shop": "yes"
      }
    },
    {
      "type": "node",
      "id": 5520252458,
      "lat": 13.0552092,
      "lon": 77.601991,
      "tags": {
        "shop": "clothes"
      }
    },
    {
      "type": "node",
      "id": 5520252460,
      "lat": 13.0554447,
      "lon": 77.602758,
      "tags": {
        "name": "Shree Lakshmi gifts and fancy store",
        "shop": "convenience"
      }
    },
    {
      "type": "node",
      "id": 5520252461,
      "lat": 13.0553665,
      "lon": 77.6030063,
      "tags": {
        "name": "Dolly creations",
        "shop": "clothes"
      }
    },
    {
      "type": "node",
      "id": 5520252462,
      "lat": 13.0554599,
      "lon": 77.6031448,
      "tags": {
        "amenity": "clinic",
        "name": "Rangalakshmi Netralaya",
        "name:kn": "ರಂಗಸ್ವಾಮಿ ನೇತ್ರಾಲಯ"
      }
    },
    {
      "type": "node",
      "id": 5520252463,
      "lat": 13.0553978,
      "lon": 77.603267,
      "tags": {
        "name": "Fazil home needs",
        "shop": "department_store"
      }
    },
    {
      "type": "node",
      "id": 5520252521,
      "lat": 13.0551634,
      "lon": 77.6003358,
      "tags": {
        "name": "A. M buy and save",
        "shop": "yes"
      }
    },
    {
      "type": "node",
      "id": 5520252522,
      "lat": 13.0554016,
      "lon": 77.6028215,
      "tags": {
        "name": "Vinayaka stores",
        "shop": "yes"
      }
    },
    {
      "type": "node",
      "id": 5520252721,
      "lat": 13.0554228,
      "lon": 77.602798,
      "tags": {
        "name": "RS color lab and studio",
        "shop": "photo_studio"
      }
    },
    {
      "type": "node",
      "id": 5520252723,
      "lat": 13.0554013,
      "lon": 77.6032044,
      "tags": {
        "amenity": "clinic",
        "name": "Sri Vinayaka Diagnostic Laboratory"
      }
    },
    {
      "type": "node",
      "id": 5524163967,
      "lat": 13.0551061,
      "lon": 77.6009609,
      "tags": {
        "name": "Microtek computers",
        "opening_hours": "Mo-Sa 09:00-21:00",
        "shop": "computer"
      }
    },
    {
      "type": "node",
      "id": 5524164989,
      "lat": 13.0551721,
      "lon": 77.6013115,
      "tags": {
        "amenity": "atm",
        "brand": "Axis Bank",
        "brand:wikidata": "Q2003549",
        "cash_in": "yes",
        "name": "Axis Bank",
        "name:kn": "ಆಕ್ಸಿಸ್ ಬ್ಯಾಂಕ್",
        "operator": "Axis Bank",
        "operator:wikidata": "Q2003549"
      }
    },
    {
      "type": "node",
      "id": 5524165029,
      "lat": 13.0551777,
      "lon": 77.6013724,
      "tags": {
        "amenity": "dentist",
        "check_date:opening_hours": "2023-09-22",
        "name": "Dento world",
        "opening_hours": "Mo-Sa 10:30-13:30,16:30-21:00; Su 11:00-13:00"
      }
    },
    {
      "type": "node",
      "id": 5524165030,
      "lat": 13.0551729,
      "lon": 77.6012573,
      "tags": {
        "name": "Varnika herbal beauty parlour",
        "shop": "beauty"
      }
    },
    {
      "type": "node",
      "id": 5524165031,
      "lat": 13.0551718,
      "lon": 77.6012008,
      "tags": {
        "amenity": "fast_food",
        "name": "Klassy Namkeen Mart"
      }
    },
    {
      "type": "node",
      "id": 5524165032,
      "lat": 13.0551752,
      "lon": 77.6011293,
      "tags": {
        "name": "Santosh Jewellers",
        "shop": "jewelry"
      }
    },
    {
      "type": "node",
      "id": 5524165033,
      "lat": 13.055118,
      "lon": 77.6010506,
      "tags": {
        "name": "Gopala platinum TMT",
        "opening_hours": "Mo-Sa 10:00-20:30",
        "shop": "trade"
      }
    },
    {
      "type": "node",
      "id": 5524165034,
      "lat": 13.0551196,
      "lon": 77.6009229,
      "tags": {
        "name": "Karnataka garage",
        "opening_hours": "PH,We,Th,Sa-Mo 08:00-22:30",
        "shop": "car_repair"
      }
    },
    {
      "type": "node",
      "id": 5838249385,
      "lat": 13.0580013,
      "lon": 77.5960278,
      "tags": {
        "amenity": "restaurant",
        "name": "Balaji Andhra Mess"
      }
    },
    {
      "type": "node",
      "id": 6239093323,
      "lat": 13.0544039,
      "lon": 77.6021484,
      "tags": {
        "leisure": "park",
        "name": "Bhuvaneshwari Nagar Park",
        "name:kn": "ಭುವನೇಶ್ವರಿ ನಗರ ಉದ್ಯಾನವನ"
      }
    },
    {
      "type": "node",
      "id": 6569023749,
      "lat": 13.0565998,
      "lon": 77.5945406,
      "tags": {
        "addr:city": "Bengaluru",
        "addr:country": "IN",
        "addr:housename": "RMZ Latitude",
        "addr:postcode": "560024",
        "addr:street": "Bellary Road",
        "addr:suburb": "Hebbal",
        "addr:unit": "9th Floor",
        "amenity": "coworking_space",
        "brand": "WeWork",
        "brand:wikidata": "Q19995004",
        "fee": "yes",
        "level": "9",
        "name": "WeWork",
        "office": "coworking",
        "operator": "WeWork",
        "website": "https://www.wework.com/buildings/rmz-latitude-commercial--bengaluru--Karnataka"
      }
    },
    {
      "type": "node",
      "id": 7178597284,
      "lat": 13.0491295,
      "lon": 77.601753,
      "tags": {
        "addr:city": "Bengaluru",
        "addr:country": "IN",
        "addr:housenumber": "29",
        "addr:postcode": "560024",
        "addr:suburb": "Hebbal Kempapura",
        "alt_name": "Loafer and Company",
        "amenity": "cafe",
        "email": "loaferandco@gmail.com",
        "mobile": "+91 77607 60727",
        "name": "Loafer and Co.",
        "shop": "bakery",
        "website": "https://loaferandco.com"
      }
    },
    {
      "type": "node",
      "id": 7299151125,
      "lat": 13.0489609,
      "lon": 77.6038874,
      "tags": {
        "addr:city": "Bengaluru",
        "addr:country": "IN",
        "addr:hamlet": "Coffee Board Layout",
        "addr:housenumber": "291",
        "addr:postcode": "560024",
        "addr:street": "3rd Main Road",
        "addr:suburb": "Hebbal Kempapura",
        "amenity": "school",
        "name": "Drishti School of Photography"
      }
    },
    {
      "type": "node",
      "id": 7299151126,
      "lat": 13.0489518,
      "lon": 77.6039886,
      "tags": {
        "addr:city": "Bengaluru",
        "addr:country": "IN",
        "addr:hamlet": "Coffee Board Layout",
        "addr:housenumber": "291",
        "addr:postcode": "560024",
        "addr:street": "3rd Main Road",
        "addr:suburb": "Hebbal Kempapura",
        "amenity": "school",
        "email": "music@nathanielschool.com",
        "name": "Nathaniel School of Music",
        "website": "https://www.nathanielschool.com/"
      }
    },
    {
      "type": "node",
      "id": 7299778071,
      "lat": 13.0491647,
      "lon": 77.6026073,
      "tags": {
        "amenity": "bank",
        "atm": "yes",
        "brand": "Corporation Bank",
        "name": "Corporation Bank",
        "name:kn": "ಕಾರ್ಪರೇಷನ್ ಬ್ಯಾಂಕ್",
        "operator": "Corporation Bank"
      }
    },
    {
      "type": "node",
      "id": 7577248185,
      "lat": 13.0569345,
      "lon": 77.6109416,
      "tags": {
        "addr:district": "Bengaluru Urban",
        "addr:full": "Dasarahalli, Bengaluru",
        "addr:postcode": "560092",
        "addr:state": "Karnataka",
        "amenity": "clinic",
        "name": "Sangameshwara Clinic",
        "source": "Local Knowledge"
      }
    },
    {
      "type": "node",
      "id": 7577248198,
      "lat": 13.0522989,
      "lon": 77.6040414,
      "tags": {
        "addr:district": "Bengaluru Urban",
        "addr:full": "Kempapura Main Road, Hebbal, Bengaluru",
        "addr:postcode": "560024",
        "addr:state": "Karnataka",
        "amenity": "dentist",
        "name": "Sai Surya Multi - Speciality Dental Clinic",
        "source": "Local Knowledge"
      }
    },
    {
      "type": "node",
      "id": 7577248203,
      "lat": 13.055649,
      "lon": 77.605321,
      "tags": {
        "addr:district": "Bengaluru Urban",
        "addr:full": "Bhuvaneswari Nagar, Bengaluru",
        "addr:postcode": "560024",
        "addr:state": "Karnataka",
        "amenity": "dentist",
        "name": "Bhavana Dental Care",
        "source": "Local Knowledge"
      }
    },
    {
      "type": "node",
      "id": 7577248204,
      "lat": 13.0544322,
      "lon": 77.6038273,
      "tags": {
        "addr:district": "Bengaluru Urban",
        "addr:full": "Bhuvaneswari Nagar, Hebbal Kempapura, Bengaluru",
        "addr:postcode": "560024",
        "addr:state": "Karnataka",
        "amenity": "clinic",
        "name": "Dr. Uma Homeo Clinic",
        "source": "Local Knowledge"
      }
    },
    {
      "type": "node",
      "id": 7577248207,
      "lat": 13.0555334,
      "lon": 77.6044008,
      "tags": {
        "addr:district": "Bengaluru Urban",
        "addr:full": "Bhuvaneshwari Nagar, Hebbal Kempapura, Bengaluru",
        "addr:postcode": "560024",
        "addr:state": "Karnataka",
        "amenity": "clinic",
        "name": "Dr. Archana's ENT Care Centre",
        "source": "Local Knowledge"
      }
    },
    {
      "type": "node",
      "id": 7577248216,
      "lat": 13.0555615,
      "lon": 77.6044933,
      "tags": {
        "addr:district": "Bengaluru Urban",
        "addr:full": "Bhuvaneswari Nagar, Hebbal Kempapura, Bengaluru",
        "addr:postcode": "560024",
        "addr:state": "Karnataka",
        "amenity": "clinic",
        "name": "Agastya Speciality Clinic",
        "source": "Local Knowledge"
      }
    },
    {
      "type": "node",
      "id": 7577248224,
      "lat": 13.0528211,
      "lon": 77.6041042,
      "tags": {
        "addr:district": "Bengaluru Urban",
        "addr:full": "Hebbal Kempapura, Bengaluru",
        "addr:postcode": "560024",
        "addr:state": "Karnataka",
        "amenity": "hospital",
        "check_date": "2024-07-08",
        "name": "Icon Hospital",
        "source": "Local Knowledge"
      }
    },
    {
      "type": "node",
      "id": 7577248232,
      "lat": 13.0543269,
      "lon": 77.6038207,
      "tags": {
        "addr:district": "Bengaluru Urban",
        "addr:full": "Bhuvaneswari Nagar, Hebbal Kempapura, Bengaluru",
        "addr:postcode": "560024",
        "addr:state": "Karnataka",
        "amenity": "clinic",
        "name": "Merlins Trichology Clinic",
        "source": "Local Knowledge"
      }
    },
    {
      "type": "node",
      "id": 7577248241,
      "lat": 13.0555779,
      "lon": 77.6050535,
      "tags": {
        "addr:district": "Bengaluru Urban",
        "addr:full": "Bhuvaneswari Nagar, Hebbal Kempapura, Bengaluru",
        "addr:state": "Karnataka",
        "shop": "convenience",
        "source": "Local Knowledge"
      }
    },
    {
      "type": "node",
      "id": 7577248243,
      "lat": 13.0556587,
      "lon": 77.6026264,
      "tags": {
        "addr:district": "Bengaluru Urban",
        "addr:full": "Bhuvaneswari Nagar, Hebbal Kempapura, Bengaluru",
        "addr:postcode": "560092",
        "addr:state": "Karnataka",
        "amenity": "clinic",
        "name": "Sham's Child and Adult Care",
        "source": "Local Knowledge"
      }
    },
    {
      "type": "node",
      "id": 7577248244,
      "lat": 13.0552275,
      "lon": 77.6024335,
      "tags": {
        "addr:district": "Bengaluru Urban",
        "addr:full": "Rajanna Building, Vidyaranyapura, Bengaluru",
        "addr:postcode": "560097",
        "addr:state": "Karnataka",
        "amenity": "clinic",
        "name": "Prarthana Home Health Care",
        "source": "Local Knowledge"
      }
    },
    {
      "type": "node",
      "id": 7577248252,
      "lat": 13.055296,
      "lon": 77.601208,
      "tags": {
        "addr:district": "Bengaluru Urban",
        "addr:full": "Varma Layout, Bhuvaneswari Nagar, Hebbal, Bengaluru",
        "addr:postcode": "560092",
        "addr:state": "Karnataka",
        "amenity": "dentist",
        "name": "D Care Dental Clinic",
        "source": "Local Knowledge"
      }
    },
    {
      "type": "node",
      "id": 7577248263,
      "lat": 13.0530655,
      "lon": 77.6050627,
      "tags": {
        "addr:district": "Bengaluru Urban",
        "addr:full": "Bhuvaneswari Nagar, Hebbal Kempapura, Bengaluru",
        "addr:postcode": "560024",
        "addr:state": "Karnataka",
        "amenity": "clinic",
        "name": "Saaol Heart Centre",
        "source": "Local Knowledge"
      }
    },
    {
      "type": "node",
      "id": 8442476340,
      "lat": 13.0555416,
      "lon": 77.6079033,
      "tags": {
        "amenity": "restaurant",
        "cuisine": "asian",
        "delivery": "only",
        "name": "Baohood",
        "takeaway": "only"
      }
    },
    {
      "type": "node",
      "id": 9830286756,
      "lat": 13.0556585,
      "lon": 77.6066025,
      "tags": {
        "name": "Pollution Check",
        "opening_hours": "Mo-Sa 09:00-17:30",
        "shop": "car_parts"
      }
    },
    {
      "type": "node",
      "id": 9830286757,
      "lat": 13.0556637,
      "lon": 77.6065435,
      "tags": {
        "access": "customers",
        "amenity": "toilets",
        "wheelchair": "yes"
      }
    },
    {
      "type": "node",
      "id": 10009663770,
      "lat": 13.0489854,
      "lon": 77.6035078,
      "tags": {
        "name": "Raasa Spirits1",
        "shop": "alcohol"
      }
    },
    {
      "type": "node",
      "id": 10009663771,
      "lat": 13.0492346,
      "lon": 77.6035398,
      "tags": {
        "name": "Naturals",
        "shop": "hairdresser"
      }
    },
    {
      "type": "node",
      "id": 10009663792,
      "lat": 13.0495152,
      "lon": 77.6038357,
      "tags": {
        "amenity": "bank",
        "brand": "Kotak Mahindra Bank",
        "brand:wikidata": "Q2040404",
        "name": "Kotak Mahindra Bank"
      }
    },
    {
      "type": "node",
      "id": 10009663793,
      "lat": 13.0495713,
      "lon": 77.6038451,
      "tags": {
        "amenity": "atm",
        "brand": "Kotak Mahindra Bank",
        "brand:wikidata": "Q2040404",
        "name": "Kotak Mahindra Bank",
        "name:kn": "ಕೋಟಕ್ ಮಹಿಂದ್ರ ಬ್ಯಾಂಕ್",
        "operator": "Kotak Mahindra Bank",
        "operator:wikidata": "Q2040404"
      }
    },
    {
      "type": "node",
      "id": 10009663799,
      "lat": 13.0514678,
      "lon": 77.6041664,
      "tags": {
        "amenity": "pharmacy",
        "dispensing": "yes",
        "healthcare": "pharmacy",
        "name": "Brothers Chemist"
      }
    },
    {
      "type": "node",
      "id": 10009663804,
      "lat": 13.0522981,
      "lon": 77.6042904,
      "tags": {
        "air_conditioning": "no",
        "amenity": "restaurant",
        "cuisine": "south_indian;north_indian;juice;snacks",
        "name": "Udupi Upachar",
        "opening_hours": "PH,Mo-Su 07:30-22:45"
      }
    },
    {
      "type": "node",
      "id": 10009663809,
      "lat": 13.0533486,
      "lon": 77.6044178,
      "tags": {
        "amenity": "ice_cream",
        "name": "Apsara Ice Cream",
        "opening_hours": "PH,Mo-Su 10:00-22:00"
      }
    },
    {
      "type": "node",
      "id": 10009663810,
      "lat": 13.0532734,
      "lon": 77.6044159,
      "tags": {
        "name": "Pat-a-Cake",
        "opening_hours": "PH,Mo-Su 08:00-22:00",
        "shop": "bakery"
      }
    },
    {
      "type": "node",
      "id": 10009663815,
      "lat": 13.0531427,
      "lon": 77.604269,
      "tags": {
        "female": "yes",
        "male": "yes",
        "name": "Green Trends",
        "shop": "hairdresser"
      }
    },
    {
      "type": "node",
      "id": 10253351087,
      "lat": 13.050194,
      "lon": 77.6075951,
      "tags": {
        "amenity": "post_office",
        "name": "Hebbal Kempapura"
      }
    },
    {
      "type": "node",
      "id": 10253351092,
      "lat": 13.0503903,
      "lon": 77.6079829,
      "tags": {
        "amenity": "childcare",
        "name": "Kidzee"
      }
    },
    {
      "type": "node",
      "id": 10253392437,
      "lat": 13.0509726,
      "lon": 77.608188,
      "tags": {
        "name": "Magic touch Saloon",
        "shop": "hairdresser"
      }
    },
    {
      "type": "node",
      "id": 10253392438,
      "lat": 13.0507467,
      "lon": 77.608711,
      "tags": {
        "name": "Page Unisex Hair Salon",
        "shop": "hairdresser"
      }
    },
    {
      "type": "node",
      "id": 10695273908,
      "lat": 13.0553339,
      "lon": 77.5940306,
      "tags": {
        "addr:city": "Bangalore",
        "addr:country": "IN",
        "addr:housename": "Godrej Azure",
        "addr:postcode": "560024",
        "addr:street": "Bellary Road",
        "addr:suburb": "Hebbal",
        "amenity": "restaurant",
        "cuisine": "italian",
        "name": "Chianti"
      }
    },
    {
      "type": "node",
      "id": 10695273909,
      "lat": 13.0553896,
      "lon": 77.5943314,
      "tags": {
        "addr:city": "Bangalore",
        "addr:country": "IN",
        "addr:housename": "Godrej Azure",
        "addr:postcode": "560024",
        "addr:street": "Bellary Road",
        "addr:suburb": "Hebbal",
        "amenity": "pub",
        "level": "12",
        "name": "Candles Brewhouse",
        "opening_hours": "12:00-01:00",
        "toilets:wheelchair": "yes",
        "wheelchair": "yes"
      }
    },
    {
      "type": "node",
      "id": 10944433589,
      "lat": 13.055451,
      "lon": 77.5940239,
      "tags": {
        "addr:city": "Bangalore",
        "addr:country": "IN",
        "addr:hamlet": "Hebbal",
        "addr:street": "Bellary Road",
        "amenity": "restaurant",
        "cuisine": "american",
        "delivery": "yes",
        "name": "Hebbal Social",
        "smoking": "separated",
        "takeaway": "yes"
      }
    },
    {
      "type": "node",
      "id": 11205796364,
      "lat": 13.0552622,
      "lon": 77.5941685,
      "tags": {
        "amenity": "restaurant",
        "cuisine": "barbecue",
        "name": "Barbeque Nation",
        "name:kn": "ಬರ್ಬಕ್ಯು ನೇಶನ್"
      }
    },
    {
      "type": "node",
      "id": 11331084829,
      "lat": 13.053932,
      "lon": 77.6019154,
      "tags": {
        "name": "Kaveri Provision Store",
        "opening_hours": "PH,Mo-Su 08:00-22:00",
        "shop": "convenience"
      }
    },
    {
      "type": "node",
      "id": 11331106376,
      "lat": 13.0541756,
      "lon": 77.6019547,
      "tags": {
        "name": "Vishnu Electricals",
        "opening_hours": "PH,Mo-Su 08:00-22:00",
        "shop": "electrical"
      }
    },
    {
      "type": "node",
      "id": 11331119805,
      "lat": 13.0538127,
      "lon": 77.6020437,
      "tags": {
        "name": "Manjunatha Condiments",
        "opening_hours": "Mo-Sa 06:00-22:55",
        "shop": "bakery"
      }
    },
    {
      "type": "node",
      "id": 11331123897,
      "lat": 13.0538903,
      "lon": 77.6020598,
      "tags": {
        "name": "Mahima Kerala Store",
        "opening_hours": "Mo-Fr 07:30-21:30",
        "shop": "convenience"
      }
    },
    {
      "type": "node",
      "id": 11331124545,
      "lat": 13.0538541,
      "lon": 77.6020498,
      "tags": {
        "name": "Mangalore Jewellery",
        "opening_hours": "Mo-Sa 10:00-21:30",
        "shop": "jewelry"
      }
    },
    {
      "type": "node",
      "id": 11331134583,
      "lat": 13.0540609,
      "lon": 77.601974,
      "tags": {
        "name": "Sri Nandikeshwara Condiments and Juice Centre",
        "opening_hours": "PH,Mo-Su 05:30-23:00",
        "shop": "bakery"
      }
    },
    {
      "type": "node",
      "id": 11331139537,
      "lat": 13.0540013,
      "lon": 77.6019531,
      "tags": {
        "name": "Balaji Rice Traders",
        "opening_hours": "Mo-Su 07:30-22:30",
        "shop": "convenience"
      }
    },
    {
      "type": "node",
      "id": 11331151080,
      "lat": 13.0537913,
      "lon": 77.6019048,
      "tags": {
        "amenity": "place_of_worship",
        "denomination": "shaivism",
        "name": "Sri Ayappa Swamy Temple",
        "religion": "hindu",
        "wheelchair": "no"
      }
    },
    {
      "type": "node",
      "id": 11331152303,
      "lat": 13.0542418,
      "lon": 77.6019172,
      "tags": {
        "name": "Dmart",
        "opening_hours": "PH,Mo-Su 08:00-22:30",
        "shop": "supermarket"
      }
    },
    {
      "type": "node",
      "id": 11331322601,
      "lat": 13.0555168,
      "lon": 77.6031771,
      "tags": {
        "amenity": "bank",
        "brand": "ICICI Bank",
        "brand:wikidata": "Q1653258",
        "name": "ICICI Bank",
        "name:kn": "ಐಸಿಐಸಿಐ ಬ್ಯಾಂಕು",
        "short_name": "ICICI"
      }
    },
    {
      "type": "node",
      "id": 11331338138,
      "lat": 13.0543625,
      "lon": 77.6019076,
      "tags": {
        "name": "Cake Rois",
        "shop": "bakery"
      }
    },
    {
      "type": "node",
      "id": 11331363306,
      "lat": 13.0551083,
      "lon": 77.6018956,
      "tags": {
        "amenity": "car_wash",
        "automated": "no",
        "name": "Sri Hari Car Detailing",
        "self_service": "no"
      }
    },
    {
      "type": "node",
      "id": 11331367482,
      "lat": 13.0552429,
      "lon": 77.6020012,
      "tags": {
        "name": "8 Cloud 8",
        "shop": "clothes"
      }
    },
    {
      "type": "node",
      "id": 11331384652,
      "lat": 13.054318,
      "lon": 77.6019187,
      "tags": {
        "amenity": "pharmacy",
        "healthcare": "pharmacy",
        "name": "Aster Pharmacy",
        "name:kn": "ಆಸ್ಟರ್ ಫಾರ್ಮಸಿ",
        "opening_hours": "PH,Mo-Su 08:00-22:30"
      }
    },
    {
      "type": "node",
      "id": 11558531937,
      "lat": 13.0632285,
      "lon": 77.6068687,
      "tags": {
        "name": "Stay Bangalore - Lodging",
        "shop": "pet"
      }
    },
    {
      "type": "node",
      "id": 12033535265,
      "lat": 13.0587919,
      "lon": 77.5988774,
      "tags": {
        "name": "Essentials Super market",
        "shop": "convenience"
      }
    },
    {
      "type": "node",
      "id": 12035761937,
      "lat": 13.0568105,
      "lon": 77.6008798,
      "tags": {
        "name": "Downsized",
        "shop": "bakery"
      }
    },
    {
      "type": "node",
      "id": 12052440872,
      "lat": 13.0577032,
      "lon": 77.5957551,
      "tags": {
        "check_date": "2024-07-11",
        "name": "Master Mech",
        "shop": "car_repair"
      }
    },
    {
      "type": "node",
      "id": 12052440873,
      "lat": 13.0577834,
      "lon": 77.5955446,
      "tags": {
        "amenity": "car_wash",
        "check_date": "2024-07-11"
      }
    },
    {
      "type": "node",
      "id": 12052440874,
      "lat": 13.0577123,
      "lon": 77.5952894,
      "tags": {
        "check_date": "2024-07-11",
        "name": "ARJ Car care",
        "shop": "car_repair"
      }
    },
    {
      "type": "node",
      "id": 12052440875,
      "lat": 13.0577588,
      "lon": 77.595066,
      "tags": {
        "amenity": "restaurant",
        "check_date": "2024-07-11",
        "name": "Sanjay Punjabi Dhaba"
      }
    },
    {
      "type": "node",
      "id": 12052440876,
      "lat": 13.0578649,
      "lon": 77.5949142,
      "tags": {
        "amenity": "restaurant",
        "check_date": "2024-07-11",
        "name": "RRR Royal Gardenia"
      }
    },
    {
      "type": "node",
      "id": 12052440877,
      "lat": 13.0580143,
      "lon": 77.594705,
      "tags": {
        "check_date": "2024-07-11",
        "shop": "car_repair"
      }
    },
    {
      "type": "node",
      "id": 12101126903,
      "lat": 13.058349,
      "lon": 77.6032027,
      "tags": {
        "addr:city": "Bengaluru",
        "addr:country": "IN",
        "addr:district": "Bengaluru Urban",
        "addr:place": "Somanna Layout, Dasarahalli",
        "addr:postcode": "560024",
        "addr:state": "KA",
        "addr:street": "1st Cross Road",
        "level": "0",
        "male": "yes",
        "mobile": "+91 95306 23112",
        "name": "Govardhan Men's Parlour",
        "nohousenumber": "yes",
        "phone": "+91 95306 23112",
        "shop": "hairdresser",
        "wheelchair": "limited"
      }
    },
    {
      "type": "node",
      "id": 12511779660,
      "lat": 13.0545486,
      "lon": 77.595394,
      "tags": {
        "amenity": "parking_entrance"
      }
    },
    {
      "type": "node",
      "id": 12511779666,
      "lat": 13.0554671,
      "lon": 77.595573,
      "tags": {
        "amenity": "parking_entrance"
      }
    },
    {
      "type": "node",
      "id": 12511779676,
      "lat": 13.0548586,
      "lon": 77.5974706,
      "tags": {
        "amenity": "parking_entrance"
      }
    },
    {
      "type": "node",
      "id": 12862846458,
      "lat": 13.0550698,
      "lon": 77.6005716,
      "tags": {
        "amenity": "fast_food",
        "cuisine": "burger;wings;chicken",
        "delivery": "yes",
        "name": "Big Guys: Wings & More",
        "takeaway": "yes"
      }
    },
    {
      "type": "node",
      "id": 13013792931,
      "lat": 13.0501668,
      "lon": 77.5974025,
      "tags": {
        "amenity": "fast_food",
        "name": "Harvest Salad Co"
      }
    },
    {
      "type": "node",
      "id": 13013792932,
      "lat": 13.0498604,
      "lon": 77.5975306,
      "tags": {
        "amenity": "ice_cream",
        "brand": "Polar Bear",
        "brand:wikidata": "Q124374249",
        "delivery": "yes",
        "name": "Polar Bear",
        "takeaway": "yes"
      }
    },
    {
      "type": "node",
      "id": 13013792933,
      "lat": 13.0502165,
      "lon": 77.5974052,
      "tags": {
        "amenity": "fast_food",
        "cuisine": "mexican",
        "name": "Maiz Mexican Kitchen"
      }
    },
    {
      "type": "way",
      "id": 133857696,
      "center": {
        "lat": 13.05766,
        "lon": 77.5982396
      },
      "tags": {
        "designation": "Amruth Nagar Park",
        "leisure": "park",
        "name": "BBMP Park",
        "name:kn": "ಬೃ. ಬೆ. ಮ. ಪಾ. ಉದ್ಯಾನವನ"
      }
    },
    {
      "type": "way",
      "id": 133857715,
      "center": {
        "lat": 13.054544,
        "lon": 77.6024809
      },
      "tags": {
        "check_date:opening_hours": "2023-09-21",
        "leisure": "park",
        "name": "Bhuvaneswari Nagar Park",
        "name:kn": "ಭುವನೇಶ್ವರಿ ನಗರ ಉದ್ಯಾನವನ",
        "opening_hours": "Mo-Su 08:00-22:00"
      }
    },
    {
      "type": "way",
      "id": 133857743,
      "center": {
        "lat": 13.058326,
        "lon": 77.5986015
      },
      "tags": {
        "leisure": "pitch",
        "name": "Sharada School Ground",
        "sport": "volleyball"
      }
    },
    {
      "type": "way",
      "id": 172920310,
      "center": {
        "lat": 13.0525398,
        "lon": 77.605621
      },
      "tags": {
        "leisure": "park",
        "name": "Coffee Board Layout Park"
      }
    },
    {
      "type": "way",
      "id": 255910641,
      "center": {
        "lat": 13.0545782,
        "lon": 77.6024216
      },
      "tags": {
        "amenity": "place_of_worship",
        "name": "Shri Bhuvaneshwari Temple",
        "name:kn": "ಭುವನೇಶ್ವರಿ",
        "religion": "hindu"
      }
    },
    {
      "type": "way",
      "id": 346481825,
      "center": {
        "lat": 13.0569304,
        "lon": 77.5985304
      },
      "tags": {
        "amenity": "police",
        "name": "Amrutahalli Police Station",
        "name:kn": "ಅಮೃತಹಳ್ಳಿ ಆರಕ್ಷಕ ಠಾಣೆ"
      }
    },
    {
      "type": "way",
      "id": 417316848,
      "center": {
        "lat": 13.0506431,
        "lon": 77.5980043
      },
      "tags": {
        "amenity": "college",
        "email": "contact@presidency.edu.in",
        "landuse": "education",
        "name": "Presidency College",
        "name:kn": "ಪ್ರೆಸಿಡೆನ್ಸಿ ಕಾಲೇಜು",
        "phone": "+91 80 42478700",
        "smoking": "no",
        "start_date": "2000",
        "website": "https://presidencycollege.ac.in/",
        "wikidata": "Q7241086",
        "wikipedia": "en:Presidency College, Bangalore"
      }
    },
    {
      "type": "way",
      "id": 627954044,
      "center": {
        "lat": 13.0554024,
        "lon": 77.5949145
      },
      "tags": {
        "leisure": "pitch",
        "sport": "badminton"
      }
    },
    {
      "type": "way",
      "id": 627954045,
      "center": {
        "lat": 13.0546795,
        "lon": 77.5967028
      },
      "tags": {
        "access": "private",
        "leisure": "swimming_pool"
      }
    },
    {
      "type": "way",
      "id": 732232659,
      "center": {
        "lat": 13.0547142,
        "lon": 77.5944122
      },
      "tags": {
        "leisure": "swimming_pool"
      }
    },
    {
      "type": "way",
      "id": 732232667,
      "center": {
        "lat": 13.0502138,
        "lon": 77.5950811
      },
      "tags": {
        "leisure": "park"
      }
    },
    {
      "type": "way",
      "id": 732232684,
      "center": {
        "lat": 13.0509589,
        "lon": 77.5956976
      },
      "tags": {
        "access": "permissive",
        "amenity": "parking"
      }
    },
    {
      "type": "way",
      "id": 765173015,
      "center": {
        "lat": 13.0485024,
        "lon": 77.602199
      },
      "tags": {
        "leisure": "sports_centre"
      }
    },
    {
      "type": "way",
      "id": 765173018,
      "center": {
        "lat": 13.0480856,
        "lon": 77.60226
      },
      "tags": {
        "leisure": "pitch",
        "sport": "tennis"
      }
    },
    {
      "type": "way",
      "id": 765173019,
      "center": {
        "lat": 13.0481052,
        "lon": 77.6024196
      },
      "tags": {
        "leisure": "pitch",
        "sport": "basketball"
      }
    },
    {
      "type": "way",
      "id": 765173020,
      "center": {
        "lat": 13.0485354,
        "lon": 77.6024024
      },
      "tags": {
        "access": "permissive",
        "leisure": "swimming_pool",
        "sport": "swimming"
      }
    },
    {
      "type": "way",
      "id": 765173021,
      "center": {
        "lat": 13.0481133,
        "lon": 77.6021231
      },
      "tags": {
        "leisure": "pitch",
        "sport": "tennis"
      }
    },
    {
      "type": "way",
      "id": 781852602,
      "center": {
        "lat": 13.0506022,
        "lon": 77.5985849
      },
      "tags": {
        "addr:city": "Bangalore",
        "addr:housenumber": "10/7",
        "addr:postcode": "560001",
        "addr:street": "Kumar Krupa Road, Sheshadripuram",
        "amenity": "school",
        "email": "shs.kkroad@sindhihighschool.edu.in",
        "name": "Sindhi High School",
        "name:kn": "ಸಿಂಧಿ ಪ್ರೌಢಶಾಲೆ",
        "phone": "+91 80 2226 1509",
        "school:gender": "mixed",
        "website": "https://www.sindhischoolkkr.com/",
        "wikidata": "Q7522192",
        "wikipedia": "en:Sindhi High School, Hebbal"
      }
    },
    {
      "type": "way",
      "id": 782116423,
      "center": {
        "lat": 13.0565813,
        "lon": 77.5949501
      },
      "tags": {
        "leisure": "pitch",
        "sport": "tennis"
      }
    },
    {
      "type": "way",
      "id": 1121011649,
      "center": {
        "lat": 13.0500499,
        "lon": 77.6077609
      },
      "tags": {
        "leisure": "pitch",
        "name": "Suprad Badminton",
        "sport": "badminton"
      }
    },
    {
      "type": "way",
      "id": 1210533411,
      "center": {
        "lat": 13.0565997,
        "lon": 77.5951232
      },
      "tags": {
        "leisure": "swimming_pool"
      }
    },
    {
      "type": "way",
      "id": 1210533412,
      "center": {
        "lat": 13.0564589,
        "lon": 77.5952202
      },
      "tags": {
        "leisure": "swimming_pool"
      }
    },
    {
      "type": "way",
      "id": 1210533426,
      "center": {
        "lat": 13.052985,
        "lon": 77.5972431
      },
      "tags": {
        "access": "private",
        "leisure": "swimming_pool"
      }
    },
    {
      "type": "way",
      "id": 1210533428,
      "center": {
        "lat": 13.0522106,
        "lon": 77.5958807
      },
      "tags": {
        "access": "private",
        "leisure": "swimming_pool"
      }
    },
    {
      "type": "way",
      "id": 1217466585,
      "center": {
        "lat": 13.0634486,
        "lon": 77.6049795
      },
      "tags": {
        "leisure": "park"
      }
    },
    {
      "type": "way",
      "id": 1220056673,
      "center": {
        "lat": 13.0618784,
        "lon": 77.5950098
      },
      "tags": {
        "leisure": "park"
      }
    },
    {
      "type": "way",
      "id": 1220056676,
      "center": {
        "lat": 13.0625281,
        "lon": 77.5957896
      },
      "tags": {
        "leisure": "playground"
      }
    },
    {
      "type": "way",
      "id": 1220056677,
      "center": {
        "lat": 13.0625178,
        "lon": 77.595957
      },
      "tags": {
        "leisure": "pitch",
        "sport": "basketball"
      }
    },
    {
      "type": "way",
      "id": 1220056678,
      "center": {
        "lat": 13.0620176,
        "lon": 77.5949474
      },
      "tags": {
        "leisure": "pitch",
        "sport": "soccer"
      }
    },
    {
      "type": "way",
      "id": 1240788922,
      "center": {
        "lat": 13.0474679,
        "lon": 77.6038127
      },
      "tags": {
        "access": "private",
        "leisure": "pitch",
        "sport": "basketball"
      }
    },
    {
      "type": "way",
      "id": 1244997551,
      "center": {
        "lat": 13.0604899,
        "lon": 77.59468
      },
      "tags": {
        "access": "permissive",
        "amenity": "parking",
        "parking": "surface"
      }
    },
    {
      "type": "way",
      "id": 1279046877,
      "center": {
        "lat": 13.0581868,
        "lon": 77.593874
      },
      "tags": {
        "amenity": "fuel",
        "brand": "Indian Oil",
        "brand:wikidata": "Q1289348",
        "compressed_air": "yes",
        "fuel:diesel": "yes",
        "name": "Indian Oil",
        "name:kn": "ಇಂಡಿಯನ್ ಆಯಿಲ್",
        "operator": "Indian Oil"
      }
    },
    {
      "type": "way",
      "id": 1279046878,
      "center": {
        "lat": 13.0584725,
        "lon": 77.5951688
      },
      "tags": {
        "leisure": "pitch",
        "sport": "tennis"
      }
    },
    {
      "type": "way",
      "id": 1285573874,
      "center": {
        "lat": 13.0541499,
        "lon": 77.5980456
      },
      "tags": {
        "leisure": "park"
      }
    },
    {
      "type": "way",
      "id": 1285574012,
      "center": {
        "lat": 13.0525661,
        "lon": 77.6037409
      },
      "tags": {
        "amenity": "school"
      }
    },
    {
      "type": "way",
      "id": 1286715554,
      "center": {
        "lat": 13.0556846,
        "lon": 77.6065451
      },
      "tags": {
        "amenity": "fuel",
        "brand": "BP",
        "brand:wikidata": "Q152057",
        "compressed_air": "yes",
        "fuel:diesel": "yes",
        "fuel:octane_91": "yes",
        "fuel:octane_95": "yes",
        "name": "BP",
        "opening_hours": "06:00-22:00",
        "wheelchair": "yes"
      }
    },
    {
      "type": "way",
      "id": 1286715674,
      "center": {
        "lat": 13.0526462,
        "lon": 77.6068278
      },
      "tags": {
        "amenity": "school"
      }
    },
    {
      "type": "way",
      "id": 1301741034,
      "center": {
        "lat": 13.0646257,
        "lon": 77.6045513
      },
      "tags": {
        "amenity": "place_of_worship",
        "religion": "hindu"
      }
    },
    {
      "type": "way",
      "id": 1323349272,
      "center": {
        "lat": 13.0515994,
        "lon": 77.5948685
      },
      "tags": {
        "access": "private",
        "amenity": "parking",
        "parking": "street_side"
      }
    },
    {
      "type": "way",
      "id": 1323349273,
      "center": {
        "lat": 13.052055,
        "lon": 77.5949392
      },
      "tags": {
        "access": "private",
        "amenity": "parking",
        "parking": "street_side"
      }
    },
    {
      "type": "way",
      "id": 1351990833,
      "center": {
        "lat": 13.0493565,
        "lon": 77.5994647
      },
      "tags": {
        "leisure": "garden"
      }
    },
    {
      "type": "way",
      "id": 1351990834,
      "center": {
        "lat": 13.0490835,
        "lon": 77.5994114
      },
      "tags": {
        "access": "private",
        "leisure": "swimming_pool"
      }
    }
  ]
}