{
  "area_name": "Byalakere",
  "osm_id": 4403238604,
  "osm_type": "node",
  "place_type": "neighbourhood",
  "amenity_count": 11,
  "amenities": [
    {
      "type": "way",
      "id": 1382219431,
      "center": {
        "lat": 13.1152739,
        "lon": 77.5171535
      },
      "tags": {
        "amenity": "events_venue",
        "landuse": "commercial",
        "name": "JD Events and Leisure"
      }
    },
    {
      "type": "way",
      "id": 1382219443,
      "center": {
        "lat": 13.1128164,
        "lon": 77.5252602
      },
      "tags": {
        "amenity": "place_of_worship",
        "building": "yes",
        "religion": "hindu"
      }
    },
    {
      "type": "way",
      "id": 1382219444,
      "center": {
        "lat": 13.1126431,
        "lon": 77.5251258
      },
      "tags": {
        "amenity": "place_of_worship",
        "building": "yes",
        "religion": "hindu"
      }
    },
    {
      "type": "way",
      "id": 1382219453,
      "center": {
        "lat": 13.106975,
        "lon": 77.5261268
      },
      "tags": {
        "leisure": "park"
      }
    },
    {
      "type": "way",
      "id": 1382219454,
      "center": {
        "lat": 13.1110164,
        "lon": 77.5276705
      },
      "tags": {
        "amenity": "fuel"
      }
    },
    {
      "type": "way",
      "id": 1382219457,
      "center": {
        "lat": 13.1149538,
        "lon": 77.5237356
      },
      "tags": {
        "amenity": "school",
        "name": "St. Philomena's School"
      }
    },
    {
      "type": "way",
      "id": 1382219458,
      "center": {
        "lat": 13.1105614,
        "lon": 77.5271547
      },
      "tags": {
        "amenity": "school"
      }
    },
    {
      "type": "way",
      "id": 1382231495,
      "center": {
        "lat": 13.1190041,
        "lon": 77.5269241
      },
      "tags": {
        "amenity": "school"
      }
    },
    {
      "type": "way",
      "id": 1409400937,
      "center": {
        "lat": 13.1135659,
        "lon": 77.5195741
      },
      "tags": {
        "amenity": "place_of_worship",
        "landuse": "religious",
        "religion": "hindu"
      }
    },
    {
      "type": "way",
      "id": 1409426374,
      "center": {
        "lat": 13.1093533,
        "lon": 77.522564
      },
      "tags": {
        "amenity": "school",
        "name": "Jnana Ganga Public School"
      }
    },
    {
      "type": "way",
      "id": 1419417161,
      "center": {
        "lat": 13.1057422,
        "lon": 77.5248883
      },
      "tags": {
        "leisure": "park"
      }
    }
  ]
}