{
  "area_name": "Cambridge Layout",
  "osm_id": 1473221118,
  "osm_type": "node",
  "place_type": "neighbourhood",
  "amenity_count": 396,
  "amenities": [
    {
      "type": "node",
      "id": 1212309366,
      "lat": 12.9713009,
      "lon": 77.6347274,
      "tags": {
        "amenity": "atm",
        "brand": "IDBI Bank",
        "brand:wikidata": "Q3633485",
        "name": "IDBI Bank",
        "operator": "IDBI Bank",
        "operator:wikidata": "Q3633485",
        "short_name": "IDBI"
      }
    },
    {
      "type": "node",
      "id": 1282881158,
      "lat": 12.9711101,
      "lon": 77.6342171,
      "tags": {
        "amenity": "fast_food",
        "name": "Chat"
      }
    },
    {
      "type": "node",
      "id": 1328617006,
      "lat": 12.9700166,
      "lon": 77.6311695,
      "tags": {
        "amenity": "place_of_worship",
        "name": "Sai Baba Temple",
        "name:kn": "ಸಾಯಿಬಾಬಾ ದೇವಸ್ಥಾನ",
        "religion": "hindu"
      }
    },
    {
      "type": "node",
      "id": 1328617011,
      "lat": 12.9692586,
      "lon": 77.6286912,
      "tags": {
        "addr:city": "Bengaluru",
        "addr:housenumber": "15/39",
        "addr:postcode": "560008",
        "addr:street": "Cambridge Road, Halasuru Police Station Road, Halasuru",
        "name": "lal rakhra sports shop",
        "opening_hours": "10:00-20:00",
        "phone": "080 2555 5684",
        "shop": "sports"
      }
    },
    {
      "type": "node",
      "id": 1328617013,
      "lat": 12.9701421,
      "lon": 77.6314807,
      "tags": {
        "addr:street": "Sai Baba Mandira Road",
        "amenity": "pharmacy",
        "name": "Health and Glow"
      }
    },
    {
      "type": "node",
      "id": 1385984054,
      "lat": 12.967438,
      "lon": 77.6365796,
      "tags": {
        "addr:housenumber": "#23, 3rd B cross,",
        "addr:street": "1st Main Road,",
        "amenity": "cafe",
        "name": "StrEat Cafe"
      }
    },
    {
      "type": "node",
      "id": 1462124094,
      "lat": 12.972972,
      "lon": 77.6213025,
      "tags": {
        "amenity": "fast_food",
        "brand": "McDonald's",
        "brand:pa": "ਮੈਕਡੋਨਲਡ’ਜ਼",
        "brand:ur": "مکڈونلڈز",
        "brand:wikidata": "Q38076",
        "brand:wikipedia": "en:McDonald's",
        "brand:wikipedia:pa": "ਮੈਕਡੋਨਲਡ’ਜ਼",
        "brand:wikipedia:ur": "مکڈونلڈز",
        "cuisine": "burger",
        "name": "McDonald's",
        "name:kn": "ಮ್ಯಾಕ್‌ಡೊನಾಲ್ಡ್ಸ್",
        "name:pa": "ਮੈਕਡੋਨਲਡ’ਜ਼",
        "name:ur": "مکڈونلڈز",
        "takeaway": "yes"
      }
    },
    {
      "type": "node",
      "id": 1543967418,
      "lat": 12.9720594,
      "lon": 77.6278089,
      "tags": {
        "addr:housename": "Bhavin Garments",
        "addr:housenumber": "12",
        "addr:postcode": "560008",
        "designation": "Manufacturer of Merchandise, Uniforms, Memorabilia, Books",
        "name": "Bhavin Garments",
        "shop": "clothes",
        "source": "Bhavin",
        "website": "www.studentsupplies.in , www.bhavingarments.com"
      }
    },
    {
      "type": "node",
      "id": 1543969345,
      "lat": 12.9719967,
      "lon": 77.6278036,
      "tags": {
        "addr:housename": "Ankur Nursery School",
        "addr:housenumber": "123, C/o Ankur Nursery School,",
        "addr:postcode": "560008",
        "addr:street": "Udani Layout, Cambridge Road",
        "amenity": "school",
        "designation": "Pre-School and Playhome",
        "name": "Ankur Nursery School",
        "source": "Bhavin"
      }
    },
    {
      "type": "node",
      "id": 1707859852,
      "lat": 12.9732119,
      "lon": 77.6217398,
      "tags": {
        "amenity": "restaurant",
        "brand": "TGI Fridays",
        "brand:wikidata": "Q1524184",
        "cuisine": "american",
        "name": "TGI Fridays",
        "name:kn": "ಟಜಿಐ ಫ್ರೈಡೇಸ್"
      }
    },
    {
      "type": "node",
      "id": 1941464651,
      "lat": 12.9724588,
      "lon": 77.6260331,
      "tags": {
        "brand": "Nilgiri's",
        "brand:wikidata": "Q17079567",
        "check_date": "2023-10-12",
        "name": "Nilgiri's",
        "shop": "supermarket"
      }
    },
    {
      "type": "node",
      "id": 1941465446,
      "lat": 12.9725555,
      "lon": 77.6266554,
      "tags": {
        "amenity": "restaurant",
        "name": "Ruchi Restaurant"
      }
    },
    {
      "type": "node",
      "id": 2901080141,
      "lat": 12.9714443,
      "lon": 77.6350673,
      "tags": {
        "amenity": "restaurant",
        "name": "Khan Saheb"
      }
    },
    {
      "type": "node",
      "id": 2999619029,
      "lat": 12.9689899,
      "lon": 77.6200161,
      "tags": {
        "addr:street": "Trinity Church Road",
        "name": "Army Canteen",
        "shop": "yes"
      }
    },
    {
      "type": "node",
      "id": 3170021930,
      "lat": 12.9734434,
      "lon": 77.6216713,
      "tags": {
        "name": "Big Bazaar",
        "name:kn": "ಬಿಗ್ ಬಜಾರ್",
        "shop": "supermarket"
      }
    },
    {
      "type": "node",
      "id": 3170038846,
      "lat": 12.9693531,
      "lon": 77.6248085,
      "tags": {
        "name": "Sabu collection",
        "shop": "clothes"
      }
    },
    {
      "type": "node",
      "id": 3170057096,
      "lat": 12.972455,
      "lon": 77.6202099,
      "tags": {
        "brand": "Suzuki",
        "brand:wikidata": "Q181642",
        "name": "Suzuki",
        "name:kn": "ಸುಜುಕಿ",
        "shop": "motorcycle"
      }
    },
    {
      "type": "node",
      "id": 3170057127,
      "lat": 12.9733087,
      "lon": 77.6214181,
      "tags": {
        "amenity": "atm"
      }
    },
    {
      "type": "node",
      "id": 3170060062,
      "lat": 12.9734362,
      "lon": 77.6215884,
      "tags": {
        "amenity": "atm"
      }
    },
    {
      "type": "node",
      "id": 3198716239,
      "lat": 12.9662697,
      "lon": 77.6361076,
      "tags": {
        "addr:street": "3rd Cross Road",
        "amenity": "kindergarten",
        "name": "Jamati Montessri"
      }
    },
    {
      "type": "node",
      "id": 3292614939,
      "lat": 12.9734322,
      "lon": 77.6204609,
      "tags": {
        "amenity": "ice_cream",
        "brand": "Häagen-Dazs",
        "brand:wikidata": "Q1143333",
        "cuisine": "ice_cream",
        "name": "Häagen-Dazs"
      }
    },
    {
      "type": "node",
      "id": 3370453171,
      "lat": 12.9741726,
      "lon": 77.6357187,
      "tags": {
        "addr:housenumber": "58",
        "amenity": "bar",
        "name": "Aishwarya Bar N Restaurant"
      }
    },
    {
      "type": "node",
      "id": 3370453173,
      "lat": 12.9734836,
      "lon": 77.6357281,
      "tags": {
        "amenity": "hospital",
        "healthcare": "hospital",
        "name": "Netradama Eye Hospital",
        "name:kn": "ನೇತ್ರಧಾಮ ಕಣ್ಣಿನ ಆಸ್ಪತ್ರೆ"
      }
    },
    {
      "type": "node",
      "id": 3370455929,
      "lat": 12.9742234,
      "lon": 77.6359937,
      "tags": {
        "amenity": "pharmacy",
        "healthcare": "pharmacy",
        "name": "Healing Touch Pharma"
      }
    },
    {
      "type": "node",
      "id": 3370455932,
      "lat": 12.9741296,
      "lon": 77.6359555,
      "tags": {
        "amenity": "atm",
        "brand": "Axis Bank",
        "brand:wikidata": "Q2003549",
        "name": "Axis Bank",
        "operator": "Axis Bank",
        "operator:wikidata": "Q2003549"
      }
    },
    {
      "type": "node",
      "id": 3488721663,
      "lat": 12.972765,
      "lon": 77.6190259,
      "tags": {
        "amenity": "atm",
        "brand": "Bank of Baroda",
        "brand:wikidata": "Q2003797",
        "check_date": "2022-07-03",
        "name": "Bank of Baroda",
        "name:kn": "ವಿಜಯ ಬ್ಯಾಂಕು",
        "operator": "Bank of Baroda",
        "operator:wikidata": "Q2003797"
      }
    },
    {
      "type": "node",
      "id": 3562609093,
      "lat": 12.9752333,
      "lon": 77.6258831,
      "tags": {
        "amenity": "place_of_worship",
        "religion": "hindu"
      }
    },
    {
      "type": "node",
      "id": 3643239013,
      "lat": 12.9761885,
      "lon": 77.6260897,
      "tags": {
        "amenity": "fast_food",
        "name": "Bhai Ji's",
        "name:kn": "ಭಾಯ್‌ ಜೀಸ್"
      }
    },
    {
      "type": "node",
      "id": 3721246028,
      "lat": 12.9708578,
      "lon": 77.6349102,
      "tags": {
        "amenity": "community_centre",
        "name": "Function Hall"
      }
    },
    {
      "type": "node",
      "id": 3730961535,
      "lat": 12.9739292,
      "lon": 77.6232945,
      "tags": {
        "amenity": "cafe",
        "name": "Kumbakonam Traditional Coffee",
        "name:kn": "ಕುಂಬಕೊಣಂ ಸಂಪ್ರದಾಯಕ ಕಾಫೀ"
      }
    },
    {
      "type": "node",
      "id": 3837039785,
      "lat": 12.9730357,
      "lon": 77.6356907,
      "tags": {
        "addr:street": "6th Main",
        "amenity": "fast_food",
        "cuisine": "rolls",
        "name": "New Roll Centre",
        "opening_hours": "Mo-Su 12:00-23:00",
        "takeaway": "only"
      }
    },
    {
      "type": "node",
      "id": 3837441455,
      "lat": 12.970003,
      "lon": 77.6310087,
      "tags": {
        "addr:housenumber": "114",
        "addr:street": "Sai Baba Mandira Road",
        "amenity": "fast_food",
        "cuisine": "indian",
        "delivery": "no",
        "diet:vegetarian": "yes",
        "name": "Om Sai Skanda Dosa Camp"
      }
    },
    {
      "type": "node",
      "id": 3838171840,
      "lat": 12.9689288,
      "lon": 77.6359296,
      "tags": {
        "addr:housenumber": "3168",
        "addr:street": "Indiranagar Double Road",
        "amenity": "library",
        "level": "0",
        "name": "Just Books",
        "opening_hours": "Tu-Su 10:00-21:00",
        "website": "http://justbooksclc.com/"
      }
    },
    {
      "type": "node",
      "id": 3838426329,
      "lat": 12.970293,
      "lon": 77.6357695,
      "tags": {
        "amenity": "fast_food",
        "cuisine": "rolls",
        "delivery": "yes",
        "name": "Pathaan Sir"
      }
    },
    {
      "type": "node",
      "id": 3838428440,
      "lat": 12.9726022,
      "lon": 77.6346269,
      "tags": {
        "level": "-1",
        "name": "Sri Vasavi Super Market",
        "shop": "convenience"
      }
    },
    {
      "type": "node",
      "id": 3838472766,
      "lat": 12.9730537,
      "lon": 77.6351916,
      "tags": {
        "name": "Karnataka Bakery",
        "shop": "convenience"
      }
    },
    {
      "type": "node",
      "id": 3838473034,
      "lat": 12.9728923,
      "lon": 77.6347705,
      "tags": {
        "name": "Nagasree Bakery",
        "shop": "convenience"
      }
    },
    {
      "type": "node",
      "id": 3840557162,
      "lat": 12.9730736,
      "lon": 77.6351922,
      "tags": {
        "addr:housenumber": "1100",
        "name": "Santosh Tailors",
        "shop": "tailor"
      }
    },
    {
      "type": "node",
      "id": 3961390829,
      "lat": 12.9728596,
      "lon": 77.6347745,
      "tags": {
        "name": "Safa Super Bazar",
        "shop": "convenience"
      }
    },
    {
      "type": "node",
      "id": 4195432539,
      "lat": 12.9702478,
      "lon": 77.6357689,
      "tags": {
        "addr:city": "Indiranagar, Bangalore",
        "addr:housenumber": "Srinivasan Towers",
        "addr:postcode": "560038",
        "addr:street": "Double Road",
        "amenity": "restaurant",
        "delivery": "yes",
        "name": "Suryawanshi",
        "phone": "080 49653148",
        "smoking": "no",
        "takeaway": "yes"
      }
    },
    {
      "type": "node",
      "id": 4202209080,
      "lat": 12.968352,
      "lon": 77.6361835,
      "tags": {
        "addr:city": "HAL 2nd Stage, Indiranagar",
        "addr:housenumber": "3169/c",
        "addr:postcode": "560038",
        "addr:street": "Double Road",
        "laundry_service": "yes",
        "name": "Sancy's Laundrette",
        "self_service": "no",
        "shop": "laundry"
      }
    },
    {
      "type": "node",
      "id": 4272948387,
      "lat": 12.9770418,
      "lon": 77.6328323,
      "tags": {
        "name": "Aquaverse",
        "pet": "fish",
        "shop": "pet",
        "tourism": "aquarium"
      }
    },
    {
      "type": "node",
      "id": 4286285297,
      "lat": 12.977683,
      "lon": 77.632226,
      "tags": {
        "addr:housenumber": "134",
        "addr:street": "18th",
        "description": "auto repair",
        "name": "Sri Vinayaka Motors",
        "shop": "motorcycle_repair"
      }
    },
    {
      "type": "node",
      "id": 4286285299,
      "lat": 12.9769262,
      "lon": 77.631936,
      "tags": {
        "addr:street": "1st main",
        "amenity": "place_of_worship",
        "description": "temple",
        "name": "Anniyamma temple",
        "name:kn": "ಅಣ್ಣಿಯಮ್ಮ ದೇವಸ್ಥಾನ",
        "religion": "hindu"
      }
    },
    {
      "type": "node",
      "id": 4286285300,
      "lat": 12.9770585,
      "lon": 77.6318947,
      "tags": {
        "addr:housenumber": "22",
        "addr:street": "lakshmipuram 1st main road",
        "description": "rice store",
        "name": "Annapurneshwari rice corner",
        "shop": "greengrocer"
      }
    },
    {
      "type": "node",
      "id": 4286285302,
      "lat": 12.9772166,
      "lon": 77.631572,
      "tags": {
        "addr:housenumber": "20",
        "addr:street": "1st Main Road",
        "amenity": "atm",
        "brand": "ICICI Bank",
        "brand:wikidata": "Q1653258",
        "name": "ICICI Bank",
        "operator": "ICICI Bank",
        "operator:wikidata": "Q1653258",
        "short_name": "ICICI"
      }
    },
    {
      "type": "node",
      "id": 4286285433,
      "lat": 12.9778564,
      "lon": 77.6322647,
      "tags": {
        "addr:street": "18th cross",
        "description": "kitchen essentials",
        "name": "Jayana",
        "shop": "doityourself"
      }
    },
    {
      "type": "node",
      "id": 4286285468,
      "lat": 12.9772038,
      "lon": 77.6316324,
      "tags": {
        "addr:housenumber": "12",
        "addr:street": "lakshmipuram 1st main road",
        "check_date": "2024-02-06",
        "description": "vegetable and fruit stall",
        "internet_access": "no",
        "name": "Mithra vegetable and fruit stall",
        "organic": "yes",
        "payment:cards": "no",
        "payment:cash": "yes",
        "payment:credit_cards": "no",
        "payment:debit_cards": "no",
        "shop": "greengrocer",
        "wheelchair": "no"
      }
    },
    {
      "type": "node",
      "id": 4286285517,
      "lat": 12.9777082,
      "lon": 77.6323407,
      "tags": {
        "addr:housenumber": "111(3/1)",
        "addr:street": "18th Cross Road",
        "amenity": "hospital",
        "description": "hospital",
        "healthcare": "hospital",
        "name": "Ameena Medical centre"
      }
    },
    {
      "type": "node",
      "id": 4294801429,
      "lat": 12.9719937,
      "lon": 77.635835,
      "tags": {
        "amenity": "pharmacy",
        "healthcare": "pharmacy",
        "name": "Shree Guru Ganesh Pharma"
      }
    },
    {
      "type": "node",
      "id": 4294801430,
      "lat": 12.9729346,
      "lon": 77.6357245,
      "tags": {
        "amenity": "restaurant",
        "name": "Laban Palace"
      }
    },
    {
      "type": "node",
      "id": 4294801431,
      "lat": 12.9729985,
      "lon": 77.6357302,
      "tags": {
        "amenity": "pharmacy",
        "healthcare": "pharmacy",
        "level": "1",
        "name": "The Homeo Centre"
      }
    },
    {
      "type": "node",
      "id": 4294801432,
      "lat": 12.9733837,
      "lon": 77.6360035,
      "tags": {
        "amenity": "restaurant",
        "name": "Srinidhi Sagar Foodline"
      }
    },
    {
      "type": "node",
      "id": 4294801602,
      "lat": 12.9728794,
      "lon": 77.6357245,
      "tags": {
        "amenity": "restaurant",
        "level": "0",
        "name": "Rayaru's Kitchen"
      }
    },
    {
      "type": "node",
      "id": 4294801604,
      "lat": 12.9731905,
      "lon": 77.6359606,
      "tags": {
        "amenity": "restaurant",
        "name": "Byte"
      }
    },
    {
      "type": "node",
      "id": 4294810638,
      "lat": 12.9727077,
      "lon": 77.6347589,
      "tags": {
        "amenity": "place_of_worship",
        "name": "Sri Kolluru Mookambika Temple",
        "religion": "hindu"
      }
    },
    {
      "type": "node",
      "id": 4294810899,
      "lat": 12.9737814,
      "lon": 77.6359277,
      "tags": {
        "amenity": "pharmacy",
        "healthcare": "pharmacy",
        "name": "SLV Sagar Pharma"
      }
    },
    {
      "type": "node",
      "id": 4315512757,
      "lat": 12.9696986,
      "lon": 77.6362493,
      "tags": {
        "amenity": "clinic",
        "healthcare": "clinic",
        "name": "Diacure Diagnostics"
      }
    },
    {
      "type": "node",
      "id": 4315512758,
      "lat": 12.9696957,
      "lon": 77.6361088,
      "tags": {
        "check_date": "2025-03-14",
        "name": "Fenesta",
        "shop": "furniture"
      }
    },
    {
      "type": "node",
      "id": 4322757093,
      "lat": 12.9700574,
      "lon": 77.6364117,
      "tags": {
        "amenity": "spa",
        "name": "Les Cheveux Spa"
      }
    },
    {
      "type": "node",
      "id": 4322765784,
      "lat": 12.9700837,
      "lon": 77.6367186,
      "tags": {
        "name": "Blind Love Custom Crafted blinds",
        "shop": "interior_decoration"
      }
    },
    {
      "type": "node",
      "id": 4322765785,
      "lat": 12.9701016,
      "lon": 77.6370093,
      "tags": {
        "name": "Cool Club",
        "shop": "clothes"
      }
    },
    {
      "type": "node",
      "id": 4322812542,
      "lat": 12.9700356,
      "lon": 77.6362439,
      "tags": {
        "amenity": "hospital",
        "healthcare": "hospital",
        "name": "Dr.Agarwal Eye & Dental Hospital"
      }
    },
    {
      "type": "node",
      "id": 4373282593,
      "lat": 12.9731447,
      "lon": 77.6354155,
      "tags": {
        "amenity": "place_of_worship",
        "name": "Temple",
        "name:en": "Temple",
        "name:kn": "ದೇವಸ್ಥಾನ",
        "religion": "hindu"
      }
    },
    {
      "type": "node",
      "id": 4373340995,
      "lat": 12.9711603,
      "lon": 77.6343125,
      "tags": {
        "name": "Sahil Cycle Store",
        "name:en": "Sahil Cycle Store",
        "shop": "bicycle"
      }
    },
    {
      "type": "node",
      "id": 4445139977,
      "lat": 12.9703581,
      "lon": 77.63022,
      "tags": {
        "addr:city": "Bangalore",
        "addr:housenumber": "58/1",
        "addr:postcode": "560008",
        "addr:street": "3rd main shridi sai baba mandir road, Cambridge layout halasuru",
        "amenity": "hospital",
        "name": "Indianova Healthcare Pvt Ltd",
        "phone": "+9197390 07505",
        "website": "indianovahealthcare.com"
      }
    },
    {
      "type": "node",
      "id": 4445595170,
      "lat": 12.9717331,
      "lon": 77.6357884,
      "tags": {
        "addr:housenumber": "3146",
        "addr:postcode": "560038",
        "addr:street": "7th Main Road Shirdi Sai Baba Mandir Road, Eshwara Layout, Indira Nagar",
        "amenity": "clinic",
        "healthcare": "clinic",
        "name": "Mother And Child Clinic",
        "phone": "+9198455 59050"
      }
    },
    {
      "type": "node",
      "id": 4445607998,
      "lat": 12.9702378,
      "lon": 77.6356539,
      "tags": {
        "addr:city": "Bangalore",
        "addr:housenumber": "3155",
        "addr:postcode": "560038",
        "addr:street": "Service Road, Hal 2nd Stage, Near-ESI Hospital, Indiranagar",
        "amenity": "pharmacy",
        "healthcare": "pharmacy",
        "name": "Shri Siddhanth Pharma",
        "phone": "080 2520 0422"
      }
    },
    {
      "type": "node",
      "id": 4487984593,
      "lat": 12.9711228,
      "lon": 77.6342464,
      "tags": {
        "addr:city": "Bangalore",
        "addr:housenumber": "3192",
        "addr:postcode": "560038",
        "addr:street": "HAL 2nd Stage 7th Main, Shirdi Sai Baba Mandir Rd, Indiranagar,",
        "name": "Noah Sports Store",
        "opening_hours": "10:00-20:00",
        "phone": "+9198458 12465",
        "shop": "sports"
      }
    },
    {
      "type": "node",
      "id": 4488009528,
      "lat": 12.9673396,
      "lon": 77.6363022,
      "tags": {
        "addr:city": "Bengaluru",
        "addr:full": ", 1st Main Road, Domlur, 2nd Stage, Indiranagar, Bhadrappa Layout, Stage 2, Domlur;3 B Cross",
        "addr:housenumber": "20",
        "addr:postcode": "560071",
        "addr:street": "3 B Cross Road",
        "brand": "ProCycle",
        "fee": "yes",
        "name": "ProCycle",
        "opening_hours": "10:00-20:30; We-Mo 07:00-22:00",
        "operator": "ProCycle and Sports India Pvt. Ltd.",
        "phone": "080 2535 2004",
        "service:bicycle:Bicycle_Sales_and_Service": "yes",
        "service:bicycle:chain_tool": "yes",
        "service:bicycle:cleaning": "yes",
        "service:bicycle:mtb": "yes",
        "service:bicycle:parts": "yes",
        "service:bicycle:repair": "yes",
        "service:bicycle:retail": "yes",
        "service:bicycle:screwdriver": "yes",
        "service:bicycle:tools": "yes",
        "shop": "bicycle",
        "website": "https://www.procycle.in/"
      }
    },
    {
      "type": "node",
      "id": 4488018492,
      "lat": 12.9747522,
      "lon": 77.6329973,
      "tags": {
        "addr:housenumber": "91/72",
        "addr:street": "7th Cross Road, 2nd Stage, Eshwara Layout, Indiranagar",
        "name": "Citi Nest Sports Centre",
        "opening_hours": "05:00-00:00",
        "phone": "080 2525 8287",
        "shop": "sports"
      }
    },
    {
      "type": "node",
      "id": 4488087436,
      "lat": 12.9761039,
      "lon": 77.6267652,
      "tags": {
        "addr:city": "Bangalore",
        "addr:housenumber": "132",
        "addr:postcode": "560008",
        "addr:street": "Swamy Vivekananda Road (Old Madras Road), Kadiranapalya, Indira Nagar",
        "name": "RR Cycles",
        "opening_hours": "11:00-21:00",
        "phone": "080 4113 4142",
        "shop": "sports"
      }
    },
    {
      "type": "node",
      "id": 4489092751,
      "lat": 12.9713439,
      "lon": 77.6348117,
      "tags": {
        "addr:city": "Bangalore",
        "addr:housenumber": "3192",
        "addr:postcode": "560038",
        "addr:street": "HAL 2nd Stage 7th Main, Shirdi Sai Baba Mandir Rd, Bhadrappa Layout, Indiranagar",
        "name": "Noah Sports Store",
        "opening_hours": "10:00-21:30",
        "phone": "098458 12465",
        "shop": "sports",
        "website": "https://noahsports.in/"
      }
    },
    {
      "type": "node",
      "id": 4489106086,
      "lat": 12.9736655,
      "lon": 77.6203864,
      "tags": {
        "addr:city": "Bangalore",
        "addr:housenumber": "1",
        "addr:postcode": "560008",
        "addr:street": "Swami Vivekanand Road, Bhadrappa Layout, Someshwarpura, Ulsoor",
        "name": "Manchester United Store",
        "opening_hours": "10:00-21:30",
        "phone": "080 3256 9278",
        "shop": "sports",
        "website": "https://www.manutd.com/"
      }
    },
    {
      "type": "node",
      "id": 4489922811,
      "lat": 12.9733578,
      "lon": 77.6218193,
      "tags": {
        "addr:city": "Bangalore",
        "addr:postcode": "560001",
        "addr:street": "Swami Vivekanand Road, MG Road, Trinity Circle, Someshwarpura",
        "name": "Lakme Salon",
        "opening_hours": "10:00-20:00",
        "phone": "080 2208 6677",
        "shop": "beauty",
        "website": "https://lakmeindia.com/"
      }
    },
    {
      "type": "node",
      "id": 4490387636,
      "lat": 12.9724506,
      "lon": 77.6273001,
      "tags": {
        "addr:city": "Bangalore",
        "addr:postcode": "560008",
        "addr:street": "Near Frank Anthony Public School,, 17/1, Cambridge Road, Halasuru, Bhadrappa Layout, Udani Layout, Ulsoor, Bengaluru",
        "leisure": "sports_centre",
        "name": "Contours Women's Fitness Studio",
        "opening_hours": "6:00-20:00",
        "phone": "8041736700",
        "sport": "gymnasium",
        "website": "https://contours.in/"
      }
    },
    {
      "type": "node",
      "id": 4809112928,
      "lat": 12.9737963,
      "lon": 77.6218675,
      "tags": {
        "amenity": "parking_entrance"
      }
    },
    {
      "type": "node",
      "id": 4810078627,
      "lat": 12.9732081,
      "lon": 77.6218855,
      "tags": {
        "amenity": "parking_entrance"
      }
    },
    {
      "type": "node",
      "id": 4832473456,
      "lat": 12.9759486,
      "lon": 77.6253838,
      "tags": {
        "addr:city": "Bangalore",
        "addr:postcode": "560008",
        "addr:street": "Car Street",
        "amenity": "bank",
        "atm": "yes",
        "brand": "Indian Bank",
        "brand:wikidata": "Q2003789",
        "brand:wikipedia": "en:Indian Bank",
        "check_date": "2024-03-05",
        "name": "Indian Bank",
        "name:en": "Indian Bank",
        "name:kn": "ಇಂಡಿಯನ್ ಬ್ಯಾಂಕ್",
        "operator": "Indian Bank",
        "website": "https://www.indianbank.in/"
      }
    },
    {
      "type": "node",
      "id": 4834488421,
      "lat": 12.9759801,
      "lon": 77.6252681,
      "tags": {
        "addr:postcode": "560008",
        "addr:street": "car street",
        "amenity": "restaurant",
        "name": "Udupi Vaibhav",
        "name:en": "Udupi Vaibhav"
      }
    },
    {
      "type": "node",
      "id": 4840185928,
      "lat": 12.9716236,
      "lon": 77.6273835,
      "tags": {
        "addr:district": "Bengaluru Urban",
        "addr:full": "No 18/17, Cambridge Road, Ulsoor",
        "addr:postcode": "560008",
        "addr:state": "Karnataka",
        "amenity": "hospital",
        "healthcare": "hospital",
        "name": "Cambridge Hospital",
        "name:en": "Cambridge Hospital",
        "source": "OpenGovernmentData"
      }
    },
    {
      "type": "node",
      "id": 4840185929,
      "lat": 12.9738255,
      "lon": 77.6262686,
      "tags": {
        "amenity": "toilets"
      }
    },
    {
      "type": "node",
      "id": 4840186222,
      "lat": 12.9753996,
      "lon": 77.6223913,
      "tags": {
        "amenity": "pharmacy",
        "healthcare": "pharmacy",
        "name": "Suneel Pharma",
        "name:en": "Suneel Pharma"
      }
    },
    {
      "type": "node",
      "id": 4846817423,
      "lat": 12.9725684,
      "lon": 77.6205679,
      "tags": {
        "amenity": "dentist",
        "name": "Ridgetop dental",
        "name:en": "Ridgetop dental"
      }
    },
    {
      "type": "node",
      "id": 4859042821,
      "lat": 12.9754695,
      "lon": 77.6258473,
      "tags": {
        "addr:postcode": "560008",
        "addr:street": "Swamy Vivekananda Road (Old Madras Road)",
        "name": "Sharada stores",
        "name:en": "Sharada stores",
        "shop": "books"
      }
    },
    {
      "type": "node",
      "id": 5265720466,
      "lat": 12.977874,
      "lon": 77.6285,
      "tags": {
        "amenity": "bank",
        "name": "Repco Bank"
      }
    },
    {
      "type": "node",
      "id": 5402308137,
      "lat": 12.9681537,
      "lon": 77.628893,
      "tags": {
        "amenity": "place_of_worship"
      }
    },
    {
      "type": "node",
      "id": 5524163946,
      "lat": 12.9737445,
      "lon": 77.62041,
      "tags": {
        "amenity": "cafe",
        "level": "5",
        "name": "Cafe Felix"
      }
    },
    {
      "type": "node",
      "id": 5599537622,
      "lat": 12.973347,
      "lon": 77.6217445,
      "tags": {
        "addr:city": "Bangalore",
        "addr:housenumber": "0",
        "addr:postcode": "560008",
        "addr:street": "Ground floor Lido mall",
        "amenity": "fast_food",
        "brand": "McDonald's",
        "brand:pa": "ਮੈਕਡੋਨਲਡ’ਜ਼",
        "brand:ur": "مکڈونلڈز",
        "brand:wikidata": "Q38076",
        "brand:wikipedia": "en:McDonald's",
        "brand:wikipedia:pa": "ਮੈਕਡੋਨਲਡ’ਜ਼",
        "brand:wikipedia:ur": "مکڈونلڈز",
        "cuisine": "burger",
        "name": "McDonald's",
        "name:kn": "ಮ್ಯಾಕ್‌ಡೊನಾಲ್ಡ್ಸ್",
        "name:pa": "ਮੈਕਡੋਨਲਡ’ਜ਼",
        "name:ur": "مکڈونلڈز",
        "takeaway": "yes",
        "wheelchair": "yes"
      }
    },
    {
      "type": "node",
      "id": 5631707724,
      "lat": 12.9730516,
      "lon": 77.6352655,
      "tags": {
        "name": "Pushpa Glass and Plywood",
        "shop": "hardware"
      }
    },
    {
      "type": "node",
      "id": 5645889421,
      "lat": 12.9752413,
      "lon": 77.6247184,
      "tags": {
        "addr:housenumber": "57",
        "addr:street": "Bazaar Stree",
        "name": "Sri Guru Sweet Mart",
        "shop": "confectionery"
      }
    },
    {
      "type": "node",
      "id": 5645889422,
      "lat": 12.9754304,
      "lon": 77.6246612,
      "tags": {
        "name": "Kingdom Garments",
        "shop": "clothes"
      }
    },
    {
      "type": "node",
      "id": 5645889521,
      "lat": 12.9753605,
      "lon": 77.6246523,
      "tags": {
        "name": "Baby Doll Fashions",
        "shop": "clothes"
      }
    },
    {
      "type": "node",
      "id": 5645889621,
      "lat": 12.9752623,
      "lon": 77.6246355,
      "tags": {
        "addr:housenumber": "1",
        "addr:street": "Bazaar Street",
        "name": "Shoppee Paradise",
        "shop": "clothes"
      }
    },
    {
      "type": "node",
      "id": 5645919621,
      "lat": 12.9754599,
      "lon": 77.6247364,
      "tags": {
        "name": "Varalakshmi Dry Cleaners",
        "shop": "dry_cleaning"
      }
    },
    {
      "type": "node",
      "id": 5714945190,
      "lat": 12.9721029,
      "lon": 77.6193559,
      "tags": {
        "amenity": "bank",
        "branch": "CAB Bangalore Branch",
        "brand": "State Bank of India",
        "brand:wikidata": "Q1340361",
        "name": "State Bank of India",
        "name:kn": "ಎಸ್ ಬಿ ಐ",
        "short_name": "SBI"
      }
    },
    {
      "type": "node",
      "id": 5715589842,
      "lat": 12.9752206,
      "lon": 77.6221318,
      "tags": {
        "amenity": "place_of_worship",
        "name": "Sri Pan Perumal Temple",
        "religion": "hindu"
      }
    },
    {
      "type": "node",
      "id": 5715589843,
      "lat": 12.9754837,
      "lon": 77.6229882,
      "tags": {
        "amenity": "place_of_worship",
        "name": "Anjaneya Swamy Temple",
        "name:kn": "ಆಂಜನೇಯಸ್ವಾಮಿ ದೇವಸ್ಥಾನ",
        "religion": "hindu"
      }
    },
    {
      "type": "node",
      "id": 5747208925,
      "lat": 12.9718419,
      "lon": 77.6358262,
      "tags": {
        "name": "Pooja Electronics",
        "shop": "electronics"
      }
    },
    {
      "type": "node",
      "id": 6348823859,
      "lat": 12.9723069,
      "lon": 77.6302852,
      "tags": {
        "addr:place": "Jogupalya",
        "amenity": "school",
        "isced:level": "2",
        "name": "GHPS (K) Jogupalya",
        "name:kn": "ಸರ್ಕಾರಿ ಹಿರಿಯ ಪ್ರಾಥಮಿಕ ಶಾಲೆ (ಕನ್ನಡ) ಜೊಗುಪಾಳ್ಯ",
        "operator": "Department of Education",
        "school": "primary"
      }
    },
    {
      "type": "node",
      "id": 6348827978,
      "lat": 12.9706487,
      "lon": 77.6311063,
      "tags": {
        "addr:place": "Jogupalya",
        "amenity": "school",
        "isced:level": "2",
        "name": "GUHPS Jogupalya",
        "name:kn": "ಸರ್ಕಾರಿ ಉರ್ದು ಹಿರಿಯ ಪ್ರಾಥಮಿಕ ಶಾಲೆ ಜೊಗುಪಾಳ್ಯ",
        "operator": "Department of Education",
        "school": "primary"
      }
    },
    {
      "type": "node",
      "id": 6348833682,
      "lat": 12.9760932,
      "lon": 77.6293447,
      "tags": {
        "addr:place": "Ulsoor",
        "amenity": "school",
        "isced:level": "2",
        "name": "Sri Ramakrishna HPS Ulsoor",
        "name:kn": "ಶ್ರೀ ರಾಮಕೃಷ್ಣ ಹಿರಿಯ ಪ್ರಾಥಮಿಕ ಶಾಲೆ ಹಲಸೂರು",
        "operator": "Department of Education",
        "school": "primary"
      }
    },
    {
      "type": "node",
      "id": 6349556765,
      "lat": 12.9685408,
      "lon": 77.6288761,
      "tags": {
        "addr:place": "Ulsoor",
        "amenity": "school",
        "isced:level": "2",
        "name": "St Miras HPS Ulsoor",
        "name:kn": "ಸೆಂಟ್‌ ಮಿರಸ್ ಹಿರಿಯ ಪ್ರಾಥಮಿಕ ಶಾಲೆ ಹಲಸೂರು",
        "operator": "Pvt. Aided",
        "school": "primary"
      }
    },
    {
      "type": "node",
      "id": 6349564529,
      "lat": 12.9766881,
      "lon": 77.6282174,
      "tags": {
        "addr:place": "Jogupalya",
        "amenity": "school",
        "isced:level": "2",
        "name": "Kairaliketan HPS Jogupalya",
        "name:kn": "ಕೈರಾಲಿಕೇತನ್ ಹಿರಿಯ ಪ್ರಾಥಮಿಕ ಶಾಲೆ ಜೊಗುಪಾಳ್ಯ",
        "operator": "Pvt. Aided",
        "school": "primary"
      }
    },
    {
      "type": "node",
      "id": 6377377134,
      "lat": 12.9715538,
      "lon": 77.6360017,
      "tags": {
        "amenity": "bicycle_rental",
        "fee": "yes",
        "network": "DULT",
        "operator": "Yulu"
      }
    },
    {
      "type": "node",
      "id": 6377377135,
      "lat": 12.9686739,
      "lon": 77.6361562,
      "tags": {
        "amenity": "bicycle_rental",
        "bicycle_rental": "dropoff_point",
        "fee": "yes",
        "network": "DULT",
        "operator": "Yulu"
      }
    },
    {
      "type": "node",
      "id": 6393846700,
      "lat": 12.9713759,
      "lon": 77.6348862,
      "tags": {
        "amenity": "atm",
        "brand": "IDBI Bank",
        "brand:wikidata": "Q3633485",
        "covered": "yes",
        "currency:INR": "yes",
        "name": "IDBI Bank",
        "operator": "IDBI Bank",
        "operator:wikidata": "Q3633485",
        "short_name": "IDBI"
      }
    },
    {
      "type": "node",
      "id": 6393846701,
      "lat": 12.9712853,
      "lon": 77.6348681,
      "tags": {
        "amenity": "atm",
        "brand": "Andhra Bank",
        "brand:wikidata": "Q2003476",
        "covered": "yes",
        "currency:INR": "yes",
        "name": "Andhra Bank",
        "name:kn": "ಆಂಧ್ರ ಬ್ಯಾಂಕ್",
        "operator": "Andhra Bank",
        "operator:wikidata": "Q2003476"
      }
    },
    {
      "type": "node",
      "id": 6443184083,
      "lat": 12.9727713,
      "lon": 77.6348249,
      "tags": {
        "female": "no",
        "male": "yes",
        "name": "First Choice Mens Salon",
        "shop": "hairdresser",
        "unisex": "no"
      }
    },
    {
      "type": "node",
      "id": 6443209514,
      "lat": 12.9730754,
      "lon": 77.6266744,
      "tags": {
        "brand": "Nandini",
        "name": "Nandini Milk Parlour",
        "shop": "dairy"
      }
    },
    {
      "type": "node",
      "id": 6443216005,
      "lat": 12.969801,
      "lon": 77.6303775,
      "tags": {
        "amenity": "place_of_worship",
        "name": "Shirdi Sai Baba Temple",
        "religion": "hindu"
      }
    },
    {
      "type": "node",
      "id": 6454509103,
      "lat": 12.9756177,
      "lon": 77.6233864,
      "tags": {
        "amenity": "post_office",
        "name": "Halasuru Bazaar"
      }
    },
    {
      "type": "node",
      "id": 6458988265,
      "lat": 12.977819,
      "lon": 77.6303184,
      "tags": {
        "amenity": "fast_food",
        "name": "Dosa shop"
      }
    },
    {
      "type": "node",
      "id": 6458991781,
      "lat": 12.9777866,
      "lon": 77.6302967,
      "tags": {
        "amenity": "pharmacy",
        "check_date": "2024-02-06",
        "healthcare": "pharmacy",
        "name": "Suresh Pharma"
      }
    },
    {
      "type": "node",
      "id": 6458991784,
      "lat": 12.9778066,
      "lon": 77.6303466,
      "tags": {
        "name": "Snacks shop",
        "shop": "bakery"
      }
    },
    {
      "type": "node",
      "id": 6531687424,
      "lat": 12.9723602,
      "lon": 77.6304912,
      "tags": {
        "addr:place": "jogupalya",
        "amenity": "school",
        "isced:level": "1",
        "name": "GTLPS jogupalya",
        "name:kn": "ಸರ್ಕಾರಿ ತೆಲುಗು ಕಿರಿಯ ಪ್ರಾಥಮಿಕ ಶಾಲೆ ಜೊಗುಪಾಳ್ಯ",
        "operator": "Private Un-Aided",
        "school": "primary"
      }
    },
    {
      "type": "node",
      "id": 6531788004,
      "lat": 12.9740521,
      "lon": 77.6273143,
      "tags": {
        "addr:place": "Jogupalya",
        "amenity": "school",
        "isced:level": "1",
        "name": "GULPS Jogupalya,",
        "name:kn": "ಸರ್ಕಾರಿ ಉರ್ದು ಕಿರಿಯ ಪ್ರಾಥಮಿಕ ಶಾಲೆ ಜೊಗುಪಾಳ್ಯ",
        "operator": "Department of Education",
        "school": "primary"
      }
    },
    {
      "type": "node",
      "id": 6531889492,
      "lat": 12.9696041,
      "lon": 77.6243903,
      "tags": {
        "addr:place": "Jogupalya",
        "amenity": "school",
        "isced:level": "1",
        "name": "GLPS Gowthamapura, jogupalya",
        "name:kn": "ಸರ್ಕಾರಿ ಕಿರಿಯ ಪ್ರಾಥಮಿಕ ಶಾಲೆ ಗೌತಮಪುರ, ಜೊಗುಪಾಳ್ಯ",
        "operator": "Department of Education",
        "school": "primary"
      }
    },
    {
      "type": "node",
      "id": 6545576539,
      "lat": 12.9670947,
      "lon": 77.6351897,
      "tags": {
        "alt_name": "BIC Auditorium",
        "amenity": "theatre",
        "check_date": "2025-03-14",
        "level": "0;1",
        "name": "Sarah Kailath Auditorium"
      }
    },
    {
      "type": "node",
      "id": 6583723603,
      "lat": 12.9752019,
      "lon": 77.6247748,
      "tags": {
        "addr:city": "Bangalore",
        "addr:housenumber": "58",
        "addr:street": "Bazaar Steet, Ulsoor",
        "clothes": "women;children;men;babies;fashion;lingerie",
        "name": "Stylo garments",
        "operator": "Fasal",
        "shop": "clothes"
      }
    },
    {
      "type": "node",
      "id": 6882713305,
      "lat": 12.9630637,
      "lon": 77.6289171,
      "tags": {
        "addr:city": "Bengaluru",
        "addr:district": "BENGALURU URBAN",
        "addr:full": "Old Airport Road, Near Cambridge Layout, Domlur Village, Post Agram",
        "addr:postcode": "560007",
        "addr:state": "Karnataka",
        "amenity": "blood_bank",
        "contact:mobile": "9663865587",
        "contact:phone": "8025234632",
        "name": "Command Hospital Blood Bank Air Force",
        "opening_hours": "24/7",
        "operator:type": "government",
        "source": "OpenGovernmentData",
        "website": "http://www.afmc.nic.in"
      }
    },
    {
      "type": "node",
      "id": 6938864303,
      "lat": 12.976032,
      "lon": 77.6254061,
      "tags": {
        "addr:district": "Bengaluru Urban",
        "addr:full": "CGHS Dispensary No.4, Ulsoor No.27, Car StreetUlsoor",
        "addr:postcode": "560004",
        "addr:state": "Karnataka",
        "amenity": "clinic",
        "health_facility:type": "dispensary",
        "healthcare": "centre",
        "name": "CGHS Dispensary No.4",
        "operator:type": "government",
        "source": "OpenGovernmentData",
        "website": "http://nb.bsf.gov.in/CGHS%20DIspenseries.pdf"
      }
    },
    {
      "type": "node",
      "id": 6944256063,
      "lat": 12.9781151,
      "lon": 77.6301697,
      "tags": {
        "addr:district": "Bengaluru Urban",
        "addr:full": "10,12 th Cross, Lakshmipuram",
        "addr:postcode": "560008",
        "addr:state": "Karnataka",
        "amenity": "clinic",
        "healthcare": "clinic",
        "name": "Joseph Clinic, Bengaluru Urban",
        "source": "OpenGovernmentData"
      }
    },
    {
      "type": "node",
      "id": 6944364980,
      "lat": 12.970023,
      "lon": 77.6307987,
      "tags": {
        "addr:district": "Bengaluru Urban",
        "addr:full": "No. 114, 5Th Cross, Sai Baba Temple Road, Cambridge Layout, Ulsoor",
        "addr:postcode": "560008",
        "addr:state": "Karnataka",
        "amenity": "hospital",
        "name": "Sadhana Eye Hospital, Bengaluru Urban",
        "source": "OpenGovernmentData"
      }
    },
    {
      "type": "node",
      "id": 6947371813,
      "lat": 12.9709143,
      "lon": 77.6321116,
      "tags": {
        "addr:district": "Bengaluru Urban",
        "addr:full": "#289.1 Cross, Cambridge Layout, Halasuru, Near Sai Baba Temple",
        "addr:postcode": "560008",
        "addr:state": "Karnataka",
        "amenity": "hospital",
        "name": "Health Cottage Hospital",
        "source": "OpenGovernmentData"
      }
    },
    {
      "type": "node",
      "id": 7031769604,
      "lat": 12.9703801,
      "lon": 77.632265,
      "tags": {
        "air_conditioning": "yes",
        "description": "Our focus is on design innovation and promotion of handcrafted products made by skilled artisans using natural inputs which sustains and preserves the environment. We are dedicated towards preserving rich and vibrant traditional Indian art.",
        "name": "Jute Cottage",
        "payment:all": "yes",
        "payment:credit_cards": "yes",
        "payment:debit_cards": "yes",
        "shop": "gift",
        "source": "survey;local knowledge;gps",
        "website": "https://www.jutecottage.co.in/"
      }
    },
    {
      "type": "node",
      "id": 7178597795,
      "lat": 12.973545,
      "lon": 77.6204172,
      "tags": {
        "addr:city": "Bengaluru",
        "addr:country": "IN",
        "addr:hamlet": "Ulsoor",
        "addr:housenumber": "1MG Mall",
        "addr:postcode": "560008",
        "addr:street": "Mahatma Gandhi Road",
        "amenity": "cafe",
        "name": "Food Hall",
        "website": "https://www.foodhallonline.com/"
      }
    },
    {
      "type": "node",
      "id": 7184126229,
      "lat": 12.9759778,
      "lon": 77.6262092,
      "tags": {
        "name": "Track & Trail",
        "shop": "bicycle"
      }
    },
    {
      "type": "node",
      "id": 7572526710,
      "lat": 12.9698194,
      "lon": 77.6317472,
      "tags": {
        "addr:district": "Bengaluru Urban",
        "addr:full": "Someshvarapura Layout, Jogupalya, Bengaluru",
        "addr:postcode": "560008",
        "addr:state": "Karnataka",
        "amenity": "hospital",
        "name": "Sai Baba Hospital",
        "name:kn": "ಸಾಯಿಬಾಬ ಆಸ್ಪತ್ರೆ",
        "source": "Local Knowledge"
      }
    },
    {
      "type": "node",
      "id": 7572526740,
      "lat": 12.9761401,
      "lon": 77.6227086,
      "tags": {
        "addr:district": "Bengaluru Urban",
        "addr:full": "Someshwarpura, Halasuru, Bengaluru",
        "addr:postcode": "560008",
        "addr:state": "Karnataka",
        "amenity": "dentist",
        "name": "Dhyan Dental Care",
        "source": "Local Knowledge"
      }
    },
    {
      "type": "node",
      "id": 7572526746,
      "lat": 12.9767057,
      "lon": 77.6229194,
      "tags": {
        "addr:district": "Bengaluru Urban",
        "addr:full": "Someshwarpura, Halasuru, Bengaluru",
        "addr:postcode": "560008",
        "addr:state": "Karnataka",
        "amenity": "clinic",
        "name": "Ghagare Health Care Clinic",
        "source": "Local Knowledge"
      }
    },
    {
      "type": "node",
      "id": 7572526767,
      "lat": 12.9693009,
      "lon": 77.6317545,
      "tags": {
        "addr:district": "Bengaluru Urban",
        "addr:full": "Someshvarapura Layout, Jogupalya, Bengaluru",
        "addr:postcode": "560008",
        "addr:state": "Karnataka",
        "amenity": "hospital",
        "name": "ESIC Hospital",
        "source": "Local Knowledge"
      }
    },
    {
      "type": "node",
      "id": 7572526775,
      "lat": 12.9714838,
      "lon": 77.6350988,
      "tags": {
        "addr:district": "Bengaluru Urban",
        "addr:full": "Indiranagar, Bengaluru",
        "addr:postcode": "560008",
        "addr:state": "Karnataka",
        "amenity": "clinic",
        "check_date": "2023-10-12",
        "name": "Dr. Banerjee Homeopathy Clinic",
        "source": "Local Knowledge"
      }
    },
    {
      "type": "node",
      "id": 7572526777,
      "lat": 12.9694023,
      "lon": 77.6300504,
      "tags": {
        "addr:district": "Bengaluru Urban",
        "addr:full": "Cambridge Layout, Halasuru, Bengaluru",
        "addr:postcode": "560008",
        "addr:state": "Karnataka",
        "amenity": "clinic",
        "name": "Orthotrend Clinic",
        "source": "Local Knowledge"
      }
    },
    {
      "type": "node",
      "id": 7572526809,
      "lat": 12.9728469,
      "lon": 77.6268497,
      "tags": {
        "addr:district": "Bengaluru Urban",
        "addr:full": "Cambridge Road, Udani Layout, Jogupalya, Bengaluru",
        "addr:postcode": "560008",
        "addr:state": "Karnataka",
        "amenity": "clinic",
        "healthcare": "clinic",
        "name": "Rai Clinic",
        "source": "Local Knowledge"
      }
    },
    {
      "type": "node",
      "id": 7970346627,
      "lat": 12.9715621,
      "lon": 77.6352678,
      "tags": {
        "addr:city": "Indiranagar, Bangalore",
        "addr:housenumber": "/458, 2nd cross",
        "addr:postcode": "560038",
        "addr:street": "7th main, Indrangar 2nd stage, Bangalore 560038",
        "clothes": "women;sports",
        "name": "Deivee",
        "organic": "yes",
        "shop": "clothes"
      }
    },
    {
      "type": "node",
      "id": 8834772573,
      "lat": 12.9768014,
      "lon": 77.6297744,
      "tags": {
        "amenity": "place_of_worship",
        "name": "Thotada Muneshwara Swamy temple",
        "name:kn": "ತೋಟದ ಮುನೇಶ್ವರ ಸ್ವಾಮಿ ದೇವಸ್ಥಾನ",
        "religion": "hindu"
      }
    },
    {
      "type": "node",
      "id": 9066455075,
      "lat": 12.9715511,
      "lon": 77.635481,
      "tags": {
        "addr:housenumber": "3142, Ground Floor",
        "addr:street": "7th Main, ESI Hospital Road",
        "amenity": "pharmacy",
        "branch": "ESI Hospital Road Indiranagar",
        "brand": "MedPlus",
        "brand:wikidata": "Q65684234",
        "healthcare": "pharmacy",
        "name": "MedPlus",
        "name:kn": "ಮೆಡ್‍ಪ್ಲಸ್",
        "opening_hours": "Mo-Su 07:00-23:00",
        "phone": "+916366374166",
        "website": "https://pharmacy.medplusmart.com/INKABLR00500"
      }
    },
    {
      "type": "node",
      "id": 9230655278,
      "lat": 12.9722238,
      "lon": 77.6192451,
      "tags": {
        "name": "Saboo Collections",
        "shop": "clothes"
      }
    },
    {
      "type": "node",
      "id": 9296060500,
      "lat": 12.9666459,
      "lon": 77.6352847,
      "tags": {
        "addr:floor": "G",
        "alt_name": "BIC Cafe",
        "amenity": "restaurant",
        "check_date": "2025-03-14",
        "cuisine": "indian",
        "delivery": "no",
        "level": "0",
        "microbrewery": "yes",
        "name": "Coracle",
        "note": "NAVU Project till mid August 2022. Podi and Spice starting in September 2022, till January 2024.",
        "outdoor_seating": "yes",
        "phone": "+91 98455 29596",
        "takeaway": "no",
        "wheelchair": "yes"
      }
    },
    {
      "type": "node",
      "id": 9723056439,
      "lat": 12.9692467,
      "lon": 77.6361255,
      "tags": {
        "amenity": "ice_cream",
        "brand": "Baskin-Robbins",
        "brand:wikidata": "Q584601",
        "cuisine": "ice_cream",
        "name": "Baskin-Robbins"
      }
    },
    {
      "type": "node",
      "id": 9723056440,
      "lat": 12.9685272,
      "lon": 77.6360685,
      "tags": {
        "amenity": "restaurant",
        "name": "The Kitchen of Joy",
        "payment:credit_cards": "yes",
        "payment:debit_cards": "yes"
      }
    },
    {
      "type": "node",
      "id": 9723056441,
      "lat": 12.9684449,
      "lon": 77.6361007,
      "tags": {
        "amenity": "restaurant",
        "cuisine": "asian",
        "name": "Chilli and Chives",
        "payment:credit_cards": "yes",
        "payment:debit_cards": "yes"
      }
    },
    {
      "type": "node",
      "id": 9723056458,
      "lat": 12.9679868,
      "lon": 77.6363307,
      "tags": {
        "amenity": "fast_food",
        "cuisine": "chinese",
        "name": "Chung Wah"
      }
    },
    {
      "type": "node",
      "id": 9723056459,
      "lat": 12.9678522,
      "lon": 77.6364212,
      "tags": {
        "check_date": "2025-03-14",
        "name": "Pet Warehouse",
        "shop": "pet"
      }
    },
    {
      "type": "node",
      "id": 9723056460,
      "lat": 12.9676993,
      "lon": 77.6364957,
      "tags": {
        "check_date": "2025-03-14",
        "name": "Heads Up for Tails",
        "shop": "pet_grooming"
      }
    },
    {
      "type": "node",
      "id": 9723056488,
      "lat": 12.9691872,
      "lon": 77.6361242,
      "tags": {
        "addr:city": "Bangalore",
        "addr:country": "IN",
        "addr:hamlet": "HAL 2nd Stage",
        "addr:housenumber": "3302",
        "addr:postcode": "560008",
        "addr:street": "12th A Main Road",
        "addr:suburb": "Indiranagar",
        "check_date": "2025-03-14",
        "email": "hello@somethingsbrewing.in",
        "mobile": "+91-880-077-0649",
        "name": "Something's Brewing",
        "phone": "+91-880-077-0649",
        "shop": "coffee",
        "website": "https://somethingsbrewing.in/"
      }
    },
    {
      "type": "node",
      "id": 9723056489,
      "lat": 12.969035,
      "lon": 77.6361658,
      "tags": {
        "amenity": "cafe",
        "check_date": "2025-03-14",
        "name": "infinitea"
      }
    },
    {
      "type": "node",
      "id": 9723056490,
      "lat": 12.966793,
      "lon": 77.6352431,
      "tags": {
        "amenity": "cafe",
        "level": "0",
        "name": "Coffee Mechanics"
      }
    },
    {
      "type": "node",
      "id": 9811346770,
      "lat": 12.9737084,
      "lon": 77.6204856,
      "tags": {
        "access": "yes",
        "amenity": "toilets",
        "fee": "no",
        "female": "yes"
      }
    },
    {
      "type": "node",
      "id": 9811346771,
      "lat": 12.973741,
      "lon": 77.6204869,
      "tags": {
        "access": "yes",
        "amenity": "toilets",
        "fee": "no",
        "male": "yes"
      }
    },
    {
      "type": "node",
      "id": 9890165407,
      "lat": 12.9741096,
      "lon": 77.6360209,
      "tags": {
        "name": "Amma's Pastries",
        "shop": "pastry"
      }
    },
    {
      "type": "node",
      "id": 9890165409,
      "lat": 12.9703013,
      "lon": 77.6360987,
      "tags": {
        "amenity": "cafe",
        "diet:vegan": "yes",
        "name": "Charlie Chaplain La Vegano"
      }
    },
    {
      "type": "node",
      "id": 9890165410,
      "lat": 12.970287,
      "lon": 77.6358332,
      "tags": {
        "amenity": "restaurant",
        "diet:vegetarian": "yes",
        "name": "Street Storyss"
      }
    },
    {
      "type": "node",
      "id": 9890165411,
      "lat": 12.9701066,
      "lon": 77.636261,
      "tags": {
        "addr:city": "Bangalore",
        "amenity": "restaurant",
        "brand": "Cafe Noir",
        "brand:wikidata": "Q124374751",
        "cuisine": "french;burger",
        "delivery": "yes",
        "indoor_seating": "yes",
        "name": "Cafe Noir",
        "name:kn": "ಕಫೆ ನಾರ್ಯ್",
        "payment:credit_cards": "yes",
        "payment:debit_cards": "yes",
        "takeaway": "yes"
      }
    },
    {
      "type": "node",
      "id": 9890165412,
      "lat": 12.9696401,
      "lon": 77.6357929,
      "tags": {
        "amenity": "ice_cream",
        "name": "Lakeview Milk Bar"
      }
    },
    {
      "type": "node",
      "id": 9917415767,
      "lat": 12.974435,
      "lon": 77.6357956,
      "tags": {
        "brand": "Steelcase",
        "name": "Steelcase",
        "operator": "Steelcase",
        "shop": "furniture",
        "website": "https://www.steelcase.com"
      }
    },
    {
      "type": "node",
      "id": 9917415768,
      "lat": 12.9733967,
      "lon": 77.6357561,
      "tags": {
        "amenity": "charging_station",
        "bicycle": "yes",
        "motorcycle": "yes",
        "scooter": "yes"
      }
    },
    {
      "type": "node",
      "id": 9917415769,
      "lat": 12.9733738,
      "lon": 77.6357554,
      "tags": {
        "amenity": "charging_station",
        "bicycle": "yes",
        "motorcycle": "yes",
        "scooter": "yes"
      }
    },
    {
      "type": "node",
      "id": 10006815594,
      "lat": 12.9732714,
      "lon": 77.635996,
      "tags": {
        "name": "Machleez sea food",
        "shop": "seafood"
      }
    },
    {
      "type": "node",
      "id": 10121397955,
      "lat": 12.9757484,
      "lon": 77.6226219,
      "tags": {
        "name": "Sharon",
        "shop": "tea"
      }
    },
    {
      "type": "node",
      "id": 10138074550,
      "lat": 12.9721349,
      "lon": 77.6188655,
      "tags": {
        "access": "customers",
        "amenity": "parking_entrance",
        "fee": "yes",
        "parking": "underground"
      }
    },
    {
      "type": "node",
      "id": 10203735337,
      "lat": 12.969133,
      "lon": 77.6358587,
      "tags": {
        "addr:city": "Bangalore",
        "addr:country": "IN",
        "addr:hamlet": "HAL 2nd Stage",
        "addr:housenumber": "3165",
        "addr:postcode": "560038",
        "addr:street": "12th Cross Road",
        "addr:suburb": "Indiranagar",
        "amenity": "cafe",
        "check_date": "2025-03-14",
        "contact:instagram": "humblebeancoffee",
        "email": "info@humblebeancoffee.com",
        "name": "HumbleBean Coffee",
        "opening_hours": "10:00-20:00",
        "takeaway": "yes",
        "website": "https://humblebeancoffee.com"
      }
    },
    {
      "type": "node",
      "id": 10280759751,
      "lat": 12.9733385,
      "lon": 77.6197399,
      "tags": {
        "amenity": "pub",
        "microbrewery": "yes",
        "name": "7 Rivers Brewing Company"
      }
    },
    {
      "type": "node",
      "id": 10280790807,
      "lat": 12.9725047,
      "lon": 77.6265299,
      "tags": {
        "addr:city": "Bengaluru",
        "addr:country": "IN",
        "addr:housenumber": "18/1",
        "addr:postcode": "560008",
        "addr:street": "Cambridge Road",
        "addr:suburb": "Halasuru",
        "amenity": "pub",
        "contact:instagram": "adda1522blr",
        "email": "adda1522blr@gmail.com",
        "mobile": "+919164441522",
        "name": "ADDA 1522",
        "payment:credit_cards": "yes",
        "payment:debit_cards": "yes",
        "phone": "+919916661522",
        "website": "https://adda1522.com/"
      }
    },
    {
      "type": "node",
      "id": 10294506356,
      "lat": 12.9764825,
      "lon": 77.6268299,
      "tags": {
        "amenity": "charging_station",
        "brand": "Yulu",
        "note": "This is a battery swapping station of e-bikes."
      }
    },
    {
      "type": "node",
      "id": 10298154446,
      "lat": 12.9697851,
      "lon": 77.6245511,
      "tags": {
        "amenity": "place_of_worship",
        "religion": "hindu"
      }
    },
    {
      "type": "node",
      "id": 10693248076,
      "lat": 12.966542,
      "lon": 77.6352357,
      "tags": {
        "access": "private",
        "amenity": "parking_entrance",
        "parking": "underground"
      }
    },
    {
      "type": "node",
      "id": 10693248077,
      "lat": 12.9670217,
      "lon": 77.6351586,
      "tags": {
        "access": "yes",
        "amenity": "toilets",
        "check_date": "2025-03-14",
        "level": "0"
      }
    },
    {
      "type": "node",
      "id": 10693248100,
      "lat": 12.9674242,
      "lon": 77.636501,
      "tags": {
        "amenity": "fast_food",
        "delivery": "yes",
        "name": "Zwarma",
        "takeaway": "yes"
      }
    },
    {
      "type": "node",
      "id": 10694736146,
      "lat": 12.9688696,
      "lon": 77.6358915,
      "tags": {
        "amenity": "cafe",
        "name": "Cafe Muziris",
        "takeaway": "yes"
      }
    },
    {
      "type": "node",
      "id": 10727955503,
      "lat": 12.9732928,
      "lon": 77.6203649,
      "tags": {
        "addr:city": "Bangalore",
        "addr:country": "IN",
        "addr:housename": "1 MG Road Mall",
        "addr:postcode": "560008",
        "addr:street": "Mahatma Gandhi Road",
        "amenity": "restaurant",
        "contact:facebook": "YauatchaBlr",
        "contact:instagram": "yauatchabengaluru",
        "cuisine": "cantonese",
        "delivery": "yes",
        "email": "reservation.bengaluru@yauatchaindia.com",
        "level": "5",
        "name": "Yauatcha",
        "phone": "+91 922 2222800",
        "reservation": "yes",
        "website": "https://yauatcha.com/bengaluru/"
      }
    },
    {
      "type": "node",
      "id": 10994052517,
      "lat": 12.9734392,
      "lon": 77.6203608,
      "tags": {
        "contact:instagram": "theancestrystore",
        "contact:youtube": "@theancestrystore",
        "email": "care@theancestrystore.in",
        "name": "Ancestry",
        "phone": "+91 7304477926",
        "shop": "boutique",
        "website": "https://theancestrystore.in/"
      }
    },
    {
      "type": "node",
      "id": 11131430553,
      "lat": 12.9714323,
      "lon": 77.6351019,
      "tags": {
        "leisure": "fitness_centre",
        "name": "Fitness One"
      }
    },
    {
      "type": "node",
      "id": 11131430555,
      "lat": 12.9702732,
      "lon": 77.6325236,
      "tags": {
        "name": "Sangeeta Mobiles",
        "shop": "mobile_phone"
      }
    },
    {
      "type": "node",
      "id": 11131430556,
      "lat": 12.9696889,
      "lon": 77.6325273,
      "tags": {
        "amenity": "restaurant",
        "cuisine": "chinese",
        "name": "Hong Kong Chinese Restaurant"
      }
    },
    {
      "type": "node",
      "id": 11131430557,
      "lat": 12.9685723,
      "lon": 77.6308921,
      "tags": {
        "name": "theskinstore.in",
        "shop": "cosmetics"
      }
    },
    {
      "type": "node",
      "id": 11131430558,
      "lat": 12.9686442,
      "lon": 77.6291495,
      "tags": {
        "amenity": "fast_food",
        "brand": "Domino's",
        "brand:wikidata": "Q839466",
        "cuisine": "pizza",
        "name": "Domino's",
        "name:kn": "ಡಾಮಿನೋಸ್",
        "takeaway": "yes"
      }
    },
    {
      "type": "node",
      "id": 11131430559,
      "lat": 12.9693732,
      "lon": 77.6287175,
      "tags": {
        "amenity": "bank",
        "brand": "HDFC Bank",
        "brand:wikidata": "Q631047",
        "name": "HDFC Bank",
        "name:kn": "ಎಚ್ ಡಿ ಎಫ್ ಸಿ",
        "short_name": "HDFC"
      }
    },
    {
      "type": "node",
      "id": 11131430560,
      "lat": 12.9714734,
      "lon": 77.6277316,
      "tags": {
        "amenity": "pharmacy",
        "brand": "MedPlus",
        "brand:wikidata": "Q65684234",
        "healthcare": "pharmacy",
        "name": "MedPlus"
      }
    },
    {
      "type": "node",
      "id": 11131430561,
      "lat": 12.9714974,
      "lon": 77.6277058,
      "tags": {
        "amenity": "atm",
        "brand": "Kotak Mahindra Bank",
        "brand:wikidata": "Q2040404",
        "operator": "Kotak Mahindra Bank",
        "operator:wikidata": "Q2040404"
      }
    },
    {
      "type": "node",
      "id": 11131430562,
      "lat": 12.9721652,
      "lon": 77.6273558,
      "tags": {
        "amenity": "kindergarten",
        "name": "Little Wings Pre Primary School"
      }
    },
    {
      "type": "node",
      "id": 11188703538,
      "lat": 12.9738038,
      "lon": 77.6203662,
      "tags": {
        "amenity": "pub",
        "contact:instagram": "julietblr_",
        "name": "Juliet"
      }
    },
    {
      "type": "node",
      "id": 11188703539,
      "lat": 12.9731869,
      "lon": 77.6203595,
      "tags": {
        "amenity": "pub",
        "contact:instagram": "twomoonsblr",
        "name": "Two Moons",
        "phone": "+91 96203 47095"
      }
    },
    {
      "type": "node",
      "id": 11188703541,
      "lat": 12.973528,
      "lon": 77.6203608,
      "tags": {
        "amenity": "pub",
        "contact:instagram": "minxblr",
        "name": "Minx"
      }
    },
    {
      "type": "node",
      "id": 11188703545,
      "lat": 12.9714775,
      "lon": 77.618895,
      "tags": {
        "name": "Kohler",
        "shop": "kitchen"
      }
    },
    {
      "type": "node",
      "id": 11249358262,
      "lat": 12.9739972,
      "lon": 77.6358989,
      "tags": {
        "amenity": "restaurant",
        "name": "Hotel Gowdru"
      }
    },
    {
      "type": "node",
      "id": 11289218780,
      "lat": 12.9747794,
      "lon": 77.6199654,
      "tags": {
        "amenity": "waste_basket"
      }
    },
    {
      "type": "node",
      "id": 11404712824,
      "lat": 12.9776472,
      "lon": 77.6273121,
      "tags": {
        "amenity": "pharmacy",
        "name": "Shree Raajarajeshwari Medicals & General store"
      }
    },
    {
      "type": "node",
      "id": 11499112406,
      "lat": 12.972617,
      "lon": 77.6266243,
      "tags": {
        "addr:floor": "2",
        "amenity": "restaurant",
        "check_date": "2024-01-08",
        "contact:instagram": "https://www.instagram.com/podiandspice",
        "level": "2",
        "name": "Podi and Spice"
      }
    },
    {
      "type": "node",
      "id": 11534808271,
      "lat": 12.9700536,
      "lon": 77.6361068,
      "tags": {
        "addr:housenumber": "3275/A",
        "addr:street": "12th Main Road",
        "amenity": "restaurant",
        "check_date": "2025-03-14",
        "contact:instagram": "https://www.instagram.com/pizza4ps.india",
        "cuisine": "pizza",
        "name": "Pizza 4P's",
        "phone": "+91 89519 40444",
        "reservation": "recommended",
        "website": "https://pizza4ps.com"
      }
    },
    {
      "type": "node",
      "id": 11542197856,
      "lat": 12.9670247,
      "lon": 77.6352193,
      "tags": {
        "amenity": "library",
        "check_date": "2025-03-14",
        "level": "2",
        "name": "BIC Library",
        "website": "https://bangaloreinternationalcentre.org/"
      }
    },
    {
      "type": "node",
      "id": 11594813843,
      "lat": 12.9784568,
      "lon": 77.6302376,
      "tags": {
        "check_date": "2025-08-18",
        "check_date:opening_hours": "2025-08-18",
        "description": "Wholesale store for household items",
        "internet_access": "no",
        "name": "Mahadev Marketing",
        "opening_hours": "Mo-Su 09:00-21:00",
        "payment:cards": "no",
        "payment:cash": "yes",
        "payment:credit_cards": "no",
        "payment:debit_cards": "no",
        "shop": "department_store",
        "toilets": "no"
      }
    },
    {
      "type": "node",
      "id": 11594813844,
      "lat": 12.9784827,
      "lon": 77.6300943,
      "tags": {
        "check_date": "2024-10-06",
        "description": "Xerox, printout and binding service",
        "internet_access": "no",
        "name": "Moon Graphics",
        "opening_hours": "Mo-Sa 09:00-22:00",
        "payment:cards": "no",
        "payment:cash": "yes",
        "payment:credit_cards": "no",
        "payment:debit_cards": "no",
        "shop": "copyshop",
        "wheelchair": "no"
      }
    },
    {
      "type": "node",
      "id": 11598342947,
      "lat": 12.9784278,
      "lon": 77.6304586,
      "tags": {
        "check_date": "2025-08-22",
        "check_date:opening_hours": "2025-08-22",
        "internet_access": "no",
        "level": "0",
        "male": "yes",
        "name": "Blue Diamond Hair Dresses",
        "opening_hours": "Mo-Su 09:00-21:00",
        "payment:cards": "no",
        "payment:cash": "yes",
        "payment:credit_cards": "no",
        "payment:debit_cards": "no",
        "shop": "hairdresser",
        "wheelchair": "no"
      }
    },
    {
      "type": "node",
      "id": 11598342948,
      "lat": 12.9784307,
      "lon": 77.6304114,
      "tags": {
        "check_date": "2025-08-26",
        "check_date:opening_hours": "2025-08-26",
        "internet_access": "no",
        "name": "Saint Gobain Glass",
        "opening_hours": "Mo-Sa 09:00-21:00",
        "payment:cash": "yes",
        "payment:credit_cards": "yes",
        "payment:debit_cards": "yes",
        "shop": "hardware",
        "wheelchair": "no"
      }
    },
    {
      "type": "node",
      "id": 11598459984,
      "lat": 12.9782131,
      "lon": 77.6306819,
      "tags": {
        "check_date": "2025-09-12",
        "check_date:opening_hours": "2025-09-12",
        "internet_access": "no",
        "level": "0",
        "name": "B.P Bakery",
        "opening_hours": "Mo-Sa 09:00-21:00",
        "payment:cards": "no",
        "payment:cash": "yes",
        "payment:credit_cards": "no",
        "payment:debit_cards": "no",
        "shop": "bakery",
        "wheelchair": "no"
      }
    },
    {
      "type": "node",
      "id": 11598473994,
      "lat": 12.9782427,
      "lon": 77.6303751,
      "tags": {
        "check_date": "2024-02-08",
        "description": "Dealers in 2&3 wheeler spare parts",
        "level": "0",
        "name": "New Krishna Automobiles",
        "shop": "car_parts"
      }
    },
    {
      "type": "node",
      "id": 11598477573,
      "lat": 12.9782547,
      "lon": 77.6303592,
      "tags": {
        "check_date": "2024-02-08",
        "internet_access": "no",
        "level": "0",
        "name": "DJ Glass Hardware Studio",
        "payment:cash": "yes",
        "payment:credit_cards": "yes",
        "payment:debit_cards": "yes",
        "shop": "hardware",
        "wheelchair": "no"
      }
    },
    {
      "type": "node",
      "id": 11598493631,
      "lat": 12.9784183,
      "lon": 77.6305007,
      "tags": {
        "check_date": "2025-08-30",
        "check_date:opening_hours": "2025-08-30",
        "internet_access": "no",
        "level": "0",
        "name": "Arihant Jewels",
        "opening_hours": "Mo-Sa 08:00-19:00",
        "payment:cash": "yes",
        "payment:credit_cards": "yes",
        "payment:debit_cards": "yes",
        "shop": "jewelry",
        "wheelchair": "no"
      }
    },
    {
      "type": "node",
      "id": 11598493632,
      "lat": 12.9784308,
      "lon": 77.6305574,
      "tags": {
        "amenity": "fixme",
        "check_date": "2024-02-08",
        "description": "Xerox, printout, book stationary",
        "fixme": "type",
        "fixme:type": "stationary",
        "internet_access": "no",
        "level": "0",
        "name": "Arihant Impex",
        "payment:cards": "no",
        "payment:cash": "yes",
        "payment:credit_cards": "no",
        "payment:debit_cards": "no",
        "wheelchair": "no"
      }
    },
    {
      "type": "node",
      "id": 11607152425,
      "lat": 12.9780746,
      "lon": 77.6311299,
      "tags": {
        "amenity": "place_of_worship",
        "name": "Masjid-E-Mohammadi",
        "religion": "muslim"
      }
    },
    {
      "type": "node",
      "id": 11623164488,
      "lat": 12.9785401,
      "lon": 77.6303791,
      "tags": {
        "check_date": "2024-02-14",
        "description": "Popular Auto Dealers Pvt. Ltd.",
        "internet_access": "no",
        "name": "Maruti Suzuki Genuine Parts",
        "payment:cash": "yes",
        "payment:credit_cards": "yes",
        "payment:debit_cards": "yes",
        "shop": "car_parts",
        "wheelchair": "no"
      }
    },
    {
      "type": "node",
      "id": 11630684166,
      "lat": 12.9782284,
      "lon": 77.6306448,
      "tags": {
        "amenity": "atm",
        "brand": "Canara Bank",
        "brand:en": "Canara Bank",
        "brand:hi": "केनरा बैंक",
        "brand:kn": "ಕೆನರಾ ಬ್ಯಾಂಕ್",
        "brand:pa": "ਕੇਨਰਾ ਬੈਂਕ",
        "brand:pnb": "کینرا بینک",
        "brand:ur": "کینرا بینک",
        "brand:wikidata": "Q2003777",
        "cash_in": "no",
        "check_date": "2024-02-16",
        "currency:INR": "yes",
        "indoor": "yes",
        "name:en": "Canara Bank",
        "name:hi": "केनरा बैंक",
        "name:kn": "ಕೆನರಾ ಬ್ಯಾಂಕ್",
        "name:pa": "ਕੇਨਰਾ ਬੈਂਕ",
        "name:pnb": "کینرا بینک",
        "name:ur": "کینرا بینک",
        "operator": "Canara Bank",
        "operator:wikidata": "Q2003777"
      }
    },
    {
      "type": "node",
      "id": 11630714851,
      "lat": 12.9782886,
      "lon": 77.6300822,
      "tags": {
        "check_date": "2025-09-10",
        "check_date:opening_hours": "2025-09-10",
        "currency:INR": "yes",
        "name": "Balaji Electricals",
        "name:kn": "ಬಾಲಾಜಿ ಎಲಕ್ಟ್ರಿಕಲ್ಸ್",
        "opening_hours": "Mo-Sa 09:00-21:00",
        "payment:cash": "yes",
        "payment:credit_cards": "yes",
        "payment:debit_cards": "yes",
        "shop": "electrical",
        "source": "local knowledge;survey",
        "wheelchair": "no"
      }
    },
    {
      "type": "node",
      "id": 11630738956,
      "lat": 12.9784085,
      "lon": 77.630885,
      "tags": {
        "amenity": "pharmacy",
        "check_date": "2024-02-16",
        "healthcare": "pharmacy",
        "internet_access": "no",
        "name": "Eshwar Pharma",
        "payment:cash": "yes",
        "payment:credit_cards": "yes",
        "payment:debit_cards": "yes",
        "phone": "+91 91643 45443",
        "wheelchair": "no"
      }
    },
    {
      "type": "node",
      "id": 11630772965,
      "lat": 12.9784895,
      "lon": 77.6299631,
      "tags": {
        "amenity": "restaurant",
        "check_date": "2024-10-06",
        "cuisine": "indian",
        "internet_access": "no",
        "name": "Ambur Hot Dum Biriyani",
        "payment:cards": "no",
        "payment:cash": "yes",
        "payment:credit_cards": "no",
        "payment:debit_cards": "no",
        "wheelchair": "no"
      }
    },
    {
      "type": "node",
      "id": 11659385836,
      "lat": 12.9735962,
      "lon": 77.6228357,
      "tags": {
        "check_date": "2024-02-24",
        "internet_access": "no",
        "name": "Royal Dealing Office",
        "payment:cards": "no",
        "payment:cash": "yes",
        "payment:credit_cards": "no",
        "payment:debit_cards": "no",
        "shop": "motorcycle_repair",
        "wheelchair": "no"
      }
    },
    {
      "type": "node",
      "id": 11659385837,
      "lat": 12.9736597,
      "lon": 77.6229416,
      "tags": {
        "amenity": "pharmacy",
        "check_date": "2024-02-24",
        "healthcare": "pharmacy",
        "internet_access": "no",
        "name": "Pharma Point",
        "payment:cash": "yes",
        "payment:credit_cards": "yes",
        "payment:debit_cards": "yes",
        "wheelchair": "no"
      }
    },
    {
      "type": "node",
      "id": 11659393739,
      "lat": 12.9737997,
      "lon": 77.6231991,
      "tags": {
        "amenity": "bank",
        "brand": "Punjab & Sind Bank",
        "brand:en": "Punjab & Sind Bank",
        "brand:hi": "पंजाब एण्ड सिंध बैंक",
        "brand:wikidata": "Q2003302",
        "check_date": "2024-02-24",
        "internet_access": "no",
        "name": "Punjab & Sind Bank",
        "name:en": "Punjab & Sind Bank",
        "name:hi": "पंजाब एण्ड सिंध बैंक"
      }
    },
    {
      "type": "node",
      "id": 11659393740,
      "lat": 12.9737843,
      "lon": 77.6231744,
      "tags": {
        "amenity": "atm",
        "check_date": "2024-02-24",
        "currency:INR": "yes",
        "operator": "Punjab & Sind Bank ATM"
      }
    },
    {
      "type": "node",
      "id": 11659394421,
      "lat": 12.9753929,
      "lon": 77.6257352,
      "tags": {
        "check_date": "2024-02-24",
        "description": "Computerised Duplicate Keys for all types of vehicles",
        "name": "Global Key Maker",
        "shop": "locksmith"
      }
    },
    {
      "type": "node",
      "id": 11659407358,
      "lat": 12.9783601,
      "lon": 77.6313384,
      "tags": {
        "amenity": "fast_food",
        "check_date": "2024-02-19",
        "cuisine": "juice",
        "internet_access": "no",
        "name": "Sri Brahmalingeshwara Juice And Condiments",
        "payment:cards": "no",
        "payment:cash": "yes",
        "payment:credit_cards": "no",
        "payment:debit_cards": "no",
        "wheelchair": "no"
      }
    },
    {
      "type": "node",
      "id": 11659423776,
      "lat": 12.9743258,
      "lon": 77.6240436,
      "tags": {
        "amenity": "post_office",
        "brand": "Blue Dart Express",
        "brand:short": "Blue Dart",
        "brand:wikidata": "Q54621493",
        "check_date": "2024-02-24",
        "name": "Blue Dart",
        "operator": "Blue Dart Express",
        "operator:short": "Blue Dart",
        "operator:wikidata": "Q54621493"
      }
    },
    {
      "type": "node",
      "id": 11659423777,
      "lat": 12.9743419,
      "lon": 77.6240687,
      "tags": {
        "check_date": "2024-02-24",
        "name": "MPS Arts & Crafts",
        "shop": "craft"
      }
    },
    {
      "type": "node",
      "id": 11684465147,
      "lat": 12.9776129,
      "lon": 77.6273546,
      "tags": {
        "amenity": "restaurant",
        "check_date": "2024-03-02",
        "internet_access": "no",
        "name": "Zamam's Darbaar",
        "payment:cards": "no",
        "payment:cash": "yes",
        "payment:credit_cards": "no",
        "payment:debit_cards": "no",
        "wheelchair": "no"
      }
    },
    {
      "type": "node",
      "id": 11684465148,
      "lat": 12.9775675,
      "lon": 77.6272973,
      "tags": {
        "amenity": "driving_school",
        "check_date": "2024-03-02",
        "internet_access": "no",
        "name": "Balaji Motor Driving Training School",
        "payment:cash": "yes",
        "payment:credit_cards": "yes",
        "payment:debit_cards": "yes",
        "wheelchair": "no"
      }
    },
    {
      "type": "node",
      "id": 11684501144,
      "lat": 12.9774449,
      "lon": 77.6271297,
      "tags": {
        "amenity": "hospital",
        "check_date": "2024-03-02",
        "healthcare": "hospital",
        "name": "Span Health Center"
      }
    },
    {
      "type": "node",
      "id": 11687670308,
      "lat": 12.9767459,
      "lon": 77.632192,
      "tags": {
        "check_date": "2024-03-03",
        "internet_access": "no",
        "name": "G.M Men's Beauty Salon",
        "payment:cards": "no",
        "payment:cash": "yes",
        "payment:credit_cards": "no",
        "payment:debit_cards": "no",
        "phone": "+91 98809 12306",
        "shop": "hairdresser",
        "wheelchair": "no"
      }
    },
    {
      "type": "node",
      "id": 11687670309,
      "lat": 12.9768053,
      "lon": 77.6322245,
      "tags": {
        "check_date": "2024-03-03",
        "internet_access": "no",
        "name": "Miracle Look Beauty Salon",
        "opening_hours": "Mo-Fr 10:00-20:00",
        "payment:cards": "no",
        "payment:cash": "yes",
        "payment:credit_cards": "no",
        "payment:debit_cards": "no",
        "phone": "+91 80736 15071",
        "shop": "beauty",
        "wheelchair": "no"
      }
    },
    {
      "type": "node",
      "id": 11687703006,
      "lat": 12.9770118,
      "lon": 77.6319376,
      "tags": {
        "check_date": "2024-03-03",
        "internet_access": "no",
        "name": "Iyengars Amma Pastries",
        "payment:cards": "no",
        "payment:cash": "yes",
        "payment:credit_cards": "no",
        "payment:debit_cards": "no",
        "shop": "bakery",
        "wheelchair": "no"
      }
    },
    {
      "type": "node",
      "id": 11687760729,
      "lat": 12.9783466,
      "lon": 77.6314892,
      "tags": {
        "check_date": "2024-03-03",
        "internet_access": "no",
        "name": "Bharath Hardware Center",
        "payment:cash": "yes",
        "payment:credit_cards": "yes",
        "payment:debit_cards": "yes",
        "shop": "hardware",
        "wheelchair": "no"
      }
    },
    {
      "type": "node",
      "id": 11687795827,
      "lat": 12.9783897,
      "lon": 77.6309594,
      "tags": {
        "check_date": "2024-03-03",
        "internet_access": "no",
        "name": "Sree Srinivasa Glass & Plywoods",
        "payment:cash": "yes",
        "payment:credit_cards": "yes",
        "payment:debit_cards": "yes",
        "shop": "hardware"
      }
    },
    {
      "type": "node",
      "id": 11690851846,
      "lat": 12.9784197,
      "lon": 77.6306998,
      "tags": {
        "amenity": "clinic",
        "check_date": "2024-03-04",
        "healthcare": "clinic",
        "name": "Laxmi Piles Clinic"
      }
    },
    {
      "type": "node",
      "id": 11694166515,
      "lat": 12.9753427,
      "lon": 77.6255211,
      "tags": {
        "amenity": "restaurant",
        "check_date": "2024-03-05",
        "internet_access": "no",
        "name": "Sri Krishna Foodline",
        "payment:cards": "no",
        "payment:cash": "yes",
        "payment:credit_cards": "no",
        "payment:debit_cards": "no",
        "phone": "+91 95380 88881",
        "wheelchair": "no"
      }
    },
    {
      "type": "node",
      "id": 11694166516,
      "lat": 12.9753224,
      "lon": 77.6255177,
      "tags": {
        "amenity": "fast_food",
        "check_date": "2024-03-05",
        "cuisine": "juice",
        "internet_access": "no",
        "name": "Juicy Creamz",
        "payment:cards": "no",
        "payment:cash": "yes",
        "payment:credit_cards": "no",
        "payment:debit_cards": "no",
        "wheelchair": "no"
      }
    },
    {
      "type": "node",
      "id": 11694166517,
      "lat": 12.9754162,
      "lon": 77.6255638,
      "tags": {
        "check_date": "2024-03-05",
        "name": "Mahadev Kangan Store",
        "shop": "cosmetics"
      }
    },
    {
      "type": "node",
      "id": 11694166518,
      "lat": 12.9753697,
      "lon": 77.6254264,
      "tags": {
        "check_date": "2024-03-05",
        "internet_access": "no",
        "name": "Aishwarya Pranam Home Needs",
        "payment:cards": "no",
        "payment:cash": "yes",
        "payment:credit_cards": "no",
        "payment:debit_cards": "no",
        "shop": "houseware",
        "wheelchair": "no"
      }
    },
    {
      "type": "node",
      "id": 11694188673,
      "lat": 12.9760589,
      "lon": 77.6248726,
      "tags": {
        "amenity": "restaurant",
        "check_date": "2024-03-05",
        "cuisine": "chinese",
        "internet_access": "no",
        "name": "Kaati King",
        "payment:cards": "no",
        "payment:cash": "yes",
        "payment:credit_cards": "no",
        "payment:debit_cards": "no",
        "wheelchair": "no"
      }
    },
    {
      "type": "node",
      "id": 11694214521,
      "lat": 12.9761609,
      "lon": 77.6244665,
      "tags": {
        "amenity": "pharmacy",
        "check_date": "2024-03-05",
        "healthcare": "pharmacy",
        "name": "Sri Sai Med Pharma",
        "phone": "+91 98443 85199"
      }
    },
    {
      "type": "node",
      "id": 11694214522,
      "lat": 12.9761193,
      "lon": 77.6242848,
      "tags": {
        "amenity": "doctors",
        "check_date": "2024-03-05",
        "healthcare": "doctor",
        "healthcare:speciality": "dermatology",
        "name": "Dr. Sahana's Skin & Hair Clinic",
        "phone": "+91 70196 43144"
      }
    },
    {
      "type": "node",
      "id": 11694239927,
      "lat": 12.9757077,
      "lon": 77.6259807,
      "tags": {
        "amenity": "bank",
        "brand": "ESAF Small Finance Bank",
        "brand:wikidata": "Q28173964",
        "check_date": "2024-03-05",
        "internet_access": "no",
        "name": "ESAF Small Finance Bank",
        "payment:cash": "yes",
        "payment:credit_cards": "yes",
        "payment:debit_cards": "yes",
        "wheelchair": "no"
      }
    },
    {
      "type": "node",
      "id": 11694239928,
      "lat": 12.9756424,
      "lon": 77.6259639,
      "tags": {
        "check_date": "2024-03-05",
        "internet_access": "no",
        "name": "Meghdooth Suzuki",
        "payment:cash": "yes",
        "payment:credit_cards": "yes",
        "payment:debit_cards": "yes",
        "shop": "motorcycle",
        "wheelchair": "no"
      }
    },
    {
      "type": "node",
      "id": 11694239929,
      "lat": 12.9756782,
      "lon": 77.6259775,
      "tags": {
        "check_date": "2024-03-05",
        "internet_access": "no",
        "name": "Vinay Bankers",
        "payment:cash": "yes",
        "payment:credit_cards": "yes",
        "payment:debit_cards": "yes",
        "shop": "money_lender",
        "wheelchair": "no"
      }
    },
    {
      "type": "node",
      "id": 11694248757,
      "lat": 12.9771934,
      "lon": 77.6270227,
      "tags": {
        "amenity": "restaurant",
        "check_date": "2024-03-05",
        "name": "Samutara Restaurant"
      }
    },
    {
      "type": "node",
      "id": 11694248758,
      "lat": 12.9772272,
      "lon": 77.6270474,
      "tags": {
        "amenity": "restaurant",
        "check_date": "2024-03-05",
        "internet_access": "no",
        "name": "New Taj",
        "payment:cards": "no",
        "payment:cash": "yes",
        "payment:credit_cards": "no",
        "payment:debit_cards": "no",
        "wheelchair": "no"
      }
    },
    {
      "type": "node",
      "id": 11694248759,
      "lat": 12.9772465,
      "lon": 77.627059,
      "tags": {
        "amenity": "post_office",
        "brand": "Desk to Desk Courier & Cargo",
        "brand:short": "DTDC",
        "brand:wikidata": "Q55608802",
        "check_date": "2024-03-05",
        "internet_access": "no",
        "name": "DTDC",
        "operator": "Desk to Desk Courier & Cargo",
        "operator:short": "DTDC",
        "operator:wikidata": "Q55608802",
        "payment:cash": "yes",
        "payment:credit_cards": "yes",
        "payment:debit_cards": "yes",
        "wheelchair": "no"
      }
    },
    {
      "type": "node",
      "id": 11699311582,
      "lat": 12.9785564,
      "lon": 77.6294684,
      "tags": {
        "check_date": "2024-03-07",
        "internet_access": "no",
        "name": "White Horse Spirits",
        "payment:cash": "yes",
        "payment:credit_cards": "yes",
        "payment:debit_cards": "yes",
        "shop": "wine",
        "wheelchair": "no"
      }
    },
    {
      "type": "node",
      "id": 11699311583,
      "lat": 12.9783532,
      "lon": 77.629448,
      "tags": {
        "amenity": "bar",
        "check_date": "2024-03-07",
        "internet_access": "no",
        "name": "S.G.R Bar & Restaurant",
        "payment:cards": "no",
        "payment:cash": "yes",
        "payment:credit_cards": "no",
        "payment:debit_cards": "no",
        "wheelchair": "no"
      }
    },
    {
      "type": "node",
      "id": 11699347751,
      "lat": 12.9782892,
      "lon": 77.6288056,
      "tags": {
        "amenity": "atm",
        "cash_in": "no",
        "check_date": "2024-03-07",
        "currency:INR": "yes",
        "operator": "Axis Bank ATM"
      }
    },
    {
      "type": "node",
      "id": 11707836860,
      "lat": 12.9782708,
      "lon": 77.6302447,
      "tags": {
        "check_date": "2024-10-06",
        "internet_access": "no",
        "name": "Karnataka Ham Shop",
        "payment:cards": "no",
        "payment:cash": "yes",
        "payment:credit_cards": "no",
        "payment:debit_cards": "no",
        "phone": "+91 90190 83337",
        "shop": "butcher",
        "wheelchair": "no"
      }
    },
    {
      "type": "node",
      "id": 11707870439,
      "lat": 12.9785545,
      "lon": 77.6293917,
      "tags": {
        "check_date": "2024-03-09",
        "internet_access": "no",
        "name": "Metro Studio",
        "payment:cash": "yes",
        "payment:credit_cards": "yes",
        "payment:debit_cards": "yes",
        "shop": "photo",
        "wheelchair": "no"
      }
    },
    {
      "type": "node",
      "id": 11707891107,
      "lat": 12.9785518,
      "lon": 77.6294482,
      "tags": {
        "amenity": "fast_food",
        "check_date": "2024-03-09",
        "cuisine": "fish_and_chips",
        "internet_access": "no",
        "name": "Sri Vinayaka Hot Chips",
        "payment:cards": "no",
        "payment:cash": "yes",
        "payment:credit_cards": "no",
        "payment:debit_cards": "no",
        "wheelchair": "no"
      }
    },
    {
      "type": "node",
      "id": 11707891108,
      "lat": 12.9785518,
      "lon": 77.629481,
      "tags": {
        "check_date": "2024-03-09",
        "internet_access": "no",
        "name": "Ameen Times",
        "payment:cash": "yes",
        "payment:credit_cards": "yes",
        "payment:debit_cards": "yes",
        "shop": "watches",
        "wheelchair": "no"
      }
    },
    {
      "type": "node",
      "id": 11707891109,
      "lat": 12.9783519,
      "lon": 77.62943,
      "tags": {
        "check_date": "2024-03-09",
        "internet_access": "no",
        "name": "Jagannath Glass & Plywoods",
        "payment:cash": "yes",
        "payment:credit_cards": "yes",
        "payment:debit_cards": "yes",
        "shop": "hardware",
        "wheelchair": "no"
      }
    },
    {
      "type": "node",
      "id": 11708674465,
      "lat": 12.978571,
      "lon": 77.6292671,
      "tags": {
        "amenity": "atm",
        "brand": "Karur Vysya Bank",
        "brand:wikidata": "Q6373724",
        "cash_in": "no",
        "check_date": "2024-03-09",
        "currency:INR": "yes",
        "operator": "Karur Vysya Bank",
        "operator:wikidata": "Q6373724"
      }
    },
    {
      "type": "node",
      "id": 11708674466,
      "lat": 12.9785693,
      "lon": 77.6292371,
      "tags": {
        "check_date": "2024-03-09",
        "internet_access": "no",
        "name": "L.J Iyengar's Bakery & Sweets",
        "payment:cards": "no",
        "payment:cash": "yes",
        "payment:credit_cards": "no",
        "payment:debit_cards": "no",
        "shop": "bakery",
        "wheelchair": "no"
      }
    },
    {
      "type": "node",
      "id": 11708674467,
      "lat": 12.978586,
      "lon": 77.6290504,
      "tags": {
        "amenity": "bar",
        "check_date": "2024-03-09",
        "internet_access": "no",
        "name": "MS Corner Bar & Restaurant",
        "payment:cash": "yes",
        "payment:credit_cards": "yes",
        "payment:debit_cards": "yes",
        "wheelchair": "no"
      }
    },
    {
      "type": "node",
      "id": 11708674468,
      "lat": 12.9790267,
      "lon": 77.6290089,
      "tags": {
        "access": "yes",
        "amenity": "toilets",
        "check_date": "2024-03-09",
        "fee": "yes"
      }
    },
    {
      "type": "node",
      "id": 11710491602,
      "lat": 12.9778346,
      "lon": 77.6282837,
      "tags": {
        "amenity": "hospital",
        "check_date": "2024-03-10",
        "description": "Multi-speciality hospital",
        "healthcare": "hospital",
        "name": "Uvin Care Hospital"
      }
    },
    {
      "type": "node",
      "id": 11710491603,
      "lat": 12.977871,
      "lon": 77.6283344,
      "tags": {
        "check_date": "2024-03-10",
        "name": "BK Dressers",
        "shop": "tailor"
      }
    },
    {
      "type": "node",
      "id": 11710491604,
      "lat": 12.9778856,
      "lon": 77.6283568,
      "tags": {
        "check_date": "2024-03-10",
        "internet_access": "no",
        "name": "Ever Green Fashion",
        "payment:cards": "no",
        "payment:cash": "yes",
        "payment:credit_cards": "no",
        "payment:debit_cards": "no",
        "shop": "tailor",
        "wheelchair": "no"
      }
    },
    {
      "type": "node",
      "id": 11710491606,
      "lat": 12.978118,
      "lon": 77.6282179,
      "tags": {
        "amenity": "place_of_worship",
        "check_date": "2024-03-10",
        "internet_access": "no",
        "name": "Temple",
        "payment:cards": "no",
        "payment:cash": "yes",
        "payment:credit_cards": "no",
        "payment:debit_cards": "no",
        "religion": "hindu",
        "wheelchair": "no"
      }
    },
    {
      "type": "node",
      "id": 11710500777,
      "lat": 12.9779856,
      "lon": 77.6299007,
      "tags": {
        "check_date": "2024-03-10",
        "internet_access": "no",
        "name": "Mutton Stall",
        "payment:cards": "no",
        "payment:cash": "yes",
        "payment:credit_cards": "no",
        "payment:debit_cards": "no",
        "shop": "butcher",
        "wheelchair": "no"
      }
    },
    {
      "type": "node",
      "id": 11710500778,
      "lat": 12.9779459,
      "lon": 77.6299957,
      "tags": {
        "check_date": "2024-03-10",
        "internet_access": "no",
        "name": "Ramson Ladies Tailor",
        "payment:cards": "no",
        "payment:cash": "yes",
        "payment:credit_cards": "no",
        "payment:debit_cards": "no",
        "shop": "tailor",
        "wheelchair": "no"
      }
    },
    {
      "type": "node",
      "id": 11710500779,
      "lat": 12.9780328,
      "lon": 77.6295292,
      "tags": {
        "amenity": "atm",
        "brand": "ICICI Bank",
        "brand:wikidata": "Q1653258",
        "cash_in": "no",
        "check_date": "2024-03-10",
        "currency:INR": "yes",
        "indoor": "yes",
        "operator": "ICICI Bank",
        "operator:wikidata": "Q1653258",
        "short_name": "ICICI"
      }
    },
    {
      "type": "node",
      "id": 11710512182,
      "lat": 12.9779864,
      "lon": 77.6279808,
      "tags": {
        "amenity": "car_wash",
        "check_date": "2024-03-10",
        "internet_access": "no",
        "name": "SKA Washing Center",
        "payment:cards": "no",
        "payment:cash": "yes",
        "payment:credit_cards": "no",
        "payment:debit_cards": "no",
        "phone": "+91 89518 67779",
        "wheelchair": "no"
      }
    },
    {
      "type": "node",
      "id": 11710512183,
      "lat": 12.9779697,
      "lon": 77.6279533,
      "tags": {
        "check_date": "2024-03-10",
        "internet_access": "no",
        "leisure": "fitness_centre",
        "name": "Kamaraj's Gym",
        "payment:cards": "no",
        "payment:cash": "yes",
        "payment:credit_cards": "no",
        "payment:debit_cards": "no",
        "wheelchair": "no"
      }
    },
    {
      "type": "node",
      "id": 11710512185,
      "lat": 12.9779369,
      "lon": 77.627889,
      "tags": {
        "check_date": "2024-03-10",
        "internet_access": "no",
        "name": "M.M Cycle Sales & Service",
        "payment:cards": "no",
        "payment:cash": "yes",
        "payment:credit_cards": "no",
        "payment:debit_cards": "no",
        "shop": "bicycle",
        "wheelchair": "no"
      }
    },
    {
      "type": "node",
      "id": 11710512186,
      "lat": 12.9778855,
      "lon": 77.6277954,
      "tags": {
        "check_date": "2024-03-10",
        "internet_access": "no",
        "name": "A.B Steel & Hardware",
        "payment:cards": "no",
        "payment:cash": "yes",
        "payment:credit_cards": "no",
        "payment:debit_cards": "no",
        "shop": "hardware",
        "wheelchair": "no"
      }
    },
    {
      "type": "node",
      "id": 11783257554,
      "lat": 12.9759999,
      "lon": 77.6318654,
      "tags": {
        "amenity": "car_wash",
        "automated": "no",
        "check_date": "2024-04-03",
        "name": "Manju Washing Center",
        "opening_hours": "Mo-Su 08:00-21:00",
        "phone": "+91 98866 34400",
        "self_service": "no"
      }
    },
    {
      "type": "node",
      "id": 11896917266,
      "lat": 12.9759242,
      "lon": 77.622773,
      "tags": {
        "amenity": "atm",
        "brand": "Canara Bank",
        "brand:en": "Canara Bank",
        "brand:hi": "केनरा बैंक",
        "brand:kn": "ಕೆನರಾ ಬ್ಯಾಂಕ್",
        "brand:pa": "ਕੇਨਰਾ ਬੈਂਕ",
        "brand:pnb": "کینرا بینک",
        "brand:ur": "کینرا بینک",
        "brand:wikidata": "Q2003777",
        "name": "Canara Bank",
        "name:en": "Canara Bank",
        "name:hi": "केनरा बैंक",
        "name:kn": "ಕೆನರಾ ಬ್ಯಾಂಕ್",
        "name:pa": "ਕੇਨਰਾ ਬੈਂਕ",
        "name:pnb": "کینرا بینک",
        "name:ur": "کینرا بینک",
        "operator": "Canara Bank",
        "operator:wikidata": "Q2003777"
      }
    },
    {
      "type": "node",
      "id": 11896935868,
      "lat": 12.9762403,
      "lon": 77.6227329,
      "tags": {
        "amenity": "atm",
        "name": "Union Bank ATM"
      }
    },
    {
      "type": "node",
      "id": 11896939309,
      "lat": 12.9765152,
      "lon": 77.6230761,
      "tags": {
        "amenity": "atm",
        "brand": "ICICI Bank",
        "brand:wikidata": "Q1653258",
        "name": "ICICI Bank",
        "operator": "ICICI Bank",
        "operator:wikidata": "Q1653258",
        "short_name": "ICICI"
      }
    },
    {
      "type": "node",
      "id": 11896951311,
      "lat": 12.9758961,
      "lon": 77.6227691,
      "tags": {
        "amenity": "atm",
        "name": "TMB"
      }
    },
    {
      "type": "node",
      "id": 12005884108,
      "lat": 12.970121,
      "lon": 77.6368712,
      "tags": {
        "name": "Mon Cherie",
        "shop": "clothes"
      }
    },
    {
      "type": "node",
      "id": 12006381672,
      "lat": 12.9732588,
      "lon": 77.6267472,
      "tags": {
        "amenity": "place_of_worship",
        "religion": "hindu"
      }
    },
    {
      "type": "node",
      "id": 12006381721,
      "lat": 12.9725655,
      "lon": 77.6206499,
      "tags": {
        "amenity": "ice_cream",
        "brand": "Cold Stone Creamery",
        "brand:wikidata": "Q1094923",
        "cuisine": "ice_cream",
        "name": "Cold Stone Creamery"
      }
    },
    {
      "type": "node",
      "id": 12006381722,
      "lat": 12.9725727,
      "lon": 77.6205365,
      "tags": {
        "amenity": "fast_food",
        "brand": "Domino's",
        "brand:wikidata": "Q839466",
        "cuisine": "pizza",
        "name": "Domino's",
        "name:kn": "ಡಾಮಿನೋಸ್",
        "takeaway": "yes"
      }
    },
    {
      "type": "node",
      "id": 12006381723,
      "lat": 12.9725636,
      "lon": 77.6207712,
      "tags": {
        "amenity": "fast_food",
        "name": "IDC"
      }
    },
    {
      "type": "node",
      "id": 12009009947,
      "lat": 12.9691458,
      "lon": 77.6361275,
      "tags": {
        "amenity": "cafe",
        "check_date": "2025-03-14",
        "name": "natuf",
        "start_date": "2024-08-15",
        "website": "https://natuf.in/"
      }
    },
    {
      "type": "node",
      "id": 12014724392,
      "lat": 12.9755065,
      "lon": 77.6253762,
      "tags": {
        "amenity": "school",
        "contact:email": "hm.ggs@rbanmscharities.in",
        "name": "RBANMs Govindammal Senior Primary School"
      }
    },
    {
      "type": "node",
      "id": 12064321599,
      "lat": 12.9784954,
      "lon": 77.6302874,
      "tags": {
        "check_date": "2024-07-20",
        "description": "Packaging materials",
        "name": "SRS Packaging",
        "shop": "houseware"
      }
    },
    {
      "type": "node",
      "id": 12125802597,
      "lat": 12.9697099,
      "lon": 77.6368108,
      "tags": {
        "check_date": "2024-08-22",
        "name": "Cottons Jaipur",
        "shop": "clothes"
      }
    },
    {
      "type": "node",
      "id": 12190347817,
      "lat": 12.9703082,
      "lon": 77.636649,
      "tags": {
        "addr:floor": "G",
        "amenity": "doctors",
        "check_date": "2024-09-21",
        "healthcare": "doctor",
        "level": "0",
        "mobile": "+919868105544",
        "name": "Dr. Kalyan Banerjee",
        "opening_hours": "Mo-We,Fr-Su 10:00-13:30,14:30-19:00; Th off"
      }
    },
    {
      "type": "node",
      "id": 12190347819,
      "lat": 12.9702921,
      "lon": 77.6362546,
      "tags": {
        "addr:floor": "G",
        "amenity": "bank",
        "atm": "yes",
        "brand": "Indian Overseas Bank",
        "brand:wikidata": "Q2003611",
        "check_date": "2024-09-21",
        "level": "0",
        "name": "Indian Overseas Bank",
        "wheelchair": "no"
      }
    },
    {
      "type": "node",
      "id": 12190347820,
      "lat": 12.9702859,
      "lon": 77.6364017,
      "tags": {
        "check_date": "2024-09-21",
        "name": "Meyaa",
        "shop": "clothes"
      }
    },
    {
      "type": "node",
      "id": 12215439066,
      "lat": 12.9730642,
      "lon": 77.6203543,
      "tags": {
        "addr:housename": "1 MG Road Mall",
        "addr:street": "Mahatma Gandhi Road",
        "check_date": "2024-10-02",
        "name": "The Meat Pantry by Cambay Tiger",
        "shop": "butcher"
      }
    },
    {
      "type": "node",
      "id": 12287375450,
      "lat": 12.9717604,
      "lon": 77.6275714,
      "tags": {
        "addr:housenumber": "12/36",
        "addr:street": "Cambridge Road",
        "amenity": "restaurant",
        "check_date": "2024-10-25",
        "contact:instagram": "https://www.instagram.com/guerilladiner",
        "cuisine": "burger;mexican",
        "name": "Guerilla Diner"
      }
    },
    {
      "type": "node",
      "id": 12318821670,
      "lat": 12.9773226,
      "lon": 77.6314531,
      "tags": {
        "check_date": "2024-11-06",
        "name": "Sri Lakshmi Pork Shop",
        "shop": "butcher"
      }
    },
    {
      "type": "node",
      "id": 12318821671,
      "lat": 12.9772724,
      "lon": 77.6314306,
      "tags": {
        "amenity": "restaurant",
        "check_date": "2024-11-06",
        "cuisine": "chinese",
        "name": "Tribe Roots"
      }
    },
    {
      "type": "node",
      "id": 12320506601,
      "lat": 12.970248,
      "lon": 77.6361439,
      "tags": {
        "addr:housenumber": "3274/A",
        "addr:street": "11th Main Road",
        "amenity": "restaurant",
        "check_date": "2024-11-07",
        "cuisine": "korean",
        "name": "Koreyaki"
      }
    },
    {
      "type": "node",
      "id": 12326757981,
      "lat": 12.9781111,
      "lon": 77.6320286,
      "tags": {
        "name": "Prestige Electricals",
        "shop": "electrical"
      }
    },
    {
      "type": "node",
      "id": 12326757982,
      "lat": 12.9781197,
      "lon": 77.6320003,
      "tags": {
        "name": "Laxmi Hardwares",
        "shop": "hardware"
      }
    },
    {
      "type": "node",
      "id": 12327045085,
      "lat": 12.978141,
      "lon": 77.6317635,
      "tags": {
        "name": "ESS Sanitary Hardware",
        "shop": "hardware"
      }
    },
    {
      "type": "node",
      "id": 12327045086,
      "lat": 12.9781418,
      "lon": 77.6317525,
      "tags": {
        "name": "The A.Z. Traders",
        "shop": "locksmith"
      }
    },
    {
      "type": "node",
      "id": 12327045087,
      "lat": 12.9781436,
      "lon": 77.6317392,
      "tags": {
        "name": "Start Seatcover",
        "shop": "yes"
      }
    },
    {
      "type": "node",
      "id": 12327045088,
      "lat": 12.9781394,
      "lon": 77.6317739,
      "tags": {
        "name": "Dhamu Electricals",
        "shop": "electronics"
      }
    },
    {
      "type": "node",
      "id": 12367648314,
      "lat": 12.9763917,
      "lon": 77.6296215,
      "tags": {
        "amenity": "place_of_worship",
        "name": "Plague Maramma Temple",
        "religion": "hindu"
      }
    },
    {
      "type": "node",
      "id": 12395928083,
      "lat": 12.9724525,
      "lon": 77.6204038,
      "tags": {
        "addr:city": "Bengaluru",
        "addr:floor": "4",
        "addr:street": "Mahatma Gandhi Road",
        "addr:suburb": "Ashok Nagar",
        "amenity": "bar",
        "contact:instagram": "lumara.blr",
        "level": "4",
        "name": "Lumara",
        "toilets": "yes"
      }
    },
    {
      "type": "node",
      "id": 12404254558,
      "lat": 12.9764897,
      "lon": 77.6269565,
      "tags": {
        "amenity": "restaurant",
        "check_date": "2024-12-08",
        "name": "Murugan Cafe"
      }
    },
    {
      "type": "node",
      "id": 12404291343,
      "lat": 12.9773097,
      "lon": 77.6284146,
      "tags": {
        "amenity": "community_centre",
        "check_date": "2024-12-08",
        "community_centre": "community_hall",
        "name": "Shri Subramanya Swamy Kalyana Mantapa"
      }
    },
    {
      "type": "node",
      "id": 12449741773,
      "lat": 12.9753711,
      "lon": 77.6219469,
      "tags": {
        "amenity": "place_of_worship",
        "check_date": "2024-12-24",
        "name": "CSI Wesleyan Centenary Kannada Church",
        "religion": "christian",
        "start_date": "1913"
      }
    },
    {
      "type": "node",
      "id": 12462618881,
      "lat": 12.9763403,
      "lon": 77.6214901,
      "tags": {
        "access": "private",
        "amenity": "parking_entrance",
        "parking": "underground"
      }
    },
    {
      "type": "node",
      "id": 12462618882,
      "lat": 12.9761124,
      "lon": 77.6215431,
      "tags": {
        "access": "private",
        "amenity": "parking_entrance",
        "parking": "underground"
      }
    },
    {
      "type": "node",
      "id": 12492736707,
      "lat": 12.9742285,
      "lon": 77.6198097,
      "tags": {
        "brand": "Nature's Basket",
        "brand:wikidata": "Q28174237",
        "name": "Nature's Basket",
        "shop": "supermarket"
      }
    },
    {
      "type": "node",
      "id": 12526232547,
      "lat": 12.974056,
      "lon": 77.6195173,
      "tags": {
        "amenity": "restaurant",
        "name": "Italia"
      }
    },
    {
      "type": "node",
      "id": 12549210861,
      "lat": 12.9701239,
      "lon": 77.6357946,
      "tags": {
        "name": "Neeman's",
        "shop": "shoes"
      }
    },
    {
      "type": "node",
      "id": 12574343636,
      "lat": 12.9725668,
      "lon": 77.6208704,
      "tags": {
        "amenity": "restaurant",
        "check_date": "2025-02-10",
        "name": "New Kudla"
      }
    },
    {
      "type": "node",
      "id": 12632042172,
      "lat": 12.972464,
      "lon": 77.6203034,
      "tags": {
        "amenity": "cafe",
        "cuisine": "bubble_tea",
        "delivery": "yes",
        "email": "info@yoyotea.in",
        "name": "YOYO! Fresh Tea Bar",
        "opening_hours": "11:00-23:00",
        "phone": "+91 97401 72610",
        "takeaway": "yes",
        "website": "https://yoyofreshtea.in/"
      }
    },
    {
      "type": "node",
      "id": 12988984439,
      "lat": 12.9711634,
      "lon": 77.6343582,
      "tags": {
        "amenity": "fast_food",
        "name": "Tronic Rolls"
      }
    },
    {
      "type": "node",
      "id": 12988984440,
      "lat": 12.9693345,
      "lon": 77.6358435,
      "tags": {
        "addr:city": "Bengaluru",
        "addr:hamlet": "HAL 2nd Stage",
        "addr:housenumber": "3163",
        "addr:postcode": "560008",
        "addr:street": "Indiranagar Double Road",
        "addr:suburb": "Indiranagar",
        "amenity": "cafe",
        "name": "TruBrew Cafe"
      }
    },
    {
      "type": "node",
      "id": 12988984441,
      "lat": 12.9694713,
      "lon": 77.6358339,
      "tags": {
        "addr:city": "Bengaluru",
        "addr:hamlet": "HAL 2nd Stage",
        "addr:housenumber": "3162",
        "addr:postcode": "560008",
        "addr:street": "Indiranagar Double Road",
        "addr:suburb": "Indiranagar",
        "amenity": "cafe",
        "contact:instagram": "the.estate.deli",
        "delivery": "yes",
        "name": "The Estate Deli",
        "opening_hours": "11:00-23:00",
        "phone": "+91 6363721915",
        "takeaway": "yes"
      }
    },
    {
      "type": "node",
      "id": 12999130466,
      "lat": 12.9688089,
      "lon": 77.6359519,
      "tags": {
        "amenity": "restaurant",
        "cuisine": "japanese",
        "name": "Katana"
      }
    },
    {
      "type": "node",
      "id": 13086275904,
      "lat": 12.9695571,
      "lon": 77.6358305,
      "tags": {
        "amenity": "restaurant",
        "name": "Hunaan"
      }
    },
    {
      "type": "node",
      "id": 13086370348,
      "lat": 12.9714719,
      "lon": 77.6352447,
      "tags": {
        "addr:city": "Bengaluru",
        "addr:district": "Bengaluru Urban",
        "addr:housenumber": "3138",
        "addr:postcode": "560008",
        "addr:street": "Sai Baba Mandira Road",
        "amenity": "dentist",
        "healthcare": "dentist",
        "healthcare:speciality": "implantology",
        "mobile": "+91 82968 01240",
        "name": "Emerge Dental Studio",
        "opening_hours": "Mo-Sa 10:00-13:00,16:00-20:00",
        "operator": "Dr Tanisha Kaulavkar",
        "website": "https://emergedentalstudio.com/"
      }
    },
    {
      "type": "node",
      "id": 13089143191,
      "lat": 12.9716862,
      "lon": 77.6191623,
      "tags": {
        "addr:floor": "13",
        "amenity": "bar",
        "contact:instagram": "kai_bengaluru",
        "level": "13",
        "name": "Kai"
      }
    },
    {
      "type": "node",
      "id": 13114667051,
      "lat": 12.9777179,
      "lon": 77.6306728,
      "tags": {
        "amenity": "pharmacy",
        "name": "Revive Janata",
        "panoramax": "79f2bf3c-3de5-4988-ae0e-9fb07b69e622"
      }
    },
    {
      "type": "node",
      "id": 13277110519,
      "lat": 12.974173,
      "lon": 77.6221257,
      "tags": {
        "amenity": "community_centre",
        "name": "Above Zenith Makerspace"
      }
    },
    {
      "type": "node",
      "id": 13277110520,
      "lat": 12.9741096,
      "lon": 77.6221284,
      "tags": {
        "amenity": "events_venue",
        "contact:email": "sthalaspace@gmail.com",
        "contact:instagram": "sthalaspace",
        "name": "Sthala",
        "website": "https://sthala.org"
      }
    },
    {
      "type": "node",
      "id": 13288585571,
      "lat": 12.9753916,
      "lon": 77.6205926,
      "tags": {
        "amenity": "restaurant",
        "name": "Indian Durbar"
      }
    },
    {
      "type": "node",
      "id": 13288585572,
      "lat": 12.9724609,
      "lon": 77.6201477,
      "tags": {
        "amenity": "restaurant",
        "cuisine": "punjabi",
        "name": "Lohri"
      }
    },
    {
      "type": "node",
      "id": 13323589248,
      "lat": 12.9784829,
      "lon": 77.6301651,
      "tags": {
        "check_date": "2025-11-22",
        "name": "S.A.B Trading",
        "shop": "appliance"
      }
    },
    {
      "type": "way",
      "id": 49712539,
      "center": {
        "lat": 12.9713385,
        "lon": 77.6286336
      },
      "tags": {
        "amenity": "school",
        "name": "Frank Anthony Public School",
        "name:etymology:wikidata": "Q5485043"
      }
    },
    {
      "type": "way",
      "id": 59358729,
      "center": {
        "lat": 12.9790236,
        "lon": 77.6285473
      },
      "tags": {
        "leisure": "park",
        "name": "B R Ambedkar Playground",
        "name:etymology:wikidata": "Q231690"
      }
    },
    {
      "type": "way",
      "id": 59358741,
      "center": {
        "lat": 12.9713479,
        "lon": 77.6367243
      },
      "tags": {
        "amenity": "hospital",
        "healthcare": "hospital",
        "name": "ESI Hospital",
        "name:kn": "ಇಎಸ್ಐ ಆಸ್ಪತ್ರೆ",
        "operator": "Employees' State Insurance",
        "operator:short": "ESI",
        "operator:wikidata": "Q3595726"
      }
    },
    {
      "type": "way",
      "id": 59358860,
      "center": {
        "lat": 12.9765873,
        "lon": 77.6342897
      },
      "tags": {
        "amenity": "college",
        "name": "Sri Bhagavan Mahaveer Jain College",
        "name:kn": "ಶ್ರೀ ಭಗವಾನ್ ಮಹಾವೀರ್ ಜೈನ್ ಕಾಲೇಜು"
      }
    },
    {
      "type": "way",
      "id": 128510778,
      "center": {
        "lat": 12.9686326,
        "lon": 77.6367992
      },
      "tags": {
        "leisure": "park",
        "name": "Doopanahalli Park",
        "name:kn": "ದೂಪನಹಳ್ಳಿ ಉದ್ಯಾನವನ"
      }
    },
    {
      "type": "way",
      "id": 132782108,
      "center": {
        "lat": 12.9731768,
        "lon": 77.6212771
      },
      "tags": {
        "amenity": "cinema",
        "brand": "INOX Leisure",
        "brand:wikidata": "Q5972349",
        "building": "yes",
        "name": "INOX Lido",
        "name:kn": "ಐನಾಕ್ಸ್ ಲಿಡೊ",
        "short_name": "INOX"
      }
    },
    {
      "type": "way",
      "id": 132782111,
      "center": {
        "lat": 12.9721434,
        "lon": 77.620635
      },
      "tags": {
        "amenity": "place_of_worship",
        "building": "yes",
        "name": "CSI Holy Trinity Church",
        "religion": "christian"
      }
    },
    {
      "type": "way",
      "id": 133881869,
      "center": {
        "lat": 12.9719421,
        "lon": 77.6203877
      },
      "tags": {
        "amenity": "place_of_worship",
        "heritage": "2",
        "heritage:operator": "nmma",
        "heritage:website": "https://nmma.nic.in/nmma/exploreBuiltState.do?state=29",
        "name": "The Holy Trinity Church",
        "name:kn": "ಹೋಲಿ ಟ್ರಿನಿಟಿ ಚರ್ಚ್",
        "ref:nmma": "KR20010312",
        "religion": "christian",
        "start_date": "1852",
        "wikidata": "Q5886431",
        "wikimedia_commons": "Category:Holy Trinity Church, Bangalore",
        "wikipedia": "en:Holy Trinity Church, Bangalore"
      }
    },
    {
      "type": "way",
      "id": 138980186,
      "center": {
        "lat": 12.9773214,
        "lon": 77.6278721
      },
      "tags": {
        "amenity": "place_of_worship",
        "name:kn": "ಸುಬ್ರಮಣ್ಯಸ್ವಾಮಿ ದೇವಾಲಯ",
        "religion": "hindu"
      }
    },
    {
      "type": "way",
      "id": 142374812,
      "center": {
        "lat": 12.9704702,
        "lon": 77.6290171
      },
      "tags": {
        "amenity": "school",
        "name": "Lourde's Boys High School"
      }
    },
    {
      "type": "way",
      "id": 147545746,
      "center": {
        "lat": 12.9709615,
        "lon": 77.6366808
      },
      "tags": {
        "leisure": "park"
      }
    },
    {
      "type": "way",
      "id": 147545759,
      "center": {
        "lat": 12.9714584,
        "lon": 77.6370194
      },
      "tags": {
        "leisure": "park"
      }
    },
    {
      "type": "way",
      "id": 147545766,
      "center": {
        "lat": 12.9711896,
        "lon": 77.6370421
      },
      "tags": {
        "leisure": "park"
      }
    },
    {
      "type": "way",
      "id": 147545786,
      "center": {
        "lat": 12.970918,
        "lon": 77.6370551
      },
      "tags": {
        "leisure": "park"
      }
    },
    {
      "type": "way",
      "id": 147558632,
      "center": {
        "lat": 12.9734281,
        "lon": 77.6203876
      },
      "tags": {
        "alt_name": "Lido Mall",
        "landuse": "retail",
        "loc_name": "GESCO Lido Centre",
        "name": "One M G Road",
        "name:en": "1 MG Road",
        "old_name": "Lido Talkies",
        "shop": "mall"
      }
    },
    {
      "type": "way",
      "id": 164042298,
      "center": {
        "lat": 12.9760923,
        "lon": 77.6207155
      },
      "tags": {
        "amenity": "place_of_worship",
        "name": "Gurudwara",
        "name:kn": "ಗುರುದ್ವಾರ",
        "religion": "sikh"
      }
    },
    {
      "type": "way",
      "id": 166560446,
      "center": {
        "lat": 12.9655717,
        "lon": 77.6360749
      },
      "tags": {
        "leisure": "park",
        "name": "L.A.Perumal Childrens Park"
      }
    },
    {
      "type": "way",
      "id": 169709281,
      "center": {
        "lat": 12.9788896,
        "lon": 77.6276716
      },
      "tags": {
        "amenity": "marketplace",
        "landuse": "retail",
        "name": "Murphy Town Market",
        "name:kn": "ಮಾರುಕಟ್ಟೆ"
      }
    },
    {
      "type": "way",
      "id": 169709282,
      "center": {
        "lat": 12.9756053,
        "lon": 77.6238958
      },
      "tags": {
        "amenity": "place_of_worship",
        "name": "Someshwara Temple",
        "name:kn": "ಸೋಮೇಶ್ವರ ದೇವಸ್ಥಾನ",
        "religion": "hindu"
      }
    },
    {
      "type": "way",
      "id": 169709339,
      "center": {
        "lat": 12.9699932,
        "lon": 77.633458
      },
      "tags": {
        "leisure": "park",
        "name": "Udani Layout Park"
      }
    },
    {
      "type": "way",
      "id": 217536638,
      "center": {
        "lat": 12.9785416,
        "lon": 77.6276986
      },
      "tags": {
        "amenity": "marketplace",
        "name": "Halasuru Fruit and Vegetable Market"
      }
    },
    {
      "type": "way",
      "id": 217536640,
      "center": {
        "lat": 12.9788845,
        "lon": 77.6272201
      },
      "tags": {
        "leisure": "park",
        "name": "Children's Park"
      }
    },
    {
      "type": "way",
      "id": 217536642,
      "center": {
        "lat": 12.9682756,
        "lon": 77.6254349
      },
      "tags": {
        "leisure": "park"
      }
    },
    {
      "type": "way",
      "id": 217536645,
      "center": {
        "lat": 12.9737974,
        "lon": 77.6272297
      },
      "tags": {
        "leisure": "park"
      }
    },
    {
      "type": "way",
      "id": 217536646,
      "center": {
        "lat": 12.9684355,
        "lon": 77.626006
      },
      "tags": {
        "landuse": "recreation_ground",
        "leisure": "playground",
        "name": "Gowthamapura Football Ground"
      }
    },
    {
      "type": "way",
      "id": 311368523,
      "center": {
        "lat": 12.9724757,
        "lon": 77.6198663
      },
      "tags": {
        "amenity": "fuel",
        "brand": "Indian Oil",
        "brand:wikidata": "Q1289348",
        "compressed_air": "yes",
        "name": "Indian Oil"
      }
    },
    {
      "type": "way",
      "id": 323639489,
      "center": {
        "lat": 12.9769712,
        "lon": 77.6275061
      },
      "tags": {
        "addr:city": "Jogupalya, Bangalore",
        "addr:street": "Swamy Vivekananda Road (Old Madras Road)",
        "amenity": "place_of_worship",
        "building": "yes",
        "check_date": "2024-07-02",
        "name": "Subramania Swamy Temple",
        "name:kn": "ಸುಬ್ರಮಣ್ಯಸ್ವಾಮಿ ದೇವಾಲಯ",
        "religion": "hindu"
      }
    },
    {
      "type": "way",
      "id": 331497951,
      "center": {
        "lat": 12.9710325,
        "lon": 77.6296727
      },
      "tags": {
        "amenity": "place_of_worship",
        "building": "church",
        "denomination": "catholic",
        "name": "Our Lady of Lourdes Church",
        "name:kn": "ಅವರ್ ಲೇಡಿ ಅಫ್ ಲೂರ್ಡ್ಸ್ ಚರ್ಚ್",
        "religion": "christian"
      }
    },
    {
      "type": "way",
      "id": 343626378,
      "center": {
        "lat": 12.9739385,
        "lon": 77.6359439
      },
      "tags": {
        "addr:city": "Bengaluru",
        "addr:housenumber": "60/1",
        "addr:postcode": "560038",
        "addr:street": "Paramahansa Yogananda Rd,Appareddy Palya, Stage 3, Indiranagar",
        "amenity": "fast_food",
        "brand": "Five Star Chicken",
        "brand:wikidata": "Q127784422",
        "building": "yes",
        "cuisine": "chicken",
        "delivery": "yes",
        "name": "Five Star Chicken",
        "opening_hours": "Mo-Su 12:00-23:00",
        "smoking": "no",
        "takeaway": "yes"
      }
    },
    {
      "type": "way",
      "id": 346250097,
      "center": {
        "lat": 12.9710404,
        "lon": 77.6340486
      },
      "tags": {
        "amenity": "place_of_worship",
        "building": "yes",
        "name": "Madina Masjid",
        "name:kn": "ಮದೀನ ಮಸ್ಜಿದ್",
        "religion": "muslim"
      }
    },
    {
      "type": "way",
      "id": 346250133,
      "center": {
        "lat": 12.9756886,
        "lon": 77.6335932
      },
      "tags": {
        "amenity": "place_of_worship",
        "building": "yes",
        "name": "Temple",
        "name:en": "Temple",
        "name:kn": "ದೇವಸ್ಥಾನ",
        "religion": "hindu"
      }
    },
    {
      "type": "way",
      "id": 346457738,
      "center": {
        "lat": 12.9732975,
        "lon": 77.6360872
      },
      "tags": {
        "addr:city": "Bangalore",
        "addr:housenumber": "68/1",
        "addr:street": "Indiranagar Double Road",
        "amenity": "restaurant",
        "building": "yes",
        "cuisine": "regional",
        "name": "Jive Pub",
        "opening_hours": "Mo-Su 11:00-23:30",
        "smoking": "isolated"
      }
    },
    {
      "type": "way",
      "id": 346457936,
      "center": {
        "lat": 12.9722959,
        "lon": 77.6343985
      },
      "tags": {
        "access": "private",
        "leisure": "swimming_pool"
      }
    },
    {
      "type": "way",
      "id": 346711854,
      "center": {
        "lat": 12.9714272,
        "lon": 77.627494
      },
      "tags": {
        "addr:city": "Bangalore",
        "addr:district": "Bengaluru Urban",
        "addr:full": "17/4, Cambridge Road, Ulsoor",
        "addr:housenumber": "17/4",
        "addr:postcode": "560008",
        "addr:state": "Karnataka",
        "addr:street": "Cambridge Road",
        "amenity": "hospital",
        "emergency": "no",
        "healthcare": "hospital",
        "name": "Shyamala Hospital",
        "name:kn": "ಶ್ಯಾಮಲಾ ಆಸ್ಪತ್ರೆ",
        "source": "OpenGovernmentData"
      }
    },
    {
      "type": "way",
      "id": 346761097,
      "center": {
        "lat": 12.9720193,
        "lon": 77.6316265
      },
      "tags": {
        "amenity": "place_of_worship",
        "building": "yes",
        "name": "Shri Varasiddhi Vinayaka Temple, Jogupalya",
        "religion": "hindu"
      }
    },
    {
      "type": "way",
      "id": 347060424,
      "center": {
        "lat": 12.9734475,
        "lon": 77.6217468
      },
      "tags": {
        "building": "yes",
        "name": "Lido Mall",
        "shop": "mall",
        "toilets": "yes"
      }
    },
    {
      "type": "way",
      "id": 347061555,
      "center": {
        "lat": 12.9772168,
        "lon": 77.6236749
      },
      "tags": {
        "amenity": "place_of_worship",
        "building": "yes",
        "name": "Sri Thiruvengada Ramanujar Sannidhi",
        "religion": "hindu"
      }
    },
    {
      "type": "way",
      "id": 347062467,
      "center": {
        "lat": 12.9742316,
        "lon": 77.623807
      },
      "tags": {
        "amenity": "place_of_worship",
        "building": "yes",
        "name": "Angala Parameshwari Temple",
        "name:kn": "ಆಂಗಲ ಪರಮೇಶ್ವರಿ ದೇವಸ್ಥಾನ",
        "religion": "hindu"
      }
    },
    {
      "type": "way",
      "id": 359647411,
      "center": {
        "lat": 12.9756334,
        "lon": 77.6237598
      },
      "tags": {
        "amenity": "place_of_worship",
        "building": "yes",
        "religion": "hindu"
      }
    },
    {
      "type": "way",
      "id": 364495430,
      "center": {
        "lat": 12.9744829,
        "lon": 77.6331236
      },
      "tags": {
        "landuse": "residential",
        "leisure": "fitness_centre",
        "name": "Citi Nest",
        "place": "locality"
      }
    },
    {
      "type": "way",
      "id": 367149867,
      "center": {
        "lat": 12.9735447,
        "lon": 77.619858
      },
      "tags": {
        "access": "private",
        "leisure": "swimming_pool"
      }
    },
    {
      "type": "way",
      "id": 369295551,
      "center": {
        "lat": 12.9749939,
        "lon": 77.6239792
      },
      "tags": {
        "amenity": "place_of_worship",
        "building": "yes",
        "name": "Halasur Jamia Masjid",
        "name:kn": "ಹಲಸೂರು ಜಮ ಮಸೀದಿ",
        "religion": "muslim"
      }
    },
    {
      "type": "way",
      "id": 369295552,
      "center": {
        "lat": 12.973692,
        "lon": 77.6266773
      },
      "tags": {
        "addr:district": "Bengaluru Urban",
        "addr:full": "Kembridge Road, Near Police Station",
        "addr:postcode": "560008",
        "addr:state": "Karnataka",
        "amenity": "hospital",
        "healthcare": "hospital",
        "name": "Halasuru Referal Hospital",
        "operator": "BBMP",
        "source": "OpenGovernmentData"
      }
    },
    {
      "type": "way",
      "id": 369295553,
      "center": {
        "lat": 12.9747988,
        "lon": 77.6252645
      },
      "tags": {
        "amenity": "police",
        "check_date": "2024-02-09",
        "internet_access": "no",
        "level": "0",
        "name": "Halasuru Police Station",
        "name:kn": "ಹಲಸೂರು ಆರಕ್ಷಕ ಠಾಣೆ",
        "wheelchair": "limited"
      }
    },
    {
      "type": "way",
      "id": 369295559,
      "center": {
        "lat": 12.9740209,
        "lon": 77.6256572
      },
      "tags": {
        "amenity": "college",
        "name": "St Anne's Degree College"
      }
    },
    {
      "type": "way",
      "id": 403474875,
      "center": {
        "lat": 12.9666035,
        "lon": 77.6219418
      },
      "tags": {
        "amenity": "place_of_worship",
        "building": "church",
        "religion": "christian"
      }
    },
    {
      "type": "way",
      "id": 416707048,
      "center": {
        "lat": 12.9706904,
        "lon": 77.636151
      },
      "tags": {
        "amenity": "place_of_worship",
        "building": "yes"
      }
    },
    {
      "type": "way",
      "id": 422819789,
      "center": {
        "lat": 12.9766113,
        "lon": 77.6343903
      },
      "tags": {
        "leisure": "pitch",
        "sport": "cricket",
        "surface": "grass"
      }
    },
    {
      "type": "way",
      "id": 454038609,
      "center": {
        "lat": 12.9709976,
        "lon": 77.6355707
      },
      "tags": {
        "amenity": "college",
        "name": "College of Nursing - ESIC"
      }
    },
    {
      "type": "way",
      "id": 457146562,
      "center": {
        "lat": 12.9705218,
        "lon": 77.6274434
      },
      "tags": {
        "leisure": "swimming_pool"
      }
    },
    {
      "type": "way",
      "id": 457146563,
      "center": {
        "lat": 12.9702411,
        "lon": 77.6274552
      },
      "tags": {
        "leisure": "swimming_pool"
      }
    },
    {
      "type": "way",
      "id": 478206073,
      "center": {
        "lat": 12.9638649,
        "lon": 77.6279636
      },
      "tags": {
        "addr:district": "Bengaluru Urban",
        "addr:full": "Air Force",
        "addr:postcode": "560007",
        "addr:state": "Karnataka",
        "amenity": "hospital",
        "healthcare": "hospital",
        "name": "Command Hospital (Air Force)",
        "source": "OpenGovernmentData"
      }
    },
    {
      "type": "way",
      "id": 478447819,
      "center": {
        "lat": 12.9725698,
        "lon": 77.628564
      },
      "tags": {
        "leisure": "park"
      }
    },
    {
      "type": "way",
      "id": 489810878,
      "center": {
        "lat": 12.9731163,
        "lon": 77.621751
      },
      "tags": {
        "access": "customers",
        "amenity": "parking",
        "motor_vehicle": "no",
        "motorcycle": "yes",
        "parking": "surface",
        "scooter": "yes"
      }
    },
    {
      "type": "way",
      "id": 526748584,
      "center": {
        "lat": 12.9715381,
        "lon": 77.6287373
      },
      "tags": {
        "leisure": "playground"
      }
    },
    {
      "type": "way",
      "id": 549116221,
      "center": {
        "lat": 12.9744233,
        "lon": 77.633078
      },
      "tags": {
        "leisure": "swimming_pool"
      }
    },
    {
      "type": "way",
      "id": 616276010,
      "center": {
        "lat": 12.9738555,
        "lon": 77.6302876
      },
      "tags": {
        "amenity": "school",
        "name": "BBMP College",
        "name:kn": "ಬೃ.ಬೆಂ.ಮ.ಪಾ. ಕಾಲೇಜು"
      }
    },
    {
      "type": "way",
      "id": 616276012,
      "center": {
        "lat": 12.9746241,
        "lon": 77.6305856
      },
      "tags": {
        "amenity": "school",
        "name": "Sri Ramakrishna High School",
        "name:kn": "ಶ್ರೀ ರಾಮಕೃಷ್ಣ ಪ್ರೌಡಶಾಲೆ"
      }
    },
    {
      "type": "way",
      "id": 616276013,
      "center": {
        "lat": 12.9737968,
        "lon": 77.6304013
      },
      "tags": {
        "leisure": "playground"
      }
    },
    {
      "type": "way",
      "id": 616276014,
      "center": {
        "lat": 12.9717468,
        "lon": 77.631471
      },
      "tags": {
        "amenity": "community_centre",
        "name": "Jogupalya Community Hall"
      }
    },
    {
      "type": "way",
      "id": 688353427,
      "center": {
        "lat": 12.978366,
        "lon": 77.6236685
      },
      "tags": {
        "leisure": "playground"
      }
    },
    {
      "type": "way",
      "id": 688356352,
      "center": {
        "lat": 12.979026,
        "lon": 77.6264656
      },
      "tags": {
        "amenity": "veterinary",
        "name": "Veterinary Hospital",
        "name:kn": "ಪಶುವೈದ್ಯ ಆಸ್ಪತ್ರೆ"
      }
    },
    {
      "type": "way",
      "id": 688356353,
      "center": {
        "lat": 12.9790012,
        "lon": 77.6267043
      },
      "tags": {
        "amenity": "clinic",
        "name": "Halasuru BBMP Primary Health Centre",
        "name:kn": "ಆರೋಗ್ಯ ಪ್ರಾಥಮಿಕ ಕೇಂದ್ರ"
      }
    },
    {
      "type": "way",
      "id": 688413058,
      "center": {
        "lat": 12.9771467,
        "lon": 77.6256998
      },
      "tags": {
        "leisure": "common"
      }
    },
    {
      "type": "way",
      "id": 691134035,
      "center": {
        "lat": 12.971739,
        "lon": 77.6284244
      },
      "tags": {
        "amenity": "food_court",
        "building": "yes",
        "name": "Canteen Area"
      }
    },
    {
      "type": "way",
      "id": 691134036,
      "center": {
        "lat": 12.9718314,
        "lon": 77.6285742
      },
      "tags": {
        "leisure": "playground"
      }
    },
    {
      "type": "way",
      "id": 691134079,
      "center": {
        "lat": 12.9713244,
        "lon": 77.6282139
      },
      "tags": {
        "amenity": "theatre",
        "building": "yes",
        "name": "Assembly Stage"
      }
    },
    {
      "type": "way",
      "id": 695920527,
      "center": {
        "lat": 12.9717004,
        "lon": 77.6285665
      },
      "tags": {
        "leisure": "pitch",
        "sport": "basketball"
      }
    },
    {
      "type": "way",
      "id": 696980296,
      "center": {
        "lat": 12.9668485,
        "lon": 77.6352863
      },
      "tags": {
        "amenity": "community_centre",
        "architect": "Hundredhands",
        "check_date": "2025-03-14",
        "landuse": "commercial",
        "name": "Bangalore International Centre - BIC",
        "opening_hours": "Mo-Su 10:00-11:00",
        "short_name": "BIC",
        "website": "https://bangaloreinternationalcentre.org/"
      }
    },
    {
      "type": "way",
      "id": 726127542,
      "center": {
        "lat": 12.9656288,
        "lon": 77.6306752
      },
      "tags": {
        "building": "yes",
        "name": "Mechanical Laundry",
        "shop": "laundry"
      }
    },
    {
      "type": "way",
      "id": 726127647,
      "center": {
        "lat": 12.9650983,
        "lon": 77.6298797
      },
      "tags": {
        "leisure": "playground",
        "name": "Play Ground"
      }
    },
    {
      "type": "way",
      "id": 775163650,
      "center": {
        "lat": 12.9756138,
        "lon": 77.6207859
      },
      "tags": {
        "access": "customers",
        "leisure": "swimming_pool",
        "location": "roof"
      }
    },
    {
      "type": "way",
      "id": 1068844239,
      "center": {
        "lat": 12.9749635,
        "lon": 77.6188909
      },
      "tags": {
        "access": "yes",
        "amenity": "parking",
        "parking": "street_side"
      }
    },
    {
      "type": "way",
      "id": 1068844248,
      "center": {
        "lat": 12.973839,
        "lon": 77.6194421
      },
      "tags": {
        "access": "customers",
        "amenity": "parking",
        "parking": "surface"
      }
    },
    {
      "type": "way",
      "id": 1068844251,
      "center": {
        "lat": 12.9729109,
        "lon": 77.619671
      },
      "tags": {
        "access": "customers",
        "amenity": "parking",
        "parking": "surface"
      }
    },
    {
      "type": "way",
      "id": 1108003238,
      "center": {
        "lat": 12.9724712,
        "lon": 77.6186855
      },
      "tags": {
        "access": "customers",
        "amenity": "parking",
        "fee": "yes",
        "parking": "surface"
      }
    },
    {
      "type": "way",
      "id": 1137152703,
      "center": {
        "lat": 12.9733645,
        "lon": 77.6262363
      },
      "tags": {
        "addr:city": "Bengaluru",
        "addr:country": "IN",
        "addr:postcode": "560008",
        "addr:street": "Cambridge Road",
        "addr:suburb": "Halasuru",
        "amenity": "coworking_space",
        "fee": "yes",
        "landuse": "commercial",
        "name": "IndiQube Brigade Square",
        "office": "coworking",
        "operator": "IndiQube"
      }
    },
    {
      "type": "way",
      "id": 1330557657,
      "center": {
        "lat": 12.9688475,
        "lon": 77.6301549
      },
      "tags": {
        "access": "private",
        "leisure": "park"
      }
    },
    {
      "type": "way",
      "id": 1354829391,
      "center": {
        "lat": 12.9773752,
        "lon": 77.6275658
      },
      "tags": {
        "amenity": "parking"
      }
    },
    {
      "type": "way",
      "id": 1365455956,
      "center": {
        "lat": 12.97422,
        "lon": 77.632671
      },
      "tags": {
        "leisure": "garden"
      }
    },
    {
      "type": "way",
      "id": 1365459517,
      "center": {
        "lat": 12.9723486,
        "lon": 77.6304802
      },
      "tags": {
        "amenity": "school"
      }
    },
    {
      "type": "way",
      "id": 1369206475,
      "center": {
        "lat": 12.9727648,
        "lon": 77.6306002
      },
      "tags": {
        "addr:place": "Ulsoor",
        "amenity": "school",
        "isced:level": "1",
        "name": "Corporation HPS Ulsoor",
        "name:kn": "ಕಾರ್ಪೋರೇಶನ್ ಹಿರಿಯ ಪ್ರಾಥಮಿಕ ಶಾಲೆ ಹಲಸೂರು",
        "operator": "Department of Education",
        "school": "primary"
      }
    },
    {
      "type": "way",
      "id": 1379818685,
      "center": {
        "lat": 12.9665427,
        "lon": 77.6318997
      },
      "tags": {
        "leisure": "park",
        "name": "Garden Park",
        "opening_hours": "Mo-Fr 08:00-17:00"
      }
    }
  ]
}