{
  "area_name": "Canara Bank Colony",
  "osm_id": 493538970,
  "osm_type": "node",
  "place_type": "neighbourhood",
  "amenity_count": 415,
  "amenities": [
    {
      "type": "node",
      "id": 302493798,
      "lat": 12.9309141,
      "lon": 77.5850854,
      "tags": {
        "amenity": "atm",
        "brand": "Citibank",
        "brand:wikidata": "Q857063",
        "name": "Citibank",
        "name:kn": "ಸಿಟಿಬ್ಯಾಂಕ್",
        "operator": "Citibank",
        "operator:wikidata": "Q857063",
        "short_name": "Citi"
      }
    },
    {
      "type": "node",
      "id": 303917501,
      "lat": 12.9331091,
      "lon": 77.5835191,
      "tags": {
        "addr:postcode": "560011",
        "addr:street": "Elephant Cave Road",
        "amenity": "bank",
        "atm": "yes",
        "brand": "ICICI Bank",
        "brand:wikidata": "Q1653258",
        "name": "ICICI Bank",
        "name:en": "ICICI Bank",
        "name:kn": "ಐಸಿಐಸಿಐ ಬ್ಯಾಂಕು",
        "operator": "icici bank 3rd block",
        "short_name": "ICICI",
        "website": "https://www.icicibank.com"
      }
    },
    {
      "type": "node",
      "id": 303917702,
      "lat": 12.9303756,
      "lon": 77.583314,
      "tags": {
        "amenity": "post_office",
        "name": "Jayanagar 3rd Block PO",
        "name:kn": "ಅಂಚೆ ಕಛೇರಿ"
      }
    },
    {
      "type": "node",
      "id": 306603782,
      "lat": 12.930715,
      "lon": 77.5835421,
      "tags": {
        "amenity": "toilets",
        "created_by": "Potlatch 0.10e"
      }
    },
    {
      "type": "node",
      "id": 307411444,
      "lat": 12.9328185,
      "lon": 77.5830433,
      "tags": {
        "name": "Foodworld",
        "name:kn": "ಫುಡ್ ವರ್ಲ್ಡ್",
        "shop": "supermarket"
      }
    },
    {
      "type": "node",
      "id": 307413315,
      "lat": 12.9314045,
      "lon": 77.5924636,
      "tags": {
        "amenity": "pharmacy",
        "healthcare": "pharmacy"
      }
    },
    {
      "type": "node",
      "id": 307414664,
      "lat": 12.9309193,
      "lon": 77.5837775,
      "tags": {
        "amenity": "bank",
        "brand": "Canara Bank",
        "brand:en": "Canara Bank",
        "brand:hi": "केनरा बैंक",
        "brand:kn": "ಕೆನರಾ ಬ್ಯಾಂಕ್",
        "brand:pa": "ਕੇਨਰਾ ਬੈਂਕ",
        "brand:pnb": "کینرا بینک",
        "brand:ur": "کینرا بینک",
        "brand:wikidata": "Q2003777",
        "brand:wikipedia": "en:Canara Bank",
        "brand:wikipedia:pa": "ਕੇਨਰਾ ਬੈਂਕ",
        "name": "Canara Bank",
        "name:en": "Canara Bank",
        "name:hi": "केनरा बैंक",
        "name:kn": "ಕೆನರಾ ಬ್ಯಾಂಕ್",
        "name:pa": "ਕੇਨਰਾ ਬੈਂਕ",
        "name:pnb": "کینرا بینک",
        "name:ur": "کینرا بینک",
        "website": "https://www.canarabank.com/"
      }
    },
    {
      "type": "node",
      "id": 307414683,
      "lat": 12.9289702,
      "lon": 77.5839921,
      "tags": {
        "amenity": "bank",
        "brand": "State Bank of India",
        "brand:wikidata": "Q1340361",
        "brand:wikipedia": "en:State Bank of India",
        "name": "State Bank of India",
        "name:kn": "ಸ್ಟೇಟ್ ಬ್ಯಾಂಕ್ ಆಫ್ ಇಂಡಿಯಾ",
        "old_name": "State Bank of mysore",
        "short_name": "SBI",
        "website": "https://www.sbi.co.in"
      }
    },
    {
      "type": "node",
      "id": 307416930,
      "lat": 12.9322996,
      "lon": 77.583357,
      "tags": {
        "amenity": "vending_machine",
        "created_by": "Potlatch 0.10e",
        "name": "BESCOM Bill Counter"
      }
    },
    {
      "type": "node",
      "id": 307417112,
      "lat": 12.9302752,
      "lon": 77.584756,
      "tags": {
        "amenity": "vending_machine",
        "created_by": "Potlatch 0.10e",
        "name": "Electricity/Water bill ATM"
      }
    },
    {
      "type": "node",
      "id": 364629083,
      "lat": 12.9238628,
      "lon": 77.5860466,
      "tags": {
        "amenity": "post_office",
        "name": "Jayanagar 4th Block Post Office",
        "name:kn": "ಅಂಚೆ ಕಛೇರಿ"
      }
    },
    {
      "type": "node",
      "id": 364645835,
      "lat": 12.932868,
      "lon": 77.5872561,
      "tags": {
        "amenity": "place_of_worship",
        "name": "Ganesha Temple",
        "name:kn": "ಗಣೇಶ ದೇವಸ್ಥಾನ",
        "religion": "hindu"
      }
    },
    {
      "type": "node",
      "id": 595408703,
      "lat": 12.9309204,
      "lon": 77.5840319,
      "tags": {
        "amenity": "restaurant",
        "name": "Ganesh Darshan",
        "name:kn": "ಗಣೇಶ ದರ್ಶಿನಿ"
      }
    },
    {
      "type": "node",
      "id": 595408704,
      "lat": 12.9318838,
      "lon": 77.5840243,
      "tags": {
        "shop": "books"
      }
    },
    {
      "type": "node",
      "id": 595409635,
      "lat": 12.9330581,
      "lon": 77.584422,
      "tags": {
        "amenity": "restaurant",
        "capacity": "150",
        "diet:vegetarian": "only",
        "name": "Upahara Darshini",
        "name:kn": "ಉಪಹಾರ ದರ್ಶಿನಿ",
        "takeaway": "yes"
      }
    },
    {
      "type": "node",
      "id": 595409636,
      "lat": 12.9330431,
      "lon": 77.5843044,
      "tags": {
        "amenity": "restaurant",
        "cuisine": "indian",
        "name": "Nagarjuna Chimney",
        "name:kn": "ನಾಗಾರ್ಜುನ ಚಿಮಿನಿ"
      }
    },
    {
      "type": "node",
      "id": 595409790,
      "lat": 12.9261789,
      "lon": 77.5848245,
      "tags": {
        "amenity": "restaurant",
        "cuisine": "italian",
        "name": "La Casa",
        "name:kn": "ಲಾ ಕಾಸಾ"
      }
    },
    {
      "type": "node",
      "id": 595409791,
      "lat": 12.9269294,
      "lon": 77.5861832,
      "tags": {
        "alt_name": "Kentucky Fried Chicken",
        "alt_name:en": "Kentucky Fried Chicken",
        "alt_name:hi": "केंटुकी फ्राइड चिकन",
        "alt_name:pa": "ਕੈਂਟੁਕੀ ਫ੍ਰਾਈਡ ਚਿਕਨ",
        "alt_name:pnb": "کینٹکی فرائیڈ چکن",
        "alt_name:ur": "کینٹکی فرائیڈ چکن",
        "amenity": "fast_food",
        "brand": "KFC",
        "brand:en": "KFC",
        "brand:hi": "केएफसी",
        "brand:pa": "ਕੇਐਫਸੀ",
        "brand:pnb": "کے ایف سی",
        "brand:ur": "کے ایف سی",
        "brand:wikidata": "Q524757",
        "brand:wikipedia": "en:KFC",
        "brand:wikipedia:pa": "ਕੇਐਫਸੀ",
        "brand:wikipedia:ur": "کینٹکی فرائیڈ چکن",
        "cuisine": "chicken",
        "name": "KFC",
        "name:en": "KFC",
        "name:hi": "केएफसी",
        "name:kn": "ಕೆಎಫ್‌ಸಿ",
        "name:pa": "ਕੇਐਫਸੀ",
        "name:pnb": "کے ایف سی",
        "name:ur": "کے ایف سی",
        "takeaway": "yes"
      }
    },
    {
      "type": "node",
      "id": 691164726,
      "lat": 12.928367,
      "lon": 77.5905691,
      "tags": {
        "addr:street": "Tilak Nagar Main Road",
        "amenity": "police",
        "name": "Tilaknagar Police Station",
        "name:kn": "ತಿಲಕ್ ನಗರ ಪೋಲಿಸ್ ಟಾಣೆ"
      }
    },
    {
      "type": "node",
      "id": 691164727,
      "lat": 12.9310045,
      "lon": 77.5830947,
      "tags": {
        "amenity": "restaurant",
        "brand": "Pizza Hut",
        "brand:wikidata": "Q191615",
        "cuisine": "pizza",
        "name": "Pizza Hut",
        "name:kn": "ಪಿಟ್ಸ ಹಟ್"
      }
    },
    {
      "type": "node",
      "id": 691930445,
      "lat": 12.9234317,
      "lon": 77.5923374,
      "tags": {
        "amenity": "hospital",
        "check_date": "2024-08-18",
        "name": "BMTC Hospital",
        "name:kn": "ಬಿಎಂಟಿಸಿ ಆಸ್ಪತ್ರೆ",
        "wheelchair": "yes"
      }
    },
    {
      "type": "node",
      "id": 691930449,
      "lat": 12.9241534,
      "lon": 77.5870587,
      "tags": {
        "amenity": "place_of_worship",
        "name": "Raghavendra Swamy Mutt",
        "name:kn": "ರಾಘವೇಂದ್ರ ಸ್ವಾಮಿ ಮಠ",
        "religion": "hindu"
      }
    },
    {
      "type": "node",
      "id": 691930460,
      "lat": 12.9255101,
      "lon": 77.591876,
      "tags": {
        "amenity": "post_box",
        "name": "Tilaknagar Post Office",
        "name:kn": "ತಿಲಕ್ ನಗರ ಅಂಚೆ ಕಛೇರಿ"
      }
    },
    {
      "type": "node",
      "id": 769216417,
      "lat": 12.9364329,
      "lon": 77.583477,
      "tags": {
        "amenity": "hospital",
        "healthcare": "hospital",
        "name": "Ramakrishna Nursing Home and Hospital"
      }
    },
    {
      "type": "node",
      "id": 992414866,
      "lat": 12.9328809,
      "lon": 77.5835292,
      "tags": {
        "name": "Web Nirnaya Laptop Service Station",
        "shop": "computer"
      }
    },
    {
      "type": "node",
      "id": 1015924225,
      "lat": 12.9279136,
      "lon": 77.5866159,
      "tags": {
        "amenity": "college",
        "name": "Vijaya Pre-University College",
        "name:kn": "ವಿಜಯ ಪದವಿಪೂರ್ವ ಕಾಲೇಜು"
      }
    },
    {
      "type": "node",
      "id": 1015924266,
      "lat": 12.9340338,
      "lon": 77.5874849,
      "tags": {
        "amenity": "school",
        "name": "Saraswati Vidya Mandir",
        "name:kn": "ಸರಸ್ವತಿ ವಿದ್ಯ ಮಂದಿರ"
      }
    },
    {
      "type": "node",
      "id": 1307555240,
      "lat": 12.9308436,
      "lon": 77.5955007,
      "tags": {
        "name": "Sagar Automobiles",
        "shop": "car"
      }
    },
    {
      "type": "node",
      "id": 1438209102,
      "lat": 12.9332952,
      "lon": 77.591203,
      "tags": {
        "amenity": "place_of_worship",
        "denomination": "sunni",
        "name": "Masjid Umar Farooq (Byrasandra)",
        "religion": "muslim"
      }
    },
    {
      "type": "node",
      "id": 1438212033,
      "lat": 12.9367955,
      "lon": 77.5907094,
      "tags": {
        "amenity": "hospital",
        "designation": "Sanatorium",
        "emergency": "no",
        "name": "SDS Tuberculosis Research Centre and Rajiv Gandhi Institute of Chest diseases",
        "research": "medical"
      }
    },
    {
      "type": "node",
      "id": 1440255888,
      "lat": 12.9353912,
      "lon": 77.5827887,
      "tags": {
        "amenity": "place_of_worship",
        "denomination": "sunni",
        "name:kn": "ಮಸೀದಿ",
        "religion": "muslim"
      }
    },
    {
      "type": "node",
      "id": 1440356371,
      "lat": 12.9354499,
      "lon": 77.5925943,
      "tags": {
        "amenity": "pharmacy",
        "healthcare": "pharmacy",
        "name": "Ramdev Medicals"
      }
    },
    {
      "type": "node",
      "id": 1440356373,
      "lat": 12.9358054,
      "lon": 77.5927686,
      "tags": {
        "amenity": "pharmacy",
        "brand": "Wellness Forever",
        "brand:wikidata": "Q123114721",
        "healthcare": "pharmacy",
        "name": "Wellness Forever",
        "name:en": "Wellness forever"
      }
    },
    {
      "type": "node",
      "id": 1445322853,
      "lat": 12.9287707,
      "lon": 77.5824139,
      "tags": {
        "amenity": "atm",
        "brand": "Canara Bank",
        "brand:en": "Canara Bank",
        "brand:hi": "केनरा बैंक",
        "brand:kn": "ಕೆನರಾ ಬ್ಯಾಂಕ್",
        "brand:pa": "ਕੇਨਰਾ ਬੈਂਕ",
        "brand:pnb": "کینرا بینک",
        "brand:ur": "کینرا بینک",
        "brand:wikidata": "Q2003777",
        "name": "Canara Bank",
        "name:en": "Canara Bank",
        "name:hi": "केनरा बैंक",
        "name:kn": "ಕೆನರಾ ಬ್ಯಾಂಕ್",
        "name:pa": "ਕੇਨਰਾ ਬੈਂਕ",
        "name:pnb": "کینرا بینک",
        "name:ur": "کینرا بینک",
        "operator": "Canara Bank",
        "operator:wikidata": "Q2003777"
      }
    },
    {
      "type": "node",
      "id": 1448049063,
      "lat": 12.9301133,
      "lon": 77.5844431,
      "tags": {
        "amenity": "marketplace",
        "name": "Fruit, Flower and Vegetable vendors"
      }
    },
    {
      "type": "node",
      "id": 1448049066,
      "lat": 12.932818,
      "lon": 77.5842985,
      "tags": {
        "amenity": "bank",
        "atm": "yes",
        "brand": "Corporation Bank",
        "brand:wikidata": "Q2003387",
        "brand:wikipedia": "en:Corporation Bank",
        "name": "Corporation Bank",
        "name:en": "Corporation Bank",
        "name:kn": "ಕಾರ್ಪರೇಷನ್ ಬ್ಯಾಂಕ್",
        "website": "https://corpbank.com/"
      }
    },
    {
      "type": "node",
      "id": 1462141029,
      "lat": 12.9324379,
      "lon": 77.5862539,
      "tags": {
        "addr:housename": "addidas",
        "addr:postcode": "560011",
        "addr:street": "11th main road",
        "designation": "addidas",
        "name": "Addidas",
        "shop": "clothes"
      }
    },
    {
      "type": "node",
      "id": 1462142036,
      "lat": 12.9306133,
      "lon": 77.5825147,
      "tags": {
        "addr:street": "27th Cross",
        "amenity": "restaurant",
        "cuisine": "indian",
        "name": "Nandini",
        "name:kn": "ನಂದಿನಿ"
      }
    },
    {
      "type": "node",
      "id": 1465131843,
      "lat": 12.9231515,
      "lon": 77.5893938,
      "tags": {
        "addr:street": "36 Cross",
        "amenity": "fast_food",
        "cuisine": "regional",
        "name": "Shanthi Sagar",
        "name:kn": "ಶಾಂತಿ ಸಾಗರ",
        "opening_hours": "Mo-Su 07:00-23:00"
      }
    },
    {
      "type": "node",
      "id": 1465146874,
      "lat": 12.9226921,
      "lon": 77.5935766,
      "tags": {
        "amenity": "bank",
        "atm": "yes",
        "brand": "ICICI Bank",
        "brand:wikidata": "Q1653258",
        "name": "ICICI Bank",
        "name:en": "ICICI Bank",
        "name:kn": "ಐಸಿಐಸಿಐ ಬ್ಯಾಂಕು",
        "short_name": "ICICI",
        "website": "https://www.icicibank.com"
      }
    },
    {
      "type": "node",
      "id": 1466690355,
      "lat": 12.9284409,
      "lon": 77.5899078,
      "tags": {
        "shop": "bakery"
      }
    },
    {
      "type": "node",
      "id": 1466690713,
      "lat": 12.9284331,
      "lon": 77.5900599,
      "tags": {
        "amenity": "cafe",
        "name": "Brews & Bites"
      }
    },
    {
      "type": "node",
      "id": 1466726396,
      "lat": 12.9309732,
      "lon": 77.5901342,
      "tags": {
        "addr:street": "2nd Cross LIC Colony",
        "name": "Nandini Milk Diary",
        "shop": "convenience"
      }
    },
    {
      "type": "node",
      "id": 1466728973,
      "lat": 12.9307824,
      "lon": 77.5905204,
      "tags": {
        "name": "Hopcoms",
        "name:kn": "ಹಾಪ್ ಕಾಮ್ಸ್",
        "shop": "convenience"
      }
    },
    {
      "type": "node",
      "id": 1467496954,
      "lat": 12.9321895,
      "lon": 77.5862459,
      "tags": {
        "addr:street": "11th main",
        "brand": "Nike",
        "brand:wikidata": "Q483915",
        "name": "Nike",
        "name:kn": "ನೈಕ್",
        "shop": "clothes"
      }
    },
    {
      "type": "node",
      "id": 1467498342,
      "lat": 12.9322783,
      "lon": 77.5862513,
      "tags": {
        "addr:street": "11th main",
        "brand": "United Colors of Benetton",
        "brand:wikidata": "Q817139",
        "name": "United Colors of Benetton",
        "shop": "clothes",
        "short_name": "Benetton"
      }
    },
    {
      "type": "node",
      "id": 1467500275,
      "lat": 12.9318182,
      "lon": 77.5862459,
      "tags": {
        "addr:street": "11th main",
        "brand": "Max",
        "brand:wikidata": "Q24939079",
        "name": "Max",
        "shop": "clothes",
        "source": "survey"
      }
    },
    {
      "type": "node",
      "id": 1467501709,
      "lat": 12.9305893,
      "lon": 77.5862057,
      "tags": {
        "addr:street": "11th main",
        "designation": "she",
        "name": "she",
        "shop": "clothes",
        "source": "survey"
      }
    },
    {
      "type": "node",
      "id": 1467536094,
      "lat": 12.9330961,
      "lon": 77.5823147,
      "tags": {
        "addr:street": "elephant cave road",
        "amenity": "cafe",
        "cuisine": "ice_cream",
        "designation": "lassi park",
        "name": "Lassi Park",
        "wifi": "no"
      }
    },
    {
      "type": "node",
      "id": 1473296715,
      "lat": 12.9293288,
      "lon": 77.5877091,
      "tags": {
        "addr:district": "Bengaluru Urban",
        "addr:full": "24/1-1, 14Th Main, 4Th Block East Jayanagar",
        "addr:postcode": "560041",
        "addr:state": "Karnataka",
        "amenity": "hospital",
        "emergency": "no",
        "name": "Jayanagar Orthopaedic Centre",
        "source": "OpenGovernmentData"
      }
    },
    {
      "type": "node",
      "id": 1473299194,
      "lat": 12.930445,
      "lon": 77.5896349,
      "tags": {
        "amenity": "atm",
        "operator": "Axis Bank ATM"
      }
    },
    {
      "type": "node",
      "id": 1473299378,
      "lat": 12.9318149,
      "lon": 77.5889456,
      "tags": {
        "shop": "convenience"
      }
    },
    {
      "type": "node",
      "id": 1473305828,
      "lat": 12.9284223,
      "lon": 77.589782,
      "tags": {
        "addr:street": "Tilak Nagar Main Road",
        "amenity": "fast_food",
        "diet:vegetarian": "only",
        "name": "SLV Swagath"
      }
    },
    {
      "type": "node",
      "id": 1473306667,
      "lat": 12.9286469,
      "lon": 77.5923821,
      "tags": {
        "amenity": "place_of_worship",
        "name": "Mahashakti Mari Amma Temple",
        "religion": "hindu"
      }
    },
    {
      "type": "node",
      "id": 1473817640,
      "lat": 12.9347018,
      "lon": 77.583688,
      "tags": {
        "name": "Malabhar Gold",
        "shop": "jewelry"
      }
    },
    {
      "type": "node",
      "id": 1473818054,
      "lat": 12.9322759,
      "lon": 77.5858767,
      "tags": {
        "name": "Prince jewellery",
        "shop": "jewelry"
      }
    },
    {
      "type": "node",
      "id": 1473818276,
      "lat": 12.9309688,
      "lon": 77.5857909,
      "tags": {
        "name": "Favourite Shop",
        "shop": "clothes"
      }
    },
    {
      "type": "node",
      "id": 1473818538,
      "lat": 12.9300904,
      "lon": 77.5858231,
      "tags": {
        "name": "Khazana Jewellery",
        "shop": "jewelry"
      }
    },
    {
      "type": "node",
      "id": 1473874115,
      "lat": 12.9288216,
      "lon": 77.5861538,
      "tags": {
        "name": "Reliance jewellery",
        "name:kn": "ರಿಲಯನ್ಸ್ ಜಿವುಲೆರಿ",
        "shop": "jewelry"
      }
    },
    {
      "type": "node",
      "id": 1473876346,
      "lat": 12.9271168,
      "lon": 77.5861609,
      "tags": {
        "name": "Kalamandir",
        "shop": "clothes"
      }
    },
    {
      "type": "node",
      "id": 1473876451,
      "lat": 12.9287808,
      "lon": 77.5856675,
      "tags": {
        "amenity": "restaurant",
        "diet:vegetarian": "only",
        "name": "Shanti Sagara",
        "name:kn": "ಶಾಂತಿ ಸಾಗರ್"
      }
    },
    {
      "type": "node",
      "id": 1474088680,
      "lat": 12.9285276,
      "lon": 77.5826445,
      "tags": {
        "amenity": "restaurant",
        "diet:vegetarian": "only",
        "name": "Sukh Sagar",
        "name:kn": "ಸುಖ್ ಸಾಗರ"
      }
    },
    {
      "type": "node",
      "id": 1474088686,
      "lat": 12.928559,
      "lon": 77.5823467,
      "tags": {
        "amenity": "bank",
        "atm": "yes",
        "brand": "Union Bank of India",
        "brand:wikidata": "Q2004078",
        "brand:wikipedia": "en:Union Bank of India",
        "name": "Union Bank of India",
        "name:en": "Union Bank of India",
        "name:kn": "ಯೂನಿಯನ್ ಬ್ಯಾಂಕ್",
        "short_name": "UBI",
        "website": "https://www.unionbankofindia.co.in/"
      }
    },
    {
      "type": "node",
      "id": 1474089882,
      "lat": 12.9295314,
      "lon": 77.584573,
      "tags": {
        "name": "Jayanagar 4th Block Fish market",
        "shop": "seafood"
      }
    },
    {
      "type": "node",
      "id": 1474090661,
      "lat": 12.9288447,
      "lon": 77.5857791,
      "tags": {
        "amenity": "restaurant",
        "diet:vegetarian": "only",
        "name": "Basaveshwar Khanavali"
      }
    },
    {
      "type": "node",
      "id": 1474091077,
      "lat": 12.9277143,
      "lon": 77.5861502,
      "tags": {
        "amenity": "restaurant",
        "diet:vegetarian": "only",
        "name": "1947",
        "name:kn": "೧೯೪೭"
      }
    },
    {
      "type": "node",
      "id": 1474091078,
      "lat": 12.9279957,
      "lon": 77.5861533,
      "tags": {
        "amenity": "fast_food",
        "brand": "McDonald's",
        "brand:pa": "ਮੈਕਡੋਨਲਡ’ਜ਼",
        "brand:ur": "مکڈونلڈز",
        "brand:wikidata": "Q38076",
        "brand:wikipedia": "en:McDonald's",
        "brand:wikipedia:pa": "ਮੈਕਡੋਨਲਡ’ਜ਼",
        "brand:wikipedia:ur": "مکڈونلڈز",
        "check_date": "2024-01-27",
        "cuisine": "burger",
        "name": "McDonald's",
        "name:kn": "ಮ್ಯಾಕ್‌ಡೊನಾಲ್ಡ್ಸ್",
        "name:pa": "ਮੈਕਡੋਨਲਡ’ਜ਼",
        "name:ur": "مکڈونلڈز",
        "takeaway": "yes"
      }
    },
    {
      "type": "node",
      "id": 1474257931,
      "lat": 12.9368706,
      "lon": 77.5847432,
      "tags": {
        "name": "Sri Devi International",
        "shop": "hifi"
      }
    },
    {
      "type": "node",
      "id": 1474261010,
      "lat": 12.933221,
      "lon": 77.5825309,
      "tags": {
        "brand": "Bhima Jewellers",
        "brand:wikidata": "Q17004889",
        "name": "Bhima Jewellers",
        "shop": "jewelry"
      }
    },
    {
      "type": "node",
      "id": 1474263757,
      "lat": 12.932994,
      "lon": 77.5852313,
      "tags": {
        "brand": "Reliance Fresh",
        "brand:wikidata": "Q7311014",
        "name": "Reliance Fresh",
        "name:kn": "ರಿಲೈಯನ್ಸ್ ಫ್ರೆಶ್",
        "shop": "supermarket",
        "wheelchair": "limited"
      }
    },
    {
      "type": "node",
      "id": 1474263758,
      "lat": 12.9329962,
      "lon": 77.5850947,
      "tags": {
        "amenity": "restaurant",
        "cuisine": "indian",
        "name": "Subz",
        "name:kn": "ಸಬ್ಜ್"
      }
    },
    {
      "type": "node",
      "id": 1474266764,
      "lat": 12.9313369,
      "lon": 77.5862297,
      "tags": {
        "name": "Awesome",
        "shop": "clothes"
      }
    },
    {
      "type": "node",
      "id": 1474266766,
      "lat": 12.9294525,
      "lon": 77.5861468,
      "tags": {
        "name": "Boots Bazaaar",
        "shop": "shoes"
      }
    },
    {
      "type": "node",
      "id": 1474270538,
      "lat": 12.9306365,
      "lon": 77.5862902,
      "tags": {
        "amenity": "fast_food",
        "name": "Vasudev Adigas",
        "name:kn": "ಅಡಿಗಾಸ್"
      }
    },
    {
      "type": "node",
      "id": 1474270539,
      "lat": 12.9287567,
      "lon": 77.586467,
      "tags": {
        "name": "GKB Opticals",
        "shop": "optician"
      }
    },
    {
      "type": "node",
      "id": 1474270540,
      "lat": 12.926201,
      "lon": 77.5864559,
      "tags": {
        "name": "Iyengar bakers",
        "shop": "bakery"
      }
    },
    {
      "type": "node",
      "id": 1474270542,
      "lat": 12.9306417,
      "lon": 77.5864695,
      "tags": {
        "name": "Pulla Reddy Sweets",
        "shop": "confectionery"
      }
    },
    {
      "type": "node",
      "id": 1474270926,
      "lat": 12.9243848,
      "lon": 77.5858198,
      "tags": {
        "amenity": "restaurant",
        "cuisine": "chinese",
        "name": "Beijing Bites",
        "name:kn": "ಬೀಜಿಂಗ್ ಬೈಟ್ಸ್"
      }
    },
    {
      "type": "node",
      "id": 1474270927,
      "lat": 12.9258312,
      "lon": 77.5858477,
      "tags": {
        "name": "Kalanjali",
        "shop": "clothes"
      }
    },
    {
      "type": "node",
      "id": 1474291159,
      "lat": 12.9287644,
      "lon": 77.5858624,
      "tags": {
        "amenity": "fast_food",
        "cuisine": "ice_cream",
        "name": "Cool joint"
      }
    },
    {
      "type": "node",
      "id": 1474291160,
      "lat": 12.928945,
      "lon": 77.5859387,
      "tags": {
        "name": "Kalaniketan",
        "name:kn": "ಕಳಾನಿಕೇತನ್",
        "shop": "clothes"
      }
    },
    {
      "type": "node",
      "id": 1474291161,
      "lat": 12.9298539,
      "lon": 77.5861419,
      "tags": {
        "brand": "Raymond",
        "brand:wikidata": "Q3537018",
        "name": "Raymond",
        "shop": "clothes"
      }
    },
    {
      "type": "node",
      "id": 1474291163,
      "lat": 12.9290329,
      "lon": 77.5859122,
      "tags": {
        "name": "Roop sangam",
        "name:kn": "ರೂಪ ಸಂಗಮ",
        "shop": "clothes"
      }
    },
    {
      "type": "node",
      "id": 1474291164,
      "lat": 12.9292972,
      "lon": 77.5861487,
      "tags": {
        "name": "Titan Eye +",
        "shop": "optician"
      }
    },
    {
      "type": "node",
      "id": 1474291165,
      "lat": 12.9295627,
      "lon": 77.5861454,
      "tags": {
        "brand": "Van Heusen",
        "brand:wikidata": "Q67551865",
        "clothes": "men",
        "name": "Van Heusen",
        "shop": "clothes"
      }
    },
    {
      "type": "node",
      "id": 1474292386,
      "lat": 12.9308366,
      "lon": 77.5841217,
      "tags": {
        "name": "Shenoy",
        "shop": "confectionery"
      }
    },
    {
      "type": "node",
      "id": 1474295621,
      "lat": 12.9305088,
      "lon": 77.5839513,
      "tags": {
        "addr:city": "Bengaluru",
        "name": "Big Mishra Pedha",
        "shop": "confectionery"
      }
    },
    {
      "type": "node",
      "id": 1474297377,
      "lat": 12.930696,
      "lon": 77.5817575,
      "tags": {
        "name": "Anand Bhavan Sweets",
        "shop": "confectionery"
      }
    },
    {
      "type": "node",
      "id": 1474298490,
      "lat": 12.9283859,
      "lon": 77.5860867,
      "tags": {
        "name": "Book World",
        "name:kn": "ಬುಕ್ ವರ್ಲ್ಡ್",
        "shop": "books"
      }
    },
    {
      "type": "node",
      "id": 1474472488,
      "lat": 12.9387115,
      "lon": 77.5937737,
      "tags": {
        "amenity": "hospital",
        "description": "Patients initally should come here to scrrened to refer to the appropriate department for their disorder",
        "emergency": "no",
        "healthcare": "hospital",
        "name": "NIMHANS Screening block"
      }
    },
    {
      "type": "node",
      "id": 1474472859,
      "lat": 12.9388056,
      "lon": 77.5942994,
      "tags": {
        "amenity": "hospital",
        "healthcare": "hospital",
        "name": "NIMHANS OPD"
      }
    },
    {
      "type": "node",
      "id": 1491765447,
      "lat": 12.9322462,
      "lon": 77.5894525,
      "tags": {
        "amenity": "pharmacy"
      }
    },
    {
      "type": "node",
      "id": 1604968794,
      "lat": 12.9233957,
      "lon": 77.588428,
      "tags": {
        "amenity": "pharmacy",
        "dispensing": "no",
        "healthcare": "pharmacy",
        "name": "Lakshmi Medicals",
        "name:kn": "ಲಕ್ಷ್ಮೀ ಮೆಡಿಕಲ್ಸ್"
      }
    },
    {
      "type": "node",
      "id": 1604968795,
      "lat": 12.922965,
      "lon": 77.5893788,
      "tags": {
        "amenity": "community_centre",
        "name": "Partik Convention Hall",
        "name:kn": "ಪಾರ್ತಿಕ್ ಕನ್ವೆನ್ಶನ್ ಹಾಲ್"
      }
    },
    {
      "type": "node",
      "id": 1604968797,
      "lat": 12.9246131,
      "lon": 77.5850005,
      "tags": {
        "amenity": "fast_food",
        "brand": "Subway",
        "brand:pa": "ਸਬਵੇਅ",
        "brand:ur": "سب وے",
        "brand:wikidata": "Q244457",
        "brand:wikipedia": "en:Subway (restaurant)",
        "cuisine": "sandwich",
        "name": "Subway",
        "name:kn": "ಸಬ್‌ವೇ",
        "name:pa": "ਸਬਵੇਅ",
        "name:ur": "سب وے",
        "takeaway": "yes",
        "website": "https://www.subway.com/"
      }
    },
    {
      "type": "node",
      "id": 1604968798,
      "lat": 12.9261942,
      "lon": 77.5861855,
      "tags": {
        "name": "Sun Times",
        "shop": "mobile_phone"
      }
    },
    {
      "type": "node",
      "id": 1604968800,
      "lat": 12.9236001,
      "lon": 77.5879513,
      "tags": {
        "amenity": "atm",
        "brand": "Corporation Bank",
        "brand:wikidata": "Q2003387",
        "name": "Corporation Bank",
        "name:kn": "ಕಾರ್ಪರೇಷನ್ ಬ್ಯಾಂಕ್",
        "operator": "Corporation Bank",
        "operator:wikidata": "Q2003387"
      }
    },
    {
      "type": "node",
      "id": 1614268618,
      "lat": 12.9331034,
      "lon": 77.585029,
      "tags": {
        "amenity": "restaurant",
        "cuisine": "chinese",
        "name": "Chutney Chang",
        "name:kn": "ಚಟ್ನಿ ಚಂಗ್"
      }
    },
    {
      "type": "node",
      "id": 1614268619,
      "lat": 12.9331092,
      "lon": 77.5851373,
      "tags": {
        "leisure": "bowling_alley",
        "name": "Ameoba Bowling Alley",
        "sport": "9pin",
        "tourism": "attraction"
      }
    },
    {
      "type": "node",
      "id": 1649839709,
      "lat": 12.9248857,
      "lon": 77.5850521,
      "tags": {
        "amenity": "community_centre",
        "name": "Hande Hall",
        "name:kn": "ಹಂದೆ ಹಾಲ್"
      }
    },
    {
      "type": "node",
      "id": 1657121854,
      "lat": 12.9269543,
      "lon": 77.5885571,
      "tags": {
        "amenity": "school",
        "designation": "College",
        "name": "Bangalore Educational Society",
        "name:kn": "ಬೆಂಗಳೂರು ಎಜುಕೇಶನಲ್ ಸೊಸೈಟಿ"
      }
    },
    {
      "type": "node",
      "id": 1657124481,
      "lat": 12.9308154,
      "lon": 77.5862906,
      "tags": {
        "amenity": "bank",
        "atm": "yes",
        "name": "Vijaya Bank",
        "name:kn": "ವಿಜಯ ಬ್ಯಾಂಕು"
      }
    },
    {
      "type": "node",
      "id": 1657124482,
      "lat": 12.9282849,
      "lon": 77.5868566,
      "tags": {
        "amenity": "school",
        "name": "Bangalore High School(BHS)",
        "name:kn": "ಬೆಂಗಳೂರು ಪ್ರೌಡ ಶಾಲೆ"
      }
    },
    {
      "type": "node",
      "id": 1657124483,
      "lat": 12.9307984,
      "lon": 77.5865311,
      "tags": {
        "amenity": "bank",
        "atm": "yes",
        "brand": "Karur Vysya Bank",
        "brand:wikidata": "Q6373724",
        "brand:wikipedia": "en:Karur Vysya Bank",
        "name": "Karur Vysya Bank",
        "name:en": "Karur Vysya Bank",
        "name:kn": "ಕರೂರು ವೈಶ್ಯ ಬ್ಯಾಂಕ್",
        "short_name": "KVB",
        "website": "https://www.kvb.co.in"
      }
    },
    {
      "type": "node",
      "id": 1704074523,
      "lat": 12.934392,
      "lon": 77.5895053,
      "tags": {
        "addr:housename": "Amrutesh Darshini",
        "addr:postcode": "560011",
        "addr:street": "Byrasandra Main Road",
        "amenity": "restaurant",
        "name": "Amrutesh Darshini",
        "name:kn": "ಅಮೃತೇಶ್ ದರ್ಶಿನಿ"
      }
    },
    {
      "type": "node",
      "id": 1719357865,
      "lat": 12.9345803,
      "lon": 77.5893442,
      "tags": {
        "addr:postcode": "560011",
        "addr:street": "Byrasandra Main Road",
        "amenity": "bank",
        "atm": "yes",
        "branch": "Byrasandra Branch",
        "brand": "State Bank of India",
        "brand:wikidata": "Q1340361",
        "brand:wikipedia": "en:State Bank of India",
        "name": "State Bank of India",
        "name:kn": "ಸ್ಟೇಟ್ ಬ್ಯಾಂಕ್ ಆಫ್ ಇಂಡಿಯಾ",
        "short_name": "SBI"
      }
    },
    {
      "type": "node",
      "id": 1719595655,
      "lat": 12.9345466,
      "lon": 77.5895421,
      "tags": {
        "amenity": "pharmacy",
        "dispensing": "yes",
        "name": "Sudha Parimala Medical Store"
      }
    },
    {
      "type": "node",
      "id": 1719597042,
      "lat": 12.9352377,
      "lon": 77.589655,
      "tags": {
        "addr:district": "Bengaluru Urban",
        "addr:full": "Jaya Nager",
        "addr:postcode": "560011",
        "addr:state": "Karnataka",
        "amenity": "clinic",
        "emergency": "no",
        "name": "Vikram Eye Clinic",
        "name:kn": "ವಿಕ್ರಮ್ ಕಣ್ಣಿನ ಆಸ್ಪತ್ರೆ",
        "source": "OpenGovernmentData"
      }
    },
    {
      "type": "node",
      "id": 1815963298,
      "lat": 12.9334671,
      "lon": 77.5833269,
      "tags": {
        "amenity": "restaurant",
        "name": "The Guha",
        "name:kn": "ದಿ ಗುಹ"
      }
    },
    {
      "type": "node",
      "id": 1818494188,
      "lat": 12.9306129,
      "lon": 77.5862225,
      "tags": {
        "name": "Luois Phillepe",
        "shop": "clothes"
      }
    },
    {
      "type": "node",
      "id": 1818494189,
      "lat": 12.9294468,
      "lon": 77.5856396,
      "tags": {
        "brand": "Reliance Trends",
        "name": "Reliance Trends",
        "shop": "clothes"
      }
    },
    {
      "type": "node",
      "id": 1818494740,
      "lat": 12.9291985,
      "lon": 77.5861975,
      "tags": {
        "brand": "Allen Solly",
        "brand:wikidata": "Q110036995",
        "name": "Allen Solly",
        "name:kn": "ಅಲೆನ್ ಸೊಲಿ",
        "shop": "clothes"
      }
    },
    {
      "type": "node",
      "id": 1818495708,
      "lat": 12.9294521,
      "lon": 77.5850281,
      "tags": {
        "name": "Pin Ball",
        "shop": "clothes"
      }
    },
    {
      "type": "node",
      "id": 1825094198,
      "lat": 12.9230771,
      "lon": 77.5932944,
      "tags": {
        "name": "Cakewalla",
        "shop": "bakery"
      }
    },
    {
      "type": "node",
      "id": 1825094241,
      "lat": 12.9230467,
      "lon": 77.593202,
      "tags": {
        "amenity": "restaurant",
        "level": "5",
        "name": "Eeshanya",
        "name:kn": "ಈಶಾನ್ಯ"
      }
    },
    {
      "type": "node",
      "id": 2523956870,
      "lat": 12.9322822,
      "lon": 77.5981308,
      "tags": {
        "addr:city": "Bengaluru",
        "addr:postcode": "560041",
        "amenity": "school",
        "name": "New Baldwin School",
        "name:kn": "ನ್ಯೂ ಬಾಲ್ಡ್ ವಿನ್ ಶಾಲೆ"
      }
    },
    {
      "type": "node",
      "id": 2629337830,
      "lat": 12.9318708,
      "lon": 77.5837602,
      "tags": {
        "name": "Bhavani Kangan Stores",
        "shop": "jewelry"
      }
    },
    {
      "type": "node",
      "id": 2629337833,
      "lat": 12.9306281,
      "lon": 77.5857408,
      "tags": {
        "addr:street": "27th Cross",
        "name": "W",
        "shop": "clothes"
      }
    },
    {
      "type": "node",
      "id": 2629857312,
      "lat": 12.9263326,
      "lon": 77.5870601,
      "tags": {
        "addr:city": "Bangalore",
        "addr:housenumber": "20",
        "addr:postcode": "5600011",
        "addr:street": "33 Cross",
        "amenity": "fast_food",
        "cuisine": "ice_cream",
        "name": "ibaco",
        "name:kn": "ಐಬ್ಯಕೊ"
      }
    },
    {
      "type": "node",
      "id": 2638262803,
      "lat": 12.9302771,
      "lon": 77.5831394,
      "tags": {
        "amenity": "restaurant",
        "cuisine": "indian",
        "name": "New Shanthi Sagar",
        "source": "GPS"
      }
    },
    {
      "type": "node",
      "id": 2638267840,
      "lat": 12.9306647,
      "lon": 77.584134,
      "tags": {
        "alt_name": "Goli Vada Pav No.1",
        "amenity": "fast_food",
        "brand": "Goli Vada Pav",
        "brand:wikidata": "Q5580697",
        "cuisine": "indian",
        "name": "Goli Vada Pav",
        "name:kn": "ಗೋಲಿ ವಡ ಪಾವ್",
        "takeaway": "yes"
      }
    },
    {
      "type": "node",
      "id": 2649085498,
      "lat": 12.9288673,
      "lon": 77.5850418,
      "tags": {
        "name": "Ganesh Fruit Juice Center",
        "shop": "beverages"
      }
    },
    {
      "type": "node",
      "id": 2649085505,
      "lat": 12.9327614,
      "lon": 77.5849863,
      "tags": {
        "name": "PC Jeweler",
        "shop": "jewelry"
      }
    },
    {
      "type": "node",
      "id": 2649085508,
      "lat": 12.9275016,
      "lon": 77.5861432,
      "tags": {
        "branch": "Smart Store",
        "brand": "Samsung",
        "brand:wikidata": "Q20718",
        "name": "Samsung",
        "name:kn": "ಸ್ಯಾಮ್‌ಸಂಗ್",
        "shop": "electronics"
      }
    },
    {
      "type": "node",
      "id": 2664857108,
      "lat": 12.9302745,
      "lon": 77.5878322,
      "tags": {
        "addr:housename": "guru krupa",
        "addr:housenumber": "#253",
        "addr:postcode": "560064",
        "addr:street": "10th cross",
        "name": "Big Bazar",
        "name:kn": "ಬಿಗ್ ಬಜಾರ್",
        "shop": "supermarket",
        "website": "https://www.bigbazar.com/"
      }
    },
    {
      "type": "node",
      "id": 2667171357,
      "lat": 12.93049,
      "lon": 77.5841222,
      "tags": {
        "name": "M K Fancy",
        "shop": "craft"
      }
    },
    {
      "type": "node",
      "id": 2721781523,
      "lat": 12.9249951,
      "lon": 77.5882111,
      "tags": {
        "name": "Ample Mart Supermarket",
        "shop": "supermarket"
      }
    },
    {
      "type": "node",
      "id": 2721781524,
      "lat": 12.9245669,
      "lon": 77.5882045,
      "tags": {
        "amenity": "bank",
        "atm": "yes",
        "brand": "Canara Bank",
        "brand:en": "Canara Bank",
        "brand:hi": "केनरा बैंक",
        "brand:kn": "ಕೆನರಾ ಬ್ಯಾಂಕ್",
        "brand:pa": "ਕੇਨਰਾ ਬੈਂਕ",
        "brand:pnb": "کینرا بینک",
        "brand:ur": "کینرا بینک",
        "brand:wikidata": "Q2003777",
        "brand:wikipedia": "en:Canara Bank",
        "brand:wikipedia:pa": "ਕੇਨਰਾ ਬੈਂਕ",
        "name": "Canara Bank",
        "name:en": "Canara Bank",
        "name:hi": "केनरा बैंक",
        "name:kn": "ಕೆನರಾ ಬ್ಯಾಂಕ್",
        "name:pa": "ਕੇਨਰਾ ਬੈਂਕ",
        "name:pnb": "کینرا بینک",
        "name:ur": "کینرا بینک",
        "website": "https://www.canarabank.com/"
      }
    },
    {
      "type": "node",
      "id": 2721781525,
      "lat": 12.9245755,
      "lon": 77.588035,
      "tags": {
        "amenity": "atm",
        "brand": "ICICI Bank",
        "brand:wikidata": "Q1653258",
        "name": "ICICI Bank",
        "name:kn": "ಐಸಿಐಸಿಐ ಬ್ಯಾಂಕು",
        "operator": "ICICI Bank",
        "operator:wikidata": "Q1653258",
        "short_name": "ICICI"
      }
    },
    {
      "type": "node",
      "id": 2721781526,
      "lat": 12.9246342,
      "lon": 77.5880408,
      "tags": {
        "amenity": "atm",
        "brand": "Canara Bank",
        "brand:en": "Canara Bank",
        "brand:hi": "केनरा बैंक",
        "brand:kn": "ಕೆನರಾ ಬ್ಯಾಂಕ್",
        "brand:pa": "ਕੇਨਰਾ ਬੈਂਕ",
        "brand:pnb": "کینرا بینک",
        "brand:ur": "کینرا بینک",
        "brand:wikidata": "Q2003777",
        "name": "Canara Bank",
        "name:en": "Canara Bank",
        "name:hi": "केनरा बैंक",
        "name:kn": "ಕೆನರಾ ಬ್ಯಾಂಕ್",
        "name:pa": "ਕੇਨਰਾ ਬੈਂਕ",
        "name:pnb": "کینرا بینک",
        "name:ur": "کینرا بینک",
        "operator": "Canara Bank",
        "operator:wikidata": "Q2003777"
      }
    },
    {
      "type": "node",
      "id": 2727216487,
      "lat": 12.9366237,
      "lon": 77.5854643,
      "tags": {
        "amenity": "post_office",
        "name": "Madhavan Park",
        "name:kn": "ಮಾಧವನ್ ಉದ್ಯಾನವನ",
        "operator": "India Post",
        "operator:wikidata": "Q3519720"
      }
    },
    {
      "type": "node",
      "id": 2727216490,
      "lat": 12.9366244,
      "lon": 77.5855576,
      "tags": {
        "amenity": "post_box",
        "operator": "India Post",
        "operator:wikidata": "Q3519720"
      }
    },
    {
      "type": "node",
      "id": 2727229635,
      "lat": 12.9378458,
      "lon": 77.5852753,
      "tags": {
        "amenity": "cafe",
        "check_date": "2025-09-28",
        "name": "Ground Up Coffee",
        "takeaway": "yes"
      }
    },
    {
      "type": "node",
      "id": 2927773288,
      "lat": 12.9306117,
      "lon": 77.584041,
      "tags": {
        "name": "QuickConnect",
        "shop": "mobile_phone"
      }
    },
    {
      "type": "node",
      "id": 2927773289,
      "lat": 12.9306657,
      "lon": 77.5840175,
      "tags": {
        "name": "Prachin Arts & Craft",
        "shop": "antiques"
      }
    },
    {
      "type": "node",
      "id": 2927776238,
      "lat": 12.9297035,
      "lon": 77.5859202,
      "tags": {
        "amenity": "atm",
        "brand": "South Indian Bank",
        "brand:wikidata": "Q2044973",
        "name": "South Indian Bank",
        "operator": "South Indian Bank",
        "operator:wikidata": "Q2044973"
      }
    },
    {
      "type": "node",
      "id": 2927776239,
      "lat": 12.93021,
      "lon": 77.5850977,
      "tags": {
        "amenity": "atm",
        "brand": "South Indian Bank",
        "brand:wikidata": "Q2044973",
        "name": "South Indian Bank",
        "operator": "South Indian Bank",
        "operator:wikidata": "Q2044973"
      }
    },
    {
      "type": "node",
      "id": 2975319678,
      "lat": 12.9245786,
      "lon": 77.5866621,
      "tags": {
        "amenity": "place_of_worship",
        "name": "Pattabhirama Temple",
        "name:kn": "ಪಟ್ಟಭಿರಾಮ ದೇವಸ್ಥಾನ",
        "religion": "hindu"
      }
    },
    {
      "type": "node",
      "id": 2994439771,
      "lat": 12.9287313,
      "lon": 77.589322,
      "tags": {
        "amenity": "place_of_worship",
        "religion": "christian"
      }
    },
    {
      "type": "node",
      "id": 3003000363,
      "lat": 12.9282038,
      "lon": 77.5894361,
      "tags": {
        "brand": "HOPCOMS",
        "brand:wikidata": "Q22908959",
        "name": "HOPCOMS",
        "name:kn": "ಹಾಪ್ ಕಾಮ್ಸ್",
        "shop": "greengrocer"
      }
    },
    {
      "type": "node",
      "id": 3003173104,
      "lat": 12.9290557,
      "lon": 77.5913715,
      "tags": {
        "amenity": "cinema",
        "brand": "INOX Leisure",
        "brand:wikidata": "Q5972349",
        "level": "3;4",
        "name": "Inox",
        "short_name": "INOX"
      }
    },
    {
      "type": "node",
      "id": 3003173105,
      "lat": 12.9290557,
      "lon": 77.5914755,
      "tags": {
        "leisure": "sports_centre",
        "level": "7",
        "name": "Vriddhi"
      }
    },
    {
      "type": "node",
      "id": 3004782362,
      "lat": 12.9271848,
      "lon": 77.5910268,
      "tags": {
        "amenity": "bank",
        "atm": "yes",
        "brand": "Axis Bank",
        "brand:wikidata": "Q2003549",
        "brand:wikipedia": "en:Axis Bank",
        "name": "Axis Bank",
        "name:en": "Axis Bank",
        "name:kn": "ಆಕ್ಸಿಸ್ ಬ್ಯಾಂಕ್",
        "website": "https://www.axisbank.com"
      }
    },
    {
      "type": "node",
      "id": 3004782363,
      "lat": 12.9270197,
      "lon": 77.5903523,
      "tags": {
        "amenity": "bank",
        "atm": "yes",
        "brand": "Andhra Bank",
        "brand:wikidata": "Q2003476",
        "brand:wikipedia": "en:Andhra Bank",
        "name": "Andhra Bank",
        "name:en": "Andhra Bank",
        "name:kn": "ಆಂಧ್ರ ಬ್ಯಾಂಕ್",
        "opening_hours": "Mo-Sa 09:30-16:00",
        "website": "https://www.andhrabank.in"
      }
    },
    {
      "type": "node",
      "id": 3004782369,
      "lat": 12.9288646,
      "lon": 77.5913626,
      "tags": {
        "brand": "DMart",
        "brand:wikidata": "Q5203271",
        "level": "0;1",
        "name": "DMart",
        "shop": "supermarket"
      }
    },
    {
      "type": "node",
      "id": 3004782370,
      "lat": 12.9287251,
      "lon": 77.5912567,
      "tags": {
        "amenity": "cafe",
        "brand": "Cafe Coffee Day",
        "brand:wikidata": "Q5017235",
        "cuisine": "coffee_shop",
        "name": "Cafe Coffee Day",
        "name:kn": "ಕಫೆ ಕಾಫಿ ಡೇ",
        "takeaway": "yes"
      }
    },
    {
      "type": "node",
      "id": 3004782371,
      "lat": 12.9287251,
      "lon": 77.5911273,
      "tags": {
        "amenity": "atm",
        "operator": "HSBC ATM"
      }
    },
    {
      "type": "node",
      "id": 3004839852,
      "lat": 12.9310772,
      "lon": 77.5888627,
      "tags": {
        "amenity": "place_of_worship",
        "name": "Sri Lakshmi Venkateshwara Temple",
        "name:kn": "ಶ್ರೀ ಲಕ್ಷ್ಮಿ ವೆಂಕಟೇಶ್ವರ ದೇವಸ್ಥಾನ",
        "religion": "hindu"
      }
    },
    {
      "type": "node",
      "id": 3118790626,
      "lat": 12.9368412,
      "lon": 77.5837992,
      "tags": {
        "name": "Malabar Gold",
        "shop": "jewelry"
      }
    },
    {
      "type": "node",
      "id": 3161170468,
      "lat": 12.9245905,
      "lon": 77.5867571,
      "tags": {
        "name": "Uttara Karnataka Speciality Food Stores",
        "shop": "convenience"
      }
    },
    {
      "type": "node",
      "id": 3208547242,
      "lat": 12.9226172,
      "lon": 77.5932227,
      "tags": {
        "amenity": "fast_food",
        "cuisine": "regional",
        "name": "Taaza Tindi"
      }
    },
    {
      "type": "node",
      "id": 3329121036,
      "lat": 12.9302178,
      "lon": 77.5890874,
      "tags": {
        "addr:postcode": "560011",
        "addr:street": "2nd Cross KV Colony",
        "name": "provision store",
        "operator": "provision store",
        "shop": "supermarket"
      }
    },
    {
      "type": "node",
      "id": 3395243170,
      "lat": 12.9365182,
      "lon": 77.583828,
      "tags": {
        "name": "V V Silks and Sarees",
        "shop": "clothes"
      }
    },
    {
      "type": "node",
      "id": 3395246645,
      "lat": 12.9365401,
      "lon": 77.5838134,
      "tags": {
        "amenity": "clinic",
        "name": "We Care Homeopathy"
      }
    },
    {
      "type": "node",
      "id": 3395246646,
      "lat": 12.9263525,
      "lon": 77.5970518,
      "tags": {
        "name": "Branded Sale",
        "shop": "furniture"
      }
    },
    {
      "type": "node",
      "id": 3402004770,
      "lat": 12.9284352,
      "lon": 77.5848792,
      "tags": {
        "name": "Amul",
        "shop": "dairy"
      }
    },
    {
      "type": "node",
      "id": 3402004771,
      "lat": 12.9284692,
      "lon": 77.5839834,
      "tags": {
        "amenity": "atm",
        "brand": "Karnataka Bank",
        "brand:wikidata": "Q2042632",
        "name": "Karnataka Bank",
        "name:kn": "ಕರ್ನಾಟಕ ಬ್ಯಾಂಕ್",
        "operator": "Karnataka Bank",
        "operator:wikidata": "Q2042632"
      }
    },
    {
      "type": "node",
      "id": 3402009750,
      "lat": 12.9289855,
      "lon": 77.5862015,
      "tags": {
        "name": "Cakewalla",
        "shop": "bakery"
      }
    },
    {
      "type": "node",
      "id": 3402009751,
      "lat": 12.9289123,
      "lon": 77.5859132,
      "tags": {
        "name": "Cane-O-La",
        "shop": "Sugarcane_juice"
      }
    },
    {
      "type": "node",
      "id": 3402017082,
      "lat": 12.9282437,
      "lon": 77.5838704,
      "tags": {
        "amenity": "toilets"
      }
    },
    {
      "type": "node",
      "id": 3402017083,
      "lat": 12.9283646,
      "lon": 77.5849114,
      "tags": {
        "amenity": "toilets"
      }
    },
    {
      "type": "node",
      "id": 3402021336,
      "lat": 12.9300273,
      "lon": 77.5842892,
      "tags": {
        "amenity": "atm",
        "brand": "Canara Bank",
        "brand:en": "Canara Bank",
        "brand:hi": "केनरा बैंक",
        "brand:kn": "ಕೆನರಾ ಬ್ಯಾಂಕ್",
        "brand:pa": "ਕੇਨਰਾ ਬੈਂਕ",
        "brand:pnb": "کینرا بینک",
        "brand:ur": "کینرا بینک",
        "brand:wikidata": "Q2003777",
        "brand:wikipedia": "en:Canara Bank",
        "brand:wikipedia:pa": "ਕੇਨਰਾ ਬੈਂਕ",
        "name": "Canara Bank",
        "name:en": "Canara Bank",
        "name:hi": "केनरा बैंक",
        "name:kn": "ಕೆನರಾ ಬ್ಯಾಂಕ್",
        "name:pa": "ਕੇਨਰਾ ਬੈਂਕ",
        "name:pnb": "کینرا بینک",
        "name:ur": "کینرا بینک",
        "operator": "Canara Bank",
        "operator:wikidata": "Q2003777"
      }
    },
    {
      "type": "node",
      "id": 4097027897,
      "lat": 12.9292418,
      "lon": 77.5893625,
      "tags": {
        "addr:city": "Bangalore",
        "addr:district": "Bengaluru Urban",
        "addr:housenumber": "32/29",
        "addr:postcode": "560011",
        "addr:street": "4th Cross Road, KV Layout, Jayanagar 4th Block",
        "amenity": "hospital",
        "healthcare": "hospital",
        "healthcare:speciality": "dental_oral_maxillo_facial_surgery",
        "mobile": "+919481404000",
        "name": "Gulecha Dental Care",
        "operator": "Dr. Preeti",
        "operator:type": "private",
        "website": "https://www.gulechadental.com/"
      }
    },
    {
      "type": "node",
      "id": 4172906593,
      "lat": 12.9286014,
      "lon": 77.5928375,
      "tags": {
        "addr:street": "Tilak Nagar Main Road",
        "amenity": "fast_food",
        "name": "Paani Kum Chai"
      }
    },
    {
      "type": "node",
      "id": 4369804689,
      "lat": 12.9269106,
      "lon": 77.5934508,
      "tags": {
        "amenity": "toilets"
      }
    },
    {
      "type": "node",
      "id": 4442518792,
      "lat": 12.9261953,
      "lon": 77.5847378,
      "tags": {
        "addr:city": "bangalore",
        "addr:housenumber": "51",
        "addr:postcode": "560011",
        "addr:street": "Chintal Plaza, 10th Main, 33rd Cross, 4th Block, Jayanagar",
        "amenity": "clinic",
        "name": "Dr. Dhirendra H Deshpande",
        "phone": "+91-80 4121 1945"
      }
    },
    {
      "type": "node",
      "id": 4446323286,
      "lat": 12.9257866,
      "lon": 77.5861651,
      "tags": {
        "addr:city": "Bangalore",
        "addr:housenumber": "#16/47/1-C",
        "addr:postcode": "560011",
        "addr:street": "34th Cross Road,Jaya Nagar",
        "amenity": "pharmacy",
        "name": "Shriniwas Medicals",
        "name:kn": "ಶ್ರೀನಿವಾಸ್ ಮೆಡಿಕಲ್ಸ್",
        "phone": "08026632258",
        "source": "http://bestofhealthindia.com/"
      }
    },
    {
      "type": "node",
      "id": 4446978240,
      "lat": 12.9258133,
      "lon": 77.5936851,
      "tags": {
        "addr:city": "Bangalore",
        "addr:housenumber": "# 1333",
        "addr:postcode": "560041",
        "addr:street": "26th Main Road, 4th Block, Jayanagar",
        "amenity": "pharmacy",
        "drive_through": "yes",
        "healthcare": "pharmacy",
        "name": "Upadhya Ayurveda Bhandara",
        "phone": "080 2663 9321",
        "source": "http://www.bangalorehospital.co.in/"
      }
    },
    {
      "type": "node",
      "id": 4446986134,
      "lat": 12.9267767,
      "lon": 77.5838359,
      "tags": {
        "addr:city": "bangalore",
        "addr:housenumber": "#771",
        "addr:postcode": "560011",
        "addr:street": "34th Cross Road,  4th Block, Jayanagara Jaya Nagar",
        "amenity": "pharmacy",
        "drive_through": "yes",
        "name": "Star Homeopathy",
        "phone": "+9191009 60066",
        "source": "http://www.bangalorehospital.co.in/",
        "website": "https://www.starhomeo.com/"
      }
    },
    {
      "type": "node",
      "id": 4446987269,
      "lat": 12.9255939,
      "lon": 77.5861537,
      "tags": {
        "addr:city": "Bangalore",
        "addr:housenumber": "# 49",
        "addr:postcode": "560041",
        "addr:street": "34th Cross Road, 34th T Block East, Pattabhirama Nagar",
        "amenity": "pharmacy",
        "drive_through": "yes",
        "healthcare": "pharmacy",
        "name": "Himalaya Health Care",
        "name:kn": "ಹಿಮಾಲಯ ಹೆಲ್ತ್ ಕೇರ್",
        "phone": "080 2244 0364",
        "source": "http://www.bangalorehospital.co.in/",
        "website": "https://www.himalayawellness.com/"
      }
    },
    {
      "type": "node",
      "id": 4446991305,
      "lat": 12.9231418,
      "lon": 77.590042,
      "tags": {
        "addr:city": "Bangalore",
        "addr:housenumber": "#1524/29",
        "addr:postcode": "560069",
        "addr:street": "36 A Cross Road, 4th T Block East, Jayanagara",
        "amenity": "pharmacy",
        "drive_through": "yes",
        "healthcare": "pharmacy",
        "name": "Lifeken Medicines",
        "name:kn": "ಲೈಫ್‌ಕೆನ್ ಮೆಡಿಸಿನ್ಸ್",
        "phone": "080 2295 6229",
        "source": "http://bestofhealthindia.com/"
      }
    },
    {
      "type": "node",
      "id": 4446992539,
      "lat": 12.9226321,
      "lon": 77.5935954,
      "tags": {
        "addr:city": "Banagalore",
        "addr:housenumber": "#174/148",
        "addr:postcode": "560041",
        "addr:street": "26th Main Road, 4th T Block East, Jayanagara 9th Block",
        "amenity": "clinic",
        "drive_through": "yes",
        "name": "Amplifon",
        "phone": "080 4219 8047",
        "source": "http://www.bangalorehospital.co.in/",
        "website": "https://www.amplifon.in/"
      }
    },
    {
      "type": "node",
      "id": 4447001526,
      "lat": 12.9341676,
      "lon": 77.5837638,
      "tags": {
        "addr:city": "Bangalore",
        "addr:housenumber": "#68/150/3;68",
        "addr:postcode": "560011",
        "addr:street": "9th Main Road, 3rd Block, Jaya Nagar;9th Main Road",
        "amenity": "clinic",
        "description": "MRI,  CT scan, X ray, ECG",
        "healthcare": "laboratory",
        "name": "Clumax Diagnostics",
        "phone": "080 3305 1953;+91 80 49067777",
        "source": "http://www.justdial.com/",
        "website": "https://www.medall.in/"
      }
    },
    {
      "type": "node",
      "id": 4447007998,
      "lat": 12.926767,
      "lon": 77.5965015,
      "tags": {
        "addr:city": "Bangalore",
        "addr:housenumber": "32nd \"E\" Cross",
        "addr:postcode": "560041",
        "addr:street": "28th Main Road, 4th T Block East, Jayanagara Jaya",
        "amenity": "clinic",
        "healthcare": "clinic",
        "name": "Sunrise Diagnostics",
        "phone": "081529 44944",
        "source": "http://www.justdial.com/"
      }
    },
    {
      "type": "node",
      "id": 4447013606,
      "lat": 12.9322647,
      "lon": 77.5890953,
      "tags": {
        "addr:city": "Bangalore",
        "addr:housenumber": "#79",
        "addr:postcode": "560011",
        "addr:street": "4th Cross LIC Colony, KV Layout, Jayanagara",
        "amenity": "clinic",
        "name": "Shreyaas Diagnostics",
        "phone": "080 2664 2106",
        "source": "http://www.justdial.com/"
      }
    },
    {
      "type": "node",
      "id": 4447020600,
      "lat": 12.930019,
      "lon": 77.584183,
      "tags": {
        "addr:city": "Bangalore",
        "addr:housenumber": "#348",
        "addr:postcode": "560011",
        "addr:street": "9th Main Road, 4th Block, Jayanagara",
        "amenity": "clinic",
        "name": "Bombay Surgicals",
        "phone": "+919739986012",
        "source": "http://www.justdial.com/"
      }
    },
    {
      "type": "node",
      "id": 4447329235,
      "lat": 12.9314177,
      "lon": 77.5913754,
      "tags": {
        "addr:city": "bangalore",
        "addr:housenumber": "72",
        "addr:postcode": "560078",
        "addr:street": "73 24th Main End Puttenahalli J. P Nagar 7th Phase,",
        "amenity": "pharmacy",
        "healthcare": "pharmacy",
        "name": "Sri Balaji medicals",
        "phone": "080 2653 5363"
      }
    },
    {
      "type": "node",
      "id": 4447920588,
      "lat": 12.9306322,
      "lon": 77.5841581,
      "tags": {
        "name": "BN Sreekantaiah and Sons",
        "shop": "supermarket"
      }
    },
    {
      "type": "node",
      "id": 4457339389,
      "lat": 12.9330476,
      "lon": 77.5822333,
      "tags": {
        "amenity": "atm",
        "brand": "Standard Chartered",
        "brand:wikidata": "Q548278",
        "name": "Standard Chartered",
        "opening_hours": "24/7",
        "operator": "Standard Chartered",
        "operator:wikidata": "Q548278"
      }
    },
    {
      "type": "node",
      "id": 4464435191,
      "lat": 12.9349175,
      "lon": 77.5829015,
      "tags": {
        "addr:street": "Jayanagar 3rd block",
        "amenity": "cafe",
        "cuisine": "coffee_shop;burger;american",
        "name": "Java City Jayanagar",
        "name:en": "Java City Jayanagar",
        "opening_hours": "Mo-Su 11:00-22:00"
      }
    },
    {
      "type": "node",
      "id": 4487975211,
      "lat": 12.9309841,
      "lon": 77.5836457,
      "tags": {
        "addr:city": "Bangalore",
        "addr:housenumber": "24",
        "addr:postcode": "560011",
        "addr:street": "9th Main, 4th block, 4th T Block East, Jayanagara Jaya Nagar",
        "name": "Jayanagar Sport Depot",
        "opening_hours": "10:30-15:00,16:30-21:30",
        "phone": "080 2663 7998",
        "shop": "sports"
      }
    },
    {
      "type": "node",
      "id": 4488816716,
      "lat": 12.9261819,
      "lon": 77.5973726,
      "tags": {
        "addr:city": "Bangalore",
        "addr:postcode": "560029",
        "addr:street": "East End Main Road",
        "motorcycle:repair": "yes",
        "name": "Silicon Honda Service Center",
        "phone": "096632 99621",
        "shop": "motorcycle",
        "website": "https://siliconhonda.com/"
      }
    },
    {
      "type": "node",
      "id": 4489167320,
      "lat": 12.9300471,
      "lon": 77.5828321,
      "tags": {
        "addr:city": "Bangalore",
        "addr:housenumber": "67-11",
        "addr:postcode": "560011",
        "addr:street": "8th B Main, 4th Block, Jayanagar, Jaya Nagar 1st Block, 4th Block, Jayanagara Jaya Nagar",
        "name": "Bums on The Saddle",
        "opening_hours": "10:00-22:00",
        "phone": "080 4114 3064",
        "shop": "bicycle",
        "website": "https://bumsonthesaddle.com/"
      }
    },
    {
      "type": "node",
      "id": 4489389589,
      "lat": 12.9261791,
      "lon": 77.5858636,
      "tags": {
        "addr:city": "Bangalore",
        "addr:housenumber": "1",
        "addr:postcode": "560011",
        "addr:street": "1st Floor, Lakshmi Venkateshwara Arcade, 11th Main Road, Off 33rd Cross Road, Opp. KFC, Jayanagar 4th Block",
        "name": "Shama Sports",
        "opening_hours": "10:30-21:00",
        "phone": "+919880149509",
        "shop": "sports"
      }
    },
    {
      "type": "node",
      "id": 4489927123,
      "lat": 12.9339304,
      "lon": 77.583662,
      "tags": {
        "addr:city": "Bangalore",
        "addr:housenumber": "57/151, Sharada Plaza, 9th main,",
        "addr:postcode": "560011",
        "addr:street": "Opposite to State Bank of Mysore, Jayanagar East, Jaya Nagar 1st Block, Jayanagara Jaya Nagar",
        "name": "Green Trends Unisex Hair & Style Salon",
        "opening_hours": "08:00-21:00",
        "phone": "080 4123 1313",
        "shop": "beauty",
        "website": "https://www.mygreentrends.in/"
      }
    },
    {
      "type": "node",
      "id": 4490342589,
      "lat": 12.9238145,
      "lon": 77.5897622,
      "tags": {
        "addr:city": "Bangalore",
        "addr:housenumber": "458/459",
        "addr:postcode": "560069",
        "addr:street": "458/459, First Floor, 18th Main Road, 4th T Block, Jayanagar, Above DCB Bank, Near Shanthi Upahar, T Block, 4th T Block East, Pattabhirama Nagar, Jayanagara",
        "leisure": "sports_centre",
        "name": "Apple Fitness",
        "opening_hours": "4:30-23:30",
        "phone": "9901635555",
        "sport": "gymnasium",
        "website": "applefitnessindia.com"
      }
    },
    {
      "type": "node",
      "id": 4490388050,
      "lat": 12.9245655,
      "lon": 77.5882464,
      "tags": {
        "addr:city": "Bangalore",
        "addr:full": "364, Aswath Lakshmi Mansion, 16 Main, 35th Cross, Above Canara Bank, 4th Block East,, 4th T Block East, Pattabhirama Nagar, Jayanagara Jaya Nagar",
        "addr:housenumber": "364",
        "addr:street": "16th Main Road",
        "brand": "Talwalkars",
        "brand:wikidata": "Q7680402",
        "leisure": "fitness_centre",
        "name": "Talwalkars",
        "opening_hours": "5:30-22:30",
        "phone": "8041210990",
        "sport": "gymnasium"
      }
    },
    {
      "type": "node",
      "id": 4581285892,
      "lat": 12.9370636,
      "lon": 77.5851757,
      "tags": {
        "amenity": "restaurant",
        "cuisine": "italian",
        "internet_access": "wlan",
        "name": "Toscano",
        "name:en": "Toscano",
        "phone": "+918041558423"
      }
    },
    {
      "type": "node",
      "id": 4595773992,
      "lat": 12.9309286,
      "lon": 77.5831681,
      "tags": {
        "name": "Vodafone",
        "name:en": "Vodafone",
        "shop": "mobile_phone"
      }
    },
    {
      "type": "node",
      "id": 4843100436,
      "lat": 12.9392324,
      "lon": 77.5949154,
      "tags": {
        "name": "Bakery Nimhans",
        "name:en": "Bakery Nimhans",
        "shop": "bakery"
      }
    },
    {
      "type": "node",
      "id": 4847845822,
      "lat": 12.9359972,
      "lon": 77.5926337,
      "tags": {
        "amenity": "pharmacy",
        "healthcare": "pharmacy",
        "name": "Jaisheel",
        "name:en": "Jaisheel"
      }
    },
    {
      "type": "node",
      "id": 4847845823,
      "lat": 12.935905,
      "lon": 77.5928069,
      "tags": {
        "amenity": "pharmacy",
        "healthcare": "pharmacy",
        "name": "Prasad medicals",
        "name:en": "Prasad medicals"
      }
    },
    {
      "type": "node",
      "id": 4847845824,
      "lat": 12.9357029,
      "lon": 77.59262,
      "tags": {
        "amenity": "pharmacy",
        "healthcare": "pharmacy",
        "name": "Guru medicals",
        "name:en": "Guru medicals"
      }
    },
    {
      "type": "node",
      "id": 4847850821,
      "lat": 12.9390995,
      "lon": 77.5946074,
      "tags": {
        "amenity": "cafe",
        "name": "Sri Ram coffee shop",
        "name:en": "Sri Ram coffee shop"
      }
    },
    {
      "type": "node",
      "id": 4847850822,
      "lat": 12.9360687,
      "lon": 77.5926009,
      "tags": {
        "name": "New juice junction",
        "name:en": "New juice junction",
        "shop": "beverages"
      }
    },
    {
      "type": "node",
      "id": 4849094822,
      "lat": 12.9358353,
      "lon": 77.5927038,
      "tags": {
        "name": "Deevas touch - Beauty care center",
        "name:en": "Deevas touch - Beauty care center",
        "shop": "cosmetics"
      }
    },
    {
      "type": "node",
      "id": 4849094823,
      "lat": 12.9383957,
      "lon": 77.5925929,
      "tags": {
        "name": "Xerox",
        "name:en": "Xerox",
        "shop": "copyshop"
      }
    },
    {
      "type": "node",
      "id": 4859545955,
      "lat": 12.9283944,
      "lon": 77.5902973,
      "tags": {
        "brand": "Godrej",
        "shop": "furniture"
      }
    },
    {
      "type": "node",
      "id": 4859545957,
      "lat": 12.9284127,
      "lon": 77.5899272,
      "tags": {
        "shop": "travel_agency"
      }
    },
    {
      "type": "node",
      "id": 4859545958,
      "lat": 12.9284441,
      "lon": 77.5899513,
      "tags": {
        "shop": "clothes"
      }
    },
    {
      "type": "node",
      "id": 4859545959,
      "lat": 12.9284362,
      "lon": 77.5895061,
      "tags": {
        "name": "Nandini Milk Diary",
        "name:kn": "ನಂದಿನಿ ಹಾಲಿನ ಅಂಗಡಿ",
        "shop": "diary"
      }
    },
    {
      "type": "node",
      "id": 4859555724,
      "lat": 12.9290086,
      "lon": 77.5894098,
      "tags": {
        "amenity": "school"
      }
    },
    {
      "type": "node",
      "id": 4931849744,
      "lat": 12.9351221,
      "lon": 77.5856157,
      "tags": {
        "name": "Nandini Milk Parlour",
        "name:kn": "ನಂದಿನಿ ಹಾಲಿನ ಅಂಗಡಿ",
        "shop": "dairy"
      }
    },
    {
      "type": "node",
      "id": 4935027477,
      "lat": 12.9280186,
      "lon": 77.5890058,
      "tags": {
        "amenity": "post_box"
      }
    },
    {
      "type": "node",
      "id": 4935027478,
      "lat": 12.9289101,
      "lon": 77.5914708,
      "tags": {
        "amenity": "pub",
        "level": "5",
        "name": "Jimmys"
      }
    },
    {
      "type": "node",
      "id": 4935037439,
      "lat": 12.92519,
      "lon": 77.5880201,
      "tags": {
        "name": "Chowdeshwari",
        "name:kn": "ಚೌಡೇಶ್ವರಿ",
        "shop": "grocery"
      }
    },
    {
      "type": "node",
      "id": 4935037440,
      "lat": 12.9246005,
      "lon": 77.5880335,
      "tags": {
        "shop": "clocks"
      }
    },
    {
      "type": "node",
      "id": 4935037441,
      "lat": 12.9245155,
      "lon": 77.5882374,
      "tags": {
        "shop": "greengrocer"
      }
    },
    {
      "type": "node",
      "id": 4935037442,
      "lat": 12.9244724,
      "lon": 77.5882387,
      "tags": {
        "shop": "copyshop"
      }
    },
    {
      "type": "node",
      "id": 5081907157,
      "lat": 12.9290157,
      "lon": 77.5912224,
      "tags": {
        "amenity": "restaurant",
        "level": "3",
        "name": "Kobe Sizzlers"
      }
    },
    {
      "type": "node",
      "id": 5081989202,
      "lat": 12.9231241,
      "lon": 77.5894363,
      "tags": {
        "amenity": "pharmacy",
        "healthcare": "pharmacy",
        "name": "Satya Medicals",
        "name:kn": "ಸತ್ಯ ಮೆಡಿಕಲ್ಸ್"
      }
    },
    {
      "type": "node",
      "id": 5082019738,
      "lat": 12.9269553,
      "lon": 77.588051,
      "tags": {
        "shop": "beverages"
      }
    },
    {
      "type": "node",
      "id": 5082019739,
      "lat": 12.9269958,
      "lon": 77.5880496,
      "tags": {
        "name": "Sri Lakshmi Devi Xerox",
        "shop": "copyshop"
      }
    },
    {
      "type": "node",
      "id": 5082019740,
      "lat": 12.9270337,
      "lon": 77.588053,
      "tags": {
        "name": "Mataji Electricals",
        "shop": "electrical"
      }
    },
    {
      "type": "node",
      "id": 5082019741,
      "lat": 12.9264403,
      "lon": 77.5880677,
      "tags": {
        "amenity": "doctors",
        "name": "Indrani Clinic"
      }
    },
    {
      "type": "node",
      "id": 5082019746,
      "lat": 12.9263847,
      "lon": 77.588066,
      "tags": {
        "shop": "bakery"
      }
    },
    {
      "type": "node",
      "id": 5082019747,
      "lat": 12.9263533,
      "lon": 77.5880432,
      "tags": {
        "amenity": "pharmacy",
        "name": "Manish Pharmacy",
        "name:kn": "ಮನಿಷ್ ಫಾರ್ಮಸಿ"
      }
    },
    {
      "type": "node",
      "id": 5082019748,
      "lat": 12.9263527,
      "lon": 77.5880054,
      "tags": {
        "craft": "tailor",
        "shop": "tailor"
      }
    },
    {
      "type": "node",
      "id": 5082019749,
      "lat": 12.926352,
      "lon": 77.5879715,
      "tags": {
        "amenity": "doctors",
        "name": "Sharada Clinic",
        "name:kn": "ಶಾರದ ಕ್ಲಿನಿಕ್",
        "opening_hours": "09:00-13:00,17:00-21:00, Th closed",
        "operator": "Dr. Giri Rao Kolar"
      }
    },
    {
      "type": "node",
      "id": 5234718115,
      "lat": 12.9284958,
      "lon": 77.5856981,
      "tags": {
        "brand": "Ramraj Cotton",
        "brand:wikidata": "Q119161281",
        "name": "Ramraj Cotton",
        "shop": "clothes"
      }
    },
    {
      "type": "node",
      "id": 5234722031,
      "lat": 12.9288378,
      "lon": 77.5868945,
      "tags": {
        "amenity": "clinic",
        "healthcare": "clinic",
        "name": "Eye Care Clinic"
      }
    },
    {
      "type": "node",
      "id": 5234736818,
      "lat": 12.9327598,
      "lon": 77.5849626,
      "tags": {
        "amenity": "bank",
        "atm": "yes",
        "brand": "State Bank of India",
        "brand:wikidata": "Q1340361",
        "name": "State Bank of India",
        "name:kn": "ಭಾರತೀಯ ಸ್ಟೇಟ್ ಬ್ಯಾಂಕ್",
        "short_name": "SBI"
      }
    },
    {
      "type": "node",
      "id": 5234739446,
      "lat": 12.9252748,
      "lon": 77.58825,
      "tags": {
        "name": "Patanjali Mega Store",
        "shop": "convenience"
      }
    },
    {
      "type": "node",
      "id": 5234739987,
      "lat": 12.9327659,
      "lon": 77.5849194,
      "tags": {
        "name": "Kurl-on",
        "shop": "bed"
      }
    },
    {
      "type": "node",
      "id": 5234739989,
      "lat": 12.9327774,
      "lon": 77.5850415,
      "tags": {
        "name": "Acer Lounge",
        "shop": "computer"
      }
    },
    {
      "type": "node",
      "id": 5234739990,
      "lat": 12.933223,
      "lon": 77.5842632,
      "tags": {
        "addr:city": "Bangalore",
        "addr:district": "Bengaluru Urban",
        "addr:full": "No.1537/1, 9th Main Road, 3rd Block, Jayanagar",
        "addr:housenumber": "1537/1",
        "addr:postcode": "560011",
        "addr:state": "Karnataka",
        "addr:street": "9th Main Road",
        "addr:suburb": "Jayanagar 3rd Block",
        "amenity": "hospital",
        "email": "infokpcpt@gmail.com",
        "healthcare": "hospital",
        "name": "Nature Cure Hospital",
        "opening_hours": "We-Mo 07:00-12:00,13:00-18:00",
        "operator:type": "private",
        "phone": "+91 80 2663 1945;+91 80 2244 6035",
        "source": "OpenGovernmentData",
        "website": "https://www.jayanagarnaturecure.in/"
      }
    },
    {
      "type": "node",
      "id": 5234740182,
      "lat": 12.9328023,
      "lon": 77.5847991,
      "tags": {
        "name": "M.P Swarna Mahal",
        "shop": "jewelry"
      }
    },
    {
      "type": "node",
      "id": 5234747382,
      "lat": 12.9231873,
      "lon": 77.5893315,
      "tags": {
        "amenity": "dentist",
        "healthcare": "clinic"
      }
    },
    {
      "type": "node",
      "id": 5234750783,
      "lat": 12.925788,
      "lon": 77.5880661,
      "tags": {
        "name": "Vitarag Jewels",
        "shop": "jewelry"
      }
    },
    {
      "type": "node",
      "id": 5234753100,
      "lat": 12.9253672,
      "lon": 77.5882291,
      "tags": {
        "name": "Cotton Blossom",
        "shop": "clothes"
      }
    },
    {
      "type": "node",
      "id": 5234765970,
      "lat": 12.925098,
      "lon": 77.5882684,
      "tags": {
        "name": "Ample Mart",
        "name:kn": "ಆಂಪಲ್ ಮಾರ್ಟ್",
        "shop": "supermarket"
      }
    },
    {
      "type": "node",
      "id": 5234777582,
      "lat": 12.9271618,
      "lon": 77.5934225,
      "tags": {
        "name": "Krishna Bakery",
        "shop": "bakery"
      }
    },
    {
      "type": "node",
      "id": 5234777600,
      "lat": 12.9269123,
      "lon": 77.5907502,
      "tags": {
        "amenity": "atm",
        "brand": "Canara Bank",
        "brand:en": "Canara Bank",
        "brand:hi": "केनरा बैंक",
        "brand:kn": "ಕೆನರಾ ಬ್ಯಾಂಕ್",
        "brand:pa": "ਕੇਨਰਾ ਬੈਂਕ",
        "brand:pnb": "کینرا بینک",
        "brand:ur": "کینرا بینک",
        "brand:wikidata": "Q2003777",
        "name": "Canara Bank",
        "name:en": "Canara Bank",
        "name:hi": "केनरा बैंक",
        "name:kn": "ಕೆನರಾ ಬ್ಯಾಂಕ್",
        "name:pa": "ਕੇਨਰਾ ਬੈਂਕ",
        "name:pnb": "کینرا بینک",
        "name:ur": "کینرا بینک",
        "operator": "Canara Bank",
        "operator:wikidata": "Q2003777"
      }
    },
    {
      "type": "node",
      "id": 5234782692,
      "lat": 12.9268254,
      "lon": 77.5946896,
      "tags": {
        "amenity": "car_wash"
      }
    },
    {
      "type": "node",
      "id": 5234787595,
      "lat": 12.9329075,
      "lon": 77.5896812,
      "tags": {
        "amenity": "place_of_worship",
        "religion": "hindu"
      }
    },
    {
      "type": "node",
      "id": 5234789471,
      "lat": 12.9270213,
      "lon": 77.5920261,
      "tags": {
        "amenity": "atm",
        "brand": "State Bank of India",
        "brand:wikidata": "Q1340361",
        "name": "State Bank of India",
        "operator": "State Bank of India",
        "operator:wikidata": "Q1340361",
        "short_name": "SBI"
      }
    },
    {
      "type": "node",
      "id": 5234797803,
      "lat": 12.9284598,
      "lon": 77.592774,
      "tags": {
        "amenity": "fast_food",
        "brand": "Five Star Chicken",
        "brand:wikidata": "Q127784422",
        "cuisine": "chicken",
        "delivery": "yes",
        "name": "Five Star Chicken",
        "takeaway": "yes"
      }
    },
    {
      "type": "node",
      "id": 5234798352,
      "lat": 12.9305734,
      "lon": 77.5862262,
      "tags": {
        "name": "Planet Fashion",
        "shop": "clothes"
      }
    },
    {
      "type": "node",
      "id": 5234798353,
      "lat": 12.9306435,
      "lon": 77.5863284,
      "tags": {
        "amenity": "restaurant",
        "name": "Vakulaa Veg Restaurant"
      }
    },
    {
      "type": "node",
      "id": 5234798355,
      "lat": 12.9318665,
      "lon": 77.5890475,
      "tags": {
        "name": "Choice Fancy And Stationary",
        "shop": "stationery"
      }
    },
    {
      "type": "node",
      "id": 5234798356,
      "lat": 12.9318362,
      "lon": 77.5890273,
      "tags": {
        "name": "Srushti Boutique",
        "shop": "clothes"
      }
    },
    {
      "type": "node",
      "id": 5234798357,
      "lat": 12.9318107,
      "lon": 77.5890029,
      "tags": {
        "name": "Sri Sai Lalitha Traders",
        "shop": "trade"
      }
    },
    {
      "type": "node",
      "id": 5234798358,
      "lat": 12.9318977,
      "lon": 77.5890661,
      "tags": {
        "amenity": "ice_cream",
        "name": "Joy Ice Creams"
      }
    },
    {
      "type": "node",
      "id": 5234799277,
      "lat": 12.9283464,
      "lon": 77.595684,
      "tags": {
        "amenity": "restaurant",
        "name": "Al Dubai Family Restaurant"
      }
    },
    {
      "type": "node",
      "id": 5234803135,
      "lat": 12.928555,
      "lon": 77.599351,
      "tags": {
        "amenity": "restaurant",
        "name": "4 Seasons Multi Cuisine Restaurant"
      }
    },
    {
      "type": "node",
      "id": 5234810897,
      "lat": 12.9320963,
      "lon": 77.5892378,
      "tags": {
        "amenity": "fast_food",
        "name": "Hot Chips"
      }
    },
    {
      "type": "node",
      "id": 5234810898,
      "lat": 12.9322848,
      "lon": 77.589363,
      "tags": {
        "name": "Sri Bharani Medical and General Store",
        "shop": "medical_supply"
      }
    },
    {
      "type": "node",
      "id": 5234810899,
      "lat": 12.9323172,
      "lon": 77.5893906,
      "tags": {
        "name": "Lakshmi Provisions Store",
        "shop": "greengrocer"
      }
    },
    {
      "type": "node",
      "id": 5492915021,
      "lat": 12.9326212,
      "lon": 77.5894298,
      "tags": {
        "amenity": "toilets"
      }
    },
    {
      "type": "node",
      "id": 5492915022,
      "lat": 12.9328804,
      "lon": 77.5874138,
      "tags": {
        "amenity": "place_of_worship",
        "name": "Temple"
      }
    },
    {
      "type": "node",
      "id": 5925868185,
      "lat": 12.9269166,
      "lon": 77.5850456,
      "tags": {
        "addr:housenumber": "559",
        "addr:postcode": "560011",
        "addr:street": "32 Cross Road",
        "amenity": "school",
        "email": "support@etestzone.com",
        "name:en": "eTestZone Educational Services Pvt Ltd",
        "name:hi": "इटेस्ट्झोन एजुकेशनल सर्विस प्राइवेट लिमिटेड",
        "opening_hours": "Mo-Sa 09:30-20:30; Su 10:30-13:00",
        "operator": "Gururaj S",
        "phone": "9945988820",
        "website": "http://www.etestzone.com"
      }
    },
    {
      "type": "node",
      "id": 6349067615,
      "lat": 12.9296754,
      "lon": 77.5965327,
      "tags": {
        "amenity": "school",
        "isced:level": "2",
        "name": "Government Urdu Higher Primary School",
        "name:kn": "ಸರ್ಕಾರಿ ಉರ್ದು ಹಿರಿಯ ಪ್ರಾಥಮಿಕ ಶಾಲೆ ಎಸ್‌.ರ್.ಕೆ ಗಾರ್ಡನ್",
        "operator": "Department of Education",
        "school": "primary"
      }
    },
    {
      "type": "node",
      "id": 6349168143,
      "lat": 12.9274871,
      "lon": 77.5888165,
      "tags": {
        "addr:place": "Jayanagar",
        "amenity": "school",
        "isced:level": "2",
        "name": "Panchavati Vidyamandira Jayanagar",
        "name:kn": "ಪಂಚವಟಿ ವಿದ್ಯಾಮಂದಿರ ಜಯನಗರ",
        "operator": "Department of Education",
        "school": "primary"
      }
    },
    {
      "type": "node",
      "id": 6349293094,
      "lat": 12.9314978,
      "lon": 77.5995415,
      "tags": {
        "addr:place": "Tilak Nagar",
        "amenity": "school",
        "isced:level": "2",
        "name": "GHPS Tilak Nagar",
        "name:kn": "ಸರ್ಕಾರಿ ಹಿರಿಯ ಪ್ರಾಥಮಿಕ ಶಾಲೆ ತಿಲಕ್ ನಗರ",
        "operator": "Department of Education",
        "school": "primary"
      }
    },
    {
      "type": "node",
      "id": 6349346578,
      "lat": 12.933863,
      "lon": 77.5910009,
      "tags": {
        "addr:place": "Byrasandra",
        "amenity": "school",
        "isced:level": "2",
        "name": "GHPS Byrasandra",
        "name:kn": "ಸರ್ಕಾರಿ ಹಿರಿಯ ಪ್ರಾಥಮಿಕ ಶಾಲೆ ಬೈರಸಂದ್ರ",
        "operator": "Department of Education",
        "school": "primary"
      }
    },
    {
      "type": "node",
      "id": 6349356487,
      "lat": 12.9329465,
      "lon": 77.5918045,
      "tags": {
        "addr:place": "Byrasandra",
        "amenity": "school",
        "isced:level": "2",
        "name": "GHPS(U) Byrasandra",
        "name:kn": "ಸರ್ಕಾರಿ ಹಿರಿಯ ಪ್ರಾಥಮಿಕ ಶಾಲೆ (ಯು) ಬೈರಸಂದ್ರ",
        "operator": "Department of Education",
        "school": "primary"
      }
    },
    {
      "type": "node",
      "id": 6349390139,
      "lat": 12.9308366,
      "lon": 77.5882379,
      "tags": {
        "addr:place": "Yadiyur",
        "amenity": "school",
        "isced:level": "2",
        "name": "Tejaswini KHPS Yadiyur",
        "name:kn": "ತೇಜಸ್ವಿನಿ ಕನ್ನಡ ಹಿರಿಯ ಪ್ರಾಥಮಿಕ ಶಾಲೆ ಯಡಿಯೂರು",
        "operator": "Pvt. Aided",
        "school": "primary"
      }
    },
    {
      "type": "node",
      "id": 6349412964,
      "lat": 12.9306021,
      "lon": 77.589132,
      "tags": {
        "amenity": "school",
        "isced:level": "2",
        "name": "Adarsh KHPS",
        "name:kn": "ಆದರ್ಶ್ ಕನ್ನಡ ಹಿರಿಯ ಪ್ರಾಥಮಿಕ ಶಾಲೆ",
        "operator": "Pvt. Aided",
        "school": "primary"
      }
    },
    {
      "type": "node",
      "id": 6349430485,
      "lat": 12.9339884,
      "lon": 77.5906546,
      "tags": {
        "addr:place": "Byrasandra",
        "amenity": "school",
        "isced:level": "2",
        "name": "Shree Sangameshwara KHPS Byrasandra",
        "name:kn": "ಶ್ರೀ ಸಂಗಮೇಶ್ವರ ಕನ್ನಡ ಹಿರಿಯ ಪ್ರಾಥಮಿಕ ಶಾಲೆ ಬೈರಸಂದ್ರ",
        "operator": "Pvt. Aided",
        "school": "primary"
      }
    },
    {
      "type": "node",
      "id": 6859395260,
      "lat": 12.9342558,
      "lon": 77.5841423,
      "tags": {
        "addr:street": "3rd block",
        "amenity": "atm",
        "brand": "State Bank of India",
        "brand:wikidata": "Q1340361",
        "name": "State Bank of India",
        "opening_hours": "24/7",
        "operator": "State Bank of India",
        "operator:wikidata": "Q1340361",
        "short_name": "SBI"
      }
    },
    {
      "type": "node",
      "id": 6859400701,
      "lat": 12.9341998,
      "lon": 77.5841516,
      "tags": {
        "addr:street": "3rd block",
        "amenity": "bank",
        "brand": "State Bank of India",
        "brand:wikidata": "Q1340361",
        "name": "State Bank of India",
        "name:kn": "ಭಾರತೀಯ ಸ್ಟೇಟ್ ಬ್ಯಾಂಕ್",
        "opening_hours": "Mo-Fr 10:00-16:00",
        "short_name": "SBI"
      }
    },
    {
      "type": "node",
      "id": 6859401969,
      "lat": 12.9344119,
      "lon": 77.5837996,
      "tags": {
        "addr:street": "9th main 3rd Block",
        "name": "Green trends",
        "shop": "beauty",
        "website": "https://www.mygreentrends.in/"
      }
    },
    {
      "type": "node",
      "id": 6859403549,
      "lat": 12.934003,
      "lon": 77.5841388,
      "tags": {
        "addr:district": "Bengaluru Urban",
        "addr:full": "#1533, 9th Main,3rd Block, Jayanagar",
        "addr:postcode": "560011",
        "addr:state": "Karnataka",
        "addr:street": "3rd block",
        "addr:subdistrict": "Jayanagar",
        "amenity": "clinic",
        "description": "Maternity, Gynaecology, Pediatrics, Fertility, NICU, Emergency 24/7",
        "email": "info@cloudninecare.com",
        "healthcare:speciality": "Maternity; Gynaecology; Pediatrics; Intensive Care; Fertility; Cryonine",
        "name": "Cloud Nine, Jayanagar",
        "operator:type": "private",
        "phone": "18605009999",
        "source": "OpenGovernmentData",
        "website": "https://cloudninecare.com/"
      }
    },
    {
      "type": "node",
      "id": 6859406244,
      "lat": 12.9342412,
      "lon": 77.5828783,
      "tags": {
        "addr:street": "3rd block",
        "amenity": "restaurant",
        "name": "Pataka Mannar's"
      }
    },
    {
      "type": "node",
      "id": 6882713322,
      "lat": 12.9357448,
      "lon": 77.5938244,
      "tags": {
        "addr:city": "Bengaluru",
        "addr:district": "BENGALURU URBAN",
        "addr:full": "Jayanagar East, Byrasandra",
        "addr:postcode": "560011",
        "addr:state": "Karnataka",
        "amenity": "blood_bank",
        "contact:mobile": "9036586966",
        "contact:phone": "8026564516",
        "name": "Sanjaya Gandhi Accident Hospital and Research Institute Blood Bank",
        "opening_hours": "24/7",
        "operator:type": "government",
        "source": "OpenGovernmentData",
        "website": "http://www.sgito.org"
      }
    },
    {
      "type": "node",
      "id": 6882713323,
      "lat": 12.9372179,
      "lon": 77.5919066,
      "tags": {
        "addr:city": "Bengaluru",
        "addr:district": "BENGALURU URBAN",
        "addr:full": "South Hospital Complex, Dharamaram College Post",
        "addr:postcode": "560029",
        "addr:state": "Karnataka",
        "amenity": "blood_bank",
        "contact:mobile": "9448032867",
        "contact:phone": "8022443143",
        "fax": "080 26541799",
        "name": "Indira Gandhi Child Institute of Health Blood Bank",
        "opening_hours": "24/7",
        "operator:type": "government",
        "source": "OpenGovernmentData",
        "website": "https://www.igch.org/"
      }
    },
    {
      "type": "node",
      "id": 6938777910,
      "lat": 12.9386321,
      "lon": 77.5944105,
      "tags": {
        "addr:district": "Bengaluru Urban",
        "addr:full": "Hosur Road",
        "addr:postcode": "560029",
        "addr:state": "Karnataka",
        "amenity": "hospital",
        "email": "rmo@nimhans.kar.nic.in;ms@nimhans.kar.nic.in",
        "healthcare": "hospital",
        "name": "National Institute of Mental Health and Neuro Sciences",
        "operator:type": "government",
        "short_name": "NIMHANS",
        "source": "OpenGovernmentData",
        "website": "https://nimhans.ac.in/"
      }
    },
    {
      "type": "node",
      "id": 6938912267,
      "lat": 12.9255233,
      "lon": 77.5937748,
      "tags": {
        "addr:district": "Bengaluru Urban",
        "addr:full": "No.1156, 26th Main, 4th `T` Block, Jayanagar (Opposite 4th `T` BlockBus Depot)",
        "addr:postcode": "560041",
        "addr:state": "Karnataka",
        "amenity": "hospital",
        "email": "info@sunayanaeyehospital.com",
        "healthcare": "hospital",
        "name": "Sunayana Eye Hospital",
        "operator:type": "private",
        "source": "OpenGovernmentData",
        "website": "https://sunayanaeyehospital.com/"
      }
    },
    {
      "type": "node",
      "id": 6938986583,
      "lat": 12.9336404,
      "lon": 77.5829253,
      "tags": {
        "addr:district": "Bengaluru Urban",
        "addr:full": "Sadguru Complex No 14 27Th Cross 4Th Block West Jayanagar",
        "addr:postcode": "560011",
        "addr:state": "Karnataka",
        "amenity": "clinic",
        "name": "Ragavs Diagnostic and Research Centre Pvt Ltd",
        "source": "OpenGovernmentData"
      }
    },
    {
      "type": "node",
      "id": 6939039323,
      "lat": 12.9347671,
      "lon": 77.5873697,
      "tags": {
        "addr:district": "Bengaluru Urban",
        "addr:full": "No.24 1st Block East,Byrasandra Main Road, Near Madhavan Park",
        "addr:postcode": "560011",
        "addr:state": "Karnataka",
        "amenity": "clinic",
        "name": "Venkatagiri Nursing Home",
        "source": "OpenGovernmentData"
      }
    },
    {
      "type": "node",
      "id": 6944507654,
      "lat": 12.9292015,
      "lon": 77.5819811,
      "tags": {
        "addr:district": "Bengaluru Urban",
        "addr:full": "No 28&29, 7Th Main Diagnal Road, Jayanagar 4Th Blook",
        "addr:postcode": "560011",
        "addr:state": "Karnataka",
        "amenity": "hospital",
        "name": "Vasan Eye Care Hospital, Jayanagar",
        "source": "OpenGovernmentData"
      }
    },
    {
      "type": "node",
      "id": 7035596245,
      "lat": 12.9288084,
      "lon": 77.5837547,
      "tags": {
        "addr:city": "Bengaluru",
        "name": "Mi Home",
        "name:kn": "ಎಂ ಐ ಹೋಂ",
        "operator": "Xiaomi",
        "payment:cash": "yes",
        "payment:credit_cards": "yes",
        "payment:debit_cards": "yes",
        "shop": "mobile_phone"
      }
    },
    {
      "type": "node",
      "id": 7035947782,
      "lat": 12.9288786,
      "lon": 77.5837575,
      "tags": {
        "addr:city": "Bengaluru",
        "amenity": "restaurant",
        "cuisine": "indian;regional",
        "name": "Upahara Darshini",
        "name:kn": "ಉಪಹಾರ ದರ್ಶಿನಿ"
      }
    },
    {
      "type": "node",
      "id": 7035971836,
      "lat": 12.9303858,
      "lon": 77.5839445,
      "tags": {
        "addr:city": "Bengaluru",
        "name": "Nandini Milk Parlour",
        "operator": "KMF",
        "payment:cash": "yes",
        "shop": "dairy"
      }
    },
    {
      "type": "node",
      "id": 7114169285,
      "lat": 12.9260227,
      "lon": 77.5848386,
      "tags": {
        "addr:housenumber": "755",
        "addr:postcode": "560011",
        "addr:street": "34A Cross",
        "name": "Mivaan fine jewels",
        "shop": "jewelry"
      }
    },
    {
      "type": "node",
      "id": 7576958051,
      "lat": 12.936459,
      "lon": 77.584422,
      "tags": {
        "addr:district": "Bengaluru Urban",
        "addr:full": "Jaya Nagar East, Jayanagar, Bengaluru",
        "addr:postcode": "560011",
        "addr:state": "Karnataka",
        "amenity": "hospital",
        "healthcare": "hospital",
        "name": "Apollo Specialty Hospital",
        "source": "Local Knowledge"
      }
    },
    {
      "type": "node",
      "id": 8279529784,
      "lat": 12.9357161,
      "lon": 77.594267,
      "tags": {
        "amenity": "clinic",
        "healthcare": "clinic",
        "name": "Outpatients"
      }
    },
    {
      "type": "node",
      "id": 8285804720,
      "lat": 12.9330777,
      "lon": 77.58452,
      "tags": {
        "name": "Venus wine boutique",
        "shop": "wine"
      }
    },
    {
      "type": "node",
      "id": 8571439080,
      "lat": 12.9262295,
      "lon": 77.5848989,
      "tags": {
        "addr:city": "Bangalore",
        "addr:housename": "Chintal Plaza",
        "addr:housenumber": "51",
        "addr:postcode": "560011",
        "addr:street": "33rd Cross Road",
        "addr:suburb": "Jayanagar 4th Block",
        "amenity": "clinic",
        "healthcare": "clinic",
        "name": "SRL Diagnostics",
        "phone": "091115 91115",
        "source": "https://www.srlworld.com/",
        "website": "https://www.srlworld.com/"
      }
    },
    {
      "type": "node",
      "id": 8873771371,
      "lat": 12.9285095,
      "lon": 77.5825416,
      "tags": {
        "amenity": "cafe",
        "name": "Lassi Park"
      }
    },
    {
      "type": "node",
      "id": 8873805487,
      "lat": 12.9288008,
      "lon": 77.5829059,
      "tags": {
        "amenity": "atm",
        "brand": "Citibank",
        "brand:wikidata": "Q857063",
        "name": "Citibank",
        "operator": "Citibank",
        "operator:wikidata": "Q857063",
        "short_name": "Citi"
      }
    },
    {
      "type": "node",
      "id": 8873805759,
      "lat": 12.9288444,
      "lon": 77.5828703,
      "tags": {
        "amenity": "hospital",
        "name": "Narayan Multispeciality clinic"
      }
    },
    {
      "type": "node",
      "id": 8873812714,
      "lat": 12.9285503,
      "lon": 77.5830663,
      "tags": {
        "brand": "GM",
        "name": "GM home automation center",
        "shop": "hardware"
      }
    },
    {
      "type": "node",
      "id": 8873823525,
      "lat": 12.9285248,
      "lon": 77.5829378,
      "tags": {
        "amenity": "bank",
        "brand": "DBS"
      }
    },
    {
      "type": "node",
      "id": 9134314454,
      "lat": 12.9327712,
      "lon": 77.5840686,
      "tags": {
        "amenity": "fast_food",
        "name": "Basaveshvara Khanavali"
      }
    },
    {
      "type": "node",
      "id": 9730853893,
      "lat": 12.9355966,
      "lon": 77.5971575,
      "tags": {
        "amenity": "hospital",
        "healthcare": "hospital",
        "name": "Kidwai Cancer Institute Radiation Block"
      }
    },
    {
      "type": "node",
      "id": 9892036258,
      "lat": 12.9352141,
      "lon": 77.582936,
      "tags": {
        "amenity": "restaurant",
        "cuisine": "asian",
        "delivery": "yes",
        "name": "KUBO",
        "takeaway": "yes"
      }
    },
    {
      "type": "node",
      "id": 10244979164,
      "lat": 12.9338482,
      "lon": 77.5837728,
      "tags": {
        "addr:city": "Bangalore",
        "addr:country": "IN",
        "addr:hamlet": "Jayanagar 3rd Block",
        "addr:housenumber": "68/150/4",
        "addr:postcode": "560011",
        "addr:street": "9th Main Road",
        "addr:suburb": "Jayanagar",
        "amenity": "cafe",
        "contact:instagram": "nowboardingcafe",
        "contact:twitter": "nowboardingcafe",
        "email": "nowboardingcafe@gmail.com",
        "level": "2",
        "mobile": "7259911150",
        "name": "Now Boarding Cafe",
        "opening_hours": "Tu-Su 12:00-23:00",
        "phone": "9663568855",
        "website": "https://linktr.ee/nowboardingcafe"
      }
    },
    {
      "type": "node",
      "id": 10269214110,
      "lat": 12.9236267,
      "lon": 77.5936767,
      "tags": {
        "amenity": "restaurant",
        "name": "Pathyam Paakam",
        "wheelchair": "limited"
      }
    },
    {
      "type": "node",
      "id": 10840498305,
      "lat": 12.9306682,
      "lon": 77.5817807,
      "tags": {
        "name": "Sapna Book House",
        "shop": "books"
      }
    },
    {
      "type": "node",
      "id": 10895764739,
      "lat": 12.9265102,
      "lon": 77.5839311,
      "tags": {
        "name": "Diamond Facets",
        "shop": "jewelry"
      }
    },
    {
      "type": "node",
      "id": 11124101061,
      "lat": 12.9280849,
      "lon": 77.5837319,
      "tags": {
        "amenity": "parking_entrance",
        "parking": "multi-storey"
      }
    },
    {
      "type": "node",
      "id": 11124101063,
      "lat": 12.9285649,
      "lon": 77.5848497,
      "tags": {
        "amenity": "parking_entrance",
        "parking": "multi-storey"
      }
    },
    {
      "type": "node",
      "id": 11294646342,
      "lat": 12.936353,
      "lon": 77.5927568,
      "tags": {
        "amenity": "public_bath",
        "fee": "yes"
      }
    },
    {
      "type": "node",
      "id": 11294646349,
      "lat": 12.9293283,
      "lon": 77.5926046,
      "tags": {
        "amenity": "dentist",
        "healthcare": "dentist",
        "name": "HTM Dental Care Center"
      }
    },
    {
      "type": "node",
      "id": 11294646350,
      "lat": 12.9243224,
      "lon": 77.5951283,
      "tags": {
        "amenity": "kindergarten",
        "name": "Sudarshan Vidya Mandir Pre Primary School"
      }
    },
    {
      "type": "node",
      "id": 11294646362,
      "lat": 12.9307369,
      "lon": 77.5926549,
      "tags": {
        "amenity": "atm",
        "brand": "Karnataka Bank",
        "brand:wikidata": "Q2042632",
        "operator": "Karnataka Bank",
        "operator:wikidata": "Q2042632"
      }
    },
    {
      "type": "node",
      "id": 11294646363,
      "lat": 12.9363445,
      "lon": 77.5927599,
      "tags": {
        "access": "yes",
        "amenity": "toilets",
        "fee": "yes"
      }
    },
    {
      "type": "node",
      "id": 11313852180,
      "lat": 12.9325193,
      "lon": 77.5839611,
      "tags": {
        "brand": "Zudio",
        "brand:wikidata": "Q123375926",
        "name": "Zudio",
        "shop": "clothes"
      }
    },
    {
      "type": "node",
      "id": 11359649568,
      "lat": 12.9309224,
      "lon": 77.5821128,
      "tags": {
        "addr:housename": "Shubha-Shri Plaza",
        "addr:postcode": "560011",
        "addr:street": "27th Cross",
        "addr:suburb": "3rd block, Jayanagar",
        "name": "SR Gopal Rao",
        "phone": "08041151634, 08022451222",
        "shop": "optician"
      }
    },
    {
      "type": "node",
      "id": 11557032415,
      "lat": 12.9273559,
      "lon": 77.5861504,
      "tags": {
        "addr:housenumber": "62",
        "addr:street": "11th Main Road",
        "amenity": "cafe",
        "check_date": "2024-01-27",
        "contact:instagram": "https://www.instagram.com/kongsiteabar.in",
        "cuisine": "bubble_tea",
        "delivery": "yes",
        "name": "Kongsi Tea Bar",
        "opening_hours": "11:00-23:00"
      }
    },
    {
      "type": "node",
      "id": 12000067103,
      "lat": 12.9301591,
      "lon": 77.5828403,
      "tags": {
        "check_date": "2024-03-24",
        "name": "BuildTrack",
        "shop": "electronics"
      }
    },
    {
      "type": "node",
      "id": 12079464669,
      "lat": 12.9262158,
      "lon": 77.5853865,
      "tags": {
        "addr:city": "Bengaluru",
        "addr:district": "Bengaluru",
        "addr:housenumber": "702",
        "addr:postcode": "560011",
        "addr:street": "33rd Cross Road",
        "alt_name": "swarna abharan jewellers",
        "name": "Swarnaabharan jewellers",
        "opening_hours": "Mo-Su 10:00-20:00",
        "shop": "jewelry"
      }
    },
    {
      "type": "node",
      "id": 12079472253,
      "lat": 12.926426,
      "lon": 77.5856558,
      "tags": {
        "addr:city": "Bengaluru",
        "addr:district": "Bengaluru",
        "addr:housenumber": "529",
        "addr:postcode": "560011",
        "addr:street": "11 Main Road, Jayanagar",
        "branch": "jayanagar",
        "name": "GRT Jewellers",
        "name:kn": "ಜಿ ಆರ್ ಟಿ ಜ್ಯುವೆಲ್ಲರ್ಸ",
        "opening_hours": "Mo-Su 10:00-21:00",
        "phone": "080 2665 1515",
        "shop": "jewelry"
      }
    },
    {
      "type": "node",
      "id": 12118830314,
      "lat": 12.9287517,
      "lon": 77.586393,
      "tags": {
        "addr:street": "30th Cross Road",
        "name": "Amma's Pastries",
        "shop": "pastry"
      }
    },
    {
      "type": "node",
      "id": 12252356228,
      "lat": 12.9255563,
      "lon": 77.5952012,
      "tags": {
        "check_date": "2024-10-15",
        "contact:instagram": "junysbakehouse",
        "delivery": "only",
        "name": "Juny's Bakehouse",
        "shop": "pastry",
        "takeaway": "only"
      }
    },
    {
      "type": "node",
      "id": 12309075244,
      "lat": 12.9258756,
      "lon": 77.5894258,
      "tags": {
        "addr:housenumber": "425",
        "addr:street": "18th Main Road",
        "amenity": "cafe",
        "check_date": "2024-11-03",
        "contact:instagram": "https://www.instagram.com/katte.kulture",
        "cuisine": "coffee_shop",
        "internet_access": "yes",
        "name": "Katte Kulture",
        "opening_hours": "10:00-21:00",
        "outdoor_seating": "yes",
        "smoking": "yes",
        "toilets": "yes"
      }
    },
    {
      "type": "node",
      "id": 12491615794,
      "lat": 12.9265055,
      "lon": 77.5832362,
      "tags": {
        "amenity": "community_centre",
        "check_date": "2025-01-11",
        "community_centre": "cultural_centre",
        "name": "Jayanagar Cultural And Civic Association",
        "phone": "+91 80 2244 3953"
      }
    },
    {
      "type": "node",
      "id": 12491736750,
      "lat": 12.9259657,
      "lon": 77.5839752,
      "tags": {
        "amenity": "cafe",
        "brand": "Cafe Coffee Day",
        "brand:wikidata": "Q5017235",
        "check_date": "2025-01-11",
        "cuisine": "coffee_shop",
        "name": "Cafe Coffee Day",
        "takeaway": "yes"
      }
    },
    {
      "type": "node",
      "id": 12491756289,
      "lat": 12.925638,
      "lon": 77.5837018,
      "tags": {
        "addr:floor": "G",
        "brand": "Tanishq",
        "brand:en": "Tanishq",
        "brand:wikidata": "Q13117711",
        "check_date": "2025-01-11",
        "level": "1",
        "name": "Mia By Tanishq",
        "name:en": "Tanishq",
        "shop": "jewelry"
      }
    },
    {
      "type": "node",
      "id": 12491766742,
      "lat": 12.925784,
      "lon": 77.5839491,
      "tags": {
        "amenity": "restaurant",
        "check_date": "2025-01-11",
        "name": "Ice Cream Wonderland And Pizzeria"
      }
    },
    {
      "type": "node",
      "id": 12491766743,
      "lat": 12.9256961,
      "lon": 77.5839441,
      "tags": {
        "check_date": "2025-01-11",
        "name": "Huber And Holly",
        "shop": "clothes"
      }
    },
    {
      "type": "node",
      "id": 12491766844,
      "lat": 12.9262342,
      "lon": 77.5834146,
      "tags": {
        "amenity": "bank",
        "brand": "State Bank of India",
        "brand:wikidata": "Q1340361",
        "check_date": "2025-01-11",
        "description": "SMC jayanagar branch",
        "name": "State Bank of India",
        "short_name": "SBI"
      }
    },
    {
      "type": "node",
      "id": 12491767108,
      "lat": 12.925911,
      "lon": 77.5836627,
      "tags": {
        "amenity": "bank",
        "brand": "Kotak Mahindra Bank",
        "brand:wikidata": "Q2040404",
        "check_date": "2025-01-11",
        "name": "Kotak Mahindra Bank"
      }
    },
    {
      "type": "node",
      "id": 12492427243,
      "lat": 12.9326131,
      "lon": 77.5837943,
      "tags": {
        "name": "Reynolds",
        "shop": "musical_instrument"
      }
    },
    {
      "type": "node",
      "id": 12492566362,
      "lat": 12.9327255,
      "lon": 77.5837581,
      "tags": {
        "brand": "Oppo",
        "brand:wikidata": "Q2084900",
        "name": "Oppo",
        "shop": "mobile_phone"
      }
    },
    {
      "type": "node",
      "id": 12520149567,
      "lat": 12.9341449,
      "lon": 77.5898434,
      "tags": {
        "addr:city": "Bengaluru",
        "addr:housenumber": "9/10",
        "addr:postcode": "560011",
        "addr:street": "5th Cross, 1st Block, jayanagar East",
        "amenity": "dentist",
        "healthcare": "dentist",
        "name": "D.A Dental lab"
      }
    },
    {
      "type": "node",
      "id": 12520149568,
      "lat": 12.9341191,
      "lon": 77.5898449,
      "tags": {
        "addr:city": "Bengaluru",
        "addr:housenumber": "9/10",
        "addr:postcode": "560011",
        "addr:street": "5th Cross, 1st Block, jayanagar East",
        "name": "New Tawakal Provision Store",
        "shop": "department_store"
      }
    },
    {
      "type": "node",
      "id": 12684804806,
      "lat": 12.9261107,
      "lon": 77.5898357,
      "tags": {
        "amenity": "cafe",
        "cuisine": "coffee_shop",
        "name": "The Bloom",
        "outdoor_seating": "yes"
      }
    },
    {
      "type": "node",
      "id": 12684804807,
      "lat": 12.9257978,
      "lon": 77.5897874,
      "tags": {
        "amenity": "bank",
        "atm": "yes",
        "brand": "Punjab National Bank",
        "brand:wikidata": "Q2743499",
        "name": "Punjab National Bank"
      }
    },
    {
      "type": "node",
      "id": 12800674481,
      "lat": 12.9264814,
      "lon": 77.5846675,
      "tags": {
        "amenity": "pub",
        "level": "4",
        "name": "Brew Meister"
      }
    },
    {
      "type": "node",
      "id": 12800674482,
      "lat": 12.9264285,
      "lon": 77.5848661,
      "tags": {
        "amenity": "cafe",
        "brand": "Chai Point",
        "brand:wikidata": "Q28173415",
        "cuisine": "coffee_shop",
        "name": "Chai Point",
        "takeaway": "yes"
      }
    },
    {
      "type": "node",
      "id": 12894266887,
      "lat": 12.9264207,
      "lon": 77.5846605,
      "tags": {
        "amenity": "restaurant",
        "name": "Meghana Foods"
      }
    },
    {
      "type": "node",
      "id": 12917043437,
      "lat": 12.9268984,
      "lon": 77.5864711,
      "tags": {
        "amenity": "fast_food",
        "brand": "Krispy Kreme",
        "brand:wikidata": "Q1192805",
        "cuisine": "donut",
        "name": "Krispy Kreme",
        "takeaway": "yes"
      }
    },
    {
      "type": "node",
      "id": 12917043440,
      "lat": 12.926488,
      "lon": 77.5858261,
      "tags": {
        "brand": "Joyalukkas",
        "brand:wikidata": "Q6297357",
        "name": "Joyalukkas",
        "shop": "jewelry"
      }
    },
    {
      "type": "node",
      "id": 12917043441,
      "lat": 12.9261952,
      "lon": 77.585063,
      "tags": {
        "name": "Kandalaa House of Jewellery",
        "shop": "jewelry"
      }
    },
    {
      "type": "node",
      "id": 12917043469,
      "lat": 12.9252227,
      "lon": 77.58467,
      "tags": {
        "amenity": "cafe",
        "name": "Chikmagalur Estate Coffee"
      }
    },
    {
      "type": "node",
      "id": 13020103082,
      "lat": 12.9281585,
      "lon": 77.5838211,
      "tags": {
        "amenity": "fast_food",
        "cuisine": "indian",
        "name": "Desi Masala"
      }
    },
    {
      "type": "node",
      "id": 13020103083,
      "lat": 12.9284003,
      "lon": 77.5838841,
      "tags": {
        "access": "yes",
        "amenity": "bicycle_parking",
        "bicycle_parking": "rack",
        "capacity": "12",
        "fee": "no",
        "name": "Trin Trin",
        "operator": "DULT"
      }
    },
    {
      "type": "node",
      "id": 13119636170,
      "lat": 12.9335749,
      "lon": 77.5835766,
      "tags": {
        "addr:housenumber": "5",
        "amenity": "prep_school",
        "name": "Allen Career Institute"
      }
    },
    {
      "type": "node",
      "id": 13176265277,
      "lat": 12.935039,
      "lon": 77.5859186,
      "tags": {
        "amenity": "cafe",
        "check_date": "2025-09-28",
        "name": "Edge Cafe"
      }
    },
    {
      "type": "node",
      "id": 13176265278,
      "lat": 12.9352272,
      "lon": 77.5857294,
      "tags": {
        "amenity": "fast_food",
        "check_date": "2025-09-28",
        "cuisine": "juice",
        "name": "Juicy Bites"
      }
    },
    {
      "type": "node",
      "id": 13176398317,
      "lat": 12.9370863,
      "lon": 77.5852823,
      "tags": {
        "amenity": "fast_food",
        "brand": "Domino's",
        "brand:wikidata": "Q839466",
        "check_date": "2025-09-28",
        "cuisine": "pizza",
        "name": "Domino's",
        "takeaway": "yes"
      }
    },
    {
      "type": "node",
      "id": 13192247885,
      "lat": 12.933225,
      "lon": 77.5833782,
      "tags": {
        "amenity": "restaurant",
        "check_date": "2025-10-04",
        "name": "Andhra Ruchulu"
      }
    },
    {
      "type": "node",
      "id": 13288585225,
      "lat": 12.9269106,
      "lon": 77.5842972,
      "tags": {
        "amenity": "cafe",
        "name": "Snuzzles"
      }
    },
    {
      "type": "way",
      "id": 27446379,
      "center": {
        "lat": 12.9308657,
        "lon": 77.5902721
      },
      "tags": {
        "created_by": "Potlatch 0.10d",
        "leisure": "garden",
        "name": "LIC Colony Park"
      }
    },
    {
      "type": "way",
      "id": 27554059,
      "center": {
        "lat": 12.9298201,
        "lon": 77.5842754
      },
      "tags": {
        "building": "yes",
        "name": "Jayanagar 4th Block Shopping Complex",
        "shop": "supermarket"
      }
    },
    {
      "type": "way",
      "id": 28113416,
      "center": {
        "lat": 12.9355255,
        "lon": 77.5851717
      },
      "tags": {
        "leisure": "pitch",
        "name": "Jayanagar Basket Ball Court",
        "sport": "basketball"
      }
    },
    {
      "type": "way",
      "id": 28113425,
      "center": {
        "lat": 12.9345427,
        "lon": 77.5851834
      },
      "tags": {
        "leisure": "pitch",
        "name": "Skating Rink",
        "sport": "roller_skating"
      }
    },
    {
      "type": "way",
      "id": 28113488,
      "center": {
        "lat": 12.9340573,
        "lon": 77.5860687
      },
      "tags": {
        "leisure": "pitch",
        "sport": "cricket_nets"
      }
    },
    {
      "type": "way",
      "id": 32426679,
      "center": {
        "lat": 12.925172,
        "lon": 77.5901626
      },
      "tags": {
        "created_by": "Potlatch 0.10f",
        "leisure": "garden"
      }
    },
    {
      "type": "way",
      "id": 32426890,
      "center": {
        "lat": 12.936326,
        "lon": 77.5857155
      },
      "tags": {
        "leisure": "park",
        "name": "Madhavan Park",
        "name:kn": "ಮಾಧವನ್ ಉದ್ಯಾನವನ"
      }
    },
    {
      "type": "way",
      "id": 40629075,
      "center": {
        "lat": 12.9387001,
        "lon": 77.5859
      },
      "tags": {
        "addr:postcode": "560011",
        "addr:street": "Jayanagar 1st Block",
        "amenity": "school",
        "name": "Rani Sarla Devi School",
        "name:kn": "ರಾಣಿ ಸರಳಾದೇವಿ ಶಾಲೆ"
      }
    },
    {
      "type": "way",
      "id": 40631130,
      "center": {
        "lat": 12.9277597,
        "lon": 77.584383
      },
      "tags": {
        "amenity": "place_of_worship",
        "denomination": "sunni",
        "name": "Idgah Masjid",
        "name:kn": "ಈದ್ಗ ಮಸೀದಿ",
        "religion": "muslim"
      }
    },
    {
      "type": "way",
      "id": 40631131,
      "center": {
        "lat": 12.9261175,
        "lon": 77.592549
      },
      "tags": {
        "addr:district": "Mysore",
        "addr:full": "Near Balodhyana school Mysore, Jayanagara town Mysore, Jayanagara Main Road Mysore",
        "addr:postcode": "570014",
        "addr:state": "Karnataka",
        "amenity": "hospital",
        "contact:phone": "0821-2461158",
        "healthcare": "hospital",
        "name": "Jayanagar General Hospital",
        "name:kn": "ಸಂಜಯ್ ಗಾಂಧಿ ಆಸ್ಪತ್ರೆ",
        "operator:type": "government",
        "source": "OpenGovernmentData"
      }
    },
    {
      "type": "way",
      "id": 40631636,
      "center": {
        "lat": 12.9268815,
        "lon": 77.5996431
      },
      "tags": {
        "addr:street": "Bannerghatta Road",
        "amenity": "college",
        "landuse": "education",
        "name": "Carmel Convent PU College",
        "name:en": "Carmel Convent PU College",
        "name:kn": "ಕಾರ್ಮೆಲ್ ಕಾನ್ವೆಂಟ್"
      }
    },
    {
      "type": "way",
      "id": 40631651,
      "center": {
        "lat": 12.9251084,
        "lon": 77.5957927
      },
      "tags": {
        "leisure": "park"
      }
    },
    {
      "type": "way",
      "id": 40631652,
      "center": {
        "lat": 12.9251027,
        "lon": 77.594732
      },
      "tags": {
        "leisure": "park",
        "name": "Vishnuvardhan Park",
        "name:kn": "ವಿಷ್ಣುವರ್ಧನ ಉದ್ಯಾನವನ"
      }
    },
    {
      "type": "way",
      "id": 40631657,
      "center": {
        "lat": 12.9382871,
        "lon": 77.5899069
      },
      "tags": {
        "amenity": "hospital",
        "comment": "land reserved for building hospitals",
        "healthcare": "hospital",
        "name": "Hospital Complex"
      }
    },
    {
      "type": "way",
      "id": 40633846,
      "center": {
        "lat": 12.9270063,
        "lon": 77.5888743
      },
      "tags": {
        "amenity": "college",
        "name": "BES Educational Institutions"
      }
    },
    {
      "type": "way",
      "id": 40633850,
      "center": {
        "lat": 12.9225159,
        "lon": 77.5927214
      },
      "tags": {
        "amenity": "college",
        "name": "RV Institute of Management",
        "name:kn": "ಶಿವಾನಂದ ಶರ್ಮ ಸ್ಮಾರಕ ರಾಷ್ಟ್ರೀಯ ವಿದ್ಯಾಲಯ",
        "old_name": "Sivananda Sharma Memorial RV",
        "short_name": "SSMRV"
      }
    },
    {
      "type": "way",
      "id": 53748799,
      "center": {
        "lat": 12.9302254,
        "lon": 77.5841341
      },
      "tags": {
        "addr:city": "Jayanagar",
        "addr:district": "Bengaluru urban",
        "addr:postcode": "560011",
        "addr:street": "9th Main Road",
        "building": "yes",
        "name": "Janatha Bazaar",
        "name:kn": "ಜನತಾ ಬಜಾರ್",
        "shop": "supermarket"
      }
    },
    {
      "type": "way",
      "id": 55675140,
      "center": {
        "lat": 12.9344463,
        "lon": 77.5861407
      },
      "tags": {
        "leisure": "sports_centre",
        "name": "Jayanagar Sports Complex",
        "sport": "multi"
      }
    },
    {
      "type": "way",
      "id": 55675141,
      "center": {
        "lat": 12.9288196,
        "lon": 77.5876667
      },
      "tags": {
        "amenity": "school",
        "name": "Vivekananda School",
        "name:kn": "ವಿವೇಕಾನಂದ ಶಾಲೆ"
      }
    },
    {
      "type": "way",
      "id": 55675143,
      "center": {
        "lat": 12.9280149,
        "lon": 77.5870065
      },
      "tags": {
        "amenity": "college",
        "name": "Vijaya College",
        "name:kn": "ವಿಜಯ ಕಾಲೇಜು"
      }
    },
    {
      "type": "way",
      "id": 130871138,
      "center": {
        "lat": 12.9336401,
        "lon": 77.5892339
      },
      "tags": {
        "leisure": "park"
      }
    },
    {
      "type": "way",
      "id": 130989090,
      "center": {
        "lat": 12.92835,
        "lon": 77.5834362
      },
      "tags": {
        "amenity": "place_of_worship",
        "landuse": "religious",
        "name": "Shri Dharmanath Shwetambar Jain Temple",
        "name:kn": "ಜೈನ ದೇವಸ್ಥಾನ",
        "religion": "jain"
      }
    },
    {
      "type": "way",
      "id": 130989411,
      "center": {
        "lat": 12.933394,
        "lon": 77.5853862
      },
      "tags": {
        "amenity": "clubhouse",
        "name": "Cosmopolitan Club"
      }
    },
    {
      "type": "way",
      "id": 131396829,
      "center": {
        "lat": 12.9388722,
        "lon": 77.5923803
      },
      "tags": {
        "amenity": "police",
        "name": "Siddapura Police Station",
        "name:kn": "ಸಿದ್ದಾಪುರ ಆರಕ್ಷಕ ಠಾಣೆ"
      }
    },
    {
      "type": "way",
      "id": 131441261,
      "center": {
        "lat": 12.9323472,
        "lon": 77.5814061
      },
      "tags": {
        "amenity": "college",
        "name": "NMKRV College",
        "name:kn": "ಎನ್ಎಮ್ ಕೆ ಆರ್ ವಿ ಕಾಲೇಜು"
      }
    },
    {
      "type": "way",
      "id": 131594245,
      "center": {
        "lat": 12.9334073,
        "lon": 77.5837142
      },
      "tags": {
        "addr:postcode": "560011",
        "addr:street": "Elephant Cave Road",
        "amenity": "bank",
        "atm": "yes",
        "brand": "Canara Bank",
        "brand:en": "Canara Bank",
        "brand:hi": "केनरा बैंक",
        "brand:kn": "ಕೆನರಾ ಬ್ಯಾಂಕ್",
        "brand:pa": "ਕੇਨਰਾ ਬੈਂਕ",
        "brand:pnb": "کینرا بینک",
        "brand:ur": "کینرا بینک",
        "brand:wikidata": "Q2003777",
        "building": "yes",
        "name": "Canara Bank",
        "name:en": "Canara Bank",
        "name:hi": "केनरा बैंक",
        "name:kn": "ಕೆನರಾ ಬ್ಯಾಂಕ್",
        "name:pa": "ਕੇਨਰਾ ਬੈਂਕ",
        "name:pnb": "کینرا بینک",
        "name:ur": "کینرا بینک"
      }
    },
    {
      "type": "way",
      "id": 131610640,
      "center": {
        "lat": 12.9288628,
        "lon": 77.5955361
      },
      "tags": {
        "amenity": "place_of_worship",
        "denomination": "sunni",
        "religion": "muslim"
      }
    },
    {
      "type": "way",
      "id": 131610641,
      "center": {
        "lat": 12.9278275,
        "lon": 77.5938058
      },
      "tags": {
        "amenity": "place_of_worship",
        "denomination": "sunni",
        "religion": "muslim"
      }
    },
    {
      "type": "way",
      "id": 133260584,
      "center": {
        "lat": 12.9304815,
        "lon": 77.5910291
      },
      "tags": {
        "amenity": "public_building",
        "building": "yes",
        "name": "BBMP Contact Center"
      }
    },
    {
      "type": "way",
      "id": 133260676,
      "center": {
        "lat": 12.9306049,
        "lon": 77.5908028
      },
      "tags": {
        "amenity": "library",
        "name": "Central Library Bangalore South Zone",
        "name:kn": "ಕೇಂದ್ರ ಗ್ರಂಥಾಲಯ"
      }
    },
    {
      "type": "way",
      "id": 133962070,
      "center": {
        "lat": 12.9288903,
        "lon": 77.5821155
      },
      "tags": {
        "amenity": "place_of_worship",
        "name": "Ganesha Temple, Jayanagar 4th Block",
        "name:kn": "ಗಣೇಶ ದೇವಸ್ಥಾನ",
        "religion": "hindu"
      }
    },
    {
      "type": "way",
      "id": 170692946,
      "center": {
        "lat": 12.9327362,
        "lon": 77.5862595
      },
      "tags": {
        "brand": "Tanishq",
        "brand:en": "Tanishq",
        "brand:wikidata": "Q13117711",
        "building": "yes",
        "name": "Tanishq",
        "name:en": "Tanishq",
        "shop": "jewelry",
        "wheelchair": "no"
      }
    },
    {
      "type": "way",
      "id": 239738394,
      "center": {
        "lat": 12.9357539,
        "lon": 77.6001395
      },
      "tags": {
        "amenity": "college",
        "name": "Government Technical Industrial Institute"
      }
    },
    {
      "type": "way",
      "id": 239738396,
      "center": {
        "lat": 12.9331301,
        "lon": 77.5980883
      },
      "tags": {
        "amenity": "college",
        "name": "Fire Service Campus",
        "name:kn": "ಅಗ್ನಿ ಸೇವಾ ಆವರಣ"
      }
    },
    {
      "type": "way",
      "id": 239738408,
      "center": {
        "lat": 12.936526,
        "lon": 77.5981388
      },
      "tags": {
        "addr:district": "Bengaluru Urban",
        "addr:full": "Dr.M.H Marigowda Road",
        "addr:postcode": "560 029",
        "addr:state": "Karnataka",
        "amenity": "hospital",
        "emergency": "yes",
        "healthcare": "hospital",
        "healthcare:speciality": "oncology",
        "name": "Kidwai Memorial Institute of Oncology",
        "name:etymology:wikidata": "Q7282619",
        "operator:type": "private",
        "source": "OpenGovernmentData",
        "website": "https://www.kidwai.kar.nic.in/",
        "wikidata": "Q6405058",
        "wikipedia": "en:Kidwai Memorial Institute of Oncology"
      }
    },
    {
      "type": "way",
      "id": 296669392,
      "center": {
        "lat": 12.9251618,
        "lon": 77.5913106
      },
      "tags": {
        "landuse": "recreation_ground",
        "leisure": "park"
      }
    },
    {
      "type": "way",
      "id": 306861065,
      "center": {
        "lat": 12.9362818,
        "lon": 77.5843424
      },
      "tags": {
        "addr:district": "Bengaluru Urban",
        "addr:full": "21/2, 14th Cross, 3rd Block, Jayanagar",
        "addr:postcode": "560011",
        "addr:state": "Karnataka",
        "amenity": "hospital",
        "building": "yes",
        "building:levels": "6",
        "email": "customercarebengaluru@apollohospitals.com",
        "healthcare": "hospital",
        "healthcare:speciality": "Cardiac surgery; General and Gastro-intestinal surgery; Gynecology; Pediatric surgery; Thoracic surgery; Urology; Colorectal surgery; Cancer surgery; Orthopedics; Neurosurgery and Ear; Nose and Throat surgery",
        "name": "Apollo Speciality Hospital",
        "name:kn": "ಅಪೋಲೋ ಆಸ್ಪತ್ರೆ",
        "operator:type": "private",
        "source": "OpenGovernmentData",
        "website": "https://www.apollohospitals.com/"
      }
    },
    {
      "type": "way",
      "id": 320845831,
      "center": {
        "lat": 12.9340581,
        "lon": 77.5851749
      },
      "tags": {
        "leisure": "pitch",
        "name": "Volleyball Court",
        "name:kn": "ವಾಲಿಬಾಲ್ ಅಂಗಣ",
        "sport": "volleyball"
      }
    },
    {
      "type": "way",
      "id": 320845832,
      "center": {
        "lat": 12.9332516,
        "lon": 77.5868984
      },
      "tags": {
        "access": "yes",
        "leisure": "swimming_pool",
        "name": "PM Swimming Pool",
        "sport": "swimming"
      }
    },
    {
      "type": "way",
      "id": 334493050,
      "center": {
        "lat": 12.9356389,
        "lon": 77.5935945
      },
      "tags": {
        "amenity": "hospital",
        "emergency": "yes",
        "healthcare": "hospital",
        "name": "Sanjay Gandhi Accident and Trauma Hospital",
        "name:etymology:wikidata": "Q730045",
        "name:kn": "ಸಂಜಯ ಗಾಂಧಿ ಆಸ್ಪತ್ರೆ"
      }
    },
    {
      "type": "way",
      "id": 334493056,
      "center": {
        "lat": 12.9357711,
        "lon": 77.5939433
      },
      "tags": {
        "amenity": "hospital",
        "building": "yes",
        "emergency": "yes",
        "healthcare": "hospital",
        "name": "Sanjay Gandhi Accident and Trauma Hospital",
        "name:etymology:wikidata": "Q730045",
        "name:kn": "ಸಂಜಯ ಗಾಂಧಿ ಆಸ್ಪತ್ರೆ"
      }
    },
    {
      "type": "way",
      "id": 347121408,
      "center": {
        "lat": 12.9265118,
        "lon": 77.5842297
      },
      "tags": {
        "building": "retail",
        "name": "Navaratan",
        "shop": "jewelry"
      }
    },
    {
      "type": "way",
      "id": 347186904,
      "center": {
        "lat": 12.925159,
        "lon": 77.5898394
      },
      "tags": {
        "building": "yes",
        "leisure": "sports_centre",
        "sport": "badminton"
      }
    },
    {
      "type": "way",
      "id": 347187218,
      "center": {
        "lat": 12.925168,
        "lon": 77.590854
      },
      "tags": {
        "amenity": "place_of_worship",
        "building": "yes",
        "denomination": "shaivism",
        "name": "Shakti Ganapathi Temple",
        "name:kn": "ಗಣಪತಿ ದೇವಸ್ಥಾನ",
        "religion": "hindu"
      }
    },
    {
      "type": "way",
      "id": 347187398,
      "center": {
        "lat": 12.9278436,
        "lon": 77.5914508
      },
      "tags": {
        "amenity": "place_of_worship",
        "building": "yes",
        "denomination": "shaivism",
        "religion": "hindu"
      }
    },
    {
      "type": "way",
      "id": 347187836,
      "center": {
        "lat": 12.9279948,
        "lon": 77.5894064
      },
      "tags": {
        "amenity": "hospital",
        "building": "yes",
        "name": "ESI Hospital",
        "name:kn": "ಇಎಸ್ಐ ಆಸ್ಪತ್ರೆ"
      }
    },
    {
      "type": "way",
      "id": 347208595,
      "center": {
        "lat": 12.9272428,
        "lon": 77.5918053
      },
      "tags": {
        "amenity": "place_of_worship",
        "building": "yes",
        "religion": "christian"
      }
    },
    {
      "type": "way",
      "id": 347449274,
      "center": {
        "lat": 12.9343637,
        "lon": 77.589961
      },
      "tags": {
        "amenity": "clinic",
        "building": "yes",
        "name": "Dental Clinic"
      }
    },
    {
      "type": "way",
      "id": 347488024,
      "center": {
        "lat": 12.9288456,
        "lon": 77.5971454
      },
      "tags": {
        "addr:city": "Bengaluru",
        "addr:postcode": "560029",
        "addr:street": "SR Krishnappa Garden, Hombegowda Nagar,",
        "amenity": "place_of_worship",
        "building": "yes",
        "denomination": "sunni",
        "name": "Masjid-e-Husna",
        "name:kn": "ಮಸ್ಜಿದ್ ಎ ಹುಸ್ನ",
        "religion": "muslim"
      }
    },
    {
      "type": "way",
      "id": 347533784,
      "center": {
        "lat": 12.9285064,
        "lon": 77.5879817
      },
      "tags": {
        "amenity": "school",
        "name": "National Public School Jayanagar",
        "name:kn": "ರಾಷ್ಟ್ರೀಯ ಸಾರ್ವಜನಿಕ ಶಾಲೆ ಜಯನಗರ"
      }
    },
    {
      "type": "way",
      "id": 347534357,
      "center": {
        "lat": 12.927462,
        "lon": 77.5879362
      },
      "tags": {
        "amenity": "place_of_worship",
        "name": "Christha Prabhalaya Epiphany Church",
        "name:kn": "ಪ್ರಭಾಲಯ ಚರ್ಚ್",
        "religion": "christian"
      }
    },
    {
      "type": "way",
      "id": 349513121,
      "center": {
        "lat": 12.9226076,
        "lon": 77.5932038
      },
      "tags": {
        "amenity": "restaurant",
        "building": "yes",
        "cuisine": "south_Indian",
        "name": "Taaza Tindi"
      }
    },
    {
      "type": "way",
      "id": 349513865,
      "center": {
        "lat": 12.9227465,
        "lon": 77.5932002
      },
      "tags": {
        "amenity": "bank",
        "brand": "HDFC Bank",
        "brand:wikidata": "Q631047",
        "brand:wikipedia": "en:HDFC Bank",
        "building": "yes",
        "name": "HDFC Bank",
        "name:kn": "ಎಚ್ ಡಿ ಎಫ್ ಸಿ",
        "short_name": "HDFC",
        "website": "https://www.hdfcbank.com"
      }
    },
    {
      "type": "way",
      "id": 442048030,
      "center": {
        "lat": 12.9279005,
        "lon": 77.5998446
      },
      "tags": {
        "addr:district": "Bengaluru Urban",
        "addr:full": "#44, 54, 30th Cross Rd, Bannerughatta Approach Road Layout, 4th T Block East, Tilak Nagar, Jayanagar,",
        "addr:postcode": "560041",
        "addr:state": "Karnataka",
        "amenity": "hospital",
        "email": "infojnr@sagarhospitals.in",
        "emergency": "yes",
        "healthcare": "hospital",
        "name": "Sagar Hospitals",
        "name:kn": "ಸಾಗರ್ ಆಸ್ಪತ್ರೆ",
        "operator:type": "private",
        "phone": "08042888888",
        "source": "OpenGovernmentData",
        "website": "http://www.sagarhospitals.in/"
      }
    },
    {
      "type": "way",
      "id": 501700870,
      "center": {
        "lat": 12.9371517,
        "lon": 77.5919106
      },
      "tags": {
        "addr:district": "Bengaluru Urban",
        "addr:full": "South Hospital Complex Dharmaram College Post Bangalor",
        "addr:postcode": "560029",
        "addr:state": "Karnataka",
        "amenity": "clinic",
        "healthcare": "clinic",
        "name": "Indira Gandhi Institute Of Child Health",
        "name:etymology:wikidata": "Q1149",
        "source": "OpenGovernmentData",
        "wikidata": "Q28932753",
        "wikipedia": "en:Indira Gandhi Institute of Child Health, Bangalore"
      }
    },
    {
      "type": "way",
      "id": 521582239,
      "center": {
        "lat": 12.9283983,
        "lon": 77.591163
      },
      "tags": {
        "amenity": "toilets"
      }
    },
    {
      "type": "way",
      "id": 521592163,
      "center": {
        "lat": 12.925358,
        "lon": 77.5940216
      },
      "tags": {
        "amenity": "school",
        "name": "Sudarshan Vidya Mandir"
      }
    },
    {
      "type": "way",
      "id": 752917438,
      "center": {
        "lat": 12.9282487,
        "lon": 77.5843406
      },
      "tags": {
        "addr:city": "Bengaluru",
        "amenity": "bus_station",
        "building": "yes",
        "bus": "yes",
        "level": "3",
        "name": "Jayanagar TTMC",
        "operator": "BMTC",
        "public_transport": "station"
      }
    },
    {
      "type": "way",
      "id": 755822416,
      "center": {
        "lat": 12.9260471,
        "lon": 77.5981082
      },
      "tags": {
        "leisure": "park"
      }
    },
    {
      "type": "way",
      "id": 788256779,
      "center": {
        "lat": 12.9337951,
        "lon": 77.600289
      },
      "tags": {
        "amenity": "fire_station",
        "name": "Jayanagara Fire Station",
        "name:kn": "ಫೈರ್ ಅಂಡ್ ತುರ್ತು ಸೇವೆಗಳು ಅಕಾಡೆಮಿ",
        "name:ta": "ஜெயாநகர் தீயணைப்பு நிலையம்"
      }
    },
    {
      "type": "way",
      "id": 926854576,
      "center": {
        "lat": 12.9335611,
        "lon": 77.5851561
      },
      "tags": {
        "leisure": "pitch",
        "sport": "tennis"
      }
    },
    {
      "type": "way",
      "id": 926854577,
      "center": {
        "lat": 12.9335582,
        "lon": 77.5852929
      },
      "tags": {
        "leisure": "pitch",
        "sport": "tennis"
      }
    },
    {
      "type": "way",
      "id": 1062025932,
      "center": {
        "lat": 12.9251683,
        "lon": 77.5899996
      },
      "tags": {
        "leisure": "pitch",
        "name": "Basket Ball Training",
        "sport": "basketball"
      }
    },
    {
      "type": "way",
      "id": 1080795066,
      "center": {
        "lat": 12.9373112,
        "lon": 77.5934888
      },
      "tags": {
        "amenity": "parking",
        "parking": "surface"
      }
    },
    {
      "type": "way",
      "id": 1172683417,
      "center": {
        "lat": 12.9261379,
        "lon": 77.5842872
      },
      "tags": {
        "building": "retail",
        "name": "PMJ Jewelers",
        "shop": "jewelry"
      }
    },
    {
      "type": "way",
      "id": 1199655576,
      "center": {
        "lat": 12.9267471,
        "lon": 77.596997
      },
      "tags": {
        "amenity": "bank",
        "atm": "yes",
        "brand": "Bank of Baroda",
        "brand:wikidata": "Q2003797",
        "brand:wikipedia": "en:Bank of Baroda",
        "name": "Bank of Baroda",
        "name:en": "Bank of Baroda",
        "name:kn": "ಬ್ಯಾಂಕ್ ಆಫ್ ಬರೊಡಾ",
        "short_name": "BOB",
        "website": "http://www.bankofbaroda.com"
      }
    },
    {
      "type": "way",
      "id": 1199657418,
      "center": {
        "lat": 12.9252406,
        "lon": 77.5961825
      },
      "tags": {
        "name": "Nandini",
        "name:kn": "ನಂದಿನಿ",
        "shop": "dairy"
      }
    },
    {
      "type": "way",
      "id": 1199657419,
      "center": {
        "lat": 12.925006,
        "lon": 77.5953767
      },
      "tags": {
        "amenity": "toilets",
        "fee": "yes"
      }
    },
    {
      "type": "way",
      "id": 1242203386,
      "center": {
        "lat": 12.9264705,
        "lon": 77.5978168
      },
      "tags": {
        "addr:street": "Bannerghatta Road",
        "amenity": "school",
        "landuse": "education",
        "name": "Lourdes Convent School"
      }
    },
    {
      "type": "way",
      "id": 1242203388,
      "center": {
        "lat": 12.9272459,
        "lon": 77.5980996
      },
      "tags": {
        "addr:street": "Bannerghatta Road",
        "amenity": "school",
        "landuse": "education",
        "name": "Carmel Convent School",
        "name:kn": "ಕಾರ್ಮೆಲ್ ಕಾನ್ವೆಂಟ್ ಶಾಲೆ"
      }
    },
    {
      "type": "way",
      "id": 1242203393,
      "center": {
        "lat": 12.9311623,
        "lon": 77.5976836
      },
      "tags": {
        "leisure": "park"
      }
    },
    {
      "type": "way",
      "id": 1242203419,
      "center": {
        "lat": 12.9289418,
        "lon": 77.5913637
      },
      "tags": {
        "name": "Garuda Swagath Mall",
        "name:kn": "ಗರುಡ ಸ್ವಾಗತ್ ಮಾಲ್",
        "shop": "mall"
      }
    },
    {
      "type": "way",
      "id": 1242203428,
      "center": {
        "lat": 12.9304914,
        "lon": 77.5954162
      },
      "tags": {
        "leisure": "park",
        "name": "Byrasandra Lake Park"
      }
    },
    {
      "type": "way",
      "id": 1256457817,
      "center": {
        "lat": 12.9252987,
        "lon": 77.5839415
      },
      "tags": {
        "amenity": "fuel",
        "brand": "Bharath Petroleum",
        "compressed_air": "yes",
        "source": "gps"
      }
    },
    {
      "type": "way",
      "id": 1256457833,
      "center": {
        "lat": 12.9273417,
        "lon": 77.5865998
      },
      "tags": {
        "amenity": "school",
        "name": "Geeta HPS",
        "name:kn": "ಗೀತ ಹಿರಿಯ ಪ್ರಾಥಮಿಕ ಶಾಲೆ"
      }
    },
    {
      "type": "way",
      "id": 1293666175,
      "center": {
        "lat": 12.9333757,
        "lon": 77.5866482
      },
      "tags": {
        "access": "yes",
        "leisure": "swimming_pool",
        "name": "PM Swimming Pool",
        "sport": "swimming"
      }
    },
    {
      "type": "way",
      "id": 1293666176,
      "center": {
        "lat": 12.9392039,
        "lon": 77.590699
      },
      "tags": {
        "access": "permissive",
        "amenity": "parking",
        "parking": "surface"
      }
    },
    {
      "type": "way",
      "id": 1314853573,
      "center": {
        "lat": 12.9368813,
        "lon": 77.5848296
      },
      "tags": {
        "addr:street": "Rani Sarla Devi Circle",
        "amenity": "fuel",
        "brand": "Indian Oil",
        "brand:wikidata": "Q1289348",
        "name": "Mahashakthi Enterprises"
      }
    },
    {
      "type": "way",
      "id": 1395462316,
      "center": {
        "lat": 12.9268959,
        "lon": 77.5832353
      },
      "tags": {
        "amenity": "college",
        "name": "RV Dental College"
      }
    },
    {
      "type": "way",
      "id": 1422508733,
      "center": {
        "lat": 12.9274853,
        "lon": 77.5894444
      },
      "tags": {
        "amenity": "fuel",
        "brand": "Hindustan Petoleum",
        "fuel": "lpg",
        "fuel:lpg": "yes",
        "name": "Advaitha Petrol Bunk",
        "name:kn": "ಅಧ್ವೈತ ಪೆಟ್ರೊಲ್ ಬಂಕ್",
        "note": "non functional"
      }
    }
  ]
}