{
  "area_name": "Carmelaram",
  "osm_id": 1457470082,
  "osm_type": "node",
  "place_type": "suburb",
  "amenity_count": 99,
  "amenities": [
    {
      "type": "node",
      "id": 1437213383,
      "lat": 12.9111263,
      "lon": 77.7073377,
      "tags": {
        "amenity": "hospital",
        "name": "Karunalayam Hospital"
      }
    },
    {
      "type": "node",
      "id": 4285331389,
      "lat": 12.9072688,
      "lon": 77.7053533,
      "tags": {
        "name": "Sri Venkateswara Bakery and Travels",
        "shop": "bakery"
      }
    },
    {
      "type": "node",
      "id": 4441715692,
      "lat": 12.9151576,
      "lon": 77.6995704,
      "tags": {
        "addr:city": "Bengaluru",
        "addr:housenumber": "3/1",
        "addr:postcode": "560035",
        "addr:street": "Sarjapur Main Road, Carmelaram, Hadosiddapura, Chikkakannalli",
        "amenity": "clinic",
        "healthcare": "clinic",
        "name": "Carewell Homoeo Clinic",
        "phone": "+91-96631 22267"
      }
    },
    {
      "type": "node",
      "id": 4604108887,
      "lat": 12.9027454,
      "lon": 77.7057357,
      "tags": {
        "addr:city": "bangalore",
        "addr:postcode": "560035",
        "addr:street": "Sarjapur Road",
        "amenity": "restaurant",
        "capacity": "50",
        "cuisine": "indian",
        "delivery": "yes",
        "name": "Birbal Darbar",
        "outdoor_seating": "yes",
        "smoking": "no",
        "takeaway": "yes"
      }
    },
    {
      "type": "node",
      "id": 4705492766,
      "lat": 12.9033071,
      "lon": 77.7021218,
      "tags": {
        "shop": "bakery"
      }
    },
    {
      "type": "node",
      "id": 5536178775,
      "lat": 12.9038833,
      "lon": 77.7028121,
      "tags": {
        "name": "puncture shop",
        "shop": "car_repair"
      }
    },
    {
      "type": "node",
      "id": 7436685277,
      "lat": 12.9130518,
      "lon": 77.6999194,
      "tags": {
        "addr:city": "Bangalore",
        "addr:housenumber": "132, 4th B Cross",
        "addr:postcode": "560035",
        "addr:street": "Janatha Colony, Doddakannelli",
        "amenity": "restaurant",
        "cuisine": "regional",
        "name": "Good Food Kitchen",
        "opening_hours": "Mo-Su 08:00-20:00"
      }
    },
    {
      "type": "node",
      "id": 9822939186,
      "lat": 12.9035421,
      "lon": 77.7041666,
      "tags": {
        "amenity": "atm",
        "brand": "ICICI Bank",
        "brand:wikidata": "Q1653258",
        "cash_in": "no",
        "name": "ICICI Bank",
        "operator": "ICICI Bank",
        "operator:wikidata": "Q1653258",
        "short_name": "ICICI"
      }
    },
    {
      "type": "node",
      "id": 9822939187,
      "lat": 12.9035159,
      "lon": 77.7043494,
      "tags": {
        "amenity": "restaurant",
        "name": "Athithi Grand"
      }
    },
    {
      "type": "node",
      "id": 9822939188,
      "lat": 12.9035474,
      "lon": 77.7042967,
      "tags": {
        "indoor_seating": "yes",
        "name": "Just Bake",
        "outdoor_seating": "no",
        "shop": "bakery"
      }
    },
    {
      "type": "node",
      "id": 9822939189,
      "lat": 12.9035704,
      "lon": 77.7042548,
      "tags": {
        "amenity": "pharmacy",
        "dispensing": "yes",
        "healthcare": "pharmacy",
        "name": "Jayarekha Medicals"
      }
    },
    {
      "type": "node",
      "id": 9828595269,
      "lat": 12.915418,
      "lon": 77.6987688,
      "tags": {
        "amenity": "pharmacy",
        "brand": "Apollo Pharmacy",
        "brand:wikidata": "Q62562612",
        "dispensing": "yes",
        "healthcare": "pharmacy",
        "name": "Apollo Pharmacy",
        "wheelchair": "no"
      }
    },
    {
      "type": "node",
      "id": 9830902288,
      "lat": 12.9036602,
      "lon": 77.7042327,
      "tags": {
        "amenity": "ice_cream"
      }
    },
    {
      "type": "node",
      "id": 10564184364,
      "lat": 12.9107639,
      "lon": 77.6982487,
      "tags": {
        "amenity": "school",
        "check_date": "2023-01-18",
        "name": "Anjadari High School",
        "source": "survey"
      }
    },
    {
      "type": "node",
      "id": 10564184365,
      "lat": 12.9121316,
      "lon": 77.6981917,
      "tags": {
        "amenity": "place_of_worship",
        "check_date": "2023-01-18",
        "religion": "hindu",
        "source": "survey"
      }
    },
    {
      "type": "node",
      "id": 10564184366,
      "lat": 12.9130116,
      "lon": 77.6985546,
      "tags": {
        "amenity": "atm",
        "brand": "HDFC Bank",
        "brand:wikidata": "Q631047",
        "cash_in": "no",
        "check_date": "2023-01-18",
        "name": "HDFC Bank",
        "name:kn": "ಎಚ್ ಡಿ ಎಫ್ ಸಿ",
        "operator": "HDFC Bank",
        "operator:wikidata": "Q631047",
        "short_name": "HDFC",
        "source": "survey"
      }
    },
    {
      "type": "node",
      "id": 10564871673,
      "lat": 12.9107638,
      "lon": 77.6982487,
      "tags": {
        "amenity": "school",
        "check_date": "2023-01-18",
        "name": "Anjanadri High School",
        "source": "survey"
      }
    },
    {
      "type": "node",
      "id": 10701069566,
      "lat": 12.903815,
      "lon": 77.7039583,
      "tags": {
        "brand": "Reliance Trends",
        "name": "Reliance Trends",
        "payment:credit_cards": "yes",
        "payment:debit_cards": "yes",
        "shop": "clothes",
        "wheelchair": "no"
      }
    },
    {
      "type": "node",
      "id": 10701069567,
      "lat": 12.9045574,
      "lon": 77.704281,
      "tags": {
        "amenity": "restaurant",
        "cuisine": "pizza",
        "name": "La Pino's Pizza"
      }
    },
    {
      "type": "node",
      "id": 11331522313,
      "lat": 12.9106359,
      "lon": 77.6976886,
      "tags": {
        "amenity": "restaurant",
        "name": "Dua's Cafe"
      }
    },
    {
      "type": "node",
      "id": 12129019644,
      "lat": 12.91247,
      "lon": 77.7129024,
      "tags": {
        "amenity": "restaurant",
        "name": "Urban Dyne"
      }
    },
    {
      "type": "node",
      "id": 12553383591,
      "lat": 12.9158584,
      "lon": 77.6989689,
      "tags": {
        "amenity": "pharmacy",
        "healthcare": "pharmacy",
        "name": "Ramadev Medical"
      }
    },
    {
      "type": "node",
      "id": 12802387304,
      "lat": 12.9099976,
      "lon": 77.712373,
      "tags": {
        "name": "MSSR nursery",
        "shop": "garden_centre"
      }
    },
    {
      "type": "node",
      "id": 12862846439,
      "lat": 12.902995,
      "lon": 77.704353,
      "tags": {
        "amenity": "fast_food",
        "cuisine": "burger",
        "delivery": "yes",
        "name": "Original Burger Co.",
        "takeaway": "yes"
      }
    },
    {
      "type": "node",
      "id": 13130382859,
      "lat": 12.9053216,
      "lon": 77.704949,
      "tags": {
        "access": "private",
        "amenity": "parking_entrance",
        "parking": "underground"
      }
    },
    {
      "type": "node",
      "id": 13131526574,
      "lat": 12.9032999,
      "lon": 77.710359,
      "tags": {
        "access": "private",
        "amenity": "parking_entrance",
        "parking": "underground"
      }
    },
    {
      "type": "node",
      "id": 13131526610,
      "lat": 12.9037143,
      "lon": 77.7072215,
      "tags": {
        "access": "private",
        "amenity": "parking_entrance",
        "parking": "underground"
      }
    },
    {
      "type": "way",
      "id": 318030809,
      "center": {
        "lat": 12.9073227,
        "lon": 77.716133
      },
      "tags": {
        "amenity": "school",
        "full_name": "National Public School Sarjapur",
        "name": "NPS Sarjapur"
      }
    },
    {
      "type": "way",
      "id": 450537529,
      "center": {
        "lat": 12.9068399,
        "lon": 77.7047623
      },
      "tags": {
        "amenity": "school",
        "name": "Sapthagiri Vidya Mandir"
      }
    },
    {
      "type": "way",
      "id": 525512832,
      "center": {
        "lat": 12.9140742,
        "lon": 77.7112185
      },
      "tags": {
        "amenity": "place_of_worship",
        "branch": "Carmelaram",
        "name": "Mount Carmel Forane Church",
        "name:kn": "ಚರ್ಚ್",
        "religion": "christian"
      }
    },
    {
      "type": "way",
      "id": 692376260,
      "center": {
        "lat": 12.906833,
        "lon": 77.6992781
      },
      "tags": {
        "leisure": "sports_centre",
        "name": "Simba Sports",
        "sport": "tennis;soccer"
      }
    },
    {
      "type": "way",
      "id": 692376271,
      "center": {
        "lat": 12.9040282,
        "lon": 77.7047725
      },
      "tags": {
        "brand": "DMart",
        "brand:wikidata": "Q5203271",
        "building": "yes",
        "name": "DMart",
        "shop": "supermarket"
      }
    },
    {
      "type": "way",
      "id": 692376273,
      "center": {
        "lat": 12.9023855,
        "lon": 77.7049469
      },
      "tags": {
        "leisure": "garden"
      }
    },
    {
      "type": "way",
      "id": 1070342505,
      "center": {
        "lat": 12.9027012,
        "lon": 77.7042133
      },
      "tags": {
        "air_conditioning": "yes",
        "amenity": "restaurant",
        "building": "yes",
        "diet:vegetarian": "yes",
        "indoor_seating": "yes",
        "name": "Street 1522",
        "outdoor_seating": "yes",
        "smoking": "separated",
        "website": "https://www.street1522.com/"
      }
    },
    {
      "type": "way",
      "id": 1070342520,
      "center": {
        "lat": 12.905189,
        "lon": 77.7057643
      },
      "tags": {
        "leisure": "swimming_pool"
      }
    },
    {
      "type": "way",
      "id": 1070342522,
      "center": {
        "lat": 12.9081953,
        "lon": 77.7054184
      },
      "tags": {
        "building": "yes",
        "name": "Food Palace",
        "shop": "supermarket",
        "source": "microsoft/BuildingFootprints"
      }
    },
    {
      "type": "way",
      "id": 1070342527,
      "center": {
        "lat": 12.9048912,
        "lon": 77.7031121
      },
      "tags": {
        "leisure": "swimming_pool"
      }
    },
    {
      "type": "way",
      "id": 1070483756,
      "center": {
        "lat": 12.9060056,
        "lon": 77.6999816
      },
      "tags": {
        "amenity": "restaurant",
        "building": "yes",
        "name": "Bearful"
      }
    },
    {
      "type": "way",
      "id": 1070825908,
      "center": {
        "lat": 12.9048171,
        "lon": 77.7070213
      },
      "tags": {
        "access": "private",
        "leisure": "swimming_pool",
        "location": "outdoor",
        "swimming_pool": "outdoor"
      }
    },
    {
      "type": "way",
      "id": 1088209012,
      "center": {
        "lat": 12.9129825,
        "lon": 77.7085325
      },
      "tags": {
        "amenity": "college",
        "name": "Carmelaram Theology College"
      }
    },
    {
      "type": "way",
      "id": 1088209013,
      "center": {
        "lat": 12.9117929,
        "lon": 77.7083708
      },
      "tags": {
        "amenity": "school",
        "name": "Adhyatama Vidhya Peetham",
        "name:kn": "ಆಧ್ಯಾತ್ಮ ವಿದ್ಯ ಪೀಠ"
      }
    },
    {
      "type": "way",
      "id": 1088209014,
      "center": {
        "lat": 12.9124518,
        "lon": 77.7073435
      },
      "tags": {
        "amenity": "community_centre",
        "community_centre:for": "senior",
        "name": "Asha Bhavan"
      }
    },
    {
      "type": "way",
      "id": 1088209015,
      "center": {
        "lat": 12.9112661,
        "lon": 77.7075837
      },
      "tags": {
        "amenity": "hospital",
        "name": "Karunalayam Hospital",
        "name:kn": "ಕರುಣಾಲಯಂ ಆಸ್ಪತ್ರೆ"
      }
    },
    {
      "type": "way",
      "id": 1088209016,
      "center": {
        "lat": 12.9104666,
        "lon": 77.7069506
      },
      "tags": {
        "amenity": "college",
        "name": "Karunalayam Convent",
        "name:kn": "ಕರುಣಾಲಯಂ ಕಾನ್ವೆಂಟ್"
      }
    },
    {
      "type": "way",
      "id": 1088209017,
      "center": {
        "lat": 12.9091775,
        "lon": 77.7066596
      },
      "tags": {
        "amenity": "monastery",
        "landuse": "religious",
        "name": "Rosarian Monastery",
        "religion": "christian"
      }
    },
    {
      "type": "way",
      "id": 1150343732,
      "center": {
        "lat": 12.9116298,
        "lon": 77.7121415
      },
      "tags": {
        "amenity": "school",
        "landuse": "education",
        "name": "Carmel Convent School",
        "name:kn": "ಕಾರ್ಮೆಲ್ ಕಾನ್ವೆಂಟ್ ಶಾಲೆ"
      }
    },
    {
      "type": "way",
      "id": 1150343736,
      "center": {
        "lat": 12.9056847,
        "lon": 77.7023584
      },
      "tags": {
        "access": "private",
        "leisure": "pitch",
        "sport": "tennis"
      }
    },
    {
      "type": "way",
      "id": 1150343737,
      "center": {
        "lat": 12.9064809,
        "lon": 77.7027201
      },
      "tags": {
        "access": "private",
        "leisure": "swimming_pool",
        "location": "outdoor",
        "swimming_pool": "outdoor"
      }
    },
    {
      "type": "way",
      "id": 1186575075,
      "center": {
        "lat": 12.9025081,
        "lon": 77.7057678
      },
      "tags": {
        "artwork_type": "mural",
        "leisure": "park",
        "name": "Chaturanga Mantapa",
        "name:kn": "ಚತುರಂಗ ಮಂಟಪ",
        "source": "https://www.deccanherald.com/metrolife/metrolife-your-bond-with-bengaluru/makeover-for-under-flyover-spaces-in-the-pipeline-1232500.html",
        "tourism": "artwork"
      }
    },
    {
      "type": "way",
      "id": 1192698539,
      "center": {
        "lat": 12.9072248,
        "lon": 77.7016529
      },
      "tags": {
        "leisure": "park"
      }
    },
    {
      "type": "way",
      "id": 1270893909,
      "center": {
        "lat": 12.9049562,
        "lon": 77.7064001
      },
      "tags": {
        "access": "permissive",
        "amenity": "parking",
        "parking": "surface"
      }
    },
    {
      "type": "way",
      "id": 1270893910,
      "center": {
        "lat": 12.9037612,
        "lon": 77.7065128
      },
      "tags": {
        "access": "private",
        "leisure": "playground"
      }
    },
    {
      "type": "way",
      "id": 1276040254,
      "center": {
        "lat": 12.9078623,
        "lon": 77.7012255
      },
      "tags": {
        "addr:housenumber": "20",
        "addr:postcode": "560035",
        "addr:street": "Uber Verdant phase 2",
        "amenity": "cafe",
        "building": "service",
        "cuisine": "regional",
        "name": "Uber Verdant Club House"
      }
    },
    {
      "type": "way",
      "id": 1301680348,
      "center": {
        "lat": 12.9071118,
        "lon": 77.7056511
      },
      "tags": {
        "access": "permissive",
        "amenity": "parking",
        "parking": "surface"
      }
    },
    {
      "type": "way",
      "id": 1309888363,
      "center": {
        "lat": 12.9085063,
        "lon": 77.7154892
      },
      "tags": {
        "leisure": "sports_centre"
      }
    },
    {
      "type": "way",
      "id": 1340707584,
      "center": {
        "lat": 12.9166868,
        "lon": 77.7097829
      },
      "tags": {
        "leisure": "playground"
      }
    },
    {
      "type": "way",
      "id": 1340707586,
      "center": {
        "lat": 12.916724,
        "lon": 77.7090158
      },
      "tags": {
        "leisure": "pitch",
        "sport": "tennis"
      }
    },
    {
      "type": "way",
      "id": 1346337412,
      "center": {
        "lat": 12.9125564,
        "lon": 77.6986522
      },
      "tags": {
        "addr:city": "Janatha Colony",
        "addr:district": "Bengaluru Urban",
        "addr:housenumber": "6",
        "addr:postcode": "560035",
        "addr:street": "Doddakannelli - Kaadubeesanahalli Rd",
        "amenity": "bar",
        "building": "yes",
        "name": "M.R Bar and Restaurant"
      }
    },
    {
      "type": "way",
      "id": 1346575899,
      "center": {
        "lat": 12.9104215,
        "lon": 77.6996884
      },
      "tags": {
        "building": "commercial",
        "shop": "yes"
      }
    },
    {
      "type": "way",
      "id": 1346584941,
      "center": {
        "lat": 12.9108064,
        "lon": 77.6993729
      },
      "tags": {
        "amenity": "place_of_worship",
        "building": "yes",
        "religion": "hindu"
      }
    },
    {
      "type": "way",
      "id": 1346584943,
      "center": {
        "lat": 12.9110893,
        "lon": 77.6993662
      },
      "tags": {
        "amenity": "place_of_worship",
        "building": "yes",
        "religion": "hindu"
      }
    },
    {
      "type": "way",
      "id": 1346594259,
      "center": {
        "lat": 12.9143603,
        "lon": 77.6987401
      },
      "tags": {
        "building": "yes",
        "shop": "yes"
      }
    },
    {
      "type": "way",
      "id": 1347254917,
      "center": {
        "lat": 12.9135534,
        "lon": 77.70058
      },
      "tags": {
        "amenity": "place_of_worship",
        "building": "commercial",
        "religion": "hindu"
      }
    },
    {
      "type": "way",
      "id": 1347269028,
      "center": {
        "lat": 12.9114485,
        "lon": 77.6980217
      },
      "tags": {
        "building": "yes",
        "shop": "yes"
      }
    },
    {
      "type": "way",
      "id": 1347269029,
      "center": {
        "lat": 12.911369,
        "lon": 77.6979876
      },
      "tags": {
        "building": "yes",
        "shop": "yes"
      }
    },
    {
      "type": "way",
      "id": 1347269030,
      "center": {
        "lat": 12.9111484,
        "lon": 77.6978791
      },
      "tags": {
        "building": "yes",
        "shop": "yes"
      }
    },
    {
      "type": "way",
      "id": 1347269032,
      "center": {
        "lat": 12.9120224,
        "lon": 77.6984657
      },
      "tags": {
        "access": "yes",
        "amenity": "water_point",
        "fee": "no",
        "name": "Dr. Water",
        "operator": "Rotary Club"
      }
    },
    {
      "type": "way",
      "id": 1347278110,
      "center": {
        "lat": 12.9107975,
        "lon": 77.6976433
      },
      "tags": {
        "building": "yes",
        "shop": "yes"
      }
    },
    {
      "type": "way",
      "id": 1347278112,
      "center": {
        "lat": 12.9104679,
        "lon": 77.6976322
      },
      "tags": {
        "building": "yes",
        "shop": "yes"
      }
    },
    {
      "type": "way",
      "id": 1347482032,
      "center": {
        "lat": 12.9105345,
        "lon": 77.7022023
      },
      "tags": {
        "amenity": "place_of_worship",
        "building": "yes",
        "religion": "hindu"
      }
    },
    {
      "type": "way",
      "id": 1347515205,
      "center": {
        "lat": 12.9095578,
        "lon": 77.7028625
      },
      "tags": {
        "amenity": "fast_food",
        "brand": "Indira Canteen",
        "brand:wikidata": "Q36164828",
        "building": "yes",
        "cuisine": "south_indian",
        "name": "Indira Canteen",
        "operator": "BBMP",
        "takeaway": "yes"
      }
    },
    {
      "type": "way",
      "id": 1347516504,
      "center": {
        "lat": 12.9101716,
        "lon": 77.7008914
      },
      "tags": {
        "building": "yes",
        "shop": "butcher"
      }
    },
    {
      "type": "way",
      "id": 1347516516,
      "center": {
        "lat": 12.9098971,
        "lon": 77.7014926
      },
      "tags": {
        "building": "yes",
        "shop": "butcher"
      }
    },
    {
      "type": "way",
      "id": 1347533233,
      "center": {
        "lat": 12.9093192,
        "lon": 77.7050695
      },
      "tags": {
        "addr:city": "Bengaluru",
        "addr:housenumber": "54",
        "addr:postcode": "560035",
        "addr:street": "Carmelaram Rd",
        "amenity": "restaurant",
        "building": "yes",
        "name": "Ivy Park Hotel And Restaurant"
      }
    },
    {
      "type": "way",
      "id": 1428219879,
      "center": {
        "lat": 12.9048371,
        "lon": 77.7057363
      },
      "tags": {
        "access": "private",
        "leisure": "playground"
      }
    },
    {
      "type": "way",
      "id": 1428219880,
      "center": {
        "lat": 12.9044904,
        "lon": 77.70595
      },
      "tags": {
        "access": "private",
        "leisure": "swimming_pool"
      }
    },
    {
      "type": "way",
      "id": 1428219881,
      "center": {
        "lat": 12.9048382,
        "lon": 77.7047559
      },
      "tags": {
        "access": "private",
        "leisure": "playground"
      }
    },
    {
      "type": "way",
      "id": 1428219885,
      "center": {
        "lat": 12.9063953,
        "lon": 77.7028847
      },
      "tags": {
        "access": "private",
        "leisure": "playground"
      }
    },
    {
      "type": "way",
      "id": 1428219886,
      "center": {
        "lat": 12.9063355,
        "lon": 77.7030059
      },
      "tags": {
        "access": "private",
        "leisure": "pitch",
        "sport": "soccer"
      }
    },
    {
      "type": "way",
      "id": 1428219887,
      "center": {
        "lat": 12.9079347,
        "lon": 77.7034455
      },
      "tags": {
        "access": "private",
        "leisure": "pitch",
        "sport": "basketball"
      }
    },
    {
      "type": "way",
      "id": 1428219902,
      "center": {
        "lat": 12.908464,
        "lon": 77.7037132
      },
      "tags": {
        "access": "private",
        "leisure": "playground"
      }
    },
    {
      "type": "way",
      "id": 1428219903,
      "center": {
        "lat": 12.9084983,
        "lon": 77.7034675
      },
      "tags": {
        "access": "private",
        "leisure": "swimming_pool"
      }
    },
    {
      "type": "way",
      "id": 1428219904,
      "center": {
        "lat": 12.9085852,
        "lon": 77.7032753
      },
      "tags": {
        "access": "private",
        "leisure": "pitch",
        "sport": "tennis;volleyball"
      }
    },
    {
      "type": "way",
      "id": 1428219918,
      "center": {
        "lat": 12.9081808,
        "lon": 77.7035442
      },
      "tags": {
        "access": "private",
        "leisure": "playground"
      }
    },
    {
      "type": "way",
      "id": 1428219990,
      "center": {
        "lat": 12.903076,
        "lon": 77.7026145
      },
      "tags": {
        "access": "private",
        "leisure": "swimming_pool"
      }
    },
    {
      "type": "way",
      "id": 1428220005,
      "center": {
        "lat": 12.9055762,
        "lon": 77.7025679
      },
      "tags": {
        "access": "private",
        "hoops": "1",
        "leisure": "pitch",
        "sport": "basketball"
      }
    },
    {
      "type": "way",
      "id": 1428220006,
      "center": {
        "lat": 12.9055326,
        "lon": 77.7023196
      },
      "tags": {
        "access": "private",
        "leisure": "pitch",
        "sport": "volleyball"
      }
    },
    {
      "type": "way",
      "id": 1428220007,
      "center": {
        "lat": 12.9056323,
        "lon": 77.7022541
      },
      "tags": {
        "access": "private",
        "leisure": "pitch",
        "sport": "cricket_nets"
      }
    },
    {
      "type": "way",
      "id": 1428220008,
      "center": {
        "lat": 12.9059263,
        "lon": 77.7007344
      },
      "tags": {
        "access": "private",
        "leisure": "swimming_pool"
      }
    },
    {
      "type": "way",
      "id": 1428220015,
      "center": {
        "lat": 12.9060611,
        "lon": 77.7018614
      },
      "tags": {
        "access": "private",
        "leisure": "swimming_pool"
      }
    },
    {
      "type": "way",
      "id": 1428290351,
      "center": {
        "lat": 12.9073687,
        "lon": 77.6993844
      },
      "tags": {
        "access": "private",
        "amenity": "theatre",
        "theatre:type": "amphi"
      }
    },
    {
      "type": "way",
      "id": 1428290352,
      "center": {
        "lat": 12.9070525,
        "lon": 77.699332
      },
      "tags": {
        "access": "private",
        "leisure": "pitch",
        "sport": "basketball"
      }
    },
    {
      "type": "way",
      "id": 1428290353,
      "center": {
        "lat": 12.9071848,
        "lon": 77.6992374
      },
      "tags": {
        "access": "private",
        "leisure": "pitch",
        "sport": "tennis"
      }
    },
    {
      "type": "way",
      "id": 1428290354,
      "center": {
        "lat": 12.907391,
        "lon": 77.6992951
      },
      "tags": {
        "access": "private",
        "leisure": "playground"
      }
    },
    {
      "type": "way",
      "id": 1428290355,
      "center": {
        "lat": 12.9071211,
        "lon": 77.7000654
      },
      "tags": {
        "access": "private",
        "leisure": "swimming_pool"
      }
    },
    {
      "type": "way",
      "id": 1428347423,
      "center": {
        "lat": 12.903141,
        "lon": 77.7065516
      },
      "tags": {
        "access": "private",
        "leisure": "pitch",
        "sport": "volleyball"
      }
    },
    {
      "type": "way",
      "id": 1452541768,
      "center": {
        "lat": 12.9139825,
        "lon": 77.7153842
      },
      "tags": {
        "amenity": "fuel"
      }
    },
    {
      "type": "way",
      "id": 1452541777,
      "center": {
        "lat": 12.9111575,
        "lon": 77.7106058
      },
      "tags": {
        "amenity": "social_centre",
        "office": "ngo"
      }
    },
    {
      "type": "way",
      "id": 1454927511,
      "center": {
        "lat": 12.907751,
        "lon": 77.7065893
      },
      "tags": {
        "amenity": "place_of_worship",
        "denomination": "catholic",
        "name": "Immaculate Heart of Mary Church",
        "religion": "christian"
      }
    }
  ]
}