{
  "area_name": "Channama Layout",
  "osm_id": 12981491766,
  "osm_type": "node",
  "place_type": "neighbourhood",
  "amenity_count": 298,
  "amenities": [
    {
      "type": "node",
      "id": 325203929,
      "lat": 12.9853637,
      "lon": 77.7081623,
      "tags": {
        "addr:street": "Graphite India Road",
        "amenity": "atm",
        "brand": "Standard Chartered",
        "brand:wikidata": "Q548278",
        "name": "Standard Chartered",
        "operator": "Standard Chartered",
        "operator:wikidata": "Q548278"
      }
    },
    {
      "type": "node",
      "id": 514307734,
      "lat": 12.9853135,
      "lon": 77.7183757,
      "tags": {
        "addr:city": "Hoodi, Mahadevapura, Bangalore",
        "addr:postcode": "560048",
        "addr:street": "Basava Nagar Main Road",
        "amenity": "school",
        "name": "Gopalan International Schoool",
        "name:kn": "ಗೊಪಲನ್ ಅಂತರಾಷ್ಟ್ರೀಯ ಶಾಲೆ"
      }
    },
    {
      "type": "node",
      "id": 954308720,
      "lat": 12.9856478,
      "lon": 77.7183726,
      "tags": {
        "shop": "convenience"
      }
    },
    {
      "type": "node",
      "id": 960318286,
      "lat": 12.9841327,
      "lon": 77.7194164,
      "tags": {
        "amenity": "place_of_worship",
        "name": "Basweshwara Nandeswara Temple",
        "religion": "hindu"
      }
    },
    {
      "type": "node",
      "id": 962904402,
      "lat": 12.9846765,
      "lon": 77.7183953,
      "tags": {
        "addr:city": "Hoodi, Mahadevapura, Bangalore",
        "addr:postcode": "560048",
        "addr:street": "Basava Nagar Main Road",
        "amenity": "school",
        "name": "SM English School"
      }
    },
    {
      "type": "node",
      "id": 980038314,
      "lat": 12.9855008,
      "lon": 77.718421,
      "tags": {
        "addr:city": "Hoodi, Mahadevapura, Bangalore",
        "addr:postcode": "560048",
        "amenity": "pharmacy",
        "dispensing": "no",
        "name": "Aruna Medicals"
      }
    },
    {
      "type": "node",
      "id": 1022683909,
      "lat": 12.985436,
      "lon": 77.7081208,
      "tags": {
        "addr:street": "Graphite India Road",
        "amenity": "atm",
        "branch": "Vysya ATM",
        "brand": "ING",
        "brand:wikidata": "Q645708",
        "name": "ING",
        "operator": "ING",
        "operator:wikidata": "Q645708"
      }
    },
    {
      "type": "node",
      "id": 1041134302,
      "lat": 12.9832283,
      "lon": 77.7080008,
      "tags": {
        "addr:street": "ITPL Main Road",
        "amenity": "post_office",
        "brand": "Blue Dart Express",
        "brand:short": "Blue Dart",
        "brand:wikidata": "Q54621493",
        "landuse": "commercial",
        "name": "Blue Dart",
        "operator": "Blue Dart Express",
        "operator:short": "Blue Dart",
        "operator:wikidata": "Q54621493",
        "post_office:type": "post_annex"
      }
    },
    {
      "type": "node",
      "id": 1093355151,
      "lat": 12.9716416,
      "lon": 77.7176798,
      "tags": {
        "addr:city": "Bangalore",
        "addr:housenumber": "23",
        "addr:postcode": "560066",
        "addr:street": "EPIP Zone, Whitefield",
        "amenity": "restaurant",
        "email": "info@themarkboulevard.com",
        "fax": "+91-80-41985556",
        "name": "The Mark Boulevard",
        "name:kn": "ದಿ ಮಾರ್ಕ್ ಬೊಲೆವರ್ಡ್",
        "phone": "+91-80-41985555",
        "website": "http://www.themarkboulevard.com/"
      }
    },
    {
      "type": "node",
      "id": 1160603218,
      "lat": 12.9783158,
      "lon": 77.7123264,
      "tags": {
        "amenity": "cafe",
        "brand": "Cafe Coffee Day",
        "brand:wikidata": "Q5017235",
        "cuisine": "coffee_shop",
        "name": "Cafe Coffee Day",
        "name:kn": "ಕಫೆ ಕಾಫಿ ಡೇ",
        "takeaway": "yes"
      }
    },
    {
      "type": "node",
      "id": 1163058385,
      "lat": 12.9771241,
      "lon": 77.7184791,
      "tags": {
        "amenity": "cafe",
        "name": "Qmin"
      }
    },
    {
      "type": "node",
      "id": 1373903942,
      "lat": 12.9711033,
      "lon": 77.7119389,
      "tags": {
        "amenity": "pharmacy",
        "brand": "MedPlus",
        "brand:wikidata": "Q65684234",
        "check_date": "2023-02-08",
        "drive_through": "no",
        "healthcare": "pharmacy",
        "internet_access": "no",
        "name": "MedPlus",
        "payment:mastercard": "yes",
        "payment:upi": "yes",
        "payment:visa": "yes",
        "source": "survey",
        "wheelchair": "no"
      }
    },
    {
      "type": "node",
      "id": 1399447336,
      "lat": 12.9831083,
      "lon": 77.707991,
      "tags": {
        "addr:street": "Graphite India Road",
        "amenity": "kindergarten",
        "name": "Klay Day Care"
      }
    },
    {
      "type": "node",
      "id": 1585678331,
      "lat": 12.9795374,
      "lon": 77.7207285,
      "tags": {
        "amenity": "parking"
      }
    },
    {
      "type": "node",
      "id": 3270010723,
      "lat": 12.9768424,
      "lon": 77.7103746,
      "tags": {
        "addr:city": "Mahadevapura, Bangalore",
        "addr:postcode": "560048",
        "amenity": "hospital",
        "check_date": "2025-10-30",
        "email": "info@rxdx.in",
        "healthcare": "hospital",
        "healthcare:speciality": "physiotherapy",
        "name": "Telerad Rx Dx Health Care Whitefield",
        "operator": "RxDx",
        "operator:type": "private",
        "phone": "+91-80-49261111;+91-80-40187588",
        "website": "https://rxdx.in/"
      }
    },
    {
      "type": "node",
      "id": 4488050031,
      "lat": 12.9703806,
      "lon": 77.712242,
      "tags": {
        "addr:city": "Bangalore",
        "addr:postcode": "560037",
        "addr:street": "I T P L Main Road",
        "name": "Maruthi Novelty",
        "shop": "general",
        "wheelchair": "no"
      }
    },
    {
      "type": "node",
      "id": 5536102141,
      "lat": 12.9705626,
      "lon": 77.7125878,
      "tags": {
        "check_date": "2025-10-30",
        "name": "The Liquor Library",
        "shop": "alcohol"
      }
    },
    {
      "type": "node",
      "id": 5536102144,
      "lat": 12.9708488,
      "lon": 77.7120993,
      "tags": {
        "amenity": "pharmacy",
        "check_date": "2025-11-22",
        "dispensing": "no",
        "drive_through": "no",
        "healthcare": "pharmacy",
        "name": "Ramdev Medical",
        "wheelchair": "no"
      }
    },
    {
      "type": "node",
      "id": 5571222371,
      "lat": 12.9702565,
      "lon": 77.7122947,
      "tags": {
        "addr:floor": "G",
        "check_date": "2024-12-23",
        "internet_access": "wlan",
        "internet_access:fee": "customers",
        "level": "0",
        "name": "Hetvi Print Stationery",
        "payment:cash": "yes",
        "payment:credit_cards": "no",
        "payment:debit_cards": "yes",
        "shop": "stationery",
        "wheelchair": "limited"
      }
    },
    {
      "type": "node",
      "id": 5571222373,
      "lat": 12.9701931,
      "lon": 77.7123561,
      "tags": {
        "name": "Chaitanya Medicals",
        "shop": "medical_supply",
        "wheelchair": "no"
      }
    },
    {
      "type": "node",
      "id": 5571222374,
      "lat": 12.9701722,
      "lon": 77.7123588,
      "tags": {
        "check_date": "2024-12-23",
        "male": "yes",
        "name": "ANP Mens Parlour",
        "shop": "hairdresser",
        "wheelchair": "no"
      }
    },
    {
      "type": "node",
      "id": 5571222375,
      "lat": 12.9704006,
      "lon": 77.712237,
      "tags": {
        "female": "yes",
        "male": "yes",
        "name": "Creative Style Unisex Salon",
        "shop": "hairdresser",
        "wheelchair": "no"
      }
    },
    {
      "type": "node",
      "id": 5571222376,
      "lat": 12.9703332,
      "lon": 77.7122523,
      "tags": {
        "name": "Mathaji Electricals",
        "shop": "electronics",
        "wheelchair": "no"
      }
    },
    {
      "type": "node",
      "id": 5571222381,
      "lat": 12.9703537,
      "lon": 77.7127228,
      "tags": {
        "amenity": "smoking_area"
      }
    },
    {
      "type": "node",
      "id": 5611680989,
      "lat": 12.9805421,
      "lon": 77.7120973,
      "tags": {
        "alt_name": "Oregano Whitefield",
        "amenity": "restaurant",
        "cuisine": "international",
        "name": "Oregano"
      }
    },
    {
      "type": "node",
      "id": 5928669348,
      "lat": 12.9848221,
      "lon": 77.7111977,
      "tags": {
        "addr:city": "Bangalore",
        "addr:housenumber": "1",
        "addr:postcode": "560048",
        "addr:street": "NCPR Industrial Layout, Seetharampalya, Hoodi Main Road",
        "amenity": "restaurant",
        "cuisine": "indian",
        "delivery": "yes",
        "name": "Yumatos",
        "opening_hours": "Mo-Su 10:00-22:30",
        "takeaway": "yes"
      }
    },
    {
      "type": "node",
      "id": 6216303181,
      "lat": 12.9820349,
      "lon": 77.7087096,
      "tags": {
        "amenity": "restaurant"
      }
    },
    {
      "type": "node",
      "id": 6216304209,
      "lat": 12.9824221,
      "lon": 77.7086483,
      "tags": {
        "addr:city": "Bengaluru",
        "addr:postcode": "560048",
        "addr:street": "Kundalahalli Main Road",
        "amenity": "pub",
        "contact:instagram": "biergartenbangalore",
        "cuisine": "burger;pizza;regional;sandwich",
        "delivery": "no",
        "facebook": "https://www.facebook.com/biergartenbangalore/",
        "indoor_seating": "yes",
        "microbrewery": "yes",
        "name": "BierGarten Brewery & Kitchen",
        "opening_hours": "Su-Th 12:00-00:00; Fr-Sa 12:00-01:00",
        "outdoor_seating": "yes",
        "smoking": "isolated",
        "takeaway": "yes"
      }
    },
    {
      "type": "node",
      "id": 6229075164,
      "lat": 12.9844254,
      "lon": 77.7085422,
      "tags": {
        "check_date": "2023-10-29",
        "name": "Families Supermarket",
        "payment:cash": "yes",
        "payment:credit_cards": "yes",
        "payment:debit_cards": "yes",
        "payment:electronic_purses": "yes",
        "shop": "supermarket"
      }
    },
    {
      "type": "node",
      "id": 6235809888,
      "lat": 12.9785438,
      "lon": 77.7111721,
      "tags": {
        "amenity": "restaurant",
        "name": "New Udupi Garden",
        "opening_hours": "Mo-Sa 06:00-22:00"
      }
    },
    {
      "type": "node",
      "id": 8196809332,
      "lat": 12.9848835,
      "lon": 77.7166089,
      "tags": {
        "addr:full": "Bengaluru, Seetharampalya, Hoodi, Bengaluru, Karnataka",
        "addr:state": "Karnataka",
        "amenity": "college",
        "name": "Gopalan Pu And Commerce College"
      }
    },
    {
      "type": "node",
      "id": 8841166970,
      "lat": 12.9708058,
      "lon": 77.7120837,
      "tags": {
        "amenity": "post_office",
        "brand": "Desk to Desk Courier & Cargo",
        "brand:short": "DTDC",
        "brand:wikidata": "Q55608802",
        "check_date": "2025-11-22",
        "name": "DTDC Courier",
        "operator": "Desk to Desk Courier & Cargo",
        "operator:short": "DTDC",
        "operator:wikidata": "Q55608802",
        "wheelchair": "no"
      }
    },
    {
      "type": "node",
      "id": 9874713061,
      "lat": 12.9709124,
      "lon": 77.7119406,
      "tags": {
        "air_conditioning": "no",
        "amenity": "restaurant",
        "check_date": "2023-02-08",
        "cuisine": "biryani",
        "diet:vegetarian": "yes",
        "indoor_seating": "yes",
        "name": "SKM Ambur Hot Dum Biryani",
        "outdoor_seating": "no",
        "payment:credit_cards": "no",
        "payment:debit_cards": "no",
        "smoking": "no",
        "source": "survey",
        "wheelchair": "no"
      }
    },
    {
      "type": "node",
      "id": 9874782365,
      "lat": 12.9834401,
      "lon": 77.7182014,
      "tags": {
        "amenity": "restaurant",
        "name": "New Ambur Dum Biryani"
      }
    },
    {
      "type": "node",
      "id": 9945573640,
      "lat": 12.9706531,
      "lon": 77.7121508,
      "tags": {
        "addr:floor": "G",
        "check_date": "2024-12-23",
        "indoor_seating": "no",
        "internet_access": "no",
        "level": "0",
        "name": "Satya Sai Bakery",
        "outdoor_seating": "no",
        "shop": "bakery",
        "takeaway": "only",
        "wheelchair": "no"
      }
    },
    {
      "type": "node",
      "id": 9953100005,
      "lat": 12.9720668,
      "lon": 77.7093105,
      "tags": {
        "amenity": "parking_entrance",
        "parking": "underground"
      }
    },
    {
      "type": "node",
      "id": 9980237115,
      "lat": 12.9716395,
      "lon": 77.7078552,
      "tags": {
        "amenity": "parking_entrance",
        "parking": "underground"
      }
    },
    {
      "type": "node",
      "id": 10034052340,
      "lat": 12.9716954,
      "lon": 77.711696,
      "tags": {
        "amenity": "fast_food",
        "check_date": "2025-09-04",
        "name": "Laddoos",
        "wheelchair": "no"
      }
    },
    {
      "type": "node",
      "id": 10049459248,
      "lat": 12.9715377,
      "lon": 77.7081105,
      "tags": {
        "amenity": "parking_entrance",
        "parking": "underground"
      }
    },
    {
      "type": "node",
      "id": 10049494520,
      "lat": 12.9716124,
      "lon": 77.7117564,
      "tags": {
        "name": "Midas Daily",
        "shop": "supermarket"
      }
    },
    {
      "type": "node",
      "id": 10291118239,
      "lat": 12.9732157,
      "lon": 77.7101827,
      "tags": {
        "addr:city": "Bengaluru",
        "addr:country": "IN",
        "addr:housename": "Prestige Technostar",
        "addr:postcode": "560048",
        "addr:street": "ITPL Main Road",
        "addr:suburb": "Doddanekundi",
        "addr:unit": "B3",
        "amenity": "coworking_space",
        "brand": "The Executive Centre",
        "email": "bangalore@executivecentre.com",
        "fee": "yes",
        "level": "8",
        "name": "The Executive Centre",
        "office": "coworking",
        "operator": "The Executive Centre",
        "phone": "+91 80 6862 8888",
        "website": "https://www.executivecentre.com/en-in/office-space/prestige-technostar"
      }
    },
    {
      "type": "node",
      "id": 10617518511,
      "lat": 12.971049,
      "lon": 77.7119519,
      "tags": {
        "check_date": "2023-02-08",
        "internet_access": "no",
        "name": "Print Point",
        "payment:credit_cards": "no",
        "payment:debit_cards": "no",
        "shop": "copyshop",
        "source": "survey",
        "wheelchair": "no"
      }
    },
    {
      "type": "node",
      "id": 10651190533,
      "lat": 12.9822815,
      "lon": 77.708899,
      "tags": {
        "amenity": "bank",
        "brand": "HDFC Bank",
        "brand:wikidata": "Q631047",
        "name": "HDFC Bank",
        "operator": "HDFC Bank",
        "short_name": "HDFC"
      }
    },
    {
      "type": "node",
      "id": 10651190534,
      "lat": 12.9822648,
      "lon": 77.7087862,
      "tags": {
        "email": "contact@gamingalaxy.in",
        "fee": "yes",
        "leisure": "escape_game",
        "name": "gamingalaxy",
        "phone": "+91 6364016789",
        "website": "https://gamingalaxy.in"
      }
    },
    {
      "type": "node",
      "id": 10678572931,
      "lat": 12.9760449,
      "lon": 77.717983,
      "tags": {
        "amenity": "restaurant",
        "name": "Sashay Taproom Kitchen",
        "opening_hours": "Mo-Su 12:00-24:00",
        "outdoor_seating": "yes"
      }
    },
    {
      "type": "node",
      "id": 11274969773,
      "lat": 12.9736914,
      "lon": 77.70845,
      "tags": {
        "amenity": "school",
        "name": "The Alternative Learning Community",
        "short_name": "TALC",
        "website": "https://www.thealternativelearningcommunity.com"
      }
    },
    {
      "type": "node",
      "id": 11297456548,
      "lat": 12.9844833,
      "lon": 77.7085808,
      "tags": {
        "branch": "Hoodi",
        "brand": "cult.fit",
        "brand:wikidata": "Q121289250",
        "check_date": "2023-10-29",
        "leisure": "fitness_centre",
        "name": "cult.fit"
      }
    },
    {
      "type": "node",
      "id": 11297456549,
      "lat": 12.9841826,
      "lon": 77.708424,
      "tags": {
        "check_date": "2023-10-29",
        "name": "Sahukar Chai",
        "shop": "tea"
      }
    },
    {
      "type": "node",
      "id": 11297456550,
      "lat": 12.9840471,
      "lon": 77.7084168,
      "tags": {
        "amenity": "fast_food",
        "check_date": "2023-10-29",
        "name": "Ambur Hot Dum Biryani"
      }
    },
    {
      "type": "node",
      "id": 11297540605,
      "lat": 12.9772701,
      "lon": 77.7216639,
      "tags": {
        "amenity": "bench",
        "backrest": "yes",
        "colour": "green",
        "material": "concrete",
        "seats": "2"
      }
    },
    {
      "type": "node",
      "id": 11297540606,
      "lat": 12.9772124,
      "lon": 77.72167,
      "tags": {
        "amenity": "bench",
        "backrest": "yes",
        "colour": "yellow",
        "material": "concrete",
        "seats": "2"
      }
    },
    {
      "type": "node",
      "id": 11298101291,
      "lat": 12.9777623,
      "lon": 77.715248,
      "tags": {
        "access": "yes",
        "amenity": "motorcycle_parking",
        "fee": "yes"
      }
    },
    {
      "type": "node",
      "id": 11298101292,
      "lat": 12.981279,
      "lon": 77.7088355,
      "tags": {
        "access": "private",
        "amenity": "motorcycle_parking",
        "covered": "yes",
        "description": "Staff parking",
        "fee": "no"
      }
    },
    {
      "type": "node",
      "id": 11298101293,
      "lat": 12.9812718,
      "lon": 77.7085472,
      "tags": {
        "access": "yes",
        "amenity": "motorcycle_parking",
        "covered": "yes",
        "fee": "no"
      }
    },
    {
      "type": "node",
      "id": 11298101294,
      "lat": 12.9804766,
      "lon": 77.7087624,
      "tags": {
        "access": "yes",
        "amenity": "motorcycle_parking",
        "covered": "yes",
        "fee": "no"
      }
    },
    {
      "type": "node",
      "id": 11329638655,
      "lat": 12.9741378,
      "lon": 77.7128003,
      "tags": {
        "amenity": "parking_entrance",
        "parking": "underground"
      }
    },
    {
      "type": "node",
      "id": 11329665797,
      "lat": 12.9734514,
      "lon": 77.7121758,
      "tags": {
        "amenity": "parking_entrance",
        "parking": "underground"
      }
    },
    {
      "type": "node",
      "id": 11343348771,
      "lat": 12.9795657,
      "lon": 77.7163088,
      "tags": {
        "amenity": "parking_entrance",
        "parking": "underground"
      }
    },
    {
      "type": "node",
      "id": 11361570770,
      "lat": 12.9810385,
      "lon": 77.7091091,
      "tags": {
        "amenity": "parking_entrance",
        "parking": "underground"
      }
    },
    {
      "type": "node",
      "id": 11371672503,
      "lat": 12.9808748,
      "lon": 77.7114066,
      "tags": {
        "access": "private",
        "amenity": "parking_entrance",
        "parking": "underground"
      }
    },
    {
      "type": "node",
      "id": 11429434927,
      "lat": 12.9810372,
      "lon": 77.7087623,
      "tags": {
        "amenity": "ticket_validator",
        "barrier": "gate",
        "fee": "yes",
        "level": "1",
        "network": "Namma Metro",
        "operator": "Bangalore Metro Rail Corporation Limited",
        "wheelchair": "yes"
      }
    },
    {
      "type": "node",
      "id": 11446204194,
      "lat": 12.9809967,
      "lon": 77.712311,
      "tags": {
        "amenity": "bench",
        "material": "concrete"
      }
    },
    {
      "type": "node",
      "id": 11446204199,
      "lat": 12.9824322,
      "lon": 77.7123814,
      "tags": {
        "amenity": "bench",
        "backrest": "yes",
        "material": "concrete"
      }
    },
    {
      "type": "node",
      "id": 11446273541,
      "lat": 12.9812202,
      "lon": 77.7159186,
      "tags": {
        "access": "private",
        "amenity": "parking_entrance",
        "parking": "underground"
      }
    },
    {
      "type": "node",
      "id": 11446273547,
      "lat": 12.9805726,
      "lon": 77.7160131,
      "tags": {
        "access": "private",
        "amenity": "parking_entrance",
        "parking": "underground"
      }
    },
    {
      "type": "node",
      "id": 11446289374,
      "lat": 12.9800674,
      "lon": 77.7147672,
      "tags": {
        "access": "private",
        "amenity": "parking_entrance",
        "parking": "underground"
      }
    },
    {
      "type": "node",
      "id": 11446289378,
      "lat": 12.9806491,
      "lon": 77.7148953,
      "tags": {
        "access": "private",
        "amenity": "parking_entrance",
        "parking": "underground"
      }
    },
    {
      "type": "node",
      "id": 11446289381,
      "lat": 12.9806922,
      "lon": 77.7175152,
      "tags": {
        "access": "private",
        "amenity": "parking_entrance",
        "parking": "underground"
      }
    },
    {
      "type": "node",
      "id": 11472845559,
      "lat": 12.9704092,
      "lon": 77.7126394,
      "tags": {
        "air_conditioning": "no",
        "amenity": "restaurant",
        "diet:vegetarian": "only",
        "indoor_seating": "yes",
        "name": "Hotel Mayura Sagar",
        "outdoor_seating": "yes",
        "smoking": "no",
        "wheelchair": "no"
      }
    },
    {
      "type": "node",
      "id": 11488303731,
      "lat": 12.9716152,
      "lon": 77.7097137,
      "tags": {
        "amenity": "food_court",
        "level": "-1"
      }
    },
    {
      "type": "node",
      "id": 11509027896,
      "lat": 12.9766824,
      "lon": 77.7048093,
      "tags": {
        "access": "private",
        "amenity": "parking_entrance",
        "parking": "underground"
      }
    },
    {
      "type": "node",
      "id": 11509027900,
      "lat": 12.9771757,
      "lon": 77.704852,
      "tags": {
        "access": "private",
        "amenity": "parking_entrance",
        "parking": "underground"
      }
    },
    {
      "type": "node",
      "id": 11519266309,
      "lat": 12.9713878,
      "lon": 77.7108089,
      "tags": {
        "access": "private",
        "amenity": "parking_entrance",
        "parking": "underground"
      }
    },
    {
      "type": "node",
      "id": 11519266332,
      "lat": 12.9715798,
      "lon": 77.7080737,
      "tags": {
        "amenity": "smoking_area",
        "bench": "yes",
        "bin": "yes",
        "shelter": "yes"
      }
    },
    {
      "type": "node",
      "id": 11519266333,
      "lat": 12.9720503,
      "lon": 77.7085578,
      "tags": {
        "amenity": "fast_food",
        "brand": "Domino's",
        "brand:wikidata": "Q839466",
        "cuisine": "pizza",
        "name": "Domino's",
        "name:kn": "ಡಾಮಿನೋಸ್",
        "note": "Not accessible to general public, only those with SEZ cards can visit it.",
        "takeaway": "yes"
      }
    },
    {
      "type": "node",
      "id": 11519274306,
      "lat": 12.9726903,
      "lon": 77.7105745,
      "tags": {
        "access": "private",
        "amenity": "parking_entrance",
        "parking": "underground"
      }
    },
    {
      "type": "node",
      "id": 11519274307,
      "lat": 12.9728827,
      "lon": 77.7102137,
      "tags": {
        "access": "private",
        "amenity": "parking_entrance",
        "parking": "underground"
      }
    },
    {
      "type": "node",
      "id": 11522025502,
      "lat": 12.9824953,
      "lon": 77.7204999,
      "tags": {
        "amenity": "fountain",
        "drinking_water": "no",
        "fountain": "decorative",
        "indoor": "no"
      }
    },
    {
      "type": "node",
      "id": 11575590417,
      "lat": 12.982224,
      "lon": 77.7087599,
      "tags": {
        "amenity": "pub",
        "contact:instagram": "blrbrewing",
        "name": "BLR Brewing Co",
        "phone": "+91 8071174545",
        "website": "https://www.blrbrewing.com/"
      }
    },
    {
      "type": "node",
      "id": 11633925997,
      "lat": 12.9731838,
      "lon": 77.7112797,
      "tags": {
        "access": "yes",
        "amenity": "bicycle_parking",
        "bicycle_parking": "stands",
        "capacity": "2",
        "covered": "no",
        "fee": "no",
        "operator": "DULT",
        "operator:type": "public"
      }
    },
    {
      "type": "node",
      "id": 11642112406,
      "lat": 12.9873708,
      "lon": 77.7118608,
      "tags": {
        "amenity": "bicycle_rental",
        "capacity": "4",
        "name": "Tilt Bicycle Rental",
        "operator": "Tilt",
        "operator:type": "private"
      }
    },
    {
      "type": "node",
      "id": 11659647100,
      "lat": 12.976918,
      "lon": 77.7101701,
      "tags": {
        "access": "yes",
        "amenity": "bicycle_parking",
        "bicycle_parking": "stands",
        "capacity": "4",
        "colour": "yellow",
        "covered": "no",
        "fee": "no",
        "operator": "DULT",
        "operator:type": "government"
      }
    },
    {
      "type": "node",
      "id": 11799139352,
      "lat": 12.973613,
      "lon": 77.7154411,
      "tags": {
        "amenity": "restaurant",
        "name": "Maa Vindhu Bhojanam"
      }
    },
    {
      "type": "node",
      "id": 11799139355,
      "lat": 12.9736162,
      "lon": 77.7150663,
      "tags": {
        "amenity": "cafe",
        "name": "Cafe 19"
      }
    },
    {
      "type": "node",
      "id": 11799207833,
      "lat": 12.9727779,
      "lon": 77.714847,
      "tags": {
        "name": "Real Value Mart",
        "shop": "supermarket"
      }
    },
    {
      "type": "node",
      "id": 11799207842,
      "lat": 12.9737103,
      "lon": 77.7148651,
      "tags": {
        "amenity": "fast_food",
        "cuisine": "juice",
        "name": "Ice Burg"
      }
    },
    {
      "type": "node",
      "id": 11799207889,
      "lat": 12.9742756,
      "lon": 77.714731,
      "tags": {
        "access": "private",
        "amenity": "parking_entrance",
        "parking": "underground"
      }
    },
    {
      "type": "node",
      "id": 11799207910,
      "lat": 12.9742684,
      "lon": 77.7141087,
      "tags": {
        "access": "private",
        "amenity": "parking_entrance",
        "parking": "underground"
      }
    },
    {
      "type": "node",
      "id": 11799207955,
      "lat": 12.9779455,
      "lon": 77.7118175,
      "tags": {
        "amenity": "parking",
        "parking": "underground"
      }
    },
    {
      "type": "node",
      "id": 11799207964,
      "lat": 12.9779261,
      "lon": 77.7119633,
      "tags": {
        "amenity": "parking",
        "parking": "underground"
      }
    },
    {
      "type": "node",
      "id": 11826815328,
      "lat": 12.9759714,
      "lon": 77.7177511,
      "tags": {
        "access": "customers",
        "amenity": "parking_entrance",
        "parking": "underground"
      }
    },
    {
      "type": "node",
      "id": 11829570232,
      "lat": 12.9723641,
      "lon": 77.7178684,
      "tags": {
        "amenity": "bar",
        "name": "Slounge"
      }
    },
    {
      "type": "node",
      "id": 11898999666,
      "lat": 12.9776378,
      "lon": 77.7159786,
      "tags": {
        "access": "yes",
        "amenity": "motorcycle_parking",
        "bicycle": "yes",
        "covered": "yes",
        "fee": "yes"
      }
    },
    {
      "type": "node",
      "id": 11898999667,
      "lat": 12.9776501,
      "lon": 77.7160446,
      "tags": {
        "access": "yes",
        "amenity": "bicycle_parking",
        "bicycle_parking": "shed",
        "charge": "1 INR",
        "covered": "yes",
        "fee": "yes",
        "note": "Not really a shed, bicycles are permitted to park next to bikes in the cavity in the building, if they pay a fee"
      }
    },
    {
      "type": "node",
      "id": 12000719528,
      "lat": 12.9775829,
      "lon": 77.7155956,
      "tags": {
        "access": "customers",
        "amenity": "ticket_validator",
        "barrier": "gate",
        "level": "1",
        "network": "Namma Metro",
        "operator": "BMRCL",
        "wheelchair": "yes"
      }
    },
    {
      "type": "node",
      "id": 12050450471,
      "lat": 12.9746893,
      "lon": 77.7111259,
      "tags": {
        "amenity": "place_of_worship",
        "check_date": "2025-10-30",
        "religion": "hindu"
      }
    },
    {
      "type": "node",
      "id": 12135425985,
      "lat": 12.9858573,
      "lon": 77.7081566,
      "tags": {
        "addr:city": "Bengaluru",
        "addr:postcode": "560048",
        "air_conditioning": "yes",
        "amenity": "restaurant",
        "cuisine": "indian",
        "diet:vegetarian": "yes",
        "level": "1",
        "name": "Kailash Parbat",
        "note": "Staircase to restaurant not accessible, but it appears to have a lift",
        "website": "https://www.zomato.com/bangalore/kailash-parbat-whitefield-bangalore",
        "wheelchair": "limited"
      }
    },
    {
      "type": "node",
      "id": 12135425997,
      "lat": 12.9858641,
      "lon": 77.7082776,
      "tags": {
        "access": "yes",
        "amenity": "parking_entrance",
        "parking": "underground"
      }
    },
    {
      "type": "node",
      "id": 12164756040,
      "lat": 12.973695,
      "lon": 77.7062235,
      "tags": {
        "access": "private",
        "amenity": "parking_entrance",
        "parking": "underground"
      }
    },
    {
      "type": "node",
      "id": 12187611682,
      "lat": 12.9809553,
      "lon": 77.7116675,
      "tags": {
        "access": "private",
        "amenity": "parking_entrance",
        "parking": "underground"
      }
    },
    {
      "type": "node",
      "id": 12187611685,
      "lat": 12.9809918,
      "lon": 77.7116952,
      "tags": {
        "access": "private",
        "amenity": "parking_entrance",
        "parking": "underground"
      }
    },
    {
      "type": "node",
      "id": 12187635315,
      "lat": 12.9830719,
      "lon": 77.7171083,
      "tags": {
        "amenity": "parking_entrance"
      }
    },
    {
      "type": "node",
      "id": 12211278636,
      "lat": 12.9723405,
      "lon": 77.7074025,
      "tags": {
        "leisure": "fitness_centre"
      }
    },
    {
      "type": "node",
      "id": 12284791767,
      "lat": 12.9776677,
      "lon": 77.7072956,
      "tags": {
        "addr:city": "Bengaluru",
        "addr:district": "Bengaluru",
        "addr:housenumber": "22/A",
        "addr:postcode": "560048",
        "addr:street": "22/A, Doddanakundi Industrial Area 2, Phase 1, Doddanekkundi",
        "air_conditioning": "yes",
        "amenity": "restaurant",
        "bar": "yes",
        "capacity": "1000",
        "changing_table": "yes",
        "check_date": "2025-11-22",
        "contact:instagram": "https://www.instagram.com/theyardblr",
        "cuisine": "indian;asian;continental;bar_food;grill;fusion",
        "delivery": "yes",
        "description": "The Yard, Whitefield is the best bar and restaurant in Whitefield, Bengaluru. With top-rated food, service, and atmosphere, we’re known for our open-air ambiance, live events, karaoke nights, and gaming zone.",
        "diet:chicken": "yes",
        "diet:fish": "yes",
        "diet:gluten_free": "yes",
        "diet:halal": "yes",
        "diet:healthy": "yes",
        "diet:kosher": "yes",
        "diet:lacto_vegetarian": "yes",
        "diet:lactose_free": "yes",
        "diet:local": "yes",
        "diet:mediterranean": "yes",
        "diet:non-vegetarian": "yes",
        "diet:organic": "yes",
        "diet:pescetarian": "yes",
        "diet:seafood": "yes",
        "diet:sugar_free": "yes",
        "diet:vegan": "yes",
        "diet:vegetarian": "yes",
        "email": "theyardblr@gmail.com",
        "highchair": "yes",
        "internet_access": "wlan",
        "internet_access:fee": "no",
        "level": "9",
        "loc_name": "best bar and restaurant in Whitefield",
        "name": "The Yard, Whitefield",
        "official_name": "best bar and restaurant in Whitefield",
        "official_name:en": "best 5-star restaurants in Bengaluru",
        "opening_hours": "Mo-Sun 12.00-1.00",
        "organic": "only",
        "outdoor_seating": "yes",
        "payment:account_cards": "yes",
        "payment:alipay": "yes",
        "payment:american_express": "yes",
        "payment:app": "yes",
        "payment:apple_pay": "yes",
        "payment:bancomat": "yes",
        "payment:blik": "yes",
        "payment:cards": "yes",
        "payment:cash": "yes",
        "payment:cheque": "yes",
        "payment:clipper": "yes",
        "payment:coins": "yes",
        "payment:contactless": "yes",
        "payment:credit_cards": "yes",
        "payment:cryptocurrencies": "yes",
        "payment:debit_cards": "yes",
        "payment:diners_club": "yes",
        "payment:discover_card": "yes",
        "payment:dkv": "yes",
        "payment:electronic_purses": "yes",
        "payment:ep_easycard": "yes",
        "payment:ep_geldkarte": "yes",
        "payment:ep_ipass": "yes",
        "payment:girocard": "yes",
        "payment:google_pay": "yes",
        "payment:jcb": "yes",
        "payment:lightning": "yes",
        "payment:maestro": "yes",
        "payment:mastercard": "yes",
        "payment:mastercard_contactless": "yes",
        "payment:notes": "yes",
        "payment:onchain": "yes",
        "payment:paypal": "yes",
        "payment:prepaid_ticket": "yes",
        "payment:telephone_cards": "yes",
        "payment:unionpay": "yes",
        "payment:uta": "yes",
        "payment:v_pay": "yes",
        "payment:visa": "yes",
        "payment:visa_debit": "yes",
        "payment:visa_electron": "yes",
        "payment:wechat": "yes",
        "phone": "+919980123543",
        "reservation": "yes",
        "short_name": "The Yard",
        "smoking": "no",
        "sport": "billiards;table_soccer;darts;pool",
        "stars": "5",
        "takeaway": "yes",
        "toilets": "yes",
        "toilets:wheelchair": "yes",
        "website": "https://the-yard.in",
        "website:menu": "https://drive.google.com/drive/folders/1iwnYYAgSwNDCTb2ubnBj1-Gy8IZbGNZj",
        "wheelchair": "yes"
      }
    },
    {
      "type": "node",
      "id": 12767981104,
      "lat": 12.980602,
      "lon": 77.7092104,
      "tags": {
        "amenity": "hospital",
        "name": "Narayana Nethralaya",
        "opening_hours": "Mo-Sa 08:30-18:00",
        "phone": "08066121658",
        "website": "https://www.narayananethralaya.org/"
      }
    },
    {
      "type": "node",
      "id": 12946538926,
      "lat": 12.982368,
      "lon": 77.7087588,
      "tags": {
        "amenity": "restaurant",
        "check_date": "2025-06-23",
        "cuisine": "japanese",
        "name": "Hachi by Tenya"
      }
    },
    {
      "type": "node",
      "id": 12981491763,
      "lat": 12.9787167,
      "lon": 77.7112515,
      "tags": {
        "amenity": "restaurant",
        "check_date": "2025-07-06",
        "name": "Sinchana Food Court"
      }
    },
    {
      "type": "node",
      "id": 12981491764,
      "lat": 12.9790577,
      "lon": 77.7114144,
      "tags": {
        "check_date": "2025-07-06",
        "name": "G. K. B Indian Bikes",
        "shop": "motorcycle_repair"
      }
    },
    {
      "type": "node",
      "id": 12981491765,
      "lat": 12.9793525,
      "lon": 77.7118747,
      "tags": {
        "amenity": "kindergarten",
        "check_date": "2025-07-06",
        "name": "Footprints"
      }
    },
    {
      "type": "node",
      "id": 12981491768,
      "lat": 12.9792441,
      "lon": 77.7125699,
      "tags": {
        "amenity": "cafe",
        "check_date": "2025-07-06",
        "name": "The Chef"
      }
    },
    {
      "type": "node",
      "id": 12981491769,
      "lat": 12.9791045,
      "lon": 77.7125282,
      "tags": {
        "amenity": "fast_food",
        "check_date": "2025-07-06",
        "cuisine": "juice",
        "name": "Chai Venue"
      }
    },
    {
      "type": "node",
      "id": 12981491770,
      "lat": 12.9793229,
      "lon": 77.7122318,
      "tags": {
        "check_date": "2025-07-06",
        "name": "Vivek Tailors",
        "shop": "tailor"
      }
    },
    {
      "type": "node",
      "id": 13119024306,
      "lat": 12.9716903,
      "lon": 77.7117419,
      "tags": {
        "addr:floor": "1",
        "amenity": "restaurant",
        "check_date": "2025-09-04",
        "cuisine": "regional",
        "level": "1",
        "name": "Andhra Biryanis",
        "wheelchair": "no"
      }
    },
    {
      "type": "node",
      "id": 13120636975,
      "lat": 12.9857026,
      "lon": 77.7077508,
      "tags": {
        "addr:housenumber": "Plot no 14",
        "addr:postcode": "560048",
        "addr:street": "Kundalahalli Main Road",
        "amenity": "fuel",
        "name": "Hindustan Petroleum",
        "opening_hours": "24/7",
        "phone": "+919888751222",
        "self_service": "no",
        "website": "https://petrolpump.hpretail.in/hindustan-petroleum-corporation-limited-vriddhii-fuels-petrol-pump-itpl-main-road-bengaluru-419690/Home"
      }
    },
    {
      "type": "node",
      "id": 13120636986,
      "lat": 12.9866604,
      "lon": 77.7079537,
      "tags": {
        "amenity": "cafe",
        "name": "Hatti Kaapi"
      }
    },
    {
      "type": "node",
      "id": 13120641506,
      "lat": 12.9872387,
      "lon": 77.7088261,
      "tags": {
        "amenity": "fuel"
      }
    },
    {
      "type": "node",
      "id": 13122918092,
      "lat": 12.9868603,
      "lon": 77.7107398,
      "tags": {
        "access": "private",
        "amenity": "parking_entrance",
        "parking": "underground"
      }
    },
    {
      "type": "node",
      "id": 13122918098,
      "lat": 12.9868503,
      "lon": 77.71023,
      "tags": {
        "access": "private",
        "amenity": "parking_entrance",
        "parking": "underground"
      }
    },
    {
      "type": "node",
      "id": 13150832829,
      "lat": 12.9763652,
      "lon": 77.7046761,
      "tags": {
        "access": "private",
        "amenity": "parking_entrance",
        "parking": "underground"
      }
    },
    {
      "type": "node",
      "id": 13152141906,
      "lat": 12.9796467,
      "lon": 77.7107513,
      "tags": {
        "access": "private",
        "amenity": "parking_entrance",
        "parking": "underground"
      }
    },
    {
      "type": "node",
      "id": 13152141932,
      "lat": 12.9812208,
      "lon": 77.7100707,
      "tags": {
        "access": "private",
        "amenity": "parking_entrance",
        "parking": "underground"
      }
    },
    {
      "type": "node",
      "id": 13164448981,
      "lat": 12.9722898,
      "lon": 77.7136702,
      "tags": {
        "access": "private",
        "amenity": "parking_entrance",
        "parking": "underground"
      }
    },
    {
      "type": "node",
      "id": 13164464004,
      "lat": 12.9717017,
      "lon": 77.7142777,
      "tags": {
        "access": "private",
        "amenity": "parking_entrance",
        "parking": "underground"
      }
    },
    {
      "type": "node",
      "id": 13165790155,
      "lat": 12.971256,
      "lon": 77.7153077,
      "tags": {
        "access": "private",
        "amenity": "parking_entrance",
        "parking": "underground"
      }
    },
    {
      "type": "node",
      "id": 13165790166,
      "lat": 12.9712769,
      "lon": 77.7146224,
      "tags": {
        "access": "private",
        "amenity": "parking_entrance",
        "parking": "underground"
      }
    },
    {
      "type": "node",
      "id": 13165790203,
      "lat": 12.9708581,
      "lon": 77.7150522,
      "tags": {
        "access": "private",
        "amenity": "parking_entrance",
        "parking": "underground"
      }
    },
    {
      "type": "node",
      "id": 13310052105,
      "lat": 12.9784844,
      "lon": 77.7108237,
      "tags": {
        "access": "customers",
        "leisure": "pitch",
        "name": "Swysh",
        "sport": "pickleball"
      }
    },
    {
      "type": "way",
      "id": 45268415,
      "center": {
        "lat": 12.9789949,
        "lon": 77.7190255
      },
      "tags": {
        "addr:plot": "121",
        "amenity": "exhibition_hall",
        "barrier": "wall",
        "check_date": "2025-11-23",
        "email": "md@ktpo.org",
        "name": "Karnataka Trade Promotion Organisation - KTPO"
      }
    },
    {
      "type": "way",
      "id": 122403363,
      "center": {
        "lat": 12.9863803,
        "lon": 77.7068884
      },
      "tags": {
        "addr:city": "Mahadevapura, Bangalore",
        "addr:street": "Graphite India Road",
        "amenity": "school",
        "barrier": "wall",
        "name": "Gopalan National School"
      }
    },
    {
      "type": "way",
      "id": 122668450,
      "center": {
        "lat": 12.9775672,
        "lon": 77.7131084
      },
      "tags": {
        "addr:city": "Bangalore",
        "addr:country": "IN",
        "addr:housenumber": "136,137",
        "addr:postcode": "560066",
        "addr:street": "EPIP Area, Road No. 1, Opp SAP Labs",
        "amenity": "restaurant",
        "building": "yes",
        "phone": "+91 80 6622 6969",
        "tourism": "hotel"
      }
    },
    {
      "type": "way",
      "id": 122668481,
      "center": {
        "lat": 12.9794494,
        "lon": 77.7199175
      },
      "tags": {
        "amenity": "events_venue",
        "building": "commercial",
        "building:levels": "2",
        "name": "KTPO Exhibhition and Convention Center"
      }
    },
    {
      "type": "way",
      "id": 123613264,
      "center": {
        "lat": 12.9788071,
        "lon": 77.7099307
      },
      "tags": {
        "addr:full": "5A, Graphite India Road, Mahadevapura, Bangalore - 560048",
        "brand": "Hyundai",
        "brand:wikidata": "Q55931",
        "email": "amplws_13@rediffmail.com",
        "name": "Advaith Hyundai Service",
        "name:kn": "ಅದ್ವೈತ ಹ್ಯುಂಡೈ",
        "operator": "Advaith",
        "phone": "+91-80-22976182",
        "shop": "car"
      }
    },
    {
      "type": "way",
      "id": 181464980,
      "center": {
        "lat": 12.9791704,
        "lon": 77.7204728
      },
      "tags": {
        "leisure": "garden"
      }
    },
    {
      "type": "way",
      "id": 181695452,
      "center": {
        "lat": 12.9793732,
        "lon": 77.7148716
      },
      "tags": {
        "amenity": "cafe",
        "building": "yes",
        "name": "Open Canopy"
      }
    },
    {
      "type": "way",
      "id": 181695454,
      "center": {
        "lat": 12.9721529,
        "lon": 77.7171183
      },
      "tags": {
        "amenity": "shelter",
        "building": "yes"
      }
    },
    {
      "type": "way",
      "id": 181695464,
      "center": {
        "lat": 12.9718685,
        "lon": 77.7168139
      },
      "tags": {
        "amenity": "shelter",
        "building": "yes"
      }
    },
    {
      "type": "way",
      "id": 181695465,
      "center": {
        "lat": 12.9792452,
        "lon": 77.7149548
      },
      "tags": {
        "amenity": "cafe",
        "building": "yes",
        "name": "Open Canopy"
      }
    },
    {
      "type": "way",
      "id": 181695473,
      "center": {
        "lat": 12.9721931,
        "lon": 77.7170043
      },
      "tags": {
        "amenity": "shelter",
        "building": "yes"
      }
    },
    {
      "type": "way",
      "id": 181695477,
      "center": {
        "lat": 12.9719814,
        "lon": 77.7168551
      },
      "tags": {
        "amenity": "shelter",
        "building": "yes"
      }
    },
    {
      "type": "way",
      "id": 181695481,
      "center": {
        "lat": 12.9718296,
        "lon": 77.7169308
      },
      "tags": {
        "amenity": "shelter",
        "building": "yes"
      }
    },
    {
      "type": "way",
      "id": 181695485,
      "center": {
        "lat": 12.9722213,
        "lon": 77.7169005
      },
      "tags": {
        "amenity": "shelter",
        "building": "yes"
      }
    },
    {
      "type": "way",
      "id": 181695493,
      "center": {
        "lat": 12.979266,
        "lon": 77.7148475
      },
      "tags": {
        "amenity": "cafe",
        "building": "yes",
        "name": "Open Canopy"
      }
    },
    {
      "type": "way",
      "id": 181695498,
      "center": {
        "lat": 12.9719352,
        "lon": 77.7170671
      },
      "tags": {
        "amenity": "shelter",
        "building": "yes"
      }
    },
    {
      "type": "way",
      "id": 181695499,
      "center": {
        "lat": 12.9804032,
        "lon": 77.7167348
      },
      "tags": {
        "access": "private",
        "amenity": "parking",
        "parking": "street_side"
      }
    },
    {
      "type": "way",
      "id": 181695506,
      "center": {
        "lat": 12.9720368,
        "lon": 77.7171264
      },
      "tags": {
        "amenity": "shelter",
        "building": "yes"
      }
    },
    {
      "type": "way",
      "id": 181695507,
      "center": {
        "lat": 12.9718246,
        "lon": 77.7170749
      },
      "tags": {
        "amenity": "shelter",
        "building": "yes"
      }
    },
    {
      "type": "way",
      "id": 183042756,
      "center": {
        "lat": 12.9773097,
        "lon": 77.715083
      },
      "tags": {
        "access": "private",
        "leisure": "swimming_pool"
      }
    },
    {
      "type": "way",
      "id": 285845678,
      "center": {
        "lat": 12.9856771,
        "lon": 77.7172914
      },
      "tags": {
        "landuse": "recreation_ground",
        "leisure": "sports_centre",
        "name": "Gopalan International School Playground"
      }
    },
    {
      "type": "way",
      "id": 322896805,
      "center": {
        "lat": 12.9849608,
        "lon": 77.7174195
      },
      "tags": {
        "addr:city": "Bangalore",
        "addr:full": "181/1, 182/1, Behind SAP Labs, Seetharam Palya, Basavanagar, Hoodi, Mutharayana Nagar, Gnana Bharathi, Bengaluru, Karnataka",
        "addr:postcode": "560048",
        "addr:state": "Karnataka",
        "addr:street": "Seetharampalya Road",
        "amenity": "college",
        "name": "Gopalan College of Engineering and Management"
      }
    },
    {
      "type": "way",
      "id": 323234499,
      "center": {
        "lat": 12.9750501,
        "lon": 77.7133947
      },
      "tags": {
        "email": "hello@powerplayindia.com",
        "leisure": "sports_centre",
        "name": "PowerPlay One",
        "phone": "+91 9980451000",
        "sport": "cricket;table_tennis",
        "website": "https://www.powerplayindia.com"
      }
    },
    {
      "type": "way",
      "id": 346842851,
      "center": {
        "lat": 12.9841618,
        "lon": 77.7077841
      },
      "tags": {
        "addr:city": "Bengaluru",
        "addr:housenumber": "243/17-B",
        "addr:postcode": "560048",
        "addr:street": "Doddanakundi Industrial Area 2",
        "alt_name": "BMW Deutsche Motoren Service Centre",
        "brand": "BMW",
        "brand:wikidata": "Q26678",
        "building": "yes",
        "name": "BMW",
        "shop": "car"
      }
    },
    {
      "type": "way",
      "id": 346843087,
      "center": {
        "lat": 12.9840091,
        "lon": 77.706795
      },
      "tags": {
        "access": "private",
        "amenity": "parking",
        "parking": "surface"
      }
    },
    {
      "type": "way",
      "id": 347067029,
      "center": {
        "lat": 12.9820131,
        "lon": 77.7169608
      },
      "tags": {
        "amenity": "place_of_worship",
        "name": "Anjaneya Swamy Temple",
        "name:kn": "ಆಂಜನೇಯಸ್ವಾಮಿ ದೇವಸ್ಥಾನ",
        "religion": "hindu"
      }
    },
    {
      "type": "way",
      "id": 351060167,
      "center": {
        "lat": 12.9876239,
        "lon": 77.7103214
      },
      "tags": {
        "brand": "Bosch Car Service",
        "brand:wikidata": "Q894368",
        "building": "commercial",
        "name": "Bosch Car Service Center",
        "name:kn": "ಬೋಷ್",
        "operator": "Bosch",
        "shop": "car_repair"
      }
    },
    {
      "type": "way",
      "id": 398996840,
      "center": {
        "lat": 12.9813439,
        "lon": 77.7138944
      },
      "tags": {
        "leisure": "pitch",
        "sport": "futsal"
      }
    },
    {
      "type": "way",
      "id": 398996846,
      "center": {
        "lat": 12.9822924,
        "lon": 77.7171383
      },
      "tags": {
        "amenity": "parking"
      }
    },
    {
      "type": "way",
      "id": 398996849,
      "center": {
        "lat": 12.9813933,
        "lon": 77.7142831
      },
      "tags": {
        "email": "hello@powerplayindia.com",
        "leisure": "sports_centre",
        "name": "PowerPlay Two",
        "phone": "+91 9980451000",
        "sport": "futsal;badminton;cricket",
        "website": "https://www.powerplayindia.com"
      }
    },
    {
      "type": "way",
      "id": 398996850,
      "center": {
        "lat": 12.9811636,
        "lon": 77.7138657
      },
      "tags": {
        "leisure": "pitch",
        "sport": "futsal"
      }
    },
    {
      "type": "way",
      "id": 414837820,
      "center": {
        "lat": 12.9741304,
        "lon": 77.7152631
      },
      "tags": {
        "leisure": "park"
      }
    },
    {
      "type": "way",
      "id": 469415969,
      "center": {
        "lat": 12.9724511,
        "lon": 77.7165444
      },
      "tags": {
        "leisure": "park",
        "name": "Igate Park",
        "natural": "wood"
      }
    },
    {
      "type": "way",
      "id": 494680607,
      "center": {
        "lat": 12.977753,
        "lon": 77.7111914
      },
      "tags": {
        "check_date": "2025-11-23",
        "landuse": "retail",
        "name": "Nandi Toyota",
        "name:kn": "ನಂದಿ ಟೊಯೋಟ",
        "shop": "car"
      }
    },
    {
      "type": "way",
      "id": 540651838,
      "center": {
        "lat": 12.9707819,
        "lon": 77.7126186
      },
      "tags": {
        "addr:city": "Bengaluru",
        "addr:housenumber": "1",
        "addr:postcode": "560037",
        "addr:street": "Kundalahalli Main Road",
        "air_conditioning": "no",
        "amenity": "fast_food",
        "bar": "no",
        "brand": "The Rameshwaram Cafe",
        "brand:wikidata": "Q124374630",
        "building": "yes",
        "check_date": "2025-10-30",
        "cuisine": "south_indian",
        "diet:vegetarian": "only",
        "indoor_seating": "yes",
        "internet_access": "no",
        "level": "0",
        "microbrewery": "no",
        "name": "The Rameshwaram Cafe",
        "outdoor_seating": "no",
        "payment:credit_cards": "yes",
        "payment:debit_cards": "yes",
        "reservation": "no",
        "smoking": "no",
        "source": "local knowledge",
        "takeaway": "yes",
        "toilets": "yes",
        "toilets:wheelchair": "no",
        "website": "https://therameshwaramcafe.org/",
        "wheelchair": "no"
      }
    },
    {
      "type": "way",
      "id": 577482796,
      "center": {
        "lat": 12.9706225,
        "lon": 77.715035
      },
      "tags": {
        "access": "yes",
        "leisure": "swimming_pool"
      }
    },
    {
      "type": "way",
      "id": 577482799,
      "center": {
        "lat": 12.9705778,
        "lon": 77.7149256
      },
      "tags": {
        "leisure": "pitch",
        "sport": "volleyball"
      }
    },
    {
      "type": "way",
      "id": 577482801,
      "center": {
        "lat": 12.9706728,
        "lon": 77.7147289
      },
      "tags": {
        "leisure": "park"
      }
    },
    {
      "type": "way",
      "id": 577482805,
      "center": {
        "lat": 12.9708745,
        "lon": 77.7154778
      },
      "tags": {
        "leisure": "park"
      }
    },
    {
      "type": "way",
      "id": 577482807,
      "center": {
        "lat": 12.9705436,
        "lon": 77.71549
      },
      "tags": {
        "leisure": "park"
      }
    },
    {
      "type": "way",
      "id": 578459285,
      "center": {
        "lat": 12.9720338,
        "lon": 77.7116273
      },
      "tags": {
        "addr:city": "Bengaluru",
        "addr:postcode": "560037",
        "addr:street": "ITPL Main Road,Kundalahalli Colony, Brookefield",
        "amenity": "place_of_worship",
        "building": "yes",
        "description": "ಹನುಮಾನ್ ಮಂದಿರ",
        "name": "Shree Prasanna Anjaneyaswamy Temple",
        "religion": "hindu"
      }
    },
    {
      "type": "way",
      "id": 582562272,
      "center": {
        "lat": 12.975813,
        "lon": 77.7058163
      },
      "tags": {
        "leisure": "swimming_pool"
      }
    },
    {
      "type": "way",
      "id": 582562273,
      "center": {
        "lat": 12.9759599,
        "lon": 77.7055702
      },
      "tags": {
        "access": "private",
        "leisure": "park"
      }
    },
    {
      "type": "way",
      "id": 582562275,
      "center": {
        "lat": 12.9755365,
        "lon": 77.7065665
      },
      "tags": {
        "access": "private",
        "leisure": "park"
      }
    },
    {
      "type": "way",
      "id": 647669134,
      "center": {
        "lat": 12.9718834,
        "lon": 77.7117298
      },
      "tags": {
        "amenity": "parking",
        "fee": "no",
        "informal": "yes"
      }
    },
    {
      "type": "way",
      "id": 886184261,
      "center": {
        "lat": 12.9864581,
        "lon": 77.7169589
      },
      "tags": {
        "addr:full": "Seetharampalya, Hoodi, Bengaluru, Karnataka",
        "addr:state": "Karnataka",
        "amenity": "college",
        "name": "GSAP-Gopalan College Of Architecture"
      }
    },
    {
      "type": "way",
      "id": 992731942,
      "center": {
        "lat": 12.9737038,
        "lon": 77.7099428
      },
      "tags": {
        "access": "permissive",
        "amenity": "parking",
        "building": "parking",
        "building:levels": "6",
        "name": "MLCP",
        "operator": "Prestige Technostar",
        "parking": "multi-storey"
      }
    },
    {
      "type": "way",
      "id": 1065289736,
      "center": {
        "lat": 12.9718522,
        "lon": 77.7086894
      },
      "tags": {
        "leisure": "park"
      }
    },
    {
      "type": "way",
      "id": 1065289739,
      "center": {
        "lat": 12.9733363,
        "lon": 77.7107065
      },
      "tags": {
        "leisure": "park"
      }
    },
    {
      "type": "way",
      "id": 1073952495,
      "center": {
        "lat": 12.9714565,
        "lon": 77.7160258
      },
      "tags": {
        "leisure": "common",
        "natural": "scrub"
      }
    },
    {
      "type": "way",
      "id": 1083400633,
      "center": {
        "lat": 12.9722396,
        "lon": 77.7142034
      },
      "tags": {
        "leisure": "swimming_pool"
      }
    },
    {
      "type": "way",
      "id": 1084192094,
      "center": {
        "lat": 12.9730525,
        "lon": 77.7079393
      },
      "tags": {
        "addr:city": "Bengaluru",
        "addr:postcode": "560048",
        "addr:street": "Doddanakundi Industrial Area 2, Phase 1, Doddanekkundi",
        "amenity": "place_of_worship",
        "building": "yes",
        "name": "Shri Yedugaramma Devi Temple",
        "religion": "hindu"
      }
    },
    {
      "type": "way",
      "id": 1084474518,
      "center": {
        "lat": 12.9873357,
        "lon": 77.711611
      },
      "tags": {
        "access": "private",
        "leisure": "swimming_pool",
        "lit": "yes",
        "location": "outdoor"
      }
    },
    {
      "type": "way",
      "id": 1084701601,
      "center": {
        "lat": 12.9820599,
        "lon": 77.7107596
      },
      "tags": {
        "access": "private",
        "leisure": "pitch",
        "sport": "tennis"
      }
    },
    {
      "type": "way",
      "id": 1084701602,
      "center": {
        "lat": 12.9820326,
        "lon": 77.7109677
      },
      "tags": {
        "access": "private",
        "leisure": "pitch",
        "sport": "tennis"
      }
    },
    {
      "type": "way",
      "id": 1084701603,
      "center": {
        "lat": 12.9820041,
        "lon": 77.711182
      },
      "tags": {
        "leisure": "pitch",
        "sport": "basketball"
      }
    },
    {
      "type": "way",
      "id": 1084701604,
      "center": {
        "lat": 12.9816504,
        "lon": 77.7109571
      },
      "tags": {
        "amenity": "community_centre",
        "building": "yes",
        "name": "Club House"
      }
    },
    {
      "type": "way",
      "id": 1085398675,
      "center": {
        "lat": 12.9706045,
        "lon": 77.712272
      },
      "tags": {
        "access": "yes",
        "amenity": "toilets",
        "building": "yes",
        "check_date": "2024-12-23",
        "fee": "yes",
        "layer": "1",
        "wheelchair": "no"
      }
    },
    {
      "type": "way",
      "id": 1104753180,
      "center": {
        "lat": 12.9783415,
        "lon": 77.7112436
      },
      "tags": {
        "addr:full": "2nd Road, EPIP Industrial Area, Whitefield, Bangalore",
        "amenity": "fuel",
        "brand": "Indian Oil",
        "brand:wikidata": "Q1289348",
        "check_date": "2025-11-07",
        "compressed_air": "yes",
        "name": "Indian Oil",
        "name:kn": "ಇಂಡಿಯನ್ ಆಯಿಲ್",
        "operator": "Indian Oil"
      }
    },
    {
      "type": "way",
      "id": 1130678784,
      "center": {
        "lat": 12.9826703,
        "lon": 77.7078952
      },
      "tags": {
        "amenity": "fuel",
        "brand": "Shell",
        "brand:wikidata": "Q110716465",
        "brand:wikipedia": "en:Royal Dutch Shell",
        "compressed_air": "yes",
        "fuel:diesel": "yes",
        "fuel:gasoline": "yes",
        "landuse": "commercial",
        "name": "Shell",
        "name:kn": "ಶೆಲ್",
        "opening_hours": "24/7",
        "operator": "Shell",
        "payment:cash": "yes",
        "payment:credit_cards": "yes",
        "payment:debit_cards": "yes",
        "payment:electronic_purses": "yes"
      }
    },
    {
      "type": "way",
      "id": 1135846652,
      "center": {
        "lat": 12.9718185,
        "lon": 77.7141719
      },
      "tags": {
        "leisure": "swimming_pool"
      }
    },
    {
      "type": "way",
      "id": 1135846653,
      "center": {
        "lat": 12.9719699,
        "lon": 77.7151731
      },
      "tags": {
        "leisure": "swimming_pool"
      }
    },
    {
      "type": "way",
      "id": 1135846658,
      "center": {
        "lat": 12.9857824,
        "lon": 77.7140261
      },
      "tags": {
        "amenity": "school",
        "name": "EuroSchool Whitefield"
      }
    },
    {
      "type": "way",
      "id": 1135846659,
      "center": {
        "lat": 12.9858381,
        "lon": 77.7137029
      },
      "tags": {
        "access": "private",
        "leisure": "swimming_pool"
      }
    },
    {
      "type": "way",
      "id": 1135846660,
      "center": {
        "lat": 12.9855617,
        "lon": 77.7136083
      },
      "tags": {
        "access": "private",
        "leisure": "pitch",
        "sport": "basketball"
      }
    },
    {
      "type": "way",
      "id": 1135851061,
      "center": {
        "lat": 12.9764238,
        "lon": 77.7045179
      },
      "tags": {
        "access": "private",
        "leisure": "pitch",
        "sport": "tennis"
      }
    },
    {
      "type": "way",
      "id": 1144281250,
      "center": {
        "lat": 12.9826593,
        "lon": 77.708601
      },
      "tags": {
        "amenity": "fuel",
        "brand": "TotalEnergies",
        "brand:wikidata": "Q154037",
        "brand_1": "Totalgaz",
        "compressed_air": "yes",
        "fuel:lpg": "yes",
        "landuse": "commercial",
        "name": "Esskay Totalgaz"
      }
    },
    {
      "type": "way",
      "id": 1150511285,
      "center": {
        "lat": 12.9725414,
        "lon": 77.7078105
      },
      "tags": {
        "access": "customers",
        "amenity": "charging_station",
        "brand": "Shell",
        "capacity": "4",
        "fee": "no",
        "operator": "Shell",
        "operator:wikidata": "Q110716465"
      }
    },
    {
      "type": "way",
      "id": 1150511286,
      "center": {
        "lat": 12.9732724,
        "lon": 77.7088218
      },
      "tags": {
        "name": "Advaith Hyundai",
        "name:kn": "ಅದ್ವೈತ ಹ್ಯುಂಡೈ",
        "shop": "car"
      }
    },
    {
      "type": "way",
      "id": 1151907062,
      "center": {
        "lat": 12.9838607,
        "lon": 77.7190736
      },
      "tags": {
        "amenity": "school",
        "name": "Government Primary School",
        "name:kn": "ಸರ್ಕಾರಿ ಪ್ರಾಥಮಿಕ ಶಾಲೆ"
      }
    },
    {
      "type": "way",
      "id": 1151912862,
      "center": {
        "lat": 12.9819476,
        "lon": 77.7178615
      },
      "tags": {
        "access": "private",
        "leisure": "swimming_pool",
        "location": "outdoor",
        "swimming_pool": "outdoor"
      }
    },
    {
      "type": "way",
      "id": 1151912873,
      "center": {
        "lat": 12.9805799,
        "lon": 77.7169775
      },
      "tags": {
        "access": "private",
        "amenity": "parking",
        "building": "parking",
        "building:levels": "12",
        "parking": "multi-storey"
      }
    },
    {
      "type": "way",
      "id": 1151912877,
      "center": {
        "lat": 12.9839545,
        "lon": 77.7197842
      },
      "tags": {
        "access": "private",
        "leisure": "pitch",
        "sport": "tennis"
      }
    },
    {
      "type": "way",
      "id": 1152486232,
      "center": {
        "lat": 12.9782611,
        "lon": 77.7159242
      },
      "tags": {
        "leisure": "pitch",
        "sport": "tennis"
      }
    },
    {
      "type": "way",
      "id": 1181138335,
      "center": {
        "lat": 12.9712874,
        "lon": 77.7142406
      },
      "tags": {
        "access": "private",
        "leisure": "swimming_pool",
        "location": "outdoor",
        "swimming_pool": "outdoor"
      }
    },
    {
      "type": "way",
      "id": 1190294308,
      "center": {
        "lat": 12.981718,
        "lon": 77.7156705
      },
      "tags": {
        "access": "private",
        "leisure": "pitch",
        "sport": "soccer"
      }
    },
    {
      "type": "way",
      "id": 1216840020,
      "center": {
        "lat": 12.9777962,
        "lon": 77.7072893
      },
      "tags": {
        "leisure": "sports_centre",
        "name": "The Yard Arena"
      }
    },
    {
      "type": "way",
      "id": 1216840023,
      "center": {
        "lat": 12.9736304,
        "lon": 77.7093964
      },
      "tags": {
        "access": "private",
        "leisure": "pitch",
        "sport": "futsal"
      }
    },
    {
      "type": "way",
      "id": 1216840033,
      "center": {
        "lat": 12.9790305,
        "lon": 77.7056774
      },
      "tags": {
        "brand": "Škoda",
        "brand:wikidata": "Q29637",
        "landuse": "industrial",
        "name": "Raj Skoda Repair",
        "shop": "car_repair"
      }
    },
    {
      "type": "way",
      "id": 1216840038,
      "center": {
        "lat": 12.9779095,
        "lon": 77.7063285
      },
      "tags": {
        "brand": "Kia",
        "brand:wikidata": "Q35349",
        "name": "Kia Service Center",
        "shop": "car_repair"
      }
    },
    {
      "type": "way",
      "id": 1216840039,
      "center": {
        "lat": 12.9778391,
        "lon": 77.7071932
      },
      "tags": {
        "leisure": "pitch",
        "sport": "futsal"
      }
    },
    {
      "type": "way",
      "id": 1216840045,
      "center": {
        "lat": 12.9741674,
        "lon": 77.7084603
      },
      "tags": {
        "amenity": "parking",
        "parking": "surface"
      }
    },
    {
      "type": "way",
      "id": 1216840046,
      "center": {
        "lat": 12.9735199,
        "lon": 77.7094525
      },
      "tags": {
        "access": "private",
        "leisure": "pitch",
        "sport": "tennis"
      }
    },
    {
      "type": "way",
      "id": 1219331350,
      "center": {
        "lat": 12.9833896,
        "lon": 77.7084842
      },
      "tags": {
        "access": "private",
        "amenity": "parking",
        "covered": "yes"
      }
    },
    {
      "type": "way",
      "id": 1222938389,
      "center": {
        "lat": 12.9792619,
        "lon": 77.7160208
      },
      "tags": {
        "access": "private",
        "leisure": "pitch",
        "sport": "basketball"
      }
    },
    {
      "type": "way",
      "id": 1225162207,
      "center": {
        "lat": 12.9806621,
        "lon": 77.7106158
      },
      "tags": {
        "access": "private",
        "amenity": "parking",
        "parking": "street_side"
      }
    },
    {
      "type": "way",
      "id": 1232319856,
      "center": {
        "lat": 12.9812408,
        "lon": 77.708747
      },
      "tags": {
        "indoor": "room",
        "layer": "1",
        "payment:cash": "yes",
        "payment:upi": "yes",
        "room": "shop",
        "shop": "ticket",
        "tickets:public_transport": "yes"
      }
    },
    {
      "type": "way",
      "id": 1233514056,
      "center": {
        "lat": 12.9811241,
        "lon": 77.7142288
      },
      "tags": {
        "access": "customers",
        "amenity": "parking",
        "parking": "surface"
      }
    },
    {
      "type": "way",
      "id": 1233514057,
      "center": {
        "lat": 12.9850527,
        "lon": 77.7151026
      },
      "tags": {
        "amenity": "grave_yard",
        "landuse": "cemetery"
      }
    },
    {
      "type": "way",
      "id": 1233514058,
      "center": {
        "lat": 12.9805932,
        "lon": 77.713661
      },
      "tags": {
        "leisure": "pitch",
        "sport": "cricket_nets"
      }
    },
    {
      "type": "way",
      "id": 1233514062,
      "center": {
        "lat": 12.9825763,
        "lon": 77.7123968
      },
      "tags": {
        "leisure": "playground"
      }
    },
    {
      "type": "way",
      "id": 1233514068,
      "center": {
        "lat": 12.9860293,
        "lon": 77.7138312
      },
      "tags": {
        "access": "private",
        "leisure": "pitch",
        "sport": "soccer"
      }
    },
    {
      "type": "way",
      "id": 1233518880,
      "center": {
        "lat": 12.980172,
        "lon": 77.7133958
      },
      "tags": {
        "amenity": "kindergarten",
        "max_age": "6",
        "min_age": "2",
        "name": "Kinfolk",
        "phone": "+91 72042 34333",
        "website": "https://kinfolkedu.com/"
      }
    },
    {
      "type": "way",
      "id": 1233518883,
      "center": {
        "lat": 12.9783664,
        "lon": 77.7119258
      },
      "tags": {
        "access": "private",
        "amenity": "parking",
        "name": "RMZ NXT Visitor's Parking"
      }
    },
    {
      "type": "way",
      "id": 1233518894,
      "center": {
        "lat": 12.9800139,
        "lon": 77.7140093
      },
      "tags": {
        "access": "private",
        "amenity": "parking",
        "parking": "surface"
      }
    },
    {
      "type": "way",
      "id": 1233523922,
      "center": {
        "lat": 12.9809709,
        "lon": 77.7151477
      },
      "tags": {
        "access": "private",
        "amenity": "parking",
        "parking": "street_side"
      }
    },
    {
      "type": "way",
      "id": 1233523928,
      "center": {
        "lat": 12.9806883,
        "lon": 77.7165816
      },
      "tags": {
        "access": "private",
        "amenity": "parking",
        "parking": "street_side"
      }
    },
    {
      "type": "way",
      "id": 1233523929,
      "center": {
        "lat": 12.9809379,
        "lon": 77.7166657
      },
      "tags": {
        "access": "private",
        "amenity": "parking",
        "parking": "street_side"
      }
    },
    {
      "type": "way",
      "id": 1233523930,
      "center": {
        "lat": 12.9813127,
        "lon": 77.7160855
      },
      "tags": {
        "access": "private",
        "amenity": "parking"
      }
    },
    {
      "type": "way",
      "id": 1233527832,
      "center": {
        "lat": 12.980688,
        "lon": 77.7202339
      },
      "tags": {
        "access": "private",
        "amenity": "parking"
      }
    },
    {
      "type": "way",
      "id": 1235735135,
      "center": {
        "lat": 12.9781554,
        "lon": 77.7048824
      },
      "tags": {
        "access": "private",
        "leisure": "sports_centre"
      }
    },
    {
      "type": "way",
      "id": 1237037092,
      "center": {
        "lat": 12.9715796,
        "lon": 77.7080695
      },
      "tags": {
        "amenity": "shelter",
        "bench": "yes",
        "building": "yes",
        "shelter_type": "picnic_shelter"
      }
    },
    {
      "type": "way",
      "id": 1238759200,
      "center": {
        "lat": 12.9846031,
        "lon": 77.7053455
      },
      "tags": {
        "access": "private",
        "leisure": "swimming_pool"
      }
    },
    {
      "type": "way",
      "id": 1239913133,
      "center": {
        "lat": 12.9712318,
        "lon": 77.7108815
      },
      "tags": {
        "leisure": "garden"
      }
    },
    {
      "type": "way",
      "id": 1239913135,
      "center": {
        "lat": 12.9713556,
        "lon": 77.7109479
      },
      "tags": {
        "leisure": "garden"
      }
    },
    {
      "type": "way",
      "id": 1241956512,
      "center": {
        "lat": 12.9711723,
        "lon": 77.7095527
      },
      "tags": {
        "leisure": "bleachers"
      }
    },
    {
      "type": "way",
      "id": 1252509972,
      "center": {
        "lat": 12.9875226,
        "lon": 77.7115161
      },
      "tags": {
        "access": "private",
        "hoops": "1",
        "leisure": "pitch",
        "lit": "yes",
        "name": "Godrej Air Basketball Half Court",
        "sport": "basketball",
        "surface": "artificial_turf"
      }
    },
    {
      "type": "way",
      "id": 1252510394,
      "center": {
        "lat": 12.987768,
        "lon": 77.7115184
      },
      "tags": {
        "access": "private",
        "leisure": "pitch",
        "name": "Outdoor Chess Board at Godrej Air",
        "sport": "chess",
        "surface": "paved"
      }
    },
    {
      "type": "way",
      "id": 1252516688,
      "center": {
        "lat": 12.9877746,
        "lon": 77.7121169
      },
      "tags": {
        "amenity": "shelter",
        "bench": "yes",
        "building": "roof",
        "lit": "yes",
        "shelter_type": "gazebo"
      }
    },
    {
      "type": "way",
      "id": 1252518541,
      "center": {
        "lat": 12.9860166,
        "lon": 77.7116673
      },
      "tags": {
        "amenity": "theatre",
        "name": "Godrej Air Amphitheatre",
        "theatre:type": "amphi"
      }
    },
    {
      "type": "way",
      "id": 1270575630,
      "center": {
        "lat": 12.9771746,
        "lon": 77.7100683
      },
      "tags": {
        "amenity": "parking",
        "parking": "street_side"
      }
    },
    {
      "type": "way",
      "id": 1272139275,
      "center": {
        "lat": 12.9762552,
        "lon": 77.7173035
      },
      "tags": {
        "access": "customers",
        "amenity": "parking",
        "parking": "surface"
      }
    },
    {
      "type": "way",
      "id": 1273580576,
      "center": {
        "lat": 12.9742361,
        "lon": 77.7189171
      },
      "tags": {
        "access": "private",
        "amenity": "parking",
        "capacity": "4",
        "parking": "street_side"
      }
    },
    {
      "type": "way",
      "id": 1273580577,
      "center": {
        "lat": 12.9742464,
        "lon": 77.718655
      },
      "tags": {
        "access": "private",
        "amenity": "parking",
        "capacity": "4",
        "parking": "street_side"
      }
    },
    {
      "type": "way",
      "id": 1273628118,
      "center": {
        "lat": 12.9730588,
        "lon": 77.7182317
      },
      "tags": {
        "access": "private",
        "amenity": "parking",
        "orientation": "perpendicular",
        "parking": "street_side"
      }
    },
    {
      "type": "way",
      "id": 1273628130,
      "center": {
        "lat": 12.9725033,
        "lon": 77.7171282
      },
      "tags": {
        "leisure": "swimming_pool"
      }
    },
    {
      "type": "way",
      "id": 1273980557,
      "center": {
        "lat": 12.9721382,
        "lon": 77.7173531
      },
      "tags": {
        "access": "private",
        "amenity": "parking",
        "parking": "carports"
      }
    },
    {
      "type": "way",
      "id": 1273980558,
      "center": {
        "lat": 12.9720448,
        "lon": 77.7169418
      },
      "tags": {
        "leisure": "bleachers"
      }
    },
    {
      "type": "way",
      "id": 1273980560,
      "center": {
        "lat": 12.9725463,
        "lon": 77.717866
      },
      "tags": {
        "leisure": "garden"
      }
    },
    {
      "type": "way",
      "id": 1294964815,
      "center": {
        "lat": 12.9775445,
        "lon": 77.7156192
      },
      "tags": {
        "access": "customers",
        "amenity": "toilets",
        "indoor": "room",
        "level": "1",
        "room": "toilet",
        "wheelchair": "yes"
      }
    },
    {
      "type": "way",
      "id": 1302227118,
      "center": {
        "lat": 12.9824788,
        "lon": 77.7214029
      },
      "tags": {
        "access": "permissive",
        "amenity": "parking",
        "parking": "surface"
      }
    },
    {
      "type": "way",
      "id": 1302227126,
      "center": {
        "lat": 12.9858766,
        "lon": 77.7170755
      },
      "tags": {
        "access": "private",
        "leisure": "pitch",
        "sport": "tennis"
      }
    },
    {
      "type": "way",
      "id": 1302227127,
      "center": {
        "lat": 12.9857712,
        "lon": 77.7106084
      },
      "tags": {
        "access": "private",
        "leisure": "swimming_pool"
      }
    },
    {
      "type": "way",
      "id": 1302227128,
      "center": {
        "lat": 12.9863139,
        "lon": 77.7106302
      },
      "tags": {
        "access": "private",
        "leisure": "swimming_pool"
      }
    },
    {
      "type": "way",
      "id": 1302227131,
      "center": {
        "lat": 12.9843373,
        "lon": 77.7125499
      },
      "tags": {
        "access": "private",
        "leisure": "swimming_pool"
      }
    },
    {
      "type": "way",
      "id": 1302227132,
      "center": {
        "lat": 12.9847366,
        "lon": 77.7129243
      },
      "tags": {
        "access": "private",
        "leisure": "pitch",
        "sport": "tennis"
      }
    },
    {
      "type": "way",
      "id": 1311009352,
      "center": {
        "lat": 12.9858593,
        "lon": 77.7081527
      },
      "tags": {
        "access": "yes",
        "amenity": "parking",
        "fee": "yes",
        "layer": "-1",
        "parking": "underground",
        "surface": "concrete"
      }
    },
    {
      "type": "way",
      "id": 1319410577,
      "center": {
        "lat": 12.9748039,
        "lon": 77.7056783
      },
      "tags": {
        "brand": "Mercedes-Benz",
        "brand:wikidata": "Q36008",
        "name": "Sundaram Motors",
        "second_hand": "no",
        "shop": "car"
      }
    },
    {
      "type": "way",
      "id": 1382948058,
      "center": {
        "lat": 12.979474,
        "lon": 77.7101648
      },
      "tags": {
        "access": "customers",
        "leisure": "swimming_pool",
        "location": "roof"
      }
    },
    {
      "type": "way",
      "id": 1427467748,
      "center": {
        "lat": 12.985749,
        "lon": 77.7108949
      },
      "tags": {
        "access": "private",
        "leisure": "playground"
      }
    },
    {
      "type": "way",
      "id": 1427467749,
      "center": {
        "lat": 12.9845744,
        "lon": 77.7126131
      },
      "tags": {
        "access": "private",
        "backrest": "yes",
        "leisure": "bleachers"
      }
    },
    {
      "type": "way",
      "id": 1427467750,
      "center": {
        "lat": 12.9845525,
        "lon": 77.7126436
      },
      "tags": {
        "access": "private",
        "amenity": "theatre",
        "theatre:type": "amphi"
      }
    },
    {
      "type": "way",
      "id": 1427467751,
      "center": {
        "lat": 12.9845855,
        "lon": 77.7128005
      },
      "tags": {
        "access": "private",
        "leisure": "playground"
      }
    },
    {
      "type": "way",
      "id": 1427467838,
      "center": {
        "lat": 12.9872872,
        "lon": 77.710279
      },
      "tags": {
        "access": "private",
        "leisure": "pitch"
      }
    },
    {
      "type": "way",
      "id": 1427467845,
      "center": {
        "lat": 12.9872884,
        "lon": 77.7107264
      },
      "tags": {
        "access": "private",
        "amenity": "theatre",
        "theatre:type": "amphi"
      }
    },
    {
      "type": "way",
      "id": 1427467846,
      "center": {
        "lat": 12.9876788,
        "lon": 77.7106179
      },
      "tags": {
        "access": "private",
        "leisure": "pitch",
        "sport": "tennis"
      }
    },
    {
      "type": "way",
      "id": 1427467847,
      "center": {
        "lat": 12.9879174,
        "lon": 77.7106214
      },
      "tags": {
        "access": "private",
        "leisure": "pitch",
        "sport": "basketball"
      }
    },
    {
      "type": "way",
      "id": 1427467848,
      "center": {
        "lat": 12.9863218,
        "lon": 77.7102339
      },
      "tags": {
        "access": "private",
        "leisure": "playground"
      }
    },
    {
      "type": "way",
      "id": 1430662870,
      "center": {
        "lat": 12.9751152,
        "lon": 77.7046895
      },
      "tags": {
        "access": "private",
        "leisure": "playground"
      }
    },
    {
      "type": "way",
      "id": 1430662872,
      "center": {
        "lat": 12.9764805,
        "lon": 77.7043158
      },
      "tags": {
        "leisure": "pitch",
        "sport": "basketball"
      }
    },
    {
      "type": "way",
      "id": 1430662873,
      "center": {
        "lat": 12.9759911,
        "lon": 77.7054768
      },
      "tags": {
        "access": "private",
        "leisure": "playground"
      }
    },
    {
      "type": "way",
      "id": 1430787635,
      "center": {
        "lat": 12.9838079,
        "lon": 77.7095599
      },
      "tags": {
        "access": "private",
        "leisure": "swimming_pool"
      }
    },
    {
      "type": "way",
      "id": 1430787636,
      "center": {
        "lat": 12.9835844,
        "lon": 77.7093939
      },
      "tags": {
        "access": "private",
        "leisure": "playground"
      }
    },
    {
      "type": "way",
      "id": 1430787639,
      "center": {
        "lat": 12.9838793,
        "lon": 77.7103723
      },
      "tags": {
        "access": "private",
        "amenity": "parking",
        "parking": "surface"
      }
    },
    {
      "type": "way",
      "id": 1430787672,
      "center": {
        "lat": 12.9820481,
        "lon": 77.7101257
      },
      "tags": {
        "leisure": "pitch",
        "sport": "cricket"
      }
    },
    {
      "type": "way",
      "id": 1430787675,
      "center": {
        "lat": 12.9798538,
        "lon": 77.7113833
      },
      "tags": {
        "access": "private",
        "leisure": "playground"
      }
    },
    {
      "type": "way",
      "id": 1430787676,
      "center": {
        "lat": 12.980388,
        "lon": 77.7116802
      },
      "tags": {
        "hoops": "1",
        "leisure": "pitch",
        "sport": "basketball"
      }
    },
    {
      "type": "way",
      "id": 1430787677,
      "center": {
        "lat": 12.9805187,
        "lon": 77.7116444
      },
      "tags": {
        "access": "private",
        "leisure": "playground"
      }
    },
    {
      "type": "way",
      "id": 1430787678,
      "center": {
        "lat": 12.9806666,
        "lon": 77.711652
      },
      "tags": {
        "access": "private",
        "amenity": "parking",
        "parking": "surface"
      }
    },
    {
      "type": "way",
      "id": 1430787679,
      "center": {
        "lat": 12.981657,
        "lon": 77.7113548
      },
      "tags": {
        "access": "private",
        "leisure": "playground"
      }
    },
    {
      "type": "way",
      "id": 1430787680,
      "center": {
        "lat": 12.9817573,
        "lon": 77.710527
      },
      "tags": {
        "access": "private",
        "leisure": "playground"
      }
    },
    {
      "type": "way",
      "id": 1430787681,
      "center": {
        "lat": 12.9820333,
        "lon": 77.7113596
      },
      "tags": {
        "access": "private",
        "leisure": "pitch",
        "sport": "volleyball"
      }
    },
    {
      "type": "way",
      "id": 1430787682,
      "center": {
        "lat": 12.9823094,
        "lon": 77.7104389
      },
      "tags": {
        "access": "private",
        "leisure": "playground"
      }
    },
    {
      "type": "way",
      "id": 1430787683,
      "center": {
        "lat": 12.9822623,
        "lon": 77.7101311
      },
      "tags": {
        "access": "private",
        "leisure": "playground"
      }
    },
    {
      "type": "way",
      "id": 1430798372,
      "center": {
        "lat": 12.9824376,
        "lon": 77.7182167
      },
      "tags": {
        "access": "private",
        "leisure": "playground"
      }
    },
    {
      "type": "way",
      "id": 1430798373,
      "center": {
        "lat": 12.9824563,
        "lon": 77.7180981
      },
      "tags": {
        "access": "private",
        "leisure": "swimming_pool"
      }
    },
    {
      "type": "way",
      "id": 1430798374,
      "center": {
        "lat": 12.9829577,
        "lon": 77.7186037
      },
      "tags": {
        "access": "private",
        "leisure": "swimming_pool"
      }
    },
    {
      "type": "way",
      "id": 1430798378,
      "center": {
        "lat": 12.98363,
        "lon": 77.7197733
      },
      "tags": {
        "hoops": "2",
        "leisure": "pitch",
        "sport": "basketball"
      }
    },
    {
      "type": "way",
      "id": 1430798379,
      "center": {
        "lat": 12.9836385,
        "lon": 77.720538
      },
      "tags": {
        "access": "private",
        "leisure": "swimming_pool"
      }
    },
    {
      "type": "way",
      "id": 1432192572,
      "center": {
        "lat": 12.9736283,
        "lon": 77.714659
      },
      "tags": {
        "access": "private",
        "leisure": "pitch",
        "sport": "basketball"
      }
    },
    {
      "type": "way",
      "id": 1432192573,
      "center": {
        "lat": 12.9736979,
        "lon": 77.7145312
      },
      "tags": {
        "access": "private",
        "leisure": "playground"
      }
    },
    {
      "type": "way",
      "id": 1432192574,
      "center": {
        "lat": 12.9718563,
        "lon": 77.7132199
      },
      "tags": {
        "access": "private",
        "leisure": "pitch",
        "sport": "chess"
      }
    },
    {
      "type": "way",
      "id": 1432192575,
      "center": {
        "lat": 12.9716149,
        "lon": 77.7135217
      },
      "tags": {
        "access": "private",
        "leisure": "playground"
      }
    },
    {
      "type": "way",
      "id": 1432192577,
      "center": {
        "lat": 12.9716745,
        "lon": 77.7147636
      },
      "tags": {
        "leisure": "bleachers"
      }
    },
    {
      "type": "way",
      "id": 1432192578,
      "center": {
        "lat": 12.9719582,
        "lon": 77.7144834
      },
      "tags": {
        "access": "private",
        "leisure": "playground"
      }
    },
    {
      "type": "way",
      "id": 1432192579,
      "center": {
        "lat": 12.9721532,
        "lon": 77.7144846
      },
      "tags": {
        "access": "private",
        "leisure": "pitch"
      }
    },
    {
      "type": "way",
      "id": 1432192581,
      "center": {
        "lat": 12.9726124,
        "lon": 77.7068577
      },
      "tags": {
        "access": "private",
        "leisure": "swimming_pool"
      }
    },
    {
      "type": "way",
      "id": 1432192582,
      "center": {
        "lat": 12.97216,
        "lon": 77.7068838
      },
      "tags": {
        "access": "private",
        "leisure": "swimming_pool"
      }
    },
    {
      "type": "way",
      "id": 1445476549,
      "center": {
        "lat": 12.9840335,
        "lon": 77.7170388
      },
      "tags": {
        "access": "private",
        "leisure": "playground"
      }
    },
    {
      "type": "way",
      "id": 1445476550,
      "center": {
        "lat": 12.9833144,
        "lon": 77.7165523
      },
      "tags": {
        "access": "private",
        "leisure": "playground"
      }
    },
    {
      "type": "way",
      "id": 1445476558,
      "center": {
        "lat": 12.9833158,
        "lon": 77.716723
      },
      "tags": {
        "access": "private",
        "leisure": "swimming_pool",
        "location": "outdoor"
      }
    }
  ]
}