{
  "area_name": "Chikka Banasawadi",
  "osm_id": 12657922332,
  "osm_type": "node",
  "place_type": "neighbourhood",
  "amenity_count": 123,
  "amenities": [
    {
      "type": "node",
      "id": 1541338044,
      "lat": 13.0044439,
      "lon": 77.6554748,
      "tags": {
        "shop": "car_repair"
      }
    },
    {
      "type": "node",
      "id": 1742633026,
      "lat": 13.0148407,
      "lon": 77.6495896,
      "tags": {
        "amenity": "bank",
        "atm": "yes",
        "brand": "Andhra Bank",
        "brand:wikidata": "Q2003476",
        "brand:wikipedia": "en:Andhra Bank",
        "name": "Andhra Bank",
        "name:en": "Andhra Bank",
        "name:kn": "ಆಂಧ್ರ ಬ್ಯಾಂಕ್",
        "website": "https://www.andhrabank.in"
      }
    },
    {
      "type": "node",
      "id": 1742635196,
      "lat": 13.0149612,
      "lon": 77.6438861,
      "tags": {
        "amenity": "fast_food",
        "cuisine": "coffee_shop",
        "name": "Cuppa"
      }
    },
    {
      "type": "node",
      "id": 1742635612,
      "lat": 13.0150344,
      "lon": 77.6437466,
      "tags": {
        "name": "Pacer Yamaha showroom",
        "shop": "motorcycle"
      }
    },
    {
      "type": "node",
      "id": 1742640276,
      "lat": 13.0151076,
      "lon": 77.645262,
      "tags": {
        "amenity": "bank",
        "atm": "yes",
        "name": "Vijaya Bank",
        "name:kn": "ವಿಜಯ ಬ್ಯಾಂಕು"
      }
    },
    {
      "type": "node",
      "id": 1742641132,
      "lat": 13.0145928,
      "lon": 77.6462464,
      "tags": {
        "amenity": "bank",
        "atm": "yes",
        "brand": "Bank of Maharashtra",
        "brand:wikidata": "Q2004304",
        "brand:wikipedia": "en:Bank of Maharashtra",
        "name": "Bank of Maharashtra",
        "name:en": "Bank of Maharashtra",
        "website": "https://www.bankofmaharashtra.in/"
      }
    },
    {
      "type": "node",
      "id": 1742641459,
      "lat": 13.0147104,
      "lon": 77.6462571,
      "tags": {
        "amenity": "library",
        "name": "Just Books"
      }
    },
    {
      "type": "node",
      "id": 1742670069,
      "lat": 13.0143184,
      "lon": 77.6423518,
      "tags": {
        "amenity": "school",
        "check_date": "2024-07-06",
        "name": "Patel Public School"
      }
    },
    {
      "type": "node",
      "id": 1742670267,
      "lat": 13.0140832,
      "lon": 77.6423465,
      "tags": {
        "name": "Bake Fields",
        "shop": "bakery"
      }
    },
    {
      "type": "node",
      "id": 1743937707,
      "lat": 13.0095498,
      "lon": 77.6434526,
      "tags": {
        "amenity": "restaurant",
        "cuisine": "indian",
        "name": "Uttam Sagar",
        "name:kn": "ಉತ್ತಮ್ ಸಾಗರ್"
      }
    },
    {
      "type": "node",
      "id": 1743937742,
      "lat": 13.0144106,
      "lon": 77.6427176,
      "tags": {
        "amenity": "restaurant",
        "cuisine": "indian",
        "name": "Adigas Annapoorna",
        "name:kn": "ಅಡಿಗಾಸ್ ಅನ್ನಪೂರ್ಣ"
      }
    },
    {
      "type": "node",
      "id": 1743937872,
      "lat": 13.0127328,
      "lon": 77.6481357,
      "tags": {
        "brand": "More",
        "brand:wikidata": "Q6910891",
        "name": "More",
        "shop": "supermarket"
      }
    },
    {
      "type": "node",
      "id": 1743939029,
      "lat": 13.0119854,
      "lon": 77.6475134,
      "tags": {
        "amenity": "restaurant",
        "cuisine": "indian",
        "name": "Srinidhi Upchaar",
        "name:kn": "ಶ್ರೀನಿಧಿ ಉಪಚಾರ್"
      }
    },
    {
      "type": "node",
      "id": 1743939200,
      "lat": 13.0126649,
      "lon": 77.6474598,
      "tags": {
        "amenity": "bar",
        "name": "Sreeraj Lassi Bar"
      }
    },
    {
      "type": "node",
      "id": 2473242531,
      "lat": 13.0054674,
      "lon": 77.6482717,
      "tags": {
        "amenity": "school",
        "name": "Mother Mary English School"
      }
    },
    {
      "type": "node",
      "id": 4242720007,
      "lat": 13.0085079,
      "lon": 77.6514124,
      "tags": {
        "amenity": "community_centre",
        "name": "Parvati Kalyana Mantapa"
      }
    },
    {
      "type": "node",
      "id": 4349394091,
      "lat": 13.0086727,
      "lon": 77.6429248,
      "tags": {
        "amenity": "bank",
        "brand": "Indian Overseas Bank",
        "brand:wikidata": "Q2003611",
        "brand:wikipedia": "en:Indian Overseas Bank",
        "name": "Indian Overseas Bank",
        "name:en": "Indian Overseas Bank",
        "name:kn": "ಐ ಓ ಬಿ",
        "short_name": "IOB",
        "website": "https://www.iob.in"
      }
    },
    {
      "type": "node",
      "id": 4349394092,
      "lat": 13.0099795,
      "lon": 77.6434028,
      "tags": {
        "amenity": "bank",
        "brand:wikidata": "Q1340361",
        "brand:wikipedia": "en:State Bank of India",
        "name": "State Bank of India",
        "name:kn": "ಎಸ್ ಬಿ ಐ",
        "short_name": "SBI",
        "website": "https://www.sbi.co.in"
      }
    },
    {
      "type": "node",
      "id": 4447317940,
      "lat": 13.0149162,
      "lon": 77.6466021,
      "tags": {
        "addr:city": "Bangalore",
        "addr:country": "IN",
        "addr:hamlet": "HRBR Layout",
        "addr:housenumber": "309",
        "addr:postcode": "560043",
        "addr:street": "7th Main Road",
        "addr:suburb": "Kalyan Nagar",
        "amenity": "restaurant",
        "check_date": "2025-03-17",
        "cuisine": "korean",
        "delivery": "yes",
        "microbrewery": "no",
        "name": "Hi Seoul",
        "opening_hours": "11:30-15:00,17:30-22:00",
        "outdoor_seating": "no",
        "phone": "098457 71657",
        "reservation": "recommended",
        "smoking": "no",
        "takeaway": "yes"
      }
    },
    {
      "type": "node",
      "id": 4488387330,
      "lat": 13.0101133,
      "lon": 77.6518108,
      "tags": {
        "addr:city": "bangalore",
        "addr:postcode": "560043",
        "addr:street": "B Channasandra Main Road",
        "name": "Naturals Unisex Salon And Spa",
        "phone": "0804090 8545",
        "shop": "beauty"
      }
    },
    {
      "type": "node",
      "id": 4489763428,
      "lat": 13.0131486,
      "lon": 77.6481052,
      "tags": {
        "addr:city": "bangalore",
        "addr:housenumber": "6",
        "addr:postcode": "560043",
        "addr:street": "1st Floor, 1st Cross, Banswadi Main Road, Dodda Banaswadi",
        "name": "Venus Unisex Salon",
        "opening_hours": "11:00-21:00",
        "phone": "9916248091",
        "shop": "beauty"
      }
    },
    {
      "type": "node",
      "id": 4586355539,
      "lat": 13.0148983,
      "lon": 77.646793,
      "tags": {
        "addr:city": "bangalore",
        "addr:housenumber": "201",
        "addr:postcode": "560043",
        "addr:street": "9th Main Road",
        "amenity": "ice_cream",
        "check_date": "2025-03-17",
        "name": "Ibaco",
        "opening_hours": "11:00 - 23:00",
        "phone": "+91 9900038530"
      }
    },
    {
      "type": "node",
      "id": 4702180791,
      "lat": 13.0151589,
      "lon": 77.6451446,
      "tags": {
        "addr:housenumber": "805",
        "addr:street": "2nd Cross Road",
        "amenity": "clinic",
        "name": "Express Clinic",
        "name:en": "Express Clinic",
        "phone": "+91-080-42234552"
      }
    },
    {
      "type": "node",
      "id": 4784848418,
      "lat": 13.0097185,
      "lon": 77.6444698,
      "tags": {
        "addr:city": "Bangalore",
        "addr:full": "586, 3rd Cross Road, Near Maruthi School Bus Stop, Erappa Layout, Subbaiahna Palya, Banaswadi, Bangalore - 560043",
        "addr:housenumber": "586",
        "addr:postcode": "560043",
        "addr:street": "3rd Cross Road",
        "amenity": "bank",
        "atm": "yes",
        "brand": "Syndicate Bank",
        "brand:wikidata": "Q2004088",
        "name": "Syndicate Bank",
        "name:en": "Syndicate Bank",
        "name:kn": "ಸಿಂಡಿಕೇಟ್ ಬ್ಯಾಂಕ್",
        "website": "https://www.syndicatebank.in"
      }
    },
    {
      "type": "node",
      "id": 4839771323,
      "lat": 13.0132508,
      "lon": 77.6497633,
      "tags": {
        "addr:postcode": "560043",
        "addr:street": "Banaswadi Main Road",
        "amenity": "pharmacy",
        "name": "Religare Pharmacy",
        "name:en": "Religare Pharmacy",
        "opening_hours": "Mo-Su 09:00-23:00"
      }
    },
    {
      "type": "node",
      "id": 4839789221,
      "lat": 13.0128275,
      "lon": 77.6506438,
      "tags": {
        "addr:postcode": "560043",
        "addr:street": "6th Cross Road",
        "amenity": "car_wash",
        "name": "Tip Top Shiners",
        "name:en": "Tip Top Shiners",
        "opening_hours": "Mo-Su 09:00-21:00"
      }
    },
    {
      "type": "node",
      "id": 4844863326,
      "lat": 13.00594,
      "lon": 77.6386489,
      "tags": {
        "amenity": "atm",
        "brand": "Axis Bank",
        "brand:wikidata": "Q2003549",
        "name": "Axis Bank",
        "name:kn": "ಆಕ್ಸಿಸ್ ಬ್ಯಾಂಕ್",
        "operator": "Axis Bank",
        "operator:wikidata": "Q2003549"
      }
    },
    {
      "type": "node",
      "id": 4844863327,
      "lat": 13.0085671,
      "lon": 77.6420845,
      "tags": {
        "name": "Multiplex",
        "name:en": "Multiplex",
        "shop": "supermarket"
      }
    },
    {
      "type": "node",
      "id": 4844863328,
      "lat": 13.0106572,
      "lon": 77.6454963,
      "tags": {
        "name": "Digital world",
        "name:en": "Digital world",
        "shop": "electronics"
      }
    },
    {
      "type": "node",
      "id": 4844863329,
      "lat": 13.0118637,
      "lon": 77.6474039,
      "tags": {
        "leisure": "fitness_centre",
        "name": "Fitness World",
        "name:en": "Fitness World"
      }
    },
    {
      "type": "node",
      "id": 4844863330,
      "lat": 13.0129746,
      "lon": 77.6479687,
      "tags": {
        "amenity": "restaurant",
        "name": "New Shanti sagar",
        "name:en": "New Shanti sagar"
      }
    },
    {
      "type": "node",
      "id": 4844863378,
      "lat": 13.0089466,
      "lon": 77.6427801,
      "tags": {
        "name": "Happy shoppy",
        "name:en": "Happy shoppy",
        "shop": "supermarket"
      }
    },
    {
      "type": "node",
      "id": 4844863379,
      "lat": 13.0093391,
      "lon": 77.6432232,
      "tags": {
        "amenity": "bank",
        "brand": "Punjab National Bank",
        "brand:wikidata": "Q2743499",
        "name": "Punjab National Bank",
        "name:en": "Punjab National Bank",
        "name:kn": "ಪಂಜಾಬ ರಾಷ್ಟ್ರೀಯ ಬ್ಯಾಂಕ್",
        "short_name": "PNB",
        "website": "https://www.pnbindia.in"
      }
    },
    {
      "type": "node",
      "id": 4844865026,
      "lat": 13.0076445,
      "lon": 77.6407572,
      "tags": {
        "name": "China bazaar",
        "name:en": "China bazaar",
        "shop": "supermarket"
      }
    },
    {
      "type": "node",
      "id": 4844865027,
      "lat": 13.0103924,
      "lon": 77.6484101,
      "tags": {
        "amenity": "clinic",
        "name": "Health and hijama clinic",
        "name:en": "Health and hijama clinic"
      }
    },
    {
      "type": "node",
      "id": 4844865049,
      "lat": 13.0057651,
      "lon": 77.6383622,
      "tags": {
        "name": "My fashion shoes",
        "name:en": "My fashion shoes",
        "shop": "shoes"
      }
    },
    {
      "type": "node",
      "id": 4844865050,
      "lat": 13.0072315,
      "lon": 77.6403015,
      "tags": {
        "amenity": "pharmacy",
        "name": "Manjunatha",
        "name:en": "Manjunatha"
      }
    },
    {
      "type": "node",
      "id": 4844865051,
      "lat": 13.0079259,
      "lon": 77.6412745,
      "tags": {
        "amenity": "atm",
        "brand": "Axis Bank",
        "brand:wikidata": "Q2003549",
        "name": "Axis Bank",
        "name:kn": "ಆಕ್ಸಿಸ್ ಬ್ಯಾಂಕ್",
        "operator": "Axis Bank",
        "operator:wikidata": "Q2003549"
      }
    },
    {
      "type": "node",
      "id": 4844865053,
      "lat": 13.0100548,
      "lon": 77.6431061,
      "tags": {
        "amenity": "bank",
        "brand": "IDBI",
        "brand:wikidata": "Q3633485",
        "brand:wikipedia": "en:IDBI Bank",
        "check_date": "2024-07-10",
        "name": "IDBI Bank",
        "name:en": "IDBI Bank",
        "name:kn": "ಐಡಿಬಿಐ ಬ್ಯಾಂಕ್",
        "old_name": "Industrial Development Bank of India",
        "short_name": "IDBI",
        "website": "https://www.idbi.com"
      }
    },
    {
      "type": "node",
      "id": 4844867424,
      "lat": 13.0069226,
      "lon": 77.6399189,
      "tags": {
        "amenity": "bank",
        "brand": "Canara Bank",
        "brand:pa": "ਕੇਨਰਾ ਬੈਂਕ",
        "brand:ur": "کینرا بینک",
        "brand:wikidata": "Q2003777",
        "brand:wikipedia": "en:Canara Bank",
        "brand:wikipedia:pa": "ਕੇਨਰਾ ਬੈਂਕ",
        "name": "Canara Bank",
        "name:kn": "ಕೆನರಾ ಬ್ಯಾಂಕ್",
        "name:pa": "ਕੇਨਰਾ ਬੈਂਕ",
        "name:ur": "کینرا بینک",
        "website": "https://www.canarabank.com/"
      }
    },
    {
      "type": "node",
      "id": 4844867425,
      "lat": 13.0139843,
      "lon": 77.642086,
      "tags": {
        "name": "Regal furniture",
        "name:en": "Regal furniture",
        "shop": "furniture"
      }
    },
    {
      "type": "node",
      "id": 4945660322,
      "lat": 13.0124591,
      "lon": 77.6483105,
      "tags": {
        "amenity": "bank",
        "brand": "Federal Bank",
        "brand:wikidata": "Q2044983",
        "name": "Federal Bank",
        "name:en": "Federal Bank",
        "name:kn": "ಫೆಡೆರಲ್ ಬ್ಯಾಂಕ್"
      }
    },
    {
      "type": "node",
      "id": 5080786067,
      "lat": 13.006508,
      "lon": 77.6452745,
      "tags": {
        "amenity": "school"
      }
    },
    {
      "type": "node",
      "id": 5080801905,
      "lat": 13.0085915,
      "lon": 77.64736,
      "tags": {
        "amenity": "school"
      }
    },
    {
      "type": "node",
      "id": 5087470221,
      "lat": 13.0128826,
      "lon": 77.6501814,
      "tags": {
        "addr:postcode": "560043",
        "addr:street": "6th Cross Road",
        "name": "Kanti Sweets OMBR Layout",
        "name:en": "Kanti Sweets OMBR Layout",
        "opening_hours": "Mo-Su 09:00-22:30",
        "shop": "confectionery"
      }
    },
    {
      "type": "node",
      "id": 5112185895,
      "lat": 13.0086666,
      "lon": 77.6559015,
      "tags": {
        "addr:city": "Bangalore",
        "addr:district": "Bengaluru Urban",
        "addr:housenumber": "201",
        "addr:postcode": "560043",
        "addr:street": "B Channasandra Main Road",
        "amenity": "restaurant",
        "cuisine": "regional;indian;breakfast",
        "name": "Raghavendra Bhavan",
        "name:kn": "ರಾಘವೇಂದ್ರ ಭವನ",
        "takeaway": "yes"
      }
    },
    {
      "type": "node",
      "id": 5112186034,
      "lat": 13.0086948,
      "lon": 77.6555825,
      "tags": {
        "name": "Freshworld Super Market",
        "shop": "supermarket"
      }
    },
    {
      "type": "node",
      "id": 5255533507,
      "lat": 13.008896,
      "lon": 77.6557901,
      "tags": {
        "brand": "More",
        "brand:wikidata": "Q6910891",
        "name": "More",
        "shop": "supermarket"
      }
    },
    {
      "type": "node",
      "id": 5255533512,
      "lat": 13.0086124,
      "lon": 77.6555434,
      "tags": {
        "amenity": "fast_food",
        "brand": "Domino's",
        "brand:ks": "ڈومینوز",
        "brand:pa": "ਡੋਮੀਨੋਜ਼",
        "brand:ur": "ڈومینوز",
        "brand:wikidata": "Q839466",
        "brand:wikipedia": "en:Domino's Pizza",
        "cuisine": "pizza",
        "name": "Domino's",
        "name:kn": "ಡಾಮಿನೋಸ್",
        "name:ks": "ڈومینوز",
        "name:pa": "ਡੋਮੀਨੋਜ਼",
        "name:ur": "ڈومینوز",
        "takeaway": "yes"
      }
    },
    {
      "type": "node",
      "id": 6938900156,
      "lat": 13.0086882,
      "lon": 77.6431717,
      "tags": {
        "addr:district": "Bengaluru Urban",
        "addr:full": "J. Ramgopal Layout, Subbannapalya, Banaswadi Main Road",
        "addr:postcode": "560033",
        "addr:state": "Karnataka",
        "amenity": "clinic",
        "name": "Dewans Maternity and Nursing Home",
        "source": "OpenGovernmentData"
      }
    },
    {
      "type": "node",
      "id": 6939069014,
      "lat": 13.0144467,
      "lon": 77.6427305,
      "tags": {
        "addr:district": "Bengaluru Urban",
        "addr:full": "# 924, 80 Feet Road, Kalyan Nagar, Next To Adigas Hotel",
        "addr:postcode": "560033",
        "addr:state": "Karnataka",
        "amenity": "clinic",
        "name": "Pratham Ent and Child Care Centre",
        "source": "OpenGovernmentData"
      }
    },
    {
      "type": "node",
      "id": 6945434031,
      "lat": 13.0147224,
      "lon": 77.6515616,
      "tags": {
        "addr:district": "Bengaluru Urban",
        "addr:full": "No.60, Near Banaswadi Bus Stop, Banaswadi Main Road",
        "addr:postcode": "560043",
        "addr:state": "Karnataka",
        "amenity": "hospital",
        "name": "Srinivasa Eye Hospital",
        "source": "OpenGovernmentData"
      }
    },
    {
      "type": "node",
      "id": 7484790943,
      "lat": 13.0080895,
      "lon": 77.6416085,
      "tags": {
        "name": "Books and fancy",
        "name:en": "Books and fancy",
        "shop": "bookmaker"
      }
    },
    {
      "type": "node",
      "id": 7577248180,
      "lat": 13.0096223,
      "lon": 77.6556985,
      "tags": {
        "addr:district": "Bengaluru Urban",
        "addr:full": "OMBR Layout, Banaswadi, Bengaluru",
        "addr:postcode": "560043",
        "addr:state": "Karnataka",
        "amenity": "clinic",
        "name": "Raja Rama's Homeopathy & Ayurvedic Centre",
        "source": "Local Knowledge"
      }
    },
    {
      "type": "node",
      "id": 7577248181,
      "lat": 13.012005,
      "lon": 77.647777,
      "tags": {
        "addr:district": "Bengaluru Urban",
        "addr:full": "Banaswadi, Bengaluru",
        "addr:postcode": "560043",
        "addr:state": "Karnataka",
        "amenity": "clinic",
        "name": "Poorna Heart and Women's Clinic",
        "source": "Local Knowledge"
      }
    },
    {
      "type": "node",
      "id": 7577248200,
      "lat": 13.0120265,
      "lon": 77.6477552,
      "tags": {
        "addr:district": "Bengaluru Urban",
        "addr:full": "Banaswadi, Bengaluru",
        "addr:postcode": "560043",
        "addr:state": "Karnataka",
        "amenity": "clinic",
        "name": "Nainda Advanced Eye Care Centre",
        "source": "Local Knowledge"
      }
    },
    {
      "type": "node",
      "id": 7577248202,
      "lat": 13.0116786,
      "lon": 77.6470294,
      "tags": {
        "addr:district": "Bengaluru Urban",
        "addr:full": "Balaji Layout, OMBR Layout, Banaswadi, Bengaluru",
        "addr:postcode": "560043",
        "addr:state": "Karnataka",
        "amenity": "clinic",
        "name": "Roots Skin Clinic"
      }
    },
    {
      "type": "node",
      "id": 7577248212,
      "lat": 13.0090467,
      "lon": 77.653918,
      "tags": {
        "addr:district": "Bengaluru Urban",
        "addr:full": "OMBR Layout, Banaswadi, Bengaluru",
        "addr:postcode": "560043",
        "addr:state": "Karnataka",
        "amenity": "doctors",
        "name": "Dr. Naeem Sadiq",
        "source": "Local Knowledge"
      }
    },
    {
      "type": "node",
      "id": 7577248219,
      "lat": 13.013776,
      "lon": 77.646793,
      "tags": {
        "addr:district": "Bengaluru Urban",
        "addr:full": "Balaji Layout, Subbaiahnapalya, Banaswadi, Bengaluru",
        "addr:postcode": "560043",
        "addr:state": "Karnataka",
        "amenity": "clinic",
        "name": "Krupa Homeopathic Clinic",
        "source": "Local Knowledge"
      }
    },
    {
      "type": "node",
      "id": 7577248225,
      "lat": 13.01213,
      "lon": 77.647984,
      "tags": {
        "addr:district": "Bengaluru Urban",
        "addr:full": "Banaswadi, Bengaluru",
        "addr:postcode": "560043",
        "addr:state": "Karnataka",
        "amenity": "clinic",
        "name": "Vardhan Fertility",
        "source": "Local Knowledge"
      }
    },
    {
      "type": "node",
      "id": 7577248235,
      "lat": 13.0102697,
      "lon": 77.6525909,
      "tags": {
        "addr:district": "Bengaluru Urban",
        "addr:full": "OMBR Layout, Banaswadi, Bengaluru",
        "addr:postcode": "560043",
        "addr:state": "Karnataka",
        "amenity": "hospital",
        "name": "Motherhood Women & Children Hospital",
        "source": "Local Knowledge"
      }
    },
    {
      "type": "node",
      "id": 7577248260,
      "lat": 13.013761,
      "lon": 77.648529,
      "tags": {
        "addr:district": "Bengaluru Urban",
        "addr:full": "Balaji Layout, Subbaiahnapalya, Banaswadi, Bengaluru",
        "addr:postcode": "560043",
        "addr:state": "Karnataka",
        "amenity": "hospital",
        "name": "Endocrine Speciality Centre",
        "source": "Local Knowledge"
      }
    },
    {
      "type": "node",
      "id": 7577248278,
      "lat": 13.0109537,
      "lon": 77.6476418,
      "tags": {
        "addr:district": "Bengaluru Urban",
        "addr:full": "Chikka Banaswadi, Banaswadi, Bengaluru",
        "addr:postcode": "560043",
        "addr:state": "Karnataka",
        "amenity": "hospital",
        "name": "Milaan Hospital",
        "source": "Local Knowledge"
      }
    },
    {
      "type": "node",
      "id": 9271698481,
      "lat": 13.0131524,
      "lon": 77.6483783,
      "tags": {
        "beauty": "nails",
        "name": "Shaakya",
        "shop": "beauty"
      }
    },
    {
      "type": "node",
      "id": 11219451413,
      "lat": 13.014037,
      "lon": 77.6423838,
      "tags": {
        "amenity": "restaurant",
        "check_date": "2023-09-26",
        "name": "Bandipura Donne Biriyaani"
      }
    },
    {
      "type": "node",
      "id": 11219451414,
      "lat": 13.0139282,
      "lon": 77.6423538,
      "tags": {
        "amenity": "clinic",
        "check_date": "2023-09-26",
        "healthcare": "clinic",
        "name": "Smile 365 Dental Clinic",
        "name:kn": "ಸ್ಮೈಲ್ ೩೬೫ ದಂತ ಚಿಕಿತ್ಸಾಲಯ"
      }
    },
    {
      "type": "node",
      "id": 11219451415,
      "lat": 13.0139139,
      "lon": 77.6423634,
      "tags": {
        "check_date": "2023-09-26",
        "name": "Apollo Pharmacy",
        "name:kn": "ಅಪೊಲೊ ಫಾರ್ಮ್‌ಸಿ",
        "payment:mastercard": "yes",
        "payment:visa": "yes",
        "shop": "chemist"
      }
    },
    {
      "type": "node",
      "id": 11250389086,
      "lat": 13.0113802,
      "lon": 77.6465207,
      "tags": {
        "brand": "Snack Shop",
        "check_date": "2023-10-09",
        "description": "Sweets and Savouries",
        "name": "Sri Bharani Mixtures",
        "shop": "convenience"
      }
    },
    {
      "type": "node",
      "id": 11250389087,
      "lat": 13.0063718,
      "lon": 77.6513121,
      "tags": {
        "check_date": "2023-10-09",
        "name": "Shiva Laptops",
        "opening_hours": "10:00-20:00",
        "payment:cash": "yes",
        "payment:upi": "yes",
        "phone": "+91 78925 56897",
        "shop": "computer"
      }
    },
    {
      "type": "node",
      "id": 11575753883,
      "lat": 13.0117532,
      "lon": 77.6470108,
      "tags": {
        "name": "IFB Point",
        "shop": "electronics",
        "wheelchair": "no"
      }
    },
    {
      "type": "node",
      "id": 11575755772,
      "lat": 13.0126685,
      "lon": 77.6466543,
      "tags": {
        "amenity": "car_wash",
        "name": "Smart Car Wash",
        "wheelchair": "yes"
      }
    },
    {
      "type": "node",
      "id": 11575755773,
      "lat": 13.0127702,
      "lon": 77.6466864,
      "tags": {
        "brand": "cult.fit",
        "leisure": "fitness_centre",
        "name": "cult.fit",
        "sport": "fitness"
      }
    },
    {
      "type": "node",
      "id": 12178421101,
      "lat": 13.0128114,
      "lon": 77.6483893,
      "tags": {
        "amenity": "restaurant",
        "contact:instagram": "theshokudorestaurant",
        "cuisine": "asian",
        "email": "info@shokudo.in",
        "name": "Shokudo Select",
        "opening_hours": "12:00-23:00",
        "phone": "+91 7019013088",
        "website": "https://shokudo.in/"
      }
    },
    {
      "type": "node",
      "id": 12538079771,
      "lat": 13.0146398,
      "lon": 77.6462474,
      "tags": {
        "amenity": "place_of_worship",
        "name": "Vision Immanuel - Bangalore Korean Community",
        "religion": "christian"
      }
    },
    {
      "type": "node",
      "id": 12538079772,
      "lat": 13.0153582,
      "lon": 77.646874,
      "tags": {
        "amenity": "cafe",
        "name": "The Lit Caffe"
      }
    },
    {
      "type": "node",
      "id": 12638457255,
      "lat": 13.0063802,
      "lon": 77.6504432,
      "tags": {
        "amenity": "fast_food",
        "fast_food": "cafeteria",
        "name": "CMR Collage cafeteria"
      }
    },
    {
      "type": "node",
      "id": 12638457280,
      "lat": 13.0062138,
      "lon": 77.6508142,
      "tags": {
        "amenity": "conference_centre",
        "name": "CMRU Auditorium"
      }
    },
    {
      "type": "node",
      "id": 12638482899,
      "lat": 13.0062045,
      "lon": 77.6506157,
      "tags": {
        "amenity": "conference_centre",
        "name": "AV Hall"
      }
    },
    {
      "type": "node",
      "id": 12672284473,
      "lat": 13.0145341,
      "lon": 77.649062,
      "tags": {
        "amenity": "cafe",
        "check_date": "2025-03-17",
        "name": "The Coffee Brewery"
      }
    },
    {
      "type": "node",
      "id": 12672284474,
      "lat": 13.0147128,
      "lon": 77.6492186,
      "tags": {
        "amenity": "cafe",
        "check_date": "2025-03-17",
        "name": "11:11 Reserve"
      }
    },
    {
      "type": "node",
      "id": 12672284475,
      "lat": 13.0146172,
      "lon": 77.6491594,
      "tags": {
        "amenity": "restaurant",
        "check_date": "2025-03-17",
        "name": "Baileys Cafe and Restaurant"
      }
    },
    {
      "type": "node",
      "id": 12712362611,
      "lat": 13.0062323,
      "lon": 77.6422061,
      "tags": {
        "amenity": "post_box",
        "operator": "India Post"
      }
    },
    {
      "type": "node",
      "id": 13131399191,
      "lat": 13.0124799,
      "lon": 77.6526379,
      "tags": {
        "addr:city": "Bengaluru East City Corporation",
        "addr:housenumber": "412",
        "addr:postcode": "560043",
        "addr:street": "5th Cross Road",
        "amenity": "cafe",
        "cuisine": "coffee_shop;tea",
        "internet_access": "no",
        "name": "Tea Shop",
        "opening_hours": "Mo-Su 09:00-21:00",
        "outdoor_seating": "yes"
      }
    },
    {
      "type": "node",
      "id": 13267106089,
      "lat": 13.0061753,
      "lon": 77.6408332,
      "tags": {
        "check_date": "2025-10-29",
        "name": "Vedic Weaves Silks And Sarees",
        "name:en": "Vedic Weaves Silks And Sarees",
        "shop": "clothes"
      }
    },
    {
      "type": "way",
      "id": 46953029,
      "center": {
        "lat": 13.0115276,
        "lon": 77.6504879
      },
      "tags": {
        "amenity": "school",
        "name": "Mariam Nilaya High School"
      }
    },
    {
      "type": "way",
      "id": 160470308,
      "center": {
        "lat": 13.0129862,
        "lon": 77.6475998
      },
      "tags": {
        "building": "yes",
        "name": "Food World",
        "name:kn": "ಫುಡ್ ವರ್ಲ್ಡ್",
        "shop": "supermarket"
      }
    },
    {
      "type": "way",
      "id": 160470310,
      "center": {
        "lat": 13.0127079,
        "lon": 77.6475927
      },
      "tags": {
        "amenity": "restaurant",
        "building": "yes",
        "name": "Tamarind"
      }
    },
    {
      "type": "way",
      "id": 175063893,
      "center": {
        "lat": 13.0097626,
        "lon": 77.6402272
      },
      "tags": {
        "amenity": "school"
      }
    },
    {
      "type": "way",
      "id": 213349498,
      "center": {
        "lat": 13.0074665,
        "lon": 77.6409907
      },
      "tags": {
        "amenity": "place_of_worship",
        "check_date": "2025-08-17",
        "name": "Ayyappa Temple",
        "name:kn": "ಅಯ್ಯಪ್ಪ ದೇವಸ್ಥಾನ",
        "religion": "hindu",
        "toilets:wheelchair": "no",
        "wheelchair": "no"
      }
    },
    {
      "type": "way",
      "id": 213350081,
      "center": {
        "lat": 13.0075596,
        "lon": 77.6412505
      },
      "tags": {
        "amenity": "fuel",
        "brand": "Indian Oil",
        "brand:wikidata": "Q1289348",
        "brand:wikipedia": "en:Indian Oil Corporation",
        "name": "Indian Oil Fuel",
        "operator": "IOC",
        "toilets:wheelchair": "no",
        "wheelchair": "limited"
      }
    },
    {
      "type": "way",
      "id": 239547642,
      "center": {
        "lat": 13.0061592,
        "lon": 77.6507354
      },
      "tags": {
        "addr:housenumber": "CA 2",
        "addr:postcode": "560043",
        "addr:street": "3rd Cross, 6th 'A' Ma, 4th Main Road, East of NGEF Layout, Bennigana Halli",
        "amenity": "college",
        "name": "CMR College",
        "operator": "CMR University"
      }
    },
    {
      "type": "way",
      "id": 239548076,
      "center": {
        "lat": 13.0074593,
        "lon": 77.6552191
      },
      "tags": {
        "addr:street": "Channasandra Main Road, Gurijiya Gutta, Bennigana Halli",
        "amenity": "school",
        "name": "Sri Chaithanya PU college Banasawadi"
      }
    },
    {
      "type": "way",
      "id": 346521829,
      "center": {
        "lat": 13.0146094,
        "lon": 77.6464563
      },
      "tags": {
        "addr:postcode": "560043",
        "addr:street": "2nd Cross Road",
        "amenity": "hospital",
        "building:levels": "2",
        "healthcare": "hospital",
        "name": "Indicus"
      }
    },
    {
      "type": "way",
      "id": 347192813,
      "center": {
        "lat": 13.0104363,
        "lon": 77.6432265
      },
      "tags": {
        "addr:city": "Bangalore",
        "addr:housenumber": "11",
        "addr:postcode": "560043",
        "addr:street": "7th Main Road",
        "beauty": "nails",
        "building": "yes",
        "building:levels": "2",
        "name": "Shaakya Salon & Spa",
        "payment:cash": "yes",
        "payment:credit_cards": "yes",
        "payment:debit_cards": "yes",
        "payment:visa": "yes",
        "phone": "+91 9741117707",
        "shop": "beauty",
        "website": "https://shaakyaspa.com/"
      }
    },
    {
      "type": "way",
      "id": 363870191,
      "center": {
        "lat": 13.0152635,
        "lon": 77.6467105
      },
      "tags": {
        "addr:postcode": "560043",
        "addr:street": "8th E Main Road",
        "amenity": "hospital",
        "healthcare": "hospital",
        "healthcare:speciality": "general",
        "name": "Sharada Medicals"
      }
    },
    {
      "type": "way",
      "id": 675933723,
      "center": {
        "lat": 13.0082525,
        "lon": 77.6381999
      },
      "tags": {
        "leisure": "park"
      }
    },
    {
      "type": "way",
      "id": 675933725,
      "center": {
        "lat": 13.0082593,
        "lon": 77.6377878
      },
      "tags": {
        "leisure": "park"
      }
    },
    {
      "type": "way",
      "id": 726934591,
      "center": {
        "lat": 13.011171,
        "lon": 77.652372
      },
      "tags": {
        "leisure": "park"
      }
    },
    {
      "type": "way",
      "id": 726934670,
      "center": {
        "lat": 13.0120749,
        "lon": 77.6534731
      },
      "tags": {
        "leisure": "park",
        "name": "Bhuvanagiri Park",
        "name:kn": "ಭುವನಗಿರಿ ಉದ್ಯಾನವನ"
      }
    },
    {
      "type": "way",
      "id": 994835161,
      "center": {
        "lat": 12.9991703,
        "lon": 77.6503039
      },
      "tags": {
        "leisure": "pitch",
        "sport": "basketball"
      }
    },
    {
      "type": "way",
      "id": 1065306086,
      "center": {
        "lat": 13.0019707,
        "lon": 77.6392044
      },
      "tags": {
        "leisure": "garden"
      }
    },
    {
      "type": "way",
      "id": 1263380580,
      "center": {
        "lat": 13.0119515,
        "lon": 77.6466304
      },
      "tags": {
        "amenity": "fuel",
        "brand": "Bharat Petroleum",
        "brand:wikidata": "Q854826",
        "name": "Bharat Petroleum"
      }
    },
    {
      "type": "way",
      "id": 1275463639,
      "center": {
        "lat": 13.0134636,
        "lon": 77.6497514
      },
      "tags": {
        "amenity": "fuel"
      }
    },
    {
      "type": "way",
      "id": 1275463642,
      "center": {
        "lat": 13.0153197,
        "lon": 77.6510385
      },
      "tags": {
        "amenity": "parking",
        "parking": "surface"
      }
    },
    {
      "type": "way",
      "id": 1339170906,
      "center": {
        "lat": 13.0132456,
        "lon": 77.6512745
      },
      "tags": {
        "access": "private",
        "leisure": "swimming_pool"
      }
    },
    {
      "type": "way",
      "id": 1364481598,
      "center": {
        "lat": 13.0095735,
        "lon": 77.6483665
      },
      "tags": {
        "addr:city": "Bangalore",
        "addr:postcode": "560043",
        "addr:street": "Banaswadi",
        "amenity": "place_of_worship",
        "check_date": "2024-09-18",
        "denomination": "catholic",
        "name": "St. Vincent Pallotti Church",
        "religion": "christian"
      }
    },
    {
      "type": "way",
      "id": 1364481599,
      "center": {
        "lat": 13.0116118,
        "lon": 77.6459969
      },
      "tags": {
        "amenity": "fire_station",
        "landuse": "commercial",
        "name": "Banaswadi Fire Station",
        "name:kn": "ಬಾಣಸವಾಡಿ ಅಗ್ನಿಶಾಮಕ ಠಾಣೆ"
      }
    },
    {
      "type": "way",
      "id": 1364481614,
      "center": {
        "lat": 13.0128418,
        "lon": 77.6428309
      },
      "tags": {
        "amenity": "fuel",
        "brand": "Bharat Petroleum",
        "brand:wikidata": "Q854826",
        "compressed_air": "yes",
        "name": "Matrushree Petrol / Gas Station",
        "operator": "Bharat Petroleum"
      }
    },
    {
      "type": "way",
      "id": 1364697717,
      "center": {
        "lat": 13.009651,
        "lon": 77.6436983
      },
      "tags": {
        "amenity": "events_venue",
        "landuse": "commercial"
      }
    },
    {
      "type": "way",
      "id": 1364736446,
      "center": {
        "lat": 13.0063417,
        "lon": 77.6506168
      },
      "tags": {
        "leisure": "playground",
        "name": "CMRU Playground & Basket ball court"
      }
    },
    {
      "type": "way",
      "id": 1364921398,
      "center": {
        "lat": 13.0084402,
        "lon": 77.6419715
      },
      "tags": {
        "amenity": "place_of_worship",
        "building": "yes",
        "name": "Sree Panchamukhi Ganapthy Temple",
        "name:kn": "ಶ್ರೀ ಪಂಚಮುಖಿ ಗಣಪತಿ ದೇವಸ್ಥಾನ",
        "religion": "hindu"
      }
    },
    {
      "type": "way",
      "id": 1364921400,
      "center": {
        "lat": 13.0085366,
        "lon": 77.6427566
      },
      "tags": {
        "amenity": "fuel"
      }
    },
    {
      "type": "way",
      "id": 1366023291,
      "center": {
        "lat": 13.0087502,
        "lon": 77.6444553
      },
      "tags": {
        "amenity": "school",
        "education": "school",
        "name": "Maruthi Vidyalaya",
        "name:kn": "ಮಾರುತಿ ವಿದ್ಯಾಲಯ"
      }
    },
    {
      "type": "way",
      "id": 1366533317,
      "center": {
        "lat": 13.0046832,
        "lon": 77.6537517
      },
      "tags": {
        "addr:floor": "G",
        "amenity": "fuel",
        "brand": "Nayara",
        "brand:wikidata": "Q5399377",
        "check_date": "2025-06-20",
        "level": "0",
        "name": "Nayara",
        "payment:cash": "yes",
        "payment:credit_cards": "yes",
        "payment:debit_cards": "yes"
      }
    },
    {
      "type": "way",
      "id": 1366533577,
      "center": {
        "lat": 13.0097817,
        "lon": 77.6524884
      },
      "tags": {
        "amenity": "college",
        "landuse": "education",
        "name": "New Shores International College"
      }
    },
    {
      "type": "way",
      "id": 1366533609,
      "center": {
        "lat": 13.0132214,
        "lon": 77.6522959
      },
      "tags": {
        "amenity": "place_of_worship",
        "landuse": "religious",
        "name": "Banaswadi Anjaneya Temple",
        "name:kn": "ಬಾಣಸವಾಡಿ ಆಂಜನೇಯ ದೇವಸ್ಥಾನ",
        "religion": "hindu"
      }
    },
    {
      "type": "way",
      "id": 1366744185,
      "center": {
        "lat": 13.0110872,
        "lon": 77.6463117
      },
      "tags": {
        "addr:postcode": "560043",
        "addr:street": "Banaswadi Main Road",
        "amenity": "fuel",
        "brand": "Hindustan Petroleum",
        "brand:wikidata": "Q1619375",
        "name": "HP Petrol Pump",
        "name:en": "HP Petrol Pump",
        "name:kn": "ಹಿಂದುಸ್ತಾನ್ ಪೆಟ್ರೋಲಿಯಂ",
        "official_name": "Hindustan Petroleum"
      }
    },
    {
      "type": "way",
      "id": 1366744186,
      "center": {
        "lat": 13.0107611,
        "lon": 77.6465591
      },
      "tags": {
        "leisure": "park",
        "name": "OMBR Layout Park"
      }
    },
    {
      "type": "way",
      "id": 1366744417,
      "center": {
        "lat": 13.0119693,
        "lon": 77.6515794
      },
      "tags": {
        "amenity": "place_of_worship",
        "name": "Bethel CSI Church",
        "religion": "christian"
      }
    },
    {
      "type": "way",
      "id": 1371961980,
      "center": {
        "lat": 13.0085667,
        "lon": 77.650975
      },
      "tags": {
        "addr:postcode": "560043",
        "addr:street": "B Channasandra Main Road",
        "amenity": "school",
        "name": "St. George College of Management, Science & Nursing",
        "website": "http://www.stgeorgecollege.org"
      }
    },
    {
      "type": "way",
      "id": 1410597947,
      "center": {
        "lat": 13.0144583,
        "lon": 77.6521187
      },
      "tags": {
        "amenity": "place_of_worship",
        "building": "yes",
        "religion": "hindu"
      }
    },
    {
      "type": "way",
      "id": 1410597948,
      "center": {
        "lat": 13.0103596,
        "lon": 77.644748
      },
      "tags": {
        "amenity": "marketplace",
        "landuse": "retail",
        "shop": "greengrocer"
      }
    },
    {
      "type": "way",
      "id": 1410597951,
      "center": {
        "lat": 13.0098523,
        "lon": 77.6439029
      },
      "tags": {
        "amenity": "fuel"
      }
    }
  ]
}