{
  "area_name": "Chikkabyrathi",
  "osm_id": 420087906,
  "osm_type": "node",
  "place_type": "neighbourhood",
  "amenity_count": 170,
  "amenities": [
    {
      "type": "node",
      "id": 419765939,
      "lat": 13.0505862,
      "lon": 77.6494896,
      "tags": {
        "amenity": "place_of_worship",
        "name": "Blessing Worship Center",
        "religion": "christian"
      }
    },
    {
      "type": "node",
      "id": 419775093,
      "lat": 13.0568431,
      "lon": 77.6476683,
      "tags": {
        "amenity": "place_of_worship",
        "name": "Kothanur CSI Church",
        "religion": "christian"
      }
    },
    {
      "type": "node",
      "id": 440667549,
      "lat": 13.0561583,
      "lon": 77.6563276,
      "tags": {
        "amenity": "kennels",
        "name": "Yashbans Boarding Kennels"
      }
    },
    {
      "type": "node",
      "id": 4489966163,
      "lat": 13.0621835,
      "lon": 77.6489203,
      "tags": {
        "addr:city": "bangalore",
        "addr:housenumber": "3",
        "addr:postcode": "56077",
        "addr:street": "Hennur Bagalur Road",
        "name": "New Eden Family Salon And Spa",
        "opening_hours": "09:30-22:30",
        "phone": "080-33518760",
        "shop": "beauty"
      }
    },
    {
      "type": "node",
      "id": 4511497057,
      "lat": 13.054399,
      "lon": 77.6450739,
      "tags": {
        "addr:city": "Bangalore",
        "addr:housenumber": "1",
        "addr:postcode": "560077",
        "addr:street": "K. Narayanapura Main Road",
        "amenity": "restaurant",
        "capacity": "40",
        "cuisine": "chinese;indian",
        "delivery": "yes",
        "name": "3 Ediots",
        "opening_hours": "12:00-15:30,18:30-23:15",
        "phone": "+91 9620633312",
        "phone_1": "+91 9620933312",
        "takeaway": "yes"
      }
    },
    {
      "type": "node",
      "id": 4973099936,
      "lat": 13.0603468,
      "lon": 77.6419325,
      "tags": {
        "name": "Sri Krishna Medical and General Store",
        "shop": "medical_supply"
      }
    },
    {
      "type": "node",
      "id": 4973099937,
      "lat": 13.0594285,
      "lon": 77.6428954,
      "tags": {
        "amenity": "fast_food",
        "name": "Kairali Mess"
      }
    },
    {
      "type": "node",
      "id": 4973099938,
      "lat": 13.059224,
      "lon": 77.6430226,
      "tags": {
        "amenity": "restaurant",
        "cuisine": "indian;kerala",
        "name": "Joicy's Kitchen"
      }
    },
    {
      "type": "node",
      "id": 5168546937,
      "lat": 13.059096,
      "lon": 77.6431078,
      "tags": {
        "amenity": "restaurant"
      }
    },
    {
      "type": "node",
      "id": 6944231456,
      "lat": 13.0555559,
      "lon": 77.6517145,
      "tags": {
        "addr:district": "Bengaluru Urban",
        "addr:full": "85 Byrathi, Hennur Main Road,Near Kothnur Police Station",
        "addr:postcode": "560077",
        "addr:state": "Karnataka",
        "amenity": "hospital",
        "name": "Medi Derma Hospital",
        "source": "OpenGovernmentData"
      }
    },
    {
      "type": "node",
      "id": 7206419492,
      "lat": 13.0533533,
      "lon": 77.6455468,
      "tags": {
        "name": "Thomchi Unisex Salon",
        "shop": "hairdresser"
      }
    },
    {
      "type": "node",
      "id": 7206419503,
      "lat": 13.0562928,
      "lon": 77.6446804,
      "tags": {
        "amenity": "fast_food",
        "name": "Roti Land Family Dhaba"
      }
    },
    {
      "type": "node",
      "id": 7206419528,
      "lat": 13.0575391,
      "lon": 77.6439643,
      "tags": {
        "amenity": "fast_food",
        "name": "Dreamland Food Corner"
      }
    },
    {
      "type": "node",
      "id": 7206419529,
      "lat": 13.0579611,
      "lon": 77.6440448,
      "tags": {
        "name": "Aayi's Organics",
        "shop": "greengrocer"
      }
    },
    {
      "type": "node",
      "id": 7206419572,
      "lat": 13.0598593,
      "lon": 77.642583,
      "tags": {
        "amenity": "fast_food",
        "name": "Appam's Bakery and Sweets"
      }
    },
    {
      "type": "node",
      "id": 7206419705,
      "lat": 13.0600213,
      "lon": 77.6424361,
      "tags": {
        "amenity": "place_of_worship",
        "name": "Sri Shiva Chamundi Temple",
        "religion": "hindu"
      }
    },
    {
      "type": "node",
      "id": 7208904227,
      "lat": 13.0485259,
      "lon": 77.6452813,
      "tags": {
        "amenity": "bank",
        "atm": "yes",
        "brand": "Axis Bank",
        "brand:wikidata": "Q2003549",
        "name": "Axis Bank",
        "name:kn": "ಆಕ್ಸಿಸ್ ಬ್ಯಾಂಕ್"
      }
    },
    {
      "type": "node",
      "id": 7208904242,
      "lat": 13.049136,
      "lon": 77.6453912,
      "tags": {
        "name": "Bake n Bistro",
        "shop": "bakery"
      }
    },
    {
      "type": "node",
      "id": 7227412372,
      "lat": 13.0522323,
      "lon": 77.6462227,
      "tags": {
        "name": "The Brigade Hypermart",
        "shop": "supermarket"
      }
    },
    {
      "type": "node",
      "id": 7227412373,
      "lat": 13.0550686,
      "lon": 77.6453537,
      "tags": {
        "addr:city": "Bengaluru",
        "addr:country": "IN",
        "addr:hamlet": "K Narayanapura",
        "addr:housenumber": "361",
        "addr:street": "K Narayanapura Main Road",
        "addr:suburb": "Kothanur",
        "amenity": "restaurant",
        "cuisine": "regional",
        "name": "Mom's Kitchen - Tanang Naga"
      }
    },
    {
      "type": "node",
      "id": 7227412374,
      "lat": 13.0587371,
      "lon": 77.643232,
      "tags": {
        "amenity": "restaurant",
        "name": "Cafe Zamorin"
      }
    },
    {
      "type": "node",
      "id": 7227446791,
      "lat": 13.0634128,
      "lon": 77.6507438,
      "tags": {
        "name": "Blooming Looms",
        "shop": "clothes"
      }
    },
    {
      "type": "node",
      "id": 7255870169,
      "lat": 13.0520168,
      "lon": 77.6460806,
      "tags": {
        "amenity": "restaurant",
        "name": "Luqma"
      }
    },
    {
      "type": "node",
      "id": 7255870170,
      "lat": 13.0530266,
      "lon": 77.6457949,
      "tags": {
        "amenity": "cafe",
        "name": "Jiffy Cafe"
      }
    },
    {
      "type": "node",
      "id": 7255870171,
      "lat": 13.0549641,
      "lon": 77.6453443,
      "tags": {
        "name": "Style Line",
        "shop": "hairdresser"
      }
    },
    {
      "type": "node",
      "id": 7255870172,
      "lat": 13.0551392,
      "lon": 77.6453523,
      "tags": {
        "name": "S A Furniture",
        "shop": "furniture"
      }
    },
    {
      "type": "node",
      "id": 7255870173,
      "lat": 13.0569486,
      "lon": 77.6444015,
      "tags": {
        "name": "S. M. Optics",
        "shop": "optician"
      }
    },
    {
      "type": "node",
      "id": 7255870174,
      "lat": 13.0572301,
      "lon": 77.6441366,
      "tags": {
        "amenity": "cafe",
        "name": "Fella Cafe"
      }
    },
    {
      "type": "node",
      "id": 7255870175,
      "lat": 13.0576815,
      "lon": 77.6439341,
      "tags": {
        "amenity": "fast_food",
        "cuisine": "juice",
        "name": "Lassi Store"
      }
    },
    {
      "type": "node",
      "id": 7255870176,
      "lat": 13.0578944,
      "lon": 77.6440562,
      "tags": {
        "amenity": "fast_food",
        "name": "Kolkata Famous Kati Roll"
      }
    },
    {
      "type": "node",
      "id": 7255870179,
      "lat": 13.0589004,
      "lon": 77.6431033,
      "tags": {
        "amenity": "fast_food",
        "cuisine": "chinese",
        "name": "Chinese Bowl"
      }
    },
    {
      "type": "node",
      "id": 7255870180,
      "lat": 13.0602813,
      "lon": 77.6422249,
      "tags": {
        "name": "Sattvik Gourmet Food Bazar",
        "shop": "convenience"
      }
    },
    {
      "type": "node",
      "id": 7256979679,
      "lat": 13.0481365,
      "lon": 77.6455307,
      "tags": {
        "name": "Star Market",
        "shop": "supermarket"
      }
    },
    {
      "type": "node",
      "id": 7256979682,
      "lat": 13.0490759,
      "lon": 77.6457185,
      "tags": {
        "amenity": "fast_food",
        "cuisine": "regional",
        "name": "Karnataka Biryani Point"
      }
    },
    {
      "type": "node",
      "id": 7256979683,
      "lat": 13.0500819,
      "lon": 77.6453456,
      "tags": {
        "name": "Pearl Vision Optics",
        "shop": "optician"
      }
    },
    {
      "type": "node",
      "id": 8359629978,
      "lat": 13.05293,
      "lon": 77.6458485,
      "tags": {
        "name": "Sagar Gifts and Fancy Store",
        "shop": "gift"
      }
    },
    {
      "type": "node",
      "id": 8597934815,
      "lat": 13.0632769,
      "lon": 77.6487414,
      "tags": {
        "addr:city": "bangalore",
        "addr:housenumber": "9/2",
        "addr:postcode": "560077",
        "addr:street": "Kothanur Mail Road",
        "amenity": "bank",
        "atm": "yes",
        "brand": "State Bank of India",
        "brand:wikidata": "Q1340361",
        "brand:wikipedia": "en:State Bank of India",
        "name": "State Bank of India",
        "opening_hours": "Mo-Sa 09:00-17:00",
        "operator": "SBI"
      }
    },
    {
      "type": "node",
      "id": 8597934816,
      "lat": 13.0643012,
      "lon": 77.6492122,
      "tags": {
        "addr:city": "Bengaluru",
        "addr:housenumber": "89",
        "addr:postcode": "560077",
        "addr:street": "Narayanapura Main Road",
        "amenity": "bank",
        "atm": "yes",
        "brand": "ICICI Bank",
        "brand:wikidata": "Q1653258",
        "brand:wikipedia": "en:ICICI Bank",
        "description": "IFSC Code: ICIC0001850",
        "name": "ICICI Bank",
        "opening_hours": "Mo-Sa 09:30-16:30",
        "operator": "ICICI"
      }
    },
    {
      "type": "node",
      "id": 8597958242,
      "lat": 13.0632605,
      "lon": 77.6488771,
      "tags": {
        "addr:city": "Bengaluru",
        "addr:postcode": "560077",
        "addr:street": "Kothanur Main Road",
        "amenity": "restaurant",
        "name": "Post office - Kothanur",
        "opening_hours": "Mo-Sa 08:00-14:00",
        "operator": "India Post"
      }
    },
    {
      "type": "node",
      "id": 9527967829,
      "lat": 13.0495397,
      "lon": 77.6452383,
      "tags": {
        "name": "Leela Bakery",
        "shop": "bakery"
      }
    },
    {
      "type": "node",
      "id": 9527967830,
      "lat": 13.0567239,
      "lon": 77.6441869,
      "tags": {
        "amenity": "fast_food",
        "brand": "Southern Fried Chicken",
        "brand:wikidata": "Q7569934",
        "cuisine": "chicken",
        "name": "Southern Fried Chicken",
        "takeaway": "yes"
      }
    },
    {
      "type": "node",
      "id": 9781094434,
      "lat": 13.0504346,
      "lon": 77.6463219,
      "tags": {
        "amenity": "restaurant",
        "name": "Root77"
      }
    },
    {
      "type": "node",
      "id": 9912860204,
      "lat": 13.0559557,
      "lon": 77.6447488,
      "tags": {
        "amenity": "restaurant",
        "name": "The Culinarian"
      }
    },
    {
      "type": "node",
      "id": 9912860205,
      "lat": 13.0528222,
      "lon": 77.6459327,
      "tags": {
        "name": "Spin Cleans",
        "shop": "dry_cleaning"
      }
    },
    {
      "type": "node",
      "id": 10250904436,
      "lat": 13.0554134,
      "lon": 77.6429841,
      "tags": {
        "addr:city": "Bangalore",
        "addr:country": "IN",
        "addr:housenumber": "16",
        "addr:postcode": "560077",
        "addr:suburb": "Geddalahalli",
        "amenity": "cafe",
        "contact:facebook": "CoffeeMetanoia",
        "contact:instagram": "coffee_metanoia",
        "name": "Coffee Metanoia",
        "website": "https://coffee-metanoia.kyte.site/"
      }
    },
    {
      "type": "node",
      "id": 10574709755,
      "lat": 13.0560824,
      "lon": 77.6445048,
      "tags": {
        "amenity": "pharmacy",
        "name": "Aditya Pharma"
      }
    },
    {
      "type": "node",
      "id": 10574709759,
      "lat": 13.0528777,
      "lon": 77.6455917,
      "tags": {
        "name": "Metro",
        "shop": "clothes"
      }
    },
    {
      "type": "node",
      "id": 10574709760,
      "lat": 13.0525341,
      "lon": 77.645585,
      "tags": {
        "name": "Aurelia",
        "name:kn": "ಅರೆಲಿಯ",
        "shop": "clothes"
      }
    },
    {
      "type": "node",
      "id": 10574709763,
      "lat": 13.049933,
      "lon": 77.6453644,
      "tags": {
        "name": "Nadumuttam",
        "shop": "supermarket"
      }
    },
    {
      "type": "node",
      "id": 10688397559,
      "lat": 13.055117,
      "lon": 77.6460309,
      "tags": {
        "name": "Amber Megastore",
        "shop": "department_store"
      }
    },
    {
      "type": "node",
      "id": 10731130832,
      "lat": 13.0641051,
      "lon": 77.6491168,
      "tags": {
        "amenity": "restaurant",
        "cuisine": "regional",
        "name": "Thalassery Restaurant"
      }
    },
    {
      "type": "node",
      "id": 10731130836,
      "lat": 13.0640777,
      "lon": 77.6484717,
      "tags": {
        "name": "The Blue Ridge",
        "shop": "pet"
      }
    },
    {
      "type": "node",
      "id": 10731130837,
      "lat": 13.0641829,
      "lon": 77.6486061,
      "tags": {
        "amenity": "bank",
        "brand": "Axis Bank",
        "brand:wikidata": "Q2003549",
        "name": "Axis Bank"
      }
    },
    {
      "type": "node",
      "id": 11647727650,
      "lat": 13.0577398,
      "lon": 77.6439304,
      "tags": {
        "amenity": "fast_food",
        "check_date": "2024-02-21",
        "delivery": "yes",
        "drive_through": "yes",
        "name": "UTBT - Under The Banyan Tree"
      }
    },
    {
      "type": "node",
      "id": 11662119197,
      "lat": 13.0488055,
      "lon": 77.645685,
      "tags": {
        "amenity": "bank",
        "brand": "CSB Bank",
        "brand:wikidata": "Q5053244",
        "check_date": "2024-02-25",
        "name": "CSB Bank",
        "official_name": "Catholic Syrian Bank"
      }
    },
    {
      "type": "node",
      "id": 11662119198,
      "lat": 13.057719,
      "lon": 77.6438735,
      "tags": {
        "amenity": "fast_food",
        "check_date": "2024-02-25",
        "cuisine": "chinese",
        "name": "Dragon View"
      }
    },
    {
      "type": "node",
      "id": 11662119200,
      "lat": 13.0578603,
      "lon": 77.6440834,
      "tags": {
        "amenity": "fast_food",
        "check_date": "2024-02-25",
        "name": "Grill Nights"
      }
    },
    {
      "type": "node",
      "id": 11662119201,
      "lat": 13.0578343,
      "lon": 77.6440984,
      "tags": {
        "amenity": "fast_food",
        "check_date": "2024-02-25",
        "name": "Panoor Restaurant & Cafe"
      }
    },
    {
      "type": "node",
      "id": 11662119202,
      "lat": 13.0579017,
      "lon": 77.6440795,
      "tags": {
        "check_date": "2024-02-25",
        "name": "Net Galaxy",
        "shop": "copyshop"
      }
    },
    {
      "type": "node",
      "id": 11662119203,
      "lat": 13.0580923,
      "lon": 77.6438883,
      "tags": {
        "amenity": "pharmacy",
        "check_date": "2024-02-25",
        "healthcare": "pharmacy",
        "name": "Sri Ram Medicals"
      }
    },
    {
      "type": "node",
      "id": 11662119204,
      "lat": 13.0578309,
      "lon": 77.6437923,
      "tags": {
        "amenity": "fast_food",
        "check_date": "2024-02-25",
        "name": "A1 Ambur Biryani"
      }
    },
    {
      "type": "node",
      "id": 11662119205,
      "lat": 13.0578526,
      "lon": 77.6437873,
      "tags": {
        "check_date": "2024-02-25",
        "shop": "copyshop"
      }
    },
    {
      "type": "node",
      "id": 11662119206,
      "lat": 13.0578831,
      "lon": 77.6437839,
      "tags": {
        "amenity": "fast_food",
        "check_date": "2024-02-25",
        "name": "Bangalore's Spicy Bites"
      }
    },
    {
      "type": "node",
      "id": 11662119207,
      "lat": 13.0581667,
      "lon": 77.6437513,
      "tags": {
        "amenity": "fast_food",
        "check_date": "2024-02-25",
        "name": "Panasam Food Court"
      }
    },
    {
      "type": "node",
      "id": 11662119208,
      "lat": 13.0581549,
      "lon": 77.6438032,
      "tags": {
        "amenity": "fast_food",
        "check_date": "2024-02-25",
        "name": "SGS Non Veg"
      }
    },
    {
      "type": "node",
      "id": 11662119209,
      "lat": 13.0582118,
      "lon": 77.6437953,
      "tags": {
        "check_date": "2024-02-25",
        "shop": "hairdresser"
      }
    },
    {
      "type": "node",
      "id": 11662119210,
      "lat": 13.0582022,
      "lon": 77.6437419,
      "tags": {
        "amenity": "atm",
        "check_date": "2024-02-25",
        "operator": "Canara Bank"
      }
    },
    {
      "type": "node",
      "id": 11662137682,
      "lat": 13.0478429,
      "lon": 77.6446325,
      "tags": {
        "check_date": "2024-02-25",
        "name": "My Chicken and More",
        "shop": "butcher"
      }
    },
    {
      "type": "node",
      "id": 11917222415,
      "lat": 13.0532531,
      "lon": 77.6460092,
      "tags": {
        "amenity": "fast_food",
        "check_date": "2024-05-19",
        "name": "Sri Krishna Vaibhava"
      }
    },
    {
      "type": "node",
      "id": 11917222416,
      "lat": 13.0529667,
      "lon": 77.645813,
      "tags": {
        "check_date": "2024-05-19",
        "shop": "mobile_phone"
      }
    },
    {
      "type": "node",
      "id": 11917222417,
      "lat": 13.0530851,
      "lon": 77.6457541,
      "tags": {
        "check_date": "2024-05-19",
        "name": "Bangalore Horticultural",
        "shop": "greengrocer"
      }
    },
    {
      "type": "node",
      "id": 11917222418,
      "lat": 13.0555623,
      "lon": 77.6446672,
      "tags": {
        "check_date": "2024-05-19",
        "name": "Laundry Fabrica",
        "shop": "laundry"
      }
    },
    {
      "type": "node",
      "id": 12301590053,
      "lat": 13.0640759,
      "lon": 77.6501432,
      "tags": {
        "amenity": "toilets",
        "fee": "yes"
      }
    },
    {
      "type": "node",
      "id": 12441386597,
      "lat": 13.0590702,
      "lon": 77.6468477,
      "tags": {
        "amenity": "place_of_worship",
        "religion": "hindu"
      }
    },
    {
      "type": "node",
      "id": 12441457816,
      "lat": 13.0543488,
      "lon": 77.6462281,
      "tags": {
        "name": "Reliance Trends",
        "shop": "clothes"
      }
    },
    {
      "type": "node",
      "id": 12441457817,
      "lat": 13.054452,
      "lon": 77.6462415,
      "tags": {
        "amenity": "restaurant",
        "name": "TYD"
      }
    },
    {
      "type": "node",
      "id": 12450999464,
      "lat": 13.0479657,
      "lon": 77.6452691,
      "tags": {
        "amenity": "fast_food",
        "check_date": "2024-12-25",
        "name": "Ambur Hot Dum Biryani"
      }
    },
    {
      "type": "node",
      "id": 12450999465,
      "lat": 13.0524914,
      "lon": 77.6462426,
      "tags": {
        "brand": "Levi's",
        "brand:wikidata": "Q127962",
        "check_date": "2024-12-25",
        "clothes": "denim;men;women",
        "name": "Levi's",
        "shop": "clothes"
      }
    },
    {
      "type": "node",
      "id": 12450999466,
      "lat": 13.0526173,
      "lon": 77.6456095,
      "tags": {
        "check_date": "2024-12-25",
        "name": "soch",
        "shop": "clothes"
      }
    },
    {
      "type": "node",
      "id": 12450999467,
      "lat": 13.0526842,
      "lon": 77.6456359,
      "tags": {
        "brand": "Polo Ralph Lauren",
        "brand:wikidata": "Q1641437",
        "check_date": "2024-12-25",
        "name": "US Polo",
        "shop": "clothes"
      }
    },
    {
      "type": "node",
      "id": 12450999468,
      "lat": 13.0527732,
      "lon": 77.6456787,
      "tags": {
        "check_date": "2024-12-25",
        "name": "Caratlane",
        "shop": "jewelry"
      }
    },
    {
      "type": "node",
      "id": 12450999469,
      "lat": 13.052841,
      "lon": 77.6457038,
      "tags": {
        "check_date": "2024-12-25",
        "name": "Kushal's",
        "shop": "jewelry"
      }
    },
    {
      "type": "node",
      "id": 12450999470,
      "lat": 13.0527663,
      "lon": 77.6459391,
      "tags": {
        "check_date": "2024-12-25",
        "name": "SV Iyengary Bakery",
        "shop": "bakery"
      }
    },
    {
      "type": "node",
      "id": 12450999471,
      "lat": 13.0544787,
      "lon": 77.6450857,
      "tags": {
        "check_date": "2024-12-25",
        "name": "The Meat Store",
        "shop": "butcher"
      }
    },
    {
      "type": "node",
      "id": 12450999472,
      "lat": 13.0570278,
      "lon": 77.6444364,
      "tags": {
        "alt_name": "Baptist Hospital Clinic",
        "amenity": "clinic",
        "check_date": "2024-12-25",
        "healthcare": "clinic",
        "name": "Baptist Express Healthcare"
      }
    },
    {
      "type": "node",
      "id": 12450999473,
      "lat": 13.0582011,
      "lon": 77.6435954,
      "tags": {
        "amenity": "fast_food",
        "check_date": "2024-12-25",
        "name": "Lumina Foods"
      }
    },
    {
      "type": "node",
      "id": 12450999474,
      "lat": 13.0596242,
      "lon": 77.6427656,
      "tags": {
        "check_date": "2024-12-25",
        "name": "Facecake",
        "shop": "pastry"
      }
    },
    {
      "type": "node",
      "id": 12450999475,
      "lat": 13.0598775,
      "lon": 77.6425707,
      "tags": {
        "amenity": "fast_food",
        "check_date": "2024-12-25",
        "name": "Sri Udupi Vaibhava"
      }
    },
    {
      "type": "node",
      "id": 12469422682,
      "lat": 13.0639663,
      "lon": 77.6501868,
      "tags": {
        "name": "Indian Puncture shop",
        "shop": "tyres"
      }
    },
    {
      "type": "node",
      "id": 12497976590,
      "lat": 13.0602016,
      "lon": 77.6531562,
      "tags": {
        "amenity": "restaurant",
        "name": "Yumm Keralam"
      }
    },
    {
      "type": "node",
      "id": 12497976599,
      "lat": 13.0485755,
      "lon": 77.6457305,
      "tags": {
        "amenity": "restaurant",
        "name": "Zatar"
      }
    },
    {
      "type": "node",
      "id": 12497976604,
      "lat": 13.0490746,
      "lon": 77.6461932,
      "tags": {
        "amenity": "place_of_worship",
        "religion": "muslim"
      }
    },
    {
      "type": "node",
      "id": 12497976734,
      "lat": 13.0509285,
      "lon": 77.646094,
      "tags": {
        "brand": "Honda",
        "brand:wikidata": "Q9584",
        "name": "Honda",
        "shop": "motorcycle"
      }
    },
    {
      "type": "node",
      "id": 12540842178,
      "lat": 13.0583517,
      "lon": 77.6434712,
      "tags": {
        "addr:city": "Bengaluru",
        "addr:postcode": "560077",
        "addr:street": "K Narayanapura",
        "amenity": "bank",
        "brand": "South Indian Bank",
        "brand:wikidata": "Q2044973",
        "name": "South Indian Bank"
      }
    },
    {
      "type": "node",
      "id": 12632074330,
      "lat": 13.0556069,
      "lon": 77.6449111,
      "tags": {
        "amenity": "cafe",
        "name": "Hipp-E Panda"
      }
    },
    {
      "type": "node",
      "id": 12823540798,
      "lat": 13.0579231,
      "lon": 77.6504167,
      "tags": {
        "amenity": "cafe",
        "name": "Open Door Coffee Co"
      }
    },
    {
      "type": "node",
      "id": 12823540799,
      "lat": 13.054946,
      "lon": 77.6537465,
      "tags": {
        "amenity": "cafe",
        "name": "Cottage Loaf"
      }
    },
    {
      "type": "node",
      "id": 12823540800,
      "lat": 13.055743,
      "lon": 77.6537355,
      "tags": {
        "amenity": "restaurant",
        "cuisine": "italian",
        "name": "Casa Napoli"
      }
    },
    {
      "type": "node",
      "id": 13013588712,
      "lat": 13.0629163,
      "lon": 77.6492482,
      "tags": {
        "amenity": "fast_food",
        "name": "Sharief Bhai"
      }
    },
    {
      "type": "node",
      "id": 13077680175,
      "lat": 13.0579781,
      "lon": 77.6476899,
      "tags": {
        "amenity": "cafe",
        "name": "Cafe Kempu"
      }
    },
    {
      "type": "node",
      "id": 13077680176,
      "lat": 13.0533202,
      "lon": 77.6455079,
      "tags": {
        "amenity": "cafe",
        "name": "The Leslie's"
      }
    },
    {
      "type": "node",
      "id": 13077680177,
      "lat": 13.0543354,
      "lon": 77.6450764,
      "tags": {
        "amenity": "cafe",
        "name": "Theo Cafe"
      }
    },
    {
      "type": "node",
      "id": 13108989425,
      "lat": 13.0598468,
      "lon": 77.6485539,
      "tags": {
        "name": "Snitch",
        "shop": "clothes"
      }
    },
    {
      "type": "node",
      "id": 13108989426,
      "lat": 13.0598911,
      "lon": 77.6489711,
      "tags": {
        "brand": "Theobroma",
        "brand:wikidata": "Q124374469",
        "delivery": "yes",
        "name": "Theobroma",
        "shop": "pastry",
        "takeaway": "yes"
      }
    },
    {
      "type": "node",
      "id": 13108989427,
      "lat": 13.059104,
      "lon": 77.648918,
      "tags": {
        "brand": "Raymond",
        "brand:wikidata": "Q3537018",
        "name": "Raymond",
        "shop": "clothes"
      }
    },
    {
      "type": "node",
      "id": 13108989448,
      "lat": 13.05799,
      "lon": 77.6483832,
      "tags": {
        "amenity": "restaurant",
        "brand": "Empire",
        "brand:wikidata": "Q124374511",
        "cuisine": "indian",
        "delivery": "yes",
        "name": "Empire",
        "takeaway": "yes"
      }
    },
    {
      "type": "node",
      "id": 13108989449,
      "lat": 13.058001,
      "lon": 77.6490356,
      "tags": {
        "brand": "Westside",
        "brand:wikidata": "Q123376384",
        "name": "Westside",
        "shop": "clothes"
      }
    },
    {
      "type": "node",
      "id": 13108989450,
      "lat": 13.0576685,
      "lon": 77.6482466,
      "tags": {
        "name": "Tonique",
        "shop": "alcohol"
      }
    },
    {
      "type": "node",
      "id": 13108989451,
      "lat": 13.0549895,
      "lon": 77.6464031,
      "tags": {
        "amenity": "fast_food",
        "name": "Momoguys"
      }
    },
    {
      "type": "node",
      "id": 13108989452,
      "lat": 13.0544352,
      "lon": 77.6463311,
      "tags": {
        "name": "Anand Sweets",
        "shop": "confectionery"
      }
    },
    {
      "type": "node",
      "id": 13108989453,
      "lat": 13.0547792,
      "lon": 77.6463588,
      "tags": {
        "brand": "Zudio",
        "brand:wikidata": "Q123375926",
        "name": "Zudio",
        "shop": "clothes"
      }
    },
    {
      "type": "node",
      "id": 13108989458,
      "lat": 13.0525485,
      "lon": 77.6462442,
      "tags": {
        "brand": "Fabindia",
        "brand:wikidata": "Q5427779",
        "name": "Fabindia",
        "shop": "clothes"
      }
    },
    {
      "type": "way",
      "id": 35185823,
      "center": {
        "lat": 13.0472901,
        "lon": 77.6467673
      },
      "tags": {
        "addr:city": "Kothanur Post, Bangalore",
        "addr:postcode": "560 077",
        "addr:street": "Hennur Bagalur Road",
        "amenity": "school",
        "email": "info@bisedu.co.in",
        "fax": "+91-80-2846 5059",
        "name": "Bangalore International School",
        "phone": "+91-80-28465060; +91-80-28445852",
        "website": "https://www.bangaloreinternationalschool.com/",
        "wikidata": "Q4855055",
        "wikipedia": "en:Bangalore International School"
      }
    },
    {
      "type": "way",
      "id": 35912579,
      "center": {
        "lat": 13.0618103,
        "lon": 77.6538567
      },
      "tags": {
        "alt_name": "SAIACS",
        "amenity": "college",
        "email": "admissions@saiacs.org",
        "name": "South Asia Institute of Advanced Christian Studies",
        "phone": "+91 9606200303",
        "website": "https://www.saiacs.org/",
        "wikidata": "Q7566022",
        "wikipedia": "en:South Asia Institute of Advanced Christian Studies"
      }
    },
    {
      "type": "way",
      "id": 35912588,
      "center": {
        "lat": 13.0618015,
        "lon": 77.6515028
      },
      "tags": {
        "addr:city": "Bengaluru",
        "addr:postcode": "560077",
        "addr:street": "Kothanur",
        "amenity": "conference_centre",
        "building": "yes",
        "name": "Sam Palace"
      }
    },
    {
      "type": "way",
      "id": 35912759,
      "center": {
        "lat": 13.0508397,
        "lon": 77.6448996
      },
      "tags": {
        "amenity": "place_of_worship",
        "name": "The Pentecostal Mission",
        "religion": "christian"
      }
    },
    {
      "type": "way",
      "id": 35912928,
      "center": {
        "lat": 13.0522198,
        "lon": 77.6469026
      },
      "tags": {
        "leisure": "sports_centre",
        "name": "Kinesis Tennis Academy",
        "sport": "tennis",
        "url": "http://www.kinesisnet.com/"
      }
    },
    {
      "type": "way",
      "id": 530606746,
      "center": {
        "lat": 13.0576618,
        "lon": 77.6420218
      },
      "tags": {
        "access": "private",
        "amenity": "college",
        "capacity": "30",
        "fee": "no",
        "maxstay": "1 day",
        "operator": "Kristu Jayanti University",
        "parking": "surface",
        "surface": "asphalt"
      }
    },
    {
      "type": "way",
      "id": 530606750,
      "center": {
        "lat": 13.0583978,
        "lon": 77.6426006
      },
      "tags": {
        "access": "private",
        "amenity": "motorcycle_parking",
        "capacity": "200",
        "covered": "no",
        "operator": "Kristu Jayanti University"
      }
    },
    {
      "type": "way",
      "id": 530606753,
      "center": {
        "lat": 13.0588411,
        "lon": 77.6425733
      },
      "tags": {
        "leisure": "pitch",
        "lit": "no",
        "sport": "soccer",
        "surface": "ground"
      }
    },
    {
      "type": "way",
      "id": 530606757,
      "center": {
        "lat": 13.0592179,
        "lon": 77.6423836
      },
      "tags": {
        "leisure": "pitch",
        "sport": "basketball"
      }
    },
    {
      "type": "way",
      "id": 530606762,
      "center": {
        "lat": 13.0588678,
        "lon": 77.6428331
      },
      "tags": {
        "leisure": "park"
      }
    },
    {
      "type": "way",
      "id": 530606764,
      "center": {
        "lat": 13.0581112,
        "lon": 77.6434269
      },
      "tags": {
        "amenity": "cafe",
        "internet_access": "yes",
        "internet_access:fee": "no",
        "internet_access:ssid": "KJC_NET",
        "name": "Cafeteria",
        "outdoor_seating": "yes",
        "smoking": "no"
      }
    },
    {
      "type": "way",
      "id": 530665374,
      "center": {
        "lat": 13.058229,
        "lon": 77.6424351
      },
      "tags": {
        "addr:city": "Bengaluru",
        "addr:postcode": "560077",
        "addr:street": "K. Narayanapura Main Road",
        "amenity": "university",
        "description": "Krsitu Jayanti is an autonomous college affilated to Bengaluru North University and founded in 1999",
        "landuse": "education",
        "name": "Kristu Jayanti University",
        "old_name": "Kristu Jayanti College",
        "operator": "CMI (Carmelites of Mary Immaculate)",
        "operator:type": "religious",
        "short_name": "KJU",
        "website": "https://kristujayanti.edu.in/home/",
        "wikidata": "Q19892953",
        "wikipedia": "en:Kristu Jayanti University"
      }
    },
    {
      "type": "way",
      "id": 531029902,
      "center": {
        "lat": 13.058436,
        "lon": 77.6433308
      },
      "tags": {
        "building": "yes",
        "shop": "yes"
      }
    },
    {
      "type": "way",
      "id": 531029917,
      "center": {
        "lat": 13.0572994,
        "lon": 77.6454379
      },
      "tags": {
        "addr:city": "Bangalore",
        "addr:country": "IN",
        "addr:hamlet": "K Narayanapura",
        "addr:housenumber": "12",
        "addr:postcode": "560077",
        "addr:street": "Esther Defence Avenue",
        "addr:suburb": "Kothanur",
        "amenity": "cafe",
        "building": "yes",
        "email": "chai316blr@gmail.com",
        "internet_access": "no",
        "name": "Chai 3:16",
        "outdoor_seating": "no",
        "phone": "+91 80 2844 5316",
        "smoking": "no",
        "website": "https://chai316.com/"
      }
    },
    {
      "type": "way",
      "id": 531119558,
      "center": {
        "lat": 13.0584822,
        "lon": 77.6429995
      },
      "tags": {
        "amenity": "fountain"
      }
    },
    {
      "type": "way",
      "id": 537716165,
      "center": {
        "lat": 13.0555139,
        "lon": 77.6463263
      },
      "tags": {
        "amenity": "police",
        "building": "yes",
        "name": "Kothanur Police Station",
        "name:kn": "ಕೊತನೂರು ಆರಕ್ಷಕ ಠಾಣೆ"
      }
    },
    {
      "type": "way",
      "id": 675387109,
      "center": {
        "lat": 13.0485219,
        "lon": 77.6521949
      },
      "tags": {
        "amenity": "school"
      }
    },
    {
      "type": "way",
      "id": 675387124,
      "center": {
        "lat": 13.0590006,
        "lon": 77.6462925
      },
      "tags": {
        "leisure": "pitch",
        "sport": "tennis"
      }
    },
    {
      "type": "way",
      "id": 675387126,
      "center": {
        "lat": 13.0587315,
        "lon": 77.6461111
      },
      "tags": {
        "leisure": "pitch",
        "sport": "tennis"
      }
    },
    {
      "type": "way",
      "id": 771931320,
      "center": {
        "lat": 13.0516019,
        "lon": 77.6451833
      },
      "tags": {
        "addr:city": "Bangalore",
        "addr:country": "IN",
        "addr:hamlet": "Geddalahalli",
        "addr:postcode": "560077",
        "addr:street": "Hennur Main Road",
        "addr:suburb": "Kothanur",
        "amenity": "school",
        "email": "smshs2008@gmail.com",
        "name": "St Michael's High School",
        "name:kn": "ಸೇಂಟ್ ಮೈಕೆಲ್ಸ್ ಪ್ರೌಢಶಾಲೆ",
        "phone": "+91 80 2846 5281",
        "school:gender": "mixed",
        "website": "https://stmichaelshighschool.com/"
      }
    },
    {
      "type": "way",
      "id": 771931321,
      "center": {
        "lat": 13.0516425,
        "lon": 77.6449346
      },
      "tags": {
        "leisure": "sports_centre"
      }
    },
    {
      "type": "way",
      "id": 777616736,
      "center": {
        "lat": 13.0489422,
        "lon": 77.6524875
      },
      "tags": {
        "leisure": "swimming_pool",
        "sport": "swimming"
      }
    },
    {
      "type": "way",
      "id": 777616738,
      "center": {
        "lat": 13.0481258,
        "lon": 77.6520555
      },
      "tags": {
        "leisure": "pitch",
        "sport": "basketball"
      }
    },
    {
      "type": "way",
      "id": 1153855761,
      "center": {
        "lat": 13.0641515,
        "lon": 77.6482545
      },
      "tags": {
        "access": "permissive",
        "amenity": "parking",
        "parking": "surface"
      }
    },
    {
      "type": "way",
      "id": 1187891457,
      "center": {
        "lat": 13.053223,
        "lon": 77.6481136
      },
      "tags": {
        "amenity": "monastery",
        "denomination": "catholic",
        "name": "Shanti Nilaya",
        "name:kn": "ಶಾಂತಿ ನಿಲಯ",
        "religion": "christian"
      }
    },
    {
      "type": "way",
      "id": 1187891458,
      "center": {
        "lat": 13.0509194,
        "lon": 77.6485502
      },
      "tags": {
        "amenity": "school",
        "name": "St. Mary's School",
        "name:kn": "ಸೇಂಟ್ ಮೇರಿ ಶಾಲೆ"
      }
    },
    {
      "type": "way",
      "id": 1187891459,
      "center": {
        "lat": 13.0510756,
        "lon": 77.6472574
      },
      "tags": {
        "leisure": "pitch",
        "sport": "cricket"
      }
    },
    {
      "type": "way",
      "id": 1187891460,
      "center": {
        "lat": 13.0501881,
        "lon": 77.6470374
      },
      "tags": {
        "leisure": "swimming_pool",
        "sport": "swimming"
      }
    },
    {
      "type": "way",
      "id": 1187891461,
      "center": {
        "lat": 13.0502847,
        "lon": 77.6465164
      },
      "tags": {
        "leisure": "pitch",
        "sport": "soccer"
      }
    },
    {
      "type": "way",
      "id": 1191446940,
      "center": {
        "lat": 13.0501064,
        "lon": 77.6425137
      },
      "tags": {
        "amenity": "monastery",
        "landuse": "religious",
        "name": "St. Theresa's Generalate",
        "religion": "christian"
      }
    },
    {
      "type": "way",
      "id": 1253158146,
      "center": {
        "lat": 13.062646,
        "lon": 77.6524765
      },
      "tags": {
        "leisure": "sports_centre"
      }
    },
    {
      "type": "way",
      "id": 1253158147,
      "center": {
        "lat": 13.0631091,
        "lon": 77.6525688
      },
      "tags": {
        "leisure": "pitch",
        "sport": "basketball"
      }
    },
    {
      "type": "way",
      "id": 1253158150,
      "center": {
        "lat": 13.0627072,
        "lon": 77.652418
      },
      "tags": {
        "amenity": "school",
        "name": "Legacy School"
      }
    },
    {
      "type": "way",
      "id": 1265866292,
      "center": {
        "lat": 13.0604631,
        "lon": 77.6421462
      },
      "tags": {
        "building": "retail",
        "name": "Aaruhi Mart",
        "shop": "convenience"
      }
    },
    {
      "type": "way",
      "id": 1267612692,
      "center": {
        "lat": 13.0574176,
        "lon": 77.6498048
      },
      "tags": {
        "amenity": "monastery",
        "landuse": "religious",
        "name": "St. Charles Novitiate"
      }
    },
    {
      "type": "way",
      "id": 1279250156,
      "center": {
        "lat": 13.0584836,
        "lon": 77.649554
      },
      "tags": {
        "amenity": "college"
      }
    },
    {
      "type": "way",
      "id": 1284773651,
      "center": {
        "lat": 13.0540546,
        "lon": 77.6477008
      },
      "tags": {
        "amenity": "school",
        "name": "Teresa Bacq School",
        "name:kn": "ತೆರೆಸಾ ಬಕ್ ಸ್ಕೂಲ್"
      }
    },
    {
      "type": "way",
      "id": 1290915140,
      "center": {
        "lat": 13.0568379,
        "lon": 77.6483035
      },
      "tags": {
        "amenity": "fuel"
      }
    },
    {
      "type": "way",
      "id": 1290915142,
      "center": {
        "lat": 13.0560458,
        "lon": 77.6467746
      },
      "tags": {
        "amenity": "monastery",
        "community:gender": "female",
        "denomination": "catholic",
        "landuse": "religious",
        "name": "Pallotine Missionary Sisters",
        "religion": "christian"
      }
    },
    {
      "type": "way",
      "id": 1298832807,
      "center": {
        "lat": 13.0635865,
        "lon": 77.6474525
      },
      "tags": {
        "amenity": "monastery",
        "landuse": "religious",
        "name": "Gyan Deepti Convent",
        "religion": "christian"
      }
    },
    {
      "type": "way",
      "id": 1300083543,
      "center": {
        "lat": 13.0598816,
        "lon": 77.6448268
      },
      "tags": {
        "leisure": "sports_centre",
        "name": "Turfs Up Kothanur"
      }
    },
    {
      "type": "way",
      "id": 1315564610,
      "center": {
        "lat": 13.0593562,
        "lon": 77.6489698
      },
      "tags": {
        "amenity": "fuel",
        "brand": "Bharat Petroleum",
        "brand:wikidata": "Q854826",
        "name": "Bharat Petroleum",
        "name:kn": "ಭಾರತ್ ಪೆಟ್ರೋಲಿಯಂ"
      }
    },
    {
      "type": "way",
      "id": 1344779690,
      "center": {
        "lat": 13.0559217,
        "lon": 77.6434299
      },
      "tags": {
        "access": "private",
        "leisure": "swimming_pool"
      }
    },
    {
      "type": "way",
      "id": 1350892114,
      "center": {
        "lat": 13.0619966,
        "lon": 77.6477268
      },
      "tags": {
        "amenity": "school",
        "name": "St. Joseph School"
      }
    },
    {
      "type": "way",
      "id": 1350892125,
      "center": {
        "lat": 13.0624806,
        "lon": 77.6506886
      },
      "tags": {
        "amenity": "monastery",
        "name": "Deena Nilaya Convent"
      }
    },
    {
      "type": "way",
      "id": 1350892128,
      "center": {
        "lat": 13.0618163,
        "lon": 77.6515972
      },
      "tags": {
        "addr:city": "Bengaluru",
        "addr:postcode": "560077",
        "addr:street": "Kothanur",
        "amenity": "events_venue",
        "landuse": "commercial",
        "name": "Sam Palace"
      }
    },
    {
      "type": "way",
      "id": 1350892146,
      "center": {
        "lat": 13.0599547,
        "lon": 77.6537201
      },
      "tags": {
        "amenity": "place_of_worship",
        "name": "Ayappa Temple",
        "name:kn": "ಅಯ್ಯಪ್ಪ ದೇವಸ್ಥಾನ",
        "religion": "hindu"
      }
    },
    {
      "type": "way",
      "id": 1350892149,
      "center": {
        "lat": 13.0497487,
        "lon": 77.6466009
      },
      "tags": {
        "amenity": "place_of_worship",
        "religion": "hindu"
      }
    },
    {
      "type": "way",
      "id": 1350892155,
      "center": {
        "lat": 13.0526254,
        "lon": 77.6466254
      },
      "tags": {
        "addr:city": "Bangalore",
        "addr:postcode": "560077",
        "addr:street": "Hennur Bagalur Road",
        "amenity": "school",
        "fixme": "shape",
        "name": "New Baldwin School",
        "name:kn": "ನ್ಯೂ ಬಾಲ್ಡ್ ವಿನ್ ಶಾಲೆ"
      }
    },
    {
      "type": "way",
      "id": 1350892164,
      "center": {
        "lat": 13.0525951,
        "lon": 77.64581
      },
      "tags": {
        "access": "customers",
        "amenity": "parking",
        "parking": "surface"
      }
    },
    {
      "type": "way",
      "id": 1350892168,
      "center": {
        "lat": 13.0521972,
        "lon": 77.6470524
      },
      "tags": {
        "leisure": "pitch",
        "sport": "soccer"
      }
    },
    {
      "type": "way",
      "id": 1350892169,
      "center": {
        "lat": 13.0521603,
        "lon": 77.6465514
      },
      "tags": {
        "leisure": "pitch",
        "sport": "soccer"
      }
    },
    {
      "type": "way",
      "id": 1350892177,
      "center": {
        "lat": 13.0507148,
        "lon": 77.6471165
      },
      "tags": {
        "leisure": "sports_centre"
      }
    },
    {
      "type": "way",
      "id": 1350892195,
      "center": {
        "lat": 13.0487261,
        "lon": 77.6465268
      },
      "tags": {
        "access": "private",
        "leisure": "swimming_pool"
      }
    },
    {
      "type": "way",
      "id": 1366473494,
      "center": {
        "lat": 13.0557304,
        "lon": 77.6497275
      },
      "tags": {
        "amenity": "place_of_worship",
        "name": "Christ the King Church",
        "religion": "christian"
      }
    },
    {
      "type": "way",
      "id": 1366473500,
      "center": {
        "lat": 13.0565765,
        "lon": 77.6515379
      },
      "tags": {
        "leisure": "park"
      }
    },
    {
      "type": "way",
      "id": 1366473501,
      "center": {
        "lat": 13.0564587,
        "lon": 77.6511406
      },
      "tags": {
        "amenity": "monastery",
        "community:gender": "female",
        "name": "Vimala Hridaya Convent",
        "religion": "christian"
      }
    },
    {
      "type": "way",
      "id": 1385084909,
      "center": {
        "lat": 13.0563873,
        "lon": 77.6523974
      },
      "tags": {
        "amenity": "place_of_worship",
        "building": "yes",
        "religion": "hindu"
      }
    }
  ]
}