{
  "area_name": "Chikka Kammanahalli",
  "osm_id": 12555764495,
  "osm_type": "node",
  "place_type": "neighbourhood",
  "amenity_count": 20,
  "amenities": [
    {
      "type": "node",
      "id": 6422302288,
      "lat": 12.8450701,
      "lon": 77.5941913,
      "tags": {
        "addr:place": "Basavanapura",
        "amenity": "school",
        "isced:level": "3",
        "name": "GLPS Basavanapura",
        "name:kn": "ಸರ್ಕಾರಿ ಕಿರಿಯ ಪ್ರಾಥಮಿಕ ಶಾಲೆ ಬಸವನಪುರ",
        "operator": "Department of Education",
        "school": "Higher Primary"
      }
    },
    {
      "type": "node",
      "id": 6422309510,
      "lat": 12.8439382,
      "lon": 77.5959453,
      "tags": {
        "addr:place": "Basavanapura",
        "amenity": "school",
        "isced:level": "3",
        "name": "Jnanabindu, Basavanapura",
        "name:kn": "ಜ್ಞಾನಬಿಂದು, ಬಸವನಪುರ",
        "operator": "Private Un-Aided",
        "school": "Higher secondary"
      }
    },
    {
      "type": "node",
      "id": 12555764467,
      "lat": 12.8557982,
      "lon": 77.6003522,
      "tags": {
        "amenity": "place_of_worship",
        "religion": "hindu"
      }
    },
    {
      "type": "way",
      "id": 1178402467,
      "center": {
        "lat": 12.8379595,
        "lon": 77.6008244
      },
      "tags": {
        "amenity": "school",
        "name": "Greenwood High Bannerghatta"
      }
    },
    {
      "type": "way",
      "id": 1178402472,
      "center": {
        "lat": 12.8507133,
        "lon": 77.5945794
      },
      "tags": {
        "amenity": "college",
        "name": "T John College"
      }
    },
    {
      "type": "way",
      "id": 1199400813,
      "center": {
        "lat": 12.8549618,
        "lon": 77.5936226
      },
      "tags": {
        "leisure": "park"
      }
    },
    {
      "type": "way",
      "id": 1199410758,
      "center": {
        "lat": 12.8526846,
        "lon": 77.60538
      },
      "tags": {
        "leisure": "park"
      }
    },
    {
      "type": "way",
      "id": 1199410761,
      "center": {
        "lat": 12.8519431,
        "lon": 77.6034576
      },
      "tags": {
        "leisure": "park"
      }
    },
    {
      "type": "way",
      "id": 1199410766,
      "center": {
        "lat": 12.8490868,
        "lon": 77.5973361
      },
      "tags": {
        "amenity": "social_facility",
        "name": "St. Joseph Elderly Home",
        "social_facility": "assisted_living",
        "social_facility:for": "senior"
      }
    },
    {
      "type": "way",
      "id": 1199410767,
      "center": {
        "lat": 12.8504622,
        "lon": 77.5973448
      },
      "tags": {
        "amenity": "school",
        "name": "St. Joseph Nivas Special School"
      }
    },
    {
      "type": "way",
      "id": 1356594011,
      "center": {
        "lat": 12.8471608,
        "lon": 77.5950582
      },
      "tags": {
        "amenity": "school"
      }
    },
    {
      "type": "way",
      "id": 1356594012,
      "center": {
        "lat": 12.8472255,
        "lon": 77.5935622
      },
      "tags": {
        "amenity": "place_of_worship",
        "name": "St. Anthony's Church",
        "religion": "christian"
      }
    },
    {
      "type": "way",
      "id": 1356594013,
      "center": {
        "lat": 12.8546646,
        "lon": 77.6022761
      },
      "tags": {
        "leisure": "park"
      }
    },
    {
      "type": "way",
      "id": 1356594014,
      "center": {
        "lat": 12.8548764,
        "lon": 77.6019314
      },
      "tags": {
        "leisure": "park"
      }
    },
    {
      "type": "way",
      "id": 1356594015,
      "center": {
        "lat": 12.8550522,
        "lon": 77.6016096
      },
      "tags": {
        "leisure": "park"
      }
    },
    {
      "type": "way",
      "id": 1356594026,
      "center": {
        "lat": 12.8541978,
        "lon": 77.5978256
      },
      "tags": {
        "amenity": "school"
      }
    },
    {
      "type": "way",
      "id": 1356594054,
      "center": {
        "lat": 12.8497843,
        "lon": 77.6003362
      },
      "tags": {
        "addr:place": "Chikkana Halli",
        "amenity": "school",
        "isced:level": "2",
        "name": "Saint Francis Xavier HPS Chikkana Halli",
        "name:kn": "ಸೆಂಟ್‌ ಫ್ರ ಕ್ಸೇವಿಯರ್ ಹಿರಿಯ ಪ್ರಾಥಮಿಕ ಶಾಲೆ ಚಿಕ್ಕಕಮ್ಮನ ಹಳ್ಳಿ",
        "operator": "Pvt. Aided",
        "school": "primary"
      }
    },
    {
      "type": "way",
      "id": 1356594056,
      "center": {
        "lat": 12.848352,
        "lon": 77.5992907
      },
      "tags": {
        "amenity": "school"
      }
    },
    {
      "type": "way",
      "id": 1356594057,
      "center": {
        "lat": 12.8491463,
        "lon": 77.600381
      },
      "tags": {
        "amenity": "place_of_worship",
        "religion": "christian"
      }
    },
    {
      "type": "way",
      "id": 1432358344,
      "center": {
        "lat": 12.8462442,
        "lon": 77.6080099
      },
      "tags": {
        "amenity": "school"
      }
    }
  ]
}