{
  "area_name": "Deewanarapalya",
  "osm_id": 2324491538,
  "osm_type": "node",
  "place_type": "neighbourhood",
  "amenity_count": 340,
  "amenities": [
    {
      "type": "node",
      "id": 295766640,
      "lat": 13.0181973,
      "lon": 77.5581675,
      "tags": {
        "amenity": "police",
        "check_date": "2025-08-21",
        "name": "DCP Bangalore North Traffic Police",
        "wheelchair": "no"
      }
    },
    {
      "type": "node",
      "id": 445346235,
      "lat": 13.0294768,
      "lon": 77.5638561,
      "tags": {
        "amenity": "theatre",
        "check_date": "2025-11-16",
        "name": "JRD Tata Auditorium",
        "name:etymology:wikidata": "Q468334"
      }
    },
    {
      "type": "node",
      "id": 446054726,
      "lat": 13.0173833,
      "lon": 77.5659752,
      "tags": {
        "amenity": "college",
        "name": "Central Purchase and Stores"
      }
    },
    {
      "type": "node",
      "id": 446055066,
      "lat": 13.0171773,
      "lon": 77.5648502,
      "tags": {
        "amenity": "college",
        "name": "Insdoc"
      }
    },
    {
      "type": "node",
      "id": 446055068,
      "lat": 13.0169379,
      "lon": 77.5645125,
      "tags": {
        "amenity": "bank",
        "atm": "yes",
        "brand": "Canara Bank",
        "brand:en": "Canara Bank",
        "brand:hi": "केनरा बैंक",
        "brand:kn": "ಕೆನರಾ ಬ್ಯಾಂಕ್",
        "brand:pa": "ਕੇਨਰਾ ਬੈਂਕ",
        "brand:pnb": "کینرا بینک",
        "brand:ur": "کینرا بینک",
        "brand:wikidata": "Q2003777",
        "brand:wikipedia": "en:Canara Bank",
        "brand:wikipedia:pa": "ਕੇਨਰਾ ਬੈਂਕ",
        "drive_through": "no",
        "name": "Canara Bank",
        "name:en": "Canara Bank",
        "name:hi": "केनरा बैंक",
        "name:kn": "ಕೆನರಾ ಬ್ಯಾಂಕ್",
        "name:pa": "ਕੇਨਰਾ ਬੈਂਕ",
        "name:pnb": "کینرا بینک",
        "name:ur": "کینرا بینک",
        "website": "https://www.canarabank.com/"
      }
    },
    {
      "type": "node",
      "id": 446059863,
      "lat": 13.0185648,
      "lon": 77.5645301,
      "tags": {
        "amenity": "college",
        "name": "Amenities Hall"
      }
    },
    {
      "type": "node",
      "id": 446059864,
      "lat": 13.018047,
      "lon": 77.5649882,
      "tags": {
        "amenity": "college",
        "name": "Tata Memorial Club"
      }
    },
    {
      "type": "node",
      "id": 577966441,
      "lat": 13.0192135,
      "lon": 77.5572955,
      "tags": {
        "addr:street": "Suberdar Chatram Road",
        "amenity": "restaurant",
        "name": "Emirates",
        "name:kn": "ಎಮಿರೇಟ್ಸ್"
      }
    },
    {
      "type": "node",
      "id": 577966903,
      "lat": 13.0192867,
      "lon": 77.5571453,
      "tags": {
        "addr:street": "Suberdar Chatram Road",
        "name": "RR Cycle Junction",
        "shop": "bicycle"
      }
    },
    {
      "type": "node",
      "id": 577968271,
      "lat": 13.018555,
      "lon": 77.558819,
      "tags": {
        "amenity": "atm",
        "brand": "State Bank of India",
        "brand:wikidata": "Q1340361",
        "name": "State Bank of India",
        "operator": "State Bank of India",
        "operator:wikidata": "Q1340361",
        "short_name": "SBI"
      }
    },
    {
      "type": "node",
      "id": 624991906,
      "lat": 13.0170367,
      "lon": 77.5664416,
      "tags": {
        "amenity": "post_box",
        "collection_times": "Mo-Sa 14:30"
      }
    },
    {
      "type": "node",
      "id": 625145275,
      "lat": 13.0162478,
      "lon": 77.5648911,
      "tags": {
        "amenity": "restaurant",
        "name": "Kabini Canteen",
        "name:kn": "ಕಬಿನಿ ಕ್ಯಾಂಟೀನ್"
      }
    },
    {
      "type": "node",
      "id": 625312522,
      "lat": 13.0183173,
      "lon": 77.5645529,
      "tags": {
        "amenity": "bank",
        "atm": "yes",
        "brand": "State Bank of India",
        "brand:wikidata": "Q1340361",
        "brand:wikipedia": "en:State Bank of India",
        "name": "State Bank of India",
        "name:kn": "ಭಾರತೀಯ ಸ್ಟೇಟ್ ಬ್ಯಾಂಕ್",
        "operator": "State bank of India",
        "short_name": "SBI"
      }
    },
    {
      "type": "node",
      "id": 634815194,
      "lat": 13.0290015,
      "lon": 77.5615609,
      "tags": {
        "brand": "Reliance Fresh",
        "brand:wikidata": "Q7311014",
        "name": "Reliance Fresh",
        "name:kn": "ರಿಲಾಯನ್ಸ್ ಫ್ರೆಶ್",
        "operator": "Reliance",
        "shop": "supermarket",
        "wheelchair": "no"
      }
    },
    {
      "type": "node",
      "id": 638146220,
      "lat": 13.0189986,
      "lon": 77.5571289,
      "tags": {
        "addr:street": "Suberdar Chatram Road",
        "amenity": "place_of_worship",
        "religion": "hindu"
      }
    },
    {
      "type": "node",
      "id": 638380518,
      "lat": 13.0187468,
      "lon": 77.5569804,
      "tags": {
        "amenity": "place_of_worship",
        "name": "Sri Gayathri Devi Temple",
        "name:kn": "ಗಾಯತ್ರಿ ದೇವಿ ದೇವಸ್ಥಾನ",
        "religion": "hindu"
      }
    },
    {
      "type": "node",
      "id": 638887913,
      "lat": 13.018847,
      "lon": 77.5629281,
      "tags": {
        "amenity": "food_court",
        "diet:non-vegetarian": "yes",
        "diet:vegetarian": "yes",
        "name": "Mess B",
        "opening_hours": "Mo-Su 7:30-9:45, 12:30-14:00, 16:30-18:00, 19:30-21:00"
      }
    },
    {
      "type": "node",
      "id": 638887928,
      "lat": 13.0189607,
      "lon": 77.5625244,
      "tags": {
        "amenity": "food_court",
        "diet:vegetarian": "yes",
        "name": "Mess A",
        "opening_hours": "Mo-Su 7:30-9:45, 12:30-14:00, 16:30-18:00, 19:30-21:00"
      }
    },
    {
      "type": "node",
      "id": 638916435,
      "lat": 13.0188237,
      "lon": 77.562754,
      "tags": {
        "amenity": "post_box"
      }
    },
    {
      "type": "node",
      "id": 639450444,
      "lat": 13.0243423,
      "lon": 77.5671642,
      "tags": {
        "shop": "convenience"
      }
    },
    {
      "type": "node",
      "id": 639527463,
      "lat": 13.0240917,
      "lon": 77.5625862,
      "tags": {
        "amenity": "place_of_worship",
        "name": "Saint Sebastian Forane Church",
        "religion": "christian",
        "wheelchair": "no"
      }
    },
    {
      "type": "node",
      "id": 734864105,
      "lat": 13.0145591,
      "lon": 77.5608745,
      "tags": {
        "amenity": "college",
        "name": "Student Amenities Center",
        "short_name": "SAC"
      }
    },
    {
      "type": "node",
      "id": 734864130,
      "lat": 13.0179477,
      "lon": 77.5661498,
      "tags": {
        "amenity": "college",
        "name": "Student Council Office",
        "office": "association"
      }
    },
    {
      "type": "node",
      "id": 735032257,
      "lat": 13.0194529,
      "lon": 77.5645271,
      "tags": {
        "shop": "kiosk"
      }
    },
    {
      "type": "node",
      "id": 735032259,
      "lat": 13.0168805,
      "lon": 77.5639868,
      "tags": {
        "service:bicycle:repair": "yes",
        "shop": "bicycle"
      }
    },
    {
      "type": "node",
      "id": 735032265,
      "lat": 13.0163759,
      "lon": 77.5651518,
      "tags": {
        "amenity": "college",
        "check_date": "2024-08-01",
        "name": "Hostel Office"
      }
    },
    {
      "type": "node",
      "id": 1085604211,
      "lat": 13.0295181,
      "lon": 77.5648212,
      "tags": {
        "amenity": "parking"
      }
    },
    {
      "type": "node",
      "id": 1085604375,
      "lat": 13.0295577,
      "lon": 77.5634442,
      "tags": {
        "access": "customers",
        "amenity": "parking",
        "fee": "no",
        "name": "NIAS",
        "parking": "surface"
      }
    },
    {
      "type": "node",
      "id": 1185581621,
      "lat": 13.0188203,
      "lon": 77.5686314,
      "tags": {
        "amenity": "parking"
      }
    },
    {
      "type": "node",
      "id": 1465482494,
      "lat": 13.029027,
      "lon": 77.561291,
      "tags": {
        "amenity": "atm",
        "check_date": "2022-05-09",
        "fee": "Free first five transaction in a month if from other bank",
        "operator": "SBI State Bank of India ATM"
      }
    },
    {
      "type": "node",
      "id": 1581346714,
      "lat": 13.030076,
      "lon": 77.5593983,
      "tags": {
        "amenity": "restaurant",
        "cuisine": "indian",
        "name": "New Sagar",
        "name:kn": "ನ್ಯೂ ಸಾಗರ್"
      }
    },
    {
      "type": "node",
      "id": 1756144065,
      "lat": 13.0299644,
      "lon": 77.5640792,
      "tags": {
        "amenity": "bank",
        "brand": "Bank of Baroda",
        "brand:wikidata": "Q2003797",
        "name": "Bank of Baroda",
        "name:kn": "ವಿಜಯ ಬ್ಯಾಂಕು"
      }
    },
    {
      "type": "node",
      "id": 1756144144,
      "lat": 13.0287613,
      "lon": 77.5663599,
      "tags": {
        "amenity": "library",
        "name": "M S Ramaiah Library",
        "name:etymology:wikidata": "Q6713104"
      }
    },
    {
      "type": "node",
      "id": 1777151114,
      "lat": 13.0288137,
      "lon": 77.5659698,
      "tags": {
        "amenity": "fast_food",
        "cuisine": "regional",
        "name": "M S Ramaiah Food Court"
      }
    },
    {
      "type": "node",
      "id": 1777151118,
      "lat": 13.0291001,
      "lon": 77.5680818,
      "tags": {
        "amenity": "fast_food",
        "diet:vegetarian": "only",
        "name": "Ganesh Darshan"
      }
    },
    {
      "type": "node",
      "id": 1795673244,
      "lat": 13.0290845,
      "lon": 77.5681567,
      "tags": {
        "name": "Ganesh Book Store",
        "shop": "books"
      }
    },
    {
      "type": "node",
      "id": 2297715693,
      "lat": 13.0293289,
      "lon": 77.5617382,
      "tags": {
        "amenity": "restaurant",
        "cuisine": "indian",
        "name": "Chandrappa Hotel",
        "name:kn": "ಚಂದ್ರಪ್ಪ"
      }
    },
    {
      "type": "node",
      "id": 2702151803,
      "lat": 13.0290865,
      "lon": 77.5664915,
      "tags": {
        "amenity": "atm",
        "operator": "Vijaya Bank"
      }
    },
    {
      "type": "node",
      "id": 2702151807,
      "lat": 13.0290286,
      "lon": 77.5664063,
      "tags": {
        "amenity": "atm",
        "brand": "State Bank of India",
        "brand:wikidata": "Q1340361",
        "operator": "State Bank of India",
        "operator:wikidata": "Q1340361",
        "short_name": "SBI"
      }
    },
    {
      "type": "node",
      "id": 3286300987,
      "lat": 13.0179754,
      "lon": 77.5579088,
      "tags": {
        "access": "yes",
        "amenity": "toilets",
        "check_date": "2024-02-15",
        "fee": "yes",
        "operator": "BBMP"
      }
    },
    {
      "type": "node",
      "id": 3400223536,
      "lat": 13.0183459,
      "lon": 77.5572174,
      "tags": {
        "amenity": "cafe",
        "name": "F A Tea stall"
      }
    },
    {
      "type": "node",
      "id": 3400223634,
      "lat": 13.0188238,
      "lon": 77.5574002,
      "tags": {
        "amenity": "fast_food",
        "name": "New Sagar Fast Food - Vegetarian"
      }
    },
    {
      "type": "node",
      "id": 3412599218,
      "lat": 13.0280761,
      "lon": 77.5634762,
      "tags": {
        "amenity": "parking"
      }
    },
    {
      "type": "node",
      "id": 3493124416,
      "lat": 13.0216054,
      "lon": 77.5587327,
      "tags": {
        "alt_name": "Goli Vada Pav No.1",
        "amenity": "fast_food",
        "brand": "Goli Vada Pav",
        "brand:wikidata": "Q5580697",
        "cuisine": "indian",
        "name": "Goli Vada Pav",
        "name:kn": "ಗೋಲಿ ವಡ ಪಾವ್",
        "takeaway": "yes"
      }
    },
    {
      "type": "node",
      "id": 3493124417,
      "lat": 13.0218114,
      "lon": 77.5586653,
      "tags": {
        "amenity": "restaurant",
        "cuisine": "Bengali",
        "name": "Aastha Mess"
      }
    },
    {
      "type": "node",
      "id": 3493124418,
      "lat": 13.027416,
      "lon": 77.5610663,
      "tags": {
        "amenity": "restaurant",
        "cuisine": "ice_cream",
        "name": "Thanco's Natural Ice Cream",
        "name:en": "Thanco",
        "smoking": "no",
        "takeaway": "yes"
      }
    },
    {
      "type": "node",
      "id": 3555393844,
      "lat": 13.0294181,
      "lon": 77.5593857,
      "tags": {
        "addr:district": "Bengaluru Urban",
        "addr:full": "No. 19/A, Opposite Lic , Mathikere Main Road",
        "addr:postcode": "560021",
        "addr:state": "Karnataka",
        "amenity": "hospital",
        "healthcare": "hospital",
        "healthcare:speciality": "general",
        "name": "Sri Sai Krupa Hospital, Bengaluru Urban",
        "name:kn": "ಸಾಯಿ ಕೃಪ ಆಸ್ಪತ್ರೆ",
        "source": "OpenGovernmentData"
      }
    },
    {
      "type": "node",
      "id": 3571019993,
      "lat": 13.0289716,
      "lon": 77.5633966,
      "tags": {
        "amenity": "restaurant",
        "cuisine": "regional",
        "name": "NIAS Main Eating Point"
      }
    },
    {
      "type": "node",
      "id": 3571023993,
      "lat": 13.0292739,
      "lon": 77.5636598,
      "tags": {
        "leisure": "park",
        "name": "Shri M Hamid Ansari - Planted Tree"
      }
    },
    {
      "type": "node",
      "id": 3677324087,
      "lat": 13.0302272,
      "lon": 77.5627649,
      "tags": {
        "addr:city": "Bangalore",
        "addr:housenumber": "4/3",
        "addr:street": "MSRIT Road",
        "addr:street_1": "Sree Complex",
        "amenity": "cafe",
        "cuisine": "Fast_Food",
        "name": "Freedom Cafe",
        "opening_hours": "11:00-23:00",
        "phone": "080-41145266, 9900362266, 9900372266"
      }
    },
    {
      "type": "node",
      "id": 3696421497,
      "lat": 13.0181725,
      "lon": 77.5645445,
      "tags": {
        "amenity": "kindergarten",
        "name": "Shubodhaya Children Care Centre"
      }
    },
    {
      "type": "node",
      "id": 3696421498,
      "lat": 13.0175799,
      "lon": 77.5635433,
      "tags": {
        "amenity": "waste_disposal"
      }
    },
    {
      "type": "node",
      "id": 3699307366,
      "lat": 13.0181463,
      "lon": 77.5651172,
      "tags": {
        "name": "Campus Xerox Centre",
        "shop": "copyshop"
      }
    },
    {
      "type": "node",
      "id": 3836949170,
      "lat": 13.0305521,
      "lon": 77.5660376,
      "tags": {
        "addr:city": "Bengaluru",
        "addr:housenumber": "Ramaiah Institute of Technology",
        "addr:postcode": "560054",
        "addr:street": "MSR Nagar 1st Main Road",
        "amenity": "research_institute",
        "description": "Velocita Racing is the exclusive combustion class formula student team of Ramaiah Institute of Technology, Bengaluru, Karnataka. This team comprises of 35 passionate and enthusiastic undergraduate students from various departments, who are continuously wo",
        "email": "velocitarcing.rit@gmail.com",
        "image": "https://velocitaracing.github.io/src/assets/Logo/VR-new-logo.webp",
        "internet_access": "yes",
        "internet_access:fee": "no",
        "name": "Velocita Racing",
        "operator": "Ramaiah Institute of Technology",
        "operator:type": "private_non_profit",
        "source": "local knowledge;streetlevel imagery;survey",
        "start_date": "2015",
        "website": "https://velocitaracing.github.io",
        "wheelchair": "yes"
      }
    },
    {
      "type": "node",
      "id": 4008637875,
      "lat": 13.0243879,
      "lon": 77.5645728,
      "tags": {
        "amenity": "parking"
      }
    },
    {
      "type": "node",
      "id": 4008639892,
      "lat": 13.0243552,
      "lon": 77.564035,
      "tags": {
        "amenity": "parking"
      }
    },
    {
      "type": "node",
      "id": 4225211963,
      "lat": 13.023272,
      "lon": 77.5615952,
      "tags": {
        "amenity": "place_of_worship",
        "name": "Sri Varasiddhi Vinayaka Swamy Temple",
        "religion": "hindu"
      }
    },
    {
      "type": "node",
      "id": 4225219847,
      "lat": 13.0226008,
      "lon": 77.5617413,
      "tags": {
        "shop": "yes"
      }
    },
    {
      "type": "node",
      "id": 4228867128,
      "lat": 13.0187332,
      "lon": 77.5627893,
      "tags": {
        "amenity": "waste_basket"
      }
    },
    {
      "type": "node",
      "id": 4228867129,
      "lat": 13.0187805,
      "lon": 77.5626768,
      "tags": {
        "amenity": "waste_basket"
      }
    },
    {
      "type": "node",
      "id": 4446306863,
      "lat": 13.0291434,
      "lon": 77.5579617,
      "tags": {
        "addr:city": "bangalore",
        "addr:housenumber": "375/A",
        "addr:postcode": "560054",
        "addr:street": "6th Cross, 8th Cross, 13th Main Rd, Mathikere, HMT Layout, Yeshwanthpur, Karnataka",
        "amenity": "pharmacy",
        "name": "OM Shakthi Medicals & General Stores",
        "phone": "+9190351 57235"
      }
    },
    {
      "type": "node",
      "id": 4447101670,
      "lat": 13.0238592,
      "lon": 77.5564245,
      "tags": {
        "addr:city": "bangalore",
        "addr:housenumber": "4/3",
        "addr:postcode": "560022",
        "addr:street": "Nanjappa Reddy Colony, 1st Main Rd, K. N. Extension, Kamla Nehru. Extension, Yeshwanthpur",
        "amenity": "pharmacy",
        "name": "Suprith Diagnostic Centre",
        "phone": "+9198442 96756",
        "source": "www.justdial.com"
      }
    },
    {
      "type": "node",
      "id": 4447104932,
      "lat": 13.0210205,
      "lon": 77.5586533,
      "tags": {
        "addr:city": "Bangalore",
        "addr:housenumber": "317/7",
        "addr:postcode": "560022",
        "addr:street": "Triveni Road",
        "amenity": "pharmacy",
        "name": "Jailaxmi Medical Store",
        "phone": "+9180 2357 8232",
        "source": "www.justdial.com"
      }
    },
    {
      "type": "node",
      "id": 4489286744,
      "lat": 13.0223032,
      "lon": 77.5601472,
      "tags": {
        "addr:city": "Bangalore",
        "addr:postcode": "560022",
        "addr:street": "15/6/1-1,DANNIE'S AREADE, GOKULA,, 1st Stage, Gokul Extension, Divanarapalya, Yeshwanthpur",
        "name": "S & T welfare equipments (p) ltd",
        "opening_hours": "10:00-21:30",
        "phone": "92443 36666",
        "shop": "sports",
        "website": "https://welcareindia.com/"
      }
    },
    {
      "type": "node",
      "id": 4489288521,
      "lat": 13.0309835,
      "lon": 77.560217,
      "tags": {
        "addr:city": "Bangalore",
        "addr:postcode": "560054",
        "addr:street": "No. 25-4, Basement, Opp Agarwal Bhavan, HMT Main Road, Mathikere, Bhadrappa Layout, Mathikere Extension",
        "name": "Rr Cycles",
        "opening_hours": "10:00-21:30",
        "phone": "080 4128 3293",
        "shop": "sports",
        "website": "https://www.trackandtrail.in/"
      }
    },
    {
      "type": "node",
      "id": 4489386645,
      "lat": 13.029313,
      "lon": 77.5608165,
      "tags": {
        "addr:city": "Bangalore",
        "addr:housenumber": "361/7",
        "addr:postcode": "560054",
        "addr:street": ",HMT Main Road, MS Ramaiah Rd, Bhadrappa Layout, Nanjappa Reddy Colony, Yeshwanthpur",
        "name": "Image Sports And General Stores",
        "opening_hours": "10:00-21:30",
        "shop": "sports"
      }
    },
    {
      "type": "node",
      "id": 4506403880,
      "lat": 13.021032,
      "lon": 77.5584863,
      "tags": {
        "amenity": "dentist",
        "name": "Madhu Dental Implants"
      }
    },
    {
      "type": "node",
      "id": 5535767588,
      "lat": 13.0292967,
      "lon": 77.559646,
      "tags": {
        "amenity": "place_of_worship",
        "denomination": "hindu",
        "name": "Panchamukha Ganesh Temple",
        "name:kn": "ಪಂಚಮುಖ ಗಣೇಶ",
        "religion": "hindu"
      }
    },
    {
      "type": "node",
      "id": 5535769505,
      "lat": 13.0307262,
      "lon": 77.5582323,
      "tags": {
        "amenity": "place_of_worship",
        "name": "Raghavendra Temple",
        "name:kn": "ರಾಘವೇಂದ್ರ ದೇವಸ್ಥಾನ",
        "religion": "hindu"
      }
    },
    {
      "type": "node",
      "id": 5535770505,
      "lat": 13.0297077,
      "lon": 77.5584857,
      "tags": {
        "amenity": "place_of_worship",
        "name": "Subramanya Swami Temple",
        "name:kn": "ಸುಬ್ರಮಣ್ಯ ಸ್ವಾಮಿ",
        "religion": "hindu"
      }
    },
    {
      "type": "node",
      "id": 5535771206,
      "lat": 13.0294516,
      "lon": 77.5586948,
      "tags": {
        "amenity": "post_office",
        "name": "Mathikere Post office",
        "name:kn": "ಮತಿಕೆರೆ ಅಂಚೆ ಕಛೇರಿ"
      }
    },
    {
      "type": "node",
      "id": 5535772369,
      "lat": 13.0297633,
      "lon": 77.5583147,
      "tags": {
        "amenity": "place_of_worship",
        "name": "Ganesha Temple",
        "name:kn": "ಗಣೇಶ ದೇವಸ್ಥಾನ",
        "religion": "hindu"
      }
    },
    {
      "type": "node",
      "id": 5535776390,
      "lat": 13.027047,
      "lon": 77.5598253,
      "tags": {
        "amenity": "place_of_worship",
        "name": "Jamundeshwari temple",
        "name:kn": "ಜಾಮುಂಡೇಶ್ವರಿ",
        "religion": "hindu"
      }
    },
    {
      "type": "node",
      "id": 5535777989,
      "lat": 13.0306296,
      "lon": 77.5594066,
      "tags": {
        "amenity": "place_of_worship",
        "religion": "christian"
      }
    },
    {
      "type": "node",
      "id": 5536066532,
      "lat": 13.0284739,
      "lon": 77.5588351,
      "tags": {
        "name": "Raghu Medicals",
        "shop": "chemist"
      }
    },
    {
      "type": "node",
      "id": 5685636633,
      "lat": 13.0183808,
      "lon": 77.564656,
      "tags": {
        "amenity": "atm",
        "brand": "State Bank of India",
        "brand:wikidata": "Q1340361",
        "name": "State Bank of India",
        "name:kn": "ಭಾರತೀಯ ಸ್ಟೇಟ್ ಬ್ಯಾಂಕ್",
        "operator": "State Bank of India",
        "operator:wikidata": "Q1340361",
        "short_name": "SBI"
      }
    },
    {
      "type": "node",
      "id": 6536955969,
      "lat": 13.0267394,
      "lon": 77.5633585,
      "tags": {
        "amenity": "college",
        "name": "IISc-ISRO Space Technology Cell"
      }
    },
    {
      "type": "node",
      "id": 6536993900,
      "lat": 13.0257673,
      "lon": 77.5633424,
      "tags": {
        "amenity": "parking"
      }
    },
    {
      "type": "node",
      "id": 6536993902,
      "lat": 13.0240674,
      "lon": 77.5643067,
      "tags": {
        "amenity": "parking",
        "parking": "surface"
      }
    },
    {
      "type": "node",
      "id": 6570549326,
      "lat": 13.0254093,
      "lon": 77.5633894,
      "tags": {
        "amenity": "college",
        "name": "Centre for High Energy Physics",
        "short_name": "CHEP",
        "website": "http://chep.iisc.ac.in/"
      }
    },
    {
      "type": "node",
      "id": 6570549327,
      "lat": 13.0249311,
      "lon": 77.5629804,
      "tags": {
        "amenity": "college",
        "name": "Astronomy and Astrophysics Programme",
        "short_name": "AAP",
        "website": "https://physics.iisc.ac.in/~jap/"
      }
    },
    {
      "type": "node",
      "id": 6570549328,
      "lat": 13.0235748,
      "lon": 77.5634176,
      "tags": {
        "amenity": "college",
        "name": "Molecular Reproduction, Development & Genetics",
        "short_name": "MRDG",
        "website": "http://www.mrdg.iisc.ernet.in/"
      }
    },
    {
      "type": "node",
      "id": 6570549329,
      "lat": 13.0234782,
      "lon": 77.5643228,
      "tags": {
        "amenity": "college",
        "name": "Microbiology & Cell Biology",
        "short_name": "MCB",
        "website": "https://mcbl.iisc.ac.in/"
      }
    },
    {
      "type": "node",
      "id": 6570549334,
      "lat": 13.0233135,
      "lon": 77.5637421,
      "tags": {
        "amenity": "college",
        "name": "Centre for Ecological Sciences",
        "short_name": "CES",
        "website": "http://ces.iisc.ac.in/"
      }
    },
    {
      "type": "node",
      "id": 6570549335,
      "lat": 13.0241471,
      "lon": 77.5640331,
      "tags": {
        "amenity": "college",
        "name": "Biochemistry",
        "short_name": "BC",
        "website": "https://biochem.iisc.ac.in/"
      }
    },
    {
      "type": "node",
      "id": 6577109017,
      "lat": 13.0168248,
      "lon": 77.5653917,
      "tags": {
        "amenity": "college",
        "check_date": "2024-08-01",
        "name": "Centre for Cryogenic Technology",
        "short_name": "CCT"
      }
    },
    {
      "type": "node",
      "id": 6577115604,
      "lat": 13.0173749,
      "lon": 77.5627034,
      "tags": {
        "amenity": "pharmacy",
        "healthcare": "pharmacy",
        "name": "Frank Ross Pharma",
        "name:kn": "ಫ್ರಾಂಕ್ ರಾಸ್ ಫಾರ್ಮಾ"
      }
    },
    {
      "type": "node",
      "id": 6577115617,
      "lat": 13.0176493,
      "lon": 77.5614059,
      "tags": {
        "amenity": "bench",
        "backrest": "yes",
        "material": "stone"
      }
    },
    {
      "type": "node",
      "id": 6577115618,
      "lat": 13.0175977,
      "lon": 77.5613724,
      "tags": {
        "amenity": "bench",
        "backrest": "yes",
        "material": "stone"
      }
    },
    {
      "type": "node",
      "id": 6577115619,
      "lat": 13.0175676,
      "lon": 77.5614253,
      "tags": {
        "amenity": "bench",
        "backrest": "yes",
        "material": "stone"
      }
    },
    {
      "type": "node",
      "id": 6578360252,
      "lat": 13.0182582,
      "lon": 77.5623004,
      "tags": {
        "amenity": "bicycle_parking",
        "bicycle_parking": "floor",
        "covered": "no"
      }
    },
    {
      "type": "node",
      "id": 6578360278,
      "lat": 13.0175291,
      "lon": 77.5589477,
      "tags": {
        "amenity": "school",
        "name": "Government High School",
        "name:kn": "ಸರ್ಕಾರಿ ಪ್ರೌಢ ಶಾಲೆ"
      }
    },
    {
      "type": "node",
      "id": 6578484702,
      "lat": 13.0179119,
      "lon": 77.5680685,
      "tags": {
        "amenity": "parking"
      }
    },
    {
      "type": "node",
      "id": 6631848655,
      "lat": 13.016913,
      "lon": 77.563264,
      "tags": {
        "amenity": "bicycle_parking",
        "bicycle_parking": "floor",
        "covered": "no"
      }
    },
    {
      "type": "node",
      "id": 6631848656,
      "lat": 13.0169601,
      "lon": 77.5629549,
      "tags": {
        "amenity": "bicycle_parking",
        "bicycle_parking": "floor",
        "covered": "no"
      }
    },
    {
      "type": "node",
      "id": 6631848657,
      "lat": 13.0171237,
      "lon": 77.5622974,
      "tags": {
        "amenity": "bicycle_parking",
        "bicycle_parking": "floor",
        "covered": "no"
      }
    },
    {
      "type": "node",
      "id": 6631848658,
      "lat": 13.01734,
      "lon": 77.561934,
      "tags": {
        "amenity": "bicycle_parking",
        "bicycle_parking": "floor",
        "covered": "no"
      }
    },
    {
      "type": "node",
      "id": 6645712426,
      "lat": 13.0182154,
      "lon": 77.5610782,
      "tags": {
        "amenity": "waste_basket"
      }
    },
    {
      "type": "node",
      "id": 6654828293,
      "lat": 13.0166915,
      "lon": 77.5634048,
      "tags": {
        "amenity": "bicycle_parking",
        "bicycle_parking": "floor",
        "covered": "no"
      }
    },
    {
      "type": "node",
      "id": 6654828294,
      "lat": 13.017141,
      "lon": 77.5631681,
      "tags": {
        "amenity": "bicycle_parking",
        "bicycle_parking": "floor",
        "covered": "no"
      }
    },
    {
      "type": "node",
      "id": 6654828295,
      "lat": 13.0172861,
      "lon": 77.5630367,
      "tags": {
        "amenity": "parking",
        "parking": "street_side"
      }
    },
    {
      "type": "node",
      "id": 6654828298,
      "lat": 13.0174291,
      "lon": 77.5625948,
      "tags": {
        "name": "Stationery & General Stores",
        "shop": "stationery"
      }
    },
    {
      "type": "node",
      "id": 6654828299,
      "lat": 13.0174612,
      "lon": 77.5625344,
      "tags": {
        "male": "yes",
        "name": "White Horse Hair Style",
        "shop": "hairdresser"
      }
    },
    {
      "type": "node",
      "id": 6654828300,
      "lat": 13.0175703,
      "lon": 77.5625069,
      "tags": {
        "amenity": "fast_food",
        "name": "Sai South Grand"
      }
    },
    {
      "type": "node",
      "id": 6654828302,
      "lat": 13.0176003,
      "lon": 77.562692,
      "tags": {
        "name": "Campus Xerox Centre",
        "opening_hours": "Mo-Sa 09:00-21:00; Su 09:00-14:00",
        "shop": "copyshop"
      }
    },
    {
      "type": "node",
      "id": 6654828312,
      "lat": 13.0177747,
      "lon": 77.5622803,
      "tags": {
        "amenity": "bench",
        "backrest": "yes"
      }
    },
    {
      "type": "node",
      "id": 6654828314,
      "lat": 13.0190311,
      "lon": 77.5626364,
      "tags": {
        "amenity": "bicycle_parking"
      }
    },
    {
      "type": "node",
      "id": 6654828339,
      "lat": 13.0188031,
      "lon": 77.5627892,
      "tags": {
        "amenity": "bicycle_parking"
      }
    },
    {
      "type": "node",
      "id": 6794727082,
      "lat": 13.0189687,
      "lon": 77.5575829,
      "tags": {
        "amenity": "restaurant",
        "name": "Arabian Restaurant"
      }
    },
    {
      "type": "node",
      "id": 6796355254,
      "lat": 13.020812,
      "lon": 77.5540619,
      "tags": {
        "amenity": "marketplace",
        "name": "Yeshwantpur Market"
      }
    },
    {
      "type": "node",
      "id": 6886594819,
      "lat": 13.0195217,
      "lon": 77.5578895,
      "tags": {
        "addr:city": "Bengaluru",
        "addr:district": "BENGALURU URBAN",
        "addr:full": "No. 1082/9, Sreenivasa Prasanna Complex, Triveni Road, Yeshwanthpur, Bengaluru",
        "addr:postcode": "560022",
        "addr:state": "Karnataka",
        "amenity": "blood_bank",
        "contact:mobile": "9972111552",
        "contact:phone": "8023571001",
        "name": "Kempegowda Medical Service Trust - Millennium Blood Bank",
        "opening_hours": "24/7",
        "operator:type": "private",
        "source": "OpenGovernmentData"
      }
    },
    {
      "type": "node",
      "id": 6938794412,
      "lat": 13.0223669,
      "lon": 77.5587304,
      "tags": {
        "addr:district": "Bengaluru Urban",
        "addr:full": "1105, 5Th Cross,Kn Extension, Yeshwanthpur",
        "addr:postcode": "560022",
        "addr:state": "Karnataka",
        "amenity": "hospital",
        "name": "Kala Hospital",
        "source": "OpenGovernmentData"
      }
    },
    {
      "type": "node",
      "id": 6944239600,
      "lat": 13.0220526,
      "lon": 77.5576729,
      "tags": {
        "addr:district": "Bengaluru Urban",
        "addr:full": "No 1152 3Road Main 6Th Cross K N Extension, (Near Jain Temple) Yashwanthpur",
        "addr:postcode": "560022",
        "addr:state": "Karnataka",
        "amenity": "clinic",
        "name": "Mangal's Nursing Home -Bangalore",
        "source": "OpenGovernmentData"
      }
    },
    {
      "type": "node",
      "id": 6948459038,
      "lat": 13.0218344,
      "lon": 77.5567093,
      "tags": {
        "addr:district": "Bengaluru Urban",
        "addr:full": "No. 22/21, 6Th Cross, K N Extn, Yeshwanth Pur",
        "addr:postcode": "560022",
        "addr:state": "Karnataka",
        "amenity": "hospital",
        "name": "Acharya Tulsi Jain Hospital",
        "source": "OpenGovernmentData"
      }
    },
    {
      "type": "node",
      "id": 7005963768,
      "lat": 13.0161315,
      "lon": 77.5635283,
      "tags": {
        "amenity": "food_court",
        "diet:vegetarian": "yes",
        "name": "C Mess",
        "opening_hours": "Mo-Su 07:30-10:00,12:30-14:00,16:30-18:00,19:30-21:00"
      }
    },
    {
      "type": "node",
      "id": 7005963769,
      "lat": 13.0161441,
      "lon": 77.5633476,
      "tags": {
        "amenity": "food_court",
        "diet:vegetarian": "yes",
        "name": "D Mess",
        "opening_hours": "Mo-Su 07:30-10:00,12:30-14:00,16:30-18:00,19:30-21:00"
      }
    },
    {
      "type": "node",
      "id": 7215593390,
      "lat": 13.0286823,
      "lon": 77.5618337,
      "tags": {
        "name": "Cake Gallery",
        "shop": "bakery"
      }
    },
    {
      "type": "node",
      "id": 7215593392,
      "lat": 13.0260574,
      "lon": 77.5618619,
      "tags": {
        "amenity": "place_of_worship",
        "check_date": "2023-12-23",
        "name": "Sri Shaneshwara Swami Temple",
        "religion": "hindu"
      }
    },
    {
      "type": "node",
      "id": 7228148551,
      "lat": 13.0296204,
      "lon": 77.5611135,
      "tags": {
        "name": "Vishal Mega Mart",
        "shop": "supermarket"
      }
    },
    {
      "type": "node",
      "id": 7228148552,
      "lat": 13.0306174,
      "lon": 77.5604819,
      "tags": {
        "amenity": "fast_food",
        "brand": "Domino's",
        "brand:ks": "ڈومینوز",
        "brand:pa": "ਡੋਮੀਨੋਜ਼",
        "brand:ur": "ڈومینوز",
        "brand:wikidata": "Q839466",
        "brand:wikipedia": "en:Domino's Pizza",
        "cuisine": "pizza",
        "name": "Domino's",
        "name:kn": "ಡಾಮಿನೋಸ್",
        "name:ks": "ڈومینوز",
        "name:pa": "ਡੋਮੀਨੋਜ਼",
        "name:ur": "ڈومینوز",
        "takeaway": "yes"
      }
    },
    {
      "type": "node",
      "id": 7228148553,
      "lat": 13.0307807,
      "lon": 77.5603692,
      "tags": {
        "name": "Just Bake",
        "name:kn": "ಜಸ್ಟ್ ಬೇಕ್",
        "shop": "bakery"
      }
    },
    {
      "type": "node",
      "id": 7228148554,
      "lat": 13.0307271,
      "lon": 77.5599951,
      "tags": {
        "amenity": "atm",
        "brand": "Karanataka Bank"
      }
    },
    {
      "type": "node",
      "id": 7228148555,
      "lat": 13.0313098,
      "lon": 77.559531,
      "tags": {
        "brand": "Bata",
        "brand:wikidata": "Q688082",
        "name": "Bata",
        "name:kn": "ಬಾಟಾ",
        "shop": "shoes"
      }
    },
    {
      "type": "node",
      "id": 7228148556,
      "lat": 13.032069,
      "lon": 77.5593775,
      "tags": {
        "amenity": "bank",
        "atm": "yes",
        "brand": "Karnataka Bank",
        "brand:wikidata": "Q2042632",
        "name": "Karnataka Bank",
        "name:kn": "ಕರ್ನಾಟಕ ಬ್ಯಾಂಕ್",
        "operator": "Karnataka Bank"
      }
    },
    {
      "type": "node",
      "id": 8148761741,
      "lat": 13.0286524,
      "lon": 77.5588569,
      "tags": {
        "name": "Mathaji book center",
        "shop": "stationery"
      }
    },
    {
      "type": "node",
      "id": 8148770393,
      "lat": 13.0262907,
      "lon": 77.5578304,
      "tags": {
        "brand": "Bombay Dyeing",
        "shop": "clothes"
      }
    },
    {
      "type": "node",
      "id": 8148771369,
      "lat": 13.0203467,
      "lon": 77.5559144,
      "tags": {
        "amenity": "atm",
        "brand": "State Bank of India",
        "brand:wikidata": "Q1340361",
        "name": "State Bank of India",
        "name:kn": "ಎಸ್ ಬಿ ಐ",
        "operator": "State Bank of India",
        "operator:wikidata": "Q1340361",
        "short_name": "SBI"
      }
    },
    {
      "type": "node",
      "id": 8148774994,
      "lat": 13.0226755,
      "lon": 77.5564843,
      "tags": {
        "name": "Saravana metals",
        "shop": "appliance"
      }
    },
    {
      "type": "node",
      "id": 8151014159,
      "lat": 13.0291853,
      "lon": 77.5611297,
      "tags": {
        "amenity": "atm",
        "brand": "Kotak Mahindra Bank",
        "brand:wikidata": "Q2040404",
        "name": "Kotak Mahindra Bank",
        "operator": "Kotak Mahindra Bank",
        "operator:wikidata": "Q2040404"
      }
    },
    {
      "type": "node",
      "id": 8151014160,
      "lat": 13.0316873,
      "lon": 77.5592885,
      "tags": {
        "name": "Fish stall",
        "shop": "butcher"
      }
    },
    {
      "type": "node",
      "id": 8151014161,
      "lat": 13.0240641,
      "lon": 77.5570716,
      "tags": {
        "name": "Shilpa handloom",
        "shop": "trade"
      }
    },
    {
      "type": "node",
      "id": 8151032698,
      "lat": 13.0309821,
      "lon": 77.5602586,
      "tags": {
        "amenity": "dentist",
        "brand": "Clove :)"
      }
    },
    {
      "type": "node",
      "id": 8151039291,
      "lat": 13.0309414,
      "lon": 77.5602591,
      "tags": {
        "amenity": "fast_food",
        "brand": "Domino's",
        "brand:wikidata": "Q839466",
        "cuisine": "pizza",
        "name": "Domino's",
        "name:kn": "ಡಾಮಿನೋಸ್",
        "takeaway": "yes"
      }
    },
    {
      "type": "node",
      "id": 8151052080,
      "lat": 13.030564,
      "lon": 77.5601296,
      "tags": {
        "amenity": "bank",
        "brand": "South Indian Bank",
        "brand:wikidata": "Q2044973",
        "name": "South Indian Bank",
        "name:kn": "ಸೌತ್ ಇಂಡಿಯನ್ ಬ್ಯಾಂಕ್"
      }
    },
    {
      "type": "node",
      "id": 8151054162,
      "lat": 13.0298633,
      "lon": 77.5605424,
      "tags": {
        "name": "Vellai malar vegetables and fruits",
        "shop": "greengrocer"
      }
    },
    {
      "type": "node",
      "id": 8151057665,
      "lat": 13.0297384,
      "lon": 77.5607209,
      "tags": {
        "shop": "nuts"
      }
    },
    {
      "type": "node",
      "id": 8151058939,
      "lat": 13.0292268,
      "lon": 77.5611013,
      "tags": {
        "amenity": "atm",
        "brand": "ICICI Bank",
        "brand:wikidata": "Q1653258",
        "name": "ICICI Bank",
        "operator": "ICICI Bank",
        "operator:wikidata": "Q1653258",
        "short_name": "ICICI"
      }
    },
    {
      "type": "node",
      "id": 8151062698,
      "lat": 13.0301596,
      "lon": 77.5603643,
      "tags": {
        "name": "Orange mobiles",
        "shop": "mobile_phone"
      }
    },
    {
      "type": "node",
      "id": 8187962187,
      "lat": 13.0280537,
      "lon": 77.5621055,
      "tags": {
        "addr:full": "1st Cross, MS Ramaiah Engineering College Road, Mathikere, Gokula 1st Stage, Mathikere, Bengaluru, Karnataka",
        "addr:state": "Karnataka",
        "amenity": "bank",
        "brand": "Andhra Bank",
        "brand:wikidata": "Q2003476",
        "name": "Andhra Bank",
        "name:kn": "ಆಂಧ್ರ ಬ್ಯಾಂಕ್"
      }
    },
    {
      "type": "node",
      "id": 8188057258,
      "lat": 13.022342,
      "lon": 77.5528657,
      "tags": {
        "addr:full": "Ground Floor, No. 4, Railway Parallel Rd, Dr.Ambedkar Nagar, Yeswanthpur, Bengaluru, Karnataka",
        "addr:state": "Karnataka",
        "amenity": "restaurant",
        "name": "Annapurna Restaurant",
        "name:kn": "ಅಣ್ಣಪೂರ್ಣ"
      }
    },
    {
      "type": "node",
      "id": 8254999682,
      "lat": 13.0249126,
      "lon": 77.5575755,
      "tags": {
        "access": "yes",
        "amenity": "toilets",
        "fee": "yes"
      }
    },
    {
      "type": "node",
      "id": 8255002879,
      "lat": 13.0193484,
      "lon": 77.5570913,
      "tags": {
        "amenity": "restaurant",
        "name": "Garden Restaurant"
      }
    },
    {
      "type": "node",
      "id": 8255021025,
      "lat": 13.0291064,
      "lon": 77.5588449,
      "tags": {
        "brand": "Jockey",
        "shop": "clothes"
      }
    },
    {
      "type": "node",
      "id": 8255026055,
      "lat": 13.0234095,
      "lon": 77.555958,
      "tags": {
        "amenity": "pharmacy",
        "name": "Medicine Point"
      }
    },
    {
      "type": "node",
      "id": 8255026538,
      "lat": 13.0250155,
      "lon": 77.5576232,
      "tags": {
        "name": "Prakash Jewelry",
        "shop": "jewelry"
      }
    },
    {
      "type": "node",
      "id": 8255029721,
      "lat": 13.0234031,
      "lon": 77.5561509,
      "tags": {
        "name": "Rajdhani",
        "shop": "bakery"
      }
    },
    {
      "type": "node",
      "id": 8364339784,
      "lat": 13.0290323,
      "lon": 77.5622137,
      "tags": {
        "amenity": "post_office",
        "brand": "KPN parcel service"
      }
    },
    {
      "type": "node",
      "id": 8364343832,
      "lat": 13.0278875,
      "lon": 77.5559789,
      "tags": {
        "name": "Tawakkaltu Mutton and chicken",
        "shop": "butcher"
      }
    },
    {
      "type": "node",
      "id": 8364347332,
      "lat": 13.019726,
      "lon": 77.5552398,
      "tags": {
        "amenity": "college",
        "name": "M.S.Polytechnic"
      }
    },
    {
      "type": "node",
      "id": 8364357469,
      "lat": 13.0278944,
      "lon": 77.5553769,
      "tags": {
        "name": "Yarabh mutton stall",
        "shop": "butcher"
      }
    },
    {
      "type": "node",
      "id": 8364362123,
      "lat": 13.0247262,
      "lon": 77.5578106,
      "tags": {
        "name": "Gajanan cycles",
        "shop": "bicycle"
      }
    },
    {
      "type": "node",
      "id": 8364364156,
      "lat": 13.0197813,
      "lon": 77.5550402,
      "tags": {
        "name": "Classic Traders",
        "shop": "hardware"
      }
    },
    {
      "type": "node",
      "id": 8364370518,
      "lat": 13.0197892,
      "lon": 77.5551264,
      "tags": {
        "name": "United Hardware",
        "shop": "hardware"
      }
    },
    {
      "type": "node",
      "id": 8427338689,
      "lat": 13.0192651,
      "lon": 77.5574251,
      "tags": {
        "amenity": "dentist",
        "name": "Bites and Braces Dental Clinic",
        "phone": "9686633551"
      }
    },
    {
      "type": "node",
      "id": 8518507322,
      "lat": 13.0263466,
      "lon": 77.5579099,
      "tags": {
        "name": "New Karnataka mutton and chicken point",
        "shop": "butcher"
      }
    },
    {
      "type": "node",
      "id": 8518513243,
      "lat": 13.0278362,
      "lon": 77.5562995,
      "tags": {
        "amenity": "school",
        "name": "L.C.R. English School"
      }
    },
    {
      "type": "node",
      "id": 8518524396,
      "lat": 13.0278653,
      "lon": 77.5564664,
      "tags": {
        "amenity": "water_point"
      }
    },
    {
      "type": "node",
      "id": 8534530115,
      "lat": 13.0219457,
      "lon": 77.5536147,
      "tags": {
        "amenity": "atm",
        "brand": "State Bank of India",
        "brand:wikidata": "Q1340361",
        "name": "State Bank of India",
        "operator": "State Bank of India",
        "operator:wikidata": "Q1340361",
        "short_name": "SBI"
      }
    },
    {
      "type": "node",
      "id": 8534532914,
      "lat": 13.0238172,
      "lon": 77.5543788,
      "tags": {
        "leisure": "park"
      }
    },
    {
      "type": "node",
      "id": 8544079274,
      "lat": 13.0292972,
      "lon": 77.555177,
      "tags": {
        "name": "SKN chicken and mutton center",
        "shop": "butcher"
      }
    },
    {
      "type": "node",
      "id": 8544085413,
      "lat": 13.0292949,
      "lon": 77.5549852,
      "tags": {
        "name": "Shivananda Provision store",
        "shop": "yes"
      }
    },
    {
      "type": "node",
      "id": 8544093297,
      "lat": 13.0297527,
      "lon": 77.5552304,
      "tags": {
        "name": "Afreshstore",
        "shop": "greengrocer"
      }
    },
    {
      "type": "node",
      "id": 8873798250,
      "lat": 13.0246131,
      "lon": 77.5571729,
      "tags": {
        "amenity": "post_office",
        "name": "The Professional courier"
      }
    },
    {
      "type": "node",
      "id": 8873812715,
      "lat": 13.0278171,
      "lon": 77.5572395,
      "tags": {
        "amenity": "internet_cafe",
        "name": "Ajanta Networld"
      }
    },
    {
      "type": "node",
      "id": 8873814642,
      "lat": 13.0294938,
      "lon": 77.5618421,
      "tags": {
        "name": "Printouts and projects",
        "shop": "copyshop"
      }
    },
    {
      "type": "node",
      "id": 8873818151,
      "lat": 13.0290638,
      "lon": 77.5582198,
      "tags": {
        "name": "Yeshwanth hair style",
        "shop": "hairdresser"
      }
    },
    {
      "type": "node",
      "id": 9249613356,
      "lat": 13.0258435,
      "lon": 77.5579387,
      "tags": {
        "amenity": "bicycle_repair_station"
      }
    },
    {
      "type": "node",
      "id": 9249632334,
      "lat": 13.0198195,
      "lon": 77.5545389,
      "tags": {
        "name": "A.R.K. Fish stall",
        "shop": "butcher"
      }
    },
    {
      "type": "node",
      "id": 9249652794,
      "lat": 13.0279634,
      "lon": 77.5588286,
      "tags": {
        "name": "R&M clothing",
        "shop": "clothes"
      }
    },
    {
      "type": "node",
      "id": 9249655400,
      "lat": 13.0254048,
      "lon": 77.5575363,
      "tags": {
        "amenity": "pharmacy",
        "name": "Raghu Pharma"
      }
    },
    {
      "type": "node",
      "id": 9249673893,
      "lat": 13.0257426,
      "lon": 77.5580434,
      "tags": {
        "name": "Elahi chicken and mutton",
        "shop": "butcher"
      }
    },
    {
      "type": "node",
      "id": 9249675886,
      "lat": 13.0280696,
      "lon": 77.5585824,
      "tags": {
        "name": "Power TV",
        "shop": "newsagent"
      }
    },
    {
      "type": "node",
      "id": 9394330598,
      "lat": 13.0214847,
      "lon": 77.5629992,
      "tags": {
        "addr:street": "yeshwanthpur",
        "amenity": "place_of_worship",
        "check_date": "2023-12-23",
        "description": "Hindu Temple",
        "name": "Sree Ayyappa Temple",
        "phone": "080-23378036/9483580061",
        "religion": "hindu"
      }
    },
    {
      "type": "node",
      "id": 9532893822,
      "lat": 13.017793,
      "lon": 77.556767,
      "tags": {
        "amenity": "cafe",
        "fixme": "Amenity tagging may not be accurate for a Juice Stall",
        "name": "Juice Stall"
      }
    },
    {
      "type": "node",
      "id": 9538902718,
      "lat": 13.0312117,
      "lon": 77.5596191,
      "tags": {
        "amenity": "bank",
        "branch": "Mattikere",
        "brand": "HDFC Bank",
        "brand:wikidata": "Q631047",
        "name": "HDFC Bank",
        "short_name": "HDFC"
      }
    },
    {
      "type": "node",
      "id": 9538931895,
      "lat": 13.02952,
      "lon": 77.5583544,
      "tags": {
        "amenity": "drinking_water"
      }
    },
    {
      "type": "node",
      "id": 9723783009,
      "lat": 13.0298889,
      "lon": 77.5607765,
      "tags": {
        "description": "HP certified reseller",
        "name": "Compustar Inc.",
        "shop": "computer"
      }
    },
    {
      "type": "node",
      "id": 9723903909,
      "lat": 13.0222553,
      "lon": 77.5546478,
      "tags": {
        "shop": "butcher"
      }
    },
    {
      "type": "node",
      "id": 9723910392,
      "lat": 13.0299384,
      "lon": 77.5607361,
      "tags": {
        "name": "Crescent Computers",
        "shop": "computer"
      }
    },
    {
      "type": "node",
      "id": 9723910698,
      "lat": 13.0298464,
      "lon": 77.560805,
      "tags": {
        "name": "Asus",
        "shop": "computer"
      }
    },
    {
      "type": "node",
      "id": 9723910699,
      "lat": 13.0297952,
      "lon": 77.5607072,
      "tags": {
        "name": "Nandu",
        "shop": "butcher"
      }
    },
    {
      "type": "node",
      "id": 9881441098,
      "lat": 13.01763,
      "lon": 77.5626229,
      "tags": {
        "access": "permissive",
        "amenity": "toilets",
        "fee": "no",
        "female": "yes",
        "wheelchair": "limited"
      }
    },
    {
      "type": "node",
      "id": 9881441099,
      "lat": 13.0176532,
      "lon": 77.5625888,
      "tags": {
        "access": "permissive",
        "amenity": "toilets",
        "fee": "no",
        "male": "yes",
        "wheelchair": "limited"
      }
    },
    {
      "type": "node",
      "id": 9912087567,
      "lat": 13.0186371,
      "lon": 77.5536101,
      "tags": {
        "amenity": "toilets",
        "fee": "no",
        "operator": "BBMP"
      }
    },
    {
      "type": "node",
      "id": 9996494411,
      "lat": 13.0289157,
      "lon": 77.5592582,
      "tags": {
        "name": "Crown mutton and chicken center",
        "shop": "butcher"
      }
    },
    {
      "type": "node",
      "id": 10033755415,
      "lat": 13.0285638,
      "lon": 77.5618686,
      "tags": {
        "addr:city": "Bengaluru",
        "addr:street": "MS Ramaiah Road",
        "amenity": "restaurant",
        "cuisine": "south_indian",
        "diet:vegetarian": "yes",
        "name": "Ganesh Darshan"
      }
    },
    {
      "type": "node",
      "id": 10033755416,
      "lat": 13.0301774,
      "lon": 77.5621558,
      "tags": {
        "addr:city": "Bengaluru",
        "amenity": "restaurant",
        "cuisine": "kerala;chinese;south_indian;north_inddian;arabic",
        "name": "Thalassery",
        "name:kn": "ತಲಸ್ಸೆರಿ"
      }
    },
    {
      "type": "node",
      "id": 10033768417,
      "lat": 13.0302419,
      "lon": 77.5620777,
      "tags": {
        "addr:city": "Bengaluru",
        "amenity": "restaurant",
        "cuisine": "kerala;south_indian",
        "name": "Calicut"
      }
    },
    {
      "type": "node",
      "id": 11072723349,
      "lat": 13.0159517,
      "lon": 77.5622687,
      "tags": {
        "amenity": "cafe",
        "brand": "Cafe Coffee Day",
        "brand:wikidata": "Q5017235",
        "cuisine": "coffee_shop",
        "name": "Cafe Coffee Day",
        "name:kn": "ಕಫೆ ಕಾಫಿ ಡೇ",
        "takeaway": "yes"
      }
    },
    {
      "type": "node",
      "id": 11281292792,
      "lat": 13.0188266,
      "lon": 77.5580652,
      "tags": {
        "amenity": "restaurant",
        "name": "Shreeyas Bar and Restaurant"
      }
    },
    {
      "type": "node",
      "id": 11445452513,
      "lat": 13.0221394,
      "lon": 77.5630859,
      "tags": {
        "check_date": "2023-12-23",
        "name": "Yash Bikes",
        "shop": "motorcycle_repair"
      }
    },
    {
      "type": "node",
      "id": 11445452514,
      "lat": 13.0249503,
      "lon": 77.5623242,
      "tags": {
        "amenity": "driving_school",
        "check_date": "2023-12-23"
      }
    },
    {
      "type": "node",
      "id": 11445452515,
      "lat": 13.0254179,
      "lon": 77.5621408,
      "tags": {
        "amenity": "fast_food",
        "check_date": "2023-12-23",
        "name": "Shivanna Military Hotel"
      }
    },
    {
      "type": "node",
      "id": 11445452516,
      "lat": 13.0262516,
      "lon": 77.5617355,
      "tags": {
        "check_date": "2023-12-23",
        "name": "SR Flower Decoration",
        "shop": "florist"
      }
    },
    {
      "type": "node",
      "id": 11445452517,
      "lat": 13.0281331,
      "lon": 77.5618375,
      "tags": {
        "amenity": "bank",
        "brand": "Central Bank of India",
        "brand:wikidata": "Q2007090",
        "check_date": "2023-12-23",
        "name": "Central Bank of India"
      }
    },
    {
      "type": "node",
      "id": 11445452518,
      "lat": 13.0287243,
      "lon": 77.5613902,
      "tags": {
        "amenity": "fast_food",
        "check_date": "2023-12-23",
        "name": "Sri Raghavendra Vaibhava"
      }
    },
    {
      "type": "node",
      "id": 11458986879,
      "lat": 13.0168163,
      "lon": 77.5584815,
      "tags": {
        "amenity": "place_of_worship",
        "check_date": "2023-12-27",
        "religion": "hindu"
      }
    },
    {
      "type": "node",
      "id": 11530125134,
      "lat": 13.0179285,
      "lon": 77.5623314,
      "tags": {
        "amenity": "shelter",
        "shelter_type": "gazebo"
      }
    },
    {
      "type": "node",
      "id": 11530125135,
      "lat": 13.0180059,
      "lon": 77.5624473,
      "tags": {
        "amenity": "shelter",
        "shelter_type": "gazebo"
      }
    },
    {
      "type": "node",
      "id": 11530125136,
      "lat": 13.0177977,
      "lon": 77.5623838,
      "tags": {
        "amenity": "waste_basket"
      }
    },
    {
      "type": "node",
      "id": 11684876147,
      "lat": 13.0203165,
      "lon": 77.5555607,
      "tags": {
        "amenity": "bank",
        "brand": "Canara Bank",
        "brand:en": "Canara Bank",
        "brand:hi": "केनरा बैंक",
        "brand:kn": "ಕೆನರಾ ಬ್ಯಾಂಕ್",
        "brand:pa": "ਕੇਨਰਾ ਬੈਂਕ",
        "brand:pnb": "کینرا بینک",
        "brand:ur": "کینرا بینک",
        "brand:wikidata": "Q2003777",
        "check_date": "2024-03-02",
        "name": "Canara Bank",
        "name:en": "Canara Bank",
        "name:hi": "केनरा बैंक",
        "name:kn": "ಕೆನರಾ ಬ್ಯಾಂಕ್",
        "name:pa": "ਕੇਨਰਾ ਬੈਂਕ",
        "name:pnb": "کینرا بینک",
        "name:ur": "کینرا بینک"
      }
    },
    {
      "type": "node",
      "id": 11684876148,
      "lat": 13.0197667,
      "lon": 77.5543909,
      "tags": {
        "amenity": "toilets",
        "check_date": "2024-03-02"
      }
    },
    {
      "type": "node",
      "id": 11684876149,
      "lat": 13.0221508,
      "lon": 77.5529453,
      "tags": {
        "check_date": "2024-03-02",
        "name": "Nandini Milk Parlor",
        "shop": "dairy"
      }
    },
    {
      "type": "node",
      "id": 11684876150,
      "lat": 13.0225594,
      "lon": 77.5529217,
      "tags": {
        "amenity": "atm",
        "brand": "IndusInd Bank",
        "brand:wikidata": "Q2040323",
        "check_date": "2024-03-02",
        "operator": "IndusInd Bank",
        "operator:wikidata": "Q2040323"
      }
    },
    {
      "type": "node",
      "id": 11684876151,
      "lat": 13.0226134,
      "lon": 77.552896,
      "tags": {
        "check_date": "2024-03-02",
        "name": "Mobile World",
        "shop": "mobile_phone"
      }
    },
    {
      "type": "node",
      "id": 11684876153,
      "lat": 13.0224798,
      "lon": 77.5527726,
      "tags": {
        "amenity": "fast_food",
        "check_date": "2024-03-02",
        "name": "SLV Canteen"
      }
    },
    {
      "type": "node",
      "id": 11684876154,
      "lat": 13.0221241,
      "lon": 77.553527,
      "tags": {
        "check_date": "2024-03-02",
        "mobile": "+919743252609",
        "name": "GLV Sweets & Juices",
        "shop": "confectionery"
      }
    },
    {
      "type": "node",
      "id": 11684876155,
      "lat": 13.0221502,
      "lon": 77.5534251,
      "tags": {
        "amenity": "restaurant",
        "check_date": "2024-03-02",
        "name": "Gowdru Mane Baduta"
      }
    },
    {
      "type": "node",
      "id": 11684876156,
      "lat": 13.0219037,
      "lon": 77.5535962,
      "tags": {
        "amenity": "bar",
        "check_date": "2024-03-02",
        "name": "Vijayalakshmi Bar"
      }
    },
    {
      "type": "node",
      "id": 11684876159,
      "lat": 13.0219543,
      "lon": 77.5534496,
      "tags": {
        "amenity": "pharmacy",
        "check_date": "2024-03-02",
        "healthcare": "pharmacy",
        "name": "SVS Medicals"
      }
    },
    {
      "type": "node",
      "id": 11684876160,
      "lat": 13.0219763,
      "lon": 77.553457,
      "tags": {
        "check_date": "2024-03-02",
        "name": "Well Connect",
        "shop": "mobile_phone"
      }
    },
    {
      "type": "node",
      "id": 11684876161,
      "lat": 13.022188,
      "lon": 77.5537812,
      "tags": {
        "amenity": "restaurant",
        "check_date": "2024-03-02",
        "name": "Punjabi Tadka"
      }
    },
    {
      "type": "node",
      "id": 11684876162,
      "lat": 13.0222422,
      "lon": 77.5538305,
      "tags": {
        "amenity": "restaurant",
        "check_date": "2024-03-02",
        "name": "New Mangalore Hotel"
      }
    },
    {
      "type": "node",
      "id": 11771063155,
      "lat": 13.0301991,
      "lon": 77.562353,
      "tags": {
        "amenity": "restaurant",
        "cuisine": "indian;chicken",
        "diet:chicken": "yes",
        "diet:fish": "yes",
        "diet:non-vegetarian": "yes",
        "diet:ovo_vegetarian": "yes",
        "diet:vegetarian": "yes",
        "name": "Bong Connection",
        "opening_hours": "Mo-Su 11:30-22:30",
        "phone": "07259540540"
      }
    },
    {
      "type": "node",
      "id": 11932321823,
      "lat": 13.0181005,
      "lon": 77.556118,
      "tags": {
        "access": "yes",
        "amenity": "toilets",
        "check_date": "2025-04-06"
      }
    },
    {
      "type": "node",
      "id": 11932321830,
      "lat": 13.0265515,
      "lon": 77.5617056,
      "tags": {
        "amenity": "fast_food",
        "check_date": "2024-05-25",
        "name": "Bites & Beverages"
      }
    },
    {
      "type": "node",
      "id": 11932321833,
      "lat": 13.0296128,
      "lon": 77.5607646,
      "tags": {
        "amenity": "pharmacy",
        "check_date": "2024-05-25",
        "healthcare": "pharmacy",
        "name": "Ram Medicals"
      }
    },
    {
      "type": "node",
      "id": 11991775972,
      "lat": 13.0165165,
      "lon": 77.5557773,
      "tags": {
        "amenity": "place_of_worship",
        "name": "Sri Mahaganapati Temple",
        "religion": "hindu"
      }
    },
    {
      "type": "node",
      "id": 12135686524,
      "lat": 13.014829,
      "lon": 77.559742,
      "tags": {
        "access": "yes",
        "amenity": "toilets",
        "check_date": "2024-08-25",
        "fee": "yes"
      }
    },
    {
      "type": "node",
      "id": 12150953167,
      "lat": 13.0195518,
      "lon": 77.5527632,
      "tags": {
        "amenity": "fuel",
        "brand": "TotalEnergies",
        "brand:wikidata": "Q154037",
        "name": "TotalEnergies"
      }
    },
    {
      "type": "node",
      "id": 12450996658,
      "lat": 13.0187658,
      "lon": 77.5583691,
      "tags": {
        "amenity": "post_office",
        "brand": "Blue Dart Express",
        "brand:short": "Blue Dart",
        "brand:wikidata": "Q54621493",
        "check_date": "2024-12-25",
        "operator": "Blue Dart Express",
        "operator:short": "Blue Dart",
        "operator:wikidata": "Q54621493"
      }
    },
    {
      "type": "node",
      "id": 12501041562,
      "lat": 13.026469,
      "lon": 77.5645494,
      "tags": {
        "amenity": "fast_food",
        "name": "Sanvi Star Canteen"
      }
    },
    {
      "type": "node",
      "id": 12501041563,
      "lat": 13.026563,
      "lon": 77.5625579,
      "tags": {
        "amenity": "fast_food",
        "name": "Vayu Vihar Aerospace Canteen"
      }
    },
    {
      "type": "node",
      "id": 12529183011,
      "lat": 13.0318548,
      "lon": 77.5594657,
      "tags": {
        "addr:city": "Bengaluru",
        "addr:district": "Bengaluru Urban",
        "addr:housenumber": "17",
        "addr:postcode": "560054",
        "addr:street": "HMT Main Road, Gokula 1st Stage, Mathikere Extension, Mathikere",
        "name": "Poorvika",
        "shop": "mobile_phone"
      }
    },
    {
      "type": "node",
      "id": 12676261311,
      "lat": 13.0158864,
      "lon": 77.5590488,
      "tags": {
        "leisure": "fitness_station",
        "sport": "fitness"
      }
    },
    {
      "type": "node",
      "id": 12676261317,
      "lat": 13.0190693,
      "lon": 77.5576362,
      "tags": {
        "check_date": "2025-03-18",
        "name": "Balaji Travels",
        "shop": "travel_agency"
      }
    },
    {
      "type": "node",
      "id": 12676261318,
      "lat": 13.0190699,
      "lon": 77.5575936,
      "tags": {
        "check_date": "2025-03-18",
        "shop": "copyshop"
      }
    },
    {
      "type": "node",
      "id": 12676261319,
      "lat": 13.0191345,
      "lon": 77.5575105,
      "tags": {
        "amenity": "pharmacy",
        "check_date": "2025-03-18",
        "healthcare": "pharmacy",
        "name": "Srikanth Medicals"
      }
    },
    {
      "type": "node",
      "id": 12676261320,
      "lat": 13.0188015,
      "lon": 77.5574805,
      "tags": {
        "check_date": "2025-03-18",
        "name": "Aaradhya Store",
        "shop": "kiosk"
      }
    },
    {
      "type": "node",
      "id": 12676261365,
      "lat": 13.0190409,
      "lon": 77.5576338,
      "tags": {
        "amenity": "bank",
        "brand": "Bank of Baroda",
        "brand:wikidata": "Q2003797",
        "check_date": "2025-03-18",
        "name": "Bank of Baroda"
      }
    },
    {
      "type": "node",
      "id": 12676261366,
      "lat": 13.0193277,
      "lon": 77.5565792,
      "tags": {
        "brand": "Hero",
        "brand:wikidata": "Q1613763",
        "check_date": "2025-03-18",
        "name": "Hero",
        "shop": "motorcycle"
      }
    },
    {
      "type": "node",
      "id": 12676261367,
      "lat": 13.0194302,
      "lon": 77.5563272,
      "tags": {
        "amenity": "fast_food",
        "check_date": "2025-03-18",
        "name": "Karnataka Biryani Point"
      }
    },
    {
      "type": "node",
      "id": 12676261368,
      "lat": 13.0198537,
      "lon": 77.5559839,
      "tags": {
        "amenity": "toilets",
        "check_date": "2025-03-18",
        "operator": "BBMP"
      }
    },
    {
      "type": "node",
      "id": 12676261370,
      "lat": 13.0212373,
      "lon": 77.5562124,
      "tags": {
        "check_date": "2025-03-18",
        "shop": "nuts"
      }
    },
    {
      "type": "node",
      "id": 12676261371,
      "lat": 13.0225774,
      "lon": 77.5567554,
      "tags": {
        "check_date": "2025-03-18",
        "name": "Sara",
        "shop": "clothes"
      }
    },
    {
      "type": "node",
      "id": 12676261372,
      "lat": 13.0228083,
      "lon": 77.5566419,
      "tags": {
        "brand": "Lenskart",
        "brand:wikidata": "Q17068753",
        "check_date": "2025-03-18",
        "name": "Lenskart",
        "shop": "optician"
      }
    },
    {
      "type": "node",
      "id": 12676261373,
      "lat": 13.022946,
      "lon": 77.5566881,
      "tags": {
        "amenity": "fast_food",
        "check_date": "2025-03-18",
        "name": "Priyadarshini Veg"
      }
    },
    {
      "type": "node",
      "id": 12676261375,
      "lat": 13.0233755,
      "lon": 77.5568688,
      "tags": {
        "brand": "Ramraj Cotton",
        "brand:wikidata": "Q119161281",
        "check_date": "2025-03-18",
        "name": "Ramraj Cotton",
        "shop": "clothes"
      }
    },
    {
      "type": "node",
      "id": 12676261377,
      "lat": 13.0246433,
      "lon": 77.557273,
      "tags": {
        "check_date": "2025-03-18",
        "name": "Kailash Silks",
        "shop": "clothes"
      }
    },
    {
      "type": "node",
      "id": 12676261380,
      "lat": 13.0255048,
      "lon": 77.5576872,
      "tags": {
        "amenity": "bench",
        "armrest": "yes",
        "backrest": "yes"
      }
    },
    {
      "type": "node",
      "id": 12676261381,
      "lat": 13.0265793,
      "lon": 77.5579761,
      "tags": {
        "amenity": "bank",
        "brand": "IDBI Bank",
        "brand:wikidata": "Q3633485",
        "check_date": "2025-03-18",
        "name": "IDBI Bank",
        "short_name": "IDBI"
      }
    },
    {
      "type": "node",
      "id": 12676261382,
      "lat": 13.0265607,
      "lon": 77.5581534,
      "tags": {
        "check_date": "2025-03-18",
        "name": "Rajat Opticals",
        "shop": "optician"
      }
    },
    {
      "type": "node",
      "id": 12676261383,
      "lat": 13.02691,
      "lon": 77.5580938,
      "tags": {
        "amenity": "atm",
        "brand": "Axis Bank",
        "brand:wikidata": "Q2003549",
        "check_date": "2025-03-18",
        "operator": "Axis Bank",
        "operator:wikidata": "Q2003549"
      }
    },
    {
      "type": "node",
      "id": 12676261388,
      "lat": 13.0289168,
      "lon": 77.559199,
      "tags": {
        "amenity": "restaurant",
        "check_date": "2025-03-18",
        "name": "Sangam Bar & Restaurant"
      }
    },
    {
      "type": "node",
      "id": 12676261389,
      "lat": 13.0296108,
      "lon": 77.559213,
      "tags": {
        "brand": "More",
        "brand:wikidata": "Q6910891",
        "check_date": "2025-03-18",
        "name": "More",
        "shop": "supermarket"
      }
    },
    {
      "type": "node",
      "id": 12676261390,
      "lat": 13.030241,
      "lon": 77.5594912,
      "tags": {
        "amenity": "bank",
        "brand": "Ujjivan Small Finance Bank",
        "brand:wikidata": "Q42529272",
        "check_date": "2025-03-18",
        "name": "Ujjivan Small Finance Bank"
      }
    },
    {
      "type": "node",
      "id": 12676261391,
      "lat": 13.0306563,
      "lon": 77.5597156,
      "tags": {
        "brand": "Just Bake",
        "brand:wikidata": "Q124374121",
        "check_date": "2025-03-18",
        "delivery": "yes",
        "name": "Just Bake",
        "shop": "pastry",
        "takeaway": "yes"
      }
    },
    {
      "type": "node",
      "id": 12676261392,
      "lat": 13.0307751,
      "lon": 77.5597481,
      "tags": {
        "amenity": "restaurant",
        "check_date": "2025-03-18",
        "name": "Chandan Bar & Restaurant"
      }
    },
    {
      "type": "node",
      "id": 12676265229,
      "lat": 13.031887,
      "lon": 77.5594936,
      "tags": {
        "check_date": "2025-03-18",
        "name": "GK Vale",
        "shop": "photo"
      }
    },
    {
      "type": "node",
      "id": 12676265230,
      "lat": 13.0309242,
      "lon": 77.5601519,
      "tags": {
        "check_date": "2025-03-18",
        "name": "Giva",
        "shop": "jewelry"
      }
    },
    {
      "type": "node",
      "id": 12676265231,
      "lat": 13.0305663,
      "lon": 77.5596963,
      "tags": {
        "amenity": "ice_cream",
        "check_date": "2025-03-18",
        "name": "Sanjana Ice Creams"
      }
    },
    {
      "type": "node",
      "id": 12676265232,
      "lat": 13.0301341,
      "lon": 77.5594504,
      "tags": {
        "amenity": "fast_food",
        "check_date": "2025-03-18",
        "name": "Malgudi's Donne Biryani"
      }
    },
    {
      "type": "node",
      "id": 12676265233,
      "lat": 13.0291844,
      "lon": 77.5590389,
      "tags": {
        "check_date": "2025-03-18",
        "name": "Pai",
        "shop": "electronics"
      }
    },
    {
      "type": "node",
      "id": 12676265234,
      "lat": 13.0284,
      "lon": 77.5586943,
      "tags": {
        "check_date": "2025-03-18",
        "name": "Kulfi Shulfi",
        "shop": "confectionery"
      }
    },
    {
      "type": "node",
      "id": 12676265235,
      "lat": 13.0277421,
      "lon": 77.5584595,
      "tags": {
        "check_date": "2025-03-18",
        "name": "The Kanchipuram Silks",
        "shop": "clothes"
      }
    },
    {
      "type": "node",
      "id": 12676265236,
      "lat": 13.0273848,
      "lon": 77.5583197,
      "tags": {
        "check_date": "2025-03-18",
        "name": "Iyengar's Cake House",
        "shop": "bakery"
      }
    },
    {
      "type": "node",
      "id": 12676265237,
      "lat": 13.0263832,
      "lon": 77.5578954,
      "tags": {
        "check_date": "2025-03-18",
        "shop": "greengrocer"
      }
    },
    {
      "type": "node",
      "id": 12676265238,
      "lat": 13.0254939,
      "lon": 77.5575302,
      "tags": {
        "amenity": "restaurant",
        "check_date": "2025-03-18",
        "name": "Trupti Bar & Restaurant"
      }
    },
    {
      "type": "node",
      "id": 12676265241,
      "lat": 13.0236033,
      "lon": 77.5568685,
      "tags": {
        "amenity": "bank",
        "check_date": "2025-03-18",
        "name": "SVC Co-operative Bank Limited"
      }
    },
    {
      "type": "node",
      "id": 12676265243,
      "lat": 13.0217397,
      "lon": 77.5562156,
      "tags": {
        "amenity": "school",
        "check_date": "2025-03-18",
        "name": "Divine English School"
      }
    },
    {
      "type": "node",
      "id": 12732632383,
      "lat": 13.0180275,
      "lon": 77.556119,
      "tags": {
        "check_date": "2025-04-06",
        "name": "BMTC Pass Counter",
        "shop": "ticket"
      }
    },
    {
      "type": "node",
      "id": 12732632384,
      "lat": 13.0179471,
      "lon": 77.5561221,
      "tags": {
        "check_date": "2025-04-06",
        "name": "Venkatadri Condiments",
        "shop": "kiosk"
      }
    },
    {
      "type": "node",
      "id": 12732632385,
      "lat": 13.0178765,
      "lon": 77.5561228,
      "tags": {
        "check_date": "2025-04-06",
        "name": "Punith Cafe",
        "shop": "kiosk"
      }
    },
    {
      "type": "node",
      "id": 12732632386,
      "lat": 13.0177867,
      "lon": 77.5561244,
      "tags": {
        "check_date": "2025-04-06",
        "name": "Transit Clinic",
        "shop": "kiosk"
      }
    },
    {
      "type": "way",
      "id": 26983364,
      "center": {
        "lat": 13.0158089,
        "lon": 77.5604886
      },
      "tags": {
        "access": "permit",
        "leisure": "pitch",
        "name": "Gymkhana hockey Ground",
        "sport": "field_hockey",
        "surface": "artificial_turf"
      }
    },
    {
      "type": "way",
      "id": 27286098,
      "center": {
        "lat": 13.0152706,
        "lon": 77.5615753
      },
      "tags": {
        "leisure": "pitch",
        "name": "Gymkhana Cricket Ground",
        "sport": "cricket",
        "surface": "artificial_turf"
      }
    },
    {
      "type": "way",
      "id": 37107184,
      "center": {
        "lat": 13.0301869,
        "lon": 77.5675088
      },
      "tags": {
        "amenity": "university",
        "full_name": "MS Ramaiah University of Applied Sciences",
        "landuse": "education",
        "name": "MS Ramaiah University",
        "name:etymology:wikidata": "Q6713104",
        "name:kn": "ಗೋಕುಲ ಶಿಕ್ಷಣ ಸಂಸ್ಥೆ",
        "official_name": "Gokula Education Foundation",
        "wikidata": "Q24590299",
        "wikipedia": "en:Ramaiah University of Applied Sciences"
      }
    },
    {
      "type": "way",
      "id": 37931109,
      "center": {
        "lat": 13.0161961,
        "lon": 77.5657921
      },
      "tags": {
        "amenity": "library",
        "building": "university",
        "name": "JRD Tata Memorial Library",
        "name:etymology:wikidata": "Q468334",
        "website": "https://library.iisc.ac.in/"
      }
    },
    {
      "type": "way",
      "id": 37947771,
      "center": {
        "lat": 13.0170508,
        "lon": 77.565731
      },
      "tags": {
        "amenity": "college",
        "building:levels": "3",
        "name": "Old Physics Building",
        "old_name": "Physics Building"
      }
    },
    {
      "type": "way",
      "id": 37976777,
      "center": {
        "lat": 13.0157723,
        "lon": 77.5638038
      },
      "tags": {
        "amenity": "hospital",
        "building": "university",
        "name": "Health Centre",
        "name:kn": "ಆರೋಗ್ಯ ಕೇಂದ್ರ"
      }
    },
    {
      "type": "way",
      "id": 46918812,
      "center": {
        "lat": 13.0300022,
        "lon": 77.5587277
      },
      "tags": {
        "amenity": "school"
      }
    },
    {
      "type": "way",
      "id": 52434098,
      "center": {
        "lat": 13.0177878,
        "lon": 77.5644992
      },
      "tags": {
        "leisure": "pitch",
        "lit": "yes",
        "name": "TMC Ground",
        "sport": "badminton",
        "surface": "ground"
      }
    },
    {
      "type": "way",
      "id": 59278662,
      "center": {
        "lat": 13.0173325,
        "lon": 77.5670832
      },
      "tags": {
        "leisure": "park"
      }
    },
    {
      "type": "way",
      "id": 128964529,
      "center": {
        "lat": 13.020099,
        "lon": 77.5564901
      },
      "tags": {
        "amenity": "public_building",
        "building": "yes",
        "building:levels": "4",
        "name": "Yeshwantpur RTO"
      }
    },
    {
      "type": "way",
      "id": 148029459,
      "center": {
        "lat": 13.0286987,
        "lon": 77.5673279
      },
      "tags": {
        "amenity": "parking"
      }
    },
    {
      "type": "way",
      "id": 148029465,
      "center": {
        "lat": 13.0284514,
        "lon": 77.5684215
      },
      "tags": {
        "amenity": "parking"
      }
    },
    {
      "type": "way",
      "id": 148032604,
      "center": {
        "lat": 13.0296722,
        "lon": 77.5657745
      },
      "tags": {
        "leisure": "park",
        "name": "RIT Entrance Garden"
      }
    },
    {
      "type": "way",
      "id": 165740586,
      "center": {
        "lat": 13.0286183,
        "lon": 77.5678331
      },
      "tags": {
        "leisure": "park"
      }
    },
    {
      "type": "way",
      "id": 166365464,
      "center": {
        "lat": 13.0309173,
        "lon": 77.565225
      },
      "tags": {
        "alt_name": "MSRIT",
        "amenity": "college",
        "building": "yes",
        "name": "M S Ramaiah Institute of Technology",
        "name:etymology:wikidata": "Q6713104"
      }
    },
    {
      "type": "way",
      "id": 167606945,
      "center": {
        "lat": 13.0293038,
        "lon": 77.5652193
      },
      "tags": {
        "amenity": "parking"
      }
    },
    {
      "type": "way",
      "id": 249906103,
      "center": {
        "lat": 13.019717,
        "lon": 77.55489
      },
      "tags": {
        "amenity": "marketplace",
        "name": "Yeshwanthpur Fish Market",
        "name:kn": "ಮೀನು ಮಾರುಕಟ್ಟೆ"
      }
    },
    {
      "type": "way",
      "id": 249906110,
      "center": {
        "lat": 13.0203304,
        "lon": 77.5543142
      },
      "tags": {
        "amenity": "school",
        "name": "Government School",
        "name:kn": "ಸರ್ಕಾರಿ ಶಾಲೆ"
      }
    },
    {
      "type": "way",
      "id": 249906113,
      "center": {
        "lat": 13.020626,
        "lon": 77.5545697
      },
      "tags": {
        "amenity": "marketplace",
        "name": "Yeshwanthpur Market"
      }
    },
    {
      "type": "way",
      "id": 249908374,
      "center": {
        "lat": 13.0172046,
        "lon": 77.5562367
      },
      "tags": {
        "amenity": "cinema",
        "building": "yes",
        "name": "Gopal Theatre",
        "wheelchair": "no"
      }
    },
    {
      "type": "way",
      "id": 286098653,
      "center": {
        "lat": 13.0289527,
        "lon": 77.5676897
      },
      "tags": {
        "amenity": "parking"
      }
    },
    {
      "type": "way",
      "id": 312367174,
      "center": {
        "lat": 13.0317557,
        "lon": 77.559631
      },
      "tags": {
        "addr:city": "Mathikere",
        "addr:postcode": "560054",
        "addr:street": "MS Ramaiah Road",
        "amenity": "cafe",
        "brand": "Cafe Coffee Day",
        "brand:wikidata": "Q5017235",
        "building": "yes",
        "cuisine": "coffee_shop",
        "internet_access": "wlan",
        "name": "Cafe Coffee Day",
        "name:kn": "ಕಫೆ ಕಾಫಿ ಡೇ",
        "takeaway": "yes"
      }
    },
    {
      "type": "way",
      "id": 312368010,
      "center": {
        "lat": 13.0302068,
        "lon": 77.560704
      },
      "tags": {
        "addr:city": "Mathikere",
        "addr:district": "Bengaluru Urban",
        "addr:full": "No. 31, M. S. Ramaiah Road, Mathikere",
        "addr:postcode": "560054",
        "addr:state": "Karnataka",
        "addr:street": "MS Ramaiah Road",
        "amenity": "hospital",
        "emergency": "yes",
        "name": "Subbaiah Hospital",
        "name:kn": "ಸುಬ್ಬಯ್ಯ ಆಸ್ಪತ್ರೆ",
        "operator": "Subbaiah hospital",
        "source": "OpenGovernmentData",
        "wheelchair": "limited"
      }
    },
    {
      "type": "way",
      "id": 312368470,
      "center": {
        "lat": 13.0316113,
        "lon": 77.5593212
      },
      "tags": {
        "addr:city": "Mathikere",
        "addr:postcode": "560054",
        "addr:street": "MS Ramaiah Road",
        "amenity": "restaurant",
        "building": "yes",
        "cuisine": "regional",
        "name": "Kanthi Sweets",
        "shop": "confectionery"
      }
    },
    {
      "type": "way",
      "id": 346876301,
      "center": {
        "lat": 13.0162891,
        "lon": 77.5613125
      },
      "tags": {
        "leisure": "pitch",
        "name": "Gymkhana Tennis Court",
        "name:kn": "ಟೆನ್ನಿಸ್ ಅಂಗಣ",
        "sport": "tennis"
      }
    },
    {
      "type": "way",
      "id": 347071790,
      "center": {
        "lat": 13.0285228,
        "lon": 77.5587301
      },
      "tags": {
        "amenity": "hospital",
        "healthcare": "hospital",
        "name": "Medicare Diagnostics"
      }
    },
    {
      "type": "way",
      "id": 351328015,
      "center": {
        "lat": 13.0295468,
        "lon": 77.5635305
      },
      "tags": {
        "amenity": "car_sharing",
        "name": "Parking Area"
      }
    },
    {
      "type": "way",
      "id": 351328935,
      "center": {
        "lat": 13.0293609,
        "lon": 77.5631302
      },
      "tags": {
        "leisure": "park",
        "name": "Green House Park"
      }
    },
    {
      "type": "way",
      "id": 351329265,
      "center": {
        "lat": 13.0294355,
        "lon": 77.5639077
      },
      "tags": {
        "amenity": "theatre",
        "building": "yes",
        "check_date": "2025-11-16",
        "ele": "1",
        "name": "JRD Tata Auditorium",
        "name:etymology:wikidata": "Q468334",
        "operator": "National Institute of Advanced Studies"
      }
    },
    {
      "type": "way",
      "id": 351329776,
      "center": {
        "lat": 13.0289146,
        "lon": 77.563138
      },
      "tags": {
        "leisure": "park",
        "name": "NIAS residence Garden Area"
      }
    },
    {
      "type": "way",
      "id": 351370428,
      "center": {
        "lat": 13.0290451,
        "lon": 77.5634759
      },
      "tags": {
        "amenity": "cafe",
        "building": "yes",
        "internet_access": "no",
        "name": "NIAS Guest House Cafe",
        "note": "Added cafeteria building",
        "smoking": "no"
      }
    },
    {
      "type": "way",
      "id": 353171034,
      "center": {
        "lat": 13.0292726,
        "lon": 77.5629961
      },
      "tags": {
        "leisure": "garden",
        "name": "Rose Garden",
        "name:kn": "ಗುಲಾಬಿ ಉದ್ಯಾನ"
      }
    },
    {
      "type": "way",
      "id": 393781676,
      "center": {
        "lat": 13.0181038,
        "lon": 77.5565251
      },
      "tags": {
        "alt_name": "Yeshwantpur Bus Station",
        "amenity": "bus_station",
        "name": "Yeshwanthapura TTMC",
        "name:en": "Yeshwanthapura TTMC",
        "name:kn": "ಯಶವಂತಪುರ ಬಸ್ ನಿಲ್ದಾನ",
        "public_transport": "station"
      }
    },
    {
      "type": "way",
      "id": 407212192,
      "center": {
        "lat": 13.016633,
        "lon": 77.5649402
      },
      "tags": {
        "amenity": "restaurant",
        "building": "university",
        "cuisine": "indian",
        "name": "Nesara"
      }
    },
    {
      "type": "way",
      "id": 422796685,
      "center": {
        "lat": 13.024074,
        "lon": 77.5613228
      },
      "tags": {
        "leisure": "playground"
      }
    },
    {
      "type": "way",
      "id": 423206239,
      "center": {
        "lat": 13.0175985,
        "lon": 77.5624309
      },
      "tags": {
        "leisure": "park"
      }
    },
    {
      "type": "way",
      "id": 583239414,
      "center": {
        "lat": 13.0275242,
        "lon": 77.5599825
      },
      "tags": {
        "access": "private",
        "landuse": "grass",
        "leisure": "garden"
      }
    },
    {
      "type": "way",
      "id": 583442700,
      "center": {
        "lat": 13.0286029,
        "lon": 77.5600798
      },
      "tags": {
        "access": "private",
        "landuse": "grass",
        "leisure": "garden"
      }
    },
    {
      "type": "way",
      "id": 696136973,
      "center": {
        "lat": 13.0229586,
        "lon": 77.566298
      },
      "tags": {
        "leisure": "garden"
      }
    },
    {
      "type": "way",
      "id": 696136977,
      "center": {
        "lat": 13.0185032,
        "lon": 77.5650571
      },
      "tags": {
        "access": "customers",
        "leisure": "playground",
        "name": "TMC Ground"
      }
    },
    {
      "type": "way",
      "id": 696136995,
      "center": {
        "lat": 13.0162548,
        "lon": 77.563441
      },
      "tags": {
        "amenity": "food_court",
        "building": "yes",
        "building:levels": "2",
        "name": "Mess C and Mess D"
      }
    },
    {
      "type": "way",
      "id": 700172523,
      "center": {
        "lat": 13.0160609,
        "lon": 77.5657816
      },
      "tags": {
        "leisure": "garden"
      }
    },
    {
      "type": "way",
      "id": 700366977,
      "center": {
        "lat": 13.0175347,
        "lon": 77.5675409
      },
      "tags": {
        "leisure": "garden"
      }
    },
    {
      "type": "way",
      "id": 700366978,
      "center": {
        "lat": 13.0175764,
        "lon": 77.5667667
      },
      "tags": {
        "leisure": "garden"
      }
    },
    {
      "type": "way",
      "id": 708224219,
      "center": {
        "lat": 13.0186324,
        "lon": 77.5627107
      },
      "tags": {
        "leisure": "garden"
      }
    },
    {
      "type": "way",
      "id": 729134345,
      "center": {
        "lat": 13.017421,
        "lon": 77.5574517
      },
      "tags": {
        "access": "private",
        "leisure": "swimming_pool"
      }
    },
    {
      "type": "way",
      "id": 772835106,
      "center": {
        "lat": 13.0208734,
        "lon": 77.5630701
      },
      "tags": {
        "amenity": "fuel",
        "compressed_air": "yes",
        "landuse": "retail",
        "name": "Aegis Autogas",
        "operator": "Aegis Autogas"
      }
    },
    {
      "type": "way",
      "id": 780917615,
      "center": {
        "lat": 13.0164805,
        "lon": 77.555864
      },
      "tags": {
        "amenity": "community_centre",
        "landuse": "religious",
        "name": "Y Muniswamappa Kalyana Mantapa",
        "name:kn": "ಮುನಿಸ್ವಾಮಪ್ಪ ಕಲ್ಯಾಣ ಮಂಟಪಕ್",
        "religion": "hindu"
      }
    },
    {
      "type": "way",
      "id": 780917616,
      "center": {
        "lat": 13.0182004,
        "lon": 77.5590653
      },
      "tags": {
        "amenity": "place_of_worship",
        "name": "Shree Daari Anjaneyaswamy Temple",
        "name:kn": "ದಾರಿ ಅಂಜನೇಯ",
        "religion": "hindu",
        "wheelchair": "no"
      }
    },
    {
      "type": "way",
      "id": 1077744657,
      "center": {
        "lat": 13.0293756,
        "lon": 77.5635513
      },
      "tags": {
        "amenity": "college",
        "name": "National Institute of Advanced Studies - NIAS"
      }
    },
    {
      "type": "way",
      "id": 1081463161,
      "center": {
        "lat": 13.0195942,
        "lon": 77.5526995
      },
      "tags": {
        "amenity": "fuel",
        "brand": "Total",
        "brand:wikidata": "Q154037",
        "name": "Total",
        "operator": "Total"
      }
    },
    {
      "type": "way",
      "id": 1087700050,
      "center": {
        "lat": 13.0178863,
        "lon": 77.5584179
      },
      "tags": {
        "amenity": "police",
        "name": "Yeshwantpura Police Station",
        "name:kn": "ಆರಕ್ಷಕ ಠಾಣೆ"
      }
    },
    {
      "type": "way",
      "id": 1095561499,
      "center": {
        "lat": 13.0145311,
        "lon": 77.5596563
      },
      "tags": {
        "amenity": "place_of_worship",
        "religion": "hindu"
      }
    },
    {
      "type": "way",
      "id": 1095561501,
      "center": {
        "lat": 13.0151199,
        "lon": 77.5600013
      },
      "tags": {
        "amenity": "hospital",
        "healthcare": "hospital",
        "name": "ESI Hospital Malleshwaram Branch",
        "operator": "Employees' State Insurance",
        "operator:short": "ESI",
        "operator:wikidata": "Q3595726"
      }
    },
    {
      "type": "way",
      "id": 1095561506,
      "center": {
        "lat": 13.0171567,
        "lon": 77.5574362
      },
      "tags": {
        "leisure": "park"
      }
    },
    {
      "type": "way",
      "id": 1116445057,
      "center": {
        "lat": 13.0164924,
        "lon": 77.5670964
      },
      "tags": {
        "leisure": "garden"
      }
    },
    {
      "type": "way",
      "id": 1116445058,
      "center": {
        "lat": 13.0167956,
        "lon": 77.5677882
      },
      "tags": {
        "leisure": "garden"
      }
    },
    {
      "type": "way",
      "id": 1116445316,
      "center": {
        "lat": 13.0170786,
        "lon": 77.5664638
      },
      "tags": {
        "leisure": "garden"
      }
    },
    {
      "type": "way",
      "id": 1117442650,
      "center": {
        "lat": 13.0192603,
        "lon": 77.5661464
      },
      "tags": {
        "amenity": "kindergarten",
        "building": "university",
        "name": "Little Elly"
      }
    },
    {
      "type": "way",
      "id": 1192839115,
      "center": {
        "lat": 13.0145044,
        "lon": 77.5608492
      },
      "tags": {
        "amenity": "theatre",
        "name": "Raja Ramannah Students Activities Centre",
        "operator": "IISc",
        "theatre:type": "amphi"
      }
    },
    {
      "type": "way",
      "id": 1195527478,
      "center": {
        "lat": 13.0223584,
        "lon": 77.5664991
      },
      "tags": {
        "access": "permissive",
        "amenity": "bicycle_parking",
        "bicycle_parking": "shed",
        "capacity": "30"
      }
    },
    {
      "type": "way",
      "id": 1207800621,
      "center": {
        "lat": 13.0229887,
        "lon": 77.5662198
      },
      "tags": {
        "amenity": "fountain"
      }
    },
    {
      "type": "way",
      "id": 1208991954,
      "center": {
        "lat": 13.0166944,
        "lon": 77.5635377
      },
      "tags": {
        "leisure": "park"
      }
    },
    {
      "type": "way",
      "id": 1293618933,
      "center": {
        "lat": 13.0169627,
        "lon": 77.5578419
      },
      "tags": {
        "access": "private",
        "leisure": "swimming_pool"
      }
    },
    {
      "type": "way",
      "id": 1293934438,
      "center": {
        "lat": 13.0262935,
        "lon": 77.5677744
      },
      "tags": {
        "leisure": "playground"
      }
    },
    {
      "type": "way",
      "id": 1293934495,
      "center": {
        "lat": 13.0246985,
        "lon": 77.563832
      },
      "tags": {
        "access": "permissive",
        "amenity": "parking",
        "parking": "surface"
      }
    },
    {
      "type": "way",
      "id": 1308403450,
      "center": {
        "lat": 13.0268662,
        "lon": 77.5579948
      },
      "tags": {
        "amenity": "fuel"
      }
    },
    {
      "type": "way",
      "id": 1308403499,
      "center": {
        "lat": 13.0198679,
        "lon": 77.5562676
      },
      "tags": {
        "access": "permissive",
        "amenity": "parking",
        "parking": "surface"
      }
    },
    {
      "type": "way",
      "id": 1308403509,
      "center": {
        "lat": 13.0193297,
        "lon": 77.5552833
      },
      "tags": {
        "amenity": "place_of_worship",
        "landuse": "religious",
        "name": "Jamia Masjid Yeshwanthpur",
        "name:kn": "ಜಮ ಮಸೀದಿ",
        "religion": "muslim"
      }
    },
    {
      "type": "way",
      "id": 1314362194,
      "center": {
        "lat": 13.0265658,
        "lon": 77.5625598
      },
      "tags": {
        "amenity": "restaurant",
        "building": "roof",
        "cuisine": "indian",
        "name": "Vaayu Vihar Canteen"
      }
    },
    {
      "type": "way",
      "id": 1319188521,
      "center": {
        "lat": 13.0158377,
        "lon": 77.5617679
      },
      "tags": {
        "leisure": "sports_centre",
        "name": "IISc Gymkhana"
      }
    },
    {
      "type": "way",
      "id": 1319188525,
      "center": {
        "lat": 13.016376,
        "lon": 77.5611316
      },
      "tags": {
        "leisure": "pitch",
        "name": "Gymkhana Tennis Court",
        "name:kn": "ಟೆನ್ನಿಸ್ ಅಂಗಣ",
        "sport": "tennis"
      }
    },
    {
      "type": "way",
      "id": 1319188526,
      "center": {
        "lat": 13.0163522,
        "lon": 77.5604443
      },
      "tags": {
        "access": "permit",
        "leisure": "pitch",
        "lit": "no",
        "name": "Gymkhana Football Ground",
        "sport": "football",
        "surface": "artificial_turf"
      }
    },
    {
      "type": "way",
      "id": 1352267564,
      "center": {
        "lat": 13.0214559,
        "lon": 77.553599
      },
      "tags": {
        "amenity": "hospital",
        "building": "yes",
        "name": "Government Maternity Hospital",
        "name:kn": "ಸರ್ಕಾರಿ ಹೆರಿಗೆ ಆಸ್ಪತ್ರೆ",
        "wheelchair": "limited"
      }
    },
    {
      "type": "way",
      "id": 1391861753,
      "center": {
        "lat": 13.0176429,
        "lon": 77.5605621
      },
      "tags": {
        "leisure": "pitch",
        "sport": "basketball"
      }
    },
    {
      "type": "way",
      "id": 1391861761,
      "center": {
        "lat": 13.019771,
        "lon": 77.5599658
      },
      "tags": {
        "amenity": "school"
      }
    }
  ]
}