{
  "area_name": "Doddakannalli",
  "osm_id": 1872804083,
  "osm_type": "node",
  "place_type": "suburb",
  "amenity_count": 191,
  "amenities": [
    {
      "type": "node",
      "id": 3255173361,
      "lat": 12.9064358,
      "lon": 77.6978363,
      "tags": {
        "addr:city": "bangalore",
        "addr:postcode": "560035",
        "addr:street": "Sarjapur Road",
        "amenity": "place_of_worship",
        "name": "Shani Temple",
        "name:kn": "ಶನಿ ದೇವಸ್ಥಾನ",
        "religion": "hindu"
      }
    },
    {
      "type": "node",
      "id": 4441715692,
      "lat": 12.9151576,
      "lon": 77.6995704,
      "tags": {
        "addr:city": "Bengaluru",
        "addr:housenumber": "3/1",
        "addr:postcode": "560035",
        "addr:street": "Sarjapur Main Road, Carmelaram, Hadosiddapura, Chikkakannalli",
        "amenity": "clinic",
        "healthcare": "clinic",
        "name": "Carewell Homoeo Clinic",
        "phone": "+91-96631 22267"
      }
    },
    {
      "type": "node",
      "id": 4442561627,
      "lat": 12.9074727,
      "lon": 77.6951371,
      "tags": {
        "addr:city": "Bangalore",
        "addr:housenumber": "124/5",
        "addr:postcode": "560035",
        "addr:street": "doddakannehalli carmaleram post, Sarjapura Main Road",
        "amenity": "pharmacy",
        "name": "navyashree medicals & general stores",
        "phone": "+91-99724 20206"
      }
    },
    {
      "type": "node",
      "id": 4442605672,
      "lat": 12.9052805,
      "lon": 77.6957796,
      "tags": {
        "addr:city": "Bangalore",
        "addr:postcode": "560035",
        "addr:street": "Chikkanayakanahalli Road, Doddakanahalli Junction, Sarjapur Road",
        "amenity": "clinic",
        "name": "A & J Ayur Care",
        "phone": "+91-9243112373"
      }
    },
    {
      "type": "node",
      "id": 4639707991,
      "lat": 12.9056307,
      "lon": 77.6954967,
      "tags": {
        "addr:postcode": "560035",
        "addr:street": "Sarjapur Road",
        "name": "NT Laundry Services",
        "name:en": "NT Laundry Services",
        "phone": "9880976417",
        "shop": "laundry"
      }
    },
    {
      "type": "node",
      "id": 4639708291,
      "lat": 12.9069182,
      "lon": 77.696183,
      "tags": {
        "amenity": "fast_food",
        "name": "Sambrahma",
        "name:en": "Sambrahma",
        "name:kn": "ಸಂಬ್ರಮ"
      }
    },
    {
      "type": "node",
      "id": 4705492750,
      "lat": 12.9031397,
      "lon": 77.7021165,
      "tags": {
        "amenity": "pharmacy"
      }
    },
    {
      "type": "node",
      "id": 4705492766,
      "lat": 12.9033071,
      "lon": 77.7021218,
      "tags": {
        "shop": "bakery"
      }
    },
    {
      "type": "node",
      "id": 5304948821,
      "lat": 12.9036067,
      "lon": 77.6960679,
      "tags": {
        "amenity": "marketplace"
      }
    },
    {
      "type": "node",
      "id": 5536178775,
      "lat": 12.9038833,
      "lon": 77.7028121,
      "tags": {
        "name": "puncture shop",
        "shop": "car_repair"
      }
    },
    {
      "type": "node",
      "id": 5767348737,
      "lat": 12.9049503,
      "lon": 77.6958191,
      "tags": {
        "name": "Sri Krishna Bakery",
        "shop": "yes"
      }
    },
    {
      "type": "node",
      "id": 5767349677,
      "lat": 12.9044427,
      "lon": 77.6958632,
      "tags": {
        "name": "Chriz Cafe",
        "shop": "yes"
      }
    },
    {
      "type": "node",
      "id": 5770656896,
      "lat": 12.9094885,
      "lon": 77.6869501,
      "tags": {
        "addr:city": "Bengaluru",
        "addr:postcode": "560035",
        "addr:street": "Sarjapur Road",
        "amenity": "bank",
        "atm": "yes",
        "brand": "Canara Bank",
        "brand:en": "Canara Bank",
        "brand:hi": "केनरा बैंक",
        "brand:kn": "ಕೆನರಾ ಬ್ಯಾಂಕ್",
        "brand:pa": "ਕੇਨਰਾ ਬੈਂਕ",
        "brand:pnb": "کینرا بینک",
        "brand:ur": "کینرا بینک",
        "brand:wikidata": "Q2003777",
        "brand:wikipedia": "en:Canara Bank",
        "brand:wikipedia:pa": "ਕੇਨਰਾ ਬੈਂਕ",
        "drive_through": "no",
        "name": "Canara Bank",
        "name:en": "Canara Bank",
        "name:hi": "केनरा बैंक",
        "name:kn": "ಕೆನರಾ ಬ್ಯಾಂಕ್",
        "name:pa": "ਕੇਨਰਾ ਬੈਂਕ",
        "name:pnb": "کینرا بینک",
        "name:ur": "کینرا بینک",
        "opening_hours": "Mo-Su 10:00-14:00",
        "phone": "1800 425 0018",
        "website": "https://canarabank.in"
      }
    },
    {
      "type": "node",
      "id": 6205509775,
      "lat": 12.9098442,
      "lon": 77.6859336,
      "tags": {
        "amenity": "restaurant",
        "check_date": "2024-07-10",
        "indoor_seating": "yes",
        "name": "Punjabi Rasoi",
        "name:kn": "ಪಂಜಾಬಿ ರಸೋಯಿ",
        "outdoor_seating": "no"
      }
    },
    {
      "type": "node",
      "id": 6997799215,
      "lat": 12.9045096,
      "lon": 77.6910917,
      "tags": {
        "addr:city": "Bengaluru",
        "addr:housenumber": "entrance",
        "addr:postcode": "560035",
        "addr:street": "radha reddy layout",
        "amenity": "place_of_worship",
        "denomination": "orthodox",
        "name": "Ganesha Temple",
        "religion": "hindu"
      }
    },
    {
      "type": "node",
      "id": 6997799223,
      "lat": 12.9044086,
      "lon": 77.6913729,
      "tags": {
        "name": "Green Mart",
        "shop": "supermarket"
      }
    },
    {
      "type": "node",
      "id": 6997799224,
      "lat": 12.9044356,
      "lon": 77.6915187,
      "tags": {
        "amenity": "fast_food",
        "name": "Quick Bites"
      }
    },
    {
      "type": "node",
      "id": 6997799225,
      "lat": 12.904438,
      "lon": 77.6914559,
      "tags": {
        "amenity": "fast_food",
        "name": "Melting Cakes"
      }
    },
    {
      "type": "node",
      "id": 7085480609,
      "lat": 12.9092185,
      "lon": 77.687404,
      "tags": {
        "addr:floor": "3",
        "air_conditioning": "yes",
        "amenity": "restaurant",
        "bar": "no",
        "check_date": "2023-07-20",
        "diet:halal": "yes",
        "diet:vegetarian": "yes",
        "indoor_seating": "yes",
        "internet_access": "no",
        "level": "3",
        "name": "Barbeque Nation",
        "name:kn": "ಬರ್ಬಕ್ಯು ನೇಶನ್",
        "outdoor_seating": "no",
        "payment:mastercard": "yes",
        "payment:visa": "yes",
        "reservation": "yes",
        "smoking": "no",
        "source": "survey",
        "toilets": "yes"
      }
    },
    {
      "type": "node",
      "id": 7328007819,
      "lat": 12.9042758,
      "lon": 77.6966643,
      "tags": {
        "access": "private",
        "amenity": "parking_entrance",
        "parking": "underground"
      }
    },
    {
      "type": "node",
      "id": 7436685277,
      "lat": 12.9130518,
      "lon": 77.6999194,
      "tags": {
        "addr:city": "Bangalore",
        "addr:housenumber": "132, 4th B Cross",
        "addr:postcode": "560035",
        "addr:street": "Janatha Colony, Doddakannelli",
        "amenity": "restaurant",
        "cuisine": "regional",
        "name": "Good Food Kitchen",
        "opening_hours": "Mo-Su 08:00-20:00"
      }
    },
    {
      "type": "node",
      "id": 8187964045,
      "lat": 12.9103991,
      "lon": 77.686055,
      "tags": {
        "addr:full": "Delta Signature 83, Nxt to Wipro Corp Office, 3, Sarjapur Main Rd, Doddakannelli, Bengaluru, Karnataka",
        "addr:state": "Karnataka",
        "amenity": "bank",
        "brand": "HDFC Bank",
        "brand:wikidata": "Q631047",
        "name": "HDFC Bank",
        "name:kn": "ಎಚ್ ಡಿ ಎಫ್ ಸಿ",
        "short_name": "HDFC"
      }
    },
    {
      "type": "node",
      "id": 8187964064,
      "lat": 12.9080288,
      "lon": 77.6930528,
      "tags": {
        "addr:full": "32, Ambalipura - Sarjapur Rd, Kaikondrahalli, Bengaluru, Karnataka",
        "addr:state": "Karnataka",
        "amenity": "bank",
        "branch": "Doddakanelli Branch",
        "brand": "Andhra Bank",
        "brand:wikidata": "Q2003476",
        "name": "Andhra Bank",
        "name:kn": "ಆಂಧ್ರ ಬ್ಯಾಂಕ್"
      }
    },
    {
      "type": "node",
      "id": 9828595269,
      "lat": 12.915418,
      "lon": 77.6987688,
      "tags": {
        "amenity": "pharmacy",
        "brand": "Apollo Pharmacy",
        "brand:wikidata": "Q62562612",
        "dispensing": "yes",
        "healthcare": "pharmacy",
        "name": "Apollo Pharmacy",
        "wheelchair": "no"
      }
    },
    {
      "type": "node",
      "id": 9828595272,
      "lat": 12.9094409,
      "lon": 77.6871213,
      "tags": {
        "amenity": "cafe",
        "name": "Third Wave Coffee",
        "opening_hours": "Mo-Su 08:00-23:00"
      }
    },
    {
      "type": "node",
      "id": 9909036522,
      "lat": 12.9081233,
      "lon": 77.6957465,
      "tags": {
        "amenity": "pharmacy",
        "check_date": "2022-07-21",
        "healthcare": "pharmacy",
        "name": "Sri Sai Medicals"
      }
    },
    {
      "type": "node",
      "id": 9909062223,
      "lat": 12.9086588,
      "lon": 77.6958342,
      "tags": {
        "amenity": "pharmacy",
        "check_date": "2022-07-21",
        "healthcare": "pharmacy",
        "name": "Balaji Pharma",
        "wheelchair": "no"
      }
    },
    {
      "type": "node",
      "id": 10185026931,
      "lat": 12.9098816,
      "lon": 77.6858538,
      "tags": {
        "amenity": "restaurant",
        "name": "Chulha Chauki Da Daba",
        "wheelchair": "yes"
      }
    },
    {
      "type": "node",
      "id": 10185026932,
      "lat": 12.909114,
      "lon": 77.6876839,
      "tags": {
        "amenity": "food_court",
        "name": "Kitchens@"
      }
    },
    {
      "type": "node",
      "id": 10185026947,
      "lat": 12.9096907,
      "lon": 77.688066,
      "tags": {
        "name": "Titan Eye+",
        "shop": "optician",
        "wheelchair": "no"
      }
    },
    {
      "type": "node",
      "id": 10185026948,
      "lat": 12.9096812,
      "lon": 77.688137,
      "tags": {
        "name": "Mia by Tanishq",
        "shop": "jewelry"
      }
    },
    {
      "type": "node",
      "id": 10196255912,
      "lat": 12.9093521,
      "lon": 77.6868717,
      "tags": {
        "name": "Aishwarya Stores",
        "shop": "department_store"
      }
    },
    {
      "type": "node",
      "id": 10213547228,
      "lat": 12.9094562,
      "lon": 77.6871514,
      "tags": {
        "amenity": "parking_entrance"
      }
    },
    {
      "type": "node",
      "id": 10242924672,
      "lat": 12.909,
      "lon": 77.695,
      "tags": {
        "amenity": "recycling",
        "recycling_type": "centre"
      }
    },
    {
      "type": "node",
      "id": 10564184364,
      "lat": 12.9107639,
      "lon": 77.6982487,
      "tags": {
        "amenity": "school",
        "check_date": "2023-01-18",
        "name": "Anjadari High School",
        "source": "survey"
      }
    },
    {
      "type": "node",
      "id": 10564184365,
      "lat": 12.9121316,
      "lon": 77.6981917,
      "tags": {
        "amenity": "place_of_worship",
        "check_date": "2023-01-18",
        "religion": "hindu",
        "source": "survey"
      }
    },
    {
      "type": "node",
      "id": 10564184366,
      "lat": 12.9130116,
      "lon": 77.6985546,
      "tags": {
        "amenity": "atm",
        "brand": "HDFC Bank",
        "brand:wikidata": "Q631047",
        "cash_in": "no",
        "check_date": "2023-01-18",
        "name": "HDFC Bank",
        "name:kn": "ಎಚ್ ಡಿ ಎಫ್ ಸಿ",
        "operator": "HDFC Bank",
        "operator:wikidata": "Q631047",
        "short_name": "HDFC",
        "source": "survey"
      }
    },
    {
      "type": "node",
      "id": 10564871673,
      "lat": 12.9107638,
      "lon": 77.6982487,
      "tags": {
        "amenity": "school",
        "check_date": "2023-01-18",
        "name": "Anjanadri High School",
        "source": "survey"
      }
    },
    {
      "type": "node",
      "id": 11331522313,
      "lat": 12.9106359,
      "lon": 77.6976886,
      "tags": {
        "amenity": "restaurant",
        "name": "Dua's Cafe"
      }
    },
    {
      "type": "node",
      "id": 11331531159,
      "lat": 12.9091988,
      "lon": 77.6874954,
      "tags": {
        "name": "Fashion factory",
        "shop": "clothes"
      }
    },
    {
      "type": "node",
      "id": 11331554718,
      "lat": 12.9094628,
      "lon": 77.6967958,
      "tags": {
        "name": "Khwaja chicken and mutton center",
        "shop": "butcher"
      }
    },
    {
      "type": "node",
      "id": 11331558121,
      "lat": 12.9065641,
      "lon": 77.6973371,
      "tags": {
        "amenity": "pharmacy"
      }
    },
    {
      "type": "node",
      "id": 11331566570,
      "lat": 12.9071716,
      "lon": 77.6946409,
      "tags": {
        "brand": "Puma",
        "brand:wikidata": "Q157064",
        "name": "Puma",
        "shop": "clothes",
        "wheelchair": "limited"
      }
    },
    {
      "type": "node",
      "id": 11331571935,
      "lat": 12.9086344,
      "lon": 77.6957844,
      "tags": {
        "name": "Famous Bakery",
        "shop": "bakery"
      }
    },
    {
      "type": "node",
      "id": 11543746970,
      "lat": 12.9157393,
      "lon": 77.6905368,
      "tags": {
        "amenity": "shelter",
        "shelter_type": "gazebo"
      }
    },
    {
      "type": "node",
      "id": 11543746971,
      "lat": 12.9155114,
      "lon": 77.6901058,
      "tags": {
        "amenity": "shelter",
        "shelter_type": "gazebo"
      }
    },
    {
      "type": "node",
      "id": 11554647404,
      "lat": 12.9120413,
      "lon": 77.6954734,
      "tags": {
        "amenity": "shelter",
        "shelter_type": "gazebo"
      }
    },
    {
      "type": "node",
      "id": 12153688825,
      "lat": 12.9022414,
      "lon": 77.6978441,
      "tags": {
        "access": "private",
        "amenity": "parking_entrance",
        "parking": "underground"
      }
    },
    {
      "type": "node",
      "id": 12168564053,
      "lat": 12.9088598,
      "lon": 77.6886812,
      "tags": {
        "addr:city": "Rainbow Drive, Doddakannelli",
        "addr:district": "Bengaluru",
        "addr:housenumber": "138/52",
        "addr:postcode": "560035",
        "addr:street": "Sarjapur Main Rd",
        "amenity": "pub",
        "diet:non-vegetarian": "yes",
        "diet:vegetarian": "yes",
        "email": "connect@frothytales.com",
        "microbrewery": "yes",
        "mobile": "09036690900",
        "name": "The Bier Library",
        "opening_hours": "Mo-Su 12:00-1:00",
        "website": "https://www.thebierlibrary.in/",
        "website:menu": "https://www.thebierlibrary.in/copy-of-koramanagala-menu"
      }
    },
    {
      "type": "node",
      "id": 12430264398,
      "lat": 12.9161042,
      "lon": 77.6910835,
      "tags": {
        "access": "private",
        "amenity": "parking_entrance"
      }
    },
    {
      "type": "node",
      "id": 12430264399,
      "lat": 12.9160946,
      "lon": 77.6907512,
      "tags": {
        "access": "private",
        "amenity": "parking_entrance"
      }
    },
    {
      "type": "node",
      "id": 12443761636,
      "lat": 12.9160575,
      "lon": 77.6973956,
      "tags": {
        "amenity": "parking_entrance"
      }
    },
    {
      "type": "node",
      "id": 12461000332,
      "lat": 12.907107,
      "lon": 77.6945977,
      "tags": {
        "amenity": "restaurant",
        "contact:facebook": "pastastreet",
        "contact:instagram": "pasta.street",
        "cuisine": "pasta",
        "email": "info@pastastreet.co.in",
        "name": "Pasta Street",
        "phone": "+91 9266844026",
        "website": "https://pastastreet.co.in/"
      }
    },
    {
      "type": "node",
      "id": 12477899295,
      "lat": 12.9059823,
      "lon": 77.6956785,
      "tags": {
        "access": "private",
        "amenity": "parking_entrance",
        "parking": "underground"
      }
    },
    {
      "type": "node",
      "id": 12506336276,
      "lat": 12.9024261,
      "lon": 77.6984517,
      "tags": {
        "access": "private",
        "amenity": "parking_entrance",
        "parking": "underground"
      }
    },
    {
      "type": "node",
      "id": 12506336283,
      "lat": 12.9019355,
      "lon": 77.6980693,
      "tags": {
        "access": "private",
        "amenity": "parking_entrance",
        "parking": "underground"
      }
    },
    {
      "type": "node",
      "id": 12553383591,
      "lat": 12.9158584,
      "lon": 77.6989689,
      "tags": {
        "amenity": "pharmacy",
        "healthcare": "pharmacy",
        "name": "Ramadev Medical"
      }
    },
    {
      "type": "node",
      "id": 12862846442,
      "lat": 12.9098354,
      "lon": 77.685877,
      "tags": {
        "amenity": "fast_food",
        "cuisine": "burger",
        "delivery": "yes",
        "name": "Boss Burger",
        "takeaway": "yes"
      }
    },
    {
      "type": "node",
      "id": 12862846464,
      "lat": 12.9091794,
      "lon": 77.6877574,
      "tags": {
        "amenity": "fast_food",
        "cuisine": "burger",
        "delivery": "yes",
        "name": "Easy Bites by Empire",
        "takeaway": "yes"
      }
    },
    {
      "type": "node",
      "id": 13095683976,
      "lat": 12.9102308,
      "lon": 77.6865792,
      "tags": {
        "name": "Snitch",
        "shop": "clothes"
      }
    },
    {
      "type": "node",
      "id": 13095683977,
      "lat": 12.9102517,
      "lon": 77.6865068,
      "tags": {
        "name": "Mochi",
        "shop": "shoes"
      }
    },
    {
      "type": "node",
      "id": 13095683978,
      "lat": 12.9101746,
      "lon": 77.6867831,
      "tags": {
        "name": "The Souled Store",
        "shop": "clothes"
      }
    },
    {
      "type": "node",
      "id": 13130383291,
      "lat": 12.9026483,
      "lon": 77.6985204,
      "tags": {
        "access": "private",
        "amenity": "parking_entrance",
        "parking": "underground"
      }
    },
    {
      "type": "node",
      "id": 13130383344,
      "lat": 12.9047385,
      "lon": 77.6987236,
      "tags": {
        "access": "private",
        "amenity": "parking_entrance",
        "parking": "underground"
      }
    },
    {
      "type": "node",
      "id": 13130383348,
      "lat": 12.9037261,
      "lon": 77.6984493,
      "tags": {
        "access": "private",
        "amenity": "parking_entrance",
        "parking": "underground"
      }
    },
    {
      "type": "node",
      "id": 13130383349,
      "lat": 12.902981,
      "lon": 77.6980544,
      "tags": {
        "access": "private",
        "amenity": "parking_entrance",
        "parking": "underground"
      }
    },
    {
      "type": "node",
      "id": 13130383381,
      "lat": 12.9036405,
      "lon": 77.6979538,
      "tags": {
        "access": "private",
        "amenity": "parking_entrance",
        "parking": "underground"
      }
    },
    {
      "type": "node",
      "id": 13130383425,
      "lat": 12.9054614,
      "lon": 77.6982723,
      "tags": {
        "access": "private",
        "amenity": "parking_entrance",
        "parking": "underground"
      }
    },
    {
      "type": "node",
      "id": 13132310762,
      "lat": 12.9042683,
      "lon": 77.6967012,
      "tags": {
        "access": "private",
        "amenity": "parking_entrance",
        "parking": "underground"
      }
    },
    {
      "type": "node",
      "id": 13134721567,
      "lat": 12.906353,
      "lon": 77.6934919,
      "tags": {
        "access": "private",
        "amenity": "parking_entrance",
        "parking": "underground"
      }
    },
    {
      "type": "node",
      "id": 13134721568,
      "lat": 12.9057837,
      "lon": 77.6936569,
      "tags": {
        "access": "private",
        "amenity": "parking_entrance",
        "parking": "underground"
      }
    },
    {
      "type": "node",
      "id": 13342107303,
      "lat": 12.9075051,
      "lon": 77.6949889,
      "tags": {
        "addr:floor": "G",
        "amenity": "toilets",
        "check_date": "2025-11-30",
        "fee": "yes",
        "level": "0"
      }
    },
    {
      "type": "way",
      "id": 469397582,
      "center": {
        "lat": 12.9078506,
        "lon": 77.6877872
      },
      "tags": {
        "leisure": "park",
        "name": "Rainbow Drive Park"
      }
    },
    {
      "type": "way",
      "id": 469397583,
      "center": {
        "lat": 12.9075741,
        "lon": 77.687967
      },
      "tags": {
        "leisure": "playground",
        "name": "Rainbow Drive Playground"
      }
    },
    {
      "type": "way",
      "id": 541939220,
      "center": {
        "lat": 12.9098789,
        "lon": 77.6878514
      },
      "tags": {
        "addr:city": "Bangalore",
        "addr:housenumber": "12, Doddakannelli Varthur Hobli, 83, Off Sarjapur Road, Kaikondrahalli",
        "addr:postcode": "560035",
        "addr:street": "Sarjapur Road",
        "amenity": "fuel",
        "brand": "Hindustan Petroleum",
        "brand:wikidata": "Q1619375",
        "compressed_air": "yes",
        "name": "HP Petrol Pump",
        "name:kn": "ಹಿಂದುಸ್ತಾನ್ ಪೆಟ್ರೋಲಿಯಂ",
        "official_name": "Hindustan Petroleum",
        "operator": "R P Enterprises"
      }
    },
    {
      "type": "way",
      "id": 609233865,
      "center": {
        "lat": 12.9074506,
        "lon": 77.687685
      },
      "tags": {
        "access": "private",
        "leisure": "swimming_pool"
      }
    },
    {
      "type": "way",
      "id": 609986168,
      "center": {
        "lat": 12.9074888,
        "lon": 77.6954754
      },
      "tags": {
        "amenity": "post_office",
        "building": "yes",
        "name": "Carmelaram",
        "name:kn": "ಕಾರ್ಮೆಲರಂ"
      }
    },
    {
      "type": "way",
      "id": 609989203,
      "center": {
        "lat": 12.906647,
        "lon": 77.6904788
      },
      "tags": {
        "building": "yes",
        "name": "SLV Provisional Store",
        "shop": "convenience"
      }
    },
    {
      "type": "way",
      "id": 609989212,
      "center": {
        "lat": 12.9034659,
        "lon": 77.6922948
      },
      "tags": {
        "leisure": "sports_centre",
        "name": "Sol Sports Academy",
        "sport": "tennis"
      }
    },
    {
      "type": "way",
      "id": 609990482,
      "center": {
        "lat": 12.9098309,
        "lon": 77.6964706
      },
      "tags": {
        "amenity": "school",
        "name": "Sri Chaitanya PU and CBSE college"
      }
    },
    {
      "type": "way",
      "id": 613498860,
      "center": {
        "lat": 12.9105597,
        "lon": 77.6878514
      },
      "tags": {
        "leisure": "swimming_pool"
      }
    },
    {
      "type": "way",
      "id": 613499748,
      "center": {
        "lat": 12.9100494,
        "lon": 77.6857734
      },
      "tags": {
        "access": "customers",
        "amenity": "parking",
        "fee": "no",
        "parking": "surface",
        "surface": "compacted"
      }
    },
    {
      "type": "way",
      "id": 635317791,
      "center": {
        "lat": 12.9083259,
        "lon": 77.6924324
      },
      "tags": {
        "amenity": "fuel",
        "brand": "Indian Oil",
        "brand:wikidata": "Q1289348",
        "fuel:diesel": "yes",
        "fuel:petrol": "yes",
        "name": "Sree Kodandarama Petrol / Gas Station",
        "operator": "Indial Oil"
      }
    },
    {
      "type": "way",
      "id": 655045234,
      "center": {
        "lat": 12.8988691,
        "lon": 77.6941841
      },
      "tags": {
        "amenity": "school",
        "name": "Lake View PU College"
      }
    },
    {
      "type": "way",
      "id": 655045237,
      "center": {
        "lat": 12.8998155,
        "lon": 77.6950738
      },
      "tags": {
        "addr:city": "Bengaluru",
        "addr:postcode": "560035",
        "addr:street": "Doddakannelli-Chikkanayakana Halli Rd, Chikkakannalli",
        "amenity": "place_of_worship",
        "building": "yes",
        "name": "Sri Someshwara Swamy Temple",
        "religion": "hindu"
      }
    },
    {
      "type": "way",
      "id": 677359176,
      "center": {
        "lat": 12.9104305,
        "lon": 77.686067
      },
      "tags": {
        "amenity": "clinic",
        "description": "Multi speciality clinic. \n\nOn Sunday, only sample collection.",
        "name": "Narayana Multispeciality Clinic",
        "opening_hours": "Mo-Sa 07:30-19:30; Su 08:00-11:30"
      }
    },
    {
      "type": "way",
      "id": 691887314,
      "center": {
        "lat": 12.9092876,
        "lon": 77.6877863
      },
      "tags": {
        "amenity": "parking",
        "capacity": "5",
        "fee": "no",
        "parking": "surface",
        "surface": "paving_stones"
      }
    },
    {
      "type": "way",
      "id": 692376260,
      "center": {
        "lat": 12.906833,
        "lon": 77.6992781
      },
      "tags": {
        "leisure": "sports_centre",
        "name": "Simba Sports",
        "sport": "tennis;soccer"
      }
    },
    {
      "type": "way",
      "id": 917838861,
      "center": {
        "lat": 12.9072918,
        "lon": 77.6945472
      },
      "tags": {
        "access": "customers",
        "amenity": "parking",
        "parking": "surface",
        "surface": "paved"
      }
    },
    {
      "type": "way",
      "id": 917838862,
      "center": {
        "lat": 12.9081114,
        "lon": 77.6927367
      },
      "tags": {
        "access": "customers",
        "amenity": "parking",
        "parking": "surface"
      }
    },
    {
      "type": "way",
      "id": 918523254,
      "center": {
        "lat": 12.9092781,
        "lon": 77.6871883
      },
      "tags": {
        "brand": "Westside",
        "brand:wikidata": "Q123376384",
        "building": "retail",
        "name": "Westside",
        "shop": "clothes"
      }
    },
    {
      "type": "way",
      "id": 918523255,
      "center": {
        "lat": 12.9094718,
        "lon": 77.6872671
      },
      "tags": {
        "access": "customers",
        "amenity": "parking",
        "fee": "no",
        "parking": "surface",
        "surface": "paving_stones"
      }
    },
    {
      "type": "way",
      "id": 1056795653,
      "center": {
        "lat": 12.9166455,
        "lon": 77.6971296
      },
      "tags": {
        "access": "permissive",
        "leisure": "pitch",
        "lit": "yes",
        "sport": "soccer",
        "surface": "artificial_turf"
      }
    },
    {
      "type": "way",
      "id": 1066604767,
      "center": {
        "lat": 12.9029556,
        "lon": 77.6964037
      },
      "tags": {
        "leisure": "swimming_pool"
      }
    },
    {
      "type": "way",
      "id": 1070342527,
      "center": {
        "lat": 12.9048912,
        "lon": 77.7031121
      },
      "tags": {
        "leisure": "swimming_pool"
      }
    },
    {
      "type": "way",
      "id": 1070483756,
      "center": {
        "lat": 12.9060056,
        "lon": 77.6999816
      },
      "tags": {
        "amenity": "restaurant",
        "building": "yes",
        "name": "Bearful"
      }
    },
    {
      "type": "way",
      "id": 1113238530,
      "center": {
        "lat": 12.9094149,
        "lon": 77.6875155
      },
      "tags": {
        "access": "customers",
        "amenity": "parking",
        "fee": "no",
        "parking": "surface",
        "surface": "paving_stones"
      }
    },
    {
      "type": "way",
      "id": 1116730314,
      "center": {
        "lat": 12.9092724,
        "lon": 77.6872017
      },
      "tags": {
        "access": "customers",
        "amenity": "parking",
        "layer": "-1",
        "parking": "underground"
      }
    },
    {
      "type": "way",
      "id": 1150343736,
      "center": {
        "lat": 12.9056847,
        "lon": 77.7023584
      },
      "tags": {
        "access": "private",
        "leisure": "pitch",
        "sport": "tennis"
      }
    },
    {
      "type": "way",
      "id": 1150343737,
      "center": {
        "lat": 12.9064809,
        "lon": 77.7027201
      },
      "tags": {
        "access": "private",
        "leisure": "swimming_pool",
        "location": "outdoor",
        "swimming_pool": "outdoor"
      }
    },
    {
      "type": "way",
      "id": 1192698538,
      "center": {
        "lat": 12.9003859,
        "lon": 77.6943541
      },
      "tags": {
        "amenity": "school",
        "name": "NPS East, Sarjapur"
      }
    },
    {
      "type": "way",
      "id": 1192698539,
      "center": {
        "lat": 12.9072248,
        "lon": 77.7016529
      },
      "tags": {
        "leisure": "park"
      }
    },
    {
      "type": "way",
      "id": 1242285258,
      "center": {
        "lat": 12.9163445,
        "lon": 77.690017
      },
      "tags": {
        "leisure": "garden"
      }
    },
    {
      "type": "way",
      "id": 1243259759,
      "center": {
        "lat": 12.9116181,
        "lon": 77.6933008
      },
      "tags": {
        "leisure": "park"
      }
    },
    {
      "type": "way",
      "id": 1276040254,
      "center": {
        "lat": 12.9078623,
        "lon": 77.7012255
      },
      "tags": {
        "addr:housenumber": "20",
        "addr:postcode": "560035",
        "addr:street": "Uber Verdant phase 2",
        "amenity": "cafe",
        "building": "service",
        "cuisine": "regional",
        "name": "Uber Verdant Club House"
      }
    },
    {
      "type": "way",
      "id": 1315541055,
      "center": {
        "lat": 12.9037935,
        "lon": 77.6978778
      },
      "tags": {
        "access": "private",
        "leisure": "pitch",
        "sport": "tennis"
      }
    },
    {
      "type": "way",
      "id": 1315541056,
      "center": {
        "lat": 12.9029362,
        "lon": 77.6978709
      },
      "tags": {
        "access": "private",
        "leisure": "pitch",
        "sport": "basketball"
      }
    },
    {
      "type": "way",
      "id": 1315541467,
      "center": {
        "lat": 12.9023258,
        "lon": 77.69822
      },
      "tags": {
        "access": "private",
        "leisure": "swimming_pool"
      }
    },
    {
      "type": "way",
      "id": 1315541469,
      "center": {
        "lat": 12.9028067,
        "lon": 77.701324
      },
      "tags": {
        "access": "private",
        "leisure": "swimming_pool"
      }
    },
    {
      "type": "way",
      "id": 1324430511,
      "center": {
        "lat": 12.9145977,
        "lon": 77.6939166
      },
      "tags": {
        "leisure": "swimming_pool"
      }
    },
    {
      "type": "way",
      "id": 1324664369,
      "center": {
        "lat": 12.9158575,
        "lon": 77.6968413
      },
      "tags": {
        "access": "private",
        "amenity": "parking_space",
        "parking_space": "normal"
      }
    },
    {
      "type": "way",
      "id": 1324664382,
      "center": {
        "lat": 12.9151838,
        "lon": 77.697185
      },
      "tags": {
        "leisure": "swimming_pool"
      }
    },
    {
      "type": "way",
      "id": 1346336536,
      "center": {
        "lat": 12.9080843,
        "lon": 77.6956017
      },
      "tags": {
        "amenity": "place_of_worship",
        "building": "yes",
        "religion": "hindu"
      }
    },
    {
      "type": "way",
      "id": 1346337412,
      "center": {
        "lat": 12.9125564,
        "lon": 77.6986522
      },
      "tags": {
        "addr:city": "Janatha Colony",
        "addr:district": "Bengaluru Urban",
        "addr:housenumber": "6",
        "addr:postcode": "560035",
        "addr:street": "Doddakannelli - Kaadubeesanahalli Rd",
        "amenity": "bar",
        "building": "yes",
        "name": "M.R Bar and Restaurant"
      }
    },
    {
      "type": "way",
      "id": 1346575899,
      "center": {
        "lat": 12.9104215,
        "lon": 77.6996884
      },
      "tags": {
        "building": "commercial",
        "shop": "yes"
      }
    },
    {
      "type": "way",
      "id": 1346584941,
      "center": {
        "lat": 12.9108064,
        "lon": 77.6993729
      },
      "tags": {
        "amenity": "place_of_worship",
        "building": "yes",
        "religion": "hindu"
      }
    },
    {
      "type": "way",
      "id": 1346584943,
      "center": {
        "lat": 12.9110893,
        "lon": 77.6993662
      },
      "tags": {
        "amenity": "place_of_worship",
        "building": "yes",
        "religion": "hindu"
      }
    },
    {
      "type": "way",
      "id": 1346594259,
      "center": {
        "lat": 12.9143603,
        "lon": 77.6987401
      },
      "tags": {
        "building": "yes",
        "shop": "yes"
      }
    },
    {
      "type": "way",
      "id": 1347254917,
      "center": {
        "lat": 12.9135534,
        "lon": 77.70058
      },
      "tags": {
        "amenity": "place_of_worship",
        "building": "commercial",
        "religion": "hindu"
      }
    },
    {
      "type": "way",
      "id": 1347269028,
      "center": {
        "lat": 12.9114485,
        "lon": 77.6980217
      },
      "tags": {
        "building": "yes",
        "shop": "yes"
      }
    },
    {
      "type": "way",
      "id": 1347269029,
      "center": {
        "lat": 12.911369,
        "lon": 77.6979876
      },
      "tags": {
        "building": "yes",
        "shop": "yes"
      }
    },
    {
      "type": "way",
      "id": 1347269030,
      "center": {
        "lat": 12.9111484,
        "lon": 77.6978791
      },
      "tags": {
        "building": "yes",
        "shop": "yes"
      }
    },
    {
      "type": "way",
      "id": 1347269032,
      "center": {
        "lat": 12.9120224,
        "lon": 77.6984657
      },
      "tags": {
        "access": "yes",
        "amenity": "water_point",
        "fee": "no",
        "name": "Dr. Water",
        "operator": "Rotary Club"
      }
    },
    {
      "type": "way",
      "id": 1347278110,
      "center": {
        "lat": 12.9107975,
        "lon": 77.6976433
      },
      "tags": {
        "building": "yes",
        "shop": "yes"
      }
    },
    {
      "type": "way",
      "id": 1347278112,
      "center": {
        "lat": 12.9104679,
        "lon": 77.6976322
      },
      "tags": {
        "building": "yes",
        "shop": "yes"
      }
    },
    {
      "type": "way",
      "id": 1347482032,
      "center": {
        "lat": 12.9105345,
        "lon": 77.7022023
      },
      "tags": {
        "amenity": "place_of_worship",
        "building": "yes",
        "religion": "hindu"
      }
    },
    {
      "type": "way",
      "id": 1347515205,
      "center": {
        "lat": 12.9095578,
        "lon": 77.7028625
      },
      "tags": {
        "amenity": "fast_food",
        "brand": "Indira Canteen",
        "brand:wikidata": "Q36164828",
        "building": "yes",
        "cuisine": "south_indian",
        "name": "Indira Canteen",
        "operator": "BBMP",
        "takeaway": "yes"
      }
    },
    {
      "type": "way",
      "id": 1347516504,
      "center": {
        "lat": 12.9101716,
        "lon": 77.7008914
      },
      "tags": {
        "building": "yes",
        "shop": "butcher"
      }
    },
    {
      "type": "way",
      "id": 1347516516,
      "center": {
        "lat": 12.9098971,
        "lon": 77.7014926
      },
      "tags": {
        "building": "yes",
        "shop": "butcher"
      }
    },
    {
      "type": "way",
      "id": 1347716540,
      "center": {
        "lat": 12.9085938,
        "lon": 77.6922381
      },
      "tags": {
        "addr:city": "Bengaluru",
        "addr:housenumber": "120",
        "addr:postcode": "560035",
        "addr:street": "Sarjapur Main Road,Carmelaram, Rajeevgandi Layout, Doddakannelli",
        "building": "yes",
        "name": "Pratham Motors-NEXA",
        "shop": "car"
      }
    },
    {
      "type": "way",
      "id": 1347716560,
      "center": {
        "lat": 12.9096194,
        "lon": 77.6962986
      },
      "tags": {
        "leisure": "pitch"
      }
    },
    {
      "type": "way",
      "id": 1363520053,
      "center": {
        "lat": 12.9095904,
        "lon": 77.6881255
      },
      "tags": {
        "access": "customers",
        "amenity": "parking",
        "parking": "surface"
      }
    },
    {
      "type": "way",
      "id": 1428219885,
      "center": {
        "lat": 12.9063953,
        "lon": 77.7028847
      },
      "tags": {
        "access": "private",
        "leisure": "playground"
      }
    },
    {
      "type": "way",
      "id": 1428219886,
      "center": {
        "lat": 12.9063355,
        "lon": 77.7030059
      },
      "tags": {
        "access": "private",
        "leisure": "pitch",
        "sport": "soccer"
      }
    },
    {
      "type": "way",
      "id": 1428219887,
      "center": {
        "lat": 12.9079347,
        "lon": 77.7034455
      },
      "tags": {
        "access": "private",
        "leisure": "pitch",
        "sport": "basketball"
      }
    },
    {
      "type": "way",
      "id": 1428219902,
      "center": {
        "lat": 12.908464,
        "lon": 77.7037132
      },
      "tags": {
        "access": "private",
        "leisure": "playground"
      }
    },
    {
      "type": "way",
      "id": 1428219903,
      "center": {
        "lat": 12.9084983,
        "lon": 77.7034675
      },
      "tags": {
        "access": "private",
        "leisure": "swimming_pool"
      }
    },
    {
      "type": "way",
      "id": 1428219904,
      "center": {
        "lat": 12.9085852,
        "lon": 77.7032753
      },
      "tags": {
        "access": "private",
        "leisure": "pitch",
        "sport": "tennis;volleyball"
      }
    },
    {
      "type": "way",
      "id": 1428219918,
      "center": {
        "lat": 12.9081808,
        "lon": 77.7035442
      },
      "tags": {
        "access": "private",
        "leisure": "playground"
      }
    },
    {
      "type": "way",
      "id": 1428219954,
      "center": {
        "lat": 12.9035063,
        "lon": 77.6985918
      },
      "tags": {
        "access": "private",
        "amenity": "parking",
        "parking": "surface"
      }
    },
    {
      "type": "way",
      "id": 1428219955,
      "center": {
        "lat": 12.9041872,
        "lon": 77.6984715
      },
      "tags": {
        "access": "private",
        "amenity": "parking",
        "parking": "surface"
      }
    },
    {
      "type": "way",
      "id": 1428219956,
      "center": {
        "lat": 12.9041377,
        "lon": 77.6985602
      },
      "tags": {
        "leisure": "pitch",
        "sport": "chess"
      }
    },
    {
      "type": "way",
      "id": 1428219957,
      "center": {
        "lat": 12.9038271,
        "lon": 77.6985509
      },
      "tags": {
        "access": "private",
        "leisure": "playground"
      }
    },
    {
      "type": "way",
      "id": 1428219958,
      "center": {
        "lat": 12.9044351,
        "lon": 77.6986054
      },
      "tags": {
        "access": "private",
        "leisure": "playground"
      }
    },
    {
      "type": "way",
      "id": 1428219962,
      "center": {
        "lat": 12.9032592,
        "lon": 77.6978112
      },
      "tags": {
        "access": "private",
        "leisure": "playground"
      }
    },
    {
      "type": "way",
      "id": 1428219963,
      "center": {
        "lat": 12.9034823,
        "lon": 77.6977982
      },
      "tags": {
        "access": "private",
        "leisure": "pitch",
        "sport": "cricket_nets"
      }
    },
    {
      "type": "way",
      "id": 1428219964,
      "center": {
        "lat": 12.9034169,
        "lon": 77.6979398
      },
      "tags": {
        "access": "private",
        "leisure": "pitch",
        "sport": "cricket"
      }
    },
    {
      "type": "way",
      "id": 1428219966,
      "center": {
        "lat": 12.9041425,
        "lon": 77.6979009
      },
      "tags": {
        "access": "private",
        "leisure": "pitch",
        "sport": "volleyball"
      }
    },
    {
      "type": "way",
      "id": 1428219967,
      "center": {
        "lat": 12.9047284,
        "lon": 77.6980487
      },
      "tags": {
        "access": "private",
        "leisure": "park"
      }
    },
    {
      "type": "way",
      "id": 1428220005,
      "center": {
        "lat": 12.9055762,
        "lon": 77.7025679
      },
      "tags": {
        "access": "private",
        "hoops": "1",
        "leisure": "pitch",
        "sport": "basketball"
      }
    },
    {
      "type": "way",
      "id": 1428220006,
      "center": {
        "lat": 12.9055326,
        "lon": 77.7023196
      },
      "tags": {
        "access": "private",
        "leisure": "pitch",
        "sport": "volleyball"
      }
    },
    {
      "type": "way",
      "id": 1428220007,
      "center": {
        "lat": 12.9056323,
        "lon": 77.7022541
      },
      "tags": {
        "access": "private",
        "leisure": "pitch",
        "sport": "cricket_nets"
      }
    },
    {
      "type": "way",
      "id": 1428220008,
      "center": {
        "lat": 12.9059263,
        "lon": 77.7007344
      },
      "tags": {
        "access": "private",
        "leisure": "swimming_pool"
      }
    },
    {
      "type": "way",
      "id": 1428220015,
      "center": {
        "lat": 12.9060611,
        "lon": 77.7018614
      },
      "tags": {
        "access": "private",
        "leisure": "swimming_pool"
      }
    },
    {
      "type": "way",
      "id": 1428290351,
      "center": {
        "lat": 12.9073687,
        "lon": 77.6993844
      },
      "tags": {
        "access": "private",
        "amenity": "theatre",
        "theatre:type": "amphi"
      }
    },
    {
      "type": "way",
      "id": 1428290352,
      "center": {
        "lat": 12.9070525,
        "lon": 77.699332
      },
      "tags": {
        "access": "private",
        "leisure": "pitch",
        "sport": "basketball"
      }
    },
    {
      "type": "way",
      "id": 1428290353,
      "center": {
        "lat": 12.9071848,
        "lon": 77.6992374
      },
      "tags": {
        "access": "private",
        "leisure": "pitch",
        "sport": "tennis"
      }
    },
    {
      "type": "way",
      "id": 1428290354,
      "center": {
        "lat": 12.907391,
        "lon": 77.6992951
      },
      "tags": {
        "access": "private",
        "leisure": "playground"
      }
    },
    {
      "type": "way",
      "id": 1428290355,
      "center": {
        "lat": 12.9071211,
        "lon": 77.7000654
      },
      "tags": {
        "access": "private",
        "leisure": "swimming_pool"
      }
    },
    {
      "type": "way",
      "id": 1428290356,
      "center": {
        "lat": 12.9019658,
        "lon": 77.7001662
      },
      "tags": {
        "access": "private",
        "leisure": "swimming_pool"
      }
    },
    {
      "type": "way",
      "id": 1428290369,
      "center": {
        "lat": 12.9017943,
        "lon": 77.7002394
      },
      "tags": {
        "access": "private",
        "leisure": "playground"
      }
    },
    {
      "type": "way",
      "id": 1428347348,
      "center": {
        "lat": 12.9059051,
        "lon": 77.6964612
      },
      "tags": {
        "access": "private",
        "leisure": "swimming_pool"
      }
    },
    {
      "type": "way",
      "id": 1428438372,
      "center": {
        "lat": 12.9058364,
        "lon": 77.6957905
      },
      "tags": {
        "access": "private",
        "leisure": "pitch",
        "sport": "badminton"
      }
    },
    {
      "type": "way",
      "id": 1428438373,
      "center": {
        "lat": 12.9058151,
        "lon": 77.696269
      },
      "tags": {
        "access": "private",
        "leisure": "playground"
      }
    },
    {
      "type": "way",
      "id": 1428438401,
      "center": {
        "lat": 12.9043451,
        "lon": 77.6968665
      },
      "tags": {
        "access": "private",
        "leisure": "park"
      }
    },
    {
      "type": "way",
      "id": 1428438418,
      "center": {
        "lat": 12.9042593,
        "lon": 77.6965173
      },
      "tags": {
        "access": "private",
        "leisure": "playground"
      }
    },
    {
      "type": "way",
      "id": 1428438419,
      "center": {
        "lat": 12.9045285,
        "lon": 77.6970509
      },
      "tags": {
        "access": "private",
        "leisure": "pitch",
        "sport": "tennis"
      }
    },
    {
      "type": "way",
      "id": 1428438462,
      "center": {
        "lat": 12.904304,
        "lon": 77.697019
      },
      "tags": {
        "access": "private",
        "leisure": "swimming_pool"
      }
    },
    {
      "type": "way",
      "id": 1428438463,
      "center": {
        "lat": 12.9042442,
        "lon": 77.6968975
      },
      "tags": {
        "access": "private",
        "leisure": "pitch",
        "sport": "basketball"
      }
    },
    {
      "type": "way",
      "id": 1428438473,
      "center": {
        "lat": 12.9032402,
        "lon": 77.6962149
      },
      "tags": {
        "access": "private",
        "leisure": "playground"
      }
    },
    {
      "type": "way",
      "id": 1428438474,
      "center": {
        "lat": 12.9032775,
        "lon": 77.6966788
      },
      "tags": {
        "access": "private",
        "leisure": "swimming_pool"
      }
    },
    {
      "type": "way",
      "id": 1428438491,
      "center": {
        "lat": 12.9028208,
        "lon": 77.6964864
      },
      "tags": {
        "access": "private",
        "leisure": "pitch",
        "sport": "tennis"
      }
    },
    {
      "type": "way",
      "id": 1428438492,
      "center": {
        "lat": 12.9028568,
        "lon": 77.6967034
      },
      "tags": {
        "access": "private",
        "leisure": "playground"
      }
    },
    {
      "type": "way",
      "id": 1428438493,
      "center": {
        "lat": 12.901868,
        "lon": 77.6962449
      },
      "tags": {
        "access": "private",
        "leisure": "swimming_pool"
      }
    },
    {
      "type": "way",
      "id": 1428811902,
      "center": {
        "lat": 12.9072425,
        "lon": 77.6890107
      },
      "tags": {
        "access": "private",
        "leisure": "swimming_pool"
      }
    },
    {
      "type": "way",
      "id": 1428811903,
      "center": {
        "lat": 12.9073133,
        "lon": 77.6885763
      },
      "tags": {
        "access": "private",
        "leisure": "pitch",
        "sport": "tennis"
      }
    },
    {
      "type": "way",
      "id": 1428811904,
      "center": {
        "lat": 12.9074258,
        "lon": 77.6885253
      },
      "tags": {
        "access": "private",
        "leisure": "pitch",
        "sport": "basketball"
      }
    },
    {
      "type": "way",
      "id": 1428811905,
      "center": {
        "lat": 12.9079428,
        "lon": 77.6881852
      },
      "tags": {
        "access": "private",
        "leisure": "pitch",
        "sport": "basketball"
      }
    },
    {
      "type": "way",
      "id": 1428811906,
      "center": {
        "lat": 12.9076095,
        "lon": 77.6882881
      },
      "tags": {
        "access": "private",
        "leisure": "pitch",
        "sport": "tennis"
      }
    },
    {
      "type": "way",
      "id": 1428811907,
      "center": {
        "lat": 12.9073645,
        "lon": 77.6891773
      },
      "tags": {
        "access": "private",
        "leisure": "playground"
      }
    },
    {
      "type": "way",
      "id": 1428811909,
      "center": {
        "lat": 12.9076699,
        "lon": 77.6903166
      },
      "tags": {
        "access": "private",
        "leisure": "swimming_pool"
      }
    },
    {
      "type": "way",
      "id": 1428811948,
      "center": {
        "lat": 12.9051162,
        "lon": 77.6906965
      },
      "tags": {
        "access": "private",
        "leisure": "swimming_pool"
      }
    },
    {
      "type": "way",
      "id": 1428811952,
      "center": {
        "lat": 12.9050355,
        "lon": 77.6912121
      },
      "tags": {
        "access": "private",
        "leisure": "pitch",
        "sport": "tennis"
      }
    },
    {
      "type": "way",
      "id": 1428811953,
      "center": {
        "lat": 12.9050073,
        "lon": 77.691099
      },
      "tags": {
        "access": "private",
        "leisure": "playground"
      }
    },
    {
      "type": "way",
      "id": 1428811957,
      "center": {
        "lat": 12.9041746,
        "lon": 77.6929607
      },
      "tags": {
        "access": "private",
        "leisure": "playground"
      }
    },
    {
      "type": "way",
      "id": 1428812044,
      "center": {
        "lat": 12.9053752,
        "lon": 77.6917105
      },
      "tags": {
        "access": "private",
        "leisure": "swimming_pool"
      }
    },
    {
      "type": "way",
      "id": 1428812052,
      "center": {
        "lat": 12.9047774,
        "lon": 77.6932103
      },
      "tags": {
        "leisure": "pitch",
        "sport": "tennis"
      }
    },
    {
      "type": "way",
      "id": 1428812112,
      "center": {
        "lat": 12.906553,
        "lon": 77.6938006
      },
      "tags": {
        "access": "private",
        "leisure": "pitch",
        "sport": "basketball"
      }
    },
    {
      "type": "way",
      "id": 1428812113,
      "center": {
        "lat": 12.9067616,
        "lon": 77.6937546
      },
      "tags": {
        "access": "private",
        "leisure": "park"
      }
    },
    {
      "type": "way",
      "id": 1428812114,
      "center": {
        "lat": 12.9066736,
        "lon": 77.693803
      },
      "tags": {
        "access": "private",
        "leisure": "playground"
      }
    },
    {
      "type": "way",
      "id": 1428812117,
      "center": {
        "lat": 12.9053774,
        "lon": 77.6925257
      },
      "tags": {
        "access": "private",
        "leisure": "playground"
      }
    }
  ]
}