{
  "area_name": "Doddigunta",
  "osm_id": 10293831867,
  "osm_type": "node",
  "place_type": "neighbourhood",
  "amenity_count": 325,
  "amenities": [
    {
      "type": "node",
      "id": 343089650,
      "lat": 12.9915471,
      "lon": 77.614181,
      "tags": {
        "addr:housenumber": "# 1/2",
        "addr:postcode": "560005",
        "addr:street": "Wheeler Road",
        "name": "Thom's Bakery",
        "name:ar": "دكان كبير",
        "name:kn": "ಥಾಮ್ಸ್ ಬೇಕರಿ",
        "shop": "bakery"
      }
    },
    {
      "type": "node",
      "id": 1442052879,
      "lat": 13.0004021,
      "lon": 77.6233737,
      "tags": {
        "amenity": "atm",
        "brand": "State Bank of India",
        "brand:wikidata": "Q1340361",
        "operator": "State Bank of India",
        "operator:wikidata": "Q1340361",
        "short_name": "SBI",
        "toilets:wheelchair": "no",
        "wheelchair": "yes"
      }
    },
    {
      "type": "node",
      "id": 1442053943,
      "lat": 12.9999497,
      "lon": 77.6229731,
      "tags": {
        "amenity": "restaurant",
        "cuisine": "chinese",
        "name": "Delicacy Chinese Restaurant",
        "name:kn": "ಡೆಲಿಕಸಿ ಚೈನೀಸ್ ರೆಸ್ಟೋರಂಟ್",
        "toilets:wheelchair": "no",
        "wheelchair": "limited"
      }
    },
    {
      "type": "node",
      "id": 1469266908,
      "lat": 12.992426,
      "lon": 77.6135802,
      "tags": {
        "amenity": "school",
        "check_date": "2024-12-14",
        "name": "St. Joseph's Convent Girls High School"
      }
    },
    {
      "type": "node",
      "id": 1469267174,
      "lat": 12.9938162,
      "lon": 77.6144766,
      "tags": {
        "amenity": "school",
        "name": "Holy Angel's High School",
        "name:kn": "ಹೋಲಿ ಎಂಜೆಲ್ಸ್ ಪ್ರೌಢಶಾಲೆ"
      }
    },
    {
      "type": "node",
      "id": 1469267177,
      "lat": 12.9926871,
      "lon": 77.6141548,
      "tags": {
        "amenity": "school",
        "name": "RTC Girls High School"
      }
    },
    {
      "type": "node",
      "id": 1469274353,
      "lat": 12.9947968,
      "lon": 77.6152664,
      "tags": {
        "amenity": "bank",
        "atm": "yes",
        "brand": "ICICI Bank",
        "brand:wikidata": "Q1653258",
        "name": "ICICI Bank",
        "name:en": "ICICI Bank",
        "name:kn": "ಐಸಿಐಸಿಐ ಬ್ಯಾಂಕು",
        "short_name": "ICICI",
        "website": "https://www.icicibank.com"
      }
    },
    {
      "type": "node",
      "id": 1469274356,
      "lat": 12.9946747,
      "lon": 77.6150372,
      "tags": {
        "amenity": "pub",
        "name": "Sherlock's Pub",
        "name:kn": "ಶೆರ್‌ಲಾಕ್ ಹೋಮ್ಸ್ ಬಾರ್ ಹಾಗು ರೆಸ್ಟೊರೆಂಟ್"
      }
    },
    {
      "type": "node",
      "id": 1469282330,
      "lat": 12.9960742,
      "lon": 77.6170891,
      "tags": {
        "amenity": "restaurant",
        "name": "Komala Refreshment",
        "name:kn": "ಕೊಮಲ ರಿಫ್ರೆಶ್‌ಮೆಂಟ್"
      }
    },
    {
      "type": "node",
      "id": 1469314053,
      "lat": 12.9965077,
      "lon": 77.6220456,
      "tags": {
        "amenity": "hospital",
        "name": "Srinivasa Nursing Home"
      }
    },
    {
      "type": "node",
      "id": 1469314069,
      "lat": 12.9963828,
      "lon": 77.6202753,
      "tags": {
        "amenity": "bank",
        "name": "Vijaya Bank",
        "name:kn": "ವಿಜಯ ಬ್ಯಾಂಕು"
      }
    },
    {
      "type": "node",
      "id": 1469320276,
      "lat": 12.9950065,
      "lon": 77.6202748,
      "tags": {
        "amenity": "place_of_worship",
        "name": "Mouna Guru Swamy Mutt and Temple",
        "religion": "hindu"
      }
    },
    {
      "type": "node",
      "id": 1469320280,
      "lat": 12.9969092,
      "lon": 77.6198773,
      "tags": {
        "amenity": "bank",
        "brand": "Axis Bank",
        "brand:wikidata": "Q2003549",
        "brand:wikipedia": "en:Axis Bank",
        "name": "Axis Bank",
        "name:en": "Axis Bank",
        "name:kn": "ಅಕ್ಸಿಸ್ ಬ್ಯಾಂಕ್",
        "website": "https://www.axisbank.com"
      }
    },
    {
      "type": "node",
      "id": 1469320296,
      "lat": 12.9975424,
      "lon": 77.6225532,
      "tags": {
        "amenity": "place_of_worship",
        "name": "Sri Varasiddhi Vinayaka Temple",
        "name:kn": "ವರಸಿದ್ದಿ ವಿನಾಯಕ ದೇವಸ್ಥಾನ",
        "religion": "hindu",
        "toilets:wheelchair": "no",
        "wheelchair": "yes"
      }
    },
    {
      "type": "node",
      "id": 1474170030,
      "lat": 12.9954523,
      "lon": 77.6138486,
      "tags": {
        "addr:city": "Bengaluru",
        "addr:housenumber": "66/1",
        "addr:postcode": "560005",
        "addr:street": "Coles Road",
        "addr:suburb": "Fraser Town",
        "amenity": "restaurant",
        "branch": "Coles Road",
        "brand": "Pizza Hut",
        "brand:wikidata": "Q191615",
        "check_date": "2024-06-15",
        "cuisine": "pizza",
        "name": "Pizza Hut",
        "name:kn": "ಪಿಜ್ಜಾ ಹಟ್",
        "website": "https://www.pizzahut.co.in/"
      }
    },
    {
      "type": "node",
      "id": 1474195340,
      "lat": 12.9963445,
      "lon": 77.6157181,
      "tags": {
        "addr:housename": "Aziz Gold Building",
        "addr:housenumber": "13",
        "addr:postcode": "560005",
        "addr:street": "Mosque Road",
        "amenity": "fast_food",
        "brand": "McDonald's",
        "brand:pa": "ਮੈਕਡੋਨਲਡ’ਜ਼",
        "brand:ur": "مکڈونلڈز",
        "brand:wikidata": "Q38076",
        "brand:wikipedia": "en:McDonald's",
        "brand:wikipedia:pa": "ਮੈਕਡੋਨਲਡ’ਜ਼",
        "brand:wikipedia:ur": "مکڈونلڈز",
        "cuisine": "burger",
        "name": "McDonald's",
        "name:kn": "ಮ್ಯಾಕ್‌ಡೊನಾಲ್ಡ್ಸ್",
        "name:pa": "ਮੈਕਡੋਨਲਡ’ਜ਼",
        "name:ur": "مکڈونلڈز",
        "takeaway": "yes"
      }
    },
    {
      "type": "node",
      "id": 1474195346,
      "lat": 12.9954036,
      "lon": 77.6139103,
      "tags": {
        "amenity": "fast_food",
        "name": "Ganesha Fruit Juice Center",
        "name:kn": "ಗಣೇಶ ಫ್ರೂಟ್ ಜ್ಯೂಸ್ ಸೆಂಟರ್"
      }
    },
    {
      "type": "node",
      "id": 1851797681,
      "lat": 13.0013558,
      "lon": 77.6235851,
      "tags": {
        "name": "Basha Department Store",
        "name:kn": "ಬಾಷ ಡಿಪಾರ್ಟ್ಮೆಂಟ್ ಸ್ಟೋರ್",
        "shop": "supermarket",
        "toilets:wheelchair": "no",
        "wheelchair": "no"
      }
    },
    {
      "type": "node",
      "id": 1851799046,
      "lat": 13.001197,
      "lon": 77.6240601,
      "tags": {
        "brand": "HOPCOMS",
        "brand:wikidata": "Q22908959",
        "name": "HOPCOMS",
        "name:kn": "ಹಾಪ್‌ಕಾಮ್ಸ್",
        "shop": "greengrocer"
      }
    },
    {
      "type": "node",
      "id": 1852659127,
      "lat": 12.9966824,
      "lon": 77.6193965,
      "tags": {
        "amenity": "fuel",
        "brand": "Indian Oil",
        "brand:wikidata": "Q1289348",
        "compressed_air": "yes",
        "name": "Indian Oil"
      }
    },
    {
      "type": "node",
      "id": 1852660681,
      "lat": 12.9965335,
      "lon": 77.6190505,
      "tags": {
        "name": "Mandovi Motors",
        "shop": "car"
      }
    },
    {
      "type": "node",
      "id": 1852663951,
      "lat": 12.9875167,
      "lon": 77.6203112,
      "tags": {
        "amenity": "place_of_worship",
        "name": "Raghavendra Swami Mutt",
        "name:kn": "ರಾಘವೇಂದ್ರ ಸ್ವಾಮಿ ಮಠ",
        "religion": "hindu"
      }
    },
    {
      "type": "node",
      "id": 1852664343,
      "lat": 12.9864817,
      "lon": 77.6194153,
      "tags": {
        "shop": "florist"
      }
    },
    {
      "type": "node",
      "id": 1852665371,
      "lat": 12.9865706,
      "lon": 77.6194475,
      "tags": {
        "amenity": "restaurant",
        "cuisine": "international",
        "name": "Rogue Elephant"
      }
    },
    {
      "type": "node",
      "id": 2003935536,
      "lat": 12.994291,
      "lon": 77.6196026,
      "tags": {
        "amenity": "school",
        "name": "St Aloysius Pre Unniversity College"
      }
    },
    {
      "type": "node",
      "id": 2533566974,
      "lat": 12.9993281,
      "lon": 77.6192054,
      "tags": {
        "amenity": "clinic",
        "name": "Maruthi Clinic",
        "name:kn": "ಮಾರುತಿ ಚಿಕಿತ್ಸಾಲಯ"
      }
    },
    {
      "type": "node",
      "id": 3193521628,
      "lat": 12.9977551,
      "lon": 77.6205782,
      "tags": {
        "amenity": "restaurant",
        "cuisine": "regional",
        "name": "Sri Devi Café"
      }
    },
    {
      "type": "node",
      "id": 3342080436,
      "lat": 12.9947176,
      "lon": 77.6153985,
      "tags": {
        "amenity": "bank",
        "atm": "yes",
        "brand": "IndusInd Bank",
        "brand:wikidata": "Q2040323",
        "brand:wikipedia": "en:Axis Bank",
        "check_date": "2024-05-19",
        "name": "IndusInd Bank",
        "name:en": "IndusInd Bank",
        "website": "https://www.axisbank.com"
      }
    },
    {
      "type": "node",
      "id": 3344232700,
      "lat": 12.9952969,
      "lon": 77.6144743,
      "tags": {
        "amenity": "atm",
        "brand": "HDFC Bank",
        "brand:wikidata": "Q631047",
        "name": "HDFC Bank",
        "name:kn": "ಎಚ್. ಡಿ. ಎಫ್. ಸಿ.",
        "operator": "HDFC Bank",
        "operator:wikidata": "Q631047",
        "short_name": "HDFC"
      }
    },
    {
      "type": "node",
      "id": 3344233314,
      "lat": 12.9939906,
      "lon": 77.6154041,
      "tags": {
        "amenity": "atm",
        "brand": "Citibank",
        "brand:wikidata": "Q857063",
        "name": "Citibank",
        "name:kn": "ಸಿಟಿ ಬ್ಯಾಂಕ್",
        "operator": "Citibank",
        "operator:wikidata": "Q857063",
        "short_name": "Citi"
      }
    },
    {
      "type": "node",
      "id": 3344233626,
      "lat": 12.9940387,
      "lon": 77.6156783,
      "tags": {
        "amenity": "bank",
        "atm": "yes",
        "brand": "Kotak Mahindra Bank",
        "brand:wikidata": "Q2040404",
        "brand:wikipedia": "en:Kotak Mahindra Bank",
        "name": "Kotak Mahindra Bank",
        "name:en": "Kotak Mahindra Bank",
        "name:kn": "ಕೋಟಕ್ ಮಹಿಂದ್ರ ಬ್ಯಾಂಕ್",
        "website": "http://www.kotak.com"
      }
    },
    {
      "type": "node",
      "id": 3652826812,
      "lat": 13.0005605,
      "lon": 77.6238439,
      "tags": {
        "amenity": "bench"
      }
    },
    {
      "type": "node",
      "id": 3652842221,
      "lat": 13.0007109,
      "lon": 77.6239498,
      "tags": {
        "amenity": "bench",
        "backrest": "no",
        "material": "stone"
      }
    },
    {
      "type": "node",
      "id": 3652872258,
      "lat": 13.0007841,
      "lon": 77.6238275,
      "tags": {
        "amenity": "bench",
        "backrest": "no",
        "material": "stone"
      }
    },
    {
      "type": "node",
      "id": 3652872259,
      "lat": 13.0008505,
      "lon": 77.6239891,
      "tags": {
        "amenity": "bench",
        "backrest": "no",
        "material": "stone"
      }
    },
    {
      "type": "node",
      "id": 3652872260,
      "lat": 13.0007932,
      "lon": 77.623969,
      "tags": {
        "amenity": "waste_basket"
      }
    },
    {
      "type": "node",
      "id": 3652872261,
      "lat": 13.0008435,
      "lon": 77.623967,
      "tags": {
        "amenity": "bench",
        "backrest": "no",
        "material": "stone"
      }
    },
    {
      "type": "node",
      "id": 3652872262,
      "lat": 13.0008272,
      "lon": 77.6240079,
      "tags": {
        "amenity": "bench",
        "backrest": "no",
        "material": "stone"
      }
    },
    {
      "type": "node",
      "id": 3652872263,
      "lat": 13.0008653,
      "lon": 77.6240256,
      "tags": {
        "amenity": "bench",
        "backrest": "yes",
        "material": "stone"
      }
    },
    {
      "type": "node",
      "id": 3652872264,
      "lat": 13.0008535,
      "lon": 77.6240399,
      "tags": {
        "amenity": "bench",
        "backrest": "yes",
        "material": "stone"
      }
    },
    {
      "type": "node",
      "id": 3652872265,
      "lat": 13.0009017,
      "lon": 77.6240408,
      "tags": {
        "amenity": "bench",
        "backrest": "yes",
        "material": "stone"
      }
    },
    {
      "type": "node",
      "id": 3652872266,
      "lat": 13.0008853,
      "lon": 77.6240535,
      "tags": {
        "amenity": "bench",
        "backrest": "yes",
        "material": "stone"
      }
    },
    {
      "type": "node",
      "id": 3652872267,
      "lat": 13.0009429,
      "lon": 77.6240552,
      "tags": {
        "amenity": "bench",
        "backrest": "yes",
        "material": "stone"
      }
    },
    {
      "type": "node",
      "id": 3652874027,
      "lat": 13.0009227,
      "lon": 77.6240846,
      "tags": {
        "amenity": "bench",
        "backrest": "no"
      }
    },
    {
      "type": "node",
      "id": 3652874028,
      "lat": 13.0009598,
      "lon": 77.6240983,
      "tags": {
        "amenity": "bench",
        "backrest": "no",
        "material": "stone"
      }
    },
    {
      "type": "node",
      "id": 3652874029,
      "lat": 13.0011865,
      "lon": 77.6239993,
      "tags": {
        "amenity": "bench",
        "backrest": "no"
      }
    },
    {
      "type": "node",
      "id": 3652876866,
      "lat": 13.0011127,
      "lon": 77.6241167,
      "tags": {
        "amenity": "waste_basket",
        "check_date": "2024-04-15"
      }
    },
    {
      "type": "node",
      "id": 3885545494,
      "lat": 12.998073,
      "lon": 77.6282625,
      "tags": {
        "amenity": "atm",
        "brand": "HDFC Bank",
        "brand:wikidata": "Q631047",
        "name": "HDFC Bank",
        "name:kn": "ಎಚ್ ಡಿ ಎಫ್ ಸಿ",
        "opening_hours": "24/7",
        "operator": "HDFC Bank",
        "operator:wikidata": "Q631047",
        "short_name": "HDFC"
      }
    },
    {
      "type": "node",
      "id": 3897575411,
      "lat": 12.9948763,
      "lon": 77.6282673,
      "tags": {
        "amenity": "veterinary",
        "name": "Bengalore Veterinary Hospital",
        "name:kn": "ಬೆಂಗಳೂರು ಪಶುವೈದ್ಯ ಆಸ್ಪತ್ರೆ"
      }
    },
    {
      "type": "node",
      "id": 3923015224,
      "lat": 12.9965093,
      "lon": 77.6278623,
      "tags": {
        "amenity": "place_of_worship",
        "religion": "hindu"
      }
    },
    {
      "type": "node",
      "id": 4036140739,
      "lat": 13.0005533,
      "lon": 77.6233992,
      "tags": {
        "amenity": "atm",
        "brand": "Canara Bank",
        "brand:en": "Canara Bank",
        "brand:hi": "केनरा बैंक",
        "brand:kn": "ಕೆನರಾ ಬ್ಯಾಂಕ್",
        "brand:pa": "ਕੇਨਰਾ ਬੈਂਕ",
        "brand:pnb": "کینرا بینک",
        "brand:ur": "کینرا بینک",
        "brand:wikidata": "Q2003777",
        "name": "Canara Bank",
        "name:en": "Canara Bank",
        "name:hi": "केनरा बैंक",
        "name:kn": "ಕೆನರಾ ಬ್ಯಾಂಕ್",
        "name:pa": "ਕੇਨਰਾ ਬੈਂਕ",
        "name:pnb": "کینرا بینک",
        "name:ur": "کینرا بینک",
        "operator": "Canara Bank",
        "operator:wikidata": "Q2003777"
      }
    },
    {
      "type": "node",
      "id": 4117249122,
      "lat": 12.987086,
      "lon": 77.6189974,
      "tags": {
        "addr:street": "Saint John's Church Road",
        "amenity": "restaurant",
        "name": "Shanti Sagar",
        "name:kn": "ಶಾಂತಿ ಸಾಗರ್"
      }
    },
    {
      "type": "node",
      "id": 4225196591,
      "lat": 12.9872979,
      "lon": 77.6178332,
      "tags": {
        "addr:housenumber": "59",
        "addr:postcode": "560042",
        "addr:street": "Osbourne Road",
        "name": "Garden care",
        "opening_hours": "Mo-Su 10:00-19:30",
        "shop": "greengrocer"
      }
    },
    {
      "type": "node",
      "id": 4227854807,
      "lat": 12.9875355,
      "lon": 77.6190745,
      "tags": {
        "amenity": "restaurant"
      }
    },
    {
      "type": "node",
      "id": 4227854808,
      "lat": 12.9875472,
      "lon": 77.6189672,
      "tags": {
        "name": "Lake View Supermarket",
        "shop": "supermarket"
      }
    },
    {
      "type": "node",
      "id": 4227854812,
      "lat": 12.9875826,
      "lon": 77.6188927,
      "tags": {
        "amenity": "restaurant",
        "name": "Moritz Nano Restaurant"
      }
    },
    {
      "type": "node",
      "id": 4252085630,
      "lat": 12.9908548,
      "lon": 77.6192753,
      "tags": {
        "addr:floor": "4",
        "addr:street": "Assayee Road",
        "amenity": "pub",
        "check_date": "2023-12-30",
        "level": "4",
        "name": "Watson's Ulsoor",
        "smoking": "separated",
        "toilets:wheelchair": "no",
        "wheelchair": "no"
      }
    },
    {
      "type": "node",
      "id": 4252092996,
      "lat": 12.9908261,
      "lon": 77.6193188,
      "tags": {
        "amenity": "cafe",
        "name": "Cafe Thulp",
        "toilets:wheelchair": "no",
        "wheelchair": "no"
      }
    },
    {
      "type": "node",
      "id": 4349394389,
      "lat": 12.9944952,
      "lon": 77.6159529,
      "tags": {
        "amenity": "restaurant",
        "name": "South Inn",
        "name:kn": "ಸೌತ್ ಇನ್"
      }
    },
    {
      "type": "node",
      "id": 4385108289,
      "lat": 12.996332,
      "lon": 77.6170443,
      "tags": {
        "amenity": "restaurant",
        "name": "ಕೋಮಲ ರಿಫ್ರೆಷ್‌ಮೆಂಟ್ಸ್",
        "name:en": "Komala Refreshments",
        "name:kn": "ಕೋಮಲ ರಿಫ್ರೆಷ್‌ಮೆಂಟ್ಸ್"
      }
    },
    {
      "type": "node",
      "id": 4391177990,
      "lat": 12.9948565,
      "lon": 77.6152319,
      "tags": {
        "leisure": "fitness_centre",
        "name": "ಕ್ರಾಸ್‌ಫಿಟ್ ಜಿನೋಮ್",
        "name:en": "Crossfit Genome",
        "name:kn": "ಕ್ರಾಸ್‌ಫಿಟ್ ಜಿನೋಮ್"
      }
    },
    {
      "type": "node",
      "id": 4391177991,
      "lat": 12.9944824,
      "lon": 77.6153605,
      "tags": {
        "amenity": "restaurant",
        "name": "ಮ್ಯಾಂಗಲೋರ್ ಪರ್ಲ್",
        "name:en": "Mangalore Pearl",
        "name:kn": "ಮ್ಯಾಂಗಲೋರ್ ಪರ್ಲ್"
      }
    },
    {
      "type": "node",
      "id": 4447249418,
      "lat": 12.9997652,
      "lon": 77.6173181,
      "tags": {
        "addr:city": "bangalore",
        "addr:housenumber": "408",
        "addr:postcode": "5600043",
        "addr:street": "5th Main Rd HRBR Layout 1st Block HRBR Layout Kalyan Nagar HRBR Layout 1st Block HRBR Layout Kalyan Nagar",
        "amenity": "restaurant",
        "cuisine": "regional",
        "delivery": "yes",
        "name": "Shawarma king",
        "opening_hours": "12:30-23:30",
        "phone": "080 3202 8839",
        "smoking": "no",
        "takeaway": "yes"
      }
    },
    {
      "type": "node",
      "id": 4489241337,
      "lat": 12.9961189,
      "lon": 77.6155543,
      "tags": {
        "addr:city": "bangalore",
        "addr:housenumber": "26/1",
        "addr:postcode": "560005",
        "addr:street": "Stephens Road , Frazer Town, Bhadrappa Layout, Pulikeshi Nagar",
        "name": "Coles Sports World",
        "opening_hours": "10:00-19:00",
        "phone": "080 2548 3320",
        "shop": "sports",
        "website": "colessportsworld.com"
      }
    },
    {
      "type": "node",
      "id": 4490206308,
      "lat": 12.9995759,
      "lon": 77.6230526,
      "tags": {
        "addr:city": "Bangalore",
        "addr:housenumber": "No 100, Wheelers Road, Cooke Town, Bangalore - 560005",
        "addr:postcode": "560005",
        "addr:street": "Wheeler Road Extension",
        "name": "Village Super Market",
        "phone": "80-41534703",
        "shop": "supermarket"
      }
    },
    {
      "type": "node",
      "id": 4490335805,
      "lat": 12.9981117,
      "lon": 77.6153053,
      "tags": {
        "addr:city": "Bengaluru",
        "addr:housenumber": "83",
        "addr:postcode": "560005",
        "addr:street": "Mosque Rd, Bhadrappa Layout, Pulikeshi Nagar, Bengaluru,",
        "leisure": "sports_centre",
        "name": "Snap Fitness",
        "opening_hours": "5:00-23:00",
        "phone": "8065651050",
        "sport": "gymnasium",
        "website": "snapfitnessindia.com"
      }
    },
    {
      "type": "node",
      "id": 4490426429,
      "lat": 12.9962218,
      "lon": 77.6174002,
      "tags": {
        "addr:city": "Bangalore",
        "addr:postcode": "56005",
        "addr:street": "Wheeler Road",
        "leisure": "sports_centre",
        "name": "Steve's Gym",
        "opening_hours": "6:00-20:00",
        "phone": "8025353323",
        "website": "https://stevesgym.com/"
      }
    },
    {
      "type": "node",
      "id": 4570423792,
      "lat": 12.9983463,
      "lon": 77.6206293,
      "tags": {
        "amenity": "fast_food",
        "name": "Lemon Rice",
        "name:en": "Lemon Rice"
      }
    },
    {
      "type": "node",
      "id": 4577045761,
      "lat": 12.9983402,
      "lon": 77.6200927,
      "tags": {
        "amenity": "hospital",
        "name": "Government Maternity Home",
        "name:kn": "ಸರ್ಕಾರಿ ಮಾತೃತ್ವ ಮನೆ"
      }
    },
    {
      "type": "node",
      "id": 4582783591,
      "lat": 12.9980438,
      "lon": 77.6205601,
      "tags": {
        "name": "Thomsons",
        "name:en": "Thomsons",
        "shop": "bakery"
      }
    },
    {
      "type": "node",
      "id": 4582787590,
      "lat": 12.9978934,
      "lon": 77.6203017,
      "tags": {
        "amenity": "clinic",
        "name": "Saldana Diagnostic Center",
        "name:en": "Saldana Diagnostic Center"
      }
    },
    {
      "type": "node",
      "id": 4582794490,
      "lat": 12.998501,
      "lon": 77.6203996,
      "tags": {
        "shop": "butcher"
      }
    },
    {
      "type": "node",
      "id": 4582794589,
      "lat": 12.9984473,
      "lon": 77.6204212,
      "tags": {
        "shop": "greengrocer"
      }
    },
    {
      "type": "node",
      "id": 4582801689,
      "lat": 12.998375,
      "lon": 77.6204488,
      "tags": {
        "name": "Fresh vegetables",
        "name:en": "Fresh vegetables",
        "shop": "greengrocer"
      }
    },
    {
      "type": "node",
      "id": 4582813390,
      "lat": 12.9976423,
      "lon": 77.6175048,
      "tags": {
        "name": "Kiran expert dry cleaners",
        "name:en": "Kiran expert dry cleaners",
        "shop": "dry_cleaning"
      }
    },
    {
      "type": "node",
      "id": 4582817389,
      "lat": 13.0002512,
      "lon": 77.6190506,
      "tags": {
        "leisure": "fitness_centre",
        "name": "Shri Rajeev Gandhi Gym",
        "name:en": "Shri Rajeev Gandhi Gym"
      }
    },
    {
      "type": "node",
      "id": 4582870789,
      "lat": 13.0013207,
      "lon": 77.6235793,
      "tags": {
        "shop": "greengrocer"
      }
    },
    {
      "type": "node",
      "id": 4607621918,
      "lat": 12.9984122,
      "lon": 77.6204312,
      "tags": {
        "name": "Star Fresh Egg Center",
        "name:en": "Star Fresh Egg Center",
        "shop": "butcher"
      }
    },
    {
      "type": "node",
      "id": 4664862655,
      "lat": 13.0001887,
      "lon": 77.6180988,
      "tags": {
        "check_date": "2023-12-31",
        "name": "Crankmeister",
        "phone": "+91 88615 44666",
        "repair": "yes",
        "shop": "bicycle"
      }
    },
    {
      "type": "node",
      "id": 4844863349,
      "lat": 12.9968223,
      "lon": 77.6195998,
      "tags": {
        "amenity": "restaurant",
        "check_date": "2024-08-11",
        "name": "Dolphins",
        "name:en": "Dolphins"
      }
    },
    {
      "type": "node",
      "id": 4844863350,
      "lat": 12.9952589,
      "lon": 77.6163699,
      "tags": {
        "name": "Top most cleaners",
        "name:en": "Top most cleaners",
        "shop": "laundry"
      }
    },
    {
      "type": "node",
      "id": 4844863351,
      "lat": 12.9948513,
      "lon": 77.6160845,
      "tags": {
        "amenity": "restaurant",
        "name": "Perfect corner",
        "name:en": "Perfect corner"
      }
    },
    {
      "type": "node",
      "id": 4844863354,
      "lat": 12.9868859,
      "lon": 77.6162486,
      "tags": {
        "name": "Big boss",
        "name:en": "Big boss",
        "shop": "dry_cleaning"
      }
    },
    {
      "type": "node",
      "id": 4844863371,
      "lat": 12.9998566,
      "lon": 77.6251653,
      "tags": {
        "amenity": "restaurant",
        "diet:vegetarian": "only",
        "name": "Udapas Veg Restaurant",
        "name:en": "Udapas"
      }
    },
    {
      "type": "node",
      "id": 4844863386,
      "lat": 12.9958599,
      "lon": 77.6202844,
      "tags": {
        "name": "International travel house Limited",
        "name:en": "International travel house Limited",
        "shop": "travel_agency"
      }
    },
    {
      "type": "node",
      "id": 4844865045,
      "lat": 12.994204,
      "lon": 77.6155483,
      "tags": {
        "name": "Chicken stops",
        "name:en": "Chicken stops",
        "shop": "butcher"
      }
    },
    {
      "type": "node",
      "id": 4844865046,
      "lat": 12.9945444,
      "lon": 77.6159681,
      "tags": {
        "amenity": "pharmacy",
        "check_date": "2024-08-11",
        "name": "Kiran medicals",
        "name:en": "Kiran medicals"
      }
    },
    {
      "type": "node",
      "id": 4844865047,
      "lat": 12.9963245,
      "lon": 77.61771,
      "tags": {
        "name": "Digital Express",
        "name:en": "Digital Express",
        "shop": "electronics"
      }
    },
    {
      "type": "node",
      "id": 4844865048,
      "lat": 12.9974737,
      "lon": 77.6202808,
      "tags": {
        "amenity": "bank",
        "brand": "HDFC Bank",
        "brand:wikidata": "Q631047",
        "brand:wikipedia": "en:HDFC Bank",
        "name": "HDFC Bank",
        "name:en": "Hdfc Bank",
        "name:kn": "ಎಚ್ ಡಿ ಎಫ್ ಸಿ",
        "short_name": "HDFC",
        "website": "https://www.hdfcbank.com"
      }
    },
    {
      "type": "node",
      "id": 4844867524,
      "lat": 12.9964814,
      "lon": 77.621145,
      "tags": {
        "amenity": "pharmacy",
        "name": "Manoj Medicals",
        "name:en": "Manoj Medicals"
      }
    },
    {
      "type": "node",
      "id": 4845223688,
      "lat": 12.9878222,
      "lon": 77.6185314,
      "tags": {
        "leisure": "fitness_centre",
        "name": "Pyro Fitness Center"
      }
    },
    {
      "type": "node",
      "id": 4845223689,
      "lat": 12.9877987,
      "lon": 77.618514,
      "tags": {
        "amenity": "restaurant",
        "name": "Adyar Anand Bhawan",
        "name:kn": "ಆದ್ಯಾರ್ ಆನಂದ ಭವನ"
      }
    },
    {
      "type": "node",
      "id": 5862574185,
      "lat": 12.9878631,
      "lon": 77.6177434,
      "tags": {
        "amenity": "hospital",
        "name": "Lakeside Medical Centre and Hospital"
      }
    },
    {
      "type": "node",
      "id": 6944418995,
      "lat": 12.9876196,
      "lon": 77.6204668,
      "tags": {
        "addr:district": "Bengaluru Urban",
        "addr:full": "11, Ulsoor Tank Road Ulsoor Lake",
        "addr:postcode": "560042",
        "addr:state": "Karnataka",
        "amenity": "clinic",
        "name": "Sai Jyothi Netra Seva",
        "source": "OpenGovernmentData"
      }
    },
    {
      "type": "node",
      "id": 7087593370,
      "lat": 12.9916419,
      "lon": 77.6143493,
      "tags": {
        "shop": "greengrocer"
      }
    },
    {
      "type": "node",
      "id": 7234491294,
      "lat": 12.9926089,
      "lon": 77.6151305,
      "tags": {
        "access": "permissive",
        "amenity": "parking",
        "parking": "surface"
      }
    },
    {
      "type": "node",
      "id": 7234491295,
      "lat": 12.9929278,
      "lon": 77.6157045,
      "tags": {
        "access": "private",
        "leisure": "swimming_pool"
      }
    },
    {
      "type": "node",
      "id": 7255929421,
      "lat": 12.9959111,
      "lon": 77.615154,
      "tags": {
        "access": "permissive",
        "amenity": "parking",
        "parking": "underground"
      }
    },
    {
      "type": "node",
      "id": 7255929437,
      "lat": 12.9964978,
      "lon": 77.6148905,
      "tags": {
        "amenity": "place_of_worship",
        "religion": "hindu"
      }
    },
    {
      "type": "node",
      "id": 7255929444,
      "lat": 12.998522,
      "lon": 77.6157112,
      "tags": {
        "amenity": "school",
        "name": "Bethesda Academy"
      }
    },
    {
      "type": "node",
      "id": 8006741421,
      "lat": 12.9994495,
      "lon": 77.6247073,
      "tags": {
        "name": "Rose garden",
        "name:en": "Rose garden",
        "shop": "alcohol"
      }
    },
    {
      "type": "node",
      "id": 8006741451,
      "lat": 13.0001934,
      "lon": 77.6229561,
      "tags": {
        "name": "SLV Stores",
        "shop": "convenience"
      }
    },
    {
      "type": "node",
      "id": 8047420106,
      "lat": 13.0015667,
      "lon": 77.6225943,
      "tags": {
        "addr:city": "Bangalore",
        "addr:postcode": "560005",
        "addr:street": "Lloyd Road",
        "amenity": "kindergarten",
        "check_date": "2023-06-16",
        "name": "Santorini Montessori"
      }
    },
    {
      "type": "node",
      "id": 8065138990,
      "lat": 13.0015538,
      "lon": 77.6236239,
      "tags": {
        "name": "Bandbox cleaner and dryer",
        "shop": "dry_cleaning"
      }
    },
    {
      "type": "node",
      "id": 8094098557,
      "lat": 13.0005177,
      "lon": 77.6233354,
      "tags": {
        "amenity": "post_box",
        "collection_times": "Mo-Sa 15:00; PH off",
        "colour": "red",
        "image": "https://thejeshgn.com/wp-content/uploads/2025/11/wp-1763006856510.jpg",
        "operator": "India Post",
        "operator:wikidata": "Q3519720"
      }
    },
    {
      "type": "node",
      "id": 8094098558,
      "lat": 13.0003323,
      "lon": 77.6233169,
      "tags": {
        "shop": "greengrocer"
      }
    },
    {
      "type": "node",
      "id": 8120700179,
      "lat": 12.9994204,
      "lon": 77.6226779,
      "tags": {
        "female": "yes",
        "name": "Poise Beauty Parlour",
        "opening_hours": "Mo-Sa 10:00-18:30; Su 10:00-14:00",
        "shop": "hairdresser"
      }
    },
    {
      "type": "node",
      "id": 8120700203,
      "lat": 13.000053,
      "lon": 77.6230462,
      "tags": {
        "male": "yes",
        "name": "Alankar Parlour",
        "shop": "hairdresser"
      }
    },
    {
      "type": "node",
      "id": 8120700204,
      "lat": 13.0001038,
      "lon": 77.6230624,
      "tags": {
        "amenity": "pharmacy",
        "healthcare": "pharmacy",
        "name": "Sarooj Pharma",
        "opening_hours": "10:00-14:00, 17:30-21:30",
        "shop": "chemist"
      }
    },
    {
      "type": "node",
      "id": 8120700205,
      "lat": 13.0001273,
      "lon": 77.6230304,
      "tags": {
        "female": "yes",
        "name": "Facevalue Beauty Salon",
        "shop": "hairdresser"
      }
    },
    {
      "type": "node",
      "id": 8120700207,
      "lat": 13.0001025,
      "lon": 77.6230436,
      "tags": {
        "name": "Eclat Tours and Travels",
        "shop": "travel_agency"
      }
    },
    {
      "type": "node",
      "id": 8120700208,
      "lat": 13.0001196,
      "lon": 77.623048,
      "tags": {
        "name": "Ladies Tailors",
        "shop": "tailor"
      }
    },
    {
      "type": "node",
      "id": 8168113612,
      "lat": 12.9988154,
      "lon": 77.6230626,
      "tags": {
        "name": "Animation Souk",
        "shop": "collector"
      }
    },
    {
      "type": "node",
      "id": 8182549217,
      "lat": 13.0000427,
      "lon": 77.620479,
      "tags": {
        "name": "India Emporium",
        "shop": "fabric"
      }
    },
    {
      "type": "node",
      "id": 8186304635,
      "lat": 12.9997409,
      "lon": 77.6214759,
      "tags": {
        "shop": "convenience"
      }
    },
    {
      "type": "node",
      "id": 8186304650,
      "lat": 13.0004506,
      "lon": 77.6218199,
      "tags": {
        "amenity": "pharmacy",
        "dispensing": "yes",
        "healthcare": "pharmacy",
        "name": "Axis Pharma and Dental Supplies"
      }
    },
    {
      "type": "node",
      "id": 8186304651,
      "lat": 13.0008456,
      "lon": 77.6219257,
      "tags": {
        "amenity": "bank",
        "atm": "yes",
        "brand": "Bank of Baroda",
        "brand:wikidata": "Q2003797",
        "brand:wikipedia": "en:Bank of Baroda",
        "name": "Bank of Baroda",
        "name:kn": "ಬ್ಯಾಂಕ್ ಆಫ್ ಬರೋಡ"
      }
    },
    {
      "type": "node",
      "id": 8522744899,
      "lat": 12.9911306,
      "lon": 77.6162233,
      "tags": {
        "addr:street": "Promenade Road",
        "name": "Pretty Dan Good Salon",
        "opening_hours": "Mo-Su 10:00-18:00; Tu off",
        "payment:cash": "yes",
        "payment:credit_cards": "yes",
        "payment:upi": "yes",
        "phone": "+91-73384-75554",
        "shop": "hairdresser",
        "website": "https://prettydangood.in/"
      }
    },
    {
      "type": "node",
      "id": 8522762905,
      "lat": 12.9913026,
      "lon": 77.6156011,
      "tags": {
        "addr:street": "Promenade Road",
        "name": "MotoAdda",
        "shop": "car_repair"
      }
    },
    {
      "type": "node",
      "id": 8594849018,
      "lat": 13.0002611,
      "lon": 77.6208809,
      "tags": {
        "amenity": "clinic",
        "healthcare": "clinic",
        "healthcare:speciality": "paediatrics",
        "name": "Mathew Children's Specialist",
        "phone": "+91 080 25473578"
      }
    },
    {
      "type": "node",
      "id": 8890701649,
      "lat": 12.9988716,
      "lon": 77.6240463,
      "tags": {
        "name": "Paradise Store",
        "shop": "convenience"
      }
    },
    {
      "type": "node",
      "id": 8890701650,
      "lat": 12.9989045,
      "lon": 77.6240611,
      "tags": {
        "name": "Reliable India Group",
        "shop": "yes"
      }
    },
    {
      "type": "node",
      "id": 8890701663,
      "lat": 12.9994967,
      "lon": 77.6247784,
      "tags": {
        "name": "Deepa Tires",
        "shop": "tyres"
      }
    },
    {
      "type": "node",
      "id": 8895424327,
      "lat": 13.0002422,
      "lon": 77.6257839,
      "tags": {
        "name": "Dell Authorized Service Center",
        "shop": "computer"
      }
    },
    {
      "type": "node",
      "id": 9230690434,
      "lat": 12.9954616,
      "lon": 77.614226,
      "tags": {
        "amenity": "fast_food",
        "name": "Kunafa World"
      }
    },
    {
      "type": "node",
      "id": 9687954318,
      "lat": 12.9865306,
      "lon": 77.6194645,
      "tags": {
        "amenity": "cafe",
        "check_date": "2024-04-20",
        "dog": "leashed",
        "highchair": "yes",
        "name": "Kaara by Lake",
        "outdoor_seating": "yes",
        "pets": "yes",
        "takeaway": "yes",
        "toilets": "yes",
        "toilets:wheelchair": "limited",
        "wheelchair": "limited"
      }
    },
    {
      "type": "node",
      "id": 9740634164,
      "lat": 13.0015545,
      "lon": 77.6235582,
      "tags": {
        "shop": "florist"
      }
    },
    {
      "type": "node",
      "id": 9740697230,
      "lat": 13.0015427,
      "lon": 77.6235808,
      "tags": {
        "name": "Pluto Pet Food and Spa",
        "shop": "pet"
      }
    },
    {
      "type": "node",
      "id": 10979409744,
      "lat": 12.9958745,
      "lon": 77.6213506,
      "tags": {
        "amenity": "fast_food",
        "brand": "Indira Canteen",
        "brand:wikidata": "Q36164828",
        "cuisine": "south_indian",
        "name": "Indira Canteen",
        "operator": "BBMP",
        "takeaway": "yes"
      }
    },
    {
      "type": "node",
      "id": 10979409745,
      "lat": 12.9961581,
      "lon": 77.6213264,
      "tags": {
        "addr:city": "Bengaluru",
        "addr:country": "IN",
        "addr:housenumber": "14",
        "addr:postcode": "560005",
        "addr:street": "Sundaramurthi Road",
        "addr:suburb": "Cox Town",
        "name": "Fresh World",
        "shop": "supermarket"
      }
    },
    {
      "type": "node",
      "id": 10979409746,
      "lat": 12.9966455,
      "lon": 77.6211025,
      "tags": {
        "addr:city": "Bengaluru",
        "addr:country": "IN",
        "addr:housenumber": "2/1",
        "addr:postcode": "560005",
        "addr:street": "MM Road",
        "addr:suburb": "Cox Town",
        "amenity": "clinic",
        "name": "Kirti Eye and Dental Hospital",
        "name:kn": "ಕೀರ್ತಿ ಐ ಅಂಡ್ ಡೆಂಟಲ್ ಹಾಸ್ಪಿಟಲ್"
      }
    },
    {
      "type": "node",
      "id": 10979409747,
      "lat": 12.9850531,
      "lon": 77.6182955,
      "tags": {
        "addr:city": "Bengaluru",
        "addr:country": "IN",
        "addr:housenumber": "32",
        "addr:postcode": "560042",
        "addr:state": "Karnataka",
        "addr:street": "Annaswamy Mudaliar Road",
        "addr:suburb": "Ulsoor",
        "amenity": "cafe",
        "contact:instagram": "myurbansolace",
        "cuisine": "american",
        "name": "Urban Solace",
        "name:kn": "ಅರ್ಬನ್ ಸೊಲೇಸ್"
      }
    },
    {
      "type": "node",
      "id": 10980098242,
      "lat": 13.0014615,
      "lon": 77.6239398,
      "tags": {
        "amenity": "doctors",
        "healthcare": "doctor",
        "healthcare:speciality": "orthopaedics",
        "phone": "+91 7349548470",
        "website": "https://www.drchiragthonse.com/"
      }
    },
    {
      "type": "node",
      "id": 10980098243,
      "lat": 13.0012722,
      "lon": 77.6239694,
      "tags": {
        "leisure": "fitness_centre",
        "name": "The Practice Room",
        "sport": "yoga",
        "website": "https://thepracticeroom.in"
      }
    },
    {
      "type": "node",
      "id": 10980098244,
      "lat": 13.0015283,
      "lon": 77.6236361,
      "tags": {
        "shop": "scooter"
      }
    },
    {
      "type": "node",
      "id": 10980098245,
      "lat": 13.0013211,
      "lon": 77.6238425,
      "tags": {
        "name": "Genesis",
        "opening_hours": "We-Mo 10:00-20:00; ",
        "shop": "hairdresser"
      }
    },
    {
      "type": "node",
      "id": 10980098246,
      "lat": 13.0013126,
      "lon": 77.6238641,
      "tags": {
        "name": "Genesis",
        "opening_hours": "We-Mo 10:00-20:00; ",
        "shop": "clothes"
      }
    },
    {
      "type": "node",
      "id": 11001956980,
      "lat": 13.0014092,
      "lon": 77.6236049,
      "tags": {
        "amenity": "fast_food",
        "cuisine": "juice"
      }
    },
    {
      "type": "node",
      "id": 11096903665,
      "lat": 13.0002181,
      "lon": 77.6257065,
      "tags": {
        "amenity": "cafe",
        "check_date": "2024-08-11",
        "name": "Cafe Lazy Lad"
      }
    },
    {
      "type": "node",
      "id": 11096914877,
      "lat": 12.995212,
      "lon": 77.6141958,
      "tags": {
        "amenity": "fast_food",
        "cuisine": "burger;wings;chicken",
        "delivery": "yes",
        "name": "Big Guys: Wings & More",
        "takeaway": "yes"
      }
    },
    {
      "type": "node",
      "id": 11096914882,
      "lat": 12.9944292,
      "lon": 77.6154175,
      "tags": {
        "name": "KC Das",
        "shop": "confectionery"
      }
    },
    {
      "type": "node",
      "id": 11096914883,
      "lat": 12.9943848,
      "lon": 77.6154779,
      "tags": {
        "amenity": "ice_cream",
        "indoor_seating": "yes",
        "name": "Polar Bear",
        "outdoor_seating": "no"
      }
    },
    {
      "type": "node",
      "id": 11096914884,
      "lat": 12.9943339,
      "lon": 77.6155865,
      "tags": {
        "name": "Printo",
        "shop": "copyshop"
      }
    },
    {
      "type": "node",
      "id": 11096914885,
      "lat": 12.994573,
      "lon": 77.6156616,
      "tags": {
        "amenity": "restaurant",
        "cuisine": "chinese",
        "name": "Green Onion"
      }
    },
    {
      "type": "node",
      "id": 11096914886,
      "lat": 12.9945782,
      "lon": 77.6157166,
      "tags": {
        "amenity": "bank",
        "atm": "yes",
        "brand": "Yes Bank",
        "brand:wikidata": "Q2040394",
        "name": "Yes Bank",
        "operator": "Yes Bank"
      }
    },
    {
      "type": "node",
      "id": 11096914887,
      "lat": 12.9949755,
      "lon": 77.6162276,
      "tags": {
        "amenity": "fast_food",
        "cuisine": "regional",
        "indoor_seating": "no",
        "name": "Shankar Bhel House",
        "outdoor_seating": "no",
        "takeaway": "only"
      }
    },
    {
      "type": "node",
      "id": 11096914888,
      "lat": 12.9959033,
      "lon": 77.616713,
      "tags": {
        "access": "yes",
        "amenity": "toilets",
        "fee": "yes",
        "operator": "BBMP"
      }
    },
    {
      "type": "node",
      "id": 11129099866,
      "lat": 12.9953074,
      "lon": 77.6216752,
      "tags": {
        "addr:city": "Bengaluru",
        "addr:country": "IN",
        "addr:housenumber": "51",
        "addr:postcode": "560005",
        "addr:street": "MM Road",
        "addr:suburb": "Cox Town",
        "contact:facebook": "breadtimestories.blr",
        "contact:instagram": "breadtimestories.blr",
        "email": "breadtimestories.blr@gmail.com",
        "name": "Breadtime Stories",
        "shop": "bakery",
        "website": "https://www.breadtimestories.in"
      }
    },
    {
      "type": "node",
      "id": 11212337067,
      "lat": 13.0008846,
      "lon": 77.6235326,
      "tags": {
        "amenity": "clinic",
        "name": "Prestige Medical Healthcare PMHS",
        "phone": "+91 9886499994",
        "website": "https://www.pmhshealthcare.com/"
      }
    },
    {
      "type": "node",
      "id": 11282630635,
      "lat": 12.9946253,
      "lon": 77.6150139,
      "tags": {
        "amenity": "restaurant",
        "cuisine": "pizza",
        "name": "Big Bang Pizza"
      }
    },
    {
      "type": "node",
      "id": 11282630636,
      "lat": 12.9953603,
      "lon": 77.6143876,
      "tags": {
        "amenity": "fast_food",
        "name": "The Real Grill"
      }
    },
    {
      "type": "node",
      "id": 11282630637,
      "lat": 12.9955651,
      "lon": 77.6140778,
      "tags": {
        "amenity": "fast_food",
        "check_date": "2024-08-11",
        "name": "Pooja Veg"
      }
    },
    {
      "type": "node",
      "id": 11282630668,
      "lat": 12.9880012,
      "lon": 77.6175244,
      "tags": {
        "amenity": "bank",
        "atm": "yes",
        "brand": "HDFC Bank",
        "brand:wikidata": "Q631047",
        "name": "HDFC Bank",
        "operator": "HDFC Bank",
        "short_name": "HDFC"
      }
    },
    {
      "type": "node",
      "id": 11304941403,
      "lat": 12.9861069,
      "lon": 77.6164486,
      "tags": {
        "access": "permissive",
        "amenity": "parking_entrance",
        "parking": "underground"
      }
    },
    {
      "type": "node",
      "id": 11449455841,
      "lat": 13.0007558,
      "lon": 77.620218,
      "tags": {
        "amenity": "place_of_worship",
        "religion": "hindu"
      }
    },
    {
      "type": "node",
      "id": 11449458279,
      "lat": 13.0010626,
      "lon": 77.6204192,
      "tags": {
        "amenity": "place_of_worship",
        "building": "chapel",
        "religion": "christian"
      }
    },
    {
      "type": "node",
      "id": 11449458280,
      "lat": 13.0011106,
      "lon": 77.6204373,
      "tags": {
        "amenity": "place_of_worship",
        "religion": "hindu"
      }
    },
    {
      "type": "node",
      "id": 11472852213,
      "lat": 13.00013,
      "lon": 77.6188894,
      "tags": {
        "check_date": "2023-12-31",
        "name": "East Aquarist",
        "opening_hours": "Mo-Sa 10:00-21:00; Su 16:00-21:00",
        "phone": "+91 99451 51612",
        "shop": "pet"
      }
    },
    {
      "type": "node",
      "id": 11472852219,
      "lat": 12.9997999,
      "lon": 77.619535,
      "tags": {
        "amenity": "driving_school",
        "check_date": "2023-12-31",
        "name": "Bangalore Driving School",
        "phone": "+91 85532 71717"
      }
    },
    {
      "type": "node",
      "id": 11472852224,
      "lat": 12.9997443,
      "lon": 77.6196152,
      "tags": {
        "check_date": "2023-12-31",
        "name": "Shri Manjunatha Condiments",
        "shop": "convenience"
      }
    },
    {
      "type": "node",
      "id": 11472852225,
      "lat": 12.9997662,
      "lon": 77.6195855,
      "tags": {
        "amenity": "driving_school",
        "check_date": "2023-12-31",
        "name": "New National Motor Driving Training School",
        "phone": "+91 98454 77871"
      }
    },
    {
      "type": "node",
      "id": 11472852227,
      "lat": 12.9998454,
      "lon": 77.6194613,
      "tags": {
        "check_date": "2023-12-31",
        "shop": "convenience"
      }
    },
    {
      "type": "node",
      "id": 11472852228,
      "lat": 12.9998702,
      "lon": 77.6194112,
      "tags": {
        "check_date": "2023-12-31",
        "shop": "copyshop"
      }
    },
    {
      "type": "node",
      "id": 11472852230,
      "lat": 12.9999404,
      "lon": 77.6192949,
      "tags": {
        "check_date": "2023-12-31",
        "male": "yes",
        "name": "Headhealers Studio",
        "shop": "hairdresser"
      }
    },
    {
      "type": "node",
      "id": 11472852231,
      "lat": 13.0000074,
      "lon": 77.6191713,
      "tags": {
        "check_date": "2023-12-31",
        "male": "yes",
        "name": "Arabian Tailor",
        "shop": "tailor"
      }
    },
    {
      "type": "node",
      "id": 11472852232,
      "lat": 13.0002222,
      "lon": 77.61819,
      "tags": {
        "check_date": "2023-12-31",
        "female": "yes",
        "level": "1",
        "name": "Ashin's Ladies Salon",
        "shop": "hairdresser"
      }
    },
    {
      "type": "node",
      "id": 11472852233,
      "lat": 13.0001367,
      "lon": 77.6188756,
      "tags": {
        "amenity": "pharmacy",
        "check_date": "2023-12-31",
        "healthcare": "pharmacy",
        "name": "Sri Balaji Medicals"
      }
    },
    {
      "type": "node",
      "id": 11472852234,
      "lat": 13.000142,
      "lon": 77.618859,
      "tags": {
        "check_date": "2023-12-31",
        "name": "Leather's Mart Enterprise",
        "shop": "leather"
      }
    },
    {
      "type": "node",
      "id": 11472852235,
      "lat": 13.0001684,
      "lon": 77.6187683,
      "tags": {
        "amenity": "bar",
        "check_date": "2023-12-31",
        "name": "Shiva Shakti Bar and Restaurant"
      }
    },
    {
      "type": "node",
      "id": 11472852236,
      "lat": 13.0002257,
      "lon": 77.6185259,
      "tags": {
        "check_date": "2023-12-31",
        "name": "Puncture Shop",
        "shop": "tyres"
      }
    },
    {
      "type": "node",
      "id": 11472852237,
      "lat": 13.0002178,
      "lon": 77.6182102,
      "tags": {
        "check_date": "2023-12-31",
        "name": "Shabnam Fashions",
        "shop": "clothes"
      }
    },
    {
      "type": "node",
      "id": 11472852239,
      "lat": 13.0002142,
      "lon": 77.6181157,
      "tags": {
        "check_date": "2023-12-31",
        "name": "Primecore Infotech",
        "repair": "yes",
        "shop": "computer"
      }
    },
    {
      "type": "node",
      "id": 11472852240,
      "lat": 13.0002606,
      "lon": 77.6179319,
      "tags": {
        "check_date": "2023-12-31",
        "name": "World View Tours & Travels",
        "shop": "travel_agency"
      }
    },
    {
      "type": "node",
      "id": 11472852241,
      "lat": 13.000267,
      "lon": 77.6178923,
      "tags": {
        "amenity": "dentist",
        "check_date": "2023-12-31",
        "healthcare": "dentist",
        "name": "Smiles Dental Specialities"
      }
    },
    {
      "type": "node",
      "id": 11473412154,
      "lat": 12.9998657,
      "lon": 77.6196688,
      "tags": {
        "access": "customers",
        "amenity": "toilets",
        "female": "yes",
        "male": "yes"
      }
    },
    {
      "type": "node",
      "id": 11530082861,
      "lat": 12.9857804,
      "lon": 77.6167848,
      "tags": {
        "addr:city": "Bengaluru",
        "addr:floor": "G",
        "addr:housenumber": "9",
        "addr:postcode": "560042",
        "addr:street": "Osbourne Road",
        "amenity": "dentist",
        "check_date": "2024-01-19",
        "email": "oralrehabilitationcenter@gmail.com",
        "healthcare": "dentist",
        "internet_access": "no",
        "mobile": "+91-7406110333",
        "name": "Oral rehabilitation center",
        "name:en": "Oral rehabilitation center",
        "name:kn": "ಒರಲ್ ರಿಹಾಬಿಲಿಟೇಶನ್ ಸೆಂಟರ್",
        "opening_hours": "Mo-Su 09:00-13:00,Mo-Su 16:00-22:00",
        "payment:cash": "yes",
        "payment:credit_cards": "yes",
        "payment:debit_cards": "yes",
        "website": "https://oralrehabilitationcenter.com/",
        "wheelchair": "limited"
      }
    },
    {
      "type": "node",
      "id": 11557043272,
      "lat": 12.9948602,
      "lon": 77.6175033,
      "tags": {
        "addr:housenumber": "28",
        "addr:street": "Assayee Road",
        "alt_name": "Backer and Charlie",
        "amenity": "cafe",
        "check_date": "2024-01-27",
        "contact:instagram": "https://www.instagram.com/backerandcharlie",
        "delivery": "yes",
        "name": "Bäcker & Charlie",
        "outdoor_seating": "yes",
        "start_date": "2024-01-31",
        "takeaway": "yes",
        "toilets": "yes",
        "wheelchair": "limited"
      }
    },
    {
      "type": "node",
      "id": 11822465878,
      "lat": 13.0013403,
      "lon": 77.6235811,
      "tags": {
        "amenity": "fast_food",
        "cuisine": "indian",
        "level": "1",
        "name": "Chota Swaad"
      }
    },
    {
      "type": "node",
      "id": 11822465879,
      "lat": 13.0014231,
      "lon": 77.6236111,
      "tags": {
        "amenity": "fast_food",
        "cuisine": "momos",
        "street_vendor": "yes"
      }
    },
    {
      "type": "node",
      "id": 11833289307,
      "lat": 12.9998764,
      "lon": 77.6251821,
      "tags": {
        "shop": "greengrocer"
      }
    },
    {
      "type": "node",
      "id": 11853518218,
      "lat": 12.9996818,
      "lon": 77.6181637,
      "tags": {
        "check_date": "2024-04-27",
        "name": "Ocean Sea Foods",
        "shop": "seafood"
      }
    },
    {
      "type": "node",
      "id": 11853518219,
      "lat": 12.9996156,
      "lon": 77.618154,
      "tags": {
        "check_date": "2024-04-27",
        "name": "Delux Mutton and Chicken Stall",
        "shop": "butcher"
      }
    },
    {
      "type": "node",
      "id": 11853518221,
      "lat": 12.9995282,
      "lon": 77.6180974,
      "tags": {
        "check_date": "2024-04-27",
        "name": "Ronnie's Beauty Parlour",
        "shop": "beauty"
      }
    },
    {
      "type": "node",
      "id": 11853518222,
      "lat": 12.9995101,
      "lon": 77.6180956,
      "tags": {
        "check_date": "2024-04-27",
        "name": "Dilkush Chicken Kebab",
        "shop": "butcher"
      }
    },
    {
      "type": "node",
      "id": 11853518223,
      "lat": 12.9994804,
      "lon": 77.6180975,
      "tags": {
        "check_date": "2024-04-27",
        "name": "Nectar Fresh",
        "shop": "honey"
      }
    },
    {
      "type": "node",
      "id": 11853518231,
      "lat": 12.9989319,
      "lon": 77.617652,
      "tags": {
        "check_date": "2024-04-27",
        "leisure": "sports_centre",
        "name": "Free Kick"
      }
    },
    {
      "type": "node",
      "id": 11853518233,
      "lat": 12.9986922,
      "lon": 77.617763,
      "tags": {
        "amenity": "childcare",
        "check_date": "2024-04-27",
        "name": "Bright Kid Montessori House"
      }
    },
    {
      "type": "node",
      "id": 11853518234,
      "lat": 12.9985144,
      "lon": 77.6177881,
      "tags": {
        "amenity": "fast_food",
        "check_date": "2024-04-27",
        "name": "Cafe Idly"
      }
    },
    {
      "type": "node",
      "id": 11853518235,
      "lat": 12.9984494,
      "lon": 77.6175446,
      "tags": {
        "amenity": "place_of_worship",
        "check_date": "2024-04-27",
        "religion": "hindu"
      }
    },
    {
      "type": "node",
      "id": 11853518236,
      "lat": 12.9983725,
      "lon": 77.6179151,
      "tags": {
        "amenity": "place_of_worship",
        "check_date": "2024-04-27",
        "religion": "hindu"
      }
    },
    {
      "type": "node",
      "id": 11853518240,
      "lat": 12.9980789,
      "lon": 77.6176969,
      "tags": {
        "check_date": "2024-04-27",
        "name": "laundrokart.com",
        "shop": "laundry"
      }
    },
    {
      "type": "node",
      "id": 11853708688,
      "lat": 12.9999461,
      "lon": 77.6183385,
      "tags": {
        "check_date": "2024-04-27",
        "name": "Outlook",
        "shop": "hairdresser"
      }
    },
    {
      "type": "node",
      "id": 11853708689,
      "lat": 12.9999213,
      "lon": 77.6183352,
      "tags": {
        "check_date": "2024-04-27",
        "name": "Meat Treat",
        "shop": "butcher"
      }
    },
    {
      "type": "node",
      "id": 11853708690,
      "lat": 12.9998746,
      "lon": 77.618339,
      "tags": {
        "addr:housenumber": "5/2",
        "addr:street": "Kenchappa Road",
        "check_date": "2024-04-27",
        "name": "Mr. Electrical & Gas Appliances",
        "shop": "electrical"
      }
    },
    {
      "type": "node",
      "id": 11853708691,
      "lat": 12.9998214,
      "lon": 77.6183263,
      "tags": {
        "amenity": "fast_food",
        "check_date": "2024-04-27",
        "name": "Bismillah Biryani Point"
      }
    },
    {
      "type": "node",
      "id": 11853708692,
      "lat": 12.9995568,
      "lon": 77.618253,
      "tags": {
        "check_date": "2024-04-27",
        "name": "SB Stores",
        "shop": "convenience"
      }
    },
    {
      "type": "node",
      "id": 11853708696,
      "lat": 12.9993917,
      "lon": 77.6182696,
      "tags": {
        "amenity": "clinic",
        "check_date": "2024-04-27",
        "healthcare": "clinic",
        "name": "Sai Divine ENT"
      }
    },
    {
      "type": "node",
      "id": 11853708697,
      "lat": 12.9992893,
      "lon": 77.6181036,
      "tags": {
        "check_date": "2024-04-27",
        "name": "City Mart",
        "shop": "department_store"
      }
    },
    {
      "type": "node",
      "id": 11853708698,
      "lat": 12.9992495,
      "lon": 77.6180922,
      "tags": {
        "check_date": "2024-04-27",
        "name": "KK Vegetables & Fruits",
        "shop": "greengrocer"
      }
    },
    {
      "type": "node",
      "id": 11853708699,
      "lat": 12.9992128,
      "lon": 77.6180914,
      "tags": {
        "amenity": "fast_food",
        "check_date": "2024-04-27",
        "name": "Thakur Food Point"
      }
    },
    {
      "type": "node",
      "id": 11853708700,
      "lat": 12.9991979,
      "lon": 77.6181065,
      "tags": {
        "amenity": "fast_food",
        "check_date": "2024-04-27",
        "name": "Vishnu's"
      }
    },
    {
      "type": "node",
      "id": 11853708701,
      "lat": 12.9989684,
      "lon": 77.6180202,
      "tags": {
        "addr:housenumber": "29",
        "addr:street": "Kenchappa Road",
        "check_date": "2024-04-27",
        "name": "Sri Harsha Hairdresser",
        "shop": "hairdresser"
      }
    },
    {
      "type": "node",
      "id": 11853708702,
      "lat": 12.9989367,
      "lon": 77.6180205,
      "tags": {
        "check_date": "2024-04-27",
        "name": "Jayaraj Furniture",
        "shop": "furniture"
      }
    },
    {
      "type": "node",
      "id": 11853708703,
      "lat": 12.9989122,
      "lon": 77.6180182,
      "tags": {
        "check_date": "2024-04-27",
        "name": "New Look Men's Wear",
        "shop": "tailor"
      }
    },
    {
      "type": "node",
      "id": 11853708706,
      "lat": 12.9986449,
      "lon": 77.6179603,
      "tags": {
        "amenity": "restaurant",
        "check_date": "2024-04-27",
        "name": "Namma Dosa"
      }
    },
    {
      "type": "node",
      "id": 11853708707,
      "lat": 12.9985669,
      "lon": 77.6179429,
      "tags": {
        "amenity": "restaurant",
        "check_date": "2024-04-27",
        "name": "New Delicacy",
        "opening_hours": "11:30-23:00"
      }
    },
    {
      "type": "node",
      "id": 11917162001,
      "lat": 12.9954336,
      "lon": 77.6165464,
      "tags": {
        "check_date": "2024-05-19",
        "name": "The Redd Loyal Wags",
        "shop": "pet"
      }
    },
    {
      "type": "node",
      "id": 11917162002,
      "lat": 12.9962008,
      "lon": 77.6173604,
      "tags": {
        "amenity": "bank",
        "brand": "Canara Bank",
        "brand:en": "Canara Bank",
        "brand:hi": "केनरा बैंक",
        "brand:kn": "ಕೆನರಾ ಬ್ಯಾಂಕ್",
        "brand:pa": "ਕੇਨਰਾ ਬੈਂਕ",
        "brand:pnb": "کینرا بینک",
        "brand:ur": "کینرا بینک",
        "brand:wikidata": "Q2003777",
        "check_date": "2024-05-19",
        "name": "Canara Bank",
        "name:en": "Canara Bank",
        "name:hi": "केनरा बैंक",
        "name:kn": "ಕೆನರಾ ಬ್ಯಾಂಕ್",
        "name:pa": "ਕੇਨਰਾ ਬੈਂਕ",
        "name:pnb": "کینرا بینک",
        "name:ur": "کینرا بینک"
      }
    },
    {
      "type": "node",
      "id": 11982393481,
      "lat": 12.9947937,
      "lon": 77.6154296,
      "tags": {
        "alt_name": "Kentucky Fried Chicken",
        "alt_name:en": "Kentucky Fried Chicken",
        "alt_name:hi": "केंटुकी फ्राइड चिकन",
        "alt_name:pa": "ਕੈਂਟੁਕੀ ਫ੍ਰਾਈਡ ਚਿਕਨ",
        "alt_name:pnb": "کینٹکی فرائیڈ چکن",
        "alt_name:ur": "کینٹکی فرائیڈ چکن",
        "amenity": "fast_food",
        "brand": "KFC",
        "brand:en": "KFC",
        "brand:hi": "केएफसी",
        "brand:pa": "ਕੇਐਫਸੀ",
        "brand:pnb": "کے ایف سی",
        "brand:ur": "کے ایف سی",
        "brand:wikidata": "Q524757",
        "check_date": "2024-06-15",
        "cuisine": "chicken",
        "name": "KFC",
        "name:en": "KFC",
        "name:hi": "केएफसी",
        "name:pa": "ਕੇਐਫਸੀ",
        "name:pnb": "کے ایف سی",
        "name:ur": "کے ایف سی",
        "takeaway": "yes"
      }
    },
    {
      "type": "node",
      "id": 11982393482,
      "lat": 12.9962215,
      "lon": 77.6171763,
      "tags": {
        "amenity": "bank",
        "brand": "Jana Small Finance Bank",
        "brand:wikidata": "Q65122274",
        "check_date": "2024-06-15",
        "name": "Jana Small Finance Bank"
      }
    },
    {
      "type": "node",
      "id": 11982693070,
      "lat": 12.995114,
      "lon": 77.6160795,
      "tags": {
        "amenity": "pharmacy",
        "check_date": "2024-06-15",
        "healthcare": "pharmacy",
        "name": "Surana Chemist"
      }
    },
    {
      "type": "node",
      "id": 11982693071,
      "lat": 12.9942367,
      "lon": 77.6155649,
      "tags": {
        "check_date": "2024-06-15",
        "name": "Simplex Dryers and Cleaners",
        "shop": "dry_cleaning"
      }
    },
    {
      "type": "node",
      "id": 12103825746,
      "lat": 12.9966991,
      "lon": 77.6184919,
      "tags": {
        "check_date": "2024-08-11",
        "name": "New Mahesh Men's Salon",
        "shop": "hairdresser"
      }
    },
    {
      "type": "node",
      "id": 12103825748,
      "lat": 12.9963463,
      "lon": 77.6177673,
      "tags": {
        "check_date": "2024-08-11",
        "name": "Pearls Salon",
        "shop": "beauty"
      }
    },
    {
      "type": "node",
      "id": 12103968915,
      "lat": 12.9969502,
      "lon": 77.6200616,
      "tags": {
        "check_date": "2024-08-11",
        "name": "Kundan Electronics",
        "shop": "electronics"
      }
    },
    {
      "type": "node",
      "id": 12103968916,
      "lat": 12.9951282,
      "lon": 77.6143536,
      "tags": {
        "amenity": "cafe",
        "check_date": "2024-08-11",
        "name": "Belgian Waffle Factory"
      }
    },
    {
      "type": "node",
      "id": 12432796826,
      "lat": 13.001244,
      "lon": 77.6236928,
      "tags": {
        "shop": "bakery"
      }
    },
    {
      "type": "node",
      "id": 12432796827,
      "lat": 13.0012262,
      "lon": 77.6236855,
      "tags": {
        "shop": "pet"
      }
    },
    {
      "type": "node",
      "id": 12432796828,
      "lat": 13.0012024,
      "lon": 77.6236766,
      "tags": {
        "shop": "dry_cleaning"
      }
    },
    {
      "type": "node",
      "id": 12432796829,
      "lat": 13.0011806,
      "lon": 77.6236652,
      "tags": {
        "amenity": "fast_food",
        "cuisine": "kebab;tandori",
        "name": "House of Tandoor"
      }
    },
    {
      "type": "node",
      "id": 12432796835,
      "lat": 13.0003062,
      "lon": 77.6233036,
      "tags": {
        "shop": "pastry"
      }
    },
    {
      "type": "node",
      "id": 12480291525,
      "lat": 12.9864128,
      "lon": 77.6241582,
      "tags": {
        "amenity": "place_of_worship",
        "religion": "hindu"
      }
    },
    {
      "type": "node",
      "id": 12495403807,
      "lat": 12.9985311,
      "lon": 77.620385,
      "tags": {
        "brand": "Nandini",
        "brand:wikidata": "Q124374212",
        "name": "Nandini",
        "shop": "dairy"
      }
    },
    {
      "type": "node",
      "id": 12538503976,
      "lat": 13.0003766,
      "lon": 77.6233584,
      "tags": {
        "addr:city": "Bengaluru",
        "addr:postcode": "560005",
        "addr:street": "Wheeler Rd Ext, Balaji Layout, Cooke Town",
        "amenity": "bank",
        "brand": "State Bank of India",
        "brand:wikidata": "Q1340361",
        "name": "State Bank of India",
        "short_name": "SBI"
      }
    },
    {
      "type": "node",
      "id": 12630531174,
      "lat": 12.9955295,
      "lon": 77.6141489,
      "tags": {
        "amenity": "fast_food",
        "name": "The Churros Corner"
      }
    },
    {
      "type": "node",
      "id": 12630531190,
      "lat": 12.9953557,
      "lon": 77.616481,
      "tags": {
        "name": "Jazz Musical",
        "shop": "musical_instrument"
      }
    },
    {
      "type": "node",
      "id": 12630531191,
      "lat": 12.9958249,
      "lon": 77.6164556,
      "tags": {
        "amenity": "fast_food",
        "cuisine": "burger",
        "name": "Peppa Zzing"
      }
    },
    {
      "type": "node",
      "id": 12788682209,
      "lat": 12.9872864,
      "lon": 77.6168337,
      "tags": {
        "amenity": "restaurant",
        "name": "Citrus Cafe"
      }
    },
    {
      "type": "node",
      "id": 12994043233,
      "lat": 13.0008849,
      "lon": 77.6240354,
      "tags": {
        "amenity": "waste_basket"
      }
    },
    {
      "type": "node",
      "id": 12994043234,
      "lat": 13.0008131,
      "lon": 77.6240569,
      "tags": {
        "amenity": "bench",
        "backrest": "no",
        "material": "stone"
      }
    },
    {
      "type": "node",
      "id": 12994043242,
      "lat": 13.0009433,
      "lon": 77.6241184,
      "tags": {
        "amenity": "bench",
        "backrest": "yes",
        "material": "stone"
      }
    },
    {
      "type": "node",
      "id": 12994043243,
      "lat": 13.0009312,
      "lon": 77.6241193,
      "tags": {
        "amenity": "bench",
        "backrest": "yes",
        "material": "stone"
      }
    },
    {
      "type": "node",
      "id": 12994043244,
      "lat": 13.000923,
      "lon": 77.6241112,
      "tags": {
        "amenity": "bench",
        "backrest": "yes",
        "material": "stone"
      }
    },
    {
      "type": "node",
      "id": 12994043245,
      "lat": 13.0006702,
      "lon": 77.6241339,
      "tags": {
        "amenity": "waste_basket"
      }
    },
    {
      "type": "node",
      "id": 12994043248,
      "lat": 13.001134,
      "lon": 77.6240864,
      "tags": {
        "amenity": "bench",
        "backrest": "no"
      }
    },
    {
      "type": "node",
      "id": 12994043249,
      "lat": 13.0010747,
      "lon": 77.6242654,
      "tags": {
        "amenity": "waste_basket",
        "check_date": "2024-04-15"
      }
    },
    {
      "type": "node",
      "id": 12994043250,
      "lat": 13.0011065,
      "lon": 77.624216,
      "tags": {
        "amenity": "waste_basket",
        "check_date": "2024-04-15"
      }
    },
    {
      "type": "node",
      "id": 13143950901,
      "lat": 12.9977025,
      "lon": 77.6217069,
      "tags": {
        "addr:housenumber": "114",
        "addr:postcode": "560005",
        "addr:street": "Wheeler Road",
        "name": "Bharat Gas Agency - Manav Enterprises",
        "opening_hours": "Mo-Sa 10:00-17:30",
        "phone": "098804 91280",
        "shop": "gas"
      }
    },
    {
      "type": "node",
      "id": 13288507188,
      "lat": 12.994693,
      "lon": 77.6149939,
      "tags": {
        "amenity": "pub",
        "name": "Sly"
      }
    },
    {
      "type": "node",
      "id": 13290544301,
      "lat": 12.9875972,
      "lon": 77.6208401,
      "tags": {
        "name": "6oz Coffee and Roasters",
        "opening_hours": "Mo-Su 09:00-22:00",
        "phone": "+91 80502 02148",
        "shop": "coffee",
        "website": "http://6oz.coffee"
      }
    },
    {
      "type": "way",
      "id": 30810609,
      "center": {
        "lat": 12.9897489,
        "lon": 77.6168853
      },
      "tags": {
        "leisure": "track",
        "name": "Kendriya Vidyala MEG and Centre",
        "name:kn": "ಕೇಂದ್ರಿಯ ವಿದ್ಯಾಲಯ",
        "sport": "athletics"
      }
    },
    {
      "type": "way",
      "id": 37111308,
      "center": {
        "lat": 12.992577,
        "lon": 77.632695
      },
      "tags": {
        "amenity": "grave_yard",
        "landuse": "cemetery",
        "name": "Kalpalli Cemetery Graveyard",
        "religion": "christian"
      }
    },
    {
      "type": "way",
      "id": 37136671,
      "center": {
        "lat": 12.9876751,
        "lon": 77.6147713
      },
      "tags": {
        "amenity": "school",
        "name": "Kendriya Vidhyalaya, MEG Centre",
        "name:kn": "ಕೇಂದ್ರಿಯ ವಿದ್ಯಾಲಯ",
        "short_name": "KV MEG"
      }
    },
    {
      "type": "way",
      "id": 39158782,
      "center": {
        "lat": 13.0006821,
        "lon": 77.6187807
      },
      "tags": {
        "barrier": "wall",
        "leisure": "pitch",
        "name": "Bangalore East Playground",
        "sport": "soccer",
        "surface": "ground"
      }
    },
    {
      "type": "way",
      "id": 72385373,
      "center": {
        "lat": 13.0009284,
        "lon": 77.624071
      },
      "tags": {
        "barrier": "fence",
        "leisure": "park",
        "name": "Milton Street Park"
      }
    },
    {
      "type": "way",
      "id": 133257538,
      "center": {
        "lat": 12.9918617,
        "lon": 77.6130161
      },
      "tags": {
        "addr:housenumber": "132",
        "addr:postcode": "560005",
        "addr:street": "St. John's Church Road",
        "alt_name": "St. , John's, SJHS",
        "amenity": "school",
        "name": "St. John's High School",
        "name:kn": "ಸಂತ ಜಾನ್ ಪ್ರೌಢಶಾಲೆ"
      }
    },
    {
      "type": "way",
      "id": 134021579,
      "center": {
        "lat": 12.9915559,
        "lon": 77.6342403
      },
      "tags": {
        "amenity": "crematorium",
        "landuse": "cemetery",
        "name": "Kalpalli Cemetery Crematorium",
        "name:kn": "ಕಲಪಲ್ಲಿ ಸ್ಮಶಾನ"
      }
    },
    {
      "type": "way",
      "id": 138314536,
      "center": {
        "lat": 12.9870764,
        "lon": 77.6195355
      },
      "tags": {
        "leisure": "park"
      }
    },
    {
      "type": "way",
      "id": 182177279,
      "center": {
        "lat": 12.9853954,
        "lon": 77.6221829
      },
      "tags": {
        "leisure": "park",
        "name": "Ulsoor Lake Park",
        "operator": "ಬೃಹತ್ ಬೆಂಗಳೂರು ಮಹಾನಗರ ಪಾಲಿಕೆ",
        "operator:en": "Bruhat Bengaluru Mahanagara Palike",
        "operator:ka": "ಬೃಹತ್ ಬೆಂಗಳೂರು ಮಹಾನಗರ ಪಾಲಿಕೆ",
        "operator:short": "BBMP",
        "operator:type": "government",
        "operator:wikidata": "Q4978693"
      }
    },
    {
      "type": "way",
      "id": 217558961,
      "center": {
        "lat": 12.9954933,
        "lon": 77.6180858
      },
      "tags": {
        "leisure": "sports_centre",
        "name": "Indian Gymkhana"
      }
    },
    {
      "type": "way",
      "id": 217558963,
      "center": {
        "lat": 12.9938563,
        "lon": 77.6194601
      },
      "tags": {
        "amenity": "school",
        "name": "St. Aloysius High School"
      }
    },
    {
      "type": "way",
      "id": 217558972,
      "center": {
        "lat": 12.9946242,
        "lon": 77.6188542
      },
      "tags": {
        "leisure": "playground",
        "name": "Clarence High School Playground"
      }
    },
    {
      "type": "way",
      "id": 313327208,
      "center": {
        "lat": 13.0004541,
        "lon": 77.6239357
      },
      "tags": {
        "barrier": "fence",
        "leisure": "playground",
        "name": "High Street Park",
        "toilets:wheelchair": "no",
        "wheelchair": "no"
      }
    },
    {
      "type": "way",
      "id": 313396132,
      "center": {
        "lat": 13.0005492,
        "lon": 77.6236229
      },
      "tags": {
        "addr:city": "Bangalore",
        "addr:housenumber": "12",
        "addr:postcode": "560005",
        "addr:street": "High Street",
        "amenity": "place_of_worship",
        "building": "yes",
        "building:colour": "lightyellow",
        "building:levels": "3",
        "building:material": "stone",
        "denomination": "seventh_day_adventist",
        "name": "Seventh Day Adventist Church",
        "name:kn": "ಸೆವೆಂತ್ ಡೇ ಅಡ್ವೆಂಟಿಸ್ಟ್ ಪ್ರೌಢ ಚರ್ಚ್",
        "religion": "christian",
        "roof:colour": "dodgerblue"
      }
    },
    {
      "type": "way",
      "id": 313396175,
      "center": {
        "lat": 13.0005137,
        "lon": 77.6258781
      },
      "tags": {
        "amenity": "conference_centre",
        "building": "yes",
        "building:levels": "4",
        "name": "Don Bosco Provential House",
        "roof:colour": "gray"
      }
    },
    {
      "type": "way",
      "id": 313396177,
      "center": {
        "lat": 13.0005591,
        "lon": 77.6234676
      },
      "tags": {
        "amenity": "bank",
        "brand": "Canara Bank",
        "brand:en": "Canara Bank",
        "brand:hi": "केनरा बैंक",
        "brand:kn": "ಕೆನರಾ ಬ್ಯಾಂಕ್",
        "brand:pa": "ਕੇਨਰਾ ਬੈਂਕ",
        "brand:pnb": "کینرا بینک",
        "brand:ur": "کینرا بینک",
        "brand:wikidata": "Q2003777",
        "brand:wikipedia": "en:Canara Bank",
        "brand:wikipedia:pa": "ਕੇਨਰਾ ਬੈਂਕ",
        "building": "yes",
        "building:colour": "lightgray",
        "building:levels": "2",
        "building:material": "plaster",
        "name": "Canara Bank",
        "name:en": "Canara Bank",
        "name:hi": "केनरा बैंक",
        "name:kn": "ಕೆನರಾ ಬ್ಯಾಂಕ್",
        "name:pa": "ਕੇਨਰਾ ਬੈਂਕ",
        "name:pnb": "کینرا بینک",
        "name:ur": "کینرا بینک",
        "roof:colour": "gray"
      }
    },
    {
      "type": "way",
      "id": 313816690,
      "center": {
        "lat": 12.9994947,
        "lon": 77.6246862
      },
      "tags": {
        "amenity": "restaurant",
        "building": "yes",
        "name": "Rose Garden Bar & Restaurant",
        "roof:colour": "white"
      }
    },
    {
      "type": "way",
      "id": 329076197,
      "center": {
        "lat": 12.9879883,
        "lon": 77.6304042
      },
      "tags": {
        "leisure": "pitch",
        "sport": "soccer"
      }
    },
    {
      "type": "way",
      "id": 343885062,
      "center": {
        "lat": 12.9989232,
        "lon": 77.6252365
      },
      "tags": {
        "access": "private",
        "amenity": "food_court",
        "building": "yes"
      }
    },
    {
      "type": "way",
      "id": 344643275,
      "center": {
        "lat": 12.9987966,
        "lon": 77.6199599
      },
      "tags": {
        "leisure": "pitch",
        "sport": "tennis"
      }
    },
    {
      "type": "way",
      "id": 346011124,
      "center": {
        "lat": 12.9995594,
        "lon": 77.6201666
      },
      "tags": {
        "amenity": "marketplace"
      }
    },
    {
      "type": "way",
      "id": 346011130,
      "center": {
        "lat": 12.9995712,
        "lon": 77.6189351
      },
      "tags": {
        "amenity": "place_of_worship",
        "building": "temple",
        "religion": "hindu"
      }
    },
    {
      "type": "way",
      "id": 346025006,
      "center": {
        "lat": 13.0012071,
        "lon": 77.6240619
      },
      "tags": {
        "building": "yes",
        "name": "ಹಾಪ್‌ಕಾಮ್ಸ್",
        "roof:colour": "gray",
        "shop": "greengrocer"
      }
    },
    {
      "type": "way",
      "id": 346025222,
      "center": {
        "lat": 12.999408,
        "lon": 77.6203085
      },
      "tags": {
        "barrier": "fence",
        "leisure": "park",
        "name": "Sarvagna Park"
      }
    },
    {
      "type": "way",
      "id": 346208891,
      "center": {
        "lat": 12.9917055,
        "lon": 77.6148698
      },
      "tags": {
        "amenity": "bank",
        "brand": "Punjab National Bank",
        "brand:wikidata": "Q2743499",
        "building": "yes",
        "name": "Punjab National Bank",
        "name:en": "Punjab National Bank",
        "name:kn": "ಪಂಜಾಬ ರಾಷ್ಟ್ರೀಯ ಬ್ಯಾಂಕ್",
        "short_name": "PNB",
        "website": "https://www.pnbindia.in"
      }
    },
    {
      "type": "way",
      "id": 346282268,
      "center": {
        "lat": 13.0001156,
        "lon": 77.6208046
      },
      "tags": {
        "addr:city": "Bangalore",
        "addr:housenumber": "2",
        "addr:postcode": "560005",
        "addr:street": "Hutchins Main Road",
        "amenity": "place_of_worship",
        "building": "church",
        "building:colour": "aliceblue",
        "building:levels": "3",
        "building:material": "plaster",
        "denomination": "jehovahs_witness",
        "name": "Kingdom Hall of Jehovah's Witnesses",
        "religion": "christian",
        "roof:colour": "white"
      }
    },
    {
      "type": "way",
      "id": 346502802,
      "center": {
        "lat": 12.9970823,
        "lon": 77.6294393
      },
      "tags": {
        "addr:city": "Bengaluru",
        "addr:postcode": "560005",
        "addr:street": "Park Rd, Jeevanahalli, Jeevanhalli, Cox Town",
        "amenity": "recycling",
        "building": "yes",
        "name": "Dry Waste Collection Centre",
        "recycling:glass": "yes",
        "recycling:paper": "yes",
        "recycling:plastic": "yes",
        "recycling:plastic_bottles": "yes",
        "recycling:scrap_metal": "yes",
        "recycling_type": "centre"
      }
    },
    {
      "type": "way",
      "id": 348567425,
      "center": {
        "lat": 12.9996394,
        "lon": 77.6210894
      },
      "tags": {
        "addr:city": "Bangalore",
        "addr:housenumber": "22",
        "addr:postcode": "560005",
        "addr:street": "Pottery Road",
        "amenity": "place_of_worship",
        "building": "church",
        "building:colour": "aliceblue",
        "building:levels": "1",
        "building:material": "plaster",
        "denomination": "brethren",
        "religion": "christian",
        "roof:colour": "gray",
        "service_times": "Su 10:00, 18:00"
      }
    },
    {
      "type": "way",
      "id": 350750588,
      "center": {
        "lat": 13.0012787,
        "lon": 77.6232544
      },
      "tags": {
        "addr:city": "Bangalore",
        "addr:housenumber": "4",
        "addr:postcode": "560005",
        "addr:street": "High Street Cross",
        "amenity": "place_of_worship",
        "building": "yes",
        "building:colour": "lightyellow",
        "building:material": "plaster",
        "check_date": "2023-08-25",
        "name": "Emmanuel Church",
        "religion": "christian",
        "roof:colour": "white",
        "service_times": "Su 10:00; Su 18:00"
      }
    },
    {
      "type": "way",
      "id": 350872983,
      "center": {
        "lat": 12.9981103,
        "lon": 77.6202423
      },
      "tags": {
        "amenity": "place_of_worship",
        "building": "church",
        "building:levels": "2",
        "name": "St Peters Tamil Church",
        "religion": "christian"
      }
    },
    {
      "type": "way",
      "id": 351582432,
      "center": {
        "lat": 12.9969574,
        "lon": 77.6191261
      },
      "tags": {
        "amenity": "recycling",
        "building": "yes",
        "name": "Kamala Refinery",
        "recycling:scrap_metal": "yes",
        "recycling_type": "centre"
      }
    },
    {
      "type": "way",
      "id": 351810509,
      "center": {
        "lat": 13.0006058,
        "lon": 77.6224957
      },
      "tags": {
        "addr:city": "Bangalore",
        "addr:housenumber": "1",
        "addr:postcode": "560005",
        "addr:street": "Lewis Road",
        "building": "yes",
        "building:colour": "lightyellow",
        "building:levels": "2",
        "building:material": "plaster",
        "check_date": "2023-12-31",
        "name": "Lightroom Bookstore",
        "roof:colour": "gray",
        "shop": "books"
      }
    },
    {
      "type": "way",
      "id": 351810653,
      "center": {
        "lat": 13.0010159,
        "lon": 77.6236265
      },
      "tags": {
        "amenity": "music_school",
        "building": "yes",
        "building:colour": "lightyellow",
        "building:levels": "3",
        "building:material": "plaster",
        "building:use": "commercial",
        "name": "Music Central",
        "opening_hours": "Mo-Sa 10:00-20:00",
        "roof:colour": "gray",
        "website": "https://www.musiccentral.in/"
      }
    },
    {
      "type": "way",
      "id": 351810824,
      "center": {
        "lat": 13.0012853,
        "lon": 77.6238333
      },
      "tags": {
        "building": "yes",
        "building:levels": "2",
        "female": "yes",
        "name": "Genesis Spa Salon Boutique",
        "opening_hours": "Mo-Su 10:00-20:00; Tu off",
        "roof:colour": "gray",
        "shop": "hairdresser"
      }
    },
    {
      "type": "way",
      "id": 352198878,
      "center": {
        "lat": 12.9994109,
        "lon": 77.6244306
      },
      "tags": {
        "addr:city": "Bangalore",
        "addr:housenumber": "5",
        "addr:postcode": "560005",
        "addr:street": "Banaswadi Road",
        "amenity": "monastery",
        "building": "yes",
        "building:colour": "lightblue",
        "building:material": "plaster",
        "denomination": "catholic",
        "name": "St. Vincent House",
        "religion": "christian",
        "roof:colour": "white"
      }
    },
    {
      "type": "way",
      "id": 363458703,
      "center": {
        "lat": 12.9932061,
        "lon": 77.6139127
      },
      "tags": {
        "amenity": "school",
        "landuse": "education"
      }
    },
    {
      "type": "way",
      "id": 385200731,
      "center": {
        "lat": 13.0006187,
        "lon": 77.6214792
      },
      "tags": {
        "leisure": "park",
        "name": "Cooke Town Park",
        "name:en": "Cooke Town Park",
        "name:kn": "ಕುಕ್ ಟೌನ್ ಉದ್ಯಾನವನ"
      }
    },
    {
      "type": "way",
      "id": 421097861,
      "center": {
        "lat": 12.9860564,
        "lon": 77.6188133
      },
      "tags": {
        "leisure": "pitch"
      }
    },
    {
      "type": "way",
      "id": 421097862,
      "center": {
        "lat": 12.9862788,
        "lon": 77.618436
      },
      "tags": {
        "leisure": "garden"
      }
    },
    {
      "type": "way",
      "id": 436666219,
      "center": {
        "lat": 12.9841065,
        "lon": 77.6221108
      },
      "tags": {
        "access": "customers",
        "leisure": "swimming_pool",
        "length": "50",
        "location": "outdoor"
      }
    },
    {
      "type": "way",
      "id": 462300034,
      "center": {
        "lat": 13.0002009,
        "lon": 77.6194417
      },
      "tags": {
        "leisure": "park",
        "name": "East park"
      }
    },
    {
      "type": "way",
      "id": 492502342,
      "center": {
        "lat": 12.9840801,
        "lon": 77.6221647
      },
      "tags": {
        "leisure": "sports_centre",
        "name": "Kensington Swimming Pool",
        "sport": "swimming"
      }
    },
    {
      "type": "way",
      "id": 691153651,
      "center": {
        "lat": 12.9873184,
        "lon": 77.6223456
      },
      "tags": {
        "leisure": "park"
      }
    },
    {
      "type": "way",
      "id": 775444096,
      "center": {
        "lat": 12.9943727,
        "lon": 77.6136842
      },
      "tags": {
        "leisure": "pitch"
      }
    },
    {
      "type": "way",
      "id": 775448748,
      "center": {
        "lat": 12.9914454,
        "lon": 77.6136085
      },
      "tags": {
        "leisure": "pitch",
        "name": "St. John's Football Ground",
        "sport": "soccer"
      }
    },
    {
      "type": "way",
      "id": 865277256,
      "center": {
        "lat": 13.0012361,
        "lon": 77.6251298
      },
      "tags": {
        "amenity": "school",
        "landuse": "education"
      }
    },
    {
      "type": "way",
      "id": 925592816,
      "center": {
        "lat": 13.0009436,
        "lon": 77.6214621
      },
      "tags": {
        "addr:city": "Bangalore",
        "addr:housenumber": "12",
        "addr:postcode": "560005",
        "addr:street": "Hutchins Main Road",
        "amenity": "dentist",
        "building": "semidetached_house",
        "building:colour": "red",
        "building:material": "plaster",
        "healthcare": "dentist",
        "name": "Dental Health Clinic",
        "roof:colour": "white"
      }
    },
    {
      "type": "way",
      "id": 961091789,
      "center": {
        "lat": 12.9990478,
        "lon": 77.6242516
      },
      "tags": {
        "amenity": "cafe",
        "building": "yes",
        "building:levels": "2",
        "name": "Sanctuary",
        "roof:colour": "white"
      }
    },
    {
      "type": "way",
      "id": 961091791,
      "center": {
        "lat": 12.9999491,
        "lon": 77.6252175
      },
      "tags": {
        "addr:city": "Bangalore",
        "addr:housenumber": "12/2",
        "addr:postcode": "560005",
        "addr:street": "Banaswadi Road",
        "building": "yes",
        "building:colour": "white",
        "building:material": "plaster",
        "name": "12/2",
        "opening_hours": "10:30 - 19:00",
        "roof:colour": "gray",
        "shop": "gift"
      }
    },
    {
      "type": "way",
      "id": 961651327,
      "center": {
        "lat": 13.0005642,
        "lon": 77.622022
      },
      "tags": {
        "amenity": "college",
        "landuse": "education"
      }
    },
    {
      "type": "way",
      "id": 1051886122,
      "center": {
        "lat": 12.9912597,
        "lon": 77.6172381
      },
      "tags": {
        "leisure": "pitch",
        "sport": "tennis"
      }
    },
    {
      "type": "way",
      "id": 1051886124,
      "center": {
        "lat": 12.991261,
        "lon": 77.619072
      },
      "tags": {
        "leisure": "park"
      }
    },
    {
      "type": "way",
      "id": 1051886131,
      "center": {
        "lat": 12.9908979,
        "lon": 77.6138419
      },
      "tags": {
        "amenity": "fuel",
        "brand": "Bharat Petroleum",
        "brand:wikidata": "Q854826",
        "compressed_air": "yes",
        "name": "Bharat Petroleum",
        "name:kn": "ಭಾರತ್ ಪೆಟ್ರೋಲಿಯಂ",
        "operator": "Bharat Petroleum"
      }
    },
    {
      "type": "way",
      "id": 1087008972,
      "center": {
        "lat": 12.9835444,
        "lon": 77.6234989
      },
      "tags": {
        "amenity": "social_facility",
        "brand": "Red Cross",
        "name": "Indian Red Cross Society",
        "office": "ngo"
      }
    },
    {
      "type": "way",
      "id": 1107016495,
      "center": {
        "lat": 12.9993467,
        "lon": 77.619613
      },
      "tags": {
        "alt_name": "Frazer Town Police Station",
        "amenity": "police",
        "name": "Pulakeshi Nagar Police Station",
        "name:kn": "ಪುಲಕೇಶಿನಗರ ಆರಕ್ಷಕ ಠಾಣೆ"
      }
    },
    {
      "type": "way",
      "id": 1125007550,
      "center": {
        "lat": 12.9921005,
        "lon": 77.6252113
      },
      "tags": {
        "golf:course": "18_hole",
        "landuse": "grass",
        "leisure": "golf_course",
        "name": "MEG Golf Course"
      }
    },
    {
      "type": "way",
      "id": 1217671311,
      "center": {
        "lat": 12.9973095,
        "lon": 77.6212792
      },
      "tags": {
        "amenity": "school",
        "name": "Government First Grade College",
        "name:kn": "ಸರಕಾರಿ ಪ್ರಥಮ ದರ್ಜೆ ಕಾಲೇಜು"
      }
    },
    {
      "type": "way",
      "id": 1233815376,
      "center": {
        "lat": 13.0014099,
        "lon": 77.6206848
      },
      "tags": {
        "landuse": "industrial",
        "name": "Dhobi Ghat",
        "name:kn": "ಧೋಬಿ ಘಾಟ್",
        "shop": "laundry"
      }
    },
    {
      "type": "way",
      "id": 1235785958,
      "center": {
        "lat": 13.0001441,
        "lon": 77.6219175
      },
      "tags": {
        "access": "private",
        "leisure": "swimming_pool",
        "location": "roof"
      }
    },
    {
      "type": "way",
      "id": 1235866756,
      "center": {
        "lat": 12.9922229,
        "lon": 77.6176314
      },
      "tags": {
        "access": "private",
        "leisure": "swimming_pool"
      }
    },
    {
      "type": "way",
      "id": 1235866763,
      "center": {
        "lat": 12.9989358,
        "lon": 77.6247001
      },
      "tags": {
        "access": "private",
        "amenity": "place_of_worship",
        "building": "yes",
        "religion": "hindu"
      }
    },
    {
      "type": "way",
      "id": 1235866764,
      "center": {
        "lat": 12.9992424,
        "lon": 77.6249225
      },
      "tags": {
        "access": "private",
        "amenity": "parking",
        "parking": "surface"
      }
    },
    {
      "type": "way",
      "id": 1235866765,
      "center": {
        "lat": 12.9983555,
        "lon": 77.6241946
      },
      "tags": {
        "access": "private",
        "leisure": "pitch",
        "lit": "yes",
        "sport": "soccer"
      }
    },
    {
      "type": "way",
      "id": 1235866766,
      "center": {
        "lat": 12.9983628,
        "lon": 77.6254509
      },
      "tags": {
        "access": "private",
        "amenity": "toilets",
        "building": "yes",
        "female": "yes",
        "male": "yes"
      }
    },
    {
      "type": "way",
      "id": 1235866773,
      "center": {
        "lat": 12.9957741,
        "lon": 77.6258859
      },
      "tags": {
        "access": "private",
        "amenity": "parking",
        "parking": "surface"
      }
    },
    {
      "type": "way",
      "id": 1235995421,
      "center": {
        "lat": 12.9893901,
        "lon": 77.621104
      },
      "tags": {
        "access": "private",
        "leisure": "pitch",
        "sport": "tennis"
      }
    },
    {
      "type": "way",
      "id": 1267604513,
      "center": {
        "lat": 12.9954087,
        "lon": 77.6178134
      },
      "tags": {
        "leisure": "pitch",
        "sport": "basketball"
      }
    },
    {
      "type": "way",
      "id": 1267604514,
      "center": {
        "lat": 12.9955902,
        "lon": 77.6176384
      },
      "tags": {
        "leisure": "pitch",
        "sport": "tennis"
      }
    },
    {
      "type": "way",
      "id": 1292674572,
      "center": {
        "lat": 13.0005039,
        "lon": 77.6267799
      },
      "tags": {
        "amenity": "place_of_worship",
        "landuse": "religious",
        "name": "St. Thomas Orthodox Church",
        "name:kn": "ಸಂತ ಥಾಮಸ್ ಆರ್ಥಡಾಕ್ಸ ಚರ್ಚ್",
        "religion": "christian"
      }
    },
    {
      "type": "way",
      "id": 1304189526,
      "center": {
        "lat": 12.9873586,
        "lon": 77.6170219
      },
      "tags": {
        "access": "private",
        "amenity": "parking",
        "parking": "surface"
      }
    },
    {
      "type": "way",
      "id": 1304189527,
      "center": {
        "lat": 12.9870992,
        "lon": 77.6168483
      },
      "tags": {
        "access": "private",
        "amenity": "parking",
        "parking": "surface"
      }
    },
    {
      "type": "way",
      "id": 1305737836,
      "center": {
        "lat": 12.9899666,
        "lon": 77.6261665
      },
      "tags": {
        "access": "private",
        "leisure": "pitch",
        "sport": "basketball"
      }
    },
    {
      "type": "way",
      "id": 1349194501,
      "center": {
        "lat": 12.986285,
        "lon": 77.6230704
      },
      "tags": {
        "amenity": "place_of_worship",
        "landuse": "religious",
        "name": "Sri Anandpur Satsang Ashram",
        "religion": "hindu"
      }
    },
    {
      "type": "way",
      "id": 1349194506,
      "center": {
        "lat": 12.9869299,
        "lon": 77.6226142
      },
      "tags": {
        "leisure": "park"
      }
    },
    {
      "type": "way",
      "id": 1349194555,
      "center": {
        "lat": 12.9876888,
        "lon": 77.6210655
      },
      "tags": {
        "amenity": "events_venue",
        "building": "yes"
      }
    },
    {
      "type": "way",
      "id": 1350607160,
      "center": {
        "lat": 12.9904005,
        "lon": 77.6190992
      },
      "tags": {
        "amenity": "community_centre",
        "name": "Young Men Indians' Association"
      }
    },
    {
      "type": "way",
      "id": 1350607175,
      "center": {
        "lat": 12.9957881,
        "lon": 77.6186034
      },
      "tags": {
        "access": "customers",
        "amenity": "parking",
        "parking": "surface"
      }
    },
    {
      "type": "way",
      "id": 1350607177,
      "center": {
        "lat": 12.9949693,
        "lon": 77.6194125
      },
      "tags": {
        "amenity": "place_of_worship",
        "landuse": "religious",
        "religion": "hindu"
      }
    },
    {
      "type": "way",
      "id": 1350607179,
      "center": {
        "lat": 12.9984364,
        "lon": 77.6203075
      },
      "tags": {
        "amenity": "marketplace",
        "landuse": "retail",
        "name": "Cox Town Market"
      }
    },
    {
      "type": "way",
      "id": 1350607181,
      "center": {
        "lat": 12.9989578,
        "lon": 77.6199465
      },
      "tags": {
        "amenity": "community_centre",
        "name": "Women's Indian Association"
      }
    },
    {
      "type": "way",
      "id": 1375061408,
      "center": {
        "lat": 12.997406,
        "lon": 77.6176512
      },
      "tags": {
        "addr:city": "Bangalore",
        "addr:postcode": "56005",
        "addr:street": "Buddha Vihar Road",
        "amenity": "place_of_worship",
        "denomination": "tibetan",
        "name": "Buddha Vihar",
        "name:hi": "बुद्धा विहार",
        "name:kn": "ಬುದ್ಧ ವಿಹಾರ್",
        "religion": "buddhist",
        "service_times": "Su 11:00-13:00",
        "start_date": "1907"
      }
    },
    {
      "type": "way",
      "id": 1381418977,
      "center": {
        "lat": 12.9861309,
        "lon": 77.6161109
      },
      "tags": {
        "access": "permissive",
        "amenity": "parking",
        "capacity": "8",
        "parking": "surface"
      }
    },
    {
      "type": "way",
      "id": 1381418978,
      "center": {
        "lat": 12.9858532,
        "lon": 77.6165343
      },
      "tags": {
        "access": "permissive",
        "amenity": "parking",
        "capacity": "12",
        "parking": "surface"
      }
    },
    {
      "type": "way",
      "id": 1409545078,
      "center": {
        "lat": 12.991834,
        "lon": 77.6147343
      },
      "tags": {
        "amenity": "fuel",
        "brand": "Hindustan Petroleum",
        "brand:wikidata": "Q1619375",
        "compressed_air": "yes",
        "name": "Hindustan Petroleum",
        "name:kn": "ಹಿಂದುಸ್ತಾನ್ ಪೆಟ್ರೋಲಿಯಂ",
        "official_name": "Hindustan Petroleum"
      }
    },
    {
      "type": "way",
      "id": 1414057816,
      "center": {
        "lat": 13.0011729,
        "lon": 77.6241482
      },
      "tags": {
        "amenity": "shelter",
        "building": "yes",
        "shelter_type": "gazebo"
      }
    }
  ]
}