{
  "area_name": "Doddabommasandra",
  "osm_id": 19883246,
  "osm_type": "relation",
  "place_type": "administrative",
  "amenity_count": 87,
  "amenities": [
    {
      "type": "node",
      "id": 521157750,
      "lat": 13.0508316,
      "lon": 77.5531101,
      "tags": {
        "amenity": "post_office",
        "name": "Jalahalli Post Office",
        "name:kn": "ಜಾಲಹಳ್ಳಿ ಅಂಚೆ ಕಛೇರಿ",
        "wheelchair": "no"
      }
    },
    {
      "type": "node",
      "id": 1462240589,
      "lat": 13.0511982,
      "lon": 77.5526747,
      "tags": {
        "amenity": "bank",
        "atm": "yes",
        "brand": "State Bank of India",
        "brand:wikidata": "Q1340361",
        "brand:wikipedia": "en:State Bank of India",
        "name": "State Bank of India",
        "name:kn": "ಎಸ್ ಬಿ ಐ",
        "short_name": "SBI",
        "toilets:wheelchair": "no",
        "wheelchair": "limited"
      }
    },
    {
      "type": "node",
      "id": 2344091934,
      "lat": 13.0493747,
      "lon": 77.5557397,
      "tags": {
        "amenity": "theatre",
        "name": "BEL Kalakshetra"
      }
    },
    {
      "type": "node",
      "id": 2348864038,
      "lat": 13.0590978,
      "lon": 77.5592692,
      "tags": {
        "name": "Sri Manjunatha Wines",
        "shop": "alcohol",
        "toilets:wheelchair": "no",
        "wheelchair": "no"
      }
    },
    {
      "type": "node",
      "id": 2353259152,
      "lat": 13.0601253,
      "lon": 77.5587008,
      "tags": {
        "amenity": "atm",
        "brand": "ICICI Bank",
        "brand:wikidata": "Q1653258",
        "name": "ICICI Bank",
        "name:kn": "ಐಸಿಐಸಿಐ ಬ್ಯಾಂಕು",
        "operator": "ICICI Bank",
        "operator:wikidata": "Q1653258",
        "short_name": "ICICI"
      }
    },
    {
      "type": "node",
      "id": 2353259155,
      "lat": 13.0601513,
      "lon": 77.5586148,
      "tags": {
        "amenity": "atm",
        "brand": "HDFC Bank",
        "brand:wikidata": "Q631047",
        "name": "HDFC Bank",
        "name:kn": "ಎಚ್ ಡಿ ಎಫ್ ಸಿ",
        "operator": "HDFC Bank",
        "operator:wikidata": "Q631047",
        "short_name": "HDFC"
      }
    },
    {
      "type": "node",
      "id": 3017485739,
      "lat": 13.0610953,
      "lon": 77.5540677,
      "tags": {
        "amenity": "school",
        "name": "Rajarajeshwari School",
        "name:kn": "ರಾಜರಾಜೇಶ್ವರಿ ಶಾಲೆ",
        "wheelchair": "limited"
      }
    },
    {
      "type": "node",
      "id": 3948562480,
      "lat": 13.0571395,
      "lon": 77.548177,
      "tags": {
        "addr:city": "Bengaluru",
        "addr:postcode": "560013",
        "amenity": "place_of_worship",
        "denomination": "orthodox",
        "name": "St. Mary's Orthodox Valiapalli",
        "religion": "christian",
        "wikidata": "Q7590380",
        "wikipedia": "en:St. Mary's Orthodox Valiyapally"
      }
    },
    {
      "type": "node",
      "id": 7228151802,
      "lat": 13.0448155,
      "lon": 77.5569279,
      "tags": {
        "access": "yes",
        "amenity": "toilets"
      }
    },
    {
      "type": "node",
      "id": 8012739648,
      "lat": 13.0543023,
      "lon": 77.5685759,
      "tags": {
        "amenity": "school",
        "name": "Vyasa International School"
      }
    },
    {
      "type": "node",
      "id": 8012786358,
      "lat": 13.0577922,
      "lon": 77.566693,
      "tags": {
        "amenity": "studio",
        "name": "Studio Tarang",
        "studio": "dance"
      }
    },
    {
      "type": "node",
      "id": 11215176139,
      "lat": 13.0631437,
      "lon": 77.5588654,
      "tags": {
        "addr:housenumber": "699/1/1-1",
        "addr:postcode": "560097",
        "addr:street": "Doddabomasandra",
        "amenity": "pharmacy",
        "name": "Dhanvantri Medical Stores"
      }
    },
    {
      "type": "node",
      "id": 11215176140,
      "lat": 13.0632212,
      "lon": 77.5592227,
      "tags": {
        "addr:housenumber": "1254/46",
        "addr:postcode": "560097",
        "addr:street": "Doddabomasandra",
        "brand": "Reliance Digital",
        "brand:wikidata": "Q7311012",
        "name": "Reliance Digital",
        "phone": "+918692007108",
        "shop": "electronics"
      }
    },
    {
      "type": "node",
      "id": 11496080735,
      "lat": 13.0594187,
      "lon": 77.5592668,
      "tags": {
        "check_date": "2024-01-07",
        "name": "Nandini",
        "shop": "dairy"
      }
    },
    {
      "type": "node",
      "id": 11496080738,
      "lat": 13.0609228,
      "lon": 77.5588211,
      "tags": {
        "check_date": "2024-01-07",
        "name": "Vaibhav Home Appliances",
        "shop": "electronics"
      }
    },
    {
      "type": "node",
      "id": 11496080739,
      "lat": 13.0615873,
      "lon": 77.5588579,
      "tags": {
        "check_date": "2024-01-07",
        "shop": "greengrocer"
      }
    },
    {
      "type": "node",
      "id": 11496080740,
      "lat": 13.0624547,
      "lon": 77.5588986,
      "tags": {
        "amenity": "place_of_worship",
        "check_date": "2024-01-07",
        "religion": "hindu"
      }
    },
    {
      "type": "node",
      "id": 11496080741,
      "lat": 13.0638197,
      "lon": 77.5591181,
      "tags": {
        "amenity": "fast_food",
        "check_date": "2024-01-07",
        "indoor_seating": "yes",
        "name": "Udupi Vaibhava",
        "outdoor_seating": "no"
      }
    },
    {
      "type": "node",
      "id": 11932321842,
      "lat": 13.0599066,
      "lon": 77.5586214,
      "tags": {
        "amenity": "school",
        "check_date": "2024-05-25"
      }
    },
    {
      "type": "node",
      "id": 11932321843,
      "lat": 13.0645468,
      "lon": 77.5593929,
      "tags": {
        "amenity": "fast_food",
        "check_date": "2024-05-25",
        "name": "Indira Canteen"
      }
    },
    {
      "type": "node",
      "id": 12754452418,
      "lat": 13.0659664,
      "lon": 77.5565053,
      "tags": {
        "check_date": "2025-04-15",
        "name": "Mother Diary",
        "shop": "dairy"
      }
    },
    {
      "type": "node",
      "id": 12778651746,
      "lat": 13.0660061,
      "lon": 77.5565136,
      "tags": {
        "check_date": "2025-04-23",
        "name": "SK Dry Cleaners",
        "shop": "dry_cleaning"
      }
    },
    {
      "type": "node",
      "id": 12778651747,
      "lat": 13.0660551,
      "lon": 77.5565317,
      "tags": {
        "check_date": "2025-04-23",
        "hairdresser": "barber",
        "name": "Decent Hair Style",
        "shop": "hairdresser"
      }
    },
    {
      "type": "node",
      "id": 12794026309,
      "lat": 13.0662848,
      "lon": 77.5605845,
      "tags": {
        "amenity": "shelter",
        "shelter_type": "gazebo"
      }
    },
    {
      "type": "node",
      "id": 12794026310,
      "lat": 13.0684998,
      "lon": 77.5605489,
      "tags": {
        "amenity": "bench",
        "backrest": "yes",
        "material": "stone"
      }
    },
    {
      "type": "node",
      "id": 12794026323,
      "lat": 13.0678512,
      "lon": 77.5639674,
      "tags": {
        "amenity": "bench",
        "backrest": "yes",
        "material": "stone"
      }
    },
    {
      "type": "node",
      "id": 12794026324,
      "lat": 13.0678381,
      "lon": 77.5639755,
      "tags": {
        "amenity": "bench",
        "backrest": "yes",
        "material": "stone"
      }
    },
    {
      "type": "node",
      "id": 12794026325,
      "lat": 13.0658152,
      "lon": 77.5649182,
      "tags": {
        "amenity": "bench",
        "backrest": "yes",
        "material": "stone"
      }
    },
    {
      "type": "node",
      "id": 12794026326,
      "lat": 13.0657995,
      "lon": 77.5649337,
      "tags": {
        "amenity": "bench",
        "backrest": "yes",
        "material": "stone"
      }
    },
    {
      "type": "node",
      "id": 12794026351,
      "lat": 13.0628315,
      "lon": 77.5670736,
      "tags": {
        "amenity": "bench",
        "backrest": "yes",
        "material": "stone"
      }
    },
    {
      "type": "node",
      "id": 12794026353,
      "lat": 13.062778,
      "lon": 77.5668842,
      "tags": {
        "amenity": "bench",
        "backrest": "yes",
        "material": "stone"
      }
    },
    {
      "type": "node",
      "id": 12794026354,
      "lat": 13.0626504,
      "lon": 77.566659,
      "tags": {
        "amenity": "bench",
        "backrest": "yes",
        "material": "stone"
      }
    },
    {
      "type": "node",
      "id": 12794026355,
      "lat": 13.0625736,
      "lon": 77.5663907,
      "tags": {
        "amenity": "bench",
        "backrest": "yes",
        "material": "stone"
      }
    },
    {
      "type": "node",
      "id": 12794026356,
      "lat": 13.0622897,
      "lon": 77.5661383,
      "tags": {
        "amenity": "bench",
        "backrest": "yes",
        "material": "stone"
      }
    },
    {
      "type": "node",
      "id": 12794026357,
      "lat": 13.0618779,
      "lon": 77.5657264,
      "tags": {
        "amenity": "bench",
        "backrest": "yes",
        "material": "stone"
      }
    },
    {
      "type": "node",
      "id": 12794026358,
      "lat": 13.0617083,
      "lon": 77.5655664,
      "tags": {
        "amenity": "bench",
        "backrest": "yes",
        "material": "stone"
      }
    },
    {
      "type": "node",
      "id": 12794026359,
      "lat": 13.0614826,
      "lon": 77.565382,
      "tags": {
        "amenity": "bench",
        "backrest": "yes",
        "material": "stone"
      }
    },
    {
      "type": "node",
      "id": 12794026360,
      "lat": 13.0614254,
      "lon": 77.5653464,
      "tags": {
        "amenity": "bench",
        "backrest": "yes",
        "material": "stone"
      }
    },
    {
      "type": "node",
      "id": 12794026361,
      "lat": 13.0611951,
      "lon": 77.5652606,
      "tags": {
        "amenity": "bench",
        "backrest": "yes",
        "material": "stone"
      }
    },
    {
      "type": "node",
      "id": 12794026381,
      "lat": 13.0606301,
      "lon": 77.5650162,
      "tags": {
        "amenity": "waste_basket"
      }
    },
    {
      "type": "node",
      "id": 12794026382,
      "lat": 13.0606205,
      "lon": 77.5649897,
      "tags": {
        "amenity": "bench",
        "backrest": "yes",
        "material": "stone"
      }
    },
    {
      "type": "node",
      "id": 12794026383,
      "lat": 13.0606209,
      "lon": 77.5650081,
      "tags": {
        "amenity": "bench",
        "backrest": "yes",
        "material": "stone"
      }
    },
    {
      "type": "node",
      "id": 12794026384,
      "lat": 13.0606212,
      "lon": 77.5650235,
      "tags": {
        "amenity": "bench",
        "backrest": "yes",
        "material": "stone"
      }
    },
    {
      "type": "node",
      "id": 12794026385,
      "lat": 13.0606215,
      "lon": 77.5650369,
      "tags": {
        "amenity": "bench",
        "backrest": "yes",
        "material": "stone"
      }
    },
    {
      "type": "node",
      "id": 12794026394,
      "lat": 13.0622873,
      "lon": 77.5628831,
      "tags": {
        "amenity": "bench",
        "backrest": "yes",
        "material": "stone"
      }
    },
    {
      "type": "node",
      "id": 12794026396,
      "lat": 13.0632598,
      "lon": 77.5605344,
      "tags": {
        "amenity": "bench",
        "backrest": "yes",
        "material": "stone"
      }
    },
    {
      "type": "node",
      "id": 12794026397,
      "lat": 13.0632732,
      "lon": 77.5605364,
      "tags": {
        "amenity": "bench",
        "backrest": "yes",
        "material": "stone"
      }
    },
    {
      "type": "node",
      "id": 12794026398,
      "lat": 13.0632749,
      "lon": 77.5605245,
      "tags": {
        "amenity": "bench",
        "backrest": "yes",
        "material": "stone"
      }
    },
    {
      "type": "node",
      "id": 12794026399,
      "lat": 13.0632613,
      "lon": 77.5605224,
      "tags": {
        "amenity": "bench",
        "backrest": "yes",
        "material": "stone"
      }
    },
    {
      "type": "node",
      "id": 12794026400,
      "lat": 13.0632965,
      "lon": 77.5604356,
      "tags": {
        "amenity": "bench",
        "backrest": "yes",
        "material": "stone"
      }
    },
    {
      "type": "node",
      "id": 12794240462,
      "lat": 13.066162,
      "lon": 77.5565834,
      "tags": {
        "check_date": "2025-04-28",
        "name": "Sheets Fancy | Clothing & Stationary Store",
        "shop": "clothes"
      }
    },
    {
      "type": "node",
      "id": 13058538933,
      "lat": 13.0650426,
      "lon": 77.5595943,
      "tags": {
        "check_date": "2025-08-08",
        "name": "Sangeetha",
        "shop": "electronics"
      }
    },
    {
      "type": "way",
      "id": 40584702,
      "center": {
        "lat": 13.0528721,
        "lon": 77.5526773
      },
      "tags": {
        "leisure": "park"
      }
    },
    {
      "type": "way",
      "id": 40584732,
      "center": {
        "lat": 13.0491555,
        "lon": 77.5567322
      },
      "tags": {
        "leisure": "pitch",
        "name": "BEL School Ground",
        "wheelchair": "no"
      }
    },
    {
      "type": "way",
      "id": 41212267,
      "center": {
        "lat": 13.0472016,
        "lon": 77.5561007
      },
      "tags": {
        "alt_name": "BEL Ayappa Park",
        "leisure": "park",
        "name": "General Iyappa Park",
        "name:etymology:wikidata": "Q4780908"
      }
    },
    {
      "type": "way",
      "id": 42407828,
      "center": {
        "lat": 13.0503387,
        "lon": 77.5567647
      },
      "tags": {
        "addr:district": "Bengaluru Urban",
        "addr:full": "Jalahalli Post",
        "addr:postcode": "560013",
        "addr:state": "Karnataka",
        "amenity": "hospital",
        "name": "BEL Hospital",
        "name:etymology:wikidata": "Q3630918",
        "name:kn": "ಬೀ ಈ ಎಲ್ ಆಸ್ಪತ್ರೆ",
        "source": "OpenGovernmentData",
        "wheelchair": "limited"
      }
    },
    {
      "type": "way",
      "id": 42407829,
      "center": {
        "lat": 13.0502782,
        "lon": 77.5552088
      },
      "tags": {
        "amenity": "college",
        "name": "BEL PU Composite College and First Grade College",
        "wheelchair": "no"
      }
    },
    {
      "type": "way",
      "id": 42407830,
      "center": {
        "lat": 13.0490487,
        "lon": 77.555062
      },
      "tags": {
        "amenity": "school",
        "name": "BEL High School",
        "name:etymology:wikidata": "Q3630918",
        "name:kn": "ಬೀ ಈ ಎಲ್ ಪ್ರೌಢಶಾಲೆ",
        "wheelchair": "no"
      }
    },
    {
      "type": "way",
      "id": 42407831,
      "center": {
        "lat": 13.0514205,
        "lon": 77.5584032
      },
      "tags": {
        "leisure": "sports_centre",
        "name": "Ambedkar Sports Club",
        "name:etymology:wikidata": "Q231690",
        "sport": "multi"
      }
    },
    {
      "type": "way",
      "id": 42407835,
      "center": {
        "lat": 13.0518553,
        "lon": 77.5552463
      },
      "tags": {
        "leisure": "park"
      }
    },
    {
      "type": "way",
      "id": 42407837,
      "center": {
        "lat": 13.056135,
        "lon": 77.5530783
      },
      "tags": {
        "amenity": "college",
        "landuse": "industrial",
        "name": "Central Research Labarotary",
        "office": "research",
        "short_name": "CRL"
      }
    },
    {
      "type": "way",
      "id": 42407850,
      "center": {
        "lat": 13.0550594,
        "lon": 77.5572982
      },
      "tags": {
        "leisure": "park"
      }
    },
    {
      "type": "way",
      "id": 42407862,
      "center": {
        "lat": 13.0561064,
        "lon": 77.5610284
      },
      "tags": {
        "leisure": "park"
      }
    },
    {
      "type": "way",
      "id": 362689532,
      "center": {
        "lat": 13.0514512,
        "lon": 77.5536465
      },
      "tags": {
        "leisure": "park"
      }
    },
    {
      "type": "way",
      "id": 363126115,
      "center": {
        "lat": 13.0437363,
        "lon": 77.5626393
      },
      "tags": {
        "alt_name": "Nalanda",
        "amenity": "college",
        "name": "BEL Academy for Excellence",
        "office": "educational_institution",
        "official_name": "Abhyudaya"
      }
    },
    {
      "type": "way",
      "id": 675649194,
      "center": {
        "lat": 13.065299,
        "lon": 77.5602248
      },
      "tags": {
        "leisure": "park"
      }
    },
    {
      "type": "way",
      "id": 767631167,
      "center": {
        "lat": 13.0561661,
        "lon": 77.5552086
      },
      "tags": {
        "leisure": "garden"
      }
    },
    {
      "type": "way",
      "id": 773825331,
      "center": {
        "lat": 13.0540854,
        "lon": 77.5684293
      },
      "tags": {
        "amenity": "school"
      }
    },
    {
      "type": "way",
      "id": 1061098442,
      "center": {
        "lat": 13.0554628,
        "lon": 77.5565863
      },
      "tags": {
        "access": "private",
        "leisure": "swimming_pool",
        "location": "outdoor"
      }
    },
    {
      "type": "way",
      "id": 1061098443,
      "center": {
        "lat": 13.0556639,
        "lon": 77.5565529
      },
      "tags": {
        "access": "private",
        "addr:city": "Bengaluru",
        "addr:postcode": "560013",
        "addr:street": "Near Nagaland Circle",
        "leisure": "swimming_pool",
        "location": "outdoor",
        "name": "BEL Swimming Pool",
        "operator": "BEL"
      }
    },
    {
      "type": "way",
      "id": 1095440449,
      "center": {
        "lat": 13.0513858,
        "lon": 77.5570865
      },
      "tags": {
        "leisure": "park"
      }
    },
    {
      "type": "way",
      "id": 1181411206,
      "center": {
        "lat": 13.048044,
        "lon": 77.5584693
      },
      "tags": {
        "access": "permissive",
        "amenity": "parking",
        "parking": "surface"
      }
    },
    {
      "type": "way",
      "id": 1181417694,
      "center": {
        "lat": 13.0645486,
        "lon": 77.5599777
      },
      "tags": {
        "leisure": "playground"
      }
    },
    {
      "type": "way",
      "id": 1232959580,
      "center": {
        "lat": 13.0528931,
        "lon": 77.5562621
      },
      "tags": {
        "access": "private",
        "leisure": "pitch",
        "sport": "tennis"
      }
    },
    {
      "type": "way",
      "id": 1232959596,
      "center": {
        "lat": 13.0487565,
        "lon": 77.5630087
      },
      "tags": {
        "leisure": "garden"
      }
    },
    {
      "type": "way",
      "id": 1278538488,
      "center": {
        "lat": 13.0542059,
        "lon": 77.5685806
      },
      "tags": {
        "leisure": "pitch"
      }
    },
    {
      "type": "way",
      "id": 1307275148,
      "center": {
        "lat": 13.0551943,
        "lon": 77.5610338
      },
      "tags": {
        "access": "private",
        "amenity": "parking",
        "parking": "surface"
      }
    },
    {
      "type": "way",
      "id": 1307275215,
      "center": {
        "lat": 13.0574679,
        "lon": 77.5572887
      },
      "tags": {
        "access": "private",
        "amenity": "parking",
        "parking": "surface"
      }
    },
    {
      "type": "way",
      "id": 1310773905,
      "center": {
        "lat": 13.0637977,
        "lon": 77.5594052
      },
      "tags": {
        "amenity": "fuel",
        "brand": "Indian Oil",
        "brand:wikidata": "Q1289348",
        "name": "Indian Oil"
      }
    },
    {
      "type": "way",
      "id": 1346885371,
      "center": {
        "lat": 13.0618884,
        "lon": 77.552602
      },
      "tags": {
        "leisure": "pitch"
      }
    },
    {
      "type": "way",
      "id": 1346885372,
      "center": {
        "lat": 13.0619534,
        "lon": 77.5523999
      },
      "tags": {
        "amenity": "school",
        "check_date": "2025-04-24",
        "name": "Sri Chitanya Techno School"
      }
    },
    {
      "type": "way",
      "id": 1379629462,
      "center": {
        "lat": 13.0545819,
        "lon": 77.5567245
      },
      "tags": {
        "access": "private",
        "amenity": "parking",
        "parking": "surface"
      }
    },
    {
      "type": "way",
      "id": 1379629474,
      "center": {
        "lat": 13.0449016,
        "lon": 77.5608117
      },
      "tags": {
        "access": "permissive",
        "amenity": "parking",
        "parking": "surface"
      }
    },
    {
      "type": "way",
      "id": 1380595443,
      "center": {
        "lat": 13.0590683,
        "lon": 77.556646
      },
      "tags": {
        "amenity": "school",
        "name": "KNE Public School"
      }
    },
    {
      "type": "way",
      "id": 1381888174,
      "center": {
        "lat": 13.0633457,
        "lon": 77.567669
      },
      "tags": {
        "amenity": "shelter",
        "shelter_type": "gazebo"
      }
    },
    {
      "type": "way",
      "id": 1381888177,
      "center": {
        "lat": 13.0607371,
        "lon": 77.5649235
      },
      "tags": {
        "amenity": "shelter",
        "shelter_type": "gazebo"
      }
    },
    {
      "type": "way",
      "id": 1382601830,
      "center": {
        "lat": 13.0601642,
        "lon": 77.5650002
      },
      "tags": {
        "leisure": "playground"
      }
    }
  ]
}