{
  "area_name": "Dr. Puneeth Rajkumar Ward",
  "osm_id": 19883307,
  "osm_type": "relation",
  "place_type": "administrative",
  "amenity_count": 16,
  "amenities": [
    {
      "type": "node",
      "id": 4585188109,
      "lat": 13.0144425,
      "lon": 77.5429328,
      "tags": {
        "amenity": "atm",
        "brand": "HDFC Bank",
        "brand:wikidata": "Q631047",
        "name": "HDFC Bank",
        "name:kn": "ಎಚ್. ಡಿ. ಎಫ್. ಸಿ..",
        "operator": "HDFC Bank",
        "operator:wikidata": "Q631047",
        "short_name": "HDFC"
      }
    },
    {
      "type": "node",
      "id": 6807542967,
      "lat": 13.0182102,
      "lon": 77.540004,
      "tags": {
        "amenity": "hospital",
        "healthcare": "hospital",
        "name": "Lourdes High School"
      }
    },
    {
      "type": "node",
      "id": 6807551928,
      "lat": 13.016705,
      "lon": 77.539386,
      "tags": {
        "amenity": "hospital",
        "healthcare": "hospital",
        "name": "Boregowda Lingamma Hospital",
        "name:kn": "ಬೋರೆಗೌಡ ಲಿಂಗಮ್ಮ ಆಸ್ಪತ್ರೆ"
      }
    },
    {
      "type": "node",
      "id": 6807551937,
      "lat": 13.0175606,
      "lon": 77.5394308,
      "tags": {
        "amenity": "hospital",
        "healthcare": "hospital",
        "name": "Kanva Hospital"
      }
    },
    {
      "type": "way",
      "id": 142344598,
      "center": {
        "lat": 13.0138889,
        "lon": 77.5416642
      },
      "tags": {
        "leisure": "park"
      }
    },
    {
      "type": "way",
      "id": 142344599,
      "center": {
        "lat": 13.0127912,
        "lon": 77.5420927
      },
      "tags": {
        "leisure": "park"
      }
    },
    {
      "type": "way",
      "id": 199024267,
      "center": {
        "lat": 13.0176526,
        "lon": 77.5351791
      },
      "tags": {
        "leisure": "park",
        "name": "Ramakrishna Paramahamsa Park",
        "name:kn": "ರಾಮಕೃಷ್ಣ ಪರಮಹಂಸ ಉದ್ಯಾನವನ"
      }
    },
    {
      "type": "way",
      "id": 199024873,
      "center": {
        "lat": 13.018228,
        "lon": 77.5342939
      },
      "tags": {
        "leisure": "playground"
      }
    },
    {
      "type": "way",
      "id": 363067369,
      "center": {
        "lat": 13.0184352,
        "lon": 77.5394324
      },
      "tags": {
        "leisure": "park",
        "name": "BBMP Park",
        "name:kn": "ಬೃ ಬೆಂ ಮ ಪಾ ಉದ್ಯಾನವನ"
      }
    },
    {
      "type": "way",
      "id": 363067390,
      "center": {
        "lat": 13.0166412,
        "lon": 77.5384392
      },
      "tags": {
        "leisure": "park"
      }
    },
    {
      "type": "way",
      "id": 363067535,
      "center": {
        "lat": 13.0184668,
        "lon": 77.5326293
      },
      "tags": {
        "leisure": "park"
      }
    },
    {
      "type": "way",
      "id": 726163863,
      "center": {
        "lat": 13.0184847,
        "lon": 77.5398081
      },
      "tags": {
        "amenity": "fast_food",
        "building": "yes",
        "cuisine": "fish_and_chips",
        "name": "Rajkumar Fish Stall"
      }
    },
    {
      "type": "way",
      "id": 1205866338,
      "center": {
        "lat": 13.0186301,
        "lon": 77.5330326
      },
      "tags": {
        "amenity": "theatre",
        "theatre:type": "amphi"
      }
    },
    {
      "type": "way",
      "id": 1271969044,
      "center": {
        "lat": 13.0186175,
        "lon": 77.5388284
      },
      "tags": {
        "leisure": "playground",
        "max_age": "40",
        "min_age": "6",
        "name": "Rajivgandhinagar Playground"
      }
    },
    {
      "type": "way",
      "id": 1271969045,
      "center": {
        "lat": 13.0167987,
        "lon": 77.5377367
      },
      "tags": {
        "leisure": "park"
      }
    },
    {
      "type": "way",
      "id": 1271975062,
      "center": {
        "lat": 13.0173868,
        "lon": 77.5380065
      },
      "tags": {
        "leisure": "park"
      }
    }
  ]
}