{
  "area_name": "Ejipura",
  "osm_id": 19883295,
  "osm_type": "relation",
  "place_type": "administrative",
  "amenity_count": 115,
  "amenities": [
    {
      "type": "node",
      "id": 669245460,
      "lat": 12.9476788,
      "lon": 77.6244575,
      "tags": {
        "amenity": "recycling",
        "name": "Ravi Chandra's Shop"
      }
    },
    {
      "type": "node",
      "id": 4023499153,
      "lat": 12.9477974,
      "lon": 77.6259438,
      "tags": {
        "addr:housenumber": "6",
        "addr:street": "13th cross, R.A. Road, Ejipura",
        "amenity": "studio",
        "description": "Studio",
        "name": "Musical Cubicle",
        "opening_hours": "Tu-Su 10:00-22:00",
        "phone": "+919900701921"
      }
    },
    {
      "type": "node",
      "id": 4061141085,
      "lat": 12.9449935,
      "lon": 77.6288015,
      "tags": {
        "amenity": "place_of_worship",
        "denomination": "vaishnavism",
        "name": "Sriram Temple",
        "name:kn": "ಶ್ರೀರಾಮ್ ದೇಚಸ್ಥಾನ",
        "religion": "hindu"
      }
    },
    {
      "type": "node",
      "id": 4062937541,
      "lat": 12.9448035,
      "lon": 77.6289262,
      "tags": {
        "name": "Manju Electricals",
        "name:kn": "ಮಂಜು ಎಲ್ಕಟ್ರಿಕಲ್ಸ್",
        "opening_hours": "09:30-13:30,14:30-21:00",
        "shop": "electronics",
        "wheelchair": "no"
      }
    },
    {
      "type": "node",
      "id": 4062937542,
      "lat": 12.9446297,
      "lon": 77.6289275,
      "tags": {
        "amenity": "atm",
        "brand": "Axis Bank",
        "brand:wikidata": "Q2003549",
        "name": "Axis Bank",
        "opening_hours": "24/7",
        "operator": "Axis Bank",
        "operator:wikidata": "Q2003549",
        "wheelchair": "no"
      }
    },
    {
      "type": "node",
      "id": 4062937543,
      "lat": 12.9446671,
      "lon": 77.6289233,
      "tags": {
        "opening_hours": "09:30-13:30,14:30-21:00",
        "recharge": "yes",
        "shop": "mobile_phone",
        "wheelchair": "no"
      }
    },
    {
      "type": "node",
      "id": 4062937544,
      "lat": 12.9447067,
      "lon": 77.6289232,
      "tags": {
        "opening_hours": "09:30-13:30,14:30-21:00",
        "shop": "jewelry"
      }
    },
    {
      "type": "node",
      "id": 4062937545,
      "lat": 12.9447632,
      "lon": 77.6289263,
      "tags": {
        "amenity": "dentist",
        "wheelchair": "no"
      }
    },
    {
      "type": "node",
      "id": 4062937546,
      "lat": 12.9448343,
      "lon": 77.6289279,
      "tags": {
        "opening_hours": "09:30-13:30,14:30-21:00",
        "shop": "clothes",
        "wheelchair": "no"
      }
    },
    {
      "type": "node",
      "id": 4062942991,
      "lat": 12.9444948,
      "lon": 77.6297409,
      "tags": {
        "amenity": "waste_disposal"
      }
    },
    {
      "type": "node",
      "id": 4062957400,
      "lat": 12.9460942,
      "lon": 77.6290815,
      "tags": {
        "name": "Femina Wear",
        "name:kn": "ಫೆಮಿನಾ ವೇರ್",
        "opening_hours": "09:30-13:30,14:30-21:00",
        "shop": "tailor",
        "wheelchair": "no"
      }
    },
    {
      "type": "node",
      "id": 4062957401,
      "lat": 12.9460314,
      "lon": 77.629121,
      "tags": {
        "motorcycle:repair": "yes",
        "name": "Om Sri Vinayaka Garriage",
        "name:kn": "ಓಂ ಶ್ರೀ ವಿನಾಯಕ ಗ್ಯಾರೇಜ್",
        "shop": "motorcycle"
      }
    },
    {
      "type": "node",
      "id": 4062957410,
      "lat": 12.9456961,
      "lon": 77.6293342,
      "tags": {
        "shop": "trade",
        "trade": "timber"
      }
    },
    {
      "type": "node",
      "id": 4062971147,
      "lat": 12.9461707,
      "lon": 77.6289442,
      "tags": {
        "name": "Balaji Xerox Shop",
        "name:kn": "ಬಾಲಾಜಿ ಜೆರಾಕ್ಸ",
        "opening_hours": "09:30-13:30,14:30-21:00",
        "shop": "copyshop",
        "wheelchair": "no"
      }
    },
    {
      "type": "node",
      "id": 4062971148,
      "lat": 12.9462204,
      "lon": 77.6289455,
      "tags": {
        "name": "JJ Footwear",
        "name:kn": "ಜೆ ಜೆ ಫುಟ್‌ವೇರ್",
        "opening_hours": "09:30-13:30,14:30-21:00",
        "second_hand": "no",
        "shop": "shoes",
        "wheelchair": "no"
      }
    },
    {
      "type": "node",
      "id": 4062971149,
      "lat": 12.9461899,
      "lon": 77.6289433,
      "tags": {
        "name": "Jai Maa Provision Store",
        "name:kn": "ಜೈ ಮಾ ಪ್ರಾವಿಜನ್ ಅಂಗಡಿ",
        "opening_hours": "09:30-13:30,14:30-21:00",
        "shop": "variety_store",
        "wheelchair": "no"
      }
    },
    {
      "type": "node",
      "id": 4062971150,
      "lat": 12.9462863,
      "lon": 77.6289431,
      "tags": {
        "name": "Soundarya Tailor Shop",
        "name:kn": "ಸೌಂದರ್ಯ ಟೇಲರ್ಸ್",
        "opening_hours": "09:30-13:30,14:30-21:00",
        "shop": "tailor",
        "wheelchair": "no"
      }
    },
    {
      "type": "node",
      "id": 4062971151,
      "lat": 12.9462056,
      "lon": 77.6289433,
      "tags": {
        "opening_hours": "09:30-13:30,14:30-21:00",
        "shop": "greengrocer",
        "wheelchair": "no"
      }
    },
    {
      "type": "node",
      "id": 4062971152,
      "lat": 12.9462353,
      "lon": 77.6289433,
      "tags": {
        "opening_hours": "09:30-13:30,14:30-21:00",
        "shop": "boutique",
        "wheelchair": "no"
      }
    },
    {
      "type": "node",
      "id": 4062971153,
      "lat": 12.9462475,
      "lon": 77.6289419,
      "tags": {
        "shop": "flour_mill"
      }
    },
    {
      "type": "node",
      "id": 4062971154,
      "lat": 12.946264,
      "lon": 77.6289449,
      "tags": {
        "opening_hours": "09:30-13:30,14:30-21:00",
        "shop": "greengrocer",
        "wheelchair": "no"
      }
    },
    {
      "type": "node",
      "id": 4063552235,
      "lat": 12.9460433,
      "lon": 77.6289502,
      "tags": {
        "name": "Chippu's Juice and Bakery",
        "name:kn": "ಚಿಪ್ಪುಸ್ ಜ್ಯೂಸ್ ಮತ್ತು ಬೇಕರಿ",
        "opening_hours": "09:30-13:30,14:30-21:00",
        "shop": "beverages",
        "wheelchair": "no"
      }
    },
    {
      "type": "node",
      "id": 4063552236,
      "lat": 12.9459822,
      "lon": 77.6289502,
      "tags": {
        "amenity": "fast_food",
        "name": "Royal Fast Food",
        "name:kn": "ರಾಯಲ್ ಫಾಸ್ಟ್ ಫುಡ್"
      }
    },
    {
      "type": "node",
      "id": 4063552238,
      "lat": 12.9461467,
      "lon": 77.6289446,
      "tags": {
        "opening_hours": "09:30-13:30,14:30-21:00",
        "shop": "convenience",
        "wheelchair": "no"
      }
    },
    {
      "type": "node",
      "id": 4063559074,
      "lat": 12.945821,
      "lon": 77.6289508,
      "tags": {
        "name": "Ashok Textiles",
        "name:kn": "ಅಶೋಕ್ ಬಟ್ಟೆ ಅಂಗಡಿ",
        "opening_hours": "09:30-13:30,14:30-21:00",
        "second_hand": "no",
        "shop": "clothes",
        "wheelchair": "no"
      }
    },
    {
      "type": "node",
      "id": 4063559075,
      "lat": 12.9453451,
      "lon": 77.6289362,
      "tags": {
        "name": "Balaji Electricals",
        "name:kn": "ಬಾಲಾಜಿ ಎಲಕ್ಟ್ರಿಕಲ್ಸ್",
        "opening_hours": "09:30-13:30,14:30-21:00",
        "shop": "electronics",
        "wheelchair": "no"
      }
    },
    {
      "type": "node",
      "id": 4063559076,
      "lat": 12.9453821,
      "lon": 77.6289419,
      "tags": {
        "amenity": "fast_food",
        "cuisine": "chinese",
        "internet_access": "no",
        "name": "Bob's Chinese Fast Food",
        "name:kn": "ಬಾಬ್ಸ್ ಚೈನೀಸ್ ಸೆಂಟರ್",
        "opening_hours": "09:30-13:30,14:30-21:00",
        "takeaway": "yes",
        "wheelchair": "no"
      }
    },
    {
      "type": "node",
      "id": 4063559077,
      "lat": 12.9457828,
      "lon": 77.6289521,
      "tags": {
        "name": "Hari Jewelers",
        "name:kn": "ಹರಿ ಚಿನ್ನದಂಗಡಿ",
        "shop": "jewelry"
      }
    },
    {
      "type": "node",
      "id": 4063559078,
      "lat": 12.9452772,
      "lon": 77.6289318,
      "tags": {
        "name": "Kanthi Enterprises",
        "name:kn": "ಕಾಂತಿ ಎಂಟರ್‌ಪ್ರೈಸಸ್",
        "operator": "Hathway Internet",
        "shop": "yes",
        "type": "Internet Service Provider"
      }
    },
    {
      "type": "node",
      "id": 4063559079,
      "lat": 12.9455056,
      "lon": 77.6289457,
      "tags": {
        "name": "M Srinivas Electricals",
        "name:kn": "ಎಂ ಶ್ರೀನಿವಾಸ ಎಲಕ್ಟ್ರಿಕಲ್ಸ್",
        "opening_hours": "09:30-13:30,14:30-21:00",
        "shop": "electronics",
        "wheelchair": "no"
      }
    },
    {
      "type": "node",
      "id": 4063559080,
      "lat": 12.9455852,
      "lon": 77.6289464,
      "tags": {
        "name": "Sapna Mobiles",
        "name:kn": "ಸಪ್ನ ಮೊಬೈಲ್ಸ್",
        "opening_hours": "09:30-13:30,14:30-21:00",
        "recharge": "yes",
        "shop": "mobile_phone",
        "wheelchair": "no"
      }
    },
    {
      "type": "node",
      "id": 4063559081,
      "lat": 12.9454537,
      "lon": 77.6289432,
      "tags": {
        "name": "Sri Venkataeshwara Saloon",
        "name:kn": "ಶ್ರೀ ವೆಂಕಟೇಶ್ವರ ಸಲೂನ್",
        "opening_hours": "09:30-13:30,14:30-21:00",
        "shop": "hairdresser",
        "wheelchair": "no"
      }
    },
    {
      "type": "node",
      "id": 4063559082,
      "lat": 12.9456667,
      "lon": 77.6289508,
      "tags": {
        "name": "Style Hairdresses",
        "name:kn": "ಸ್ಟೈಲ್ ಹೇರ್ ಡ್ರೆಸಸ್",
        "opening_hours": "09:30-13:30,14:30-21:00",
        "shop": "hairdresser",
        "wheelchair": "no"
      }
    },
    {
      "type": "node",
      "id": 4063559083,
      "lat": 12.9455457,
      "lon": 77.6289451,
      "tags": {
        "name": "TMS Provision Stores",
        "name:kn": "ಟಿಎಂಎಸ್ ಕಿರಾಣಿ ಅಂಗಡಿ",
        "opening_hours": "09:30-13:30,14:30-21:00",
        "shop": "convenience",
        "wheelchair": "no"
      }
    },
    {
      "type": "node",
      "id": 4063559086,
      "lat": 12.945892,
      "lon": 77.6289533,
      "tags": {
        "shop": "medical_supply",
        "wheelchair": "no"
      }
    },
    {
      "type": "node",
      "id": 4063568039,
      "lat": 12.945121,
      "lon": 77.6289356,
      "tags": {
        "name": "Fashion Point Cloth Store",
        "name:kn": "ಫ್ಯಾಷನ್ ಪಾಯಿಂಟ್ ಬಟ್ಟೆ ಅಂಗಡಿ",
        "opening_hours": "09:30-13:30,14:30-21:00",
        "second_hand": "no",
        "shop": "clothes",
        "wheelchair": "no"
      }
    },
    {
      "type": "node",
      "id": 4063568040,
      "lat": 12.9450827,
      "lon": 77.6289375,
      "tags": {
        "name": "Fresh Bakery Cake",
        "name:kn": "ಫ್ರೆಷ್ ಬೇಕರಿ ಕೇಕ್",
        "opening_hours": "09:30-13:30,14:30-21:00",
        "shop": "bakery",
        "wheelchair": "no"
      }
    },
    {
      "type": "node",
      "id": 4063568041,
      "lat": 12.9449308,
      "lon": 77.6289299,
      "tags": {
        "name": "Karnataka Stores",
        "name:kn": "ಕರ್ನಾಟಕ ಸ್ಟೋರ್ಸ್",
        "opening_hours": "09:30-13:30,14:30-21:00",
        "shop": "greengrocer",
        "wheelchair": "no"
      }
    },
    {
      "type": "node",
      "id": 4063568042,
      "lat": 12.9451981,
      "lon": 77.6289343,
      "tags": {
        "name": "New Hindustan Furnitures",
        "name:kn": "ನ್ಊ ಹಿಂದೂಸ್ಥಾನ್ ಫರ್ನಿಚರ್ಸ್",
        "opening_hours": "09:30-13:30,14:30-21:00",
        "shop": "furniture",
        "wheelchair": "no"
      }
    },
    {
      "type": "node",
      "id": 4063568043,
      "lat": 12.9451555,
      "lon": 77.6289394,
      "tags": {
        "name": "Public Distribution Shop",
        "name:kn": "ನ್ಯಾಯ ಬೆಲೆ ಅಂಗಡಿ",
        "opening_hours": "Mo-Fr 08:30-20:00; Sa,Su 08:00-15:00; PH off",
        "shop": "convenience",
        "wheelchair": "no"
      }
    },
    {
      "type": "node",
      "id": 4063568044,
      "lat": 12.944858,
      "lon": 77.6289267,
      "tags": {
        "name": "SMR Star Garriage",
        "name:kn": "ಎಸ್ಎಂಆರ್ ಸ್ಟಾರ್ ಗ್ಯಾರೇಜ್",
        "shop": "motorcycle_repair"
      }
    },
    {
      "type": "node",
      "id": 4063568045,
      "lat": 12.9452383,
      "lon": 77.6289337,
      "tags": {
        "name": "Sairam Xerox",
        "name:kn": "ಸಾಯಿರಾಮ್ ಜೆರಾಕ್ಸ್",
        "opening_hours": "09:30-13:30,14:30-21:00",
        "shop": "copyshop",
        "wheelchair": "no"
      }
    },
    {
      "type": "node",
      "id": 4063568046,
      "lat": 12.9449987,
      "lon": 77.6289375,
      "tags": {
        "name": "Santosh Paan Shop",
        "name:kn": "ಸಂತೋಷ್ ಪಾನ್ ಅಂಗಡಿ",
        "opening_hours": "09:30-13:30,14:30-21:00",
        "shop": "confectionery",
        "wheelchair": "no"
      }
    },
    {
      "type": "node",
      "id": 4063568047,
      "lat": 12.9449012,
      "lon": 77.6289255,
      "tags": {
        "name": "Tea Shop",
        "name:kn": "ಟೀ ಅಂಗಡಿ",
        "opening_hours": "09:30-13:30,14:30-21:00",
        "shop": "beverages",
        "wheelchair": "no"
      }
    },
    {
      "type": "node",
      "id": 4063568048,
      "lat": 12.9449679,
      "lon": 77.628935,
      "tags": {
        "amenity": "recycling",
        "recycling:paper": "yes",
        "recycling_type": "centre"
      }
    },
    {
      "type": "node",
      "id": 4063568050,
      "lat": 12.9450345,
      "lon": 77.6289388,
      "tags": {
        "amenity": "atm",
        "brand": "Karur Vysya Bank",
        "brand:wikidata": "Q6373724",
        "name": "Karur Vysya Bank",
        "name:kn": "ಕರೂರು ವೈಶ್ಯ ಬ್ಯಾಂಕ್",
        "opening_hours": "24/7",
        "operator": "Karur Vysya Bank",
        "operator:wikidata": "Q6373724",
        "wheelchair": "no"
      }
    },
    {
      "type": "node",
      "id": 5803867127,
      "lat": 12.9499659,
      "lon": 77.6209707,
      "tags": {
        "amenity": "bench",
        "backrest": "yes"
      }
    },
    {
      "type": "node",
      "id": 5803867128,
      "lat": 12.9491329,
      "lon": 77.6213403,
      "tags": {
        "amenity": "bench",
        "backrest": "yes"
      }
    },
    {
      "type": "node",
      "id": 5803867141,
      "lat": 12.9492812,
      "lon": 77.621791,
      "tags": {
        "amenity": "bench"
      }
    },
    {
      "type": "node",
      "id": 6349003902,
      "lat": 12.9447434,
      "lon": 77.6296536,
      "tags": {
        "addr:place": "Eegipura",
        "amenity": "school",
        "isced:level": "2",
        "name": "GHPS Eegipura",
        "name:kn": "ಸರ್ಕಾರಿ ಹಿರಿಯ ಪ್ರಾಥಮಿಕ ಶಾಲೆ ಈಜಿಪುರ",
        "operator": "Department of Primary and Secondary Education",
        "operator:type": "government",
        "operator:wikidata": "Q111467381",
        "school": "primary"
      }
    },
    {
      "type": "node",
      "id": 6734571279,
      "lat": 12.9447783,
      "lon": 77.6288038,
      "tags": {
        "addr:place": "Eegipura",
        "amenity": "school",
        "isced:level": "3",
        "name": "GHS Ejipura",
        "name:kn": "ಸರ್ಕಾರಿ ಹಿರಿಯ ಪ್ರಾಥಮಿಕ ಶಾಲೆ ಈಜಿಪುರ",
        "operator": "Department of Primary and Secondary Education",
        "operator:type": "government",
        "operator:wikidata": "Q111467381",
        "school": "Higher Secondary"
      }
    },
    {
      "type": "node",
      "id": 6734902089,
      "lat": 12.9500615,
      "lon": 77.624214,
      "tags": {
        "addr:place": "Eegipura",
        "amenity": "school",
        "isced:level": "3",
        "name": "Sathya Bama Gopal Eng HS",
        "name:kn": "ಸತ್ಯಭಾಮ ಗೋಪಾಲ್ ಆಂಗ್ಲ ಪ್ರೌಢಶಾಲೆ ಈಜಿಪುರ",
        "operator": "Private Un-Aided",
        "school": "Higher Secondary"
      }
    },
    {
      "type": "node",
      "id": 9310793280,
      "lat": 12.9506267,
      "lon": 77.6237605,
      "tags": {
        "name": "Shine Bakery",
        "shop": "bakery"
      }
    },
    {
      "type": "node",
      "id": 9310793282,
      "lat": 12.9507267,
      "lon": 77.6234214,
      "tags": {
        "shop": "greengrocer"
      }
    },
    {
      "type": "node",
      "id": 9310793306,
      "lat": 12.9507407,
      "lon": 77.6233681,
      "tags": {
        "name": "Seven Sisters Northeast Shop",
        "shop": "convenience"
      }
    },
    {
      "type": "node",
      "id": 9310793307,
      "lat": 12.9507013,
      "lon": 77.6235404,
      "tags": {
        "amenity": "restaurant",
        "delivery": "yes",
        "name": "Maven Kitchen",
        "takeaway": "yes"
      }
    },
    {
      "type": "node",
      "id": 9951289023,
      "lat": 12.950313,
      "lon": 77.6212433,
      "tags": {
        "amenity": "fast_food",
        "brand": "Indira Canteen",
        "brand:wikidata": "Q36164828",
        "cuisine": "south_indian",
        "name": "Indira Canteen",
        "operator": "BBMP",
        "takeaway": "yes"
      }
    },
    {
      "type": "node",
      "id": 9951289027,
      "lat": 12.9512174,
      "lon": 77.6214015,
      "tags": {
        "brand": "Nandini Dairy",
        "name": "Nandini",
        "shop": "dairy"
      }
    },
    {
      "type": "node",
      "id": 10095556617,
      "lat": 12.9438945,
      "lon": 77.6284681,
      "tags": {
        "name": "Mathrusree Bakery",
        "shop": "bakery"
      }
    },
    {
      "type": "node",
      "id": 10095556618,
      "lat": 12.9434986,
      "lon": 77.6284529,
      "tags": {
        "name": "SAS Vision Optics",
        "shop": "optician"
      }
    },
    {
      "type": "node",
      "id": 10095556717,
      "lat": 12.9436376,
      "lon": 77.6284598,
      "tags": {
        "name": "Sasta Mandi",
        "shop": "greengrocer"
      }
    },
    {
      "type": "node",
      "id": 10095556817,
      "lat": 12.9435297,
      "lon": 77.628548,
      "tags": {
        "amenity": "fast_food",
        "name": "C.Kosila Kitchen"
      }
    },
    {
      "type": "node",
      "id": 10095556917,
      "lat": 12.9436474,
      "lon": 77.62853,
      "tags": {
        "name": "KK Store",
        "shop": "convenience"
      }
    },
    {
      "type": "node",
      "id": 10095557017,
      "lat": 12.9434116,
      "lon": 77.6284322,
      "tags": {
        "amenity": "dentist",
        "name": "Devi Dental Clinic"
      }
    },
    {
      "type": "node",
      "id": 10098185417,
      "lat": 12.9512726,
      "lon": 77.6222965,
      "tags": {
        "name": "Deepa Condiments",
        "shop": "convenience"
      }
    },
    {
      "type": "node",
      "id": 10098185418,
      "lat": 12.9512117,
      "lon": 77.6224293,
      "tags": {
        "name": "Manjunatha Liquor",
        "shop": "alcohol"
      }
    },
    {
      "type": "node",
      "id": 10098185419,
      "lat": 12.9510939,
      "lon": 77.6225922,
      "tags": {
        "amenity": "bank",
        "name": "Sangha Mitra Credit Co-Operative Society"
      }
    },
    {
      "type": "node",
      "id": 10098185420,
      "lat": 12.9511094,
      "lon": 77.6226696,
      "tags": {
        "amenity": "fast_food",
        "name": "Bilal Biryani House"
      }
    },
    {
      "type": "node",
      "id": 10098185517,
      "lat": 12.9512393,
      "lon": 77.6223758,
      "tags": {
        "amenity": "fast_food",
        "name": "Sree Durga Donne Biryani"
      }
    },
    {
      "type": "node",
      "id": 10098185518,
      "lat": 12.9511568,
      "lon": 77.622471,
      "tags": {
        "name": "M.R.P Liquor Shop",
        "shop": "alcohol"
      }
    },
    {
      "type": "node",
      "id": 10098185617,
      "lat": 12.9511615,
      "lon": 77.6225552,
      "tags": {
        "amenity": "clinic",
        "name": "Sanjith Clinic"
      }
    },
    {
      "type": "node",
      "id": 10098185618,
      "lat": 12.9510923,
      "lon": 77.6227055,
      "tags": {
        "name": "Brite’s Fresh Chicken",
        "shop": "butcher"
      }
    },
    {
      "type": "node",
      "id": 10098185717,
      "lat": 12.9511416,
      "lon": 77.6225971,
      "tags": {
        "name": "Shree Durga Bakery",
        "shop": "bakery"
      }
    },
    {
      "type": "node",
      "id": 10098185718,
      "lat": 12.9510408,
      "lon": 77.6228088,
      "tags": {
        "name": "Good Will Motors",
        "shop": "motorcycle"
      }
    },
    {
      "type": "node",
      "id": 10101174017,
      "lat": 12.9509802,
      "lon": 77.6228981,
      "tags": {
        "name": "Nandini Milk Products",
        "shop": "farm"
      }
    },
    {
      "type": "node",
      "id": 10101174018,
      "lat": 12.9509127,
      "lon": 77.6230621,
      "tags": {
        "amenity": "pharmacy",
        "healthcare": "pharmacy",
        "name": "United Medicals"
      }
    },
    {
      "type": "node",
      "id": 10101174019,
      "lat": 12.9509055,
      "lon": 77.6231072,
      "tags": {
        "amenity": "bar",
        "name": "Madhura Bar and Restaurant"
      }
    },
    {
      "type": "node",
      "id": 10101174117,
      "lat": 12.9508521,
      "lon": 77.6228252,
      "tags": {
        "name": "Pork Shop",
        "shop": "butcher"
      }
    },
    {
      "type": "node",
      "id": 10101174118,
      "lat": 12.9509475,
      "lon": 77.6229392,
      "tags": {
        "name": "Sri Murugan Stores",
        "shop": "grocery"
      }
    },
    {
      "type": "node",
      "id": 10101174119,
      "lat": 12.9509346,
      "lon": 77.6230113,
      "tags": {
        "name": "Sun Jyothi Bakery",
        "shop": "bakery"
      }
    },
    {
      "type": "node",
      "id": 10101174120,
      "lat": 12.9509274,
      "lon": 77.6230416,
      "tags": {
        "name": "Asian Enterprises",
        "shop": "hardware"
      }
    },
    {
      "type": "node",
      "id": 10105887517,
      "lat": 12.94215,
      "lon": 77.6279445,
      "tags": {
        "name": "Sri Venkateshwara Vegetables and Fruits",
        "shop": "greengrocer"
      }
    },
    {
      "type": "node",
      "id": 10116658723,
      "lat": 12.9506947,
      "lon": 77.6235728,
      "tags": {
        "amenity": "fast_food",
        "cuisine": "juice",
        "name": "Juice Shop"
      }
    },
    {
      "type": "node",
      "id": 10116658724,
      "lat": 12.9506787,
      "lon": 77.6236538,
      "tags": {
        "amenity": "fast_food",
        "name": "Icy Spicy"
      }
    },
    {
      "type": "node",
      "id": 10116658729,
      "lat": 12.9507135,
      "lon": 77.6234929,
      "tags": {
        "amenity": "bar",
        "name": "V.S.Garden"
      }
    },
    {
      "type": "node",
      "id": 10116667433,
      "lat": 12.9505737,
      "lon": 77.6240593,
      "tags": {
        "name": "Alba Suit Specialists",
        "shop": "clothes"
      }
    },
    {
      "type": "node",
      "id": 10116667435,
      "lat": 12.9505916,
      "lon": 77.6239594,
      "tags": {
        "amenity": "bar",
        "name": "Lakshmi Bar and Restaurant"
      }
    },
    {
      "type": "node",
      "id": 10116667436,
      "lat": 12.9506075,
      "lon": 77.6239137,
      "tags": {
        "amenity": "fast_food",
        "name": "Kentaky Restaurant"
      }
    },
    {
      "type": "node",
      "id": 10116667437,
      "lat": 12.9505809,
      "lon": 77.6240278,
      "tags": {
        "name": "Bharath Trading Corporation",
        "shop": "mobile_phone"
      }
    },
    {
      "type": "node",
      "id": 10118722285,
      "lat": 12.9505253,
      "lon": 77.6243086,
      "tags": {
        "name": "Aaboos",
        "shop": "clothes"
      }
    },
    {
      "type": "node",
      "id": 10118722286,
      "lat": 12.9504745,
      "lon": 77.624194,
      "tags": {
        "name": "St.Mary’s Auto Garage",
        "shop": "car_repair"
      }
    },
    {
      "type": "node",
      "id": 10159375313,
      "lat": 12.9506146,
      "lon": 77.6238474,
      "tags": {
        "name": "Cigarette and Bag Shop",
        "shop": "convenience"
      }
    },
    {
      "type": "node",
      "id": 10159375314,
      "lat": 12.9506216,
      "lon": 77.623825,
      "tags": {
        "amenity": "fast_food",
        "name": "The Shawarma Makers"
      }
    },
    {
      "type": "node",
      "id": 10159375315,
      "lat": 12.9506296,
      "lon": 77.6238015,
      "tags": {
        "name": "Selvam Hardware and Paints",
        "shop": "paint"
      }
    },
    {
      "type": "node",
      "id": 10159395930,
      "lat": 12.9505124,
      "lon": 77.6243668,
      "tags": {
        "amenity": "pharmacy",
        "healthcare": "pharmacy",
        "name": "Ambica Medical"
      }
    },
    {
      "type": "node",
      "id": 10159395931,
      "lat": 12.950483,
      "lon": 77.6243878,
      "tags": {
        "amenity": "dentist",
        "healthcare": "dentist",
        "name": "Dental Clinic"
      }
    },
    {
      "type": "node",
      "id": 10159395934,
      "lat": 12.9504856,
      "lon": 77.6243625,
      "tags": {
        "beauty": "nails",
        "name": "S.S.Beauty Saloon and Training Institute",
        "shop": "beauty"
      }
    },
    {
      "type": "node",
      "id": 10159395935,
      "lat": 12.9505044,
      "lon": 77.6243923,
      "tags": {
        "name": "Raj Communication",
        "shop": "mobile_phone"
      }
    },
    {
      "type": "node",
      "id": 10159395936,
      "lat": 12.9505168,
      "lon": 77.6243361,
      "tags": {
        "name": "K S R T C Travel House",
        "shop": "travel_agency"
      }
    },
    {
      "type": "node",
      "id": 10760556145,
      "lat": 12.9443883,
      "lon": 77.6285671,
      "tags": {
        "amenity": "place_of_worship",
        "religion": "hindu"
      }
    },
    {
      "type": "node",
      "id": 10760556146,
      "lat": 12.9432852,
      "lon": 77.628734,
      "tags": {
        "amenity": "place_of_worship",
        "religion": "hindu"
      }
    },
    {
      "type": "node",
      "id": 10760556147,
      "lat": 12.9460064,
      "lon": 77.6268022,
      "tags": {
        "amenity": "place_of_worship",
        "name": "Jehovah Jireh AG Church",
        "religion": "christian"
      }
    },
    {
      "type": "node",
      "id": 12526065875,
      "lat": 12.9434791,
      "lon": 77.628423,
      "tags": {
        "addr:city": "Bengaluru",
        "addr:housenumber": "65",
        "addr:postcode": "560047",
        "addr:street": "Sri Rama Termple Road, Ejipura",
        "amenity": "bank",
        "brand": "ICICI Bank",
        "brand:wikidata": "Q1653258",
        "name": "ICICI Bank",
        "short_name": "ICICI"
      }
    },
    {
      "type": "way",
      "id": 345917371,
      "center": {
        "lat": 12.9447386,
        "lon": 77.6288254
      },
      "tags": {
        "addr:city": "Ejipura",
        "addr:postcode": "560047",
        "addr:street": "Sri Rama Temple Road",
        "addr:suburb": "Ejipura",
        "alt_name": "GHS Ejipura",
        "amenity": "school",
        "building": "school",
        "building:levels": "4",
        "capacity": "120",
        "max_age": "16",
        "min_age": "13",
        "name": "Government High School",
        "name:kn": "ಸರ್ಕಾರಿ ಪ್ರೌಢಶಾಲೆ",
        "operator": "Government",
        "wheelchair": "yes"
      }
    },
    {
      "type": "way",
      "id": 346708710,
      "center": {
        "lat": 12.9478859,
        "lon": 77.6246231
      },
      "tags": {
        "amenity": "place_of_worship",
        "building": "chapel",
        "name": "Velankanni Chapel",
        "religion": "christian"
      }
    },
    {
      "type": "way",
      "id": 346779092,
      "center": {
        "lat": 12.9439197,
        "lon": 77.6272854
      },
      "tags": {
        "addr:city": "Ejipura, Bangaluru",
        "addr:postcode": "560095",
        "addr:street": "Pipeline Road",
        "amenity": "place_of_worship",
        "building": "yes",
        "name": "St. Chavara Church",
        "religion": "christian",
        "service_times": "Mo-Su 08:00-18:00"
      }
    },
    {
      "type": "way",
      "id": 402869173,
      "center": {
        "lat": 12.9447993,
        "lon": 77.6296947
      },
      "tags": {
        "addr:city": "Bengaluru",
        "addr:street": "Ejipura Main Road",
        "addr:suburb": "Ejipura",
        "alt_name": "GHPS Ejipura",
        "amenity": "school",
        "max_age": "13",
        "min_age": "6",
        "name": "Government Higher Primary School",
        "name:kn": "ಸರ್ಕಾರಿ ಹಿರಿಯ ಪ್ರಾಥಮಿಕ ಶಾಲೆ",
        "operator": "Government",
        "wheelchair": "yes"
      }
    },
    {
      "type": "way",
      "id": 441572865,
      "center": {
        "lat": 12.9492755,
        "lon": 77.6212439
      },
      "tags": {
        "amenity": "school",
        "email": "info@npskrm.com",
        "isced:level": "3",
        "landuse": "education",
        "name": "National Public School Kormangala",
        "name:kn": "ನ್ಯಾಷನಲ್ ಪಬ್ಲಿಕ್ ಶಾಲೆ ಕೋರಮಂಗಲ, ಈಜಿಪುರ",
        "operator": "Private Un-Aided",
        "phone": "+91 80 2570 5171",
        "religion": "none",
        "school": "Higher Secondary",
        "school:gender": "mixed",
        "website": "https://npskrm.com",
        "wikidata": "Q6975123",
        "wikipedia": "en:National Public School, Koramangala"
      }
    },
    {
      "type": "way",
      "id": 609270066,
      "center": {
        "lat": 12.9491547,
        "lon": 77.6217817
      },
      "tags": {
        "access": "customers",
        "hoops": "2",
        "leisure": "pitch",
        "lit": "no",
        "name": "Cement Court",
        "sport": "basketball",
        "surface": "cement"
      }
    },
    {
      "type": "way",
      "id": 613381965,
      "center": {
        "lat": 12.9496067,
        "lon": 77.6208798
      },
      "tags": {
        "amenity": "fuel",
        "brand": "Indian Oil",
        "brand:wikidata": "Q1289348",
        "brand:wikipedia": "en:Indian Oil Corporation",
        "fuel:diesel": "yes",
        "fuel:petrol": "yes",
        "name": "Indian Oil",
        "name:kn": "ಇಂಡಿಯನ್ ಆಯಿಲ್"
      }
    },
    {
      "type": "way",
      "id": 613381973,
      "center": {
        "lat": 12.9493319,
        "lon": 77.6206167
      },
      "tags": {
        "access": "customers",
        "hoops": "1",
        "leisure": "pitch",
        "lit": "no",
        "name": "Back court",
        "sport": "basketball",
        "surface": "sand"
      }
    },
    {
      "type": "way",
      "id": 613381978,
      "center": {
        "lat": 12.9490048,
        "lon": 77.6206238
      },
      "tags": {
        "access": "customers",
        "leisure": "playground",
        "max_age": "6",
        "min_age": "3",
        "name": "KG Playground",
        "surface": "sand"
      }
    },
    {
      "type": "way",
      "id": 1086044094,
      "center": {
        "lat": 12.9508087,
        "lon": 77.6215833
      },
      "tags": {
        "amenity": "recycling",
        "name": "BBMP",
        "name:kn": "ಬೃ. ಬೆಂ. ಮ. ಪಾ.",
        "office": "government",
        "recycling_type": "centre"
      }
    },
    {
      "type": "way",
      "id": 1153736765,
      "center": {
        "lat": 12.9512681,
        "lon": 77.622113
      },
      "tags": {
        "amenity": "cinema",
        "name": "Ravi Cinemas"
      }
    },
    {
      "type": "way",
      "id": 1157119897,
      "center": {
        "lat": 12.9450046,
        "lon": 77.6287162
      },
      "tags": {
        "amenity": "place_of_worship",
        "religion": "hindu"
      }
    }
  ]
}