{
  "area_name": "G.M Palya",
  "osm_id": 19883323,
  "osm_type": "relation",
  "place_type": "administrative",
  "amenity_count": 52,
  "amenities": [
    {
      "type": "node",
      "id": 986744079,
      "lat": 12.973597,
      "lon": 77.678189,
      "tags": {
        "addr:street": "Kaggadasspura Main Road",
        "amenity": "restaurant",
        "cuisine": "indian",
        "name": "Ruchi Restaurant",
        "name:kn": "ರುಚಿ ರೆಸ್ಟೋರೆಂಟ್"
      }
    },
    {
      "type": "node",
      "id": 1675527565,
      "lat": 12.9762388,
      "lon": 77.6738244,
      "tags": {
        "addr:postcode": "560075",
        "addr:street": "Mallesh Palaya 5th Main",
        "name": "Super Market",
        "shop": "convenience"
      }
    },
    {
      "type": "node",
      "id": 1675528607,
      "lat": 12.9746026,
      "lon": 77.6731914,
      "tags": {
        "amenity": "atm",
        "name": "DCB",
        "operator": "DCB"
      }
    },
    {
      "type": "node",
      "id": 1675529723,
      "lat": 12.974059,
      "lon": 77.673001,
      "tags": {
        "addr:housename": "Rajagopal Complex",
        "addr:housenumber": "145",
        "addr:postcode": "560075",
        "addr:street": "5th Main Road, Malleshpalya",
        "name": "More Store",
        "phone": "+91-80-64535780",
        "shop": "convenience"
      }
    },
    {
      "type": "node",
      "id": 1776312874,
      "lat": 12.9736082,
      "lon": 77.6743886,
      "tags": {
        "addr:city": "Bengaluru",
        "addr:housename": "Burma Supermarket",
        "addr:housenumber": "116",
        "addr:postcode": "560075",
        "addr:street": "Malleshpalya Main Road",
        "alt_name": "Burma Super Market",
        "name": "Burma Supernarket",
        "payment:credit_cards": "yes",
        "payment:debit_cards": "yes",
        "phone": "+91-80-25340194",
        "shop": "supermarket",
        "wheelchair": "limited"
      }
    },
    {
      "type": "node",
      "id": 3202584504,
      "lat": 12.9781291,
      "lon": 77.6755345,
      "tags": {
        "name": "Yousuf Fish Stall",
        "shop": "seafood"
      }
    },
    {
      "type": "node",
      "id": 3202584686,
      "lat": 12.9780265,
      "lon": 77.6754957,
      "tags": {
        "addr:city": "Bangalore",
        "addr:postcode": "560093",
        "addr:street": "19th Cross, Kaggadasapura",
        "name": "Fresh Reach",
        "opening_hours": "07:00-22:00",
        "shop": "supermarket"
      }
    },
    {
      "type": "node",
      "id": 3359236276,
      "lat": 12.9784519,
      "lon": 77.6754752,
      "tags": {
        "amenity": "pharmacy",
        "healthcare": "pharmacy",
        "name": "Kamaldeep Medicals"
      }
    },
    {
      "type": "node",
      "id": 3722411925,
      "lat": 12.9749216,
      "lon": 77.6703057,
      "tags": {
        "amenity": "atm",
        "brand": "Axis Bank",
        "brand:wikidata": "Q2003549",
        "cash_in": "no",
        "currency": "INR",
        "drive_through": "no",
        "language:en": "yes",
        "language:hn": "yes",
        "name": "Axis Bank",
        "name:kn": "ಆಕ್ಸಿಸ್ ಬ್ಯಾಂಕ್",
        "operator": "Axis Bank",
        "operator:wikidata": "Q2003549",
        "speech_output:lg": "yes",
        "wheelchair": "no"
      }
    },
    {
      "type": "node",
      "id": 3722417685,
      "lat": 12.9756859,
      "lon": 77.6671061,
      "tags": {
        "addr:city": "Bangalore",
        "addr:postcode": "560075",
        "addr:street": "GM Palya Main Road",
        "name": "Kaveri Departmental Store",
        "opening_hours": "08:00-22:00",
        "operator": "Private",
        "shop": "supermarket"
      }
    },
    {
      "type": "node",
      "id": 4067004487,
      "lat": 12.9765781,
      "lon": 77.6738208,
      "tags": {
        "amenity": "atm",
        "brand": "State Bank of India",
        "brand:wikidata": "Q1340361",
        "name": "State Bank of India",
        "name:kn": "ಭಾರತೀಯ ಸ್ಟೇಟ್ ಬ್ಯಾಂಕ್",
        "operator": "State Bank of India",
        "operator:wikidata": "Q1340361",
        "short_name": "SBI"
      }
    },
    {
      "type": "node",
      "id": 4067004488,
      "lat": 12.9744681,
      "lon": 77.673175,
      "tags": {
        "amenity": "atm",
        "brand": "ICICI Bank",
        "brand:wikidata": "Q1653258",
        "name": "ICICI Bank",
        "name:kn": "ಐಸಿಐಸಿಐ ಬ್ಯಾಂಕ್",
        "operator": "ICICI Bank",
        "operator:wikidata": "Q1653258",
        "short_name": "ICICI"
      }
    },
    {
      "type": "node",
      "id": 4163019490,
      "lat": 12.9733693,
      "lon": 77.675399,
      "tags": {
        "addr:street": "Malleshpalya Main Road",
        "amenity": "bank",
        "brand": "State Bank of India",
        "brand:wikidata": "Q1340361",
        "brand:wikipedia": "en:State Bank of India",
        "name": "State Bank of India",
        "name:kn": "ಭಾರತೀಯ ಸ್ಟೇಟ್ ಬ್ಯಾಂಕ್",
        "short_name": "SBI",
        "website": "https://www.sbi.co.in"
      }
    },
    {
      "type": "node",
      "id": 4163019889,
      "lat": 12.9733649,
      "lon": 77.6754389,
      "tags": {
        "amenity": "atm",
        "check_date": "2022-03-27",
        "opening_hours": "24/7"
      }
    },
    {
      "type": "node",
      "id": 4163019989,
      "lat": 12.9733622,
      "lon": 77.6753236,
      "tags": {
        "amenity": "atm",
        "opening_hours": "24/7"
      }
    },
    {
      "type": "node",
      "id": 4489842892,
      "lat": 12.9757537,
      "lon": 77.6762462,
      "tags": {
        "addr:city": "BANGALORE",
        "addr:postcode": "560093",
        "addr:street": "58, 8th Cross, Kaggadasapura Main Rd, C.V. Raman Nagar, Aishwarya Lake View Residency, Kaggadasapura, Bengaluru, Karnataka 560093",
        "name": "Bharath Cycle Shop",
        "shop": "sports",
        "wheelchair": "no"
      }
    },
    {
      "type": "node",
      "id": 4490332758,
      "lat": 12.976618,
      "lon": 77.6730321,
      "tags": {
        "addr:city": "Bangalore",
        "addr:housenumber": "143",
        "addr:postcode": "560075",
        "addr:street": "5th Main Road, 6th Cross, Malleshpalya, Bhadrappa Layout, Malleshpalya, Kaggadasapura, Bengaluru,",
        "leisure": "sports_centre",
        "name": "Bangalore Games and Fitness Institute",
        "opening_hours": "6:00-21:00",
        "phone": "8041706896",
        "sport": "gymnasium"
      }
    },
    {
      "type": "node",
      "id": 6162779589,
      "lat": 12.974343,
      "lon": 77.6750273,
      "tags": {
        "amenity": "kindergarten",
        "name": "Ayon International Pre School",
        "operator": "Private"
      }
    },
    {
      "type": "node",
      "id": 6162779590,
      "lat": 12.9740567,
      "lon": 77.6752488,
      "tags": {
        "amenity": "kindergarten",
        "name": "Kids Castle"
      }
    },
    {
      "type": "node",
      "id": 6771722367,
      "lat": 12.9747854,
      "lon": 77.6786161,
      "tags": {
        "name": "Gayathri Sweets",
        "shop": "confectionery"
      }
    },
    {
      "type": "node",
      "id": 7178894209,
      "lat": 12.9756865,
      "lon": 77.6669815,
      "tags": {
        "amenity": "post_office",
        "brand": "Desk to Desk Courier & Cargo",
        "brand:short": "DTDC",
        "brand:wikidata": "Q55608802",
        "name": "DTDC Courier",
        "operator": "Desk to Desk Courier & Cargo",
        "operator:short": "DTDC",
        "operator:wikidata": "Q55608802"
      }
    },
    {
      "type": "node",
      "id": 7193452650,
      "lat": 12.9760046,
      "lon": 77.6791397,
      "tags": {
        "amenity": "fast_food",
        "brand": "Five Star Chicken",
        "cuisine": "chicken",
        "delivery": "yes",
        "name": "Five Star Chicken",
        "takeaway": "yes",
        "wheelchair": "limited"
      }
    },
    {
      "type": "node",
      "id": 7466913100,
      "lat": 12.9741205,
      "lon": 77.6729001,
      "tags": {
        "amenity": "restaurant"
      }
    },
    {
      "type": "node",
      "id": 7466913101,
      "lat": 12.9734284,
      "lon": 77.6752338,
      "tags": {
        "amenity": "pharmacy",
        "dispensing": "yes",
        "healthcare": "pharmacy",
        "name": "Ramdev Pharmacy"
      }
    },
    {
      "type": "node",
      "id": 7466913102,
      "lat": 12.9728506,
      "lon": 77.6778275,
      "tags": {
        "amenity": "pharmacy",
        "dispensing": "yes",
        "healthcare": "pharmacy",
        "name": "Patanjali Pharmacy"
      }
    },
    {
      "type": "node",
      "id": 7476145133,
      "lat": 12.9747067,
      "lon": 77.6757118,
      "tags": {
        "addr:city": "Bengaluru",
        "amenity": "place_of_worship",
        "name": "Srinivasa Temple",
        "religion": "hindu"
      }
    },
    {
      "type": "node",
      "id": 7572131822,
      "lat": 12.9742358,
      "lon": 77.6726374,
      "tags": {
        "addr:district": "Bengaluru Urban",
        "addr:full": "Malleshpalya, Kaggadasapura, Bengaluru",
        "addr:postcode": "560093",
        "addr:state": "Karnataka",
        "amenity": "clinic",
        "name": "Health Care Medi Clinic",
        "source": "Local Knowledge"
      }
    },
    {
      "type": "node",
      "id": 7572131834,
      "lat": 12.9731172,
      "lon": 77.6767223,
      "tags": {
        "addr:district": "Bengaluru Urban",
        "addr:full": "BEML Main Road, Malleshpalya, Kaggadasapura, Bengaluru",
        "addr:postcode": "560093",
        "addr:state": "Karnataka",
        "amenity": "clinic",
        "healthcare": "clinic",
        "name": "Apple Clinic",
        "source": "Local Knowledge"
      }
    },
    {
      "type": "node",
      "id": 7572131857,
      "lat": 12.975622,
      "lon": 77.666082,
      "tags": {
        "addr:district": "Bengaluru Urban",
        "addr:full": "GM Palya, C V Raman Nagar, Bengaluru",
        "addr:postcode": "560075",
        "addr:state": "Karnataka",
        "amenity": "clinic",
        "name": "Rapha Polyclinic & Lab",
        "source": "Local Knowledge"
      }
    },
    {
      "type": "node",
      "id": 7572131881,
      "lat": 12.9750951,
      "lon": 77.6660888,
      "tags": {
        "addr:district": "Bengaluru Urban",
        "addr:full": "GM Palya, C V Raman Nagar, Bengaluru",
        "addr:postcode": "560017",
        "addr:state": "Karnataka",
        "amenity": "clinic",
        "name": "Netrajyoti Eye Centre",
        "source": "Local Knowledge",
        "wheelchair": "no"
      }
    },
    {
      "type": "node",
      "id": 7572131883,
      "lat": 12.9753191,
      "lon": 77.6660778,
      "tags": {
        "addr:district": "Bengaluru Urban",
        "addr:full": "Cauveri Colony, GM Palya, C V Raman Nagar, Bengaluru",
        "addr:postcode": "560093",
        "addr:state": "Karnataka",
        "amenity": "dentist",
        "name": "Dr. Ranganath Jingade Dental Hospital",
        "source": "Local Knowledge"
      }
    },
    {
      "type": "node",
      "id": 7572131892,
      "lat": 12.973637,
      "lon": 77.675186,
      "tags": {
        "addr:district": "Bengaluru Urban",
        "addr:full": "Malleshpalya, New Tippasandra, Bengaluru",
        "addr:postcode": "560075",
        "addr:state": "Karnataka",
        "amenity": "hospital",
        "healthcare": "hospital",
        "name": "Medihope Super Specialty Hospital",
        "source": "Local Knowledge"
      }
    },
    {
      "type": "node",
      "id": 11149315613,
      "lat": 12.9785893,
      "lon": 77.6754889,
      "tags": {
        "amenity": "restaurant",
        "cuisine": "shawarma;rolls;biriyani",
        "diet:non-vegetarian": "yes",
        "name": "Kabab Souq"
      }
    },
    {
      "type": "node",
      "id": 11149339762,
      "lat": 12.9787475,
      "lon": 77.6755457,
      "tags": {
        "name": "Repeat Liqours",
        "shop": "store"
      }
    },
    {
      "type": "node",
      "id": 11149339763,
      "lat": 12.9772353,
      "lon": 77.6747329,
      "tags": {
        "name": "Eden Fresh",
        "shop": "vegetables",
        "wheelchair": "no"
      }
    },
    {
      "type": "node",
      "id": 11199831337,
      "lat": 12.9739312,
      "lon": 77.6736939,
      "tags": {
        "addr:city": "Bengaluru",
        "addr:housenumber": "48",
        "addr:postcode": "560075",
        "addr:street": "7th Main Road",
        "amenity": "library",
        "contact:facebook": "thinkboxlibrary",
        "contact:instagram": "thinkboxblore",
        "email": "ethinkbox@gmail.com",
        "name": "ThinkBox Children's Library",
        "phone": "+91 9742849955",
        "website": "https://thinkbox.co.in/",
        "wheelchair": "limited"
      }
    },
    {
      "type": "node",
      "id": 13251268817,
      "lat": 12.9769205,
      "lon": 77.673297,
      "tags": {
        "amenity": "shelter",
        "shelter_type": "gazebo"
      }
    },
    {
      "type": "node",
      "id": 13251268818,
      "lat": 12.9769298,
      "lon": 77.6735807,
      "tags": {
        "amenity": "shelter",
        "shelter_type": "gazebo"
      }
    },
    {
      "type": "way",
      "id": 314210261,
      "center": {
        "lat": 12.9790506,
        "lon": 77.6739877
      },
      "tags": {
        "amenity": "school",
        "education": "school",
        "name": "NCFE School"
      }
    },
    {
      "type": "way",
      "id": 415125446,
      "center": {
        "lat": 12.9774258,
        "lon": 77.6713351
      },
      "tags": {
        "amenity": "school",
        "name": "Global City International School"
      }
    },
    {
      "type": "way",
      "id": 658040989,
      "center": {
        "lat": 12.9764955,
        "lon": 77.6751122
      },
      "tags": {
        "amenity": "school",
        "building": "school",
        "name": "Chaitanya E-Techno Scool",
        "operator": "Private"
      }
    },
    {
      "type": "way",
      "id": 1054384478,
      "center": {
        "lat": 12.9763384,
        "lon": 77.6728844
      },
      "tags": {
        "amenity": "school",
        "name": "Sishu Griha Junior School"
      }
    },
    {
      "type": "way",
      "id": 1320013842,
      "center": {
        "lat": 12.9748041,
        "lon": 77.6648258
      },
      "tags": {
        "amenity": "place_of_worship",
        "landuse": "religious",
        "name": "Shri Viranjaneya Temple",
        "name:kn": "ಶ್ರೀ ವೀರಾಂಜನೇಯ",
        "religion": "hindu"
      }
    },
    {
      "type": "way",
      "id": 1320013891,
      "center": {
        "lat": 12.971172,
        "lon": 77.6651791
      },
      "tags": {
        "amenity": "hospital",
        "name": "BEML Hospital"
      }
    },
    {
      "type": "way",
      "id": 1320017857,
      "center": {
        "lat": 12.9779038,
        "lon": 77.6782886
      },
      "tags": {
        "access": "private",
        "leisure": "swimming_pool"
      }
    },
    {
      "type": "way",
      "id": 1320017879,
      "center": {
        "lat": 12.9777913,
        "lon": 77.6790776
      },
      "tags": {
        "amenity": "fuel"
      }
    },
    {
      "type": "way",
      "id": 1363975879,
      "center": {
        "lat": 12.9803321,
        "lon": 77.6714056
      },
      "tags": {
        "leisure": "park",
        "name": "Atal Bihari Vajpayee Park"
      }
    },
    {
      "type": "way",
      "id": 1363975904,
      "center": {
        "lat": 12.9769543,
        "lon": 77.6725405
      },
      "tags": {
        "leisure": "sports_centre",
        "name": "SAI Cricket Academy",
        "sport": "cricket"
      }
    },
    {
      "type": "way",
      "id": 1443894895,
      "center": {
        "lat": 12.9734409,
        "lon": 77.6778471
      },
      "tags": {
        "amenity": "school",
        "landuse": "education",
        "name": "Hayagriva Girls' School"
      }
    },
    {
      "type": "way",
      "id": 1444109296,
      "center": {
        "lat": 12.9768828,
        "lon": 77.6737751
      },
      "tags": {
        "leisure": "playground"
      }
    },
    {
      "type": "way",
      "id": 1444109298,
      "center": {
        "lat": 12.9775221,
        "lon": 77.6724957
      },
      "tags": {
        "amenity": "place_of_worship",
        "landuse": "religious",
        "name": "Sri Jalakanteshwara Temple",
        "religion": "hindu"
      }
    },
    {
      "type": "way",
      "id": 1444109352,
      "center": {
        "lat": 12.9763507,
        "lon": 77.6728482
      },
      "tags": {
        "access": "private",
        "leisure": "pitch",
        "sport": "basketball"
      }
    }
  ]
}