{
  "area_name": "Gajendra Nagara",
  "osm_id": 4044099875,
  "osm_type": "node",
  "place_type": "neighbourhood",
  "amenity_count": 155,
  "amenities": [
    {
      "type": "node",
      "id": 317118536,
      "lat": 12.956044,
      "lon": 77.6119244,
      "tags": {
        "amenity": "place_of_worship",
        "fixme": "location",
        "name:kn": "ಮಸೀದಿ",
        "religion": "muslim"
      }
    },
    {
      "type": "node",
      "id": 662894703,
      "lat": 12.949455,
      "lon": 77.6171956,
      "tags": {
        "shop": "General store",
        "ups_shop": "shop"
      }
    },
    {
      "type": "node",
      "id": 662894707,
      "lat": 12.9497687,
      "lon": 77.6175899,
      "tags": {
        "shop": "General store",
        "ups_shop": "shop"
      }
    },
    {
      "type": "node",
      "id": 662894709,
      "lat": 12.9494393,
      "lon": 77.6174022,
      "tags": {
        "amenity": "toilets",
        "name": "Public Toilet",
        "name:kn": "ಶೌಚಾಲಯ"
      }
    },
    {
      "type": "node",
      "id": 663604703,
      "lat": 12.9495122,
      "lon": 77.6128103,
      "tags": {
        "amenity": "place_of_worship",
        "name": "Kalikamba Temple",
        "name:kn": "ಕಾಳಿಕಾಂಬ ದೇವಸ್ಥಾನ",
        "religion": "hindu",
        "ups_other": "temple"
      }
    },
    {
      "type": "node",
      "id": 663604704,
      "lat": 12.9497089,
      "lon": 77.6128657,
      "tags": {
        "amenity": "place_of_worship",
        "name:kn": "ಮಸೀದಿ",
        "religion": "muslim"
      }
    },
    {
      "type": "node",
      "id": 663604705,
      "lat": 12.9498327,
      "lon": 77.6131253,
      "tags": {
        "amenity": "toilets",
        "name": "Public Toilet",
        "name:kn": "ಶೌಚಾಲಯ",
        "ups_other": "toilet"
      }
    },
    {
      "type": "node",
      "id": 663604706,
      "lat": 12.9496427,
      "lon": 77.6133364,
      "tags": {
        "amenity": "community_centre",
        "name": "Samatha Sainika Dala",
        "name:kn": "ಸಮತ ಸೈನಿಕ ದಳ",
        "ups_community": "community_centre"
      }
    },
    {
      "type": "node",
      "id": 663604707,
      "lat": 12.9501149,
      "lon": 77.6134771,
      "tags": {
        "shop": "general",
        "ups_shop": "shop"
      }
    },
    {
      "type": "node",
      "id": 663604708,
      "lat": 12.9500299,
      "lon": 77.6132833,
      "tags": {
        "amenity": "place_of_worship",
        "name": "Shiva Temple",
        "name:kn": "ಶಿವ ದೇವಸ್ಥಾನ",
        "religion": "hindu",
        "ups_other": "temple"
      }
    },
    {
      "type": "node",
      "id": 663604709,
      "lat": 12.9496275,
      "lon": 77.6139658,
      "tags": {
        "amenity": "school",
        "name": "Government School",
        "name:kn": "ಸರ್ಕಾರಿ ಶಾಲೆ",
        "ups_school": "school"
      }
    },
    {
      "type": "node",
      "id": 663604710,
      "lat": 12.9497624,
      "lon": 77.6143357,
      "tags": {
        "amenity": "school",
        "name": "Methodist church school",
        "ups_school": "school"
      }
    },
    {
      "type": "node",
      "id": 663604711,
      "lat": 12.9498927,
      "lon": 77.6147223,
      "tags": {
        "amenity": "community_centre",
        "name": "JDS Office",
        "ups_community": "community_centre"
      }
    },
    {
      "type": "node",
      "id": 663604712,
      "lat": 12.9500392,
      "lon": 77.6139324,
      "tags": {
        "amenity": "community_centre",
        "name": "Bus staf&Reds",
        "ups_community": "community_centre"
      }
    },
    {
      "type": "node",
      "id": 663604713,
      "lat": 12.9500555,
      "lon": 77.6148988,
      "tags": {
        "amenity": "place_of_worship",
        "religion": "christian",
        "ups_other": "Church"
      }
    },
    {
      "type": "node",
      "id": 663604714,
      "lat": 12.9499206,
      "lon": 77.6151518,
      "tags": {
        "amenity": "school",
        "name": "Adithya public school",
        "ups_school": "school"
      }
    },
    {
      "type": "node",
      "id": 663604715,
      "lat": 12.9494647,
      "lon": 77.6154126,
      "tags": {
        "amenity": "place_of_worship",
        "name": "Church statue",
        "religion": "christian",
        "ups_other": "statue"
      }
    },
    {
      "type": "node",
      "id": 663604716,
      "lat": 12.9499624,
      "lon": 77.6154381,
      "tags": {
        "amenity": "toilets",
        "name": "Pubilc Toilet",
        "name:kn": "ಶೌಚಾಲಯ",
        "ups_other": "toilet"
      }
    },
    {
      "type": "node",
      "id": 663604717,
      "lat": 12.9499142,
      "lon": 77.616417,
      "tags": {
        "name": "Jewellery shops",
        "shop": "jewelry",
        "ups_shop": "shop"
      }
    },
    {
      "type": "node",
      "id": 663604719,
      "lat": 12.9503659,
      "lon": 77.6151518,
      "tags": {
        "amenity": "community_centre",
        "name": "Government training centre",
        "ups_community": "community_centre"
      }
    },
    {
      "type": "node",
      "id": 663604720,
      "lat": 12.9503648,
      "lon": 77.6156719,
      "tags": {
        "amenity": "place_of_worship",
        "religion": "christian",
        "ups_other": "Church"
      }
    },
    {
      "type": "node",
      "id": 663604721,
      "lat": 12.9503747,
      "lon": 77.6159015,
      "tags": {
        "amenity": "place_of_worship",
        "name": "temple",
        "religion": "hindu",
        "ups_other": "temple"
      }
    },
    {
      "type": "node",
      "id": 663604722,
      "lat": 12.9505235,
      "lon": 77.6162762,
      "tags": {
        "amenity": "place_of_worship",
        "name": "St merry statue",
        "religion": "christian",
        "ups_other": "statue"
      }
    },
    {
      "type": "node",
      "id": 663604723,
      "lat": 12.9503234,
      "lon": 77.6162619,
      "tags": {
        "amenity": "hospital",
        "healthcare": "hospital",
        "name": "Government Primary Health Centre",
        "name:kn": "ಸರ್ಕಾರಿ ಪ್ರಾಥಮಿಕ ಆರೋಗ್ಯ ಕೇಂದ್ರ",
        "ups_hospital": "hospital"
      }
    },
    {
      "type": "node",
      "id": 663604724,
      "lat": 12.9502096,
      "lon": 77.6166557,
      "tags": {
        "amenity": "place_of_worship",
        "name": "Church statue",
        "religion": "christian",
        "ups_other": "statue"
      }
    },
    {
      "type": "node",
      "id": 671960254,
      "lat": 12.952612,
      "lon": 77.6145588,
      "tags": {
        "amenity": "recycling",
        "name": "Nazeer Aahamad"
      }
    },
    {
      "type": "node",
      "id": 671960262,
      "lat": 12.9528804,
      "lon": 77.6152377,
      "tags": {
        "amenity": "recycling",
        "name": "Chinni Raju"
      }
    },
    {
      "type": "node",
      "id": 672011674,
      "lat": 12.9515185,
      "lon": 77.6142644,
      "tags": {
        "amenity": "recycling",
        "description": "dumpsite"
      }
    },
    {
      "type": "node",
      "id": 672011678,
      "lat": 12.9517365,
      "lon": 77.6139065,
      "tags": {
        "amenity": "recycling",
        "description": "dumpsite"
      }
    },
    {
      "type": "node",
      "id": 672011694,
      "lat": 12.9511406,
      "lon": 77.6174732,
      "tags": {
        "amenity": "recycling",
        "name": "Kumar"
      }
    },
    {
      "type": "node",
      "id": 672011697,
      "lat": 12.95132,
      "lon": 77.6171638,
      "tags": {
        "amenity": "recycling",
        "description": "dumpsite"
      }
    },
    {
      "type": "node",
      "id": 672011700,
      "lat": 12.9527732,
      "lon": 77.6173961,
      "tags": {
        "amenity": "recycling",
        "description": "dumpsite"
      }
    },
    {
      "type": "node",
      "id": 672011704,
      "lat": 12.9530481,
      "lon": 77.6159168,
      "tags": {
        "amenity": "recycling",
        "name": "Sapha"
      }
    },
    {
      "type": "node",
      "id": 672011707,
      "lat": 12.9537341,
      "lon": 77.6168951,
      "tags": {
        "amenity": "recycling",
        "name": "Palani"
      }
    },
    {
      "type": "node",
      "id": 672055796,
      "lat": 12.9495725,
      "lon": 77.6176442,
      "tags": {
        "amenity": "recycling",
        "name": "Baba shop"
      }
    },
    {
      "type": "node",
      "id": 672055806,
      "lat": 12.9492855,
      "lon": 77.617491,
      "tags": {
        "amenity": "recycling",
        "name": "sagai"
      }
    },
    {
      "type": "node",
      "id": 672060567,
      "lat": 12.9490485,
      "lon": 77.6174494,
      "tags": {
        "amenity": "recycling",
        "name": "dumping site"
      }
    },
    {
      "type": "node",
      "id": 672071448,
      "lat": 12.94905,
      "lon": 77.617456,
      "tags": {
        "amenity": "recycling",
        "description": "dumpsite"
      }
    },
    {
      "type": "node",
      "id": 1467812451,
      "lat": 12.943764,
      "lon": 77.6071874,
      "tags": {
        "amenity": "restaurant",
        "name": "Adigas",
        "name:kn": "ಅಡಿಗಾಸ್"
      }
    },
    {
      "type": "node",
      "id": 1824140227,
      "lat": 12.942312,
      "lon": 77.60802,
      "tags": {
        "addr:street": "Hosur Road",
        "name": "Manokamana Cermanic",
        "shop": "mall"
      }
    },
    {
      "type": "node",
      "id": 1851615731,
      "lat": 12.958286,
      "lon": 77.605196,
      "tags": {
        "amenity": "restaurant",
        "cuisine": "international",
        "name": "Y! Cafe"
      }
    },
    {
      "type": "node",
      "id": 3710229271,
      "lat": 12.9479461,
      "lon": 77.5999219,
      "tags": {
        "name": "Shaheen Chicken Stall",
        "shop": "butcher"
      }
    },
    {
      "type": "node",
      "id": 3710229273,
      "lat": 12.9480956,
      "lon": 77.5999568,
      "tags": {
        "name": "Shree Sai Baba Condiments",
        "shop": "convenience"
      }
    },
    {
      "type": "node",
      "id": 3710229275,
      "lat": 12.9481356,
      "lon": 77.5999766,
      "tags": {
        "amenity": "recycling",
        "name": "Newspaper recycling store"
      }
    },
    {
      "type": "node",
      "id": 3710229276,
      "lat": 12.9482719,
      "lon": 77.5999963,
      "tags": {
        "name": "Wahid Pasha Vegetable stall",
        "shop": "greengrocer"
      }
    },
    {
      "type": "node",
      "id": 3710229277,
      "lat": 12.9482984,
      "lon": 77.6000248,
      "tags": {
        "name": "L S Iyengar Bakery",
        "shop": "bakery"
      }
    },
    {
      "type": "node",
      "id": 3710229278,
      "lat": 12.9483481,
      "lon": 77.6000553,
      "tags": {
        "amenity": "pharmacy",
        "healthcare": "pharmacy",
        "name": "Padmavathi Medicals"
      }
    },
    {
      "type": "node",
      "id": 3710229279,
      "lat": 12.9484922,
      "lon": 77.6001079,
      "tags": {
        "name": "AquaDay",
        "shop": "Water_cans"
      }
    },
    {
      "type": "node",
      "id": 3710229280,
      "lat": 12.9485115,
      "lon": 77.6001153,
      "tags": {
        "name": "Nandini Franchise Outlet",
        "shop": "dairy"
      }
    },
    {
      "type": "node",
      "id": 3710229281,
      "lat": 12.9486255,
      "lon": 77.600076,
      "tags": {
        "addr:district": "Bengaluru Urban",
        "addr:full": "16/10 3Road Main, 14Th Cross, Chinmaya Pallya, Wilson Garden",
        "addr:postcode": "560030",
        "addr:state": "Karnataka",
        "addr:street": "BTS Main Road",
        "amenity": "clinic",
        "healthcare": "clinic",
        "name": "Roshni Nursing Home",
        "source": "OpenGovernmentData"
      }
    },
    {
      "type": "node",
      "id": 3710229282,
      "lat": 12.948665,
      "lon": 77.6001706,
      "tags": {
        "amenity": "pharmacy",
        "healthcare": "pharmacy",
        "name": "Sanjana Medicals"
      }
    },
    {
      "type": "node",
      "id": 4062007588,
      "lat": 12.9476948,
      "lon": 77.600799,
      "tags": {
        "amenity": "place_of_worship",
        "name": "Sri Maramma Temple",
        "name:kn": "ಮಾರಮ್ಮ ದೇವಸ್ಥಾನ",
        "religion": "hindu"
      }
    },
    {
      "type": "node",
      "id": 4062011905,
      "lat": 12.9487281,
      "lon": 77.6003812,
      "tags": {
        "addr:housenumber": "299/1",
        "addr:street": "B.T.S Main Road, Wilson Garden, Bangalore",
        "name": "KH phrama",
        "shop": "medical_supply"
      }
    },
    {
      "type": "node",
      "id": 4062011906,
      "lat": 12.9487921,
      "lon": 77.6009276,
      "tags": {
        "amenity": "fast_food",
        "name": "Bharathi Restaurant"
      }
    },
    {
      "type": "node",
      "id": 4062011908,
      "lat": 12.9490257,
      "lon": 77.6001501,
      "tags": {
        "name": "Chowdeswsri Rice traders",
        "shop": "houseware"
      }
    },
    {
      "type": "node",
      "id": 4062011909,
      "lat": 12.9489334,
      "lon": 77.6001044,
      "tags": {
        "amenity": "atm",
        "brand": "Axis Bank",
        "brand:wikidata": "Q2003549",
        "name": "Axis Bank",
        "name:kn": "ಆಕ್ಸಿಸ್ ಬ್ಯಾಂಕ್ ಎಟಿಎಂ",
        "operator": "Axis Bank",
        "operator:wikidata": "Q2003549"
      }
    },
    {
      "type": "node",
      "id": 4062011910,
      "lat": 12.9489794,
      "lon": 77.5997483,
      "tags": {
        "name": "BSNL Customer Service Center",
        "shop": "mobile_phone"
      }
    },
    {
      "type": "node",
      "id": 4447013603,
      "lat": 12.943229,
      "lon": 77.6091984,
      "tags": {
        "addr:city": "Bangalore",
        "addr:postcode": "560030",
        "addr:street": "Basavanna Temple Road, AK Colony, Adugodi",
        "amenity": "restaurant",
        "cuisine": "regional",
        "delivery": "yes",
        "name": "Sri Sathya Sai Food Corner",
        "opening_hours": "08:00-12:00, 17:00-21:00",
        "phone": "098862 35580",
        "smoking": "no",
        "takeaway": "yes"
      }
    },
    {
      "type": "node",
      "id": 4447019429,
      "lat": 12.9438907,
      "lon": 77.6073926,
      "tags": {
        "addr:city": "Bangalore",
        "addr:postcode": "560030",
        "addr:street": "Hosur Rd, Ayappa Garden, Adugodi",
        "amenity": "restaurant",
        "cuisine": "regional",
        "delivery": "yes",
        "name": "Hruday's D- 3",
        "opening_hours": "05:30-22:00",
        "phone": "080 6546 4662",
        "smoking": "no",
        "takeaway": "yes"
      }
    },
    {
      "type": "node",
      "id": 4447020567,
      "lat": 12.9424172,
      "lon": 77.6079042,
      "tags": {
        "addr:city": "Bangalore",
        "addr:postcode": "560030",
        "addr:street": "Hosur Rd, Nanjappa Layout, Adugodi",
        "amenity": "restaurant",
        "cuisine": "regional",
        "delivery": "yes",
        "name": "D3 multi cusine",
        "smoking": "no",
        "takeaway": "yes"
      }
    },
    {
      "type": "node",
      "id": 4527833926,
      "lat": 12.9572546,
      "lon": 77.6074721,
      "tags": {
        "amenity": "cafe"
      }
    },
    {
      "type": "node",
      "id": 4691599029,
      "lat": 12.9493419,
      "lon": 77.6058431,
      "tags": {
        "amenity": "place_of_worship",
        "religion": "christian"
      }
    },
    {
      "type": "node",
      "id": 5168658567,
      "lat": 12.9570709,
      "lon": 77.6057127,
      "tags": {
        "name": "Hercules Sports International",
        "shop": "sports"
      }
    },
    {
      "type": "node",
      "id": 5396228021,
      "lat": 12.9440943,
      "lon": 77.6077504,
      "tags": {
        "shop": "bakery"
      }
    },
    {
      "type": "node",
      "id": 5402302827,
      "lat": 12.9584526,
      "lon": 77.6046732,
      "tags": {
        "shop": "furniture"
      }
    },
    {
      "type": "node",
      "id": 5402312721,
      "lat": 12.9444073,
      "lon": 77.6076578,
      "tags": {
        "amenity": "place_of_worship",
        "religion": "hindu"
      }
    },
    {
      "type": "node",
      "id": 6348871070,
      "lat": 12.942581,
      "lon": 77.6089966,
      "tags": {
        "amenity": "school",
        "isced:level": "2",
        "name": "Long Memorial HPS",
        "name:kn": "ಲಾಂಗ್ ಮೆಮೋರಿಯಲ್ ಹಿರಿಯ ಪ್ರಾಥಮಿಕ ಶಾಲೆ",
        "operator": "Department of Education",
        "school": "primary"
      }
    },
    {
      "type": "node",
      "id": 6348958422,
      "lat": 12.9442879,
      "lon": 77.6069753,
      "tags": {
        "addr:place": "Adugodi",
        "amenity": "school",
        "isced:level": "2",
        "name": "GMPS Munichinnappa Adugodi",
        "name:kn": "ಸರ್ಕಾರಿ ಮಾದರಿ ಪ್ರಾಥಮಿಕ ಶಾಲೆ ಮುನಿಚಿನ್ನಪ್ಪಾ  ಆಡುಗೋಡಿ",
        "operator": "Department of Primary and Secondary Education",
        "operator:wikidata": "Q111467381",
        "school": "primary"
      }
    },
    {
      "type": "node",
      "id": 6349011311,
      "lat": 12.9547967,
      "lon": 77.6116127,
      "tags": {
        "addr:suburb": "Neelasandra",
        "amenity": "school",
        "isced:level": "2",
        "name": "Mahanagara Palike HPS Neelasandra",
        "name:kn": "ಮಹಾನಗರ ಪಾಲಿಕೆ ಹಿರಿಯ ಪ್ರಾಥಮಿಕ ಶಾಲೆನೀಲಸಂದ್ರ",
        "operator": "Department of Primary and Secondary Education",
        "operator:wikidata": "Q111467381",
        "school": "primary"
      }
    },
    {
      "type": "node",
      "id": 6349031908,
      "lat": 12.9539725,
      "lon": 77.6004211,
      "tags": {
        "addr:place": "Shanthinagar",
        "amenity": "school",
        "isced:level": "2",
        "name": "GHPS Ksrtc Shanthinagar",
        "name:kn": "ಸರ್ಕಾರಿ ಹಿರಿಯ ಪ್ರಾಥಮಿಕ ಶಾಲೆ ಕೆ.ಎಸ್‌.ಆರ್‌.ಟಿ.ಸಿ ಶಾಂತಿನಗರ",
        "operator": "Department of Education",
        "school": "primary"
      }
    },
    {
      "type": "node",
      "id": 6349040951,
      "lat": 12.9533162,
      "lon": 77.6005694,
      "tags": {
        "amenity": "school",
        "isced:level": "2",
        "name": "Shanthi KHPS Vinayakanagar",
        "name:kn": "ಶಾಂತಿ ಕನ್ನಡ ಹಿರಿಯ ಪ್ರಾಥಮಿಕ ಶಾಲೆ ವಿನಾಯಕನಗರ",
        "operator": "Department of Education",
        "school": "primary"
      }
    },
    {
      "type": "node",
      "id": 6349544678,
      "lat": 12.9475906,
      "lon": 77.6117497,
      "tags": {
        "addr:place": "Suddagunte Palya",
        "amenity": "school",
        "isced:level": "2",
        "name": "Padmavathi HS Suddagunte Palya",
        "name:kn": "ಪದ್ಮಾವತಿ ಎಚ್‌.ಎಸ್‌. ಸುದ್ದಗುಂಟೆ ಪಾಳ್ಯ",
        "operator": "Pvt. Aided",
        "school": "primary"
      }
    },
    {
      "type": "node",
      "id": 6409085052,
      "lat": 12.9566503,
      "lon": 77.6154402,
      "tags": {
        "addr:place": "Vivekanagar, Austin Town",
        "amenity": "school",
        "isced:level": "3",
        "name": "Infant Indian HPS Neelasandra, Austin Town W No 71",
        "name:kn": "ಇನ್ಫ್ಯಾಂಟ್ ಭಾರತೀಯ ಹಿರಿಯ ಪ್ರಾಥಮಿಕ ಶಾಲೆ, ನೀಲಸಂದ್ರ, ಆಸ್ಟಿನ್‌ಟೌನ್‌",
        "operator": "Private Un-Aided",
        "school": "Higher Secondary"
      }
    },
    {
      "type": "node",
      "id": 6410768087,
      "lat": 12.9575753,
      "lon": 77.6140476,
      "tags": {
        "addr:place": "Austin Town",
        "amenity": "school",
        "isced:level": "3",
        "name": "Karnataka Vidya Shala (KVS)HPS, Austin Town W No 71",
        "name:kn": "ಕರ್ನಾಟಕ ವಿದ್ಯಾ ಶಾಲಾ (ಕೆವಿಎಸ್) ಹಿರಿಯ ಪ್ರಾಥಮಿಕ ಶಾಲೆ, ಆಸ್ಟಿನ್‌ಟೌನ್‌",
        "operator": "Private Un-Aided",
        "school": "Higher Secondary"
      }
    },
    {
      "type": "node",
      "id": 6420920996,
      "lat": 12.9517387,
      "lon": 77.6130259,
      "tags": {
        "addr:place": "Austin Town",
        "amenity": "school",
        "isced:level": "3",
        "name": "Elight HS, Austin Town W No 71",
        "name:kn": "ಎಲೈಟ್ ಪ್ರೌಢಶಾಲೆ, ಆಸ್ಟಿನ್‌ಟೌನ್‌",
        "operator": "Private Un-Aided",
        "school": "Higher Secondary"
      }
    },
    {
      "type": "node",
      "id": 6422297356,
      "lat": 12.9568361,
      "lon": 77.6137517,
      "tags": {
        "addr:place": "Austin Town",
        "amenity": "school",
        "isced:level": "3",
        "name": "Reliance School, Austin Town W No 71",
        "name:kn": "ರಿಲಯನ್ಸ್ ಶಾಲೆ ,ಆಸ್ಟಿನ್‌ಟೌನ್‌",
        "operator": "Private Un-Aided",
        "school": "Higher Secondary"
      }
    },
    {
      "type": "node",
      "id": 6536283049,
      "lat": 12.9505983,
      "lon": 77.6153935,
      "tags": {
        "addr:place": "Koramangala",
        "amenity": "school",
        "isced:level": "1",
        "name": "Gk&TLPS L R Nagara, Koramangala",
        "name:kn": "ಜಿ.ಕೆ. ತೆಲುಗು ಕಿರಿಯ ಪ್ರಾಥಮಿಕ ಶಾಲೆ ಎಲ್.ಆರ್.ನಗರ, ಕೋರಮಂಗಲ",
        "operator": "Department of Primary and Secondary Education",
        "operator:type": "government",
        "operator:wikidata": "Q111467381",
        "school": "primary"
      }
    },
    {
      "type": "node",
      "id": 6734977227,
      "lat": 12.950636,
      "lon": 77.613165,
      "tags": {
        "addr:place": "Neelasandra",
        "amenity": "school",
        "isced:level": "3",
        "name": "Bright English HPS",
        "name:kn": "ಬ್ರೈಟ್ ಆಂಗ್ಲ ಹಿರಿಯ ಪ್ರಾಥಮಿಕ ಶಾಲೆ,ನೀಲಸಂದ್ರ",
        "operator": "Private Un-Aided",
        "school": "Higher Secondary"
      }
    },
    {
      "type": "node",
      "id": 6745250346,
      "lat": 12.9505064,
      "lon": 77.6082572,
      "tags": {
        "addr:place": "Neelasandra",
        "amenity": "school",
        "fixme": "Is this a Methodist-run school? Check spelling of name.",
        "isced:level": "3",
        "name": "Methadist HPS Anepalya",
        "name:kn": "ಮೆಥೋಡಿಸ್ಟ್ ಹಿರಿಯ ಪ್ರಾಥಮಿಕ ಶಾಲೆ ಅನೆಪಾಲಿಯಾ, ನೀಲಸಂದ್ರ",
        "operator": "Private Un-Aided",
        "school": "Higher Secondary"
      }
    },
    {
      "type": "node",
      "id": 6745252099,
      "lat": 12.9503639,
      "lon": 77.6112572,
      "tags": {
        "addr:suburb": "Neelasandra",
        "amenity": "school",
        "isced:level": "1",
        "name": "Christal LPS Neelasandra",
        "name:kn": "ಕ್ರಿಸ್ಟಲ್ ಕಿರಿಯ ಪ್ರಾಥಮಿಕ ಶಾಲೆ ನೀಲಸಂದ್ರ",
        "operator": "Private Un-Aided",
        "school": "primary"
      }
    },
    {
      "type": "node",
      "id": 6745306475,
      "lat": 12.9515358,
      "lon": 77.6102985,
      "tags": {
        "addr:place": "Neelasandra",
        "amenity": "school",
        "isced:level": "3",
        "name": "Modern HPS Anepalya",
        "name:kn": "ಮಾಡ್ರನ್ ಹಿರಿಯ ಪ್ರಾಥಮಿಕ ಶಾಲೆ ಆನೆಪಾಳ್ಯ ,ನೀಲಸಂದ್ರ",
        "operator": "Private Un-Aided",
        "school": "Higher Secondary"
      }
    },
    {
      "type": "node",
      "id": 6745434947,
      "lat": 12.9538525,
      "lon": 77.613761,
      "tags": {
        "addr:place": "Neelasandra",
        "amenity": "school",
        "isced:level": "1",
        "name": "Credence Public school",
        "name:kn": "ಕ್ರೆಡೆನ್ಸ್ ಪಬ್ಲಿಕ್ ನೀಲಸಂದ್ರ, ನೀಲಸಂದ್ರ",
        "operator": "Private Un-Aided",
        "school": "primary"
      }
    },
    {
      "type": "node",
      "id": 6745867506,
      "lat": 12.9515296,
      "lon": 77.6017794,
      "tags": {
        "addr:place": "Shanthinagar",
        "amenity": "school",
        "isced:level": "2",
        "name": "LPS Vinayakanagar,Shanthinagar",
        "name:kn": "ಕಿರಿಯ ಪ್ರಾಥಮಿಕ ಶಾಲೆ ವಿನಾಯಕನಗರ ಶಾಂತಿನಗರ",
        "operator": "Private Un-Aided",
        "school": "Higher primary"
      }
    },
    {
      "type": "node",
      "id": 6938704941,
      "lat": 12.941871,
      "lon": 77.6081394,
      "tags": {
        "addr:district": "Bengaluru Urban",
        "addr:full": "No.44/22,Srinivasa Complex, Najjappa Layout,Hosur Road, Adugodi",
        "addr:postcode": "560030",
        "addr:state": "Karnataka",
        "amenity": "clinic",
        "name": "Sankalpa Nursing Home",
        "source": "OpenGovernmentData"
      }
    },
    {
      "type": "node",
      "id": 6944138100,
      "lat": 12.9465876,
      "lon": 77.6015028,
      "tags": {
        "addr:district": "Bengaluru Urban",
        "addr:full": "#20 (Old#310),7Th Main,16Th Cross,Lakkasandra Extension",
        "addr:postcode": "560030",
        "addr:state": "Karnataka",
        "amenity": "clinic",
        "healthcare": "clinic",
        "name": "Shiva Nursing Home, Bengaluru Urban",
        "source": "OpenGovernmentData"
      }
    },
    {
      "type": "node",
      "id": 6948552667,
      "lat": 12.9526616,
      "lon": 77.61503,
      "tags": {
        "addr:district": "Bengaluru Urban",
        "addr:full": "#20, 7Th Cross Rosegarden, Neelasandra",
        "addr:postcode": "560047",
        "addr:state": "Karnataka",
        "amenity": "hospital",
        "name": "Get Well Hospital",
        "source": "OpenGovernmentData"
      }
    },
    {
      "type": "node",
      "id": 6950412318,
      "lat": 12.9439008,
      "lon": 77.6065864,
      "tags": {
        "addr:district": "Bengaluru Urban",
        "addr:full": "No.2/2, ARS Mansion, New Mico Factory Road, Opposite GovernmentHigh School, Adugodi",
        "addr:postcode": "560030",
        "addr:state": "Karnataka",
        "amenity": "hospital",
        "email": "communication@santhigiriashram.org",
        "name": "Santhigiri Ayurveda and Siddha Hospital, Bengaluru Urban",
        "operator:type": "private",
        "source": "OpenGovernmentData",
        "website": "https://www.santhigiriashram.org/"
      }
    },
    {
      "type": "node",
      "id": 7043991786,
      "lat": 12.9418442,
      "lon": 77.6085286,
      "tags": {
        "name": "Anugraha Textiles",
        "shop": "clothes"
      }
    },
    {
      "type": "node",
      "id": 7043992186,
      "lat": 12.9583199,
      "lon": 77.6049603,
      "tags": {
        "name": "Hafele Appliances",
        "opening_hours": "Mo-Sa 10:00-17:00",
        "shop": "electronics"
      }
    },
    {
      "type": "node",
      "id": 7043992385,
      "lat": 12.9439485,
      "lon": 77.6078061,
      "tags": {
        "amenity": "clinic",
        "name": "Health Centre",
        "name:en": "Adugodi Dispensary"
      }
    },
    {
      "type": "node",
      "id": 7293708139,
      "lat": 12.9581548,
      "lon": 77.60537,
      "tags": {
        "amenity": "bank",
        "atm": "yes",
        "brand": "State Bank of India",
        "brand:wikidata": "Q1340361",
        "name": "State Bank of India",
        "name:kn": "ಭಾರತೀಯ ಸ್ಟೇಟ್ ಬ್ಯಾಂಕ್",
        "operator": "State Bank of India",
        "short_name": "SBI"
      }
    },
    {
      "type": "node",
      "id": 7293817086,
      "lat": 12.9433728,
      "lon": 77.6079865,
      "tags": {
        "amenity": "restaurant",
        "name": "Biriyani Paradise"
      }
    },
    {
      "type": "node",
      "id": 7293817151,
      "lat": 12.9485315,
      "lon": 77.6060768,
      "tags": {
        "amenity": "place_of_worship",
        "religion": "hindu"
      }
    },
    {
      "type": "node",
      "id": 7293817152,
      "lat": 12.9485159,
      "lon": 77.606176,
      "tags": {
        "amenity": "shelter",
        "bench": "yes",
        "covered": "yes",
        "shelter": "yes",
        "shelter_type": "public_transport"
      }
    },
    {
      "type": "node",
      "id": 7293817153,
      "lat": 12.9483852,
      "lon": 77.6062095,
      "tags": {
        "amenity": "shelter",
        "bench": "yes",
        "covered": "yes",
        "shelter": "yes",
        "shelter_type": "public_transport"
      }
    },
    {
      "type": "node",
      "id": 7293817155,
      "lat": 12.9491641,
      "lon": 77.6062001,
      "tags": {
        "amenity": "shelter",
        "bench": "yes",
        "covered": "yes",
        "shelter": "yes",
        "shelter_type": "public_transport"
      }
    },
    {
      "type": "node",
      "id": 7293817156,
      "lat": 12.9493118,
      "lon": 77.6061586,
      "tags": {
        "amenity": "shelter",
        "bench": "yes",
        "covered": "yes",
        "shelter": "yes",
        "shelter_type": "public_transport"
      }
    },
    {
      "type": "node",
      "id": 7658290121,
      "lat": 12.9554808,
      "lon": 77.6157475,
      "tags": {
        "amenity": "post_office",
        "name": "Austin Town Post Office"
      }
    },
    {
      "type": "node",
      "id": 9179389770,
      "lat": 12.9583652,
      "lon": 77.604285,
      "tags": {
        "amenity": "cafe",
        "cuisine": "persian",
        "level": "3",
        "name": "The Cafe @ Saanchi",
        "outdoor_seating": "yes"
      }
    },
    {
      "type": "node",
      "id": 9179389771,
      "lat": 12.9583509,
      "lon": 77.6044124,
      "tags": {
        "level": "2",
        "name": "Kanakavalli",
        "shop": "fabric"
      }
    },
    {
      "type": "node",
      "id": 9611232066,
      "lat": 12.9582924,
      "lon": 77.6043893,
      "tags": {
        "level": "0;1",
        "name": "Saanchi Antiques",
        "shop": "antiques"
      }
    },
    {
      "type": "node",
      "id": 9951289032,
      "lat": 12.9494569,
      "lon": 77.6119924,
      "tags": {
        "amenity": "fast_food",
        "name": "Indira Canteen"
      }
    },
    {
      "type": "node",
      "id": 9951289033,
      "lat": 12.9492177,
      "lon": 77.6114425,
      "tags": {
        "amenity": "waste_disposal"
      }
    },
    {
      "type": "node",
      "id": 9951289034,
      "lat": 12.9493916,
      "lon": 77.6094738,
      "tags": {
        "amenity": "waste_disposal"
      }
    },
    {
      "type": "node",
      "id": 9951289098,
      "lat": 12.9490504,
      "lon": 77.6062283,
      "tags": {
        "amenity": "shelter",
        "bench": "yes",
        "covered": "yes",
        "shelter": "yes",
        "shelter_type": "public_transport"
      }
    },
    {
      "type": "node",
      "id": 9951289099,
      "lat": 12.949436,
      "lon": 77.6062162,
      "tags": {
        "name": "Nandini Dairy",
        "shop": "dairy"
      }
    },
    {
      "type": "node",
      "id": 9951289105,
      "lat": 12.9486492,
      "lon": 77.605889,
      "tags": {
        "amenity": "place_of_worship",
        "name": "New Apostolic Church",
        "religion": "christian"
      }
    },
    {
      "type": "node",
      "id": 9952087679,
      "lat": 12.955073,
      "lon": 77.6145042,
      "tags": {
        "amenity": "place_of_worship",
        "religion": "muslim"
      }
    },
    {
      "type": "node",
      "id": 10032117278,
      "lat": 12.9548574,
      "lon": 77.6052768,
      "tags": {
        "access": "yes",
        "amenity": "toilets",
        "fee": "yes",
        "operator": "BBMP"
      }
    },
    {
      "type": "node",
      "id": 10032117279,
      "lat": 12.9548528,
      "lon": 77.6052969,
      "tags": {
        "access": "yes",
        "amenity": "toilets",
        "fee": "yes",
        "operator": "BBMP"
      }
    },
    {
      "type": "node",
      "id": 10032117280,
      "lat": 12.9558724,
      "lon": 77.6035687,
      "tags": {
        "amenity": "shelter",
        "shelter_type": "gazebo"
      }
    },
    {
      "type": "node",
      "id": 10042701717,
      "lat": 12.9518019,
      "lon": 77.6056759,
      "tags": {
        "name": "Cigarette & Tea Shop",
        "shop": "variety_store"
      }
    },
    {
      "type": "node",
      "id": 10042701718,
      "lat": 12.951793,
      "lon": 77.6055559,
      "tags": {
        "amenity": "fast_food",
        "name": "Sugarcane Juice Shop"
      }
    },
    {
      "type": "node",
      "id": 10042722517,
      "lat": 12.9513373,
      "lon": 77.605436,
      "tags": {
        "name": "Puncture Repair Shop",
        "shop": "motorcycle"
      }
    },
    {
      "type": "node",
      "id": 10042722617,
      "lat": 12.9512534,
      "lon": 77.6054853,
      "tags": {
        "amenity": "place_of_worship",
        "name": "Infant Jesus Mini Church",
        "religion": "christian"
      }
    },
    {
      "type": "node",
      "id": 10042722717,
      "lat": 12.9508739,
      "lon": 77.6054105,
      "tags": {
        "name": "Lakshmi Wood Industries",
        "shop": "furniture"
      }
    },
    {
      "type": "node",
      "id": 10042722817,
      "lat": 12.9504047,
      "lon": 77.6055149,
      "tags": {
        "name": "National Slate & Granite",
        "shop": "hardware"
      }
    },
    {
      "type": "node",
      "id": 10042733217,
      "lat": 12.9478479,
      "lon": 77.6066562,
      "tags": {
        "amenity": "atm",
        "cash_in": "no",
        "operator": "State Bank of India"
      }
    },
    {
      "type": "node",
      "id": 12103756243,
      "lat": 12.9501234,
      "lon": 77.6056473,
      "tags": {
        "amenity": "bench"
      }
    },
    {
      "type": "node",
      "id": 12151337498,
      "lat": 12.9506877,
      "lon": 77.605377,
      "tags": {
        "amenity": "fuel",
        "brand": "Total",
        "brand:wikidata": "Q154037",
        "name": "Total"
      }
    },
    {
      "type": "node",
      "id": 12247812594,
      "lat": 12.9436081,
      "lon": 77.6078644,
      "tags": {
        "addr:postcode": "560030",
        "addr:street": "Hosur Road",
        "amenity": "fast_food",
        "brand": "Domino's",
        "brand:wikidata": "Q839466",
        "cuisine": "pizza",
        "name": "Domino's",
        "takeaway": "yes"
      }
    },
    {
      "type": "node",
      "id": 12247812595,
      "lat": 12.9433767,
      "lon": 77.6076357,
      "tags": {
        "addr:postcode": "560030",
        "addr:street": "Hosur Road",
        "amenity": "bank",
        "atm": "yes",
        "brand": "Axis Bank",
        "brand:wikidata": "Q2003549",
        "name": "Axis Bank"
      }
    },
    {
      "type": "node",
      "id": 12247812596,
      "lat": 12.9433633,
      "lon": 77.6075854,
      "tags": {
        "addr:postcode": "560030",
        "addr:street": "Hosur Road",
        "amenity": "bank",
        "atm": "yes",
        "brand": "State Bank of India",
        "brand:wikidata": "Q1340361",
        "level": "1",
        "name": "State Bank of India",
        "short_name": "SBI"
      }
    },
    {
      "type": "way",
      "id": 97475731,
      "center": {
        "lat": 12.9435105,
        "lon": 77.6058775
      },
      "tags": {
        "leisure": "sports_centre",
        "name": "Robert Bosch India Indoor Sports Facility"
      }
    },
    {
      "type": "way",
      "id": 172947365,
      "center": {
        "lat": 12.9445122,
        "lon": 77.6068396
      },
      "tags": {
        "amenity": "school",
        "name": "GHS Adugodi",
        "name:kn": "ಸರ್ಕಾರಿ ಪ್ರೌಡ ಶಾಲೆ"
      }
    },
    {
      "type": "way",
      "id": 326199006,
      "center": {
        "lat": 12.9559827,
        "lon": 77.6020973
      },
      "tags": {
        "leisure": "park"
      }
    },
    {
      "type": "way",
      "id": 326199007,
      "center": {
        "lat": 12.956985,
        "lon": 77.6011901
      },
      "tags": {
        "leisure": "park"
      }
    },
    {
      "type": "way",
      "id": 333556168,
      "center": {
        "lat": 12.9471261,
        "lon": 77.6021753
      },
      "tags": {
        "addr:street": "Bannerghatta Road",
        "amenity": "place_of_worship",
        "name": "Masjid-e-Aala",
        "name:kn": "ಮಸ್ಜಿದ್-ಎ-ಆಲ",
        "religion": "muslim"
      }
    },
    {
      "type": "way",
      "id": 346789708,
      "center": {
        "lat": 12.9478582,
        "lon": 77.5999988
      },
      "tags": {
        "building": "yes",
        "name": "Karnataka Tailors",
        "shop": "tailor"
      }
    },
    {
      "type": "way",
      "id": 401993921,
      "center": {
        "lat": 12.9576398,
        "lon": 77.6141529
      },
      "tags": {
        "amenity": "bus_station",
        "name": "Neelasandra",
        "name:kn": "ನೀಲಸಂದ್ರ"
      }
    },
    {
      "type": "way",
      "id": 411057597,
      "center": {
        "lat": 12.9548113,
        "lon": 77.6164088
      },
      "tags": {
        "leisure": "park"
      }
    },
    {
      "type": "way",
      "id": 411057598,
      "center": {
        "lat": 12.9556588,
        "lon": 77.615102
      },
      "tags": {
        "leisure": "playground"
      }
    },
    {
      "type": "way",
      "id": 411057600,
      "center": {
        "lat": 12.9535915,
        "lon": 77.6174661
      },
      "tags": {
        "amenity": "parking"
      }
    },
    {
      "type": "way",
      "id": 411057602,
      "center": {
        "lat": 12.9552973,
        "lon": 77.6162142
      },
      "tags": {
        "leisure": "park"
      }
    },
    {
      "type": "way",
      "id": 442014335,
      "center": {
        "lat": 12.959741,
        "lon": 77.6086465
      },
      "tags": {
        "access": "private",
        "leisure": "swimming_pool"
      }
    },
    {
      "type": "way",
      "id": 442014336,
      "center": {
        "lat": 12.9533316,
        "lon": 77.6011904
      },
      "tags": {
        "leisure": "park"
      }
    },
    {
      "type": "way",
      "id": 779344674,
      "center": {
        "lat": 12.9436204,
        "lon": 77.6056771
      },
      "tags": {
        "leisure": "pitch"
      }
    },
    {
      "type": "way",
      "id": 779344675,
      "center": {
        "lat": 12.9430153,
        "lon": 77.6056563
      },
      "tags": {
        "access": "private",
        "leisure": "pitch",
        "sport": "tennis"
      }
    },
    {
      "type": "way",
      "id": 781182575,
      "center": {
        "lat": 12.9563799,
        "lon": 77.6027769
      },
      "tags": {
        "leisure": "park"
      }
    },
    {
      "type": "way",
      "id": 781192792,
      "center": {
        "lat": 12.949021,
        "lon": 77.6067587
      },
      "tags": {
        "leisure": "park"
      }
    },
    {
      "type": "way",
      "id": 781192796,
      "center": {
        "lat": 12.9506051,
        "lon": 77.6053997
      },
      "tags": {
        "amenity": "fuel",
        "brand": "Total",
        "brand:wikidata": "Q154037",
        "name": "Total",
        "operator": "Total"
      }
    },
    {
      "type": "way",
      "id": 1049075231,
      "center": {
        "lat": 12.9573344,
        "lon": 77.6045898
      },
      "tags": {
        "addr:housenumber": "2",
        "addr:street": "Berlie Street",
        "amenity": "arts_centre",
        "contact:instagram": "kaashfoundation",
        "name": "Kaash",
        "operator": "Kaash Foundation"
      }
    },
    {
      "type": "way",
      "id": 1067951550,
      "center": {
        "lat": 12.9577314,
        "lon": 77.6123209
      },
      "tags": {
        "amenity": "school"
      }
    },
    {
      "type": "way",
      "id": 1067951551,
      "center": {
        "lat": 12.9570047,
        "lon": 77.6122804
      },
      "tags": {
        "amenity": "place_of_worship",
        "religion": "muslim"
      }
    },
    {
      "type": "way",
      "id": 1086044112,
      "center": {
        "lat": 12.9482501,
        "lon": 77.6086002
      },
      "tags": {
        "amenity": "college",
        "fixme": "Boundaries of the campus",
        "name": "National Institute of Animal Nutrition and Physiology",
        "official_name": "ICAR - National Institute of Animal Nutrition and Physiology",
        "short_name": "NIANP"
      }
    },
    {
      "type": "way",
      "id": 1086134448,
      "center": {
        "lat": 12.9571311,
        "lon": 77.6141597
      },
      "tags": {
        "amenity": "school"
      }
    },
    {
      "type": "way",
      "id": 1086134449,
      "center": {
        "lat": 12.9575581,
        "lon": 77.6146887
      },
      "tags": {
        "access": "customers",
        "amenity": "parking",
        "parking": "surface"
      }
    },
    {
      "type": "way",
      "id": 1149213001,
      "center": {
        "lat": 12.9569001,
        "lon": 77.6047605
      },
      "tags": {
        "addr:district": "Bengaluru Urban",
        "addr:full": "15, Eagle Street Langford Town Shanti Nagar",
        "addr:postcode": "560025",
        "addr:state": "Karnataka",
        "amenity": "hospital",
        "emergency": "no",
        "name": "Dr Agarwal's Eye Hospital",
        "source": "OpenGovernmentData"
      }
    },
    {
      "type": "way",
      "id": 1177319348,
      "center": {
        "lat": 12.9540105,
        "lon": 77.6003994
      },
      "tags": {
        "addr:place": "Shanthinagar",
        "amenity": "school",
        "isced:level": "2",
        "name": "GHPS Ksrtc Shanthinagar",
        "name:kn": "ಸರ್ಕಾರಿ ಹಿರಿಯ ಪ್ರಾಥಮಿಕ ಶಾಲೆ ಕೆ.ಎಸ್‌.ಆರ್‌.ಟಿ.ಸಿ ಶಾಂತಿನಗರ",
        "operator": "Department of Education",
        "school": "primary"
      }
    },
    {
      "type": "way",
      "id": 1182963076,
      "center": {
        "lat": 12.9449898,
        "lon": 77.6017514
      },
      "tags": {
        "access": "permissive",
        "leisure": "swimming_pool"
      }
    },
    {
      "type": "way",
      "id": 1182963077,
      "center": {
        "lat": 12.9452647,
        "lon": 77.6015696
      },
      "tags": {
        "access": "permissive",
        "leisure": "swimming_pool"
      }
    },
    {
      "type": "way",
      "id": 1182963078,
      "center": {
        "lat": 12.9452186,
        "lon": 77.6015996
      },
      "tags": {
        "leisure": "sports_centre",
        "name": "Wilson Garden Swimming Pool"
      }
    },
    {
      "type": "way",
      "id": 1203535875,
      "center": {
        "lat": 12.9454633,
        "lon": 77.6053415
      },
      "tags": {
        "leisure": "park"
      }
    },
    {
      "type": "way",
      "id": 1203535876,
      "center": {
        "lat": 12.945051,
        "lon": 77.6039766
      },
      "tags": {
        "leisure": "park"
      }
    },
    {
      "type": "way",
      "id": 1259003513,
      "center": {
        "lat": 12.9433411,
        "lon": 77.6053308
      },
      "tags": {
        "access": "permissive",
        "amenity": "parking",
        "parking": "surface"
      }
    }
  ]
}