{
  "area_name": "Gandhi Bazaar",
  "osm_id": 10293686956,
  "osm_type": "node",
  "place_type": "neighbourhood",
  "amenity_count": 455,
  "amenities": [
    {
      "type": "node",
      "id": 517874448,
      "lat": 12.9514719,
      "lon": 77.5774905,
      "tags": {
        "amenity": "fast_food",
        "name": "Rajasthani Parotha Point"
      }
    },
    {
      "type": "node",
      "id": 517874452,
      "lat": 12.9510029,
      "lon": 77.5776381,
      "tags": {
        "amenity": "fast_food",
        "name": "Arya Vysya Refreshments"
      }
    },
    {
      "type": "node",
      "id": 517874462,
      "lat": 12.9510696,
      "lon": 77.5775371,
      "tags": {
        "name": "Mumbai Badam & Lassi Center",
        "shop": "beverages"
      }
    },
    {
      "type": "node",
      "id": 517874463,
      "lat": 12.9512912,
      "lon": 77.5774906,
      "tags": {
        "amenity": "fast_food"
      }
    },
    {
      "type": "node",
      "id": 762086049,
      "lat": 12.9489556,
      "lon": 77.5762549,
      "tags": {
        "amenity": "public_building",
        "name": "Kanyaka Parameshwari Nilaya"
      }
    },
    {
      "type": "node",
      "id": 954620605,
      "lat": 12.9437007,
      "lon": 77.5649097,
      "tags": {
        "amenity": "restaurant",
        "name": "Ganesh Bhavan",
        "name:kn": "ಗಣೇಶ ಭವನ",
        "wheelchair": "no"
      }
    },
    {
      "type": "node",
      "id": 1058171422,
      "lat": 12.9447608,
      "lon": 77.5740606,
      "tags": {
        "addr:city": "Bangalore",
        "addr:street": "Krishna Rajendra Road",
        "amenity": "post_office",
        "name": "Basawanagudi Post Office",
        "name:kn": "ಬಸವನಗುಡಿ ಅಂಚೆ ಕಛೇರಿ"
      }
    },
    {
      "type": "node",
      "id": 1080729956,
      "lat": 12.9443745,
      "lon": 77.5695112,
      "tags": {
        "addr:street": "Bugle Rock Road",
        "amenity": "place_of_worship",
        "name": "Karanji Anjaneya Temple",
        "name:kn": "ಕಾರಂಜಿ ಅಂಜನೇಯ ದೇವಸ್ತಾನ",
        "religion": "hindu",
        "wheelchair": "no"
      }
    },
    {
      "type": "node",
      "id": 1085578877,
      "lat": 12.9443687,
      "lon": 77.573044,
      "tags": {
        "amenity": "bank",
        "atm": "yes",
        "brand": "Canara Bank",
        "brand:en": "Canara Bank",
        "brand:hi": "केनरा बैंक",
        "brand:kn": "ಕೆನರಾ ಬ್ಯಾಂಕ್",
        "brand:pa": "ਕੇਨਰਾ ਬੈਂਕ",
        "brand:pnb": "کینرا بینک",
        "brand:ur": "کینرا بینک",
        "brand:wikidata": "Q2003777",
        "brand:wikipedia": "en:Canara Bank",
        "brand:wikipedia:pa": "ਕੇਨਰਾ ਬੈਂਕ",
        "name": "Canara Bank",
        "name:en": "Canara Bank",
        "name:hi": "केनरा बैंक",
        "name:kn": "ಕೆನರಾ ಬ್ಯಾಂಕ್",
        "name:pa": "ਕੇਨਰਾ ਬੈਂਕ",
        "name:pnb": "کینرا بینک",
        "name:ur": "کینرا بینک",
        "website": "https://www.canarabank.com/"
      }
    },
    {
      "type": "node",
      "id": 1323663819,
      "lat": 12.9541058,
      "lon": 77.5741524,
      "tags": {
        "addr:city": "V V Puram, Bangalore",
        "addr:postcode": "560004",
        "addr:street": "Krishna Rajendra Road",
        "amenity": "college",
        "name": "VV Puram College of Arts and Commerce",
        "wheelchair": "limited"
      }
    },
    {
      "type": "node",
      "id": 1464749398,
      "lat": 12.9432335,
      "lon": 77.5700564,
      "tags": {
        "amenity": "fountain"
      }
    },
    {
      "type": "node",
      "id": 1464751687,
      "lat": 12.9409932,
      "lon": 77.5671094,
      "tags": {
        "amenity": "place_of_worship",
        "name": "Puttige Mutt",
        "name:kn": "ಪುತ್ತಿಗೆ ಮಠ",
        "religion": "hindu"
      }
    },
    {
      "type": "node",
      "id": 1464752453,
      "lat": 12.9395396,
      "lon": 77.5667848,
      "tags": {
        "addr:street": "Bull Temple Road",
        "amenity": "social_centre",
        "name": "Gokhale Institute of Public Affairs",
        "website": "http://gipa-bng.org/"
      }
    },
    {
      "type": "node",
      "id": 1465008466,
      "lat": 12.9454627,
      "lon": 77.5714069,
      "tags": {
        "addr:street": "Gandhi Bazar",
        "name": "Ladies Wear House",
        "shop": "clothes"
      }
    },
    {
      "type": "node",
      "id": 1465008470,
      "lat": 12.9442215,
      "lon": 77.5725983,
      "tags": {
        "addr:street": "Gandhi Bazaar Main Road",
        "amenity": "bank",
        "brand": "Corporation Bank",
        "brand:wikidata": "Q2003387",
        "brand:wikipedia": "en:Corporation Bank",
        "name": "Corporation Bank",
        "name:en": "Corporation Bank",
        "name:kn": "ಕಾರ್ಪರೇಷನ್ ಬ್ಯಾಂಕ್",
        "source": "survey",
        "website": "https://corpbank.com/"
      }
    },
    {
      "type": "node",
      "id": 1465009282,
      "lat": 12.9444504,
      "lon": 77.5722351,
      "tags": {
        "addr:street": "Gandhi Bazar Main Road",
        "name": "Food world",
        "name:kn": "ಫುಡ್ ವರ್ಲ್ಡ್",
        "shop": "supermarket"
      }
    },
    {
      "type": "node",
      "id": 1466328820,
      "lat": 12.9372141,
      "lon": 77.568841,
      "tags": {
        "addr:street": "N.R. Colony, 1st Main Road",
        "amenity": "bank",
        "atm": "yes",
        "brand": "Syndicate Bank",
        "brand:wikidata": "Q2004088",
        "name": "Syndicate Bank",
        "name:en": "Syndicate Bank",
        "name:kn": "ಸಿಂಡಿಕೇಟ್ ಬ್ಯಾಂಕ್",
        "website": "https://www.syndicatebank.in"
      }
    },
    {
      "type": "node",
      "id": 1466328827,
      "lat": 12.9370677,
      "lon": 77.568849,
      "tags": {
        "amenity": "atm",
        "brand": "Syndicate Bank",
        "brand:wikidata": "Q2004088",
        "name": "Syndicate Bank",
        "name:kn": "ಸಿಂಡಿಕೇಟ್ ಬ್ಯಾಂಕ್",
        "operator": "Syndicate Bank",
        "operator:wikidata": "Q2004088"
      }
    },
    {
      "type": "node",
      "id": 1466380358,
      "lat": 12.9370493,
      "lon": 77.5686801,
      "tags": {
        "amenity": "pharmacy",
        "healthcare": "pharmacy",
        "name": "Sagar Pharmacy"
      }
    },
    {
      "type": "node",
      "id": 1466730152,
      "lat": 12.9440288,
      "lon": 77.5727582,
      "tags": {
        "amenity": "restaurant",
        "name": "Shiv sagar",
        "name:kn": "ಶಿವ್ ಸಾಗರ್",
        "wheelchair": "no"
      }
    },
    {
      "type": "node",
      "id": 1466730374,
      "lat": 12.944502,
      "lon": 77.5728401,
      "tags": {
        "amenity": "cafe",
        "brand": "Cafe Coffee Day",
        "brand:wikidata": "Q5017235",
        "cuisine": "coffee_shop",
        "name": "Cafe Coffee Day",
        "name:kn": "ಕಫೆ ಕಾಫಿ ಡೇ",
        "takeaway": "yes"
      }
    },
    {
      "type": "node",
      "id": 1466730411,
      "lat": 12.9444313,
      "lon": 77.5729353,
      "tags": {
        "amenity": "restaurant",
        "diet:vegetarian": "only",
        "name": "Adyar Anand Bhavan",
        "name:kn": "ಆದ್ಯಾರ್ ಆನಂದ ಭವನ",
        "toilets:wheelchair": "no",
        "wheelchair": "no"
      }
    },
    {
      "type": "node",
      "id": 1466735001,
      "lat": 12.9393809,
      "lon": 77.5712615,
      "tags": {
        "alt_name": "Bhavani Kangans",
        "name": "Bhavani Bangles",
        "shop": "jewelry"
      }
    },
    {
      "type": "node",
      "id": 1470553269,
      "lat": 12.9369341,
      "lon": 77.5691786,
      "tags": {
        "name": "Samipa Bakery",
        "shop": "bakery"
      }
    },
    {
      "type": "node",
      "id": 1470553336,
      "lat": 12.9383716,
      "lon": 77.5700155,
      "tags": {
        "amenity": "fast_food",
        "cuisine": "indian",
        "name": "Srinivasa Cool Corner"
      }
    },
    {
      "type": "node",
      "id": 1473887315,
      "lat": 12.942427,
      "lon": 77.5671829,
      "tags": {
        "amenity": "place_of_worship",
        "check_date": "2023-09-19",
        "name": "Sri Raghavendra Swami Mutt",
        "name:kn": "ರಾಘವೇಂದ್ರ ಸ್ವಾಮಿ ಮಠ",
        "religion": "hindu"
      }
    },
    {
      "type": "node",
      "id": 1473887316,
      "lat": 12.940068,
      "lon": 77.5686776,
      "tags": {
        "leisure": "pitch",
        "name": "APS Playground"
      }
    },
    {
      "type": "node",
      "id": 1473896401,
      "lat": 12.9453673,
      "lon": 77.5672085,
      "tags": {
        "amenity": "school",
        "name": "Nevaditha school"
      }
    },
    {
      "type": "node",
      "id": 1473897177,
      "lat": 12.9444263,
      "lon": 77.5651593,
      "tags": {
        "amenity": "school",
        "name": "SSVM GP Branch",
        "wheelchair": "no"
      }
    },
    {
      "type": "node",
      "id": 1473898703,
      "lat": 12.9423037,
      "lon": 77.5713284,
      "tags": {
        "name": "Rama Rao & sons",
        "shop": "jewelry"
      }
    },
    {
      "type": "node",
      "id": 1473899970,
      "lat": 12.9408398,
      "lon": 77.5732596,
      "tags": {
        "amenity": "library",
        "name:kn": "ಗ್ರಂಥಾಲಯ"
      }
    },
    {
      "type": "node",
      "id": 1473902946,
      "lat": 12.940021,
      "lon": 77.5651693,
      "tags": {
        "amenity": "bank",
        "brand": "Allahabad Bank",
        "brand:wikidata": "Q2018840",
        "brand:wikipedia": "en:Allahabad Bank",
        "name": "Allahabad Bank",
        "name:en": "Allahabad Bank",
        "name:kn": "ಅಲ್ಲಹಾಬಾದ್ ಬ್ಯಾಂಕ್",
        "website": "https://www.allahabadbank.in"
      }
    },
    {
      "type": "node",
      "id": 1473902953,
      "lat": 12.9403137,
      "lon": 77.5645095,
      "tags": {
        "amenity": "restaurant",
        "name": "Mini Punjabi Dhaba",
        "name:kn": "ಮಿನಿ ಪಂಜಾಬಿ ಢಾಬ"
      }
    },
    {
      "type": "node",
      "id": 1473903929,
      "lat": 12.9488556,
      "lon": 77.5673667,
      "tags": {
        "name": "Ramakrishna Mutt",
        "name:kn": "ರಾಮಕೃಷ್ಣ ಮಠ",
        "shop": "books",
        "wheelchair": "limited"
      }
    },
    {
      "type": "node",
      "id": 1473921774,
      "lat": 12.9458714,
      "lon": 77.5675192,
      "tags": {
        "addr:district": "Bengaluru Urban",
        "addr:full": "No.81,Bulltemple Road,Near Ramakrishna Ashram",
        "addr:postcode": "560019",
        "addr:state": "Karnataka",
        "addr:street": "Shyamaraja Iyengar Road",
        "amenity": "hospital",
        "emergency": "no",
        "name": "Shekar Hospital",
        "name:en": "Shekhar Hospital",
        "name:hi": "शेखर हॉस्पिटल",
        "name:kn": "ಶೇಖರ್ ಹಾಸ್ಪಿಟಲ್",
        "source": "OpenGovernmentData"
      }
    },
    {
      "type": "node",
      "id": 1473921785,
      "lat": 12.9455787,
      "lon": 77.5679644,
      "tags": {
        "amenity": "school",
        "name": "BASE"
      }
    },
    {
      "type": "node",
      "id": 1473921794,
      "lat": 12.9462008,
      "lon": 77.5679859,
      "tags": {
        "amenity": "fuel",
        "brand": "Indian Oil",
        "brand:wikidata": "Q1289348",
        "name": "Bull Temple Filling Station"
      }
    },
    {
      "type": "node",
      "id": 1473921798,
      "lat": 12.9449194,
      "lon": 77.5680581,
      "tags": {
        "addr:street": "Bull Temple Road",
        "amenity": "restaurant",
        "name": "Cane-o-La",
        "name:kn": "ಕೆನ್-ಒ-ಲಾ",
        "wheelchair": "no"
      }
    },
    {
      "type": "node",
      "id": 1473921812,
      "lat": 12.9446167,
      "lon": 77.5677552,
      "tags": {
        "amenity": "atm",
        "brand": "State Bank of India",
        "brand:wikidata": "Q1340361",
        "fee": "no",
        "name": "State Bank of India",
        "operator": "State Bank of India",
        "operator:wikidata": "Q1340361",
        "short_name": "SBI"
      }
    },
    {
      "type": "node",
      "id": 1473945518,
      "lat": 12.9480672,
      "lon": 77.5682863,
      "tags": {
        "amenity": "restaurant",
        "name": "SLV Delite",
        "name:kn": "ಎಸ್ಎಲ್‌ವಿ ಡಿಲೈಟ್"
      }
    },
    {
      "type": "node",
      "id": 1473945527,
      "lat": 12.9473887,
      "lon": 77.568194,
      "tags": {
        "amenity": "bank",
        "brand": "HSBC",
        "brand:wikidata": "Q190464",
        "name": "HSBC"
      }
    },
    {
      "type": "node",
      "id": 1473945528,
      "lat": 12.9473326,
      "lon": 77.5680046,
      "tags": {
        "brand": "Hyundai",
        "brand:wikidata": "Q55931",
        "level": "0;1",
        "name": "Blue Hyundai",
        "shop": "car"
      }
    },
    {
      "type": "node",
      "id": 1473972564,
      "lat": 12.9496638,
      "lon": 77.5680233,
      "tags": {
        "amenity": "community_centre",
        "name": "Guru Narasimha Kalyana Mantap",
        "wheelchair": "no"
      }
    },
    {
      "type": "node",
      "id": 1473972586,
      "lat": 12.950339,
      "lon": 77.5673443,
      "tags": {
        "amenity": "bank",
        "atm": "yes",
        "brand": "ICICI Bank",
        "brand:wikidata": "Q1653258",
        "name": "ICICI Bank",
        "name:en": "ICICI Bank",
        "name:kn": "ಐಸಿಐಸಿಐ ಬ್ಯಾಂಕು",
        "short_name": "ICICI",
        "website": "https://www.icicibank.com",
        "wheelchair": "no"
      }
    },
    {
      "type": "node",
      "id": 1473972590,
      "lat": 12.9505777,
      "lon": 77.567884,
      "tags": {
        "check_date": "2023-09-09",
        "name": "Miracle Unisex Salon",
        "shop": "beauty",
        "wheelchair": "no"
      }
    },
    {
      "type": "node",
      "id": 1617398428,
      "lat": 12.9539396,
      "lon": 77.5688104,
      "tags": {
        "addr:street": "2nd Cross Road",
        "amenity": "fast_food",
        "diet:vegetarian": "only",
        "name": "Brahmin's Coffee Bar",
        "name:kn": "ಬ್ರಾಹ್ಮಣರ ಕಾಫಿ ಬಾರ್",
        "wheelchair": "no"
      }
    },
    {
      "type": "node",
      "id": 1741832246,
      "lat": 12.941632,
      "lon": 77.5641945,
      "tags": {
        "addr:city": "Bengaluru",
        "addr:postcode": "560019",
        "amenity": "fuel",
        "brand": "Hindustan Petroleum",
        "brand:wikidata": "Q1619375",
        "fuel:diesel": "yes",
        "fuel:petrol": "yes",
        "name": "Sri Vishvesha Agencies",
        "official_name": "Hindustan Petroleum",
        "phone": "+919164009930",
        "self_service": "no"
      }
    },
    {
      "type": "node",
      "id": 1741832550,
      "lat": 12.9416578,
      "lon": 77.5644359,
      "tags": {
        "amenity": "bank",
        "atm": "yes",
        "brand": "Canara Bank",
        "brand:en": "Canara Bank",
        "brand:hi": "केनरा बैंक",
        "brand:kn": "ಕೆನರಾ ಬ್ಯಾಂಕ್",
        "brand:pa": "ਕੇਨਰਾ ਬੈਂਕ",
        "brand:pnb": "کینرا بینک",
        "brand:ur": "کینرا بینک",
        "brand:wikidata": "Q2003777",
        "brand:wikipedia": "en:Canara Bank",
        "brand:wikipedia:pa": "ਕੇਨਰਾ ਬੈਂਕ",
        "name": "Canara Bank",
        "name:en": "Canara Bank",
        "name:hi": "केनरा बैंक",
        "name:kn": "ಕೆನರಾ ಬ್ಯಾಂಕ್",
        "name:pa": "ਕੇਨਰਾ ਬੈਂਕ",
        "name:pnb": "کینرا بینک",
        "name:ur": "کینرا بینک",
        "website": "https://www.canarabank.com/"
      }
    },
    {
      "type": "node",
      "id": 1787239474,
      "lat": 12.9451935,
      "lon": 77.5625997,
      "tags": {
        "amenity": "townhall",
        "designation": "Marriage Hall",
        "name": "Maradi Subbiah Trust Kalyana Mantapa"
      }
    },
    {
      "type": "node",
      "id": 1787242875,
      "lat": 12.9450916,
      "lon": 77.5620794,
      "tags": {
        "building": "public",
        "leisure": "sports_centre",
        "name": "Maradi Subbaiah Yoga Center"
      }
    },
    {
      "type": "node",
      "id": 1791566157,
      "lat": 12.9535008,
      "lon": 77.5720582,
      "tags": {
        "amenity": "post_office",
        "name": "PMK Road Post Office",
        "name:kn": "ಅಂಚೆ ಕಛೇರಿ",
        "operator": "India Post",
        "operator:wikidata": "Q3519720",
        "wheelchair": "no"
      }
    },
    {
      "type": "node",
      "id": 1791567417,
      "lat": 12.9538729,
      "lon": 77.570101,
      "tags": {
        "addr:street": "Shankar Matt Road",
        "amenity": "police",
        "name": "Shankarapuram Police Station",
        "name:kn": "ಆರಕ್ಷಕ ಠಾಣೆ",
        "wheelchair": "no"
      }
    },
    {
      "type": "node",
      "id": 1791572737,
      "lat": 12.954482,
      "lon": 77.572086,
      "tags": {
        "addr:street": "Pampa Maha Kavi Road",
        "amenity": "community_centre",
        "name": "Chandra Shekara Bharati Kalyana Mantapa",
        "wheelchair": "no"
      }
    },
    {
      "type": "node",
      "id": 1791573840,
      "lat": 12.9546728,
      "lon": 77.5720966,
      "tags": {
        "addr:street": "Pampa Mahakavi Road",
        "amenity": "community_centre",
        "name": "Sharada Prasada Kalyana Mantapa"
      }
    },
    {
      "type": "node",
      "id": 1791576981,
      "lat": 12.9540088,
      "lon": 77.5724909,
      "tags": {
        "amenity": "school",
        "name": "BBUL Jain Vidyalaya",
        "wheelchair": "no"
      }
    },
    {
      "type": "node",
      "id": 1791592717,
      "lat": 12.9484672,
      "lon": 77.5716218,
      "tags": {
        "addr:street": "Uttaradi Mutt Road",
        "amenity": "bank",
        "atm": "yes",
        "brand": "Bank of Maharashtra",
        "brand:wikidata": "Q2004304",
        "brand:wikipedia": "en:Bank of Maharashtra",
        "name": "Bank of Maharashtra",
        "name:en": "Bank of Maharashtra",
        "website": "https://www.bankofmaharashtra.in/",
        "wheelchair": "no"
      }
    },
    {
      "type": "node",
      "id": 1791595069,
      "lat": 12.9500017,
      "lon": 77.5721635,
      "tags": {
        "amenity": "atm",
        "fee": "no",
        "operator": "State Bank Of Indi"
      }
    },
    {
      "type": "node",
      "id": 1791971124,
      "lat": 12.952102,
      "lon": 77.5763325,
      "tags": {
        "amenity": "place_of_worship",
        "name": "Satyanarayana Temple",
        "name:kn": "ಸತ್ಯನಾರಾಯಣ ಗುಡಿ",
        "religion": "hindu"
      }
    },
    {
      "type": "node",
      "id": 1791982458,
      "lat": 12.9544493,
      "lon": 77.5699435,
      "tags": {
        "amenity": "atm",
        "brand": "Karnataka Bank",
        "brand:wikidata": "Q2042632",
        "name": "Karnataka Bank",
        "operator": "Karnataka Bank",
        "operator:wikidata": "Q2042632"
      }
    },
    {
      "type": "node",
      "id": 1792713585,
      "lat": 12.9493264,
      "lon": 77.5679362,
      "tags": {
        "addr:street": "Bull Temple Road",
        "amenity": "bank",
        "atm": "yes",
        "branch": "Bull Temple Road",
        "brand": "State Bank of India",
        "brand:wikidata": "Q1340361",
        "brand:wikipedia": "en:State Bank of India",
        "check_date": "2023-09-09",
        "drive_through": "yes",
        "internet_access": "wlan",
        "internet_access:fee": "no",
        "name": "State Bank of India",
        "name:kn": "ಭಾರತೀಯ ಸ್ಟೇಟ್ ಬ್ಯಾಂಕ್",
        "payment:mastercard": "yes",
        "payment:visa": "yes",
        "short_name": "SBI",
        "wheelchair": "yes"
      }
    },
    {
      "type": "node",
      "id": 1792716217,
      "lat": 12.9434331,
      "lon": 77.5663121,
      "tags": {
        "amenity": "atm",
        "brand": "ICICI Bank",
        "brand:wikidata": "Q1653258",
        "fee": "no",
        "name": "ICICI Bank",
        "name:kn": "ಐಸಿಐಸಿಐ ಬ್ಯಾಂಕು",
        "operator": "ICICI Bank",
        "operator:wikidata": "Q1653258",
        "short_name": "ICICI"
      }
    },
    {
      "type": "node",
      "id": 1794008864,
      "lat": 12.9451475,
      "lon": 77.5719389,
      "tags": {
        "amenity": "atm",
        "brand": "Citibank",
        "brand:wikidata": "Q857063",
        "drive_through": "no",
        "fee": "no",
        "name": "Citibank",
        "operator": "Citibank",
        "operator:wikidata": "Q857063",
        "short_name": "Citi",
        "wheelchair": "no"
      }
    },
    {
      "type": "node",
      "id": 1796628970,
      "lat": 12.9439251,
      "lon": 77.5643566,
      "tags": {
        "amenity": "atm",
        "brand": "HDFC Bank",
        "brand:wikidata": "Q631047",
        "fee": "no",
        "name": "HDFC Bank",
        "operator": "HDFC Bank",
        "operator:wikidata": "Q631047",
        "short_name": "HDFC"
      }
    },
    {
      "type": "node",
      "id": 1796630507,
      "lat": 12.9437743,
      "lon": 77.5643702,
      "tags": {
        "amenity": "atm",
        "brand": "ICICI Bank",
        "brand:wikidata": "Q1653258",
        "fee": "no",
        "name": "ICICI Bank",
        "operator": "ICICI Bank",
        "operator:wikidata": "Q1653258",
        "short_name": "ICICI"
      }
    },
    {
      "type": "node",
      "id": 1796633495,
      "lat": 12.9450945,
      "lon": 77.5679803,
      "tags": {
        "amenity": "fast_food",
        "brand": "Domino's",
        "brand:ks": "ڈومینوز",
        "brand:pa": "ਡੋਮੀਨੋਜ਼",
        "brand:ur": "ڈومینوز",
        "brand:wikidata": "Q839466",
        "brand:wikipedia": "en:Domino's Pizza",
        "cuisine": "pizza",
        "name": "Domino's",
        "name:ks": "ڈومینوز",
        "name:pa": "ਡੋਮੀਨੋਜ਼",
        "name:ur": "ڈومینوز",
        "takeaway": "yes"
      }
    },
    {
      "type": "node",
      "id": 1796636345,
      "lat": 12.9500847,
      "lon": 77.5679508,
      "tags": {
        "amenity": "bank",
        "atm": "no",
        "designation": "Karnatka State Industrial Co-operative Bank",
        "name": "Karnatka Rajya Kaigarika Sahakari Bank"
      }
    },
    {
      "type": "node",
      "id": 1801375379,
      "lat": 12.9469992,
      "lon": 77.5641506,
      "tags": {
        "amenity": "bank",
        "atm": "yes",
        "brand": "Syndicate Bank",
        "brand:wikidata": "Q2004088",
        "name": "Syndicate Bank",
        "name:en": "Syndicate Bank",
        "name:kn": "ಸಿಂಡಿಕೇಟ್ ಬ್ಯಾಂಕ್",
        "website": "https://www.syndicatebank.in"
      }
    },
    {
      "type": "node",
      "id": 1802684091,
      "lat": 12.9436748,
      "lon": 77.5641934,
      "tags": {
        "amenity": "atm",
        "brand": "Corporation Bank",
        "brand:wikidata": "Q2003387",
        "fee": "no",
        "name": "Corporation Bank",
        "operator": "Corporation Bank",
        "operator:wikidata": "Q2003387"
      }
    },
    {
      "type": "node",
      "id": 1902387772,
      "lat": 12.9444288,
      "lon": 77.5724461,
      "tags": {
        "amenity": "bank",
        "brand": "Indian Bank",
        "brand:wikidata": "Q2003789",
        "brand:wikipedia": "en:Indian Bank",
        "name": "Indian Bank",
        "name:en": "Indian Bank",
        "name:kn": "ಇಂಡಿಯನ್ ಬ್ಯಾಂಕ್",
        "source": "survey",
        "website": "https://www.indianbank.in/"
      }
    },
    {
      "type": "node",
      "id": 1916600665,
      "lat": 12.9489694,
      "lon": 77.577188,
      "tags": {
        "amenity": "fast_food",
        "name": "Sri Vasavi Condiments",
        "name:kn": "ಬಸವನಗುಡಿ ಟಿಫಿನ್ ರೂಮ್",
        "wheelchair": "no"
      }
    },
    {
      "type": "node",
      "id": 1923720117,
      "lat": 12.9458998,
      "lon": 77.5717344,
      "tags": {
        "amenity": "atm",
        "brand": "ICICI Bank",
        "brand:wikidata": "Q1653258",
        "name": "ICICI Bank",
        "name:kn": "ಐಸಿಐಸಿಐ ಬ್ಯಾಂಕು",
        "operator": "ICICI Bank",
        "operator:wikidata": "Q1653258",
        "short_name": "ICICI",
        "source:name": "survey"
      }
    },
    {
      "type": "node",
      "id": 1923771946,
      "lat": 12.9457543,
      "lon": 77.5724936,
      "tags": {
        "amenity": "bank",
        "name": "Sree Charan Bank",
        "name:kn": "ಶ್ರೀ ಚರಣ್ ಬ್ಯಾಂಕ್",
        "source:name": "survey"
      }
    },
    {
      "type": "node",
      "id": 1990628296,
      "lat": 12.9472021,
      "lon": 77.5714429,
      "tags": {
        "name": "Mahila",
        "name:kn": "ಮಹಿಳಾ",
        "shop": "jewelry",
        "wheelchair": "no"
      }
    },
    {
      "type": "node",
      "id": 2057197603,
      "lat": 12.9479149,
      "lon": 77.5794869,
      "tags": {
        "amenity": "fuel",
        "brand": "Bharat Petroleum",
        "brand:wikidata": "Q854826",
        "name": "Bharat Petroleum",
        "name:kn": "ಭಾರತ್ ಪೆಟ್ರೋಲಿಯಂ",
        "operator": "Bharat Petroleum"
      }
    },
    {
      "type": "node",
      "id": 2255802679,
      "lat": 12.9461645,
      "lon": 77.5734435,
      "tags": {
        "amenity": "restaurant",
        "diet:vegetarian": "only",
        "name": "Jain Bhavan",
        "name:kn": "ಜೈನ ಭವನ"
      }
    },
    {
      "type": "node",
      "id": 3148753000,
      "lat": 12.9457315,
      "lon": 77.5717632,
      "tags": {
        "amenity": "community_centre",
        "name": "HB Samaja Convention Hall"
      }
    },
    {
      "type": "node",
      "id": 3455381019,
      "lat": 12.9454151,
      "lon": 77.5709801,
      "tags": {
        "addr:city": "Bangalore",
        "addr:street": "Gandhi Bazaar Main Road",
        "amenity": "fast_food",
        "cuisine": "regional",
        "name": "Ice Thunder"
      }
    },
    {
      "type": "node",
      "id": 3602725890,
      "lat": 12.9517068,
      "lon": 77.5769729,
      "tags": {
        "addr:city": "Bengaluru",
        "addr:postcode": "560004",
        "addr:street": "Sajjan Rao Circle",
        "name": "Harsha Enterprises",
        "opening_hours": "Mo-Fr 10:00-17:30",
        "operator": "Bharath Gas",
        "shop": "energy"
      }
    },
    {
      "type": "node",
      "id": 3602728203,
      "lat": 12.9508789,
      "lon": 77.5770446,
      "tags": {
        "addr:city": "Bengaluru",
        "addr:postcode": "560004",
        "addr:street": "Vasavi Temple Road",
        "amenity": "place_of_worship",
        "name": "Vasavi Temple",
        "name:kn": "ವಾಸವಿ ದೇವಸ್ಥಾನ",
        "religion": "hindu"
      }
    },
    {
      "type": "node",
      "id": 3602945368,
      "lat": 12.9506501,
      "lon": 77.5779992,
      "tags": {
        "addr:postcode": "560004",
        "name": "Nandini Milk Parlour",
        "name:kn": "ನಂದಿನಿ ಹಾಲಿನ ಅಂಗಡಿ",
        "operator": "Karnataka Milk Federation",
        "shop": "dairy"
      }
    },
    {
      "type": "node",
      "id": 3603077928,
      "lat": 12.9516486,
      "lon": 77.5770722,
      "tags": {
        "addr:city": "Bengaluru",
        "addr:postcode": "560004",
        "addr:street": "Old Market Street",
        "name": "V B Bakery",
        "shop": "bakery"
      }
    },
    {
      "type": "node",
      "id": 3656275411,
      "lat": 12.9369639,
      "lon": 77.5721872,
      "tags": {
        "addr:city": "Bangalore",
        "addr:postcode": "560004",
        "addr:street": "South End Road",
        "name": "Nandini Milk Parlour",
        "name:kn": "ನಂದಿನಿ ಹಾಲಿನ ಅಂಗಡಿ",
        "opening_hours": "06:00-22:30",
        "operator": "Karnataka Milk Federation",
        "shop": "dairy"
      }
    },
    {
      "type": "node",
      "id": 3946293404,
      "lat": 12.940566,
      "lon": 77.5708321,
      "tags": {
        "addr:housenumber": "32",
        "addr:street": "32, Mallikarjuna Temple Road",
        "name": "Veena Works",
        "phone": "9845744693",
        "shop": "musical_instrument"
      }
    },
    {
      "type": "node",
      "id": 3946296441,
      "lat": 12.9394431,
      "lon": 77.5714279,
      "tags": {
        "addr:street": "DVG Road",
        "name": "Mane Holige",
        "opening_hours": "Mo-Su 10:00-21:30",
        "phone": "+919886584789 9742672871",
        "shop": "confectionery"
      }
    },
    {
      "type": "node",
      "id": 4254080490,
      "lat": 12.940402,
      "lon": 77.5766481,
      "tags": {
        "amenity": "atm",
        "brand": "Federal Bank",
        "brand:wikidata": "Q2044983",
        "name": "Federal Bank",
        "operator": "Federal Bank",
        "operator:wikidata": "Q2044983"
      }
    },
    {
      "type": "node",
      "id": 4254094089,
      "lat": 12.9404668,
      "lon": 77.5757675,
      "tags": {
        "addr:postcode": "560004",
        "addr:street": "Deewan Madhava Rao Road",
        "amenity": "bank",
        "brand": "IDBI Bank",
        "brand:wikidata": "Q3633485",
        "brand:wikipedia": "en:IDBI Bank",
        "name": "IDBI Bank",
        "name:kn": "ಐಡಿಬಿಐ ಬ್ಯಾಂಕ್",
        "old_name": "Industrial Development Bank of India",
        "opening_hours": "Mo-Fr 10:00-16:00; Sa 10:00-12:00",
        "short_name": "IDBI",
        "website": "https://www.idbi.com"
      }
    },
    {
      "type": "node",
      "id": 4255663990,
      "lat": 12.9398043,
      "lon": 77.5755209,
      "tags": {
        "name": "Cake Yard",
        "shop": "bakery"
      }
    },
    {
      "type": "node",
      "id": 4342399492,
      "lat": 12.9511087,
      "lon": 77.5697771,
      "tags": {
        "amenity": "clinic",
        "check_date": "2023-09-09",
        "description": "10 security cameras",
        "name": "Srinivasa Ultrasound Scan Centre"
      }
    },
    {
      "type": "node",
      "id": 4349307192,
      "lat": 12.9485535,
      "lon": 77.5748248,
      "tags": {
        "amenity": "hospital",
        "check_date": "2024-03-09",
        "healthcare:speciality": "gynaecology",
        "name": "Sagar Chandramma Hospitals",
        "name:en": "Sagar Chandramma Hospitals"
      }
    },
    {
      "type": "node",
      "id": 4349316995,
      "lat": 12.9455735,
      "lon": 77.5712921,
      "tags": {
        "amenity": "pharmacy",
        "healthcare": "pharmacy",
        "name": "Pavitra Medicals"
      }
    },
    {
      "type": "node",
      "id": 4349316996,
      "lat": 12.9453567,
      "lon": 77.5710944,
      "tags": {
        "name": "Seema Art Jewellery",
        "shop": "jewelry"
      }
    },
    {
      "type": "node",
      "id": 4349317394,
      "lat": 12.9450336,
      "lon": 77.5715059,
      "tags": {
        "addr:housenumber": "22",
        "addr:street": "Gandhi Bazaar Main Road",
        "name": "BN Sreekantiah And Sons",
        "shop": "convenience"
      }
    },
    {
      "type": "node",
      "id": 4349317395,
      "lat": 12.9450199,
      "lon": 77.5714286,
      "tags": {
        "name": "Priyanka Silks",
        "shop": "clothes"
      }
    },
    {
      "type": "node",
      "id": 4349317396,
      "lat": 12.9453667,
      "lon": 77.5709983,
      "tags": {
        "amenity": "restaurant",
        "name": "Timepass Dinner"
      }
    },
    {
      "type": "node",
      "id": 4349331891,
      "lat": 12.9450571,
      "lon": 77.5716432,
      "tags": {
        "name": "Flower Market",
        "shop": "florist"
      }
    },
    {
      "type": "node",
      "id": 4349331892,
      "lat": 12.9450077,
      "lon": 77.5715689,
      "tags": {
        "name": "Parimala Sweets",
        "shop": "confectionery"
      }
    },
    {
      "type": "node",
      "id": 4349344090,
      "lat": 12.945197,
      "lon": 77.5712783,
      "tags": {
        "name": "Choice Footwear",
        "shop": "shoes"
      }
    },
    {
      "type": "node",
      "id": 4362723794,
      "lat": 12.9453043,
      "lon": 77.5798656,
      "tags": {
        "amenity": "pharmacy",
        "healthcare": "pharmacy",
        "name": "Basavangudi Medical Centre"
      }
    },
    {
      "type": "node",
      "id": 4443323771,
      "lat": 12.9371526,
      "lon": 77.5728792,
      "tags": {
        "addr:city": "Bangalore",
        "addr:housenumber": "49",
        "addr:postcode": "560004",
        "addr:street": "S Kariyappa Road",
        "amenity": "restaurant",
        "cuisine": "regional",
        "delivery": "yes",
        "name": "Presto",
        "name:kn": "ಪ್ರೆಸ್ಟೋ",
        "opening_hours": "08:00-23:00",
        "phone": "080 2662 2058",
        "smoking": "no"
      }
    },
    {
      "type": "node",
      "id": 4443345110,
      "lat": 12.9435256,
      "lon": 77.5655166,
      "tags": {
        "addr:city": "Bangalore",
        "addr:housenumber": "3",
        "addr:postcode": "560004",
        "addr:street": "Bull Temple Road, 5th Main Road",
        "amenity": "restaurant",
        "delivery": "yes",
        "name": "Halli Thindi",
        "opening_hours": "07:00-22:00",
        "phone": "080 2661 9777",
        "smoking": "no"
      }
    },
    {
      "type": "node",
      "id": 4443365241,
      "lat": 12.9462613,
      "lon": 77.5703662,
      "tags": {
        "addr:city": "Bangalore",
        "addr:housenumber": "112",
        "addr:postcode": "560004",
        "addr:street": "Gandhi Bazar Main Road, Basavanagudi",
        "amenity": "restaurant",
        "cuisine": "regional",
        "delivery": "yes",
        "diet:vegetarian": "only",
        "name": "Baisakhi Vegetarian Restaurant",
        "opening_hours": "Mo-Su 12:30-16:00, 19:00-23:00",
        "phone": "+91 80 6533 9999",
        "smoking": "no",
        "takeaway": "yes"
      }
    },
    {
      "type": "node",
      "id": 4443397448,
      "lat": 12.9446256,
      "lon": 77.569918,
      "tags": {
        "addr:city": "Bangalore",
        "addr:housenumber": "8",
        "addr:postcode": "560004",
        "addr:street": "Behind BMS College of Engineering",
        "amenity": "restaurant",
        "cuisine": "regional",
        "delivery": "yes",
        "name": "Szechuan Dragon Chinese Restaurant",
        "opening_hours": "12-16, 7-23",
        "phone": "096635 67711",
        "smoking": "no"
      }
    },
    {
      "type": "node",
      "id": 4445197030,
      "lat": 12.9418834,
      "lon": 77.5707551,
      "tags": {
        "addr:city": "Bangalore",
        "addr:housenumber": "26",
        "addr:postcode": "560004",
        "addr:street": "DVG Road, Basavanagudi",
        "amenity": "restaurant",
        "cuisine": "regional",
        "delivery": "yes",
        "name": "Nisarga Garden Restaurant",
        "phone": "+91 94482 61574",
        "smoking": "no",
        "takeaway": "yes"
      }
    },
    {
      "type": "node",
      "id": 4445209596,
      "lat": 12.9406714,
      "lon": 77.5703714,
      "tags": {
        "addr:city": "Bangalore",
        "addr:postcode": "560004",
        "addr:street": "Mallikarjuna Temple St",
        "amenity": "restaurant",
        "cuisine": "regional",
        "delivery": "yes",
        "name": "Puliyogare Point",
        "opening_hours": "07:00-21:30",
        "phone": "+91 99869 53484",
        "smoking": "no",
        "takeaway": "yes"
      }
    },
    {
      "type": "node",
      "id": 4445233886,
      "lat": 12.9473154,
      "lon": 77.5690141,
      "tags": {
        "addr:city": "Bangalore",
        "addr:housenumber": "93",
        "addr:postcode": "560004",
        "addr:street": "Gandhi Bazaar Main Rd, Gandhi Bazaar, Basavanagudi",
        "amenity": "restaurant",
        "cuisine": "regional",
        "delivery": "yes",
        "name": "Hotel New Atithya",
        "opening_hours": "07:00:30-15:30, 17:00-23:30",
        "phone": "080 2650 8150",
        "smoking": "no",
        "takeaway": "yes"
      }
    },
    {
      "type": "node",
      "id": 4445259436,
      "lat": 12.9446421,
      "lon": 77.5719424,
      "tags": {
        "addr:city": "Bangalore",
        "addr:postcode": "560004",
        "addr:street": "Puttana Rd, Gandhi Bazaar",
        "amenity": "restaurant",
        "cuisine": "regional",
        "delivery": "yes",
        "name": "New Prashanth Hotel",
        "phone": "099803 04249",
        "smoking": "no",
        "takeaway": "yes"
      }
    },
    {
      "type": "node",
      "id": 4445269296,
      "lat": 12.9483651,
      "lon": 77.5685364,
      "tags": {
        "addr:city": "Bangalore",
        "addr:postcode": "560004",
        "addr:street": "Vanivilas Rd, Basavanagudi",
        "amenity": "restaurant",
        "cuisine": "regional",
        "delivery": "yes",
        "name": "SLV Corner",
        "opening_hours": "08:00-22:30",
        "phone": "080 2660 9671",
        "smoking": "no",
        "takeaway": "yes"
      }
    },
    {
      "type": "node",
      "id": 4445281666,
      "lat": 12.9379147,
      "lon": 77.5748672,
      "tags": {
        "addr:city": "Bangalore",
        "addr:housenumber": "49/1",
        "addr:postcode": "560004",
        "addr:street": "S Kariyappa Road, South End Road, Basavanagudi, Opposite To Balaji Medicals",
        "amenity": "restaurant",
        "cuisine": "regional",
        "delivery": "yes",
        "name": "Thindi Katte",
        "phone": "080 2662 2058",
        "smoking": "no"
      }
    },
    {
      "type": "node",
      "id": 4445291691,
      "lat": 12.947549,
      "lon": 77.5739319,
      "tags": {
        "addr:city": "Bangalore",
        "addr:postcode": "560004",
        "addr:street": "K R Road, Basavangudi",
        "amenity": "restaurant",
        "cuisine": "regional",
        "delivery": "yes",
        "name": "Cool corner",
        "opening_hours": "08:00-22:00",
        "phone": "080 2691 6505",
        "smoking": "no",
        "takeaway": "yes"
      }
    },
    {
      "type": "node",
      "id": 4445303925,
      "lat": 12.9470578,
      "lon": 77.5714933,
      "tags": {
        "addr:city": "Bangalore",
        "addr:postcode": "560004",
        "addr:street": "DVG Road, Gandhi Bazaar, Basavanagudi",
        "amenity": "restaurant",
        "cuisine": "regional",
        "delivery": "yes",
        "name": "Maha Lakshmi Tiffin Room",
        "opening_hours": "Mo-Tu 06:30-11:30,14:30-20:00; Th-Su 06:30-11:30,14:30-20:00",
        "phone": "080 2290 6305",
        "smoking": "no"
      }
    },
    {
      "type": "node",
      "id": 4445314674,
      "lat": 12.9448665,
      "lon": 77.5715764,
      "tags": {
        "addr:city": "Bengaluru",
        "addr:postcode": "560004",
        "addr:street": "DVG Road, Gandhi Bazaar, Basavanagudi",
        "amenity": "restaurant",
        "cuisine": "regional",
        "delivery": "yes",
        "name": "Ice Thunder",
        "opening_hours": "08:30-21:30",
        "smoking": "no",
        "takeaway": "yes"
      }
    },
    {
      "type": "node",
      "id": 4445337724,
      "lat": 12.947133,
      "lon": 77.5694107,
      "tags": {
        "addr:city": "Bengaluru",
        "addr:housenumber": "95",
        "addr:postcode": "560004",
        "addr:street": "Gandhi Bazaar, Basavanagudi",
        "amenity": "cafe",
        "brand": "Cafe Coffee Day",
        "brand:wikidata": "Q5017235",
        "cuisine": "coffee_shop",
        "delivery": "yes",
        "name": "Cafe Coffee Day",
        "name:kn": "ಕಫೆ ಕಾಫಿ ಡೇ",
        "opening_hours": "11:00-23:00",
        "phone": "080 3256 9590",
        "smoking": "no",
        "takeaway": "yes",
        "website": "https://www.cafecoffeeday.com/"
      }
    },
    {
      "type": "node",
      "id": 4445351321,
      "lat": 12.9471057,
      "lon": 77.5716965,
      "tags": {
        "addr:city": "Bangalore",
        "addr:housenumber": "22",
        "addr:postcode": "560004",
        "addr:street": "Govindappa Road, V.C Plaza, Next To Suvarna Silk, DVG Road, Gandhi Bazaar, Basavanagudi",
        "amenity": "restaurant",
        "cuisine": "regional",
        "delivery": "yes",
        "name": "Thanco's Natural Ice Cream",
        "opening_hours": "11:00-23:00",
        "phone": "080 4099 7919",
        "smoking": "no",
        "takeaway": "yes",
        "website": "www.thancosnatural.com"
      }
    },
    {
      "type": "node",
      "id": 4445727000,
      "lat": 12.9385441,
      "lon": 77.5699295,
      "tags": {
        "addr:city": "Bangalore",
        "addr:postcode": "560004",
        "addr:street": "E Anjaneya Temple St, NR Colony, Basavanagudi",
        "amenity": "restaurant",
        "cuisine": "regional",
        "delivery": "yes",
        "name": "Harshi Super Sandwich",
        "opening_hours": "10:00-21:30",
        "phone": "095357 36455",
        "smoking": "no",
        "takeaway": "yes",
        "website": "https://sites.google.com/site/harshisupersandwich/"
      }
    },
    {
      "type": "node",
      "id": 4445799119,
      "lat": 12.9488056,
      "lon": 77.5743239,
      "tags": {
        "addr:city": "Bangalore",
        "addr:postcode": "560004",
        "addr:street": "Kavi Lakshmisha Rd, Vishweshwarapura, Shankarapura",
        "amenity": "restaurant",
        "cuisine": "regional",
        "delivery": "yes",
        "name": "Bakery World",
        "opening_hours": "07:00-22:00",
        "phone": "080 4093 7384",
        "smoking": "no",
        "takeaway": "yes"
      }
    },
    {
      "type": "node",
      "id": 4446525169,
      "lat": 12.9464613,
      "lon": 77.57609,
      "tags": {
        "addr:full": "80 Feet Road, 5th Cross Road, Chandra Layout, Vijay Nagar, Bangalore - 560040",
        "alt_name": "Goli Vada Pav No.1",
        "amenity": "fast_food",
        "brand": "Goli Vada Pav",
        "brand:wikidata": "Q5580697",
        "cuisine": "indian",
        "name": "Goli Vada Pav",
        "name:kn": "ಗೋಲಿ ವಡ ಪಾವ್",
        "opening_hours": "10:00-22:00",
        "phone": "+91 9845315071",
        "takeaway": "yes",
        "website": "https://www.golivadapav.com/"
      }
    },
    {
      "type": "node",
      "id": 4447071065,
      "lat": 12.944786,
      "lon": 77.5717922,
      "tags": {
        "amenity": "restaurant"
      }
    },
    {
      "type": "node",
      "id": 4447071066,
      "lat": 12.9447626,
      "lon": 77.5717734,
      "tags": {
        "addr:city": "Bangalore",
        "addr:housenumber": "17",
        "addr:postcode": "560004",
        "addr:street": "Next to cake ghar,Gandhi Bazaar Main Rd, Gandhi Bazaar, Basavanagudi",
        "amenity": "restaurant",
        "cuisine": "regional",
        "delivery": "yes",
        "name": "U.D Roti Ghar &Cake ghar",
        "opening_hours": "07:30-22:30",
        "phone": "080 2662 2760",
        "smoking": "no",
        "takeaway": "yes",
        "website": "https://www.facebook.com/rotighar"
      }
    },
    {
      "type": "node",
      "id": 4447072621,
      "lat": 12.9446144,
      "lon": 77.5729301,
      "tags": {
        "addr:city": "Bangalore",
        "addr:housenumber": "198",
        "addr:postcode": "560004",
        "addr:street": "3rd Floor, Gandhi Bazaar Main Road, Gandhi Bazaar, Basavanagudi",
        "amenity": "restaurant",
        "cuisine": "regional",
        "delivery": "yes",
        "name": "Soho Bar & Grill",
        "opening_hours": "11:30-23:30",
        "phone": "080 4160 9443",
        "smoking": "no",
        "takeaway": "yes",
        "website": "http://www.31southparkhotel.com/sohobar.html"
      }
    },
    {
      "type": "node",
      "id": 4447076724,
      "lat": 12.9444068,
      "lon": 77.5709394,
      "tags": {
        "addr:city": "Bangalore",
        "addr:housenumber": "142/143",
        "addr:postcode": "560004",
        "addr:street": "1st Floor, GR Plaza, DVG Road, Gandhi Bazaar, Basavanagudi",
        "amenity": "restaurant",
        "cuisine": "regional",
        "name": "Gokul Veg",
        "opening_hours": "11:00-22:30",
        "phone": "080 2662 7612",
        "smoking": "no",
        "takeaway": "yes",
        "website": "https://www.gokulveg.in/"
      }
    },
    {
      "type": "node",
      "id": 4447078189,
      "lat": 12.9378405,
      "lon": 77.574857,
      "tags": {
        "addr:city": "Bangalore",
        "addr:housenumber": "49",
        "addr:postcode": "560004",
        "addr:street": "S Kariyappa Road, Basavanagudi",
        "amenity": "restaurant",
        "cuisine": "regional",
        "delivery": "yes",
        "name": "Presto",
        "name:kn": "ಪ್ರೆಸ್ಟೋ",
        "opening_hours": "08:00-23:00",
        "phone": "080 2662 2058",
        "smoking": "no",
        "takeaway": "yes"
      }
    },
    {
      "type": "node",
      "id": 4447082895,
      "lat": 12.9396288,
      "lon": 77.5667866,
      "tags": {
        "addr:city": "Bangalore",
        "addr:postcode": "560004",
        "addr:street": "Bull Temple Road",
        "amenity": "restaurant",
        "cuisine": "regional",
        "delivery": "yes",
        "name": "Kamath Bugle Rock",
        "opening_hours": "07:00-22:30",
        "phone": "080 4124 1112",
        "smoking": "no",
        "takeaway": "yes"
      }
    },
    {
      "type": "node",
      "id": 4447085544,
      "lat": 12.9415832,
      "lon": 77.5770807,
      "tags": {
        "addr:city": "bangalore",
        "addr:housenumber": "93",
        "addr:postcode": "560004",
        "addr:street": "Kanakapura Rd, Basavanagudi",
        "amenity": "restaurant",
        "cuisine": "regional",
        "delivery": "yes",
        "name": "The Rogue Elephant",
        "opening_hours": "11:00-20:30",
        "phone": "098456 64681",
        "smoking": "no"
      }
    },
    {
      "type": "node",
      "id": 4447090061,
      "lat": 12.9458476,
      "lon": 77.5710517,
      "tags": {
        "addr:city": "Bangalore",
        "addr:housenumber": "32",
        "addr:postcode": "560004",
        "addr:street": "Gandhi Bazaar Main Rd, Gandhi Bazaar, Basavanagudi",
        "amenity": "restaurant",
        "cuisine": "regional",
        "name": "Udupi Sri Krishna Bhavan",
        "opening_hours": "07:30-20:30"
      }
    },
    {
      "type": "node",
      "id": 4447110450,
      "lat": 12.9444202,
      "lon": 77.5729266,
      "tags": {
        "addr:city": "Bangalore",
        "addr:postcode": "560004",
        "addr:street": "Gandhi Bazaar Main Rd, Gandhi Bazaar, Basavanagudi",
        "amenity": "restaurant",
        "cuisine": "regional",
        "delivery": "yes",
        "name": "Hungerez",
        "opening_hours": "11:00-22:00",
        "phone": "097424 00031",
        "smoking": "no",
        "takeaway": "yes",
        "website": "http://www.hungerez.com/"
      }
    },
    {
      "type": "node",
      "id": 4447114176,
      "lat": 12.9444107,
      "lon": 77.5721169,
      "tags": {
        "addr:city": "Bangalore",
        "addr:postcode": "560004",
        "addr:street": "3rd Floor, Above Reliance Trends, 10, Gandhi Bazaar Main Rd, Basavanagudi",
        "amenity": "restaurant",
        "cuisine": "regional",
        "delivery": "yes",
        "name": "Grand Village",
        "opening_hours": "12:00-14:30, 19-22:30",
        "phone": "080 2661 2447",
        "smoking": "no"
      }
    },
    {
      "type": "node",
      "id": 4447120631,
      "lat": 12.9401607,
      "lon": 77.5643716,
      "tags": {
        "addr:city": "Bangalore",
        "addr:housenumber": "8",
        "addr:postcode": "560004",
        "addr:street": "Second Floor, 1st Main, Arush Trapeze, Mount Joy Road, Behind BMS College of Engineering",
        "amenity": "restaurant",
        "cuisine": "regional",
        "name": "Szechuan Dragon Chinese Restaurant",
        "opening_hours": "12-16:00, 19:00-23:00",
        "phone": "096635 67711",
        "smoking": "no",
        "takeaway": "yes"
      }
    },
    {
      "type": "node",
      "id": 4447124200,
      "lat": 12.9376671,
      "lon": 77.5676462,
      "tags": {
        "addr:city": "Bangalore",
        "addr:postcode": "560004",
        "addr:street": "7th Cross Road, NR Colony, Basavangudi,",
        "amenity": "restaurant",
        "cuisine": "regional",
        "delivery": "no",
        "name": "Hotel Dwarka",
        "opening_hours": "We-Su 07:00-20:30",
        "phone": "080 2590 5217",
        "smoking": "no",
        "takeaway": "yes"
      }
    },
    {
      "type": "node",
      "id": 4447127000,
      "lat": 12.9440883,
      "lon": 77.5725864,
      "tags": {
        "addr:city": "Bangalore",
        "addr:housenumber": "5",
        "addr:postcode": "560004",
        "addr:street": "Mallaraiah Complex, 1st Floor, Gandhi Bazaar Main Rd, Gandhi Bazaar, Basavanagud",
        "amenity": "restaurant",
        "cuisine": "regional",
        "delivery": "yes",
        "name": "Pramukh Family Restaurant - Prassidhi Enterprises",
        "opening_hours": "11:30-23:30",
        "phone": "080 2662 2484",
        "smoking": "no",
        "takeaway": "yes"
      }
    },
    {
      "type": "node",
      "id": 4447135317,
      "lat": 12.9450065,
      "lon": 77.5714721,
      "tags": {
        "addr:city": "Bengaluru",
        "addr:housenumber": "32",
        "addr:postcode": "560004",
        "addr:street": "Gandhi Bazaar Main Road, Basavanagudi",
        "amenity": "restaurant",
        "cuisine": "regional",
        "delivery": "yes",
        "diet:vegetarian": "yes",
        "name": "Vidyarthi Bhavan",
        "name:kn": "ವಿದ್ಯಾರ್ಥಿ ಭವನ",
        "opening_hours": "Mo-Th 06:30-11:30, Mo-Th 14:00-20:00, Sa-Su 06:30-12:00, Sa-Su 14:30-20:00",
        "phone": "+91 80 2667 7588",
        "smoking": "no",
        "takeaway": "yes",
        "website": "https://vidyarthibhavan.in",
        "wikidata": "Q7928217",
        "wikipedia": "en:Vidyarthi Bhavan"
      }
    },
    {
      "type": "node",
      "id": 4447161307,
      "lat": 12.938888,
      "lon": 77.5755794,
      "tags": {
        "addr:city": "Bangalore",
        "addr:postcode": "560004",
        "addr:street": "Kankapura Road, Yediyur, Basavanagudi",
        "amenity": "restaurant",
        "cuisine": "regional",
        "delivery": "yes",
        "name": "South Thindies",
        "opening_hours": "06:00-15:30,16:30-22:30",
        "smoking": "no"
      }
    },
    {
      "type": "node",
      "id": 4447163847,
      "lat": 12.9445488,
      "lon": 77.57272,
      "tags": {
        "addr:city": "Bangalore",
        "addr:postcode": "560004",
        "addr:street": "Gandhi Bazar Main Road",
        "alt_name": "A2B",
        "amenity": "restaurant",
        "brand": "Adyar Ananda Bhavan",
        "brand:wikidata": "Q15178238",
        "cuisine": "regional",
        "delivery": "yes",
        "diet:vegetarian": "only",
        "email": "info@aabsweets.com",
        "name": "Adyar Ananda Bhavan",
        "name:kn": "ಆದ್ಯಾರ್ ಆನಂದ ಭವನ",
        "operator": "Adyar Ananda Bhavan",
        "phone": "+91 80 4120 3999",
        "smoking": "no",
        "website": "https://aabsweets.com"
      }
    },
    {
      "type": "node",
      "id": 4488134472,
      "lat": 12.948401,
      "lon": 77.5712754,
      "tags": {
        "addr:city": "Bangalore",
        "addr:housenumber": "No. 11",
        "addr:postcode": "560004",
        "addr:street": "Vanivilas Road, Near Flyover, Basavanagudi",
        "name": "Sports 'N' Style",
        "opening_hours": "12:00-21:00",
        "phone": "080 2667 2227",
        "shop": "sports"
      }
    },
    {
      "type": "node",
      "id": 4488404862,
      "lat": 12.9402812,
      "lon": 77.5643832,
      "tags": {
        "addr:city": "Bangalore",
        "addr:housenumber": "No.38/A",
        "addr:postcode": "560004",
        "addr:street": "3rd Main Road",
        "name": "My Style Family Beauty Parlour Saloon Spa",
        "opening_hours": "10:00-19:00",
        "phone": "097400 07553",
        "shop": "beauty"
      }
    },
    {
      "type": "node",
      "id": 4488407044,
      "lat": 12.9390091,
      "lon": 77.5755401,
      "tags": {
        "addr:city": "Bangalore",
        "addr:postcode": "560004",
        "addr:street": "Reservoir Street",
        "name": "Eden Unisex Spa And Salon",
        "opening_hours": "09:30-18:30",
        "phone": "8033537010",
        "shop": "beauty",
        "website": "https://www.edenspa.asia/"
      }
    },
    {
      "type": "node",
      "id": 4489397789,
      "lat": 12.9484803,
      "lon": 77.5718678,
      "tags": {
        "addr:city": "Bangalore",
        "addr:housenumber": "5",
        "addr:postcode": "560004",
        "addr:street": "Aaradya Complex, 21/1, Vanivilas Road, Near-National College, Basavanagudi",
        "name": "Planet Sports",
        "opening_hours": "09:30-21:30",
        "phone": "+919845374453",
        "shop": "sports"
      }
    },
    {
      "type": "node",
      "id": 4489754262,
      "lat": 12.9472875,
      "lon": 77.568009,
      "tags": {
        "addr:full": "2nd Floor, Bull Temple Road, Ramakrishna Ashram Circle, Basavanagudi, Gandhi Bazaar, Basavanagudi, Karnataka",
        "addr:housenumber": "15",
        "addr:postcode": "560004",
        "leisure": "fitness_centre",
        "level": "2",
        "name": "Snap Fitness",
        "opening_hours": "00:00-24:00",
        "phone": "099000 03939",
        "website": "snapfitnessindia.com"
      }
    },
    {
      "type": "node",
      "id": 4489849370,
      "lat": 12.9428729,
      "lon": 77.5653972,
      "tags": {
        "addr:city": "Bangalore",
        "addr:postcode": "560019",
        "addr:street": "Mount Joy Road, Hanumanth Nagar, Gavipuram Extn, Basavanagudi, Bengalur",
        "name": "Karthik Cycle Store",
        "phone": "099805 02929",
        "shop": "sports"
      }
    },
    {
      "type": "node",
      "id": 4489878612,
      "lat": 12.940781,
      "lon": 77.5730429,
      "tags": {
        "addr:city": "Bangalore",
        "addr:postcode": "560004",
        "addr:street": "Netta Kalappa Circle",
        "leisure": "sports_centre",
        "name": "Fitness 24/7",
        "opening_hours": "05:00-23:00",
        "phone": "080 4097 0718"
      }
    },
    {
      "type": "node",
      "id": 4506524892,
      "lat": 12.9399994,
      "lon": 77.5719477,
      "tags": {
        "addr:postcode": "560004",
        "addr:street": "Puttana Road",
        "amenity": "theatre",
        "name": "ಅಂತರಂಗ",
        "name:en": "Antharanga",
        "name:kn": "ಅಂತರಂಗ",
        "phone": "98866 24687",
        "website": "http://www.antharanga.in"
      }
    },
    {
      "type": "node",
      "id": 4574896792,
      "lat": 12.9487443,
      "lon": 77.5668387,
      "tags": {
        "amenity": "place_of_worship",
        "name": "Sri Ramakrishna Temple",
        "name:en": "Sri Ramakrishna Temple",
        "opening_hours": "Mo-Su 05:00-12:00, 16:00-20:30"
      }
    },
    {
      "type": "node",
      "id": 4621578591,
      "lat": 12.9469892,
      "lon": 77.5690135,
      "tags": {
        "name": "Band Box",
        "name:en": "Band Box",
        "shop": "laundry"
      }
    },
    {
      "type": "node",
      "id": 4655064781,
      "lat": 12.9427251,
      "lon": 77.5712748,
      "tags": {
        "addr:city": "Bangalore",
        "addr:housenumber": "121",
        "addr:postcode": "560004",
        "addr:street": "D V Gundappa Road",
        "amenity": "bank",
        "brand": "Allahabad Bank",
        "brand:wikidata": "Q2018840",
        "brand:wikipedia": "en:Allahabad Bank",
        "fax": "080-26625632",
        "name": "Allahabad Bank",
        "name:en": "Allahabad Bank",
        "name:kn": "ಅಲ್ಲಹಾಬಾದ್ ಬ್ಯಾಂಕ್",
        "phone": "080-26679442",
        "phone_1": "080-26625632",
        "website": "https://www.allahabadbank.in"
      }
    },
    {
      "type": "node",
      "id": 4703397593,
      "lat": 12.9473628,
      "lon": 77.5668805,
      "tags": {
        "amenity": "atm",
        "brand": "Axis Bank",
        "brand:wikidata": "Q2003549",
        "name": "Axis Bank",
        "operator": "Axis Bank",
        "operator:wikidata": "Q2003549"
      }
    },
    {
      "type": "node",
      "id": 4703397594,
      "lat": 12.9459968,
      "lon": 77.5670655,
      "tags": {
        "addr:postcode": "560019",
        "addr:street": "Shyamaraja Iyengar Road",
        "amenity": "fast_food",
        "cuisine": "indian",
        "diet:vegetarian": "yes",
        "name": "Balaji Chat Corner",
        "name:en": "Balaji Chat Corner",
        "name:hi": "बालाजी चाट कार्नर",
        "opening_hours": "Mo-Su 10:00-22:00"
      }
    },
    {
      "type": "node",
      "id": 4703448590,
      "lat": 12.9449149,
      "lon": 77.5677557,
      "tags": {
        "name": "3M Car Care",
        "name:en": "3M Car Care",
        "shop": "car_parts"
      }
    },
    {
      "type": "node",
      "id": 4703448591,
      "lat": 12.9466546,
      "lon": 77.567626,
      "tags": {
        "addr:postcode": "560019",
        "addr:street": "Bull Temple Road",
        "amenity": "bank",
        "brand": "IndusInd Bank",
        "brand:wikidata": "Q2040323",
        "brand:wikipedia": "en:IndusInd Bank",
        "name": "IndusInd Bank",
        "name:en": "IndusInd Bank",
        "website": "https://www.indusind.com"
      }
    },
    {
      "type": "node",
      "id": 4703462689,
      "lat": 12.9472484,
      "lon": 77.5669962,
      "tags": {
        "amenity": "kindergarten",
        "name": "Growing Wonders Gavipuram",
        "name:en": "Growing Wonders Gavipuram",
        "name:hi": "ग्रोइंग वंडर्स"
      }
    },
    {
      "type": "node",
      "id": 4763212765,
      "lat": 12.9435344,
      "lon": 77.5654837,
      "tags": {
        "amenity": "atm",
        "brand": "Kotak Mahindra Bank",
        "brand:wikidata": "Q2040404",
        "name": "Kotak Mahindra Bank",
        "name:kn": "ಕೋಟಕ್ ಮಹಿಂದ್ರ ಬ್ಯಾಂಕ್",
        "operator": "Kotak Mahindra Bank",
        "operator:wikidata": "Q2040404"
      }
    },
    {
      "type": "node",
      "id": 4763212865,
      "lat": 12.9434351,
      "lon": 77.5655011,
      "tags": {
        "shop": "stationery"
      }
    },
    {
      "type": "node",
      "id": 4824986021,
      "lat": 12.9434017,
      "lon": 77.5771336,
      "tags": {
        "amenity": "fuel",
        "brand": "Bharat Petroleum",
        "brand:wikidata": "Q854826",
        "name": "Bharat Petroleum",
        "name:en": "Bharat Petroleum",
        "name:kn": "ಭಾರತ್ ಪೆಟ್ರೋಲಿಯಂ"
      }
    },
    {
      "type": "node",
      "id": 4884891000,
      "lat": 12.9377734,
      "lon": 77.5690046,
      "tags": {
        "amenity": "place_of_worship",
        "name": "Ambabavani Temple",
        "name:kn": "ಅಂಬಭವಾನಿ",
        "religion": "hindu"
      }
    },
    {
      "type": "node",
      "id": 5234740176,
      "lat": 12.9403707,
      "lon": 77.5730845,
      "tags": {
        "amenity": "toilets",
        "unisex": "yes"
      }
    },
    {
      "type": "node",
      "id": 5234740899,
      "lat": 12.9416336,
      "lon": 77.5767895,
      "tags": {
        "amenity": "place_of_worship",
        "name": "Shree Renuka Yellamma Devi Temple",
        "religion": "hindu"
      }
    },
    {
      "type": "node",
      "id": 5234742318,
      "lat": 12.942235,
      "lon": 77.5713091,
      "tags": {
        "amenity": "motorcycle_parking"
      }
    },
    {
      "type": "node",
      "id": 5234750135,
      "lat": 12.946047,
      "lon": 77.5784123,
      "tags": {
        "amenity": "bank",
        "brand": "Canara Bank",
        "brand:en": "Canara Bank",
        "brand:hi": "केनरा बैंक",
        "brand:kn": "ಕೆನರಾ ಬ್ಯಾಂಕ್",
        "brand:pa": "ਕੇਨਰਾ ਬੈਂਕ",
        "brand:pnb": "کینرا بینک",
        "brand:ur": "کینرا بینک",
        "brand:wikidata": "Q2003777",
        "brand:wikipedia": "en:Canara Bank",
        "brand:wikipedia:pa": "ਕੇਨਰਾ ਬੈਂਕ",
        "name": "Canara Bank",
        "name:en": "Canara Bank",
        "name:hi": "केनरा बैंक",
        "name:kn": "ಕೆನರಾ ಬ್ಯಾಂಕ್",
        "name:pa": "ਕੇਨਰਾ ਬੈਂਕ",
        "name:pnb": "کینرا بینک",
        "name:ur": "کینرا بینک"
      }
    },
    {
      "type": "node",
      "id": 5234759165,
      "lat": 12.9437494,
      "lon": 77.5716777,
      "tags": {
        "amenity": "fast_food",
        "name": "Asha Sweets and Snacks"
      }
    },
    {
      "type": "node",
      "id": 5234763498,
      "lat": 12.9437578,
      "lon": 77.5712628,
      "tags": {
        "amenity": "bank",
        "brand": "Syndicate Bank",
        "brand:wikidata": "Q2004088",
        "name": "Syndicate Bank",
        "name:kn": "ಸಿಂಡಿಕೇಟ್ ಬ್ಯಾಂಕ್"
      }
    },
    {
      "type": "node",
      "id": 5234799278,
      "lat": 12.9416358,
      "lon": 77.562546,
      "tags": {
        "description": "Amaron Batteries",
        "name": "Tara Automobiles",
        "shop": "car_parts"
      }
    },
    {
      "type": "node",
      "id": 5246614722,
      "lat": 12.9467131,
      "lon": 77.5692249,
      "tags": {
        "addr:housenumber": "65",
        "amenity": "pharmacy",
        "healthcare": "pharmacy",
        "name": "Ayurvedic Pharmacy",
        "name:kn": "ಆಯುರ್ವೇದ ಔಷದಾಲಯ",
        "name:ru": "Аюрведические препараты"
      }
    },
    {
      "type": "node",
      "id": 5305832614,
      "lat": 12.9480414,
      "lon": 77.5689161,
      "tags": {
        "alt_name": "Kentucky Fried Chicken",
        "alt_name:en": "Kentucky Fried Chicken",
        "alt_name:hi": "केंटुकी फ्राइड चिकन",
        "alt_name:pa": "ਕੈਂਟੁਕੀ ਫ੍ਰਾਈਡ ਚਿਕਨ",
        "alt_name:pnb": "کینٹکی فرائیڈ چکن",
        "alt_name:ur": "کینٹکی فرائیڈ چکن",
        "amenity": "fast_food",
        "brand": "KFC",
        "brand:en": "KFC",
        "brand:hi": "केएफसी",
        "brand:pa": "ਕੇਐਫਸੀ",
        "brand:pnb": "کے ایف سی",
        "brand:ur": "کے ایف سی",
        "brand:wikidata": "Q524757",
        "brand:wikipedia": "en:KFC",
        "brand:wikipedia:pa": "ਕੇਐਫਸੀ",
        "brand:wikipedia:ur": "کینٹکی فرائیڈ چکن",
        "cuisine": "chicken",
        "name": "KFC",
        "name:en": "KFC",
        "name:hi": "केएफसी",
        "name:pa": "ਕੇਐਫਸੀ",
        "name:pnb": "کے ایف سی",
        "name:ur": "کے ایف سی",
        "takeaway": "yes"
      }
    },
    {
      "type": "node",
      "id": 5306017405,
      "lat": 12.9480048,
      "lon": 77.5699568,
      "tags": {
        "amenity": "ice_cream",
        "brand": "Baskin-Robbins",
        "brand:wikidata": "Q584601",
        "cuisine": "ice_cream",
        "name": "Baskin-Robbins",
        "name:kn": "ಬಸ್ಕಿನ್ ರಾಬಿನ್ಸ್"
      }
    },
    {
      "type": "node",
      "id": 5306017406,
      "lat": 12.9480153,
      "lon": 77.5696644,
      "tags": {
        "name": "Girias",
        "shop": "electronics"
      }
    },
    {
      "type": "node",
      "id": 5306017407,
      "lat": 12.9434982,
      "lon": 77.5658798,
      "tags": {
        "brand": "HOPCOMS",
        "brand:wikidata": "Q22908959",
        "name": "HOPCOMS",
        "name:kn": "ಹಾಪ್ ಕಾಮ್ಸ್",
        "shop": "greengrocer"
      }
    },
    {
      "type": "node",
      "id": 5306017408,
      "lat": 12.9435035,
      "lon": 77.5657752,
      "tags": {
        "amenity": "toilets"
      }
    },
    {
      "type": "node",
      "id": 5306017409,
      "lat": 12.9435244,
      "lon": 77.5656706,
      "tags": {
        "amenity": "post_office"
      }
    },
    {
      "type": "node",
      "id": 5306017410,
      "lat": 12.9437583,
      "lon": 77.5665638,
      "tags": {
        "amenity": "restaurant",
        "name": "Dakshin Kitchen"
      }
    },
    {
      "type": "node",
      "id": 5306017411,
      "lat": 12.9437988,
      "lon": 77.5665812,
      "tags": {
        "amenity": "restaurant",
        "name": "Chinese Kitchen"
      }
    },
    {
      "type": "node",
      "id": 5306746608,
      "lat": 12.9508907,
      "lon": 77.5777332,
      "tags": {
        "name": "Book My Ballons",
        "shop": "gift"
      }
    },
    {
      "type": "node",
      "id": 5306746609,
      "lat": 12.9508763,
      "lon": 77.5777949,
      "tags": {
        "amenity": "fast_food",
        "name": "Dev Sagar"
      }
    },
    {
      "type": "node",
      "id": 5306746610,
      "lat": 12.9508933,
      "lon": 77.5777694,
      "tags": {
        "name": "Sree Ganesha Fruit Juice Centre",
        "shop": "beverages"
      }
    },
    {
      "type": "node",
      "id": 5306746611,
      "lat": 12.9509129,
      "lon": 77.5777399,
      "tags": {
        "amenity": "fast_food",
        "name": "Chinese Corner"
      }
    },
    {
      "type": "node",
      "id": 5306746612,
      "lat": 12.9509312,
      "lon": 77.5777198,
      "tags": {
        "amenity": "fast_food",
        "name": "Sandwich Hut"
      }
    },
    {
      "type": "node",
      "id": 5306746617,
      "lat": 12.9510815,
      "lon": 77.5777084,
      "tags": {
        "amenity": "fast_food",
        "name": "Sai Fast Food"
      }
    },
    {
      "type": "node",
      "id": 5306746618,
      "lat": 12.9509841,
      "lon": 77.5778009,
      "tags": {
        "amenity": "fast_food",
        "name": "Gurudeva Eating House"
      }
    },
    {
      "type": "node",
      "id": 5306746619,
      "lat": 12.9510057,
      "lon": 77.5777808,
      "tags": {
        "amenity": "fast_food",
        "name": "Swami Bajji Center"
      }
    },
    {
      "type": "node",
      "id": 5306751724,
      "lat": 12.9510407,
      "lon": 77.5776041,
      "tags": {
        "amenity": "fast_food",
        "name": "Arya Vysya Chats"
      }
    },
    {
      "type": "node",
      "id": 5306751725,
      "lat": 12.9510995,
      "lon": 77.5776916,
      "tags": {
        "amenity": "fast_food",
        "name": "Vasavi Mane Thindi"
      }
    },
    {
      "type": "node",
      "id": 5306751726,
      "lat": 12.9511194,
      "lon": 77.5776742,
      "tags": {
        "amenity": "fast_food",
        "name": "Vasavi Dose Camp"
      }
    },
    {
      "type": "node",
      "id": 5306751727,
      "lat": 12.9511478,
      "lon": 77.5776467,
      "tags": {
        "amenity": "fast_food",
        "name": "The Chat Shop"
      }
    },
    {
      "type": "node",
      "id": 5306751734,
      "lat": 12.9510776,
      "lon": 77.5774924,
      "tags": {
        "description": "Dealers in Agmark Coorg Honey",
        "name": "Sapthagiri Industries",
        "shop": "convenience",
        "vending": "honey"
      }
    },
    {
      "type": "node",
      "id": 5306751735,
      "lat": 12.9511142,
      "lon": 77.5774831,
      "tags": {
        "amenity": "fast_food",
        "name": "Sangameshwara Gulkand & Chats Center"
      }
    },
    {
      "type": "node",
      "id": 5306751736,
      "lat": 12.9510933,
      "lon": 77.5775126,
      "tags": {
        "amenity": "fast_food",
        "name": "Anuradha Snacks"
      }
    },
    {
      "type": "node",
      "id": 5306751741,
      "lat": 12.9511952,
      "lon": 77.5774603,
      "tags": {
        "amenity": "ice_cream",
        "name": "Arctic Bites"
      }
    },
    {
      "type": "node",
      "id": 5306751742,
      "lat": 12.9511978,
      "lon": 77.5774106,
      "tags": {
        "amenity": "dentist",
        "name": "Destination Dentale"
      }
    },
    {
      "type": "node",
      "id": 5306751743,
      "lat": 12.9512527,
      "lon": 77.5774267,
      "tags": {
        "amenity": "restaurant",
        "name": "Ramu Tiffin Center"
      }
    },
    {
      "type": "node",
      "id": 5306751748,
      "lat": 12.9515233,
      "lon": 77.5774536,
      "tags": {
        "amenity": "fast_food",
        "name": "By2Coffee"
      }
    },
    {
      "type": "node",
      "id": 5306751753,
      "lat": 12.9513663,
      "lon": 77.5772912,
      "tags": {
        "amenity": "fast_food",
        "name": "Bangarpet Chat Express"
      }
    },
    {
      "type": "node",
      "id": 5306751754,
      "lat": 12.9513445,
      "lon": 77.5773058,
      "tags": {
        "name": "Vinayaka Juice Center",
        "shop": "beverages"
      }
    },
    {
      "type": "node",
      "id": 5306751755,
      "lat": 12.9513943,
      "lon": 77.5772636,
      "tags": {
        "name": "Srirama Watch Works",
        "shop": "watches"
      }
    },
    {
      "type": "node",
      "id": 5306751756,
      "lat": 12.9516278,
      "lon": 77.5773986,
      "tags": {
        "amenity": "fast_food",
        "name": "Annapoorneshwari Hithukida Avare Kendra"
      }
    },
    {
      "type": "node",
      "id": 5306751757,
      "lat": 12.9515978,
      "lon": 77.5773999,
      "tags": {
        "amenity": "fast_food",
        "name": "Vasavi Vaisista Thindi"
      }
    },
    {
      "type": "node",
      "id": 5423106786,
      "lat": 12.9527142,
      "lon": 77.5762337,
      "tags": {
        "amenity": "place_of_worship",
        "name": "Subramanya Swamy Temple",
        "name:kn": "ಸುಬ್ರಮಣ್ಯ ಸ್ವಾಮಿ ದೇವಸ್ಥಾನ",
        "religion": "hindu"
      }
    },
    {
      "type": "node",
      "id": 5423114340,
      "lat": 12.9517621,
      "lon": 77.5750763,
      "tags": {
        "amenity": "place_of_worship",
        "name": "Jain Temple",
        "name:kn": "ಜೈನ ದೇವಸ್ಥಾನ",
        "religion": "jain"
      }
    },
    {
      "type": "node",
      "id": 5530812455,
      "lat": 12.9400337,
      "lon": 77.5730676,
      "tags": {
        "addr:city": "Bangalore",
        "addr:postcode": "560004",
        "addr:street": "Netta Kalappa Circle",
        "amenity": "place_of_worship",
        "name": "Ganesha Temple",
        "name:kn": "ಗಣೇಶ ದೇವಸ್ಥಾನ",
        "religion": "hindu"
      }
    },
    {
      "type": "node",
      "id": 5716797221,
      "lat": 12.9542624,
      "lon": 77.5709473,
      "tags": {
        "addr:district": "Bengaluru Urban",
        "addr:full": "1st Cross, Shankarapuram, Basavanaagudi",
        "addr:postcode": "560004",
        "addr:state": "Karnataka",
        "amenity": "hospital",
        "name": "Sri Shankara Cancer Hospital And Research Centre (A Service Unit Of Sscf)",
        "operator:type": "private",
        "phone": "080-26981000",
        "source": "OpenGovernmentData",
        "website": "http://shankaracancerfoundation.org/"
      }
    },
    {
      "type": "node",
      "id": 6882713295,
      "lat": 12.9542601,
      "lon": 77.5711745,
      "tags": {
        "addr:city": "Bengaluru",
        "addr:district": "BENGALURU URBAN",
        "addr:full": "Shankara Math premises, 1st cross, shankarapuram, Basavanagudi",
        "addr:postcode": "560004",
        "addr:state": "Karnataka",
        "amenity": "blood_bank",
        "contact:mobile": "9535408623",
        "contact:phone": "8026981101",
        "name": "Sri Shankara Cancer Hospital and Research Centre Blood Bank",
        "opening_hours": "24/7",
        "operator:type": "private",
        "source": "OpenGovernmentData",
        "website": "http://shankaracancerfoundation.org/"
      }
    },
    {
      "type": "node",
      "id": 6938775853,
      "lat": 12.9463129,
      "lon": 77.5796349,
      "tags": {
        "addr:district": "Bengaluru Urban",
        "addr:full": "No-9/91, Govindappa Road, Basavana Gudi",
        "addr:postcode": "560004",
        "addr:state": "Karnataka",
        "amenity": "clinic",
        "healthcare": "clinic",
        "name": "Medikeris Superspecaility Ent Centre",
        "operator:type": "private",
        "source": "OpenGovernmentData",
        "website": "http://www.medikerihospital.com/"
      }
    },
    {
      "type": "node",
      "id": 6938775854,
      "lat": 12.9406698,
      "lon": 77.5644596,
      "tags": {
        "addr:district": "Bengaluru Urban",
        "addr:full": "No.10/4 & 10/5, 3Road Main Road, Hanumanthanagar",
        "addr:postcode": "560019",
        "addr:state": "Karnataka",
        "amenity": "hospital",
        "name": "Vishwabharathi Hospital Pvt. Ltd",
        "source": "OpenGovernmentData"
      }
    },
    {
      "type": "node",
      "id": 6944138101,
      "lat": 12.9484796,
      "lon": 77.5720472,
      "tags": {
        "addr:district": "Bengaluru Urban",
        "addr:full": "#356/1, 1st Cross, 1st Block, Jayanagar, Near Ashoka Pillar",
        "addr:postcode": "560011",
        "addr:state": "Karnataka",
        "amenity": "clinic",
        "name": "Lalbagh Nursing Home & IVF Centre",
        "source": "OpenGovernmentData",
        "website": "https://www.lalbaghivf.com/"
      }
    },
    {
      "type": "node",
      "id": 6944256037,
      "lat": 12.9514854,
      "lon": 77.5703564,
      "tags": {
        "addr:city": "Bangaluru",
        "addr:district": "Bengaluru Urban",
        "addr:full": "No. 16, 3Road Cross, Shankarpuram",
        "addr:housenumber": "16",
        "addr:postcode": "560004",
        "addr:state": "Karnataka",
        "addr:street": "3rd Cross Road",
        "amenity": "hospital",
        "emergency": "yes",
        "healthcare": "hospital",
        "healthcare:speciality": "general",
        "name": "Popular Hospital",
        "operator": "Dr Lingham Murali",
        "operator:type": "private",
        "source": "local knowledge"
      }
    },
    {
      "type": "node",
      "id": 6944256038,
      "lat": 12.9530681,
      "lon": 77.5715299,
      "tags": {
        "addr:district": "Bengaluru Urban",
        "addr:full": "1st Cross, Shankarapuram",
        "addr:postcode": "560004",
        "addr:state": "Karnataka",
        "amenity": "clinic",
        "name": "Sharada Dhanvantari Haemodialysis Centre",
        "source": "OpenGovernmentData"
      }
    },
    {
      "type": "node",
      "id": 6944507652,
      "lat": 12.9403012,
      "lon": 77.5764705,
      "tags": {
        "addr:district": "Bengaluru Urban",
        "addr:full": "1,Dewan N, Madhava Rao Road, Basavanagudi",
        "addr:postcode": "560004",
        "addr:state": "Karnataka",
        "amenity": "hospital",
        "healthcare": "hospital",
        "name": "Gunasheela Surgical and Maternity Hospital",
        "source": "OpenGovernmentData"
      }
    },
    {
      "type": "node",
      "id": 6945341656,
      "lat": 12.9484427,
      "lon": 77.5719805,
      "tags": {
        "addr:district": "Bengaluru Urban",
        "addr:full": "Aaradhya Complex, No.21/1, Vanivilas Road, Next To National College",
        "addr:postcode": "560004",
        "addr:state": "Karnataka",
        "amenity": "clinic",
        "name": "Prakash Eye Clinic",
        "source": "OpenGovernmentData"
      }
    },
    {
      "type": "node",
      "id": 6948244430,
      "lat": 12.9456627,
      "lon": 77.570339,
      "tags": {
        "addr:district": "Bengaluru Urban",
        "addr:full": "N0:55, Gandhi Bazaar, Facing E.A.T Street",
        "addr:postcode": "560004",
        "addr:state": "Karnataka",
        "amenity": "clinic",
        "name": "Sham Singh Nursing Home",
        "source": "OpenGovernmentData"
      }
    },
    {
      "type": "node",
      "id": 7016691457,
      "lat": 12.9415972,
      "lon": 77.5643731,
      "tags": {
        "amenity": "atm",
        "brand": "Canara Bank",
        "brand:en": "Canara Bank",
        "brand:hi": "केनरा बैंक",
        "brand:kn": "ಕೆನರಾ ಬ್ಯಾಂಕ್",
        "brand:pa": "ਕੇਨਰਾ ਬੈਂਕ",
        "brand:pnb": "کینرا بینک",
        "brand:ur": "کینرا بینک",
        "brand:wikidata": "Q2003777",
        "cash_in": "no",
        "drive_through": "no",
        "name": "Canara Bank",
        "name:en": "Canara Bank",
        "name:hi": "केनरा बैंक",
        "name:kn": "ಕೆನರಾ ಬ್ಯಾಂಕ್",
        "name:pa": "ਕੇਨਰਾ ਬੈਂਕ",
        "name:pnb": "کینرا بینک",
        "name:ur": "کینرا بینک",
        "operator": "Canara Bank",
        "operator:wikidata": "Q2003777"
      }
    },
    {
      "type": "node",
      "id": 7018761629,
      "lat": 12.9379662,
      "lon": 77.568428,
      "tags": {
        "addr:city": "Bengaluru",
        "addr:street": "Subbrama Chetty Road",
        "amenity": "pharmacy",
        "brand": "Apollo Pharmacy",
        "brand:wikidata": "Q62562612",
        "dispensing": "yes",
        "drive_through": "no",
        "healthcare": "pharmacy",
        "name": "Apollo Pharmacy",
        "name:kn": "ಅಪೋಲೋ ಫಾರ್ಮಸಿ",
        "operator": "Apollo Pharmacy"
      }
    },
    {
      "type": "node",
      "id": 7044834775,
      "lat": 12.9422487,
      "lon": 77.568503,
      "tags": {
        "leisure": "fitness_station"
      }
    },
    {
      "type": "node",
      "id": 7281512285,
      "lat": 12.9417567,
      "lon": 77.5687277,
      "tags": {
        "amenity": "place_of_worship",
        "name": "Bull Temple",
        "religion": "hindu"
      }
    },
    {
      "type": "node",
      "id": 7576958024,
      "lat": 12.94786,
      "lon": 77.5716596,
      "tags": {
        "addr:district": "Bengaluru Urban",
        "addr:full": "DVG Road, Gandhi Bazaar, Basavanagudi, Bengaluru",
        "addr:postcode": "560004",
        "addr:state": "Karnataka",
        "amenity": "clinic",
        "name": "Preeti ENT Clinic",
        "source": "Local Knowledge"
      }
    },
    {
      "type": "node",
      "id": 7576958027,
      "lat": 12.9492921,
      "lon": 77.5674536,
      "tags": {
        "addr:district": "Bengaluru Urban",
        "addr:full": "Bull Temple Road, NR Colony, Bengaluru",
        "addr:postcode": "560019",
        "addr:state": "Karnataka",
        "amenity": "doctors",
        "name": "Dr. Hema Sampath",
        "source": "Local Knowledge"
      }
    },
    {
      "type": "node",
      "id": 7576958034,
      "lat": 12.9454948,
      "lon": 77.5704845,
      "tags": {
        "addr:district": "Bengaluru Urban",
        "addr:full": "BKS Iyengar Road, Gandhi Bazaar, Basavanagudi, Bengaluru",
        "addr:state": "Karnataka",
        "amenity": "clinic",
        "name": "Vaidya shaam singh memorial nursing home",
        "source": "Local Knowledge"
      }
    },
    {
      "type": "node",
      "id": 7576958037,
      "lat": 12.953049,
      "lon": 77.574203,
      "tags": {
        "addr:district": "Bengaluru Urban",
        "addr:full": "S.S. Temple Street, V V Puram, Bengaluru",
        "addr:postcode": "560004",
        "addr:state": "Karnataka",
        "amenity": "hospital",
        "name": "Medcare Hospital",
        "source": "Local Knowledge"
      }
    },
    {
      "type": "node",
      "id": 7576958042,
      "lat": 12.9526033,
      "lon": 77.5709447,
      "tags": {
        "addr:district": "Bengaluru Urban",
        "addr:full": "Shankarapura, Bengaluru",
        "addr:postcode": "560004",
        "addr:state": "Karnataka",
        "amenity": "clinic",
        "name": "Rao's Uro Care",
        "source": "Local Knowledge"
      }
    },
    {
      "type": "node",
      "id": 7576958045,
      "lat": 12.945591,
      "lon": 77.5712865,
      "tags": {
        "addr:district": "Bengaluru Urban",
        "addr:full": "DVG Road, Gandhi Bazaar, Basavanagudi, Bengaluru",
        "addr:postcode": "560004",
        "addr:state": "Karnataka",
        "amenity": "hospital",
        "name": "Mitralaya Hospital",
        "source": "Local Knowledge"
      }
    },
    {
      "type": "node",
      "id": 7576958046,
      "lat": 12.9398513,
      "lon": 77.5740326,
      "tags": {
        "addr:district": "Bengaluru Urban",
        "addr:full": "Basavanagudi, Bengaluru",
        "addr:postcode": "560004",
        "addr:state": "Karnataka",
        "amenity": "clinic",
        "healthcare": "clinic",
        "name": "Ashirvad Clinic",
        "source": "Local Knowledge"
      }
    },
    {
      "type": "node",
      "id": 7576958050,
      "lat": 12.9459422,
      "lon": 77.5717473,
      "tags": {
        "addr:district": "Bengaluru Urban",
        "addr:full": "Gandhi Bazaar, Basavanagudi, Bengaluru",
        "addr:postcode": "560004",
        "addr:state": "Karnataka",
        "amenity": "clinic",
        "name": "Medall Healthcare",
        "source": "Local Knowledge"
      }
    },
    {
      "type": "node",
      "id": 7576958058,
      "lat": 12.9407834,
      "lon": 77.5713263,
      "tags": {
        "addr:district": "Bengaluru Urban",
        "addr:full": "DVG Road, Basavanagudi, Bengaluru",
        "addr:postcode": "560004",
        "addr:state": "Karnataka",
        "amenity": "clinic",
        "name": "Shubha Clinic",
        "source": "Local Knowledge"
      }
    },
    {
      "type": "node",
      "id": 7576958065,
      "lat": 12.945944,
      "lon": 77.567404,
      "tags": {
        "addr:district": "Bengaluru Urban",
        "addr:full": "Bull Temple Road, Hanumanthnagar, Bengaluru",
        "addr:postcode": "560019",
        "addr:state": "Karnataka",
        "amenity": "hospital",
        "name": "Shekhar Hospital",
        "source": "Local Knowledge"
      }
    },
    {
      "type": "node",
      "id": 7576958066,
      "lat": 12.949104,
      "lon": 77.563226,
      "tags": {
        "addr:district": "Bengaluru Urban",
        "addr:full": "RK Mutt Layout, Kempegowda Nagar, Bengaluru",
        "addr:state": "Karnataka",
        "amenity": "hospital",
        "name": "Government Hospital",
        "name:kn": "ಸರ್ಕಾರಿ ಆಸ್ಪತ್ರೆ",
        "source": "Local Knowledge"
      }
    },
    {
      "type": "node",
      "id": 7576958068,
      "lat": 12.9415883,
      "lon": 77.5641917,
      "tags": {
        "addr:district": "Bengaluru Urban",
        "addr:full": "Hanumanthnagar, Banashankari, Bengaluru",
        "addr:postcode": "560019",
        "addr:state": "Karnataka",
        "amenity": "hospital",
        "name": "Jeevini Sarvodaya Hospital",
        "source": "Local Knowledge"
      }
    },
    {
      "type": "node",
      "id": 7576958069,
      "lat": 12.9450794,
      "lon": 77.5680498,
      "tags": {
        "addr:district": "Bengaluru Urban",
        "addr:full": "Gandhi Bazaar, Basavanagudi, Bengaluru",
        "addr:state": "Karnataka",
        "amenity": "clinic",
        "healthcare": "clinic",
        "name": "ENT Care Centre",
        "source": "Local Knowledge"
      }
    },
    {
      "type": "node",
      "id": 7576958072,
      "lat": 12.944704,
      "lon": 77.56797,
      "tags": {
        "addr:district": "Bengaluru Urban",
        "addr:full": "Gandhi Bazaar, Basavanagudi, Bengaluru",
        "addr:postcode": "560004",
        "addr:state": "Karnataka",
        "amenity": "clinic",
        "healthcare": "clinic",
        "name": "Kshema Childrens Surgical Clinic",
        "source": "Local Knowledge"
      }
    },
    {
      "type": "node",
      "id": 7576958077,
      "lat": 12.9464444,
      "lon": 77.5712393,
      "tags": {
        "addr:district": "Bengaluru Urban",
        "addr:full": "Govindappa Road, Gandhi Bazaar, Basavanagudi, Bengaluru",
        "addr:postcode": "560004",
        "addr:state": "Karnataka",
        "amenity": "clinic",
        "healthcare": "clinic",
        "name": "Sree Homeopathic Clinic",
        "name:kn": "ಶ್ರೀ ಹೊಮಿಯೋಪತಿ ಕ್ಲಿನಿಕ್",
        "source": "Local Knowledge"
      }
    },
    {
      "type": "node",
      "id": 7576958078,
      "lat": 12.939882,
      "lon": 77.573989,
      "tags": {
        "addr:district": "Bengaluru Urban",
        "addr:full": "Krishna Rajendra Road, Basavanagudi, Bengaluru",
        "addr:postcode": "560004",
        "addr:state": "Karnataka",
        "amenity": "hospital",
        "healthcare": "hospital",
        "name": "Khincha Orthopaedic Centre",
        "source": "Local Knowledge"
      }
    },
    {
      "type": "node",
      "id": 7576958080,
      "lat": 12.948971,
      "lon": 77.563543,
      "tags": {
        "addr:district": "Bengaluru Urban",
        "addr:full": "RK Mutt Layout, Gavipura, Kempegowda Nagar, Bengaluru",
        "addr:state": "Karnataka",
        "amenity": "hospital",
        "name": "Parameshwari Hospital",
        "source": "Local Knowledge"
      }
    },
    {
      "type": "node",
      "id": 7576958082,
      "lat": 12.9491186,
      "lon": 77.5679051,
      "tags": {
        "addr:district": "Bengaluru Urban",
        "addr:full": "Shankarapura, Bengaluru",
        "addr:postcode": "560004",
        "addr:state": "Karnataka",
        "amenity": "doctors",
        "name": "Dr. S. Vinitha",
        "source": "Local Knowledge"
      }
    },
    {
      "type": "node",
      "id": 7576958087,
      "lat": 12.940859,
      "lon": 77.570214,
      "tags": {
        "addr:district": "Bengaluru Urban",
        "addr:full": "Basavanagudi, Bengaluru",
        "addr:postcode": "560004",
        "addr:state": "Karnataka",
        "amenity": "clinic",
        "name": "Jubilee Nursing Home",
        "source": "Local Knowledge"
      }
    },
    {
      "type": "node",
      "id": 7576958093,
      "lat": 12.9420276,
      "lon": 77.575634,
      "tags": {
        "addr:district": "Bengaluru Urban",
        "addr:full": "M N Krishna Rao Park Road, Basavanagudi, Bengaluru",
        "addr:postcode": "560070",
        "addr:state": "Karnataka",
        "amenity": "hospital",
        "healthcare": "hospital",
        "name": "Matha Pitha Hospital",
        "source": "Local Knowledge"
      }
    },
    {
      "type": "node",
      "id": 7576958098,
      "lat": 12.94269,
      "lon": 77.571261,
      "tags": {
        "addr:district": "Bengaluru Urban",
        "addr:full": "DVG Road, Basavanagudi, Bengaluru",
        "addr:postcode": "560004",
        "addr:state": "Karnataka",
        "amenity": "clinic",
        "name": "Happy Clinics - Multispeciality",
        "source": "Local Knowledge"
      }
    },
    {
      "type": "node",
      "id": 7576958101,
      "lat": 12.9471425,
      "lon": 77.5692626,
      "tags": {
        "addr:district": "Bengaluru Urban",
        "addr:full": "Gandhi Bazaar Main Road, Basavanagudi, Bengaluru",
        "addr:postcode": "560004",
        "addr:state": "Karnataka",
        "amenity": "clinic",
        "name": "Skin, Allergy, Cosmetology & Hair Clinic",
        "source": "Local Knowledge"
      }
    },
    {
      "type": "node",
      "id": 7576958104,
      "lat": 12.9516862,
      "lon": 77.5665921,
      "tags": {
        "addr:district": "Bengaluru Urban",
        "addr:full": "Kempegowda Nagar, Bengaluru",
        "addr:state": "Karnataka",
        "amenity": "clinic",
        "name": "Saraswathi Maternity Centre",
        "source": "Local Knowledge"
      }
    },
    {
      "type": "node",
      "id": 7576958109,
      "lat": 12.9416358,
      "lon": 77.5629853,
      "tags": {
        "addr:district": "Bengaluru Urban",
        "addr:full": "Mount Joy Extension, Hanumanthnagar, Banashankari, Bengaluru",
        "addr:postcode": "560019",
        "addr:state": "Karnataka",
        "amenity": "clinic",
        "name": "Vijaya Nethralaya",
        "source": "Local Knowledge"
      }
    },
    {
      "type": "node",
      "id": 7576958111,
      "lat": 12.9487692,
      "lon": 77.5793662,
      "tags": {
        "addr:district": "Bengaluru Urban",
        "addr:full": "R.V. Road, V.V. Puram, Bengaluru",
        "addr:postcode": "560004",
        "addr:state": "Karnataka",
        "amenity": "clinic",
        "name": "Synergy Diabetes Clinic",
        "source": "Local Knowledge"
      }
    },
    {
      "type": "node",
      "id": 7576958112,
      "lat": 12.9444744,
      "lon": 77.5721845,
      "tags": {
        "addr:district": "Bengaluru Urban",
        "addr:full": "Near Corporation Bank, Basavanagudi, Bengaluru",
        "addr:postcode": "560004",
        "addr:state": "Karnataka",
        "amenity": "dentist",
        "name": "Partha Dental Clinic",
        "source": "Local Knowledge"
      }
    },
    {
      "type": "node",
      "id": 7576958115,
      "lat": 12.948062,
      "lon": 77.577411,
      "tags": {
        "addr:district": "Bengaluru Urban",
        "addr:full": "Vanivilas Road, Kanakapura, Visvesvarapuram, Basavanagudi, Bengaluru",
        "addr:postcode": "560004",
        "addr:state": "Karnataka",
        "amenity": "clinic",
        "healthcare": "clinic",
        "name": "Sri Sri Ayurveda Clinic",
        "source": "Local Knowledge"
      }
    },
    {
      "type": "node",
      "id": 7576958117,
      "lat": 12.9479647,
      "lon": 77.5696395,
      "tags": {
        "addr:district": "Bengaluru Urban",
        "addr:full": "Vanivilas Road, Gandhi Bazaar, Basavanagudi, Bengaluru",
        "addr:postcode": "560004",
        "addr:state": "Karnataka",
        "amenity": "hospital",
        "name": "Swastik Eye Hospital",
        "source": "Local Knowledge"
      }
    },
    {
      "type": "node",
      "id": 7576958118,
      "lat": 12.9458294,
      "lon": 77.5799015,
      "tags": {
        "addr:district": "Bengaluru Urban",
        "addr:full": "Rashtriya Vidyalaya Road, Basavanagudi, Bengaluru",
        "addr:postcode": "560004",
        "addr:state": "Karnataka",
        "amenity": "hospital",
        "healthcare": "hospital",
        "name": "Dave Gray Hospital",
        "source": "Local Knowledge"
      }
    },
    {
      "type": "node",
      "id": 7924794099,
      "lat": 12.9512403,
      "lon": 77.5687733,
      "tags": {
        "amenity": "bank",
        "atm": "yes",
        "brand": "State Bank of India",
        "brand:wikidata": "Q1340361",
        "name": "State Bank of India",
        "name:kn": "ಎಸ್ ಬಿ ಐ",
        "short_name": "SBI"
      }
    },
    {
      "type": "node",
      "id": 8408521644,
      "lat": 12.9378288,
      "lon": 77.5692035,
      "tags": {
        "name": "Nandini Milk Booth",
        "name:kn": "ನಂದಿನಿ ಹಾಲಿನ ಅಂಗಡಿ",
        "shop": "dairy"
      }
    },
    {
      "type": "node",
      "id": 9709504787,
      "lat": 12.9421932,
      "lon": 77.5703658,
      "tags": {
        "name": "Nandini Milk Parlour",
        "shop": "dairy"
      }
    },
    {
      "type": "node",
      "id": 9709504788,
      "lat": 12.9447987,
      "lon": 77.5701606,
      "tags": {
        "shop": "coffee"
      }
    },
    {
      "type": "node",
      "id": 9709504793,
      "lat": 12.9437492,
      "lon": 77.5704168,
      "tags": {
        "name": "KC Das",
        "shop": "confectionery"
      }
    },
    {
      "type": "node",
      "id": 9709504794,
      "lat": 12.9423069,
      "lon": 77.5705221,
      "tags": {
        "amenity": "fast_food",
        "cuisine": "regional",
        "name": "by2coffee",
        "takeaway": "yes"
      }
    },
    {
      "type": "node",
      "id": 9709504795,
      "lat": 12.942301,
      "lon": 77.570453,
      "tags": {
        "amenity": "fast_food",
        "cuisine": "regional",
        "name": "Bombay and Kolkata Chats"
      }
    },
    {
      "type": "node",
      "id": 9709504796,
      "lat": 12.9422931,
      "lon": 77.5717552,
      "tags": {
        "name": "Sri Krishna Sweets",
        "shop": "confectionery"
      }
    },
    {
      "type": "node",
      "id": 9723871257,
      "lat": 12.9458071,
      "lon": 77.5711182,
      "tags": {
        "branch": "National college",
        "brand": "Kanli Sweets",
        "shop": "bakery"
      }
    },
    {
      "type": "node",
      "id": 10202015117,
      "lat": 12.9516832,
      "lon": 77.5767383,
      "tags": {
        "amenity": "toilets"
      }
    },
    {
      "type": "node",
      "id": 10823514250,
      "lat": 12.9376767,
      "lon": 77.5717354,
      "tags": {
        "amenity": "drinking_water"
      }
    },
    {
      "type": "node",
      "id": 11178064777,
      "lat": 12.9485138,
      "lon": 77.5723246,
      "tags": {
        "amenity": "post_box",
        "operator": "India Post",
        "operator:wikidata": "Q3519720"
      }
    },
    {
      "type": "node",
      "id": 11178064784,
      "lat": 12.9517112,
      "lon": 77.569955,
      "tags": {
        "amenity": "post_box",
        "operator": "India Post",
        "operator:wikidata": "Q3519720"
      }
    },
    {
      "type": "node",
      "id": 11178076767,
      "lat": 12.9512861,
      "lon": 77.5653468,
      "tags": {
        "amenity": "prep_school",
        "check_date": "2023-09-09",
        "description": "Runs Abacus Classes",
        "name": "Vandhya Academy",
        "office": "educational_institution",
        "phone": "+91 63605 17839"
      }
    },
    {
      "type": "node",
      "id": 11178079804,
      "lat": 12.9540237,
      "lon": 77.5674382,
      "tags": {
        "check_date": "2023-09-09",
        "name": "Corporation Store",
        "payment:cards": "no",
        "payment:cash": "yes",
        "payment:credit_cards": "no",
        "payment:debit_cards": "no",
        "payment:upi": "yes",
        "shop": "convenience"
      }
    },
    {
      "type": "node",
      "id": 11178097118,
      "lat": 12.9513033,
      "lon": 77.5651998,
      "tags": {
        "check_date": "2023-09-09",
        "name": "Arun Ladies Wear House",
        "shop": "clothes"
      }
    },
    {
      "type": "node",
      "id": 11178097988,
      "lat": 12.9540074,
      "lon": 77.5673748,
      "tags": {
        "check_date": "2023-09-09",
        "name": "Arun Enterprises",
        "name:en": "Arun Enterprises",
        "shop": "convenience"
      }
    },
    {
      "type": "node",
      "id": 11178098253,
      "lat": 12.9523331,
      "lon": 77.5678264,
      "tags": {
        "amenity": "kindergarten",
        "check_date": "2023-09-09",
        "description": "A raw yel pre-school for life",
        "internet_access": "no",
        "name": "Child's Kingdom",
        "name:en": "Child's Kingdom",
        "wheelchair": "yes"
      }
    },
    {
      "type": "node",
      "id": 11178103762,
      "lat": 12.9511489,
      "lon": 77.5652571,
      "tags": {
        "amenity": "fast_food",
        "check_date": "2023-09-09",
        "cuisine": "indian",
        "name": "Tiffin Services"
      }
    },
    {
      "type": "node",
      "id": 11178105552,
      "lat": 12.9512128,
      "lon": 77.565545,
      "tags": {
        "check_date": "2023-09-09",
        "description": "Hair salon",
        "name": "Mayura Men's Saloon",
        "shop": "beauty",
        "wheelchair": "no"
      }
    },
    {
      "type": "node",
      "id": 11178107442,
      "lat": 12.9506784,
      "lon": 77.5673607,
      "tags": {
        "amenity": "bench",
        "backrest": "yes",
        "colour": "green",
        "seats": "4"
      }
    },
    {
      "type": "node",
      "id": 11178107443,
      "lat": 12.9513399,
      "lon": 77.564975,
      "tags": {
        "check_date": "2023-09-09",
        "name": "Nyaya Bele Angadi BLS-55",
        "opening_hours": "Mo,We-Su 07:00-12:00,17:00-21:00",
        "operator": "government",
        "operator:type": "public",
        "shop": "convenience"
      }
    },
    {
      "type": "node",
      "id": 11178108195,
      "lat": 12.9479187,
      "lon": 77.5702354,
      "tags": {
        "check_date": "2022-11-04",
        "name": "Golden Touch Gents",
        "payment:mastercard": "yes",
        "payment:visa": "yes",
        "shop": "beauty",
        "wheelchair": "yes"
      }
    },
    {
      "type": "node",
      "id": 11178116148,
      "lat": 12.9515979,
      "lon": 77.569014,
      "tags": {
        "check_date": "2023-09-09",
        "leisure": "fitness_centre",
        "name": "Yoga Niketan"
      }
    },
    {
      "type": "node",
      "id": 11178116150,
      "lat": 12.9487921,
      "lon": 77.569055,
      "tags": {
        "check_date": "2023-09-09",
        "name": "Food Life",
        "shop": "department_store"
      }
    },
    {
      "type": "node",
      "id": 11178116151,
      "lat": 12.9535429,
      "lon": 77.5701028,
      "tags": {
        "amenity": "library",
        "check_date": "2023-09-09",
        "name": "Autism Resource Library and Training Centre"
      }
    },
    {
      "type": "node",
      "id": 11178120771,
      "lat": 12.953865,
      "lon": 77.5686754,
      "tags": {
        "check_date": "2023-09-09",
        "name": "SLN Enterprises",
        "shop": "beverages"
      }
    },
    {
      "type": "node",
      "id": 11178120773,
      "lat": 12.9536706,
      "lon": 77.5687703,
      "tags": {
        "check_date": "2023-09-09",
        "description": "Only butter/ghee/paneer/oil",
        "name": "PVKR & CO",
        "shop": "convenience",
        "website": "https://pvkrdairy.com"
      }
    },
    {
      "type": "node",
      "id": 11178120903,
      "lat": 12.9479601,
      "lon": 77.5688993,
      "tags": {
        "check_date": "2023-09-09",
        "leisure": "fitness_centre",
        "name": "Shield's Fitness Club"
      }
    },
    {
      "type": "node",
      "id": 11178123506,
      "lat": 12.9541209,
      "lon": 77.5686792,
      "tags": {
        "amenity": "library",
        "check_date": "2023-09-09",
        "name": "Shankara Rotary Children's Library"
      }
    },
    {
      "type": "node",
      "id": 11178123920,
      "lat": 12.9516968,
      "lon": 77.5673971,
      "tags": {
        "amenity": "atm",
        "check_date": "2023-09-09"
      }
    },
    {
      "type": "node",
      "id": 11178123922,
      "lat": 12.9541489,
      "lon": 77.5696658,
      "tags": {
        "check_date": "2023-09-09",
        "name": "HOPCOMS",
        "shop": "greengrocer"
      }
    },
    {
      "type": "node",
      "id": 11178123923,
      "lat": 12.9541937,
      "lon": 77.5696628,
      "tags": {
        "check_date": "2023-09-09",
        "name": "Nandini",
        "shop": "dairy"
      }
    },
    {
      "type": "node",
      "id": 11178124991,
      "lat": 12.9511825,
      "lon": 77.5650588,
      "tags": {
        "check_date": "2023-09-09",
        "name": "Ambemaa Enterprises",
        "name:en": "Ambemaa Enterprises",
        "phone": "+91 99167 32626",
        "shop": "hardware"
      }
    },
    {
      "type": "node",
      "id": 11178125303,
      "lat": 12.9533506,
      "lon": 77.5700275,
      "tags": {
        "amenity": "college",
        "check_date": "2023-09-09",
        "name": "South India Banks Staff Training College"
      }
    },
    {
      "type": "node",
      "id": 11178125304,
      "lat": 12.9535319,
      "lon": 77.5700449,
      "tags": {
        "amenity": "library",
        "check_date": "2023-09-09",
        "name": "Autism Resource Library and Training Centre",
        "phone": "08026670001"
      }
    },
    {
      "type": "node",
      "id": 11178129283,
      "lat": 12.9520229,
      "lon": 77.5677542,
      "tags": {
        "check_date": "2023-09-09",
        "description": "The complete shop for new born upto 14 years old kids and moms",
        "name": "The Kids Window",
        "name:en": "The Kids Window",
        "shop": "toys",
        "wheelchair": "no"
      }
    },
    {
      "type": "node",
      "id": 11178134961,
      "lat": 12.9484774,
      "lon": 77.5705547,
      "tags": {
        "amenity": "place_of_worship",
        "check_date": "2023-09-09",
        "name": "Sri Adi Basavanna Temple",
        "religion": "hindu"
      }
    },
    {
      "type": "node",
      "id": 11178135455,
      "lat": 12.9489174,
      "lon": 77.5701202,
      "tags": {
        "amenity": "place_of_worship",
        "check_date": "2025-11-19",
        "internet_access": "no",
        "name": "Sri Channakeshwara Temple",
        "religion": "hindu",
        "wheelchair": "no"
      }
    },
    {
      "type": "node",
      "id": 11178139428,
      "lat": 12.9480728,
      "lon": 77.5702389,
      "tags": {
        "beauty": "nails",
        "check_date": "2023-09-09",
        "name": "Dream Family Saloon",
        "shop": "beauty"
      }
    },
    {
      "type": "node",
      "id": 11178139576,
      "lat": 12.9527119,
      "lon": 77.5695634,
      "tags": {
        "amenity": "dentist",
        "check_date": "2023-09-09",
        "healthcare": "dentist",
        "name": "Dr. Trivikran's All smiles",
        "opening_hours": "Mo-Sa 09:30-13:30,16:00-19:30"
      }
    },
    {
      "type": "node",
      "id": 11178139577,
      "lat": 12.9525434,
      "lon": 77.569727,
      "tags": {
        "amenity": "clinic",
        "check_date": "2023-09-09",
        "email": "rayarakirana@gmail.com",
        "healthcare": "physiotherapist",
        "name": "Rayara Kirana",
        "opening_hours": "08:30-20:30,12:30-16:30",
        "phone": "+91 99727 77111",
        "website": "https://rayarakirana.com",
        "wheelchair": "no"
      }
    },
    {
      "type": "node",
      "id": 11178140371,
      "lat": 12.9506675,
      "lon": 77.5698047,
      "tags": {
        "amenity": "studio",
        "check_date": "2023-09-09",
        "name": "M&M Interiors Studio",
        "shop": "interior_decoration"
      }
    },
    {
      "type": "node",
      "id": 11178141192,
      "lat": 12.9480492,
      "lon": 77.5697053,
      "tags": {
        "alt_name": "Haldiram",
        "amenity": "fast_food",
        "brand": "Haldiram's",
        "brand:wikidata": "Q17054442",
        "check_date": "2023-09-09",
        "cuisine": "indian",
        "internet_access": "wlan",
        "internet_access:fee": "no",
        "name": "Haldiram's",
        "shop": "bakery",
        "takeaway": "yes"
      }
    },
    {
      "type": "node",
      "id": 11178141772,
      "lat": 12.9479636,
      "lon": 77.5682196,
      "tags": {
        "brand": "HOPCOMS",
        "brand:wikidata": "Q22908959",
        "check_date": "2023-09-09",
        "internet_access": "wlan",
        "internet_access:fee": "customers",
        "name": "HOPCOMS",
        "shop": "greengrocer",
        "wheelchair": "no"
      }
    },
    {
      "type": "node",
      "id": 11178142881,
      "lat": 12.9514209,
      "lon": 77.5698323,
      "tags": {
        "check_date": "2023-09-09",
        "name": "Akshaya",
        "shop": "supermarket"
      }
    },
    {
      "type": "node",
      "id": 11178142882,
      "lat": 12.9512098,
      "lon": 77.5697613,
      "tags": {
        "check_date": "2023-09-09",
        "leisure": "fitness_centre",
        "level": "0",
        "name": "Deshwal.fit"
      }
    },
    {
      "type": "node",
      "id": 11178142883,
      "lat": 12.9512118,
      "lon": 77.5696962,
      "tags": {
        "amenity": "doctors",
        "check_date": "2023-09-09",
        "healthcare": "doctor",
        "healthcare:speciality": "dermatology",
        "level": "1",
        "name": "Ara Skin Clinic",
        "shop": "beauty"
      }
    },
    {
      "type": "node",
      "id": 11178142885,
      "lat": 12.9508621,
      "lon": 77.5697917,
      "tags": {
        "check_date": "2023-09-09",
        "name": "NS Provision Store",
        "shop": "department_store"
      }
    },
    {
      "type": "node",
      "id": 11178142889,
      "lat": 12.9492629,
      "lon": 77.569886,
      "tags": {
        "check_date": "2023-09-09",
        "leisure": "fitness_centre",
        "name": "Russh Fitness",
        "phone": "08041456611"
      }
    },
    {
      "type": "node",
      "id": 11178144028,
      "lat": 12.9496068,
      "lon": 77.5702581,
      "tags": {
        "amenity": "bank",
        "atm": "no",
        "brand": "Axis Bank",
        "brand:wikidata": "Q2003549",
        "check_date": "2023-09-09",
        "drive_through": "no",
        "name": "Axis Bank Cards & Merchant Acquiring"
      }
    },
    {
      "type": "node",
      "id": 11178144316,
      "lat": 12.9510711,
      "lon": 77.5654133,
      "tags": {
        "check_date": "2023-09-09",
        "internet_access": "no",
        "name": "Rainbow Electricals and Engineers",
        "phone": "+91 98450 71783",
        "shop": "electrical",
        "wheelchair": "no"
      }
    },
    {
      "type": "node",
      "id": 11178144317,
      "lat": 12.9511675,
      "lon": 77.5650797,
      "tags": {
        "check_date": "2023-09-09",
        "name": "Bhartiya Jan Aushadhi Kendra",
        "shop": "chemist",
        "wheelchair": "yes"
      }
    },
    {
      "type": "node",
      "id": 11178144322,
      "lat": 12.9510335,
      "lon": 77.5689853,
      "tags": {
        "check_date": "2023-09-09",
        "leisure": "fitness_centre",
        "name": "Yoganiketan",
        "opening_hours": "Mo-Fr 06:00-19:00",
        "phone": "+91 98865 01736",
        "sport": "yoga"
      }
    },
    {
      "type": "node",
      "id": 11178146175,
      "lat": 12.9510913,
      "lon": 77.5677782,
      "tags": {
        "amenity": "bank",
        "atm": "yes",
        "brand": "IDFC First Bank",
        "brand:wikidata": "Q22031467",
        "check_date": "2023-09-09",
        "description": "Basavanagudi Branch",
        "name": "IDFC First Bank",
        "name:en": "IDFC First Bank",
        "wheelchair": "yes"
      }
    },
    {
      "type": "node",
      "id": 11178148407,
      "lat": 12.9493359,
      "lon": 77.5691446,
      "tags": {
        "check_date": "2023-09-09",
        "shop": "car_repair"
      }
    },
    {
      "type": "node",
      "id": 11178151445,
      "lat": 12.9508576,
      "lon": 77.5701506,
      "tags": {
        "alt_name": "Kido",
        "amenity": "kindergarten",
        "brand": "Kïdo",
        "brand:wikidata": "Q104849185",
        "check_date": "2023-09-09",
        "fee": "yes",
        "isced:level": "0",
        "name": "Kidzee Basavanagudi",
        "nursery": "yes",
        "official_name": "Kïdo International Preschool",
        "phone": "+91 99729 36816",
        "preschool": "yes"
      }
    },
    {
      "type": "node",
      "id": 11178151885,
      "lat": 12.9499182,
      "lon": 77.5674473,
      "tags": {
        "check_date": "2023-09-09",
        "internet_access": "wlan",
        "internet_access:fee": "customers",
        "name": "Louis Phillippe",
        "payment:mastercard": "yes",
        "payment:visa": "yes",
        "shop": "clothes",
        "wheelchair": "no"
      }
    },
    {
      "type": "node",
      "id": 11178151886,
      "lat": 12.9498029,
      "lon": 77.567445,
      "tags": {
        "check_date": "2023-09-09",
        "clothes": "men;women",
        "internet_access": "wlan",
        "internet_access:fee": "customers",
        "name": "Allen Solly",
        "shop": "clothes",
        "wheelchair": "no"
      }
    },
    {
      "type": "node",
      "id": 11178154957,
      "lat": 12.9522093,
      "lon": 77.5677528,
      "tags": {
        "check_date": "2023-09-09",
        "description": "The sound specialist",
        "name": "Rajdeep Electronics",
        "name:en": "Rajdeep Electronics",
        "payment:mastercard": "yes",
        "payment:visa": "yes",
        "shop": "electronics"
      }
    },
    {
      "type": "node",
      "id": 11178156321,
      "lat": 12.9509619,
      "lon": 77.5674465,
      "tags": {
        "check_date": "2023-09-09",
        "internet_access": "wlan",
        "internet_access:fee": "customers",
        "name": "Anurag Motors",
        "opening_hours": "Mo-Sa 08:30-20:00",
        "payment:mastercard": "yes",
        "payment:visa": "yes",
        "shop": "motorcycle"
      }
    },
    {
      "type": "node",
      "id": 11178157715,
      "lat": 12.9489147,
      "lon": 77.5678819,
      "tags": {
        "check_date": "2023-09-09",
        "name": "Spin Unisex Salon",
        "opening_hours": "08:30-20:30",
        "shop": "beauty"
      }
    },
    {
      "type": "node",
      "id": 11178159731,
      "lat": 12.9512957,
      "lon": 77.5698327,
      "tags": {
        "check_date": "2023-09-09",
        "name": "Akshaya The Rice Pot",
        "opening_hours": "10:00-14:00,16:30-20:30",
        "shop": "department_store"
      }
    },
    {
      "type": "node",
      "id": 11178159873,
      "lat": 12.9535152,
      "lon": 77.5689213,
      "tags": {
        "check_date": "2023-09-09",
        "name": "PVK & CO",
        "opening_hours": "Mo-Sa 10:00-20:00; Su 10:00-01:00",
        "shop": "dairy"
      }
    },
    {
      "type": "node",
      "id": 11178164611,
      "lat": 12.948035,
      "lon": 77.570008,
      "tags": {
        "check_date": "2025-11-19",
        "check_date:opening_hours": "2025-11-19",
        "name": "James Bond Dry Cleaners",
        "opening_hours": "Mo-Su 08:00-23:00",
        "shop": "dry_cleaning"
      }
    },
    {
      "type": "node",
      "id": 11178176260,
      "lat": 12.9525075,
      "lon": 77.5673681,
      "tags": {
        "amenity": "events_venue",
        "check_date": "2023-09-09",
        "name": "Sai Shubh Convention Center",
        "name:en": "Sai Shubh Convention Center",
        "wheelchair": "yes"
      }
    },
    {
      "type": "node",
      "id": 11178179805,
      "lat": 12.9523691,
      "lon": 77.5697301,
      "tags": {
        "check_date": "2023-09-09",
        "name": "Mangalaa Seeds",
        "shop": "agrarian"
      }
    },
    {
      "type": "node",
      "id": 11178186948,
      "lat": 12.9540062,
      "lon": 77.5673571,
      "tags": {
        "brand": "HOPCOMS",
        "brand:wikidata": "Q22908959",
        "check_date": "2023-09-09",
        "internet_access": "no",
        "name": "HOPCOMS",
        "name:en": "HOPCOMS",
        "operator": "HOPCOMS",
        "shop": "greengrocer",
        "wheelchair": "no"
      }
    },
    {
      "type": "node",
      "id": 11178643871,
      "lat": 12.9477594,
      "lon": 77.5684245,
      "tags": {
        "name": "Optic Eye Sunwear",
        "shop": "optician"
      }
    },
    {
      "type": "node",
      "id": 11178643872,
      "lat": 12.9473044,
      "lon": 77.5683693,
      "tags": {
        "name": "Titan Eye+",
        "shop": "optician"
      }
    },
    {
      "type": "node",
      "id": 11178643885,
      "lat": 12.9464283,
      "lon": 77.5695149,
      "tags": {
        "amenity": "bank",
        "name": "The National Co-operative Bank"
      }
    },
    {
      "type": "node",
      "id": 11201313858,
      "lat": 12.9425184,
      "lon": 77.5674319,
      "tags": {
        "amenity": "place_of_worship",
        "check_date": "2023-09-19",
        "name": "Venkateshwara Swamy Temple",
        "religion": "hindu"
      }
    },
    {
      "type": "node",
      "id": 11215379266,
      "lat": 12.9450542,
      "lon": 77.5679702,
      "tags": {
        "amenity": "music_school",
        "check_date": "2023-09-24",
        "name": "RB Academy",
        "phone": "+91 70222 33334"
      }
    },
    {
      "type": "node",
      "id": 11215379267,
      "lat": 12.9448759,
      "lon": 77.5680072,
      "tags": {
        "amenity": "bank",
        "brand": "Indian Overseas Bank",
        "brand:wikidata": "Q2003611",
        "check_date": "2023-09-24",
        "name": "Indian Overseas Bank"
      }
    },
    {
      "type": "node",
      "id": 11215379268,
      "lat": 12.9440476,
      "lon": 77.5680376,
      "tags": {
        "check_date": "2023-09-24",
        "name": "Desire Naturals",
        "shop": "confectionery"
      }
    },
    {
      "type": "node",
      "id": 11215814226,
      "lat": 12.9444805,
      "lon": 77.5680289,
      "tags": {
        "name": "Cake Yard",
        "shop": "bakery"
      }
    },
    {
      "type": "node",
      "id": 11215814229,
      "lat": 12.9445203,
      "lon": 77.5680128,
      "tags": {
        "name": "Sri Sai Flowers",
        "shop": "florist"
      }
    },
    {
      "type": "node",
      "id": 11215814230,
      "lat": 12.9445615,
      "lon": 77.5680082,
      "tags": {
        "amenity": "fast_food",
        "cuisine": "juice",
        "name": "Oye Lassi"
      }
    },
    {
      "type": "node",
      "id": 11215814231,
      "lat": 12.944634,
      "lon": 77.5680511,
      "tags": {
        "amenity": "restaurant",
        "cuisine": "south_indian",
        "name": "Iyengars Inn"
      }
    },
    {
      "type": "node",
      "id": 11215839940,
      "lat": 12.944719,
      "lon": 77.5680591,
      "tags": {
        "amenity": "fast_food",
        "brand": "Subway",
        "brand:wikidata": "Q244457",
        "cuisine": "sandwich",
        "name": "Subway",
        "takeaway": "yes"
      }
    },
    {
      "type": "node",
      "id": 11215840056,
      "lat": 12.9435636,
      "lon": 77.5677399,
      "tags": {
        "check_date": "2025-01-01",
        "name": "Veggo Farms",
        "shop": "dairy"
      }
    },
    {
      "type": "node",
      "id": 11215840059,
      "lat": 12.9433205,
      "lon": 77.5677668,
      "tags": {
        "amenity": "cafe",
        "name": "Juice Junction"
      }
    },
    {
      "type": "node",
      "id": 11215840060,
      "lat": 12.9433499,
      "lon": 77.5677507,
      "tags": {
        "name": "The Charisma Bridal Makeover",
        "shop": "beauty"
      }
    },
    {
      "type": "node",
      "id": 11215933556,
      "lat": 12.9467429,
      "lon": 77.5735181,
      "tags": {
        "amenity": "bank",
        "atm": "yes",
        "brand": "State Bank of India",
        "brand:wikidata": "Q1340361",
        "name": "State Bank of India",
        "name:kn": "ಎಸ್ ಬಿ ಐ",
        "short_name": "SBI"
      }
    },
    {
      "type": "node",
      "id": 11215959792,
      "lat": 12.9445902,
      "lon": 77.5720945,
      "tags": {
        "name": "Reliance Trends",
        "shop": "clothes"
      }
    },
    {
      "type": "node",
      "id": 11215991026,
      "lat": 12.9458365,
      "lon": 77.576673,
      "tags": {
        "name": "Continental",
        "shop": "tyres"
      }
    },
    {
      "type": "node",
      "id": 11314428137,
      "lat": 12.9404688,
      "lon": 77.5713638,
      "tags": {
        "amenity": "cafe",
        "cafe": "board_game",
        "contact:instagram": "board4bored_official",
        "name": "Board 4 Bored"
      }
    },
    {
      "type": "node",
      "id": 11348912168,
      "lat": 12.945679,
      "lon": 77.5711812,
      "tags": {
        "name": "Cycle World",
        "service:bicycle:repair": "yes",
        "service:bicycle:retail": "yes",
        "shop": "bicycle"
      }
    },
    {
      "type": "node",
      "id": 11693735533,
      "lat": 12.9419235,
      "lon": 77.5712377,
      "tags": {
        "addr:city": "Bangaluru",
        "addr:district": "Bengaluru",
        "addr:postcode": "560004",
        "addr:street": "No 16, DVG Gundappa Rd, opp. to Krishna Sweets, Diagonally, Basavanagudi",
        "name": "Hema Jewellers, DVG Road",
        "phone": "8448448741",
        "shop": "jewelry"
      }
    },
    {
      "type": "node",
      "id": 11827173636,
      "lat": 12.9477417,
      "lon": 77.5793843,
      "tags": {
        "addr:postcode": "560004",
        "amenity": "doctors",
        "check_date": "2024-04-18",
        "email": "jyothilasikvision@gmail.com",
        "healthcare": "doctor",
        "healthcare:speciality": "ophthalmology",
        "name": "Jyothi The Lasik Vision Centre",
        "opening_hours": "Mo-Sa 10:00-18:00; Su off",
        "phone": "+91 80 2656 7878; +91 80 4096 7878; +91 93800 65139",
        "website": "https://www.jyothilasik.com"
      }
    },
    {
      "type": "node",
      "id": 12000217924,
      "lat": 12.9506158,
      "lon": 77.5736394,
      "tags": {
        "amenity": "atm",
        "brand": "State Bank of India",
        "brand:wikidata": "Q1340361",
        "check_date": "2024-06-22",
        "level": "1",
        "operator": "State Bank of India",
        "operator:wikidata": "Q1340361"
      }
    },
    {
      "type": "node",
      "id": 12000217925,
      "lat": 12.9503,
      "lon": 77.5738513,
      "tags": {
        "access": "permissive",
        "amenity": "toilets",
        "check_date": "2024-06-22",
        "female": "yes",
        "level": "1",
        "male": "yes",
        "operator": "BMRCL",
        "toilets:handwashing": "yes",
        "toilets:position": "urinal"
      }
    },
    {
      "type": "node",
      "id": 12000298579,
      "lat": 12.9464586,
      "lon": 77.5789472,
      "tags": {
        "name": "Nandini",
        "shop": "milk"
      }
    },
    {
      "type": "node",
      "id": 12000301387,
      "lat": 12.9462618,
      "lon": 77.579768,
      "tags": {
        "name": "Sree Bhagvan Traders",
        "shop": "wholesale"
      }
    },
    {
      "type": "node",
      "id": 12229433949,
      "lat": 12.9458621,
      "lon": 77.5686701,
      "tags": {
        "addr:housenumber": "50",
        "addr:street": "West Ankjaneya Street",
        "amenity": "fast_food",
        "description": "Local food joint",
        "name": "Cubbonpete Tiffin Rooms"
      }
    },
    {
      "type": "node",
      "id": 12466417389,
      "lat": 12.9510222,
      "lon": 77.5677852,
      "tags": {
        "amenity": "atm",
        "brand": "IDFC First Bank",
        "brand:wikidata": "Q22031467",
        "check_date": "2025-01-01",
        "operator": "IDFC First Bank",
        "operator:wikidata": "Q22031467"
      }
    },
    {
      "type": "node",
      "id": 12466417390,
      "lat": 12.9489433,
      "lon": 77.5678735,
      "tags": {
        "check_date": "2025-01-01",
        "name": "FirstCry.com",
        "shop": "baby_goods"
      }
    },
    {
      "type": "node",
      "id": 12466442936,
      "lat": 12.9480061,
      "lon": 77.5682219,
      "tags": {
        "brand": "Nandini",
        "brand:wikidata": "Q124374212",
        "check_date": "2025-01-01",
        "name": "Nandini",
        "shop": "dairy"
      }
    },
    {
      "type": "node",
      "id": 12466442937,
      "lat": 12.9463785,
      "lon": 77.5680606,
      "tags": {
        "amenity": "fuel",
        "brand": "Indian Oil",
        "brand:wikidata": "Q1289348",
        "check_date": "2025-01-01",
        "name": "Indian Oil"
      }
    },
    {
      "type": "node",
      "id": 12466442938,
      "lat": 12.9451436,
      "lon": 77.5680133,
      "tags": {
        "amenity": "restaurant",
        "check_date": "2025-01-01",
        "diet:vegetarian": "yes",
        "name": "Vijayalakshmi"
      }
    },
    {
      "type": "node",
      "id": 12466442939,
      "lat": 12.9439818,
      "lon": 77.5680418,
      "tags": {
        "check_date": "2025-01-01",
        "name": "Parshwantha Traders",
        "shop": "rice"
      }
    },
    {
      "type": "node",
      "id": 12466444176,
      "lat": 12.9434263,
      "lon": 77.5677477,
      "tags": {
        "check_date": "2025-01-01",
        "name": "Sreenivasa Brahmins Bakery",
        "shop": "bakery"
      }
    },
    {
      "type": "node",
      "id": 12466444177,
      "lat": 12.9433441,
      "lon": 77.5677341,
      "tags": {
        "check_date": "2025-01-01",
        "name": "Hara Tattooz",
        "shop": "tattoo"
      }
    },
    {
      "type": "node",
      "id": 12538682585,
      "lat": 12.9437799,
      "lon": 77.5714421,
      "tags": {
        "name": "Akruti Books",
        "note": "Previously located in Rajajinagar",
        "shop": "books"
      }
    },
    {
      "type": "node",
      "id": 12546212501,
      "lat": 12.9380412,
      "lon": 77.5692291,
      "tags": {
        "amenity": "restaurant",
        "name": "Uttara Karnatakada Gama Gama"
      }
    },
    {
      "type": "node",
      "id": 12944464149,
      "lat": 12.9401894,
      "lon": 77.5656135,
      "tags": {
        "amenity": "fixme",
        "check_date": "2025-06-22",
        "fixme": "type",
        "fixme:type": "auditorium",
        "internet_access": "no",
        "name": "BMS Hostel Auditorium",
        "payment:cards": "no",
        "payment:cash": "yes",
        "payment:credit_cards": "no",
        "payment:debit_cards": "no",
        "wheelchair": "no"
      }
    },
    {
      "type": "node",
      "id": 12944464150,
      "lat": 12.9399801,
      "lon": 77.5654125,
      "tags": {
        "amenity": "fixme",
        "check_date": "2025-06-22",
        "fixme": "type",
        "fixme:type": "hostel mess",
        "name": "BMS Hostel Mess"
      }
    },
    {
      "type": "node",
      "id": 13288507189,
      "lat": 12.9453221,
      "lon": 77.577083,
      "tags": {
        "amenity": "restaurant",
        "name": "Moonstone"
      }
    },
    {
      "type": "node",
      "id": 13294460164,
      "lat": 12.9446046,
      "lon": 77.5791252,
      "tags": {
        "amenity": "place_of_worship",
        "religion": "hindu"
      }
    },
    {
      "type": "way",
      "id": 15802611,
      "center": {
        "lat": 12.9421447,
        "lon": 77.5753387
      },
      "tags": {
        "heritage": "2",
        "heritage:operator": "nmma",
        "heritage:website": "https://nmma.nic.in/nmma/exploreBuiltState.do?state=29",
        "leisure": "park",
        "name": "MN Krishna Rao Park",
        "name:kn": "ಕೃಷ್ಣ ರಾವ ಉದ್ಯಾನ",
        "ref:nmma": "KR20010688"
      }
    },
    {
      "type": "way",
      "id": 36958500,
      "center": {
        "lat": 12.952325,
        "lon": 77.5768001
      },
      "tags": {
        "leisure": "park",
        "name": "Sajjan Rao Park",
        "name:etymology:wikidata": "Q55418995",
        "name:kn": "ಸಜ್ಜನ ರಾವ ಉದ್ಯಾನವನ"
      }
    },
    {
      "type": "way",
      "id": 38751027,
      "center": {
        "lat": 12.9551191,
        "lon": 77.5745838
      },
      "tags": {
        "amenity": "college"
      }
    },
    {
      "type": "way",
      "id": 38752414,
      "center": {
        "lat": 12.9488247,
        "lon": 77.5729782
      },
      "tags": {
        "amenity": "school",
        "name": "National College and School",
        "name:kn": "ನ್ಯಾಶನಲ್ ಕಾಲೇಜು",
        "wheelchair": "limited"
      }
    },
    {
      "type": "way",
      "id": 38752416,
      "center": {
        "lat": 12.9517149,
        "lon": 77.572868
      },
      "tags": {
        "leisure": "sports_centre",
        "name": "Basavanagudi Swimming Pool",
        "name:kn": "ಬಸವನಗುಡಿ ಈಜುಕೊಳ"
      }
    },
    {
      "type": "way",
      "id": 40629056,
      "center": {
        "lat": 12.9511038,
        "lon": 77.5739205
      },
      "tags": {
        "leisure": "park"
      }
    },
    {
      "type": "way",
      "id": 40629057,
      "center": {
        "lat": 12.9525682,
        "lon": 77.5728546
      },
      "tags": {
        "amenity": "school",
        "name": "Mahila Seva Samaja School",
        "name:kn": "ಮಹಿಳಾ ಸೇವಾ ಸಮಾಜ ಶಾಲೆ",
        "wheelchair": "no"
      }
    },
    {
      "type": "way",
      "id": 40629062,
      "center": {
        "lat": 12.9552255,
        "lon": 77.570634
      },
      "tags": {
        "amenity": "place_of_worship",
        "heritage": "2",
        "heritage:operator": "nmma",
        "heritage:website": "https://nmma.nic.in/nmma/exploreBuiltState.do?state=29",
        "landuse": "religious",
        "name": "Sringeri Mutt",
        "name:kn": "ಶೃಂಗೇರಿ ಮಠ",
        "ref:nmma": "KR20010658",
        "religion": "hindu",
        "wheelchair": "no"
      }
    },
    {
      "type": "way",
      "id": 40629064,
      "center": {
        "lat": 12.943131,
        "lon": 77.5743868
      },
      "tags": {
        "alt_name": "Government School",
        "amenity": "school",
        "name": "Karnataka Public School",
        "name:kn": "ಸರ್ಕಾರಿ ಶಾಲೆ"
      }
    },
    {
      "type": "way",
      "id": 40629065,
      "center": {
        "lat": 12.9439821,
        "lon": 77.5732623
      },
      "tags": {
        "leisure": "park",
        "name": "Jayanti Garden"
      }
    },
    {
      "type": "way",
      "id": 40629066,
      "center": {
        "lat": 12.9440072,
        "lon": 77.5772025
      },
      "tags": {
        "leisure": "park",
        "name": "Madhava Rao Park",
        "name:etymology:wikidata": "Q5793366",
        "name:kn": "ಮಾಧವ ರಾವ್ ಉದ್ಯಾನವನ"
      }
    },
    {
      "type": "way",
      "id": 40629072,
      "center": {
        "lat": 12.9401789,
        "lon": 77.5772974
      },
      "tags": {
        "leisure": "pitch",
        "name": "Home School Grounds"
      }
    },
    {
      "type": "way",
      "id": 133115272,
      "center": {
        "lat": 12.9486891,
        "lon": 77.5756679
      },
      "tags": {
        "amenity": "school",
        "check_date": "2024-04-08",
        "name": "Vasavi Vidya Nikethan School",
        "name:kn": "ವಾಸವಿ ವಿದ್ಯಾನಿಕೇತನ ಶಾಲೆ"
      }
    },
    {
      "type": "way",
      "id": 133116295,
      "center": {
        "lat": 12.9545796,
        "lon": 77.5679194
      },
      "tags": {
        "amenity": "school",
        "name": "Jnanodaya School",
        "name:kn": "ಜ್ಞಾನೋದಯ ಶಾಲೆ",
        "wheelchair": "no"
      }
    },
    {
      "type": "way",
      "id": 133117440,
      "center": {
        "lat": 12.9423054,
        "lon": 77.5666933
      },
      "tags": {
        "amenity": "library",
        "building": "yes",
        "check_date": "2025-06-22",
        "name": "BMS College Of Architecture",
        "name:kn": "ಬಿ ಎಂ ಎಸ್ ವಾಸ್ತುಶಿಲ್ಪ ಕಾಲೇಜು",
        "operator:type": "private"
      }
    },
    {
      "type": "way",
      "id": 162389318,
      "center": {
        "lat": 12.9413073,
        "lon": 77.5664897
      },
      "tags": {
        "access": "customers",
        "amenity": "parking",
        "fee": "no",
        "name": "BMS College Parking",
        "parking": "surface"
      }
    },
    {
      "type": "way",
      "id": 162389319,
      "center": {
        "lat": 12.9411519,
        "lon": 77.5665825
      },
      "tags": {
        "leisure": "park"
      }
    },
    {
      "type": "way",
      "id": 162871259,
      "center": {
        "lat": 12.941891,
        "lon": 77.5665178
      },
      "tags": {
        "leisure": "park"
      }
    },
    {
      "type": "way",
      "id": 172845845,
      "center": {
        "lat": 12.9415239,
        "lon": 77.5659049
      },
      "tags": {
        "amenity": "college",
        "name": "BMS College of Engineering",
        "name:kn": "ಬಿಎಂಎಸ್ ತಾಂತ್ರಿಕ ಮಹಾವಿದ್ಯಾಲಯ",
        "wikidata": "Q4833841",
        "wikimedia_commons": "Category:B. M. Sreenivasaiah College of Engineering",
        "wikipedia": "en:B.M.S. College of Engineering"
      }
    },
    {
      "type": "way",
      "id": 172845875,
      "center": {
        "lat": 12.9402185,
        "lon": 77.5623647
      },
      "tags": {
        "amenity": "place_of_worship",
        "landuse": "religious",
        "religion": "hindu"
      }
    },
    {
      "type": "way",
      "id": 172937189,
      "center": {
        "lat": 12.9521538,
        "lon": 77.5748728
      },
      "tags": {
        "amenity": "school",
        "name": "Sajjan Rao School",
        "name:etymology:wikidata": "Q55418995",
        "name:kn": "ಸಜ್ಜನ ರಾವ ಶಾಲೆ"
      }
    },
    {
      "type": "way",
      "id": 188433928,
      "center": {
        "lat": 12.9409007,
        "lon": 77.5734925
      },
      "tags": {
        "amenity": "community_centre",
        "building": "yes",
        "name": "Dwarakanath Bhavan",
        "name:kn": "ದ್ವಾರಕನಾಥ ಭವನ"
      }
    },
    {
      "type": "way",
      "id": 299877333,
      "center": {
        "lat": 12.9421433,
        "lon": 77.5692538
      },
      "tags": {
        "fixme": "borders",
        "leisure": "park",
        "name": "Bugle Rock Park",
        "name:kn": "ಕಹಳೆಬಂಡೆ ಉದ್ಯಾನವನ",
        "wikidata": "Q4986214",
        "wikimedia_commons": "Category:Bugle Rock",
        "wikipedia": "en:Bugle Rock"
      }
    },
    {
      "type": "way",
      "id": 299877334,
      "center": {
        "lat": 12.9418582,
        "lon": 77.5679447
      },
      "tags": {
        "addr:street": "Bull Temple Road",
        "alt_name": "Basava Temple",
        "amenity": "place_of_worship",
        "building": "temple",
        "name": "Shri Doddabasavanna Temple",
        "name:kn": "ಶ್ರೀ ದೊಡ್ಡಬಸವಣ್ಣ ದೇವಸ್ಥಾನ",
        "religion": "hindu"
      }
    },
    {
      "type": "way",
      "id": 299877335,
      "center": {
        "lat": 12.942878,
        "lon": 77.5682145
      },
      "tags": {
        "addr:street": "Bull Temple Road",
        "amenity": "place_of_worship",
        "building": "temple",
        "name": "Dodda Ganesha Temple",
        "name:kn": "ದೊಡ್ಡ ಗಣೇಶ ಗುಡಿ",
        "religion": "hindu",
        "wikipedia": "en:Dodda Basavana Gudi"
      }
    },
    {
      "type": "way",
      "id": 327061225,
      "center": {
        "lat": 12.9400303,
        "lon": 77.5687111
      },
      "tags": {
        "leisure": "pitch"
      }
    },
    {
      "type": "way",
      "id": 335704461,
      "center": {
        "lat": 12.940526,
        "lon": 77.5761071
      },
      "tags": {
        "amenity": "parking"
      }
    },
    {
      "type": "way",
      "id": 338314532,
      "center": {
        "lat": 12.938534,
        "lon": 77.5756549
      },
      "tags": {
        "addr:city": "Bangalore",
        "addr:street": "Kanakapura Road",
        "amenity": "fast_food",
        "building": "yes",
        "cuisine": "regional",
        "delivery": "no",
        "name": "South Thindis",
        "takeaway": "yes"
      }
    },
    {
      "type": "way",
      "id": 338457515,
      "center": {
        "lat": 12.9441426,
        "lon": 77.5741238
      },
      "tags": {
        "addr:city": "Bangalore",
        "addr:street": "Krishna Rajendra Road",
        "amenity": "kindergarten",
        "name": "Tenbroeck Academy"
      }
    },
    {
      "type": "way",
      "id": 345968568,
      "center": {
        "lat": 12.9452329,
        "lon": 77.569263
      },
      "tags": {
        "amenity": "events_venue",
        "building": "yes",
        "name": "Sree Radha Krishna Convention Centre"
      }
    },
    {
      "type": "way",
      "id": 346703040,
      "center": {
        "lat": 12.9447698,
        "lon": 77.5700456
      },
      "tags": {
        "amenity": "events_venue",
        "building": "yes",
        "name": "Sree Bhavani Kalyana Mantapa"
      }
    },
    {
      "type": "way",
      "id": 346703555,
      "center": {
        "lat": 12.9451773,
        "lon": 77.5675211
      },
      "tags": {
        "amenity": "community_centre",
        "building": "yes",
        "building:levels": "3",
        "name": "SBN Hall",
        "name:kn": "ಎಸ್.ಬಿ.ಎನ್ ಕಲ್ಯಾಣ ಮಂಟಪ"
      }
    },
    {
      "type": "way",
      "id": 346744101,
      "center": {
        "lat": 12.9461969,
        "lon": 77.5674238
      },
      "tags": {
        "addr:postcode": "560019",
        "addr:street": "Bull Temple Road",
        "amenity": "community_centre",
        "building": "yes",
        "name": "Ganjam Mantap",
        "wheelchair": "no"
      }
    },
    {
      "type": "way",
      "id": 346756057,
      "center": {
        "lat": 12.9439975,
        "lon": 77.5763287
      },
      "tags": {
        "amenity": "library",
        "building": "yes",
        "name": "World Culture Library"
      }
    },
    {
      "type": "way",
      "id": 346822549,
      "center": {
        "lat": 12.9485722,
        "lon": 77.5663428
      },
      "tags": {
        "amenity": "place_of_worship",
        "name": "Swami Vivekananda",
        "name:kn": "ಸ್ವಾಮಿ ವಿವೇಕನಂದ",
        "wheelchair": "no"
      }
    },
    {
      "type": "way",
      "id": 347182374,
      "center": {
        "lat": 12.9486853,
        "lon": 77.5718879
      },
      "tags": {
        "addr:city": "Bangalore",
        "amenity": "place_of_worship",
        "building": "yes",
        "description": "Uttaradhi Mutt",
        "name": "Digvijaya Lakshmi Narasimha Temple",
        "name:kn": "ದಿಗ್ವಿಜಯ ಲಕ್ಷ್ಮಿನರಸಿಂಹ ದೇವಸ್ಥಾನ",
        "religion": "hindu"
      }
    },
    {
      "type": "way",
      "id": 347216082,
      "center": {
        "lat": 12.9483972,
        "lon": 77.5704979
      },
      "tags": {
        "building": "yes",
        "name": "Battery Mark Exide Care",
        "shop": "car_parts"
      }
    },
    {
      "type": "way",
      "id": 347437479,
      "center": {
        "lat": 12.9433275,
        "lon": 77.5682752
      },
      "tags": {
        "addr:street": "Bull Temple Road",
        "amenity": "townhall",
        "building": "yes",
        "name": "Sri Dharmasthala Manjunathaswamy Kalyana Mantapa",
        "name:kn": "ಶ್ರೀ ಮಂಜುನಾಥಸ್ವಾಮಿ ಕಲ್ಯಾಣ ಮಂಟಪ"
      }
    },
    {
      "type": "way",
      "id": 347447029,
      "center": {
        "lat": 12.9537466,
        "lon": 77.5673376
      },
      "tags": {
        "amenity": "restaurant",
        "building": "yes",
        "cuisine": "indian;south_indian",
        "diet:vegetarian": "yes",
        "name": "Shanti Sagar",
        "name:kn": "ಶಾಂತಿ ಸಾಗರ್",
        "opening_hours": "08:00-22:00"
      }
    },
    {
      "type": "way",
      "id": 347480195,
      "center": {
        "lat": 12.9463814,
        "lon": 77.5734611
      },
      "tags": {
        "amenity": "place_of_worship",
        "name": "Vimalnath Jain Temple",
        "name:kn": "ವಿಮಲನಾಥ ಜೈನ ದೇವಾಲಯ",
        "religion": "jain"
      }
    },
    {
      "type": "way",
      "id": 347504826,
      "center": {
        "lat": 12.9479261,
        "lon": 77.5709428
      },
      "tags": {
        "amenity": "clinic",
        "building": "yes",
        "healthcare": "clinic",
        "name": "Amruth Ayurvedic Center",
        "name:kn": "ಅಮೃತ ಆಯುರ್ವೇದ"
      }
    },
    {
      "type": "way",
      "id": 347505016,
      "center": {
        "lat": 12.9479213,
        "lon": 77.5707129
      },
      "tags": {
        "amenity": "school",
        "building": "yes",
        "name": "Magadi Karanikara Vaidika Dharma Pathashala Trust",
        "name:kn": "ಮಾಗಡಿ ಕರಣಿಕರ ವೈಧಿಕ ಧರ್ಮ ಪಾಠಶಾಲೆ"
      }
    },
    {
      "type": "way",
      "id": 347528840,
      "center": {
        "lat": 12.9509155,
        "lon": 77.5781813
      },
      "tags": {
        "addr:postcode": "560004",
        "addr:street": "Old Market Street",
        "amenity": "place_of_worship",
        "building": "yes",
        "name": "Arya Samaja - Swami Shraddhananda Bhavana",
        "name:kn": "ಆರ್ಯ ಸಮಾಜ - ಸ್ವಾಮಿ ಶ್ರದ್ಧಾನಂದ ಭವನ",
        "religion": "hindu"
      }
    },
    {
      "type": "way",
      "id": 347528875,
      "center": {
        "lat": 12.9506642,
        "lon": 77.5778323
      },
      "tags": {
        "amenity": "school",
        "building": "school",
        "name": "Sree Saraswathi Vidya Mandira",
        "name:kn": "ಶ್ರೀ ಸರಸ್ವತಿ ವಿದ್ಯಾ ಮಂದಿರ"
      }
    },
    {
      "type": "way",
      "id": 347528939,
      "center": {
        "lat": 12.95134,
        "lon": 77.577216
      },
      "tags": {
        "amenity": "place_of_worship",
        "building": "yes",
        "name": "Valmiki Sri Anjaneya Temple",
        "name:kn": "ವಾಲ್ಮೀಕಿ ಶ್ರೀ ಆಂಜನೇಯ ದೇವಸ್ಥಾನ",
        "religion": "hindu"
      }
    },
    {
      "type": "way",
      "id": 347533983,
      "center": {
        "lat": 12.9520621,
        "lon": 77.5774153
      },
      "tags": {
        "amenity": "place_of_worship",
        "building": "yes",
        "name": "Kota Venkataramana Swamy Temple",
        "name:ko": "코타 벤카타라마나 스와미 템플",
        "religion": "hindu"
      }
    },
    {
      "type": "way",
      "id": 347564363,
      "center": {
        "lat": 12.9380404,
        "lon": 77.5686782
      },
      "tags": {
        "addr:city": "Bengaluru",
        "addr:street": "Subbrama Chetty Road",
        "amenity": "restaurant",
        "building": "yes",
        "cuisine": "regional",
        "delivery": "no",
        "description": "Onion and Garlic not used in food preparation; Sambar not provided; Chutney only",
        "name": "South Kitchen",
        "name:kn": "ಸೌತ್ ಕಿಚನ್",
        "opening_hours": "06:00-12:00,16:00-21:00",
        "smoking": "no",
        "takeaway": "yes"
      }
    },
    {
      "type": "way",
      "id": 347564483,
      "center": {
        "lat": 12.9428531,
        "lon": 77.5730351
      },
      "tags": {
        "amenity": "community_centre",
        "building": "yes",
        "name": "Dwaraka Samsthana Hall",
        "name:kn": "ದ್ವಾರಕ ಸಂಸ್ಥಾನ ಹಾಲ್"
      }
    },
    {
      "type": "way",
      "id": 348284790,
      "center": {
        "lat": 12.9392713,
        "lon": 77.5722594
      },
      "tags": {
        "addr:city": "Bangalore",
        "addr:housenumber": "167/B",
        "addr:postcode": "560004",
        "addr:street": "Subbarama ChettyRoad,Basavanagudi",
        "amenity": "bank",
        "brand": "Union Bank of India",
        "brand:wikidata": "Q2004078",
        "building": "yes",
        "building:levels": "2",
        "name": "Union Bank of India",
        "name:kn": "ಕಾರ್ಪೋರೇಶನ್ ಬ್ಯಾಂಕ್"
      }
    },
    {
      "type": "way",
      "id": 350572306,
      "center": {
        "lat": 12.9378721,
        "lon": 77.5674301
      },
      "tags": {
        "amenity": "restaurant",
        "building": "yes",
        "name": "Kumara Bhavana",
        "name:kn": "ಕುಮಾರ ಭವನ"
      }
    },
    {
      "type": "way",
      "id": 351163480,
      "center": {
        "lat": 12.9430447,
        "lon": 77.567454
      },
      "tags": {
        "amenity": "events_venue",
        "building": "yes",
        "name": "Sri Nijaguna Kshetra"
      }
    },
    {
      "type": "way",
      "id": 351633147,
      "center": {
        "lat": 12.952713,
        "lon": 77.5761998
      },
      "tags": {
        "addr:city": "Bengaluru",
        "addr:postcode": "560004",
        "addr:street": "Sajjan Rao Circle",
        "amenity": "place_of_worship",
        "building": "yes",
        "religion": "hindu"
      }
    },
    {
      "type": "way",
      "id": 352455939,
      "center": {
        "lat": 12.937797,
        "lon": 77.5704139
      },
      "tags": {
        "amenity": "place_of_worship",
        "building": "yes",
        "denomination": "hindu",
        "name": "Raghavendra Swamy Temple",
        "name:kn": "ರಾಘವೇಂದ್ರ ಸ್ವಾಮಿ ದೇವಸ್ಥಾನ",
        "religion": "hindu"
      }
    },
    {
      "type": "way",
      "id": 361108347,
      "center": {
        "lat": 12.9400755,
        "lon": 77.5730879
      },
      "tags": {
        "addr:city": "Bengaluru",
        "addr:postcode": "560004",
        "addr:street": "Nettakallappa Cir, Basavanagudi",
        "amenity": "place_of_worship",
        "building": "yes",
        "name": "Shri Varasiddhi Vinayaka Temple",
        "religion": "hindu"
      }
    },
    {
      "type": "way",
      "id": 361108397,
      "center": {
        "lat": 12.9400943,
        "lon": 77.5732639
      },
      "tags": {
        "leisure": "pitch",
        "lit": "yes",
        "sport": "volleyball",
        "surface": "dirt"
      }
    },
    {
      "type": "way",
      "id": 362907458,
      "center": {
        "lat": 12.9375529,
        "lon": 77.5690154
      },
      "tags": {
        "designation": "BBMP Park",
        "leisure": "park"
      }
    },
    {
      "type": "way",
      "id": 362907846,
      "center": {
        "lat": 12.9378191,
        "lon": 77.5714966
      },
      "tags": {
        "leisure": "park",
        "name": "Shamanna Park",
        "name:kn": "ಶಾಮಣ್ಣ ಉದ್ಯಾನವನ"
      }
    },
    {
      "type": "way",
      "id": 362909552,
      "center": {
        "lat": 12.947441,
        "lon": 77.5634781
      },
      "tags": {
        "leisure": "park",
        "name": "Hanumanth Nagar Park",
        "name:kn": "ಹನುಮಂತನಗರ ಉದ್ಯಾನವನ"
      }
    },
    {
      "type": "way",
      "id": 411052968,
      "center": {
        "lat": 12.9478182,
        "lon": 77.5654024
      },
      "tags": {
        "amenity": "school"
      }
    },
    {
      "type": "way",
      "id": 411052969,
      "center": {
        "lat": 12.9490641,
        "lon": 77.5661149
      },
      "tags": {
        "amenity": "place_of_worship",
        "landuse": "religious",
        "name": "Ramakrishna Math",
        "name:kn": "ರಾಮಕೃಷ್ಣ ಮಠ",
        "religion": "hindu",
        "website": "http://rkmathbangalore.org",
        "wheelchair": "limited"
      }
    },
    {
      "type": "way",
      "id": 411053142,
      "center": {
        "lat": 12.9481786,
        "lon": 77.566217
      },
      "tags": {
        "leisure": "garden"
      }
    },
    {
      "type": "way",
      "id": 411055247,
      "center": {
        "lat": 12.952512,
        "lon": 77.5729374
      },
      "tags": {
        "leisure": "pitch",
        "sport": "tennis"
      }
    },
    {
      "type": "way",
      "id": 411055248,
      "center": {
        "lat": 12.9517053,
        "lon": 77.5727717
      },
      "tags": {
        "leisure": "swimming_pool"
      }
    },
    {
      "type": "way",
      "id": 411055249,
      "center": {
        "lat": 12.9518886,
        "lon": 77.5732804
      },
      "tags": {
        "leisure": "swimming_pool"
      }
    },
    {
      "type": "way",
      "id": 411055259,
      "center": {
        "lat": 12.9479212,
        "lon": 77.5678916
      },
      "tags": {
        "barrier": "fence",
        "leisure": "park",
        "operator": "ಬೃಹತ್ ಬೆಂಗಳೂರು ಮಹಾನಗರ ಪಾಲಿಕೆ",
        "operator:en": "Bruhat Bengaluru Mahanagara Palike",
        "operator:ka": "ಬೃಹತ್ ಬೆಂಗಳೂರು ಮಹಾನಗರ ಪಾಲಿಕೆ",
        "operator:short": "BBMP",
        "operator:type": "government",
        "operator:wikidata": "Q4978693"
      }
    },
    {
      "type": "way",
      "id": 411067253,
      "center": {
        "lat": 12.9513805,
        "lon": 77.5670105
      },
      "tags": {
        "barrier": "fence",
        "check_date": "2023-09-09",
        "landuse": "recreation_ground",
        "leisure": "playground",
        "name": "Udayabhanu Public Playground"
      }
    },
    {
      "type": "way",
      "id": 490824219,
      "center": {
        "lat": 12.9380703,
        "lon": 77.569026
      },
      "tags": {
        "addr:city": "Bengaluru",
        "addr:street": "Subbrama Chetty Road",
        "amenity": "bus_station",
        "building": "yes",
        "bus": "yes",
        "internet_access": "no",
        "name": "N. R. Colony Bus Station",
        "name:kn": "ಎನ್.  ಆರ್.  ಕಾಲೋನಿ ಬಸ್ ನಿಲ್ದಾಣ",
        "operator": "BMTC",
        "public_transport": "station"
      }
    },
    {
      "type": "way",
      "id": 496821816,
      "center": {
        "lat": 12.9377267,
        "lon": 77.5697859
      },
      "tags": {
        "amenity": "hospital",
        "building": "yes",
        "healthcare": "hospital",
        "name": "Government Maternity Hospital",
        "name:kn": "ಸರಕಾರಿ ಹೆರಿಗೆ ಆಸ್ಪತ್ರೆ"
      }
    },
    {
      "type": "way",
      "id": 525505250,
      "center": {
        "lat": 12.9377938,
        "lon": 77.5706994
      },
      "tags": {
        "addr:city": "Bangalore",
        "amenity": "place_of_worship",
        "building": "yes",
        "denomination": "hindu",
        "name": "Sri Rama Temple",
        "name:kn": "ಶ್ರೀ ರಾಮ ದೇವಸ್ಥಾನ",
        "religion": "hindu"
      }
    },
    {
      "type": "way",
      "id": 525506839,
      "center": {
        "lat": 12.9408006,
        "lon": 77.5689519
      },
      "tags": {
        "addr:city": "Bengaluru",
        "addr:postcode": "560004",
        "addr:street": "Mallikarjuna Temple St, Basavanagudi",
        "amenity": "place_of_worship",
        "building": "yes",
        "name": "Shri Mallikarjuna Swamy Devasthana",
        "religion": "hindu"
      }
    },
    {
      "type": "way",
      "id": 549266174,
      "center": {
        "lat": 12.9480146,
        "lon": 77.5687035
      },
      "tags": {
        "building": "supermarket",
        "name": "KS Puttasiddappa and Sons",
        "shop": "supermarket"
      }
    },
    {
      "type": "way",
      "id": 687319732,
      "center": {
        "lat": 12.9413364,
        "lon": 77.5674679
      },
      "tags": {
        "addr:district": "Bengaluru Urban",
        "addr:full": "618, Sri Mallikarjuna Swamy Temple St, N.R. Colony",
        "addr:postcode": "560019",
        "addr:state": "Karnataka",
        "amenity": "hospital",
        "name": "BMS Hospital",
        "source": "OpenGovernmentData"
      }
    },
    {
      "type": "way",
      "id": 687319737,
      "center": {
        "lat": 12.9400098,
        "lon": 77.5677654
      },
      "tags": {
        "addr:street": "Bull Temple Road",
        "amenity": "school",
        "name": "APS Public School",
        "name:kn": "ಎಪಿಎಸ್ ಪಬ್ಲಿಕ್ ಶಾಲೆ"
      }
    },
    {
      "type": "way",
      "id": 977371897,
      "center": {
        "lat": 12.950672,
        "lon": 77.577026
      },
      "tags": {
        "amenity": "place_of_worship",
        "building": "temple",
        "denomination": "swethambar",
        "name": "Simandhar Swami Shanti Suriji Dadawadi Jain Temple",
        "religion": "jain"
      }
    },
    {
      "type": "way",
      "id": 990830460,
      "center": {
        "lat": 12.9441015,
        "lon": 77.5715902
      },
      "tags": {
        "leisure": "park"
      }
    },
    {
      "type": "way",
      "id": 1069013461,
      "center": {
        "lat": 12.9517131,
        "lon": 77.5672859
      },
      "tags": {
        "addr:city": "Bengaluru",
        "addr:housenumber": "109",
        "addr:postcode": "560019",
        "addr:street": "Bull Temple Road",
        "air_conditioning": "yes",
        "amenity": "bank",
        "atm": "yes",
        "brand": "Karnataka Bank",
        "brand:wikidata": "Q2042632",
        "building": "yes",
        "check_date": "2023-09-09",
        "name": "Karnataka Bank",
        "name:kn": "ಕರ್ನಾಟಕ ಬ್ಯಾಂಕ್",
        "opening_hours": "Mo-Sa 10:00-03:30",
        "wheelchair": "yes"
      }
    },
    {
      "type": "way",
      "id": 1069014337,
      "center": {
        "lat": 12.9523167,
        "lon": 77.5669814
      },
      "tags": {
        "addr:city": "Bengaluru",
        "addr:postcode": "560019",
        "addr:street": "Bull Temple Road",
        "brand": "More",
        "brand:wikidata": "Q6910891",
        "building": "yes",
        "check_date": "2022-10-31",
        "name": "More",
        "name:kn": "ಮೋರ್",
        "opening_hours": "Mo-Su 09:00-21:00",
        "shop": "supermarket",
        "wheelchair": "yes"
      }
    },
    {
      "type": "way",
      "id": 1134063891,
      "center": {
        "lat": 12.9467942,
        "lon": 77.5798276
      },
      "tags": {
        "amenity": "restaurant",
        "building": "yes"
      }
    },
    {
      "type": "way",
      "id": 1163783145,
      "center": {
        "lat": 12.9371459,
        "lon": 77.5691968
      },
      "tags": {
        "amenity": "marketplace"
      }
    },
    {
      "type": "way",
      "id": 1163783146,
      "center": {
        "lat": 12.9376192,
        "lon": 77.569067
      },
      "tags": {
        "leisure": "playground"
      }
    },
    {
      "type": "way",
      "id": 1163783152,
      "center": {
        "lat": 12.9378158,
        "lon": 77.5716137
      },
      "tags": {
        "leisure": "playground"
      }
    },
    {
      "type": "way",
      "id": 1167155056,
      "center": {
        "lat": 12.9517967,
        "lon": 77.5730306
      },
      "tags": {
        "leisure": "swimming_pool"
      }
    },
    {
      "type": "way",
      "id": 1203069043,
      "center": {
        "lat": 12.9540366,
        "lon": 77.571841
      },
      "tags": {
        "access": "customers",
        "amenity": "parking",
        "parking": "surface"
      }
    },
    {
      "type": "way",
      "id": 1203069046,
      "center": {
        "lat": 12.9447456,
        "lon": 77.5631118
      },
      "tags": {
        "amenity": "place_of_worship",
        "name": "Rama Anjaneya temple",
        "name:kn": "ರಾಮ ಅಂಜನೇಯ ದೇವಸ್ಥಾನ",
        "religion": "hindu",
        "wheelchair": "no"
      }
    },
    {
      "type": "way",
      "id": 1203069048,
      "center": {
        "lat": 12.9454574,
        "lon": 77.5648934
      },
      "tags": {
        "leisure": "park"
      }
    },
    {
      "type": "way",
      "id": 1203069049,
      "center": {
        "lat": 12.9449712,
        "lon": 77.5666634
      },
      "tags": {
        "amenity": "school"
      }
    },
    {
      "type": "way",
      "id": 1203069061,
      "center": {
        "lat": 12.9501669,
        "lon": 77.5659287
      },
      "tags": {
        "leisure": "park"
      }
    },
    {
      "type": "way",
      "id": 1203069063,
      "center": {
        "lat": 12.9502148,
        "lon": 77.5654296
      },
      "tags": {
        "leisure": "pitch",
        "sport": "tennis"
      }
    },
    {
      "type": "way",
      "id": 1206037819,
      "center": {
        "lat": 12.953579,
        "lon": 77.5672418
      },
      "tags": {
        "amenity": "fuel",
        "brand": "Shell",
        "brand:wikidata": "Q110716465",
        "fuel:diesel": "yes",
        "landuse": "commercial",
        "name": "Shell",
        "name:kn": "ಶೆಲ್",
        "wheelchair": "limited"
      }
    },
    {
      "type": "way",
      "id": 1206377083,
      "center": {
        "lat": 12.9439927,
        "lon": 77.5745175
      },
      "tags": {
        "amenity": "school",
        "name": "Sri Chaitanya Techno School"
      }
    },
    {
      "type": "way",
      "id": 1206377096,
      "center": {
        "lat": 12.9438567,
        "lon": 77.5740961
      },
      "tags": {
        "leisure": "swimming_pool",
        "sport": "swimming"
      }
    },
    {
      "type": "way",
      "id": 1206377098,
      "center": {
        "lat": 12.9441051,
        "lon": 77.5761955
      },
      "tags": {
        "amenity": "events_venue",
        "barrier": "wall",
        "name": "Indian Institute of World Culture",
        "website": "https://iiwc.in/",
        "wikidata": "Q7741861"
      }
    },
    {
      "type": "way",
      "id": 1206377099,
      "center": {
        "lat": 12.9440353,
        "lon": 77.5760668
      },
      "tags": {
        "amenity": "events_venue",
        "building": "yes",
        "name": "Wadia Hall"
      }
    },
    {
      "type": "way",
      "id": 1206377100,
      "center": {
        "lat": 12.9440279,
        "lon": 77.5762
      },
      "tags": {
        "amenity": "arts_centre",
        "building": "yes",
        "name": "Arts Gallery"
      }
    },
    {
      "type": "way",
      "id": 1206697239,
      "center": {
        "lat": 12.9473285,
        "lon": 77.5698824
      },
      "tags": {
        "amenity": "school"
      }
    },
    {
      "type": "way",
      "id": 1210572427,
      "center": {
        "lat": 12.9433231,
        "lon": 77.5674959
      },
      "tags": {
        "amenity": "school",
        "name": "NET School"
      }
    },
    {
      "type": "way",
      "id": 1210572433,
      "center": {
        "lat": 12.9441556,
        "lon": 77.567633
      },
      "tags": {
        "leisure": "park"
      }
    },
    {
      "type": "way",
      "id": 1210592626,
      "center": {
        "lat": 12.9473878,
        "lon": 77.5797003
      },
      "tags": {
        "amenity": "fuel",
        "brand": "Gail Gas",
        "fuel:cng": "yes",
        "self_service": "no"
      }
    },
    {
      "type": "way",
      "id": 1272455789,
      "center": {
        "lat": 12.942394,
        "lon": 77.5772006
      },
      "tags": {
        "amenity": "school",
        "name": "The Kenmore English School"
      }
    },
    {
      "type": "way",
      "id": 1294956169,
      "center": {
        "lat": 12.947928,
        "lon": 77.5694366
      },
      "tags": {
        "amenity": "parking",
        "parking": "surface"
      }
    },
    {
      "type": "way",
      "id": 1307949928,
      "center": {
        "lat": 12.9538911,
        "lon": 77.5711462
      },
      "tags": {
        "addr:district": "Bengaluru Urban",
        "addr:full": "1st Cross, Shankarapuram, Basavanagudi",
        "addr:postcode": "560004",
        "addr:state": "Karnataka",
        "addr:street": "DV Gundappa Road",
        "amenity": "hospital",
        "emergency": "yes",
        "healthcare": "hospital",
        "name": "Rangadore Memorial Hospital",
        "source": "OpenGovernmentData",
        "wheelchair": "yes"
      }
    },
    {
      "type": "way",
      "id": 1307949932,
      "center": {
        "lat": 12.9482335,
        "lon": 77.5630041
      },
      "tags": {
        "alt_name": "Gavi Gangadhareshwara Temple",
        "amenity": "place_of_worship",
        "building": "yes",
        "denomination": "shaivism",
        "heritage": "2",
        "heritage:operator": "nmma",
        "heritage:website": "https://nmma.nic.in/nmma/exploreBuiltState.do?state=29",
        "loc_name": "Sri Gangaadhareshwara",
        "name": "Sri Gavigangadhareshwara Swamy Temple",
        "name:en": "Sri Gavigangadhareshwara Swamy Temple",
        "old_name": "Gavipura Cave Temple",
        "opening_hours": "Mo-Su 07:00-12:30, 17:00-20:30",
        "ref:nmma": "KR20010666",
        "religion": "hindu",
        "wheelchair": "no",
        "wikidata": "Q5528052",
        "wikipedia": "en:Gavi Gangadhareshwara Temple"
      }
    },
    {
      "type": "way",
      "id": 1330344687,
      "center": {
        "lat": 12.9421865,
        "lon": 77.5743328
      },
      "tags": {
        "amenity": "police",
        "name": "Basavangudi Police Station",
        "name:kn": "ಬಸವನಗುಡಿ ಪೋಲಿಸ್ ಠಾಣೆ"
      }
    },
    {
      "type": "way",
      "id": 1330344689,
      "center": {
        "lat": 12.940149,
        "lon": 77.574169
      },
      "tags": {
        "leisure": "sports_centre",
        "name": "Maracana Sports Arena"
      }
    },
    {
      "type": "way",
      "id": 1330344691,
      "center": {
        "lat": 12.9399296,
        "lon": 77.5736937
      },
      "tags": {
        "leisure": "park"
      }
    },
    {
      "type": "way",
      "id": 1348696306,
      "center": {
        "lat": 12.9488812,
        "lon": 77.5614482
      },
      "tags": {
        "amenity": "place_of_worship",
        "name": "Shri Jalakanteswara Swamy Devasthana",
        "religion": "hindu"
      }
    },
    {
      "type": "way",
      "id": 1350600840,
      "center": {
        "lat": 12.9445131,
        "lon": 77.5725626
      },
      "tags": {
        "amenity": "motorcycle_parking",
        "fee": "no",
        "parking": "street_side"
      }
    },
    {
      "type": "way",
      "id": 1449723980,
      "center": {
        "lat": 12.9430877,
        "lon": 77.5779505
      },
      "tags": {
        "amenity": "place_of_worship",
        "denomination": "anglican",
        "landuse": "religious",
        "name": "Christ Church",
        "religion": "christian"
      }
    }
  ]
}