{
  "area_name": "Gandhinagar",
  "osm_id": 429697299,
  "osm_type": "node",
  "place_type": "suburb",
  "amenity_count": 623,
  "amenities": [
    {
      "type": "node",
      "id": 314700175,
      "lat": 12.9766603,
      "lon": 77.5714978,
      "tags": {
        "amenity": "toilets",
        "fee": "yes",
        "wheelchair": "no"
      }
    },
    {
      "type": "node",
      "id": 314705276,
      "lat": 12.9741824,
      "lon": 77.5753745,
      "tags": {
        "amenity": "restaurant",
        "name": "Sukh Sagar",
        "name:kn": "ಸುಖ್ ಸಾಗರ"
      }
    },
    {
      "type": "node",
      "id": 428851695,
      "lat": 12.9778231,
      "lon": 77.572453,
      "tags": {
        "amenity": "toilets",
        "wheelchair": "no"
      }
    },
    {
      "type": "node",
      "id": 428851697,
      "lat": 12.9778503,
      "lon": 77.5722059,
      "tags": {
        "amenity": "restaurant",
        "cuisine": "South_Indian",
        "level": "0",
        "name": "Sri Raghavendra",
        "name:kn": "ಶ್ರೀ ರಾಘವೇಂದ್ರ"
      }
    },
    {
      "type": "node",
      "id": 428851702,
      "lat": 12.977709,
      "lon": 77.5722837,
      "tags": {
        "amenity": "atm",
        "brand": "Canara Bank",
        "brand:en": "Canara Bank",
        "brand:hi": "केनरा बैंक",
        "brand:kn": "ಕೆನರಾ ಬ್ಯಾಂಕ್",
        "brand:pa": "ਕੇਨਰਾ ਬੈਂਕ",
        "brand:pnb": "کینرا بینک",
        "brand:ur": "کینرا بینک",
        "brand:wikidata": "Q2003777",
        "brand:wikipedia": "en:Canara Bank",
        "brand:wikipedia:pa": "ਕੇਨਰਾ ਬੈਂਕ",
        "name": "Canara Bank",
        "name:en": "Canara Bank",
        "name:hi": "केनरा बैंक",
        "name:kn": "ಕೆನರಾ ಬ್ಯಾಂಕ್",
        "name:pa": "ਕੇਨਰਾ ਬੈਂਕ",
        "name:pnb": "کینرا بینک",
        "name:ur": "کینرا بینک",
        "operator": "Canara Bank",
        "operator:wikidata": "Q2003777"
      }
    },
    {
      "type": "node",
      "id": 429697569,
      "lat": 12.9760075,
      "lon": 77.5763577,
      "tags": {
        "amenity": "restaurant",
        "name": "Anand Sagar Punjabi Dhaba",
        "name:kn": "ಆನಂದ್ ಸಾಗರ್ ಪಂಜಾಬಿ ಡಾಬಾ"
      }
    },
    {
      "type": "node",
      "id": 429698093,
      "lat": 12.9766767,
      "lon": 77.5766838,
      "tags": {
        "amenity": "theatre",
        "name": "Gubbi Veerana Nataka",
        "name:kn": "ಗುಬ್ಬಿ ವೀರಣ್ಣ ನಾಟಕ"
      }
    },
    {
      "type": "node",
      "id": 456214138,
      "lat": 12.9730205,
      "lon": 77.5804826,
      "tags": {
        "amenity": "bank",
        "atm": "yes",
        "brand": "State Bank of India",
        "brand:wikidata": "Q1340361",
        "brand:wikipedia": "en:State Bank of India",
        "name": "State Bank of India",
        "name:kn": "ಎಸ್ ಬಿ ಐ",
        "short_name": "SBI"
      }
    },
    {
      "type": "node",
      "id": 456214157,
      "lat": 12.9738444,
      "lon": 77.578582,
      "tags": {
        "addr:street": "Kempe Gowda Road",
        "amenity": "bank",
        "atm": "yes",
        "brand": "Bank of India",
        "brand:wikidata": "Q2004439",
        "brand:wikipedia": "en:Bank of India",
        "name": "Bank of India",
        "name:en": "Bank of India",
        "short_name": "BoI",
        "website": "http://www.bankofindia.co.in"
      }
    },
    {
      "type": "node",
      "id": 456214158,
      "lat": 12.973729,
      "lon": 77.578957,
      "tags": {
        "addr:street": "Kempe Gowda Road",
        "amenity": "bank",
        "atm": "yes",
        "brand": "Indian Bank",
        "brand:wikidata": "Q2003789",
        "brand:wikipedia": "en:Indian Bank",
        "name": "Indian Bank",
        "name:en": "Indian Bank",
        "name:kn": "ಇಂಡಿಯನ್ ಬ್ಯಾಂಕ್",
        "website": "https://www.indianbank.in/"
      }
    },
    {
      "type": "node",
      "id": 456214161,
      "lat": 12.9735992,
      "lon": 77.5803131,
      "tags": {
        "name": "Kids Kemp",
        "shop": "clothes"
      }
    },
    {
      "type": "node",
      "id": 663313909,
      "lat": 12.9767317,
      "lon": 77.5891659,
      "tags": {
        "amenity": "fast_food"
      }
    },
    {
      "type": "node",
      "id": 663564854,
      "lat": 12.9752515,
      "lon": 77.5886667,
      "tags": {
        "amenity": "fast_food",
        "cuisine": "fish",
        "name": "Mathsyadarshini (Fish Canteen)"
      }
    },
    {
      "type": "node",
      "id": 663599410,
      "lat": 12.9723026,
      "lon": 77.5863596,
      "tags": {
        "amenity": "bank",
        "brand": "Corporation Bank",
        "brand:wikidata": "Q2003387",
        "brand:wikipedia": "en:Corporation Bank",
        "name": "Corporation Bank",
        "name:en": "Corporation Bank",
        "name:kn": "ಕಾರ್ಪರೇಷನ್ ಬ್ಯಾಂಕ್",
        "website": "https://corpbank.com/"
      }
    },
    {
      "type": "node",
      "id": 663599423,
      "lat": 12.9725456,
      "lon": 77.5862547,
      "tags": {
        "addr:street": "Nrupathunga Road",
        "amenity": "theatre",
        "name": "Daly Memorial Hall"
      }
    },
    {
      "type": "node",
      "id": 665045222,
      "lat": 12.9758502,
      "lon": 77.5891031,
      "tags": {
        "amenity": "restaurant",
        "name": "Parkview Hotel",
        "name:kn": "ಪಾರ್ಕ್‌ವೀವ್ ಹೋಟೆಲ್"
      }
    },
    {
      "type": "node",
      "id": 665871269,
      "lat": 12.9697027,
      "lon": 77.5796625,
      "tags": {
        "amenity": "cafe",
        "name": "Cane Crush"
      }
    },
    {
      "type": "node",
      "id": 665871271,
      "lat": 12.9732382,
      "lon": 77.5778493,
      "tags": {
        "amenity": "toilets",
        "check_date": "2023-02-27",
        "fee": "yes",
        "level": "0"
      }
    },
    {
      "type": "node",
      "id": 665871272,
      "lat": 12.9742892,
      "lon": 77.5778952,
      "tags": {
        "addr:street": "Kempe Gowda Road",
        "amenity": "cafe",
        "name": "Sri Vinayaka Juice & Chats Center"
      }
    },
    {
      "type": "node",
      "id": 665871273,
      "lat": 12.9703805,
      "lon": 77.5800395,
      "tags": {
        "amenity": "restaurant",
        "cuisine": "indian",
        "name": "Hotel Madhuvan",
        "name:kn": "ಮಧುವನ"
      }
    },
    {
      "type": "node",
      "id": 665871274,
      "lat": 12.9722509,
      "lon": 77.5802138,
      "tags": {
        "amenity": "toilets",
        "fee": "yes"
      }
    },
    {
      "type": "node",
      "id": 665871277,
      "lat": 12.9733292,
      "lon": 77.5824593,
      "tags": {
        "amenity": "atm",
        "brand": "State Bank of India",
        "brand:wikidata": "Q1340361",
        "name": "State Bank of India",
        "operator": "State Bank of India",
        "operator:wikidata": "Q1340361",
        "short_name": "SBI"
      }
    },
    {
      "type": "node",
      "id": 673377213,
      "lat": 12.9853914,
      "lon": 77.5795059,
      "tags": {
        "amenity": "restaurant",
        "cuisine": "indian",
        "name": "Sana Di Ge",
        "name:kn": "ಸನ ದಿ ಗೆ"
      }
    },
    {
      "type": "node",
      "id": 677286826,
      "lat": 12.9736525,
      "lon": 77.5801953,
      "tags": {
        "addr:street": "Kempe Gowda Road",
        "amenity": "cafe",
        "name": "Coffee Day",
        "name:kn": "ಕಫೆ ಕಾಫಿ ಡೇ"
      }
    },
    {
      "type": "node",
      "id": 677286827,
      "lat": 12.9756686,
      "lon": 77.5749645,
      "tags": {
        "addr:street": "Dhanvanthari Road",
        "amenity": "fast_food",
        "name": "Chicken County",
        "wheelchair": "no"
      }
    },
    {
      "type": "node",
      "id": 683352691,
      "lat": 12.9709419,
      "lon": 77.5735425,
      "tags": {
        "amenity": "place_of_worship",
        "name": "Sri Kailaseshwara Temple",
        "name:kn": "ಶ್ರೀ ಕೈಲಾಸೇಶ್ವರ ದೇವಸ್ಥಾನ",
        "religion": "hindu"
      }
    },
    {
      "type": "node",
      "id": 683352694,
      "lat": 12.9734503,
      "lon": 77.5751186,
      "tags": {
        "addr:street": "Balepet Road",
        "amenity": "cafe",
        "name": "Fresh Cane"
      }
    },
    {
      "type": "node",
      "id": 1006462338,
      "lat": 12.985247,
      "lon": 77.5803846,
      "tags": {
        "addr:city": "Bangalore",
        "addr:housenumber": "31/32",
        "addr:postcode": "560001",
        "addr:street": "Crescent Rd,Nehru Nagar,Gandhi Nagar",
        "amenity": "hospital",
        "name": "Mallige Medical Centre",
        "phone": "080 2220 3333",
        "website": "https://www.mallige.com/"
      }
    },
    {
      "type": "node",
      "id": 1053320347,
      "lat": 12.9753224,
      "lon": 77.5758147,
      "tags": {
        "amenity": "place_of_worship",
        "name": "Ganesha Temple",
        "name:kn": "ಗಣೇಶ ದೇವಸ್ಥಾನ",
        "religion": "hindu"
      }
    },
    {
      "type": "node",
      "id": 1101598769,
      "lat": 12.9809052,
      "lon": 77.5754392,
      "tags": {
        "addr:street": "Sheshadri Road",
        "amenity": "bank",
        "atm": "yes",
        "brand": "Axis Bank",
        "brand:wikidata": "Q2003549",
        "brand:wikipedia": "en:Axis Bank",
        "name": "Axis Bank",
        "name:en": "Axis Bank",
        "name:kn": "ಆಕ್ಸಿಸ್ ಬ್ಯಾಂಕ್",
        "website": "https://www.axisbank.com"
      }
    },
    {
      "type": "node",
      "id": 1101607728,
      "lat": 12.9856254,
      "lon": 77.5788885,
      "tags": {
        "addr:street": "Kumara Krupa Road",
        "amenity": "restaurant",
        "check_date": "2024-12-22",
        "name": "Hotel Janardhana",
        "name:kn": "ಜನಾರ್ಧನ್"
      }
    },
    {
      "type": "node",
      "id": 1116484556,
      "lat": 12.9853569,
      "lon": 77.5792692,
      "tags": {
        "addr:housenumber": "32/3",
        "addr:street": "Crescent Road",
        "amenity": "restaurant",
        "cuisine": "indian",
        "fax": "+91-80-41138488",
        "name": "Kabab Studio",
        "name:kn": "ಕಬಾಬ್ ಸ್ಟುಡಿಯೊ",
        "phone": "+91-80-41291300",
        "website": "https://www.goldfinchhotels.com/"
      }
    },
    {
      "type": "node",
      "id": 1121253486,
      "lat": 12.9834716,
      "lon": 77.5856742,
      "tags": {
        "branch": "Showroom",
        "brand": "Nike",
        "brand:wikidata": "Q483915",
        "name": "Nike",
        "shop": "clothes"
      }
    },
    {
      "type": "node",
      "id": 1457578295,
      "lat": 12.9733973,
      "lon": 77.5781068,
      "tags": {
        "access": "yes",
        "amenity": "parking",
        "capacity": "350",
        "fee": "yes",
        "level": "2,3,4",
        "name": "Maharaja Complex Multi Storey Parking",
        "operator": "BBMP",
        "parking": "multi-storey"
      }
    },
    {
      "type": "node",
      "id": 1457669462,
      "lat": 12.9766211,
      "lon": 77.5725503,
      "tags": {
        "amenity": "restaurant",
        "cuisine": "regional",
        "name": "Swathi Deluxe",
        "name:kn": "ಸ್ವಾತಿ ಡಿಲಕ್ಸ್"
      }
    },
    {
      "type": "node",
      "id": 1560168982,
      "lat": 12.9802384,
      "lon": 77.5725469,
      "tags": {
        "amenity": "toilets"
      }
    },
    {
      "type": "node",
      "id": 1636730975,
      "lat": 12.9781823,
      "lon": 77.5797234,
      "tags": {
        "addr:city": "Beṅgaḷūru",
        "addr:neighborhood": "Gāndhinagara",
        "addr:postcode": "560009",
        "alt_name:en": "Shri Udupi",
        "amenity": "restaurant",
        "cuisine": "indian",
        "diet:vegetarian": "yes",
        "name": "Śrī Uḍupi",
        "name:en": "Uḍupi Grand",
        "name:es": "Gran Uḍupi",
        "name:kn": "ಶ್ರೀ ಉಡುಪಿ",
        "phone": "+919591875013",
        "website": "https://www.kanishkagrand.in/restaurant/"
      }
    },
    {
      "type": "node",
      "id": 1636731098,
      "lat": 12.9783655,
      "lon": 77.579598,
      "tags": {
        "amenity": "toilets",
        "check_date": "2022-07-03",
        "designation": "BBMP",
        "fee": "yes",
        "source": "survey",
        "wheelchair": "no"
      }
    },
    {
      "type": "node",
      "id": 1637588141,
      "lat": 12.9776756,
      "lon": 77.5796673,
      "tags": {
        "amenity": "community_centre",
        "name": "Terapanth Bhavan",
        "name:kn": "ತೇರಾಪಂಥ್ ಭವನ"
      }
    },
    {
      "type": "node",
      "id": 1809770675,
      "lat": 12.9800497,
      "lon": 77.5771102,
      "tags": {
        "addr:city": "Beṅgaḷūru",
        "addr:neighborhood": "Gāndhinagara",
        "addr:state": "KA",
        "alt_name:kn": "ಮುದ್ದೆ ಮಾದಪ್ಪ ಮೆಸ್",
        "alt_name:kn-Latn": "Mudde Mādappa Mes",
        "amenity": "restaurant",
        "cuisine": "indian;buffet",
        "diet:vegetarian": "yes",
        "facebook": "MuddeMadappa",
        "name": "Mādappa Mes",
        "name:en": "Mādappa Mess",
        "name:kn": "ಮಾದಪ್ಪ ಮೆಸ್",
        "name:kn-Latn": "Mādappa Mes",
        "opening_hours": "07:30-22:30",
        "phone": "+919880883801;+919844008380"
      }
    },
    {
      "type": "node",
      "id": 1809771508,
      "lat": 12.9803795,
      "lon": 77.5760204,
      "tags": {
        "amenity": "bus_station",
        "name": "SRS Bus Station",
        "operator": "SRS Travels",
        "website": "https://www.srsbooking.com/"
      }
    },
    {
      "type": "node",
      "id": 1809771510,
      "lat": 12.9803246,
      "lon": 77.5754733,
      "tags": {
        "amenity": "bus_station",
        "name": "VRL Bus Station",
        "operator": "VRL Travels",
        "website": "https://www.vrlbus.in/vrl2013/booking_home_page.aspx"
      }
    },
    {
      "type": "node",
      "id": 1809836481,
      "lat": 12.9764035,
      "lon": 77.5781564,
      "tags": {
        "name": "Sapna Book House",
        "name:kn": "ಸಪ್ನ ಬುಕ್ ಹೌಸ್",
        "shop": "books",
        "toilets:wheelchair": "no",
        "wheelchair": "no"
      }
    },
    {
      "type": "node",
      "id": 1824167359,
      "lat": 12.9738948,
      "lon": 77.5785146,
      "tags": {
        "name": "Univer Cell",
        "note": "Mobile shop",
        "shop": "electronics",
        "wheelchair": "no"
      }
    },
    {
      "type": "node",
      "id": 2014227810,
      "lat": 12.9699846,
      "lon": 77.5797207,
      "tags": {
        "amenity": "fast_food",
        "name": "Banaras Sweets"
      }
    },
    {
      "type": "node",
      "id": 2014232345,
      "lat": 12.9700251,
      "lon": 77.5799594,
      "tags": {
        "amenity": "bank",
        "atm": "yes",
        "branch": "Vysya Bank",
        "brand": "ING",
        "brand:wikidata": "Q645708",
        "name": "ING",
        "wheelchair": "no"
      }
    },
    {
      "type": "node",
      "id": 2014238900,
      "lat": 12.9732008,
      "lon": 77.5789268,
      "tags": {
        "amenity": "bank",
        "atm": "yes",
        "brand": "ICICI Bank",
        "brand:wikidata": "Q1653258",
        "name": "ICICI Bank",
        "name:en": "ICICI Bank",
        "name:kn": "ಐಸಿಐಸಿಐ ಬ್ಯಾಂಕು",
        "short_name": "ICICI",
        "website": "https://www.icicibank.com",
        "wheelchair": "no"
      }
    },
    {
      "type": "node",
      "id": 2016154125,
      "lat": 12.9707012,
      "lon": 77.5736393,
      "tags": {
        "amenity": "police",
        "name": "Chikkapete Police Station",
        "name:kn": "ಚಿಕ್ಕಪೇಟೆ ಆರಕ್ಷಕ ಠಾಣೆ"
      }
    },
    {
      "type": "node",
      "id": 2016155692,
      "lat": 12.9767275,
      "lon": 77.5774801,
      "tags": {
        "amenity": "bicycle_parking"
      }
    },
    {
      "type": "node",
      "id": 2016155696,
      "lat": 12.976555,
      "lon": 77.5774051,
      "tags": {
        "amenity": "parking"
      }
    },
    {
      "type": "node",
      "id": 2016215956,
      "lat": 12.9755654,
      "lon": 77.575714,
      "tags": {
        "brand": "Kanti Sweets",
        "name": "Kanti Sweets",
        "shop": "confectionery"
      }
    },
    {
      "type": "node",
      "id": 2016216058,
      "lat": 12.9755706,
      "lon": 77.5758596,
      "tags": {
        "amenity": "bicycle_parking"
      }
    },
    {
      "type": "node",
      "id": 2097550322,
      "lat": 12.9788091,
      "lon": 77.5750078,
      "tags": {
        "amenity": "restaurant",
        "check_date": "2024-02-29",
        "name": "Rajadhani restaurant"
      }
    },
    {
      "type": "node",
      "id": 2261284950,
      "lat": 12.9758817,
      "lon": 77.5786471,
      "tags": {
        "amenity": "restaurant",
        "name": "Kamat Yatrinivas",
        "wheelchair": "no"
      }
    },
    {
      "type": "node",
      "id": 2334547032,
      "lat": 12.97828,
      "lon": 77.5772272,
      "tags": {
        "amenity": "toilets",
        "check_date": "2022-07-03",
        "source": "survey"
      }
    },
    {
      "type": "node",
      "id": 2334547033,
      "lat": 12.9785367,
      "lon": 77.5783186,
      "tags": {
        "amenity": "toilets",
        "source": "survey",
        "wheelchair": "no"
      }
    },
    {
      "type": "node",
      "id": 2466476118,
      "lat": 12.9765112,
      "lon": 77.5799146,
      "tags": {
        "amenity": "fuel",
        "brand": "Bharat Petroleum",
        "brand:wikidata": "Q854826",
        "check_date": "2024-03-02",
        "compressed_air": "yes",
        "name": "Bharat Petroleum",
        "operator": "Chanders"
      }
    },
    {
      "type": "node",
      "id": 2513569161,
      "lat": 12.9800713,
      "lon": 77.5746161,
      "tags": {
        "addr:city": "Gandhi Nagar, Bangalore",
        "addr:housename": "Ground Floor, Brigade Plaza",
        "addr:street": "Sheshadri Road",
        "check_date": "2024-02-29",
        "name": "Foto Circle",
        "shop": "photo"
      }
    },
    {
      "type": "node",
      "id": 2513569162,
      "lat": 12.9787644,
      "lon": 77.5750024,
      "tags": {
        "addr:city": "Gandhi Nagar, Bangalore",
        "addr:housename": "Rajadhani Restaurant",
        "addr:street": "Subedar Chatram Road",
        "amenity": "pub",
        "check_date": "2024-02-29",
        "name": "Rajadhani Pub"
      }
    },
    {
      "type": "node",
      "id": 2513569163,
      "lat": 12.9787148,
      "lon": 77.5743399,
      "tags": {
        "addr:city": "Gandhi Nagar, Bangalore",
        "addr:street": "4th Cross",
        "amenity": "bar",
        "name": "Skipper Bar & REstaurant"
      }
    },
    {
      "type": "node",
      "id": 2513569164,
      "lat": 12.978788,
      "lon": 77.5748548,
      "tags": {
        "addr:city": "Gandhi Nagar, Bangalore",
        "addr:street": "4th Cross",
        "name": "Unique Saloon",
        "shop": "hairdresser"
      }
    },
    {
      "type": "node",
      "id": 2513569165,
      "lat": 12.9787017,
      "lon": 77.5742352,
      "tags": {
        "addr:city": "Beṅgaḷūru",
        "addr:neighborhood": "Gāndhinagara",
        "addr:street": "4th Cross",
        "amenity": "restaurant",
        "cuisine": "indian",
        "diet:vegetarian": "yes",
        "name": "Gandharva Upahāra",
        "name:en": "Gandharva Upahar",
        "name:hi": "गन्धर्व उपहार",
        "name:hi-Latn": "Gandharv Upahār",
        "name:kn": "ಗಂಧರ್ವ ಉಪಹಾರ",
        "name:kn-Latn": "Gandharva Upahāra",
        "name:ur": "گندھرو اپہار",
        "name:ur-Latn": "Gandharv Upahār",
        "opening_hours": "08:00-21:00"
      }
    },
    {
      "type": "node",
      "id": 2513569168,
      "lat": 12.9786625,
      "lon": 77.5739751,
      "tags": {
        "addr:city": "Gandhi Nagar, Bangalore",
        "addr:street": "4th Cross",
        "amenity": "bar",
        "name": "Durga Bar & Restaurant"
      }
    },
    {
      "type": "node",
      "id": 2513569169,
      "lat": 12.9785893,
      "lon": 77.5736371,
      "tags": {
        "addr:city": "Gandhi Nagar, Bangalore",
        "addr:street": "4th Cross",
        "amenity": "pharmacy",
        "healthcare": "pharmacy",
        "name": "Vaidya Ratnam Ayurvedic Center"
      }
    },
    {
      "type": "node",
      "id": 2537637890,
      "lat": 12.9797671,
      "lon": 77.5858092,
      "tags": {
        "amenity": "college",
        "name": "CMS"
      }
    },
    {
      "type": "node",
      "id": 3198616661,
      "lat": 12.98415,
      "lon": 77.5781517,
      "tags": {
        "amenity": "restaurant",
        "cuisine": "regional",
        "name": "Hotel Sanman"
      }
    },
    {
      "type": "node",
      "id": 3253222915,
      "lat": 12.9779382,
      "lon": 77.5741286,
      "tags": {
        "name": "National Travels",
        "shop": "travel_agency"
      }
    },
    {
      "type": "node",
      "id": 3761248698,
      "lat": 12.9773726,
      "lon": 77.5884362,
      "tags": {
        "amenity": "police",
        "level": "-1",
        "name": "Vidhana Soudha Police Station",
        "name:kn": "ವಿಧಾನ ಸೌಧ ಆರಕ್ಷಕ ಠಾಣೆ"
      }
    },
    {
      "type": "node",
      "id": 3761261084,
      "lat": 12.9769309,
      "lon": 77.5885998,
      "tags": {
        "amenity": "post_office",
        "name": "India Post",
        "name:kn": "ಅಂಚೆ ಕಛೇರಿ",
        "operator": "India Post",
        "operator:wikidata": "Q3519720"
      }
    },
    {
      "type": "node",
      "id": 3761261085,
      "lat": 12.9775007,
      "lon": 77.5883584,
      "tags": {
        "amenity": "bank",
        "atm": "yes",
        "brand": "Syndicate Bank",
        "brand:wikidata": "Q2004088",
        "level": "-1",
        "name": "Syndicate Bank",
        "name:en": "Syndicate Bank",
        "name:kn": "ಸಿಂಡಿಕೇಟ್ ಬ್ಯಾಂಕ್",
        "website": "https://www.syndicatebank.in"
      }
    },
    {
      "type": "node",
      "id": 3761264983,
      "lat": 12.9775686,
      "lon": 77.5880097,
      "tags": {
        "amenity": "place_of_worship",
        "level": "0",
        "name": "Sri Ramanjaneyaswamy Temple",
        "name:kn": "ಶ್ರೀ ರಾಮಾಂಜನೇಯಸ್ವಾಮಿ ದೇವಸ್ಥಾನ",
        "religion": "hindu"
      }
    },
    {
      "type": "node",
      "id": 3761265943,
      "lat": 12.9782832,
      "lon": 77.5879912,
      "tags": {
        "amenity": "bank",
        "brand": "State Bank of India",
        "brand:wikidata": "Q1340361",
        "brand:wikipedia": "en:State Bank of India",
        "name": "State Bank of India",
        "name:kn": "ಸ್ಟೇಟ್ ಬ್ಯಾಂಕ್ ಆಫ್ ಮೈಸೂರು",
        "short_name": "SBI",
        "website": "https://www.sbi.co.in"
      }
    },
    {
      "type": "node",
      "id": 3800281856,
      "lat": 12.9735894,
      "lon": 77.5783998,
      "tags": {
        "amenity": "restaurant",
        "name": "Shanti Sagar",
        "name:en": "New Shanthi Sagar",
        "name:kn": "ಶಾಂತಿ ಸಾಗರ್"
      }
    },
    {
      "type": "node",
      "id": 3820189380,
      "lat": 12.9784277,
      "lon": 77.572322,
      "tags": {
        "amenity": "toilets",
        "level": "0"
      }
    },
    {
      "type": "node",
      "id": 3872372431,
      "lat": 12.9832602,
      "lon": 77.5859672,
      "tags": {
        "addr:city": "Bengaluru",
        "addr:housenumber": "49, Khanija Bhavan, 3rd Floor, East Wing",
        "addr:postcode": "560001",
        "addr:street": "Race Course Road",
        "amenity": "courthouse",
        "name": "Arbitration Center Bengaluru",
        "operator": "Karnatak Judiciary",
        "phone": "22954571,22954572, 22954573",
        "website": "https://arbitrationcentreblr.org/home.php"
      }
    },
    {
      "type": "node",
      "id": 3872737461,
      "lat": 12.9759239,
      "lon": 77.5749981,
      "tags": {
        "amenity": "restaurant",
        "diet:vegetarian": "yes",
        "name": "R. P. Kamat's"
      }
    },
    {
      "type": "node",
      "id": 3872737462,
      "lat": 12.9766765,
      "lon": 77.5777178,
      "tags": {
        "amenity": "restaurant",
        "diet:vegetarian": "yes",
        "name": "Sukh Sagar",
        "name:kn": "ಸುಖ್ ಸಾಗರ"
      }
    },
    {
      "type": "node",
      "id": 3943325827,
      "lat": 12.9738713,
      "lon": 77.5866851,
      "tags": {
        "amenity": "shelter",
        "bench": "yes",
        "covered": "yes",
        "shelter": "yes",
        "shelter_type": "public_transport"
      }
    },
    {
      "type": "node",
      "id": 4177732308,
      "lat": 12.9772383,
      "lon": 77.5752995,
      "tags": {
        "amenity": "atm",
        "brand": "Karnataka Bank",
        "brand:wikidata": "Q2042632",
        "name": "Karnataka Bank",
        "name:kn": "ಕರ್ನಾಟಕ ಬ್ಯಾಂಕ್",
        "operator": "Karnataka Bank",
        "operator:wikidata": "Q2042632"
      }
    },
    {
      "type": "node",
      "id": 4177732309,
      "lat": 12.9773643,
      "lon": 77.5747535,
      "tags": {
        "amenity": "atm",
        "brand": "Kotak Mahindra Bank",
        "brand:wikidata": "Q2040404",
        "name": "Kotak Mahindra Bank",
        "name:kn": "ಕೋಟಕ್ ಮಹಿಂದ್ರ ಬ್ಯಾಂಕ್",
        "operator": "Kotak Mahindra Bank",
        "operator:wikidata": "Q2040404"
      }
    },
    {
      "type": "node",
      "id": 4308219737,
      "lat": 12.9740596,
      "lon": 77.5793767,
      "tags": {
        "name": "Navakarnataka",
        "shop": "books"
      }
    },
    {
      "type": "node",
      "id": 4308219751,
      "lat": 12.9740049,
      "lon": 77.5794628,
      "tags": {
        "amenity": "bank",
        "atm": "yes",
        "brand": "CSB Bank",
        "brand:wikidata": "Q5053244",
        "check_date": "2023-02-11",
        "name": "CSB Bank",
        "official_name": "Catholic Syrian Bank",
        "operator": "CSB"
      }
    },
    {
      "type": "node",
      "id": 4308220071,
      "lat": 12.9740685,
      "lon": 77.5792924,
      "tags": {
        "amenity": "bank",
        "atm": "yes",
        "brand": "Bank of Baroda",
        "brand:wikidata": "Q2003797",
        "name": "Bank of Baroda",
        "name:kn": "ವಿಜಯ ಬ್ಯಾಂಕು"
      }
    },
    {
      "type": "node",
      "id": 4337898954,
      "lat": 12.9735721,
      "lon": 77.5803838,
      "tags": {
        "addr:street": "Kempegowda road",
        "amenity": "post_office",
        "name": "Kempegowda Road",
        "name:kn": "ಕೆಂಪೆಗೌಡ ರಸ್ತೆ",
        "operator": "India Post",
        "operator:wikidata": "Q3519720"
      }
    },
    {
      "type": "node",
      "id": 4368918389,
      "lat": 12.9729745,
      "lon": 77.5808399,
      "tags": {
        "amenity": "bank",
        "brand": "Corporation Bank",
        "brand:wikidata": "Q2003387",
        "name": "Corporation Bank",
        "name:kn": "ಕಾರ್ಪರೇಷನ್ ಬ್ಯಾಂಕ್"
      }
    },
    {
      "type": "node",
      "id": 4396260992,
      "lat": 12.9777968,
      "lon": 77.5741098,
      "tags": {
        "name": "General Travel",
        "name:en": "General Travel",
        "shop": "travel_agency"
      }
    },
    {
      "type": "node",
      "id": 4407894197,
      "lat": 12.980306,
      "lon": 77.5748003,
      "tags": {
        "name:es": "Agencia viajes",
        "shop": "travel_agency"
      }
    },
    {
      "type": "node",
      "id": 4413510290,
      "lat": 12.969833,
      "lon": 77.5775083,
      "tags": {
        "addr:city": "Bangalore",
        "addr:housenumber": "45/6",
        "addr:postcode": "500006",
        "addr:street": "6th Cross Road",
        "amenity": "cafe",
        "cuisine": "coffee_shop",
        "internet_access": "yes",
        "name": "CCD",
        "opening_hours": "09:00-06:00",
        "smoking": "no"
      }
    },
    {
      "type": "node",
      "id": 4446346449,
      "lat": 12.9705436,
      "lon": 77.5834769,
      "tags": {
        "addr:city": "Bangalore",
        "addr:housenumber": "5",
        "addr:postcode": "560001",
        "addr:street": "Nrupathunga Rd, RBI Colony, Sampangi Rama Nagar",
        "amenity": "hospital",
        "name": "St. Martha's Heart Centre",
        "phone": "+9195380 43453",
        "website": "locations.narayanahealth.org"
      }
    },
    {
      "type": "node",
      "id": 4446378097,
      "lat": 12.9781121,
      "lon": 77.5739587,
      "tags": {
        "addr:city": "Gandhi Nagar, Bangalore",
        "addr:housenumber": "15",
        "addr:postcode": "560009",
        "addr:street": "Tank Bund Rd, RK Puram, Gandhi Nagar",
        "amenity": "pharmacy",
        "healthcare": "pharmacy",
        "name": "Gururaja Pharmacy",
        "phone": "080 2235 0038"
      }
    },
    {
      "type": "node",
      "id": 4447422294,
      "lat": 12.9744833,
      "lon": 77.5748342,
      "tags": {
        "addr:city": "Bengalore",
        "addr:postcode": "560009",
        "addr:street": "Kempe Gowda Circle, Danvanthri Rd, Majestic,",
        "amenity": "police",
        "name": "Upparpet Traffic Police Station",
        "name:kn": "ಸಂಚಾರ ಪೊಲೀಸ್ ಠಾಣೆ",
        "phone": "080 2294 2665",
        "website": "NA"
      }
    },
    {
      "type": "node",
      "id": 4474511491,
      "lat": 12.971335,
      "lon": 77.5845467,
      "tags": {
        "amenity": "atm",
        "brand": "State Bank of India",
        "brand:wikidata": "Q1340361",
        "name": "State Bank of India",
        "name:kn": "ಎಸ್ ಬಿ ಐ",
        "opening_hours": "24/7",
        "operator": "State Bank of India",
        "operator:wikidata": "Q1340361",
        "short_name": "SBI"
      }
    },
    {
      "type": "node",
      "id": 4487969466,
      "lat": 12.9714473,
      "lon": 77.5757997,
      "tags": {
        "addr:city": "Bengaluru,",
        "addr:postcode": "560053",
        "addr:street": "Laxman Rao, 63, BVK Iyengar Rd, Basettypet, Huriopet, Chickpet,",
        "name": "Meenaxi Chemicals",
        "phone": "080 2225 9599",
        "shop": "yes"
      }
    },
    {
      "type": "node",
      "id": 4487996362,
      "lat": 12.9703096,
      "lon": 77.5761097,
      "tags": {
        "addr:city": "Bengaluru,",
        "addr:housenumber": "62",
        "addr:postcode": "560053",
        "addr:street": "A. M. Lane",
        "name": "Shree Sudarshan Light And Appliances",
        "phone": "(91)-9986419127",
        "shop": "electronics",
        "website": "www.smartgrahak.com"
      }
    },
    {
      "type": "node",
      "id": 4488013671,
      "lat": 12.9717632,
      "lon": 77.5730069,
      "tags": {
        "addr:city": "bangalore",
        "addr:housenumber": "386",
        "addr:postcode": "560053",
        "addr:street": "OTC Road, Balepete, Chickpet, Bengaluru, Karnataka",
        "name": "Runecha Chemicals",
        "phone": "099163 66952",
        "shop": "yes"
      }
    },
    {
      "type": "node",
      "id": 4488592383,
      "lat": 12.9719137,
      "lon": 77.5772021,
      "tags": {
        "addr:city": "Bangalore",
        "addr:housenumber": "1/2",
        "addr:postcode": "560053",
        "addr:street": "Dasappa Building, Dasappa Lane, Chikpet, Anchepet, Chickpet",
        "name": "Murthy Glass & Plywood Pvt Ltd",
        "phone": "+91 98448 11824",
        "shop": "yes",
        "website": "https://www.in.saint-gobain-glass.com/"
      }
    },
    {
      "type": "node",
      "id": 4489046040,
      "lat": 12.9719452,
      "lon": 77.5748259,
      "tags": {
        "addr:city": "Bengaluru,",
        "addr:housenumber": "98/1",
        "addr:postcode": "560053",
        "addr:street": "Laxman Rao Road, Balepet Cross, Near-Garden English School, Chickpet, Basettypet, Huriopet, Chickpet",
        "name": "Sri Devi Chemicals",
        "phone": "0802872934",
        "shop": "yes"
      }
    },
    {
      "type": "node",
      "id": 4489250989,
      "lat": 12.9757173,
      "lon": 77.5779843,
      "tags": {
        "addr:city": "Bangalore",
        "addr:postcode": "560009",
        "addr:street": "Near Tribhuvan Theatre 1st Cross, Gandhinagar, Bhadrappa Layout, Gandhi Nagar",
        "name": "Olympic Sporting Co",
        "opening_hours": "10:00-20:00",
        "phone": "+919739379681",
        "shop": "sports"
      }
    },
    {
      "type": "node",
      "id": 4489256960,
      "lat": 12.976848,
      "lon": 77.5777736,
      "tags": {
        "addr:city": "Bangalore",
        "addr:housenumber": "7",
        "addr:postcode": "560009",
        "addr:street": "Girish Complex, 2nd cross, Opp Syndicate Bank, Gandhi Nagar, Bhadrappa Layout, Gandhi Nagar",
        "name": "Jayant Probikes & Fitness",
        "opening_hours": "10:00-21:00",
        "phone": "080 4092 1589",
        "shop": "sports",
        "website": "https://www.firefoxbikes.com/"
      }
    },
    {
      "type": "node",
      "id": 4489264478,
      "lat": 12.9757283,
      "lon": 77.5787934,
      "tags": {
        "addr:city": "Bangalore",
        "addr:postcode": "560009",
        "addr:street": "Bangalore,, 2, 3rd Cross Rd, Bhadrappa Layout, Gandhi Nagar",
        "name": "Saga sports and trophies",
        "opening_hours": "10:00-21:30",
        "phone": "84317 25693",
        "shop": "sports"
      }
    },
    {
      "type": "node",
      "id": 4489265787,
      "lat": 12.9749067,
      "lon": 77.5757421,
      "tags": {
        "addr:city": "Bengalore",
        "addr:postcode": "560009",
        "addr:street": "1, Majestic Circle, Near Arya Bhavan Sweets, K G Sweets, Gandhi Nagar, Gandhi Nagar, Bhadrappa Layout, Balepete, Chickpet",
        "name": "Excel Sports",
        "opening_hours": "11:00-21:30",
        "phone": "080 2226 3090",
        "shop": "sports"
      }
    },
    {
      "type": "node",
      "id": 4489278131,
      "lat": 12.9762609,
      "lon": 77.5780859,
      "tags": {
        "addr:city": "Bangalore",
        "addr:postcode": "560009",
        "addr:street": "9, Krishna Tower, 3rd Main Road, opp Sapna Book House, Gandhinagar, Bhadrappa Layout, Gandhi Naga",
        "name": "players choice",
        "opening_hours": "10:00-21:30",
        "phone": "080 4132 9459",
        "shop": "sports",
        "website": "https://playerschoice.co.in/"
      }
    },
    {
      "type": "node",
      "id": 4562935189,
      "lat": 12.977965,
      "lon": 77.5753337,
      "tags": {
        "addr:housenumber": "14",
        "addr:street": "Opp Kapali Theatre",
        "name": "Malnad Travels",
        "name:en": "Malnad Travels",
        "shop": "electronics"
      }
    },
    {
      "type": "node",
      "id": 4580594298,
      "lat": 12.9729017,
      "lon": 77.5772949,
      "tags": {
        "name": "Idea",
        "name:en": "Idea",
        "name:kn": "ಐಡಿಯಾ",
        "shop": "mobile_phone"
      }
    },
    {
      "type": "node",
      "id": 4580594299,
      "lat": 12.9748489,
      "lon": 77.578734,
      "tags": {
        "brand": "Vodafone Idea",
        "brand:wikidata": "Q1656673",
        "name": "Vodafone Idea",
        "name:en": "Vodafone",
        "name:kn": "ವೋಡಫೋನ್",
        "shop": "mobile_phone"
      }
    },
    {
      "type": "node",
      "id": 4580594300,
      "lat": 12.9757547,
      "lon": 77.5793688,
      "tags": {
        "brand": "Airtel",
        "brand:wikidata": "Q854867",
        "name": "Airtel",
        "name:en": "Airtel shop",
        "name:kn": "ಏರ್ಟೆಲ್",
        "shop": "mobile_phone"
      }
    },
    {
      "type": "node",
      "id": 4580618191,
      "lat": 12.9761844,
      "lon": 77.5797178,
      "tags": {
        "brand": "Vodafone Idea",
        "brand:wikidata": "Q1656673",
        "name": "Vodafone Idea",
        "name:en": "Idea",
        "name:kn": "ಐಡಿಯಾ",
        "shop": "mobile_phone"
      }
    },
    {
      "type": "node",
      "id": 4580622989,
      "lat": 12.976952,
      "lon": 77.5798692,
      "tags": {
        "name": "S.R.S travels",
        "name:en": "S.R.S travels",
        "shop": "travel_agency"
      }
    },
    {
      "type": "node",
      "id": 4655054151,
      "lat": 12.9733363,
      "lon": 77.5799372,
      "tags": {
        "addr:city": "Bangalore",
        "addr:housenumber": "2",
        "addr:postcode": "560009",
        "addr:street": "Kempegowda Road",
        "amenity": "bank",
        "atm": "yes",
        "brand": "Allahabad Bank",
        "brand:wikidata": "Q2018840",
        "brand:wikipedia": "en:Allahabad Bank",
        "fax": "080-22253402",
        "name": "Allahabad Bank",
        "name:en": "Allahabad Bank",
        "name:kn": "ಅಲ್ಲಹಾಬಾದ್ ಬ್ಯಾಂಕ್",
        "phone": "080-22262064",
        "phone_1": "080-22261599",
        "website": "https://www.allahabadbank.in"
      }
    },
    {
      "type": "node",
      "id": 4763213170,
      "lat": 12.9773464,
      "lon": 77.574606,
      "tags": {
        "amenity": "toilets"
      }
    },
    {
      "type": "node",
      "id": 4799176111,
      "lat": 12.9761326,
      "lon": 77.577703,
      "tags": {
        "addr:city": "Bangalore",
        "addr:postcode": "560009",
        "addr:street": "Fifth Main Road",
        "alt_name": "A2B",
        "amenity": "restaurant",
        "brand": "Adyar Ananda Bhavan",
        "brand:wikidata": "Q15178238",
        "cuisine": "regional",
        "diet:vegetarian": "only",
        "email": "info@aabsweets.com",
        "name": "Adyar Ananda Bhavan",
        "name:kn": "ಆದ್ಯಾರ್ ಆನಂದ ಭವನ",
        "operator": "Adyar Ananda Bhavan",
        "phone": "+91 80 4151 8999",
        "shop": "confectionery",
        "smoking": "no",
        "website": "https://aabsweets.com"
      }
    },
    {
      "type": "node",
      "id": 4799194308,
      "lat": 12.9742651,
      "lon": 77.5753347,
      "tags": {
        "addr:city": "Bangalore",
        "addr:postcode": "560009",
        "addr:street": "Kempe Gowda Road",
        "alt_name": "A2B",
        "amenity": "restaurant",
        "brand": "Adyar Ananda Bhavan",
        "brand:wikidata": "Q15178238",
        "cuisine": "regional",
        "diet:vegetarian": "only",
        "email": "info@aabsweets.com",
        "name": "Adyar Ananda Bhavan",
        "name:kn": "ಆದ್ಯಾರ್ ಆನಂದ ಭವನ",
        "operator": "Adyar Ananda Bhavan",
        "phone": "+91 80 4124 2999",
        "shop": "confectionery",
        "smoking": "no",
        "website": "https://aabsweets.com"
      }
    },
    {
      "type": "node",
      "id": 4840260423,
      "lat": 12.9804024,
      "lon": 77.5739307,
      "tags": {
        "name": "Greenline Travel & Holidays",
        "name:en": "Greenline Travel & Holidays",
        "shop": "travel_agency"
      }
    },
    {
      "type": "node",
      "id": 4920189792,
      "lat": 12.9767494,
      "lon": 77.5725371,
      "tags": {
        "amenity": "toilets",
        "fee": "yes",
        "wheelchair": "limited"
      }
    },
    {
      "type": "node",
      "id": 4920190647,
      "lat": 12.9772539,
      "lon": 77.5714642,
      "tags": {
        "access": "yes",
        "amenity": "toilets",
        "fee": "yes",
        "female": "yes",
        "male": "yes"
      }
    },
    {
      "type": "node",
      "id": 4920192051,
      "lat": 12.97771,
      "lon": 77.5722474,
      "tags": {
        "amenity": "atm",
        "brand": "Karnataka Bank",
        "brand:wikidata": "Q2042632",
        "check_date": "2024-08-27",
        "name": "Karnataka Bank",
        "name:kn": "ಕರ್ನಾಟಕ ಬ್ಯಾಂಕ್",
        "operator": "Karnataka Bank",
        "operator:wikidata": "Q2042632"
      }
    },
    {
      "type": "node",
      "id": 5003288810,
      "lat": 12.9785357,
      "lon": 77.5727268,
      "tags": {
        "amenity": "toilets"
      }
    },
    {
      "type": "node",
      "id": 5225695421,
      "lat": 12.969167,
      "lon": 77.576508,
      "tags": {
        "addr:street": "Mamulpet Road",
        "clothes": "women;men;wedding;suits;fashion;children;underwear;traditional",
        "name": "Kuberan silks",
        "shop": "clothes"
      }
    },
    {
      "type": "node",
      "id": 5225695521,
      "lat": 12.9693187,
      "lon": 77.5767288,
      "tags": {
        "name": "Pradeep fashion",
        "shop": "clothes"
      }
    },
    {
      "type": "node",
      "id": 5225695621,
      "lat": 12.9694614,
      "lon": 77.5764,
      "tags": {
        "addr:street": "Mamulpet Road",
        "name": "Pradeep Fabrics",
        "shop": "clothes"
      }
    },
    {
      "type": "node",
      "id": 5229482744,
      "lat": 12.9848902,
      "lon": 77.5828907,
      "tags": {
        "amenity": "police",
        "name": "High Grounds Traffic Police Station"
      }
    },
    {
      "type": "node",
      "id": 5229482745,
      "lat": 12.9805682,
      "lon": 77.5750313,
      "tags": {
        "name": "Vijayanand Travels",
        "shop": "travel_agency"
      }
    },
    {
      "type": "node",
      "id": 5229482746,
      "lat": 12.9805736,
      "lon": 77.5750912,
      "tags": {
        "name": "S.L.V. Travels",
        "shop": "travel_agency"
      }
    },
    {
      "type": "node",
      "id": 5261451332,
      "lat": 12.9743201,
      "lon": 77.5713592,
      "tags": {
        "name": "Shantala Silks and Sarees",
        "shop": "clothes"
      }
    },
    {
      "type": "node",
      "id": 5402224026,
      "lat": 12.9841251,
      "lon": 77.5814938,
      "tags": {
        "brand": "Volvo",
        "brand:wikidata": "Q215293",
        "name": "Volvo",
        "shop": "car"
      }
    },
    {
      "type": "node",
      "id": 5402224032,
      "lat": 12.9802917,
      "lon": 77.5779251,
      "tags": {
        "amenity": "cafe",
        "brand": "Cafe Coffee Day",
        "brand:wikidata": "Q5017235",
        "cuisine": "coffee_shop",
        "name": "Cafe Coffee Day",
        "name:kn": "ಕಫೆ ಕಾಫಿ ಡೇ",
        "takeaway": "yes"
      }
    },
    {
      "type": "node",
      "id": 5434708621,
      "lat": 12.9758182,
      "lon": 77.575029,
      "tags": {
        "shop": "alcohol"
      }
    },
    {
      "type": "node",
      "id": 5435052321,
      "lat": 12.9770717,
      "lon": 77.5747115,
      "tags": {
        "shop": "alcohol"
      }
    },
    {
      "type": "node",
      "id": 5462868116,
      "lat": 12.9722318,
      "lon": 77.5787988,
      "tags": {
        "addr:housenumber": "34/35",
        "addr:street": "Kilari Road",
        "amenity": "cafe",
        "name": "South Canara Coffeehouse"
      }
    },
    {
      "type": "node",
      "id": 5617733823,
      "lat": 12.9804015,
      "lon": 77.5740705,
      "tags": {
        "name": "Despi-la Tours",
        "name:en": "Deepika Tours & Travels",
        "shop": "travel_agency"
      }
    },
    {
      "type": "node",
      "id": 5905947501,
      "lat": 12.9855047,
      "lon": 77.5792404,
      "tags": {
        "addr:city": "Bengaluru",
        "addr:housenumber": "19/2",
        "addr:postcode": "560001",
        "addr:street": "Crescent Road",
        "amenity": "restaurant",
        "check_date": "2023-02-19",
        "name": "The London Curry House",
        "opening_hours": "Mo-Su 12:00-15:00,19:00-23:00",
        "smoking": "no",
        "website": "https://thelondoncurryhousebanglore.business.site/"
      }
    },
    {
      "type": "node",
      "id": 5922608006,
      "lat": 12.9741959,
      "lon": 77.5740969,
      "tags": {
        "name": "Rajeshwari Tours & Travels",
        "shop": "travel_agency"
      }
    },
    {
      "type": "node",
      "id": 5922608007,
      "lat": 12.9741298,
      "lon": 77.574778,
      "tags": {
        "name": "Raj Tours & Travels",
        "shop": "travel_agency"
      }
    },
    {
      "type": "node",
      "id": 5922608008,
      "lat": 12.974151,
      "lon": 77.5749138,
      "tags": {
        "amenity": "restaurant",
        "name": "Majestic Bar & Restaurant"
      }
    },
    {
      "type": "node",
      "id": 5922608009,
      "lat": 12.9742065,
      "lon": 77.5751311,
      "tags": {
        "name": "Rajdeep Toys & Sports",
        "shop": "toys"
      }
    },
    {
      "type": "node",
      "id": 5922608010,
      "lat": 12.9742197,
      "lon": 77.5751935,
      "tags": {
        "name": "Sainath Office Needs",
        "shop": "stationery"
      }
    },
    {
      "type": "node",
      "id": 5922608012,
      "lat": 12.9740325,
      "lon": 77.5755128,
      "tags": {
        "amenity": "bank",
        "atm": "yes",
        "brand": "Kotak Mahindra Bank",
        "brand:wikidata": "Q2040404",
        "name": "Kotak Mahindra Bank",
        "name:kn": "ಕೋಟಕ್ ಮಹಿಂದ್ರ ಬ್ಯಾಂಕ್"
      }
    },
    {
      "type": "node",
      "id": 5922608013,
      "lat": 12.9747988,
      "lon": 77.5756766,
      "tags": {
        "amenity": "ice_cream",
        "name": "Mantap Ice Cream"
      }
    },
    {
      "type": "node",
      "id": 5922608014,
      "lat": 12.97484,
      "lon": 77.5756916,
      "tags": {
        "name": "Aboo Belt Centre",
        "note": "Wholesale Dealers in Belts and Wallets",
        "shop": "yes"
      }
    },
    {
      "type": "node",
      "id": 5922608015,
      "lat": 12.974868,
      "lon": 77.5757053,
      "tags": {
        "name": "Ranjit Opticals",
        "shop": "yes"
      }
    },
    {
      "type": "node",
      "id": 5922608016,
      "lat": 12.9749265,
      "lon": 77.5757831,
      "tags": {
        "name": "Majestic Fancy Centre",
        "shop": "perfumery"
      }
    },
    {
      "type": "node",
      "id": 5922608017,
      "lat": 12.9749451,
      "lon": 77.5758199,
      "tags": {
        "name": "Monissh Novelities",
        "shop": "stationery"
      }
    },
    {
      "type": "node",
      "id": 5922608018,
      "lat": 12.9749651,
      "lon": 77.5758691,
      "tags": {
        "name": "Kisan Footwear",
        "shop": "shoes"
      }
    },
    {
      "type": "node",
      "id": 5922608019,
      "lat": 12.9749824,
      "lon": 77.5759046,
      "tags": {
        "name": "Cothas Coffee",
        "shop": "coffee"
      }
    },
    {
      "type": "node",
      "id": 5922608020,
      "lat": 12.9750063,
      "lon": 77.5759565,
      "tags": {
        "name": "Arya Bhavan Sweets",
        "shop": "confectionery"
      }
    },
    {
      "type": "node",
      "id": 5922608021,
      "lat": 12.9750223,
      "lon": 77.5759988,
      "tags": {
        "name": "V.I.P",
        "shop": "bag"
      }
    },
    {
      "type": "node",
      "id": 5922608022,
      "lat": 12.9750422,
      "lon": 77.5760425,
      "tags": {
        "name": "Badsha Stores",
        "shop": "clothes"
      }
    },
    {
      "type": "node",
      "id": 5922608023,
      "lat": 12.9750569,
      "lon": 77.5761025,
      "tags": {
        "name": "Galaxy",
        "shop": "clothes"
      }
    },
    {
      "type": "node",
      "id": 5922608024,
      "lat": 12.9750489,
      "lon": 77.5761449,
      "tags": {
        "amenity": "bank",
        "atm": "yes",
        "brand": "Central Bank of India",
        "brand:wikidata": "Q2007090",
        "name": "Central Bank of India"
      }
    },
    {
      "type": "node",
      "id": 5964545002,
      "lat": 12.9755945,
      "lon": 77.5752997,
      "tags": {
        "amenity": "atm",
        "brand": "State Bank of India",
        "brand:wikidata": "Q1340361",
        "check_date": "2024-12-14",
        "name": "State Bank of India",
        "name:kn": "ಭಾರತೀಯ ಸ್ಟೇಟ್ ಬ್ಯಾಂಕ್",
        "operator": "State Bank of India",
        "operator:wikidata": "Q1340361",
        "short_name": "SBI"
      }
    },
    {
      "type": "node",
      "id": 6210719689,
      "lat": 12.9772063,
      "lon": 77.5736935,
      "tags": {
        "name": "Nandini Milk Parlour",
        "name:kn": "ನಂದಿನಿ ಹಾಲಿನ ಅಂಗಡಿ",
        "shop": "dairy"
      }
    },
    {
      "type": "node",
      "id": 6210725029,
      "lat": 12.9772008,
      "lon": 77.5733371,
      "tags": {
        "amenity": "atm",
        "brand": "ICICI Bank",
        "brand:wikidata": "Q1653258",
        "name": "ICICI Bank",
        "name:kn": "ಐಸಿಐಸಿಐ ಬ್ಯಾಂಕು",
        "operator": "ICICI Bank",
        "operator:wikidata": "Q1653258",
        "short_name": "ICICI"
      }
    },
    {
      "type": "node",
      "id": 6210748030,
      "lat": 12.9770468,
      "lon": 77.5737942,
      "tags": {
        "amenity": "toilets"
      }
    },
    {
      "type": "node",
      "id": 6418984600,
      "lat": 12.9708074,
      "lon": 77.5761672,
      "tags": {
        "amenity": "place_of_worship",
        "name": "Shree Kodahda Ramanjaneya Swamy Temple",
        "religion": "hindu",
        "wheelchair": "no"
      }
    },
    {
      "type": "node",
      "id": 6418984603,
      "lat": 12.9689075,
      "lon": 77.5771309,
      "tags": {
        "amenity": "community_centre",
        "name": "G R Veerabhadrappa's Veerashaiva Choultry, Sanskrit and Veda Pathashala"
      }
    },
    {
      "type": "node",
      "id": 6418984604,
      "lat": 12.9701196,
      "lon": 77.576326,
      "tags": {
        "addr:housenumber": "69",
        "addr:street": "A M Lane",
        "name": "Panna Sri Cables",
        "shop": "electronics"
      }
    },
    {
      "type": "node",
      "id": 6418985026,
      "lat": 12.9705176,
      "lon": 77.5760191,
      "tags": {
        "addr:housenumber": "29",
        "addr:street": "B.V.K. Iyengar Road",
        "name": "Mutha department stores",
        "shop": "department_store"
      }
    },
    {
      "type": "node",
      "id": 6418985027,
      "lat": 12.9705111,
      "lon": 77.5760421,
      "tags": {
        "addr:postcode": "560053",
        "addr:street": "B.V.K. Iyengar Road",
        "name": "Kancheepuram & designers sarees",
        "shop": "clothes"
      }
    },
    {
      "type": "node",
      "id": 6418987487,
      "lat": 12.9700843,
      "lon": 77.5763899,
      "tags": {
        "addr:housenumber": "72",
        "addr:street": "A M Lane",
        "name": "Amar electricals",
        "office": "company",
        "shop": "electronics"
      }
    },
    {
      "type": "node",
      "id": 6418987488,
      "lat": 12.9687354,
      "lon": 77.5774013,
      "tags": {
        "name": "Hingade Arcade",
        "shop": "clothes"
      }
    },
    {
      "type": "node",
      "id": 6418987489,
      "lat": 12.9715705,
      "lon": 77.5772659,
      "tags": {
        "amenity": "fast_food",
        "name": "Jodhpur Sweets"
      }
    },
    {
      "type": "node",
      "id": 6418988790,
      "lat": 12.9691224,
      "lon": 77.5768357,
      "tags": {
        "name": "Chickpet Plaza",
        "shop": "clothes"
      }
    },
    {
      "type": "node",
      "id": 6418988791,
      "lat": 12.970133,
      "lon": 77.5763065,
      "tags": {
        "addr:housenumber": "68",
        "addr:street": "A M Lane",
        "name": "Arihant cable corporation",
        "shop": "electronics"
      }
    },
    {
      "type": "node",
      "id": 6419006085,
      "lat": 12.9702453,
      "lon": 77.5760979,
      "tags": {
        "name": "Sri Ram Electricals",
        "phone": "08041221753",
        "shop": "electronics"
      }
    },
    {
      "type": "node",
      "id": 6419006086,
      "lat": 12.9702313,
      "lon": 77.5761119,
      "tags": {
        "addr:housenumber": "63/1",
        "addr:street": "A M Lane",
        "name": "Sri Anand Electricals",
        "phone": "+919986174238",
        "shop": "electronics"
      }
    },
    {
      "type": "node",
      "id": 6419006088,
      "lat": 12.9703132,
      "lon": 77.5758789,
      "tags": {
        "name": "Aarti electricals and lightning",
        "shop": "electronics"
      }
    },
    {
      "type": "node",
      "id": 6419006185,
      "lat": 12.9701942,
      "lon": 77.5761895,
      "tags": {
        "addr:street": "A M Lane",
        "name": "Sri Venkateshwara Lighting",
        "shop": "electronics"
      }
    },
    {
      "type": "node",
      "id": 6419007388,
      "lat": 12.9702033,
      "lon": 77.57617,
      "tags": {
        "addr:housenumber": "63",
        "addr:postcode": "560053",
        "addr:street": "A. M. Lane",
        "name": "Prakash Spare Parts",
        "shop": "hardware"
      }
    },
    {
      "type": "node",
      "id": 6419007389,
      "lat": 12.9698059,
      "lon": 77.5758039,
      "tags": {
        "name": "Sri Varadevi Society Silks",
        "shop": "clothes"
      }
    },
    {
      "type": "node",
      "id": 6419007390,
      "lat": 12.9693452,
      "lon": 77.5764784,
      "tags": {
        "name": "Srinivasa Stores",
        "shop": "clothes"
      }
    },
    {
      "type": "node",
      "id": 6419008285,
      "lat": 12.9702871,
      "lon": 77.5759404,
      "tags": {
        "addr:postcode": "560053",
        "addr:street": "AS Char Street",
        "name": "Nandini Milk Parlour",
        "name:kn": "ನಂದಿನಿ ಹಾಲಿನ ಅಂಗಡಿ",
        "shop": "convenience"
      }
    },
    {
      "type": "node",
      "id": 6419008685,
      "lat": 12.9703241,
      "lon": 77.5760364,
      "tags": {
        "amenity": "fast_food",
        "name": "Kachori house"
      }
    },
    {
      "type": "node",
      "id": 6419008686,
      "lat": 12.9692952,
      "lon": 77.5766217,
      "tags": {
        "name": "Maithili silks",
        "shop": "clothes"
      }
    },
    {
      "type": "node",
      "id": 6419008687,
      "lat": 12.9690365,
      "lon": 77.5768479,
      "tags": {
        "name": "Rukmini building",
        "shop": "department_store"
      }
    },
    {
      "type": "node",
      "id": 6419008688,
      "lat": 12.9701199,
      "lon": 77.5762439,
      "tags": {
        "addr:housenumber": "29",
        "addr:postcode": "560053",
        "addr:street": "AM Lane",
        "name": "Majisa Electricals",
        "shop": "electronics"
      }
    },
    {
      "type": "node",
      "id": 6419008689,
      "lat": 12.9700781,
      "lon": 77.576315,
      "tags": {
        "addr:housenumber": "28",
        "addr:postcode": "560053",
        "addr:street": "AM Lane",
        "name": "Bhati Electricals",
        "shop": "electronics"
      }
    },
    {
      "type": "node",
      "id": 6419008690,
      "lat": 12.9693234,
      "lon": 77.577456,
      "tags": {
        "name": "Mamta dupattas",
        "shop": "clothes"
      }
    },
    {
      "type": "node",
      "id": 6419008691,
      "lat": 12.9693079,
      "lon": 77.5774761,
      "tags": {
        "name": "Gold style",
        "shop": "clothes"
      }
    },
    {
      "type": "node",
      "id": 6419008693,
      "lat": 12.9685544,
      "lon": 77.5775827,
      "tags": {
        "name": "Sharma complex",
        "shop": "clothes"
      }
    },
    {
      "type": "node",
      "id": 6419011487,
      "lat": 12.9701759,
      "lon": 77.5762274,
      "tags": {
        "addr:street": "A M Lane",
        "name": "Mahendar Electricals",
        "shop": "electronics"
      }
    },
    {
      "type": "node",
      "id": 6419011488,
      "lat": 12.9701636,
      "lon": 77.5762462,
      "tags": {
        "name": "Mehtab Electricals",
        "shop": "electronics"
      }
    },
    {
      "type": "node",
      "id": 6419011489,
      "lat": 12.9696916,
      "lon": 77.5757534,
      "tags": {
        "check_date": "2025-08-23",
        "name": "Kanchi apex society",
        "shop": "clothes"
      }
    },
    {
      "type": "node",
      "id": 6419011490,
      "lat": 12.9693654,
      "lon": 77.5762498,
      "tags": {
        "check_date": "2025-08-23",
        "name": "Sudarshan store",
        "shop": "clothes"
      }
    },
    {
      "type": "node",
      "id": 6419011491,
      "lat": 12.9689875,
      "lon": 77.5769619,
      "tags": {
        "name": "Kalamandir",
        "name:kn": "ಕಲಾಮಂದಿರ",
        "shop": "clothes"
      }
    },
    {
      "type": "node",
      "id": 6419011492,
      "lat": 12.9701437,
      "lon": 77.5762001,
      "tags": {
        "addr:housenumber": "35/1",
        "addr:postcode": "560053",
        "addr:street": "AM Lane",
        "name": "MP Electricals",
        "shop": "electronics"
      }
    },
    {
      "type": "node",
      "id": 6419011493,
      "lat": 12.9701077,
      "lon": 77.5762618,
      "tags": {
        "addr:postcode": "560053",
        "addr:street": "AM Lane",
        "name": "Sri Guru Electrical & Co.",
        "shop": "electronics"
      }
    },
    {
      "type": "node",
      "id": 6419015585,
      "lat": 12.9698359,
      "lon": 77.5768143,
      "tags": {
        "name": "Mahavir Electric",
        "shop": "electronics"
      }
    },
    {
      "type": "node",
      "id": 6419015586,
      "lat": 12.970146,
      "lon": 77.5761829,
      "tags": {
        "addr:housenumber": "33",
        "addr:postcode": "560053",
        "addr:street": "AM Lane",
        "name": "Rajdhani Electricals",
        "shop": "electronics"
      }
    },
    {
      "type": "node",
      "id": 6419015588,
      "lat": 12.9688175,
      "lon": 77.5780186,
      "tags": {
        "addr:housenumber": "787",
        "addr:postcode": "560063",
        "addr:street": "AM Lane",
        "name": "Mohak Tex",
        "shop": "clothes"
      }
    },
    {
      "type": "node",
      "id": 6419015589,
      "lat": 12.9696203,
      "lon": 77.576967,
      "tags": {
        "name": "Usha Electricals Stores",
        "shop": "electronics"
      }
    },
    {
      "type": "node",
      "id": 6419015590,
      "lat": 12.969671,
      "lon": 77.5769673,
      "tags": {
        "name": "Highco",
        "shop": "electronics"
      }
    },
    {
      "type": "node",
      "id": 6419015591,
      "lat": 12.9700456,
      "lon": 77.576386,
      "tags": {
        "addr:housenumber": "106",
        "addr:postcode": "560053",
        "addr:street": "AM Lane",
        "name": "Paramount Electrical Co.",
        "shop": "electronics"
      }
    },
    {
      "type": "node",
      "id": 6419015592,
      "lat": 12.9698897,
      "lon": 77.5766241,
      "tags": {
        "name": "Power Associates",
        "shop": "electronics"
      }
    },
    {
      "type": "node",
      "id": 6419015593,
      "lat": 12.9698706,
      "lon": 77.5766562,
      "tags": {
        "addr:housenumber": "21/1",
        "addr:postcode": "560053",
        "addr:street": "AM Lane",
        "name": "Pratibha Electricals",
        "shop": "electronics"
      }
    },
    {
      "type": "node",
      "id": 6419015786,
      "lat": 12.9701447,
      "lon": 77.5762811,
      "tags": {
        "name": "Ganesh Electricals",
        "shop": "electronics"
      }
    },
    {
      "type": "node",
      "id": 6419015787,
      "lat": 12.9701654,
      "lon": 77.5762888,
      "tags": {
        "name": "Sri Omkar electricals",
        "shop": "electronics"
      }
    },
    {
      "type": "node",
      "id": 6419015788,
      "lat": 12.9696095,
      "lon": 77.5759104,
      "tags": {
        "amenity": "place_of_worship",
        "name": "Sri Kanteshwara Swamy Temple",
        "religion": "hindu"
      }
    },
    {
      "type": "node",
      "id": 6419015789,
      "lat": 12.970139,
      "lon": 77.5762187,
      "tags": {
        "addr:postcode": "560053",
        "addr:street": "AM Lane",
        "name": "Vinayaka Enterprises",
        "shop": "hardware"
      }
    },
    {
      "type": "node",
      "id": 6419015790,
      "lat": 12.9700592,
      "lon": 77.5763455,
      "tags": {
        "addr:housenumber": "27",
        "addr:postcode": "560053",
        "addr:street": "AM Lane",
        "name": "Mataji Electricals",
        "shop": "electronics"
      }
    },
    {
      "type": "node",
      "id": 6419015793,
      "lat": 12.9685675,
      "lon": 77.577541,
      "tags": {
        "name": "Byrappa & Sons",
        "shop": "clothes"
      }
    },
    {
      "type": "node",
      "id": 6419015794,
      "lat": 12.9685057,
      "lon": 77.5776567,
      "tags": {
        "name": "Anand Bhavan",
        "name:kn": "ಆನಂದ್ ಭಾವನ್",
        "shop": "clothes"
      }
    },
    {
      "type": "node",
      "id": 6419015795,
      "lat": 12.968738,
      "lon": 77.578544,
      "tags": {
        "addr:housenumber": "64",
        "addr:postcode": "560063",
        "addr:street": "AM Lane",
        "name": "Sha Misrimal Mohanlal & Co",
        "phone": "8792982712",
        "shop": "clothes"
      }
    },
    {
      "type": "node",
      "id": 6419016885,
      "lat": 12.969013,
      "lon": 77.5778985,
      "tags": {
        "addr:housenumber": "#3/4",
        "addr:postcode": "560053",
        "addr:street": "AM Lane",
        "name": "Mahalakshmi Fashions",
        "phone": "9964231828",
        "shop": "clothes"
      }
    },
    {
      "type": "node",
      "id": 6419016886,
      "lat": 12.9688722,
      "lon": 77.57795,
      "tags": {
        "addr:housenumber": "790/1",
        "addr:postcode": "560053",
        "addr:street": "AM Lane",
        "name": "Shri Vardhaman Silk Centre and",
        "phone": "08022264095",
        "shop": "clothes"
      }
    },
    {
      "type": "node",
      "id": 6419024185,
      "lat": 12.9701116,
      "lon": 77.5763435,
      "tags": {
        "addr:housenumber": "71",
        "addr:street": "A M Lane",
        "name": "Cauvery Powers",
        "shop": "electronics"
      }
    },
    {
      "type": "node",
      "id": 6419024186,
      "lat": 12.9701042,
      "lon": 77.5763561,
      "tags": {
        "addr:housenumber": "71",
        "addr:street": "A M Lane",
        "name": "Cauvery Electricals",
        "phone": "+918022261999",
        "shop": "electronics"
      }
    },
    {
      "type": "node",
      "id": 6419024187,
      "lat": 12.9685732,
      "lon": 77.5776696,
      "tags": {
        "name": "Devatha Market",
        "shop": "clothes"
      }
    },
    {
      "type": "node",
      "id": 6419024188,
      "lat": 12.9684705,
      "lon": 77.5778334,
      "tags": {
        "name": "Bombay Fancy Store",
        "shop": "clothes"
      }
    },
    {
      "type": "node",
      "id": 6419024189,
      "lat": 12.9717448,
      "lon": 77.5770331,
      "tags": {
        "amenity": "fast_food",
        "name": "Karnataka Chat"
      }
    },
    {
      "type": "node",
      "id": 6419024192,
      "lat": 12.9700768,
      "lon": 77.5764056,
      "tags": {
        "addr:housenumber": "71",
        "addr:street": "A M Lane",
        "name": "K R Electricals",
        "shop": "electronics"
      }
    },
    {
      "type": "node",
      "id": 6419024193,
      "lat": 12.9700606,
      "lon": 77.576438,
      "tags": {
        "addr:housenumber": "73",
        "addr:street": "A M Lane",
        "name": "Guru electricals",
        "shop": "electronics"
      }
    },
    {
      "type": "node",
      "id": 6419024194,
      "lat": 12.9700323,
      "lon": 77.5764757,
      "tags": {
        "name": "Sri Bajrang Electricals",
        "shop": "electronics"
      }
    },
    {
      "type": "node",
      "id": 6419025585,
      "lat": 12.9684941,
      "lon": 77.5779612,
      "tags": {
        "name": "Mohan Building",
        "shop": "clothes"
      }
    },
    {
      "type": "node",
      "id": 6419027085,
      "lat": 12.9685695,
      "lon": 77.5784008,
      "tags": {
        "addr:housenumber": "B-24",
        "addr:postcode": "560053",
        "addr:street": "AM Lane",
        "name": "Woollen Ware House",
        "shop": "clothes"
      }
    },
    {
      "type": "node",
      "id": 6419027086,
      "lat": 12.9693695,
      "lon": 77.5767616,
      "tags": {
        "name": "Sundar electricals",
        "shop": "electronics"
      }
    },
    {
      "type": "node",
      "id": 6419027087,
      "lat": 12.9696813,
      "lon": 77.577009,
      "tags": {
        "addr:street": "A M line-A",
        "amenity": "fast_food",
        "name": "हनुमान चाट्स",
        "name:en": "Hanuman chats"
      }
    },
    {
      "type": "node",
      "id": 6419027090,
      "lat": 12.9700486,
      "lon": 77.5763732,
      "tags": {
        "addr:housenumber": "106/1",
        "addr:postcode": "560053",
        "addr:street": "AM Lane",
        "name": "Wire Sales Corporation",
        "shop": "electronics"
      }
    },
    {
      "type": "node",
      "id": 6419027091,
      "lat": 12.9700413,
      "lon": 77.5764018,
      "tags": {
        "addr:housenumber": "26/3",
        "addr:postcode": "560053",
        "addr:street": "AM Lane",
        "name": "Hari Om Electricals and Hardware",
        "shop": "electronics"
      }
    },
    {
      "type": "node",
      "id": 6419027092,
      "lat": 12.9699441,
      "lon": 77.5765263,
      "tags": {
        "addr:housenumber": "24",
        "addr:postcode": "560053",
        "addr:street": "AM Lane",
        "name": "Mukesh Enterprises",
        "shop": "electronics"
      }
    },
    {
      "type": "node",
      "id": 6419027093,
      "lat": 12.9698302,
      "lon": 77.5767116,
      "tags": {
        "addr:housenumber": "20",
        "addr:postcode": "560053",
        "addr:street": "AM Lane",
        "name": "Gowder Complex",
        "shop": "electronics"
      }
    },
    {
      "type": "node",
      "id": 6419027094,
      "lat": 12.9698397,
      "lon": 77.5767067,
      "tags": {
        "addr:housenumber": "20",
        "addr:postcode": "560053",
        "addr:street": "AM Lane",
        "name": "MM Switchgear",
        "shop": "electronics"
      }
    },
    {
      "type": "node",
      "id": 6419027095,
      "lat": 12.9695714,
      "lon": 77.5770767,
      "tags": {
        "addr:postcode": "560053",
        "addr:street": "AM Lane",
        "name": "Vasath Textiles",
        "shop": "clothes"
      }
    },
    {
      "type": "node",
      "id": 6419027096,
      "lat": 12.9682756,
      "lon": 77.578859,
      "tags": {
        "name": "Rajashree market",
        "shop": "clothes"
      }
    },
    {
      "type": "node",
      "id": 6419027186,
      "lat": 12.9696489,
      "lon": 77.5769901,
      "tags": {
        "name": "Light house",
        "shop": "electronics"
      }
    },
    {
      "type": "node",
      "id": 6419027188,
      "lat": 12.9694413,
      "lon": 77.5772825,
      "tags": {
        "addr:housenumber": "10/3",
        "addr:street": "A M Lane",
        "name": "Delbees",
        "shop": "clothes"
      }
    },
    {
      "type": "node",
      "id": 6419027190,
      "lat": 12.9694822,
      "lon": 77.5773149,
      "tags": {
        "addr:street": "A M lane",
        "name": "Dhanalakshmi market",
        "shop": "clothes"
      }
    },
    {
      "type": "node",
      "id": 6419027194,
      "lat": 12.9695947,
      "lon": 77.5769459,
      "tags": {
        "name": "Padam electricals",
        "shop": "electronics"
      }
    },
    {
      "type": "node",
      "id": 6419027195,
      "lat": 12.9693581,
      "lon": 77.5775277,
      "tags": {
        "addr:street": "A M Lane",
        "name": "S. Kapurchand and sons",
        "shop": "electronics"
      }
    },
    {
      "type": "node",
      "id": 6419027196,
      "lat": 12.9695826,
      "lon": 77.5771793,
      "tags": {
        "addr:housenumber": "80",
        "addr:postcode": "560053",
        "addr:street": "AM Lane",
        "name": "Manikant & Co.",
        "shop": "clothes"
      }
    },
    {
      "type": "node",
      "id": 6419027197,
      "lat": 12.9692566,
      "lon": 77.5775515,
      "tags": {
        "addr:postcode": "560053",
        "addr:street": "AM Lane",
        "name": "Chamundeshwari Textiles",
        "shop": "clothes"
      }
    },
    {
      "type": "node",
      "id": 6419027198,
      "lat": 12.9686865,
      "lon": 77.5790878,
      "tags": {
        "name": "Pathi market",
        "shop": "clothes"
      }
    },
    {
      "type": "node",
      "id": 6419027199,
      "lat": 12.9689457,
      "lon": 77.5780128,
      "tags": {
        "addr:street": "A M Lane",
        "name": "Mahalaxmi fashions",
        "shop": "clothes"
      }
    },
    {
      "type": "node",
      "id": 6419027200,
      "lat": 12.9689238,
      "lon": 77.5792294,
      "tags": {
        "name": "Raghavendra market",
        "shop": "clothes"
      }
    },
    {
      "type": "node",
      "id": 6419027486,
      "lat": 12.9700534,
      "lon": 77.5764466,
      "tags": {
        "addr:housenumber": "73",
        "addr:street": "A M Lane",
        "name": "Vijay Electrical enterprises",
        "shop": "electronics"
      }
    },
    {
      "type": "node",
      "id": 6419027487,
      "lat": 12.9700441,
      "lon": 77.5764584,
      "tags": {
        "addr:housenumber": "74",
        "addr:street": "A M Lane",
        "name": "Prakash Electrical Enterprises",
        "shop": "electronics"
      }
    },
    {
      "type": "node",
      "id": 6419028085,
      "lat": 12.9700673,
      "lon": 77.5764205,
      "tags": {
        "addr:housenumber": "72",
        "addr:street": "A M Lane",
        "name": "Balaji Agencies",
        "shop": "electronics"
      }
    },
    {
      "type": "node",
      "id": 6419028086,
      "lat": 12.9700228,
      "lon": 77.5764918,
      "tags": {
        "addr:housenumber": "35",
        "addr:street": "A M Lane",
        "name": "Mishra electricals",
        "shop": "electronics"
      }
    },
    {
      "type": "node",
      "id": 6419044988,
      "lat": 12.9692985,
      "lon": 77.5793482,
      "tags": {
        "addr:street": "Avenue Road",
        "amenity": "bank",
        "brand": "Karur Vysya Bank",
        "brand:wikidata": "Q6373724",
        "name": "Karur Vysya Bank",
        "name:kn": "ಕರೂರು ವೈಶ್ಯ ಬ್ಯಾಂಕ್"
      }
    },
    {
      "type": "node",
      "id": 6419044989,
      "lat": 12.9686127,
      "lon": 77.5790381,
      "tags": {
        "addr:postcode": "560053",
        "addr:street": "Avenue Road",
        "amenity": "place_of_worship",
        "name": "Balaji Temple",
        "name:kn": "ಬಾಲಾಜಿ ದೇವಸ್ಥಾನ",
        "religion": "hindu",
        "wheelchair": "no"
      }
    },
    {
      "type": "node",
      "id": 6419044990,
      "lat": 12.9688815,
      "lon": 77.5791931,
      "tags": {
        "amenity": "atm",
        "brand": "ICICI Bank",
        "brand:wikidata": "Q1653258",
        "name": "ICICI Bank",
        "operator": "ICICI Bank",
        "operator:wikidata": "Q1653258",
        "short_name": "ICICI",
        "survey:date": "2022-07-17"
      }
    },
    {
      "type": "node",
      "id": 6419048785,
      "lat": 12.9695167,
      "lon": 77.5772706,
      "tags": {
        "addr:housenumber": "25/79",
        "addr:postcode": "560053",
        "addr:street": "AM Lane",
        "name": "Poonam Trading Co",
        "shop": "clothes"
      }
    },
    {
      "type": "node",
      "id": 6419048786,
      "lat": 12.9692799,
      "lon": 77.5775206,
      "tags": {
        "addr:postcode": "560053",
        "addr:street": "AM Lane",
        "name": "SK Complex",
        "shop": "clothes"
      }
    },
    {
      "type": "node",
      "id": 6419048790,
      "lat": 12.9685731,
      "lon": 77.5789075,
      "tags": {
        "name": "Arya Vysya Mandali Chambers",
        "shop": "clothes"
      }
    },
    {
      "type": "node",
      "id": 6419049986,
      "lat": 12.9709487,
      "lon": 77.578094,
      "tags": {
        "alt_name": "Haldiram",
        "amenity": "fast_food",
        "brand": "Haldiram's",
        "brand:wikidata": "Q17054442",
        "cuisine": "indian",
        "name": "Haldiram's",
        "shop": "confectionery",
        "takeaway": "yes"
      }
    },
    {
      "type": "node",
      "id": 6419049987,
      "lat": 12.9707166,
      "lon": 77.5784032,
      "tags": {
        "name": "Manak Mewa",
        "shop": "bakery"
      }
    },
    {
      "type": "node",
      "id": 6419052586,
      "lat": 12.9692487,
      "lon": 77.5794495,
      "tags": {
        "amenity": "atm",
        "brand": "IDFC First Bank",
        "brand:wikidata": "Q22031467",
        "check_date": "2022-07-17",
        "name": "IDFC First Bank",
        "operator": "IDFC First Bank",
        "operator:wikidata": "Q22031467",
        "survey:date": "2022-07-17"
      }
    },
    {
      "type": "node",
      "id": 6419052587,
      "lat": 12.9694658,
      "lon": 77.5794819,
      "tags": {
        "addr:housenumber": "553",
        "addr:postcode": "560053",
        "addr:street": "Avenue Road",
        "alt_name": "Parvathy Someshwara Temple",
        "amenity": "place_of_worship",
        "name": "Sri Parvati Someshwara Swamy Temple",
        "religion": "hindu"
      }
    },
    {
      "type": "node",
      "id": 6419052588,
      "lat": 12.9699453,
      "lon": 77.5798033,
      "tags": {
        "addr:street": "Avenue Road",
        "amenity": "place_of_worship",
        "name": "Sri Guru Shanaischara Swamy Temple",
        "religion": "hindu"
      }
    },
    {
      "type": "node",
      "id": 6419052685,
      "lat": 12.9692728,
      "lon": 77.579469,
      "tags": {
        "amenity": "atm",
        "brand": "Canara Bank",
        "brand:en": "Canara Bank",
        "brand:hi": "केनरा बैंक",
        "brand:kn": "ಕೆನರಾ ಬ್ಯಾಂಕ್",
        "brand:pa": "ਕੇਨਰਾ ਬੈਂਕ",
        "brand:pnb": "کینرا بینک",
        "brand:ur": "کینرا بینک",
        "brand:wikidata": "Q2003777",
        "name": "Canara Bank",
        "name:en": "Canara Bank",
        "name:hi": "केनरा बैंक",
        "name:kn": "ಕೆನರಾ ಬ್ಯಾಂಕ್",
        "name:pa": "ਕੇਨਰਾ ਬੈਂਕ",
        "name:pnb": "کینرا بینک",
        "name:ur": "کینرا بینک",
        "operator": "Canara Bank",
        "operator:wikidata": "Q2003777"
      }
    },
    {
      "type": "node",
      "id": 6419052686,
      "lat": 12.9692389,
      "lon": 77.5795139,
      "tags": {
        "amenity": "bank",
        "brand": "Canara Bank",
        "brand:en": "Canara Bank",
        "brand:hi": "केनरा बैंक",
        "brand:kn": "ಕೆನರಾ ಬ್ಯಾಂಕ್",
        "brand:pa": "ਕੇਨਰਾ ਬੈਂਕ",
        "brand:pnb": "کینرا بینک",
        "brand:ur": "کینرا بینک",
        "brand:wikidata": "Q2003777",
        "brand:wikipedia": "en:Canara Bank",
        "brand:wikipedia:pa": "ਕੇਨਰਾ ਬੈਂਕ",
        "name": "Canara Bank",
        "name:en": "Canara Bank",
        "name:hi": "केनरा बैंक",
        "name:kn": "ಕೆನರಾ ಬ್ಯಾಂಕ್",
        "name:pa": "ਕੇਨਰਾ ਬੈਂਕ",
        "name:pnb": "کینرا بینک",
        "name:ur": "کینرا بینک"
      }
    },
    {
      "type": "node",
      "id": 6419052689,
      "lat": 12.9692885,
      "lon": 77.5794993,
      "tags": {
        "name": "Avenue plaza",
        "shop": "clothes"
      }
    },
    {
      "type": "node",
      "id": 6419055685,
      "lat": 12.9693722,
      "lon": 77.5793304,
      "tags": {
        "amenity": "community_centre",
        "name": "Chintalapalli Venkatamuni Setty's Free Boarding Hostel and Choultry"
      }
    },
    {
      "type": "node",
      "id": 6419055686,
      "lat": 12.9697564,
      "lon": 77.5797471,
      "tags": {
        "addr:street": "Avenue Road",
        "amenity": "bank",
        "brand": "Indian Bank",
        "brand:wikidata": "Q2003789",
        "name": "Indian Bank",
        "name:kn": "ಇಂಡಿಯನ್ ಬ್ಯಾಂಕ್"
      }
    },
    {
      "type": "node",
      "id": 6419055687,
      "lat": 12.9692492,
      "lon": 77.5793602,
      "tags": {
        "addr:housenumber": "544",
        "addr:postcode": "560053",
        "addr:street": "Avenue Road",
        "amenity": "fast_food",
        "name": "Aradhana Gowri Condiments & Chats"
      }
    },
    {
      "type": "node",
      "id": 6419057785,
      "lat": 12.9696955,
      "lon": 77.5797222,
      "tags": {
        "name": "Jayanthi building",
        "name:kn": "ಜಯಂತಿ",
        "shop": "clothes"
      }
    },
    {
      "type": "node",
      "id": 6419057885,
      "lat": 12.9710049,
      "lon": 77.5780144,
      "tags": {
        "name": "Bikaji",
        "shop": "confectionery"
      }
    },
    {
      "type": "node",
      "id": 6419058085,
      "lat": 12.9686361,
      "lon": 77.5779851,
      "tags": {
        "addr:street": "A M Lane",
        "name": "Thandava mudiliar and sons",
        "shop": "clothes"
      }
    },
    {
      "type": "node",
      "id": 6419095285,
      "lat": 12.9723595,
      "lon": 77.5759819,
      "tags": {
        "amenity": "kindergarten",
        "name": "Patasi Bai Nursery School"
      }
    },
    {
      "type": "node",
      "id": 6419145385,
      "lat": 12.9716342,
      "lon": 77.5741018,
      "tags": {
        "addr:housenumber": "123/4",
        "addr:postcode": "560053",
        "addr:street": "Balepet Road",
        "amenity": "restaurant",
        "cuisine": "indian",
        "name": "Udupi Sri Krishna Bhavan",
        "opening_hours": "We-Mo 07:45-19:45"
      }
    },
    {
      "type": "node",
      "id": 6487165545,
      "lat": 12.9743717,
      "lon": 77.5775468,
      "tags": {
        "brand": "Ramraj Cotton",
        "brand:wikidata": "Q119161281",
        "name": "Ramraj Cotton",
        "payment:credit_cards": "yes",
        "payment:debit_cards": "yes",
        "shop": "clothes",
        "wheelchair": "no"
      }
    },
    {
      "type": "node",
      "id": 6487165546,
      "lat": 12.9753597,
      "lon": 77.5752951,
      "tags": {
        "brand": "Liberty",
        "brand:wikidata": "Q6541947",
        "name": "Liberty Exclusive Showroom",
        "shop": "shoes"
      }
    },
    {
      "type": "node",
      "id": 6487165548,
      "lat": 12.977562,
      "lon": 77.5744205,
      "tags": {
        "amenity": "restaurant",
        "cuisine": "indian",
        "name": "Hotel Sanman"
      }
    },
    {
      "type": "node",
      "id": 6681215509,
      "lat": 12.9787032,
      "lon": 77.5734664,
      "tags": {
        "brand": "Nandini",
        "name": "Nandini",
        "shop": "dairy"
      }
    },
    {
      "type": "node",
      "id": 6681215510,
      "lat": 12.9774153,
      "lon": 77.5744736,
      "tags": {
        "amenity": "restaurant",
        "cuisine": "indian",
        "name": "Majestic Hotel"
      }
    },
    {
      "type": "node",
      "id": 6681215515,
      "lat": 12.9742181,
      "lon": 77.5793459,
      "tags": {
        "amenity": "bank",
        "atm": "yes",
        "brand": "Syndicate Bank",
        "brand:wikidata": "Q2004088",
        "layer": "2",
        "name": "Syndicate Bank",
        "name:kn": "ಸಿಂಡಿಕೇಟ್ ಬ್ಯಾಂಕ್"
      }
    },
    {
      "type": "node",
      "id": 6681215516,
      "lat": 12.9734339,
      "lon": 77.5806454,
      "tags": {
        "amenity": "bank",
        "atm": "yes",
        "brand": "United Bank of India",
        "brand:wikidata": "Q2003237",
        "name": "United Bank of India"
      }
    },
    {
      "type": "node",
      "id": 6698273388,
      "lat": 12.9773998,
      "lon": 77.5762252,
      "tags": {
        "addr:housenumber": "12",
        "addr:street": "Gandhi Nagar 2nd Cross",
        "name": "Grand Majestic Mall",
        "shop": "mall"
      }
    },
    {
      "type": "node",
      "id": 6882713300,
      "lat": 12.9706777,
      "lon": 77.5859401,
      "tags": {
        "addr:city": "Bengaluru",
        "addr:district": "BENGALURU URBAN",
        "addr:full": "Nrupatunga Road",
        "addr:postcode": "560001",
        "addr:state": "Karnataka",
        "amenity": "blood_bank",
        "contact:mobile": "9686452704",
        "contact:phone": "8040128243",
        "name": "Saint Martha' Hospital Blood Bank",
        "opening_hours": "24/7",
        "operator:type": "private",
        "source": "OpenGovernmentData"
      }
    },
    {
      "type": "node",
      "id": 6886594854,
      "lat": 12.9843552,
      "lon": 77.5787035,
      "tags": {
        "addr:city": "Bengaluru",
        "addr:district": "BENGALURU URBAN",
        "addr:full": "Red Cross Bhavan, 326, Ist Floor, Race Course Road, Bengaluru",
        "addr:postcode": "560001",
        "addr:state": "Karnataka",
        "amenity": "blood_bank",
        "contact:mobile": "9902859859",
        "contact:phone": "8022268435",
        "name": "Indian Red Cross Society - Karnataka Red Cross Blood Bank",
        "office": "ngo",
        "opening_hours": "24/7",
        "operator:type": "ngo",
        "source": "OpenGovernmentData",
        "website": "https://www.redcrosskarnataka.org/"
      }
    },
    {
      "type": "node",
      "id": 6938775840,
      "lat": 12.9711822,
      "lon": 77.5781228,
      "tags": {
        "addr:district": "Bengaluru Urban",
        "addr:full": "7Th Cross, Rangaswamy Temple Street",
        "addr:postcode": "560053",
        "addr:state": "Karnataka",
        "amenity": "hospital",
        "name": "Amar Hospital",
        "name:kn": "ಅಮರ್ ಆಸ್ಪತ್ರೆ",
        "source": "OpenGovernmentData"
      }
    },
    {
      "type": "node",
      "id": 6944096791,
      "lat": 12.9717138,
      "lon": 77.5770294,
      "tags": {
        "addr:district": "Bengaluru Urban",
        "addr:full": "202/3 Mahesh Towers R T Street",
        "addr:postcode": "560053",
        "addr:state": "Karnataka",
        "amenity": "clinic",
        "name": "Mahesh Clinic",
        "source": "OpenGovernmentData"
      }
    },
    {
      "type": "node",
      "id": 6945768862,
      "lat": 12.9732706,
      "lon": 77.5725357,
      "tags": {
        "addr:district": "Bengaluru Urban",
        "addr:full": "No. 12, Park Road, Bale Peth",
        "addr:postcode": "560053",
        "addr:state": "Karnataka",
        "amenity": "hospital",
        "name": "Sreeniwasa Hospital",
        "name:kn": "ಶ್ರೀನಿವಾಸ ದೇವಸ್ಥಾನ",
        "source": "OpenGovernmentData"
      }
    },
    {
      "type": "node",
      "id": 7043568488,
      "lat": 12.9748951,
      "lon": 77.5755559,
      "tags": {
        "name": "A.K. Shoe Point",
        "shop": "shoes"
      }
    },
    {
      "type": "node",
      "id": 7162186811,
      "lat": 12.9741713,
      "lon": 77.5880263,
      "tags": {
        "addr:city": "Bangalore",
        "addr:postcode": "560001",
        "addr:street": "PWD Offices Premises",
        "amenity": "restaurant",
        "cuisine": "regional;indian",
        "name": "Annapurneshwari Canteen",
        "opening_hours": "Mo-Sa 10:00-18:00"
      }
    },
    {
      "type": "node",
      "id": 7276500290,
      "lat": 12.9806334,
      "lon": 77.5791138,
      "tags": {
        "access": "yes",
        "amenity": "toilets",
        "fee": "yes"
      }
    },
    {
      "type": "node",
      "id": 7276500304,
      "lat": 12.9835372,
      "lon": 77.5858502,
      "tags": {
        "amenity": "atm",
        "brand": "Corporation Bank",
        "brand:wikidata": "Q2003387",
        "name": "Corporation Bank",
        "operator": "Corporation Bank",
        "operator:wikidata": "Q2003387"
      }
    },
    {
      "type": "node",
      "id": 7276500312,
      "lat": 12.9844624,
      "lon": 77.5831076,
      "tags": {
        "access": "yes",
        "amenity": "toilets",
        "fee": "yes"
      }
    },
    {
      "type": "node",
      "id": 7276500338,
      "lat": 12.9841696,
      "lon": 77.5795363,
      "tags": {
        "addr:city": "Bengaluru",
        "addr:country": "IN",
        "addr:hamlet": "Gandhi Nagar",
        "addr:postcode": "560001",
        "addr:street": "Race Course Road",
        "brand": "Sugama Tourists",
        "name": "Sugama Tourists",
        "shop": "travel_agency",
        "website": "https://www.sugamatourists.com"
      }
    },
    {
      "type": "node",
      "id": 7276500358,
      "lat": 12.9836286,
      "lon": 77.5771867,
      "tags": {
        "access": "yes",
        "amenity": "toilets",
        "fee": "yes",
        "wheelchair": "no"
      }
    },
    {
      "type": "node",
      "id": 7276500360,
      "lat": 12.9824081,
      "lon": 77.5747713,
      "tags": {
        "amenity": "bank",
        "atm": "yes",
        "brand": "State Bank of India",
        "brand:wikidata": "Q1340361",
        "name": "State Bank of India",
        "operator": "State Bank of India",
        "short_name": "SBI"
      }
    },
    {
      "type": "node",
      "id": 7292436108,
      "lat": 12.9713364,
      "lon": 77.5867555,
      "tags": {
        "amenity": "atm",
        "brand": "South Indian Bank",
        "brand:wikidata": "Q2044973",
        "name": "South Indian Bank",
        "operator": "South Indian Bank",
        "operator:wikidata": "Q2044973"
      }
    },
    {
      "type": "node",
      "id": 7292436118,
      "lat": 12.9751407,
      "lon": 77.5871068,
      "tags": {
        "name": "Nandini Milk Parlour",
        "shop": "dairy"
      }
    },
    {
      "type": "node",
      "id": 7292436129,
      "lat": 12.9720421,
      "lon": 77.5832324,
      "tags": {
        "amenity": "bank",
        "atm": "yes",
        "brand": "Axis Bank",
        "brand:wikidata": "Q2003549",
        "name": "Axis Bank",
        "name:kn": "ಆಕ್ಸಿಸ್ ಬ್ಯಾಂಕ್",
        "operator": "Axis Bank"
      }
    },
    {
      "type": "node",
      "id": 7292436130,
      "lat": 12.9721584,
      "lon": 77.5830647,
      "tags": {
        "amenity": "bank",
        "atm": "yes",
        "brand": "Canara Bank",
        "brand:en": "Canara Bank",
        "brand:hi": "केनरा बैंक",
        "brand:kn": "ಕೆನರಾ ಬ್ಯಾಂಕ್",
        "brand:pa": "ਕੇਨਰਾ ਬੈਂਕ",
        "brand:pnb": "کینرا بینک",
        "brand:ur": "کینرا بینک",
        "brand:wikidata": "Q2003777",
        "brand:wikipedia": "en:Canara Bank",
        "brand:wikipedia:pa": "ਕੇਨਰਾ ਬੈਂਕ",
        "name": "Canara Bank",
        "name:en": "Canara Bank",
        "name:hi": "केनरा बैंक",
        "name:kn": "ಕೆನರಾ ಬ್ಯಾಂಕ್",
        "name:pa": "ਕੇਨਰਾ ਬੈਂਕ",
        "name:pnb": "کینرا بینک",
        "name:ur": "کینرا بینک"
      }
    },
    {
      "type": "node",
      "id": 7292436131,
      "lat": 12.9722943,
      "lon": 77.5829172,
      "tags": {
        "amenity": "bank",
        "atm": "yes",
        "brand": "State Bank of India",
        "brand:wikidata": "Q1340361",
        "name": "State Bank of India",
        "operator": "State Bank of India",
        "short_name": "SBI"
      }
    },
    {
      "type": "node",
      "id": 7292436134,
      "lat": 12.9735123,
      "lon": 77.5804885,
      "tags": {
        "name": "Priyadarshini Handlooms",
        "shop": "clothes"
      }
    },
    {
      "type": "node",
      "id": 7292436135,
      "lat": 12.9732666,
      "lon": 77.5800808,
      "tags": {
        "amenity": "bank",
        "atm": "yes",
        "brand": "Kotak Mahindra Bank",
        "brand:wikidata": "Q2040404",
        "name": "Kotak Mahindra Bank",
        "name:kn": "ಕೋಟಕ್ ಮಹಿಂದ್ರ ಬ್ಯಾಂಕ್",
        "operator": "Kotak Mahindra Bank"
      }
    },
    {
      "type": "node",
      "id": 7292436136,
      "lat": 12.9734013,
      "lon": 77.5797763,
      "tags": {
        "brand": "Bata",
        "brand:wikidata": "Q688082",
        "name": "Bata",
        "shop": "shoes",
        "wheelchair": "no"
      }
    },
    {
      "type": "node",
      "id": 7292436137,
      "lat": 12.9740416,
      "lon": 77.5783776,
      "tags": {
        "name": "Maharaja Times",
        "shop": "watches",
        "wheelchair": "no"
      }
    },
    {
      "type": "node",
      "id": 7292436138,
      "lat": 12.9740926,
      "lon": 77.5782381,
      "tags": {
        "amenity": "bank",
        "atm": "yes",
        "brand": "South Indian Bank",
        "brand:wikidata": "Q2044973",
        "name": "South Indian Bank",
        "wheelchair": "no"
      }
    },
    {
      "type": "node",
      "id": 7292436139,
      "lat": 12.9746036,
      "lon": 77.5769761,
      "tags": {
        "brand": "Bata",
        "brand:wikidata": "Q688082",
        "name": "Bata",
        "shop": "shoes"
      }
    },
    {
      "type": "node",
      "id": 7292436140,
      "lat": 12.9744729,
      "lon": 77.5766663,
      "tags": {
        "name": "Khadim's",
        "shop": "clothes"
      }
    },
    {
      "type": "node",
      "id": 7292436141,
      "lat": 12.9746728,
      "lon": 77.576728,
      "tags": {
        "name": "Woodland",
        "shop": "clothes"
      }
    },
    {
      "type": "node",
      "id": 7292436166,
      "lat": 12.980538,
      "lon": 77.5721119,
      "tags": {
        "amenity": "place_of_worship",
        "religion": "hindu"
      }
    },
    {
      "type": "node",
      "id": 7576958029,
      "lat": 12.970483,
      "lon": 77.5789065,
      "tags": {
        "addr:district": "Bengaluru Urban",
        "addr:full": "Anchepet, Chickpet, Bengaluru",
        "addr:postcode": "560053",
        "addr:state": "Karnataka",
        "amenity": "clinic",
        "name": "Priya Clinic",
        "source": "Local Knowledge"
      }
    },
    {
      "type": "node",
      "id": 7576958054,
      "lat": 12.9712575,
      "lon": 77.5777304,
      "tags": {
        "addr:district": "Bengaluru Urban",
        "addr:full": "Rangaswamy Temple Road, Mamulpet, Bengaluru",
        "addr:postcode": "560053",
        "addr:state": "Karnataka",
        "amenity": "clinic",
        "name": "Sham Singh Clinic",
        "source": "Local Knowledge"
      }
    },
    {
      "type": "node",
      "id": 7576958095,
      "lat": 12.972126,
      "lon": 77.573351,
      "tags": {
        "addr:district": "Bengaluru Urban",
        "addr:full": "JM Road, Upparpete, Bengaluru",
        "addr:postcode": "560053",
        "addr:state": "Karnataka",
        "amenity": "hospital",
        "healthcare": "hospital",
        "name": "ESI Hospital",
        "operator": "Employees' State Insurance",
        "operator:short": "ESI",
        "operator:wikidata": "Q3595726",
        "source": "Local Knowledge"
      }
    },
    {
      "type": "node",
      "id": 7576958114,
      "lat": 12.9690341,
      "lon": 77.57708,
      "tags": {
        "addr:district": "Bengaluru Urban",
        "addr:full": "Cubbon Pet Main Road, Cubbonpet, Bengaluru",
        "addr:postcode": "560002",
        "addr:state": "Karnataka",
        "amenity": "clinic",
        "healthcare": "clinic",
        "name": "Shyam Clinic",
        "source": "Local Knowledge"
      }
    },
    {
      "type": "node",
      "id": 7658290107,
      "lat": 12.9802518,
      "lon": 77.5861466,
      "tags": {
        "amenity": "restaurant",
        "name": "LORE"
      }
    },
    {
      "type": "node",
      "id": 7658290108,
      "lat": 12.9800179,
      "lon": 77.5859709,
      "tags": {
        "amenity": "restaurant",
        "name": "Tijuori"
      }
    },
    {
      "type": "node",
      "id": 8187963426,
      "lat": 12.98,
      "lon": 77.576,
      "tags": {
        "addr:full": "Plot No 41, Seshadri Rd, Anand Rao Circle, Bengaluru, Karnataka",
        "addr:state": "Karnataka",
        "amenity": "bank",
        "brand": "Axis Bank",
        "brand:wikidata": "Q2003549",
        "name": "Axis Bank",
        "name:kn": "ಆಕ್ಸಿಸ್ ಬ್ಯಾಂಕ್"
      }
    },
    {
      "type": "node",
      "id": 8187963461,
      "lat": 12.9769785,
      "lon": 77.5788979,
      "tags": {
        "addr:full": "No 24, 2nd Cross Rd, Gandhi Nagar, Bengaluru, Karnataka",
        "addr:state": "Karnataka",
        "amenity": "bank",
        "brand": "Federal Bank",
        "brand:wikidata": "Q2044983",
        "name": "Federal Bank",
        "name:kn": "ಫೆಡೆರಲ್ ಬ್ಯಾಂಕ್"
      }
    },
    {
      "type": "node",
      "id": 9063471393,
      "lat": 12.9840625,
      "lon": 77.580813,
      "tags": {
        "amenity": "bank",
        "atm": "yes",
        "brand": "State Bank of India",
        "brand:wikidata": "Q1340361",
        "name": "State Bank of India",
        "short_name": "SBI"
      }
    },
    {
      "type": "node",
      "id": 9063471395,
      "lat": 12.984414,
      "lon": 77.578281,
      "tags": {
        "amenity": "bank",
        "atm": "yes",
        "brand": "HDFC Bank",
        "brand:wikidata": "Q631047",
        "name": "HDFC Bank",
        "short_name": "HDFC"
      }
    },
    {
      "type": "node",
      "id": 9296328867,
      "lat": 12.9747199,
      "lon": 77.584898,
      "tags": {
        "amenity": "waste_basket"
      }
    },
    {
      "type": "node",
      "id": 9296328868,
      "lat": 12.9755262,
      "lon": 77.5868996,
      "tags": {
        "amenity": "bench",
        "backrest": "no",
        "material": "stone",
        "seats": "2"
      }
    },
    {
      "type": "node",
      "id": 9296328869,
      "lat": 12.9755517,
      "lon": 77.5868815,
      "tags": {
        "amenity": "bench",
        "backrest": "no",
        "material": "stone",
        "seats": "2"
      }
    },
    {
      "type": "node",
      "id": 9296328870,
      "lat": 12.9755765,
      "lon": 77.5868641,
      "tags": {
        "amenity": "bench",
        "backrest": "no",
        "material": "stone",
        "seats": "2"
      }
    },
    {
      "type": "node",
      "id": 9296328871,
      "lat": 12.9755968,
      "lon": 77.586844,
      "tags": {
        "amenity": "bench",
        "backrest": "no",
        "material": "stone",
        "seats": "2"
      }
    },
    {
      "type": "node",
      "id": 9296328872,
      "lat": 12.9754766,
      "lon": 77.5869258,
      "tags": {
        "amenity": "waste_basket"
      }
    },
    {
      "type": "node",
      "id": 9777549169,
      "lat": 12.9719232,
      "lon": 77.5866602,
      "tags": {
        "amenity": "fast_food",
        "name": "Snacks Stall"
      }
    },
    {
      "type": "node",
      "id": 9777549177,
      "lat": 12.9724806,
      "lon": 77.5861314,
      "tags": {
        "access": "yes",
        "amenity": "toilets",
        "fee": "no",
        "female": "yes"
      }
    },
    {
      "type": "node",
      "id": 9777549178,
      "lat": 12.9724388,
      "lon": 77.5861369,
      "tags": {
        "access": "yes",
        "amenity": "toilets",
        "fee": "no",
        "male": "yes"
      }
    },
    {
      "type": "node",
      "id": 9777549183,
      "lat": 12.9726552,
      "lon": 77.5862976,
      "tags": {
        "access": "permissive",
        "amenity": "parking",
        "capacity": "20",
        "parking": "surface"
      }
    },
    {
      "type": "node",
      "id": 9870744984,
      "lat": 12.9777739,
      "lon": 77.5849965,
      "tags": {
        "shop": "convenience"
      }
    },
    {
      "type": "node",
      "id": 9870839702,
      "lat": 12.9749264,
      "lon": 77.5772309,
      "tags": {
        "brand": "Nandini",
        "name": "Nandini",
        "shop": "dairy"
      }
    },
    {
      "type": "node",
      "id": 10006930137,
      "lat": 12.9742756,
      "lon": 77.5734383,
      "tags": {
        "access": "yes",
        "amenity": "toilets",
        "fee": "yes",
        "operator": "BBMP"
      }
    },
    {
      "type": "node",
      "id": 10073419802,
      "lat": 12.9851903,
      "lon": 77.5806709,
      "tags": {
        "addr:floor": "G",
        "air_conditioning": "yes",
        "alt_name": "Nerlu Cafe",
        "amenity": "cafe",
        "check_date": "2025-08-24",
        "cuisine": "coffee_shop",
        "internet_access": "wlan",
        "internet_access:fee": "no",
        "internet_access:ssid": "Nerlu",
        "level": "0",
        "name": "ner.lu",
        "outdoor_seating": "yes",
        "start_date": "2022-07-01"
      }
    },
    {
      "type": "node",
      "id": 10183537173,
      "lat": 12.980802,
      "lon": 77.5770619,
      "tags": {
        "amenity": "shelter",
        "shelter_type": "gazebo"
      }
    },
    {
      "type": "node",
      "id": 10228570999,
      "lat": 12.9861382,
      "lon": 77.5800704,
      "tags": {
        "name": "Excelsior",
        "shop": "travel_agency"
      }
    },
    {
      "type": "node",
      "id": 10579312537,
      "lat": 12.9777636,
      "lon": 77.5888047,
      "tags": {
        "amenity": "fire_station",
        "name": "Bengaluru Secretariat Fire Station"
      }
    },
    {
      "type": "node",
      "id": 10628437914,
      "lat": 12.975895,
      "lon": 77.5774641,
      "tags": {
        "addr:city": "Bangalore",
        "addr:housenumber": "1st floor, near Thribhuvan Theatre, Gandhi Nagar",
        "addr:postcode": "560009",
        "addr:street": "5th Main Rd",
        "brand": "DMart",
        "brand:wikidata": "Q5203271",
        "check_date": "2023-02-09",
        "name": "DMart",
        "operator": "D Mart",
        "shop": "supermarket"
      }
    },
    {
      "type": "node",
      "id": 11061435985,
      "lat": 12.9847784,
      "lon": 77.5808621,
      "tags": {
        "amenity": "bar",
        "name": "The Burrow"
      }
    },
    {
      "type": "node",
      "id": 11235447336,
      "lat": 12.9749553,
      "lon": 77.5729774,
      "tags": {
        "amenity": "bench",
        "backrest": "yes",
        "colour": "gray",
        "layer": "-2",
        "level": "-2",
        "material": "metal",
        "seats": "2"
      }
    },
    {
      "type": "node",
      "id": 11235488737,
      "lat": 12.9749572,
      "lon": 77.5729077,
      "tags": {
        "amenity": "bench",
        "backrest": "yes",
        "colour": "gray",
        "layer": "-2",
        "level": "-2",
        "material": "metal",
        "seats": "2"
      }
    },
    {
      "type": "node",
      "id": 11235488738,
      "lat": 12.9752422,
      "lon": 77.5729736,
      "tags": {
        "amenity": "bench",
        "backrest": "yes",
        "colour": "gray",
        "layer": "-2",
        "level": "-2",
        "material": "metal",
        "seats": "2"
      }
    },
    {
      "type": "node",
      "id": 11235488739,
      "lat": 12.9752439,
      "lon": 77.5729103,
      "tags": {
        "amenity": "bench",
        "backrest": "yes",
        "colour": "gray",
        "layer": "-2",
        "level": "-2",
        "material": "metal",
        "seats": "2"
      }
    },
    {
      "type": "node",
      "id": 11235488740,
      "lat": 12.9757397,
      "lon": 77.5729905,
      "tags": {
        "amenity": "bench",
        "backrest": "yes",
        "colour": "gray",
        "layer": "-2",
        "level": "-2",
        "material": "metal",
        "seats": "2"
      }
    },
    {
      "type": "node",
      "id": 11235488741,
      "lat": 12.9757431,
      "lon": 77.5729309,
      "tags": {
        "amenity": "bench",
        "backrest": "yes",
        "colour": "gray",
        "layer": "-2",
        "level": "-2",
        "material": "metal",
        "seats": "2"
      }
    },
    {
      "type": "node",
      "id": 11235488742,
      "lat": 12.9754652,
      "lon": 77.5729756,
      "tags": {
        "amenity": "bench",
        "backrest": "yes",
        "colour": "gray",
        "layer": "-2",
        "level": "-2",
        "material": "metal",
        "seats": "2"
      }
    },
    {
      "type": "node",
      "id": 11235488743,
      "lat": 12.9754681,
      "lon": 77.5729115,
      "tags": {
        "amenity": "bench",
        "backrest": "yes",
        "colour": "gray",
        "layer": "-2",
        "level": "-2",
        "material": "metal",
        "seats": "2"
      }
    },
    {
      "type": "node",
      "id": 11235488744,
      "lat": 12.9756229,
      "lon": 77.5729254,
      "tags": {
        "amenity": "bench",
        "backrest": "yes",
        "colour": "gray",
        "layer": "-2",
        "level": "-2",
        "material": "metal",
        "seats": "2"
      }
    },
    {
      "type": "node",
      "id": 11235488745,
      "lat": 12.9756198,
      "lon": 77.5729864,
      "tags": {
        "amenity": "bench",
        "backrest": "yes",
        "colour": "gray",
        "layer": "-2",
        "level": "-2",
        "material": "metal",
        "seats": "2"
      }
    },
    {
      "type": "node",
      "id": 11235488746,
      "lat": 12.9758794,
      "lon": 77.5729832,
      "tags": {
        "amenity": "bench",
        "backrest": "yes",
        "colour": "gray",
        "layer": "-2",
        "level": "-2",
        "material": "metal",
        "seats": "2"
      }
    },
    {
      "type": "node",
      "id": 11235488747,
      "lat": 12.9758808,
      "lon": 77.5729363,
      "tags": {
        "amenity": "bench",
        "backrest": "yes",
        "colour": "gray",
        "layer": "-2",
        "level": "-2",
        "material": "metal",
        "seats": "2"
      }
    },
    {
      "type": "node",
      "id": 11293544523,
      "lat": 12.9755232,
      "lon": 77.5731638,
      "tags": {
        "amenity": "bench",
        "backrest": "yes",
        "colour": "gray",
        "layer": "-1",
        "level": "-1",
        "material": "metal",
        "seats": "2"
      }
    },
    {
      "type": "node",
      "id": 11293544525,
      "lat": 12.9755525,
      "lon": 77.5728364,
      "tags": {
        "amenity": "bench",
        "backrest": "yes",
        "colour": "gray",
        "layer": "-1",
        "level": "-1",
        "material": "metal",
        "seats": "2"
      }
    },
    {
      "type": "node",
      "id": 11293544527,
      "lat": 12.9755722,
      "lon": 77.5725278,
      "tags": {
        "amenity": "bench",
        "backrest": "yes",
        "colour": "gray",
        "layer": "-1",
        "level": "-1",
        "material": "metal",
        "seats": "2"
      }
    },
    {
      "type": "node",
      "id": 11293544528,
      "lat": 12.9755946,
      "lon": 77.5722535,
      "tags": {
        "amenity": "bench",
        "backrest": "yes",
        "colour": "gray",
        "layer": "-1",
        "level": "-1",
        "material": "metal",
        "seats": "2"
      }
    },
    {
      "type": "node",
      "id": 11293544530,
      "lat": 12.9756151,
      "lon": 77.5719313,
      "tags": {
        "amenity": "bench",
        "backrest": "yes",
        "colour": "gray",
        "layer": "-1",
        "level": "-1",
        "material": "metal",
        "seats": "2"
      }
    },
    {
      "type": "node",
      "id": 11293544542,
      "lat": 12.9758467,
      "lon": 77.5731758,
      "tags": {
        "amenity": "bench",
        "backrest": "yes",
        "colour": "gray",
        "layer": "-1",
        "level": "-1",
        "material": "metal",
        "seats": "2"
      }
    },
    {
      "type": "node",
      "id": 11293544544,
      "lat": 12.9758754,
      "lon": 77.5728396,
      "tags": {
        "amenity": "bench",
        "backrest": "yes",
        "colour": "gray",
        "layer": "-1",
        "level": "-1",
        "material": "metal",
        "seats": "2"
      }
    },
    {
      "type": "node",
      "id": 11293544546,
      "lat": 12.9759156,
      "lon": 77.572271,
      "tags": {
        "amenity": "bench",
        "backrest": "yes",
        "colour": "gray",
        "layer": "-1",
        "level": "-1",
        "material": "metal",
        "seats": "2"
      }
    },
    {
      "type": "node",
      "id": 11293544549,
      "lat": 12.9759448,
      "lon": 77.5719584,
      "tags": {
        "amenity": "bench",
        "backrest": "yes",
        "colour": "gray",
        "layer": "-1",
        "level": "-1",
        "material": "metal",
        "seats": "2"
      }
    },
    {
      "type": "node",
      "id": 11304774635,
      "lat": 12.9696253,
      "lon": 77.5756956,
      "tags": {
        "clothes": "women;traditional",
        "level": "1;2;3",
        "name": "Srinidhi Silk",
        "shop": "clothes",
        "wheelchair": "no"
      }
    },
    {
      "type": "node",
      "id": 11304774637,
      "lat": 12.9690028,
      "lon": 77.5766738,
      "tags": {
        "clothes": "traditional",
        "name": "Sudarshan Silks",
        "shop": "clothes"
      }
    },
    {
      "type": "node",
      "id": 11304774640,
      "lat": 12.9697214,
      "lon": 77.5757325,
      "tags": {
        "amenity": "fast_food",
        "cuisine": "juice",
        "level": "0",
        "name": "Bhavani Juice Center"
      }
    },
    {
      "type": "node",
      "id": 11304774641,
      "lat": 12.9689646,
      "lon": 77.5773285,
      "tags": {
        "clothes": "traditional;men",
        "level": "0",
        "name": "Kurta Ghar",
        "shop": "clothes"
      }
    },
    {
      "type": "node",
      "id": 11304864993,
      "lat": 12.9764244,
      "lon": 77.5717454,
      "tags": {
        "amenity": "restaurant",
        "level": "0",
        "name": "Kadamba Veg"
      }
    },
    {
      "type": "node",
      "id": 11408768738,
      "lat": 12.9736666,
      "lon": 77.5830855,
      "tags": {
        "amenity": "charging_station",
        "charging_station:battery_swapping": "yes"
      }
    },
    {
      "type": "node",
      "id": 11408768739,
      "lat": 12.9736032,
      "lon": 77.5830124,
      "tags": {
        "name": "Continental Coffee",
        "shop": "kiosk"
      }
    },
    {
      "type": "node",
      "id": 11408768740,
      "lat": 12.9735836,
      "lon": 77.5829541,
      "tags": {
        "name": "The Cane Joint",
        "shop": "kiosk"
      }
    },
    {
      "type": "node",
      "id": 11420343300,
      "lat": 12.9720865,
      "lon": 77.5822514,
      "tags": {
        "amenity": "parking_entrance",
        "fee": "yes",
        "lit": "yes",
        "parking": "underground",
        "supervised": "yes"
      }
    },
    {
      "type": "node",
      "id": 11494352436,
      "lat": 12.9758929,
      "lon": 77.5725584,
      "tags": {
        "amenity": "bench",
        "backrest": "yes",
        "colour": "gray",
        "layer": "-1",
        "level": "-1",
        "material": "metal",
        "seats": "2"
      }
    },
    {
      "type": "node",
      "id": 11513366269,
      "lat": 12.975007,
      "lon": 77.571684,
      "tags": {
        "amenity": "bus_station",
        "name:ru": "Автобус до Путтапарти - платформа 9"
      }
    },
    {
      "type": "node",
      "id": 11533105779,
      "lat": 12.9777049,
      "lon": 77.5776713,
      "tags": {
        "addr:city": "Beṅgaḷūru",
        "addr:neighborhood": "Gāndhinagara",
        "addr:state": "KA",
        "amenity": "bureau_de_change",
        "currency:CAD": "yes",
        "currency:EUR": "yes",
        "currency:GBP": "yes",
        "currency:INR": "yes",
        "currency:USD": "yes",
        "email": "slnforexservices@yahoo.co.in",
        "facebook": "slnforex",
        "name": "SLN",
        "name:en": "SLN Forex Services, Pvt. Ltd.",
        "opening_hours": "Mo-Sa 11:00-19:00",
        "phone": "+91 98453 51716",
        "short_name:kn": "ಎಸ್ಎಲ್ಎನ್"
      }
    },
    {
      "type": "node",
      "id": 11535240176,
      "lat": 12.97995,
      "lon": 77.5771154,
      "tags": {
        "addr:city": "Beṅgaḷūru",
        "addr:neighborhood": "Gāndhinagara",
        "addr:state": "KA",
        "alt_name:ur": "دیسی مسالہا",
        "amenity": "restaurant",
        "contact:instagram": "desimasala_veg",
        "cuisine": "indian;buffet",
        "diet:vegetarian": "yes",
        "email": "enquiry@thedesimasala.net",
        "facebook": "desimasalaveg",
        "name": "Desī Masālā",
        "name:hi": "देसी मसाला",
        "name:hi-Latn": "Desī Masālā",
        "name:ur": "دیسی مصالحہ",
        "name:ur-Latn": "Desī Masālhā",
        "opening_hours": "07:00-23:00",
        "phone": "+91-7406324999",
        "website": "http://www.thedesimasala.net/GANDHI%20NAGAR.html"
      }
    },
    {
      "type": "node",
      "id": 11539135182,
      "lat": 12.9776114,
      "lon": 77.5778024,
      "tags": {
        "addr:city": "Beṅgaḷūru",
        "addr:neighborhood": "Gāndhinagara",
        "addr:postcode": "560009",
        "alt_name:en": "Idli-Dosa-Coffee Kitchen",
        "alt_name:en1": "Idli, Dosa, Coffee Kitchen",
        "alt_name:kn-Latn": "Iḍli, Dōse, Kāphi",
        "alt_name:tl": "Kusinang IDC",
        "amenity": "restaurant",
        "cuisine": "indian;coffee",
        "diet:vegetarian": "yes",
        "email": "hello@idckitchen.com",
        "name": "IDC Kitchen",
        "name:cbk-zam": "Cocina IDC",
        "name:ceb": "Kosinang IDC",
        "name:es": "Cocina IDC",
        "name:hil": "Kosina IDC",
        "name:krj": "Kosina IDC",
        "name:pag": "Kosinan IDC",
        "name:pam": "Kosínang IDC",
        "name:tl": "Kosinang IDC",
        "website": "https://www.idckitchen.com/"
      }
    },
    {
      "type": "node",
      "id": 11539135183,
      "lat": 12.9790306,
      "lon": 77.5762924,
      "tags": {
        "addr:city": "Beṅgaḷūru",
        "addr:neighborhood": "Gāndhinagara",
        "amenity": "restaurant",
        "cuisine": "indian",
        "diet:vegetarian": "yes",
        "name": "Sai Grand",
        "name:es": "Gran Sāyi",
        "name:kn": "ಸಾಯಿ ಗ್ರ್ಯಾಂಡ್",
        "name:kn-Latn": "Sāyi Gryāṇḍ",
        "phone": "+919901899080"
      }
    },
    {
      "type": "node",
      "id": 11540382457,
      "lat": 12.9788456,
      "lon": 77.5794256,
      "tags": {
        "addr:city": "Beṅgaḷūru",
        "addr:neighborhood": "Gāndhinagara",
        "amenity": "restaurant",
        "cuisine": "indian",
        "diet:vegetarian": "yes",
        "name": "Bharaṇi Kafe",
        "name:en": "Bharaṇi Café",
        "name:es": "Café Bharaṇi",
        "name:kn": "ಭರಣಿ ಕಫ಼ೆ",
        "name:kn-Latn": "Bharaṇi Kafe",
        "phone": "+919243103062"
      }
    },
    {
      "type": "node",
      "id": 11540382458,
      "lat": 12.9775335,
      "lon": 77.57581,
      "tags": {
        "addr:city": "Beṅgaḷūru",
        "addr:neighborhood": "Gāndhinagara",
        "amenity": "restaurant",
        "cuisine": "indian",
        "diet:vegetarian": "yes",
        "name": "Priyadarśini",
        "name:en": "Priyadarshini Restaurant",
        "name:es": "Restaurante Priyadarśini",
        "name:it": "Ristorante Priyadarśini",
        "name:kn": "ಪ್ರಿಯದರ್ಶಿನಿ",
        "opening_hours": "07:00-22:00",
        "phone": "+918022263793"
      }
    },
    {
      "type": "node",
      "id": 11592710084,
      "lat": 12.9762005,
      "lon": 77.5755635,
      "tags": {
        "addr:city": "Beṅgaḷūru",
        "addr:neighborhood": "Gāndhinagara",
        "addr:state": "KA",
        "amenity": "pharmacy",
        "dispensing": "yes",
        "drive_through": "no",
        "healthcare": "pharmacy",
        "name:en": "Gururāja Medicals",
        "name:hi-Latn": "Gururāj",
        "name:ur-Latn": "Gururāj",
        "opening_hours": "08:00-22:00",
        "phone": "+9180 2225 6783;+918022911966;+917259440612",
        "website": "https://business.google.com/website/gururaja-medicals"
      }
    },
    {
      "type": "node",
      "id": 11659529326,
      "lat": 12.9771364,
      "lon": 77.5771411,
      "tags": {
        "air_conditioning": "yes",
        "amenity": "bar",
        "brewery": "yes;various",
        "check_date": "2024-02-24",
        "internet_access": "no",
        "name": "Talk of The Town",
        "outdoor_seating": "no",
        "payment:cash": "yes",
        "payment:credit_cards": "yes",
        "payment:debit_cards": "yes",
        "smoking": "separated",
        "source": "local knowledge",
        "wheelchair": "yes"
      }
    },
    {
      "type": "node",
      "id": 11677179244,
      "lat": 12.9804393,
      "lon": 77.5752107,
      "tags": {
        "check_date": "2024-02-29",
        "name": "Mayura",
        "name:kn": "ಮಯೂರ",
        "shop": "travel_agency"
      }
    },
    {
      "type": "node",
      "id": 11677179245,
      "lat": 12.9804465,
      "lon": 77.5752381,
      "tags": {
        "check_date": "2024-02-29",
        "name": "MB Travels",
        "shop": "travel_agency"
      }
    },
    {
      "type": "node",
      "id": 11677179246,
      "lat": 12.9801578,
      "lon": 77.5746927,
      "tags": {
        "check_date": "2024-02-29",
        "name": "Green Line Travels",
        "shop": "travel_agency"
      }
    },
    {
      "type": "node",
      "id": 11677179247,
      "lat": 12.9800474,
      "lon": 77.574728,
      "tags": {
        "check_date": "2024-02-29",
        "name": "Johar Brothers",
        "shop": "paint"
      }
    },
    {
      "type": "node",
      "id": 11677179248,
      "lat": 12.9801761,
      "lon": 77.5750915,
      "tags": {
        "check_date": "2024-02-29",
        "name": "Sri Durga Mamba Travels",
        "shop": "travel_agency"
      }
    },
    {
      "type": "node",
      "id": 11677179249,
      "lat": 12.9799643,
      "lon": 77.5747326,
      "tags": {
        "check_date": "2024-02-29",
        "name": "Foto Circle",
        "shop": "photo"
      }
    },
    {
      "type": "node",
      "id": 11677179251,
      "lat": 12.9795114,
      "lon": 77.5748405,
      "tags": {
        "amenity": "restaurant",
        "check_date": "2024-02-29",
        "name": "Kanteen"
      }
    },
    {
      "type": "node",
      "id": 11677179255,
      "lat": 12.9779603,
      "lon": 77.5752566,
      "tags": {
        "amenity": "restaurant",
        "check_date": "2024-02-29",
        "name": "Chicken County"
      }
    },
    {
      "type": "node",
      "id": 11677179256,
      "lat": 12.9781021,
      "lon": 77.5752146,
      "tags": {
        "amenity": "pharmacy",
        "check_date": "2024-02-29",
        "healthcare": "pharmacy",
        "name": "Sri Krishna Medicals"
      }
    },
    {
      "type": "node",
      "id": 11677179257,
      "lat": 12.9781549,
      "lon": 77.5751407,
      "tags": {
        "check_date": "2024-02-29",
        "name": "Sri Surya Bakery",
        "shop": "bakery"
      }
    },
    {
      "type": "node",
      "id": 11677179258,
      "lat": 12.9783199,
      "lon": 77.5758629,
      "tags": {
        "amenity": "post_office",
        "brand": "Desk to Desk Courier & Cargo",
        "brand:short": "DTDC",
        "brand:wikidata": "Q55608802",
        "check_date": "2024-02-29",
        "operator": "Desk to Desk Courier & Cargo",
        "operator:short": "DTDC",
        "operator:wikidata": "Q55608802"
      }
    },
    {
      "type": "node",
      "id": 11677179259,
      "lat": 12.9783689,
      "lon": 77.5760446,
      "tags": {
        "amenity": "restaurant",
        "check_date": "2024-02-29",
        "name": "Sri Kenchamba"
      }
    },
    {
      "type": "node",
      "id": 11677179261,
      "lat": 12.9777076,
      "lon": 77.5753452,
      "tags": {
        "amenity": "restaurant",
        "check_date": "2024-02-29",
        "name": "Hotel Sagar"
      }
    },
    {
      "type": "node",
      "id": 11677179262,
      "lat": 12.9776633,
      "lon": 77.5753444,
      "tags": {
        "amenity": "bar",
        "check_date": "2024-02-29"
      }
    },
    {
      "type": "node",
      "id": 11677179263,
      "lat": 12.9783411,
      "lon": 77.575127,
      "tags": {
        "amenity": "pharmacy",
        "check_date": "2024-02-29",
        "healthcare": "pharmacy",
        "name": "Amogh Medical"
      }
    },
    {
      "type": "node",
      "id": 11681947667,
      "lat": 12.9773711,
      "lon": 77.5754648,
      "tags": {
        "amenity": "bar",
        "check_date": "2024-03-01",
        "name": "MRP Kick Tonic"
      }
    },
    {
      "type": "node",
      "id": 11681947668,
      "lat": 12.9773338,
      "lon": 77.5754773,
      "tags": {
        "check_date": "2024-03-01",
        "name": "Anand Readymade",
        "shop": "clothes"
      }
    },
    {
      "type": "node",
      "id": 11681984870,
      "lat": 12.9765077,
      "lon": 77.57598,
      "tags": {
        "amenity": "bank",
        "brand": "State Bank of India",
        "brand:wikidata": "Q1340361",
        "check_date": "2024-03-01",
        "name": "State Bank of India",
        "name:kn": "ಎಸ್ ಬಿ ಐ",
        "short_name": "SBI"
      }
    },
    {
      "type": "node",
      "id": 11681984871,
      "lat": 12.9765774,
      "lon": 77.5760043,
      "tags": {
        "brand": "Liberty",
        "brand:wikidata": "Q6541947",
        "check_date": "2024-03-01",
        "name": "Liberty Exclusive Showroom",
        "shop": "shoes"
      }
    },
    {
      "type": "node",
      "id": 11681984872,
      "lat": 12.976644,
      "lon": 77.5759972,
      "tags": {
        "check_date": "2024-03-01",
        "name": "Titan",
        "operator": "Pearl Times",
        "shop": "watches"
      }
    },
    {
      "type": "node",
      "id": 11681984873,
      "lat": 12.9766767,
      "lon": 77.5761455,
      "tags": {
        "amenity": "restaurant",
        "check_date": "2024-03-01",
        "name": "Amulya Veg Restaurant"
      }
    },
    {
      "type": "node",
      "id": 11681984874,
      "lat": 12.9764963,
      "lon": 77.575402,
      "tags": {
        "amenity": "place_of_worship",
        "check_date": "2024-03-01",
        "name": "Sri Annammadevi Mahasamsthana",
        "religion": "hindu"
      }
    },
    {
      "type": "node",
      "id": 11681984875,
      "lat": 12.9762717,
      "lon": 77.5756226,
      "tags": {
        "check_date": "2024-03-01",
        "name": "Red Apple",
        "shop": "clothes"
      }
    },
    {
      "type": "node",
      "id": 11681984876,
      "lat": 12.976119,
      "lon": 77.5758997,
      "tags": {
        "amenity": "bar",
        "check_date": "2024-03-01",
        "name": "Tushar Bar"
      }
    },
    {
      "type": "node",
      "id": 11681984877,
      "lat": 12.9759237,
      "lon": 77.5760702,
      "tags": {
        "amenity": "fast_food",
        "brand": "Domino's",
        "brand:wikidata": "Q839466",
        "check_date": "2024-03-01",
        "cuisine": "pizza",
        "name": "Domino's",
        "takeaway": "yes"
      }
    },
    {
      "type": "node",
      "id": 11681984878,
      "lat": 12.9758159,
      "lon": 77.5757621,
      "tags": {
        "amenity": "restaurant",
        "check_date": "2024-03-01",
        "name": "Ashok Ahaar"
      }
    },
    {
      "type": "node",
      "id": 11681984879,
      "lat": 12.9761176,
      "lon": 77.5756168,
      "tags": {
        "check_date": "2024-03-01",
        "name": "Friendship Clothing",
        "shop": "clothes"
      }
    },
    {
      "type": "node",
      "id": 11681984880,
      "lat": 12.9764331,
      "lon": 77.5758915,
      "tags": {
        "amenity": "place_of_worship",
        "check_date": "2024-03-01",
        "mobile": "+91 9886285380",
        "name": "Hazrat Sued Adam Shah Qadri",
        "religion": "muslim"
      }
    },
    {
      "type": "node",
      "id": 11681984881,
      "lat": 12.9771368,
      "lon": 77.5758801,
      "tags": {
        "check_date": "2024-03-01",
        "name": "City Bag Corner",
        "shop": "bag"
      }
    },
    {
      "type": "node",
      "id": 11681984882,
      "lat": 12.9771207,
      "lon": 77.5761475,
      "tags": {
        "amenity": "restaurant",
        "check_date": "2024-03-01",
        "name": "Sri Maruthi Gowdas Military Hotel"
      }
    },
    {
      "type": "node",
      "id": 11681984883,
      "lat": 12.9771317,
      "lon": 77.5759938,
      "tags": {
        "check_date": "2024-03-01",
        "name": "Ganga Shopping Centre",
        "shop": "bag"
      }
    },
    {
      "type": "node",
      "id": 11683098373,
      "lat": 12.9764266,
      "lon": 77.5794711,
      "tags": {
        "amenity": "bank",
        "brand": "Indian Overseas Bank",
        "brand:wikidata": "Q2003611",
        "check_date": "2024-03-02",
        "name": "Indian Overseas Bank",
        "name:kn": "ಐ ಓ ಬಿ"
      }
    },
    {
      "type": "node",
      "id": 11683098374,
      "lat": 12.9782362,
      "lon": 77.5808398,
      "tags": {
        "amenity": "bank",
        "brand": "Union Bank of India",
        "brand:wikidata": "Q2004078",
        "check_date": "2024-03-02",
        "name": "Union Bank of India"
      }
    },
    {
      "type": "node",
      "id": 11683412072,
      "lat": 12.975934,
      "lon": 77.575407,
      "tags": {
        "name": "APSRTC",
        "shop": "travel_agency"
      }
    },
    {
      "type": "node",
      "id": 11684647125,
      "lat": 12.977236,
      "lon": 77.5725038,
      "tags": {
        "brand": "Nandini",
        "check_date": "2024-03-02",
        "name": "Nandini",
        "name:kn": "ನಂದಿನಿ",
        "shop": "dairy"
      }
    },
    {
      "type": "node",
      "id": 11687235826,
      "lat": 12.9826054,
      "lon": 77.5746398,
      "tags": {
        "access": "yes",
        "amenity": "toilets",
        "check_date": "2024-03-03",
        "fee": "yes",
        "operator": "BBMP"
      }
    },
    {
      "type": "node",
      "id": 11687235827,
      "lat": 12.9807471,
      "lon": 77.5766813,
      "tags": {
        "amenity": "fast_food",
        "check_date": "2024-03-03",
        "name": "The Kingdom"
      }
    },
    {
      "type": "node",
      "id": 11693091281,
      "lat": 12.9736287,
      "lon": 77.5861788,
      "tags": {
        "addr:city": "Bengaluru",
        "addr:country": "IN",
        "addr:full": "Nrupathunga Road Sampangi Rama Nagar, Ambedkar Veedhi, Bengaluru, Karnataka",
        "addr:postcode": "560001",
        "addr:state": "Karnataka",
        "addr:street": "Nrupathunga Road",
        "addr:suburb": "Sampangiram Nagar",
        "amenity": "college",
        "name": "Government Science College",
        "operator:type": "public",
        "start_date": "1921",
        "website": "http://www.gscblr.kar.nic.in/",
        "wikidata": "Q48726301",
        "wikipedia": "en:Government Science College, Bangalore"
      }
    },
    {
      "type": "node",
      "id": 11693091282,
      "lat": 12.9738939,
      "lon": 77.5850362,
      "tags": {
        "addr:city": "Bengaluru",
        "addr:country": "IN",
        "addr:full": "Nrupathunga Road Sampangi Rama Nagar, Ambedkar Veedhi, Bengaluru, Karnataka",
        "addr:postcode": "560001",
        "addr:state": "Karnataka",
        "addr:street": "Nrupathunga Road",
        "addr:suburb": "Sampangiram Nagar",
        "amenity": "college",
        "name": "Government Arts College",
        "name:kn": "ಸರ್ಕಾರಿ ಕಲಾ ಕಾಲೇಜು",
        "operator:type": "public",
        "start_date": "1886",
        "website": "https://gfgc.kar.nic.in/gac/",
        "wikidata": "Q43371323",
        "wikipedia": "en:Government Arts College, Ambedkar Veedhi"
      }
    },
    {
      "type": "node",
      "id": 11693115445,
      "lat": 12.9780714,
      "lon": 77.588914,
      "tags": {
        "access": "private",
        "amenity": "parking_entrance",
        "parking": "underground"
      }
    },
    {
      "type": "node",
      "id": 11693119185,
      "lat": 12.9778716,
      "lon": 77.5891162,
      "tags": {
        "access": "private",
        "amenity": "parking_entrance",
        "parking": "underground"
      }
    },
    {
      "type": "node",
      "id": 11696866839,
      "lat": 12.975095,
      "lon": 77.5842717,
      "tags": {
        "amenity": "college",
        "name": "Central College",
        "name:kn": "ಕೇಂದ್ರೀಯ ಕಾಲೇಜು",
        "old_name": "Central High School",
        "start_date": "1858",
        "wikidata": "Q5060603",
        "wikipedia": "en:Central College, Bangalore"
      }
    },
    {
      "type": "node",
      "id": 11696866861,
      "lat": 12.980325,
      "lon": 77.5832927,
      "tags": {
        "amenity": "college",
        "name": "Maharani's Arts, Commerce and Management College",
        "start_date": "1975"
      }
    },
    {
      "type": "node",
      "id": 11696866862,
      "lat": 12.9775492,
      "lon": 77.583451,
      "tags": {
        "amenity": "college",
        "name": "VHD Home Science College",
        "official_name": "Smt V.H.D Central Institute of Home Science College",
        "start_date": "1964"
      }
    },
    {
      "type": "node",
      "id": 11696866863,
      "lat": 12.9795827,
      "lon": 77.5839847,
      "tags": {
        "amenity": "college",
        "name": "Maharani's Science College for Women",
        "start_date": "1938"
      }
    },
    {
      "type": "node",
      "id": 11739418619,
      "lat": 12.973696,
      "lon": 77.5867018,
      "tags": {
        "amenity": "shelter",
        "bench": "yes",
        "covered": "yes",
        "shelter": "yes",
        "shelter_type": "public_transport"
      }
    },
    {
      "type": "node",
      "id": 11739418620,
      "lat": 12.9738005,
      "lon": 77.5867058,
      "tags": {
        "amenity": "shelter",
        "bench": "yes",
        "covered": "yes",
        "shelter": "yes",
        "shelter_type": "public_transport"
      }
    },
    {
      "type": "node",
      "id": 11769497884,
      "lat": 12.9788023,
      "lon": 77.5873983,
      "tags": {
        "amenity": "bench",
        "backrest": "yes",
        "material": "concrete",
        "seats": "2"
      }
    },
    {
      "type": "node",
      "id": 11769497885,
      "lat": 12.9787945,
      "lon": 77.5873978,
      "tags": {
        "amenity": "bench",
        "backrest": "yes",
        "material": "concrete",
        "seats": "2"
      }
    },
    {
      "type": "node",
      "id": 11769497886,
      "lat": 12.9787936,
      "lon": 77.5874071,
      "tags": {
        "amenity": "bench",
        "backrest": "yes",
        "material": "concrete",
        "seats": "2"
      }
    },
    {
      "type": "node",
      "id": 11951350412,
      "lat": 12.984684,
      "lon": 77.5824702,
      "tags": {
        "amenity": "bench"
      }
    },
    {
      "type": "node",
      "id": 11951350413,
      "lat": 12.9846445,
      "lon": 77.5825397,
      "tags": {
        "amenity": "bench"
      }
    },
    {
      "type": "node",
      "id": 11978689172,
      "lat": 12.9803939,
      "lon": 77.5742692,
      "tags": {
        "description": "Daily trips to : Hyderabad, Pune Chennai, GOA, Mangalore, Ernakulam, Tirchy, Palakad",
        "name": "Saleem travels",
        "phone": "9886889756",
        "shop": "ticket"
      }
    },
    {
      "type": "node",
      "id": 12000326829,
      "lat": 12.984181,
      "lon": 77.5826369,
      "tags": {
        "amenity": "waste_basket"
      }
    },
    {
      "type": "node",
      "id": 12000326830,
      "lat": 12.9846977,
      "lon": 77.5817917,
      "tags": {
        "amenity": "place_of_worship",
        "check_date": "2024-06-22",
        "religion": "hindu"
      }
    },
    {
      "type": "node",
      "id": 12002046035,
      "lat": 12.977855,
      "lon": 77.5812757,
      "tags": {
        "amenity": "charging_station",
        "fee": "yes",
        "motorcar": "yes",
        "motorcycle": "yes"
      }
    },
    {
      "type": "node",
      "id": 12002046036,
      "lat": 12.9775675,
      "lon": 77.5811148,
      "tags": {
        "access": "yes",
        "amenity": "toilets"
      }
    },
    {
      "type": "node",
      "id": 12118846712,
      "lat": 12.9844944,
      "lon": 77.5847934,
      "tags": {
        "amenity": "post_box"
      }
    },
    {
      "type": "node",
      "id": 12133368720,
      "lat": 12.9795623,
      "lon": 77.5854743,
      "tags": {
        "amenity": "post_box",
        "operator": "India Post"
      }
    },
    {
      "type": "node",
      "id": 12134082436,
      "lat": 12.9790145,
      "lon": 77.5852812,
      "tags": {
        "amenity": "college",
        "name": "Government Institute of Printing Technology",
        "website": "https://gpt.karnataka.gov.in/"
      }
    },
    {
      "type": "node",
      "id": 12137668900,
      "lat": 12.9784135,
      "lon": 77.5844751,
      "tags": {
        "amenity": "bench",
        "backrest": "no",
        "material": "stone",
        "seats": "4"
      }
    },
    {
      "type": "node",
      "id": 12137671601,
      "lat": 12.9783729,
      "lon": 77.5844504,
      "tags": {
        "amenity": "bench",
        "backrest": "no",
        "material": "stone",
        "seats": "4"
      }
    },
    {
      "type": "node",
      "id": 12137671602,
      "lat": 12.9783283,
      "lon": 77.5844252,
      "tags": {
        "amenity": "bench",
        "backrest": "no",
        "material": "stone",
        "seats": "4"
      }
    },
    {
      "type": "node",
      "id": 12137671603,
      "lat": 12.9781933,
      "lon": 77.5847139,
      "tags": {
        "amenity": "bench",
        "backrest": "yes",
        "seats": "2"
      }
    },
    {
      "type": "node",
      "id": 12137671604,
      "lat": 12.9781413,
      "lon": 77.584684,
      "tags": {
        "amenity": "bench",
        "backrest": "yes",
        "seats": "2"
      }
    },
    {
      "type": "node",
      "id": 12137671605,
      "lat": 12.9782314,
      "lon": 77.5843414,
      "tags": {
        "amenity": "bench",
        "backrest": "no",
        "material": "stone",
        "seats": "4"
      }
    },
    {
      "type": "node",
      "id": 12137671606,
      "lat": 12.9782289,
      "lon": 77.5842961,
      "tags": {
        "amenity": "bench",
        "backrest": "no",
        "material": "stone",
        "seats": "4"
      }
    },
    {
      "type": "node",
      "id": 12137671607,
      "lat": 12.9782259,
      "lon": 77.5842469,
      "tags": {
        "amenity": "bench",
        "backrest": "no",
        "material": "stone",
        "seats": "4"
      }
    },
    {
      "type": "node",
      "id": 12137671662,
      "lat": 12.9768752,
      "lon": 77.5798383,
      "tags": {
        "name": "Kamat Tourist",
        "shop": "travel_agency"
      }
    },
    {
      "type": "node",
      "id": 12137671668,
      "lat": 12.9747615,
      "lon": 77.5816294,
      "tags": {
        "alt_name": "Government Law College",
        "amenity": "college",
        "heritage": "2",
        "heritage:operator": "nmma",
        "heritage:website": "https://nmma.nic.in/nmma/exploreBuiltState.do?state=29",
        "name": "University Law College",
        "name:kn": "ಸರ್ಕಾರಿ ಕಲಾ ಕಾಲೇಜು, ಅಂಬೇಡ್ಕರ್‌ ವೀಧಿ",
        "ref:nmma": "KR20010948",
        "website": "https://ulcbangalore.com/",
        "wikidata": "Q7894802",
        "wikipedia": "en:University Law College, Bangalore University"
      }
    },
    {
      "type": "node",
      "id": 12137671670,
      "lat": 12.9731431,
      "lon": 77.581687,
      "tags": {
        "access": "yes",
        "amenity": "toilets",
        "fee": "yes",
        "operator": "BBMP"
      }
    },
    {
      "type": "node",
      "id": 12137671674,
      "lat": 12.9717968,
      "lon": 77.583093,
      "tags": {
        "amenity": "waste_basket"
      }
    },
    {
      "type": "node",
      "id": 12137671675,
      "lat": 12.9717837,
      "lon": 77.5831083,
      "tags": {
        "amenity": "waste_basket"
      }
    },
    {
      "type": "node",
      "id": 12138994480,
      "lat": 12.9827661,
      "lon": 77.5870331,
      "tags": {
        "amenity": "place_of_worship",
        "religion": "hindu"
      }
    },
    {
      "type": "node",
      "id": 12157272456,
      "lat": 12.9776116,
      "lon": 77.5723551,
      "tags": {
        "check_date": "2024-08-27",
        "internet_access": "no",
        "name": "Kadamba Coffee Kendra",
        "payment:cash": "yes",
        "shop": "bakery",
        "wheelchair": "yes"
      }
    },
    {
      "type": "node",
      "id": 12429035733,
      "lat": 12.9836885,
      "lon": 77.5772591,
      "tags": {
        "branch": "Milk Parlour",
        "brand": "Nandini",
        "brand:wikidata": "Q124374212",
        "name": "Nandini",
        "shop": "dairy"
      }
    },
    {
      "type": "node",
      "id": 12429067004,
      "lat": 12.9810408,
      "lon": 77.5745756,
      "tags": {
        "amenity": "bench",
        "armrest": "yes",
        "backrest": "yes",
        "material": "metal",
        "seats": "2"
      }
    },
    {
      "type": "node",
      "id": 12438024630,
      "lat": 12.9855114,
      "lon": 77.5788172,
      "tags": {
        "amenity": "bank",
        "brand": "Canara Bank",
        "brand:en": "Canara Bank",
        "brand:hi": "केनरा बैंक",
        "brand:kn": "ಕೆನರಾ ಬ್ಯಾಂಕ್",
        "brand:pa": "ਕੇਨਰਾ ਬੈਂਕ",
        "brand:pnb": "کینرا بینک",
        "brand:ur": "کینرا بینک",
        "brand:wikidata": "Q2003777",
        "name": "Canara Bank",
        "name:en": "Canara Bank",
        "name:hi": "केनरा बैंक",
        "name:kn": "ಕೆನರಾ ಬ್ಯಾಂಕ್",
        "name:pa": "ਕੇਨਰਾ ਬੈਂਕ",
        "name:pnb": "کینرا بینک",
        "name:ur": "کینرا بینک"
      }
    },
    {
      "type": "node",
      "id": 12441822767,
      "lat": 12.9845106,
      "lon": 77.5783868,
      "tags": {
        "brand": "Xiaomi",
        "brand:wikidata": "Q1636958",
        "check_date": "2024-12-22",
        "name": "Xiaomi",
        "shop": "mobile_phone"
      }
    },
    {
      "type": "node",
      "id": 12506944682,
      "lat": 12.9778629,
      "lon": 77.5734718,
      "tags": {
        "amenity": "toilets",
        "wheelchair": "no"
      }
    },
    {
      "type": "node",
      "id": 12506944683,
      "lat": 12.9778851,
      "lon": 77.571259,
      "tags": {
        "amenity": "fast_food"
      }
    },
    {
      "type": "node",
      "id": 12506944684,
      "lat": 12.9784,
      "lon": 77.5718417,
      "tags": {
        "amenity": "fast_food"
      }
    },
    {
      "type": "node",
      "id": 12506944685,
      "lat": 12.9785535,
      "lon": 77.5724063,
      "tags": {
        "amenity": "fast_food"
      }
    },
    {
      "type": "node",
      "id": 12506944686,
      "lat": 12.9781027,
      "lon": 77.5732076,
      "tags": {
        "amenity": "fast_food"
      }
    },
    {
      "type": "node",
      "id": 12506944687,
      "lat": 12.9778557,
      "lon": 77.5733035,
      "tags": {
        "amenity": "drinking_water"
      }
    },
    {
      "type": "node",
      "id": 12506944688,
      "lat": 12.9778773,
      "lon": 77.57304,
      "tags": {
        "amenity": "drinking_water"
      }
    },
    {
      "type": "node",
      "id": 12506944689,
      "lat": 12.9782504,
      "lon": 77.5726819,
      "tags": {
        "amenity": "fast_food"
      }
    },
    {
      "type": "node",
      "id": 12506944690,
      "lat": 12.9783124,
      "lon": 77.5724137,
      "tags": {
        "amenity": "drinking_water"
      }
    },
    {
      "type": "node",
      "id": 12506944691,
      "lat": 12.978217,
      "lon": 77.5720167,
      "tags": {
        "amenity": "fast_food"
      }
    },
    {
      "type": "node",
      "id": 12506944692,
      "lat": 12.9779955,
      "lon": 77.5717753,
      "tags": {
        "amenity": "drinking_water"
      }
    },
    {
      "type": "node",
      "id": 12506944695,
      "lat": 12.977925,
      "lon": 77.5723064,
      "tags": {
        "amenity": "drinking_water"
      }
    },
    {
      "type": "node",
      "id": 12506944696,
      "lat": 12.9778877,
      "lon": 77.5725304,
      "tags": {
        "amenity": "fast_food"
      }
    },
    {
      "type": "node",
      "id": 12506944697,
      "lat": 12.9777034,
      "lon": 77.5727047,
      "tags": {
        "access": "yes",
        "amenity": "toilets"
      }
    },
    {
      "type": "node",
      "id": 12525844609,
      "lat": 12.9835318,
      "lon": 77.5745101,
      "tags": {
        "amenity": "place_of_worship",
        "check_date": "2025-01-23",
        "religion": "muslim"
      }
    },
    {
      "type": "node",
      "id": 12538083621,
      "lat": 12.9776263,
      "lon": 77.5878847,
      "tags": {
        "amenity": "fast_food",
        "name": "Canteen"
      }
    },
    {
      "type": "node",
      "id": 12538083622,
      "lat": 12.9781058,
      "lon": 77.5876583,
      "tags": {
        "amenity": "bench",
        "backrest": "yes",
        "seats": "2"
      }
    },
    {
      "type": "node",
      "id": 12538083623,
      "lat": 12.9781054,
      "lon": 77.5876382,
      "tags": {
        "amenity": "bench",
        "backrest": "yes",
        "seats": "2"
      }
    },
    {
      "type": "node",
      "id": 12538083624,
      "lat": 12.9780957,
      "lon": 77.5875356,
      "tags": {
        "amenity": "bench",
        "backrest": "yes",
        "seats": "2"
      }
    },
    {
      "type": "node",
      "id": 12538083625,
      "lat": 12.9780953,
      "lon": 77.5875155,
      "tags": {
        "amenity": "bench",
        "backrest": "yes",
        "seats": "2"
      }
    },
    {
      "type": "node",
      "id": 12538083626,
      "lat": 12.9780846,
      "lon": 77.5874143,
      "tags": {
        "amenity": "bench",
        "backrest": "yes",
        "seats": "2"
      }
    },
    {
      "type": "node",
      "id": 12538083627,
      "lat": 12.9780842,
      "lon": 77.5873942,
      "tags": {
        "amenity": "bench",
        "backrest": "yes",
        "seats": "2"
      }
    },
    {
      "type": "node",
      "id": 12538083628,
      "lat": 12.9781437,
      "lon": 77.58726,
      "tags": {
        "amenity": "bench",
        "backrest": "yes",
        "seats": "2"
      }
    },
    {
      "type": "node",
      "id": 12538083629,
      "lat": 12.978159,
      "lon": 77.5872474,
      "tags": {
        "amenity": "bench",
        "backrest": "yes",
        "seats": "2"
      }
    },
    {
      "type": "node",
      "id": 12538083630,
      "lat": 12.9782055,
      "lon": 77.5871842,
      "tags": {
        "amenity": "bench",
        "backrest": "yes",
        "seats": "2"
      }
    },
    {
      "type": "node",
      "id": 12538083631,
      "lat": 12.9782207,
      "lon": 77.5871716,
      "tags": {
        "amenity": "bench",
        "backrest": "yes",
        "seats": "2"
      }
    },
    {
      "type": "node",
      "id": 12538083632,
      "lat": 12.9782761,
      "lon": 77.587084,
      "tags": {
        "amenity": "bench",
        "backrest": "yes",
        "seats": "2"
      }
    },
    {
      "type": "node",
      "id": 12538083633,
      "lat": 12.9782913,
      "lon": 77.5870713,
      "tags": {
        "amenity": "bench",
        "backrest": "yes",
        "seats": "2"
      }
    },
    {
      "type": "node",
      "id": 12538083634,
      "lat": 12.9783618,
      "lon": 77.5870781,
      "tags": {
        "amenity": "bench",
        "backrest": "yes",
        "seats": "2"
      }
    },
    {
      "type": "node",
      "id": 12538083635,
      "lat": 12.9783781,
      "lon": 77.5870893,
      "tags": {
        "amenity": "bench",
        "backrest": "yes",
        "seats": "2"
      }
    },
    {
      "type": "node",
      "id": 12538083636,
      "lat": 12.9784395,
      "lon": 77.5871368,
      "tags": {
        "amenity": "bench",
        "backrest": "yes",
        "seats": "2"
      }
    },
    {
      "type": "node",
      "id": 12538083637,
      "lat": 12.9784558,
      "lon": 77.5871479,
      "tags": {
        "amenity": "bench",
        "backrest": "yes",
        "seats": "2"
      }
    },
    {
      "type": "node",
      "id": 12538083638,
      "lat": 12.9785307,
      "lon": 77.5872042,
      "tags": {
        "amenity": "bench",
        "backrest": "yes",
        "seats": "2"
      }
    },
    {
      "type": "node",
      "id": 12538083639,
      "lat": 12.978547,
      "lon": 77.5872153,
      "tags": {
        "amenity": "bench",
        "backrest": "yes",
        "seats": "2"
      }
    },
    {
      "type": "node",
      "id": 12538083640,
      "lat": 12.9786352,
      "lon": 77.5872779,
      "tags": {
        "amenity": "bench",
        "backrest": "yes",
        "seats": "2"
      }
    },
    {
      "type": "node",
      "id": 12538083641,
      "lat": 12.9786515,
      "lon": 77.5872891,
      "tags": {
        "amenity": "bench",
        "backrest": "yes",
        "seats": "2"
      }
    },
    {
      "type": "node",
      "id": 12538083642,
      "lat": 12.9787159,
      "lon": 77.5873369,
      "tags": {
        "amenity": "bench",
        "backrest": "yes",
        "seats": "2"
      }
    },
    {
      "type": "node",
      "id": 12538083643,
      "lat": 12.9787322,
      "lon": 77.5873481,
      "tags": {
        "amenity": "bench",
        "backrest": "yes",
        "seats": "2"
      }
    },
    {
      "type": "node",
      "id": 12538083644,
      "lat": 12.9786669,
      "lon": 77.5874414,
      "tags": {
        "amenity": "bench",
        "backrest": "yes",
        "seats": "2"
      }
    },
    {
      "type": "node",
      "id": 12538083645,
      "lat": 12.9786846,
      "lon": 77.5874327,
      "tags": {
        "amenity": "bench",
        "backrest": "yes",
        "seats": "2"
      }
    },
    {
      "type": "node",
      "id": 12538083646,
      "lat": 12.9785803,
      "lon": 77.5874857,
      "tags": {
        "amenity": "bench",
        "backrest": "yes",
        "seats": "2"
      }
    },
    {
      "type": "node",
      "id": 12538083647,
      "lat": 12.978598,
      "lon": 77.587477,
      "tags": {
        "amenity": "bench",
        "backrest": "yes",
        "seats": "2"
      }
    },
    {
      "type": "node",
      "id": 12538083648,
      "lat": 12.9784758,
      "lon": 77.587542,
      "tags": {
        "amenity": "bench",
        "backrest": "yes",
        "seats": "2"
      }
    },
    {
      "type": "node",
      "id": 12538083649,
      "lat": 12.9784934,
      "lon": 77.5875333,
      "tags": {
        "amenity": "bench",
        "backrest": "yes",
        "seats": "2"
      }
    },
    {
      "type": "node",
      "id": 12538083650,
      "lat": 12.9783951,
      "lon": 77.5875863,
      "tags": {
        "amenity": "bench",
        "backrest": "yes",
        "seats": "2"
      }
    },
    {
      "type": "node",
      "id": 12538083651,
      "lat": 12.9784127,
      "lon": 77.5875776,
      "tags": {
        "amenity": "bench",
        "backrest": "yes",
        "seats": "2"
      }
    },
    {
      "type": "node",
      "id": 12538083652,
      "lat": 12.9783141,
      "lon": 77.5876305,
      "tags": {
        "amenity": "bench",
        "backrest": "yes",
        "seats": "2"
      }
    },
    {
      "type": "node",
      "id": 12538083653,
      "lat": 12.9783317,
      "lon": 77.5876218,
      "tags": {
        "amenity": "bench",
        "backrest": "yes",
        "seats": "2"
      }
    },
    {
      "type": "node",
      "id": 12538083654,
      "lat": 12.9782428,
      "lon": 77.5876661,
      "tags": {
        "amenity": "bench",
        "backrest": "yes",
        "seats": "2"
      }
    },
    {
      "type": "node",
      "id": 12538083655,
      "lat": 12.9782605,
      "lon": 77.5876573,
      "tags": {
        "amenity": "bench",
        "backrest": "yes",
        "seats": "2"
      }
    },
    {
      "type": "node",
      "id": 12538083656,
      "lat": 12.9781863,
      "lon": 77.5876929,
      "tags": {
        "amenity": "bench",
        "backrest": "yes",
        "seats": "2"
      }
    },
    {
      "type": "node",
      "id": 12538083657,
      "lat": 12.9781687,
      "lon": 77.5877016,
      "tags": {
        "amenity": "bench",
        "backrest": "yes",
        "seats": "2"
      }
    },
    {
      "type": "node",
      "id": 12669960228,
      "lat": 12.9771331,
      "lon": 77.576774,
      "tags": {
        "name": "Universal Agro Seeds",
        "shop": "agrarian"
      }
    },
    {
      "type": "node",
      "id": 12669960229,
      "lat": 12.9769016,
      "lon": 77.5770539,
      "tags": {
        "name": "Zee Collections",
        "shop": "clothes"
      }
    },
    {
      "type": "node",
      "id": 12686350457,
      "lat": 12.9836392,
      "lon": 77.5855122,
      "tags": {
        "amenity": "atm",
        "brand": "Union Bank of India",
        "brand:wikidata": "Q2004078",
        "check_date": "2025-03-21",
        "operator": "Union Bank of India",
        "operator:wikidata": "Q2004078"
      }
    },
    {
      "type": "node",
      "id": 12856900607,
      "lat": 12.9743239,
      "lon": 77.5841188,
      "tags": {
        "access": "permissive",
        "addr:floor": "-1",
        "amenity": "toilets",
        "female": "yes",
        "fixme": "Accurate location within station",
        "level": "-1",
        "male": "yes",
        "operator": "BMRCL",
        "toilets:handwashing": "yes",
        "toilets:position": "urinal"
      }
    },
    {
      "type": "node",
      "id": 12942443654,
      "lat": 12.9736523,
      "lon": 77.5791633,
      "tags": {
        "addr:floor": "G",
        "addr:housenumber": "9, 12",
        "addr:street": "Kempe Gowda Road",
        "brand": "Ramraj Cotton",
        "brand:wikidata": "Q119161281",
        "check_date": "2025-06-21",
        "level": "0",
        "name": "Ramraj Cotton",
        "name:en": "Ramraj Cotton",
        "shop": "clothes"
      }
    },
    {
      "type": "node",
      "id": 12968607916,
      "lat": 12.9723719,
      "lon": 77.578395,
      "tags": {
        "addr:city": "Chickpet, Bengaluru",
        "addr:district": "Bengaluru Urban",
        "addr:housenumber": "Shop no 42",
        "addr:postcode": "560053",
        "addr:street": "kilari road",
        "name": "Mahaveer Glass Creators- Interior Glass Creators",
        "opening_hours": "Mo-Sa 10:00-19:00",
        "operator": "Mahaveer Chand",
        "phone": "+91 98459 43997",
        "shop": "glass"
      }
    },
    {
      "type": "node",
      "id": 13081636281,
      "lat": 12.9691873,
      "lon": 77.5799446,
      "tags": {
        "addr:city": "Bangalore",
        "addr:district": "karnataka",
        "addr:housenumber": "68",
        "addr:postcode": "560002",
        "addr:street": "Chowdeshwari Temple Street",
        "name": "MB Jewels - Emerald Dealer EJI",
        "opening_hours": "Mo-Sa 11:00-19:30",
        "phone": "08041510855",
        "shop": "wholesale",
        "wholesale": "jewellery_store"
      }
    },
    {
      "type": "node",
      "id": 13086275908,
      "lat": 12.979026,
      "lon": 77.5776266,
      "tags": {
        "amenity": "restaurant",
        "contact:instagram": "extrachutney.blr",
        "cuisine": "south_indian",
        "name": "Extra Chutney"
      }
    },
    {
      "type": "node",
      "id": 13086275912,
      "lat": 12.985053,
      "lon": 77.5791058,
      "tags": {
        "amenity": "cafe",
        "contact:instagram": "blancthecoffeeplace_",
        "cuisine": "coffee_shop",
        "name": "Blanc The Coffee Place"
      }
    },
    {
      "type": "node",
      "id": 13162084334,
      "lat": 12.976245,
      "lon": 77.5787283,
      "tags": {
        "amenity": "restaurant",
        "bar": "yes",
        "cuisine": "indian;italian;chinese",
        "delivery": "yes",
        "diet:lactose_free": "limited",
        "diet:sugar_free": "no",
        "diet:vegan": "no",
        "diet:vegetarian": "yes",
        "indoor_seating": "yes",
        "internet_access": "no",
        "level": "4",
        "name": "Chin Lung",
        "opening_hours": "00:00-00:30, 12:00-00:00",
        "operator": "Kalinga Hospitality",
        "outdoor_seating": "yes",
        "reservation": "recommended",
        "service:electricity": "limited",
        "smoking": "yes",
        "takeaway": "yes",
        "toilets:access": "customers",
        "toilets:disposal": "flush",
        "toilets:fee": "no",
        "toilets:gender_segregated": "yes",
        "toilets:hands_drying": "electric_hand_dryer;paper_towel",
        "toilets:handwashing": "yes",
        "toilets:position": "seated;urinal",
        "toilets:wheelchair": "no",
        "wikimedia_commons": "Category:Chin_Lung,_Majestic_Gandhinagar,_Bangalore"
      }
    },
    {
      "type": "node",
      "id": 13205603110,
      "lat": 12.9757341,
      "lon": 77.5715103,
      "tags": {
        "access": "yes",
        "amenity": "drinking_water",
        "bottle": "yes",
        "indoor": "yes"
      }
    },
    {
      "type": "way",
      "id": 22895320,
      "center": {
        "lat": 12.974182,
        "lon": 77.5934146
      },
      "tags": {
        "dog": "leashed",
        "historic:name": "Meade's Park",
        "leisure": "park",
        "name": "Cubbon Park",
        "name:etymology:wikidata": "Q6767214",
        "name:hi": "कब्बन पार्क",
        "name:kn": "ಕಬ್ಬನ್ ಉದ್ಯಾನ",
        "name:ml": "കബ്ബൺ പാർക്ക്",
        "name:te": "కబ్బన్ పార్క్",
        "official_name": "Sri Chamarajendra Park",
        "official_name:kn": "ಶ್ರೀ ಚಾಮರಾಜೇಂದ್ರ ಉದ್ಯಾನ",
        "pets": "yes",
        "start_date": "1864",
        "website": "https://cubbonpark.in/",
        "wikidata": "Q3633776",
        "wikimedia_commons": "Category:Cubbon Park",
        "wikipedia": "en:Cubbon Park"
      }
    },
    {
      "type": "way",
      "id": 36884560,
      "center": {
        "lat": 12.9774067,
        "lon": 77.5819036
      },
      "tags": {
        "leisure": "park",
        "name": "Freedom Park",
        "wikidata": "Q5500576",
        "wikimedia_commons": "Category:Freedom Park, Bengaluru",
        "wikipedia": "en:Freedom Park, Bangalore"
      }
    },
    {
      "type": "way",
      "id": 37869985,
      "center": {
        "lat": 12.9823794,
        "lon": 77.5809442
      },
      "tags": {
        "alt_name": "Mysore Race Club",
        "leisure": "sports_centre",
        "name": "Bangalore Race Course",
        "official_name": "Bangalore Turf Club",
        "sport": "horse_racing"
      }
    },
    {
      "type": "way",
      "id": 38542549,
      "center": {
        "lat": 12.9781351,
        "lon": 77.586146
      },
      "tags": {
        "amenity": "college",
        "landuse": "education",
        "name": "Sri Jayachamarajendra Government Polytechnic",
        "name:etymology:wikidata": "Q1391321",
        "start_date": "1943"
      }
    },
    {
      "type": "way",
      "id": 38542913,
      "center": {
        "lat": 12.9708175,
        "lon": 77.5857431
      },
      "tags": {
        "addr:district": "Bengaluru Urban",
        "addr:full": "Office No-05, Nrupathunga Road",
        "addr:postcode": "560001",
        "addr:state": "Karnataka",
        "amenity": "hospital",
        "email": "info.sm@nhhospitals.org",
        "emergency": "yes",
        "healthcare": "hospital",
        "name": "St Marthas Hospital",
        "name:kn": "ಸೆಂಟ್ ಮಾರ್ಥ ಆಸ್ಪತ್ರೆ",
        "operator:type": "private",
        "source": "OpenGovernmentData",
        "website": "https://www.narayanahealth.org/"
      }
    },
    {
      "type": "way",
      "id": 38542914,
      "center": {
        "lat": 12.973065,
        "lon": 77.585197
      },
      "tags": {
        "addr:city": "Bengaluru",
        "addr:country": "IN",
        "addr:full": "Nrupathunga Road Sampangi Rama Nagar, Ambedkar Veedhi, Bengaluru, Karnataka",
        "addr:postcode": "560001",
        "addr:state": "Karnataka",
        "addr:street": "Nrupathunga Road",
        "addr:suburb": "Sampangiram Nagar",
        "amenity": "university",
        "landuse": "education",
        "name": "Nrupathunga University",
        "name:kn": "ನೃಪತುಂಗ ವಿಸ್ವವಿದ್ಯಲಾಯ",
        "old_name": "Government Arts and Science College",
        "start_date": "2020",
        "website": "https://nublr.karnataka.gov.in"
      }
    },
    {
      "type": "way",
      "id": 38542916,
      "center": {
        "lat": 12.9743137,
        "lon": 77.5891402
      },
      "tags": {
        "leisure": "sports_centre",
        "name": "Century Club"
      }
    },
    {
      "type": "way",
      "id": 38871254,
      "center": {
        "lat": 12.98014,
        "lon": 77.5892343
      },
      "tags": {
        "leisure": "garden"
      }
    },
    {
      "type": "way",
      "id": 38872968,
      "center": {
        "lat": 12.9784331,
        "lon": 77.5873824
      },
      "tags": {
        "leisure": "park",
        "name": "MS Building Park"
      }
    },
    {
      "type": "way",
      "id": 52033450,
      "center": {
        "lat": 12.9707231,
        "lon": 77.5879282
      },
      "tags": {
        "brand": "YMCA",
        "brand:wikidata": "Q157169",
        "leisure": "sports_centre",
        "name": "YMCA"
      }
    },
    {
      "type": "way",
      "id": 52057925,
      "center": {
        "lat": 12.9760978,
        "lon": 77.5894513
      },
      "tags": {
        "leisure": "sports_centre",
        "name": "Government Secretariat Club - KGSC"
      }
    },
    {
      "type": "way",
      "id": 52063723,
      "center": {
        "lat": 12.9746822,
        "lon": 77.5860683
      },
      "tags": {
        "amenity": "college",
        "landuse": "education",
        "name": "University Visvesvaraya College of Engineering",
        "name:etymology:wikidata": "Q741700",
        "name:kn": "ವಿಶ್ವೇಶ್ವರಯ್ಯ ಇಂಜಿನೀಯರಿಂಗ್ ಕಾಲೇಜು",
        "old_name": "Government College of Engineering",
        "short_name": "UVCE",
        "website": "https://uvce.ac.in/",
        "wikidata": "Q7894978",
        "wikimedia_commons": "Category:University Visvesvaraya College of Engineering",
        "wikipedia": "en:University Visvesvaraya College of Engineering"
      }
    },
    {
      "type": "way",
      "id": 52244609,
      "center": {
        "lat": 12.9692305,
        "lon": 77.5854109
      },
      "tags": {
        "leisure": "park",
        "name": "Banappa Park",
        "name:kn": "ಬನಪ್ಪ ಉದ್ಯಾನ"
      }
    },
    {
      "type": "way",
      "id": 52245874,
      "center": {
        "lat": 12.9742464,
        "lon": 77.5830767
      },
      "tags": {
        "leisure": "park"
      }
    },
    {
      "type": "way",
      "id": 52245886,
      "center": {
        "lat": 12.9756965,
        "lon": 77.5837361
      },
      "tags": {
        "amenity": "theatre",
        "building": "yes",
        "name": "Jnana Jyothi Auditorium"
      }
    },
    {
      "type": "way",
      "id": 53857356,
      "center": {
        "lat": 12.973735,
        "lon": 77.5722733
      },
      "tags": {
        "alt_name": "Chikka Lalbagh",
        "fixme": "Proper boundaries and walkways",
        "leisure": "park",
        "name": "Lokmanya Tilak Park",
        "name:etymology:wikidata": "Q312555",
        "old_name": "Tulasi Thota"
      }
    },
    {
      "type": "way",
      "id": 150797673,
      "center": {
        "lat": 12.9822669,
        "lon": 77.5807312
      },
      "tags": {
        "area": "no",
        "leisure": "track"
      }
    },
    {
      "type": "way",
      "id": 150894237,
      "center": {
        "lat": 12.9783109,
        "lon": 77.5782654
      },
      "tags": {
        "leisure": "park",
        "name": "Gandhinagar Park"
      }
    },
    {
      "type": "way",
      "id": 169825314,
      "center": {
        "lat": 12.9762636,
        "lon": 77.5776481
      },
      "tags": {
        "name": "National Market",
        "shop": "supermarket"
      }
    },
    {
      "type": "way",
      "id": 169825315,
      "center": {
        "lat": 12.9765714,
        "lon": 77.5778274
      },
      "tags": {
        "name": "Sukh Sagar Shopping Center",
        "shop": "supermarket"
      }
    },
    {
      "type": "way",
      "id": 169825729,
      "center": {
        "lat": 12.9750683,
        "lon": 77.5775136
      },
      "tags": {
        "addr:city": "Bangalore",
        "addr:postcode": "560009",
        "addr:street": "Kempe Gowda Road",
        "amenity": "marketplace",
        "building": "commercial",
        "name": "Janata Bazaar",
        "name:kn": "ಜನತಾ ಬಜಾರ್"
      }
    },
    {
      "type": "way",
      "id": 202289066,
      "center": {
        "lat": 12.984553,
        "lon": 77.5832329
      },
      "tags": {
        "access": "customers",
        "amenity": "parking",
        "name": "Bangalore Turf Club Parking",
        "parking": "surface"
      }
    },
    {
      "type": "way",
      "id": 208827393,
      "center": {
        "lat": 12.9835106,
        "lon": 77.58689
      },
      "tags": {
        "addr:street": "Race Course Road",
        "amenity": "college",
        "landuse": "education",
        "name": "Govt R C College",
        "official_name": "Government Ramnarayan Chellaram College of Commerce & Management"
      }
    },
    {
      "type": "way",
      "id": 208827410,
      "center": {
        "lat": 12.9824307,
        "lon": 77.5864574
      },
      "tags": {
        "addr:city": "Bengaluru",
        "addr:country": "IN",
        "addr:housenumber": "3",
        "addr:postcode": "560001",
        "addr:street": "Palace Road",
        "addr:suburb": "High Grounds",
        "amenity": "public_building",
        "landuse": "commercial",
        "name": "High Court of Karnataka Administrative Block"
      }
    },
    {
      "type": "way",
      "id": 208827412,
      "center": {
        "lat": 12.9814206,
        "lon": 77.5855355
      },
      "tags": {
        "amenity": "police",
        "name": "CID Office",
        "old_name": "Carlton House"
      }
    },
    {
      "type": "way",
      "id": 208827417,
      "center": {
        "lat": 12.9744236,
        "lon": 77.5757995
      },
      "tags": {
        "leisure": "park"
      }
    },
    {
      "type": "way",
      "id": 239832511,
      "center": {
        "lat": 12.9781534,
        "lon": 77.572425
      },
      "tags": {
        "alt_name": "Majestic Bus Station",
        "amenity": "bus_station",
        "bus": "yes",
        "int_name": "BMTC Bus Stand",
        "name": "Kempegowda Bus Station",
        "name:etymology:wikidata": "Q6387049",
        "name:kn": "ಕೆಂಪೇಗೌಡ ಬಸ್ ನಿಲ್ದಾಣ",
        "operator": "BMTC",
        "public_transport": "station",
        "wheelchair": "no",
        "wikidata": "Q15235446",
        "wikimedia_commons": "Category:Kempegowda Bus Station",
        "wikipedia": "en:Kempegowda Bus Station"
      }
    },
    {
      "type": "way",
      "id": 322488099,
      "center": {
        "lat": 12.975059,
        "lon": 77.5716077
      },
      "tags": {
        "amenity": "bus_station",
        "bus": "yes",
        "name": "KSRTC Bus Terminal 3",
        "name:kn": "ಕ ರಾ ರ ಸಾ ನಿ ಬಸ್ ನಿಲ್ದಾಣ ೩",
        "operator": "KSRTC",
        "public_transport": "station",
        "wheelchair": "limited"
      }
    },
    {
      "type": "way",
      "id": 338941357,
      "center": {
        "lat": 12.9799332,
        "lon": 77.5885707
      },
      "tags": {
        "access": "private",
        "amenity": "parking",
        "parking": "surface"
      }
    },
    {
      "type": "way",
      "id": 347018372,
      "center": {
        "lat": 12.9703914,
        "lon": 77.5744849
      },
      "tags": {
        "amenity": "cinema",
        "building": "yes",
        "name": "Vijaya Laxmi Theatre",
        "name:kn": "ವಿಜಯಲಕ್ಷ್ಮಿ"
      }
    },
    {
      "type": "way",
      "id": 347042595,
      "center": {
        "lat": 12.9727366,
        "lon": 77.5752163
      },
      "tags": {
        "amenity": "place_of_worship",
        "building": "yes",
        "name": "Sri Adinatha Digambar Jain Temple",
        "religion": "jain"
      }
    },
    {
      "type": "way",
      "id": 347144975,
      "center": {
        "lat": 12.973605,
        "lon": 77.5775709
      },
      "tags": {
        "amenity": "cinema",
        "building": "yes",
        "name": "Abhinaya Theater",
        "name:kn": "ಅಭಿನಯ ಚಿತ್ರಮಂದಿರ"
      }
    },
    {
      "type": "way",
      "id": 347145204,
      "center": {
        "lat": 12.9744591,
        "lon": 77.5787142
      },
      "tags": {
        "building": "commercial",
        "building:levels": "5",
        "name": "Pothys",
        "shop": "clothes"
      }
    },
    {
      "type": "way",
      "id": 347145257,
      "center": {
        "lat": 12.9758713,
        "lon": 77.5753213
      },
      "tags": {
        "addr:city": "Bengaluru",
        "addr:postcode": "560009",
        "addr:street": "Subedar Chatram Road, Gandhi Nagar",
        "amenity": "theatre",
        "building": "yes",
        "name": "Triveni Theatre"
      }
    },
    {
      "type": "way",
      "id": 347145437,
      "center": {
        "lat": 12.9771917,
        "lon": 77.5761083
      },
      "tags": {
        "addr:city": "Bengaluru",
        "addr:street": "2nd Cross Road",
        "amenity": "bank",
        "atm": "yes",
        "brand": "Central Bank of India",
        "brand:wikidata": "Q2007090",
        "building": "yes",
        "drive_through": "no",
        "name": "Central Bank of India",
        "operator": "Central Bank of India"
      }
    },
    {
      "type": "way",
      "id": 347146270,
      "center": {
        "lat": 12.9761616,
        "lon": 77.5753707
      },
      "tags": {
        "addr:city": "Bengaluru",
        "addr:postcode": "560009",
        "addr:street": "Subedar Chatram Road, Gandhi Nagar",
        "amenity": "cinema",
        "building": "yes",
        "name": "Anupama Theatre"
      }
    },
    {
      "type": "way",
      "id": 347175855,
      "center": {
        "lat": 12.9772161,
        "lon": 77.5768728
      },
      "tags": {
        "building": "yes",
        "name": "Samrudhi Agro Seeds",
        "shop": "agrarian"
      }
    },
    {
      "type": "way",
      "id": 347175871,
      "center": {
        "lat": 12.978694,
        "lon": 77.5744614
      },
      "tags": {
        "addr:city": "Gandhi Nagar, Bangalore",
        "addr:housename": "Near Gandhrava Uapahara",
        "addr:street": "4th Cross",
        "amenity": "hospital",
        "building": "yes",
        "emergency": "no",
        "healthcare": "hospital",
        "name": "Ramakrishna Clinic"
      }
    },
    {
      "type": "way",
      "id": 347176018,
      "center": {
        "lat": 12.9772258,
        "lon": 77.5769877
      },
      "tags": {
        "building": "yes",
        "name": "Karnataka Khadi Bhandaar",
        "shop": "clothes"
      }
    },
    {
      "type": "way",
      "id": 347176084,
      "center": {
        "lat": 12.977223,
        "lon": 77.5765521
      },
      "tags": {
        "building": "yes",
        "name": "Babu Khadi Wear",
        "shop": "clothes"
      }
    },
    {
      "type": "way",
      "id": 348098092,
      "center": {
        "lat": 12.9771074,
        "lon": 77.5792163
      },
      "tags": {
        "amenity": "restaurant",
        "building": "yes",
        "cuisine": "indian",
        "name": "Sōmēśvaram",
        "name:en": "Someshwaram Café",
        "name:es": "Café Sōmēśvaram",
        "name:hi": "सोमेश्वर",
        "name:hi-Latn": "Someśvar",
        "name:kn": "ಸೋಮೇಶ್ವರಂ",
        "name:kn-Latn": "Sōmēśvaram",
        "name:sa": "सोमेश्वर",
        "name:sa-Latn": "Someśvara",
        "name:ur": "سومیشور",
        "name:ur-Latn": "Someśvar"
      }
    },
    {
      "type": "way",
      "id": 348098104,
      "center": {
        "lat": 12.9784686,
        "lon": 77.5807085
      },
      "tags": {
        "addr:city": "Beṅgaḷūru",
        "addr:neighborhood": "Gāndhinagara",
        "addr:postcode": "560009",
        "alt_name:en": "Maha Bodhi Society;Loka Shanti Buddhist Vihara;Loka Shanti Buddhist Monastery",
        "alt_name:es": "Sociedad Mahābodhi",
        "alt_name:fr": "Société Mahābodhi",
        "alt_name:hi": "महाबोधी सॉसाययटी",
        "alt_name:it": "Società Mahābodhi",
        "alt_name:kn": "ಮಹಾಬೋಧಿ ಲೋಕ ಶಾಂತಿ ಬುದ್ಧ ವಿಹಾರ",
        "amenity": "monastery",
        "denomination": "theravada",
        "landuse": "religious",
        "name": "Lōka Śānti Vihāra",
        "name:cbk-zam": "Monasterio Lokasanti",
        "name:ceb": "Monasteryong Lokësënti",
        "name:da": "Lokasanti Kloster",
        "name:de": "Kloster Lokasanti",
        "name:en": "Loka Shanti Buddha Vihara",
        "name:eo": "Monaĥejo Lokasanti",
        "name:es": "Monasterio Lokasanti",
        "name:fr": "Monastère Lokasanti",
        "name:hi": "लोक शान्ती विहार",
        "name:hi-Latn": "Lok Śāntī Vihār",
        "name:hil": "Monasteryo Lokësënti",
        "name:id": "Wihara Lokasanti",
        "name:it": "Monastero Lokasanti",
        "name:kn": "ಲೋಕ ಶಾಂತಿ ವಿಹಾರ",
        "name:krj": "Monasteryo Lokësënti",
        "name:la": "Monastērium Lokasanti",
        "name:ms": "Biara Lokasanti",
        "name:nb": "Lokasanti kloster",
        "name:nn": "Lokasanti kloster",
        "name:pag": "Monasteryon Lokësënti",
        "name:pam": "Monasteriung Lokasanti",
        "name:pi": "𑀮𑁄𑀓𑀲𑀦𑁆𑀢𑀺𑀯𑀺𑀳𑀸𑀭",
        "name:pi-Latn": "Lokasantivihāra",
        "name:pt": "Mosteiro Lokasanti",
        "name:sa": "लोकशान्तिविहार",
        "name:si": "ලොකසන‍්තිවිහාර",
        "name:tl": "Monasteryong Lokësënti",
        "name:ur": "لوک شانتی وہار",
        "name:ur-Latn": "Lok Śāntī Vihār",
        "name:vec": "Monastièr Lokasanti",
        "operator:wikidata": "Q122974374",
        "religion": "buddhist",
        "service_times": "Su Mo Tu We Th Fr Sa 09:00-19:00",
        "short_name:en": "MBS",
        "wikidata": "Q122974263"
      }
    },
    {
      "type": "way",
      "id": 350790256,
      "center": {
        "lat": 12.9723736,
        "lon": 77.5762017
      },
      "tags": {
        "amenity": "place_of_worship",
        "building": "yes",
        "religion": "hindu"
      }
    },
    {
      "type": "way",
      "id": 351342259,
      "center": {
        "lat": 12.9711404,
        "lon": 77.5801439
      },
      "tags": {
        "addr:street": "Avenue Road",
        "amenity": "place_of_worship",
        "building": "church",
        "denomination": "church_of_south_india",
        "name": "Rice Memorial Church",
        "religion": "christian",
        "wikidata": "Q24935415",
        "wikimedia_commons": "Category:Rice Memorial Church, Bangalore",
        "wikipedia": "en:Rice Memorial Church, Bangalore"
      }
    },
    {
      "type": "way",
      "id": 351384825,
      "center": {
        "lat": 12.9801752,
        "lon": 77.5845128
      },
      "tags": {
        "amenity": "theatre",
        "building": "yes",
        "building:part": "yes",
        "height": "10",
        "name": "Kondajji Basappa Auditorium"
      }
    },
    {
      "type": "way",
      "id": 352191252,
      "center": {
        "lat": 12.9854416,
        "lon": 77.5821636
      },
      "tags": {
        "addr:city": "Bangalore",
        "addr:postcode": "560001",
        "addr:street": "Race Course Road (Devaraj Urs Road)",
        "amenity": "college",
        "name": "Karnataka Judicial Academy",
        "name:kn": "ಕರ್ನಾಟಕ ನ್ಯಾಯಾಂಗ ಅಕಾಡೆಮಿ",
        "phone": "+918022382894/96",
        "smoking": "no",
        "website": "https://kjablr.kar.nic.in/node/1/index.html",
        "wheelchair": "yes"
      }
    },
    {
      "type": "way",
      "id": 352714475,
      "center": {
        "lat": 12.9724941,
        "lon": 77.5859928
      },
      "tags": {
        "amenity": "library",
        "building": "yes",
        "name": "Mythic Society Library"
      }
    },
    {
      "type": "way",
      "id": 363454311,
      "center": {
        "lat": 12.9795326,
        "lon": 77.5737218
      },
      "tags": {
        "amenity": "college",
        "name": "Government Ayurvedic Medical College",
        "name:kn": "ಆಯುರ್ವೇದ ವೈದ್ಯಕೀಯ ಕಾಲೇಜು",
        "office": "Sri Jayachamarajendra Government Ayurveda and Unani Hospital",
        "website": "https://gamcb.in/"
      }
    },
    {
      "type": "way",
      "id": 368591726,
      "center": {
        "lat": 12.9813581,
        "lon": 77.5744666
      },
      "tags": {
        "amenity": "place_of_worship",
        "building": "temple",
        "name": "Shiva Sai Mandhir",
        "name:kn": "ಶಿವ ಸಾಯಿ ಮಂದಿರ",
        "religion": "hindu"
      }
    },
    {
      "type": "way",
      "id": 372031014,
      "center": {
        "lat": 12.976757,
        "lon": 77.5739545
      },
      "tags": {
        "amenity": "bus_station",
        "bus": "yes",
        "name": "KSRTC Bus Terminal 1",
        "name:etymology:wikidata": "Q6387049",
        "name:kn": "ಕ ರಾ ರ ಸಾ ನಿ ಬಸ್ ನಿಲ್ದಾಣ ೧",
        "name:ml": "കെംപെഗൗഡ കെഎസ്ആർടിസി ബസ് സ്റ്റേഷൻ",
        "operator": "KSRTC",
        "public_transport": "station",
        "wheelchair": "limited"
      }
    },
    {
      "type": "way",
      "id": 372986139,
      "center": {
        "lat": 12.9752495,
        "lon": 77.5761662
      },
      "tags": {
        "leisure": "garden"
      }
    },
    {
      "type": "way",
      "id": 373569833,
      "center": {
        "lat": 12.9798937,
        "lon": 77.5713922
      },
      "tags": {
        "leisure": "garden"
      }
    },
    {
      "type": "way",
      "id": 403473909,
      "center": {
        "lat": 12.9757001,
        "lon": 77.5892141
      },
      "tags": {
        "leisure": "pitch"
      }
    },
    {
      "type": "way",
      "id": 405141209,
      "center": {
        "lat": 12.9739802,
        "lon": 77.5797494
      },
      "tags": {
        "addr:street": "Kempe Gowda Road",
        "amenity": "cinema",
        "landuse": "commercial",
        "name": "Bhoomika Theatre",
        "name:kn": "ಭೂಮಿಕಾ"
      }
    },
    {
      "type": "way",
      "id": 405141210,
      "center": {
        "lat": 12.9744829,
        "lon": 77.5772128
      },
      "tags": {
        "addr:street": "Kempe Gowda Road",
        "amenity": "cinema",
        "landuse": "commercial",
        "name": "Kalpana Cinema",
        "name:kn": "ಕಲ್ಪನ"
      }
    },
    {
      "type": "way",
      "id": 405141217,
      "center": {
        "lat": 12.9747681,
        "lon": 77.5762758
      },
      "tags": {
        "amenity": "cinema",
        "building": "yes",
        "name": "Santosh Theater",
        "name:kn": "ಸಂತೋಷ"
      }
    },
    {
      "type": "way",
      "id": 405141221,
      "center": {
        "lat": 12.9743232,
        "lon": 77.5762232
      },
      "tags": {
        "amenity": "cinema",
        "building": "yes",
        "name": "Sapna Theater",
        "name:kn": "ಸಪ್ನಾ"
      }
    },
    {
      "type": "way",
      "id": 410858825,
      "center": {
        "lat": 12.970304,
        "lon": 77.5792557
      },
      "tags": {
        "amenity": "place_of_worship",
        "building": "temple",
        "name": "Sri Ranganathaswamy Temple",
        "name:kn": "ರಂಗನಾಥಸ್ವಾಮಿ ದೇವಸ್ಥಾನ",
        "religion": "hindu",
        "wheelchair": "no"
      }
    },
    {
      "type": "way",
      "id": 421131119,
      "center": {
        "lat": 12.9702719,
        "lon": 77.5794685
      },
      "tags": {
        "amenity": "marketplace",
        "name": "Ballapurpet Market",
        "name:kn": "ಬಳ್ಳಾಪುರಪೇಟೆ"
      }
    },
    {
      "type": "way",
      "id": 421133332,
      "center": {
        "lat": 12.9730905,
        "lon": 77.5814136
      },
      "tags": {
        "amenity": "place_of_worship",
        "check_date": "2024-07-28",
        "landuse": "religious",
        "name": "Sri Shanidevara Temple",
        "religion": "hindu"
      }
    },
    {
      "type": "way",
      "id": 421133334,
      "center": {
        "lat": 12.9727433,
        "lon": 77.5812321
      },
      "tags": {
        "amenity": "place_of_worship",
        "check_date": "2024-07-28",
        "landuse": "religious",
        "name": "Sri Anjaneyswamy Temple",
        "name:kn": "ಆಂಜನೇಯ ದೇವಸ್ಥಾನ",
        "religion": "hindu"
      }
    },
    {
      "type": "way",
      "id": 421133336,
      "center": {
        "lat": 12.9730976,
        "lon": 77.5813783
      },
      "tags": {
        "amenity": "place_of_worship",
        "building": "temple",
        "check_date": "2024-07-28",
        "religion": "hindu"
      }
    },
    {
      "type": "way",
      "id": 421133338,
      "center": {
        "lat": 12.9727972,
        "lon": 77.5811882
      },
      "tags": {
        "amenity": "place_of_worship",
        "building": "temple",
        "check_date": "2024-07-28",
        "religion": "hindu"
      }
    },
    {
      "type": "way",
      "id": 437658830,
      "center": {
        "lat": 12.9822446,
        "lon": 77.5776681
      },
      "tags": {
        "leisure": "track"
      }
    },
    {
      "type": "way",
      "id": 437658831,
      "center": {
        "lat": 12.9829894,
        "lon": 77.5813372
      },
      "tags": {
        "leisure": "track"
      }
    },
    {
      "type": "way",
      "id": 437658832,
      "center": {
        "lat": 12.9822094,
        "lon": 77.5840196
      },
      "tags": {
        "leisure": "pitch"
      }
    },
    {
      "type": "way",
      "id": 437658833,
      "center": {
        "lat": 12.983654,
        "lon": 77.583646
      },
      "tags": {
        "leisure": "pitch"
      }
    },
    {
      "type": "way",
      "id": 437658834,
      "center": {
        "lat": 12.9831333,
        "lon": 77.5794967
      },
      "tags": {
        "leisure": "track"
      }
    },
    {
      "type": "way",
      "id": 501130205,
      "center": {
        "lat": 12.9768684,
        "lon": 77.5710893
      },
      "tags": {
        "amenity": "toilets",
        "building": "yes",
        "fee": "yes",
        "female": "yes",
        "male": "yes"
      }
    },
    {
      "type": "way",
      "id": 670210356,
      "center": {
        "lat": 12.9786163,
        "lon": 77.5866665
      },
      "tags": {
        "amenity": "college",
        "name": "Institute of Hotel Management"
      }
    },
    {
      "type": "way",
      "id": 775169697,
      "center": {
        "lat": 12.9845932,
        "lon": 77.5843957
      },
      "tags": {
        "leisure": "garden"
      }
    },
    {
      "type": "way",
      "id": 779282869,
      "center": {
        "lat": 12.9840682,
        "lon": 77.578333
      },
      "tags": {
        "leisure": "park"
      }
    },
    {
      "type": "way",
      "id": 779282870,
      "center": {
        "lat": 12.9818346,
        "lon": 77.5757991
      },
      "tags": {
        "addr:city": "Bengaluru",
        "addr:country": "IN",
        "addr:hamlet": "Gandhi Nagar",
        "addr:housenumber": "9",
        "addr:postcode": "560009",
        "addr:street": "Race Course Road",
        "alt_name": "Sri Jagadguru Renukacharya College of Law",
        "amenity": "college",
        "name": "SJR College of Law",
        "website": "https://www.sjrlawcollege.in/"
      }
    },
    {
      "type": "way",
      "id": 781001557,
      "center": {
        "lat": 12.9720613,
        "lon": 77.5865248
      },
      "tags": {
        "amenity": "fuel",
        "brand": "Indian Oil",
        "brand:wikidata": "Q1289348",
        "name": "Indian Oil",
        "name:kn": "ಇಂಡಿಯನ್ ಆಯಿಲ್",
        "operator": "Indian Oil"
      }
    },
    {
      "type": "way",
      "id": 781001572,
      "center": {
        "lat": 12.9799458,
        "lon": 77.571939
      },
      "tags": {
        "leisure": "park"
      }
    },
    {
      "type": "way",
      "id": 997923996,
      "center": {
        "lat": 12.9863583,
        "lon": 77.5792111
      },
      "tags": {
        "addr:district": "Bengaluru Urban",
        "addr:full": "6/6 Kumarakrupa Road OppositeShivananda Circle , High Grounds",
        "addr:postcode": "560001",
        "addr:state": "Karnataka",
        "amenity": "hospital",
        "name": "Dr. P.R. Desai Hospital Pvt Ltd",
        "source": "OpenGovernmentData"
      }
    },
    {
      "type": "way",
      "id": 1007646159,
      "center": {
        "lat": 12.974393,
        "lon": 77.5842083
      },
      "tags": {
        "amenity": "parking",
        "capacity": "10"
      }
    },
    {
      "type": "way",
      "id": 1007646167,
      "center": {
        "lat": 12.9725139,
        "lon": 77.5861298
      },
      "tags": {
        "amenity": "arts_centre",
        "landuse": "commercial",
        "name": "Mythic Society",
        "opening_hours": "Tu-Su 10:00-16:00"
      }
    },
    {
      "type": "way",
      "id": 1030050639,
      "center": {
        "lat": 12.9745187,
        "lon": 77.5749342
      },
      "tags": {
        "amenity": "police",
        "building": "yes",
        "name": "Upparpet Traffic Police Station",
        "name:kn": "ಸಂಚಾರ ಪೊಲೀಸ್ ಠಾಣೆ"
      }
    },
    {
      "type": "way",
      "id": 1030050640,
      "center": {
        "lat": 12.9734457,
        "lon": 77.5726262
      },
      "tags": {
        "amenity": "parking"
      }
    },
    {
      "type": "way",
      "id": 1076398554,
      "center": {
        "lat": 12.9805943,
        "lon": 77.5799311
      },
      "tags": {
        "amenity": "fire_station",
        "name": "High Grounds Fire Station",
        "name:kn": "ಹೈಗ್ರೌಂಡ್ಸ್ ಅಗ್ನಿಶಾಮಕ ಠಾಣೆ"
      }
    },
    {
      "type": "way",
      "id": 1076405817,
      "center": {
        "lat": 12.9747547,
        "lon": 77.5777971
      },
      "tags": {
        "amenity": "place_of_worship",
        "name": "Bhagvan Sri Arka Mahaganapathi Temple",
        "religion": "hindu",
        "wheelchair": "no"
      }
    },
    {
      "type": "way",
      "id": 1081215245,
      "center": {
        "lat": 12.9802646,
        "lon": 77.5815071
      },
      "tags": {
        "alt_name": "Karnataka State Prisons Department",
        "amenity": "police",
        "landuse": "commercial",
        "name": "Department of Prisons & Correctional Services",
        "office": "government"
      }
    },
    {
      "type": "way",
      "id": 1081848010,
      "center": {
        "lat": 12.9827382,
        "lon": 77.5872615
      },
      "tags": {
        "addr:city": "Bengaluru",
        "addr:postcode": "560001",
        "addr:street": "Palace Road",
        "amenity": "place_of_worship",
        "building": "yes",
        "religion": "hindu"
      }
    },
    {
      "type": "way",
      "id": 1124828967,
      "center": {
        "lat": 12.9847727,
        "lon": 77.5829241
      },
      "tags": {
        "amenity": "police",
        "name": "High Grounds Traffic Police Station"
      }
    },
    {
      "type": "way",
      "id": 1164850490,
      "center": {
        "lat": 12.9783895,
        "lon": 77.573356
      },
      "tags": {
        "amenity": "place_of_worship",
        "religion": "hindu"
      }
    },
    {
      "type": "way",
      "id": 1212700499,
      "center": {
        "lat": 12.9767181,
        "lon": 77.5719199
      },
      "tags": {
        "amenity": "bus_station",
        "bus": "yes",
        "name": "KSRTC Bus Terminal 2",
        "name:etymology:wikidata": "Q6387049",
        "name:kn": "ಕ ರಾ ರ ಸಾ ನಿ ಬಸ್ ನಿಲ್ದಾಣ ೨",
        "name:ml": "കെംപെഗൗഡ കെഎസ്ആർടിസി ബസ് സ്റ്റേഷൻ",
        "operator": "KSRTC",
        "public_transport": "station",
        "wheelchair": "limited"
      }
    },
    {
      "type": "way",
      "id": 1228266388,
      "center": {
        "lat": 12.9771704,
        "lon": 77.5729531
      },
      "tags": {
        "amenity": "parking",
        "parking": "surface"
      }
    },
    {
      "type": "way",
      "id": 1231379305,
      "center": {
        "lat": 12.9702116,
        "lon": 77.5841592
      },
      "tags": {
        "amenity": "place_of_worship",
        "building": "yes",
        "religion": "hindu"
      }
    },
    {
      "type": "way",
      "id": 1231379306,
      "center": {
        "lat": 12.9705535,
        "lon": 77.5839364
      },
      "tags": {
        "hoops": "2",
        "leisure": "pitch",
        "sport": "basketball",
        "surface": "concrete"
      }
    },
    {
      "type": "way",
      "id": 1231379314,
      "center": {
        "lat": 12.9710887,
        "lon": 77.5832686
      },
      "tags": {
        "amenity": "school"
      }
    },
    {
      "type": "way",
      "id": 1238875652,
      "center": {
        "lat": 12.9778985,
        "lon": 77.581233
      },
      "tags": {
        "access": "yes",
        "amenity": "parking",
        "building": "parking",
        "building:levels": "1",
        "building:levels:underground": "3",
        "capacity": "1350",
        "capacity:disabled": "yes",
        "capacity:parent": "yes",
        "capacity:women": "yes",
        "fee": "yes",
        "internet_access": "yes",
        "lit": "yes",
        "name": "Freedom Park MLCP",
        "official_name": "Right Parking",
        "operator": "Right Parking",
        "operator:type": "private",
        "parking": "multi-storey",
        "smoothness": "excellent",
        "start_date": "2024-06-21",
        "supervised": "yes",
        "surveillance": "yes",
        "wheelchair": "yes"
      }
    },
    {
      "type": "way",
      "id": 1238875653,
      "center": {
        "lat": 12.9787357,
        "lon": 77.5809515
      },
      "tags": {
        "addr:city": "Beṅgaḷūru",
        "addr:postcode": "560009",
        "addr:street": "6th Cross",
        "alt_name:en": "Mahābodhi Research Centre;Mahā Bodhī Research Center",
        "amenity": "research_institute",
        "building": "yes",
        "contact:facebook": "mahabodhiresearchcentre",
        "contact:youtube": "@mahabodhiresearchcentreblr",
        "internet_access": "wlan",
        "internet_access:fee": "customers",
        "layer": "-1",
        "name": "MBRC",
        "name:en": "Mahābodhi Research Center",
        "name:es": "Centro de Investigación Mahābodhi",
        "name:pt": "Centro de Investigação Mahābodhi",
        "operator:type": "religious",
        "operator:wikidata": "Q122974374",
        "short_name": "MBRC"
      }
    },
    {
      "type": "way",
      "id": 1238875655,
      "center": {
        "lat": 12.9785522,
        "lon": 77.5807433
      },
      "tags": {
        "addr:city": "Beṅgaḷūru",
        "amenity": "place_of_worship",
        "building": "yes",
        "denomination": "theravada",
        "name": "Dhammasālā",
        "name:en": "Dhamma Hall",
        "name:es": "Sala del Dhamma",
        "name:hi": "धम्म साला",
        "name:hi-Latn": "Dhamm Sālā",
        "name:pi": "𑀥𑀫𑁆𑀫𑀲𑀸𑀮𑀸",
        "name:ur": "دھمّ سالا",
        "operator:wikidata": "Q122974263",
        "religion": "buddhist"
      }
    },
    {
      "type": "way",
      "id": 1240166715,
      "center": {
        "lat": 12.9759348,
        "lon": 77.5882227
      },
      "tags": {
        "amenity": "parking",
        "parking": "surface"
      }
    },
    {
      "type": "way",
      "id": 1257318362,
      "center": {
        "lat": 12.9719301,
        "lon": 77.5875642
      },
      "tags": {
        "access": "private",
        "amenity": "parking",
        "parking": "surface"
      }
    },
    {
      "type": "way",
      "id": 1257696616,
      "center": {
        "lat": 12.9768206,
        "lon": 77.5834819
      },
      "tags": {
        "amenity": "place_of_worship",
        "building": "yes",
        "name": "Shri Oni Anjaneya Swami Temple",
        "name:kn": "ಶ್ರೀ ಓಣಿ ಆಂಜನೇಯ ಸ್ವಾಮಿ ದೇವಸ್ಥಾನ",
        "religion": "hindu"
      }
    },
    {
      "type": "way",
      "id": 1257700353,
      "center": {
        "lat": 12.9784402,
        "lon": 77.5876363
      },
      "tags": {
        "access": "permissive",
        "amenity": "parking",
        "fee": "yes",
        "orientation": "diagonal",
        "parking": "street_side",
        "surface": "asphalt"
      }
    },
    {
      "type": "way",
      "id": 1257700354,
      "center": {
        "lat": 12.9791462,
        "lon": 77.588341
      },
      "tags": {
        "access": "permissive",
        "amenity": "parking",
        "parking": "surface"
      }
    },
    {
      "type": "way",
      "id": 1258159460,
      "center": {
        "lat": 12.9769337,
        "lon": 77.5870753
      },
      "tags": {
        "amenity": "college",
        "heritage": "2",
        "heritage:operator": "nmma",
        "heritage:website": "https://nmma.nic.in/nmma/exploreBuiltState.do?state=29",
        "landuse": "education",
        "name": "Government SKSJ Technology Institute",
        "official_name": "Government Sri Krsihna Rajendra Silver Jubilee Technological Institute",
        "ref:nmma": "KR20010768",
        "start_date": "1938",
        "website": "https://gec.karnataka.gov.in/sksjti/public/en"
      }
    },
    {
      "type": "way",
      "id": 1258159464,
      "center": {
        "lat": 12.9759869,
        "lon": 77.5825981
      },
      "tags": {
        "leisure": "garden"
      }
    },
    {
      "type": "way",
      "id": 1258159468,
      "center": {
        "lat": 12.9764406,
        "lon": 77.5829357
      },
      "tags": {
        "amenity": "college",
        "landuse": "education",
        "name": "Bangalore Medical College Gents Hostel"
      }
    },
    {
      "type": "way",
      "id": 1263537983,
      "center": {
        "lat": 12.9749212,
        "lon": 77.5879537
      },
      "tags": {
        "access": "permissive",
        "amenity": "parking",
        "parking": "surface"
      }
    },
    {
      "type": "way",
      "id": 1293978355,
      "center": {
        "lat": 12.9790661,
        "lon": 77.5821806
      },
      "tags": {
        "access": "permissive",
        "amenity": "parking",
        "parking": "surface"
      }
    },
    {
      "type": "way",
      "id": 1293979654,
      "center": {
        "lat": 12.979646,
        "lon": 77.5813946
      },
      "tags": {
        "leisure": "pitch",
        "sport": "tennis"
      }
    },
    {
      "type": "way",
      "id": 1293979656,
      "center": {
        "lat": 12.9792647,
        "lon": 77.5798969
      },
      "tags": {
        "access": "permissive",
        "amenity": "parking",
        "parking": "surface"
      }
    },
    {
      "type": "way",
      "id": 1296036849,
      "center": {
        "lat": 12.9772731,
        "lon": 77.5895655
      },
      "tags": {
        "access": "private",
        "amenity": "parking",
        "parking": "surface"
      }
    },
    {
      "type": "way",
      "id": 1307641469,
      "center": {
        "lat": 12.979842,
        "lon": 77.5730855
      },
      "tags": {
        "access": "private",
        "amenity": "parking",
        "parking": "surface"
      }
    },
    {
      "type": "way",
      "id": 1309200350,
      "center": {
        "lat": 12.9836454,
        "lon": 77.5737757
      },
      "tags": {
        "leisure": "pitch",
        "sport": "basketball"
      }
    },
    {
      "type": "way",
      "id": 1310872540,
      "center": {
        "lat": 12.9733044,
        "lon": 77.5814842
      },
      "tags": {
        "amenity": "fuel",
        "brand": "Indian Oil",
        "brand:wikidata": "Q1289348",
        "brand:wikipedia": "en:Indian Oil Corporation",
        "compressed_air": "yes",
        "name": "Indian Oil",
        "name:kn": "ಇಂಡಿಯನ್ ಆಯಿಲ್"
      }
    },
    {
      "type": "way",
      "id": 1310872547,
      "center": {
        "lat": 12.9823883,
        "lon": 77.5871066
      },
      "tags": {
        "garden:type": "landscaping",
        "leisure": "garden"
      }
    },
    {
      "type": "way",
      "id": 1310874391,
      "center": {
        "lat": 12.9752587,
        "lon": 77.5823095
      },
      "tags": {
        "access": "yes",
        "amenity": "toilets",
        "building": "yes",
        "fee": "yes",
        "female": "yes",
        "male": "yes"
      }
    },
    {
      "type": "way",
      "id": 1311251817,
      "center": {
        "lat": 12.9769998,
        "lon": 77.5804362
      },
      "tags": {
        "amenity": "recycling",
        "name": "BBMP Waste Transfer Station",
        "recycling_type": "centre"
      }
    },
    {
      "type": "way",
      "id": 1342574686,
      "center": {
        "lat": 12.9751613,
        "lon": 77.5776794
      },
      "tags": {
        "amenity": "parking",
        "parking": "surface"
      }
    },
    {
      "type": "way",
      "id": 1354824983,
      "center": {
        "lat": 12.9803921,
        "lon": 77.5886813
      },
      "tags": {
        "leisure": "garden"
      }
    },
    {
      "type": "way",
      "id": 1354824993,
      "center": {
        "lat": 12.9773862,
        "lon": 77.5888814
      },
      "tags": {
        "access": "private",
        "amenity": "parking",
        "parking": "surface"
      }
    },
    {
      "type": "way",
      "id": 1378473536,
      "center": {
        "lat": 12.9802557,
        "lon": 77.5754141
      },
      "tags": {
        "amenity": "shelter",
        "building": "yes",
        "name": "Platform"
      }
    },
    {
      "type": "way",
      "id": 1414191566,
      "center": {
        "lat": 12.9812666,
        "lon": 77.5783712
      },
      "tags": {
        "amenity": "place_of_worship",
        "building": "yes",
        "name": "Munishwara Swamy Sanidhi",
        "religion": "hindu"
      }
    }
  ]
}