{
  "area_name": "Ganesh Mandira Ward",
  "osm_id": 19883371,
  "osm_type": "relation",
  "place_type": "administrative",
  "amenity_count": 129,
  "amenities": [
    {
      "type": "node",
      "id": 1464889408,
      "lat": 12.9262563,
      "lon": 77.5694193,
      "tags": {
        "amenity": "post_box",
        "name": "India Post"
      }
    },
    {
      "type": "node",
      "id": 1466577278,
      "lat": 12.9228555,
      "lon": 77.5600873,
      "tags": {
        "shop": "supermarket"
      }
    },
    {
      "type": "node",
      "id": 1473885124,
      "lat": 12.9244542,
      "lon": 77.5643439,
      "tags": {
        "amenity": "restaurant",
        "brand": "Pizza Hut",
        "brand:wikidata": "Q191615",
        "cuisine": "pizza",
        "name": "Pizza Hut",
        "name:kn": "ಪಿಟ್ಸ ಹಟ್"
      }
    },
    {
      "type": "node",
      "id": 1473885754,
      "lat": 12.9257822,
      "lon": 77.5640113,
      "tags": {
        "amenity": "pub",
        "name": "DeCube"
      }
    },
    {
      "type": "node",
      "id": 1473887248,
      "lat": 12.9279572,
      "lon": 77.5619192,
      "tags": {
        "amenity": "community_centre",
        "building": "yes",
        "name": "Prince Party Hall"
      }
    },
    {
      "type": "node",
      "id": 1473950471,
      "lat": 12.9234639,
      "lon": 77.5550356,
      "tags": {
        "name": "Vikranth Tyre shop",
        "shop": "motorcycle"
      }
    },
    {
      "type": "node",
      "id": 1474821612,
      "lat": 12.924405,
      "lon": 77.5647251,
      "tags": {
        "amenity": "fast_food",
        "brand": "McDonald's",
        "brand:pa": "ਮੈਕਡੋਨਲਡ’ਜ਼",
        "brand:ur": "مکڈونلڈز",
        "brand:wikidata": "Q38076",
        "brand:wikipedia": "en:McDonald's",
        "brand:wikipedia:pa": "ਮੈਕਡੋਨਲਡ’ਜ਼",
        "brand:wikipedia:ur": "مکڈونلڈز",
        "cuisine": "burger",
        "name": "McDonald's",
        "name:kn": "ಮ್ಯಾಕ್‌ಡೊನಾಲ್ಡ್ಸ್",
        "name:pa": "ਮੈਕਡੋਨਲਡ’ਜ਼",
        "name:ur": "مکڈونلڈز",
        "takeaway": "yes"
      }
    },
    {
      "type": "node",
      "id": 1474821613,
      "lat": 12.9243475,
      "lon": 77.5652656,
      "tags": {
        "name": "SnapFitness",
        "shop": "convenience"
      }
    },
    {
      "type": "node",
      "id": 1474821614,
      "lat": 12.9243266,
      "lon": 77.5653238,
      "tags": {
        "amenity": "bank",
        "brand": "State Bank of India",
        "brand:wikidata": "Q1340361",
        "brand:wikipedia": "en:State Bank of India",
        "name": "State Bank of India",
        "name:kn": "ಭಾರತೀಯ ಸ್ಟೇಟ್ ಬ್ಯಾಂಕ್",
        "short_name": "SBI",
        "website": "https://www.sbi.co.in"
      }
    },
    {
      "type": "node",
      "id": 1474821615,
      "lat": 12.9243318,
      "lon": 77.5653613,
      "tags": {
        "name": "Natural Salon",
        "shop": "convenience"
      }
    },
    {
      "type": "node",
      "id": 1474821646,
      "lat": 12.9245828,
      "lon": 77.5649697,
      "tags": {
        "name": "Bangalore One For Senior Citizens",
        "shop": "convenience"
      }
    },
    {
      "type": "node",
      "id": 1474821647,
      "lat": 12.9245932,
      "lon": 77.5648877,
      "tags": {
        "amenity": "cafe",
        "name": "Nandini Milk Booth",
        "name:kn": "ನಂದಿನಿ ಹಾಲಿನ ಅಂಗಡಿ"
      }
    },
    {
      "type": "node",
      "id": 1474821648,
      "lat": 12.9247045,
      "lon": 77.5648373,
      "tags": {
        "name": "Hopcoms",
        "name:kn": "ಹಾಪ್ ಕಾಮ್ಸ್",
        "shop": "supermarket"
      }
    },
    {
      "type": "node",
      "id": 1474821649,
      "lat": 12.9244834,
      "lon": 77.5641605,
      "tags": {
        "amenity": "fast_food"
      }
    },
    {
      "type": "node",
      "id": 1474822473,
      "lat": 12.9243632,
      "lon": 77.5641391,
      "tags": {
        "operator": "FSquare",
        "shop": "convenience"
      }
    },
    {
      "type": "node",
      "id": 1474823219,
      "lat": 12.9246664,
      "lon": 77.5642101,
      "tags": {
        "amenity": "fast_food",
        "name": "Baskin Robin's"
      }
    },
    {
      "type": "node",
      "id": 1474823223,
      "lat": 12.9247449,
      "lon": 77.5642316,
      "tags": {
        "amenity": "fast_food",
        "name": "Goli Vada Pav",
        "name:kn": "ಗೋಲಿ ವಡ ಪಾವ್"
      }
    },
    {
      "type": "node",
      "id": 1474823902,
      "lat": 12.9257017,
      "lon": 77.5644655,
      "tags": {
        "name": "Mobile store",
        "shop": "convenience"
      }
    },
    {
      "type": "node",
      "id": 1474824622,
      "lat": 12.9257906,
      "lon": 77.5640961,
      "tags": {
        "amenity": "cafe",
        "cuisine": "coffee_shop",
        "name": "Cafe Coffee Day",
        "name:en": "Café Coffee Day",
        "name:kn": "ಕಫೆ ಕಾಫಿ ಡೇ"
      }
    },
    {
      "type": "node",
      "id": 1474824925,
      "lat": 12.9260154,
      "lon": 77.5641098,
      "tags": {
        "amenity": "restaurant",
        "name": "Tandoor",
        "name:kn": "ತಂದೂರ್"
      }
    },
    {
      "type": "node",
      "id": 1474825760,
      "lat": 12.9260625,
      "lon": 77.5646983,
      "tags": {
        "amenity": "fast_food",
        "name": "Kati Zone"
      }
    },
    {
      "type": "node",
      "id": 1474825764,
      "lat": 12.9261618,
      "lon": 77.5645588,
      "tags": {
        "amenity": "fast_food",
        "name": "Anand Bhavan",
        "name:kn": "ಆನಂದ್ ಭಾವನ್"
      }
    },
    {
      "type": "node",
      "id": 1474827043,
      "lat": 12.9268619,
      "lon": 77.5641149,
      "tags": {
        "amenity": "fast_food",
        "diet:vegetarian": "only",
        "name": "SLV Swadisth"
      }
    },
    {
      "type": "node",
      "id": 1474827047,
      "lat": 12.9241331,
      "lon": 77.5663009,
      "tags": {
        "amenity": "fast_food",
        "name": "SLV fast food"
      }
    },
    {
      "type": "node",
      "id": 1474827947,
      "lat": 12.9241122,
      "lon": 77.5664449,
      "tags": {
        "name": "Stationary",
        "shop": "convenience"
      }
    },
    {
      "type": "node",
      "id": 1474827948,
      "lat": 12.9239606,
      "lon": 77.567255,
      "tags": {
        "name": "HOPCOMS",
        "name:kn": "ಹಾಪ್ ಕಾಮ್ಸ್",
        "shop": "convenience"
      }
    },
    {
      "type": "node",
      "id": 1657291080,
      "lat": 12.9244905,
      "lon": 77.5653351,
      "tags": {
        "addr:housename": "pegs and pints",
        "amenity": "pub",
        "name": "Pegs and pints"
      }
    },
    {
      "type": "node",
      "id": 1657291081,
      "lat": 12.9244383,
      "lon": 77.5654289,
      "tags": {
        "addr:housename": "Lakshmi bar",
        "amenity": "bar",
        "name": "Lakshmi bar",
        "wifi": "no"
      }
    },
    {
      "type": "node",
      "id": 1741237720,
      "lat": 12.9252337,
      "lon": 77.5648322,
      "tags": {
        "amenity": "library",
        "name": "Public Library",
        "name:kn": "ಸಾರ್ವಜನಿಕ ಗ್ರಂಥಾಲಯ"
      }
    },
    {
      "type": "node",
      "id": 1741241145,
      "lat": 12.9294812,
      "lon": 77.5637259,
      "tags": {
        "amenity": "restaurant",
        "diet:vegetarian": "only",
        "name": "Laxmi Sagar Deluxe",
        "name:kn": "ಲಕ್ಷ್ಮೀ ಸಾಗರ್ ಡಿಲಕ್ಸ್"
      }
    },
    {
      "type": "node",
      "id": 1741241408,
      "lat": 12.9301278,
      "lon": 77.5636876,
      "tags": {
        "amenity": "atm",
        "operator": "Axis Bank"
      }
    },
    {
      "type": "node",
      "id": 1741250385,
      "lat": 12.9242666,
      "lon": 77.5661956,
      "tags": {
        "amenity": "toilets"
      }
    },
    {
      "type": "node",
      "id": 1741796440,
      "lat": 12.9254673,
      "lon": 77.5646891,
      "tags": {
        "name": "Bangalore One",
        "name:kn": "ಬೆಂಗಳೂರು ಓನ್",
        "shop": "kiosk"
      }
    },
    {
      "type": "node",
      "id": 1741811584,
      "lat": 12.9269195,
      "lon": 77.5682037,
      "tags": {
        "amenity": "atm",
        "brand": "Karnataka Bank",
        "brand:wikidata": "Q2042632",
        "operator": "Karnataka Bank",
        "operator:wikidata": "Q2042632"
      }
    },
    {
      "type": "node",
      "id": 1741812254,
      "lat": 12.9264381,
      "lon": 77.5691045,
      "tags": {
        "amenity": "atm",
        "brand": "Syndicate Bank",
        "brand:wikidata": "Q2004088",
        "operator": "Syndicate Bank",
        "operator:wikidata": "Q2004088"
      }
    },
    {
      "type": "node",
      "id": 1815951925,
      "lat": 12.9295981,
      "lon": 77.5681912,
      "tags": {
        "name": "Pin Ball",
        "shop": "clothes"
      }
    },
    {
      "type": "node",
      "id": 1815951927,
      "lat": 12.9292268,
      "lon": 77.5678506,
      "tags": {
        "amenity": "police",
        "name": "Women's Police Station",
        "name:kn": "ಮಹಿಳಾ ಪೊಲೀಸ್ ಠಾಣೆ"
      }
    },
    {
      "type": "node",
      "id": 1815951935,
      "lat": 12.929436,
      "lon": 77.5678479,
      "tags": {
        "amenity": "police",
        "name": "Thyagaraja Nagar Police Station",
        "name:kn": "ತ್ಯಾಗರಾಜನಗರ ಆರಕ್ಷಕ ಠಾಣೆ"
      }
    },
    {
      "type": "node",
      "id": 1815960796,
      "lat": 12.9297811,
      "lon": 77.5682637,
      "tags": {
        "amenity": "fuel",
        "brand": "Indian Oil",
        "brand:wikidata": "Q1289348",
        "brand:wikipedia": "en:Indian Oil Corporation",
        "name": "Indian Oil",
        "name:kn": "ಇಂಡಿಯನ್ ಆಯಿಲ್"
      }
    },
    {
      "type": "node",
      "id": 2040114891,
      "lat": 12.925974,
      "lon": 77.5641049,
      "tags": {
        "amenity": "bank",
        "atm": "yes",
        "brand": "Punjab National Bank",
        "brand:wikidata": "Q2743499",
        "name": "Punjab National Bank",
        "name:en": "Punjab National Bank",
        "name:kn": "ಪಂಜಾಬ ರಾಷ್ಟ್ರೀಯ ಬ್ಯಾಂಕ್",
        "operator": "Punjab National Bank",
        "short_name": "PNB",
        "website": "https://www.pnbindia.in",
        "wikimedia_commons": "Category:Punjab National Bank"
      }
    },
    {
      "type": "node",
      "id": 2040122417,
      "lat": 12.9267234,
      "lon": 77.5646465,
      "tags": {
        "name": "Itsy Bitsy",
        "note": "Shop selling craft supplies",
        "shop": "craft_supplies"
      }
    },
    {
      "type": "node",
      "id": 2123630629,
      "lat": 12.9229116,
      "lon": 77.5650055,
      "tags": {
        "amenity": "police",
        "name": "Banashankari Police Station",
        "name:kn": "ಬನಶಂಕರಿ ಆರಕ್ಷಕ ಠಾಣೆ"
      }
    },
    {
      "type": "node",
      "id": 2123630630,
      "lat": 12.9231342,
      "lon": 77.5642974,
      "tags": {
        "addr:district": "Bengaluru Urban",
        "addr:full": "17Th, Main,27Th Cross, Banashankari 2nd Stage, South",
        "addr:postcode": "560070",
        "addr:state": "Karnataka",
        "amenity": "hospital",
        "healthcare": "hospital",
        "name": "Banashankari Referral Hospital",
        "source": "OpenGovernmentData"
      }
    },
    {
      "type": "node",
      "id": 2280259685,
      "lat": 12.9238923,
      "lon": 77.5688355,
      "tags": {
        "amenity": "pharmacy",
        "brand": "MedPlus",
        "brand:wikidata": "Q65684234",
        "brand:wikipedia": "en:MedPlus",
        "dispensing": "yes",
        "healthcare": "pharmacy",
        "name": "MedPlus",
        "name:kn": "ಮೆಡ್‍ಪ್ಲಸ್"
      }
    },
    {
      "type": "node",
      "id": 3118296968,
      "lat": 12.9296028,
      "lon": 77.5628234,
      "tags": {
        "amenity": "bar",
        "name": "Wine Baron",
        "opening_hours": "10:00-23:00"
      }
    },
    {
      "type": "node",
      "id": 3118304947,
      "lat": 12.9278968,
      "lon": 77.5622171,
      "tags": {
        "amenity": "atm",
        "brand": "State Bank of India",
        "brand:wikidata": "Q1340361",
        "name": "SBI ATM",
        "name:kn": "ಭಾರತೀಯ ಸ್ಟೇಟ್ ಬ್ಯಾಂಕ್",
        "operator": "State Bank of India",
        "operator:wikidata": "Q1340361",
        "short_name": "SBI"
      }
    },
    {
      "type": "node",
      "id": 3118314738,
      "lat": 12.9283205,
      "lon": 77.5621194,
      "tags": {
        "amenity": "community_centre",
        "name": "Sri Hari Kalyana Mantapa"
      }
    },
    {
      "type": "node",
      "id": 3118317375,
      "lat": 12.9285342,
      "lon": 77.5624936,
      "tags": {
        "amenity": "clinic",
        "name": "Medical Shop"
      }
    },
    {
      "type": "node",
      "id": 3118722114,
      "lat": 12.9272865,
      "lon": 77.5615907,
      "tags": {
        "amenity": "bank",
        "atm": "yes",
        "brand": "IDBI",
        "brand:wikidata": "Q3633485",
        "brand:wikipedia": "en:IDBI Bank",
        "name": "IDBI Bank",
        "name:en": "IDBI Bank",
        "name:kn": "ಐಡಿಬಿಐ ಬ್ಯಾಂಕ್",
        "old_name": "Industrial Development Bank of India",
        "short_name": "IDBI",
        "website": "https://www.idbi.com"
      }
    },
    {
      "type": "node",
      "id": 3118731586,
      "lat": 12.9288924,
      "lon": 77.5623711,
      "tags": {
        "addr:city": "Bangalore",
        "addr:postcode": "560085",
        "addr:street": "30th Main road, Banashankari 2nd Stage",
        "name": "Hero Honda",
        "shop": "motorcycle"
      }
    },
    {
      "type": "node",
      "id": 3121611749,
      "lat": 12.9241055,
      "lon": 77.5671349,
      "tags": {
        "amenity": "restaurant",
        "capacity": "20",
        "cuisine": "ice_cream",
        "name": "Kwality'S Ice Cream Parlour"
      }
    },
    {
      "type": "node",
      "id": 3121615012,
      "lat": 12.9240481,
      "lon": 77.5673878,
      "tags": {
        "amenity": "bank",
        "brand": "Indian Bank",
        "brand:wikidata": "Q2003789",
        "brand:wikipedia": "en:Indian Bank",
        "name": "Indian Bank",
        "name:en": "Indian Bank",
        "website": "https://www.indianbank.in/"
      }
    },
    {
      "type": "node",
      "id": 3294398729,
      "lat": 12.9263463,
      "lon": 77.5647627,
      "tags": {
        "amenity": "restaurant",
        "name": "Jalsa"
      }
    },
    {
      "type": "node",
      "id": 4317926581,
      "lat": 12.9229279,
      "lon": 77.5699054,
      "tags": {
        "amenity": "bank",
        "atm": "no",
        "drive_through": "no",
        "name": "Repco"
      }
    },
    {
      "type": "node",
      "id": 4445134680,
      "lat": 12.9271751,
      "lon": 77.561435,
      "tags": {
        "addr:city": "Bangalore",
        "addr:housenumber": "10",
        "addr:postcode": "560085",
        "addr:street": "30th Main road, Banashankari 2nd Stage",
        "amenity": "restaurant",
        "cuisine": "indian",
        "name": "The Platter",
        "opening_hours": "12:00-23:00",
        "phone": "080 6555 5534",
        "takeaway": "yes"
      }
    },
    {
      "type": "node",
      "id": 4445153971,
      "lat": 12.9256225,
      "lon": 77.5646676,
      "tags": {
        "addr:city": "Bangalore",
        "addr:housenumber": "101",
        "addr:postcode": "560070",
        "addr:street": "22nd Main Road,Banashankari",
        "amenity": "restaurant",
        "cuisine": "indian",
        "name": "Swadesh Tadka",
        "opening_hours": "12:00-22:30",
        "phone": "080 4215 1252",
        "takeaway": "yes",
        "website": "https://www.suvi.co.in/"
      }
    },
    {
      "type": "node",
      "id": 4445161446,
      "lat": 12.9269753,
      "lon": 77.5643645,
      "tags": {
        "addr:city": "Bangalore",
        "addr:housenumber": "86,Shankti Arcade",
        "addr:postcode": "560070",
        "addr:street": "22nd Main Road,Banashankari",
        "amenity": "restaurant",
        "cuisine": "indian",
        "name": "Rasoi Restaurant",
        "opening_hours": "11:00-23:00",
        "phone": "+91 97380 19114",
        "takeaway": "yes"
      }
    },
    {
      "type": "node",
      "id": 4445170393,
      "lat": 12.9235989,
      "lon": 77.5550354,
      "tags": {
        "addr:city": "Bangalore",
        "addr:housenumber": "224/Y,10224/Y",
        "addr:postcode": "560085",
        "addr:street": "Outer Ring Road",
        "amenity": "restaurant",
        "cuisine": "indian",
        "name": "Mantra Multicuisine Restaurant",
        "opening_hours": "10:30-22:30",
        "phone": "+91 9900093379",
        "takeaway": "yes"
      }
    },
    {
      "type": "node",
      "id": 4445192190,
      "lat": 12.9247336,
      "lon": 77.565329,
      "tags": {
        "addr:city": "Banashankari,Bangalore",
        "addr:housenumber": "Opposite BDA Complex",
        "addr:postcode": "560070",
        "addr:street": "19th Main Road",
        "amenity": "restaurant",
        "cuisine": "indian",
        "name": "Ayda Restaurant",
        "opening_hours": "11:30-23:00",
        "phone": "080 42124293",
        "takeaway": "yes"
      }
    },
    {
      "type": "node",
      "id": 4445212951,
      "lat": 12.9243553,
      "lon": 77.5648981,
      "tags": {
        "addr:city": "Banashankari,Bangalore",
        "addr:housenumber": "2467",
        "addr:postcode": "560070",
        "addr:street": "24th Cross Road",
        "amenity": "restaurant",
        "cuisine": "italian",
        "name": "Vinny's",
        "opening_hours": "12:00-22:00",
        "phone": "080 2671 6795",
        "takeaway": "yes"
      }
    },
    {
      "type": "node",
      "id": 4445216483,
      "lat": 12.9222433,
      "lon": 77.5618332,
      "tags": {
        "addr:city": "Bangalore",
        "addr:housenumber": "3828",
        "addr:postcode": "560070",
        "addr:street": "30th Main road, Banashankari 2nd Stage",
        "amenity": "restaurant",
        "cuisine": "indian",
        "name": "Vi Ra's Bar and Restaurant",
        "opening_hours": "11:00-23:00",
        "phone": "098450 63930",
        "takeaway": "yes"
      }
    },
    {
      "type": "node",
      "id": 4445394666,
      "lat": 12.9240662,
      "lon": 77.5642334,
      "tags": {
        "addr:city": "Banashankari,Bangalore",
        "addr:housenumber": "2470",
        "addr:postcode": "560070",
        "addr:street": "25th Cross Road",
        "amenity": "restaurant",
        "cuisine": "fast_food",
        "name": "Smacznego",
        "opening_hours": "11:00-22:30",
        "phone": "+91 8095161516",
        "takeaway": "yes"
      }
    },
    {
      "type": "node",
      "id": 4445616482,
      "lat": 12.9257484,
      "lon": 77.5642118,
      "tags": {
        "addr:city": "Banashankari,Bangalore",
        "addr:housenumber": "34",
        "addr:postcode": "560070",
        "addr:street": "22nd Main Road",
        "amenity": "restaurant",
        "cuisine": "indian",
        "name": "Tandoori Knight",
        "opening_hours": "12:00-22:30",
        "phone": "+9190352 97404",
        "takeaway": "yes"
      }
    },
    {
      "type": "node",
      "id": 4446280212,
      "lat": 12.9266174,
      "lon": 77.5646489,
      "tags": {
        "addr:city": "Banashankari,Bangalore",
        "addr:housenumber": "78",
        "addr:postcode": "560070",
        "addr:street": "21st Cross Road",
        "brand": "Aatman Tattoos",
        "email": "aatmantattoosblr@gmail.com",
        "mobile": "+91 8277199412",
        "name": "Aatman Tattoos Bangalore",
        "opening_hours": "11:00-22:00",
        "payment:cash": "yes",
        "payment:contactless": "yes",
        "payment:credit_cards": "yes",
        "payment:debit_cards": "yes",
        "payment:google_pay": "yes",
        "payment:mastercard": "yes",
        "payment:notes": "yes",
        "payment:visa": "yes",
        "payment:visa_debit": "yes",
        "phone": "8277199412",
        "shop": "tattoo",
        "takeaway": "yes",
        "toilets": "yes"
      }
    },
    {
      "type": "node",
      "id": 4446286001,
      "lat": 12.9234527,
      "lon": 77.5697585,
      "tags": {
        "addr:city": "Banashankari,Bangalore",
        "addr:housenumber": "416",
        "addr:postcode": "560070",
        "addr:street": "24th Cross Road",
        "amenity": "restaurant",
        "cuisine": "fast_food",
        "name": "Pure and Natural",
        "opening_hours": "09:00-23:00",
        "phone": "+91 99805 16501",
        "takeaway": "yes"
      }
    },
    {
      "type": "node",
      "id": 4446404163,
      "lat": 12.925663,
      "lon": 77.5644456,
      "tags": {
        "addr:city": "Banashankari,Bangalore",
        "addr:housenumber": "30/31",
        "addr:postcode": "560070",
        "addr:street": "22nd Main Road",
        "amenity": "restaurant",
        "cuisine": "fast_food",
        "name": "Rolls on Wheels",
        "opening_hours": "10:30-22:00",
        "phone": "+91 8088112222",
        "takeaway": "yes"
      }
    },
    {
      "type": "node",
      "id": 4446427903,
      "lat": 12.9245511,
      "lon": 77.5655512,
      "tags": {
        "addr:city": "Banashankari,Bangalore",
        "addr:housenumber": "645",
        "addr:postcode": "560070",
        "addr:street": "24th Cross Road",
        "amenity": "restaurant",
        "cuisine": "regional",
        "name": "Ammi's Biryani",
        "name:kn": "ಅಮ್ಮಿ ಬಿರಿಯಾನಿ",
        "opening_hours": "12:00-23:00",
        "phone": "+91 80679 77777",
        "takeaway": "yes"
      }
    },
    {
      "type": "node",
      "id": 4446446747,
      "lat": 12.9256173,
      "lon": 77.5649753,
      "tags": {
        "addr:city": "Banashankari,Bangalore",
        "addr:housenumber": "77",
        "addr:postcode": "560070",
        "addr:street": "BDA Complex",
        "amenity": "cafe",
        "cuisine": "fast_food",
        "name": "Hari Super Sandwich",
        "opening_hours": "10:00-20:00",
        "phone": "+91 9986550559"
      }
    },
    {
      "type": "node",
      "id": 4448118314,
      "lat": 12.924274,
      "lon": 77.5680927,
      "tags": {
        "addr:city": "Bangalore",
        "addr:housenumber": "#3",
        "addr:postcode": "560068",
        "addr:street": "Ground Floor, 1st Phase, 2nd Stage, Oppo. Ias Colony Ground, BTM Layout, Mahadeshwara Nagar, Stage 2, BTM 2nd Stage",
        "amenity": "hospital",
        "emergency": "yes",
        "name": "Dr Lal PathLabs",
        "phone": "080 4091 6014",
        "source": "http://www.bangalorean.co.in/",
        "website": "https://www.lalpathlabs.com/"
      }
    },
    {
      "type": "node",
      "id": 4450210196,
      "lat": 12.9233777,
      "lon": 77.5700231,
      "tags": {
        "addr:city": "Bangalore",
        "addr:housenumber": "418",
        "addr:postcode": "560070",
        "addr:street": "9th Main Road",
        "brand": "Bata",
        "brand:wikidata": "Q688082",
        "brand:wikipedia": "en:Bata (company)",
        "name": "Bata",
        "name:kn": "ಬಾಟಾ",
        "shop": "shoes",
        "website": "https://bata.in/"
      }
    },
    {
      "type": "node",
      "id": 4450210197,
      "lat": 12.9237659,
      "lon": 77.5696566,
      "tags": {
        "addr:city": "Bangalore",
        "addr:housenumber": "428",
        "addr:postcode": "560070",
        "addr:street": "24th Cross Road",
        "amenity": "college",
        "name": "MVJ PU College"
      }
    },
    {
      "type": "node",
      "id": 4457713692,
      "lat": 12.9257812,
      "lon": 77.5642548,
      "tags": {
        "name": "Just Bake",
        "name:en": "Just Bake",
        "name:kn": "ಜಸ್ಟ್ ಬೇಕ್",
        "shop": "bakery"
      }
    },
    {
      "type": "node",
      "id": 4458781601,
      "lat": 12.9261828,
      "lon": 77.5643228,
      "tags": {
        "amenity": "fast_food",
        "cuisine": "steak_house;mediterranean;italian",
        "name": "Casa Blanca",
        "name:en": "Casa Blanca"
      }
    },
    {
      "type": "node",
      "id": 4489766389,
      "lat": 12.9241776,
      "lon": 77.5655772,
      "tags": {
        "addr:city": "Bangalore",
        "addr:housenumber": "Siddanna Layout",
        "addr:postcode": "560070",
        "addr:street": "Banashankari Stage II",
        "name": "Nature Unisex Salon Spa",
        "opening_hours": "09:00-21:30",
        "phone": "096636 05133",
        "shop": "beauty"
      }
    },
    {
      "type": "node",
      "id": 4489939542,
      "lat": 12.9243101,
      "lon": 77.5650759,
      "tags": {
        "addr:city": "Bangalore",
        "addr:postcode": "560070",
        "addr:street": "Siddanna Layout, Banashankari Stage II, Banashankari, Bengaluru, Karnataka",
        "name": "Nature Unisex Salon Spa",
        "opening_hours": "11:00- 20:30",
        "phone": "096636 05133",
        "shop": "beauty"
      }
    },
    {
      "type": "node",
      "id": 4490453225,
      "lat": 12.9243812,
      "lon": 77.5644144,
      "tags": {
        "addr:city": "Banashankari,Bangalore",
        "addr:housenumber": "775",
        "addr:postcode": "560070",
        "addr:street": "24th Cross Road",
        "brand": "Snap Fitness",
        "brand:wikidata": "Q7547254",
        "brand:wikipedia": "en:Snap Fitness",
        "leisure": "fitness_centre",
        "name": "Snap Fitness",
        "opening_hours": "5:30-22:30",
        "phone": "8026420203",
        "website": "www.snapfitnessindia.com"
      }
    },
    {
      "type": "node",
      "id": 5234807918,
      "lat": 12.9292156,
      "lon": 77.5646498,
      "tags": {
        "amenity": "clinic",
        "healthcare": "clinic",
        "name": "City Health Care"
      }
    },
    {
      "type": "node",
      "id": 6210612230,
      "lat": 12.9228505,
      "lon": 77.5570544,
      "tags": {
        "amenity": "shelter",
        "bench": "yes",
        "covered": "yes",
        "shelter": "yes",
        "shelter_type": "public_transport"
      }
    },
    {
      "type": "node",
      "id": 6228777904,
      "lat": 12.9240574,
      "lon": 77.5678454,
      "tags": {
        "amenity": "fast_food",
        "delivery": "yes",
        "drive_through": "yes",
        "name": "Hari Super Sandwich",
        "outdoor_seating": "yes"
      }
    },
    {
      "type": "node",
      "id": 6938775857,
      "lat": 12.9276382,
      "lon": 77.568896,
      "tags": {
        "addr:district": "Bengaluru Urban",
        "addr:full": "# 39, 17Thc Cross, 8Thb Main, Banashankari Ii Stage",
        "addr:postcode": "560070",
        "addr:state": "Karnataka",
        "amenity": "hospital",
        "name": "Saraswathi Hospital",
        "name:kn": "ಸರಸ್ವತಿ ಆಸ್ಪತ್ರೆ",
        "source": "OpenGovernmentData"
      }
    },
    {
      "type": "node",
      "id": 6938775867,
      "lat": 12.9266919,
      "lon": 77.5648968,
      "tags": {
        "addr:district": "Bengaluru Urban",
        "addr:full": "# 945, 21st Main, Banashankari, 2nd Stage, Near B.D.A Complex",
        "addr:postcode": "560070",
        "addr:state": "Karnataka",
        "amenity": "clinic",
        "name": "Bangalore Nethralaya",
        "name:kn": "ಬೆಂಗಳೂರು ನೇತ್ರಾಲಯ",
        "source": "OpenGovernmentData"
      }
    },
    {
      "type": "node",
      "id": 6944236562,
      "lat": 12.9296852,
      "lon": 77.5634135,
      "tags": {
        "addr:district": "Bengaluru Urban",
        "addr:full": "No-3777, 13Th Cross Attimabbe Road, B. S. K ,2nd Stage",
        "addr:postcode": "560070",
        "addr:state": "Karnataka",
        "amenity": "clinic",
        "name": "Prashanth Nursing Home",
        "source": "OpenGovernmentData"
      }
    },
    {
      "type": "node",
      "id": 7031682038,
      "lat": 12.9265643,
      "lon": 77.5646336,
      "tags": {
        "description": "Our focus is on design innovation and promotion of handcrafted products made by skilled artisans using natural inputs which sustains and preserves the environment. We are dedicated towards preserving rich and vibrant traditional Indian art.",
        "name": "Jute Cottage",
        "note": "Eco-friendly store",
        "shop": "gift",
        "source": "survey;local knowledge;gps;aerial imagery"
      }
    },
    {
      "type": "node",
      "id": 7174826821,
      "lat": 12.9238436,
      "lon": 77.5688918,
      "tags": {
        "addr:city": "Bangalore",
        "addr:postcode": "560070",
        "addr:street": "24th Cross Road",
        "name": "Gururaya Bakery",
        "payment:cash": "yes",
        "shop": "bakery"
      }
    },
    {
      "type": "node",
      "id": 7579924704,
      "lat": 12.9295017,
      "lon": 77.5635313,
      "tags": {
        "addr:district": "Bengaluru Urban",
        "addr:full": "Banashankari, Bengaluru",
        "addr:postcode": "560070",
        "addr:state": "Karnataka",
        "amenity": "clinic",
        "name": "Prashanth Nursing Home",
        "source": "Local Knowledge"
      }
    },
    {
      "type": "node",
      "id": 7579924744,
      "lat": 12.924153,
      "lon": 77.565797,
      "tags": {
        "addr:district": "Bengaluru Urban",
        "addr:full": "Banashankari, Bengaluru",
        "addr:postcode": "560070",
        "addr:state": "Karnataka",
        "amenity": "hospital",
        "name": "Devagiri Hospital",
        "source": "Local Knowledge"
      }
    },
    {
      "type": "node",
      "id": 7579924748,
      "lat": 12.9226964,
      "lon": 77.5630076,
      "tags": {
        "addr:district": "Bengaluru Urban",
        "addr:full": "Banashankari, Bengaluru",
        "addr:postcode": "560070",
        "addr:state": "Karnataka",
        "amenity": "clinic",
        "name": "Trinetra Polyclinic",
        "source": "Local Knowledge"
      }
    },
    {
      "type": "node",
      "id": 7579924786,
      "lat": 12.9204339,
      "lon": 77.5624477,
      "tags": {
        "addr:district": "Bengaluru Urban",
        "addr:full": "Banashankari, Bengaluru",
        "addr:postcode": "560070",
        "addr:state": "Karnataka",
        "amenity": "clinic",
        "name": "The Orthopaedic Centre",
        "source": "Local Knowledge"
      }
    },
    {
      "type": "node",
      "id": 8188058800,
      "lat": 12.9276526,
      "lon": 77.5620661,
      "tags": {
        "addr:full": "1112, 30th Main Rd, Siddanna Layout, Banashankari Stage II, Banashankari, Bengaluru, Karnataka",
        "addr:state": "Karnataka",
        "amenity": "restaurant",
        "diet:vegetarian": "only",
        "name": "Thamboola Fine Dine Vegetarian Restaurant"
      }
    },
    {
      "type": "node",
      "id": 10201078541,
      "lat": 12.9264042,
      "lon": 77.5646605,
      "tags": {
        "addr:city": "Banashankari,Bangalore",
        "addr:housenumber": "No 71/72 2nd floor,",
        "addr:postcode": "560070",
        "addr:street": "21st Main Road, Near BDA Complex",
        "amenity": "yes",
        "image": "D:\\logo\\prwealth.jpg",
        "name": "ParivRuddhi Wealth Private Limited",
        "opening_hours": "Mo-Sa 10:00-18:00",
        "operator": "Mutual fund Distributor",
        "website": "https://www.prwealth.in/"
      }
    },
    {
      "type": "node",
      "id": 11279815777,
      "lat": 12.9228274,
      "lon": 77.5571312,
      "tags": {
        "amenity": "shelter",
        "bench": "yes",
        "covered": "yes",
        "shelter": "yes",
        "shelter_type": "public_transport"
      }
    },
    {
      "type": "node",
      "id": 12165965018,
      "lat": 12.9242569,
      "lon": 77.5650184,
      "tags": {
        "contact:mobile": "+91-73977-24442",
        "contact:website": "https://www.mygreentrends.in/",
        "level": "1",
        "name": "Green Trends",
        "shop": "beauty",
        "wheelchair": "no"
      }
    },
    {
      "type": "node",
      "id": 12619953078,
      "lat": 12.924428,
      "lon": 77.5701365,
      "tags": {
        "amenity": "arts_centre",
        "contact:instagram": "incite.gallery",
        "name": "InCITE Gallery"
      }
    },
    {
      "type": "node",
      "id": 12632035859,
      "lat": 12.9289114,
      "lon": 77.5670627,
      "tags": {
        "amenity": "restaurant",
        "name": "Meloghrano"
      }
    },
    {
      "type": "node",
      "id": 12648662791,
      "lat": 12.9267856,
      "lon": 77.5612233,
      "tags": {
        "amenity": "cafe",
        "name": "Third wave coffee shop"
      }
    },
    {
      "type": "node",
      "id": 13013588711,
      "lat": 12.9226136,
      "lon": 77.5601654,
      "tags": {
        "amenity": "cafe",
        "cuisine": "coffee_shop",
        "name": "Coffee Brewery"
      }
    },
    {
      "type": "node",
      "id": 13013792938,
      "lat": 12.9262697,
      "lon": 77.5609271,
      "tags": {
        "amenity": "fast_food",
        "cuisine": "mexican",
        "name": "Maiz Mexican Kitchen"
      }
    },
    {
      "type": "node",
      "id": 13013792939,
      "lat": 12.9263233,
      "lon": 77.5609392,
      "tags": {
        "amenity": "fast_food",
        "name": "Harvest Salad Co"
      }
    },
    {
      "type": "node",
      "id": 13109571372,
      "lat": 12.929944,
      "lon": 77.5687446,
      "tags": {
        "addr:city": "Bengaluru,",
        "addr:district": "bengaluru",
        "addr:housenumber": "14th Cross Rd",
        "addr:postcode": "560070",
        "addr:street": "Shastry Nagar Road 14th cross",
        "amenity": "restaurant",
        "contact:facebook": "https://www.facebook.com/navodayamilitaryhotel/",
        "cuisine": "indian;chinese;brunch;diner",
        "delivery": "yes",
        "description": "Navodaya Military Hotel - non veg restaurant in Thyagaraja Nagar, Military Hotel in Thyagaraja Nagar, Bengaluru, brings you the rich taste of authentic military-style and naati-style non-veg meals.",
        "diet:chicken": "yes",
        "diet:local": "yes",
        "diet:non-vegetarian": "yes",
        "diet:organic": "yes",
        "email": "navodayamilitaryhotel@gmail.com",
        "name": "Navodaya Military Hotel",
        "phone": "+919731497318",
        "toilets": "yes",
        "website": "https://visitmysite.in/navodaya-military-hotel/"
      }
    },
    {
      "type": "way",
      "id": 132910904,
      "center": {
        "lat": 12.9257824,
        "lon": 77.5679732
      },
      "tags": {
        "addr:housename": "Sri Aurobindo Memorial School",
        "addr:postcode": "560070",
        "amenity": "school",
        "name": "Sri Aurobindo Memorial School",
        "name:etymology:wikidata": "Q192207"
      }
    },
    {
      "type": "way",
      "id": 162259001,
      "center": {
        "lat": 12.9278501,
        "lon": 77.5641074
      },
      "tags": {
        "amenity": "public_building",
        "building": "yes",
        "name": "BSNL Custom Care Center"
      }
    },
    {
      "type": "way",
      "id": 162263141,
      "center": {
        "lat": 12.9259019,
        "lon": 77.5675133
      },
      "tags": {
        "amenity": "place_of_worship",
        "name": "Venkateshwara Temple",
        "name:kn": "ವೆಂಕಟೇಶ್ವರ ದೇವಸ್ಥಾನ",
        "religion": "hindu"
      }
    },
    {
      "type": "way",
      "id": 162268002,
      "center": {
        "lat": 12.9247046,
        "lon": 77.5662497
      },
      "tags": {
        "leisure": "park",
        "name": "Banashankari Brundavana Park",
        "name:kn": "ಸಾರ್ವಜನಿಕ ಉದ್ಯಾನ"
      }
    },
    {
      "type": "way",
      "id": 162268534,
      "center": {
        "lat": 12.9252458,
        "lon": 77.5651227
      },
      "tags": {
        "description": "Public park with rocky terrain",
        "leisure": "park",
        "name": "Public Park",
        "name:kn": "ಸಾರ್ವಜನಿಕ ಉದ್ಯಾನ"
      }
    },
    {
      "type": "way",
      "id": 244031567,
      "center": {
        "lat": 12.9209039,
        "lon": 77.5591701
      },
      "tags": {
        "amenity": "college",
        "name": "Regional Institute of Co-operative Management"
      }
    },
    {
      "type": "way",
      "id": 289694897,
      "center": {
        "lat": 12.9267695,
        "lon": 77.5624631
      },
      "tags": {
        "addr:city": "Bangalore",
        "addr:street": "30th Main road, Banashankari 2nd Stage",
        "amenity": "college",
        "name": "KIMS - Kempegowda Institute of Medical Sciences",
        "name:kn": "ಕೆಂಪೆಗೌಡ ವೈದ್ಯಕೀಯ ವಿಜ್ಞಾನಗಳ ಸಂಸ್ಥೆ"
      }
    },
    {
      "type": "way",
      "id": 306826547,
      "center": {
        "lat": 12.9294355,
        "lon": 77.564005
      },
      "tags": {
        "addr:district": "Bengaluru Urban",
        "addr:full": "Banashankari, Bengaluru",
        "addr:postcode": "560070",
        "addr:state": "Karnataka",
        "amenity": "hospital",
        "building": "hospital",
        "name": "Pro MED Hospital",
        "name:kn": "ಪ್ರೋಮೆಡ್‌ ಆಸ್ಪತ್ರೆ",
        "source": "Local Knowledge"
      }
    },
    {
      "type": "way",
      "id": 307096644,
      "center": {
        "lat": 12.9211429,
        "lon": 77.5639848
      },
      "tags": {
        "addr:city": "Banashankari,Bangalore",
        "addr:postcode": "560070",
        "addr:street": "18th Main Rd, Banashankari Stage II",
        "amenity": "place_of_worship",
        "building": "yes",
        "name": "Punyakshetra Sri Dharmagiri Manjunathaswamy Devalaya",
        "religion": "hindu"
      }
    },
    {
      "type": "way",
      "id": 307097355,
      "center": {
        "lat": 12.924458,
        "lon": 77.5701564
      },
      "tags": {
        "addr:postcode": "560070",
        "addr:street": "9th Main",
        "amenity": "bank",
        "atm": "yes",
        "brand": "State Bank of India",
        "brand:wikidata": "Q1340361",
        "brand:wikipedia": "en:State Bank of India",
        "building": "yes",
        "drive_through": "no",
        "name": "State Bank of India",
        "name:kn": "ಭಾರತೀಯ ಸ್ಟೇಟ್ ಬ್ಯಾಂಕ್",
        "short_name": "SBI"
      }
    },
    {
      "type": "way",
      "id": 307097420,
      "center": {
        "lat": 12.924838,
        "lon": 77.5692815
      },
      "tags": {
        "leisure": "park",
        "name": "DV Gundappa Park"
      }
    },
    {
      "type": "way",
      "id": 307098047,
      "center": {
        "lat": 12.9278957,
        "lon": 77.5700346
      },
      "tags": {
        "leisure": "swimming_pool",
        "name": "BBMP Public swimming pool"
      }
    },
    {
      "type": "way",
      "id": 311369037,
      "center": {
        "lat": 12.9242393,
        "lon": 77.5623136
      },
      "tags": {
        "addr:city": "Bangalore",
        "addr:housenumber": "25th Main",
        "addr:postcode": "560074",
        "addr:street": "25th Main Road",
        "description": "A public park with all mountainous terrain",
        "leisure": "park",
        "name": "Rock Park"
      }
    },
    {
      "type": "way",
      "id": 346779222,
      "center": {
        "lat": 12.9275688,
        "lon": 77.5635922
      },
      "tags": {
        "amenity": "place_of_worship",
        "building": "yes",
        "name": "Banashankari Raghavendra Swamy Mutt",
        "name:kn": "ಬನಶಂಕರಿ ರಾಘವೇಂದ್ರ ಸ್ವಾಮಿ ಮಠ",
        "religion": "hindu"
      }
    },
    {
      "type": "way",
      "id": 362894524,
      "center": {
        "lat": 12.9228933,
        "lon": 77.5586199
      },
      "tags": {
        "leisure": "park",
        "name": "Banagiri Nagar BBMP Park"
      }
    },
    {
      "type": "way",
      "id": 393741532,
      "center": {
        "lat": 12.9252465,
        "lon": 77.556299
      },
      "tags": {
        "leisure": "park",
        "name": "BDA Park"
      }
    },
    {
      "type": "way",
      "id": 495472305,
      "center": {
        "lat": 12.9260638,
        "lon": 77.5698099
      },
      "tags": {
        "amenity": "arts_centre",
        "name": "Suchitra Cinema and Cultural Academy",
        "website": "https://www.suchitra.org/"
      }
    },
    {
      "type": "way",
      "id": 1087732060,
      "center": {
        "lat": 12.923469,
        "lon": 77.5571154
      },
      "tags": {
        "amenity": "place_of_worship",
        "building": "yes",
        "name": "Sri Banagiri Varasiddhi Vinayaka Temple",
        "name:kn": "ಶ್ರೀ ವರಸಿದ್ಧಿ ವಿನಾಯಕ ದೇವಾಲಯ",
        "religion": "hindu"
      }
    },
    {
      "type": "way",
      "id": 1087732061,
      "center": {
        "lat": 12.9231645,
        "lon": 77.5576937
      },
      "tags": {
        "amenity": "school",
        "name": "Apollo National Public School"
      }
    },
    {
      "type": "way",
      "id": 1087732062,
      "center": {
        "lat": 12.9231682,
        "lon": 77.556496
      },
      "tags": {
        "amenity": "bank",
        "brand": "Kotak Mahindra Bank",
        "brand:wikidata": "Q2040404",
        "building": "yes",
        "name": "Kotak Mahindra Bank",
        "name:kn": "ಕೋಟಕ್ ಮಹಿಂದ್ರ ಬ್ಯಾಂಕ್"
      }
    },
    {
      "type": "way",
      "id": 1134831509,
      "center": {
        "lat": 12.9221457,
        "lon": 77.5611832
      },
      "tags": {
        "amenity": "fire_station",
        "name": "Banashankari Fire Station",
        "name:kn": "ಬನಶಂಕರಿ ಅಗ್ನಿಶಾಮಕ ಠಾಣೆ"
      }
    },
    {
      "type": "way",
      "id": 1217350528,
      "center": {
        "lat": 12.9222562,
        "lon": 77.5615561
      },
      "tags": {
        "leisure": "park"
      }
    },
    {
      "type": "way",
      "id": 1217350529,
      "center": {
        "lat": 12.923311,
        "lon": 77.5638782
      },
      "tags": {
        "leisure": "park"
      }
    },
    {
      "type": "way",
      "id": 1217350530,
      "center": {
        "lat": 12.9211634,
        "lon": 77.5636127
      },
      "tags": {
        "amenity": "place_of_worship",
        "landuse": "religious",
        "religion": "hindu"
      }
    },
    {
      "type": "way",
      "id": 1217350531,
      "center": {
        "lat": 12.9215705,
        "lon": 77.563258
      },
      "tags": {
        "amenity": "place_of_worship",
        "religion": "hindu"
      }
    },
    {
      "type": "way",
      "id": 1217372154,
      "center": {
        "lat": 12.9233092,
        "lon": 77.5571644
      },
      "tags": {
        "amenity": "place_of_worship",
        "religion": "hindu"
      }
    },
    {
      "type": "way",
      "id": 1217372155,
      "center": {
        "lat": 12.9231185,
        "lon": 77.5569212
      },
      "tags": {
        "leisure": "sports_centre"
      }
    },
    {
      "type": "way",
      "id": 1302188293,
      "center": {
        "lat": 12.9221575,
        "lon": 77.5599758
      },
      "tags": {
        "amenity": "fuel",
        "brand": "Indian Oil",
        "brand:wikidata": "Q1289348",
        "name": "Devegowda Petrol Bunk",
        "name:kn": "ದೇವೆಗೌಡ"
      }
    },
    {
      "type": "way",
      "id": 1314622025,
      "center": {
        "lat": 12.9223271,
        "lon": 77.5600687
      },
      "tags": {
        "amenity": "fuel"
      }
    },
    {
      "type": "way",
      "id": 1363015980,
      "center": {
        "lat": 12.9253116,
        "lon": 77.5701821
      },
      "tags": {
        "amenity": "community_centre",
        "landuse": "commercial",
        "name": "Bengaluru Vihara Kendra"
      }
    }
  ]
}