{
  "area_name": "Ganganagar",
  "osm_id": 19883353,
  "osm_type": "relation",
  "place_type": "administrative",
  "amenity_count": 58,
  "amenities": [
    {
      "type": "node",
      "id": 850751634,
      "lat": 13.0256109,
      "lon": 77.5931302,
      "tags": {
        "brand": "Levi's",
        "brand:wikidata": "Q127962",
        "clothes": "denim;men;women",
        "name": "Levi's",
        "name:kn": "ಲೆವಿಸ್",
        "shop": "clothes"
      }
    },
    {
      "type": "node",
      "id": 850751635,
      "lat": 13.0259675,
      "lon": 77.5932154,
      "tags": {
        "amenity": "library",
        "name": "RT Nagar Public Library"
      }
    },
    {
      "type": "node",
      "id": 850751641,
      "lat": 13.0254978,
      "lon": 77.5931058,
      "tags": {
        "amenity": "bank",
        "brand": "Andhra Bank",
        "brand:wikidata": "Q2003476",
        "brand:wikipedia": "en:Andhra Bank",
        "name": "Andhra Bank",
        "name:en": "Andhra Bank",
        "name:kn": "ಆಂಧ್ರ ಬ್ಯಾಂಕ್",
        "website": "https://www.andhrabank.in"
      }
    },
    {
      "type": "node",
      "id": 850751651,
      "lat": 13.0265973,
      "lon": 77.5933811,
      "tags": {
        "brand": "Adidas",
        "brand:wikidata": "Q3895",
        "name": "Adidas",
        "name:kn": "ಅಡಿಡಾಸ್",
        "shop": "sports"
      }
    },
    {
      "type": "node",
      "id": 850751657,
      "lat": 13.0260757,
      "lon": 77.5932346,
      "tags": {
        "brand": "Reebok",
        "brand:wikidata": "Q466183",
        "name": "Reebok",
        "name:kn": "ರೀಬಾಕ್",
        "shop": "clothes"
      }
    },
    {
      "type": "node",
      "id": 850751675,
      "lat": 13.0273116,
      "lon": 77.5934753,
      "tags": {
        "amenity": "restaurant",
        "name": "Kabab Manor",
        "name:kn": "ಕಬಾಬ್ ಮೆನರ್"
      }
    },
    {
      "type": "node",
      "id": 1474819109,
      "lat": 13.0256971,
      "lon": 77.5931352,
      "tags": {
        "amenity": "restaurant",
        "name": "Punjabi Rasoi",
        "name:kn": "ಪಂಜಾಬಿ ರಸೋಯಿ"
      }
    },
    {
      "type": "node",
      "id": 1474819110,
      "lat": 13.0263622,
      "lon": 77.5930491,
      "tags": {
        "amenity": "bank",
        "brand": "Andhra Bank",
        "brand:wikidata": "Q2003476",
        "brand:wikipedia": "en:Andhra Bank",
        "name": "Andhra Bank",
        "name:en": "Andhra Bank",
        "name:kn": "ಆಂಧ್ರ ಬ್ಯಾಂಕ್",
        "website": "https://www.andhrabank.in"
      }
    },
    {
      "type": "node",
      "id": 1474819111,
      "lat": 13.0264438,
      "lon": 77.5933686,
      "tags": {
        "amenity": "hospital",
        "name": "TSR heart care"
      }
    },
    {
      "type": "node",
      "id": 1474819113,
      "lat": 13.0265699,
      "lon": 77.5866871,
      "tags": {
        "amenity": "bank",
        "brand": "ICICI Bank",
        "brand:wikidata": "Q1653258",
        "name": "ICICI Bank",
        "name:kn": "ಐಸಿಐಸಿಐ ಬ್ಯಾಂಕು",
        "short_name": "ICICI"
      }
    },
    {
      "type": "node",
      "id": 1474819114,
      "lat": 13.0266169,
      "lon": 77.586655,
      "tags": {
        "amenity": "bank",
        "name": "Indus Bank",
        "name:kn": "ಇಂಡಸ್ ಬ್ಯಾಂಕ್",
        "wheelchair": "limited"
      }
    },
    {
      "type": "node",
      "id": 1474819116,
      "lat": 13.0270037,
      "lon": 77.5858396,
      "tags": {
        "name": "Gilma Store",
        "shop": "convenience"
      }
    },
    {
      "type": "node",
      "id": 1474819152,
      "lat": 13.0254514,
      "lon": 77.593103,
      "tags": {
        "name": "Emporium",
        "shop": "clothes"
      }
    },
    {
      "type": "node",
      "id": 1474819153,
      "lat": 13.0261152,
      "lon": 77.5887524,
      "tags": {
        "name": "Amma Pastries",
        "shop": "bakery"
      }
    },
    {
      "type": "node",
      "id": 1474819154,
      "lat": 13.0253678,
      "lon": 77.593103,
      "tags": {
        "name": "Nokia Care",
        "shop": "kiosk"
      }
    },
    {
      "type": "node",
      "id": 2666006577,
      "lat": 13.0267368,
      "lon": 77.5871118,
      "tags": {
        "amenity": "restaurant"
      }
    },
    {
      "type": "node",
      "id": 3461018651,
      "lat": 13.0275949,
      "lon": 77.5860423,
      "tags": {
        "addr:city": "Bangalore",
        "addr:street": "Ganga Nagar Flyover",
        "name": "Lotus Motors",
        "shop": "motorcycle"
      }
    },
    {
      "type": "node",
      "id": 3461018660,
      "lat": 13.0272029,
      "lon": 77.5859484,
      "tags": {
        "addr:city": "Bangalore",
        "addr:street": "Ganga Nagar Flyover",
        "amenity": "pharmacy",
        "name": "Srinidhi Pet Pharma"
      }
    },
    {
      "type": "node",
      "id": 4443560972,
      "lat": 13.0272204,
      "lon": 77.593535,
      "tags": {
        "addr:city": "bangalore",
        "addr:housenumber": "16",
        "addr:postcode": "560032",
        "addr:street": "Hmt Layout, Near-R T Nagar Bus Depot, R T Nagar, HMT Layout, Dinnur, RT Nagar",
        "amenity": "pharmacy",
        "name": "Sri Srinivasa Medicals",
        "phone": "080 2353 5499"
      }
    },
    {
      "type": "node",
      "id": 4446284603,
      "lat": 13.0277184,
      "lon": 77.5860886,
      "tags": {
        "addr:city": "Bangalore",
        "addr:housenumber": "#80",
        "addr:postcode": "560024",
        "addr:street": "Bellary Road, Opposite Veterinary College, Lakshmayya Layout, Vishveshvaraiah Nagar",
        "amenity": "pharmacy",
        "name": "Shree Vet Life Pharma",
        "phone": "+919845164047",
        "source": "http://bestofhealthindia.com/"
      }
    },
    {
      "type": "node",
      "id": 4488026407,
      "lat": 13.027822,
      "lon": 77.5861383,
      "tags": {
        "addr:city": "Bangalore",
        "addr:housenumber": "80",
        "addr:postcode": "560024",
        "addr:street": "Bellary Road, Vishveshvaraiah Nagar, Ganga Nagar, Bengaluru",
        "name": "Sports Line",
        "opening_hours": "10:30-21:00",
        "phone": "080 2363 6471",
        "shop": "sports",
        "website": "https://www.sportslineindia.com/"
      }
    },
    {
      "type": "node",
      "id": 6126093263,
      "lat": 13.0238647,
      "lon": 77.5851211,
      "tags": {
        "name": "Track & Trail",
        "shop": "bicycle"
      }
    },
    {
      "type": "node",
      "id": 6938653696,
      "lat": 13.0263529,
      "lon": 77.5933929,
      "tags": {
        "addr:district": "Bengaluru Urban",
        "addr:full": "# 9 80 Fet Road H M T Layout R T Nagar",
        "addr:postcode": "560032",
        "addr:state": "Karnataka",
        "amenity": "hospital",
        "name": "Asha Kiran Children & Women Health Care Centre",
        "source": "OpenGovernmentData"
      }
    },
    {
      "type": "node",
      "id": 6938864296,
      "lat": 13.0228314,
      "lon": 77.5863478,
      "tags": {
        "addr:district": "Bengaluru Urban",
        "addr:full": "CGHS Dispensary No.9, Gangenahalli 256, 1stCross, II Main Ganganagar, Layout",
        "addr:state": "Karnataka",
        "amenity": "clinic",
        "health_facility:type": "dispensary",
        "healthcare": "centre",
        "name": "CGHS Dispensary No.9",
        "operator:type": "government",
        "source": "OpenGovernmentData",
        "website": "http://nb.bsf.gov.in/CGHS%20DIspenseries.pdf"
      }
    },
    {
      "type": "node",
      "id": 6938988776,
      "lat": 13.0250141,
      "lon": 77.5856289,
      "tags": {
        "addr:district": "Bengaluru Urban",
        "addr:full": "1st Main Road, 7th Cross, Ganganagar",
        "addr:postcode": "560032",
        "addr:state": "Karnataka",
        "addr:subdistrict": "Ganganagar",
        "amenity": "hospital",
        "healthcare:speciality": "Piles; fistula; fissure",
        "name": "Dr. T.V.Ramesh Piles Hospital",
        "operator:type": "private",
        "source": "OpenGovernmentData",
        "website": "https://www.pilesramesh.com/"
      }
    },
    {
      "type": "node",
      "id": 6944105329,
      "lat": 13.0251833,
      "lon": 77.5920609,
      "tags": {
        "addr:district": "Bengaluru Urban",
        "addr:full": "No.533, 108 Bus Stop, Ganganagar",
        "addr:postcode": "560032",
        "addr:state": "Karnataka",
        "addr:subdistrict": "R.T.Nagar",
        "amenity": "hospital",
        "name": "Vasan Eye Care Hospital, R.T.Nagar",
        "operator:type": "private",
        "source": "OpenGovernmentData",
        "website": "http://www.vasaneye.in/"
      }
    },
    {
      "type": "node",
      "id": 6944560298,
      "lat": 13.0267995,
      "lon": 77.5870813,
      "tags": {
        "addr:district": "Bengaluru Urban",
        "addr:full": "Cbi Road, (10Th Cross) Between 2 nd & 3 nd Main Ganganagar",
        "addr:postcode": "560032",
        "addr:state": "Karnataka",
        "amenity": "hospital",
        "name": "North Side Health Centre",
        "source": "OpenGovernmentData"
      }
    },
    {
      "type": "node",
      "id": 7223109295,
      "lat": 13.024189,
      "lon": 77.5851756,
      "tags": {
        "amenity": "bank",
        "atm": "yes",
        "branch": "Gangenahalli",
        "brand": "State Bank of India",
        "brand:wikidata": "Q1340361",
        "check_date": "2025-09-19",
        "name": "State Bank of India",
        "operator": "State Bank of India",
        "short_name": "SBI"
      }
    },
    {
      "type": "node",
      "id": 7223109296,
      "lat": 13.0252747,
      "lon": 77.5854385,
      "tags": {
        "amenity": "bank",
        "atm": "yes",
        "brand": "Axis Bank",
        "brand:wikidata": "Q2003549",
        "name": "Axis Bank",
        "name:kn": "ಆಕ್ಸಿಸ್ ಬ್ಯಾಂಕ್",
        "operator": "Axis Bank"
      }
    },
    {
      "type": "node",
      "id": 7257189855,
      "lat": 13.0237231,
      "lon": 77.5850442,
      "tags": {
        "name": "R R Cycle",
        "shop": "bicycle"
      }
    },
    {
      "type": "node",
      "id": 8187962208,
      "lat": 13.024748,
      "lon": 77.5917987,
      "tags": {
        "addr:full": "No. 20, 108B Bus Stand, 1st Main Road, Papanna Block, AK Colony, RT Nagar, Bengaluru, Karnataka",
        "addr:state": "Karnataka",
        "amenity": "bank",
        "brand": "Federal Bank",
        "brand:wikidata": "Q2044983",
        "name": "Federal Bank",
        "name:kn": "ಫೆಡೆರಲ್ ಬ್ಯಾಂಕ್"
      }
    },
    {
      "type": "node",
      "id": 8534906273,
      "lat": 13.0265666,
      "lon": 77.593378,
      "tags": {
        "name": "Heads up for Tails",
        "shop": "pet"
      }
    },
    {
      "type": "node",
      "id": 8534917998,
      "lat": 13.026494,
      "lon": 77.5933758,
      "tags": {
        "amenity": "veterinary",
        "name": "CUPA Small Animals Hospital"
      }
    },
    {
      "type": "node",
      "id": 8540221706,
      "lat": 13.0264238,
      "lon": 77.5926546,
      "tags": {
        "amenity": "toilets",
        "name": "Public Toilet",
        "name:kn": "ಸಾರ್ವಜನಿಕ ಶೌಚಾಲಯ"
      }
    },
    {
      "type": "node",
      "id": 9532893828,
      "lat": 13.0276815,
      "lon": 77.5860809,
      "tags": {
        "name": "The White Teak Company",
        "shop": "furniture"
      }
    },
    {
      "type": "node",
      "id": 10242924686,
      "lat": 13.0242809,
      "lon": 77.5866545,
      "tags": {
        "amenity": "recycling",
        "name": "BBMP Dry Waste Collection Center",
        "name:kn": "ಒಣ ತ್ಯಾಜ್ಯ ನಿರ್ವಹಣೆಗೆ ಸ್ಥಳ",
        "recycling_type": "centre"
      }
    },
    {
      "type": "node",
      "id": 10293921742,
      "lat": 13.0264468,
      "lon": 77.5918691,
      "tags": {
        "amenity": "college",
        "club": "music",
        "name": "The Bangalore School of Music"
      }
    },
    {
      "type": "node",
      "id": 10293921743,
      "lat": 13.0264454,
      "lon": 77.5915888,
      "tags": {
        "amenity": "place_of_worship",
        "building": "church",
        "denomination": "catholic",
        "name": "Shrine of St. Jude Thaddeaus",
        "religion": "christian"
      }
    },
    {
      "type": "node",
      "id": 11119061522,
      "lat": 13.0282096,
      "lon": 77.5863039,
      "tags": {
        "amenity": "cafe",
        "brand": "Cafe Coffee Day",
        "brand:wikidata": "Q5017235",
        "cuisine": "coffee_shop",
        "name": "Cafe Coffee Day",
        "name:kn": "ಕಫೆ ಕಾಫಿ ಡೇ",
        "takeaway": "yes"
      }
    },
    {
      "type": "node",
      "id": 11119061523,
      "lat": 13.0282427,
      "lon": 77.5863357,
      "tags": {
        "name": "The White Teak Company",
        "shop": "furniture"
      }
    },
    {
      "type": "node",
      "id": 11359595250,
      "lat": 13.0295006,
      "lon": 77.5949717,
      "tags": {
        "name": "Sai Medicals And General Stores",
        "shop": "medical_supply"
      }
    },
    {
      "type": "node",
      "id": 11359611697,
      "lat": 13.0274249,
      "lon": 77.5935355,
      "tags": {
        "addr:city": "Bengaluru",
        "addr:housenumber": "18",
        "addr:street": "80 Feet Road, RT Nagar",
        "amenity": "fast_food",
        "brand": "Pizza Hut",
        "brand:wikidata": "Q191615",
        "cuisine": "pizza",
        "name": "Pizza Hut",
        "opening_hours": "Mo-Su 11:00-23:00"
      }
    },
    {
      "type": "node",
      "id": 12525819187,
      "lat": 13.0265315,
      "lon": 77.5871428,
      "tags": {
        "addr:city": "Bengaluru",
        "addr:district": "Bengaluru Urban",
        "addr:housenumber": "197",
        "addr:postcode": "560032",
        "addr:street": "10th Cross, CBI Road, Ganganagar, RT Nagar",
        "name": "Honeybee trips Pvt Ltd",
        "shop": "travel_agency"
      }
    },
    {
      "type": "node",
      "id": 12628600882,
      "lat": 13.0283715,
      "lon": 77.5863916,
      "tags": {
        "check_date": "2025-03-01",
        "name": "Simple",
        "shop": "motorcycle"
      }
    },
    {
      "type": "node",
      "id": 13155774217,
      "lat": 13.0275516,
      "lon": 77.5860894,
      "tags": {
        "amenity": "veterinary_pharmacy",
        "check_date": "2025-09-19",
        "name": "Venky Vet Pharma"
      }
    },
    {
      "type": "node",
      "id": 13155774218,
      "lat": 13.0252499,
      "lon": 77.5855296,
      "tags": {
        "brand": "Suzuki",
        "brand:wikidata": "Q181642",
        "check_date": "2025-09-19",
        "name": "Suzuki",
        "operator": "Meghanath",
        "shop": "motorcycle"
      }
    },
    {
      "type": "node",
      "id": 13155774219,
      "lat": 13.0249358,
      "lon": 77.5854217,
      "tags": {
        "amenity": "bank",
        "brand": "Indian Bank",
        "brand:wikidata": "Q2003789",
        "check_date": "2025-09-19",
        "name": "Indian Bank"
      }
    },
    {
      "type": "node",
      "id": 13155774220,
      "lat": 13.0236639,
      "lon": 77.5851074,
      "tags": {
        "check_date": "2025-09-19",
        "name": "OLA",
        "shop": "motorcycle"
      }
    },
    {
      "type": "way",
      "id": 71516174,
      "center": {
        "lat": 13.0285944,
        "lon": 77.5954864
      },
      "tags": {
        "leisure": "park",
        "name": "VV Park"
      }
    },
    {
      "type": "way",
      "id": 773825319,
      "center": {
        "lat": 13.0280416,
        "lon": 77.586258
      },
      "tags": {
        "amenity": "fuel",
        "brand": "Bharat Petroleum",
        "brand:wikidata": "Q854826",
        "name": "Bharat Petroleum",
        "name:kn": "ಭಾರತ್ ಪೆಟ್ರೋಲಿಯಂ",
        "operator": "Bharat Petroleum"
      }
    },
    {
      "type": "way",
      "id": 1119921717,
      "center": {
        "lat": 13.0241141,
        "lon": 77.5866881
      },
      "tags": {
        "leisure": "playground"
      }
    },
    {
      "type": "way",
      "id": 1119921718,
      "center": {
        "lat": 13.024187,
        "lon": 77.5863339
      },
      "tags": {
        "leisure": "park"
      }
    },
    {
      "type": "way",
      "id": 1125698046,
      "center": {
        "lat": 13.0258289,
        "lon": 77.5947264
      },
      "tags": {
        "amenity": "school"
      }
    },
    {
      "type": "way",
      "id": 1311549277,
      "center": {
        "lat": 13.0247211,
        "lon": 77.5852977
      },
      "tags": {
        "amenity": "fuel",
        "brand": "Hindustan Petroleum",
        "brand:wikidata": "Q1619375",
        "name": "Hindustan Petroleum",
        "name:kn": "ಹಿಂದುಸ್ತಾನ್ ಪೆಟ್ರೋಲಿಯಂ",
        "official_name": "Hindustan Petroleum",
        "wheelchair": "limited"
      }
    },
    {
      "type": "way",
      "id": 1385609285,
      "center": {
        "lat": 13.0244119,
        "lon": 77.585337
      },
      "tags": {
        "amenity": "place_of_worship",
        "religion": "hindu"
      }
    },
    {
      "type": "way",
      "id": 1386060657,
      "center": {
        "lat": 13.0291099,
        "lon": 77.592251
      },
      "tags": {
        "amenity": "place_of_worship",
        "landuse": "religious",
        "name": "Sri Shirdi Saibaba Temple",
        "religion": "hindu"
      }
    },
    {
      "type": "way",
      "id": 1386060663,
      "center": {
        "lat": 13.0293226,
        "lon": 77.5905011
      },
      "tags": {
        "leisure": "park",
        "name": "RBI Colony Park"
      }
    },
    {
      "type": "way",
      "id": 1386060674,
      "center": {
        "lat": 13.0294084,
        "lon": 77.5892348
      },
      "tags": {
        "amenity": "college",
        "name": "Vidya Vahini School and PU College"
      }
    }
  ]
}