{
  "area_name": "Garudacharpalya",
  "osm_id": 1457440309,
  "osm_type": "node",
  "place_type": "neighbourhood",
  "amenity_count": 227,
  "amenities": [
    {
      "type": "node",
      "id": 983328415,
      "lat": 12.9951883,
      "lon": 77.6985535,
      "tags": {
        "addr:city": "Mahadevapura, Bangalore",
        "addr:housenumber": "P-4",
        "addr:postcode": "560048",
        "addr:street": "Kssidc Industrial Area",
        "amenity": "bank",
        "atm": "yes",
        "brand": "HDFC Bank",
        "brand:wikidata": "Q631047",
        "fax": "+91-80-67126601",
        "name": "HDFC Bank",
        "operator": "HDFC Bank",
        "phone": "+91-80-66003333",
        "short_name": "HDFC"
      }
    },
    {
      "type": "node",
      "id": 983328421,
      "lat": 12.9953337,
      "lon": 77.6981627,
      "tags": {
        "addr:street": "Whitefield Road",
        "addr:suburb": "Mahadevapura",
        "amenity": "bank",
        "atm": "yes",
        "brand": "Canara Bank",
        "brand:en": "Canara Bank",
        "brand:hi": "केनरा बैंक",
        "brand:kn": "ಕೆನರಾ ಬ್ಯಾಂಕ್",
        "brand:pa": "ਕੇਨਰਾ ਬੈਂਕ",
        "brand:pnb": "کینرا بینک",
        "brand:ur": "کینرا بینک",
        "brand:wikidata": "Q2003777",
        "name": "Canara Bank",
        "name:en": "Canara Bank",
        "name:hi": "केनरा बैंक",
        "name:kn": "ಕೆನರಾ ಬ್ಯಾಂಕ್",
        "name:pa": "ਕੇਨਰਾ ਬੈਂਕ",
        "name:pnb": "کینرا بینک",
        "name:ur": "کینرا بینک",
        "operator": "Canara Bank"
      }
    },
    {
      "type": "node",
      "id": 983351449,
      "lat": 12.9950857,
      "lon": 77.6988783,
      "tags": {
        "addr:city": "Mahadevapura, Bangalore",
        "addr:postcode": "560048",
        "addr:street": "Whitefield Road",
        "amenity": "post_office",
        "name": "Mahadevappura Post Office"
      }
    },
    {
      "type": "node",
      "id": 983351500,
      "lat": 12.9956238,
      "lon": 77.6992864,
      "tags": {
        "addr:city": "Mahadevapura",
        "addr:street": "Whitefield Road",
        "amenity": "bank",
        "atm": "yes",
        "brand": "State Bank of India",
        "brand:wikidata": "Q1340361",
        "name": "State Bank of India",
        "name:kn": "ಎಸ್ ಬಿ ಐ",
        "operator": "SBI",
        "short_name": "SBI"
      }
    },
    {
      "type": "node",
      "id": 1104408041,
      "lat": 12.9930001,
      "lon": 77.7027197,
      "tags": {
        "addr:city": "Bangalore",
        "addr:street": "Whitefield Road",
        "amenity": "fast_food",
        "brand": "Domino's",
        "brand:ks": "ڈومینوز",
        "brand:pa": "ਡੋਮੀਨੋਜ਼",
        "brand:ur": "ڈومینوز",
        "brand:wikidata": "Q839466",
        "brand:wikipedia": "en:Domino's Pizza",
        "cuisine": "pizza",
        "name": "Domino's",
        "name:kn": "ಡಾಮಿನೋಸ್",
        "name:ks": "ڈومینوز",
        "name:pa": "ਡੋਮੀਨੋਜ਼",
        "name:ur": "ڈومینوز",
        "takeaway": "yes"
      }
    },
    {
      "type": "node",
      "id": 1166275817,
      "lat": 12.9897305,
      "lon": 77.7023418,
      "tags": {
        "shop": "convenience"
      }
    },
    {
      "type": "node",
      "id": 1186831410,
      "lat": 12.9951629,
      "lon": 77.69923,
      "tags": {
        "addr:street": "Whitefield Road",
        "amenity": "hospital",
        "name": "Presidency Hospital"
      }
    },
    {
      "type": "node",
      "id": 1186831429,
      "lat": 12.9954058,
      "lon": 77.6992647,
      "tags": {
        "addr:street": "Whitefield Road",
        "amenity": "atm",
        "brand": "State Bank of India",
        "brand:wikidata": "Q1340361",
        "operator": "State Bank of India",
        "operator:wikidata": "Q1340361",
        "short_name": "SBI"
      }
    },
    {
      "type": "node",
      "id": 1350237055,
      "lat": 12.9949844,
      "lon": 77.6960255,
      "tags": {
        "addr:city": "Mahadevapura, Bangalore",
        "addr:street": "Whitefield Road",
        "amenity": "bank",
        "atm": "yes",
        "brand": "Corporation Bank",
        "brand:wikidata": "Q2003387",
        "brand:wikipedia": "en:Corporation Bank",
        "name": "Corporation Bank",
        "name:en": "Corporation Bank",
        "name:kn": "ಕಾರ್ಪರೇಷನ್ ಬ್ಯಾಂಕ್",
        "website": "https://corpbank.com/"
      }
    },
    {
      "type": "node",
      "id": 1600682556,
      "lat": 12.9967174,
      "lon": 77.6960727,
      "tags": {
        "access": "customers",
        "amenity": "parking_entrance",
        "fee": "yes",
        "lit": "yes",
        "parking": "underground",
        "supervised": "yes",
        "wheelchair": "yes"
      }
    },
    {
      "type": "node",
      "id": 1608340080,
      "lat": 12.9970064,
      "lon": 77.6960134,
      "tags": {
        "access": "customers",
        "amenity": "parking",
        "capacity:disabled": "unknown",
        "capacity:parent": "no",
        "capacity:women": "no",
        "fee": "yes",
        "layer": "-2",
        "lit": "yes",
        "name": "Phoenix Market Underground Parking",
        "park_ride": "yes",
        "parking": "underground",
        "supervised": "yes",
        "wheelchair": "yes"
      }
    },
    {
      "type": "node",
      "id": 1660031371,
      "lat": 12.996313,
      "lon": 77.70122,
      "tags": {
        "name": "Mahindra Service",
        "shop": "car_repair"
      }
    },
    {
      "type": "node",
      "id": 1717909484,
      "lat": 12.9960796,
      "lon": 77.6933786,
      "tags": {
        "addr:street": "Whitefield Road",
        "amenity": "clinic",
        "name": "Dr.Chandar Clinic"
      }
    },
    {
      "type": "node",
      "id": 1719526893,
      "lat": 12.9926025,
      "lon": 77.6913531,
      "tags": {
        "name": "Anjeneya Provision Store",
        "shop": "convenience"
      }
    },
    {
      "type": "node",
      "id": 1719527370,
      "lat": 12.9939459,
      "lon": 77.6932252,
      "tags": {
        "name": "Reni Provision Store",
        "shop": "convenience"
      }
    },
    {
      "type": "node",
      "id": 1733720842,
      "lat": 12.9926358,
      "lon": 77.7027672,
      "tags": {
        "amenity": "cafe",
        "brand": "Costa",
        "brand:wikidata": "Q608845",
        "cuisine": "coffee_shop",
        "name": "Costa",
        "takeaway": "yes"
      }
    },
    {
      "type": "node",
      "id": 1733720846,
      "lat": 12.9922906,
      "lon": 77.7027028,
      "tags": {
        "amenity": "fast_food",
        "name": "Kismiss"
      }
    },
    {
      "type": "node",
      "id": 1839606932,
      "lat": 12.9927632,
      "lon": 77.7027663,
      "tags": {
        "amenity": "bank",
        "atm": "yes",
        "brand": "State Bank of India",
        "brand:wikidata": "Q1340361",
        "brand:wikipedia": "en:State Bank of India",
        "name": "State Bank of India",
        "name:kn": "ಭಾರತೀಯ ಸ್ಟೇಟ್ ಬ್ಯಾಂಕ್",
        "short_name": "SBI"
      }
    },
    {
      "type": "node",
      "id": 1960798984,
      "lat": 12.9953019,
      "lon": 77.6977548,
      "tags": {
        "name": "Sprint Yamaha",
        "shop": "motorcycle"
      }
    },
    {
      "type": "node",
      "id": 2407606587,
      "lat": 12.9971277,
      "lon": 77.6955056,
      "tags": {
        "access": "customers",
        "amenity": "parking_entrance",
        "fee": "yes",
        "lit": "yes",
        "parking": "underground",
        "supervised": "yes",
        "wheelchair": "yes"
      }
    },
    {
      "type": "node",
      "id": 3426278198,
      "lat": 12.9925169,
      "lon": 77.7031605,
      "tags": {
        "amenity": "atm",
        "brand": "Citibank",
        "brand:wikidata": "Q857063",
        "name": "Citibank ATM",
        "operator": "Citibank",
        "operator:wikidata": "Q857063",
        "short_name": "Citi"
      }
    },
    {
      "type": "node",
      "id": 4270322789,
      "lat": 12.9966807,
      "lon": 77.6954878,
      "tags": {
        "addr:floor": "3",
        "addr:street": "Whitefield Road",
        "air_conditioning": "yes",
        "amenity": "cinema",
        "brand": "PVR Cinemas",
        "brand:wikidata": "Q3359908",
        "check_date": "2023-02-08",
        "internet_access": "no",
        "level": "3",
        "name": "PVR IMAX",
        "payment:cash": "yes",
        "payment:credit_cards": "yes",
        "payment:debit_cards": "yes",
        "payment:upi": "yes",
        "short_name": "PVR",
        "source": "survey",
        "wheelchair": "yes"
      }
    },
    {
      "type": "node",
      "id": 4445573505,
      "lat": 12.9950766,
      "lon": 77.6967056,
      "tags": {
        "addr:city": "Bangalore",
        "addr:housenumber": "# 90A",
        "addr:postcode": "560048",
        "addr:street": "Whitefield Road, R.H.B. colony, Mahadevapura",
        "amenity": "pharmacy",
        "name": "Mass pharma",
        "phone": "+9197408 10151"
      }
    },
    {
      "type": "node",
      "id": 4445639834,
      "lat": 12.9929014,
      "lon": 77.7027759,
      "tags": {
        "addr:city": "Bangalore",
        "addr:housenumber": "113",
        "addr:postcode": "560048",
        "addr:street": "Whitefield Road,Garudachar Palya, Mahadevapura",
        "amenity": "pharmacy",
        "healthcare": "pharmacy",
        "name": "NationWide Primary Healthcare Services",
        "phone": "080 4205 5422"
      }
    },
    {
      "type": "node",
      "id": 4446871115,
      "lat": 12.9969562,
      "lon": 77.6966407,
      "tags": {
        "addr:city": "Bengaluru",
        "addr:housename": "Phoenix Market City",
        "addr:housenumber": "106/107",
        "addr:postcode": "560048",
        "addr:street": "Whitefield Road",
        "addr:suburb": "Mahadevpura",
        "amenity": "clinic",
        "healthcare": "clinic",
        "level": "2",
        "name": "Kaya Skin Clinic",
        "phone": "080672 66266",
        "website": "https://kaya.in/"
      }
    },
    {
      "type": "node",
      "id": 4447045174,
      "lat": 12.9980417,
      "lon": 77.6960002,
      "tags": {
        "addr:city": "Bengaluru",
        "addr:housename": "Phoenix Market City",
        "addr:postcode": "560048",
        "addr:street": "Whitefield Road",
        "addr:suburb": "Mahadevpura",
        "brand": "Tommy Hilfiger",
        "brand:wikidata": "Q634881",
        "brand:wikipedia": "en:Tommy Hilfiger (company)",
        "level": "0",
        "name": "Tommy Hilfiger",
        "phone": "+918067266361",
        "shop": "clothes",
        "website": "http://www.global.tommy.com"
      }
    },
    {
      "type": "node",
      "id": 4447083938,
      "lat": 12.9979942,
      "lon": 77.6959981,
      "tags": {
        "addr:city": "Bengaluru",
        "addr:postcode": "560048",
        "addr:street": "Whitefield Main Road, Mahadevpura, Devasandra Industrial Estate, Krishnarajapuram",
        "brand": "Blackberrys",
        "brand:wikidata": "Q4922570",
        "name": "Blackberrys",
        "phone": "+918067266355",
        "shop": "clothes",
        "website": "https://www.blackberrys.com/"
      }
    },
    {
      "type": "node",
      "id": 4447086689,
      "lat": 12.9979416,
      "lon": 77.6959972,
      "tags": {
        "addr:city": "Bengaluru",
        "addr:postcode": "560048",
        "addr:street": "Whitefield Main Road, Mahadevpura, Devasandra Industrial Estate, Krishnarajapuram",
        "name": "Swensen's",
        "phone": "+918067266596",
        "shop": "bakery",
        "website": "https://www.swensens.com/"
      }
    },
    {
      "type": "node",
      "id": 4447088558,
      "lat": 12.9978893,
      "lon": 77.6960019,
      "tags": {
        "addr:city": "Bengaluru",
        "addr:postcode": "560048",
        "addr:street": "Whitefield Main Road, Mahadevpura, Devasandra Industrial Estate, Krishnarajapuram, Bengaluru",
        "name": "Alcott",
        "phone": "+918067266062",
        "shop": "clothes",
        "website": "https://www.alcott.eu/"
      }
    },
    {
      "type": "node",
      "id": 4447090186,
      "lat": 12.9980375,
      "lon": 77.6962682,
      "tags": {
        "addr:city": "Bengaluru",
        "addr:postcode": "560048",
        "addr:street": "Whitefield Main Road, Mahadevpura, Devasandra Industrial Estate, Krishnarajapuram, Bengaluru",
        "amenity": "restaurant",
        "name": "Shanghai times",
        "opening_hours": "11:00-23:00",
        "phone": "+918067266130"
      }
    },
    {
      "type": "node",
      "id": 4447095447,
      "lat": 12.9979408,
      "lon": 77.6962769,
      "tags": {
        "addr:city": "Bengaluru",
        "addr:postcode": "560048",
        "addr:street": "Whitefield Main Road, Mahadevpura, Devasandra Industrial Estate, Krishnarajapuram",
        "name": "Colorplus",
        "phone": "+918067266144",
        "shop": "clothes",
        "website": "https://colorplusonline.com/"
      }
    },
    {
      "type": "node",
      "id": 4447099588,
      "lat": 12.9978823,
      "lon": 77.6962863,
      "tags": {
        "addr:city": "Bengaluru",
        "addr:postcode": "560048",
        "addr:street": "Whitefield Main Road, Mahadevpura, Devasandra Industrial Estate, Krishnarajapuram",
        "brand": "French Connection",
        "brand:wikidata": "Q306457",
        "name": "French Connection",
        "phone": "+918067266057",
        "shop": "clothes",
        "short_name": "FCUK",
        "website": "https://www.frenchconnection.com/"
      }
    },
    {
      "type": "node",
      "id": 4447108501,
      "lat": 12.9979686,
      "lon": 77.6966599,
      "tags": {
        "addr:city": "Bengaluru",
        "addr:postcode": "560048",
        "addr:street": "Whitefield Main Road, Mahadevpura, Devasandra Industrial Estate, Krishnarajapuram",
        "amenity": "restaurant",
        "name": "PBN Express",
        "opening_hours": "11:00-22:30",
        "phone": "+918049138800",
        "website": "https://www.punjabibynature.com/"
      }
    },
    {
      "type": "node",
      "id": 4447111230,
      "lat": 12.9978901,
      "lon": 77.696678,
      "tags": {
        "addr:city": "Bengaluru",
        "addr:postcode": "560048",
        "addr:street": "Whitefield Main Road, Mahadevpura, Devasandra Industrial Estate, Krishnarajapuram",
        "leisure": "bowling_alley",
        "name": "Bluo",
        "phone": "+918067266525",
        "website": "www.pvrbluo.com"
      }
    },
    {
      "type": "node",
      "id": 4447114339,
      "lat": 12.9978976,
      "lon": 77.6964779,
      "tags": {
        "addr:city": "Bengaluru",
        "addr:housename": "Phoenix Market City",
        "addr:postcode": "560048",
        "addr:street": "Whitefield Road",
        "addr:suburb": "Mahadevpura",
        "brand": "Reliance Trends",
        "check_date": "2023-04-05",
        "level": "-1",
        "name": "Reliance Trends",
        "opening_hours": "10:30-22:00",
        "payment:credit_cards": "yes",
        "payment:debit_cards": "yes",
        "phone": "+918067266311;+91 80 3316 6311",
        "shop": "clothes",
        "source": "survey",
        "website": "https://www.reliancetrends.com/"
      }
    },
    {
      "type": "node",
      "id": 4447119333,
      "lat": 12.9973146,
      "lon": 77.6969454,
      "tags": {
        "addr:street": "Whitefield Main Road, Mahadevpura, Devasandra Industrial Estate, Krishnarajapuram",
        "amenity": "restaurant",
        "name": "Copper Chimney",
        "opening_hours": "12:00-15:30, 19:00-23:00",
        "phone": "+918067266455",
        "website": "https://www.copperchimney.in/"
      }
    },
    {
      "type": "node",
      "id": 4447120652,
      "lat": 12.997828,
      "lon": 77.6969269,
      "tags": {
        "addr:city": "Bengaluru",
        "addr:postcode": "560048",
        "addr:street": "Whitefield Main Road, Mahadevpura, Devasandra Industrial Estate, Krishnarajapuram",
        "brand": "Marks & Spencer",
        "brand:wikidata": "Q714491",
        "brand:wikipedia": "en:Marks & Spencer",
        "level": "0",
        "name": "Marks & Spencer",
        "phone": "+918067266301",
        "shop": "clothes",
        "website": "https://www.marksandspencer.com/"
      }
    },
    {
      "type": "node",
      "id": 4447122291,
      "lat": 12.9977814,
      "lon": 77.6967455,
      "tags": {
        "addr:city": "Bengaluru",
        "addr:postcode": "560048",
        "addr:street": "Whitefield Main Road, Mahadevpura, Devasandra Industrial Estate, Krishnarajapuram",
        "name": "Ed Hardy",
        "phone": "+918067266173",
        "shop": "clothes",
        "website": "https://www.edhardyoriginals.com/"
      }
    },
    {
      "type": "node",
      "id": 4447122311,
      "lat": 12.9975011,
      "lon": 77.6969216,
      "tags": {
        "addr:city": "Bengaluru",
        "addr:postcode": "560048",
        "addr:street": "Whitefield Main Road, Mahadevpura, Devasandra Industrial Estate, Krishnarajapuram",
        "name": "Sangeetha",
        "name:kn": "ಸಂಗೀತ",
        "phone": "+918067266530",
        "shop": "mobile_phone",
        "website": "https://www.sangeethamobiles.com/"
      }
    },
    {
      "type": "node",
      "id": 4447125199,
      "lat": 12.9975728,
      "lon": 77.6968991,
      "tags": {
        "addr:city": "Bengaluru",
        "addr:postcode": "560048",
        "addr:street": "Whitefield Main Road, Mahadevpura, Devasandra Industrial Estate, Krishnarajapuram",
        "name": "Mufti",
        "phone": "+918067266418",
        "shop": "clothes",
        "website": "https://www.muftijeans.in/"
      }
    },
    {
      "type": "node",
      "id": 4447133078,
      "lat": 12.9974138,
      "lon": 77.6969243,
      "tags": {
        "addr:city": "Bengaluru",
        "addr:postcode": "560048",
        "addr:street": "Whitefield Main Road, Mahadevpura, Devasandra Industrial Estate, Krishnarajapuram",
        "amenity": "fast_food",
        "brand": "Wow! Momo",
        "brand:wikidata": "Q8037446",
        "cuisine": "momo",
        "indoor_seating": "yes",
        "name": "Wow! Momo",
        "outdoor_seating": "no",
        "phone": "+917411717503",
        "takeaway": "yes"
      }
    },
    {
      "type": "node",
      "id": 4447163802,
      "lat": 12.9971395,
      "lon": 77.6969098,
      "tags": {
        "addr:housenumber": "29",
        "addr:street": "Whitefield Main Road, Mahadevpura, Devasandra Industrial Estate, Krishnarajapuram",
        "amenity": "restaurant",
        "name": "Social",
        "opening_hours": "Mo-Su 09:00-12:30",
        "phone": "+918040515253"
      }
    },
    {
      "type": "node",
      "id": 4447173071,
      "lat": 12.9970777,
      "lon": 77.6969141,
      "tags": {
        "addr:city": "Bengaluru",
        "addr:housename": "Phoenix Market City",
        "addr:postcode": "560048",
        "addr:street": "Whitefield Road",
        "addr:suburb": "Mahadevpura",
        "brand": "Mothercare",
        "brand:wikidata": "Q136738",
        "name": "Mothercare",
        "phone": "+918067266264",
        "shop": "baby_goods",
        "website": "https://www.mothercare.com/"
      }
    },
    {
      "type": "node",
      "id": 4447273113,
      "lat": 12.9975586,
      "lon": 77.6967161,
      "tags": {
        "addr:city": "Bengaluru",
        "addr:postcode": "560048",
        "addr:street": "Whitefield Main Road, Mahadevpura, Devasandra Industrial Estate, Krishnarajapuram",
        "name": "I store",
        "phone": "+918067266444",
        "shop": "electronics",
        "website": "www.istoreindia.com"
      }
    },
    {
      "type": "node",
      "id": 4447289483,
      "lat": 12.9974777,
      "lon": 77.6967089,
      "tags": {
        "addr:city": "Bengaluru",
        "addr:postcode": "560048",
        "addr:street": "Whitefield Main Road, Mahadevpura, Devasandra Industrial Estate, Krishnarajapuram",
        "name": "Lee",
        "phone": "+918067266129",
        "shop": "clothes",
        "website": "https://www.lee.com/"
      }
    },
    {
      "type": "node",
      "id": 4447298328,
      "lat": 12.9973999,
      "lon": 77.6967169,
      "tags": {
        "addr:city": "Bengaluru",
        "addr:housename": "Phoenix Market City",
        "addr:postcode": "560048",
        "addr:street": "Whitefield Road",
        "addr:suburb": "Mahadevpura",
        "level": "1",
        "name": "Spykar",
        "phone": "+918067266310",
        "shop": "clothes",
        "website": "https://www.spykar.com/"
      }
    },
    {
      "type": "node",
      "id": 4447310578,
      "lat": 12.997332,
      "lon": 77.6967285,
      "tags": {
        "addr:city": "Bengaluru",
        "addr:postcode": "560048",
        "addr:street": "Whitefield Main Road, Mahadevpura, Devasandra Industrial Estate, Krishnarajapuram",
        "brand": "Manyavar",
        "brand:wikidata": "Q24906783",
        "level": "2",
        "name": "Manyavar",
        "phone": "+918067266070",
        "shop": "clothes",
        "website": "https://www.manyavar.com/"
      }
    },
    {
      "type": "node",
      "id": 4447321423,
      "lat": 12.9972705,
      "lon": 77.6967381,
      "tags": {
        "addr:city": "Bengaluru",
        "addr:postcode": "560048",
        "addr:street": "Whitefield Main Road, Mahadevpura, Devasandra Industrial Estate, Krishnarajapuram",
        "level": "-1",
        "name": "World of Titan",
        "phone": "+918067266199",
        "shop": "fashion",
        "website": "https://www.titanworld.com/"
      }
    },
    {
      "type": "node",
      "id": 4447328673,
      "lat": 12.9972231,
      "lon": 77.6967363,
      "tags": {
        "addr:city": "Bengaluru",
        "addr:postcode": "560048",
        "addr:street": "Whitefield Main Road, Mahadevpura, Devasandra Industrial Estate, Krishnarajapuram",
        "brand": "Fastrack",
        "brand:wikidata": "Q28164179",
        "level": "-1",
        "name": "Fastrack",
        "phone": "+918067266280",
        "shop": "watches",
        "website": "https://www.fastrack.in/"
      }
    },
    {
      "type": "node",
      "id": 4447331069,
      "lat": 12.9971672,
      "lon": 77.6967381,
      "tags": {
        "addr:city": "Bengaluru",
        "addr:floor": "LG",
        "addr:postcode": "560048",
        "addr:street": "Whitefield Main Road, Mahadevpura, Devasandra Industrial Estate, Krishnarajapuram",
        "brand": "Hamleys",
        "brand:wikidata": "Q60299",
        "check_date": "2023-04-05",
        "level": "-1",
        "name": "Hamleys",
        "payment:credit_cards": "yes",
        "payment:debit_cards": "yes",
        "phone": "+918067266484",
        "shop": "toys",
        "website": "https://www.hamleys.com/"
      }
    },
    {
      "type": "node",
      "id": 4447339115,
      "lat": 12.9968641,
      "lon": 77.6967745,
      "tags": {
        "addr:city": "Bengaluru",
        "addr:postcode": "560048",
        "addr:street": "Whitefield Main Road, Mahadevpura, Devasandra Industrial Estate, Krishnarajapuram",
        "name": "Very",
        "phone": "+918067266255",
        "shop": "gift",
        "website": "https://www.very.co.uk/"
      }
    },
    {
      "type": "node",
      "id": 4447343877,
      "lat": 12.9968154,
      "lon": 77.6968884,
      "tags": {
        "addr:city": "Bengaluru",
        "addr:housename": "Phoenix Market City",
        "addr:postcode": "560048",
        "addr:street": "Whitefield Road",
        "addr:suburb": "Mahadevpura",
        "air_conditioning": "yes",
        "amenity": "restaurant",
        "indoor_seating": "yes",
        "name": "Rajdhani",
        "name:kn": "ರಾಜಧಾನಿ",
        "opening_hours": "Mo-Su 11:30-15:30,19:30-23:00",
        "outdoor_seating": "no",
        "phone": "+918067266503",
        "smoking": "no",
        "website": "https://www.rajdhani.co.in/"
      }
    },
    {
      "type": "node",
      "id": 4447345580,
      "lat": 12.996706,
      "lon": 77.6968735,
      "tags": {
        "addr:city": "Bengaluru",
        "addr:housenumber": "UG-40/41",
        "addr:postcode": "560048",
        "addr:street": "Whitefield Main Road, Mahadevpura, Devasandra Industrial Estate, Krishnarajapuram",
        "amenity": "restaurant",
        "brand": "Chili's",
        "brand:wikidata": "Q1072948",
        "brand:wikipedia": "en:Chili's",
        "cuisine": "tex-mex",
        "name": "Chili's",
        "official_name": "Chili's Grill & Bar",
        "phone": "+918067266406",
        "website": "https://www.chilis.com/"
      }
    },
    {
      "type": "node",
      "id": 4447354211,
      "lat": 12.996601,
      "lon": 77.6968556,
      "tags": {
        "addr:city": "Bengaluru",
        "addr:postcode": "560048",
        "addr:street": "Whitefield Main Road, Mahadevpura, Devasandra Industrial Estate, Krishnarajapuram",
        "amenity": "restaurant",
        "brand": "Cafe Noir",
        "brand:wikidata": "Q124374751",
        "cuisine": "french",
        "delivery": "yes",
        "name": "Cafe Noir",
        "opening_hours": "10:30-23:00",
        "phone": "+918067266099",
        "takeaway": "yes",
        "website": "https://www.cafenoir.co.in/"
      }
    },
    {
      "type": "node",
      "id": 4447357910,
      "lat": 12.9965221,
      "lon": 77.6967696,
      "tags": {
        "addr:city": "Bengaluru",
        "addr:postcode": "560048",
        "addr:street": "Whitefield Main Road, Mahadevpura, Devasandra Industrial Estate, Krishnarajapuram",
        "amenity": "fast_food",
        "name": "The United Sports Bar& Grill",
        "phone": "+918067266661"
      }
    },
    {
      "type": "node",
      "id": 4447380494,
      "lat": 12.9967599,
      "lon": 77.6967269,
      "tags": {
        "addr:city": "Bengaluru",
        "addr:postcode": "560048",
        "addr:street": "Whitefield Main Road, Mahadevpura, Devasandra Industrial Estate, Krishnarajapuram",
        "brand": "Allen Solly",
        "brand:wikidata": "Q110036995",
        "level": "1",
        "name": "Allen Solly",
        "phone": "+918067266388",
        "shop": "clothes",
        "website": "https://www.allensolly.com/"
      }
    },
    {
      "type": "node",
      "id": 4447422941,
      "lat": 12.9966277,
      "lon": 77.6965636,
      "tags": {
        "addr:city": "Bengaluru",
        "addr:floor": "1",
        "addr:postcode": "560048",
        "addr:street": "Whitefield Main Road, Mahadevpura, Devasandra Industrial Estate, Krishnarajapuram,",
        "air_conditioning": "yes",
        "brand": "Van Heusen",
        "brand:wikidata": "Q67551865",
        "check_date": "2022-10-15",
        "clothes": "men",
        "internet_access": "no",
        "level": "1",
        "name": "Van Heusen",
        "payment:cash": "yes",
        "payment:credit_cards": "yes",
        "payment:debit_cards": "yes",
        "payment:upi": "yes",
        "phone": "+918067266193",
        "second_hand": "no",
        "shop": "clothes",
        "source": "survey",
        "website": "https://www.vanheusenindia.com/"
      }
    },
    {
      "type": "node",
      "id": 4447434008,
      "lat": 12.9965376,
      "lon": 77.6964804,
      "tags": {
        "addr:city": "Bengaluru",
        "addr:postcode": "560048",
        "addr:street": "Whitefield Main Road, Mahadevpura, Devasandra Industrial Estate, Krishnarajapuram",
        "brand": "Louis Philippe",
        "brand:wikidata": "Q18350510",
        "level": "1",
        "name": "Louis Philippe",
        "phone": "+918067417792",
        "shop": "clothes",
        "website": "https://www.louisphilippe.com/"
      }
    },
    {
      "type": "node",
      "id": 4447436920,
      "lat": 12.9964879,
      "lon": 77.6965716,
      "tags": {
        "addr:city": "Bengaluru",
        "addr:postcode": "560048",
        "addr:street": "Whitefield Main Road, Mahadevpura, Devasandra Industrial Estate, Krishnarajapuram",
        "name": "Zodiac",
        "phone": "+918067266291",
        "shop": "clothes",
        "website": "https://www.zodiaconline.com/"
      }
    },
    {
      "type": "node",
      "id": 4447438489,
      "lat": 12.9963625,
      "lon": 77.6968264,
      "tags": {
        "addr:city": "Bengaluru",
        "addr:postcode": "560048",
        "addr:street": "Whitefield Main Road, Mahadevpura, Devasandra Industrial Estate, Krishnarajapuram",
        "amenity": "restaurant",
        "cuisine": "regional",
        "name": "Belgyum",
        "phone": "+918049653058",
        "smoking": "no",
        "website": "www.belgyum.in"
      }
    },
    {
      "type": "node",
      "id": 4447439478,
      "lat": 12.9963912,
      "lon": 77.696636,
      "tags": {
        "addr:city": "Bengaluru",
        "addr:postcode": "560048",
        "addr:street": "Whitefield Main Road, Mahadevpura, Devasandra Industrial Estate, Krishnarajapuram",
        "brand": "Cromā",
        "brand:wikidata": "Q5187683",
        "check_date": "2025-11-15",
        "level": "1",
        "name": "Cromā",
        "payment:cash": "yes",
        "payment:credit_cards": "yes",
        "payment:debit_cards": "yes",
        "phone": "+917207666000",
        "shop": "electronics",
        "website": "https://www.croma.com/"
      }
    },
    {
      "type": "node",
      "id": 4447446010,
      "lat": 12.9962814,
      "lon": 77.6968371,
      "tags": {
        "addr:city": "Bengaluru",
        "addr:postcode": "560048",
        "addr:street": "Whitefield Main Road, Mahadevpura, Devasandra Industrial Estate, Krishnarajapuram",
        "amenity": "fast_food",
        "brand": "Burger King",
        "brand:pa": "ਬਰਗਰ ਕਿੰਗ",
        "brand:ur": "برگر کنگ",
        "brand:wikidata": "Q177054",
        "brand:wikipedia": "en:Burger King",
        "brand:wikipedia:pa": "ਬਰਗਰ ਕਿੰਗ",
        "brand:wikipedia:ur": "برگر کنگ",
        "check_date": "2025-11-15",
        "cuisine": "burger",
        "indoor_seating": "yes",
        "level": "2",
        "name": "Burger King",
        "name:pa": "ਬਰਗਰ ਕਿੰਗ",
        "name:ru": "Бургер Кинг",
        "name:ur": "برگر کنگ",
        "opening_hours": "11:00-23:00",
        "outdoor_seating": "no",
        "payment:cash": "yes",
        "payment:credit_cards": "yes",
        "payment:debit_cards": "yes",
        "phone": "+918049652529",
        "smoking": "no",
        "takeaway": "yes",
        "website": "https://www.burgerking.in/"
      }
    },
    {
      "type": "node",
      "id": 4447458448,
      "lat": 12.9962867,
      "lon": 77.6966682,
      "tags": {
        "addr:city": "Bengaluru",
        "addr:floor": "LG",
        "addr:postcode": "560048",
        "addr:street": "Whitefield Main Road, Mahadevpura, Devasandra Industrial Estate, Krishnarajapuram",
        "air_conditioning": "yes",
        "brand": "Reliance Digital",
        "brand:wikidata": "Q7311012",
        "check_date": "2022-10-16",
        "internet_access": "no",
        "level": "-1",
        "name": "Reliance Digital",
        "opening_hours": "11:00-22:00",
        "payment:cash": "yes",
        "payment:credit_cards": "yes",
        "payment:debit_cards": "yes",
        "payment:upi": "yes",
        "phone": "+918067266222",
        "second_hand": "no",
        "shop": "electronics",
        "source": "survey",
        "website": "https://www.reliancedigital.in/"
      }
    },
    {
      "type": "node",
      "id": 4447466740,
      "lat": 12.9964487,
      "lon": 77.696459,
      "tags": {
        "addr:city": "Bengaluru",
        "addr:floor": "LG",
        "addr:postcode": "560048",
        "addr:street": "Whitefield Main Road, Mahadevpura, Devasandra Industrial Estate, Krishnarajapuram",
        "air_conditioning": "yes",
        "check_date": "2022-10-15",
        "internet_access": "no",
        "level": "-1",
        "name": "Home town",
        "payment:cash": "yes",
        "payment:credit_cards": "yes",
        "payment:debit_cards": "yes",
        "payment:upi": "yes",
        "phone": "+918067266369",
        "second_hand": "no",
        "shop": "furniture",
        "source": "survey",
        "website": "https://www.hometown.in/"
      }
    },
    {
      "type": "node",
      "id": 4447469895,
      "lat": 12.9963545,
      "lon": 77.6964586,
      "tags": {
        "addr:city": "Bengaluru",
        "addr:postcode": "560048",
        "addr:street": "Whitefield Main Road, Mahadevpura, Devasandra Industrial Estate, Krishnarajapuram",
        "name": "Catwalk",
        "phone": "+918067266176",
        "shop": "shoes",
        "website": "www.catwalk.co.in"
      }
    },
    {
      "type": "node",
      "id": 4447475917,
      "lat": 12.9962442,
      "lon": 77.6965188,
      "tags": {
        "addr:city": "Bengaluru",
        "addr:postcode": "560048",
        "addr:street": "Whitefield Main Road, Mahadevpura, Devasandra Industrial Estate, Krishnarajapuram",
        "brand": "GNC",
        "brand:wikidata": "Q4808595",
        "brand:wikipedia": "en:GNC (store)",
        "name": "GNC",
        "phone": "+918067266443",
        "shop": "nutrition_supplements",
        "website": "www.guardiannutrition.in"
      }
    },
    {
      "type": "node",
      "id": 4447480409,
      "lat": 12.9961541,
      "lon": 77.69648,
      "tags": {
        "addr:city": "Bengaluru",
        "addr:postcode": "560048",
        "addr:street": "Whitefield Main Road, Mahadevpura, Devasandra Industrial Estate, Krishnarajapuram",
        "name": "Catmoss",
        "phone": "+918067266125",
        "shop": "clothes",
        "website": "www.catmossindia.com"
      }
    },
    {
      "type": "node",
      "id": 4447482311,
      "lat": 12.9961879,
      "lon": 77.6966839,
      "tags": {
        "addr:city": "Bengaluru",
        "addr:postcode": "560048",
        "addr:street": "Whitefield Main Road, Mahadevpura, Devasandra Industrial Estate, Krishnarajapuram",
        "level": "2",
        "name": "Soch",
        "phone": "+918067266208",
        "shop": "clothes",
        "website": "https://www.soch.com/in/"
      }
    },
    {
      "type": "node",
      "id": 4447483172,
      "lat": 12.9961224,
      "lon": 77.6966941,
      "tags": {
        "addr:city": "Bengaluru",
        "addr:postcode": "560048",
        "addr:street": "Whitefield Main Road, Mahadevpura, Devasandra Industrial Estate, Krishnarajapuram",
        "name": "Baboosh",
        "phone": "+918067266436",
        "shop": "clothes",
        "website": "www.baboosh.co.in"
      }
    },
    {
      "type": "node",
      "id": 4447486771,
      "lat": 12.9960668,
      "lon": 77.6965785,
      "tags": {
        "addr:city": "Bengaluru",
        "addr:postcode": "560048",
        "addr:street": "Whitefield Main Road, Mahadevpura, Devasandra Industrial Estate, Krishnarajapuram",
        "amenity": "cafe",
        "name": "Buntea &Bubbly",
        "phone": "+919008026615",
        "website": "www.bunteabubbly.appspot.com"
      }
    },
    {
      "type": "node",
      "id": 4447487501,
      "lat": 12.9960736,
      "lon": 77.6964135,
      "tags": {
        "addr:city": "Bengaluru",
        "addr:housename": "Phoenix Market City",
        "addr:postcode": "560048",
        "addr:street": "Whitefield Road",
        "addr:suburb": "Mahadevpura",
        "level": "-1",
        "name": "GlobalDesi",
        "phone": "+918067266048",
        "shop": "clothes",
        "website": "https://www.globaldesi.in/"
      }
    },
    {
      "type": "node",
      "id": 4447494197,
      "lat": 12.9977264,
      "lon": 77.6966474,
      "tags": {
        "addr:city": "Bengaluru",
        "addr:housenumber": "Phoenix Marketcity Bangalore, Whitefield Main Road,",
        "addr:postcode": "560048",
        "addr:street": "Whitefield Main Road, Mahadevpura, Devasandra Industrial Estate, Krishnarajapuram",
        "amenity": "cafe",
        "brand": "Starbucks",
        "brand:pa": "ਸਟਾਰਬਕਸ",
        "brand:ur": "اسٹاربکس",
        "brand:wikidata": "Q37158",
        "brand:wikipedia": "en:Starbucks",
        "cuisine": "coffee_shop",
        "internet_access": "yes",
        "level": "0",
        "name": "Starbucks",
        "name:kn": "ಸ್ಟಾರ್ಬಕ್ಸ್",
        "name:pa": "ਸਟਾਰਬਕਸ",
        "name:ur": "اسٹاربکس",
        "official_name": "Starbucks Coffee",
        "official_name:pa": "ਸਟਾਰਬਕਸ ਕੌਫੀ",
        "official_name:ur": "اسٹاربکس کافی",
        "opening_hours": "10:30-22:00",
        "smoking": "no",
        "takeaway": "yes",
        "website": "https://www.starbucks.in/"
      }
    },
    {
      "type": "node",
      "id": 4448653289,
      "lat": 12.9978595,
      "lon": 77.6964234,
      "tags": {
        "addr:city": "Bengaluru",
        "addr:housename": "Phoenix Market City",
        "addr:postcode": "560048",
        "addr:street": "Whitefield Road",
        "addr:suburb": "Mahadevpura",
        "level": "2",
        "name": "Poorvika Mobiles",
        "opening_hours": "10:30-22:00",
        "phone": "8067266502",
        "shop": "electronics",
        "website": "https://www.poorvikamobile.com/"
      }
    },
    {
      "type": "node",
      "id": 4448657260,
      "lat": 12.9977968,
      "lon": 77.6959728,
      "tags": {
        "addr:city": "Bengaluru",
        "addr:housename": "Phoenix Market City",
        "addr:postcode": "560048",
        "addr:street": "Whitefield Road",
        "addr:suburb": "Mahadevpura",
        "amenity": "restaurant",
        "cuisine": "regional",
        "delivery": "no",
        "indoor_seating": "no",
        "level": "1",
        "name": "Noodle Bar",
        "opening_hours": "10:30-22:00",
        "outdoor_seating": "yes",
        "phone": "8033166466",
        "smoking": "no",
        "takeaway": "yes"
      }
    },
    {
      "type": "node",
      "id": 4448657580,
      "lat": 12.9977654,
      "lon": 77.6959567,
      "tags": {
        "addr:city": "Bengaluru",
        "addr:housename": "Phoenix Market City",
        "addr:postcode": "560048",
        "addr:street": "Whitefield Road",
        "addr:suburb": "Mahadevpura",
        "check_date": "2023-04-05",
        "level": "0",
        "name": "Hidesign",
        "opening_hours": "10:30-22:00",
        "payment:credit_cards": "yes",
        "payment:debit_cards": "yes",
        "phone": "+91 80672 66097",
        "shop": "bag",
        "source": "survey",
        "website": "https://hidesign.com/"
      }
    },
    {
      "type": "node",
      "id": 4448660103,
      "lat": 12.9978115,
      "lon": 77.696316,
      "tags": {
        "addr:city": "Bengaluru",
        "addr:housename": "Phoenix Market City",
        "addr:postcode": "560048",
        "addr:street": "Whitefield Road",
        "addr:suburb": "Mahadevpura",
        "branch": "sportwear",
        "brand": "Columbia",
        "brand:wikidata": "Q1112588",
        "clothes": "outdoor",
        "level": "-1",
        "name": "Columbia",
        "official_name": "Columbia Sportswear",
        "opening_hours": "10:30-22:00",
        "phone": "8033166417",
        "shop": "clothes",
        "website": "https://www.columbiasportswear.co.in"
      }
    },
    {
      "type": "node",
      "id": 4448681080,
      "lat": 12.9968977,
      "lon": 77.6967815,
      "tags": {
        "addr:city": "Bengaluru",
        "addr:housename": "Phoenix Market City",
        "addr:postcode": "560048",
        "addr:street": "Whitefield Road",
        "addr:suburb": "Mahadevpura",
        "brand": "Vans",
        "brand:wikidata": "Q1135366",
        "brand:wikipedia": "en:Vans",
        "level": "1",
        "name": "Vans",
        "phone": "8067266158",
        "shop": "shoes",
        "website": "https://www.vans.com/"
      }
    },
    {
      "type": "node",
      "id": 4487963509,
      "lat": 12.9966582,
      "lon": 77.696472,
      "tags": {
        "addr:city": "Bengaluru",
        "addr:housenumber": "F-40,UG Floor",
        "addr:postcode": "560048",
        "addr:street": "West End Road,Phoenix Market City,Mahadevpura,Nr.K.R.Puram Flyover,Bangalore-560048, Devasandra Industrial Estate, Krishnarajapuram,",
        "brand": "Columbia",
        "brand:wikidata": "Q1112588",
        "brand:wikipedia": "en:Columbia Sportswear",
        "clothes": "outdoor",
        "level": "1",
        "name": "Columbia",
        "official_name": "Columbia Sportswear",
        "phone": "080672 66417",
        "shop": "clothes",
        "website": "https://www.columbiasportswear.co.in/"
      }
    },
    {
      "type": "node",
      "id": 4487985363,
      "lat": 12.9976524,
      "lon": 77.6965929,
      "tags": {
        "addr:city": "Bengaluru",
        "addr:housename": "Phoenix Market City",
        "addr:postcode": "560048",
        "addr:street": "Whitefield Road",
        "addr:suburb": "Mahadevpura",
        "brand": "Nike",
        "brand:wikidata": "Q483915",
        "brand:wikipedia": "en:Nike, Inc.",
        "level": "1",
        "name": "Nike",
        "name:kn": "ನೈಕ್",
        "opening_hours": "10:00-22:00",
        "phone": "080672 66080",
        "shop": "clothes",
        "website": "https://nike.ssiplgroup.com/nike-nike-phoenix-mall-bangalore-sports-apparel-krishnarajapuram-hobli-bangalore-1042/Home"
      }
    },
    {
      "type": "node",
      "id": 4487990073,
      "lat": 12.9977491,
      "lon": 77.6968987,
      "tags": {
        "addr:city": "Bengaluru",
        "addr:housename": "Phoenix Market City",
        "addr:housenumber": "30",
        "addr:postcode": "560048",
        "addr:street": "Whitefield Road",
        "addr:suburb": "Mahadevpura",
        "brand": "Adidas",
        "brand:wikidata": "Q3895",
        "brand:wikipedia": "en:Adidas",
        "level": "1",
        "name": "Adidas",
        "name:kn": "ಅಡಿಡಾಸ್",
        "opening_hours": "10:00-22:00",
        "phone": "080672 66167",
        "shop": "sports",
        "website": "https://shop.adidas.co.in/"
      }
    },
    {
      "type": "node",
      "id": 4487992939,
      "lat": 12.997655,
      "lon": 77.6966734,
      "tags": {
        "addr:city": "Bengaluru",
        "addr:housenumber": "36",
        "addr:postcode": "560048",
        "addr:street": "5th Cross,First floor, Phoenix Marketcity, Krishnarajapuram",
        "brand": "Reebok",
        "brand:wikidata": "Q466183",
        "brand:wikipedia": "en:Reebok",
        "name": "Reebok",
        "name:kn": "ರೀಬಾಕ್",
        "opening_hours": "10:00-22:00",
        "phone": "080672 66250",
        "shop": "clothes",
        "website": "https://shop4reebok.com/"
      }
    },
    {
      "type": "node",
      "id": 4488001930,
      "lat": 12.9978223,
      "lon": 77.6965715,
      "tags": {
        "addr:city": "Bengaluru",
        "addr:housename": "Phoenix Market City",
        "addr:housenumber": "40",
        "addr:postcode": "560048",
        "addr:street": "Whitefield Road",
        "addr:suburb": "Mahadevpura",
        "brand": "Bata",
        "brand:wikidata": "Q688082",
        "level": "1",
        "name": "Bata",
        "name:kn": "ಬಾಟಾ",
        "opening_hours": "10:00-22:00",
        "phone": "8067266212",
        "shop": "shoes",
        "website": "https://bata.in/"
      }
    },
    {
      "type": "node",
      "id": 4488009811,
      "lat": 12.9968187,
      "lon": 77.6966198,
      "tags": {
        "addr:city": "Bengaluru",
        "addr:housename": "Phoenix Market City",
        "addr:housenumber": "56",
        "addr:postcode": "560048",
        "addr:street": "Whitefield Road",
        "addr:suburb": "Mahadevpura",
        "brand": "Puma",
        "brand:wikidata": "Q157064",
        "brand:wikipedia": "en:Puma (brand)",
        "level": "1",
        "name": "Puma",
        "name:kn": "ಪೂಮ",
        "opening_hours": "10:00-22:00",
        "phone": "080672 66690",
        "shop": "clothes",
        "website": "https://wildcraft.in/"
      }
    },
    {
      "type": "node",
      "id": 4488016945,
      "lat": 12.9932354,
      "lon": 77.7059605,
      "tags": {
        "addr:city": "Bangalore",
        "addr:postcode": "560048",
        "addr:street": "SPRYNT, VR BANGALORE, NO.16 , SINGYYAPALAYA, WHITEFILED ROAD, ITPL Main Road, MAHADEVPURA POST",
        "leisure": "sports_centre",
        "name": "Sprynt",
        "phone": "070904 44496"
      }
    },
    {
      "type": "node",
      "id": 4488023192,
      "lat": 12.99774,
      "lon": 77.6967954,
      "tags": {
        "addr:city": "Bengaluru",
        "addr:postcode": "560048",
        "addr:street": "Phoenix Marketcity, Shop No F 60, Phoenix Market City Mall, Dyavasandra Ph 2, Krishnarajapuram Hobli,",
        "brand": "Nike",
        "brand:wikidata": "Q483915",
        "brand:wikipedia": "en:Nike, Inc.",
        "level": "1",
        "name": "Nike",
        "phone": "080672 66080",
        "shop": "clothes"
      }
    },
    {
      "type": "node",
      "id": 4528143099,
      "lat": 12.9991705,
      "lon": 77.6946147,
      "tags": {
        "addr:city": "Bengaluru",
        "addr:housenumber": "125",
        "addr:postcode": "560048",
        "addr:street": "2nd Main Road",
        "amenity": "cafe",
        "name": "Zarco",
        "opening_hours": "10:00 - 22:00",
        "phone": "+91 1929891929",
        "smoking": "no",
        "website": "www.aumzone.com"
      }
    },
    {
      "type": "node",
      "id": 4528143100,
      "lat": 12.9994057,
      "lon": 77.6943679,
      "tags": {
        "addr:housenumber": "125",
        "addr:postcode": "560048",
        "addr:street": "2nd Main Road",
        "amenity": "bank",
        "atm": "yes",
        "brand": "State Bank of India",
        "brand:wikidata": "Q1340361",
        "brand:wikipedia": "en:State Bank of India",
        "name": "State Bank of India",
        "name:kn": "ಭಾರತೀಯ ಸ್ಟೇಟ್ ಬ್ಯಾಂಕ್",
        "phone": "+91 8939393931",
        "short_name": "SBI",
        "website": "https://www.sbi.co.in"
      }
    },
    {
      "type": "node",
      "id": 4569805089,
      "lat": 12.9954289,
      "lon": 77.697316,
      "tags": {
        "amenity": "fast_food",
        "cuisine": "arab",
        "name": "Kabab Mandra",
        "name:en": "Kabab Mandra"
      }
    },
    {
      "type": "node",
      "id": 5123954725,
      "lat": 12.990654,
      "lon": 77.7004421,
      "tags": {
        "amenity": "place_of_worship",
        "religion": "hindu"
      }
    },
    {
      "type": "node",
      "id": 5123966868,
      "lat": 12.9899373,
      "lon": 77.7000773,
      "tags": {
        "amenity": "place_of_worship",
        "religion": "hindu"
      }
    },
    {
      "type": "node",
      "id": 6508995414,
      "lat": 12.9967575,
      "lon": 77.6948135,
      "tags": {
        "brand": "Royal Enfield;Ducati;KTM;Harley Davidson",
        "name": "Wicked Ride Whitefield",
        "operator": "Wicked Ride",
        "shop": "motorcycle",
        "website": "https://www.wickedride.com/"
      }
    },
    {
      "type": "node",
      "id": 7178597794,
      "lat": 12.9964417,
      "lon": 77.695743,
      "tags": {
        "addr:city": "Bengaluru",
        "addr:country": "IN",
        "addr:hamlet": "Mahadevapura",
        "addr:housenumber": "VR Mall",
        "addr:postcode": "560048",
        "addr:street": "Whitefield Road",
        "amenity": "cafe",
        "name": "Food Hall",
        "website": "https://www.foodhallonline.com/"
      }
    },
    {
      "type": "node",
      "id": 7572131843,
      "lat": 12.9936892,
      "lon": 77.7016795,
      "tags": {
        "addr:district": "Bengaluru Urban",
        "addr:full": "Garudachar Palya, Mahadevapura, Bengaluru",
        "addr:postcode": "560048",
        "addr:state": "Karnataka",
        "amenity": "clinic",
        "name": "Chirayu Health care centre",
        "source": "Local Knowledge"
      }
    },
    {
      "type": "node",
      "id": 7572131873,
      "lat": 12.993824,
      "lon": 77.7029,
      "tags": {
        "addr:district": "Bengaluru Urban",
        "addr:full": "Kaveri Nagar, Krishnarajapura, Bengaluru",
        "addr:postcode": "560048",
        "addr:state": "Karnataka",
        "amenity": "clinic",
        "name": "Sai Kripa Nursing Home",
        "source": "Local Knowledge"
      }
    },
    {
      "type": "node",
      "id": 7572131874,
      "lat": 12.992777,
      "lon": 77.694674,
      "tags": {
        "addr:district": "Bengaluru Urban",
        "addr:full": "Lakshmi Sagar Layout, RHB Colony, Mahadevapura, Bengaluru, Karnatak",
        "addr:postcode": "560048",
        "addr:state": "Karnataka",
        "amenity": "clinic",
        "name": "Lyfas Digital Health Clinic",
        "source": "Local Knowledge"
      }
    },
    {
      "type": "node",
      "id": 7572131937,
      "lat": 12.9924407,
      "lon": 77.7027556,
      "tags": {
        "addr:district": "Bengaluru Urban",
        "addr:full": "Whitefield Main Road, Garudachar Palya, Mahadevapura, Bengaluru",
        "addr:postcode": "560048",
        "addr:state": "Karnataka",
        "amenity": "clinic",
        "healthcare": "clinic",
        "name": "Tata Health Clinic",
        "source": "Local Knowledge"
      }
    },
    {
      "type": "node",
      "id": 9796873472,
      "lat": 12.9947371,
      "lon": 77.6993007,
      "tags": {
        "amenity": "charging_station",
        "capacity": "2",
        "operator": "BESCOM"
      }
    },
    {
      "type": "node",
      "id": 9892036253,
      "lat": 12.9969552,
      "lon": 77.6969165,
      "tags": {
        "amenity": "restaurant",
        "cuisine": "regional",
        "fixme": "Exact location within Phoenix Market City",
        "name": "Hitchki"
      }
    },
    {
      "type": "node",
      "id": 9937603690,
      "lat": 12.9940421,
      "lon": 77.7019634,
      "tags": {
        "amenity": "atm",
        "brand": "HDFC Bank",
        "brand:wikidata": "Q631047",
        "name": "HDFC Bank",
        "name:kn": "ಎಚ್ ಡಿ ಎಫ್ ಸಿ",
        "operator": "HDFC Bank",
        "operator:wikidata": "Q631047",
        "short_name": "HDFC"
      }
    },
    {
      "type": "node",
      "id": 9937603696,
      "lat": 12.9938978,
      "lon": 77.7006253,
      "tags": {
        "name": "Ratnadeep Supermarket",
        "shop": "supermarket"
      }
    },
    {
      "type": "node",
      "id": 9937603697,
      "lat": 12.9938628,
      "lon": 77.7007212,
      "tags": {
        "leisure": "fitness_centre",
        "name": "LMNT Gym"
      }
    },
    {
      "type": "node",
      "id": 9937603698,
      "lat": 12.9937994,
      "lon": 77.7012007,
      "tags": {
        "amenity": "restaurant",
        "name": "Sindhoora Gardenia"
      }
    },
    {
      "type": "node",
      "id": 10038497135,
      "lat": 12.9938858,
      "lon": 77.7008002,
      "tags": {
        "access": "customers",
        "amenity": "parking_entrance",
        "parking": "underground"
      }
    },
    {
      "type": "node",
      "id": 10079035458,
      "lat": 12.9941066,
      "lon": 77.7022151,
      "tags": {
        "name": "Go Native",
        "shop": "clothes"
      }
    },
    {
      "type": "node",
      "id": 10617518505,
      "lat": 12.9962283,
      "lon": 77.6953573,
      "tags": {
        "brand": "Crossword Bookstores",
        "brand:wikidata": "Q5188909",
        "check_date": "2023-12-27",
        "level": "2",
        "name": "Crossword Bookstores",
        "payment:cash": "yes",
        "payment:credit_cards": "yes",
        "payment:debit_cards": "yes",
        "payment:upi": "yes",
        "shop": "books",
        "source": "survey",
        "toilets": "no",
        "wheelchair": "yes"
      }
    },
    {
      "type": "node",
      "id": 10617518506,
      "lat": 12.9963713,
      "lon": 77.6951825,
      "tags": {
        "addr:floor": "UG",
        "brand": "H&M",
        "brand:wikidata": "Q188326",
        "check_date": "2023-12-27",
        "internet_access": "no",
        "level": "0;1",
        "name": "H&M",
        "payment:credit_cards": "yes",
        "payment:debit_cards": "yes",
        "shop": "clothes",
        "source": "survey",
        "wheelchair": "yes"
      }
    },
    {
      "type": "node",
      "id": 10792878638,
      "lat": 12.994845,
      "lon": 77.6961343,
      "tags": {
        "amenity": "place_of_worship",
        "check_date": "2023-04-05",
        "religion": "hindu",
        "source": "survey"
      }
    },
    {
      "type": "node",
      "id": 10792878639,
      "lat": 12.9950889,
      "lon": 77.6961786,
      "tags": {
        "addr:floor": "1",
        "check_date": "2023-04-05",
        "email": "watchesandclocks16@gmail.com",
        "level": "1",
        "name": "Watches & Clocks",
        "phone": "+91 72044 22772; +91 95384 78546",
        "shop": "watches",
        "source": "survey",
        "wheelchair": "no"
      }
    },
    {
      "type": "node",
      "id": 10792878640,
      "lat": 12.9946616,
      "lon": 77.6961287,
      "tags": {
        "amenity": "clinic",
        "check_date": "2023-04-05",
        "healthcare": "clinic",
        "name": "Harsha Poly Clinic & Maternity Home",
        "phone": "+91 93428 63309",
        "source": "survey"
      }
    },
    {
      "type": "node",
      "id": 10792878641,
      "lat": 12.9964034,
      "lon": 77.6954857,
      "tags": {
        "addr:floor": "1",
        "air_conditioning": "yes",
        "brand": "Zudio",
        "brand:wikidata": "Q123375926",
        "check_date": "2023-12-27",
        "clothes": "women;men;children",
        "level": "1",
        "name": "Zudio",
        "payment:credit_cards": "yes",
        "payment:debit_cards": "yes",
        "shop": "clothes",
        "source": "survey"
      }
    },
    {
      "type": "node",
      "id": 10792878643,
      "lat": 12.9976424,
      "lon": 77.6964763,
      "tags": {
        "addr:floor": "1",
        "amenity": "fast_food",
        "brand": "Taco Bell",
        "brand:wikidata": "Q752941",
        "check_date": "2025-11-15",
        "cuisine": "tex-mex",
        "level": "1",
        "name": "Taco Bell",
        "payment:cash": "yes",
        "payment:credit_cards": "yes",
        "payment:debit_cards": "yes",
        "takeaway": "yes"
      }
    },
    {
      "type": "node",
      "id": 10792878644,
      "lat": 12.9975397,
      "lon": 77.6968346,
      "tags": {
        "brand": "Peter England",
        "brand:wikidata": "Q19573665",
        "check_date": "2023-04-05",
        "clothes": "children",
        "name": "Peter England Girls & Boys",
        "payment:credit_cards": "yes",
        "payment:debit_cards": "yes",
        "shop": "clothes",
        "source": "survey"
      }
    },
    {
      "type": "node",
      "id": 10792878645,
      "lat": 12.9977308,
      "lon": 77.6968948,
      "tags": {
        "amenity": "fast_food",
        "brand": "Subway",
        "brand:wikidata": "Q244457",
        "check_date": "2023-04-05",
        "cuisine": "sandwich",
        "diet:non-vegetarian": "yes",
        "diet:vegetarian": "yes",
        "drive_through": "no",
        "name": "Subway",
        "payment:credit_cards": "yes",
        "payment:debit_cards": "yes",
        "source": "survey",
        "takeaway": "yes"
      }
    },
    {
      "type": "node",
      "id": 10792878646,
      "lat": 12.9977909,
      "lon": 77.6968282,
      "tags": {
        "amenity": "fast_food",
        "check_date": "2023-04-05",
        "cuisine": "pizza",
        "diet:non-vegetarian": "yes",
        "diet:vegetarian": "yes",
        "name": "Gopizza",
        "payment:credit_cards": "yes",
        "payment:debit_cards": "yes",
        "source": "survey"
      }
    },
    {
      "type": "node",
      "id": 10792878647,
      "lat": 12.9974899,
      "lon": 77.6967744,
      "tags": {
        "addr:city": "Bengaluru",
        "addr:floor": "2",
        "addr:housename": "Phoenix Market City",
        "addr:postcode": "560048",
        "addr:street": "Whitefield Road",
        "addr:suburb": "Mahadevpura",
        "amenity": "fast_food",
        "check_date": "2023-04-05",
        "cuisine": "donut",
        "level": "2",
        "name": "Mad Over Donuts",
        "payment:credit_cards": "yes",
        "payment:debit_cards": "yes",
        "source": "survey"
      }
    },
    {
      "type": "node",
      "id": 10792878648,
      "lat": 12.9971877,
      "lon": 77.6966985,
      "tags": {
        "check_date": "2023-04-05",
        "name": "Zebronics",
        "shop": "electronics"
      }
    },
    {
      "type": "node",
      "id": 10792878649,
      "lat": 12.9971943,
      "lon": 77.6968291,
      "tags": {
        "amenity": "cafe",
        "brand": "Third Wave Coffee Roasters",
        "brand:wikidata": "Q7785004",
        "check_date": "2023-04-05",
        "cuisine": "coffee_shop",
        "delivery": "yes",
        "name": "Third Wave Coffee Roasters",
        "outdoor_seating": "no",
        "payment:credit_cards": "yes",
        "payment:debit_cards": "yes",
        "source": "survey",
        "takeaway": "yes"
      }
    },
    {
      "type": "node",
      "id": 10792878650,
      "lat": 12.9960219,
      "lon": 77.6954466,
      "tags": {
        "addr:floor": "UG",
        "brand": "Superdry",
        "brand:wikidata": "Q1684445",
        "check_date": "2023-12-27",
        "level": "0",
        "name": "Superdry",
        "payment:credit_cards": "yes",
        "payment:debit_cards": "yes",
        "shop": "clothes"
      }
    },
    {
      "type": "node",
      "id": 10792878651,
      "lat": 12.9960944,
      "lon": 77.6953909,
      "tags": {
        "addr:floor": "UG",
        "amenity": "cafe",
        "brand": "Blue Tokai Coffee Roasters",
        "check_date": "2025-04-10",
        "check_date:opening_hours": "2025-04-10",
        "cuisine": "coffee_shop",
        "delivery": "yes",
        "level": "0",
        "name": "Blue Tokai Coffee Roasters",
        "opening_hours": "Mo-Sa 08:00-23:00",
        "outdoor_seating": "yes",
        "payment:credit_cards": "yes",
        "payment:debit_cards": "yes",
        "takeaway": "yes"
      }
    },
    {
      "type": "node",
      "id": 10924790342,
      "lat": 12.9970253,
      "lon": 77.6967004,
      "tags": {
        "addr:city": "Bengaluru",
        "addr:country": "IN",
        "addr:housename": "Phoenix Market City",
        "addr:postcode": "560048",
        "addr:suburb": "Mahadevapura",
        "brand": "Bath & Body Works",
        "brand:wikidata": "Q810773",
        "fixme": "Accurate location inside mall",
        "name": "Bath & Body Works",
        "shop": "cosmetics",
        "website": "https://www.bathandbodyworks.in/"
      }
    },
    {
      "type": "node",
      "id": 11014674473,
      "lat": 12.9885512,
      "lon": 77.6937025,
      "tags": {
        "access": "yes",
        "amenity": "toilets",
        "changing_table": "no",
        "check_date": "2023-06-30",
        "fee": "no",
        "source": "survey",
        "toilets:handwashing": "yes",
        "toilets:position": "squat"
      }
    },
    {
      "type": "node",
      "id": 11034490397,
      "lat": 12.9892999,
      "lon": 77.6993829,
      "tags": {
        "amenity": "place_of_worship",
        "check_date": "2023-07-08",
        "religion": "hindu"
      }
    },
    {
      "type": "node",
      "id": 11093820786,
      "lat": 12.9887811,
      "lon": 77.6930315,
      "tags": {
        "amenity": "bench",
        "backrest": "yes",
        "material": "stone"
      }
    },
    {
      "type": "node",
      "id": 11093820787,
      "lat": 12.9887692,
      "lon": 77.6930599,
      "tags": {
        "amenity": "bench",
        "backrest": "yes",
        "material": "stone"
      }
    },
    {
      "type": "node",
      "id": 11093820788,
      "lat": 12.9887322,
      "lon": 77.6931775,
      "tags": {
        "amenity": "bench",
        "backrest": "yes",
        "material": "stone"
      }
    },
    {
      "type": "node",
      "id": 11093820789,
      "lat": 12.9886824,
      "lon": 77.6933161,
      "tags": {
        "amenity": "bench",
        "backrest": "yes",
        "material": "stone"
      }
    },
    {
      "type": "node",
      "id": 11093820790,
      "lat": 12.9884797,
      "lon": 77.6936996,
      "tags": {
        "amenity": "bench",
        "backrest": "yes",
        "material": "stone"
      }
    },
    {
      "type": "node",
      "id": 11345616232,
      "lat": 12.9946852,
      "lon": 77.7011955,
      "tags": {
        "amenity": "bicycle_parking",
        "bicycle_parking": "wall_loops"
      }
    },
    {
      "type": "node",
      "id": 11443954668,
      "lat": 12.9938121,
      "lon": 77.7008641,
      "tags": {
        "level": "0",
        "name": "Ashley",
        "shop": "furniture"
      }
    },
    {
      "type": "node",
      "id": 11444019769,
      "lat": 12.9937268,
      "lon": 77.7008262,
      "tags": {
        "air_conditioning": "yes",
        "amenity": "restaurant",
        "cuisine": "barbecue;indian",
        "diet:vegetarian": "yes",
        "level": "3",
        "name": "Sattvam",
        "name:kn": "ಸತ್ವಂ",
        "opening_hours": "Mo-Su 12:00-15:30,19:00-23:00",
        "phone": "+91 63641 50001",
        "website": "https://www.sattvam.com"
      }
    },
    {
      "type": "node",
      "id": 11444019908,
      "lat": 12.9965373,
      "lon": 77.7021344,
      "tags": {
        "access": "private",
        "amenity": "parking_entrance",
        "parking": "underground"
      }
    },
    {
      "type": "node",
      "id": 11488322160,
      "lat": 12.9963038,
      "lon": 77.6947333,
      "tags": {
        "amenity": "restaurant",
        "check_date": "2024-01-04",
        "name": "Hyderabad Biryani",
        "name:kn": "ಹೈದರಾಬಾದ್ ಬಿರಿಯಾನಿ"
      }
    },
    {
      "type": "node",
      "id": 11773954969,
      "lat": 12.9971306,
      "lon": 77.7021832,
      "tags": {
        "access": "private",
        "amenity": "parking_entrance",
        "parking": "underground"
      }
    },
    {
      "type": "node",
      "id": 11999510490,
      "lat": 12.9877921,
      "lon": 77.6972078,
      "tags": {
        "access": "yes",
        "amenity": "bicycle_parking",
        "bicycle_parking": "stands",
        "capacity": "6",
        "covered": "no",
        "fee": "no",
        "operator:type": "public"
      }
    },
    {
      "type": "node",
      "id": 12102880986,
      "lat": 12.9954315,
      "lon": 77.7009639,
      "tags": {
        "amenity": "pub",
        "name": "Maize & Malt",
        "toilets": "yes"
      }
    },
    {
      "type": "node",
      "id": 12174614891,
      "lat": 12.9964826,
      "lon": 77.6953563,
      "tags": {
        "name": "Wildcraft",
        "shop": "outdoor"
      }
    },
    {
      "type": "node",
      "id": 12174714926,
      "lat": 12.9949316,
      "lon": 77.6970521,
      "tags": {
        "amenity": "restaurant",
        "contact:website": "https://chefpillai.com",
        "name": "North Rasoi"
      }
    },
    {
      "type": "node",
      "id": 12174714927,
      "lat": 12.9949545,
      "lon": 77.6972062,
      "tags": {
        "addr:city": "Bengaluru",
        "addr:postcode": "560048",
        "addr:street": "Whitefield Road",
        "amenity": "restaurant",
        "name": "Restaurant Chef Pillai",
        "phone": "+91 8943150000",
        "website": "https://chefpillai.com/"
      }
    },
    {
      "type": "node",
      "id": 12196935719,
      "lat": 12.9964369,
      "lon": 77.6949772,
      "tags": {
        "amenity": "parking_entrance"
      }
    },
    {
      "type": "node",
      "id": 12196935727,
      "lat": 12.9963412,
      "lon": 77.6957498,
      "tags": {
        "amenity": "parking_entrance"
      }
    },
    {
      "type": "node",
      "id": 12199055890,
      "lat": 12.9917327,
      "lon": 77.6932471,
      "tags": {
        "amenity": "parking_entrance"
      }
    },
    {
      "type": "node",
      "id": 12199055891,
      "lat": 12.9917515,
      "lon": 77.6931774,
      "tags": {
        "amenity": "parking_entrance"
      }
    },
    {
      "type": "node",
      "id": 12246090205,
      "lat": 12.9964893,
      "lon": 77.6935636,
      "tags": {
        "amenity": "police",
        "check_date": "2024-10-12",
        "name": "Mahadevapura Traffic Police"
      }
    },
    {
      "type": "node",
      "id": 12246090206,
      "lat": 12.9964748,
      "lon": 77.6936783,
      "tags": {
        "amenity": "police",
        "check_date": "2024-10-12",
        "name": "Office Of The Assistant Commissioner Whitefield Subdivision"
      }
    },
    {
      "type": "node",
      "id": 12246090207,
      "lat": 12.9964976,
      "lon": 77.6937845,
      "tags": {
        "access": "yes",
        "amenity": "drinking_water",
        "fee": "no"
      }
    },
    {
      "type": "node",
      "id": 12246090208,
      "lat": 12.9963506,
      "lon": 77.693861,
      "tags": {
        "amenity": "dentist",
        "check_date": "2024-10-12",
        "healthcare": "dentist",
        "name": "Sabka Dentist"
      }
    },
    {
      "type": "node",
      "id": 12294001114,
      "lat": 12.9940111,
      "lon": 77.6993264,
      "tags": {
        "amenity": "fast_food",
        "contact:instagram": "goodflippin",
        "cuisine": "burger",
        "delivery": "yes",
        "name": "Good Flippin' Burgers",
        "takeaway": "yes",
        "website": "https://goodflippin.com/"
      }
    },
    {
      "type": "node",
      "id": 12413065038,
      "lat": 12.9938867,
      "lon": 77.7033425,
      "tags": {
        "air_conditioning": "yes",
        "amenity": "restaurant",
        "bar": "yes",
        "check_date": "2024-12-11",
        "level": "4",
        "level:ref": "3",
        "name": "Sky Garden"
      }
    },
    {
      "type": "node",
      "id": 12460927624,
      "lat": 12.9951,
      "lon": 77.6963703,
      "tags": {
        "air_conditioning": "yes",
        "brand": "Xiaomi",
        "brand:wikidata": "Q1636958",
        "check_date": "2024-12-29",
        "level": "2",
        "mobile_phone:repair": "yes",
        "name": "Xiaomi Service Centre",
        "opening_hours": "Mo-Sa 10:30-19:00; Su,PH off",
        "shop": "mobile_phone",
        "source": "survey",
        "toilets": "yes",
        "wheelchair": "no"
      }
    },
    {
      "type": "node",
      "id": 12528658601,
      "lat": 12.9969748,
      "lon": 77.6957772,
      "tags": {
        "access": "customers",
        "amenity": "parking_entrance",
        "fee": "yes",
        "lit": "yes",
        "parking": "underground",
        "supervised": "yes",
        "wheelchair": "yes"
      }
    },
    {
      "type": "node",
      "id": 12528658605,
      "lat": 12.996688,
      "lon": 77.6962674,
      "tags": {
        "access": "customers",
        "amenity": "parking_entrance",
        "fee": "yes",
        "lit": "yes",
        "parking": "underground",
        "supervised": "yes",
        "wheelchair": "yes"
      }
    },
    {
      "type": "node",
      "id": 12534145132,
      "lat": 12.9934554,
      "lon": 77.7043415,
      "tags": {
        "amenity": "taxi",
        "name": "Taxi Pickup"
      }
    },
    {
      "type": "node",
      "id": 12534145133,
      "lat": 12.993427,
      "lon": 77.7043141,
      "tags": {
        "amenity": "charging_station",
        "name": "Honda e:swap"
      }
    },
    {
      "type": "node",
      "id": 12534184753,
      "lat": 12.9934554,
      "lon": 77.7043415,
      "tags": {
        "amenity": "taxi",
        "name": "Taxi Pickup"
      }
    },
    {
      "type": "node",
      "id": 12534184756,
      "lat": 12.993427,
      "lon": 77.7043141,
      "tags": {
        "amenity": "charging_station",
        "name": "Honda e:swap"
      }
    },
    {
      "type": "node",
      "id": 12821163601,
      "lat": 12.9949243,
      "lon": 77.6977168,
      "tags": {
        "name": "Liquor Boutique",
        "shop": "alcohol"
      }
    },
    {
      "type": "node",
      "id": 12862846481,
      "lat": 12.997768,
      "lon": 77.6961552,
      "tags": {
        "addr:city": "Bangalore",
        "amenity": "restaurant",
        "brand": "Cafe Noir",
        "brand:wikidata": "Q124374751",
        "cuisine": "french;burger",
        "delivery": "yes",
        "indoor_seating": "yes",
        "name": "Cafe Noir",
        "name:kn": "ಕಫೆ ನಾರ್ಯ್",
        "takeaway": "yes"
      }
    },
    {
      "type": "node",
      "id": 12998544760,
      "lat": 12.9959438,
      "lon": 77.7011141,
      "tags": {
        "brand": "Porsche",
        "shop": "car"
      }
    },
    {
      "type": "node",
      "id": 13013588709,
      "lat": 12.9918797,
      "lon": 77.7026349,
      "tags": {
        "amenity": "cafe",
        "name": "The Junk Free Cafe"
      }
    },
    {
      "type": "node",
      "id": 13043342400,
      "lat": 12.9917014,
      "lon": 77.7032095,
      "tags": {
        "access": "private",
        "amenity": "parking_entrance",
        "parking": "multi-storey"
      }
    },
    {
      "type": "node",
      "id": 13062303501,
      "lat": 12.9907341,
      "lon": 77.7079521,
      "tags": {
        "addr:housenumber": "40 H",
        "addr:postcode": "560048",
        "addr:street": "Whitefield Road",
        "amenity": "pub",
        "cuisine": "burger",
        "diet:vegetarian": "yes",
        "name": "Mannheim Craft Brewery",
        "opening_hours": "Mo-Su 11:00-00:00"
      }
    },
    {
      "type": "way",
      "id": 89781247,
      "center": {
        "lat": 12.992488,
        "lon": 77.7062224
      },
      "tags": {
        "addr:city": "Hudi, Bangalore",
        "addr:street": "Graphite India Road",
        "amenity": "hospital",
        "healthcare": "hospital",
        "name": "ESI Dispensary",
        "operator": "Employees' State Insurance",
        "operator:short": "ESI",
        "operator:type": "private",
        "operator:wikidata": "Q3595726",
        "phone": "080 28524261"
      }
    },
    {
      "type": "way",
      "id": 122403363,
      "center": {
        "lat": 12.9863803,
        "lon": 77.7068884
      },
      "tags": {
        "addr:city": "Mahadevapura, Bangalore",
        "addr:street": "Graphite India Road",
        "amenity": "school",
        "barrier": "wall",
        "name": "Gopalan National School"
      }
    },
    {
      "type": "way",
      "id": 150582746,
      "center": {
        "lat": 12.9973565,
        "lon": 77.6955698
      },
      "tags": {
        "amenity": "cinema",
        "brand": "PVR Cinemas",
        "brand:short": "PVR",
        "brand:wikidata": "Q3359908",
        "building": "yes",
        "building:levels": "4",
        "building:levels:underground": "2",
        "height": "22.00",
        "name": "PVR Cinemas",
        "short_name": "PVR"
      }
    },
    {
      "type": "way",
      "id": 153296849,
      "center": {
        "lat": 12.9989987,
        "lon": 77.703552
      },
      "tags": {
        "leisure": "pitch",
        "sport": "soccer"
      }
    },
    {
      "type": "way",
      "id": 159860397,
      "center": {
        "lat": 12.992135,
        "lon": 77.6922128
      },
      "tags": {
        "leisure": "recreation_ground",
        "name": "Recreation Ground"
      }
    },
    {
      "type": "way",
      "id": 159864349,
      "center": {
        "lat": 12.9900759,
        "lon": 77.6958954
      },
      "tags": {
        "addr:city": "Bengaluru",
        "addr:postcode": "560048",
        "addr:street": "Maheshwaramma Temple Main Road, Mahadevapura",
        "building": "retail",
        "leisure": "indoor_play",
        "name": "Altis Indoor Badminton"
      }
    },
    {
      "type": "way",
      "id": 183870747,
      "center": {
        "lat": 12.9947345,
        "lon": 77.7009314
      },
      "tags": {
        "addr:city": "Bangalore",
        "addr:housenumber": "2/E1",
        "addr:postcode": "560048",
        "addr:street": "2/E1, Devasdabdar Near Phoenix Market City Whitefield, ITPL Main Rd, Bhadrappa Layout, KEB Colony, Industrial Area, Hoodi",
        "alt_name": "Decathlon Sports India Pvt Ltd",
        "branch": "Whitefield",
        "brand": "Decathlon",
        "brand:wikidata": "Q509349",
        "landuse": "retail",
        "name": "Decathlon",
        "name:kn": "ಡೆಕಾತ್ಲಾನ್",
        "opening_hours": "10:00-21:30",
        "phone": "80950 00898",
        "shop": "sports",
        "toilets:wheelchair": "yes",
        "website": "https://www.decathlon.in/",
        "wheelchair": "yes"
      }
    },
    {
      "type": "way",
      "id": 190157402,
      "center": {
        "lat": 12.9950206,
        "lon": 77.6933462
      },
      "tags": {
        "building": "yes",
        "name": "Bimal Maruti Service",
        "name:kn": "ಬಿಮಲ್ ಮಾರುತಿ",
        "shop": "car_repair"
      }
    },
    {
      "type": "way",
      "id": 190157403,
      "center": {
        "lat": 12.9951363,
        "lon": 77.6933571
      },
      "tags": {
        "addr:housenumber": "60/2",
        "addr:postcode": "560048",
        "addr:street": "Whitefield Road",
        "name": "Bimal Maruti Show Room",
        "name:kn": "ಬಿಮಲ್ ಮಾರುತಿ",
        "shop": "car",
        "website": "https://www.bimalmaruti.com/"
      }
    },
    {
      "type": "way",
      "id": 219618426,
      "center": {
        "lat": 12.9947359,
        "lon": 77.6953981
      },
      "tags": {
        "amenity": "school"
      }
    },
    {
      "type": "way",
      "id": 263668180,
      "center": {
        "lat": 12.9990537,
        "lon": 77.7019719
      },
      "tags": {
        "amenity": "events_venue",
        "landuse": "commercial",
        "name": "MLR Convention Center"
      }
    },
    {
      "type": "way",
      "id": 283808758,
      "center": {
        "lat": 12.9989638,
        "lon": 77.7030905
      },
      "tags": {
        "addr:housenumber": "9",
        "addr:postcode": "560048",
        "addr:street": "4th Cross Road",
        "amenity": "school",
        "email": "tbswcommunication@brigadeschools.edu.in",
        "name": "The Brigade School",
        "name:en": "The Brigade School @ Mahadevapura",
        "opening_hours": "Mo-Fr 08:30-17:00; Sa 08:30-14:00",
        "phone": "+918041158829;+919108551684;+919108424914",
        "website": "https://www.brigadeschools.edu.in/the-brigade-school-mahadevapura/"
      }
    },
    {
      "type": "way",
      "id": 283808767,
      "center": {
        "lat": 12.9990893,
        "lon": 77.7030071
      },
      "tags": {
        "leisure": "swimming_pool",
        "sport": "swimming"
      }
    },
    {
      "type": "way",
      "id": 346542888,
      "center": {
        "lat": 12.9929117,
        "lon": 77.7003779
      },
      "tags": {
        "addr:street": "Whitefield Road",
        "branch": "Cash & Carry",
        "brand": "METRO",
        "brand:wikidata": "Q13610282",
        "building": "yes",
        "name": "METRO",
        "shop": "wholesale"
      }
    },
    {
      "type": "way",
      "id": 346842857,
      "center": {
        "lat": 12.9920515,
        "lon": 77.7064747
      },
      "tags": {
        "amenity": "hospital",
        "email": "contactus.blr@kinderhospitals.com",
        "emergency": "yes",
        "healthcare": "hospital",
        "healthcare:speciality": "gynaecology;urology;neonatology;paediatrics;plastic_surgery;anaesthetics;surgery;general;dermatology",
        "name": "Kinder Women's Hospital & Fertility Center",
        "phone": "+91 80 2888 8880",
        "website": "https://kinderhospitals.com/",
        "wheelchair": "yes"
      }
    },
    {
      "type": "way",
      "id": 627710065,
      "center": {
        "lat": 12.9893231,
        "lon": 77.701715
      },
      "tags": {
        "leisure": "pitch",
        "sport": "tennis"
      }
    },
    {
      "type": "way",
      "id": 627710066,
      "center": {
        "lat": 12.9893032,
        "lon": 77.7020413
      },
      "tags": {
        "leisure": "pitch",
        "sport": "basketball"
      }
    },
    {
      "type": "way",
      "id": 627710067,
      "center": {
        "lat": 12.989161,
        "lon": 77.7023199
      },
      "tags": {
        "leisure": "swimming_pool"
      }
    },
    {
      "type": "way",
      "id": 627710069,
      "center": {
        "lat": 12.9917726,
        "lon": 77.70341
      },
      "tags": {
        "access": "private",
        "leisure": "swimming_pool"
      }
    },
    {
      "type": "way",
      "id": 668040798,
      "center": {
        "lat": 12.9984702,
        "lon": 77.7023641
      },
      "tags": {
        "amenity": "fire_station",
        "name": "Mahadevapura Fire Station",
        "name:kn": "ಮಹಾದೇವಪುರ ಅಗ್ನಿಶಾಮಕ ಠಾಣೆ"
      }
    },
    {
      "type": "way",
      "id": 690851285,
      "center": {
        "lat": 12.9901991,
        "lon": 77.7036905
      },
      "tags": {
        "leisure": "pitch",
        "sport": "skateboard"
      }
    },
    {
      "type": "way",
      "id": 1065104449,
      "center": {
        "lat": 12.9862612,
        "lon": 77.6954352
      },
      "tags": {
        "leisure": "sports_centre"
      }
    },
    {
      "type": "way",
      "id": 1066943970,
      "center": {
        "lat": 12.9970673,
        "lon": 77.6918445
      },
      "tags": {
        "addr:street": "Whitefield Road",
        "amenity": "fuel",
        "brand": "Hindustan Petroleum",
        "brand:wikidata": "Q1619375",
        "compressed_air": "yes",
        "name": "HP Petrol / Gas Station",
        "official_name": "Hindustan Petroleum",
        "operator": "HP"
      }
    },
    {
      "type": "way",
      "id": 1084458379,
      "center": {
        "lat": 12.994151,
        "lon": 77.7056564
      },
      "tags": {
        "amenity": "parking",
        "name": "Visitor Parking",
        "name:kn": "ವಿಮಾನ ನಿಲ್ದಾಣ",
        "parking": "surface"
      }
    },
    {
      "type": "way",
      "id": 1084458382,
      "center": {
        "lat": 12.9952634,
        "lon": 77.7041843
      },
      "tags": {
        "leisure": "swimming_pool"
      }
    },
    {
      "type": "way",
      "id": 1084458386,
      "center": {
        "lat": 12.9934772,
        "lon": 77.7006036
      },
      "tags": {
        "amenity": "parking",
        "parking": "surface"
      }
    },
    {
      "type": "way",
      "id": 1087017023,
      "center": {
        "lat": 12.9947997,
        "lon": 77.7083922
      },
      "tags": {
        "leisure": "park"
      }
    },
    {
      "type": "way",
      "id": 1124687778,
      "center": {
        "lat": 12.9926532,
        "lon": 77.698959
      },
      "tags": {
        "leisure": "swimming_pool"
      }
    },
    {
      "type": "way",
      "id": 1153445014,
      "center": {
        "lat": 12.9895718,
        "lon": 77.7036926
      },
      "tags": {
        "leisure": "pitch",
        "sport": "beachvolleyball",
        "surface": "sand"
      }
    },
    {
      "type": "way",
      "id": 1153445015,
      "center": {
        "lat": 12.9895108,
        "lon": 77.7038627
      },
      "tags": {
        "leisure": "pitch",
        "sport": "soccer"
      }
    },
    {
      "type": "way",
      "id": 1178714207,
      "center": {
        "lat": 12.9881509,
        "lon": 77.7077027
      },
      "tags": {
        "access": "customers",
        "amenity": "parking",
        "parking": "surface"
      }
    },
    {
      "type": "way",
      "id": 1210554191,
      "center": {
        "lat": 12.993898,
        "lon": 77.7063806
      },
      "tags": {
        "amenity": "parking",
        "parking": "surface"
      }
    },
    {
      "type": "way",
      "id": 1210554192,
      "center": {
        "lat": 12.9931911,
        "lon": 77.7064001
      },
      "tags": {
        "amenity": "parking",
        "parking": "surface"
      }
    },
    {
      "type": "way",
      "id": 1223113900,
      "center": {
        "lat": 12.9939621,
        "lon": 77.7008045
      },
      "tags": {
        "amenity": "parking",
        "parking": "surface"
      }
    },
    {
      "type": "way",
      "id": 1235735053,
      "center": {
        "lat": 12.9893308,
        "lon": 77.694785
      },
      "tags": {
        "leisure": "playground"
      }
    },
    {
      "type": "way",
      "id": 1235735054,
      "center": {
        "lat": 12.9892894,
        "lon": 77.6949419
      },
      "tags": {
        "access": "private",
        "leisure": "pitch",
        "sport": "basketball"
      }
    },
    {
      "type": "way",
      "id": 1235735090,
      "center": {
        "lat": 12.9873811,
        "lon": 77.6954784
      },
      "tags": {
        "access": "private",
        "leisure": "pitch",
        "sport": "tennis"
      }
    },
    {
      "type": "way",
      "id": 1235735234,
      "center": {
        "lat": 12.9860095,
        "lon": 77.7011882
      },
      "tags": {
        "access": "permissive",
        "amenity": "parking",
        "parking": "surface"
      }
    },
    {
      "type": "way",
      "id": 1267711028,
      "center": {
        "lat": 12.9909696,
        "lon": 77.6955105
      },
      "tags": {
        "leisure": "park"
      }
    },
    {
      "type": "way",
      "id": 1267711039,
      "center": {
        "lat": 12.9907063,
        "lon": 77.6938896
      },
      "tags": {
        "amenity": "school",
        "name": "MTB School"
      }
    },
    {
      "type": "way",
      "id": 1267728589,
      "center": {
        "lat": 12.9956446,
        "lon": 77.7082507
      },
      "tags": {
        "leisure": "pitch",
        "sport": "soccer"
      }
    },
    {
      "type": "way",
      "id": 1267728590,
      "center": {
        "lat": 12.9956363,
        "lon": 77.7080804
      },
      "tags": {
        "leisure": "pitch",
        "sport": "soccer"
      }
    },
    {
      "type": "way",
      "id": 1267728591,
      "center": {
        "lat": 12.995593,
        "lon": 77.7077798
      },
      "tags": {
        "leisure": "pitch",
        "sport": "tennis"
      }
    },
    {
      "type": "way",
      "id": 1267728592,
      "center": {
        "lat": 12.9969213,
        "lon": 77.7029731
      },
      "tags": {
        "access": "permissive",
        "amenity": "parking",
        "parking": "surface"
      }
    },
    {
      "type": "way",
      "id": 1267728595,
      "center": {
        "lat": 12.9969281,
        "lon": 77.7016561
      },
      "tags": {
        "leisure": "garden"
      }
    },
    {
      "type": "way",
      "id": 1268945190,
      "center": {
        "lat": 12.9883651,
        "lon": 77.6941391
      },
      "tags": {
        "access": "permissive",
        "amenity": "parking",
        "parking": "surface"
      }
    },
    {
      "type": "way",
      "id": 1278772113,
      "center": {
        "lat": 12.985689,
        "lon": 77.7028117
      },
      "tags": {
        "access": "permissive",
        "amenity": "parking",
        "parking": "surface"
      }
    },
    {
      "type": "way",
      "id": 1278772124,
      "center": {
        "lat": 12.9868126,
        "lon": 77.6981663
      },
      "tags": {
        "alt_name": "Yeklgata Lake Park",
        "leisure": "park",
        "name": "Goshala Lake Park"
      }
    },
    {
      "type": "way",
      "id": 1286617171,
      "center": {
        "lat": 12.9945264,
        "lon": 77.7012535
      },
      "tags": {
        "access": "yes",
        "amenity": "toilets",
        "building": "yes",
        "fee": "yes",
        "female": "yes",
        "male": "yes"
      }
    },
    {
      "type": "way",
      "id": 1296042957,
      "center": {
        "lat": 12.9850166,
        "lon": 77.6962353
      },
      "tags": {
        "access": "permissive",
        "amenity": "parking",
        "parking": "surface"
      }
    },
    {
      "type": "way",
      "id": 1328129618,
      "center": {
        "lat": 12.9869656,
        "lon": 77.6952712
      },
      "tags": {
        "access": "private",
        "leisure": "swimming_pool"
      }
    },
    {
      "type": "way",
      "id": 1328129623,
      "center": {
        "lat": 12.987677,
        "lon": 77.6988429
      },
      "tags": {
        "leisure": "sports_centre"
      }
    },
    {
      "type": "way",
      "id": 1353870666,
      "center": {
        "lat": 12.9969615,
        "lon": 77.6969736
      },
      "tags": {
        "access": "customers",
        "amenity": "parking",
        "parking": "surface"
      }
    },
    {
      "type": "way",
      "id": 1353870671,
      "center": {
        "lat": 12.9968133,
        "lon": 77.6960902
      },
      "tags": {
        "access": "customers",
        "amenity": "parking",
        "parking": "surface"
      }
    },
    {
      "type": "way",
      "id": 1353870672,
      "center": {
        "lat": 12.9968221,
        "lon": 77.6963028
      },
      "tags": {
        "access": "customers",
        "amenity": "parking",
        "parking": "surface"
      }
    },
    {
      "type": "way",
      "id": 1353870674,
      "center": {
        "lat": 12.9971624,
        "lon": 77.6954081
      },
      "tags": {
        "access": "customers",
        "amenity": "parking",
        "parking": "surface"
      }
    },
    {
      "type": "way",
      "id": 1353870711,
      "center": {
        "lat": 12.9985991,
        "lon": 77.6931173
      },
      "tags": {
        "leisure": "sports_centre",
        "name": "Fitso Mahadevapura"
      }
    },
    {
      "type": "way",
      "id": 1353870713,
      "center": {
        "lat": 12.9984765,
        "lon": 77.6930918
      },
      "tags": {
        "access": "private",
        "leisure": "swimming_pool"
      }
    },
    {
      "type": "way",
      "id": 1353870716,
      "center": {
        "lat": 12.9968133,
        "lon": 77.6928379
      },
      "tags": {
        "addr:street": "Whitefield Road",
        "amenity": "police",
        "name": "Mahadevpura Police Station",
        "name:kn": "ಮಹಾದೇವಪುರ ಅರಕ್ಷಕ ಠಾಣೆ"
      }
    },
    {
      "type": "way",
      "id": 1353870717,
      "center": {
        "lat": 12.9964924,
        "lon": 77.6935887
      },
      "tags": {
        "amenity": "police"
      }
    },
    {
      "type": "way",
      "id": 1385380742,
      "center": {
        "lat": 12.9937624,
        "lon": 77.7032947
      },
      "tags": {
        "access": "customers",
        "amenity": "motorcycle_parking"
      }
    },
    {
      "type": "way",
      "id": 1414574357,
      "center": {
        "lat": 12.9970141,
        "lon": 77.701161
      },
      "tags": {
        "access": "private",
        "amenity": "parking",
        "parking": "surface"
      }
    },
    {
      "type": "way",
      "id": 1415914828,
      "center": {
        "lat": 12.992632,
        "lon": 77.7065334
      },
      "tags": {
        "brand": "Maruti Suzuki",
        "brand:wikidata": "Q963718",
        "landuse": "commercial",
        "name": "Maruti Suzuki",
        "shop": "car"
      }
    },
    {
      "type": "way",
      "id": 1419422741,
      "center": {
        "lat": 12.9934484,
        "lon": 77.7018857
      },
      "tags": {
        "amenity": "cinema",
        "landuse": "commercial",
        "name": "V Cinemas - Vijayalakshmi Theater",
        "name:kn": "ವಿಜಯಲಕ್ಷ್ಮಿ ಚಿತ್ರಮಂದಿರ"
      }
    },
    {
      "type": "way",
      "id": 1419422744,
      "center": {
        "lat": 12.9925246,
        "lon": 77.702535
      },
      "tags": {
        "access": "permissive",
        "amenity": "parking",
        "parking": "street_side"
      }
    },
    {
      "type": "way",
      "id": 1419422745,
      "center": {
        "lat": 12.9915441,
        "lon": 77.7033937
      },
      "tags": {
        "access": "permissive",
        "amenity": "parking",
        "parking": "street_side"
      }
    }
  ]
}