{
  "area_name": "GarvebhaviPalya",
  "osm_id": 12458448933,
  "osm_type": "node",
  "place_type": "neighbourhood",
  "amenity_count": 89,
  "amenities": [
    {
      "type": "node",
      "id": 1311760453,
      "lat": 12.9001507,
      "lon": 77.630134,
      "tags": {
        "addr:city": "Bommanahalli, Bangalore",
        "addr:postcode": "560 068",
        "addr:street": "Hosur Road",
        "amenity": "college",
        "fax": "+91-80-30219629",
        "name": "The Oxford Dental College & Hospital",
        "phone": "+91-80-30219626"
      }
    },
    {
      "type": "node",
      "id": 1470412730,
      "lat": 12.8969624,
      "lon": 77.6345783,
      "tags": {
        "addr:housenumber": "Hosur road",
        "name": "RNS Maruti Motors",
        "shop": "car"
      }
    },
    {
      "type": "node",
      "id": 1470726054,
      "lat": 12.8944566,
      "lon": 77.636249,
      "tags": {
        "amenity": "place_of_worship",
        "check_date": "2024-09-19",
        "religion": "hindu",
        "source": "survey",
        "wheelchair": "no"
      }
    },
    {
      "type": "node",
      "id": 1471667173,
      "lat": 12.8915234,
      "lon": 77.6390244,
      "tags": {
        "brand": "Toyota",
        "brand:wikidata": "Q53268",
        "check_date": "2025-03-11",
        "name": "Nandi Toyota",
        "name:kn": "ನಂದಿ ಟೊಯೋಟ",
        "shop": "car"
      }
    },
    {
      "type": "node",
      "id": 1472025798,
      "lat": 12.8987945,
      "lon": 77.6344561,
      "tags": {
        "brand": "Toyota",
        "brand:wikidata": "Q53268",
        "name": "Toyota Used Cars",
        "shop": "car"
      }
    },
    {
      "type": "node",
      "id": 1472708025,
      "lat": 12.8905612,
      "lon": 77.6397057,
      "tags": {
        "addr:street": "Hosur road",
        "brand": "Hyundai",
        "brand:wikidata": "Q55931",
        "check_date": "2025-03-11",
        "name": "Trident Huyndai",
        "name:kn": "ಟ್ರಿಡೆಂಟ್ ಹುಂಡೈ",
        "shop": "car"
      }
    },
    {
      "type": "node",
      "id": 1473088751,
      "lat": 12.903346,
      "lon": 77.631724,
      "tags": {
        "addr:street": "Hosur road",
        "name": "Ag Arcade",
        "shop": "hardware"
      }
    },
    {
      "type": "node",
      "id": 1474105335,
      "lat": 12.8956734,
      "lon": 77.6354903,
      "tags": {
        "brand": "Bajaj",
        "brand:wikidata": "Q10910065",
        "name": "Bajaj",
        "name:kn": "ಬಜಾಜ್",
        "shop": "motorcycle"
      }
    },
    {
      "type": "node",
      "id": 1474105939,
      "lat": 12.889924,
      "lon": 77.638912,
      "tags": {
        "amenity": "atm",
        "brand": "IDBI Bank",
        "brand:wikidata": "Q3633485",
        "name": "IDBI Bank",
        "name:kn": "ಐಡಿಬಿಐ",
        "operator": "IDBI Bank",
        "operator:wikidata": "Q3633485",
        "short_name": "IDBI"
      }
    },
    {
      "type": "node",
      "id": 1603379670,
      "lat": 12.8896145,
      "lon": 77.639937,
      "tags": {
        "amenity": "bank",
        "atm": "yes",
        "name": "National Co-operative Bank Ltd."
      }
    },
    {
      "type": "node",
      "id": 2447291687,
      "lat": 12.8977876,
      "lon": 77.631998,
      "tags": {
        "covered": "no",
        "leisure": "swimming_pool",
        "sport": "swimming"
      }
    },
    {
      "type": "node",
      "id": 2466690616,
      "lat": 12.8965036,
      "lon": 77.634968,
      "tags": {
        "amenity": "fuel",
        "brand": "GOGAS AUTO LPG",
        "check_date": "2024-09-19",
        "name": "Gogas Auto Lpg",
        "operator": "GOGAS AUTO LPG"
      }
    },
    {
      "type": "node",
      "id": 2620621558,
      "lat": 12.8899711,
      "lon": 77.6398117,
      "tags": {
        "amenity": "restaurant",
        "cuisine": "indian",
        "name": "Melange"
      }
    },
    {
      "type": "node",
      "id": 2620621560,
      "lat": 12.8966122,
      "lon": 77.6357401,
      "tags": {
        "air_conditioning": "yes",
        "amenity": "fast_food",
        "brand": "Domino's",
        "brand:ks": "ڈومینوز",
        "brand:pa": "ਡੋਮੀਨੋਜ਼",
        "brand:ur": "ڈومینوز",
        "brand:wikidata": "Q839466",
        "brand:wikipedia": "en:Domino's Pizza",
        "check_date": "2025-08-18",
        "check_date:diet:vegetarian": "2025-08-18",
        "cuisine": "pizza",
        "diet:vegetarian": "yes",
        "indoor_seating": "yes",
        "name": "Domino's",
        "name:kn": "ಡಾಮಿನೋಸ್",
        "name:ks": "ڈومینوز",
        "name:pa": "ਡੋਮੀਨੋਜ਼",
        "name:ur": "ڈومینوز",
        "outdoor_seating": "no",
        "payment:cash": "yes",
        "payment:mastercard": "yes",
        "payment:visa": "yes",
        "takeaway": "yes"
      }
    },
    {
      "type": "node",
      "id": 2720498307,
      "lat": 12.9003488,
      "lon": 77.6271298,
      "tags": {
        "amenity": "school",
        "name": "Sri Ram Driving School"
      }
    },
    {
      "type": "node",
      "id": 2720498311,
      "lat": 12.9002599,
      "lon": 77.6271003,
      "tags": {
        "amenity": "hospital",
        "emergency": "no",
        "name": "Kottakkal Arya Vaidya Sala"
      }
    },
    {
      "type": "node",
      "id": 2908625171,
      "lat": 12.8914338,
      "lon": 77.62642,
      "tags": {
        "amenity": "cinema",
        "name": "Galaxy Paradise"
      }
    },
    {
      "type": "node",
      "id": 3214264917,
      "lat": 12.9020523,
      "lon": 77.631261,
      "tags": {
        "alt_name": "TOCE",
        "amenity": "college",
        "name": "The Oxford College of Engineering",
        "wikidata": "Q7755787",
        "wikipedia": "en:The Oxford College of Engineering"
      }
    },
    {
      "type": "node",
      "id": 3543845981,
      "lat": 12.8965552,
      "lon": 77.6359479,
      "tags": {
        "addr:city": "Bengaluru",
        "addr:housenumber": "38/7",
        "addr:postcode": "560068",
        "addr:street": "Near Krishnappa Reddy Building, Bandepalya, Garebhavipalya",
        "name": "Trend Automobiles",
        "shop": "car_repair"
      }
    },
    {
      "type": "node",
      "id": 4487976019,
      "lat": 12.8987251,
      "lon": 77.6393218,
      "tags": {
        "addr:city": "bangalore",
        "addr:postcode": "560063",
        "addr:street": "194/1, Muneshwara Nagar, Behind Mmn Complex, Kattigenahalli Gate, Muneshwara Nagar, Hosapalaya, Garvebhavi Palya",
        "amenity": "pharmacy",
        "healthcare": "pharmacy",
        "name": "Yeshakeerthi Chemicals",
        "phone": "080 2847 8345"
      }
    },
    {
      "type": "node",
      "id": 4489813479,
      "lat": 12.8898296,
      "lon": 77.6399476,
      "tags": {
        "addr:city": "Bengaluru,",
        "addr:housenumber": "52, Hosur Main Rd, Kudlu Gate, Krishna Reddy Industrial Area, Hosapalaya,",
        "addr:postcode": "560068",
        "addr:street": "Muneshwara Nagar,",
        "name": "Ziva Spa",
        "opening_hours": "09:00-22:00",
        "phone": "099102 48203",
        "shop": "beauty",
        "website": "hotelekaa.com"
      }
    },
    {
      "type": "node",
      "id": 4489848125,
      "lat": 12.8985629,
      "lon": 77.6267808,
      "tags": {
        "addr:city": "Bangalore",
        "addr:housenumber": "3/3",
        "addr:postcode": "560068",
        "addr:street": "Begur Road",
        "addr:suburb": "Bommanahalli",
        "brand": "Reliance Fresh",
        "brand:wikidata": "Q7311014",
        "name": "Reliance Fresh",
        "name:kn": "ರಿಲಾಯನ್ಸ್ ಫ್ರೆಶ್",
        "phone": "+91 80 22965279",
        "shop": "supermarket"
      }
    },
    {
      "type": "node",
      "id": 4489884339,
      "lat": 12.8900791,
      "lon": 77.6400455,
      "tags": {
        "addr:city": "Bengaluru,",
        "addr:full": "52, Hosur Main Rd, Kudlu Gate, Krishna Reddy Industrial Area, Hosapalaya, Muneshwara Nagar",
        "addr:postcode": "560068",
        "name": "Ziva Spa",
        "opening_hours": "09:00-21:00",
        "phone": "099102 48203",
        "shop": "beauty"
      }
    },
    {
      "type": "node",
      "id": 6246803787,
      "lat": 12.896767,
      "lon": 77.635637,
      "tags": {
        "check_date": "2024-08-29",
        "name": "Pai",
        "shop": "furniture",
        "source": "survey"
      }
    },
    {
      "type": "node",
      "id": 6246816088,
      "lat": 12.8972583,
      "lon": 77.6354284,
      "tags": {
        "brand": "Nissan",
        "brand:wikidata": "Q20165",
        "name": "Nissan",
        "shop": "car"
      }
    },
    {
      "type": "node",
      "id": 6348823186,
      "lat": 12.8910839,
      "lon": 77.627282,
      "tags": {
        "addr:place": "Hongasandra",
        "amenity": "school",
        "isced:level": "2",
        "name": "Svs HPS Hongasandra",
        "name:kn": "ಎಸ್‌.ವಿ.ಎಸ್‌.ಹಿರಿಯ ಪ್ರಾಥಮಿಕ ಶಾಲೆ ಹೊಂಗಸಂದ್ರ",
        "operator": "Department of Education",
        "school": "primary"
      }
    },
    {
      "type": "node",
      "id": 6422614289,
      "lat": 12.8901178,
      "lon": 77.6409735,
      "tags": {
        "addr:place": "Bommanahalli",
        "amenity": "school",
        "isced:level": "3",
        "name": "New Bharat International Kudlu Gate, Bommana Halli",
        "name:kn": "ನ್ಯೂ ಭರತ್ ಇಂಟರ್ನ್ಯಾಷನಲ್ ಕುಡ್ಲು ಗೇಟ್ ,ಬೊಮ್ಮನಹಳ್ಳಿ",
        "operator": "Private Un-Aided",
        "school": "Higher Secondary"
      }
    },
    {
      "type": "node",
      "id": 6437780198,
      "lat": 12.9013007,
      "lon": 77.6363305,
      "tags": {
        "addr:place": "BommanaHalli Cmc",
        "amenity": "school",
        "isced:level": "2",
        "name": "Tilak English School, Bommana Halli Cmc",
        "name:kn": "ತಿಲಕ್ ಆಂಗ್ಲ ಶಾಲೆ, ಬೊಮ್ಮನಹಳ್ಳಿ ಸಿ.ಎಂ.ಸಿ",
        "operator": "Private Un-Aided",
        "school": "Higher Primary"
      }
    },
    {
      "type": "node",
      "id": 6496853668,
      "lat": 12.8946113,
      "lon": 77.633992,
      "tags": {
        "addr:place": "Garvebhavi Palya",
        "amenity": "school",
        "isced:level": "3",
        "name": "Bright Future LPS Garvebhavi Palya,",
        "name:kn": "ಬ್ರೈಟ್ ಫ್ಯೂಚರ್ ಕಿರಿಯ ಪ್ರಾಥಮಿಕ ಶಾಲೆ ಗರ್ವೆಭವಿ ಪಾಳ್ಯ",
        "operator": "Private Un-Aided",
        "school": "Higher Secondary"
      }
    },
    {
      "type": "node",
      "id": 6510130946,
      "lat": 12.891396,
      "lon": 77.6340809,
      "tags": {
        "addr:place": "Garvebhavi Palya",
        "amenity": "school",
        "isced:level": "3",
        "name": "Mathas Education Society",
        "name:kn": "ಮಾತಾಸ್ ಎಜುಕೇಶನ್ ಸೊಸೈಟಿ ಗಾರ್ವೇಬಾವಿ ಪಾಳ್ಯ",
        "operator": "Private Un-Aided",
        "school": "Higher Secondary"
      }
    },
    {
      "type": "node",
      "id": 6528157314,
      "lat": 12.8911632,
      "lon": 77.6359252,
      "tags": {
        "addr:place": "Garvebhavi Palya",
        "amenity": "school",
        "isced:level": "3",
        "name": "Rajrajeshwari HS, Garvebhavi Palya",
        "name:kn": "ರಾಜರಾಜೇಶ್ವರಿ ಪ್ರೌಢಶಾಲೆ ಗಾರ್ವೇಬಾವಿ ಪಾಳ್ಯ",
        "operator": "Private Un-Aided",
        "school": "Higher Secondary"
      }
    },
    {
      "type": "node",
      "id": 6528174729,
      "lat": 12.8959096,
      "lon": 77.6352778,
      "tags": {
        "addr:place": "Garvebhavi Palya",
        "amenity": "school",
        "isced:level": "3",
        "name": "Ves HS, Garvebhavi Palya",
        "name:kn": "ವಿ.ಇ.ಎಸ್. ಪ್ರೌಢಶಾಲೆ ಗಾರ್ವೇಬಾವಿ ಪಾಳ್ಯ",
        "operator": "Private Un-Aided",
        "school": "Higher Secondary"
      }
    },
    {
      "type": "node",
      "id": 6528190736,
      "lat": 12.8866375,
      "lon": 77.6344577,
      "tags": {
        "addr:place": "Garvebhavi Palya",
        "amenity": "school",
        "isced:level": "2",
        "name": "Sahyadri EHPS, Garvebhavi Palya",
        "name:kn": "ನವೋದಯ ವಿದ್ಯಾಲಯ,ಗಾರ್ವೇಬಾವಿ ಪಾಳ್ಯ",
        "operator": "Private Un-Aided",
        "school": "Higher Primary"
      }
    },
    {
      "type": "node",
      "id": 6528196662,
      "lat": 12.8934705,
      "lon": 77.6307067,
      "tags": {
        "addr:place": "Hongasandra",
        "amenity": "school",
        "isced:level": "3",
        "name": "Mother Theresa HS, Hongasandra 1",
        "name:kn": "ಮದರ್ ತೆರೇಸಾ ಪ್ರೌಢಶಾಲೆ, ಹೊಂಗಸಂದ್ರ",
        "operator": "Private Un-Aided",
        "school": "Higher Secondary"
      }
    },
    {
      "type": "node",
      "id": 6528204204,
      "lat": 12.8974858,
      "lon": 77.6302097,
      "tags": {
        "addr:place": "Hongasandra",
        "amenity": "school",
        "isced:level": "3",
        "name": "Gnanabharathi HPS , Hongasandra 1",
        "name:kn": "ಜ್ಞಾನಭಾರತಿ ಹಿರಿಯ ಪ್ರಾಥಮಿಕ ಶಾಲೆ ಹೊಂಗಸಂದ್ರ",
        "operator": "Private Un-Aided",
        "school": "Higher Secondary"
      }
    },
    {
      "type": "node",
      "id": 6528208622,
      "lat": 12.8956428,
      "lon": 77.6265101,
      "tags": {
        "addr:place": "Hongasandra",
        "amenity": "school",
        "isced:level": "3",
        "name": "Oxford HPS, Hongasandra 2",
        "name:kn": "ಆಕ್ಸ್ಫರ್ಡ್ ಹಿರಿಯ ಪ್ರಾಥಮಿಕ ಶಾಲೆ ಹೊಂಗಸಂದ್ರ",
        "operator": "Private Un-Aided",
        "school": "Higher secondary"
      }
    },
    {
      "type": "node",
      "id": 6939522367,
      "lat": 12.8957636,
      "lon": 77.6330289,
      "tags": {
        "addr:district": "Bengaluru Urban",
        "addr:full": "No.4, Achaiah Chetty Layout, Mekri Circle",
        "addr:postcode": "560080",
        "addr:state": "Karnataka",
        "amenity": "hospital",
        "name": "Ganesh Nursing Home, Bengaluru Urban",
        "source": "OpenGovernmentData"
      }
    },
    {
      "type": "node",
      "id": 6939562670,
      "lat": 12.8987442,
      "lon": 77.6263127,
      "tags": {
        "addr:district": "Bengaluru Rural",
        "addr:full": "No 4/158, Hongasandra Begur Main Road Bdgur Main Road",
        "addr:postcode": "560068",
        "addr:state": "Karnataka",
        "amenity": "hospital",
        "name": "Kavya Hospital",
        "source": "OpenGovernmentData"
      }
    },
    {
      "type": "node",
      "id": 6947247040,
      "lat": 12.8980516,
      "lon": 77.6339279,
      "tags": {
        "addr:district": "Bengaluru Rural",
        "addr:full": "Sri Murthy Complex, No.43, Garvey Bhav Palya Hongasandra Village Begur, Hosur Main Road Bommanahalli, Hobli",
        "addr:postcode": "560068",
        "addr:state": "Karnataka",
        "amenity": "hospital",
        "name": "Vasan Eye Care Hospital",
        "source": "OpenGovernmentData"
      }
    },
    {
      "type": "node",
      "id": 7016516842,
      "lat": 12.8901826,
      "lon": 77.6397297,
      "tags": {
        "addr:street": "Hosur Road",
        "amenity": "restaurant",
        "check_date": "2025-07-04",
        "cuisine": "indian",
        "indoor_seating": "yes",
        "name": "Udupi Upahar",
        "name:kn": "ಉಡುಪಿ ಉಪಹಾರ",
        "outdoor_seating": "no"
      }
    },
    {
      "type": "node",
      "id": 7016554609,
      "lat": 12.8908183,
      "lon": 77.639599,
      "tags": {
        "addr:city": "Bengaluru",
        "addr:street": "Hosur Road",
        "amenity": "cinema",
        "name": "Narasimha Chitramandira",
        "screen": "1"
      }
    },
    {
      "type": "node",
      "id": 7016588786,
      "lat": 12.8899226,
      "lon": 77.6398609,
      "tags": {
        "addr:city": "Bengaluru",
        "addr:street": "Hosur Road",
        "amenity": "fast_food",
        "check_date": "2025-05-31",
        "name": "Lassi Magic"
      }
    },
    {
      "type": "node",
      "id": 9828625308,
      "lat": 12.8924692,
      "lon": 77.6423147,
      "tags": {
        "addr:city": "Bangalore",
        "addr:country": "IN",
        "addr:housename": "AKR Tech Park",
        "addr:housenumber": "112",
        "addr:postcode": "560068",
        "addr:street": "Hosur Road",
        "amenity": "coworking_space",
        "name": "BHIVE",
        "office": "coworking",
        "website": "https://bhiveworkspace.com/locations-coworking/akr-tech-park/"
      }
    },
    {
      "type": "node",
      "id": 10218105376,
      "lat": 12.896911,
      "lon": 77.6355447,
      "tags": {
        "brand": "Reliance Digital",
        "brand:wikidata": "Q7311012",
        "check_date": "2022-11-25",
        "name": "Reliance Digital",
        "payment:cash": "yes",
        "payment:mastercard": "yes",
        "payment:upi": "yes",
        "payment:visa": "yes",
        "shop": "electronics",
        "source": "survey"
      }
    },
    {
      "type": "node",
      "id": 11782289126,
      "lat": 12.8933895,
      "lon": 77.6368614,
      "tags": {
        "amenity": "hospital",
        "check_date": "2024-04-03",
        "healthcare": "hospital",
        "name": "Sai Sparsh Hospital",
        "source": "survey"
      }
    },
    {
      "type": "node",
      "id": 11927462345,
      "lat": 12.903,
      "lon": 77.6318191,
      "tags": {
        "check_date": "2025-07-04",
        "name": "Hemadri Ceramics",
        "shop": "hardware"
      }
    },
    {
      "type": "node",
      "id": 12281105101,
      "lat": 12.9003661,
      "lon": 77.6397981,
      "tags": {
        "amenity": "school",
        "name": "Kidzee Pre School",
        "phone": "07619438532"
      }
    },
    {
      "type": "node",
      "id": 12281159001,
      "lat": 12.8973137,
      "lon": 77.6420611,
      "tags": {
        "name": "Gayathri Prints, Ganesh Offset Printers Bangalore",
        "phone": "09741320095",
        "shop": "printing",
        "website": "https://www.gayathriprints.com/"
      }
    },
    {
      "type": "node",
      "id": 12475405096,
      "lat": 12.9008407,
      "lon": 77.6405262,
      "tags": {
        "amenity": "restaurant",
        "name": "Mumbai Canteen"
      }
    },
    {
      "type": "node",
      "id": 12475405097,
      "lat": 12.9009812,
      "lon": 77.6400573,
      "tags": {
        "amenity": "school",
        "name": "Shubhodhini English Medium High School"
      }
    },
    {
      "type": "node",
      "id": 12475430615,
      "lat": 12.9008242,
      "lon": 77.6399197,
      "tags": {
        "amenity": "cafe",
        "name": "Desi Tea Master"
      }
    },
    {
      "type": "node",
      "id": 12475430767,
      "lat": 12.9007848,
      "lon": 77.6411141,
      "tags": {
        "name": "H.M. Corner Bake and Juice",
        "shop": "bakery"
      }
    },
    {
      "type": "node",
      "id": 12475439042,
      "lat": 12.9008369,
      "lon": 77.6406211,
      "tags": {
        "name": "Karibasaveshwara Fruits and Vegetables Shop",
        "shop": "greengrocer"
      }
    },
    {
      "type": "node",
      "id": 12475440331,
      "lat": 12.9006163,
      "lon": 77.641678,
      "tags": {
        "name": "Subha Lakshmi Store",
        "shop": "beverages"
      }
    },
    {
      "type": "node",
      "id": 12475441796,
      "lat": 12.9007315,
      "lon": 77.6413444,
      "tags": {
        "name": "Cafe Corner",
        "shop": "beverages"
      }
    },
    {
      "type": "node",
      "id": 12509140575,
      "lat": 12.8984795,
      "lon": 77.63373,
      "tags": {
        "name": "Brand Factory",
        "shop": "clothes"
      }
    },
    {
      "type": "node",
      "id": 12522293984,
      "lat": 12.8922171,
      "lon": 77.6384192,
      "tags": {
        "addr:city": "Bengaluru",
        "addr:district": "Bengaluru",
        "addr:housenumber": "46/2",
        "addr:postcode": "- 560068",
        "addr:street": "Mathrushree Mansion, Block 1 , Shop No 2, Garvebhavipalya",
        "amenity": "bureau_de_change",
        "contact:facebook": "https://www.facebook.com/saviforex",
        "currency:CAD": "yes",
        "currency:EUR": "yes",
        "currency:GBP": "yes",
        "currency:INR": "yes",
        "currency:JPY": "yes",
        "currency:MYR": "yes",
        "currency:USD": "yes",
        "description": "Savi Forex is your trusted partner for currency exchange in Bangalore, offering competitive rates, RBI-compliant secure transactions, and doorstep delivery. With a wide range of currencies and customized solutions for students, tourists, and business.",
        "email": "contact@saviforex.com",
        "image": "https://saviforex.com/wp-content/uploads/2024/09/cropped-Main-Logo.webp",
        "level": "1",
        "mobile": "+91-95355 00003",
        "name": "Savi Forex and Tours Private Limited",
        "opening_hours": "Mo-Sa 10:00-19:00",
        "operator": "RBI",
        "payment:cash": "yes",
        "payment:credit_cards": "yes",
        "payment:debit_cards": "yes",
        "payment:google_pay": "yes",
        "payment:mastercard": "yes",
        "payment:notes": "yes",
        "payment:visa": "yes",
        "start_date": "2013-06-01",
        "website": "https://saviforex.com/"
      }
    },
    {
      "type": "node",
      "id": 12706360455,
      "lat": 12.8978489,
      "lon": 77.6340857,
      "tags": {
        "brand": "cult.fit",
        "brand:wikidata": "Q121289250",
        "check_date": "2025-03-28",
        "leisure": "fitness_centre",
        "name": "cult.fit"
      }
    },
    {
      "type": "node",
      "id": 12706360457,
      "lat": 12.8925686,
      "lon": 77.637438,
      "tags": {
        "amenity": "place_of_worship",
        "check_date": "2025-03-28",
        "religion": "hindu"
      }
    },
    {
      "type": "node",
      "id": 12969068326,
      "lat": 12.901794,
      "lon": 77.6302877,
      "tags": {
        "access": "private",
        "amenity": "parking_entrance",
        "parking": "underground"
      }
    },
    {
      "type": "node",
      "id": 12969068367,
      "lat": 12.9014633,
      "lon": 77.631547,
      "tags": {
        "access": "private",
        "amenity": "parking_entrance",
        "parking": "underground"
      }
    },
    {
      "type": "node",
      "id": 13061536102,
      "lat": 12.8949095,
      "lon": 77.633215,
      "tags": {
        "addr:postcode": "560068",
        "addr:street": "3rd cross",
        "name": "Pragya provision store",
        "opening_hours": "24/7",
        "shop": "grocery"
      }
    },
    {
      "type": "node",
      "id": 13070296263,
      "lat": 12.9016463,
      "lon": 77.6319694,
      "tags": {
        "access": "yes",
        "amenity": "motorcycle_parking",
        "capacity": "155",
        "fee": "yes",
        "name": "Hongasandra Metro Parking",
        "operator": "BMRCL",
        "parking": "surface"
      }
    },
    {
      "type": "node",
      "id": 13070296264,
      "lat": 12.8899069,
      "lon": 77.6391631,
      "tags": {
        "access": "yes",
        "amenity": "motorcycle_parking",
        "capacity": "85",
        "fee": "yes",
        "name": "Kudlu Gate Metro Parking",
        "operator": "BMRCL",
        "parking": "surface"
      }
    },
    {
      "type": "node",
      "id": 13277972120,
      "lat": 12.8874274,
      "lon": 77.6382519,
      "tags": {
        "addr:full": "No:919, Bharani Industrial Estate, Kudlu Gate, Chik Begur Road, Off Hosur Road, Bangalore-560068",
        "addr:housenumber": "919",
        "brand": "Škoda",
        "brand:wikidata": "Q29637",
        "name": "Škoda",
        "note": "the source (note) said tafe access",
        "phone": "080-40813900;+919384697317",
        "shop": "car_repair"
      }
    },
    {
      "type": "way",
      "id": 230421683,
      "center": {
        "lat": 12.9029398,
        "lon": 77.6303587
      },
      "tags": {
        "addr:street": "Hosur Road",
        "amenity": "bank",
        "atm": "yes",
        "brand": "ICICI Bank",
        "brand:wikidata": "Q1653258",
        "name": "ICICI Bank",
        "name:en": "ICICI Bank",
        "name:kn": "ಐಸಿಐಸಿಐ ಬ್ಯಾಂಕು",
        "short_name": "ICICI",
        "website": "https://www.icicibank.com"
      }
    },
    {
      "type": "way",
      "id": 349648491,
      "center": {
        "lat": 12.90101,
        "lon": 77.6309346
      },
      "tags": {
        "amenity": "college",
        "name": "Oxford College"
      }
    },
    {
      "type": "way",
      "id": 432729333,
      "center": {
        "lat": 12.9003193,
        "lon": 77.6408965
      },
      "tags": {
        "leisure": "park",
        "name": "ITI Layout Park"
      }
    },
    {
      "type": "way",
      "id": 678062490,
      "center": {
        "lat": 12.8978289,
        "lon": 77.6320545
      },
      "tags": {
        "leisure": "park",
        "name": "Raja Rajeshwari Apartment Common Area",
        "opening_hours": "24/7"
      }
    },
    {
      "type": "way",
      "id": 678066777,
      "center": {
        "lat": 12.8980981,
        "lon": 77.6338265
      },
      "tags": {
        "amenity": "hospital",
        "healthcare": "hospital"
      }
    },
    {
      "type": "way",
      "id": 1074881566,
      "center": {
        "lat": 12.8980441,
        "lon": 77.6348703
      },
      "tags": {
        "amenity": "marketplace"
      }
    },
    {
      "type": "way",
      "id": 1096873560,
      "center": {
        "lat": 12.9004172,
        "lon": 77.6335589
      },
      "tags": {
        "amenity": "fuel",
        "brand": "Shell",
        "brand:wikidata": "Q110716465",
        "compressed_air": "yes",
        "name": "Shell",
        "name:kn": "ಶೆಲ್"
      }
    },
    {
      "type": "way",
      "id": 1240080104,
      "center": {
        "lat": 12.8902144,
        "lon": 77.6372764
      },
      "tags": {
        "leisure": "park"
      }
    },
    {
      "type": "way",
      "id": 1254749649,
      "center": {
        "lat": 12.902166,
        "lon": 77.6396091
      },
      "tags": {
        "leisure": "park"
      }
    },
    {
      "type": "way",
      "id": 1255138228,
      "center": {
        "lat": 12.8979142,
        "lon": 77.6384508
      },
      "tags": {
        "access": "customers",
        "amenity": "parking",
        "parking": "surface"
      }
    },
    {
      "type": "way",
      "id": 1255138231,
      "center": {
        "lat": 12.8979233,
        "lon": 77.6382909
      },
      "tags": {
        "addr:city": "Bengaluru",
        "addr:housenumber": "383/1-10",
        "addr:postcode": "560068",
        "addr:street": "5th Cross Road",
        "email": "hi@majesstinesports.com",
        "fee": "yes",
        "leisure": "sports_centre",
        "mobile": "+91 80 4376 0760;+91 63644 44441",
        "name": "Majesstine Sports Academy",
        "sport": "tennis;badminton;swimming;table_tennis;futsal;cricket",
        "website": "https://www.majesstinesports.com/#"
      }
    },
    {
      "type": "way",
      "id": 1271883918,
      "center": {
        "lat": 12.8897535,
        "lon": 77.6364946
      },
      "tags": {
        "leisure": "pitch",
        "sport": "basketball"
      }
    },
    {
      "type": "way",
      "id": 1271883919,
      "center": {
        "lat": 12.8896944,
        "lon": 77.6370171
      },
      "tags": {
        "leisure": "playground"
      }
    },
    {
      "type": "way",
      "id": 1271883920,
      "center": {
        "lat": 12.8898333,
        "lon": 77.6362567
      },
      "tags": {
        "leisure": "pitch",
        "sport": "tennis"
      }
    },
    {
      "type": "way",
      "id": 1271883921,
      "center": {
        "lat": 12.900977,
        "lon": 77.6289967
      },
      "tags": {
        "leisure": "playground"
      }
    },
    {
      "type": "way",
      "id": 1271883922,
      "center": {
        "lat": 12.9010749,
        "lon": 77.6285027
      },
      "tags": {
        "access": "private",
        "leisure": "swimming_pool"
      }
    },
    {
      "type": "way",
      "id": 1285829254,
      "center": {
        "lat": 12.9030298,
        "lon": 77.631669
      },
      "tags": {
        "access": "customers",
        "amenity": "parking",
        "parking": "surface"
      }
    },
    {
      "type": "way",
      "id": 1313718784,
      "center": {
        "lat": 12.901938,
        "lon": 77.6290914
      },
      "tags": {
        "amenity": "theatre",
        "name": "amphitheatre",
        "theatre:type": "amphi"
      }
    },
    {
      "type": "way",
      "id": 1348689004,
      "center": {
        "lat": 12.9031061,
        "lon": 77.6369758
      },
      "tags": {
        "amenity": "school"
      }
    },
    {
      "type": "way",
      "id": 1411398439,
      "center": {
        "lat": 12.9010914,
        "lon": 77.629929
      },
      "tags": {
        "access": "private",
        "leisure": "pitch",
        "sport": "tennis"
      }
    },
    {
      "type": "way",
      "id": 1411413005,
      "center": {
        "lat": 12.898837,
        "lon": 77.6334802
      },
      "tags": {
        "amenity": "fuel"
      }
    },
    {
      "type": "way",
      "id": 1420991668,
      "center": {
        "lat": 12.8958924,
        "lon": 77.6416837
      },
      "tags": {
        "addr:place": "Bandepalya",
        "amenity": "school",
        "isced:level": "2",
        "name": "GHPS Bandepalya",
        "name:kn": "ಸರ್ಕಾರಿ ಹಿರಿಯ ಪ್ರಾಥಮಿಕ ಶಾಲೆ ಬಂಡೆಪಾಳ್ಯ",
        "operator": "Department of Education",
        "school": "primary"
      }
    },
    {
      "type": "way",
      "id": 1421355112,
      "center": {
        "lat": 12.8926669,
        "lon": 77.6371197
      },
      "tags": {
        "amenity": "place_of_worship",
        "building": "yes",
        "religion": "hindu"
      }
    },
    {
      "type": "way",
      "id": 1434895411,
      "center": {
        "lat": 12.8903259,
        "lon": 77.6368923
      },
      "tags": {
        "access": "private",
        "leisure": "swimming_pool"
      }
    }
  ]
}