{
  "area_name": "Gattigere Extension",
  "osm_id": 8699676979,
  "osm_type": "node",
  "place_type": "neighbourhood",
  "amenity_count": 68,
  "amenities": [
    {
      "type": "node",
      "id": 841805585,
      "lat": 12.9135232,
      "lon": 77.5289628,
      "tags": {
        "amenity": "place_of_worship",
        "name": "Kumaraswamy Temple",
        "name:kn": "ಕುಮಾರಸ್ವಾಮಿ ದೇವಸ್ಥಾನ",
        "religion": "hindu"
      }
    },
    {
      "type": "node",
      "id": 1463569358,
      "lat": 12.9217044,
      "lon": 77.5204162,
      "tags": {
        "amenity": "fast_food",
        "cuisine": "regional",
        "name": "Bramhi Aahaara"
      }
    },
    {
      "type": "node",
      "id": 1463570044,
      "lat": 12.9214078,
      "lon": 77.5206736,
      "tags": {
        "amenity": "restaurant",
        "cuisine": "chinese",
        "name": "Beijing Bites",
        "name:kn": "ಬೀಜಿಂಗ್ ಬೈಟ್ಸ್"
      }
    },
    {
      "type": "node",
      "id": 1463570454,
      "lat": 12.920634,
      "lon": 77.5205368,
      "tags": {
        "amenity": "cafe",
        "name": "Coffee Day"
      }
    },
    {
      "type": "node",
      "id": 1463571018,
      "lat": 12.9209843,
      "lon": 77.5202713,
      "tags": {
        "name": "Food World",
        "shop": "supermarket"
      }
    },
    {
      "type": "node",
      "id": 1463571577,
      "lat": 12.9202209,
      "lon": 77.5201908,
      "tags": {
        "amenity": "place_of_worship",
        "name": "Ganesha Temple",
        "name:kn": "ಗಣೇಶ ದೇವಸ್ಥಾನ",
        "religion": "hindu"
      }
    },
    {
      "type": "node",
      "id": 1463576394,
      "lat": 12.9176066,
      "lon": 77.5200084,
      "tags": {
        "leisure": "playground",
        "name": "Balakrishna Rangamandira",
        "name:kn": "ಬಾಲಕೃಷ್ಣ ರಂಗಮಂದಿರ"
      }
    },
    {
      "type": "node",
      "id": 1463578306,
      "lat": 12.9136589,
      "lon": 77.5244341,
      "tags": {
        "amenity": "place_of_worship",
        "name": "Kalabhairava Temple",
        "name:kn": "ಕಾಲಭೈರವ ಮಂದಿರ",
        "religion": "hindu"
      }
    },
    {
      "type": "node",
      "id": 1463578913,
      "lat": 12.9133609,
      "lon": 77.5248364,
      "tags": {
        "amenity": "place_of_worship",
        "name": "Gayatri Temple",
        "name:kn": "ಗಾಯತ್ರಿ ದೇವಸ್ಥಾನ",
        "religion": "hindu"
      }
    },
    {
      "type": "node",
      "id": 1463579863,
      "lat": 12.9141975,
      "lon": 77.5293801,
      "tags": {
        "amenity": "place_of_worship",
        "name": "Kaalikamba Temple",
        "name:kn": "ಕಾಳಿಕಾಂಬ ದೇವಸ್ಥಾನ",
        "religion": "hindu",
        "wheelchair": "no"
      }
    },
    {
      "type": "node",
      "id": 1463580356,
      "lat": 12.9126035,
      "lon": 77.5289754,
      "tags": {
        "amenity": "place_of_worship",
        "name": "Sri Shanmukha Temple",
        "name:kn": "ಶ್ರೀ ಶಣ್ಮುಖ ದೇವಸ್ಥಾನ",
        "religion": "hindu"
      }
    },
    {
      "type": "node",
      "id": 1463584104,
      "lat": 12.9125086,
      "lon": 77.5271968,
      "tags": {
        "amenity": "school",
        "name": "Swargarani"
      }
    },
    {
      "type": "node",
      "id": 1463804689,
      "lat": 12.9149661,
      "lon": 77.5208319,
      "tags": {
        "addr:city": "Bengaluru",
        "addr:housenumber": "No. 1148",
        "addr:postcode": "560098",
        "addr:street": "Kanakadasa Circle, BEML Layout 3rd Stage, RR Nagar,",
        "name": "Kanti Sweets",
        "shop": "bakery"
      }
    },
    {
      "type": "node",
      "id": 2996236143,
      "lat": 12.9266584,
      "lon": 77.5199911,
      "tags": {
        "amenity": "restaurant",
        "cuisine": "regional",
        "name": "Monish Corner"
      }
    },
    {
      "type": "node",
      "id": 2996236145,
      "lat": 12.9247082,
      "lon": 77.5196155,
      "tags": {
        "name": "Lakshmi Departmental Stores",
        "shop": "department_store"
      }
    },
    {
      "type": "node",
      "id": 2996236146,
      "lat": 12.9244128,
      "lon": 77.5190496,
      "tags": {
        "name": "Namdhari's Fresh",
        "shop": "supermarket"
      }
    },
    {
      "type": "node",
      "id": 2996236148,
      "lat": 12.9242219,
      "lon": 77.518945,
      "tags": {
        "amenity": "school",
        "name": "Carmel School Ground"
      }
    },
    {
      "type": "node",
      "id": 2997256383,
      "lat": 12.9192621,
      "lon": 77.5204447,
      "tags": {
        "addr:city": "Bangalore",
        "addr:housenumber": "826",
        "addr:postcode": "560098",
        "addr:street": "Jawaharlal Nehru Road",
        "brand": "Lenskart",
        "name": "Lenskart.com",
        "opening_hours": "11:00 - 23:00",
        "shop": "optician",
        "takeaway": "yes",
        "website": "https://www.lenskart.com/"
      }
    },
    {
      "type": "node",
      "id": 3004239730,
      "lat": 12.9228792,
      "lon": 77.5207873,
      "tags": {
        "name": "Le Pape",
        "shop": "clothes"
      }
    },
    {
      "type": "node",
      "id": 3546831488,
      "lat": 12.9209531,
      "lon": 77.5213014,
      "tags": {
        "amenity": "school",
        "name": "BET Convent"
      }
    },
    {
      "type": "node",
      "id": 4210647484,
      "lat": 12.9201765,
      "lon": 77.5174169,
      "tags": {
        "emergency": "no",
        "name": "Ramesh Medicals",
        "shop": "medical_supply"
      }
    },
    {
      "type": "node",
      "id": 4210647488,
      "lat": 12.9188235,
      "lon": 77.5203753,
      "tags": {
        "name": "Hopcoms",
        "name:kn": "ಹಾಪ್ ಕಾಮ್ಸ್",
        "shop": "supermarket"
      }
    },
    {
      "type": "node",
      "id": 4210647789,
      "lat": 12.9178772,
      "lon": 77.5204317,
      "tags": {
        "amenity": "bank",
        "atm": "yes",
        "brand:wikidata": "Q1340361",
        "brand:wikipedia": "en:State Bank of India",
        "name": "State Bank of India",
        "name:kn": "ಸ್ಟೇಟ್ ಬ್ಯಾಂಕ್ ಆಫ್ ಮೈಸೂರು",
        "short_name": "SBI",
        "website": "https://www.sbi.co.in"
      }
    },
    {
      "type": "node",
      "id": 4210668285,
      "lat": 12.920166,
      "lon": 77.5173257,
      "tags": {
        "name": "ACE Iyengar",
        "shop": "deli"
      }
    },
    {
      "type": "node",
      "id": 4210668286,
      "lat": 12.9201189,
      "lon": 77.5177655,
      "tags": {
        "name": "Delhi Chats",
        "shop": "deli"
      }
    },
    {
      "type": "node",
      "id": 4210668287,
      "lat": 12.9200614,
      "lon": 77.5183905,
      "tags": {
        "amenity": "childcare"
      }
    },
    {
      "type": "node",
      "id": 4210670193,
      "lat": 12.918753,
      "lon": 77.520891,
      "tags": {
        "amenity": "clinic",
        "description": "Dr. Parthasarathy",
        "name": "Yogeshwara Clinic"
      }
    },
    {
      "type": "node",
      "id": 4210670194,
      "lat": 12.9162563,
      "lon": 77.520671,
      "tags": {
        "amenity": "restaurant",
        "cuisine": "indian",
        "name": "Kaapi Katte",
        "name:kn": "ಕಾಫಿ ಕಟ್ಟೆ",
        "smoking": "no"
      }
    },
    {
      "type": "node",
      "id": 4210670195,
      "lat": 12.9151347,
      "lon": 77.5207569,
      "tags": {
        "name": "Just Bake",
        "name:kn": "ಜಸ್ಟ್ ಬೇಕ್",
        "shop": "bakery"
      }
    },
    {
      "type": "node",
      "id": 4212006129,
      "lat": 12.9221365,
      "lon": 77.5204974,
      "tags": {
        "addr:city": "Bengaluru",
        "addr:postcode": "560098",
        "addr:street": "BEML Layout 3rd Stage, Rajarajeshwari Nagar",
        "name": "Feet Shop",
        "shop": "shoes"
      }
    },
    {
      "type": "node",
      "id": 4488319661,
      "lat": 12.9208959,
      "lon": 77.5206097,
      "tags": {
        "addr:city": "BANGALORE",
        "addr:postcode": "560098",
        "addr:street": "Rajeswari nagar",
        "name": "Lakme Salon",
        "phone": "8033050394",
        "shop": "beauty"
      }
    },
    {
      "type": "node",
      "id": 4490001355,
      "lat": 12.9193043,
      "lon": 77.5206092,
      "tags": {
        "addr:city": "BANGALORE",
        "addr:housenumber": "500,",
        "addr:postcode": "560098",
        "addr:street": ", 60 Feet Road, Rajarajeshwari Naga",
        "name": "YLG",
        "opening_hours": "10:00-22:00",
        "phone": "(91)-80-33050394",
        "shop": "beauty",
        "website": "https://www.ylgindia.com/"
      }
    },
    {
      "type": "node",
      "id": 5075572822,
      "lat": 12.9257694,
      "lon": 77.5211371,
      "tags": {
        "shop": "bakery"
      }
    },
    {
      "type": "node",
      "id": 5277512112,
      "lat": 12.9138086,
      "lon": 77.5273633,
      "tags": {
        "amenity": "hospital",
        "name": "Usha Vikranth Diagnostic Center and Hospital"
      }
    },
    {
      "type": "node",
      "id": 5406804453,
      "lat": 12.9122894,
      "lon": 77.5232541,
      "tags": {
        "access": "customers",
        "leisure": "swimming_pool",
        "name": "Best Club Pool"
      }
    },
    {
      "type": "node",
      "id": 8187964015,
      "lat": 12.9144145,
      "lon": 77.5208702,
      "tags": {
        "addr:city": "Bengaluru",
        "addr:full": "Site No 188, 4th Stage, Halagevadarahalli Layout, Nxt to Smart Outlet, IV Stage 3 Block, 4th Stage, RR Nagar, Bengaluru, Karnataka",
        "addr:postcode": "560098",
        "addr:state": "Karnataka",
        "amenity": "bank",
        "atm": "yes",
        "brand": "HDFC Bank",
        "brand:wikidata": "Q631047",
        "brand:wikipedia": "en:HDFC Bank",
        "drive_through": "no",
        "name": "HDFC Bank",
        "name:kn": "ಎಚ್ ಡಿ ಎಫ್ ಸಿ",
        "website": "https://www.hdfcbank.com/"
      }
    },
    {
      "type": "node",
      "id": 8282341342,
      "lat": 12.9143782,
      "lon": 77.5210809,
      "tags": {
        "addr:city": "Bengaluru",
        "addr:postcode": "560098",
        "addr:street": "1st Main Rd, IV Stage 3 Block, 4th Stage, RR Nagar",
        "amenity": "post_office",
        "name": "Rajarajeshwari Nagar Post Office",
        "name:kn": "ಅಂಚೆ ಕಛೇರಿ"
      }
    },
    {
      "type": "node",
      "id": 8282374864,
      "lat": 12.9130094,
      "lon": 77.5210675,
      "tags": {
        "amenity": "bank",
        "atm": "yes",
        "brand": "State Bank of India",
        "brand:wikidata": "Q1340361",
        "brand:wikipedia": "en:State Bank of India",
        "name": "State Bank of India"
      }
    },
    {
      "type": "node",
      "id": 9838551995,
      "lat": 12.9167617,
      "lon": 77.5216256,
      "tags": {
        "amenity": "place_of_worship",
        "name": "Sangameshwara Temple",
        "name:kn": "ಸಂಗಮೇಶ್ವರ ದೇವಾಲಯ",
        "religion": "hindu"
      }
    },
    {
      "type": "node",
      "id": 12539064793,
      "lat": 12.9132031,
      "lon": 77.5209553,
      "tags": {
        "addr:city": "Bengaluru",
        "addr:housenumber": "196",
        "addr:postcode": "560098",
        "addr:street": "BEML Layout, IV Stage 3 Block, 4th Stage, Rajarajeshwari Nagar",
        "name": "Shopping City Hypermarket",
        "shop": "supermarket"
      }
    },
    {
      "type": "way",
      "id": 132998344,
      "center": {
        "lat": 12.919261,
        "lon": 77.5196974
      },
      "tags": {
        "leisure": "park",
        "name": "Dr Ambedkar Park",
        "name:etymology:wikidata": "Q231690",
        "name:kn": "ಅಂಬೇಡ್ಕರ್ ಉದ್ಯಾನ"
      }
    },
    {
      "type": "way",
      "id": 173050863,
      "center": {
        "lat": 12.9125511,
        "lon": 77.5229814
      },
      "tags": {
        "leisure": "track",
        "name": "BEML Club",
        "sport": "athletics"
      }
    },
    {
      "type": "way",
      "id": 173051066,
      "center": {
        "lat": 12.9161336,
        "lon": 77.5218978
      },
      "tags": {
        "leisure": "park",
        "name": "Sangameshwara Park",
        "name:kn": "ಸಂಗಮೇಶ್ವರ ಪಾರ್ಕ್"
      }
    },
    {
      "type": "way",
      "id": 173051068,
      "center": {
        "lat": 12.9119509,
        "lon": 77.5204567
      },
      "tags": {
        "leisure": "park"
      }
    },
    {
      "type": "way",
      "id": 319551492,
      "center": {
        "lat": 12.9210796,
        "lon": 77.519083
      },
      "tags": {
        "leisure": "park",
        "name": "Vivekananda Park",
        "name:kn": "ವಿವೇಕಾನಂದ ಪಾರ್ಕ್"
      }
    },
    {
      "type": "way",
      "id": 347417614,
      "center": {
        "lat": 12.926744,
        "lon": 77.5265184
      },
      "tags": {
        "leisure": "garden"
      }
    },
    {
      "type": "way",
      "id": 348121410,
      "center": {
        "lat": 12.9137835,
        "lon": 77.5209062
      },
      "tags": {
        "addr:city": "Bengaluru",
        "addr:district": "Bangalore",
        "addr:housenumber": "193",
        "addr:postcode": "560098",
        "addr:street": "Jawaharlal Nehru Road",
        "amenity": "cafe",
        "building": "amenity",
        "cuisine": "sandwich;chinese;italian;indian;mexican",
        "name": "Board 4 Bored",
        "website": "Board4Bored.in"
      }
    },
    {
      "type": "way",
      "id": 362911977,
      "center": {
        "lat": 12.9175529,
        "lon": 77.5200831
      },
      "tags": {
        "leisure": "park"
      }
    },
    {
      "type": "way",
      "id": 362913634,
      "center": {
        "lat": 12.9265922,
        "lon": 77.5186791
      },
      "tags": {
        "leisure": "park"
      }
    },
    {
      "type": "way",
      "id": 401829358,
      "center": {
        "lat": 12.9237378,
        "lon": 77.5233068
      },
      "tags": {
        "amenity": "school",
        "name": "National Hill View Public School"
      }
    },
    {
      "type": "way",
      "id": 736950242,
      "center": {
        "lat": 12.9287127,
        "lon": 77.5291
      },
      "tags": {
        "amenity": "school",
        "name": "National Hill View Public School"
      }
    },
    {
      "type": "way",
      "id": 766650745,
      "center": {
        "lat": 12.9272671,
        "lon": 77.5262224
      },
      "tags": {
        "amenity": "college",
        "name": "Global Academy of Technology"
      }
    },
    {
      "type": "way",
      "id": 1182315656,
      "center": {
        "lat": 12.9264187,
        "lon": 77.5216783
      },
      "tags": {
        "amenity": "hospital",
        "name": "SS Sparsh Hospital"
      }
    },
    {
      "type": "way",
      "id": 1329553366,
      "center": {
        "lat": 12.9128335,
        "lon": 77.5241356
      },
      "tags": {
        "leisure": "park"
      }
    },
    {
      "type": "way",
      "id": 1329553368,
      "center": {
        "lat": 12.9131802,
        "lon": 77.5241406
      },
      "tags": {
        "leisure": "park"
      }
    },
    {
      "type": "way",
      "id": 1329553369,
      "center": {
        "lat": 12.9135289,
        "lon": 77.5241779
      },
      "tags": {
        "leisure": "park"
      }
    },
    {
      "type": "way",
      "id": 1329553370,
      "center": {
        "lat": 12.9140204,
        "lon": 77.5241895
      },
      "tags": {
        "leisure": "park"
      }
    },
    {
      "type": "way",
      "id": 1329553371,
      "center": {
        "lat": 12.912038,
        "lon": 77.5240965
      },
      "tags": {
        "leisure": "park"
      }
    },
    {
      "type": "way",
      "id": 1363986204,
      "center": {
        "lat": 12.9099916,
        "lon": 77.5283423
      },
      "tags": {
        "leisure": "resort",
        "name": "Shakthi Hill Resorts"
      }
    },
    {
      "type": "way",
      "id": 1363986258,
      "center": {
        "lat": 12.9283177,
        "lon": 77.529625
      },
      "tags": {
        "leisure": "park"
      }
    },
    {
      "type": "way",
      "id": 1427923069,
      "center": {
        "lat": 12.9247404,
        "lon": 77.5175994
      },
      "tags": {
        "amenity": "place_of_worship",
        "landuse": "religious",
        "name": "Shri Nimishamba Devi Temple",
        "name:kn": "ನಿಮಿಶಾಂಬ ದೇವಸ್ಥಾನ",
        "religion": "hindu"
      }
    },
    {
      "type": "way",
      "id": 1427923075,
      "center": {
        "lat": 12.9241038,
        "lon": 77.5186018
      },
      "tags": {
        "amenity": "school",
        "landuse": "education",
        "name": "Mount Carmel School"
      }
    },
    {
      "type": "way",
      "id": 1427923145,
      "center": {
        "lat": 12.9257312,
        "lon": 77.5262355
      },
      "tags": {
        "leisure": "pitch"
      }
    },
    {
      "type": "way",
      "id": 1427923146,
      "center": {
        "lat": 12.9257489,
        "lon": 77.526462
      },
      "tags": {
        "leisure": "pitch",
        "sport": "basketball"
      }
    },
    {
      "type": "way",
      "id": 1443188659,
      "center": {
        "lat": 12.9128125,
        "lon": 77.520516
      },
      "tags": {
        "addr:city": "Bengaluru",
        "addr:postcode": "560098",
        "addr:street": "Mysore Road, Rajarajeshwari Nagar, Sachidananda Nagar, RR Nagar",
        "amenity": "police",
        "name": "Rajarajeshwari Nagar Police Station",
        "name:kn": "ಆರಕ್ಷಕ ಠಾಣೆ",
        "phone": "080 2294 2559"
      }
    },
    {
      "type": "way",
      "id": 1444464468,
      "center": {
        "lat": 12.9273447,
        "lon": 77.5264765
      },
      "tags": {
        "leisure": "garden"
      }
    },
    {
      "type": "way",
      "id": 1444464470,
      "center": {
        "lat": 12.9248664,
        "lon": 77.5264547
      },
      "tags": {
        "access": "permissive",
        "amenity": "parking",
        "parking": "surface"
      }
    },
    {
      "type": "way",
      "id": 1444464471,
      "center": {
        "lat": 12.9245252,
        "lon": 77.5260847
      },
      "tags": {
        "access": "permissive",
        "amenity": "parking",
        "parking": "surface"
      }
    }
  ]
}