{
  "area_name": "Gavipuram",
  "osm_id": 5250142956,
  "osm_type": "node",
  "place_type": "neighbourhood",
  "amenity_count": 276,
  "amenities": [
    {
      "type": "node",
      "id": 954610622,
      "lat": 12.9444378,
      "lon": 77.5546637,
      "tags": {
        "amenity": "bus_station",
        "building": "public",
        "name": "Srinagar Bus Station",
        "name:kn": "ಶ್ರೀನಗರ ಬಸ್ ನಿಲ್ದಾಣ"
      }
    },
    {
      "type": "node",
      "id": 954620605,
      "lat": 12.9437007,
      "lon": 77.5649097,
      "tags": {
        "amenity": "restaurant",
        "name": "Ganesh Bhavan",
        "name:kn": "ಗಣೇಶ ಭವನ",
        "wheelchair": "no"
      }
    },
    {
      "type": "node",
      "id": 1080729956,
      "lat": 12.9443745,
      "lon": 77.5695112,
      "tags": {
        "addr:street": "Bugle Rock Road",
        "amenity": "place_of_worship",
        "name": "Karanji Anjaneya Temple",
        "name:kn": "ಕಾರಂಜಿ ಅಂಜನೇಯ ದೇವಸ್ತಾನ",
        "religion": "hindu",
        "wheelchair": "no"
      }
    },
    {
      "type": "node",
      "id": 1464749398,
      "lat": 12.9432335,
      "lon": 77.5700564,
      "tags": {
        "amenity": "fountain"
      }
    },
    {
      "type": "node",
      "id": 1464751687,
      "lat": 12.9409932,
      "lon": 77.5671094,
      "tags": {
        "amenity": "place_of_worship",
        "name": "Puttige Mutt",
        "name:kn": "ಪುತ್ತಿಗೆ ಮಠ",
        "religion": "hindu"
      }
    },
    {
      "type": "node",
      "id": 1466724441,
      "lat": 12.9417187,
      "lon": 77.5601963,
      "tags": {
        "name": "Kaggi's Bakery",
        "shop": "bakery"
      }
    },
    {
      "type": "node",
      "id": 1470715777,
      "lat": 12.9435227,
      "lon": 77.5590375,
      "tags": {
        "name": "Ritu's designer sarees",
        "shop": "clothes"
      }
    },
    {
      "type": "node",
      "id": 1473887315,
      "lat": 12.942427,
      "lon": 77.5671829,
      "tags": {
        "amenity": "place_of_worship",
        "check_date": "2023-09-19",
        "name": "Sri Raghavendra Swami Mutt",
        "name:kn": "ರಾಘವೇಂದ್ರ ಸ್ವಾಮಿ ಮಠ",
        "religion": "hindu"
      }
    },
    {
      "type": "node",
      "id": 1473896401,
      "lat": 12.9453673,
      "lon": 77.5672085,
      "tags": {
        "amenity": "school",
        "name": "Nevaditha school"
      }
    },
    {
      "type": "node",
      "id": 1473897177,
      "lat": 12.9444263,
      "lon": 77.5651593,
      "tags": {
        "amenity": "school",
        "name": "SSVM GP Branch",
        "wheelchair": "no"
      }
    },
    {
      "type": "node",
      "id": 1473902946,
      "lat": 12.940021,
      "lon": 77.5651693,
      "tags": {
        "amenity": "bank",
        "brand": "Allahabad Bank",
        "brand:wikidata": "Q2018840",
        "brand:wikipedia": "en:Allahabad Bank",
        "name": "Allahabad Bank",
        "name:en": "Allahabad Bank",
        "name:kn": "ಅಲ್ಲಹಾಬಾದ್ ಬ್ಯಾಂಕ್",
        "website": "https://www.allahabadbank.in"
      }
    },
    {
      "type": "node",
      "id": 1473902953,
      "lat": 12.9403137,
      "lon": 77.5645095,
      "tags": {
        "amenity": "restaurant",
        "name": "Mini Punjabi Dhaba",
        "name:kn": "ಮಿನಿ ಪಂಜಾಬಿ ಢಾಬ"
      }
    },
    {
      "type": "node",
      "id": 1473902955,
      "lat": 12.9393831,
      "lon": 77.5641393,
      "tags": {
        "amenity": "restaurant",
        "name": "Ganesh FruitJuice Centre",
        "name:kn": "ಗಣೇಶ್ ಫ್ರುಟ್‌ಜ್ಯುಸ್ ಸೆಂಟರ್"
      }
    },
    {
      "type": "node",
      "id": 1473903929,
      "lat": 12.9488556,
      "lon": 77.5673667,
      "tags": {
        "name": "Ramakrishna Mutt",
        "name:kn": "ರಾಮಕೃಷ್ಣ ಮಠ",
        "shop": "books",
        "wheelchair": "limited"
      }
    },
    {
      "type": "node",
      "id": 1473921774,
      "lat": 12.9458714,
      "lon": 77.5675192,
      "tags": {
        "addr:district": "Bengaluru Urban",
        "addr:full": "No.81,Bulltemple Road,Near Ramakrishna Ashram",
        "addr:postcode": "560019",
        "addr:state": "Karnataka",
        "addr:street": "Shyamaraja Iyengar Road",
        "amenity": "hospital",
        "emergency": "no",
        "name": "Shekar Hospital",
        "name:en": "Shekhar Hospital",
        "name:hi": "शेखर हॉस्पिटल",
        "name:kn": "ಶೇಖರ್ ಹಾಸ್ಪಿಟಲ್",
        "source": "OpenGovernmentData"
      }
    },
    {
      "type": "node",
      "id": 1473921785,
      "lat": 12.9455787,
      "lon": 77.5679644,
      "tags": {
        "amenity": "school",
        "name": "BASE"
      }
    },
    {
      "type": "node",
      "id": 1473921794,
      "lat": 12.9462008,
      "lon": 77.5679859,
      "tags": {
        "amenity": "fuel",
        "brand": "Indian Oil",
        "brand:wikidata": "Q1289348",
        "name": "Bull Temple Filling Station"
      }
    },
    {
      "type": "node",
      "id": 1473921798,
      "lat": 12.9449194,
      "lon": 77.5680581,
      "tags": {
        "addr:street": "Bull Temple Road",
        "amenity": "restaurant",
        "name": "Cane-o-La",
        "name:kn": "ಕೆನ್-ಒ-ಲಾ",
        "wheelchair": "no"
      }
    },
    {
      "type": "node",
      "id": 1473921812,
      "lat": 12.9446167,
      "lon": 77.5677552,
      "tags": {
        "amenity": "atm",
        "brand": "State Bank of India",
        "brand:wikidata": "Q1340361",
        "fee": "no",
        "name": "State Bank of India",
        "operator": "State Bank of India",
        "operator:wikidata": "Q1340361",
        "short_name": "SBI"
      }
    },
    {
      "type": "node",
      "id": 1473945518,
      "lat": 12.9480672,
      "lon": 77.5682863,
      "tags": {
        "amenity": "restaurant",
        "name": "SLV Delite",
        "name:kn": "ಎಸ್ಎಲ್‌ವಿ ಡಿಲೈಟ್"
      }
    },
    {
      "type": "node",
      "id": 1473945527,
      "lat": 12.9473887,
      "lon": 77.568194,
      "tags": {
        "amenity": "bank",
        "brand": "HSBC",
        "brand:wikidata": "Q190464",
        "name": "HSBC"
      }
    },
    {
      "type": "node",
      "id": 1473945528,
      "lat": 12.9473326,
      "lon": 77.5680046,
      "tags": {
        "brand": "Hyundai",
        "brand:wikidata": "Q55931",
        "level": "0;1",
        "name": "Blue Hyundai",
        "shop": "car"
      }
    },
    {
      "type": "node",
      "id": 1473972564,
      "lat": 12.9496638,
      "lon": 77.5680233,
      "tags": {
        "amenity": "community_centre",
        "name": "Guru Narasimha Kalyana Mantap",
        "wheelchair": "no"
      }
    },
    {
      "type": "node",
      "id": 1473972586,
      "lat": 12.950339,
      "lon": 77.5673443,
      "tags": {
        "amenity": "bank",
        "atm": "yes",
        "brand": "ICICI Bank",
        "brand:wikidata": "Q1653258",
        "name": "ICICI Bank",
        "name:en": "ICICI Bank",
        "name:kn": "ಐಸಿಐಸಿಐ ಬ್ಯಾಂಕು",
        "short_name": "ICICI",
        "website": "https://www.icicibank.com",
        "wheelchair": "no"
      }
    },
    {
      "type": "node",
      "id": 1473972590,
      "lat": 12.9505777,
      "lon": 77.567884,
      "tags": {
        "check_date": "2023-09-09",
        "name": "Miracle Unisex Salon",
        "shop": "beauty",
        "wheelchair": "no"
      }
    },
    {
      "type": "node",
      "id": 1617398428,
      "lat": 12.9539396,
      "lon": 77.5688104,
      "tags": {
        "addr:street": "2nd Cross Road",
        "amenity": "fast_food",
        "diet:vegetarian": "only",
        "name": "Brahmin's Coffee Bar",
        "name:kn": "ಬ್ರಾಹ್ಮಣರ ಕಾಫಿ ಬಾರ್",
        "wheelchair": "no"
      }
    },
    {
      "type": "node",
      "id": 1741832246,
      "lat": 12.941632,
      "lon": 77.5641945,
      "tags": {
        "addr:city": "Bengaluru",
        "addr:postcode": "560019",
        "amenity": "fuel",
        "brand": "Hindustan Petroleum",
        "brand:wikidata": "Q1619375",
        "fuel:diesel": "yes",
        "fuel:petrol": "yes",
        "name": "Sri Vishvesha Agencies",
        "official_name": "Hindustan Petroleum",
        "phone": "+919164009930",
        "self_service": "no"
      }
    },
    {
      "type": "node",
      "id": 1741832550,
      "lat": 12.9416578,
      "lon": 77.5644359,
      "tags": {
        "amenity": "bank",
        "atm": "yes",
        "brand": "Canara Bank",
        "brand:en": "Canara Bank",
        "brand:hi": "केनरा बैंक",
        "brand:kn": "ಕೆನರಾ ಬ್ಯಾಂಕ್",
        "brand:pa": "ਕੇਨਰਾ ਬੈਂਕ",
        "brand:pnb": "کینرا بینک",
        "brand:ur": "کینرا بینک",
        "brand:wikidata": "Q2003777",
        "brand:wikipedia": "en:Canara Bank",
        "brand:wikipedia:pa": "ਕੇਨਰਾ ਬੈਂਕ",
        "name": "Canara Bank",
        "name:en": "Canara Bank",
        "name:hi": "केनरा बैंक",
        "name:kn": "ಕೆನರಾ ಬ್ಯಾಂಕ್",
        "name:pa": "ਕੇਨਰਾ ਬੈਂਕ",
        "name:pnb": "کینرا بینک",
        "name:ur": "کینرا بینک",
        "website": "https://www.canarabank.com/"
      }
    },
    {
      "type": "node",
      "id": 1782170339,
      "lat": 12.9545656,
      "lon": 77.5653115,
      "tags": {
        "addr:district": "BENGALURU URBAN",
        "addr:full": "93/2 Keshava Shilpa 1st Main Road, Kempegowda Nagar",
        "addr:postcode": "560019",
        "addr:state": "Karnataka",
        "amenity": "blood_bank",
        "contact:mobile": "9480436702",
        "contact:phone": "8026610916",
        "designation": "Blood Bank",
        "emergency": "no",
        "name": "Blood Bank - Rastrothana Trust",
        "opening_hours": "24/7",
        "operator:type": "private",
        "wheelchair": "limited"
      }
    },
    {
      "type": "node",
      "id": 1787239474,
      "lat": 12.9451935,
      "lon": 77.5625997,
      "tags": {
        "amenity": "townhall",
        "designation": "Marriage Hall",
        "name": "Maradi Subbiah Trust Kalyana Mantapa"
      }
    },
    {
      "type": "node",
      "id": 1787242875,
      "lat": 12.9450916,
      "lon": 77.5620794,
      "tags": {
        "building": "public",
        "leisure": "sports_centre",
        "name": "Maradi Subbaiah Yoga Center"
      }
    },
    {
      "type": "node",
      "id": 1791991768,
      "lat": 12.9551211,
      "lon": 77.5663064,
      "tags": {
        "amenity": "bank",
        "atm": "yes",
        "brand": "HDFC Bank",
        "brand:wikidata": "Q631047",
        "brand:wikipedia": "en:HDFC Bank",
        "name": "HDFC Bank",
        "short_name": "HDFC",
        "website": "https://www.hdfcbank.com",
        "wheelchair": "no"
      }
    },
    {
      "type": "node",
      "id": 1792009394,
      "lat": 12.9437044,
      "lon": 77.5603994,
      "tags": {
        "amenity": "fast_food",
        "diet:vegetarian": "only",
        "name": "Hotel Mangala"
      }
    },
    {
      "type": "node",
      "id": 1792012371,
      "lat": 12.9432666,
      "lon": 77.5585119,
      "tags": {
        "amenity": "place_of_worship",
        "religion": "hindu"
      }
    },
    {
      "type": "node",
      "id": 1792041769,
      "lat": 12.9412355,
      "lon": 77.5578065,
      "tags": {
        "amenity": "post_box",
        "operator": "India Post",
        "operator:wikidata": "Q3519720"
      }
    },
    {
      "type": "node",
      "id": 1792713585,
      "lat": 12.9493264,
      "lon": 77.5679362,
      "tags": {
        "addr:street": "Bull Temple Road",
        "amenity": "bank",
        "atm": "yes",
        "branch": "Bull Temple Road",
        "brand": "State Bank of India",
        "brand:wikidata": "Q1340361",
        "brand:wikipedia": "en:State Bank of India",
        "check_date": "2023-09-09",
        "drive_through": "yes",
        "internet_access": "wlan",
        "internet_access:fee": "no",
        "name": "State Bank of India",
        "name:kn": "ಭಾರತೀಯ ಸ್ಟೇಟ್ ಬ್ಯಾಂಕ್",
        "payment:mastercard": "yes",
        "payment:visa": "yes",
        "short_name": "SBI",
        "wheelchair": "yes"
      }
    },
    {
      "type": "node",
      "id": 1792715612,
      "lat": 12.954621,
      "lon": 77.5672723,
      "tags": {
        "name": "Reliance Digital Electronic Store",
        "shop": "supermarket",
        "wheelchair": "no"
      }
    },
    {
      "type": "node",
      "id": 1792716217,
      "lat": 12.9434331,
      "lon": 77.5663121,
      "tags": {
        "amenity": "atm",
        "brand": "ICICI Bank",
        "brand:wikidata": "Q1653258",
        "fee": "no",
        "name": "ICICI Bank",
        "name:kn": "ಐಸಿಐಸಿಐ ಬ್ಯಾಂಕು",
        "operator": "ICICI Bank",
        "operator:wikidata": "Q1653258",
        "short_name": "ICICI"
      }
    },
    {
      "type": "node",
      "id": 1792719635,
      "lat": 12.9418698,
      "lon": 77.5563504,
      "tags": {
        "amenity": "atm",
        "brand": "ICICI Bank",
        "brand:wikidata": "Q1653258",
        "fee": "no",
        "name": "ICICI Bank",
        "operator": "ICICI Bank",
        "operator:wikidata": "Q1653258",
        "short_name": "ICICI"
      }
    },
    {
      "type": "node",
      "id": 1796628970,
      "lat": 12.9439251,
      "lon": 77.5643566,
      "tags": {
        "amenity": "atm",
        "brand": "HDFC Bank",
        "brand:wikidata": "Q631047",
        "fee": "no",
        "name": "HDFC Bank",
        "operator": "HDFC Bank",
        "operator:wikidata": "Q631047",
        "short_name": "HDFC"
      }
    },
    {
      "type": "node",
      "id": 1796630507,
      "lat": 12.9437743,
      "lon": 77.5643702,
      "tags": {
        "amenity": "atm",
        "brand": "ICICI Bank",
        "brand:wikidata": "Q1653258",
        "fee": "no",
        "name": "ICICI Bank",
        "operator": "ICICI Bank",
        "operator:wikidata": "Q1653258",
        "short_name": "ICICI"
      }
    },
    {
      "type": "node",
      "id": 1796633495,
      "lat": 12.9450945,
      "lon": 77.5679803,
      "tags": {
        "amenity": "fast_food",
        "brand": "Domino's",
        "brand:ks": "ڈومینوز",
        "brand:pa": "ਡੋਮੀਨੋਜ਼",
        "brand:ur": "ڈومینوز",
        "brand:wikidata": "Q839466",
        "brand:wikipedia": "en:Domino's Pizza",
        "cuisine": "pizza",
        "name": "Domino's",
        "name:ks": "ڈومینوز",
        "name:pa": "ਡੋਮੀਨੋਜ਼",
        "name:ur": "ڈومینوز",
        "takeaway": "yes"
      }
    },
    {
      "type": "node",
      "id": 1796636345,
      "lat": 12.9500847,
      "lon": 77.5679508,
      "tags": {
        "amenity": "bank",
        "atm": "no",
        "designation": "Karnatka State Industrial Co-operative Bank",
        "name": "Karnatka Rajya Kaigarika Sahakari Bank"
      }
    },
    {
      "type": "node",
      "id": 1796647802,
      "lat": 12.9552655,
      "lon": 77.5675942,
      "tags": {
        "amenity": "fast_food",
        "cuisine": "indian",
        "name": "Darshini",
        "name:kn": "ದರ್ಶಿನಿ",
        "wheelchair": "no"
      }
    },
    {
      "type": "node",
      "id": 1796670301,
      "lat": 12.9402637,
      "lon": 77.5577692,
      "tags": {
        "amenity": "atm",
        "brand": "HDFC Bank",
        "brand:wikidata": "Q631047",
        "fee": "no",
        "name": "HDFC Bank",
        "operator": "HDFC Bank",
        "operator:wikidata": "Q631047",
        "short_name": "HDFC"
      }
    },
    {
      "type": "node",
      "id": 1801375379,
      "lat": 12.9469992,
      "lon": 77.5641506,
      "tags": {
        "amenity": "bank",
        "atm": "yes",
        "brand": "Syndicate Bank",
        "brand:wikidata": "Q2004088",
        "name": "Syndicate Bank",
        "name:en": "Syndicate Bank",
        "name:kn": "ಸಿಂಡಿಕೇಟ್ ಬ್ಯಾಂಕ್",
        "website": "https://www.syndicatebank.in"
      }
    },
    {
      "type": "node",
      "id": 1802684091,
      "lat": 12.9436748,
      "lon": 77.5641934,
      "tags": {
        "amenity": "atm",
        "brand": "Corporation Bank",
        "brand:wikidata": "Q2003387",
        "fee": "no",
        "name": "Corporation Bank",
        "operator": "Corporation Bank",
        "operator:wikidata": "Q2003387"
      }
    },
    {
      "type": "node",
      "id": 1990628296,
      "lat": 12.9472021,
      "lon": 77.5714429,
      "tags": {
        "name": "Mahila",
        "name:kn": "ಮಹಿಳಾ",
        "shop": "jewelry",
        "wheelchair": "no"
      }
    },
    {
      "type": "node",
      "id": 3118754073,
      "lat": 12.9416718,
      "lon": 77.5605078,
      "tags": {
        "amenity": "fast_food",
        "cuisine": "indian",
        "name": "Shiva's Chats"
      }
    },
    {
      "type": "node",
      "id": 3455381019,
      "lat": 12.9454151,
      "lon": 77.5709801,
      "tags": {
        "addr:city": "Bangalore",
        "addr:street": "Gandhi Bazaar Main Road",
        "amenity": "fast_food",
        "cuisine": "regional",
        "name": "Ice Thunder"
      }
    },
    {
      "type": "node",
      "id": 4130960789,
      "lat": 12.9551248,
      "lon": 77.566492,
      "tags": {
        "amenity": "atm"
      }
    },
    {
      "type": "node",
      "id": 4246843765,
      "lat": 12.9392188,
      "lon": 77.5600997,
      "tags": {
        "amenity": "cafe",
        "cuisine": "ice_cream",
        "name": "Prasad Icecream Parlour"
      }
    },
    {
      "type": "node",
      "id": 4342399492,
      "lat": 12.9511087,
      "lon": 77.5697771,
      "tags": {
        "amenity": "clinic",
        "check_date": "2023-09-09",
        "description": "10 security cameras",
        "name": "Srinivasa Ultrasound Scan Centre"
      }
    },
    {
      "type": "node",
      "id": 4349316995,
      "lat": 12.9455735,
      "lon": 77.5712921,
      "tags": {
        "amenity": "pharmacy",
        "healthcare": "pharmacy",
        "name": "Pavitra Medicals"
      }
    },
    {
      "type": "node",
      "id": 4349316996,
      "lat": 12.9453567,
      "lon": 77.5710944,
      "tags": {
        "name": "Seema Art Jewellery",
        "shop": "jewelry"
      }
    },
    {
      "type": "node",
      "id": 4349317396,
      "lat": 12.9453667,
      "lon": 77.5709983,
      "tags": {
        "amenity": "restaurant",
        "name": "Timepass Dinner"
      }
    },
    {
      "type": "node",
      "id": 4443345110,
      "lat": 12.9435256,
      "lon": 77.5655166,
      "tags": {
        "addr:city": "Bangalore",
        "addr:housenumber": "3",
        "addr:postcode": "560004",
        "addr:street": "Bull Temple Road, 5th Main Road",
        "amenity": "restaurant",
        "delivery": "yes",
        "name": "Halli Thindi",
        "opening_hours": "07:00-22:00",
        "phone": "080 2661 9777",
        "smoking": "no"
      }
    },
    {
      "type": "node",
      "id": 4443365241,
      "lat": 12.9462613,
      "lon": 77.5703662,
      "tags": {
        "addr:city": "Bangalore",
        "addr:housenumber": "112",
        "addr:postcode": "560004",
        "addr:street": "Gandhi Bazar Main Road, Basavanagudi",
        "amenity": "restaurant",
        "cuisine": "regional",
        "delivery": "yes",
        "diet:vegetarian": "only",
        "name": "Baisakhi Vegetarian Restaurant",
        "opening_hours": "Mo-Su 12:30-16:00, 19:00-23:00",
        "phone": "+91 80 6533 9999",
        "smoking": "no",
        "takeaway": "yes"
      }
    },
    {
      "type": "node",
      "id": 4443397448,
      "lat": 12.9446256,
      "lon": 77.569918,
      "tags": {
        "addr:city": "Bangalore",
        "addr:housenumber": "8",
        "addr:postcode": "560004",
        "addr:street": "Behind BMS College of Engineering",
        "amenity": "restaurant",
        "cuisine": "regional",
        "delivery": "yes",
        "name": "Szechuan Dragon Chinese Restaurant",
        "opening_hours": "12-16, 7-23",
        "phone": "096635 67711",
        "smoking": "no"
      }
    },
    {
      "type": "node",
      "id": 4444989840,
      "lat": 12.9390944,
      "lon": 77.5619057,
      "tags": {
        "addr:city": "bangalore",
        "addr:housenumber": "11/2",
        "addr:postcode": "560079",
        "addr:street": "Magadi Main Road",
        "amenity": "hospital",
        "name": "Sarvodaya Hospital",
        "name:kn": "ಸರ್ವೋದಯ ಆಸ್ಪತ್ರೆ",
        "phone": "098440 74946"
      }
    },
    {
      "type": "node",
      "id": 4445233886,
      "lat": 12.9473154,
      "lon": 77.5690141,
      "tags": {
        "addr:city": "Bangalore",
        "addr:housenumber": "93",
        "addr:postcode": "560004",
        "addr:street": "Gandhi Bazaar Main Rd, Gandhi Bazaar, Basavanagudi",
        "amenity": "restaurant",
        "cuisine": "regional",
        "delivery": "yes",
        "name": "Hotel New Atithya",
        "opening_hours": "07:00:30-15:30, 17:00-23:30",
        "phone": "080 2650 8150",
        "smoking": "no",
        "takeaway": "yes"
      }
    },
    {
      "type": "node",
      "id": 4445269296,
      "lat": 12.9483651,
      "lon": 77.5685364,
      "tags": {
        "addr:city": "Bangalore",
        "addr:postcode": "560004",
        "addr:street": "Vanivilas Rd, Basavanagudi",
        "amenity": "restaurant",
        "cuisine": "regional",
        "delivery": "yes",
        "name": "SLV Corner",
        "opening_hours": "08:00-22:30",
        "phone": "080 2660 9671",
        "smoking": "no",
        "takeaway": "yes"
      }
    },
    {
      "type": "node",
      "id": 4445303925,
      "lat": 12.9470578,
      "lon": 77.5714933,
      "tags": {
        "addr:city": "Bangalore",
        "addr:postcode": "560004",
        "addr:street": "DVG Road, Gandhi Bazaar, Basavanagudi",
        "amenity": "restaurant",
        "cuisine": "regional",
        "delivery": "yes",
        "name": "Maha Lakshmi Tiffin Room",
        "opening_hours": "Mo-Tu 06:30-11:30,14:30-20:00; Th-Su 06:30-11:30,14:30-20:00",
        "phone": "080 2290 6305",
        "smoking": "no"
      }
    },
    {
      "type": "node",
      "id": 4445337724,
      "lat": 12.947133,
      "lon": 77.5694107,
      "tags": {
        "addr:city": "Bengaluru",
        "addr:housenumber": "95",
        "addr:postcode": "560004",
        "addr:street": "Gandhi Bazaar, Basavanagudi",
        "amenity": "cafe",
        "brand": "Cafe Coffee Day",
        "brand:wikidata": "Q5017235",
        "cuisine": "coffee_shop",
        "delivery": "yes",
        "name": "Cafe Coffee Day",
        "name:kn": "ಕಫೆ ಕಾಫಿ ಡೇ",
        "opening_hours": "11:00-23:00",
        "phone": "080 3256 9590",
        "smoking": "no",
        "takeaway": "yes",
        "website": "https://www.cafecoffeeday.com/"
      }
    },
    {
      "type": "node",
      "id": 4445678275,
      "lat": 12.9391651,
      "lon": 77.5637852,
      "tags": {
        "addr:city": "Bangalore",
        "addr:postcode": "560004",
        "addr:street": "3rd Cross Rd, Basavanagudi",
        "amenity": "restaurant",
        "cuisine": "regional",
        "delivery": "yes",
        "name": "Rolls Corner",
        "smoking": "no",
        "takeaway": "yes"
      }
    },
    {
      "type": "node",
      "id": 4446411830,
      "lat": 12.9416198,
      "lon": 77.5573584,
      "tags": {
        "addr:city": "Banashankari,Bangalore",
        "addr:housenumber": "544/14",
        "addr:postcode": "560050",
        "addr:street": "Hanumantha Nagar Main Road / 50 Feet Road",
        "amenity": "restaurant",
        "cuisine": "regional",
        "name": "New Sri Banashankari Donne Biriyani Corner",
        "opening_hours": "12:30-16:00,19:00-22:00",
        "phone": "+91 99455 50255",
        "takeaway": "yes"
      }
    },
    {
      "type": "node",
      "id": 4446439565,
      "lat": 12.9415734,
      "lon": 77.5578002,
      "tags": {
        "addr:city": "Banashankari,Bangalore",
        "addr:postcode": "560050",
        "addr:street": "10th Main Road,",
        "amenity": "restaurant",
        "cuisine": "fast_food",
        "name": "Coffee Bytes",
        "opening_hours": "07:00-12:00,16:00-20:30",
        "phone": "+91 88846 80081",
        "takeaway": "yes"
      }
    },
    {
      "type": "node",
      "id": 4446899253,
      "lat": 12.9408667,
      "lon": 77.5603657,
      "tags": {
        "addr:city": "bangalore",
        "addr:district": "Bengaluru Urban",
        "addr:full": "#795/1, 9Th Main ,Bsk 1st, Stage,2nd Block,Hanumantha Nagar",
        "addr:housenumber": "795/1",
        "addr:postcode": "560050",
        "addr:state": "Karnataka",
        "addr:street": "9th Main, 2nd Block, Hanumantha Nagar, Near-Shaneshwara Temple Road, Banashankari 1st Stage",
        "amenity": "hospital",
        "name": "Medi-Tech Multi Speciality Hospital",
        "phone": "080 2660 2910",
        "source": "OpenGovernmentData"
      }
    },
    {
      "type": "node",
      "id": 4446983586,
      "lat": 12.94167,
      "lon": 77.5564774,
      "tags": {
        "addr:city": "Banashankari,Bangalore",
        "addr:housenumber": "Subhashree Complex",
        "addr:postcode": "560050",
        "addr:street": "Hanumantha Nagar Main Road / 50 Feet Road",
        "amenity": "restaurant",
        "cuisine": "indian",
        "name": "Matru Sagar",
        "opening_hours": "07:00-22:00",
        "phone": "+91 7411860439",
        "takeaway": "yes"
      }
    },
    {
      "type": "node",
      "id": 4447090061,
      "lat": 12.9458476,
      "lon": 77.5710517,
      "tags": {
        "addr:city": "Bangalore",
        "addr:housenumber": "32",
        "addr:postcode": "560004",
        "addr:street": "Gandhi Bazaar Main Rd, Gandhi Bazaar, Basavanagudi",
        "amenity": "restaurant",
        "cuisine": "regional",
        "name": "Udupi Sri Krishna Bhavan",
        "opening_hours": "07:30-20:30"
      }
    },
    {
      "type": "node",
      "id": 4447120631,
      "lat": 12.9401607,
      "lon": 77.5643716,
      "tags": {
        "addr:city": "Bangalore",
        "addr:housenumber": "8",
        "addr:postcode": "560004",
        "addr:street": "Second Floor, 1st Main, Arush Trapeze, Mount Joy Road, Behind BMS College of Engineering",
        "amenity": "restaurant",
        "cuisine": "regional",
        "name": "Szechuan Dragon Chinese Restaurant",
        "opening_hours": "12-16:00, 19:00-23:00",
        "phone": "096635 67711",
        "smoking": "no",
        "takeaway": "yes"
      }
    },
    {
      "type": "node",
      "id": 4487985719,
      "lat": 12.9417055,
      "lon": 77.5560577,
      "tags": {
        "addr:city": "Banashankari,Bangalore",
        "addr:housenumber": "173/A",
        "addr:postcode": "560050",
        "addr:street": "Hanumantha Nagar Main Road / 50 Feet Road",
        "name": "Yemkay Supermarket",
        "phone": "(91)-80-33518340",
        "shop": "supermarket"
      }
    },
    {
      "type": "node",
      "id": 4488134472,
      "lat": 12.948401,
      "lon": 77.5712754,
      "tags": {
        "addr:city": "Bangalore",
        "addr:housenumber": "No. 11",
        "addr:postcode": "560004",
        "addr:street": "Vanivilas Road, Near Flyover, Basavanagudi",
        "name": "Sports 'N' Style",
        "opening_hours": "12:00-21:00",
        "phone": "080 2667 2227",
        "shop": "sports"
      }
    },
    {
      "type": "node",
      "id": 4488404862,
      "lat": 12.9402812,
      "lon": 77.5643832,
      "tags": {
        "addr:city": "Bangalore",
        "addr:housenumber": "No.38/A",
        "addr:postcode": "560004",
        "addr:street": "3rd Main Road",
        "name": "My Style Family Beauty Parlour Saloon Spa",
        "opening_hours": "10:00-19:00",
        "phone": "097400 07553",
        "shop": "beauty"
      }
    },
    {
      "type": "node",
      "id": 4489754262,
      "lat": 12.9472875,
      "lon": 77.568009,
      "tags": {
        "addr:full": "2nd Floor, Bull Temple Road, Ramakrishna Ashram Circle, Basavanagudi, Gandhi Bazaar, Basavanagudi, Karnataka",
        "addr:housenumber": "15",
        "addr:postcode": "560004",
        "leisure": "fitness_centre",
        "level": "2",
        "name": "Snap Fitness",
        "opening_hours": "00:00-24:00",
        "phone": "099000 03939",
        "website": "snapfitnessindia.com"
      }
    },
    {
      "type": "node",
      "id": 4489849370,
      "lat": 12.9428729,
      "lon": 77.5653972,
      "tags": {
        "addr:city": "Bangalore",
        "addr:postcode": "560019",
        "addr:street": "Mount Joy Road, Hanumanth Nagar, Gavipuram Extn, Basavanagudi, Bengalur",
        "name": "Karthik Cycle Store",
        "phone": "099805 02929",
        "shop": "sports"
      }
    },
    {
      "type": "node",
      "id": 4574896792,
      "lat": 12.9487443,
      "lon": 77.5668387,
      "tags": {
        "amenity": "place_of_worship",
        "name": "Sri Ramakrishna Temple",
        "name:en": "Sri Ramakrishna Temple",
        "opening_hours": "Mo-Su 05:00-12:00, 16:00-20:30"
      }
    },
    {
      "type": "node",
      "id": 4621578591,
      "lat": 12.9469892,
      "lon": 77.5690135,
      "tags": {
        "name": "Band Box",
        "name:en": "Band Box",
        "shop": "laundry"
      }
    },
    {
      "type": "node",
      "id": 4703397593,
      "lat": 12.9473628,
      "lon": 77.5668805,
      "tags": {
        "amenity": "atm",
        "brand": "Axis Bank",
        "brand:wikidata": "Q2003549",
        "name": "Axis Bank",
        "operator": "Axis Bank",
        "operator:wikidata": "Q2003549"
      }
    },
    {
      "type": "node",
      "id": 4703397594,
      "lat": 12.9459968,
      "lon": 77.5670655,
      "tags": {
        "addr:postcode": "560019",
        "addr:street": "Shyamaraja Iyengar Road",
        "amenity": "fast_food",
        "cuisine": "indian",
        "diet:vegetarian": "yes",
        "name": "Balaji Chat Corner",
        "name:en": "Balaji Chat Corner",
        "name:hi": "बालाजी चाट कार्नर",
        "opening_hours": "Mo-Su 10:00-22:00"
      }
    },
    {
      "type": "node",
      "id": 4703448590,
      "lat": 12.9449149,
      "lon": 77.5677557,
      "tags": {
        "name": "3M Car Care",
        "name:en": "3M Car Care",
        "shop": "car_parts"
      }
    },
    {
      "type": "node",
      "id": 4703448591,
      "lat": 12.9466546,
      "lon": 77.567626,
      "tags": {
        "addr:postcode": "560019",
        "addr:street": "Bull Temple Road",
        "amenity": "bank",
        "brand": "IndusInd Bank",
        "brand:wikidata": "Q2040323",
        "brand:wikipedia": "en:IndusInd Bank",
        "name": "IndusInd Bank",
        "name:en": "IndusInd Bank",
        "website": "https://www.indusind.com"
      }
    },
    {
      "type": "node",
      "id": 4703462689,
      "lat": 12.9472484,
      "lon": 77.5669962,
      "tags": {
        "amenity": "kindergarten",
        "name": "Growing Wonders Gavipuram",
        "name:en": "Growing Wonders Gavipuram",
        "name:hi": "ग्रोइंग वंडर्स"
      }
    },
    {
      "type": "node",
      "id": 4763212765,
      "lat": 12.9435344,
      "lon": 77.5654837,
      "tags": {
        "amenity": "atm",
        "brand": "Kotak Mahindra Bank",
        "brand:wikidata": "Q2040404",
        "name": "Kotak Mahindra Bank",
        "name:kn": "ಕೋಟಕ್ ಮಹಿಂದ್ರ ಬ್ಯಾಂಕ್",
        "operator": "Kotak Mahindra Bank",
        "operator:wikidata": "Q2040404"
      }
    },
    {
      "type": "node",
      "id": 4763212865,
      "lat": 12.9434351,
      "lon": 77.5655011,
      "tags": {
        "shop": "stationery"
      }
    },
    {
      "type": "node",
      "id": 5234779662,
      "lat": 12.9417109,
      "lon": 77.5562111,
      "tags": {
        "name": "Medplus",
        "name:kn": "ಮೆಡ್‍ಪ್ಲಸ್",
        "shop": "medical_supply"
      }
    },
    {
      "type": "node",
      "id": 5234799278,
      "lat": 12.9416358,
      "lon": 77.562546,
      "tags": {
        "description": "Amaron Batteries",
        "name": "Tara Automobiles",
        "shop": "car_parts"
      }
    },
    {
      "type": "node",
      "id": 5246614722,
      "lat": 12.9467131,
      "lon": 77.5692249,
      "tags": {
        "addr:housenumber": "65",
        "amenity": "pharmacy",
        "healthcare": "pharmacy",
        "name": "Ayurvedic Pharmacy",
        "name:kn": "ಆಯುರ್ವೇದ ಔಷದಾಲಯ",
        "name:ru": "Аюрведические препараты"
      }
    },
    {
      "type": "node",
      "id": 5305832614,
      "lat": 12.9480414,
      "lon": 77.5689161,
      "tags": {
        "alt_name": "Kentucky Fried Chicken",
        "alt_name:en": "Kentucky Fried Chicken",
        "alt_name:hi": "केंटुकी फ्राइड चिकन",
        "alt_name:pa": "ਕੈਂਟੁਕੀ ਫ੍ਰਾਈਡ ਚਿਕਨ",
        "alt_name:pnb": "کینٹکی فرائیڈ چکن",
        "alt_name:ur": "کینٹکی فرائیڈ چکن",
        "amenity": "fast_food",
        "brand": "KFC",
        "brand:en": "KFC",
        "brand:hi": "केएफसी",
        "brand:pa": "ਕੇਐਫਸੀ",
        "brand:pnb": "کے ایف سی",
        "brand:ur": "کے ایف سی",
        "brand:wikidata": "Q524757",
        "brand:wikipedia": "en:KFC",
        "brand:wikipedia:pa": "ਕੇਐਫਸੀ",
        "brand:wikipedia:ur": "کینٹکی فرائیڈ چکن",
        "cuisine": "chicken",
        "name": "KFC",
        "name:en": "KFC",
        "name:hi": "केएफसी",
        "name:pa": "ਕੇਐਫਸੀ",
        "name:pnb": "کے ایف سی",
        "name:ur": "کے ایف سی",
        "takeaway": "yes"
      }
    },
    {
      "type": "node",
      "id": 5306017405,
      "lat": 12.9480048,
      "lon": 77.5699568,
      "tags": {
        "amenity": "ice_cream",
        "brand": "Baskin-Robbins",
        "brand:wikidata": "Q584601",
        "cuisine": "ice_cream",
        "name": "Baskin-Robbins",
        "name:kn": "ಬಸ್ಕಿನ್ ರಾಬಿನ್ಸ್"
      }
    },
    {
      "type": "node",
      "id": 5306017406,
      "lat": 12.9480153,
      "lon": 77.5696644,
      "tags": {
        "name": "Girias",
        "shop": "electronics"
      }
    },
    {
      "type": "node",
      "id": 5306017407,
      "lat": 12.9434982,
      "lon": 77.5658798,
      "tags": {
        "brand": "HOPCOMS",
        "brand:wikidata": "Q22908959",
        "name": "HOPCOMS",
        "name:kn": "ಹಾಪ್ ಕಾಮ್ಸ್",
        "shop": "greengrocer"
      }
    },
    {
      "type": "node",
      "id": 5306017408,
      "lat": 12.9435035,
      "lon": 77.5657752,
      "tags": {
        "amenity": "toilets"
      }
    },
    {
      "type": "node",
      "id": 5306017409,
      "lat": 12.9435244,
      "lon": 77.5656706,
      "tags": {
        "amenity": "post_office"
      }
    },
    {
      "type": "node",
      "id": 5306017410,
      "lat": 12.9437583,
      "lon": 77.5665638,
      "tags": {
        "amenity": "restaurant",
        "name": "Dakshin Kitchen"
      }
    },
    {
      "type": "node",
      "id": 5306017411,
      "lat": 12.9437988,
      "lon": 77.5665812,
      "tags": {
        "amenity": "restaurant",
        "name": "Chinese Kitchen"
      }
    },
    {
      "type": "node",
      "id": 5530812454,
      "lat": 12.9397956,
      "lon": 77.5631777,
      "tags": {
        "shop": "supermarket"
      }
    },
    {
      "type": "node",
      "id": 6938775854,
      "lat": 12.9406698,
      "lon": 77.5644596,
      "tags": {
        "addr:district": "Bengaluru Urban",
        "addr:full": "No.10/4 & 10/5, 3Road Main Road, Hanumanthanagar",
        "addr:postcode": "560019",
        "addr:state": "Karnataka",
        "amenity": "hospital",
        "name": "Vishwabharathi Hospital Pvt. Ltd",
        "source": "OpenGovernmentData"
      }
    },
    {
      "type": "node",
      "id": 6938775855,
      "lat": 12.9404548,
      "lon": 77.5578493,
      "tags": {
        "addr:district": "Bengaluru Urban",
        "addr:full": "No 519/34, 2nd Cross 10Th Main, Bsk 1st Stage Banashankari",
        "addr:postcode": "560050",
        "addr:state": "Karnataka",
        "amenity": "hospital",
        "name": "Sunetra Eye Hospital, Bengaluru Urban",
        "source": "OpenGovernmentData"
      }
    },
    {
      "type": "node",
      "id": 6938988878,
      "lat": 12.9566544,
      "lon": 77.5635275,
      "tags": {
        "addr:district": "Bengaluru Urban",
        "addr:full": "No.9, 6Th Cross, 5Th Main, Chamarapet",
        "addr:postcode": "560018",
        "addr:state": "Karnataka",
        "amenity": "clinic",
        "name": "Amar Nursing Home",
        "source": "OpenGovernmentData"
      }
    },
    {
      "type": "node",
      "id": 6939200255,
      "lat": 12.9450536,
      "lon": 77.5586486,
      "tags": {
        "addr:district": "Bengaluru Urban",
        "addr:full": "1077, 14Th Main Road, Hanumanthnagar",
        "addr:postcode": "560019",
        "addr:state": "Karnataka",
        "amenity": "clinic",
        "name": "Kamala Nursing Home, Bengaluru Urban",
        "source": "OpenGovernmentData"
      }
    },
    {
      "type": "node",
      "id": 6939319393,
      "lat": 12.9548208,
      "lon": 77.5672585,
      "tags": {
        "addr:district": "Bengaluru Urban",
        "addr:full": "127/1, Bull Temple Road",
        "addr:postcode": "560019",
        "addr:state": "Karnataka",
        "amenity": "hospital",
        "name": "Kalasa Maternity Home",
        "source": "OpenGovernmentData"
      }
    },
    {
      "type": "node",
      "id": 6944234456,
      "lat": 12.9443766,
      "lon": 77.5551899,
      "tags": {
        "addr:district": "Bengaluru Urban",
        "addr:full": "No. 855/856, Ramanjaneya Main Road, Near Bus Stand Sreenagar",
        "addr:postcode": "560050",
        "addr:state": "Karnataka",
        "amenity": "clinic",
        "name": "Sreenagar Nursing Home",
        "source": "OpenGovernmentData"
      }
    },
    {
      "type": "node",
      "id": 6944256037,
      "lat": 12.9514854,
      "lon": 77.5703564,
      "tags": {
        "addr:city": "Bangaluru",
        "addr:district": "Bengaluru Urban",
        "addr:full": "No. 16, 3Road Cross, Shankarpuram",
        "addr:housenumber": "16",
        "addr:postcode": "560004",
        "addr:state": "Karnataka",
        "addr:street": "3rd Cross Road",
        "amenity": "hospital",
        "emergency": "yes",
        "healthcare": "hospital",
        "healthcare:speciality": "general",
        "name": "Popular Hospital",
        "operator": "Dr Lingham Murali",
        "operator:type": "private",
        "source": "local knowledge"
      }
    },
    {
      "type": "node",
      "id": 6944269353,
      "lat": 12.9526505,
      "lon": 77.5548633,
      "tags": {
        "addr:district": "Bengaluru Urban",
        "addr:full": "Kempegoudanagara, Near Police Station, South",
        "addr:postcode": "560018",
        "addr:state": "Karnataka",
        "amenity": "hospital",
        "name": "Gavipuramguttahalli Maternity Home",
        "source": "OpenGovernmentData"
      }
    },
    {
      "type": "node",
      "id": 6947701108,
      "lat": 12.9421036,
      "lon": 77.5584649,
      "tags": {
        "addr:district": "Bengaluru Urban",
        "addr:full": "26, 13Th `A` Main, 50 Feet Road, (Near A.P.S.R.T.C. Booking Counter) Hanumanthanagar",
        "addr:postcode": "560019",
        "addr:state": "Karnataka",
        "amenity": "clinic",
        "name": "Vignesha Ayurvedic Clinic",
        "source": "OpenGovernmentData"
      }
    },
    {
      "type": "node",
      "id": 6948244430,
      "lat": 12.9456627,
      "lon": 77.570339,
      "tags": {
        "addr:district": "Bengaluru Urban",
        "addr:full": "N0:55, Gandhi Bazaar, Facing E.A.T Street",
        "addr:postcode": "560004",
        "addr:state": "Karnataka",
        "amenity": "clinic",
        "name": "Sham Singh Nursing Home",
        "source": "OpenGovernmentData"
      }
    },
    {
      "type": "node",
      "id": 6948627241,
      "lat": 12.9403953,
      "lon": 77.558544,
      "tags": {
        "addr:district": "Bengaluru Urban",
        "addr:full": "# 513, 8Th Main, 2nd Cross, Dsk 1st Stage, 2nd Block",
        "addr:postcode": "560050",
        "addr:state": "Karnataka",
        "amenity": "clinic",
        "name": "Varna Nursing Home",
        "source": "OpenGovernmentData"
      }
    },
    {
      "type": "node",
      "id": 7016691457,
      "lat": 12.9415972,
      "lon": 77.5643731,
      "tags": {
        "amenity": "atm",
        "brand": "Canara Bank",
        "brand:en": "Canara Bank",
        "brand:hi": "केनरा बैंक",
        "brand:kn": "ಕೆನರಾ ಬ್ಯಾಂಕ್",
        "brand:pa": "ਕੇਨਰਾ ਬੈਂਕ",
        "brand:pnb": "کینرا بینک",
        "brand:ur": "کینرا بینک",
        "brand:wikidata": "Q2003777",
        "cash_in": "no",
        "drive_through": "no",
        "name": "Canara Bank",
        "name:en": "Canara Bank",
        "name:hi": "केनरा बैंक",
        "name:kn": "ಕೆನರಾ ಬ್ಯಾಂಕ್",
        "name:pa": "ਕੇਨਰਾ ਬੈਂਕ",
        "name:pnb": "کینرا بینک",
        "name:ur": "کینرا بینک",
        "operator": "Canara Bank",
        "operator:wikidata": "Q2003777"
      }
    },
    {
      "type": "node",
      "id": 7044834775,
      "lat": 12.9422487,
      "lon": 77.568503,
      "tags": {
        "leisure": "fitness_station"
      }
    },
    {
      "type": "node",
      "id": 7281512285,
      "lat": 12.9417567,
      "lon": 77.5687277,
      "tags": {
        "amenity": "place_of_worship",
        "name": "Bull Temple",
        "religion": "hindu"
      }
    },
    {
      "type": "node",
      "id": 7576958022,
      "lat": 12.9432518,
      "lon": 77.5560648,
      "tags": {
        "addr:district": "Bengaluru Urban",
        "addr:full": "Dasarhalli, Banashankari, Bengaluru",
        "addr:state": "Karnataka",
        "amenity": "doctors",
        "name": "Dr. Srivatsa",
        "source": "Local Knowledge"
      }
    },
    {
      "type": "node",
      "id": 7576958023,
      "lat": 12.953833,
      "lon": 77.565184,
      "tags": {
        "addr:district": "Bengaluru Urban",
        "addr:full": "Kempegowda Nagar, Bengaluru",
        "addr:state": "Karnataka",
        "amenity": "doctors",
        "name": "Dr. Madhuri",
        "source": "Local Knowledge"
      }
    },
    {
      "type": "node",
      "id": 7576958027,
      "lat": 12.9492921,
      "lon": 77.5674536,
      "tags": {
        "addr:district": "Bengaluru Urban",
        "addr:full": "Bull Temple Road, NR Colony, Bengaluru",
        "addr:postcode": "560019",
        "addr:state": "Karnataka",
        "amenity": "doctors",
        "name": "Dr. Hema Sampath",
        "source": "Local Knowledge"
      }
    },
    {
      "type": "node",
      "id": 7576958034,
      "lat": 12.9454948,
      "lon": 77.5704845,
      "tags": {
        "addr:district": "Bengaluru Urban",
        "addr:full": "BKS Iyengar Road, Gandhi Bazaar, Basavanagudi, Bengaluru",
        "addr:state": "Karnataka",
        "amenity": "clinic",
        "name": "Vaidya shaam singh memorial nursing home",
        "source": "Local Knowledge"
      }
    },
    {
      "type": "node",
      "id": 7576958038,
      "lat": 12.9531087,
      "lon": 77.5646023,
      "tags": {
        "addr:district": "Bengaluru Urban",
        "addr:full": "KG Nagar Main Road, Kempegowda Nagar, Bengaluru",
        "addr:state": "Karnataka",
        "amenity": "clinic",
        "name": "Ashraya Clinic",
        "source": "Local Knowledge"
      }
    },
    {
      "type": "node",
      "id": 7576958039,
      "lat": 12.9417439,
      "lon": 77.5601782,
      "tags": {
        "addr:district": "Bengaluru Urban",
        "addr:full": "50 Feet Road, Basavanagadi, Banashankari, Bengaluru",
        "addr:postcode": "560019",
        "addr:state": "Karnataka",
        "amenity": "hospital",
        "name": "Sumanjara Hospital",
        "source": "Local Knowledge"
      }
    },
    {
      "type": "node",
      "id": 7576958040,
      "lat": 12.9440703,
      "lon": 77.5545986,
      "tags": {
        "addr:district": "Bengaluru Urban",
        "addr:full": "Dasarhalli, Banashankari, Bengaluru",
        "addr:state": "Karnataka",
        "amenity": "dentist",
        "name": "S J Dental Square",
        "source": "Local Knowledge"
      }
    },
    {
      "type": "node",
      "id": 7576958045,
      "lat": 12.945591,
      "lon": 77.5712865,
      "tags": {
        "addr:district": "Bengaluru Urban",
        "addr:full": "DVG Road, Gandhi Bazaar, Basavanagudi, Bengaluru",
        "addr:postcode": "560004",
        "addr:state": "Karnataka",
        "amenity": "hospital",
        "name": "Mitralaya Hospital",
        "source": "Local Knowledge"
      }
    },
    {
      "type": "node",
      "id": 7576958060,
      "lat": 12.940404,
      "lon": 77.5580361,
      "tags": {
        "addr:district": "Bengaluru Urban",
        "addr:full": "SBM Colony, Banashankari, Bengaluru",
        "addr:postcode": "560050",
        "addr:state": "Karnataka",
        "amenity": "hospital",
        "name": "Verna Hospital",
        "source": "Local Knowledge"
      }
    },
    {
      "type": "node",
      "id": 7576958065,
      "lat": 12.945944,
      "lon": 77.567404,
      "tags": {
        "addr:district": "Bengaluru Urban",
        "addr:full": "Bull Temple Road, Hanumanthnagar, Bengaluru",
        "addr:postcode": "560019",
        "addr:state": "Karnataka",
        "amenity": "hospital",
        "name": "Shekhar Hospital",
        "source": "Local Knowledge"
      }
    },
    {
      "type": "node",
      "id": 7576958066,
      "lat": 12.949104,
      "lon": 77.563226,
      "tags": {
        "addr:district": "Bengaluru Urban",
        "addr:full": "RK Mutt Layout, Kempegowda Nagar, Bengaluru",
        "addr:state": "Karnataka",
        "amenity": "hospital",
        "name": "Government Hospital",
        "name:kn": "ಸರ್ಕಾರಿ ಆಸ್ಪತ್ರೆ",
        "source": "Local Knowledge"
      }
    },
    {
      "type": "node",
      "id": 7576958068,
      "lat": 12.9415883,
      "lon": 77.5641917,
      "tags": {
        "addr:district": "Bengaluru Urban",
        "addr:full": "Hanumanthnagar, Banashankari, Bengaluru",
        "addr:postcode": "560019",
        "addr:state": "Karnataka",
        "amenity": "hospital",
        "name": "Jeevini Sarvodaya Hospital",
        "source": "Local Knowledge"
      }
    },
    {
      "type": "node",
      "id": 7576958069,
      "lat": 12.9450794,
      "lon": 77.5680498,
      "tags": {
        "addr:district": "Bengaluru Urban",
        "addr:full": "Gandhi Bazaar, Basavanagudi, Bengaluru",
        "addr:state": "Karnataka",
        "amenity": "clinic",
        "healthcare": "clinic",
        "name": "ENT Care Centre",
        "source": "Local Knowledge"
      }
    },
    {
      "type": "node",
      "id": 7576958072,
      "lat": 12.944704,
      "lon": 77.56797,
      "tags": {
        "addr:district": "Bengaluru Urban",
        "addr:full": "Gandhi Bazaar, Basavanagudi, Bengaluru",
        "addr:postcode": "560004",
        "addr:state": "Karnataka",
        "amenity": "clinic",
        "healthcare": "clinic",
        "name": "Kshema Childrens Surgical Clinic",
        "source": "Local Knowledge"
      }
    },
    {
      "type": "node",
      "id": 7576958073,
      "lat": 12.94256,
      "lon": 77.561875,
      "tags": {
        "addr:district": "Bengaluru Urban",
        "addr:full": "Banashankari, Bengaluru",
        "addr:postcode": "560019",
        "addr:state": "Karnataka",
        "amenity": "clinic",
        "name": "Raghu Homeopathy",
        "source": "Local Knowledge"
      }
    },
    {
      "type": "node",
      "id": 7576958077,
      "lat": 12.9464444,
      "lon": 77.5712393,
      "tags": {
        "addr:district": "Bengaluru Urban",
        "addr:full": "Govindappa Road, Gandhi Bazaar, Basavanagudi, Bengaluru",
        "addr:postcode": "560004",
        "addr:state": "Karnataka",
        "amenity": "clinic",
        "healthcare": "clinic",
        "name": "Sree Homeopathic Clinic",
        "name:kn": "ಶ್ರೀ ಹೊಮಿಯೋಪತಿ ಕ್ಲಿನಿಕ್",
        "source": "Local Knowledge"
      }
    },
    {
      "type": "node",
      "id": 7576958080,
      "lat": 12.948971,
      "lon": 77.563543,
      "tags": {
        "addr:district": "Bengaluru Urban",
        "addr:full": "RK Mutt Layout, Gavipura, Kempegowda Nagar, Bengaluru",
        "addr:state": "Karnataka",
        "amenity": "hospital",
        "name": "Parameshwari Hospital",
        "source": "Local Knowledge"
      }
    },
    {
      "type": "node",
      "id": 7576958082,
      "lat": 12.9491186,
      "lon": 77.5679051,
      "tags": {
        "addr:district": "Bengaluru Urban",
        "addr:full": "Shankarapura, Bengaluru",
        "addr:postcode": "560004",
        "addr:state": "Karnataka",
        "amenity": "doctors",
        "name": "Dr. S. Vinitha",
        "source": "Local Knowledge"
      }
    },
    {
      "type": "node",
      "id": 7576958101,
      "lat": 12.9471425,
      "lon": 77.5692626,
      "tags": {
        "addr:district": "Bengaluru Urban",
        "addr:full": "Gandhi Bazaar Main Road, Basavanagudi, Bengaluru",
        "addr:postcode": "560004",
        "addr:state": "Karnataka",
        "amenity": "clinic",
        "name": "Skin, Allergy, Cosmetology & Hair Clinic",
        "source": "Local Knowledge"
      }
    },
    {
      "type": "node",
      "id": 7576958104,
      "lat": 12.9516862,
      "lon": 77.5665921,
      "tags": {
        "addr:district": "Bengaluru Urban",
        "addr:full": "Kempegowda Nagar, Bengaluru",
        "addr:state": "Karnataka",
        "amenity": "clinic",
        "name": "Saraswathi Maternity Centre",
        "source": "Local Knowledge"
      }
    },
    {
      "type": "node",
      "id": 7576958109,
      "lat": 12.9416358,
      "lon": 77.5629853,
      "tags": {
        "addr:district": "Bengaluru Urban",
        "addr:full": "Mount Joy Extension, Hanumanthnagar, Banashankari, Bengaluru",
        "addr:postcode": "560019",
        "addr:state": "Karnataka",
        "amenity": "clinic",
        "name": "Vijaya Nethralaya",
        "source": "Local Knowledge"
      }
    },
    {
      "type": "node",
      "id": 7576958113,
      "lat": 12.9554046,
      "lon": 77.5639228,
      "tags": {
        "addr:district": "Bengaluru Urban",
        "addr:full": "Chamrajpet, Bengaluru",
        "addr:state": "Karnataka",
        "amenity": "clinic",
        "name": "Tejas Clinic",
        "source": "Local Knowledge"
      }
    },
    {
      "type": "node",
      "id": 7576958117,
      "lat": 12.9479647,
      "lon": 77.5696395,
      "tags": {
        "addr:district": "Bengaluru Urban",
        "addr:full": "Vanivilas Road, Gandhi Bazaar, Basavanagudi, Bengaluru",
        "addr:postcode": "560004",
        "addr:state": "Karnataka",
        "amenity": "hospital",
        "name": "Swastik Eye Hospital",
        "source": "Local Knowledge"
      }
    },
    {
      "type": "node",
      "id": 7924794099,
      "lat": 12.9512403,
      "lon": 77.5687733,
      "tags": {
        "amenity": "bank",
        "atm": "yes",
        "brand": "State Bank of India",
        "brand:wikidata": "Q1340361",
        "name": "State Bank of India",
        "name:kn": "ಎಸ್ ಬಿ ಐ",
        "short_name": "SBI"
      }
    },
    {
      "type": "node",
      "id": 9134314453,
      "lat": 12.9398699,
      "lon": 77.5624828,
      "tags": {
        "amenity": "place_of_worship",
        "name": "Kumaraswami temple"
      }
    },
    {
      "type": "node",
      "id": 9709504788,
      "lat": 12.9447987,
      "lon": 77.5701606,
      "tags": {
        "shop": "coffee"
      }
    },
    {
      "type": "node",
      "id": 9709504793,
      "lat": 12.9437492,
      "lon": 77.5704168,
      "tags": {
        "name": "KC Das",
        "shop": "confectionery"
      }
    },
    {
      "type": "node",
      "id": 9723871257,
      "lat": 12.9458071,
      "lon": 77.5711182,
      "tags": {
        "branch": "National college",
        "brand": "Kanli Sweets",
        "shop": "bakery"
      }
    },
    {
      "type": "node",
      "id": 11178064784,
      "lat": 12.9517112,
      "lon": 77.569955,
      "tags": {
        "amenity": "post_box",
        "operator": "India Post",
        "operator:wikidata": "Q3519720"
      }
    },
    {
      "type": "node",
      "id": 11178076767,
      "lat": 12.9512861,
      "lon": 77.5653468,
      "tags": {
        "amenity": "prep_school",
        "check_date": "2023-09-09",
        "description": "Runs Abacus Classes",
        "name": "Vandhya Academy",
        "office": "educational_institution",
        "phone": "+91 63605 17839"
      }
    },
    {
      "type": "node",
      "id": 11178079804,
      "lat": 12.9540237,
      "lon": 77.5674382,
      "tags": {
        "check_date": "2023-09-09",
        "name": "Corporation Store",
        "payment:cards": "no",
        "payment:cash": "yes",
        "payment:credit_cards": "no",
        "payment:debit_cards": "no",
        "payment:upi": "yes",
        "shop": "convenience"
      }
    },
    {
      "type": "node",
      "id": 11178097118,
      "lat": 12.9513033,
      "lon": 77.5651998,
      "tags": {
        "check_date": "2023-09-09",
        "name": "Arun Ladies Wear House",
        "shop": "clothes"
      }
    },
    {
      "type": "node",
      "id": 11178097988,
      "lat": 12.9540074,
      "lon": 77.5673748,
      "tags": {
        "check_date": "2023-09-09",
        "name": "Arun Enterprises",
        "name:en": "Arun Enterprises",
        "shop": "convenience"
      }
    },
    {
      "type": "node",
      "id": 11178098253,
      "lat": 12.9523331,
      "lon": 77.5678264,
      "tags": {
        "amenity": "kindergarten",
        "check_date": "2023-09-09",
        "description": "A raw yel pre-school for life",
        "internet_access": "no",
        "name": "Child's Kingdom",
        "name:en": "Child's Kingdom",
        "wheelchair": "yes"
      }
    },
    {
      "type": "node",
      "id": 11178103762,
      "lat": 12.9511489,
      "lon": 77.5652571,
      "tags": {
        "amenity": "fast_food",
        "check_date": "2023-09-09",
        "cuisine": "indian",
        "name": "Tiffin Services"
      }
    },
    {
      "type": "node",
      "id": 11178105552,
      "lat": 12.9512128,
      "lon": 77.565545,
      "tags": {
        "check_date": "2023-09-09",
        "description": "Hair salon",
        "name": "Mayura Men's Saloon",
        "shop": "beauty",
        "wheelchair": "no"
      }
    },
    {
      "type": "node",
      "id": 11178107442,
      "lat": 12.9506784,
      "lon": 77.5673607,
      "tags": {
        "amenity": "bench",
        "backrest": "yes",
        "colour": "green",
        "seats": "4"
      }
    },
    {
      "type": "node",
      "id": 11178107443,
      "lat": 12.9513399,
      "lon": 77.564975,
      "tags": {
        "check_date": "2023-09-09",
        "name": "Nyaya Bele Angadi BLS-55",
        "opening_hours": "Mo,We-Su 07:00-12:00,17:00-21:00",
        "operator": "government",
        "operator:type": "public",
        "shop": "convenience"
      }
    },
    {
      "type": "node",
      "id": 11178108195,
      "lat": 12.9479187,
      "lon": 77.5702354,
      "tags": {
        "check_date": "2022-11-04",
        "name": "Golden Touch Gents",
        "payment:mastercard": "yes",
        "payment:visa": "yes",
        "shop": "beauty",
        "wheelchair": "yes"
      }
    },
    {
      "type": "node",
      "id": 11178116148,
      "lat": 12.9515979,
      "lon": 77.569014,
      "tags": {
        "check_date": "2023-09-09",
        "leisure": "fitness_centre",
        "name": "Yoga Niketan"
      }
    },
    {
      "type": "node",
      "id": 11178116150,
      "lat": 12.9487921,
      "lon": 77.569055,
      "tags": {
        "check_date": "2023-09-09",
        "name": "Food Life",
        "shop": "department_store"
      }
    },
    {
      "type": "node",
      "id": 11178120771,
      "lat": 12.953865,
      "lon": 77.5686754,
      "tags": {
        "check_date": "2023-09-09",
        "name": "SLN Enterprises",
        "shop": "beverages"
      }
    },
    {
      "type": "node",
      "id": 11178120773,
      "lat": 12.9536706,
      "lon": 77.5687703,
      "tags": {
        "check_date": "2023-09-09",
        "description": "Only butter/ghee/paneer/oil",
        "name": "PVKR & CO",
        "shop": "convenience",
        "website": "https://pvkrdairy.com"
      }
    },
    {
      "type": "node",
      "id": 11178120903,
      "lat": 12.9479601,
      "lon": 77.5688993,
      "tags": {
        "check_date": "2023-09-09",
        "leisure": "fitness_centre",
        "name": "Shield's Fitness Club"
      }
    },
    {
      "type": "node",
      "id": 11178123506,
      "lat": 12.9541209,
      "lon": 77.5686792,
      "tags": {
        "amenity": "library",
        "check_date": "2023-09-09",
        "name": "Shankara Rotary Children's Library"
      }
    },
    {
      "type": "node",
      "id": 11178123920,
      "lat": 12.9516968,
      "lon": 77.5673971,
      "tags": {
        "amenity": "atm",
        "check_date": "2023-09-09"
      }
    },
    {
      "type": "node",
      "id": 11178124991,
      "lat": 12.9511825,
      "lon": 77.5650588,
      "tags": {
        "check_date": "2023-09-09",
        "name": "Ambemaa Enterprises",
        "name:en": "Ambemaa Enterprises",
        "phone": "+91 99167 32626",
        "shop": "hardware"
      }
    },
    {
      "type": "node",
      "id": 11178129283,
      "lat": 12.9520229,
      "lon": 77.5677542,
      "tags": {
        "check_date": "2023-09-09",
        "description": "The complete shop for new born upto 14 years old kids and moms",
        "name": "The Kids Window",
        "name:en": "The Kids Window",
        "shop": "toys",
        "wheelchair": "no"
      }
    },
    {
      "type": "node",
      "id": 11178134961,
      "lat": 12.9484774,
      "lon": 77.5705547,
      "tags": {
        "amenity": "place_of_worship",
        "check_date": "2023-09-09",
        "name": "Sri Adi Basavanna Temple",
        "religion": "hindu"
      }
    },
    {
      "type": "node",
      "id": 11178135455,
      "lat": 12.9489174,
      "lon": 77.5701202,
      "tags": {
        "amenity": "place_of_worship",
        "check_date": "2025-11-19",
        "internet_access": "no",
        "name": "Sri Channakeshwara Temple",
        "religion": "hindu",
        "wheelchair": "no"
      }
    },
    {
      "type": "node",
      "id": 11178139428,
      "lat": 12.9480728,
      "lon": 77.5702389,
      "tags": {
        "beauty": "nails",
        "check_date": "2023-09-09",
        "name": "Dream Family Saloon",
        "shop": "beauty"
      }
    },
    {
      "type": "node",
      "id": 11178139576,
      "lat": 12.9527119,
      "lon": 77.5695634,
      "tags": {
        "amenity": "dentist",
        "check_date": "2023-09-09",
        "healthcare": "dentist",
        "name": "Dr. Trivikran's All smiles",
        "opening_hours": "Mo-Sa 09:30-13:30,16:00-19:30"
      }
    },
    {
      "type": "node",
      "id": 11178139577,
      "lat": 12.9525434,
      "lon": 77.569727,
      "tags": {
        "amenity": "clinic",
        "check_date": "2023-09-09",
        "email": "rayarakirana@gmail.com",
        "healthcare": "physiotherapist",
        "name": "Rayara Kirana",
        "opening_hours": "08:30-20:30,12:30-16:30",
        "phone": "+91 99727 77111",
        "website": "https://rayarakirana.com",
        "wheelchair": "no"
      }
    },
    {
      "type": "node",
      "id": 11178140371,
      "lat": 12.9506675,
      "lon": 77.5698047,
      "tags": {
        "amenity": "studio",
        "check_date": "2023-09-09",
        "name": "M&M Interiors Studio",
        "shop": "interior_decoration"
      }
    },
    {
      "type": "node",
      "id": 11178141192,
      "lat": 12.9480492,
      "lon": 77.5697053,
      "tags": {
        "alt_name": "Haldiram",
        "amenity": "fast_food",
        "brand": "Haldiram's",
        "brand:wikidata": "Q17054442",
        "check_date": "2023-09-09",
        "cuisine": "indian",
        "internet_access": "wlan",
        "internet_access:fee": "no",
        "name": "Haldiram's",
        "shop": "bakery",
        "takeaway": "yes"
      }
    },
    {
      "type": "node",
      "id": 11178141772,
      "lat": 12.9479636,
      "lon": 77.5682196,
      "tags": {
        "brand": "HOPCOMS",
        "brand:wikidata": "Q22908959",
        "check_date": "2023-09-09",
        "internet_access": "wlan",
        "internet_access:fee": "customers",
        "name": "HOPCOMS",
        "shop": "greengrocer",
        "wheelchair": "no"
      }
    },
    {
      "type": "node",
      "id": 11178142881,
      "lat": 12.9514209,
      "lon": 77.5698323,
      "tags": {
        "check_date": "2023-09-09",
        "name": "Akshaya",
        "shop": "supermarket"
      }
    },
    {
      "type": "node",
      "id": 11178142882,
      "lat": 12.9512098,
      "lon": 77.5697613,
      "tags": {
        "check_date": "2023-09-09",
        "leisure": "fitness_centre",
        "level": "0",
        "name": "Deshwal.fit"
      }
    },
    {
      "type": "node",
      "id": 11178142883,
      "lat": 12.9512118,
      "lon": 77.5696962,
      "tags": {
        "amenity": "doctors",
        "check_date": "2023-09-09",
        "healthcare": "doctor",
        "healthcare:speciality": "dermatology",
        "level": "1",
        "name": "Ara Skin Clinic",
        "shop": "beauty"
      }
    },
    {
      "type": "node",
      "id": 11178142885,
      "lat": 12.9508621,
      "lon": 77.5697917,
      "tags": {
        "check_date": "2023-09-09",
        "name": "NS Provision Store",
        "shop": "department_store"
      }
    },
    {
      "type": "node",
      "id": 11178142889,
      "lat": 12.9492629,
      "lon": 77.569886,
      "tags": {
        "check_date": "2023-09-09",
        "leisure": "fitness_centre",
        "name": "Russh Fitness",
        "phone": "08041456611"
      }
    },
    {
      "type": "node",
      "id": 11178144028,
      "lat": 12.9496068,
      "lon": 77.5702581,
      "tags": {
        "amenity": "bank",
        "atm": "no",
        "brand": "Axis Bank",
        "brand:wikidata": "Q2003549",
        "check_date": "2023-09-09",
        "drive_through": "no",
        "name": "Axis Bank Cards & Merchant Acquiring"
      }
    },
    {
      "type": "node",
      "id": 11178144316,
      "lat": 12.9510711,
      "lon": 77.5654133,
      "tags": {
        "check_date": "2023-09-09",
        "internet_access": "no",
        "name": "Rainbow Electricals and Engineers",
        "phone": "+91 98450 71783",
        "shop": "electrical",
        "wheelchair": "no"
      }
    },
    {
      "type": "node",
      "id": 11178144317,
      "lat": 12.9511675,
      "lon": 77.5650797,
      "tags": {
        "check_date": "2023-09-09",
        "name": "Bhartiya Jan Aushadhi Kendra",
        "shop": "chemist",
        "wheelchair": "yes"
      }
    },
    {
      "type": "node",
      "id": 11178144322,
      "lat": 12.9510335,
      "lon": 77.5689853,
      "tags": {
        "check_date": "2023-09-09",
        "leisure": "fitness_centre",
        "name": "Yoganiketan",
        "opening_hours": "Mo-Fr 06:00-19:00",
        "phone": "+91 98865 01736",
        "sport": "yoga"
      }
    },
    {
      "type": "node",
      "id": 11178146175,
      "lat": 12.9510913,
      "lon": 77.5677782,
      "tags": {
        "amenity": "bank",
        "atm": "yes",
        "brand": "IDFC First Bank",
        "brand:wikidata": "Q22031467",
        "check_date": "2023-09-09",
        "description": "Basavanagudi Branch",
        "name": "IDFC First Bank",
        "name:en": "IDFC First Bank",
        "wheelchair": "yes"
      }
    },
    {
      "type": "node",
      "id": 11178148407,
      "lat": 12.9493359,
      "lon": 77.5691446,
      "tags": {
        "check_date": "2023-09-09",
        "shop": "car_repair"
      }
    },
    {
      "type": "node",
      "id": 11178151445,
      "lat": 12.9508576,
      "lon": 77.5701506,
      "tags": {
        "alt_name": "Kido",
        "amenity": "kindergarten",
        "brand": "Kïdo",
        "brand:wikidata": "Q104849185",
        "check_date": "2023-09-09",
        "fee": "yes",
        "isced:level": "0",
        "name": "Kidzee Basavanagudi",
        "nursery": "yes",
        "official_name": "Kïdo International Preschool",
        "phone": "+91 99729 36816",
        "preschool": "yes"
      }
    },
    {
      "type": "node",
      "id": 11178151885,
      "lat": 12.9499182,
      "lon": 77.5674473,
      "tags": {
        "check_date": "2023-09-09",
        "internet_access": "wlan",
        "internet_access:fee": "customers",
        "name": "Louis Phillippe",
        "payment:mastercard": "yes",
        "payment:visa": "yes",
        "shop": "clothes",
        "wheelchair": "no"
      }
    },
    {
      "type": "node",
      "id": 11178151886,
      "lat": 12.9498029,
      "lon": 77.567445,
      "tags": {
        "check_date": "2023-09-09",
        "clothes": "men;women",
        "internet_access": "wlan",
        "internet_access:fee": "customers",
        "name": "Allen Solly",
        "shop": "clothes",
        "wheelchair": "no"
      }
    },
    {
      "type": "node",
      "id": 11178154957,
      "lat": 12.9522093,
      "lon": 77.5677528,
      "tags": {
        "check_date": "2023-09-09",
        "description": "The sound specialist",
        "name": "Rajdeep Electronics",
        "name:en": "Rajdeep Electronics",
        "payment:mastercard": "yes",
        "payment:visa": "yes",
        "shop": "electronics"
      }
    },
    {
      "type": "node",
      "id": 11178156321,
      "lat": 12.9509619,
      "lon": 77.5674465,
      "tags": {
        "check_date": "2023-09-09",
        "internet_access": "wlan",
        "internet_access:fee": "customers",
        "name": "Anurag Motors",
        "opening_hours": "Mo-Sa 08:30-20:00",
        "payment:mastercard": "yes",
        "payment:visa": "yes",
        "shop": "motorcycle"
      }
    },
    {
      "type": "node",
      "id": 11178157715,
      "lat": 12.9489147,
      "lon": 77.5678819,
      "tags": {
        "check_date": "2023-09-09",
        "name": "Spin Unisex Salon",
        "opening_hours": "08:30-20:30",
        "shop": "beauty"
      }
    },
    {
      "type": "node",
      "id": 11178159731,
      "lat": 12.9512957,
      "lon": 77.5698327,
      "tags": {
        "check_date": "2023-09-09",
        "name": "Akshaya The Rice Pot",
        "opening_hours": "10:00-14:00,16:30-20:30",
        "shop": "department_store"
      }
    },
    {
      "type": "node",
      "id": 11178159873,
      "lat": 12.9535152,
      "lon": 77.5689213,
      "tags": {
        "check_date": "2023-09-09",
        "name": "PVK & CO",
        "opening_hours": "Mo-Sa 10:00-20:00; Su 10:00-01:00",
        "shop": "dairy"
      }
    },
    {
      "type": "node",
      "id": 11178164611,
      "lat": 12.948035,
      "lon": 77.570008,
      "tags": {
        "check_date": "2025-11-19",
        "check_date:opening_hours": "2025-11-19",
        "name": "James Bond Dry Cleaners",
        "opening_hours": "Mo-Su 08:00-23:00",
        "shop": "dry_cleaning"
      }
    },
    {
      "type": "node",
      "id": 11178176260,
      "lat": 12.9525075,
      "lon": 77.5673681,
      "tags": {
        "amenity": "events_venue",
        "check_date": "2023-09-09",
        "name": "Sai Shubh Convention Center",
        "name:en": "Sai Shubh Convention Center",
        "wheelchair": "yes"
      }
    },
    {
      "type": "node",
      "id": 11178179805,
      "lat": 12.9523691,
      "lon": 77.5697301,
      "tags": {
        "check_date": "2023-09-09",
        "name": "Mangalaa Seeds",
        "shop": "agrarian"
      }
    },
    {
      "type": "node",
      "id": 11178186948,
      "lat": 12.9540062,
      "lon": 77.5673571,
      "tags": {
        "brand": "HOPCOMS",
        "brand:wikidata": "Q22908959",
        "check_date": "2023-09-09",
        "internet_access": "no",
        "name": "HOPCOMS",
        "name:en": "HOPCOMS",
        "operator": "HOPCOMS",
        "shop": "greengrocer",
        "wheelchair": "no"
      }
    },
    {
      "type": "node",
      "id": 11178643871,
      "lat": 12.9477594,
      "lon": 77.5684245,
      "tags": {
        "name": "Optic Eye Sunwear",
        "shop": "optician"
      }
    },
    {
      "type": "node",
      "id": 11178643872,
      "lat": 12.9473044,
      "lon": 77.5683693,
      "tags": {
        "name": "Titan Eye+",
        "shop": "optician"
      }
    },
    {
      "type": "node",
      "id": 11178643885,
      "lat": 12.9464283,
      "lon": 77.5695149,
      "tags": {
        "amenity": "bank",
        "name": "The National Co-operative Bank"
      }
    },
    {
      "type": "node",
      "id": 11201313858,
      "lat": 12.9425184,
      "lon": 77.5674319,
      "tags": {
        "amenity": "place_of_worship",
        "check_date": "2023-09-19",
        "name": "Venkateshwara Swamy Temple",
        "religion": "hindu"
      }
    },
    {
      "type": "node",
      "id": 11215379266,
      "lat": 12.9450542,
      "lon": 77.5679702,
      "tags": {
        "amenity": "music_school",
        "check_date": "2023-09-24",
        "name": "RB Academy",
        "phone": "+91 70222 33334"
      }
    },
    {
      "type": "node",
      "id": 11215379267,
      "lat": 12.9448759,
      "lon": 77.5680072,
      "tags": {
        "amenity": "bank",
        "brand": "Indian Overseas Bank",
        "brand:wikidata": "Q2003611",
        "check_date": "2023-09-24",
        "name": "Indian Overseas Bank"
      }
    },
    {
      "type": "node",
      "id": 11215379268,
      "lat": 12.9440476,
      "lon": 77.5680376,
      "tags": {
        "check_date": "2023-09-24",
        "name": "Desire Naturals",
        "shop": "confectionery"
      }
    },
    {
      "type": "node",
      "id": 11215814226,
      "lat": 12.9444805,
      "lon": 77.5680289,
      "tags": {
        "name": "Cake Yard",
        "shop": "bakery"
      }
    },
    {
      "type": "node",
      "id": 11215814229,
      "lat": 12.9445203,
      "lon": 77.5680128,
      "tags": {
        "name": "Sri Sai Flowers",
        "shop": "florist"
      }
    },
    {
      "type": "node",
      "id": 11215814230,
      "lat": 12.9445615,
      "lon": 77.5680082,
      "tags": {
        "amenity": "fast_food",
        "cuisine": "juice",
        "name": "Oye Lassi"
      }
    },
    {
      "type": "node",
      "id": 11215814231,
      "lat": 12.944634,
      "lon": 77.5680511,
      "tags": {
        "amenity": "restaurant",
        "cuisine": "south_indian",
        "name": "Iyengars Inn"
      }
    },
    {
      "type": "node",
      "id": 11215839940,
      "lat": 12.944719,
      "lon": 77.5680591,
      "tags": {
        "amenity": "fast_food",
        "brand": "Subway",
        "brand:wikidata": "Q244457",
        "cuisine": "sandwich",
        "name": "Subway",
        "takeaway": "yes"
      }
    },
    {
      "type": "node",
      "id": 11215840056,
      "lat": 12.9435636,
      "lon": 77.5677399,
      "tags": {
        "check_date": "2025-01-01",
        "name": "Veggo Farms",
        "shop": "dairy"
      }
    },
    {
      "type": "node",
      "id": 11215840059,
      "lat": 12.9433205,
      "lon": 77.5677668,
      "tags": {
        "amenity": "cafe",
        "name": "Juice Junction"
      }
    },
    {
      "type": "node",
      "id": 11215840060,
      "lat": 12.9433499,
      "lon": 77.5677507,
      "tags": {
        "name": "The Charisma Bridal Makeover",
        "shop": "beauty"
      }
    },
    {
      "type": "node",
      "id": 11348912168,
      "lat": 12.945679,
      "lon": 77.5711812,
      "tags": {
        "name": "Cycle World",
        "service:bicycle:repair": "yes",
        "service:bicycle:retail": "yes",
        "shop": "bicycle"
      }
    },
    {
      "type": "node",
      "id": 12060775542,
      "lat": 12.9550804,
      "lon": 77.5655815,
      "tags": {
        "addr:housenumber": "62/1",
        "addr:street": "6th main road",
        "amenity": "cafe",
        "name": "Sri Shakthi Condiments"
      }
    },
    {
      "type": "node",
      "id": 12229433949,
      "lat": 12.9458621,
      "lon": 77.5686701,
      "tags": {
        "addr:housenumber": "50",
        "addr:street": "West Ankjaneya Street",
        "amenity": "fast_food",
        "description": "Local food joint",
        "name": "Cubbonpete Tiffin Rooms"
      }
    },
    {
      "type": "node",
      "id": 12466417387,
      "lat": 12.9550078,
      "lon": 77.5675577,
      "tags": {
        "amenity": "toilets",
        "check_date": "2025-01-01"
      }
    },
    {
      "type": "node",
      "id": 12466417389,
      "lat": 12.9510222,
      "lon": 77.5677852,
      "tags": {
        "amenity": "atm",
        "brand": "IDFC First Bank",
        "brand:wikidata": "Q22031467",
        "check_date": "2025-01-01",
        "operator": "IDFC First Bank",
        "operator:wikidata": "Q22031467"
      }
    },
    {
      "type": "node",
      "id": 12466417390,
      "lat": 12.9489433,
      "lon": 77.5678735,
      "tags": {
        "check_date": "2025-01-01",
        "name": "FirstCry.com",
        "shop": "baby_goods"
      }
    },
    {
      "type": "node",
      "id": 12466442936,
      "lat": 12.9480061,
      "lon": 77.5682219,
      "tags": {
        "brand": "Nandini",
        "brand:wikidata": "Q124374212",
        "check_date": "2025-01-01",
        "name": "Nandini",
        "shop": "dairy"
      }
    },
    {
      "type": "node",
      "id": 12466442937,
      "lat": 12.9463785,
      "lon": 77.5680606,
      "tags": {
        "amenity": "fuel",
        "brand": "Indian Oil",
        "brand:wikidata": "Q1289348",
        "check_date": "2025-01-01",
        "name": "Indian Oil"
      }
    },
    {
      "type": "node",
      "id": 12466442938,
      "lat": 12.9451436,
      "lon": 77.5680133,
      "tags": {
        "amenity": "restaurant",
        "check_date": "2025-01-01",
        "diet:vegetarian": "yes",
        "name": "Vijayalakshmi"
      }
    },
    {
      "type": "node",
      "id": 12466442939,
      "lat": 12.9439818,
      "lon": 77.5680418,
      "tags": {
        "check_date": "2025-01-01",
        "name": "Parshwantha Traders",
        "shop": "rice"
      }
    },
    {
      "type": "node",
      "id": 12466444176,
      "lat": 12.9434263,
      "lon": 77.5677477,
      "tags": {
        "check_date": "2025-01-01",
        "name": "Sreenivasa Brahmins Bakery",
        "shop": "bakery"
      }
    },
    {
      "type": "node",
      "id": 12466444177,
      "lat": 12.9433441,
      "lon": 77.5677341,
      "tags": {
        "check_date": "2025-01-01",
        "name": "Hara Tattooz",
        "shop": "tattoo"
      }
    },
    {
      "type": "node",
      "id": 12944464149,
      "lat": 12.9401894,
      "lon": 77.5656135,
      "tags": {
        "amenity": "fixme",
        "check_date": "2025-06-22",
        "fixme": "type",
        "fixme:type": "auditorium",
        "internet_access": "no",
        "name": "BMS Hostel Auditorium",
        "payment:cards": "no",
        "payment:cash": "yes",
        "payment:credit_cards": "no",
        "payment:debit_cards": "no",
        "wheelchair": "no"
      }
    },
    {
      "type": "node",
      "id": 12944464150,
      "lat": 12.9399801,
      "lon": 77.5654125,
      "tags": {
        "amenity": "fixme",
        "check_date": "2025-06-22",
        "fixme": "type",
        "fixme:type": "hostel mess",
        "name": "BMS Hostel Mess"
      }
    },
    {
      "type": "node",
      "id": 13092386549,
      "lat": 12.9447229,
      "lon": 77.560222,
      "tags": {
        "amenity": "fast_food",
        "check_date": "2025-08-23",
        "cuisine": "regional;indian",
        "diet:vegetarian": "yes",
        "drive_through": "yes",
        "internet_access": "no",
        "name": "Holide mane",
        "payment:cards": "no",
        "payment:cash": "yes",
        "payment:credit_cards": "no",
        "payment:debit_cards": "no",
        "wheelchair": "no"
      }
    },
    {
      "type": "way",
      "id": 55684219,
      "center": {
        "lat": 12.9507937,
        "lon": 77.5548602
      },
      "tags": {
        "leisure": "sports_centre",
        "name": "Rajiv Gandhi Sports Complex",
        "name:etymology:wikidata": "Q4593"
      }
    },
    {
      "type": "way",
      "id": 55684220,
      "center": {
        "lat": 12.951867,
        "lon": 77.5589753
      },
      "tags": {
        "alt_name": "Jinke Park",
        "leisure": "park",
        "name": "Dr Rajkumar Park",
        "name:etymology:wikidata": "Q984634",
        "name:kn": "ರಾಜಕುಮಾರ ಉದ್ಯಾನವನ"
      }
    },
    {
      "type": "way",
      "id": 133116295,
      "center": {
        "lat": 12.9545796,
        "lon": 77.5679194
      },
      "tags": {
        "amenity": "school",
        "name": "Jnanodaya School",
        "name:kn": "ಜ್ಞಾನೋದಯ ಶಾಲೆ",
        "wheelchair": "no"
      }
    },
    {
      "type": "way",
      "id": 133117440,
      "center": {
        "lat": 12.9423054,
        "lon": 77.5666933
      },
      "tags": {
        "amenity": "library",
        "building": "yes",
        "check_date": "2025-06-22",
        "name": "BMS College Of Architecture",
        "name:kn": "ಬಿ ಎಂ ಎಸ್ ವಾಸ್ತುಶಿಲ್ಪ ಕಾಲೇಜು",
        "operator:type": "private"
      }
    },
    {
      "type": "way",
      "id": 162389318,
      "center": {
        "lat": 12.9413073,
        "lon": 77.5664897
      },
      "tags": {
        "access": "customers",
        "amenity": "parking",
        "fee": "no",
        "name": "BMS College Parking",
        "parking": "surface"
      }
    },
    {
      "type": "way",
      "id": 162389319,
      "center": {
        "lat": 12.9411519,
        "lon": 77.5665825
      },
      "tags": {
        "leisure": "park"
      }
    },
    {
      "type": "way",
      "id": 162871259,
      "center": {
        "lat": 12.941891,
        "lon": 77.5665178
      },
      "tags": {
        "leisure": "park"
      }
    },
    {
      "type": "way",
      "id": 172845845,
      "center": {
        "lat": 12.9415239,
        "lon": 77.5659049
      },
      "tags": {
        "amenity": "college",
        "name": "BMS College of Engineering",
        "name:kn": "ಬಿಎಂಎಸ್ ತಾಂತ್ರಿಕ ಮಹಾವಿದ್ಯಾಲಯ",
        "wikidata": "Q4833841",
        "wikimedia_commons": "Category:B. M. Sreenivasaiah College of Engineering",
        "wikipedia": "en:B.M.S. College of Engineering"
      }
    },
    {
      "type": "way",
      "id": 172845875,
      "center": {
        "lat": 12.9402185,
        "lon": 77.5623647
      },
      "tags": {
        "amenity": "place_of_worship",
        "landuse": "religious",
        "religion": "hindu"
      }
    },
    {
      "type": "way",
      "id": 299877333,
      "center": {
        "lat": 12.9421433,
        "lon": 77.5692538
      },
      "tags": {
        "fixme": "borders",
        "leisure": "park",
        "name": "Bugle Rock Park",
        "name:kn": "ಕಹಳೆಬಂಡೆ ಉದ್ಯಾನವನ",
        "wikidata": "Q4986214",
        "wikimedia_commons": "Category:Bugle Rock",
        "wikipedia": "en:Bugle Rock"
      }
    },
    {
      "type": "way",
      "id": 299877334,
      "center": {
        "lat": 12.9418582,
        "lon": 77.5679447
      },
      "tags": {
        "addr:street": "Bull Temple Road",
        "alt_name": "Basava Temple",
        "amenity": "place_of_worship",
        "building": "temple",
        "name": "Shri Doddabasavanna Temple",
        "name:kn": "ಶ್ರೀ ದೊಡ್ಡಬಸವಣ್ಣ ದೇವಸ್ಥಾನ",
        "religion": "hindu"
      }
    },
    {
      "type": "way",
      "id": 299877335,
      "center": {
        "lat": 12.942878,
        "lon": 77.5682145
      },
      "tags": {
        "addr:street": "Bull Temple Road",
        "amenity": "place_of_worship",
        "building": "temple",
        "name": "Dodda Ganesha Temple",
        "name:kn": "ದೊಡ್ಡ ಗಣೇಶ ಗುಡಿ",
        "religion": "hindu",
        "wikipedia": "en:Dodda Basavana Gudi"
      }
    },
    {
      "type": "way",
      "id": 335739977,
      "center": {
        "lat": 12.9399725,
        "lon": 77.5622203
      },
      "tags": {
        "amenity": "place_of_worship",
        "building": "yes",
        "man_made": "reservoir_covered",
        "religion": "hindu"
      }
    },
    {
      "type": "way",
      "id": 345968568,
      "center": {
        "lat": 12.9452329,
        "lon": 77.569263
      },
      "tags": {
        "amenity": "events_venue",
        "building": "yes",
        "name": "Sree Radha Krishna Convention Centre"
      }
    },
    {
      "type": "way",
      "id": 346703040,
      "center": {
        "lat": 12.9447698,
        "lon": 77.5700456
      },
      "tags": {
        "amenity": "events_venue",
        "building": "yes",
        "name": "Sree Bhavani Kalyana Mantapa"
      }
    },
    {
      "type": "way",
      "id": 346703555,
      "center": {
        "lat": 12.9451773,
        "lon": 77.5675211
      },
      "tags": {
        "amenity": "community_centre",
        "building": "yes",
        "building:levels": "3",
        "name": "SBN Hall",
        "name:kn": "ಎಸ್.ಬಿ.ಎನ್ ಕಲ್ಯಾಣ ಮಂಟಪ"
      }
    },
    {
      "type": "way",
      "id": 346744101,
      "center": {
        "lat": 12.9461969,
        "lon": 77.5674238
      },
      "tags": {
        "addr:postcode": "560019",
        "addr:street": "Bull Temple Road",
        "amenity": "community_centre",
        "building": "yes",
        "name": "Ganjam Mantap",
        "wheelchair": "no"
      }
    },
    {
      "type": "way",
      "id": 346822549,
      "center": {
        "lat": 12.9485722,
        "lon": 77.5663428
      },
      "tags": {
        "amenity": "place_of_worship",
        "name": "Swami Vivekananda",
        "name:kn": "ಸ್ವಾಮಿ ವಿವೇಕನಂದ",
        "wheelchair": "no"
      }
    },
    {
      "type": "way",
      "id": 347216082,
      "center": {
        "lat": 12.9483972,
        "lon": 77.5704979
      },
      "tags": {
        "building": "yes",
        "name": "Battery Mark Exide Care",
        "shop": "car_parts"
      }
    },
    {
      "type": "way",
      "id": 347229435,
      "center": {
        "lat": 12.9416356,
        "lon": 77.5619028
      },
      "tags": {
        "building": "yes",
        "name": "Cauvery Furniture",
        "shop": "furniture"
      }
    },
    {
      "type": "way",
      "id": 347437479,
      "center": {
        "lat": 12.9433275,
        "lon": 77.5682752
      },
      "tags": {
        "addr:street": "Bull Temple Road",
        "amenity": "townhall",
        "building": "yes",
        "name": "Sri Dharmasthala Manjunathaswamy Kalyana Mantapa",
        "name:kn": "ಶ್ರೀ ಮಂಜುನಾಥಸ್ವಾಮಿ ಕಲ್ಯಾಣ ಮಂಟಪ"
      }
    },
    {
      "type": "way",
      "id": 347447029,
      "center": {
        "lat": 12.9537466,
        "lon": 77.5673376
      },
      "tags": {
        "amenity": "restaurant",
        "building": "yes",
        "cuisine": "indian;south_indian",
        "diet:vegetarian": "yes",
        "name": "Shanti Sagar",
        "name:kn": "ಶಾಂತಿ ಸಾಗರ್",
        "opening_hours": "08:00-22:00"
      }
    },
    {
      "type": "way",
      "id": 347504826,
      "center": {
        "lat": 12.9479261,
        "lon": 77.5709428
      },
      "tags": {
        "amenity": "clinic",
        "building": "yes",
        "healthcare": "clinic",
        "name": "Amruth Ayurvedic Center",
        "name:kn": "ಅಮೃತ ಆಯುರ್ವೇದ"
      }
    },
    {
      "type": "way",
      "id": 347505016,
      "center": {
        "lat": 12.9479213,
        "lon": 77.5707129
      },
      "tags": {
        "amenity": "school",
        "building": "yes",
        "name": "Magadi Karanikara Vaidika Dharma Pathashala Trust",
        "name:kn": "ಮಾಗಡಿ ಕರಣಿಕರ ವೈಧಿಕ ಧರ್ಮ ಪಾಠಶಾಲೆ"
      }
    },
    {
      "type": "way",
      "id": 349819116,
      "center": {
        "lat": 12.9411519,
        "lon": 77.5605776
      },
      "tags": {
        "amenity": "place_of_worship",
        "building": "yes",
        "name": "Shanimahatma Temple",
        "name:kn": "ಶನಿ ಮಹಾತ್ಮ ದೇವಸ್ಥಾನ",
        "religion": "hindu"
      }
    },
    {
      "type": "way",
      "id": 351163480,
      "center": {
        "lat": 12.9430447,
        "lon": 77.567454
      },
      "tags": {
        "amenity": "events_venue",
        "building": "yes",
        "name": "Sri Nijaguna Kshetra"
      }
    },
    {
      "type": "way",
      "id": 362909552,
      "center": {
        "lat": 12.947441,
        "lon": 77.5634781
      },
      "tags": {
        "leisure": "park",
        "name": "Hanumanth Nagar Park",
        "name:kn": "ಹನುಮಂತನಗರ ಉದ್ಯಾನವನ"
      }
    },
    {
      "type": "way",
      "id": 363138580,
      "center": {
        "lat": 12.9474929,
        "lon": 77.5579107
      },
      "tags": {
        "amenity": "place_of_worship",
        "landuse": "religious",
        "name": "Sri Pralayakalada Veerabhadraswami Gudi",
        "religion": "hindu"
      }
    },
    {
      "type": "way",
      "id": 411052968,
      "center": {
        "lat": 12.9478182,
        "lon": 77.5654024
      },
      "tags": {
        "amenity": "school"
      }
    },
    {
      "type": "way",
      "id": 411052969,
      "center": {
        "lat": 12.9490641,
        "lon": 77.5661149
      },
      "tags": {
        "amenity": "place_of_worship",
        "landuse": "religious",
        "name": "Ramakrishna Math",
        "name:kn": "ರಾಮಕೃಷ್ಣ ಮಠ",
        "religion": "hindu",
        "website": "http://rkmathbangalore.org",
        "wheelchair": "limited"
      }
    },
    {
      "type": "way",
      "id": 411053142,
      "center": {
        "lat": 12.9481786,
        "lon": 77.566217
      },
      "tags": {
        "leisure": "garden"
      }
    },
    {
      "type": "way",
      "id": 411055259,
      "center": {
        "lat": 12.9479212,
        "lon": 77.5678916
      },
      "tags": {
        "barrier": "fence",
        "leisure": "park",
        "operator": "ಬೃಹತ್ ಬೆಂಗಳೂರು ಮಹಾನಗರ ಪಾಲಿಕೆ",
        "operator:en": "Bruhat Bengaluru Mahanagara Palike",
        "operator:ka": "ಬೃಹತ್ ಬೆಂಗಳೂರು ಮಹಾನಗರ ಪಾಲಿಕೆ",
        "operator:short": "BBMP",
        "operator:type": "government",
        "operator:wikidata": "Q4978693"
      }
    },
    {
      "type": "way",
      "id": 411067253,
      "center": {
        "lat": 12.9513805,
        "lon": 77.5670105
      },
      "tags": {
        "barrier": "fence",
        "check_date": "2023-09-09",
        "landuse": "recreation_ground",
        "leisure": "playground",
        "name": "Udayabhanu Public Playground"
      }
    },
    {
      "type": "way",
      "id": 549266174,
      "center": {
        "lat": 12.9480146,
        "lon": 77.5687035
      },
      "tags": {
        "building": "supermarket",
        "name": "KS Puttasiddappa and Sons",
        "shop": "supermarket"
      }
    },
    {
      "type": "way",
      "id": 687319732,
      "center": {
        "lat": 12.9413364,
        "lon": 77.5674679
      },
      "tags": {
        "addr:district": "Bengaluru Urban",
        "addr:full": "618, Sri Mallikarjuna Swamy Temple St, N.R. Colony",
        "addr:postcode": "560019",
        "addr:state": "Karnataka",
        "amenity": "hospital",
        "name": "BMS Hospital",
        "source": "OpenGovernmentData"
      }
    },
    {
      "type": "way",
      "id": 687319737,
      "center": {
        "lat": 12.9400098,
        "lon": 77.5677654
      },
      "tags": {
        "addr:street": "Bull Temple Road",
        "amenity": "school",
        "name": "APS Public School",
        "name:kn": "ಎಪಿಎಸ್ ಪಬ್ಲಿಕ್ ಶಾಲೆ"
      }
    },
    {
      "type": "way",
      "id": 1069013461,
      "center": {
        "lat": 12.9517131,
        "lon": 77.5672859
      },
      "tags": {
        "addr:city": "Bengaluru",
        "addr:housenumber": "109",
        "addr:postcode": "560019",
        "addr:street": "Bull Temple Road",
        "air_conditioning": "yes",
        "amenity": "bank",
        "atm": "yes",
        "brand": "Karnataka Bank",
        "brand:wikidata": "Q2042632",
        "building": "yes",
        "check_date": "2023-09-09",
        "name": "Karnataka Bank",
        "name:kn": "ಕರ್ನಾಟಕ ಬ್ಯಾಂಕ್",
        "opening_hours": "Mo-Sa 10:00-03:30",
        "wheelchair": "yes"
      }
    },
    {
      "type": "way",
      "id": 1069014337,
      "center": {
        "lat": 12.9523167,
        "lon": 77.5669814
      },
      "tags": {
        "addr:city": "Bengaluru",
        "addr:postcode": "560019",
        "addr:street": "Bull Temple Road",
        "brand": "More",
        "brand:wikidata": "Q6910891",
        "building": "yes",
        "check_date": "2022-10-31",
        "name": "More",
        "name:kn": "ಮೋರ್",
        "opening_hours": "Mo-Su 09:00-21:00",
        "shop": "supermarket",
        "wheelchair": "yes"
      }
    },
    {
      "type": "way",
      "id": 1134091914,
      "center": {
        "lat": 12.9399324,
        "lon": 77.5624801
      },
      "tags": {
        "amenity": "place_of_worship",
        "religion": "hindu"
      }
    },
    {
      "type": "way",
      "id": 1203069042,
      "center": {
        "lat": 12.9535295,
        "lon": 77.5570806
      },
      "tags": {
        "amenity": "crematorium",
        "landuse": "crematorium",
        "name": "Chamrajapet Crematorium",
        "name:kn": "ಚಾಮರಾಜಪೇಟೆ ಚಿತಾಗಾರ",
        "note": "10 Cremation Sites, conventional, wood burning, includes burial area.",
        "operator": "BBMP",
        "religion": "hindu"
      }
    },
    {
      "type": "way",
      "id": 1203069046,
      "center": {
        "lat": 12.9447456,
        "lon": 77.5631118
      },
      "tags": {
        "amenity": "place_of_worship",
        "name": "Rama Anjaneya temple",
        "name:kn": "ರಾಮ ಅಂಜನೇಯ ದೇವಸ್ಥಾನ",
        "religion": "hindu",
        "wheelchair": "no"
      }
    },
    {
      "type": "way",
      "id": 1203069048,
      "center": {
        "lat": 12.9454574,
        "lon": 77.5648934
      },
      "tags": {
        "leisure": "park"
      }
    },
    {
      "type": "way",
      "id": 1203069049,
      "center": {
        "lat": 12.9449712,
        "lon": 77.5666634
      },
      "tags": {
        "amenity": "school"
      }
    },
    {
      "type": "way",
      "id": 1203069053,
      "center": {
        "lat": 12.9529923,
        "lon": 77.5620617
      },
      "tags": {
        "amenity": "school"
      }
    },
    {
      "type": "way",
      "id": 1203069061,
      "center": {
        "lat": 12.9501669,
        "lon": 77.5659287
      },
      "tags": {
        "leisure": "park"
      }
    },
    {
      "type": "way",
      "id": 1203069063,
      "center": {
        "lat": 12.9502148,
        "lon": 77.5654296
      },
      "tags": {
        "leisure": "pitch",
        "sport": "tennis"
      }
    },
    {
      "type": "way",
      "id": 1206037819,
      "center": {
        "lat": 12.953579,
        "lon": 77.5672418
      },
      "tags": {
        "amenity": "fuel",
        "brand": "Shell",
        "brand:wikidata": "Q110716465",
        "fuel:diesel": "yes",
        "landuse": "commercial",
        "name": "Shell",
        "name:kn": "ಶೆಲ್",
        "wheelchair": "limited"
      }
    },
    {
      "type": "way",
      "id": 1206697239,
      "center": {
        "lat": 12.9473285,
        "lon": 77.5698824
      },
      "tags": {
        "amenity": "school"
      }
    },
    {
      "type": "way",
      "id": 1210572427,
      "center": {
        "lat": 12.9433231,
        "lon": 77.5674959
      },
      "tags": {
        "amenity": "school",
        "name": "NET School"
      }
    },
    {
      "type": "way",
      "id": 1210572433,
      "center": {
        "lat": 12.9441556,
        "lon": 77.567633
      },
      "tags": {
        "leisure": "park"
      }
    },
    {
      "type": "way",
      "id": 1224937916,
      "center": {
        "lat": 12.9550831,
        "lon": 77.5659679
      },
      "tags": {
        "alt_name": "by 2 coffee",
        "amenity": "cafe",
        "building": "yes",
        "internet_access": "no",
        "name": "by2coffee",
        "takeaway": "yes"
      }
    },
    {
      "type": "way",
      "id": 1290606661,
      "center": {
        "lat": 12.953203,
        "lon": 77.5569578
      },
      "tags": {
        "access": "yes",
        "amenity": "shower",
        "description": "shower area",
        "fee": "no",
        "operator": "BBMP",
        "unisex": "yes",
        "wheelchair": "no"
      }
    },
    {
      "type": "way",
      "id": 1294956169,
      "center": {
        "lat": 12.947928,
        "lon": 77.5694366
      },
      "tags": {
        "amenity": "parking",
        "parking": "surface"
      }
    },
    {
      "type": "way",
      "id": 1307949932,
      "center": {
        "lat": 12.9482335,
        "lon": 77.5630041
      },
      "tags": {
        "alt_name": "Gavi Gangadhareshwara Temple",
        "amenity": "place_of_worship",
        "building": "yes",
        "denomination": "shaivism",
        "heritage": "2",
        "heritage:operator": "nmma",
        "heritage:website": "https://nmma.nic.in/nmma/exploreBuiltState.do?state=29",
        "loc_name": "Sri Gangaadhareshwara",
        "name": "Sri Gavigangadhareshwara Swamy Temple",
        "name:en": "Sri Gavigangadhareshwara Swamy Temple",
        "old_name": "Gavipura Cave Temple",
        "opening_hours": "Mo-Su 07:00-12:30, 17:00-20:30",
        "ref:nmma": "KR20010666",
        "religion": "hindu",
        "wheelchair": "no",
        "wikidata": "Q5528052",
        "wikipedia": "en:Gavi Gangadhareshwara Temple"
      }
    },
    {
      "type": "way",
      "id": 1348696306,
      "center": {
        "lat": 12.9488812,
        "lon": 77.5614482
      },
      "tags": {
        "amenity": "place_of_worship",
        "name": "Shri Jalakanteswara Swamy Devasthana",
        "religion": "hindu"
      }
    },
    {
      "type": "way",
      "id": 1348696385,
      "center": {
        "lat": 12.9506487,
        "lon": 77.5564358
      },
      "tags": {
        "name": "Dhobi Ghat",
        "shop": "laundry"
      }
    }
  ]
}