{
  "area_name": "Geleyara Balaga Layout",
  "osm_id": 12252173604,
  "osm_type": "node",
  "place_type": "neighbourhood",
  "amenity_count": 58,
  "amenities": [
    {
      "type": "node",
      "id": 3838936857,
      "lat": 13.066893,
      "lon": 77.5028392,
      "tags": {
        "amenity": "restaurant"
      }
    },
    {
      "type": "node",
      "id": 3868524121,
      "lat": 13.0714185,
      "lon": 77.5114835,
      "tags": {
        "amenity": "parking",
        "name": "Visitors' parking"
      }
    },
    {
      "type": "node",
      "id": 3868529450,
      "lat": 13.0716637,
      "lon": 77.5112461,
      "tags": {
        "level": "0",
        "shop": "convenience"
      }
    },
    {
      "type": "node",
      "id": 3868529451,
      "lat": 13.0719065,
      "lon": 77.5110496,
      "tags": {
        "level": "0",
        "name": "Rusayil Bakery",
        "shop": "bakery",
        "store": "convenience"
      }
    },
    {
      "type": "node",
      "id": 3868531701,
      "lat": 13.0717613,
      "lon": 77.5115092,
      "tags": {
        "amenity": "bank",
        "atm": "yes",
        "name": "Vijaya Bank extension counter",
        "operator": "Vijaya Bank"
      }
    },
    {
      "type": "node",
      "id": 3868531702,
      "lat": 13.0717099,
      "lon": 77.5115784,
      "tags": {
        "amenity": "atm",
        "brand": "Axis Bank",
        "brand:wikidata": "Q2003549",
        "name": "Axis Bank",
        "name:kn": "ಆಕ್ಸಿಸ್ ಬ್ಯಾಂಕ್",
        "operator": "Axis Bank",
        "operator:wikidata": "Q2003549"
      }
    },
    {
      "type": "node",
      "id": 3868532354,
      "lat": 13.071623,
      "lon": 77.5117792,
      "tags": {
        "amenity": "restaurant",
        "cuisine": "regional",
        "name": "Sri Lakshmi Foods Court"
      }
    },
    {
      "type": "node",
      "id": 3868532355,
      "lat": 13.0714139,
      "lon": 77.5118738,
      "tags": {
        "amenity": "pharmacy",
        "ele": "0",
        "name": "St. Mary's Pharmacy"
      }
    },
    {
      "type": "node",
      "id": 3868532356,
      "lat": 13.0713802,
      "lon": 77.5118447,
      "tags": {
        "amenity": "clinic",
        "level": "0",
        "name": "St. Mary's Clinic"
      }
    },
    {
      "type": "node",
      "id": 3868540434,
      "lat": 13.0740245,
      "lon": 77.5109881,
      "tags": {
        "amenity": "motorcycle_parking"
      }
    },
    {
      "type": "node",
      "id": 3868780765,
      "lat": 13.0712763,
      "lon": 77.5121441,
      "tags": {
        "shop": "convenience"
      }
    },
    {
      "type": "node",
      "id": 4671577171,
      "lat": 13.0710098,
      "lon": 77.5054168,
      "tags": {
        "amenity": "cafe",
        "name": "Daily Bread"
      }
    },
    {
      "type": "node",
      "id": 6808085050,
      "lat": 13.0669831,
      "lon": 77.5011166,
      "tags": {
        "amenity": "place_of_worship",
        "name": "ICRM City Church"
      }
    },
    {
      "type": "node",
      "id": 6809726316,
      "lat": 13.0702566,
      "lon": 77.5039621,
      "tags": {
        "name": "Bharani Medicals",
        "name:kn": "ಭರಣಿ ಮೆಡಿಕಲ್ಸ್",
        "shop": "medical_supply"
      }
    },
    {
      "type": "node",
      "id": 6809765553,
      "lat": 13.0682855,
      "lon": 77.5044244,
      "tags": {
        "amenity": "college",
        "name": "Academic Block Sapthagiri College"
      }
    },
    {
      "type": "node",
      "id": 6893117606,
      "lat": 13.070394,
      "lon": 77.502239,
      "tags": {
        "addr:city": "Bengaluru",
        "addr:district": "BENGALURU URBAN",
        "addr:full": "No. 15, Chikkasandra, Hesaraghatta Main Road",
        "addr:postcode": "560090",
        "addr:state": "Karnataka",
        "amenity": "blood_bank",
        "contact:mobile": "9986500570",
        "contact:phone": "8022791638",
        "name": "Sapthagiri Hospital Blood Bank",
        "opening_hours": "24/7",
        "operator:type": "private",
        "source": "OpenGovernmentData"
      }
    },
    {
      "type": "node",
      "id": 8187926286,
      "lat": 13.07293,
      "lon": 77.50575,
      "tags": {
        "addr:full": "290, Geleyara Balaga Layout, Chikkabanavara, Bengaluru, Karnataka",
        "addr:state": "Karnataka",
        "amenity": "atm",
        "brand": "Axis Bank",
        "brand:wikidata": "Q2003549",
        "name": "Axis Bank",
        "name:kn": "ಆಕ್ಸಿಸ್ ಬ್ಯಾಂಕ್ ಎಟಿಎಂ",
        "operator": "Axis Bank",
        "operator:wikidata": "Q2003549"
      }
    },
    {
      "type": "node",
      "id": 8188038495,
      "lat": 13.0650144,
      "lon": 77.5041964,
      "tags": {
        "addr:full": "Bus Stop, Bus Stop, Bonemill, Hesarghatta Main Rd, Soundarya Layout, Bengaluru, Karnataka",
        "addr:state": "Karnataka",
        "amenity": "hospital",
        "healthcare": "hospital",
        "name": "Kruthika Hospital"
      }
    },
    {
      "type": "node",
      "id": 8276770962,
      "lat": 13.0651157,
      "lon": 77.503928,
      "tags": {
        "addr:city": "bangalore",
        "addr:postcode": "560073",
        "addr:street": "Hesaraghatta Main Road",
        "amenity": "restaurant",
        "diet:vegetarian": "yes",
        "name": "Himadri Veg",
        "name:kn": "ಹಿಮಾದ್ರಿ ವೆಜ್",
        "name:ml": "ഹിമാദ്രി വെജ്",
        "opening_hours": "Mo-Su 07:00-22:45",
        "phone": "+919606669222"
      }
    },
    {
      "type": "node",
      "id": 10763537811,
      "lat": 13.0688885,
      "lon": 77.4994742,
      "tags": {
        "amenity": "place_of_worship",
        "name": "Gowri Siddivinayaka Temple",
        "religion": "hindu"
      }
    },
    {
      "type": "node",
      "id": 12509153047,
      "lat": 13.0650701,
      "lon": 77.5046875,
      "tags": {
        "amenity": "veterinary",
        "name": "Br Pet Animal Clinic And Shop"
      }
    },
    {
      "type": "node",
      "id": 12518055367,
      "lat": 13.0668948,
      "lon": 77.5012273,
      "tags": {
        "addr:city": "Bengaluru",
        "addr:housenumber": "243",
        "addr:postcode": "560073",
        "addr:street": "3rd Main Rd, Kirloskar Layout, Siddeshwar Layout, Soundarya Layout,Sidedahalli",
        "amenity": "clinic",
        "healthcare": "clinic",
        "name": "Da Lives's Clinic"
      }
    },
    {
      "type": "node",
      "id": 12520110470,
      "lat": 13.0635614,
      "lon": 77.5057653,
      "tags": {
        "addr:city": "Bengaluru",
        "addr:housenumber": "No:14/3",
        "addr:postcode": "560073",
        "addr:street": "Arunachalam Building, Near Bonemill Bus Stop, Hosaraghatta Main road, Nagasandra Post",
        "name": "Dhanu Telecom",
        "shop": "mobile_phone"
      }
    },
    {
      "type": "node",
      "id": 12525379125,
      "lat": 13.0633964,
      "lon": 77.5057075,
      "tags": {
        "addr:city": "Bengaluru",
        "addr:postcode": "560073",
        "addr:street": "Hosaraghatta Main road, Nagasandra Post",
        "amenity": "clinic",
        "healthcare": "clinic",
        "name": "Sangeevini Clinic"
      }
    },
    {
      "type": "way",
      "id": 142142415,
      "center": {
        "lat": 13.074814,
        "lon": 77.4992054
      },
      "tags": {
        "amenity": "college",
        "name": "Sri Krishna Institute of Technology"
      }
    },
    {
      "type": "way",
      "id": 383568897,
      "center": {
        "lat": 13.0705644,
        "lon": 77.5089863
      },
      "tags": {
        "leisure": "park"
      }
    },
    {
      "type": "way",
      "id": 383571784,
      "center": {
        "lat": 13.0706823,
        "lon": 77.5101987
      },
      "tags": {
        "amenity": "parking"
      }
    },
    {
      "type": "way",
      "id": 383571792,
      "center": {
        "lat": 13.0715063,
        "lon": 77.5099902
      },
      "tags": {
        "amenity": "school",
        "name": "National Public School Chikkabanavara",
        "name:kn": "ರಾಷ್ಟ್ರೀಯ ಸಾರ್ವಜನಿಕ ಶಾಲೆ"
      }
    },
    {
      "type": "way",
      "id": 383572398,
      "center": {
        "lat": 13.0714452,
        "lon": 77.5122131
      },
      "tags": {
        "amenity": "place_of_worship",
        "building": "yes",
        "name": "Masjid Al Jabbar",
        "name:kn": "ಅಲ್ ಜಬ್ಬರ್ ಮಸೀದಿ",
        "religion": "muslim"
      }
    },
    {
      "type": "way",
      "id": 383573054,
      "center": {
        "lat": 13.073166,
        "lon": 77.510151
      },
      "tags": {
        "amenity": "school",
        "name": "Silver Spring International School"
      }
    },
    {
      "type": "way",
      "id": 383573338,
      "center": {
        "lat": 13.0735071,
        "lon": 77.5108905
      },
      "tags": {
        "amenity": "college",
        "name": "RR College of Pharmacy"
      }
    },
    {
      "type": "way",
      "id": 383573339,
      "center": {
        "lat": 13.0738104,
        "lon": 77.5112564
      },
      "tags": {
        "leisure": "pitch"
      }
    },
    {
      "type": "way",
      "id": 472979273,
      "center": {
        "lat": 13.0705365,
        "lon": 77.508796
      },
      "tags": {
        "leisure": "pitch",
        "name": "Geleyara Balaga Play Ground",
        "name:kn": "ಗೆಲೆಯರ ಬಳಗ"
      }
    },
    {
      "type": "way",
      "id": 472979274,
      "center": {
        "lat": 13.0746727,
        "lon": 77.5048846
      },
      "tags": {
        "leisure": "park",
        "name": "Geleyara Balaga Association Playground"
      }
    },
    {
      "type": "way",
      "id": 711991916,
      "center": {
        "lat": 13.0738908,
        "lon": 77.5049968
      },
      "tags": {
        "building": "yes",
        "shop": "tea"
      }
    },
    {
      "type": "way",
      "id": 726118921,
      "center": {
        "lat": 13.0731507,
        "lon": 77.5028748
      },
      "tags": {
        "amenity": "cafe",
        "brand": "Cafe Coffee Day",
        "brand:wikidata": "Q5017235",
        "brand:wikipedia": "en:Café Coffee Day",
        "building": "yes",
        "cuisine": "coffee_shop",
        "name": "Cafe Coffee Day",
        "name:kn": "ಕಫೆ ಕಾಫಿ ಡೇ",
        "takeaway": "yes"
      }
    },
    {
      "type": "way",
      "id": 726119799,
      "center": {
        "lat": 13.0725243,
        "lon": 77.5035875
      },
      "tags": {
        "addr:district": "Bengaluru Rural",
        "addr:full": "No.3 & 3A, Hesarghatta Main Road,Chikkasandra,Next To Janapriya Apartment,Near Chikkabanavara Railway Station",
        "addr:postcode": "560090",
        "addr:state": "Karnataka",
        "amenity": "hospital",
        "healthcare": "hospital",
        "name": "Nrr Hospital",
        "source": "OpenGovernmentData"
      }
    },
    {
      "type": "way",
      "id": 726121249,
      "center": {
        "lat": 13.0744448,
        "lon": 77.5044367
      },
      "tags": {
        "amenity": "place_of_worship",
        "building": "yes",
        "name": "Ganesh Temple",
        "name:kn": "ಗಣೇಶ ದೇವಸ್ಥಾನ",
        "religion": "hindu"
      }
    },
    {
      "type": "way",
      "id": 726158201,
      "center": {
        "lat": 13.0661209,
        "lon": 77.5040642
      },
      "tags": {
        "amenity": "restaurant",
        "building:part": "yes",
        "diet:vegetarian": "yes",
        "level": "1",
        "name": "Gayathri Grand",
        "opening_hours": "Mo-Su 06:30-22:30"
      }
    },
    {
      "type": "way",
      "id": 726508308,
      "center": {
        "lat": 13.0656133,
        "lon": 77.5043298
      },
      "tags": {
        "amenity": "pub",
        "building": "yes",
        "name": "Anubhav Pub and Bar"
      }
    },
    {
      "type": "way",
      "id": 890520514,
      "center": {
        "lat": 13.0661209,
        "lon": 77.5040642
      },
      "tags": {
        "amenity": "restaurant",
        "building:part": "yes",
        "cuisine": "regional;andhra",
        "diet:non-vegetarian": "yes",
        "diet:vegetarian": "yes",
        "level": "2",
        "name": "Sarangi",
        "name:kn": "ಸಾರಂಗಿ"
      }
    },
    {
      "type": "way",
      "id": 1253120652,
      "center": {
        "lat": 13.0629715,
        "lon": 77.5042486
      },
      "tags": {
        "access": "permissive",
        "leisure": "swimming_pool"
      }
    },
    {
      "type": "way",
      "id": 1253120653,
      "center": {
        "lat": 13.0624539,
        "lon": 77.5038746
      },
      "tags": {
        "leisure": "pitch",
        "sport": "basketball"
      }
    },
    {
      "type": "way",
      "id": 1253120657,
      "center": {
        "lat": 13.0626841,
        "lon": 77.5045082
      },
      "tags": {
        "amenity": "school",
        "name": "Nurture International School"
      }
    },
    {
      "type": "way",
      "id": 1253120662,
      "center": {
        "lat": 13.0661035,
        "lon": 77.5006597
      },
      "tags": {
        "leisure": "park"
      }
    },
    {
      "type": "way",
      "id": 1253120663,
      "center": {
        "lat": 13.0656937,
        "lon": 77.502016
      },
      "tags": {
        "leisure": "park"
      }
    },
    {
      "type": "way",
      "id": 1253120669,
      "center": {
        "lat": 13.0724307,
        "lon": 77.5014759
      },
      "tags": {
        "leisure": "pitch",
        "sport": "tennis"
      }
    },
    {
      "type": "way",
      "id": 1253120670,
      "center": {
        "lat": 13.0723928,
        "lon": 77.501311
      },
      "tags": {
        "leisure": "pitch",
        "sport": "basketball"
      }
    },
    {
      "type": "way",
      "id": 1253120671,
      "center": {
        "lat": 13.0722681,
        "lon": 77.5008732
      },
      "tags": {
        "leisure": "pitch",
        "sport": "soccer"
      }
    },
    {
      "type": "way",
      "id": 1253120672,
      "center": {
        "lat": 13.0727709,
        "lon": 77.5009673
      },
      "tags": {
        "amenity": "college",
        "name": "Sapthagiri Institute of Allied Health Sciences"
      }
    },
    {
      "type": "way",
      "id": 1253120673,
      "center": {
        "lat": 13.073856,
        "lon": 77.5015198
      },
      "tags": {
        "amenity": "school",
        "name": "KMV Red Hills High School"
      }
    },
    {
      "type": "way",
      "id": 1253120676,
      "center": {
        "lat": 13.0740179,
        "lon": 77.500558
      },
      "tags": {
        "amenity": "college",
        "name": "Sapthagiri School of Nursing"
      }
    },
    {
      "type": "way",
      "id": 1253120679,
      "center": {
        "lat": 13.0701164,
        "lon": 77.5028464
      },
      "tags": {
        "access": "permissive",
        "amenity": "parking",
        "parking": "surface"
      }
    },
    {
      "type": "way",
      "id": 1253120680,
      "center": {
        "lat": 13.0714031,
        "lon": 77.5029246
      },
      "tags": {
        "access": "permissive",
        "amenity": "parking",
        "parking": "surface"
      }
    },
    {
      "type": "way",
      "id": 1322942203,
      "center": {
        "lat": 13.068571,
        "lon": 77.5012479
      },
      "tags": {
        "leisure": "park"
      }
    },
    {
      "type": "way",
      "id": 1322942204,
      "center": {
        "lat": 13.0683215,
        "lon": 77.5017878
      },
      "tags": {
        "leisure": "park"
      }
    },
    {
      "type": "way",
      "id": 1324023185,
      "center": {
        "lat": 13.0711017,
        "lon": 77.5099527
      },
      "tags": {
        "leisure": "pitch",
        "sport": "basketball"
      }
    },
    {
      "type": "way",
      "id": 1324023186,
      "center": {
        "lat": 13.0712212,
        "lon": 77.509793
      },
      "tags": {
        "access": "private",
        "leisure": "swimming_pool"
      }
    }
  ]
}