{
  "area_name": "Goripalya",
  "osm_id": 679886682,
  "osm_type": "node",
  "place_type": "neighbourhood",
  "amenity_count": 156,
  "amenities": [
    {
      "type": "node",
      "id": 1107942103,
      "lat": 12.9690223,
      "lon": 77.5433246,
      "tags": {
        "amenity": "place_of_worship",
        "name": "Sri Mariamma Temple",
        "religion": "hindu"
      }
    },
    {
      "type": "node",
      "id": 1107947488,
      "lat": 12.9694039,
      "lon": 77.5436196,
      "tags": {
        "amenity": "place_of_worship",
        "name": "Rama Mandira",
        "name:kn": "ರಾಮ ಮಂದಿರ",
        "religion": "hindu"
      }
    },
    {
      "type": "node",
      "id": 1107984443,
      "lat": 12.9672449,
      "lon": 77.5427653,
      "tags": {
        "amenity": "pharmacy",
        "name": "Vikas Medicals"
      }
    },
    {
      "type": "node",
      "id": 1107986012,
      "lat": 12.9670358,
      "lon": 77.5428833,
      "tags": {
        "amenity": "pharmacy",
        "brand": "MedPlus",
        "brand:wikidata": "Q65684234",
        "healthcare": "pharmacy",
        "name": "MedPlus",
        "name:kn": "ಮೆಡ್‍ಪ್ಲಸ್"
      }
    },
    {
      "type": "node",
      "id": 1107989981,
      "lat": 12.9672919,
      "lon": 77.5426111,
      "tags": {
        "amenity": "fast_food",
        "name": "SLV Fast Food"
      }
    },
    {
      "type": "node",
      "id": 1107995720,
      "lat": 12.9673775,
      "lon": 77.5418993,
      "tags": {
        "name": "Bansuri Sweets",
        "shop": "confectionery"
      }
    },
    {
      "type": "node",
      "id": 1107995725,
      "lat": 12.9672031,
      "lon": 77.541844,
      "tags": {
        "amenity": "fast_food",
        "name": "Paratha Point"
      }
    },
    {
      "type": "node",
      "id": 1107995737,
      "lat": 12.9673021,
      "lon": 77.5421438,
      "tags": {
        "amenity": "cafe",
        "name": "Nature Fresh"
      }
    },
    {
      "type": "node",
      "id": 1107998731,
      "lat": 12.9670358,
      "lon": 77.5433138,
      "tags": {
        "amenity": "place_of_worship",
        "name": "Shakthi Ganapathi Temple",
        "name:kn": "ಶಕ್ತಿ ಗಣಪತಿ",
        "religion": "hindu"
      }
    },
    {
      "type": "node",
      "id": 1107998748,
      "lat": 12.9673129,
      "lon": 77.5417077,
      "tags": {
        "name": "Mamatha Departmental Store",
        "shop": "convenience"
      }
    },
    {
      "type": "node",
      "id": 1108003748,
      "lat": 12.9655564,
      "lon": 77.5417627,
      "tags": {
        "amenity": "school",
        "name": "The New Cambridge High School"
      }
    },
    {
      "type": "node",
      "id": 1108014134,
      "lat": 12.9681189,
      "lon": 77.54325,
      "tags": {
        "amenity": "hospital",
        "emergency": "no",
        "name": "Soujanya Clinic"
      }
    },
    {
      "type": "node",
      "id": 1108040901,
      "lat": 12.967291,
      "lon": 77.5429164,
      "tags": {
        "amenity": "hospital",
        "name": "Kanva Diagnostics Collection Centre"
      }
    },
    {
      "type": "node",
      "id": 1108046797,
      "lat": 12.9671974,
      "lon": 77.5428831,
      "tags": {
        "name": "Vodafone",
        "name:kn": "ವೋಡಫೋನ್",
        "shop": "convenience"
      }
    },
    {
      "type": "node",
      "id": 1108055614,
      "lat": 12.9673076,
      "lon": 77.5425508,
      "tags": {
        "name": "Seetha General Store",
        "shop": "convenience"
      }
    },
    {
      "type": "node",
      "id": 1568753846,
      "lat": 12.9678784,
      "lon": 77.5438967,
      "tags": {
        "brand": "HOPCOMS",
        "brand:wikidata": "Q22908959",
        "name": "HOPCOMS",
        "name:kn": "ಹಾಪ್ ಕಾಮ್ಸ್",
        "shop": "greengrocer"
      }
    },
    {
      "type": "node",
      "id": 1568758585,
      "lat": 12.9672761,
      "lon": 77.5422857,
      "tags": {
        "amenity": "fast_food",
        "name": "Ganga Sagar"
      }
    },
    {
      "type": "node",
      "id": 1568765286,
      "lat": 12.9655182,
      "lon": 77.541311,
      "tags": {
        "amenity": "school",
        "name": "St. Johns High School",
        "wheelchair": "limited"
      }
    },
    {
      "type": "node",
      "id": 2487524459,
      "lat": 12.9669405,
      "lon": 77.5470005,
      "tags": {
        "addr:city": "Bangalore",
        "addr:housename": "Vijayanagar",
        "addr:street": "Hosahalli Main Road",
        "amenity": "fuel",
        "brand": "Total",
        "brand:wikidata": "Q154037",
        "building": "yes",
        "name": "Total Gas"
      }
    },
    {
      "type": "node",
      "id": 2487524460,
      "lat": 12.9664835,
      "lon": 77.5443788,
      "tags": {
        "addr:city": "Bangalore",
        "addr:housename": "Vijayanagar",
        "addr:postcode": "560040",
        "addr:street": "Pipeline Road",
        "name": "Panchamukhi Motors, Bajar Service Station",
        "shop": "motorcycle"
      }
    },
    {
      "type": "node",
      "id": 2487524461,
      "lat": 12.9673086,
      "lon": 77.5461504,
      "tags": {
        "addr:city": "Bangalore",
        "addr:housename": "Vijayanagar",
        "addr:postcode": "560040",
        "addr:street": "Hosahalli Main Road",
        "amenity": "fuel",
        "brand": "Indian Oil",
        "brand:wikidata": "Q1289348",
        "brand:wikipedia": "en:Indian Oil Corporation",
        "building": "yes",
        "name": "Indian Oil",
        "name:kn": "ಇಂಡಿಯನ್ ಆಯಿಲ್"
      }
    },
    {
      "type": "node",
      "id": 2487524462,
      "lat": 12.9639929,
      "lon": 77.5511866,
      "tags": {
        "addr:city": "Bangalore",
        "addr:housename": "Gori Palya",
        "addr:street": "Hosahalli Main Road",
        "amenity": "place_of_worship",
        "name": "Kodandaswami Temple",
        "name:kn": "ಕೋದಂಡಸ್ವಾಮಿ ದೇವಸ್ಥಾನ",
        "religion": "hindu"
      }
    },
    {
      "type": "node",
      "id": 2487524463,
      "lat": 12.9641353,
      "lon": 77.5513024,
      "tags": {
        "addr:city": "Bangalore",
        "addr:housename": "Goripalya",
        "addr:street": "Hosahalli Main Road",
        "amenity": "place_of_worship",
        "name": "Anjaneya Swami Temple",
        "name:kn": "ಆಂಜನೇಯ ಸ್ವಾಮಿ ದೇವಸ್ಥಾನ",
        "religion": "hindu"
      }
    },
    {
      "type": "node",
      "id": 2487524464,
      "lat": 12.9634823,
      "lon": 77.5523641,
      "tags": {
        "addr:city": "Bangalore",
        "addr:housename": "Goripalya",
        "addr:street": "Hosahalli Main Road",
        "amenity": "pharmacy",
        "healthcare": "pharmacy",
        "name": "Ganesh Medicals & General Store"
      }
    },
    {
      "type": "node",
      "id": 2489009755,
      "lat": 12.9668706,
      "lon": 77.543321,
      "tags": {
        "addr:city": "Bangalore",
        "addr:housename": "RPC Layout, Vijayanagar",
        "addr:street": "2nd Cross",
        "brand": "Vision Express",
        "brand:wikidata": "Q7936150",
        "name": "Vision Express",
        "shop": "optician"
      }
    },
    {
      "type": "node",
      "id": 2489009756,
      "lat": 12.9669804,
      "lon": 77.5430045,
      "tags": {
        "addr:city": "Bangalore",
        "addr:housename": "RPC Layout, Vijayanagar",
        "addr:street": "2 Cross, Ram Mandir Road",
        "name": "IFB Point",
        "shop": "electronics"
      }
    },
    {
      "type": "node",
      "id": 2914384312,
      "lat": 12.9642991,
      "lon": 77.5406633,
      "tags": {
        "addr:city": "Bangalore",
        "addr:postcode": "560040",
        "addr:street": "vijayanagar",
        "name": "Butter Sponge",
        "shop": "bakery"
      }
    },
    {
      "type": "node",
      "id": 3951238108,
      "lat": 12.9671346,
      "lon": 77.5450815,
      "tags": {
        "amenity": "place_of_worship",
        "description": "syro Malabar church",
        "name": "Mary Matha Church",
        "opening_hours": "Mo-Fr 06:30-07:15; Sa 17:30-19:00; Su 09:00-11:00",
        "religion": "christian"
      }
    },
    {
      "type": "node",
      "id": 4100763597,
      "lat": 12.9644353,
      "lon": 77.5495402,
      "tags": {
        "amenity": "atm",
        "opening_hours": "24/7"
      }
    },
    {
      "type": "node",
      "id": 4100763598,
      "lat": 12.9640156,
      "lon": 77.5510964,
      "tags": {
        "addr:street": "Hosahalli Main Road",
        "amenity": "pharmacy",
        "healthcare": "pharmacy",
        "name": "Bangalore Medical",
        "opening_hours": "Mo-Su 10:00-00:00"
      }
    },
    {
      "type": "node",
      "id": 4100777593,
      "lat": 12.9640262,
      "lon": 77.5507761,
      "tags": {
        "amenity": "atm",
        "opening_hours": "24/7"
      }
    },
    {
      "type": "node",
      "id": 4101060393,
      "lat": 12.9607245,
      "lon": 77.5464821,
      "tags": {
        "addr:street": "Pipeline Road",
        "amenity": "place_of_worship",
        "building": "mosque",
        "name:kn": "ಮಸೀದಿ",
        "religion": "muslim"
      }
    },
    {
      "type": "node",
      "id": 4101066891,
      "lat": 12.9618838,
      "lon": 77.5509669,
      "tags": {
        "addr:housenumber": "7th cross padarayana pura",
        "addr:street": "Hosahalli Main Road",
        "amenity": "place_of_worship",
        "building": "mosque",
        "name": "Masjid e Mecca",
        "name:kn": "ಮಸ್ಜಿದ್ ಎ ಮಕ್ಕ",
        "religion": "muslim"
      }
    },
    {
      "type": "node",
      "id": 4101066892,
      "lat": 12.9609456,
      "lon": 77.5506364,
      "tags": {
        "addr:street": "vinayaka nagar",
        "name": "puncher shop",
        "shop": "tyres"
      }
    },
    {
      "type": "node",
      "id": 4101067191,
      "lat": 12.9631344,
      "lon": 77.5497399,
      "tags": {
        "addr:housenumber": "9th cross padarayana pura",
        "addr:street": "Hosahalli Main Road",
        "amenity": "place_of_worship",
        "building": "mosque",
        "name": "Masjid e Rahmaniya",
        "opening_hours": "24/7",
        "religion": "muslim"
      }
    },
    {
      "type": "node",
      "id": 4101067192,
      "lat": 12.9628516,
      "lon": 77.550719,
      "tags": {
        "addr:housenumber": "7th cross padarayana pura",
        "addr:street": "Hosahalli Main Road",
        "amenity": "place_of_worship",
        "building": "mosque",
        "name": "Masjid e Riyazul Jinna",
        "religion": "muslim"
      }
    },
    {
      "type": "node",
      "id": 4101067193,
      "lat": 12.9609798,
      "lon": 77.5499693,
      "tags": {
        "addr:street": "vinayaka nagar old gudahalli",
        "amenity": "place_of_worship",
        "building": "mosque",
        "name": "Masjid e Alquba",
        "religion": "muslim"
      }
    },
    {
      "type": "node",
      "id": 4101067196,
      "lat": 12.9606146,
      "lon": 77.5565401,
      "tags": {
        "addr:street": "Mysore Road",
        "amenity": "place_of_worship",
        "check_date": "2023-10-08",
        "name": "Masjid e Khabristan",
        "religion": "muslim"
      }
    },
    {
      "type": "node",
      "id": 4101067198,
      "lat": 12.9606907,
      "lon": 77.5455229,
      "tags": {
        "addr:street": "Pipeline Road",
        "amenity": "place_of_worship",
        "building": "mosque",
        "name": "Masjid e Amiri Kalimi",
        "religion": "muslim"
      }
    },
    {
      "type": "node",
      "id": 4101094992,
      "lat": 12.9635168,
      "lon": 77.5580738,
      "tags": {
        "addr:street": "Hosahalli Main Road",
        "amenity": "place_of_worship",
        "name": "Masjid e Jamia",
        "name:kn": "ಮಸ್ಜಿದ್ ಎ ಜಾಮ್ಯ",
        "religion": "muslim"
      }
    },
    {
      "type": "node",
      "id": 4101094993,
      "lat": 12.9630364,
      "lon": 77.5439374,
      "tags": {
        "addr:street": "Pipeline Road",
        "amenity": "cinema",
        "name": "santosh talkies"
      }
    },
    {
      "type": "node",
      "id": 4101094995,
      "lat": 12.9625119,
      "lon": 77.5486586,
      "tags": {
        "addr:street": "Hosahalli Main Road",
        "amenity": "restaurant",
        "name": "Khawja Hotel"
      }
    },
    {
      "type": "node",
      "id": 4101094996,
      "lat": 12.9620904,
      "lon": 77.5496787,
      "tags": {
        "amenity": "community_centre",
        "name": "Government Function Hall"
      }
    },
    {
      "type": "node",
      "id": 4101097189,
      "lat": 12.9626268,
      "lon": 77.5485405,
      "tags": {
        "addr:housenumber": "11th cross padarayana pura",
        "addr:street": "Hosahalli Main Road",
        "amenity": "place_of_worship",
        "building": "mosque",
        "name": "Masjid e Towheed",
        "name:kn": "ಮಸ್ಜಿದ್-ಎ-ತೌಹೀದ್",
        "opening_hours": "24/7",
        "religion": "muslim"
      }
    },
    {
      "type": "node",
      "id": 4101097390,
      "lat": 12.9569629,
      "lon": 77.5491868,
      "tags": {
        "addr:street": "Mysore Road",
        "amenity": "fuel",
        "brand": "Shell",
        "brand:wikidata": "Q110716465",
        "name": "Shell",
        "name:kn": "ಶೆಲ್"
      }
    },
    {
      "type": "node",
      "id": 4101097391,
      "lat": 12.9572135,
      "lon": 77.5429632,
      "tags": {
        "addr:street": "Mysore Road",
        "amenity": "cinema",
        "name": "shobha talkies"
      }
    },
    {
      "type": "node",
      "id": 4101097393,
      "lat": 12.9641843,
      "lon": 77.5502624,
      "tags": {
        "addr:street": "Hosahalli Main Road",
        "amenity": "pharmacy",
        "healthcare": "pharmacy",
        "name": "star hospital ",
        "opening_hours": "24/7"
      }
    },
    {
      "type": "node",
      "id": 4101097589,
      "lat": 12.9643591,
      "lon": 77.5551587,
      "tags": {
        "addr:street": "Hosahalli Main Road",
        "amenity": "police",
        "name": "J J R Nagar Police station"
      }
    },
    {
      "type": "node",
      "id": 4101097789,
      "lat": 12.962289,
      "lon": 77.5537495,
      "tags": {
        "addr:housenumber": "1st cross",
        "addr:street": "Hosahalli Main Road",
        "amenity": "place_of_worship",
        "building": "mosque",
        "name:kn": "ಮಸೀದಿ",
        "religion": "muslim"
      }
    },
    {
      "type": "node",
      "id": 4130913192,
      "lat": 12.9609208,
      "lon": 77.5490696,
      "tags": {
        "amenity": "clinic"
      }
    },
    {
      "type": "node",
      "id": 4130913291,
      "lat": 12.9633542,
      "lon": 77.5487215,
      "tags": {
        "addr:street": "Hosahalli Main Road",
        "amenity": "pharmacy",
        "healthcare": "pharmacy",
        "name": "Kashif Medical"
      }
    },
    {
      "type": "node",
      "id": 4130913292,
      "lat": 12.9677777,
      "lon": 77.545264,
      "tags": {
        "addr:street": "Pipeline Road",
        "amenity": "clinic",
        "name": "Ashvini"
      }
    },
    {
      "type": "node",
      "id": 4130913293,
      "lat": 12.9602862,
      "lon": 77.5570381,
      "tags": {
        "amenity": "fuel",
        "brand": "Bharat Petroleum",
        "brand:wikidata": "Q854826",
        "compressed_air": "no",
        "name": "Bharat Petroleum",
        "name:kn": "ಭಾರತ್ ಪೆಟ್ರೋಲಿಯಂ"
      }
    },
    {
      "type": "node",
      "id": 4130913294,
      "lat": 12.9640984,
      "lon": 77.5506116,
      "tags": {
        "addr:street": "Hosahalli Main Road",
        "amenity": "pharmacy",
        "healthcare": "pharmacy",
        "name": "Mysore Medical"
      }
    },
    {
      "type": "node",
      "id": 4130913295,
      "lat": 12.9635115,
      "lon": 77.5519675,
      "tags": {
        "name": "Bakery",
        "shop": "bakery"
      }
    },
    {
      "type": "node",
      "id": 4130913296,
      "lat": 12.9597748,
      "lon": 77.5548192,
      "tags": {
        "addr:street": "Mysore Road",
        "amenity": "place_of_worship",
        "name": "Mysore Road Eidgha"
      }
    },
    {
      "type": "node",
      "id": 4130929490,
      "lat": 12.964313,
      "lon": 77.5489284,
      "tags": {
        "addr:street": "Hosahalli Main Road",
        "amenity": "doctors",
        "healthcare": "doctor",
        "name": "Mustafa Doctor"
      }
    },
    {
      "type": "node",
      "id": 4130929491,
      "lat": 12.9609947,
      "lon": 77.5508936,
      "tags": {
        "addr:street": "vinayaka nagar",
        "amenity": "bus_station",
        "bus": "yes",
        "name": "Old Gudahalli",
        "public_transport": "station"
      }
    },
    {
      "type": "node",
      "id": 4130929493,
      "lat": 12.9621886,
      "lon": 77.5493658,
      "tags": {
        "amenity": "clinic",
        "healthcare": "clinic",
        "name": "Shahid Doctor"
      }
    },
    {
      "type": "node",
      "id": 4130929494,
      "lat": 12.9634545,
      "lon": 77.5521836,
      "tags": {
        "shop": "hairdresser"
      }
    },
    {
      "type": "node",
      "id": 4130934092,
      "lat": 12.9600503,
      "lon": 77.5539163,
      "tags": {
        "amenity": "place_of_worship",
        "building": "mosque",
        "name:kn": "ಮಸೀದಿ",
        "religion": "muslim"
      }
    },
    {
      "type": "node",
      "id": 4130934095,
      "lat": 12.9635067,
      "lon": 77.5487362,
      "tags": {
        "name": "ladies dress dulhan ",
        "shop": "clothes"
      }
    },
    {
      "type": "node",
      "id": 4130934096,
      "lat": 12.9644831,
      "lon": 77.5550085,
      "tags": {
        "amenity": "drinking_water"
      }
    },
    {
      "type": "node",
      "id": 4130934097,
      "lat": 12.96422,
      "lon": 77.5548239,
      "tags": {
        "amenity": "toilets"
      }
    },
    {
      "type": "node",
      "id": 4130934098,
      "lat": 12.9608368,
      "lon": 77.5485824,
      "tags": {
        "amenity": "cafe",
        "name": "Bismillah Tea Hotel"
      }
    },
    {
      "type": "node",
      "id": 4130960191,
      "lat": 12.9645345,
      "lon": 77.5517527,
      "tags": {
        "addr:street": "Hosahalli Main Road",
        "name": "Naaz Men'S Parlor",
        "shop": "hairdresser"
      }
    },
    {
      "type": "node",
      "id": 4130960192,
      "lat": 12.9640886,
      "lon": 77.5503466,
      "tags": {
        "name": "Ayub Bakery",
        "shop": "bakery"
      }
    },
    {
      "type": "node",
      "id": 4130960193,
      "lat": 12.9641006,
      "lon": 77.5502859,
      "tags": {
        "shop": "hairdresser"
      }
    },
    {
      "type": "node",
      "id": 4130960194,
      "lat": 12.9644277,
      "lon": 77.5553928,
      "tags": {
        "amenity": "atm"
      }
    },
    {
      "type": "node",
      "id": 4130960195,
      "lat": 12.964346,
      "lon": 77.557164,
      "tags": {
        "addr:street": "Hosahalli Main Road",
        "amenity": "place_of_worship",
        "name": "Peter Paul Church",
        "religion": "christian"
      }
    },
    {
      "type": "node",
      "id": 4130960196,
      "lat": 12.9614166,
      "lon": 77.5486757,
      "tags": {
        "amenity": "theatre",
        "name": "a.m function hall"
      }
    },
    {
      "type": "node",
      "id": 4130960197,
      "lat": 12.9609197,
      "lon": 77.5483084,
      "tags": {
        "amenity": "clinic",
        "name": "saty doctor"
      }
    },
    {
      "type": "node",
      "id": 4130960198,
      "lat": 12.9632664,
      "lon": 77.5488141,
      "tags": {
        "addr:street": "Hosahalli Main Road",
        "name": "Manjunatha Bakery",
        "shop": "bakery"
      }
    },
    {
      "type": "node",
      "id": 4130960289,
      "lat": 12.9608675,
      "lon": 77.5495476,
      "tags": {
        "amenity": "atm",
        "opening_hours": "24/7"
      }
    },
    {
      "type": "node",
      "id": 4130960389,
      "lat": 12.9626651,
      "lon": 77.5482596,
      "tags": {
        "addr:housenumber": "12th cross",
        "addr:street": "Hosahalli Main Road",
        "amenity": "pharmacy",
        "name": "Unity Hospital"
      }
    },
    {
      "type": "node",
      "id": 4130960392,
      "lat": 12.9618971,
      "lon": 77.552098,
      "tags": {
        "amenity": "pharmacy"
      }
    },
    {
      "type": "node",
      "id": 4130960393,
      "lat": 12.9643372,
      "lon": 77.5558948,
      "tags": {
        "amenity": "place_of_worship"
      }
    },
    {
      "type": "node",
      "id": 4130960394,
      "lat": 12.9616399,
      "lon": 77.5484171,
      "tags": {
        "amenity": "clinic"
      }
    },
    {
      "type": "node",
      "id": 4130960395,
      "lat": 12.962222,
      "lon": 77.5505208,
      "tags": {
        "amenity": "cafe"
      }
    },
    {
      "type": "node",
      "id": 4130960396,
      "lat": 12.9615054,
      "lon": 77.5504015,
      "tags": {
        "amenity": "cafe",
        "name": "Bismillah Tea Hotel"
      }
    },
    {
      "type": "node",
      "id": 4130960489,
      "lat": 12.9642578,
      "lon": 77.5489199,
      "tags": {
        "addr:street": "Hosahalli Main Road",
        "amenity": "pharmacy",
        "healthcare": "pharmacy",
        "name": "Shifa Medical"
      }
    },
    {
      "type": "node",
      "id": 4130960490,
      "lat": 12.9621356,
      "lon": 77.5493894,
      "tags": {
        "amenity": "pharmacy",
        "healthcare": "pharmacy"
      }
    },
    {
      "type": "node",
      "id": 4130960491,
      "lat": 12.9641082,
      "lon": 77.5504793,
      "tags": {
        "addr:street": "Hosahalli Main Road",
        "amenity": "cafe",
        "name": "Khalil Tea Hotel"
      }
    },
    {
      "type": "node",
      "id": 4130960492,
      "lat": 12.9632318,
      "lon": 77.5500256,
      "tags": {
        "amenity": "cafe",
        "name": "Bombay tea hotel"
      }
    },
    {
      "type": "node",
      "id": 4130960493,
      "lat": 12.9644882,
      "lon": 77.5534307,
      "tags": {
        "name": "rathan Lal",
        "shop": "jewelry"
      }
    },
    {
      "type": "node",
      "id": 4130960989,
      "lat": 12.9646163,
      "lon": 77.5517803,
      "tags": {
        "addr:street": "Hosahalli Main Road",
        "name": "Ezee Mobile Service Point",
        "shop": "mobile_phone"
      }
    },
    {
      "type": "node",
      "id": 4130960990,
      "lat": 12.9634155,
      "lon": 77.5520086,
      "tags": {
        "amenity": "pharmacy",
        "healthcare": "pharmacy",
        "name": "Global Medical"
      }
    },
    {
      "type": "node",
      "id": 4130960991,
      "lat": 12.9643548,
      "lon": 77.5499608,
      "tags": {
        "addr:street": "Hosahalli Main Road",
        "amenity": "theatre",
        "name": "Kk Function Hall"
      }
    },
    {
      "type": "node",
      "id": 4130960992,
      "lat": 12.961869,
      "lon": 77.5471629,
      "tags": {
        "amenity": "cinema",
        "name": "Sujatha Talkies",
        "name:kn": "ಸುಜಾತ ಚಿತ್ರಮಂದಿರ"
      }
    },
    {
      "type": "node",
      "id": 4130960993,
      "lat": 12.9608471,
      "lon": 77.5490504,
      "tags": {
        "name": "Ayenger Bakery",
        "name:kn": "ಅಯ್ಯಂಗರ್",
        "shop": "bakery"
      }
    },
    {
      "type": "node",
      "id": 4130961391,
      "lat": 12.9661241,
      "lon": 77.5521383,
      "tags": {
        "amenity": "cafe",
        "name": "Bismillah Tea Hotel"
      }
    },
    {
      "type": "node",
      "id": 4130962589,
      "lat": 12.9640632,
      "lon": 77.5509417,
      "tags": {
        "amenity": "clinic",
        "healthcare": "clinic"
      }
    },
    {
      "type": "node",
      "id": 4130962590,
      "lat": 12.9608525,
      "lon": 77.5490077,
      "tags": {
        "amenity": "pharmacy",
        "healthcare": "pharmacy"
      }
    },
    {
      "type": "node",
      "id": 4130962591,
      "lat": 12.9638664,
      "lon": 77.5510308,
      "tags": {
        "amenity": "cafe",
        "name": "Bismillah Tea Hotel"
      }
    },
    {
      "type": "node",
      "id": 4130962989,
      "lat": 12.9612397,
      "lon": 77.5508007,
      "tags": {
        "amenity": "drinking_water",
        "name": "doctor water"
      }
    },
    {
      "type": "node",
      "id": 4130963390,
      "lat": 12.9644446,
      "lon": 77.5552913,
      "tags": {
        "amenity": "atm"
      }
    },
    {
      "type": "node",
      "id": 4344769202,
      "lat": 12.9567335,
      "lon": 77.5513304,
      "tags": {
        "addr:street": "Mysore Road",
        "amenity": "pharmacy",
        "name:hi": "राज सन्स फोमा"
      }
    },
    {
      "type": "node",
      "id": 4406333893,
      "lat": 12.9717049,
      "lon": 77.5493718,
      "tags": {
        "amenity": "hospital",
        "name": "Shiva Kumaraswamy Building",
        "name:en": "shiva kumaraswamy building"
      }
    },
    {
      "type": "node",
      "id": 4446374048,
      "lat": 12.9643262,
      "lon": 77.5404059,
      "tags": {
        "addr:city": "Bangalore",
        "addr:housenumber": "15",
        "addr:postcode": "560040",
        "addr:street": "5th Main Road Rpc Layout, Vijayanagar",
        "amenity": "restaurant",
        "cuisine": "regional",
        "name": "Sai Prasadam",
        "opening_hours": "10:00-22:00",
        "phone": "80-23200916"
      }
    },
    {
      "type": "node",
      "id": 4516946096,
      "lat": 12.9673595,
      "lon": 77.5453295,
      "tags": {
        "addr:postcode": "560040",
        "addr:street": "Hosahalli Main Road",
        "name": "K L D fish stall",
        "name:en": "K L D fish stall",
        "opening_hours": "Tu-Su 08:00-13:00",
        "phone": "+91 9448682253",
        "shop": "seafood"
      }
    },
    {
      "type": "node",
      "id": 4520841992,
      "lat": 12.9703991,
      "lon": 77.5463108,
      "tags": {
        "amenity": "atm",
        "brand": "State Bank of India",
        "brand:wikidata": "Q1340361",
        "name": "State Bank of India",
        "operator": "State Bank of India",
        "operator:wikidata": "Q1340361",
        "short_name": "SBI"
      }
    },
    {
      "type": "node",
      "id": 4520910090,
      "lat": 12.9672966,
      "lon": 77.545065,
      "tags": {
        "amenity": "atm",
        "operator": "Karnataka Bank ATM"
      }
    },
    {
      "type": "node",
      "id": 4520918289,
      "lat": 12.9663276,
      "lon": 77.5443481,
      "tags": {
        "amenity": "atm",
        "operator": "Vijaya Bank"
      }
    },
    {
      "type": "node",
      "id": 4533717195,
      "lat": 12.9701394,
      "lon": 77.5461865,
      "tags": {
        "amenity": "atm",
        "brand": "Canara Bank",
        "brand:en": "Canara Bank",
        "brand:hi": "केनरा बैंक",
        "brand:kn": "ಕೆನರಾ ಬ್ಯಾಂಕ್",
        "brand:pa": "ਕੇਨਰਾ ਬੈਂਕ",
        "brand:pnb": "کینرا بینک",
        "brand:ur": "کینرا بینک",
        "brand:wikidata": "Q2003777",
        "name": "Canara Bank",
        "name:en": "Canara Bank",
        "name:hi": "केनरा बैंक",
        "name:kn": "ಕೆನರಾ ಬ್ಯಾಂಕ್",
        "name:pa": "ਕੇਨਰਾ ਬੈਂਕ",
        "name:pnb": "کینرا بینک",
        "name:ur": "کینرا بینک",
        "operator": "Canara Bank",
        "operator:wikidata": "Q2003777"
      }
    },
    {
      "type": "node",
      "id": 4533766191,
      "lat": 12.9641822,
      "lon": 77.5424512,
      "tags": {
        "addr:street": "5th Main",
        "amenity": "bank",
        "name": "Panjab National Bank",
        "name:en": "Panjab national Bank"
      }
    },
    {
      "type": "node",
      "id": 4533766391,
      "lat": 12.9702038,
      "lon": 77.5462546,
      "tags": {
        "addr:street": "Pipeline Road",
        "amenity": "pharmacy",
        "brand": "MedPlus",
        "brand:wikidata": "Q65684234",
        "healthcare": "pharmacy",
        "name": "MedPlus",
        "name:en": "Medplus",
        "name:kn": "ಮೆಡ್‍ಪ್ಲಸ್"
      }
    },
    {
      "type": "node",
      "id": 4533776989,
      "lat": 12.965614,
      "lon": 77.5432765,
      "tags": {
        "brand": "HOPCOMS",
        "brand:wikidata": "Q22908959",
        "name": "HOPCOMS",
        "name:en": "HOPCOMS",
        "name:kn": "ಹಾಪ್ ಕಾಮ್ಸ್",
        "shop": "greengrocer"
      }
    },
    {
      "type": "node",
      "id": 4534097697,
      "lat": 12.9681925,
      "lon": 77.5455125,
      "tags": {
        "addr:district": "Bengaluru Urban",
        "addr:full": "72 14Th Cross Vijayanagar Pipeline Road Cholurpalya",
        "addr:postcode": "560023",
        "addr:state": "Karnataka",
        "amenity": "clinic",
        "name": "Tejus hospital",
        "name:en": "Tejas hospital",
        "source": "OpenGovernmentData"
      }
    },
    {
      "type": "node",
      "id": 4541362889,
      "lat": 12.9705485,
      "lon": 77.5462002,
      "tags": {
        "amenity": "place_of_worship",
        "name": "Temple",
        "name:en": "Temple"
      }
    },
    {
      "type": "node",
      "id": 4542494317,
      "lat": 12.9556017,
      "lon": 77.5459806,
      "tags": {
        "addr:city": "Bangalore",
        "addr:postcode": "560026",
        "addr:street": "Mysore Road",
        "name": "Deco Design",
        "operator": "Deco Design",
        "shop": "furniture",
        "wheelchair": "no"
      }
    },
    {
      "type": "node",
      "id": 5147958922,
      "lat": 12.9665385,
      "lon": 77.544607,
      "tags": {
        "addr:postcode": "560040",
        "addr:street": "Church Service Road",
        "amenity": "fast_food",
        "brand": "Indira Canteen",
        "brand:wikidata": "Q36164828",
        "cuisine": "south_indian",
        "name": "Indira Canteen",
        "operator": "BBMP",
        "takeaway": "yes"
      }
    },
    {
      "type": "node",
      "id": 5242628721,
      "lat": 12.9621245,
      "lon": 77.5522069,
      "tags": {
        "shop": "hairdresser"
      }
    },
    {
      "type": "node",
      "id": 5259390022,
      "lat": 12.9629891,
      "lon": 77.551268,
      "tags": {
        "amenity": "school",
        "name": "Kinto School"
      }
    },
    {
      "type": "node",
      "id": 5259390023,
      "lat": 12.9610936,
      "lon": 77.5468666,
      "tags": {
        "amenity": "school",
        "name": "Kinto High School"
      }
    },
    {
      "type": "node",
      "id": 5259390024,
      "lat": 12.9622432,
      "lon": 77.5494253,
      "tags": {
        "amenity": "drinking_water",
        "name": "Doctor water"
      }
    },
    {
      "type": "node",
      "id": 5259394922,
      "lat": 12.9634851,
      "lon": 77.5529474,
      "tags": {
        "amenity": "school",
        "name": "Jawahar School"
      }
    },
    {
      "type": "node",
      "id": 5259407521,
      "lat": 12.9638701,
      "lon": 77.5499513,
      "tags": {
        "amenity": "clinic",
        "healthcare": "nursing",
        "name": "Shilpa nursing home"
      }
    },
    {
      "type": "node",
      "id": 5259407821,
      "lat": 12.966103,
      "lon": 77.5549647,
      "tags": {
        "amenity": "hospital",
        "healthcare": "hospital",
        "name": "Government Hospital",
        "name:kn": "ಸರ್ಕಾರಿ ಆಸ್ಪತ್ರೆ"
      }
    },
    {
      "type": "node",
      "id": 5678058124,
      "lat": 12.9642911,
      "lon": 77.5416866,
      "tags": {
        "amenity": "drinking_water",
        "name": "RO Center"
      }
    },
    {
      "type": "node",
      "id": 6938774143,
      "lat": 12.9650437,
      "lon": 77.5435022,
      "tags": {
        "addr:district": "Bengaluru Urban",
        "addr:full": "No.10, Pipeline Road, RPC Layout, Vijayanagar, 2nd Stage",
        "addr:postcode": "560104",
        "addr:state": "Karnataka",
        "amenity": "hospital",
        "email": "skamcBengaluru@gmail.com",
        "healthcare": "hospital",
        "name": "Sri Kalabyraveshwara Swamy Ayurvedic Medical College hospital",
        "operator:type": "private",
        "source": "OpenGovernmentData",
        "website": "http://skayurvediccollegeandhospital.com/"
      }
    },
    {
      "type": "node",
      "id": 6944309977,
      "lat": 12.9645006,
      "lon": 77.5427189,
      "tags": {
        "addr:district": "Bengaluru Urban",
        "addr:full": "No. 1869, 5Th Main, 13Th Cross, R.P.C. Lay Out, Vijayanagar",
        "addr:postcode": "560040",
        "addr:state": "Karnataka",
        "amenity": "hospital",
        "healthcare": "hospital",
        "name": "Susheel Hospital",
        "source": "OpenGovernmentData"
      }
    },
    {
      "type": "node",
      "id": 6944464994,
      "lat": 12.9559644,
      "lon": 77.5485635,
      "tags": {
        "addr:district": "Bengaluru Urban",
        "addr:full": "Kasturabanagar, Mysore Road , South",
        "addr:postcode": "560026",
        "addr:state": "Karnataka",
        "amenity": "hospital",
        "name": "Azad Nagar Maternity Home",
        "source": "OpenGovernmentData"
      }
    },
    {
      "type": "node",
      "id": 6947268976,
      "lat": 12.9561944,
      "lon": 77.5460348,
      "tags": {
        "addr:district": "Bengaluru Urban",
        "addr:full": "1/1,1/2,1/3, New Guddadahalli, Mysore Road",
        "addr:postcode": "560026",
        "addr:state": "Karnataka",
        "amenity": "clinic",
        "name": "Balaji Nursing Home",
        "source": "OpenGovernmentData"
      }
    },
    {
      "type": "node",
      "id": 7572526730,
      "lat": 12.966677,
      "lon": 77.5424542,
      "tags": {
        "addr:district": "Bengaluru Urban",
        "addr:full": "RPC Layout, Hoshalli Extension, Vijayanagar, Bengaluru",
        "addr:postcode": "560104",
        "addr:state": "Karnataka",
        "amenity": "clinic",
        "name": "GHOC Clinic",
        "source": "Local Knowledge"
      }
    },
    {
      "type": "node",
      "id": 7572526739,
      "lat": 12.967029,
      "lon": 77.541853,
      "tags": {
        "addr:district": "Bengaluru Urban",
        "addr:full": "Hosahalli Extension, Vijayanagar, Bengaluru",
        "addr:postcode": "560104",
        "addr:state": "Karnataka",
        "amenity": "doctors",
        "name": "Dr. S C Shankaralingaiah",
        "source": "Local Knowledge"
      }
    },
    {
      "type": "node",
      "id": 7576958061,
      "lat": 12.9587464,
      "lon": 77.5573456,
      "tags": {
        "addr:district": "Bengaluru Urban",
        "addr:full": "Ramachandra Agrahara, Azad Nagar, Bengaluru",
        "addr:postcode": "560026",
        "addr:state": "Karnataka",
        "amenity": "hospital",
        "name": "Government Hospital, Banglore",
        "source": "Local Knowledge"
      }
    },
    {
      "type": "node",
      "id": 11248255456,
      "lat": 12.9571796,
      "lon": 77.5501655,
      "tags": {
        "amenity": "bank",
        "brand": "Union Bank of India",
        "brand:wikidata": "Q2004078",
        "check_date": "2023-10-08",
        "name": "Union Bank of India",
        "name:kn": "ಯೂನಿಯನ್ ಬ್ಯಾಂಕ್"
      }
    },
    {
      "type": "node",
      "id": 11248255457,
      "lat": 12.9571816,
      "lon": 77.550277,
      "tags": {
        "amenity": "atm",
        "brand": "Union Bank of India",
        "brand:wikidata": "Q2004078",
        "check_date": "2023-10-08",
        "operator": "Union Bank of India",
        "operator:wikidata": "Q2004078"
      }
    },
    {
      "type": "node",
      "id": 11248255458,
      "lat": 12.9573596,
      "lon": 77.5511498,
      "tags": {
        "amenity": "fuel",
        "brand": "Bharat Petroleum",
        "brand:wikidata": "Q854826",
        "check_date": "2024-01-25",
        "name": "Bharat Petroleum",
        "name:en": "Bharat Petroleum",
        "name:kn": "ಭಾರತ್ ಪೆಟ್ರೋಲಿಯಂ",
        "self_service": "no"
      }
    },
    {
      "type": "node",
      "id": 11248255459,
      "lat": 12.9585509,
      "lon": 77.5536366,
      "tags": {
        "amenity": "cinema",
        "check_date": "2023-10-08",
        "name": "Gopalan cinemas"
      }
    },
    {
      "type": "node",
      "id": 11248255460,
      "lat": 12.9584119,
      "lon": 77.5532961,
      "tags": {
        "brand": "DMart",
        "brand:wikidata": "Q5203271",
        "check_date": "2023-10-08",
        "name": "DMart",
        "shop": "supermarket"
      }
    },
    {
      "type": "node",
      "id": 12145536674,
      "lat": 12.9572457,
      "lon": 77.5509305,
      "tags": {
        "amenity": "fuel",
        "brand": "Bharat Petroleum",
        "brand:wikidata": "Q854826",
        "name": "Bharat Petroleum"
      }
    },
    {
      "type": "node",
      "id": 12734621153,
      "lat": 12.9562108,
      "lon": 77.5476429,
      "tags": {
        "check_date": "2025-04-07",
        "clothes": "men;women;wedding;underwear;traditional;babies;denim;children;maternity;socks;fashion;accessories",
        "name": "Pothys",
        "name:en": "Pothys",
        "payment:cash": "yes",
        "payment:credit_cards": "yes",
        "payment:debit_cards": "yes",
        "payment:upi": "yes",
        "shop": "clothes",
        "wheelchair": "limited"
      }
    },
    {
      "type": "way",
      "id": 48876294,
      "center": {
        "lat": 12.9617616,
        "lon": 77.5408873
      },
      "tags": {
        "leisure": "swimming_pool",
        "name": "Vijayanagar Swimming Pool",
        "name:kn": "ವಿಜಯನಗರ ಈಜು ಕೊಳ",
        "sport": "swimming"
      }
    },
    {
      "type": "way",
      "id": 54147278,
      "center": {
        "lat": 12.9697226,
        "lon": 77.5441412
      },
      "tags": {
        "amenity": "school",
        "name": "Government School",
        "name:kn": "ಸರ್ಕಾರಿ ಶಾಲೆ"
      }
    },
    {
      "type": "way",
      "id": 54147280,
      "center": {
        "lat": 12.9704117,
        "lon": 77.5455182
      },
      "tags": {
        "leisure": "park",
        "name": "Jayaprakash Narayana Park",
        "name:etymology:wikidata": "Q734509",
        "name:kn": "ಜಯಪ್ರಕಾಶ್ ನಾರಾಯಣ ಉದ್ಯಾನವನ"
      }
    },
    {
      "type": "way",
      "id": 54147968,
      "center": {
        "lat": 12.9624023,
        "lon": 77.5409565
      },
      "tags": {
        "leisure": "park",
        "name": "Hampinagar Park"
      }
    },
    {
      "type": "way",
      "id": 54147983,
      "center": {
        "lat": 12.9655212,
        "lon": 77.5416734
      },
      "tags": {
        "amenity": "school"
      }
    },
    {
      "type": "way",
      "id": 54148030,
      "center": {
        "lat": 12.9645623,
        "lon": 77.5417803
      },
      "tags": {
        "amenity": "school"
      }
    },
    {
      "type": "way",
      "id": 166584397,
      "center": {
        "lat": 12.9584995,
        "lon": 77.5534667
      },
      "tags": {
        "landuse": "retail",
        "name": "Gopalan Mall",
        "name:kn": "ಗೋಪಾಲನ್ ಮಾಲ್",
        "shop": "mall"
      }
    },
    {
      "type": "way",
      "id": 169816627,
      "center": {
        "lat": 12.9651167,
        "lon": 77.5434098
      },
      "tags": {
        "amenity": "college",
        "name": "Ayurvedic Medical College",
        "name:kn": "ಆಯುರ್ವೇದ ವೈದ್ಯಕೀಯ ಕಾಲೇಜು"
      }
    },
    {
      "type": "way",
      "id": 169817243,
      "center": {
        "lat": 12.964005,
        "lon": 77.5542033
      },
      "tags": {
        "amenity": "cinema"
      }
    },
    {
      "type": "way",
      "id": 182819011,
      "center": {
        "lat": 12.9582804,
        "lon": 77.5551362
      },
      "tags": {
        "leisure": "park"
      }
    },
    {
      "type": "way",
      "id": 347531885,
      "center": {
        "lat": 12.9655397,
        "lon": 77.5547619
      },
      "tags": {
        "amenity": "place_of_worship",
        "building": "mosque",
        "denomination": "sunni",
        "name": "Masjid e Umre Faroq",
        "name:kn": "ಮಸ್ಜಿದ್ ಎ ಉಮ್ರೆ ಫರೂಕ್",
        "religion": "muslim"
      }
    },
    {
      "type": "way",
      "id": 347562755,
      "center": {
        "lat": 12.9649219,
        "lon": 77.5504198
      },
      "tags": {
        "addr:housenumber": "13th cross padarayana pura",
        "addr:street": "Hosahalli Main Road",
        "amenity": "place_of_worship",
        "building": "mosque",
        "name": "Masjid e Mamooriya",
        "name:kn": "ಮಸ್ಜೀದ್ ಎ ಮಮೂರಿಯ",
        "opening_hours": "24/7",
        "religion": "muslim"
      }
    },
    {
      "type": "way",
      "id": 349453244,
      "center": {
        "lat": 12.9671443,
        "lon": 77.5450914
      },
      "tags": {
        "amenity": "place_of_worship",
        "building": "yes",
        "name": "Mary Matha Church",
        "religion": "christian"
      }
    },
    {
      "type": "way",
      "id": 351595594,
      "center": {
        "lat": 12.9656694,
        "lon": 77.5515368
      },
      "tags": {
        "addr:street": "7th Main Road",
        "amenity": "place_of_worship",
        "building": "mosque",
        "name": "Masjid e Nooraniya",
        "name:kn": "ಮಸ್ಜಿದ್ ಎ ನೂರಾನಿಯ",
        "religion": "muslim"
      }
    },
    {
      "type": "way",
      "id": 437565300,
      "center": {
        "lat": 12.9640791,
        "lon": 77.5557436
      },
      "tags": {
        "addr:street": "Hosahalli Main Road",
        "leisure": "park",
        "name": "JJR Nagar Park"
      }
    },
    {
      "type": "way",
      "id": 1213970890,
      "center": {
        "lat": 12.9613893,
        "lon": 77.5581433
      },
      "tags": {
        "access": "private",
        "leisure": "pitch",
        "sport": "basketball"
      }
    },
    {
      "type": "way",
      "id": 1238631158,
      "center": {
        "lat": 12.9635289,
        "lon": 77.5417158
      },
      "tags": {
        "amenity": "language_school",
        "name": "Shree Bharathi Vidhyalaya"
      }
    },
    {
      "type": "way",
      "id": 1238631225,
      "center": {
        "lat": 12.9606449,
        "lon": 77.5408253
      },
      "tags": {
        "amenity": "police",
        "name": "Vijayanagara Traffic Police Station",
        "name:kn": "ವಿಜಯನಗರ ಸಂಚಾರ ಆರಕ್ಷಕ ಠಾಣೆ"
      }
    },
    {
      "type": "way",
      "id": 1238631229,
      "center": {
        "lat": 12.961117,
        "lon": 77.5409245
      },
      "tags": {
        "leisure": "sports_centre",
        "name": "Hampinagar Sports Club"
      }
    },
    {
      "type": "way",
      "id": 1238631230,
      "center": {
        "lat": 12.9617827,
        "lon": 77.5408235
      },
      "tags": {
        "leisure": "sports_centre",
        "name": "Vijaynagar Aquatic Centre"
      }
    },
    {
      "type": "way",
      "id": 1257194266,
      "center": {
        "lat": 12.9564423,
        "lon": 77.5487311
      },
      "tags": {
        "amenity": "fuel",
        "brand": "Indian Oil",
        "brand:wikidata": "Q1289348",
        "compressed_air": "yes",
        "name": "Indian Oil",
        "wheelchair": "yes"
      }
    },
    {
      "type": "way",
      "id": 1298716883,
      "center": {
        "lat": 12.9576256,
        "lon": 77.5518773
      },
      "tags": {
        "amenity": "fuel",
        "brand": "Shell",
        "brand:wikidata": "Q110716465",
        "check_date": "2022-11-25",
        "compressed_air": "yes",
        "fuel:diesel": "yes",
        "fuel:petrol": "yes",
        "name": "Shell",
        "name:kn": "ಶೆಲ್",
        "self_service": "no",
        "source": "survey"
      }
    },
    {
      "type": "way",
      "id": 1348696401,
      "center": {
        "lat": 12.9591122,
        "lon": 77.555799
      },
      "tags": {
        "amenity": "fuel",
        "brand": "Indian Oil",
        "brand:wikidata": "Q1289348",
        "compressed_air": "yes",
        "name": "Indian Oil"
      }
    }
  ]
}