{
  "area_name": "Gorkamantapalya",
  "osm_id": 12150911601,
  "osm_type": "node",
  "place_type": "neighbourhood",
  "amenity_count": 96,
  "amenities": [
    {
      "type": "node",
      "id": 414032162,
      "lat": 12.9812136,
      "lon": 77.6570884,
      "tags": {
        "amenity": "fuel",
        "brand": "Hindustan Petroleum",
        "brand:wikidata": "Q1619375",
        "name": "HP Auto Care",
        "official_name": "Hindustan Petroleum"
      }
    },
    {
      "type": "node",
      "id": 1078209945,
      "lat": 12.9852309,
      "lon": 77.6636329,
      "tags": {
        "amenity": "bank",
        "atm": "yes",
        "brand": "State Bank of India",
        "brand:wikidata": "Q1340361",
        "brand:wikipedia": "en:State Bank of India",
        "name": "State Bank of India",
        "name:kn": "ಎಸ್ ಬಿ ಐ",
        "short_name": "SBI"
      }
    },
    {
      "type": "node",
      "id": 1336840466,
      "lat": 12.9716449,
      "lon": 77.6574777,
      "tags": {
        "amenity": "atm",
        "fee": "OBC"
      }
    },
    {
      "type": "node",
      "id": 1336840478,
      "lat": 12.9713312,
      "lon": 77.6573918,
      "tags": {
        "amenity": "atm",
        "fee": "SBI"
      }
    },
    {
      "type": "node",
      "id": 1569153265,
      "lat": 12.9795192,
      "lon": 77.6578339,
      "tags": {
        "amenity": "atm",
        "brand": "Citibank",
        "brand:wikidata": "Q857063",
        "name": "Citibank",
        "operator": "Citibank",
        "operator:wikidata": "Q857063",
        "short_name": "Citi"
      }
    },
    {
      "type": "node",
      "id": 1675528607,
      "lat": 12.9746026,
      "lon": 77.6731914,
      "tags": {
        "amenity": "atm",
        "name": "DCB",
        "operator": "DCB"
      }
    },
    {
      "type": "node",
      "id": 1675529723,
      "lat": 12.974059,
      "lon": 77.673001,
      "tags": {
        "addr:housename": "Rajagopal Complex",
        "addr:housenumber": "145",
        "addr:postcode": "560075",
        "addr:street": "5th Main Road, Malleshpalya",
        "name": "More Store",
        "phone": "+91-80-64535780",
        "shop": "convenience"
      }
    },
    {
      "type": "node",
      "id": 3714504725,
      "lat": 12.9823036,
      "lon": 77.6661836,
      "tags": {
        "addr:city": "Bangalore",
        "addr:postcode": "560093",
        "amenity": "place_of_worship",
        "name": "Anjaneya Swami Temple",
        "name:kn": "ಆಂಜನೇಯ ಸ್ವಾಮಿ ದೇವಸ್ಥಾನ",
        "religion": "hindu"
      }
    },
    {
      "type": "node",
      "id": 3722411925,
      "lat": 12.9749216,
      "lon": 77.6703057,
      "tags": {
        "amenity": "atm",
        "brand": "Axis Bank",
        "brand:wikidata": "Q2003549",
        "cash_in": "no",
        "currency": "INR",
        "drive_through": "no",
        "language:en": "yes",
        "language:hn": "yes",
        "name": "Axis Bank",
        "name:kn": "ಆಕ್ಸಿಸ್ ಬ್ಯಾಂಕ್",
        "operator": "Axis Bank",
        "operator:wikidata": "Q2003549",
        "speech_output:lg": "yes",
        "wheelchair": "no"
      }
    },
    {
      "type": "node",
      "id": 3722417685,
      "lat": 12.9756859,
      "lon": 77.6671061,
      "tags": {
        "addr:city": "Bangalore",
        "addr:postcode": "560075",
        "addr:street": "GM Palya Main Road",
        "name": "Kaveri Departmental Store",
        "opening_hours": "08:00-22:00",
        "operator": "Private",
        "shop": "supermarket"
      }
    },
    {
      "type": "node",
      "id": 4067004488,
      "lat": 12.9744681,
      "lon": 77.673175,
      "tags": {
        "amenity": "atm",
        "brand": "ICICI Bank",
        "brand:wikidata": "Q1653258",
        "name": "ICICI Bank",
        "name:kn": "ಐಸಿಐಸಿಐ ಬ್ಯಾಂಕ್",
        "operator": "ICICI Bank",
        "operator:wikidata": "Q1653258",
        "short_name": "ICICI"
      }
    },
    {
      "type": "node",
      "id": 4167718789,
      "lat": 12.9812284,
      "lon": 77.6572925,
      "tags": {
        "amenity": "atm",
        "brand": "Axis Bank",
        "brand:wikidata": "Q2003549",
        "opening_hours": "24/7",
        "operator": "Axis Bank",
        "operator:wikidata": "Q2003549"
      }
    },
    {
      "type": "node",
      "id": 4171468392,
      "lat": 12.9814182,
      "lon": 77.6659562,
      "tags": {
        "amenity": "school",
        "name": "Government Primary School",
        "name:kn": "ಸರ್ಕಾರಿ ಪ್ರಾಥಮಿಕ ಶಾಲೆ"
      }
    },
    {
      "type": "node",
      "id": 4281970789,
      "lat": 12.9717991,
      "lon": 77.658012,
      "tags": {
        "amenity": "bank",
        "branch": "BEML Gate Branch",
        "brand": "HDFC Bank",
        "brand:wikidata": "Q631047",
        "name": "HDFC Bank",
        "short_name": "HDFC"
      }
    },
    {
      "type": "node",
      "id": 4488617089,
      "lat": 12.9677841,
      "lon": 77.6634104,
      "tags": {
        "addr:city": "Bangalore",
        "addr:housenumber": "21",
        "addr:postcode": "560075",
        "addr:street": "Tippasandra",
        "name": "Maataji Privision Store",
        "shop": "supermarket"
      }
    },
    {
      "type": "node",
      "id": 4490332758,
      "lat": 12.976618,
      "lon": 77.6730321,
      "tags": {
        "addr:city": "Bangalore",
        "addr:housenumber": "143",
        "addr:postcode": "560075",
        "addr:street": "5th Main Road, 6th Cross, Malleshpalya, Bhadrappa Layout, Malleshpalya, Kaggadasapura, Bengaluru,",
        "leisure": "sports_centre",
        "name": "Bangalore Games and Fitness Institute",
        "opening_hours": "6:00-21:00",
        "phone": "8041706896",
        "sport": "gymnasium"
      }
    },
    {
      "type": "node",
      "id": 4599173691,
      "lat": 12.9821034,
      "lon": 77.6575557,
      "tags": {
        "amenity": "community_centre",
        "name": "Karunadu services",
        "name:en": "Karunadu services",
        "phone": "08042123520"
      }
    },
    {
      "type": "node",
      "id": 4599826589,
      "lat": 12.9795556,
      "lon": 77.6578756,
      "tags": {
        "amenity": "bank",
        "atm": "yes",
        "brand": "State Bank of India",
        "brand:wikidata": "Q1340361",
        "brand:wikipedia": "en:State Bank of India",
        "name": "State Bank of India",
        "name:en": "SBI",
        "name:kn": "ಭಾರತೀಯ ಸ್ಟೇಟ್ ಬ್ಯಾಂಕ್",
        "short_name": "SBI",
        "website": "https://www.sbi.co.in",
        "wheelchair": "limited"
      }
    },
    {
      "type": "node",
      "id": 4680308696,
      "lat": 12.984816,
      "lon": 77.6656733,
      "tags": {
        "amenity": "clinic",
        "name": "Government Health Center",
        "name:hi": "Government Health Center"
      }
    },
    {
      "type": "node",
      "id": 6771722354,
      "lat": 12.9716726,
      "lon": 77.6573587,
      "tags": {
        "amenity": "restaurant",
        "cuisine": "indian",
        "name": "Dal Baati Corner"
      }
    },
    {
      "type": "node",
      "id": 6771722355,
      "lat": 12.9714814,
      "lon": 77.6571747,
      "tags": {
        "alt_name": "Goli Vada Pav No.1",
        "amenity": "fast_food",
        "brand": "Goli Vada Pav",
        "brand:wikidata": "Q5580697",
        "cuisine": "indian",
        "name": "Goli Vada Pav",
        "takeaway": "yes"
      }
    },
    {
      "type": "node",
      "id": 6771722356,
      "lat": 12.9714909,
      "lon": 77.6572328,
      "tags": {
        "name": "Mount Stationery",
        "shop": "stationery"
      }
    },
    {
      "type": "node",
      "id": 6886594856,
      "lat": 12.971833,
      "lon": 77.6566954,
      "tags": {
        "addr:city": "Bengaluru",
        "addr:district": "BENGALURU URBAN",
        "addr:full": "New Thippasandra Main Road, HAL III Stage",
        "addr:postcode": "560075",
        "addr:state": "Karnataka",
        "amenity": "blood_bank",
        "contact:mobile": "9740594251",
        "contact:phone": "08025293486; 9900153000; 9900163000",
        "name": "Bengaluru Rotary TTK Medical Service Trust Blood Bank",
        "opening_hours": "24/7",
        "operator:type": "private",
        "source": "OpenGovernmentData",
        "website": "https://www.bmstindia.org/"
      }
    },
    {
      "type": "node",
      "id": 7178894209,
      "lat": 12.9756865,
      "lon": 77.6669815,
      "tags": {
        "amenity": "post_office",
        "brand": "Desk to Desk Courier & Cargo",
        "brand:short": "DTDC",
        "brand:wikidata": "Q55608802",
        "name": "DTDC Courier",
        "operator": "Desk to Desk Courier & Cargo",
        "operator:short": "DTDC",
        "operator:wikidata": "Q55608802"
      }
    },
    {
      "type": "node",
      "id": 7466913100,
      "lat": 12.9741205,
      "lon": 77.6729001,
      "tags": {
        "amenity": "restaurant"
      }
    },
    {
      "type": "node",
      "id": 7572131822,
      "lat": 12.9742358,
      "lon": 77.6726374,
      "tags": {
        "addr:district": "Bengaluru Urban",
        "addr:full": "Malleshpalya, Kaggadasapura, Bengaluru",
        "addr:postcode": "560093",
        "addr:state": "Karnataka",
        "amenity": "clinic",
        "name": "Health Care Medi Clinic",
        "source": "Local Knowledge"
      }
    },
    {
      "type": "node",
      "id": 7572131857,
      "lat": 12.975622,
      "lon": 77.666082,
      "tags": {
        "addr:district": "Bengaluru Urban",
        "addr:full": "GM Palya, C V Raman Nagar, Bengaluru",
        "addr:postcode": "560075",
        "addr:state": "Karnataka",
        "amenity": "clinic",
        "name": "Rapha Polyclinic & Lab",
        "source": "Local Knowledge"
      }
    },
    {
      "type": "node",
      "id": 7572131881,
      "lat": 12.9750951,
      "lon": 77.6660888,
      "tags": {
        "addr:district": "Bengaluru Urban",
        "addr:full": "GM Palya, C V Raman Nagar, Bengaluru",
        "addr:postcode": "560017",
        "addr:state": "Karnataka",
        "amenity": "clinic",
        "name": "Netrajyoti Eye Centre",
        "source": "Local Knowledge",
        "wheelchair": "no"
      }
    },
    {
      "type": "node",
      "id": 7572131883,
      "lat": 12.9753191,
      "lon": 77.6660778,
      "tags": {
        "addr:district": "Bengaluru Urban",
        "addr:full": "Cauveri Colony, GM Palya, C V Raman Nagar, Bengaluru",
        "addr:postcode": "560093",
        "addr:state": "Karnataka",
        "amenity": "dentist",
        "name": "Dr. Ranganath Jingade Dental Hospital",
        "source": "Local Knowledge"
      }
    },
    {
      "type": "node",
      "id": 7572526743,
      "lat": 12.9705317,
      "lon": 77.6657706,
      "tags": {
        "addr:district": "Bengaluru Urban",
        "addr:full": "Jagadish Nagar, Kaggadasapura, Bengaluru",
        "addr:postcode": "560075",
        "addr:state": "Karnataka",
        "amenity": "clinic",
        "name": "Sri Balaji Clinic",
        "source": "Local Knowledge"
      }
    },
    {
      "type": "node",
      "id": 11908994205,
      "lat": 12.9843724,
      "lon": 77.6654448,
      "tags": {
        "check_date": "2024-05-17",
        "name": "Solanki Medicals",
        "shop": "chemist"
      }
    },
    {
      "type": "node",
      "id": 11908994206,
      "lat": 12.9844253,
      "lon": 77.6654609,
      "tags": {
        "check_date": "2024-05-17",
        "name": "Kahinoor Rice Traders",
        "shop": "wholesale_grain_trader"
      }
    },
    {
      "type": "node",
      "id": 11908994207,
      "lat": 12.9843282,
      "lon": 77.6654378,
      "tags": {
        "amenity": "dentist",
        "check_date": "2024-05-17",
        "healthcare": "dentist",
        "name": "Chitra Dental Care"
      }
    },
    {
      "type": "node",
      "id": 12204996493,
      "lat": 12.9751626,
      "lon": 77.6653229,
      "tags": {
        "amenity": "parking_entrance"
      }
    },
    {
      "type": "node",
      "id": 13251268817,
      "lat": 12.9769205,
      "lon": 77.673297,
      "tags": {
        "amenity": "shelter",
        "shelter_type": "gazebo"
      }
    },
    {
      "type": "node",
      "id": 13251268818,
      "lat": 12.9769298,
      "lon": 77.6735807,
      "tags": {
        "amenity": "shelter",
        "shelter_type": "gazebo"
      }
    },
    {
      "type": "node",
      "id": 13275766738,
      "lat": 12.9779204,
      "lon": 77.662729,
      "tags": {
        "amenity": "shelter",
        "shelter_type": "gazebo"
      }
    },
    {
      "type": "way",
      "id": 35311978,
      "center": {
        "lat": 12.9822274,
        "lon": 77.6533084
      },
      "tags": {
        "amenity": "research_institute",
        "check_date": "2024-11-10",
        "landuse": "industrial",
        "name": "Gas Turbine Research Establishment",
        "name:kn": "ಆವಿ ನೀರುಗಾಲಿ ಸಂಶೋಧನ ನೆಲೆ",
        "operator:type": "military",
        "short_name": "GTRE",
        "start_date": "1961",
        "wikidata": "Q5526315",
        "wikimedia_commons": "Category:GTRE aircraft engines",
        "wikipedia": "en:Gas Turbine Research Establishment"
      }
    },
    {
      "type": "way",
      "id": 98188361,
      "center": {
        "lat": 12.9717896,
        "lon": 77.6568654
      },
      "tags": {
        "amenity": "post_office",
        "name": "Thippasandra Post Office",
        "name:kn": "ತಿಪ್ಪಸಂದ್ರ ಅಂಚೆ ಕಛೇರಿ",
        "operator": "Govt of India"
      }
    },
    {
      "type": "way",
      "id": 118926923,
      "center": {
        "lat": 12.9733878,
        "lon": 77.656523
      },
      "tags": {
        "leisure": "park",
        "name": "GP Raja Ratnam Park"
      }
    },
    {
      "type": "way",
      "id": 144989754,
      "center": {
        "lat": 12.9673805,
        "lon": 77.6614527
      },
      "tags": {
        "leisure": "park"
      }
    },
    {
      "type": "way",
      "id": 323037303,
      "center": {
        "lat": 12.9730342,
        "lon": 77.6690277
      },
      "tags": {
        "amenity": "school",
        "name": "Shishya BEML Public School"
      }
    },
    {
      "type": "way",
      "id": 323037305,
      "center": {
        "lat": 12.9736002,
        "lon": 77.6685704
      },
      "tags": {
        "amenity": "theatre",
        "name": "BEML Kala Mandir"
      }
    },
    {
      "type": "way",
      "id": 323037941,
      "center": {
        "lat": 12.974433,
        "lon": 77.6694265
      },
      "tags": {
        "leisure": "park",
        "name": "BEML Playground"
      }
    },
    {
      "type": "way",
      "id": 340255766,
      "center": {
        "lat": 12.9725835,
        "lon": 77.6566236
      },
      "tags": {
        "amenity": "school",
        "name": "Poorna Prajna Education Centre"
      }
    },
    {
      "type": "way",
      "id": 346775300,
      "center": {
        "lat": 12.9850987,
        "lon": 77.6631173
      },
      "tags": {
        "amenity": "post_office",
        "building": "commercial",
        "name": "DRDO Shopping complex / CV Raman Nagar PO",
        "operator": "India Posts",
        "ref": "CV Raman Nagar PO"
      }
    },
    {
      "type": "way",
      "id": 346776018,
      "center": {
        "lat": 12.9847018,
        "lon": 77.6631402
      },
      "tags": {
        "amenity": "community_centre",
        "building": "yes",
        "name": "DRDO Community Hall"
      }
    },
    {
      "type": "way",
      "id": 347084114,
      "center": {
        "lat": 12.9847652,
        "lon": 77.6626318
      },
      "tags": {
        "amenity": "theatre",
        "name": "Open Air Theatre"
      }
    },
    {
      "type": "way",
      "id": 347182995,
      "center": {
        "lat": 12.9803577,
        "lon": 77.657137
      },
      "tags": {
        "access": "customers",
        "amenity": "parking",
        "building": "yes",
        "parking": "multi-storey"
      }
    },
    {
      "type": "way",
      "id": 363617609,
      "center": {
        "lat": 12.9841178,
        "lon": 77.663424
      },
      "tags": {
        "leisure": "pitch",
        "name": "Phase 1 Tennis Court",
        "sport": "tennis",
        "surface": "paved"
      }
    },
    {
      "type": "way",
      "id": 363617610,
      "center": {
        "lat": 12.9839744,
        "lon": 77.6615189
      },
      "tags": {
        "leisure": "pitch"
      }
    },
    {
      "type": "way",
      "id": 415116796,
      "center": {
        "lat": 12.9722456,
        "lon": 77.6683221
      },
      "tags": {
        "leisure": "common"
      }
    },
    {
      "type": "way",
      "id": 415116797,
      "center": {
        "lat": 12.972982,
        "lon": 77.6696754
      },
      "tags": {
        "leisure": "park"
      }
    },
    {
      "type": "way",
      "id": 415116798,
      "center": {
        "lat": 12.9725574,
        "lon": 77.6686068
      },
      "tags": {
        "leisure": "sports_centre"
      }
    },
    {
      "type": "way",
      "id": 415116799,
      "center": {
        "lat": 12.9745137,
        "lon": 77.6703174
      },
      "tags": {
        "leisure": "park"
      }
    },
    {
      "type": "way",
      "id": 415125446,
      "center": {
        "lat": 12.9774258,
        "lon": 77.6713351
      },
      "tags": {
        "amenity": "school",
        "name": "Global City International School"
      }
    },
    {
      "type": "way",
      "id": 454707669,
      "center": {
        "lat": 12.9734765,
        "lon": 77.6557437
      },
      "tags": {
        "amenity": "school",
        "name": "Sishu Griha Senior School"
      }
    },
    {
      "type": "way",
      "id": 574696674,
      "center": {
        "lat": 12.9728591,
        "lon": 77.668856
      },
      "tags": {
        "leisure": "playground"
      }
    },
    {
      "type": "way",
      "id": 630203906,
      "center": {
        "lat": 12.9773927,
        "lon": 77.6556312
      },
      "tags": {
        "access": "customers",
        "leisure": "pitch",
        "lit": "yes",
        "name": "Joga Bonito Soccer",
        "payment:cash": "yes",
        "payment:paytm": "yes",
        "short_name": "JBS",
        "sport": "soccer",
        "surface": "artificial_turf"
      }
    },
    {
      "type": "way",
      "id": 1053086117,
      "center": {
        "lat": 12.983105,
        "lon": 77.6601185
      },
      "tags": {
        "leisure": "playground",
        "name": "DRDO Playground"
      }
    },
    {
      "type": "way",
      "id": 1053086135,
      "center": {
        "lat": 12.9850948,
        "lon": 77.6654174
      },
      "tags": {
        "leisure": "park"
      }
    },
    {
      "type": "way",
      "id": 1054384478,
      "center": {
        "lat": 12.9763384,
        "lon": 77.6728844
      },
      "tags": {
        "amenity": "school",
        "name": "Sishu Griha Junior School"
      }
    },
    {
      "type": "way",
      "id": 1065296604,
      "center": {
        "lat": 12.9780051,
        "lon": 77.6597076
      },
      "tags": {
        "access": "permissive",
        "amenity": "parking",
        "parking": "surface"
      }
    },
    {
      "type": "way",
      "id": 1065296605,
      "center": {
        "lat": 12.9790731,
        "lon": 77.6648439
      },
      "tags": {
        "access": "permissive",
        "amenity": "parking",
        "parking": "surface"
      }
    },
    {
      "type": "way",
      "id": 1065296606,
      "center": {
        "lat": 12.9782451,
        "lon": 77.6639012
      },
      "tags": {
        "access": "permissive",
        "amenity": "parking",
        "parking": "surface"
      }
    },
    {
      "type": "way",
      "id": 1065300633,
      "center": {
        "lat": 12.9786838,
        "lon": 77.6611835
      },
      "tags": {
        "access": "permissive",
        "amenity": "parking",
        "parking": "surface"
      }
    },
    {
      "type": "way",
      "id": 1153512102,
      "center": {
        "lat": 12.9770503,
        "lon": 77.6554472
      },
      "tags": {
        "leisure": "sports_centre"
      }
    },
    {
      "type": "way",
      "id": 1153512103,
      "center": {
        "lat": 12.9772337,
        "lon": 77.6555341
      },
      "tags": {
        "leisure": "sports_centre",
        "name": "Play Zone Indiranagar"
      }
    },
    {
      "type": "way",
      "id": 1213188974,
      "center": {
        "lat": 12.9694677,
        "lon": 77.6681406
      },
      "tags": {
        "addr:full": "Khata no:152, CV Raman Nagar, Survey no 136/3B, 7th Cross Road,, Vibhutipura Village, Jagadish Nagar, New Tippasandra, Bengaluru, Karnataka 560075",
        "amenity": "school",
        "email": "communications.oiscvr@orchids.edu.in",
        "name": "Orchids The International School - C V Raman Nagar",
        "opening_hours": "Mo-Su 09:00-18:30",
        "operator": "Orchids International School",
        "phone": "9513922803",
        "website": "https://www.orchidsinternationalschool.com/bangalore-branches/cv-raman-nagar/"
      }
    },
    {
      "type": "way",
      "id": 1213188978,
      "center": {
        "lat": 12.9693692,
        "lon": 77.6685547
      },
      "tags": {
        "leisure": "pitch",
        "sport": "soccer"
      }
    },
    {
      "type": "way",
      "id": 1213188980,
      "center": {
        "lat": 12.9694793,
        "lon": 77.6677153
      },
      "tags": {
        "leisure": "pitch"
      }
    },
    {
      "type": "way",
      "id": 1251186677,
      "center": {
        "lat": 12.9783306,
        "lon": 77.6621393
      },
      "tags": {
        "leisure": "park"
      }
    },
    {
      "type": "way",
      "id": 1252257170,
      "center": {
        "lat": 12.977855,
        "lon": 77.6712792
      },
      "tags": {
        "leisure": "pitch",
        "sport": "basketball"
      }
    },
    {
      "type": "way",
      "id": 1252257176,
      "center": {
        "lat": 12.9776249,
        "lon": 77.6610112
      },
      "tags": {
        "access": "permissive",
        "leisure": "pitch",
        "sport": "tennis"
      }
    },
    {
      "type": "way",
      "id": 1320013842,
      "center": {
        "lat": 12.9748041,
        "lon": 77.6648258
      },
      "tags": {
        "amenity": "place_of_worship",
        "landuse": "religious",
        "name": "Shri Viranjaneya Temple",
        "name:kn": "ಶ್ರೀ ವೀರಾಂಜನೇಯ",
        "religion": "hindu"
      }
    },
    {
      "type": "way",
      "id": 1320013891,
      "center": {
        "lat": 12.971172,
        "lon": 77.6651791
      },
      "tags": {
        "amenity": "hospital",
        "name": "BEML Hospital"
      }
    },
    {
      "type": "way",
      "id": 1320013898,
      "center": {
        "lat": 12.9709309,
        "lon": 77.6700324
      },
      "tags": {
        "amenity": "place_of_worship",
        "landuse": "religious",
        "name": "Ayappa Temple",
        "religion": "hindu"
      }
    },
    {
      "type": "way",
      "id": 1320013928,
      "center": {
        "lat": 12.9779679,
        "lon": 77.6573566
      },
      "tags": {
        "access": "permissive",
        "amenity": "parking",
        "parking": "surface"
      }
    },
    {
      "type": "way",
      "id": 1320014017,
      "center": {
        "lat": 12.9779487,
        "lon": 77.6587271
      },
      "tags": {
        "access": "permissive",
        "amenity": "parking",
        "parking": "surface"
      }
    },
    {
      "type": "way",
      "id": 1332851224,
      "center": {
        "lat": 12.9734966,
        "lon": 77.656281
      },
      "tags": {
        "leisure": "playground"
      }
    },
    {
      "type": "way",
      "id": 1363975879,
      "center": {
        "lat": 12.9803321,
        "lon": 77.6714056
      },
      "tags": {
        "leisure": "park",
        "name": "Atal Bihari Vajpayee Park"
      }
    },
    {
      "type": "way",
      "id": 1363975904,
      "center": {
        "lat": 12.9769543,
        "lon": 77.6725405
      },
      "tags": {
        "leisure": "sports_centre",
        "name": "SAI Cricket Academy",
        "sport": "cricket"
      }
    },
    {
      "type": "way",
      "id": 1363975921,
      "center": {
        "lat": 12.9848026,
        "lon": 77.6653924
      },
      "tags": {
        "addr:street": "Kaggadasspura Main Road",
        "amenity": "place_of_worship",
        "landuse": "religious",
        "name": "Bhuvaneshwari/Shiva Temple",
        "religion": "hindu"
      }
    },
    {
      "type": "way",
      "id": 1444109296,
      "center": {
        "lat": 12.9768828,
        "lon": 77.6737751
      },
      "tags": {
        "leisure": "playground"
      }
    },
    {
      "type": "way",
      "id": 1444109298,
      "center": {
        "lat": 12.9775221,
        "lon": 77.6724957
      },
      "tags": {
        "amenity": "place_of_worship",
        "landuse": "religious",
        "name": "Sri Jalakanteshwara Temple",
        "religion": "hindu"
      }
    },
    {
      "type": "way",
      "id": 1444109352,
      "center": {
        "lat": 12.9763507,
        "lon": 77.6728482
      },
      "tags": {
        "access": "private",
        "leisure": "pitch",
        "sport": "basketball"
      }
    },
    {
      "type": "way",
      "id": 1446568061,
      "center": {
        "lat": 12.9818497,
        "lon": 77.6578125
      },
      "tags": {
        "amenity": "place_of_worship",
        "landuse": "religious",
        "religion": "hindu"
      }
    },
    {
      "type": "way",
      "id": 1446914636,
      "center": {
        "lat": 12.9776002,
        "lon": 77.6637228
      },
      "tags": {
        "access": "private",
        "amenity": "parking",
        "parking": "surface"
      }
    },
    {
      "type": "way",
      "id": 1447096789,
      "center": {
        "lat": 12.9816997,
        "lon": 77.6671956
      },
      "tags": {
        "addr:city": "Bangalore",
        "addr:housenumber": "Lake Road",
        "addr:postcode": "560093",
        "addr:street": "Byrasandra, C V Raman Nagar",
        "amenity": "place_of_worship",
        "landuse": "religious",
        "name": "Chowdheshwari Temple",
        "name:kn": "ಚೌಡೇಶ್ವರಿ ದೇವಸ್ಥಾನ",
        "religion": "hindu"
      }
    },
    {
      "type": "way",
      "id": 1447515030,
      "center": {
        "lat": 12.9710241,
        "lon": 77.6670774
      },
      "tags": {
        "access": "private",
        "leisure": "park"
      }
    },
    {
      "type": "way",
      "id": 1447685563,
      "center": {
        "lat": 12.9702664,
        "lon": 77.6711596
      },
      "tags": {
        "access": "private",
        "leisure": "swimming_pool"
      }
    },
    {
      "type": "way",
      "id": 1447685569,
      "center": {
        "lat": 12.969985,
        "lon": 77.6690582
      },
      "tags": {
        "access": "private",
        "leisure": "swimming_pool"
      }
    },
    {
      "type": "way",
      "id": 1447686030,
      "center": {
        "lat": 12.9705805,
        "lon": 77.6671334
      },
      "tags": {
        "access": "private",
        "leisure": "swimming_pool"
      }
    },
    {
      "type": "way",
      "id": 1447686031,
      "center": {
        "lat": 12.9706273,
        "lon": 77.6672605
      },
      "tags": {
        "access": "private",
        "leisure": "pitch",
        "sport": "basketball"
      }
    },
    {
      "type": "way",
      "id": 1448548594,
      "center": {
        "lat": 12.9706513,
        "lon": 77.6692983
      },
      "tags": {
        "leisure": "pitch",
        "sport": "tennis"
      }
    },
    {
      "type": "way",
      "id": 1448548595,
      "center": {
        "lat": 12.9708669,
        "lon": 77.669343
      },
      "tags": {
        "leisure": "pitch",
        "sport": "tennis"
      }
    }
  ]
}