{
  "area_name": "Gunjur",
  "osm_id": 833667755,
  "osm_type": "node",
  "place_type": "suburb",
  "amenity_count": 74,
  "amenities": [
    {
      "type": "node",
      "id": 7202724055,
      "lat": 12.922327,
      "lon": 77.736038,
      "tags": {
        "addr:district": "Bangalore",
        "addr:full": "Gunjur",
        "addr:postcode": "560087",
        "addr:state": "Karnataka",
        "addr:subdistrict": "Bangalore East",
        "amenity": "hospital",
        "name": "Government Hospital, Gunjur",
        "source": "OpenGovernmentData"
      }
    },
    {
      "type": "node",
      "id": 8277305011,
      "lat": 12.9213268,
      "lon": 77.736211,
      "tags": {
        "amenity": "dentist",
        "name": "Dentawell"
      }
    },
    {
      "type": "node",
      "id": 11506489870,
      "lat": 12.9194229,
      "lon": 77.7366762,
      "tags": {
        "access": "permissive",
        "amenity": "parking",
        "parking": "surface"
      }
    },
    {
      "type": "node",
      "id": 11506489871,
      "lat": 12.919449,
      "lon": 77.7379744,
      "tags": {
        "access": "permissive",
        "amenity": "parking",
        "parking": "surface"
      }
    },
    {
      "type": "node",
      "id": 11548624630,
      "lat": 12.929769,
      "lon": 77.7374864,
      "tags": {
        "access": "private",
        "amenity": "parking_entrance",
        "parking": "underground"
      }
    },
    {
      "type": "node",
      "id": 11563901830,
      "lat": 12.9257344,
      "lon": 77.7358523,
      "tags": {
        "amenity": "restaurant",
        "check_date": "2024-01-29",
        "contact:instagram": "https://www.instagram.com/nusa.blr",
        "full_name": "Nusa - Tropical Brewvilla",
        "name": "Nusa",
        "website": "https://www.nusabrewvilla.com/"
      }
    },
    {
      "type": "node",
      "id": 12712153738,
      "lat": 12.9258848,
      "lon": 77.7378194,
      "tags": {
        "check_date": "2025-03-30",
        "name": "Sri Diamond Hardware & Electricals",
        "shop": "hardware"
      }
    },
    {
      "type": "node",
      "id": 12712153739,
      "lat": 12.9259724,
      "lon": 77.7378459,
      "tags": {
        "check_date": "2025-03-30",
        "name": "Ramdev Fashionwear Fancy & Toys",
        "shop": "toys"
      }
    },
    {
      "type": "node",
      "id": 12712153740,
      "lat": 12.9257669,
      "lon": 77.737715,
      "tags": {
        "amenity": "pharmacy",
        "check_date": "2025-03-30",
        "healthcare": "pharmacy",
        "name": "Nandi Pharma"
      }
    },
    {
      "type": "node",
      "id": 12712153741,
      "lat": 12.92582,
      "lon": 77.7377245,
      "tags": {
        "check_date": "2025-03-30",
        "name": "Yug Furnishings",
        "shop": "furniture"
      }
    },
    {
      "type": "node",
      "id": 12712153742,
      "lat": 12.9257981,
      "lon": 77.7377932,
      "tags": {
        "check_date": "2025-03-30",
        "name": "Living Cultures",
        "shop": "interior_decoration"
      }
    },
    {
      "type": "node",
      "id": 12712153743,
      "lat": 12.9257492,
      "lon": 77.7377807,
      "tags": {
        "amenity": "clinic",
        "check_date": "2025-03-30",
        "healthcare": "clinic",
        "name": "Pranathi Clinic"
      }
    },
    {
      "type": "node",
      "id": 12712153744,
      "lat": 12.9261935,
      "lon": 77.7374757,
      "tags": {
        "check_date": "2025-03-30",
        "name": "Dry Fruits Shop",
        "shop": "confectionery"
      }
    },
    {
      "type": "node",
      "id": 12712162714,
      "lat": 12.9255045,
      "lon": 77.7370968,
      "tags": {
        "alt_name": "Kentucky Fried Chicken",
        "alt_name:en": "Kentucky Fried Chicken",
        "alt_name:hi": "केंटुकी फ्राइड चिकन",
        "alt_name:pa": "ਕੈਂਟੁਕੀ ਫ੍ਰਾਈਡ ਚਿਕਨ",
        "alt_name:pnb": "کینٹکی فرائیڈ چکن",
        "alt_name:ur": "کینٹکی فرائیڈ چکن",
        "amenity": "fast_food",
        "brand": "KFC",
        "brand:en": "KFC",
        "brand:hi": "केएफसी",
        "brand:pa": "ਕੇਐਫਸੀ",
        "brand:pnb": "کے ایف سی",
        "brand:ur": "کے ایف سی",
        "brand:wikidata": "Q524757",
        "check_date": "2025-03-30",
        "cuisine": "chicken",
        "drive_through": "no",
        "name": "KFC",
        "name:en": "KFC",
        "name:hi": "केएफसी",
        "name:pa": "ਕੇਐਫਸੀ",
        "name:pnb": "کے ایف سی",
        "name:ur": "کے ایف سی",
        "takeaway": "yes"
      }
    },
    {
      "type": "node",
      "id": 12740901496,
      "lat": 12.9221472,
      "lon": 77.7366096,
      "tags": {
        "amenity": "fast_food",
        "check_date": "2025-04-09",
        "cuisine": "burger",
        "name": "Biggies Burger"
      }
    },
    {
      "type": "node",
      "id": 12740901497,
      "lat": 12.9128919,
      "lon": 77.7395687,
      "tags": {
        "addr:floor": "G",
        "brand": "Bata",
        "brand:wikidata": "Q688082",
        "check_date": "2025-08-22",
        "level": "0",
        "name": "Bata",
        "shop": "shoes"
      }
    },
    {
      "type": "node",
      "id": 12805833362,
      "lat": 12.92015,
      "lon": 77.7415364,
      "tags": {
        "amenity": "music_school",
        "check_date": "2025-05-03",
        "name": "Kalanjali"
      }
    },
    {
      "type": "node",
      "id": 12805843704,
      "lat": 12.9291335,
      "lon": 77.7387383,
      "tags": {
        "addr:floor": "0",
        "amenity": "library",
        "brand": "JustBooks",
        "brand:wikidata": "Q55615467",
        "brand:wikipedia": "JustBooks",
        "check_date": "2025-05-03",
        "contact:facebook": "https://www.facebook.com/JustBooksCLC/",
        "contact:instagram": "https://www.instagram.com/justbooksclc/",
        "contact:twitter": "https://twitter.com/justbooksclc",
        "internet_access": "no",
        "level": "0",
        "name": "JustBooks",
        "operator:type": "private",
        "website": "https://www.justbooks.in",
        "wheelchair": "no"
      }
    },
    {
      "type": "node",
      "id": 12805843705,
      "lat": 12.9286007,
      "lon": 77.7397026,
      "tags": {
        "amenity": "cafe",
        "check_date": "2025-05-03",
        "name": "The Banaras Cafe"
      }
    },
    {
      "type": "node",
      "id": 12805847502,
      "lat": 12.9201421,
      "lon": 77.7418046,
      "tags": {
        "check_date": "2025-05-03",
        "name": "Sri Chowdeshwari Enterprises",
        "name:kn": "ಶ್ರೇ ಚೌಡೇಶ್ವರಿ ಎಂಟರ್ಪ್ರೈಸೆಸ್",
        "shop": "general"
      }
    },
    {
      "type": "node",
      "id": 12805847503,
      "lat": 12.9201616,
      "lon": 77.7414862,
      "tags": {
        "check_date": "2025-05-03",
        "name": "Modern Doll Salon",
        "shop": "hairdresser"
      }
    },
    {
      "type": "node",
      "id": 12805849078,
      "lat": 12.929433,
      "lon": 77.7379793,
      "tags": {
        "amenity": "music_school",
        "check_date": "2025-05-03",
        "name": "VAMA"
      }
    },
    {
      "type": "node",
      "id": 12806439626,
      "lat": 12.9234737,
      "lon": 77.7367312,
      "tags": {
        "shop": "supermarket"
      }
    },
    {
      "type": "node",
      "id": 12883826130,
      "lat": 12.9245224,
      "lon": 77.7370823,
      "tags": {
        "addr:street": "Gunjur Rd, Varthur, Bengaluru, Karnataka 560087, India",
        "amenity": "pub",
        "craft": "brewery",
        "description": "Brewery",
        "name": "Old Mill Brewing Co.",
        "opening_hours": "Mo-Su 12:00-00:30",
        "phone": "+918084798479",
        "website": "https://oldmillbrewing.com/"
      }
    },
    {
      "type": "node",
      "id": 12959588093,
      "lat": 12.928802,
      "lon": 77.7394116,
      "tags": {
        "amenity": "restaurant",
        "check_date": "2025-06-28",
        "name": "Udupi Grand"
      }
    },
    {
      "type": "node",
      "id": 12959588094,
      "lat": 12.9284861,
      "lon": 77.7406117,
      "tags": {
        "amenity": "kindergarten",
        "check_date": "2025-06-28",
        "name": "Bachpan"
      }
    },
    {
      "type": "node",
      "id": 12959588095,
      "lat": 12.9281031,
      "lon": 77.7413843,
      "tags": {
        "amenity": "kindergarten",
        "check_date": "2025-06-28",
        "name": "Hi Kalpa"
      }
    },
    {
      "type": "node",
      "id": 12959659661,
      "lat": 12.9288796,
      "lon": 77.7400141,
      "tags": {
        "brand": "Honda",
        "brand:wikidata": "Q9584",
        "check_date": "2025-06-28",
        "name": "Tansi Honda",
        "shop": "car_repair"
      }
    },
    {
      "type": "node",
      "id": 12959701242,
      "lat": 12.9282795,
      "lon": 77.7407614,
      "tags": {
        "amenity": "place_of_worship",
        "check_date": "2025-06-28",
        "religion": "hindu"
      }
    },
    {
      "type": "node",
      "id": 12959712848,
      "lat": 12.9286393,
      "lon": 77.7392563,
      "tags": {
        "amenity": "fast_food",
        "brand": "Domino's",
        "brand:wikidata": "Q839466",
        "check_date": "2025-06-28",
        "cuisine": "pizza",
        "name": "Domino's",
        "takeaway": "yes"
      }
    },
    {
      "type": "node",
      "id": 12959713628,
      "lat": 12.9282063,
      "lon": 77.7409446,
      "tags": {
        "amenity": "place_of_worship",
        "check_date": "2025-06-28",
        "name": "Sri Veeranjaneya Devalaya",
        "religion": "hindu"
      }
    },
    {
      "type": "node",
      "id": 13089617414,
      "lat": 12.9128486,
      "lon": 77.739575,
      "tags": {
        "addr:floor": "0;1",
        "addr:housenumber": "76/2",
        "air_conditioning": "yes",
        "amenity": "restaurant",
        "bar": "no",
        "brewery": "no",
        "check_date": "2025-08-22",
        "contact:phone": "+91 90363 60020",
        "cuisine": "indian;north_indian;pizza;regional;chaat;noodle;local;jaipuri;rajasthani",
        "diet:alcohol_free": "yes",
        "diet:jain": "yes",
        "diet:vegetarian": "yes",
        "highchair": "yes",
        "internet_access": "wlan",
        "kids_area": "yes",
        "kids_area:fee": "yes",
        "kids_area:indoor": "yes",
        "name": "Jaypore Delights",
        "outdoor_seating": "no",
        "smoking": "no",
        "takeaway": "yes",
        "toilets": "yes",
        "toilets:access": "customers"
      }
    },
    {
      "type": "way",
      "id": 251505661,
      "center": {
        "lat": 12.9228787,
        "lon": 77.7361928
      },
      "tags": {
        "amenity": "school",
        "check_date": "2024-07-20",
        "name": "Gunjuru Government School",
        "name:kn": "ಸರ್ಕಾರಿ ಶಾಲೆ ಗುಂಜೂರು"
      }
    },
    {
      "type": "way",
      "id": 251505672,
      "center": {
        "lat": 12.9181785,
        "lon": 77.7370746
      },
      "tags": {
        "amenity": "place_of_worship",
        "name": "Anjaneya Temple",
        "name:kn": "ಆಂಜನೇಯ ದೇವಸ್ಥಾನ",
        "religion": "hindu"
      }
    },
    {
      "type": "way",
      "id": 347026120,
      "center": {
        "lat": 12.9221741,
        "lon": 77.7312
      },
      "tags": {
        "amenity": "place_of_worship",
        "religion": "hindu"
      }
    },
    {
      "type": "way",
      "id": 350563787,
      "center": {
        "lat": 12.9213696,
        "lon": 77.7336124
      },
      "tags": {
        "addr:city": "Bengaluru",
        "addr:postcode": "560087",
        "addr:street": "Gunjur Palya Rd, Gunjur",
        "amenity": "place_of_worship",
        "building": "yes",
        "name": "Shri Vinayaka Temple",
        "religion": "hindu"
      }
    },
    {
      "type": "way",
      "id": 350576835,
      "center": {
        "lat": 12.9211155,
        "lon": 77.7365802
      },
      "tags": {
        "amenity": "place_of_worship",
        "building": "yes",
        "name": "Sri Rama and Sri Hanuman Temple",
        "religion": "hindu"
      }
    },
    {
      "type": "way",
      "id": 525509258,
      "center": {
        "lat": 12.9212188,
        "lon": 77.7341833
      },
      "tags": {
        "amenity": "place_of_worship",
        "building": "yes",
        "name": "Gokal",
        "religion": "hindu"
      }
    },
    {
      "type": "way",
      "id": 525513226,
      "center": {
        "lat": 12.9204137,
        "lon": 77.728078
      },
      "tags": {
        "building": "commercial",
        "name": "Sunrise",
        "shop": "wine"
      }
    },
    {
      "type": "way",
      "id": 766409570,
      "center": {
        "lat": 12.9270179,
        "lon": 77.7330211
      },
      "tags": {
        "leisure": "playground",
        "name": "Children's Play Area"
      }
    },
    {
      "type": "way",
      "id": 766409579,
      "center": {
        "lat": 12.9269655,
        "lon": 77.7339715
      },
      "tags": {
        "leisure": "pitch",
        "sport": "tennis"
      }
    },
    {
      "type": "way",
      "id": 1072006983,
      "center": {
        "lat": 12.9222506,
        "lon": 77.7306718
      },
      "tags": {
        "access": "private",
        "leisure": "swimming_pool"
      }
    },
    {
      "type": "way",
      "id": 1072007017,
      "center": {
        "lat": 12.9213496,
        "lon": 77.7389247
      },
      "tags": {
        "amenity": "school"
      }
    },
    {
      "type": "way",
      "id": 1072197824,
      "center": {
        "lat": 12.9270623,
        "lon": 77.739188
      },
      "tags": {
        "amenity": "school",
        "name": "The Cambridge International School"
      }
    },
    {
      "type": "way",
      "id": 1076268797,
      "center": {
        "lat": 12.9284254,
        "lon": 77.7349115
      },
      "tags": {
        "leisure": "pitch",
        "sport": "basketball"
      }
    },
    {
      "type": "way",
      "id": 1080917783,
      "center": {
        "lat": 12.928575,
        "lon": 77.7383634
      },
      "tags": {
        "amenity": "parking",
        "parking": "surface"
      }
    },
    {
      "type": "way",
      "id": 1186537856,
      "center": {
        "lat": 12.9301723,
        "lon": 77.734692
      },
      "tags": {
        "leisure": "park"
      }
    },
    {
      "type": "way",
      "id": 1186537858,
      "center": {
        "lat": 12.9290923,
        "lon": 77.7333919
      },
      "tags": {
        "leisure": "park"
      }
    },
    {
      "type": "way",
      "id": 1186537859,
      "center": {
        "lat": 12.9289715,
        "lon": 77.7341438
      },
      "tags": {
        "leisure": "park"
      }
    },
    {
      "type": "way",
      "id": 1186548878,
      "center": {
        "lat": 12.9295649,
        "lon": 77.7364592
      },
      "tags": {
        "leisure": "pitch",
        "sport": "basketball"
      }
    },
    {
      "type": "way",
      "id": 1238661116,
      "center": {
        "lat": 12.9190642,
        "lon": 77.7370321
      },
      "tags": {
        "access": "private",
        "leisure": "swimming_pool"
      }
    },
    {
      "type": "way",
      "id": 1238661117,
      "center": {
        "lat": 12.9191692,
        "lon": 77.7368905
      },
      "tags": {
        "leisure": "park"
      }
    },
    {
      "type": "way",
      "id": 1238661118,
      "center": {
        "lat": 12.9171929,
        "lon": 77.7292729
      },
      "tags": {
        "access": "private",
        "leisure": "pitch",
        "sport": "tennis"
      }
    },
    {
      "type": "way",
      "id": 1238661120,
      "center": {
        "lat": 12.9169682,
        "lon": 77.72911
      },
      "tags": {
        "access": "private",
        "leisure": "swimming_pool"
      }
    },
    {
      "type": "way",
      "id": 1238661121,
      "center": {
        "lat": 12.9161212,
        "lon": 77.7290446
      },
      "tags": {
        "leisure": "park"
      }
    },
    {
      "type": "way",
      "id": 1242696400,
      "center": {
        "lat": 12.9299049,
        "lon": 77.7373432
      },
      "tags": {
        "access": "private",
        "amenity": "parking",
        "orientation": "perpendicular",
        "parking": "street_side"
      }
    },
    {
      "type": "way",
      "id": 1242735503,
      "center": {
        "lat": 12.9275944,
        "lon": 77.7328931
      },
      "tags": {
        "leisure": "park"
      }
    },
    {
      "type": "way",
      "id": 1242735504,
      "center": {
        "lat": 12.92838,
        "lon": 77.7333883
      },
      "tags": {
        "amenity": "theatre",
        "name": "Amphitheater",
        "theatre:type": "amphi"
      }
    },
    {
      "type": "way",
      "id": 1274603975,
      "center": {
        "lat": 12.9202444,
        "lon": 77.7381662
      },
      "tags": {
        "amenity": "place_of_worship",
        "landuse": "religious",
        "religion": "hindu"
      }
    },
    {
      "type": "way",
      "id": 1274603978,
      "center": {
        "lat": 12.9274879,
        "lon": 77.7393576
      },
      "tags": {
        "access": "private",
        "leisure": "pitch",
        "sport": "basketball"
      }
    },
    {
      "type": "way",
      "id": 1274603979,
      "center": {
        "lat": 12.9275166,
        "lon": 77.7392157
      },
      "tags": {
        "access": "private",
        "leisure": "pitch",
        "sport": "tennis"
      }
    },
    {
      "type": "way",
      "id": 1274608246,
      "center": {
        "lat": 12.9193397,
        "lon": 77.7372539
      },
      "tags": {
        "access": "permissive",
        "amenity": "parking",
        "parking": "surface"
      }
    },
    {
      "type": "way",
      "id": 1285817695,
      "center": {
        "lat": 12.91549,
        "lon": 77.7375657
      },
      "tags": {
        "amenity": "events_venue",
        "landuse": "commercial",
        "name": "SR Akshata Convention Hall"
      }
    },
    {
      "type": "way",
      "id": 1312802141,
      "center": {
        "lat": 12.927133,
        "lon": 77.7392686
      },
      "tags": {
        "access": "private",
        "leisure": "pitch"
      }
    },
    {
      "type": "way",
      "id": 1312843783,
      "center": {
        "lat": 12.9240443,
        "lon": 77.7399351
      },
      "tags": {
        "access": "private",
        "leisure": "swimming_pool"
      }
    },
    {
      "type": "way",
      "id": 1312843792,
      "center": {
        "lat": 12.9282286,
        "lon": 77.7394738
      },
      "tags": {
        "amenity": "fuel",
        "brand": "Hindustan Petroleum",
        "brand:wikidata": "Q1619375",
        "check_date": "2025-06-28",
        "name": "HP",
        "official_name": "Hindustan Petroleum"
      }
    },
    {
      "type": "way",
      "id": 1313082145,
      "center": {
        "lat": 12.916855,
        "lon": 77.7346882
      },
      "tags": {
        "access": "private",
        "leisure": "pitch",
        "sport": "soccer"
      }
    },
    {
      "type": "way",
      "id": 1329528152,
      "center": {
        "lat": 12.9245878,
        "lon": 77.7282457
      },
      "tags": {
        "access": "private",
        "leisure": "park"
      }
    },
    {
      "type": "way",
      "id": 1377263249,
      "center": {
        "lat": 12.9250232,
        "lon": 77.7345083
      },
      "tags": {
        "access": "private",
        "leisure": "park"
      }
    },
    {
      "type": "way",
      "id": 1377263254,
      "center": {
        "lat": 12.9217851,
        "lon": 77.730978
      },
      "tags": {
        "amenity": "social_facility",
        "name": "Old age home",
        "social_facility": "nursing_home",
        "social_facility:for": "senior"
      }
    },
    {
      "type": "way",
      "id": 1383291132,
      "center": {
        "lat": 12.9240165,
        "lon": 77.737026
      },
      "tags": {
        "access": "private",
        "leisure": "swimming_pool"
      }
    },
    {
      "type": "way",
      "id": 1410896651,
      "center": {
        "lat": 12.9237568,
        "lon": 77.7385765
      },
      "tags": {
        "access": "private",
        "leisure": "swimming_pool"
      }
    },
    {
      "type": "way",
      "id": 1414003355,
      "center": {
        "lat": 12.9262703,
        "lon": 77.7324689
      },
      "tags": {
        "amenity": "fuel"
      }
    },
    {
      "type": "way",
      "id": 1421090958,
      "center": {
        "lat": 12.9240335,
        "lon": 77.7389767
      },
      "tags": {
        "leisure": "pitch"
      }
    }
  ]
}