{
  "area_name": "Hanuman Nagar",
  "osm_id": 12367522144,
  "osm_type": "node",
  "place_type": "neighbourhood",
  "amenity_count": 504,
  "amenities": [
    {
      "type": "node",
      "id": 316999477,
      "lat": 12.9686175,
      "lon": 77.6489441,
      "tags": {
        "amenity": "pharmacy",
        "brand": "Apollo Pharmacy",
        "brand:wikidata": "Q62562612",
        "healthcare": "pharmacy",
        "name": "Apollo Pharmacy",
        "name:kn": "ಅಪೊಲೋ ಫಾರ್ಮಸಿ"
      }
    },
    {
      "type": "node",
      "id": 940525605,
      "lat": 12.9677712,
      "lon": 77.6556937,
      "tags": {
        "amenity": "police",
        "name": "Jeevan Bhima Nagar Police Station",
        "name:kn": "ಜೀವನ ಭೀಮ ನಗರ"
      }
    },
    {
      "type": "node",
      "id": 940536431,
      "lat": 12.967858,
      "lon": 77.6542204,
      "tags": {
        "amenity": "cafe",
        "brand": "Cafe Coffee Day",
        "brand:wikidata": "Q5017235",
        "brand:wikipedia": "en:Café Coffee Day",
        "cuisine": "coffee_shop",
        "name": "Cafe Coffee Day",
        "name:kn": "ಕಫೆ ಕಾಫಿ ಡೇ",
        "takeaway": "yes"
      }
    },
    {
      "type": "node",
      "id": 945711483,
      "lat": 12.9699613,
      "lon": 77.6473796,
      "tags": {
        "addr:street": "80 Feet Road(Sir C.V. Raman Hospital Road)",
        "amenity": "restaurant",
        "brand": "Empire",
        "cuisine": "indian",
        "delivery": "yes",
        "diet:vegetarian": "yes",
        "name": "Empire",
        "name:kn": "ಎಂಪೈರ್",
        "takeaway": "yes"
      }
    },
    {
      "type": "node",
      "id": 1317197138,
      "lat": 12.9745701,
      "lon": 77.6548127,
      "tags": {
        "brand": "HOPCOMS",
        "brand:wikidata": "Q22908959",
        "name": "HOPCOMS",
        "name:kn": "ಹಾಪ್ ಕಾಮ್ಸ್",
        "shop": "greengrocer"
      }
    },
    {
      "type": "node",
      "id": 1328593755,
      "lat": 12.971962,
      "lon": 77.6540312,
      "tags": {
        "amenity": "place_of_worship",
        "name": "Ganesha Temple",
        "name:kn": "ಗಣೇಶ ದೇವಸ್ಥಾನ",
        "religion": "hindu"
      }
    },
    {
      "type": "node",
      "id": 1328593756,
      "lat": 12.9734041,
      "lon": 77.653684,
      "tags": {
        "name": "Ladies Beauty Parlor",
        "shop": "hairdresser"
      }
    },
    {
      "type": "node",
      "id": 1328593757,
      "lat": 12.9719195,
      "lon": 77.6549929,
      "tags": {
        "shop": "hairdresser"
      }
    },
    {
      "type": "node",
      "id": 1328593758,
      "lat": 12.972092,
      "lon": 77.6526058,
      "tags": {
        "addr:street": "Thippasandra Main Road",
        "name": "Ann's View Bakery",
        "shop": "bakery"
      }
    },
    {
      "type": "node",
      "id": 1328593759,
      "lat": 12.9719404,
      "lon": 77.6549125,
      "tags": {
        "shop": "clothes"
      }
    },
    {
      "type": "node",
      "id": 1328593760,
      "lat": 12.9720843,
      "lon": 77.6534265,
      "tags": {
        "name": "Meenakshi Electricals",
        "shop": "doityourself"
      }
    },
    {
      "type": "node",
      "id": 1328593761,
      "lat": 12.9720397,
      "lon": 77.6527345,
      "tags": {
        "shop": "butcher"
      }
    },
    {
      "type": "node",
      "id": 1328593762,
      "lat": 12.9741202,
      "lon": 77.653743,
      "tags": {
        "amenity": "cafe",
        "name": "Coffeeday Xpress"
      }
    },
    {
      "type": "node",
      "id": 1328610606,
      "lat": 12.9747197,
      "lon": 77.6550567,
      "tags": {
        "shop": "convenience"
      }
    },
    {
      "type": "node",
      "id": 1336840466,
      "lat": 12.9716449,
      "lon": 77.6574777,
      "tags": {
        "amenity": "atm",
        "fee": "OBC"
      }
    },
    {
      "type": "node",
      "id": 1336840478,
      "lat": 12.9713312,
      "lon": 77.6573918,
      "tags": {
        "amenity": "atm",
        "fee": "SBI"
      }
    },
    {
      "type": "node",
      "id": 1339408103,
      "lat": 12.9685208,
      "lon": 77.6495717,
      "tags": {
        "amenity": "toilets",
        "operator": "Nirmala"
      }
    },
    {
      "type": "node",
      "id": 1339408107,
      "lat": 12.9711922,
      "lon": 77.6504715,
      "tags": {
        "name": "Saleem Enfield Bullet Repair Shop",
        "shop": "motorcycle"
      }
    },
    {
      "type": "node",
      "id": 1339408132,
      "lat": 12.9718996,
      "lon": 77.6508166,
      "tags": {
        "amenity": "atm",
        "brand": "Federal Bank",
        "brand:wikidata": "Q2044983",
        "currency:INR": "yes",
        "drive_through": "no",
        "name": "Federal Bank",
        "operator": "Federal Bank",
        "operator:wikidata": "Q2044983"
      }
    },
    {
      "type": "node",
      "id": 1339408152,
      "lat": 12.9687955,
      "lon": 77.6488858,
      "tags": {
        "addr:housenumber": "1650",
        "addr:street": "Jeevan Bhima Nagar 10th Main Road",
        "amenity": "fast_food",
        "cuisine": "juice;sandwich",
        "diet:vegetarian": "only",
        "level": "0",
        "name": "Sabari Juice Junction",
        "opening_hours": "Mo-Su 10:00-22:00",
        "wheelchair": "limited"
      }
    },
    {
      "type": "node",
      "id": 1339408157,
      "lat": 12.9700656,
      "lon": 77.6506941,
      "tags": {
        "shop": "florist"
      }
    },
    {
      "type": "node",
      "id": 1339408167,
      "lat": 12.9690594,
      "lon": 77.6479877,
      "tags": {
        "addr:street": "80 Feet Road(Sir C.V. Raman Hospital Road)",
        "amenity": "restaurant",
        "cuisine": "chinese",
        "diet:vegetarian": "yes",
        "indoor_seating": "yes",
        "name": "Beijing Bites",
        "name:kn": "ಬೀಜಿಂಗ್ ಬೈಟ್ಸ್",
        "outdoor_seating": "no"
      }
    },
    {
      "type": "node",
      "id": 1339408176,
      "lat": 12.9700604,
      "lon": 77.6506324,
      "tags": {
        "brand": "HOPCOMS",
        "brand:wikidata": "Q22908959",
        "name": "HOPCOMS",
        "name:kn": "ಹಾಪ್ ಕಾಮ್ಸ್",
        "shop": "greengrocer"
      }
    },
    {
      "type": "node",
      "id": 1339408198,
      "lat": 12.9690672,
      "lon": 77.6480361,
      "tags": {
        "name": "Torque Car Accesories",
        "shop": "car_repair"
      }
    },
    {
      "type": "node",
      "id": 1339413315,
      "lat": 12.9733041,
      "lon": 77.6511018,
      "tags": {
        "brand": "Reliance Fresh",
        "brand:wikidata": "Q7311014",
        "brand:wikipedia": "en:Reliance Fresh",
        "check_date": "2024-11-23",
        "name": "Reliance Fresh",
        "name:kn": "ರಿಲಾಯನ್ಸ್ ಫ್ರೆಶ್",
        "shop": "supermarket"
      }
    },
    {
      "type": "node",
      "id": 1339413321,
      "lat": 12.9734191,
      "lon": 77.6513379,
      "tags": {
        "name": "Metal Works Shop",
        "shop": "doityourself"
      }
    },
    {
      "type": "node",
      "id": 1339413322,
      "lat": 12.9725356,
      "lon": 77.6511018,
      "tags": {
        "amenity": "pharmacy",
        "check_date": "2024-11-23",
        "healthcare": "pharmacy",
        "name": "Sri Vinayaka Medicals",
        "phone": "+91 84531 18830"
      }
    },
    {
      "type": "node",
      "id": 1466482752,
      "lat": 12.9659306,
      "lon": 77.6616713,
      "tags": {
        "amenity": "college",
        "name": "Sacred Heart College"
      }
    },
    {
      "type": "node",
      "id": 1471767351,
      "lat": 12.9677987,
      "lon": 77.654435,
      "tags": {
        "amenity": "restaurant",
        "capacity": "30",
        "cuisine": "kerala",
        "delivery": "yes",
        "name": "Malabar inn",
        "name:kn": "ಮಲಬಾರ್",
        "smoking": "no",
        "takeaway": "yes"
      }
    },
    {
      "type": "node",
      "id": 1500339295,
      "lat": 12.9674913,
      "lon": 77.6542264,
      "tags": {
        "amenity": "atm",
        "operator": "South Indian Bank ATM"
      }
    },
    {
      "type": "node",
      "id": 1500601533,
      "lat": 12.967409,
      "lon": 77.6559012,
      "tags": {
        "amenity": "police",
        "name": "Indiranagar Traffic Police Station",
        "name:kn": "ಇಂದಿರಾನಗರ ಸಂಚಾರ ಪೊಲೀಸ್ ಠಾಣೆ"
      }
    },
    {
      "type": "node",
      "id": 1522929660,
      "lat": 12.9646622,
      "lon": 77.6573486,
      "tags": {
        "addr:postcode": "560075",
        "addr:street": "Jeevan Bhima Nagar Main road",
        "amenity": "fast_food",
        "diet:vegetarian": "only",
        "name": "Kasturi Darshan Fast Food"
      }
    },
    {
      "type": "node",
      "id": 1643047902,
      "lat": 12.9735423,
      "lon": 77.6476618,
      "tags": {
        "addr:street": "1st Main Road",
        "amenity": "doctors",
        "healthcare": "doctor",
        "name": "Anjana Ramesh"
      }
    },
    {
      "type": "node",
      "id": 1758038053,
      "lat": 12.9683052,
      "lon": 77.6504678,
      "tags": {
        "addr:postcode": "560008",
        "addr:street": "Jeevan Bhima Nagar Main road,",
        "amenity": "restaurant",
        "name": "Kaayal",
        "name:kn": "ಕಾಯಲ್",
        "website": "http://kaayal.in/"
      }
    },
    {
      "type": "node",
      "id": 1758038060,
      "lat": 12.9686424,
      "lon": 77.6498752,
      "tags": {
        "amenity": "atm",
        "brand": "ICICI Bank",
        "brand:wikidata": "Q1653258",
        "name": "ICICI Bank",
        "operator": "ICICI Bank",
        "operator:wikidata": "Q1653258",
        "short_name": "ICICI"
      }
    },
    {
      "type": "node",
      "id": 1758230687,
      "lat": 12.968071,
      "lon": 77.650435,
      "tags": {
        "male": "yes",
        "name": "Select Hair Dressers",
        "shop": "hairdresser"
      }
    },
    {
      "type": "node",
      "id": 1758230692,
      "lat": 12.9679728,
      "lon": 77.6517588,
      "tags": {
        "name": "Top in Town",
        "shop": "supermarket"
      }
    },
    {
      "type": "node",
      "id": 1760015498,
      "lat": 12.9673986,
      "lon": 77.6502082,
      "tags": {
        "name": "Fresh and Green",
        "shop": "greengrocer"
      }
    },
    {
      "type": "node",
      "id": 1760015499,
      "lat": 12.968117,
      "lon": 77.6504466,
      "tags": {
        "amenity": "pharmacy",
        "brand": "MedPlus",
        "brand:wikidata": "Q65684234",
        "brand:wikipedia": "en:MedPlus",
        "healthcare": "pharmacy",
        "name": "MedPlus",
        "name:kn": "ಮೆಡ್ ಪ್ಲಸ್"
      }
    },
    {
      "type": "node",
      "id": 1760015500,
      "lat": 12.9662704,
      "lon": 77.6497422,
      "tags": {
        "addr:housenumber": "579",
        "addr:street": "6th Cross",
        "name": "Z Shoppe",
        "phone": "+91 80 252171841",
        "shop": "supermarket"
      }
    },
    {
      "type": "node",
      "id": 1760015504,
      "lat": 12.9661486,
      "lon": 77.6497036,
      "tags": {
        "shop": "kitchen"
      }
    },
    {
      "type": "node",
      "id": 1760015506,
      "lat": 12.9662438,
      "lon": 77.649815,
      "tags": {
        "amenity": "pharmacy",
        "healthcare": "pharmacy"
      }
    },
    {
      "type": "node",
      "id": 1760015509,
      "lat": 12.9663491,
      "lon": 77.6497843,
      "tags": {
        "shop": "tailor"
      }
    },
    {
      "type": "node",
      "id": 1760015512,
      "lat": 12.9663974,
      "lon": 77.649817,
      "tags": {
        "shop": "hardware"
      }
    },
    {
      "type": "node",
      "id": 1760015514,
      "lat": 12.9668422,
      "lon": 77.6499995,
      "tags": {
        "shop": "butcher"
      }
    },
    {
      "type": "node",
      "id": 1892722512,
      "lat": 12.9643634,
      "lon": 77.6493007,
      "tags": {
        "amenity": "place_of_worship",
        "religion": "hindu"
      }
    },
    {
      "type": "node",
      "id": 1934827302,
      "lat": 12.9683464,
      "lon": 77.6512784,
      "tags": {
        "addr:city": "Bangalore",
        "addr:housename": "Panchami Upahar",
        "addr:housenumber": "513",
        "addr:postcode": "560075",
        "addr:street": "Jeevan Bheema Nagar",
        "amenity": "fast_food",
        "diet:vegetarian": "only",
        "fixme": "Website (www.panchamiupahar.co.cc) doesn't work and Google claims the place is permanantly closed. Can someone confirm that?",
        "name": "Panchami Upahar"
      }
    },
    {
      "type": "node",
      "id": 2310741973,
      "lat": 12.9714432,
      "lon": 77.6476938,
      "tags": {
        "addr:city": "Bangalore",
        "addr:housenumber": "59/1",
        "addr:street": "1st Cross Road",
        "name": "DVK Biking",
        "note": "Motorbike rental only.",
        "opening_hours": "09:00-19:00",
        "shop": "motorcycle"
      }
    },
    {
      "type": "node",
      "id": 2550216930,
      "lat": 12.9690389,
      "lon": 77.6481056,
      "tags": {
        "addr:street": "Jeevan Bhima Nagar 10th Main Road",
        "amenity": "restaurant",
        "cuisine": "indian",
        "diet:vegetarian": "yes",
        "name": "Mani's Dum Briyani"
      }
    },
    {
      "type": "node",
      "id": 2901047878,
      "lat": 12.9700096,
      "lon": 77.6477377,
      "tags": {
        "addr:postcode": "560008",
        "addr:street": "80 Feet Road",
        "amenity": "bank",
        "atm": "yes",
        "brand": "IndusInd Bank",
        "brand:wikidata": "Q2040323",
        "brand:wikipedia": "en:IndusInd Bank",
        "name": "IndusInd Bank",
        "name:en": "IndusInd Bank",
        "website": "https://www.indusind.com"
      }
    },
    {
      "type": "node",
      "id": 3023136405,
      "lat": 12.9654449,
      "lon": 77.6492,
      "tags": {
        "name": "Paris Bakery",
        "shop": "bakery"
      }
    },
    {
      "type": "node",
      "id": 3047997926,
      "lat": 12.9683557,
      "lon": 77.6512329,
      "tags": {
        "addr:city": "Bangalore",
        "addr:postcode": "560075",
        "addr:street": "7th Cross 10th main",
        "amenity": "cafe",
        "brand": "Sweet Chariot",
        "cuisine": "cake",
        "delivery": "yes",
        "name": "Sweet Chariot",
        "shop": "pastry",
        "smoking": "no",
        "takeaway": "yes"
      }
    },
    {
      "type": "node",
      "id": 3047997927,
      "lat": 12.9687951,
      "lon": 77.6488597,
      "tags": {
        "addr:housenumber": "1650",
        "addr:street": "Jeevan Bhima Nagar Main Road",
        "amenity": "fast_food",
        "cuisine": "Manchurian;chinese",
        "diet:vegetarian": "yes",
        "level": "0",
        "name": "Spicy Corner",
        "smoking": "no",
        "wheelchair": "limited"
      }
    },
    {
      "type": "node",
      "id": 3506424470,
      "lat": 12.9659059,
      "lon": 77.6495491,
      "tags": {
        "shop": "kitchen"
      }
    },
    {
      "type": "node",
      "id": 3742854798,
      "lat": 12.9655896,
      "lon": 77.658372,
      "tags": {
        "amenity": "toilets"
      }
    },
    {
      "type": "node",
      "id": 3742854806,
      "lat": 12.9696235,
      "lon": 77.654847,
      "tags": {
        "amenity": "restaurant",
        "capacity": "25",
        "cuisine": "Punjabi",
        "name": "Swaad",
        "takeaway": "yes"
      }
    },
    {
      "type": "node",
      "id": 3837270531,
      "lat": 12.9656704,
      "lon": 77.6492943,
      "tags": {
        "amenity": "restaurant",
        "cuisine": "korean",
        "delivery": "no",
        "name": "Soo Ra Sang Korean Cuisine",
        "opening_hours": "Mo-Su 12:00-23:00"
      }
    },
    {
      "type": "node",
      "id": 3841346586,
      "lat": 12.9688091,
      "lon": 77.6489013,
      "tags": {
        "addr:housenumber": "1650",
        "addr:street": "Jeevan Bhima Nagar 10th Main Road",
        "amenity": "restaurant",
        "cuisine": "kerala",
        "diet:vegetarian": "yes",
        "level": "1",
        "name": "Green Pepper",
        "wheelchair": "no"
      }
    },
    {
      "type": "node",
      "id": 3841436213,
      "lat": 12.9691095,
      "lon": 77.6489071,
      "tags": {
        "addr:housenumber": "1671",
        "amenity": "fast_food",
        "diet:vegetarian": "no",
        "level": "0",
        "name": "Leon Grill",
        "opening_hours": "Mo-Su 12:30-23:00",
        "smoking": "no",
        "website": "https://www.leongrill.com/",
        "wheelchair": "no"
      }
    },
    {
      "type": "node",
      "id": 3851551568,
      "lat": 12.969536,
      "lon": 77.6478283,
      "tags": {
        "addr:street": "80 Feet Road(Sir C.V. Raman Hospital Road)",
        "level": "0",
        "name": "Elegante",
        "shop": "tailor"
      }
    },
    {
      "type": "node",
      "id": 3851551571,
      "lat": 12.9700892,
      "lon": 77.6477179,
      "tags": {
        "amenity": "bank",
        "brand": "Bank of Baroda",
        "brand:wikidata": "Q2003797",
        "brand:wikipedia": "en:Bank of Baroda",
        "level": "0",
        "name": "Bank of Baroda",
        "old_name": "Vijaya Bank"
      }
    },
    {
      "type": "node",
      "id": 3851551572,
      "lat": 12.970143,
      "lon": 77.6477134,
      "tags": {
        "addr:street": "80 Feet Road(Sir C.V. Raman Hospital Road)",
        "leisure": "sports_centre",
        "level": "1",
        "name": "a1000yoga",
        "sport": "yoga"
      }
    },
    {
      "type": "node",
      "id": 3851555733,
      "lat": 12.9702195,
      "lon": 77.6476869,
      "tags": {
        "addr:street": "80 Feet Road(Sir C.V. Raman Hospital Road)",
        "amenity": "cafe",
        "cuisine": "ice_cream",
        "level": "0",
        "name": "Siri's Camille's Ice Cream Bar"
      }
    },
    {
      "type": "node",
      "id": 3851555734,
      "lat": 12.9702636,
      "lon": 77.6476781,
      "tags": {
        "level": "0,1,2",
        "name": "The House of Fooba Wooba",
        "shop": "clothes"
      }
    },
    {
      "type": "node",
      "id": 3851560765,
      "lat": 12.9704663,
      "lon": 77.6476503,
      "tags": {
        "addr:street": "80 Feet Road(Sir C.V. Raman Hospital Road)",
        "level": "0",
        "name": "C Store",
        "shop": "computer"
      }
    },
    {
      "type": "node",
      "id": 3851560766,
      "lat": 12.9700666,
      "lon": 77.6473898,
      "tags": {
        "addr:street": "80 Feet Road(Sir C.V. Raman Hospital Road)",
        "level": "0",
        "name": "Gift Shop",
        "shop": "gift"
      }
    },
    {
      "type": "node",
      "id": 3851665171,
      "lat": 12.970301,
      "lon": 77.6473523,
      "tags": {
        "addr:street": "80 Feet Road(Sir C.V. Raman Hospital Road)",
        "level": "0,1",
        "name": "Kay Clinic",
        "shop": "beauty"
      }
    },
    {
      "type": "node",
      "id": 3851840695,
      "lat": 12.9705657,
      "lon": 77.6471693,
      "tags": {
        "addr:street": "80 Feet Road(Sir C.V. Raman Hospital Road)",
        "amenity": "cafe",
        "brand": "Cafe Coffee Day",
        "brand:wikidata": "Q5017235",
        "brand:wikipedia": "en:Café Coffee Day",
        "cuisine": "coffee_shop",
        "diet:vegetarian": "yes",
        "level": "0",
        "name": "Cafe Coffee Day",
        "name:kn": "ಕಫೆ ಕಾಫಿ ಡೇ",
        "takeaway": "yes"
      }
    },
    {
      "type": "node",
      "id": 3851840696,
      "lat": 12.9706589,
      "lon": 77.6472567,
      "tags": {
        "amenity": "bank",
        "brand": "Indian Bank",
        "brand:wikidata": "Q2003789",
        "brand:wikipedia": "en:Indian Bank",
        "check_date": "2024-05-22",
        "level": "1",
        "name": "Indian Bank",
        "name:en": "Indian Bank",
        "name:kn": "ಇಂಡಿಯನ್ ಬ್ಯಾಂಕ್",
        "website": "https://www.indianbank.in/"
      }
    },
    {
      "type": "node",
      "id": 3851848294,
      "lat": 12.9705618,
      "lon": 77.6470848,
      "tags": {
        "addr:street": "12th Main Road",
        "amenity": "cafe",
        "cuisine": "ice_cream",
        "diet:vegetarian": "yes",
        "name": "Cream Stone"
      }
    },
    {
      "type": "node",
      "id": 4038176379,
      "lat": 12.9708508,
      "lon": 77.6474894,
      "tags": {
        "addr:city": "Bangalore",
        "addr:country": "IN",
        "addr:postcode": "560075",
        "addr:street": "80 Feet Road",
        "addr:suburb": "Indiranagar",
        "amenity": "cafe",
        "name": "Lazy Suzy",
        "shop": "bakery"
      }
    },
    {
      "type": "node",
      "id": 4159262147,
      "lat": 12.9743131,
      "lon": 77.6498376,
      "tags": {
        "addr:housenumber": "1051/A",
        "addr:street": "2nd Main Road",
        "name": "Royal Bakery",
        "opening_hours": "24/7",
        "shop": "bakery"
      }
    },
    {
      "type": "node",
      "id": 4171774699,
      "lat": 12.9750833,
      "lon": 77.6517316,
      "tags": {
        "addr:housenumber": "37",
        "addr:street": "Rama Temple Road",
        "name": "Sree Manjunatha Stores",
        "shop": "supermarket"
      }
    },
    {
      "type": "node",
      "id": 4172485190,
      "lat": 12.9725024,
      "lon": 77.6508886,
      "tags": {
        "amenity": "atm",
        "brand": "Axis Bank",
        "brand:wikidata": "Q2003549",
        "cash_in": "no",
        "check_date": "2024-11-23",
        "name": "Axis Bank",
        "operator": "Axis Bank",
        "operator:wikidata": "Q2003549"
      }
    },
    {
      "type": "node",
      "id": 4172490689,
      "lat": 12.9725784,
      "lon": 77.650926,
      "tags": {
        "addr:street": "Thippasandra Main Road",
        "amenity": "place_of_worship",
        "check_date": "2024-11-23",
        "name": "Sri Prasanna Eshwara Swamy Twmple",
        "name:kn": "ಶ್ರೀ ಪ್ರಸನ್ನ ಈಶ್ವರ ಸ್ವಾಮಿ ದೇವಸ್ಥಾನ",
        "religion": "hindu",
        "wheelchair": "no"
      }
    },
    {
      "type": "node",
      "id": 4281354889,
      "lat": 12.9729359,
      "lon": 77.6481044,
      "tags": {
        "name": "Eye life",
        "shop": "optician"
      }
    },
    {
      "type": "node",
      "id": 4281904892,
      "lat": 12.9704543,
      "lon": 77.6531443,
      "tags": {
        "addr:street": "6th Main Road",
        "amenity": "clinic",
        "healthcare": "clinic",
        "name": "Kiran Homeopathic"
      }
    },
    {
      "type": "node",
      "id": 4281904893,
      "lat": 12.9704514,
      "lon": 77.6530301,
      "tags": {
        "addr:street": "6th Main Road",
        "name": "Sagar Tourist",
        "shop": "travel_agency"
      }
    },
    {
      "type": "node",
      "id": 4281947190,
      "lat": 12.9719846,
      "lon": 77.6547785,
      "tags": {
        "name": "Kanti",
        "shop": "confectionery"
      }
    },
    {
      "type": "node",
      "id": 4281970789,
      "lat": 12.9717991,
      "lon": 77.658012,
      "tags": {
        "amenity": "bank",
        "branch": "BEML Gate Branch",
        "brand": "HDFC Bank",
        "brand:wikidata": "Q631047",
        "name": "HDFC Bank",
        "short_name": "HDFC"
      }
    },
    {
      "type": "node",
      "id": 4307530960,
      "lat": 12.9714956,
      "lon": 77.6470561,
      "tags": {
        "amenity": "fast_food",
        "level": "0",
        "name": "Madurai Idli Shop"
      }
    },
    {
      "type": "node",
      "id": 4307542691,
      "lat": 12.9708829,
      "lon": 77.6471348,
      "tags": {
        "amenity": "bank",
        "atm": "yes",
        "level": "1",
        "name": "Bharat Bank"
      }
    },
    {
      "type": "node",
      "id": 4307542692,
      "lat": 12.970892,
      "lon": 77.6471187,
      "tags": {
        "amenity": "restaurant",
        "level": "0",
        "name": "Dinner Friends"
      }
    },
    {
      "type": "node",
      "id": 4307543170,
      "lat": 12.9713768,
      "lon": 77.6474537,
      "tags": {
        "amenity": "pub",
        "level": "0",
        "name": "Bistrobar"
      }
    },
    {
      "type": "node",
      "id": 4307551330,
      "lat": 12.9717545,
      "lon": 77.6470421,
      "tags": {
        "amenity": "restaurant",
        "level": "0",
        "name": "Treat"
      }
    },
    {
      "type": "node",
      "id": 4307554248,
      "lat": 12.9717482,
      "lon": 77.6470434,
      "tags": {
        "amenity": "restaurant",
        "level": "0",
        "name": "Chung's Pavilion"
      }
    },
    {
      "type": "node",
      "id": 4307558066,
      "lat": 12.9719769,
      "lon": 77.6473023,
      "tags": {
        "amenity": "bank",
        "atm": "yes",
        "brand": "Kotak Mahindra Bank",
        "brand:wikidata": "Q2040404",
        "brand:wikipedia": "en:Kotak Mahindra Bank",
        "level": "0",
        "name": "Kotak Mahindra Bank",
        "name:en": "Kotak Mahindra Bank",
        "name:kn": "ಕೋಟಕ್ ಮಹಿಂದ್ರ ಬ್ಯಾಂಕ್",
        "website": "http://www.kotak.com"
      }
    },
    {
      "type": "node",
      "id": 4307567718,
      "lat": 12.9720918,
      "lon": 77.6473289,
      "tags": {
        "amenity": "bank",
        "brand": "Yes Bank",
        "brand:wikidata": "Q2040394",
        "brand:wikipedia": "en:Yes Bank",
        "name": "Yes Bank",
        "name:en": "YES Bank",
        "name:kn": "ಯಸ್ ಬ್ಯಾಂಕ್",
        "website": "https://www.yesbank.in"
      }
    },
    {
      "type": "node",
      "id": 4315678618,
      "lat": 12.9703177,
      "lon": 77.6473535,
      "tags": {
        "name": "H K Hearing Wellness Clinic",
        "shop": "beauty"
      }
    },
    {
      "type": "node",
      "id": 4315678622,
      "lat": 12.9705241,
      "lon": 77.647114,
      "tags": {
        "amenity": "restaurant",
        "name": "Pathan Sir"
      }
    },
    {
      "type": "node",
      "id": 4445276361,
      "lat": 12.970248,
      "lon": 77.6470414,
      "tags": {
        "addr:city": "Bangalore",
        "addr:postcode": "560008",
        "addr:street": "80 feet Road, 12th Main Road, HAL 2nd Stage, Indiranagar, 80 Feet Road(Sir C.V. Raman Hospital Road)",
        "amenity": "clinic",
        "healthcare": "clinic",
        "name": "Kaya Skin Clinic",
        "phone": "080 6567 4475",
        "website": "https://www.kaya.in/"
      }
    },
    {
      "type": "node",
      "id": 4446473853,
      "lat": 12.9643196,
      "lon": 77.657532,
      "tags": {
        "addr:city": "bangalore",
        "addr:housenumber": "5",
        "addr:postcode": "560075",
        "addr:street": "Shivalingaiah Shopping Complex, BDA Main Rd, Murugesh Pallya, Ananda Puram, Jeevanbheemanagar",
        "amenity": "pharmacy",
        "name": "Sai Aruna Medicals",
        "phone": "+91 90601 33007"
      }
    },
    {
      "type": "node",
      "id": 4446475362,
      "lat": 12.9679122,
      "lon": 77.6517504,
      "tags": {
        "addr:city": "Bangalore",
        "addr:housenumber": "17",
        "addr:postcode": "560075",
        "addr:street": "10th Main, HAL 3rd Stage, Jeevan Bima Nagar Main Rd, DOS Colony, Jeevanbheemanagar",
        "amenity": "pharmacy",
        "healthcare": "pharmacy",
        "name": "Sri Vidhya Medicals General Store",
        "phone": "+91 94481 67969"
      }
    },
    {
      "type": "node",
      "id": 4446479133,
      "lat": 12.9633821,
      "lon": 77.6568672,
      "tags": {
        "addr:city": "bangalore",
        "addr:housenumber": "114/B",
        "addr:postcode": "560075",
        "addr:street": "Shivanna Colony,Hal 3rd Stage,BDA Main Road,Opposite Kemp Fort,Murugesh Palya, Hal Road, Kodihalli, Ananda Puram, Jeevanbheemanagar,",
        "amenity": "pharmacy",
        "phone": "+9199642 32476"
      }
    },
    {
      "type": "node",
      "id": 4446485823,
      "lat": 12.9650762,
      "lon": 77.6574876,
      "tags": {
        "addr:city": "bangalore",
        "addr:postcode": "560075",
        "addr:street": "NR Colony Main Rd, Jeevanbheemanagar",
        "amenity": "pharmacy",
        "name": "Sri Sai Ram Medicals",
        "phone": "+9198450 76596"
      }
    },
    {
      "type": "node",
      "id": 4446495371,
      "lat": 12.9661551,
      "lon": 77.656368,
      "tags": {
        "addr:city": "bangalore",
        "addr:postcode": "560075",
        "addr:street": "DOS Colony, Jeevanbheemanagar",
        "amenity": "pharmacy",
        "name": "ISRO Dispensary",
        "phone": "080 2508 3800",
        "website": "isac.gov.in"
      }
    },
    {
      "type": "node",
      "id": 4446497275,
      "lat": 12.964938,
      "lon": 77.6572798,
      "tags": {
        "addr:city": "bangalore",
        "addr:housenumber": "16",
        "addr:postcode": "560075",
        "addr:street": "Near To J. B. Nagar Bus Stand, NR Colony Main Rd, J. B. Nagar, Jeevanbheemanagar",
        "amenity": "pharmacy",
        "name": "Devi Medical",
        "phone": "080 2521 0038"
      }
    },
    {
      "type": "node",
      "id": 4457282876,
      "lat": 12.9729847,
      "lon": 77.6475018,
      "tags": {
        "amenity": "clinic",
        "healthcare": "clinic",
        "name": "Clumax diagnostics"
      }
    },
    {
      "type": "node",
      "id": 4457286916,
      "lat": 12.9702983,
      "lon": 77.6546922,
      "tags": {
        "amenity": "fast_food",
        "name": "Anand Fast Food"
      }
    },
    {
      "type": "node",
      "id": 4457286917,
      "lat": 12.9690401,
      "lon": 77.6480024,
      "tags": {
        "amenity": "fast_food",
        "indoor_seating": "yes",
        "name": "Lassi Shop",
        "outdoor_seating": "no"
      }
    },
    {
      "type": "node",
      "id": 4457286918,
      "lat": 12.9695347,
      "lon": 77.6489882,
      "tags": {
        "amenity": "fast_food",
        "cuisine": "french",
        "diet:vegetarian": "yes",
        "name": "Le Casse Croûte",
        "name:en": "le casse croute",
        "opening_hours": "Mo-Su 11:30-23:00",
        "takeaway": "only",
        "wheelchair": "yes"
      }
    },
    {
      "type": "node",
      "id": 4457286919,
      "lat": 12.9705577,
      "lon": 77.6471384,
      "tags": {
        "amenity": "restaurant",
        "name": "The Waffle House"
      }
    },
    {
      "type": "node",
      "id": 4457286920,
      "lat": 12.9718065,
      "lon": 77.6539372,
      "tags": {
        "name": "Vinayaka stores",
        "shop": "convenience"
      }
    },
    {
      "type": "node",
      "id": 4457286921,
      "lat": 12.9696854,
      "lon": 77.654876,
      "tags": {
        "amenity": "atm",
        "brand": "ICICI Bank",
        "brand:wikidata": "Q1653258",
        "name": "ICICI Bank",
        "operator": "ICICI Bank",
        "operator:wikidata": "Q1653258",
        "short_name": "ICICI"
      }
    },
    {
      "type": "node",
      "id": 4457288415,
      "lat": 12.9691589,
      "lon": 77.6548253,
      "tags": {
        "name": "Creation Tailors",
        "shop": "tailor"
      }
    },
    {
      "type": "node",
      "id": 4457288416,
      "lat": 12.9693941,
      "lon": 77.6548306,
      "tags": {
        "name": "SK provisions",
        "shop": "convenience"
      }
    },
    {
      "type": "node",
      "id": 4472369094,
      "lat": 12.9702998,
      "lon": 77.6510666,
      "tags": {
        "amenity": "kindergarten",
        "check_date": "2024-11-23",
        "name": "Jacobs Ladder",
        "name:en": "Jacobs Ladder"
      }
    },
    {
      "type": "node",
      "id": 4472371591,
      "lat": 12.9703809,
      "lon": 77.6522753,
      "tags": {
        "amenity": "school",
        "name": "Sri Ravishankar Vidya Mandir",
        "name:en": "Sri Ravishankar Vidya Mandir"
      }
    },
    {
      "type": "node",
      "id": 4472375492,
      "lat": 12.9704844,
      "lon": 77.6521261,
      "tags": {
        "amenity": "community_centre",
        "name": "Kannada Samskreeta Mahila Koota",
        "name:en": "Kannada Samskreeta Mahila Koota"
      }
    },
    {
      "type": "node",
      "id": 4474681187,
      "lat": 12.9643464,
      "lon": 77.6493193,
      "tags": {
        "amenity": "place_of_worship",
        "natural": "tree",
        "religion": "hindu"
      }
    },
    {
      "type": "node",
      "id": 4488617089,
      "lat": 12.9677841,
      "lon": 77.6634104,
      "tags": {
        "addr:city": "Bangalore",
        "addr:housenumber": "21",
        "addr:postcode": "560075",
        "addr:street": "Tippasandra",
        "name": "Maataji Privision Store",
        "shop": "supermarket"
      }
    },
    {
      "type": "node",
      "id": 4490301413,
      "lat": 12.9687418,
      "lon": 77.6499662,
      "tags": {
        "addr:city": "Bangalore",
        "addr:postcode": "560008",
        "addr:street": "HAL 3rd Stage, Jeevan Bima Nagar Main Rd, Bhadrappa Layout, HAL 3rd Stage, New Tippasandra, Bengaluru, Karnataka",
        "leisure": "sports_centre",
        "name": "The Body Works Fitness Center",
        "opening_hours": "5:00-22:00",
        "phone": "9845845740",
        "sport": "gymnasium",
        "website": "bodyworksgym.in"
      }
    },
    {
      "type": "node",
      "id": 4490307319,
      "lat": 12.9619142,
      "lon": 77.6568782,
      "tags": {
        "addr:city": "bangalore",
        "addr:postcode": "560075",
        "addr:street": "Murugesh Pallya, Nanja Reddy Colony, Jeevanbheemanagar, Bengaluru,",
        "leisure": "sports_centre",
        "name": "Extreme Fitness Gym",
        "opening_hours": "6:00-21:00",
        "phone": "9980713330",
        "sport": "gymnasium"
      }
    },
    {
      "type": "node",
      "id": 4510470086,
      "lat": 12.9736773,
      "lon": 77.6479562,
      "tags": {
        "addr:housenumber": "45",
        "addr:street": "2nd cross, 515 Army Base Workshop colony",
        "amenity": "doctors",
        "healthcare": "doctor",
        "name": "Sarang ENT care centre"
      }
    },
    {
      "type": "node",
      "id": 4512083491,
      "lat": 12.967598,
      "lon": 77.6479558,
      "tags": {
        "name": "ADA Aqua Design Amano",
        "name:en": "ADA Aqua Design Amano",
        "shop": "pet"
      }
    },
    {
      "type": "node",
      "id": 4512115990,
      "lat": 12.9761276,
      "lon": 77.652898,
      "tags": {
        "amenity": "school",
        "name": "Mother Mary English School",
        "name:en": "Mother Mary English School"
      }
    },
    {
      "type": "node",
      "id": 4512140989,
      "lat": 12.9759235,
      "lon": 77.6526652,
      "tags": {
        "amenity": "school",
        "name": "St. Thomas Public School",
        "name:en": "St. Thomas Public School"
      }
    },
    {
      "type": "node",
      "id": 4512178290,
      "lat": 12.9734114,
      "lon": 77.6538157,
      "tags": {
        "name": "Manoj Stores",
        "name:en": "Manoj Stores",
        "shop": "convenience"
      }
    },
    {
      "type": "node",
      "id": 4512283089,
      "lat": 12.9682582,
      "lon": 77.6517189,
      "tags": {
        "amenity": "restaurant",
        "cuisine": "regional",
        "name": "Bengaluru House",
        "name:en": "Bengaluru House"
      }
    },
    {
      "type": "node",
      "id": 4558250391,
      "lat": 12.9716659,
      "lon": 77.6556496,
      "tags": {
        "brand": "More",
        "brand:wikidata": "Q6910891",
        "brand:wikipedia": "en:More (store)",
        "name": "More",
        "name:en": "More",
        "name:kn": "ಮೋರ್",
        "shop": "supermarket"
      }
    },
    {
      "type": "node",
      "id": 4558269492,
      "lat": 12.971884,
      "lon": 77.6554114,
      "tags": {
        "amenity": "place_of_worship",
        "name": "Durga Temple",
        "name:en": "Durga Temple",
        "name:kn": "ದುರ್ಗಾ ದೇವಸ್ಥಾನ",
        "religion": "hindu",
        "wheelchair": "no"
      }
    },
    {
      "type": "node",
      "id": 4567052791,
      "lat": 12.968467,
      "lon": 77.650529,
      "tags": {
        "name": "Reliance",
        "name:en": "Reliance",
        "shop": "mobile_phone"
      }
    },
    {
      "type": "node",
      "id": 4570348294,
      "lat": 12.9684104,
      "lon": 77.6510775,
      "tags": {
        "name": "Idea",
        "name:en": "Idea",
        "opening_hours": "Mo-Su 10:00-20:00",
        "shop": "mobile_phone"
      }
    },
    {
      "type": "node",
      "id": 4571188089,
      "lat": 12.9700017,
      "lon": 77.6474062,
      "tags": {
        "amenity": "fast_food",
        "cuisine": "arab",
        "name": "Alfaham Grilled Chicken and Shawarma",
        "name:en": "Alfaham Grilled Chicken and Shawarma"
      }
    },
    {
      "type": "node",
      "id": 4571188090,
      "lat": 12.967861,
      "lon": 77.653984,
      "tags": {
        "name": "Honey Dews Spirits",
        "name:en": "Honey Dews Spirits",
        "shop": "alcohol"
      }
    },
    {
      "type": "node",
      "id": 4571188289,
      "lat": 12.9699254,
      "lon": 77.6474241,
      "tags": {
        "amenity": "fast_food",
        "cuisine": "arab",
        "name": "Empire Juice & Dosa Chicken",
        "name:en": "Empire Juice & Dosa Chicken",
        "payment:credit_cards": "yes",
        "payment:debit_cards": "yes"
      }
    },
    {
      "type": "node",
      "id": 4599790690,
      "lat": 12.9729515,
      "lon": 77.6480638,
      "tags": {
        "name": "Shanthi jewelers",
        "name:en": "Shanthi jewelers",
        "shop": "jewelry"
      }
    },
    {
      "type": "node",
      "id": 4599802890,
      "lat": 12.9727488,
      "lon": 77.6481385,
      "tags": {
        "name": "Shri Ganga mottwala",
        "name:en": "Shri Ganga mottwala",
        "shop": "jewelry"
      }
    },
    {
      "type": "node",
      "id": 4599826889,
      "lat": 12.9729752,
      "lon": 77.6480106,
      "tags": {
        "brand": "Kanti Sweets",
        "name": "Kanti Sweets",
        "shop": "confectionery"
      }
    },
    {
      "type": "node",
      "id": 4599826890,
      "lat": 12.9727302,
      "lon": 77.6481921,
      "tags": {
        "name": "Raj Kumar Selections",
        "shop": "clothes"
      }
    },
    {
      "type": "node",
      "id": 4599826989,
      "lat": 12.9728575,
      "lon": 77.6479815,
      "tags": {
        "name": "The IT store",
        "name:en": "The IT store",
        "shop": "computer"
      }
    },
    {
      "type": "node",
      "id": 4602971318,
      "lat": 12.9759778,
      "lon": 77.6548222,
      "tags": {
        "amenity": "pharmacy",
        "healthcare": "pharmacy",
        "name": "Sri Datta Medical",
        "name:en": "Sri Datta Medical"
      }
    },
    {
      "type": "node",
      "id": 4602971404,
      "lat": 12.9760549,
      "lon": 77.6547944,
      "tags": {
        "amenity": "pharmacy",
        "healthcare": "pharmacy",
        "name": "Gheeta pharmacy",
        "name:en": "Gheeta pharmacy"
      }
    },
    {
      "type": "node",
      "id": 4602997690,
      "lat": 12.9741482,
      "lon": 77.6513232,
      "tags": {
        "addr:street": "Rama Temple Road",
        "amenity": "school",
        "check_date": "2024-11-23",
        "name": "Government Primary School",
        "name:en": "Government Primary School",
        "name:kn": "ಸರ್ಕಾರಿ ಪ್ರಾಥಮಿಕ ಶಾಲೆ"
      }
    },
    {
      "type": "node",
      "id": 4603004289,
      "lat": 12.9713803,
      "lon": 77.6506587,
      "tags": {
        "amenity": "toilets"
      }
    },
    {
      "type": "node",
      "id": 4605424489,
      "lat": 12.974339,
      "lon": 77.6482791,
      "tags": {
        "amenity": "restaurant",
        "name": "Krish Punjabi Kitchen",
        "name:en": "Krish Punjabi Kitchen"
      }
    },
    {
      "type": "node",
      "id": 4681596493,
      "lat": 12.9724343,
      "lon": 77.6517753,
      "tags": {
        "name": "Mobile repairs",
        "name:en": "Mobile repairs",
        "shop": "mobile_phone"
      }
    },
    {
      "type": "node",
      "id": 4681656089,
      "lat": 12.9724406,
      "lon": 77.6516385,
      "tags": {
        "name": "Dharani",
        "name:en": "Dharani",
        "shop": "jewelry"
      }
    },
    {
      "type": "node",
      "id": 4690003725,
      "lat": 12.9712436,
      "lon": 77.6471463,
      "tags": {
        "amenity": "restaurant",
        "cuisine": "south_indian",
        "name": "Aandal Mess",
        "payment:credit_cards": "yes",
        "payment:debit_cards": "yes"
      }
    },
    {
      "type": "node",
      "id": 4690003726,
      "lat": 12.9715352,
      "lon": 77.6562968,
      "tags": {
        "amenity": "fast_food",
        "brand": "Domino's",
        "brand:ks": "ڈومینوز",
        "brand:pa": "ਡੋਮੀਨੋਜ਼",
        "brand:ur": "ڈومینوز",
        "brand:wikidata": "Q839466",
        "brand:wikipedia": "en:Domino's Pizza",
        "cuisine": "pizza",
        "indoor_seating": "yes",
        "name": "Domino's",
        "name:kn": "ಡಾಮಿನೋಸ್",
        "name:ks": "ڈومینوز",
        "name:pa": "ਡੋਮੀਨੋਜ਼",
        "name:ur": "ڈومینوز",
        "outdoor_seating": "no",
        "takeaway": "yes"
      }
    },
    {
      "type": "node",
      "id": 4690003727,
      "lat": 12.9714522,
      "lon": 77.6562815,
      "tags": {
        "amenity": "bank",
        "brand": "Bank of Baroda",
        "brand:wikidata": "Q2003797",
        "brand:wikipedia": "en:Bank of Baroda",
        "name": "Bank of Baroda",
        "name:kn": "ವಿಜಯ ಬ್ಯಾಂಕು"
      }
    },
    {
      "type": "node",
      "id": 4690003728,
      "lat": 12.9714143,
      "lon": 77.6563575,
      "tags": {
        "amenity": "bank",
        "brand": "State Bank of India",
        "brand:wikidata": "Q1340361",
        "brand:wikipedia": "en:State Bank of India",
        "name": "State Bank of India",
        "name:kn": "ಭಾರತೀಯ ಸ್ಟೇಟ್ ಬ್ಯಾಂಕ್",
        "short_name": "SBI",
        "website": "https://www.sbi.co.in"
      }
    },
    {
      "type": "node",
      "id": 4691599026,
      "lat": 12.9682627,
      "lon": 77.6515319,
      "tags": {
        "leisure": "playground"
      }
    },
    {
      "type": "node",
      "id": 4782928923,
      "lat": 12.9632131,
      "lon": 77.6567816,
      "tags": {
        "shop": "dry_cleaning"
      }
    },
    {
      "type": "node",
      "id": 4782934224,
      "lat": 12.962077,
      "lon": 77.6561309,
      "tags": {
        "name": "TV Repair",
        "name:en": "TV Repair",
        "shop": "electronics"
      }
    },
    {
      "type": "node",
      "id": 4782934225,
      "lat": 12.9626276,
      "lon": 77.6564823,
      "tags": {
        "name": "Sai Ram Provisions",
        "name:en": "Sai Ram Provisions",
        "shop": "convenience"
      }
    },
    {
      "type": "node",
      "id": 4782934226,
      "lat": 12.9626812,
      "lon": 77.6565351,
      "tags": {
        "name": "Green Farm",
        "name:en": "Green Farm",
        "shop": "greengrocer"
      }
    },
    {
      "type": "node",
      "id": 4782937122,
      "lat": 12.9619579,
      "lon": 77.6561096,
      "tags": {
        "name": "Madhu Shree Herbal Beauty Parlour",
        "name:en": "Madhu Shree Herbal Beauty Parlour",
        "shop": "cosmetics"
      }
    },
    {
      "type": "node",
      "id": 4782937123,
      "lat": 12.9624223,
      "lon": 77.6563172,
      "tags": {
        "shop": "convenience"
      }
    },
    {
      "type": "node",
      "id": 4782947621,
      "lat": 12.963322,
      "lon": 77.6568552,
      "tags": {
        "amenity": "recycling",
        "name": "Paper Mart",
        "name:en": "Paper Mart"
      }
    },
    {
      "type": "node",
      "id": 4782947721,
      "lat": 12.96335,
      "lon": 77.656863,
      "tags": {
        "name": "Sri Lakshmi Provisions",
        "name:en": "Sri Lakshmi Provisions",
        "shop": "convenience"
      }
    },
    {
      "type": "node",
      "id": 4782947722,
      "lat": 12.9634327,
      "lon": 77.6569049,
      "tags": {
        "name": "Siri Beauty Parlour",
        "name:en": "Siri Beauty Parlour",
        "shop": "cosmetics"
      }
    },
    {
      "type": "node",
      "id": 4782957522,
      "lat": 12.9632582,
      "lon": 77.6568168,
      "tags": {
        "name": "Fresh n Fresh",
        "name:en": "Fresh n Fresh",
        "shop": "greengrocer"
      }
    },
    {
      "type": "node",
      "id": 4782962124,
      "lat": 12.9635642,
      "lon": 77.6569879,
      "tags": {
        "name": "Pro Furniture Sofa Maker",
        "name:en": "Pro Furniture Sofa Maker",
        "shop": "furniture"
      }
    },
    {
      "type": "node",
      "id": 4782967322,
      "lat": 12.9648064,
      "lon": 77.6572365,
      "tags": {
        "name": "Swagath Bar",
        "name:en": "Swagath Bar",
        "shop": "alcohol"
      }
    },
    {
      "type": "node",
      "id": 4782967622,
      "lat": 12.964503,
      "lon": 77.6573159,
      "tags": {
        "addr:housenumber": "3",
        "addr:street": "Shivalingaiah Colony",
        "name": "Sri Mahadeshwara Home Furnishings",
        "name:en": "Sri Mahadeshwara Home Furnishings",
        "phone": "9986421067",
        "shop": "furniture"
      }
    },
    {
      "type": "node",
      "id": 4782984022,
      "lat": 12.9645913,
      "lon": 77.6574153,
      "tags": {
        "addr:housenumber": "409",
        "addr:street": "6th Main Road",
        "name": "Laxmi Home Appliances",
        "name:en": "Laxmi Home Appliances",
        "phone": "08025201121",
        "shop": "department_store"
      }
    },
    {
      "type": "node",
      "id": 4791785144,
      "lat": 12.96814,
      "lon": 77.6511259,
      "tags": {
        "brand": "Naturals",
        "brand:wikidata": "Q125728261",
        "name": "Naturals",
        "shop": "beauty"
      }
    },
    {
      "type": "node",
      "id": 4791785145,
      "lat": 12.9684067,
      "lon": 77.6510466,
      "tags": {
        "amenity": "atm",
        "brand": "Canara Bank",
        "brand:en": "Canara Bank",
        "brand:hi": "केनरा बैंक",
        "brand:kn": "ಕೆನರಾ ಬ್ಯಾಂಕ್",
        "brand:pa": "ਕੇਨਰਾ ਬੈਂਕ",
        "brand:pnb": "کینرا بینک",
        "brand:ur": "کینرا بینک",
        "brand:wikidata": "Q2003777",
        "name": "Canara Bank",
        "name:en": "Canara Bank",
        "name:hi": "केनरा बैंक",
        "name:kn": "ಕೆನರಾ ಬ್ಯಾಂಕ್",
        "name:pa": "ਕੇਨਰਾ ਬੈਂਕ",
        "name:pnb": "کینرا بینک",
        "name:ur": "کینرا بینک",
        "operator": "Canara Bank",
        "operator:wikidata": "Q2003777"
      }
    },
    {
      "type": "node",
      "id": 4791785146,
      "lat": 12.9713638,
      "lon": 77.6470687,
      "tags": {
        "name": "Lilies",
        "name:en": "Lilies",
        "shop": "florist"
      }
    },
    {
      "type": "node",
      "id": 4791787148,
      "lat": 12.9678541,
      "lon": 77.6527869,
      "tags": {
        "amenity": "restaurant",
        "name": "Taza Tawa",
        "name:en": "Taza Tawa"
      }
    },
    {
      "type": "node",
      "id": 4815578705,
      "lat": 12.9678947,
      "lon": 77.6538556,
      "tags": {
        "amenity": "bank",
        "atm": "yes",
        "brand": "State Bank of India",
        "brand:wikidata": "Q1340361",
        "brand:wikipedia": "en:State Bank of India",
        "name": "State Bank of India",
        "name:kn": "ಭಾರತೀಯ ಸ್ಟೇಟ್ ಬ್ಯಾಂಕ್",
        "short_name": "SBI"
      }
    },
    {
      "type": "node",
      "id": 4825588044,
      "lat": 12.9691838,
      "lon": 77.6493432,
      "tags": {
        "name": "Frank Ross",
        "opening_hours": "Mo-Su 08:00-22:00",
        "shop": "medical_supply",
        "wheelchair": "no"
      }
    },
    {
      "type": "node",
      "id": 4836459243,
      "lat": 12.9700588,
      "lon": 77.6505853,
      "tags": {
        "brand": "Nandini",
        "name": "Nandini",
        "name:kn": "ನಂದಿನಿ",
        "shop": "dairy"
      }
    },
    {
      "type": "node",
      "id": 4852051621,
      "lat": 12.9716596,
      "lon": 77.6516938,
      "tags": {
        "addr:street": "8th Cross Road",
        "amenity": "fast_food",
        "name": "Thattukada",
        "name:en": "Thattukada"
      }
    },
    {
      "type": "node",
      "id": 4909880421,
      "lat": 12.9723142,
      "lon": 77.6490062,
      "tags": {
        "check_date": "2024-11-23",
        "name": "Universal furniture",
        "name:en": "Universal furniture",
        "shop": "furniture"
      }
    },
    {
      "type": "node",
      "id": 4909880521,
      "lat": 12.9724882,
      "lon": 77.6490006,
      "tags": {
        "check_date": "2024-11-23",
        "name": "Vishal Eye Wear",
        "name:en": "Vishal Eye Wear",
        "shop": "optician"
      }
    },
    {
      "type": "node",
      "id": 4983426602,
      "lat": 12.9668794,
      "lon": 77.6500387,
      "tags": {
        "name": "Amanda computers",
        "shop": "computer"
      }
    },
    {
      "type": "node",
      "id": 5003288807,
      "lat": 12.9686524,
      "lon": 77.6499541,
      "tags": {
        "amenity": "bank",
        "brand": "ICICI Bank",
        "brand:wikidata": "Q1653258",
        "name": "ICICI Bank",
        "short_name": "ICICI"
      }
    },
    {
      "type": "node",
      "id": 5003290033,
      "lat": 12.9685563,
      "lon": 77.6495171,
      "tags": {
        "amenity": "restaurant",
        "name": "Banarasi Tadka"
      }
    },
    {
      "type": "node",
      "id": 5098194622,
      "lat": 12.9722388,
      "lon": 77.6506427,
      "tags": {
        "addr:housenumber": "241",
        "addr:street": "6th Cross",
        "name": "Fresh Filter Coffee",
        "name:en": "Fresh Filter Coffee",
        "shop": "beverages"
      }
    },
    {
      "type": "node",
      "id": 5138983122,
      "lat": 12.9724885,
      "lon": 77.6507419,
      "tags": {
        "amenity": "ice_cream",
        "name": "Softy station"
      }
    },
    {
      "type": "node",
      "id": 5139863824,
      "lat": 12.9725407,
      "lon": 77.6507002,
      "tags": {
        "name": "Kiswa mens wear",
        "shop": "clothes"
      }
    },
    {
      "type": "node",
      "id": 5155524812,
      "lat": 12.9716566,
      "lon": 77.6506966,
      "tags": {
        "amenity": "fast_food",
        "cuisine": "south_indian",
        "diet:vegetarian": "only",
        "name": "Namma Madurai",
        "wheelchair": "no"
      }
    },
    {
      "type": "node",
      "id": 5155524814,
      "lat": 12.9746611,
      "lon": 77.6487319,
      "tags": {
        "amenity": "fast_food",
        "brand": "Indira Canteen",
        "brand:wikidata": "Q36164828",
        "cuisine": "south_indian",
        "delivery": "no",
        "name": "Indira Canteen",
        "operator": "BBMP",
        "status": "open",
        "takeaway": "no"
      }
    },
    {
      "type": "node",
      "id": 5155524815,
      "lat": 12.973711,
      "lon": 77.6507503,
      "tags": {
        "name": "Aishwarya Departmental Stores",
        "opening_hours": "Mo-Sa 08:00-22:00",
        "shop": "convenience"
      }
    },
    {
      "type": "node",
      "id": 5155524816,
      "lat": 12.9734522,
      "lon": 77.6513323,
      "tags": {
        "amenity": "pharmacy",
        "healthcare": "pharmacy"
      }
    },
    {
      "type": "node",
      "id": 5155524817,
      "lat": 12.9741949,
      "lon": 77.6510648,
      "tags": {
        "amenity": "pharmacy",
        "branch": "New Tippasandara",
        "brand": "MedPlus",
        "healthcare": "pharmacy",
        "name": "MedPlus",
        "operator": "MedPlus"
      }
    },
    {
      "type": "node",
      "id": 5155524818,
      "lat": 12.9734222,
      "lon": 77.6512089,
      "tags": {
        "amenity": "atm",
        "brand": "ICICI Bank",
        "brand:wikidata": "Q1653258",
        "brand:wikipedia": "en:ICICI Bank",
        "cash_in": "no",
        "name": "ICICI Bank",
        "name:kn": "ಐಸಿಐಸಿಐ ಬ್ಯಾಂಕು",
        "operator": "ICICI Bank",
        "operator:wikidata": "Q1653258",
        "operator:wikipedia": "en:ICICI Bank",
        "short_name": "ICICI"
      }
    },
    {
      "type": "node",
      "id": 5155524819,
      "lat": 12.9733346,
      "lon": 77.6476644,
      "tags": {
        "craft": "handicraft",
        "name": "Vilakku",
        "shop": "interior_decoration"
      }
    },
    {
      "type": "node",
      "id": 5191246964,
      "lat": 12.972492,
      "lon": 77.6489834,
      "tags": {
        "addr:floor": "1",
        "check_date": "2024-11-23",
        "level": "1",
        "name": "S.M Electricals",
        "shop": "electronics"
      }
    },
    {
      "type": "node",
      "id": 5191246965,
      "lat": 12.972494,
      "lon": 77.6489639,
      "tags": {
        "amenity": "internet_cafe"
      }
    },
    {
      "type": "node",
      "id": 5191246966,
      "lat": 12.9724845,
      "lon": 77.6490488,
      "tags": {
        "name": "Sri Pushpak Enterprices",
        "shop": "kitchen"
      }
    },
    {
      "type": "node",
      "id": 5191246967,
      "lat": 12.9724819,
      "lon": 77.6490819,
      "tags": {
        "addr:place": "Thippasandra",
        "name": "Papergrid",
        "shop": "stationery"
      }
    },
    {
      "type": "node",
      "id": 5191246968,
      "lat": 12.9724783,
      "lon": 77.6491054,
      "tags": {
        "addr:place": "Thippasandra",
        "name": "Sri Balaji Enterprices",
        "shop": "copyshop"
      }
    },
    {
      "type": "node",
      "id": 5191246969,
      "lat": 12.9724613,
      "lon": 77.649145,
      "tags": {
        "addr:place": "Thippasandra",
        "amenity": "dentist",
        "check_date": "2024-11-23",
        "healthcare": "dentist",
        "name": "Divya Dental clinic"
      }
    },
    {
      "type": "node",
      "id": 5191246970,
      "lat": 12.9724554,
      "lon": 77.6491752,
      "tags": {
        "addr:place": "Thippasandra",
        "amenity": "clinic",
        "check_date": "2024-11-23",
        "healthcare": "clinic",
        "name": "Aswini clinic"
      }
    },
    {
      "type": "node",
      "id": 5191246971,
      "lat": 12.9724387,
      "lon": 77.6493046,
      "tags": {
        "addr:place": "Thippasandra",
        "amenity": "studio",
        "check_date": "2024-11-23",
        "name": "Krishna Digital Studio"
      }
    },
    {
      "type": "node",
      "id": 5191246972,
      "lat": 12.9724325,
      "lon": 77.6493542,
      "tags": {
        "addr:place": "Thippasandra",
        "check_date": "2024-11-23",
        "name": "Arihant Jewellers",
        "shop": "jewelry"
      }
    },
    {
      "type": "node",
      "id": 5191335210,
      "lat": 12.9725445,
      "lon": 77.648784,
      "tags": {
        "check_date": "2024-11-23",
        "name": "Sri Venkateswara Enterprices",
        "shop": "electronics"
      }
    },
    {
      "type": "node",
      "id": 5191335215,
      "lat": 12.9725257,
      "lon": 77.6488213,
      "tags": {
        "name": "Venus",
        "shop": "electronics"
      }
    },
    {
      "type": "node",
      "id": 5191335216,
      "lat": 12.9725186,
      "lon": 77.6488364,
      "tags": {
        "check_date": "2024-11-23",
        "name": "Ganesh Electricals Enterprices",
        "shop": "electronics"
      }
    },
    {
      "type": "node",
      "id": 5191336430,
      "lat": 12.9725105,
      "lon": 77.6488595,
      "tags": {
        "addr:place": "thippasandra",
        "name": "Syska LED",
        "name:kn": "ಸಿಸ್ಕ ಎಲ್‌ಇಡಿ",
        "shop": "electronics"
      }
    },
    {
      "type": "node",
      "id": 5191336431,
      "lat": 12.9725129,
      "lon": 77.6488871,
      "tags": {
        "addr:place": "thippasandra",
        "name": "Globe Electronics",
        "name:kn": "ಗ್ಲೋಬ್ ಎಲ್ಕ್‌ಟ್ರಾನಿಕ್ಸ್",
        "shop": "electronics"
      }
    },
    {
      "type": "node",
      "id": 5191336432,
      "lat": 12.9725054,
      "lon": 77.6488826,
      "tags": {
        "amenity": "place_of_worship",
        "name": "Sri Lakshmi Venkateswara Temple",
        "name:kn": "ಶ್ರೀ ಲಕ್ಷ್ಮಿ ವೆಂಕಟೇಶ್ವರ ದೇವಸ್ಥಾನ",
        "religion": "hindu"
      }
    },
    {
      "type": "node",
      "id": 5191336433,
      "lat": 12.9724976,
      "lon": 77.648926,
      "tags": {
        "check_date": "2024-11-23",
        "name": "Srivaru Glass",
        "shop": "hardware"
      }
    },
    {
      "type": "node",
      "id": 5191336434,
      "lat": 12.9724959,
      "lon": 77.6489452,
      "tags": {
        "check_date": "2024-11-23",
        "name": "Sri Viru Glass And Plywoods",
        "shop": "hardware"
      }
    },
    {
      "type": "node",
      "id": 5191669784,
      "lat": 12.9722832,
      "lon": 77.6492067,
      "tags": {
        "check_date": "2024-11-23",
        "name": "Furniture World",
        "shop": "furniture"
      }
    },
    {
      "type": "node",
      "id": 5191669785,
      "lat": 12.9723234,
      "lon": 77.648969,
      "tags": {
        "check_date": "2024-11-23",
        "name": "Makeover",
        "shop": "clothes"
      }
    },
    {
      "type": "node",
      "id": 5191669786,
      "lat": 12.9724597,
      "lon": 77.6486374,
      "tags": {
        "name": "Nilkamal",
        "shop": "furniture"
      }
    },
    {
      "type": "node",
      "id": 5191669787,
      "lat": 12.9724711,
      "lon": 77.6486166,
      "tags": {
        "name": "Menakshi Electricals",
        "shop": "clothes"
      }
    },
    {
      "type": "node",
      "id": 5191669788,
      "lat": 12.9724773,
      "lon": 77.6485981,
      "tags": {
        "name": "China Bajar",
        "shop": "general"
      }
    },
    {
      "type": "node",
      "id": 5191669789,
      "lat": 12.9724976,
      "lon": 77.6485546,
      "tags": {
        "check_date": "2024-11-23",
        "name": "Chemmanur Jewellers",
        "name:en": "Chemmanur Jewellers",
        "shop": "jewelry"
      }
    },
    {
      "type": "node",
      "id": 5191669791,
      "lat": 12.9725273,
      "lon": 77.6484801,
      "tags": {
        "check_date": "2024-11-23",
        "name": "Elegant furniture",
        "name:en": "Elegant furniture",
        "shop": "furniture"
      }
    },
    {
      "type": "node",
      "id": 5191669793,
      "lat": 12.9725825,
      "lon": 77.6484396,
      "tags": {
        "name": "Duroflex",
        "shop": "clothes"
      }
    },
    {
      "type": "node",
      "id": 5191669798,
      "lat": 12.9726103,
      "lon": 77.6483923,
      "tags": {
        "name": "Rajya Lashmi Enterprises",
        "shop": "kitchen"
      }
    },
    {
      "type": "node",
      "id": 5191669799,
      "lat": 12.9726279,
      "lon": 77.6483638,
      "tags": {
        "name": "Tulsi Enterprises",
        "shop": "kitchen"
      }
    },
    {
      "type": "node",
      "id": 5191669800,
      "lat": 12.9726403,
      "lon": 77.648343,
      "tags": {
        "name": "New Metro Fasion Stores",
        "shop": "stationery"
      }
    },
    {
      "type": "node",
      "id": 5191669801,
      "lat": 12.9726531,
      "lon": 77.6483168,
      "tags": {
        "name": "Murthy Frame Works",
        "shop": "frame"
      }
    },
    {
      "type": "node",
      "id": 5191669802,
      "lat": 12.9726688,
      "lon": 77.6482914,
      "tags": {
        "name": "Sneha General Store",
        "shop": "department_store"
      }
    },
    {
      "type": "node",
      "id": 5191669803,
      "lat": 12.9726825,
      "lon": 77.6482692,
      "tags": {
        "brand": "Vivo",
        "brand:wikidata": "Q18301787",
        "name": "Vivo",
        "shop": "mobile_phone"
      }
    },
    {
      "type": "node",
      "id": 5191669808,
      "lat": 12.9727158,
      "lon": 77.6482303,
      "tags": {
        "name": "Sri Manjunada Agency",
        "shop": "hardware"
      }
    },
    {
      "type": "node",
      "id": 5191669809,
      "lat": 12.9727233,
      "lon": 77.6482092,
      "tags": {
        "name": "Goutham jewells",
        "shop": "jewelry"
      }
    },
    {
      "type": "node",
      "id": 5191669810,
      "lat": 12.9727746,
      "lon": 77.6480543,
      "tags": {
        "name": "Millinions clothings",
        "shop": "clothes"
      }
    },
    {
      "type": "node",
      "id": 5191670723,
      "lat": 12.9728516,
      "lon": 77.6479958,
      "tags": {
        "name": "Bhuvaneswary Ladies Tailors",
        "shop": "tailor"
      }
    },
    {
      "type": "node",
      "id": 5191670724,
      "lat": 12.9728712,
      "lon": 77.6479534,
      "tags": {
        "name": "Vinayaka Electricals and Electronics",
        "shop": "electronics"
      }
    },
    {
      "type": "node",
      "id": 5191670725,
      "lat": 12.9728821,
      "lon": 77.6479289,
      "tags": {
        "name": "Sri Chinmaya Medical and General Store",
        "shop": "medical_supply"
      }
    },
    {
      "type": "node",
      "id": 5191670726,
      "lat": 12.9728908,
      "lon": 77.6479133,
      "tags": {
        "name": "Arun General store",
        "shop": "department_store",
        "toilets": "no"
      }
    },
    {
      "type": "node",
      "id": 5191670731,
      "lat": 12.9730133,
      "lon": 77.6480111,
      "tags": {
        "name": "S.M general store",
        "shop": "general"
      }
    },
    {
      "type": "node",
      "id": 5191670732,
      "lat": 12.9730415,
      "lon": 77.6480221,
      "tags": {
        "amenity": "studio",
        "name": "Balaji Vedio Coverage"
      }
    },
    {
      "type": "node",
      "id": 5191670745,
      "lat": 12.973066,
      "lon": 77.647824,
      "tags": {
        "amenity": "place_of_worship",
        "religion": "hindu"
      }
    },
    {
      "type": "node",
      "id": 5191746639,
      "lat": 12.9725822,
      "lon": 77.6486957,
      "tags": {
        "name": "Pebbles",
        "shop": "baby_goods"
      }
    },
    {
      "type": "node",
      "id": 5191746640,
      "lat": 12.9726246,
      "lon": 77.6486333,
      "tags": {
        "name": "Karthik's Mithai Shoppe",
        "shop": "bakery"
      }
    },
    {
      "type": "node",
      "id": 5191746641,
      "lat": 12.972649,
      "lon": 77.6486062,
      "tags": {
        "name": "Kamal Selections",
        "shop": "clothes"
      }
    },
    {
      "type": "node",
      "id": 5191746646,
      "lat": 12.9726648,
      "lon": 77.6485842,
      "tags": {
        "name": "Vee Pee Trendz",
        "shop": "clothes"
      }
    },
    {
      "type": "node",
      "id": 5191746647,
      "lat": 12.9726741,
      "lon": 77.6485688,
      "tags": {
        "name": "Sri Sakhthi Automobiles",
        "shop": "car_repair"
      }
    },
    {
      "type": "node",
      "id": 5191746648,
      "lat": 12.9726781,
      "lon": 77.6485646,
      "tags": {
        "name": "Sri balaji Tailors",
        "shop": "tailor"
      }
    },
    {
      "type": "node",
      "id": 5191746649,
      "lat": 12.9727295,
      "lon": 77.6484945,
      "tags": {
        "name": "Plants",
        "shop": "clothes"
      }
    },
    {
      "type": "node",
      "id": 5191746658,
      "lat": 12.9727825,
      "lon": 77.6484278,
      "tags": {
        "amenity": "restaurant",
        "name": "Begum's Biriyani"
      }
    },
    {
      "type": "node",
      "id": 5191746659,
      "lat": 12.9728079,
      "lon": 77.6483748,
      "tags": {
        "name": "Durga Condiments",
        "shop": "department_store"
      }
    },
    {
      "type": "node",
      "id": 5191746660,
      "lat": 12.9728302,
      "lon": 77.6483085,
      "tags": {
        "name": "Liberty Choice Collections",
        "shop": "clothes"
      }
    },
    {
      "type": "node",
      "id": 5191746661,
      "lat": 12.9728488,
      "lon": 77.6482505,
      "tags": {
        "name": "IDNM",
        "shop": "clothes"
      }
    },
    {
      "type": "node",
      "id": 5191746662,
      "lat": 12.9728703,
      "lon": 77.648233,
      "tags": {
        "name": "Best watch Service Center",
        "shop": "watches"
      }
    },
    {
      "type": "node",
      "id": 5191746663,
      "lat": 12.9728739,
      "lon": 77.6483001,
      "tags": {
        "amenity": "restaurant",
        "name": "Emperor Family Restaurant"
      }
    },
    {
      "type": "node",
      "id": 5191746668,
      "lat": 12.9729066,
      "lon": 77.6482072,
      "tags": {
        "name": "Misra Furniture",
        "shop": "furniture"
      }
    },
    {
      "type": "node",
      "id": 5191746669,
      "lat": 12.9729615,
      "lon": 77.6480386,
      "tags": {
        "name": "Sonata and Titan",
        "shop": "watches"
      }
    },
    {
      "type": "node",
      "id": 5191746670,
      "lat": 12.972292,
      "lon": 77.6493812,
      "tags": {
        "name": "Sri Sai Mobiles",
        "shop": "mobile_phone"
      }
    },
    {
      "type": "node",
      "id": 5191746671,
      "lat": 12.9722855,
      "lon": 77.6493243,
      "tags": {
        "name": "Tattoos and Events",
        "shop": "tattoo"
      }
    },
    {
      "type": "node",
      "id": 5191746672,
      "lat": 12.9722976,
      "lon": 77.6493166,
      "tags": {
        "name": "Pragathi Fashions",
        "shop": "clothes"
      }
    },
    {
      "type": "node",
      "id": 5191746673,
      "lat": 12.9722927,
      "lon": 77.6493562,
      "tags": {
        "name": "Black and White Fashions",
        "shop": "clothes"
      }
    },
    {
      "type": "node",
      "id": 5191746674,
      "lat": 12.9722875,
      "lon": 77.6492972,
      "tags": {
        "amenity": "driving_school",
        "name": "SAAI Driving Training School"
      }
    },
    {
      "type": "node",
      "id": 5191746675,
      "lat": 12.9722973,
      "lon": 77.6492895,
      "tags": {
        "name": "AIWA Fashion",
        "shop": "clothes"
      }
    },
    {
      "type": "node",
      "id": 5248946022,
      "lat": 12.9690381,
      "lon": 77.6483419,
      "tags": {
        "addr:postcode": "560075",
        "addr:street": "Jeevan Bhima Nagar 10th Main Road",
        "amenity": "school",
        "name": "Dhurii"
      }
    },
    {
      "type": "node",
      "id": 5287827863,
      "lat": 12.9709611,
      "lon": 77.6504452,
      "tags": {
        "amenity": "fast_food",
        "diet:vegetarian": "yes",
        "name": "Mini Wok Restaurant"
      }
    },
    {
      "type": "node",
      "id": 5297145822,
      "lat": 12.9719805,
      "lon": 77.6474011,
      "tags": {
        "addr:district": "Bengaluru Urban",
        "addr:full": "# 66, Indiranagar Double Road, Hal 2nd Stage",
        "addr:postcode": "560038",
        "addr:state": "Karnataka",
        "addr:subdistrict": "Indiranagar",
        "amenity": "hospital",
        "email": "nhplindr@nethradhama.org",
        "healthcare": "hospital",
        "name": "Nethradhama Superspeciality Eye Hospital",
        "operator:type": "private",
        "source": "OpenGovernmentData",
        "website": "https://www.nethradhama.org/"
      }
    },
    {
      "type": "node",
      "id": 5338923722,
      "lat": 12.9630358,
      "lon": 77.6613188,
      "tags": {
        "amenity": "place_of_worship",
        "religion": "hindu"
      }
    },
    {
      "type": "node",
      "id": 5338939122,
      "lat": 12.9643423,
      "lon": 77.6609603,
      "tags": {
        "amenity": "place_of_worship",
        "religion": "hindu"
      }
    },
    {
      "type": "node",
      "id": 5338939123,
      "lat": 12.9644427,
      "lon": 77.6597533,
      "tags": {
        "amenity": "community_centre",
        "name": "Sir M Vishveswaraya Welfare Association"
      }
    },
    {
      "type": "node",
      "id": 5338939224,
      "lat": 12.9644112,
      "lon": 77.6618554,
      "tags": {
        "amenity": "place_of_worship",
        "name": "Sri Angala Parameshwari Temple",
        "religion": "hindu"
      }
    },
    {
      "type": "node",
      "id": 5338939225,
      "lat": 12.9646322,
      "lon": 77.661955,
      "tags": {
        "amenity": "place_of_worship",
        "name": "St Thomas Church",
        "name:kn": "ಸೇಂಟ್ ಥೋಮಸ್ ಚರ್ಚ್",
        "religion": "christian"
      }
    },
    {
      "type": "node",
      "id": 5338940621,
      "lat": 12.9641627,
      "lon": 77.6616683,
      "tags": {
        "amenity": "place_of_worship",
        "name": "St Mary’s Chapel",
        "religion": "christian"
      }
    },
    {
      "type": "node",
      "id": 5338944624,
      "lat": 12.9628641,
      "lon": 77.6604996,
      "tags": {
        "amenity": "place_of_worship",
        "religion": "hindu"
      }
    },
    {
      "type": "node",
      "id": 5338949321,
      "lat": 12.9646524,
      "lon": 77.6602981,
      "tags": {
        "amenity": "place_of_worship",
        "name": "Church of Christ",
        "religion": "christian"
      }
    },
    {
      "type": "node",
      "id": 5521704924,
      "lat": 12.9664528,
      "lon": 77.6575588,
      "tags": {
        "amenity": "fast_food",
        "brand": "Indira Canteen",
        "brand:wikidata": "Q36164828",
        "cuisine": "south_indian",
        "name": "Indira Canteen",
        "operator": "BBMP",
        "takeaway": "yes"
      }
    },
    {
      "type": "node",
      "id": 5521704925,
      "lat": 12.9672957,
      "lon": 77.6565745,
      "tags": {
        "name": "Safal Daily Fresh",
        "shop": "supermarket"
      }
    },
    {
      "type": "node",
      "id": 5524162718,
      "lat": 12.965668,
      "lon": 77.649551,
      "tags": {
        "amenity": "bicycle_rental",
        "description": "Bike rental available here.  Only bikes",
        "name": "DVK biking"
      }
    },
    {
      "type": "node",
      "id": 5524163945,
      "lat": 12.9657658,
      "lon": 77.6495401,
      "tags": {
        "amenity": "fast_food",
        "name": "Fast food joint",
        "opening_hours": "Mo-Su 11:00-23:00"
      }
    },
    {
      "type": "node",
      "id": 5650867027,
      "lat": 12.9726229,
      "lon": 77.6487956,
      "tags": {
        "amenity": "pharmacy",
        "check_date": "2024-11-23",
        "healthcare": "pharmacy",
        "name": "Kotakkal Arya Vaidyasala"
      }
    },
    {
      "type": "node",
      "id": 5714911263,
      "lat": 12.9713379,
      "lon": 77.6493013,
      "tags": {
        "name": "Hot n Cool",
        "shop": "tea"
      }
    },
    {
      "type": "node",
      "id": 5714974430,
      "lat": 12.9710904,
      "lon": 77.6505947,
      "tags": {
        "access": "yes",
        "leisure": "playground"
      }
    },
    {
      "type": "node",
      "id": 5714974433,
      "lat": 12.9712253,
      "lon": 77.6506269,
      "tags": {
        "leisure": "fitness_station",
        "sport": "fitness"
      }
    },
    {
      "type": "node",
      "id": 5714974442,
      "lat": 12.971239,
      "lon": 77.6507228,
      "tags": {
        "amenity": "drinking_water"
      }
    },
    {
      "type": "node",
      "id": 5714974451,
      "lat": 12.9711384,
      "lon": 77.65071,
      "tags": {
        "amenity": "toilets"
      }
    },
    {
      "type": "node",
      "id": 5754256640,
      "lat": 12.9720369,
      "lon": 77.6496184,
      "tags": {
        "check_date": "2024-11-23",
        "name": "Sri Bharani Mixtures",
        "shop": "bakery"
      }
    },
    {
      "type": "node",
      "id": 5754256641,
      "lat": 12.9721284,
      "lon": 77.6498491,
      "tags": {
        "amenity": "fast_food",
        "cuisine": "south_indian",
        "name": "Mary's Cafe"
      }
    },
    {
      "type": "node",
      "id": 5863637590,
      "lat": 12.9678992,
      "lon": 77.6504368,
      "tags": {
        "amenity": "atm",
        "operator": "State Bank of India (SBI)"
      }
    },
    {
      "type": "node",
      "id": 6422270648,
      "lat": 12.9716738,
      "lon": 77.6510881,
      "tags": {
        "name": "Alekhya Rice Traders",
        "shop": "yes"
      }
    },
    {
      "type": "node",
      "id": 6422270649,
      "lat": 12.9687908,
      "lon": 77.6482669,
      "tags": {
        "amenity": "waste_disposal",
        "operator": "BBMP"
      }
    },
    {
      "type": "node",
      "id": 6428162894,
      "lat": 12.9723801,
      "lon": 77.6507924,
      "tags": {
        "amenity": "fast_food",
        "name": "Lepcha Food and Refreshments"
      }
    },
    {
      "type": "node",
      "id": 6428203485,
      "lat": 12.9700362,
      "lon": 77.6490416,
      "tags": {
        "amenity": "dentist",
        "healthcare": "dentist",
        "name": "Dr Paul's Dental Health Care"
      }
    },
    {
      "type": "node",
      "id": 6440524487,
      "lat": 12.9709043,
      "lon": 77.6521944,
      "tags": {
        "name": "Beijing Queens",
        "opening_hours": "Mo-Sa 08:30-21:00; Su 08:30-20:00",
        "shop": "beauty"
      }
    },
    {
      "type": "node",
      "id": 6443251758,
      "lat": 12.968807,
      "lon": 77.6490288,
      "tags": {
        "name": "Ganesh Fruit Juice Centre",
        "shop": "beverages"
      }
    },
    {
      "type": "node",
      "id": 6497014280,
      "lat": 12.9696336,
      "lon": 77.6489861,
      "tags": {
        "amenity": "cafe",
        "name": "Mood for Food"
      }
    },
    {
      "type": "node",
      "id": 6497017194,
      "lat": 12.9686909,
      "lon": 77.6486916,
      "tags": {
        "amenity": "restaurant",
        "name": "Savoury Express"
      }
    },
    {
      "type": "node",
      "id": 6618583185,
      "lat": 12.9689989,
      "lon": 77.6482291,
      "tags": {
        "name": "Sree Venkateshwara Iyengar's bakery and sweets",
        "shop": "bakery"
      }
    },
    {
      "type": "node",
      "id": 6771722350,
      "lat": 12.9722083,
      "lon": 77.6538788,
      "tags": {
        "name": "Meenakshi Glass and Plywoods",
        "shop": "Glass_and_Plywood_Items"
      }
    },
    {
      "type": "node",
      "id": 6771722351,
      "lat": 12.9722106,
      "lon": 77.6539151,
      "tags": {
        "name": "Meenakshi Hardware and Sheet Suppliers",
        "shop": "Hardware_and_Sheet_Suppliers"
      }
    },
    {
      "type": "node",
      "id": 6771722352,
      "lat": 12.9721257,
      "lon": 77.6542468,
      "tags": {
        "name": "Shanti Sweets",
        "shop": "bakery"
      }
    },
    {
      "type": "node",
      "id": 6771722354,
      "lat": 12.9716726,
      "lon": 77.6573587,
      "tags": {
        "amenity": "restaurant",
        "cuisine": "indian",
        "name": "Dal Baati Corner"
      }
    },
    {
      "type": "node",
      "id": 6771722355,
      "lat": 12.9714814,
      "lon": 77.6571747,
      "tags": {
        "alt_name": "Goli Vada Pav No.1",
        "amenity": "fast_food",
        "brand": "Goli Vada Pav",
        "brand:wikidata": "Q5580697",
        "cuisine": "indian",
        "name": "Goli Vada Pav",
        "takeaway": "yes"
      }
    },
    {
      "type": "node",
      "id": 6771722356,
      "lat": 12.9714909,
      "lon": 77.6572328,
      "tags": {
        "name": "Mount Stationery",
        "shop": "stationery"
      }
    },
    {
      "type": "node",
      "id": 6771722357,
      "lat": 12.9718144,
      "lon": 77.6548499,
      "tags": {
        "amenity": "restaurant",
        "name": "Plantain Leaf"
      }
    },
    {
      "type": "node",
      "id": 6771722358,
      "lat": 12.9720221,
      "lon": 77.6546949,
      "tags": {
        "name": "Poorvika",
        "name:kn": "ಪೂರ್ವಿಕ",
        "shop": "mobile_phone"
      }
    },
    {
      "type": "node",
      "id": 6771722359,
      "lat": 12.9722203,
      "lon": 77.653811,
      "tags": {
        "shop": "juice"
      }
    },
    {
      "type": "node",
      "id": 6771722360,
      "lat": 12.9719772,
      "lon": 77.6534429,
      "tags": {
        "name": "Kundapura Stationery",
        "shop": "stationery"
      }
    },
    {
      "type": "node",
      "id": 6771722361,
      "lat": 12.9759418,
      "lon": 77.6528714,
      "tags": {
        "name": "Hari Uncles Shop",
        "shop": "Stationery,Food"
      }
    },
    {
      "type": "node",
      "id": 6815321885,
      "lat": 12.9672282,
      "lon": 77.6482951,
      "tags": {
        "addr:housenumber": "2219",
        "addr:street": "80 Feet Rd, HAL 3rd Stage, Kodihalli",
        "name": "City Food Point",
        "name:en": "City Food Point",
        "opening_hours": "Mo-Su 09:00-10:00",
        "phone": "+918762137942",
        "shop": "convenience"
      }
    },
    {
      "type": "node",
      "id": 6834046687,
      "lat": 12.9687494,
      "lon": 77.6492656,
      "tags": {
        "addr:street": "Jeevan Bheema Nagar Main Road",
        "amenity": "restaurant",
        "indoor_seating": "yes",
        "name": "Ayodhya vihar",
        "opening_hours": "Mo-Su 08:00-22:00",
        "outdoor_seating": "yes"
      }
    },
    {
      "type": "node",
      "id": 6834046786,
      "lat": 12.9686515,
      "lon": 77.6489876,
      "tags": {
        "addr:street": "Jeevan Bheema Nagar Main Road",
        "name": "Just Bake",
        "name:kn": "ಜಸ್ಟ್ ಬೇಕ್",
        "shop": "bakery"
      }
    },
    {
      "type": "node",
      "id": 6834046985,
      "lat": 12.9687903,
      "lon": 77.6490518,
      "tags": {
        "addr:street": "Jeevan Bheema Nagar Main Road",
        "name": "Varsha Stationary and Computers",
        "shop": "computer"
      }
    },
    {
      "type": "node",
      "id": 6834046986,
      "lat": 12.9687781,
      "lon": 77.6491057,
      "tags": {
        "addr:street": "Jeevan Bheema Nagar Main Road",
        "name": "Posh Garden",
        "shop": "greengrocer"
      }
    },
    {
      "type": "node",
      "id": 6834054685,
      "lat": 12.9686318,
      "lon": 77.6490776,
      "tags": {
        "addr:street": "Jeevan Bheema Nagar Main Road",
        "amenity": "restaurant",
        "cuisine": "indian",
        "name": "C2B - Chandni Chowk 2 Bangalore"
      }
    },
    {
      "type": "node",
      "id": 6886594856,
      "lat": 12.971833,
      "lon": 77.6566954,
      "tags": {
        "addr:city": "Bengaluru",
        "addr:district": "BENGALURU URBAN",
        "addr:full": "New Thippasandra Main Road, HAL III Stage",
        "addr:postcode": "560075",
        "addr:state": "Karnataka",
        "amenity": "blood_bank",
        "contact:mobile": "9740594251",
        "contact:phone": "08025293486; 9900153000; 9900163000",
        "name": "Bengaluru Rotary TTK Medical Service Trust Blood Bank",
        "opening_hours": "24/7",
        "operator:type": "private",
        "source": "OpenGovernmentData",
        "website": "https://www.bmstindia.org/"
      }
    },
    {
      "type": "node",
      "id": 6944578924,
      "lat": 12.9738683,
      "lon": 77.652254,
      "tags": {
        "addr:district": "Bengaluru Urban",
        "addr:full": "# 1034 , Church Road, New Thippasandra, Hal 3rd Stage",
        "addr:postcode": "560075",
        "addr:state": "Karnataka",
        "amenity": "clinic",
        "healthcare": "clinic",
        "name": "Kakde Nursing Home",
        "source": "OpenGovernmentData"
      }
    },
    {
      "type": "node",
      "id": 6944578925,
      "lat": 12.9675989,
      "lon": 77.6565533,
      "tags": {
        "addr:district": "Bengaluru Urban",
        "addr:full": "Ist Floor, Lic Colony Main Road, Jeevan Bhima Nagar",
        "addr:postcode": "560032",
        "addr:state": "Karnataka",
        "amenity": "hospital",
        "name": "Dr Chaitanyas Dental Care & Implant Centre",
        "source": "OpenGovernmentData"
      }
    },
    {
      "type": "node",
      "id": 6982377243,
      "lat": 12.9722827,
      "lon": 77.6534246,
      "tags": {
        "amenity": "pharmacy",
        "healthcare": "pharmacy",
        "name": "Nagarjuna Ayurveda"
      }
    },
    {
      "type": "node",
      "id": 6982413088,
      "lat": 12.9723987,
      "lon": 77.6533412,
      "tags": {
        "name": "Mahadev Paper Mart",
        "shop": "stationery"
      }
    },
    {
      "type": "node",
      "id": 7140763291,
      "lat": 12.972565,
      "lon": 77.6533496,
      "tags": {
        "amenity": "restaurant",
        "cuisine": "fish",
        "name": "Moti's Kitchen"
      }
    },
    {
      "type": "node",
      "id": 7299776434,
      "lat": 12.9684861,
      "lon": 77.6483457,
      "tags": {
        "amenity": "school",
        "name": "Kiara Music Academy"
      }
    },
    {
      "type": "node",
      "id": 9545465487,
      "lat": 12.970764,
      "lon": 77.6475812,
      "tags": {
        "amenity": "restaurant",
        "name": "Indiranagar Social"
      }
    },
    {
      "type": "node",
      "id": 9704972553,
      "lat": 12.971271,
      "lon": 77.6475102,
      "tags": {
        "amenity": "restaurant",
        "cuisine": "regional",
        "diet:vegan": "only",
        "name": "Vegan Vogue"
      }
    },
    {
      "type": "node",
      "id": 9814659995,
      "lat": 12.9715331,
      "lon": 77.6474559,
      "tags": {
        "amenity": "restaurant",
        "cuisine": "regional",
        "delivery": "yes",
        "diet:vegetarian": "only",
        "name": "Kailash Parbat",
        "takeaway": "yes"
      }
    },
    {
      "type": "node",
      "id": 10015389086,
      "lat": 12.9692297,
      "lon": 77.6478401,
      "tags": {
        "amenity": "restaurant",
        "cuisine": "asian",
        "delivery": "yes",
        "name": "Bao Bangalore",
        "outdoor_seating": "yes",
        "takeaway": "yes"
      }
    },
    {
      "type": "node",
      "id": 10696981907,
      "lat": 12.9716853,
      "lon": 77.6470488,
      "tags": {
        "addr:city": "Bangalore",
        "addr:country": "IN",
        "addr:suburb": "Indiranagar",
        "amenity": "restaurant",
        "check_date": "2024-02-04",
        "contact:instagram": "https://www.instagram.com/thefiltercoffee.in",
        "cuisine": "regional",
        "delivery": "yes",
        "diet:vegetarian": "yes",
        "name": "The Filter Coffee",
        "payment:credit_cards": "yes",
        "payment:debit_cards": "yes",
        "takeaway": "yes"
      }
    },
    {
      "type": "node",
      "id": 10727955502,
      "lat": 12.9683018,
      "lon": 77.651787,
      "tags": {
        "amenity": "cafe",
        "contact:facebook": "lefromageboulangerie",
        "contact:instagram": "le_fromage_boulangerie",
        "delivery": "yes",
        "name": "Dunk'd",
        "old_name": "Le Fromage",
        "shop": "pastry",
        "takeaway": "yes",
        "website": "https://www.lefromage.shop"
      }
    },
    {
      "type": "node",
      "id": 11493783924,
      "lat": 12.9702482,
      "lon": 77.6477418,
      "tags": {
        "check_date": "2024-01-06",
        "level": "0;1",
        "name": "Decathalon",
        "shop": "sports"
      }
    },
    {
      "type": "node",
      "id": 11527727219,
      "lat": 12.9694532,
      "lon": 77.6489867,
      "tags": {
        "amenity": "restaurant",
        "name": "Kudlada Kitchen"
      }
    },
    {
      "type": "node",
      "id": 11924692865,
      "lat": 12.9705917,
      "lon": 77.6472701,
      "tags": {
        "alt_name": "Kentucky Fried Chicken",
        "alt_name:en": "Kentucky Fried Chicken",
        "alt_name:hi": "केंटुकी फ्राइड चिकन",
        "alt_name:pa": "ਕੈਂਟੁਕੀ ਫ੍ਰਾਈਡ ਚਿਕਨ",
        "alt_name:pnb": "کینٹکی فرائیڈ چکن",
        "alt_name:ur": "کینٹکی فرائیڈ چکن",
        "amenity": "fast_food",
        "brand": "KFC",
        "brand:en": "KFC",
        "brand:hi": "केएफसी",
        "brand:pa": "ਕੇਐਫਸੀ",
        "brand:pnb": "کے ایف سی",
        "brand:ur": "کے ایف سی",
        "brand:wikidata": "Q524757",
        "check_date": "2024-05-22",
        "cuisine": "chicken",
        "name": "KFC",
        "name:en": "KFC",
        "name:hi": "केएफसी",
        "name:pa": "ਕੇਐਫਸੀ",
        "name:pnb": "کے ایف سی",
        "name:ur": "کے ایف سی",
        "takeaway": "yes"
      }
    },
    {
      "type": "node",
      "id": 12099096295,
      "lat": 12.9758932,
      "lon": 77.6520407,
      "tags": {
        "addr:city": "Bangalore",
        "addr:housenumber": "32",
        "addr:postcode": "560075",
        "addr:street": "Church Main Road, HAL 3rd Stage, Bhoomi Reddy Colony, New Tippasandra, Bengaluru, Karnataka 560075",
        "amenity": "school",
        "name": "Oxford English High School"
      }
    },
    {
      "type": "node",
      "id": 12102958394,
      "lat": 12.966625,
      "lon": 77.6483403,
      "tags": {
        "amenity": "cafe",
        "contact:instagram": "delcakes.in",
        "name": "Deliciae",
        "website": "https://orders.delcakes.in/blr_catalog"
      }
    },
    {
      "type": "node",
      "id": 12208504059,
      "lat": 12.9695009,
      "lon": 77.6478334,
      "tags": {
        "addr:city": "Bengaluru",
        "addr:housenumber": "46",
        "addr:postcode": "560038",
        "addr:street": "9th Main Road",
        "addr:suburb": "Indiranagar",
        "amenity": "cafe",
        "cuisine": "coffee_shop",
        "name": "Huvu Cafe"
      }
    },
    {
      "type": "node",
      "id": 12325681709,
      "lat": 12.96905,
      "lon": 77.6483249,
      "tags": {
        "amenity": "fast_food",
        "check_date": "2024-11-09",
        "name": "Sabari Cafe"
      }
    },
    {
      "type": "node",
      "id": 12366463178,
      "lat": 12.9721073,
      "lon": 77.6528331,
      "tags": {
        "amenity": "restaurant",
        "check_date": "2024-11-23",
        "cuisine": "indian;regional",
        "diet:vegetarian": "yes",
        "name": "Sri Krishna Bhavan",
        "takeaway": "yes"
      }
    },
    {
      "type": "node",
      "id": 12366493400,
      "lat": 12.9723282,
      "lon": 77.6516254,
      "tags": {
        "check_date": "2024-11-23",
        "level": "0",
        "name": "Sapna Textiles",
        "shop": "clothes"
      }
    },
    {
      "type": "node",
      "id": 12366494947,
      "lat": 12.9725629,
      "lon": 77.6507638,
      "tags": {
        "check_date": "2024-11-23",
        "name": "Sri Ranganatha Iyengar’s Bakery",
        "shop": "bakery"
      }
    },
    {
      "type": "node",
      "id": 12366495053,
      "lat": 12.9700219,
      "lon": 77.6505553,
      "tags": {
        "amenity": "fast_food",
        "check_date": "2024-11-23",
        "name": "Chaat",
        "opening_hours": "16:00-22:00"
      }
    },
    {
      "type": "node",
      "id": 12366498402,
      "lat": 12.9723035,
      "lon": 77.6503019,
      "tags": {
        "check_date": "2024-11-23",
        "name": "Guide Electronics",
        "name:en": "Guide Electronics",
        "shop": "electronics",
        "wheelchair": "no"
      }
    },
    {
      "type": "node",
      "id": 12366498485,
      "lat": 12.9723715,
      "lon": 77.6513936,
      "tags": {
        "check_date": "2024-11-23",
        "clothes": "underwear",
        "name": "Mangaldeep Selection",
        "shop": "clothes"
      }
    },
    {
      "type": "node",
      "id": 12366499541,
      "lat": 12.9725302,
      "lon": 77.651266,
      "tags": {
        "check_date": "2024-11-23",
        "name": "Swastik Jewellers",
        "shop": "jewelry"
      }
    },
    {
      "type": "node",
      "id": 12366506710,
      "lat": 12.9725282,
      "lon": 77.6512284,
      "tags": {
        "check_date": "2024-11-23",
        "name": "Dhanalakshmi Fancy Stores",
        "shop": "fashion_accessories"
      }
    },
    {
      "type": "node",
      "id": 12366508108,
      "lat": 12.9724111,
      "lon": 77.6512061,
      "tags": {
        "check_date": "2024-11-23",
        "name": "New Santosh Times Watch Store",
        "shop": "watches"
      }
    },
    {
      "type": "node",
      "id": 12366508181,
      "lat": 12.9723343,
      "lon": 77.6515435,
      "tags": {
        "check_date": "2024-11-23",
        "level": "0",
        "name": "Khadim",
        "shop": "shoes"
      }
    },
    {
      "type": "node",
      "id": 12366508182,
      "lat": 12.9723435,
      "lon": 77.6514754,
      "tags": {
        "check_date": "2024-11-23",
        "level": "0",
        "name": "Blue Marine Fancy Shop",
        "shop": "fashion_accessories"
      }
    },
    {
      "type": "node",
      "id": 12366512463,
      "lat": 12.9725273,
      "lon": 77.6506916,
      "tags": {
        "amenity": "fixme",
        "check_date": "2024-11-23",
        "fixme": "type",
        "fixme:type": "PG",
        "name": "NR Stays PG For Ladies"
      }
    },
    {
      "type": "node",
      "id": 12366512464,
      "lat": 12.9725017,
      "lon": 77.6506961,
      "tags": {
        "amenity": "fixme",
        "check_date": "2024-11-23",
        "fixme": "type",
        "fixme:type": "Xerox",
        "name": "Thirumala Digital Xerox Shop"
      }
    },
    {
      "type": "node",
      "id": 12366516503,
      "lat": 12.9722125,
      "lon": 77.6498108,
      "tags": {
        "amenity": "bar",
        "brewery": "yes",
        "check_date": "2024-11-23",
        "name": "Sandra's Restobar",
        "name:en": "Sandra's Restobar",
        "wheelchair": "yes"
      }
    },
    {
      "type": "node",
      "id": 12366516504,
      "lat": 12.9723523,
      "lon": 77.6512308,
      "tags": {
        "building:levels": "1",
        "check_date": "2024-11-23",
        "level": "1",
        "name": "Indian Unisex Salon",
        "shop": "beauty"
      }
    },
    {
      "type": "node",
      "id": 12366522911,
      "lat": 12.9725658,
      "lon": 77.6507848,
      "tags": {
        "amenity": "fixme",
        "check_date": "2024-11-23",
        "fixme": "type",
        "fixme:type": "cycle shop",
        "name": "Karnataka Cycle Shoppee"
      }
    },
    {
      "type": "node",
      "id": 12366523807,
      "lat": 12.9724001,
      "lon": 77.6510384,
      "tags": {
        "check_date": "2024-11-23",
        "name": "Ladies Tailor",
        "shop": "tailor"
      }
    },
    {
      "type": "node",
      "id": 12366523812,
      "lat": 12.9723831,
      "lon": 77.6512925,
      "tags": {
        "check_date": "2024-11-23",
        "level": "0",
        "name": "Chocolate Clothing Store",
        "shop": "clothes"
      }
    },
    {
      "type": "node",
      "id": 12366523813,
      "lat": 12.972377,
      "lon": 77.6513195,
      "tags": {
        "check_date": "2024-11-23",
        "level": "0",
        "name": "Kitchen Planet",
        "shop": "houseware"
      }
    },
    {
      "type": "node",
      "id": 12366523814,
      "lat": 12.9723716,
      "lon": 77.6513684,
      "tags": {
        "check_date": "2024-11-23",
        "level": "0",
        "name": "Mateshwari Jwellers",
        "shop": "jewelry"
      }
    },
    {
      "type": "node",
      "id": 12366523831,
      "lat": 12.9725214,
      "lon": 77.6515052,
      "tags": {
        "check_date": "2024-11-23",
        "level": "1",
        "name": "N K Hardware",
        "phone": "+91 98804 22854",
        "shop": "hardware"
      }
    },
    {
      "type": "node",
      "id": 12366524008,
      "lat": 12.9723434,
      "lon": 77.650478,
      "tags": {
        "amenity": "pharmacy",
        "check_date": "2024-11-23",
        "healthcare": "pharmacy",
        "internet_access": "no",
        "name": "Pharma.wellness",
        "name:en": "Pharma.wellness",
        "wheelchair": "no"
      }
    },
    {
      "type": "node",
      "id": 12366525438,
      "lat": 12.9722897,
      "lon": 77.6501252,
      "tags": {
        "check_date": "2024-11-23",
        "name": "Jai Balaji Bangle Store",
        "name:en": "Jai Balaji Bangle Store",
        "shop": "beauty"
      }
    },
    {
      "type": "node",
      "id": 12366525439,
      "lat": 12.9724579,
      "lon": 77.6500589,
      "tags": {
        "amenity": "pharmacy",
        "check_date": "2024-11-23",
        "drive_through": "no",
        "healthcare": "pharmacy",
        "name": "Sri Venkateswara Medicals",
        "name:en": "Sri Venkateswara Medicals",
        "wheelchair": "no"
      }
    },
    {
      "type": "node",
      "id": 12366525445,
      "lat": 12.9725421,
      "lon": 77.6512378,
      "tags": {
        "amenity": "dentist",
        "check_date": "2024-11-23",
        "healthcare": "dentist",
        "healthcare:speciality": "orthodontics",
        "name": "Dr C Jagadeesh’s Dental Clinic"
      }
    },
    {
      "type": "node",
      "id": 12366525918,
      "lat": 12.9724999,
      "lon": 77.651454,
      "tags": {
        "check_date": "2024-11-23",
        "name": "Sri Dhanalakshmi Jewellers",
        "shop": "jewelry"
      }
    },
    {
      "type": "node",
      "id": 12366526001,
      "lat": 12.9725656,
      "lon": 77.650749,
      "tags": {
        "check_date": "2024-11-23",
        "name": "Ganesh Bangles",
        "payment:cash": "yes",
        "payment:credit_cards": "yes",
        "payment:debit_cards": "yes",
        "shop": "fashion_accessories"
      }
    },
    {
      "type": "node",
      "id": 12366528215,
      "lat": 12.9722609,
      "lon": 77.6496737,
      "tags": {
        "check_date": "2024-11-23",
        "name": "Bumshum - Eco-friendly Baby Store",
        "name:en": "Bumshum - Eco-friendly Baby Store",
        "shop": "baby_goods"
      }
    },
    {
      "type": "node",
      "id": 12366533764,
      "lat": 12.9725162,
      "lon": 77.6513556,
      "tags": {
        "amenity": "fixme",
        "check_date": "2024-11-23",
        "fixme": "type",
        "fixme:type": "Bar & Restaurant",
        "name": "Jai Shree Pavilion"
      }
    },
    {
      "type": "node",
      "id": 12366540413,
      "lat": 12.9723402,
      "lon": 77.6522021,
      "tags": {
        "amenity": "fixme",
        "check_date": "2024-11-23",
        "fixme": "type",
        "fixme:type": "appliances",
        "name": "Ramdev Home Appliances"
      }
    },
    {
      "type": "node",
      "id": 12366541796,
      "lat": 12.9724274,
      "lon": 77.6510637,
      "tags": {
        "check_date": "2024-11-23",
        "name": "Sri Ishnavi Motors",
        "shop": "motorcycle_repair"
      }
    },
    {
      "type": "node",
      "id": 12366541797,
      "lat": 12.97241,
      "lon": 77.6511337,
      "tags": {
        "brand": "Peter England",
        "brand:wikidata": "Q19573665",
        "check_date": "2024-11-23",
        "clothes": "men",
        "name": "Peter England",
        "shop": "clothes"
      }
    },
    {
      "type": "node",
      "id": 12366541863,
      "lat": 12.9725261,
      "lon": 77.6516,
      "tags": {
        "addr:floor": "2",
        "amenity": "car_rental",
        "brand": "Enterprise",
        "brand:wikidata": "Q17085454",
        "check_date": "2024-11-23",
        "name": "Vedha Enterprise",
        "official_name": "Enterprise Rent-A-Car"
      }
    },
    {
      "type": "node",
      "id": 12366543971,
      "lat": 12.9724427,
      "lon": 77.6518378,
      "tags": {
        "check_date": "2024-11-23",
        "name": "Ambrane Mobile Store",
        "shop": "mobile_phone"
      }
    },
    {
      "type": "node",
      "id": 12366544218,
      "lat": 12.9725383,
      "lon": 77.6512061,
      "tags": {
        "check_date": "2024-11-23",
        "name": "B C Jewel Palace",
        "shop": "jewelry"
      }
    },
    {
      "type": "node",
      "id": 12366544584,
      "lat": 12.9725348,
      "lon": 77.6511557,
      "tags": {
        "addr:door": "175/A",
        "addr:floor": "2",
        "check_date": "2024-11-23",
        "leisure": "fitness_centre",
        "name": "Transformation Studio"
      }
    },
    {
      "type": "node",
      "id": 12366544915,
      "lat": 12.9723483,
      "lon": 77.6487876,
      "tags": {
        "brand": "Vishal Mega Mart",
        "brand:wikidata": "Q124374377",
        "check_date": "2024-11-23",
        "name": "Vishal Mega Mart",
        "name:en": "Vishal Mega Mart",
        "payment:cash": "yes",
        "payment:credit_cards": "yes",
        "payment:debit_cards": "yes",
        "shop": "supermarket",
        "wheelchair": "yes"
      }
    },
    {
      "type": "node",
      "id": 12366544916,
      "lat": 12.9723958,
      "lon": 77.6512433,
      "tags": {
        "check_date": "2024-11-23",
        "name": "Sri Manjunatha Collection",
        "shop": "clothes"
      }
    },
    {
      "type": "node",
      "id": 12366548643,
      "lat": 12.9724721,
      "lon": 77.6515718,
      "tags": {
        "check_date": "2024-11-23",
        "name": "Sri Ganesh Jewellers",
        "shop": "jewelry"
      }
    },
    {
      "type": "node",
      "id": 12366548711,
      "lat": 12.9725137,
      "lon": 77.6518554,
      "tags": {
        "amenity": "fixme",
        "check_date": "2024-11-23",
        "fixme": "type",
        "fixme:type": "saloon",
        "name": "Arunodaya Men’s Saloon"
      }
    },
    {
      "type": "node",
      "id": 12366551434,
      "lat": 12.9725272,
      "lon": 77.6512944,
      "tags": {
        "check_date": "2024-11-23",
        "name": "Sri Sundha Mobiles",
        "phone": "+91 95387 19755",
        "shop": "mobile_phone"
      }
    },
    {
      "type": "node",
      "id": 12366559913,
      "lat": 12.9724665,
      "lon": 77.6517782,
      "tags": {
        "amenity": "studio",
        "check_date": "2024-11-23",
        "level": "1",
        "name": "Vinayaka Digital Studio"
      }
    },
    {
      "type": "node",
      "id": 12366560120,
      "lat": 12.9724147,
      "lon": 77.6519392,
      "tags": {
        "check_date": "2024-11-23",
        "name": "Silky",
        "shop": "clothes"
      }
    },
    {
      "type": "node",
      "id": 12366562148,
      "lat": 12.9724278,
      "lon": 77.651795,
      "tags": {
        "check_date": "2024-11-23",
        "name": "Sagar Fancy Store",
        "shop": "fashion_accessories"
      }
    },
    {
      "type": "node",
      "id": 12366562183,
      "lat": 12.96868,
      "lon": 77.6498334,
      "tags": {
        "amenity": "bank",
        "atm": "yes",
        "brand": "Ujjivan Small Finance Bank",
        "brand:wikidata": "Q42529272",
        "check_date": "2024-11-23",
        "drive_through": "no",
        "name": "Ujjivan Small Finance Bank"
      }
    },
    {
      "type": "node",
      "id": 12366562184,
      "lat": 12.9684107,
      "lon": 77.6501156,
      "tags": {
        "amenity": "restaurant",
        "check_date": "2024-11-23",
        "name": "Biryani Bhojana"
      }
    },
    {
      "type": "node",
      "id": 12366562185,
      "lat": 12.9683648,
      "lon": 77.6500847,
      "tags": {
        "amenity": "cafe",
        "check_date": "2024-11-23",
        "name": "Cafe Amudham"
      }
    },
    {
      "type": "node",
      "id": 12366563172,
      "lat": 12.9699936,
      "lon": 77.6517652,
      "tags": {
        "amenity": "dentist",
        "check_date": "2024-11-23",
        "healthcare": "dentist"
      }
    },
    {
      "type": "node",
      "id": 12366563173,
      "lat": 12.9699031,
      "lon": 77.6518827,
      "tags": {
        "check_date": "2024-11-23",
        "name": "Rekha Tailors",
        "shop": "tailor"
      }
    },
    {
      "type": "node",
      "id": 12366563174,
      "lat": 12.9696932,
      "lon": 77.6518197,
      "tags": {
        "check_date": "2024-11-23",
        "shop": "beauty"
      }
    },
    {
      "type": "node",
      "id": 12366563175,
      "lat": 12.96957,
      "lon": 77.6517863,
      "tags": {
        "check_date": "2024-11-23",
        "hairdresser": "barber",
        "shop": "hairdresser"
      }
    },
    {
      "type": "node",
      "id": 12366563177,
      "lat": 12.9686873,
      "lon": 77.6515092,
      "tags": {
        "check_date": "2024-11-23",
        "name": "Golden Boutique",
        "shop": "clothes"
      }
    },
    {
      "type": "node",
      "id": 12366563178,
      "lat": 12.9685315,
      "lon": 77.6514828,
      "tags": {
        "amenity": "veterinary",
        "check_date": "2024-11-23",
        "name": "Precise Pet Clinic"
      }
    },
    {
      "type": "node",
      "id": 12366563179,
      "lat": 12.9681933,
      "lon": 77.6518532,
      "tags": {
        "brand": "Kanti Sweets",
        "brand:wikidata": "Q124374180",
        "check_date": "2024-11-23",
        "name": "Kanti Sweets",
        "shop": "confectionery"
      }
    },
    {
      "type": "node",
      "id": 12366563180,
      "lat": 12.9681876,
      "lon": 77.6519359,
      "tags": {
        "amenity": "fast_food",
        "check_date": "2024-11-23",
        "name": "Chickpete Donne Biryani Mane"
      }
    },
    {
      "type": "node",
      "id": 12366563181,
      "lat": 12.9681096,
      "lon": 77.6522816,
      "tags": {
        "check_date": "2024-11-23",
        "name": "The Family Salon",
        "shop": "beauty"
      }
    },
    {
      "type": "node",
      "id": 12366563182,
      "lat": 12.9681088,
      "lon": 77.6524272,
      "tags": {
        "amenity": "fast_food",
        "check_date": "2024-11-23",
        "name": "New Udupi Grand"
      }
    },
    {
      "type": "node",
      "id": 12366563196,
      "lat": 12.9724455,
      "lon": 77.6517051,
      "tags": {
        "check_date": "2024-11-23",
        "name": "Sri Sai Hardware Glass & Plywoods",
        "shop": "hardware"
      }
    },
    {
      "type": "node",
      "id": 12366565121,
      "lat": 12.9724897,
      "lon": 77.6515054,
      "tags": {
        "amenity": "fixme",
        "check_date": "2024-11-23",
        "fixme": "type",
        "fixme:type": "Sweets shop",
        "name": "New Krishdeep Sweets"
      }
    },
    {
      "type": "node",
      "id": 12366565123,
      "lat": 12.9721784,
      "lon": 77.6524836,
      "tags": {
        "check_date": "2024-11-23",
        "name": "Casio Supermarket",
        "shop": "supermarket"
      }
    },
    {
      "type": "node",
      "id": 12366570334,
      "lat": 12.9722617,
      "lon": 77.6517313,
      "tags": {
        "check_date": "2024-11-23",
        "level": "1",
        "name": "Wig Design International",
        "shop": "wigs"
      }
    },
    {
      "type": "node",
      "id": 12366575626,
      "lat": 12.9724422,
      "lon": 77.6518046,
      "tags": {
        "amenity": "dentist",
        "check_date": "2024-11-23",
        "healthcare": "dentist",
        "healthcare:speciality": "orthodontics",
        "level": "1",
        "name": "Yahvi Dental Clinic"
      }
    },
    {
      "type": "node",
      "id": 12366575627,
      "lat": 12.9724648,
      "lon": 77.6518097,
      "tags": {
        "addr:floor": "2",
        "amenity": "events_venue",
        "check_date": "2024-11-23",
        "name": "White Paradise Party Hall"
      }
    },
    {
      "type": "node",
      "id": 12366576651,
      "lat": 12.9725056,
      "lon": 77.651576,
      "tags": {
        "check_date": "2024-11-23",
        "level": "1",
        "name": "Nabhya Sports World",
        "shop": "sports"
      }
    },
    {
      "type": "node",
      "id": 12366577432,
      "lat": 12.9738962,
      "lon": 77.6509832,
      "tags": {
        "amenity": "events_venue",
        "check_date": "2024-11-23",
        "name": "Kalyana Mantapa",
        "name:en": "Kalyana Mantapa"
      }
    },
    {
      "type": "node",
      "id": 12366579950,
      "lat": 12.9722109,
      "lon": 77.6519307,
      "tags": {
        "check_date": "2024-11-23",
        "level": "0",
        "name": "Tip Top Fashion",
        "shop": "clothes"
      }
    },
    {
      "type": "node",
      "id": 12366580017,
      "lat": 12.9723862,
      "lon": 77.652084,
      "tags": {
        "amenity": "fixme",
        "check_date": "2024-11-23",
        "fixme": "type",
        "fixme:type": "costume store",
        "level": "1",
        "name": "Royal Costumes",
        "phone": "+91 98459 85214"
      }
    },
    {
      "type": "node",
      "id": 12366580601,
      "lat": 12.9723159,
      "lon": 77.65165,
      "tags": {
        "check_date": "2024-11-23",
        "level": "0",
        "name": "Phonex",
        "shop": "mobile_phone"
      }
    },
    {
      "type": "node",
      "id": 12366580602,
      "lat": 12.9723163,
      "lon": 77.6516977,
      "tags": {
        "amenity": "pharmacy",
        "check_date": "2024-11-23",
        "healthcare": "pharmacy",
        "level": "0",
        "name": "Sri Laxmi Medicals"
      }
    },
    {
      "type": "node",
      "id": 12366580603,
      "lat": 12.9723085,
      "lon": 77.6517347,
      "tags": {
        "check_date": "2024-11-23",
        "level": "0",
        "name": "Life Lines Tender Chicken",
        "shop": "butcher"
      }
    },
    {
      "type": "node",
      "id": 12366580720,
      "lat": 12.9724234,
      "lon": 77.6518118,
      "tags": {
        "check_date": "2024-11-23",
        "name": "Bata",
        "shop": "shoes"
      }
    },
    {
      "type": "node",
      "id": 12366581512,
      "lat": 12.9724056,
      "lon": 77.6520177,
      "tags": {
        "check_date": "2024-11-23",
        "name": "He N She",
        "shop": "clothes"
      }
    },
    {
      "type": "node",
      "id": 12366582153,
      "lat": 12.973074,
      "lon": 77.6511037,
      "tags": {
        "amenity": "clinic",
        "check_date": "2024-11-23",
        "healthcare": "clinic",
        "name": "PR Dental Clinic",
        "name:en": "PR Dental Clinic"
      }
    },
    {
      "type": "node",
      "id": 12366582396,
      "lat": 12.9722064,
      "lon": 77.6518802,
      "tags": {
        "check_date": "2024-11-23",
        "level": "0",
        "name": "Nisha Jewel Paradise",
        "shop": "jewelry"
      }
    },
    {
      "type": "node",
      "id": 12366585286,
      "lat": 12.9722017,
      "lon": 77.6517442,
      "tags": {
        "check_date": "2024-11-23",
        "level": "0",
        "name": "Fashion Point",
        "shop": "clothes"
      }
    },
    {
      "type": "node",
      "id": 12366585287,
      "lat": 12.9721449,
      "lon": 77.6518743,
      "tags": {
        "check_date": "2024-11-23",
        "level": "1",
        "name": "Fedbank Gold Loans",
        "shop": "money_lender"
      }
    },
    {
      "type": "node",
      "id": 12366587251,
      "lat": 12.9721997,
      "lon": 77.6520018,
      "tags": {
        "amenity": "restaurant",
        "check_date": "2024-11-23",
        "level": "0",
        "name": "Sri Laxmi Darshini"
      }
    },
    {
      "type": "node",
      "id": 12366589278,
      "lat": 12.9724788,
      "lon": 77.6518422,
      "tags": {
        "check_date": "2024-11-23",
        "name": "Crown Dry Cleaners",
        "shop": "dry_cleaning"
      }
    },
    {
      "type": "node",
      "id": 12366589279,
      "lat": 12.9725146,
      "lon": 77.6519076,
      "tags": {
        "check_date": "2024-11-23",
        "name": "Rahiman Tea Stall",
        "shop": "tea"
      }
    },
    {
      "type": "node",
      "id": 12366595814,
      "lat": 12.9723699,
      "lon": 77.652061,
      "tags": {
        "check_date": "2024-11-23",
        "name": "Bhagavathi Gifts & Fancy Store",
        "shop": "gift"
      }
    },
    {
      "type": "node",
      "id": 12366597502,
      "lat": 12.9723584,
      "lon": 77.6521359,
      "tags": {
        "check_date": "2024-11-23",
        "name": "Ramdev Fashion Wear",
        "shop": "clothes"
      }
    },
    {
      "type": "node",
      "id": 12366598602,
      "lat": 12.9722037,
      "lon": 77.6520227,
      "tags": {
        "check_date": "2024-11-23",
        "level": "0",
        "name": "Rajlaxmi Selection",
        "shop": "jewelry"
      }
    },
    {
      "type": "node",
      "id": 12366598603,
      "lat": 12.9722194,
      "lon": 77.6520425,
      "tags": {
        "check_date": "2024-11-23",
        "level": "0",
        "name": "RJ Retail",
        "shop": "mobile_phone"
      }
    },
    {
      "type": "node",
      "id": 12366598604,
      "lat": 12.9722287,
      "lon": 77.652062,
      "tags": {
        "amenity": "pharmacy",
        "check_date": "2024-11-23",
        "healthcare": "pharmacy",
        "level": "0",
        "name": "Sai Health Pharma"
      }
    },
    {
      "type": "node",
      "id": 12366601642,
      "lat": 12.9721967,
      "lon": 77.6523513,
      "tags": {
        "check_date": "2024-11-23",
        "name": "Ramdev Bangles & Gift Centre",
        "shop": "gift"
      }
    },
    {
      "type": "node",
      "id": 12366601759,
      "lat": 12.9721082,
      "lon": 77.652094,
      "tags": {
        "check_date": "2024-11-23",
        "level": "0",
        "name": "Shree Radhe Gents Wear",
        "shop": "clothes"
      }
    },
    {
      "type": "node",
      "id": 12366605325,
      "lat": 12.9721617,
      "lon": 77.6520745,
      "tags": {
        "check_date": "2024-11-23",
        "level": "0",
        "name": "Pawar Home Appliances",
        "shop": "houseware"
      }
    },
    {
      "type": "node",
      "id": 12366605326,
      "lat": 12.9721456,
      "lon": 77.6522212,
      "tags": {
        "check_date": "2024-11-23",
        "level": "0",
        "name": "Pawar Electricals",
        "shop": "electrical"
      }
    },
    {
      "type": "node",
      "id": 12366608354,
      "lat": 12.9721975,
      "lon": 77.652262,
      "tags": {
        "amenity": "fixme",
        "check_date": "2024-11-23",
        "fixme": "type",
        "fixme:type": "Dry Fruits Store",
        "level": "0",
        "name": "Choco Tree",
        "phone": "+91 90357 77725"
      }
    },
    {
      "type": "node",
      "id": 12366611201,
      "lat": 12.972322,
      "lon": 77.6523453,
      "tags": {
        "check_date": "2024-11-23",
        "name": "Ramdev Toys N Toys Baby Store",
        "shop": "toys"
      }
    },
    {
      "type": "node",
      "id": 12367353154,
      "lat": 12.9724575,
      "lon": 77.651995,
      "tags": {
        "amenity": "restaurant",
        "check_date": "2024-11-23",
        "cuisine": "indian",
        "diet:vegetarian": "yes",
        "name": "Sri Lakshmi Darshini Vaibhav Veg",
        "name:en": "Sri Lakshmi Darshini Vaibhav Veg",
        "wheelchair": "no"
      }
    },
    {
      "type": "node",
      "id": 12367516491,
      "lat": 12.9722865,
      "lon": 77.652953,
      "tags": {
        "amenity": "fast_food",
        "indoor_seating": "no",
        "name": "Shree Ganesha Fruit Juice Centre",
        "outdoor_seating": "no",
        "takeaway": "only"
      }
    },
    {
      "type": "node",
      "id": 12367516760,
      "lat": 12.9696322,
      "lon": 77.6504398,
      "tags": {
        "amenity": "bicycle_parking"
      }
    },
    {
      "type": "node",
      "id": 12367516764,
      "lat": 12.9701661,
      "lon": 77.650474,
      "tags": {
        "amenity": "bench",
        "backrest": "yes",
        "seats": "2"
      }
    },
    {
      "type": "node",
      "id": 12367516765,
      "lat": 12.9702255,
      "lon": 77.6504894,
      "tags": {
        "amenity": "bench",
        "backrest": "yes",
        "seats": "2"
      }
    },
    {
      "type": "node",
      "id": 12367516766,
      "lat": 12.9702902,
      "lon": 77.6505049,
      "tags": {
        "amenity": "bench",
        "backrest": "yes",
        "seats": "2"
      }
    },
    {
      "type": "node",
      "id": 12367516767,
      "lat": 12.9703471,
      "lon": 77.6505216,
      "tags": {
        "amenity": "bench",
        "backrest": "yes",
        "seats": "2"
      }
    },
    {
      "type": "node",
      "id": 12367516768,
      "lat": 12.970398,
      "lon": 77.6505377,
      "tags": {
        "amenity": "bench",
        "backrest": "yes",
        "seats": "2"
      }
    },
    {
      "type": "node",
      "id": 12367516769,
      "lat": 12.9704614,
      "lon": 77.6505511,
      "tags": {
        "amenity": "bench",
        "backrest": "yes",
        "seats": "2"
      }
    },
    {
      "type": "node",
      "id": 12367516770,
      "lat": 12.9705144,
      "lon": 77.6505598,
      "tags": {
        "amenity": "bench",
        "backrest": "yes",
        "seats": "2"
      }
    },
    {
      "type": "node",
      "id": 12367516771,
      "lat": 12.9705666,
      "lon": 77.6505746,
      "tags": {
        "amenity": "bench",
        "backrest": "yes",
        "seats": "2"
      }
    },
    {
      "type": "node",
      "id": 12367516772,
      "lat": 12.9706209,
      "lon": 77.650582,
      "tags": {
        "amenity": "bench",
        "backrest": "yes",
        "seats": "2"
      }
    },
    {
      "type": "node",
      "id": 12367516773,
      "lat": 12.9706686,
      "lon": 77.650594,
      "tags": {
        "amenity": "bench",
        "backrest": "yes",
        "seats": "2"
      }
    },
    {
      "type": "node",
      "id": 12367516774,
      "lat": 12.9707215,
      "lon": 77.6506068,
      "tags": {
        "amenity": "bench",
        "backrest": "yes",
        "seats": "2"
      }
    },
    {
      "type": "node",
      "id": 12367516775,
      "lat": 12.9707646,
      "lon": 77.6506162,
      "tags": {
        "amenity": "bench",
        "backrest": "yes",
        "seats": "2"
      }
    },
    {
      "type": "node",
      "id": 12367516776,
      "lat": 12.9708156,
      "lon": 77.6506256,
      "tags": {
        "amenity": "bench",
        "backrest": "yes",
        "seats": "2"
      }
    },
    {
      "type": "node",
      "id": 12367516777,
      "lat": 12.9708555,
      "lon": 77.6506376,
      "tags": {
        "amenity": "bench",
        "backrest": "yes",
        "seats": "2"
      }
    },
    {
      "type": "node",
      "id": 12367516778,
      "lat": 12.9708992,
      "lon": 77.6506477,
      "tags": {
        "amenity": "bench",
        "backrest": "yes",
        "seats": "2"
      }
    },
    {
      "type": "node",
      "id": 12367516779,
      "lat": 12.9709391,
      "lon": 77.6506564,
      "tags": {
        "amenity": "bench",
        "backrest": "yes",
        "seats": "2"
      }
    },
    {
      "type": "node",
      "id": 12367521749,
      "lat": 12.9701128,
      "lon": 77.6564543,
      "tags": {
        "amenity": "drinking_water"
      }
    },
    {
      "type": "node",
      "id": 12409828771,
      "lat": 12.9703857,
      "lon": 77.6509916,
      "tags": {
        "check_date": "2024-11-23",
        "name": "Venu's Bake Point",
        "shop": "bakery"
      }
    },
    {
      "type": "node",
      "id": 12512224859,
      "lat": 12.9670968,
      "lon": 77.6481231,
      "tags": {
        "amenity": "cafe",
        "name": "Ethic Attic Cafe"
      }
    },
    {
      "type": "node",
      "id": 12809397078,
      "lat": 12.967796,
      "lon": 77.6528464,
      "tags": {
        "amenity": "cafe",
        "name": "Chelvies Coffee Roastery",
        "website": "https://chelviescoffee.com"
      }
    },
    {
      "type": "node",
      "id": 12862846445,
      "lat": 12.9706283,
      "lon": 77.647613,
      "tags": {
        "amenity": "fast_food",
        "cuisine": "burger",
        "delivery": "yes",
        "name": "Boss Burger",
        "takeaway": "yes"
      }
    },
    {
      "type": "node",
      "id": 13060047832,
      "lat": 12.9690741,
      "lon": 77.6481302,
      "tags": {
        "amenity": "restaurant",
        "check_date": "2025-08-09",
        "name": "Bathinda Junction"
      }
    },
    {
      "type": "node",
      "id": 13086275905,
      "lat": 12.9675813,
      "lon": 77.6544647,
      "tags": {
        "amenity": "restaurant",
        "cuisine": "south_indian",
        "name": "Mudde Saar"
      }
    },
    {
      "type": "node",
      "id": 13208841734,
      "lat": 12.9711208,
      "lon": 77.6475102,
      "tags": {
        "amenity": "fast_food",
        "brand": "Papa John's",
        "brand:wikidata": "Q2759586",
        "cuisine": "pizza",
        "name": "Papa John's",
        "takeaway": "yes"
      }
    },
    {
      "type": "node",
      "id": 13295904199,
      "lat": 12.9714129,
      "lon": 77.6474946,
      "tags": {
        "amenity": "clinic",
        "healthcare": "clinic",
        "healthcare:speciality": "cardiology;gastroenterology;general;surgery;paediatrics;cosmetology;trichology;urology;psychiatry;dental_oral_maxillo_facial_surgery;physiotherapy;gynaecology;dietetics",
        "name": "Kasper Multi Speciality Clinic",
        "website": "https://www.kasperclinic.com/"
      }
    },
    {
      "type": "way",
      "id": 41722454,
      "center": {
        "lat": 12.9781152,
        "lon": 77.6505224
      },
      "tags": {
        "amenity": "research_institute",
        "landuse": "industrial",
        "name": "Aeronautical Development Establishment",
        "short_name": "ADE",
        "wikidata": "Q4688350",
        "wikipedia": "en:Aeronautical Development Establishment"
      }
    },
    {
      "type": "way",
      "id": 98005709,
      "center": {
        "lat": 12.9749831,
        "lon": 77.6545388
      },
      "tags": {
        "leisure": "park",
        "name": "Kuvempu Park",
        "name:etymology:wikidata": "Q3351108",
        "name:kn": "ತಿಪ್ಪಸಂದ್ರ ಉದ್ಯಾನವನ"
      }
    },
    {
      "type": "way",
      "id": 98188361,
      "center": {
        "lat": 12.9717896,
        "lon": 77.6568654
      },
      "tags": {
        "amenity": "post_office",
        "name": "Thippasandra Post Office",
        "name:kn": "ತಿಪ್ಪಸಂದ್ರ ಅಂಚೆ ಕಛೇರಿ",
        "operator": "Govt of India"
      }
    },
    {
      "type": "way",
      "id": 98192078,
      "center": {
        "lat": 12.9717699,
        "lon": 77.6544667
      },
      "tags": {
        "amenity": "fuel",
        "brand": "Bharat Petroleum",
        "brand:wikidata": "Q854826",
        "brand:wikipedia": "en:Bharat Petroleum",
        "compressed_air": "yes",
        "fuel:diesel": "yes",
        "fuel:octane_91": "yes",
        "fuel:octane_95": "yes",
        "fuel:octane_98": "yes",
        "name": "Bharat Petroleum",
        "name:kn": "ಭಾರತ್ ಪೆಟ್ರೋಲಿಯಂ"
      }
    },
    {
      "type": "way",
      "id": 118926923,
      "center": {
        "lat": 12.9733878,
        "lon": 77.656523
      },
      "tags": {
        "leisure": "park",
        "name": "GP Raja Ratnam Park"
      }
    },
    {
      "type": "way",
      "id": 118926926,
      "center": {
        "lat": 12.970693,
        "lon": 77.6505595
      },
      "tags": {
        "barrier": "fence",
        "leisure": "park",
        "name": "Visvesvaraya Park",
        "name:etymology:wikidata": "Q741700",
        "name:kn": "ವಿಶ್ವೇಶ್ವರಯ್ಯ ಉದ್ಯಾನವನ",
        "opening_hours": "05:30-09:30,17:30-20:00"
      }
    },
    {
      "type": "way",
      "id": 119132968,
      "center": {
        "lat": 12.9694333,
        "lon": 77.649265
      },
      "tags": {
        "leisure": "park",
        "name": "Gandhiji Park",
        "name:etymology:wikidata": "Q1001",
        "name:kn": "ಗಾಂಧಿ ಉದ್ಯಾನವನ"
      }
    },
    {
      "type": "way",
      "id": 119132975,
      "center": {
        "lat": 12.9725477,
        "lon": 77.650537
      },
      "tags": {
        "addr:street": "Thippasandra Main Road",
        "amenity": "marketplace",
        "name": "Thippasandra Market",
        "name:kn": "ತಿಪ್ಪಸಂದ್ರ ಮಾರುಕಟ್ಟೆ"
      }
    },
    {
      "type": "way",
      "id": 119132977,
      "center": {
        "lat": 12.9690842,
        "lon": 77.6517622
      },
      "tags": {
        "leisure": "park"
      }
    },
    {
      "type": "way",
      "id": 128510776,
      "center": {
        "lat": 12.9692958,
        "lon": 77.646885
      },
      "tags": {
        "addr:city": "Bangalore",
        "addr:street": "Indiranagar",
        "amenity": "school",
        "email": "info@npsinr.com",
        "grades": "1-12",
        "name": "National Public School Indiranagar",
        "name:kn": "ರಾಷ್ಟ್ರೀಯ ಸಾರ್ವಜನಿಕ ಶಾಲೆ",
        "operator": "National Public School",
        "operator:type": "private",
        "phone": "+91 80 2528 0611",
        "school:gender": "mixed",
        "short_name": "NPS Indiranagar",
        "website": "https://www.npsinr.com/",
        "wikidata": "Q6975124",
        "wikimedia_commons": "Category:National Public School, Indiranagar",
        "wikipedia": "en:National Public School, Indiranagar"
      }
    },
    {
      "type": "way",
      "id": 131219780,
      "center": {
        "lat": 12.9657586,
        "lon": 77.6580829
      },
      "tags": {
        "amenity": "bus_station",
        "landuse": "garages",
        "name": "Jeevan Bhima Nagar Bus Depot",
        "name:kn": "ಜೀವನಭೀಮ ನಗರ ಬಸ್ ಡೀಪೋ"
      }
    },
    {
      "type": "way",
      "id": 133736399,
      "center": {
        "lat": 12.9618405,
        "lon": 77.6595612
      },
      "tags": {
        "leisure": "park"
      }
    },
    {
      "type": "way",
      "id": 144989752,
      "center": {
        "lat": 12.9640092,
        "lon": 77.6637028
      },
      "tags": {
        "leisure": "park"
      }
    },
    {
      "type": "way",
      "id": 144989754,
      "center": {
        "lat": 12.9673805,
        "lon": 77.6614527
      },
      "tags": {
        "leisure": "park"
      }
    },
    {
      "type": "way",
      "id": 146204781,
      "center": {
        "lat": 12.966082,
        "lon": 77.656317
      },
      "tags": {
        "amenity": "hospital",
        "name": "ISRO Employees Hospital",
        "name:kn": "ಇಸ್ರೋ ಆಸ್ಪತ್ರೆ"
      }
    },
    {
      "type": "way",
      "id": 164141899,
      "center": {
        "lat": 12.9651062,
        "lon": 77.6490235
      },
      "tags": {
        "amenity": "place_of_worship",
        "building": "mosque",
        "name": "Masjid-E-Farooqi",
        "name:kn": "ಮಸ್ಜಿದ್-ಎ-ಫರೂಕಿ",
        "religion": "muslim"
      }
    },
    {
      "type": "way",
      "id": 241498154,
      "center": {
        "lat": 12.9738737,
        "lon": 77.6511127
      },
      "tags": {
        "addr:city": "Bangalore",
        "addr:postcode": "560075",
        "addr:street": "Sree Rama Temple Road",
        "amenity": "place_of_worship",
        "check_date": "2024-11-23",
        "denomination": "Vaishnava",
        "name": "Sri Kodandarama Swamy Temple",
        "name:en": "Sri Kodandarama Swamy Temple",
        "name:kn": "ಶ್ರೀ ರಾಮ ದೇವಸ್ಥಾನ",
        "religion": "hindu"
      }
    },
    {
      "type": "way",
      "id": 323036039,
      "center": {
        "lat": 12.9626992,
        "lon": 77.6597472
      },
      "tags": {
        "leisure": "park"
      }
    },
    {
      "type": "way",
      "id": 324698160,
      "center": {
        "lat": 12.9611072,
        "lon": 77.6574902
      },
      "tags": {
        "leisure": "playground"
      }
    },
    {
      "type": "way",
      "id": 331367431,
      "center": {
        "lat": 12.9680106,
        "lon": 77.6552467
      },
      "tags": {
        "amenity": "school",
        "name": "Government School",
        "name:kn": "ಸರ್ಕಾರಿ ಶಾಲೆ"
      }
    },
    {
      "type": "way",
      "id": 332519019,
      "center": {
        "lat": 12.9664555,
        "lon": 77.6588756
      },
      "tags": {
        "leisure": "park"
      }
    },
    {
      "type": "way",
      "id": 340255764,
      "center": {
        "lat": 12.9748388,
        "lon": 77.651696
      },
      "tags": {
        "addr:city": "Bangalore",
        "addr:postcode": "560075",
        "addr:street": "Sree Rama Temple Road",
        "amenity": "place_of_worship",
        "building": "yes",
        "name": "Ayyappa Temple",
        "name:kn": "ಅಯ್ಯಪ್ಪ ದೇವಸ್ಥಾನ",
        "religion": "hindu"
      }
    },
    {
      "type": "way",
      "id": 340255765,
      "center": {
        "lat": 12.9656802,
        "lon": 77.655443
      },
      "tags": {
        "amenity": "school",
        "brand": "Kendriya Vidyalaya",
        "brand:wikidata": "Q1156653",
        "name": "Kendriya Vidyalaya NAL",
        "name:kn": "ಕೇಂದ್ರಿಯ ವಿದ್ಯಾಲಯ",
        "operator:type": "government_non_profit"
      }
    },
    {
      "type": "way",
      "id": 340255766,
      "center": {
        "lat": 12.9725835,
        "lon": 77.6566236
      },
      "tags": {
        "amenity": "school",
        "name": "Poorna Prajna Education Centre"
      }
    },
    {
      "type": "way",
      "id": 345917663,
      "center": {
        "lat": 12.963419,
        "lon": 77.6509165
      },
      "tags": {
        "leisure": "pitch"
      }
    },
    {
      "type": "way",
      "id": 346825145,
      "center": {
        "lat": 12.9703539,
        "lon": 77.6544305
      },
      "tags": {
        "building": "yes",
        "name": "Fresh 'n more",
        "shop": "supermarket"
      }
    },
    {
      "type": "way",
      "id": 365255370,
      "center": {
        "lat": 12.9684221,
        "lon": 77.6570302
      },
      "tags": {
        "amenity": "school"
      }
    },
    {
      "type": "way",
      "id": 370588618,
      "center": {
        "lat": 12.9698835,
        "lon": 77.6553691
      },
      "tags": {
        "amenity": "school",
        "check_date": "2024-11-23",
        "landuse": "education",
        "name": "National Centre for Excellence School"
      }
    },
    {
      "type": "way",
      "id": 371381437,
      "center": {
        "lat": 12.9697188,
        "lon": 77.6562258
      },
      "tags": {
        "leisure": "park",
        "name": "Diagonal Park",
        "official_name": "Hanuman Nagar BDA Park"
      }
    },
    {
      "type": "way",
      "id": 371381438,
      "center": {
        "lat": 12.967545,
        "lon": 77.6542749
      },
      "tags": {
        "amenity": "fuel",
        "brand": "Indian Oil",
        "brand:wikidata": "Q1289348",
        "brand:wikipedia": "en:Indian Oil Corporation",
        "compressed_air": "yes",
        "name": "Indian Oil",
        "name:kn": "ಇಂಡಿಯನ್ ಆಯಿಲ್",
        "opening_hours": "24/7"
      }
    },
    {
      "type": "way",
      "id": 371381439,
      "center": {
        "lat": 12.9677858,
        "lon": 77.6559777
      },
      "tags": {
        "amenity": "fuel",
        "brand": "Bharat Petroleum",
        "brand:wikidata": "Q854826",
        "brand:wikipedia": "en:Bharat Petroleum",
        "compressed_air": "yes",
        "name": "Bharat Petroleum",
        "name:kn": "ಭಾರತ್ ಪೆಟ್ರೋಲಿಯಂ"
      }
    },
    {
      "type": "way",
      "id": 371381440,
      "center": {
        "lat": 12.9702036,
        "lon": 77.6551852
      },
      "tags": {
        "amenity": "place_of_worship",
        "name": "Balamurugan Temple",
        "name:kn": "ಬಾಲಮುರುಗನ್ ದೇವಸ್ಥಾನ",
        "religion": "hindu"
      }
    },
    {
      "type": "way",
      "id": 380094757,
      "center": {
        "lat": 12.9686274,
        "lon": 77.6487542
      },
      "tags": {
        "amenity": "fast_food",
        "building": "retail",
        "building:levels": "2",
        "cuisine": "indian",
        "delivery": "yes",
        "diet:vegetarian": "yes",
        "name": "Cafe Grill",
        "opening_hours": "Mo-Su 12:00-23:30",
        "smoking": "no",
        "takeaway": "yes",
        "wheelchair": "yes"
      }
    },
    {
      "type": "way",
      "id": 402812674,
      "center": {
        "lat": 12.9664205,
        "lon": 77.653295
      },
      "tags": {
        "leisure": "park"
      }
    },
    {
      "type": "way",
      "id": 402812675,
      "center": {
        "lat": 12.9642284,
        "lon": 77.6526534
      },
      "tags": {
        "leisure": "common"
      }
    },
    {
      "type": "way",
      "id": 402812676,
      "center": {
        "lat": 12.9667132,
        "lon": 77.6522973
      },
      "tags": {
        "leisure": "pitch"
      }
    },
    {
      "type": "way",
      "id": 402812677,
      "center": {
        "lat": 12.9642183,
        "lon": 77.6513008
      },
      "tags": {
        "leisure": "pitch"
      }
    },
    {
      "type": "way",
      "id": 450547670,
      "center": {
        "lat": 12.9651259,
        "lon": 77.6500454
      },
      "tags": {
        "leisure": "park"
      }
    },
    {
      "type": "way",
      "id": 450762931,
      "center": {
        "lat": 12.9737517,
        "lon": 77.6511257
      },
      "tags": {
        "amenity": "place_of_worship",
        "building": "temple",
        "check_date": "2025-03-01",
        "denomination": "Vaishnava",
        "name": "Sri Rama Temple",
        "name:kn": "ಶ್ರೀ ರಾಮ ದೇವಸ್ಥಾನ",
        "religion": "hindu"
      }
    },
    {
      "type": "way",
      "id": 454700266,
      "center": {
        "lat": 12.9693176,
        "lon": 77.6536684
      },
      "tags": {
        "amenity": "post_office",
        "name": "Jeevan Bheema Nagar",
        "name:kn": "ಜೀವನಭೀಮ ನಗರ"
      }
    },
    {
      "type": "way",
      "id": 454700270,
      "center": {
        "lat": 12.9690005,
        "lon": 77.653646
      },
      "tags": {
        "landuse": "recreation_ground",
        "leisure": "common"
      }
    },
    {
      "type": "way",
      "id": 454700271,
      "center": {
        "lat": 12.9693436,
        "lon": 77.6532351
      },
      "tags": {
        "leisure": "park",
        "name": "Rani Chennamma Park",
        "name:en": "Kittur Rani Chennamma Park",
        "name:etymology:wikidata": "Q3536979",
        "name:kn": "ರಾಣಿ ಚೆನ್ನಮ್ಮ ಉದ್ಯಾನವನ"
      }
    },
    {
      "type": "way",
      "id": 454707669,
      "center": {
        "lat": 12.9734765,
        "lon": 77.6557437
      },
      "tags": {
        "amenity": "school",
        "name": "Sishu Griha Senior School"
      }
    },
    {
      "type": "way",
      "id": 553065507,
      "center": {
        "lat": 12.9652111,
        "lon": 77.6620234
      },
      "tags": {
        "amenity": "school",
        "name": "Sacred Heart Girls High School"
      }
    },
    {
      "type": "way",
      "id": 553065523,
      "center": {
        "lat": 12.9645727,
        "lon": 77.6614009
      },
      "tags": {
        "amenity": "college",
        "name": "Sacred Heart Degree College"
      }
    },
    {
      "type": "way",
      "id": 553068987,
      "center": {
        "lat": 12.9635752,
        "lon": 77.662935
      },
      "tags": {
        "leisure": "playground"
      }
    },
    {
      "type": "way",
      "id": 601264128,
      "center": {
        "lat": 12.9701421,
        "lon": 77.650624
      },
      "tags": {
        "amenity": "shelter",
        "building": "gazebo",
        "shelter_type": "gazebo"
      }
    },
    {
      "type": "way",
      "id": 601264129,
      "center": {
        "lat": 12.9709752,
        "lon": 77.6506155
      },
      "tags": {
        "amenity": "shelter",
        "building": "gazebo",
        "shelter_type": "gazebo"
      }
    },
    {
      "type": "way",
      "id": 630203906,
      "center": {
        "lat": 12.9773927,
        "lon": 77.6556312
      },
      "tags": {
        "access": "customers",
        "leisure": "pitch",
        "lit": "yes",
        "name": "Joga Bonito Soccer",
        "payment:cash": "yes",
        "payment:paytm": "yes",
        "short_name": "JBS",
        "sport": "soccer",
        "surface": "artificial_turf"
      }
    },
    {
      "type": "way",
      "id": 631248149,
      "center": {
        "lat": 12.969287,
        "lon": 77.6489488
      },
      "tags": {
        "addr:housenumber": "1672",
        "amenity": "restaurant",
        "building": "retail",
        "building:levels": "1",
        "cuisine": "south_indian;dosa;coffee",
        "diet:vegetarian": "only",
        "name": "Sendhoor Coffee",
        "opening_hours": "Mo-Su 10:00-22:00",
        "wheelchair": "no"
      }
    },
    {
      "type": "way",
      "id": 690849439,
      "center": {
        "lat": 12.9667264,
        "lon": 77.6482411
      },
      "tags": {
        "addr:street": "80 Feet Road",
        "amenity": "arts_centre",
        "building": "yes",
        "name": "Lahe Lahe"
      }
    },
    {
      "type": "way",
      "id": 1065296604,
      "center": {
        "lat": 12.9780051,
        "lon": 77.6597076
      },
      "tags": {
        "access": "permissive",
        "amenity": "parking",
        "parking": "surface"
      }
    },
    {
      "type": "way",
      "id": 1140754015,
      "center": {
        "lat": 12.9688953,
        "lon": 77.650408
      },
      "tags": {
        "amenity": "school",
        "landuse": "education",
        "name": "Miranda Group Of Institutions"
      }
    },
    {
      "type": "way",
      "id": 1153512102,
      "center": {
        "lat": 12.9770503,
        "lon": 77.6554472
      },
      "tags": {
        "leisure": "sports_centre"
      }
    },
    {
      "type": "way",
      "id": 1153512103,
      "center": {
        "lat": 12.9772337,
        "lon": 77.6555341
      },
      "tags": {
        "leisure": "sports_centre",
        "name": "Play Zone Indiranagar"
      }
    },
    {
      "type": "way",
      "id": 1251186677,
      "center": {
        "lat": 12.9783306,
        "lon": 77.6621393
      },
      "tags": {
        "leisure": "park"
      }
    },
    {
      "type": "way",
      "id": 1252257176,
      "center": {
        "lat": 12.9776249,
        "lon": 77.6610112
      },
      "tags": {
        "access": "permissive",
        "leisure": "pitch",
        "sport": "tennis"
      }
    },
    {
      "type": "way",
      "id": 1320013891,
      "center": {
        "lat": 12.971172,
        "lon": 77.6651791
      },
      "tags": {
        "amenity": "hospital",
        "name": "BEML Hospital"
      }
    },
    {
      "type": "way",
      "id": 1320013928,
      "center": {
        "lat": 12.9779679,
        "lon": 77.6573566
      },
      "tags": {
        "access": "permissive",
        "amenity": "parking",
        "parking": "surface"
      }
    },
    {
      "type": "way",
      "id": 1320014017,
      "center": {
        "lat": 12.9779487,
        "lon": 77.6587271
      },
      "tags": {
        "access": "permissive",
        "amenity": "parking",
        "parking": "surface"
      }
    },
    {
      "type": "way",
      "id": 1332565025,
      "center": {
        "lat": 12.9696029,
        "lon": 77.6506168
      },
      "tags": {
        "amenity": "school",
        "landuse": "education"
      }
    },
    {
      "type": "way",
      "id": 1332601534,
      "center": {
        "lat": 12.9763789,
        "lon": 77.6509206
      },
      "tags": {
        "access": "private",
        "leisure": "park"
      }
    },
    {
      "type": "way",
      "id": 1332851224,
      "center": {
        "lat": 12.9734966,
        "lon": 77.656281
      },
      "tags": {
        "leisure": "playground"
      }
    },
    {
      "type": "way",
      "id": 1336696142,
      "center": {
        "lat": 12.9715442,
        "lon": 77.6524103
      },
      "tags": {
        "leisure": "playground"
      }
    },
    {
      "type": "way",
      "id": 1337117690,
      "center": {
        "lat": 12.969297,
        "lon": 77.653757
      },
      "tags": {
        "leisure": "garden"
      }
    },
    {
      "type": "way",
      "id": 1337119994,
      "center": {
        "lat": 12.9705818,
        "lon": 77.6507219
      },
      "tags": {
        "amenity": "shelter",
        "building": "gazebo",
        "shelter_type": "gazebo"
      }
    },
    {
      "type": "way",
      "id": 1342953365,
      "center": {
        "lat": 12.9689716,
        "lon": 77.6469469
      },
      "tags": {
        "leisure": "pitch",
        "sport": "basketball"
      }
    },
    {
      "type": "way",
      "id": 1342953366,
      "center": {
        "lat": 12.968639,
        "lon": 77.6473518
      },
      "tags": {
        "amenity": "school",
        "name": "Neev"
      }
    },
    {
      "type": "way",
      "id": 1342953368,
      "center": {
        "lat": 12.9686203,
        "lon": 77.6470105
      },
      "tags": {
        "amenity": "kindergarten",
        "name": "Global Montessori Centre, Indiranagar"
      }
    },
    {
      "type": "way",
      "id": 1442752361,
      "center": {
        "lat": 12.9627381,
        "lon": 77.656598
      },
      "tags": {
        "amenity": "place_of_worship",
        "name": "Durga Parameshwari Navagraha Devasthana",
        "name:en": "Durga Parameshwari Navagraha Devasthana",
        "name:kn": "ದುರ್ಗ ಪರಮೇಶ್ವರಿ ನವಗ್ರಹ",
        "religion": "hindu"
      }
    },
    {
      "type": "way",
      "id": 1442752362,
      "center": {
        "lat": 12.9627069,
        "lon": 77.656735
      },
      "tags": {
        "amenity": "school",
        "name": "Government Higher Primary School",
        "name:en": "Government Higher Primary School",
        "name:kn": "ಪಣತೂರು ಸರ್ಕಾರಿ ಹಿರಿಯ ಪ್ರಾಥಮಿಕ ಶಾಲೆ"
      }
    },
    {
      "type": "way",
      "id": 1442752415,
      "center": {
        "lat": 12.9664089,
        "lon": 77.659273
      },
      "tags": {
        "leisure": "playground"
      }
    },
    {
      "type": "way",
      "id": 1442765455,
      "center": {
        "lat": 12.9646268,
        "lon": 77.6580854
      },
      "tags": {
        "amenity": "school",
        "name": "Government Tamil Higher Primary School"
      }
    },
    {
      "type": "way",
      "id": 1442772360,
      "center": {
        "lat": 12.9665282,
        "lon": 77.6571182
      },
      "tags": {
        "amenity": "school"
      }
    }
  ]
}