{
  "area_name": "Harinagar",
  "osm_id": 19884546,
  "osm_type": "relation",
  "place_type": "administrative",
  "amenity_count": 48,
  "amenities": [
    {
      "type": "node",
      "id": 2181320618,
      "lat": 12.8828036,
      "lon": 77.5704042,
      "tags": {
        "amenity": "school",
        "name": "Srinidhi Public School",
        "source": "GPS"
      }
    },
    {
      "type": "node",
      "id": 2181320621,
      "lat": 12.8822735,
      "lon": 77.572507,
      "tags": {
        "amenity": "atm",
        "brand": "State Bank of India",
        "brand:wikidata": "Q1340361",
        "operator": "State Bank of India",
        "operator:wikidata": "Q1340361",
        "short_name": "SBI"
      }
    },
    {
      "type": "node",
      "id": 2181320624,
      "lat": 12.8835009,
      "lon": 77.5698955,
      "tags": {
        "amenity": "atm",
        "brand": "Axis Bank",
        "brand:wikidata": "Q2003549",
        "operator": "Axis Bank",
        "operator:wikidata": "Q2003549",
        "source": "GPS"
      }
    },
    {
      "type": "node",
      "id": 4447345728,
      "lat": 12.8725257,
      "lon": 77.5667017,
      "tags": {
        "addr:city": "bangalore",
        "addr:housenumber": "3",
        "addr:postcode": "560062",
        "addr:street": ",shop No 3,sun Complex, Circle, Anjanapura post,&nbsp;J P, Avalahalii, JP Nagar 9th Phase, JP Nagar",
        "name": "Sri Nidhi Medicals",
        "phone": "+9198459 87349",
        "shop": "medical_supply",
        "source": "justdial"
      }
    },
    {
      "type": "node",
      "id": 4456683292,
      "lat": 12.8824032,
      "lon": 77.5701098,
      "tags": {
        "leisure": "pitch"
      }
    },
    {
      "type": "node",
      "id": 4456700791,
      "lat": 12.8814024,
      "lon": 77.568751,
      "tags": {
        "addr:street": "Chunchagatta Main Raod",
        "shop": "greengrocer"
      }
    },
    {
      "type": "node",
      "id": 4456706991,
      "lat": 12.883369,
      "lon": 77.569783,
      "tags": {
        "addr:street": "Chunchagatta Main Raod",
        "shop": "greengrocer"
      }
    },
    {
      "type": "node",
      "id": 4463038192,
      "lat": 12.8830421,
      "lon": 77.569638,
      "tags": {
        "addr:street": "3rd Main Road",
        "leisure": "fitness_centre",
        "name": "Gym Way",
        "name:en": "Gym Way"
      }
    },
    {
      "type": "node",
      "id": 4463113489,
      "lat": 12.8801126,
      "lon": 77.5681771,
      "tags": {
        "amenity": "atm",
        "brand": "Canara Bank",
        "brand:en": "Canara Bank",
        "brand:hi": "केनरा बैंक",
        "brand:kn": "ಕೆನರಾ ಬ್ಯಾಂಕ್",
        "brand:pa": "ਕੇਨਰਾ ਬੈਂਕ",
        "brand:pnb": "کینرا بینک",
        "brand:ur": "کینرا بینک",
        "brand:wikidata": "Q2003777",
        "name:en": "Canara Bank",
        "name:hi": "केनरा बैंक",
        "name:kn": "ಕೆನರಾ ಬ್ಯಾಂಕ್",
        "name:pa": "ਕੇਨਰਾ ਬੈਂਕ",
        "name:pnb": "کینرا بینک",
        "name:ur": "کینرا بینک",
        "opening_hours": "24/7",
        "operator": "Canara Bank",
        "operator:wikidata": "Q2003777"
      }
    },
    {
      "type": "node",
      "id": 4472324191,
      "lat": 12.8797355,
      "lon": 77.5678057,
      "tags": {
        "amenity": "atm",
        "opening_hours": "24/7",
        "operator": "State Bank"
      }
    },
    {
      "type": "node",
      "id": 6349580757,
      "lat": 12.8773044,
      "lon": 77.5701079,
      "tags": {
        "addr:place": "Hari Nagar",
        "amenity": "school",
        "isced:level": "2",
        "name": "GKHPS Hari Nagar",
        "name:kn": "ಸರ್ಕಾರಿ ಕನ್ನಡ ಹಿರಿಯ ಪ್ರಾಥಮಿಕ ಶಾಲೆ ಹರಿನಗರ",
        "operator": "Department of Primary and Secondary Education",
        "operator:type": "government",
        "operator:wikidata": "Q111467381",
        "school": "primary"
      }
    },
    {
      "type": "node",
      "id": 6349585531,
      "lat": 12.8779168,
      "lon": 77.5704224,
      "tags": {
        "addr:place": "Hari Nagar",
        "amenity": "school",
        "isced:level": "2",
        "name": "GULPS Hari Nagar",
        "name:kn": "ಸರ್ಕಾರಿ ಉರ್ದು ಪ್ರಾಥಮಿಕ ಶಾಲೆ ಹರಿನಗರ",
        "operator": "Department of Education",
        "school": "primary"
      }
    },
    {
      "type": "node",
      "id": 6536363498,
      "lat": 12.8732088,
      "lon": 77.5744133,
      "tags": {
        "addr:place": "Kothanur",
        "amenity": "school",
        "isced:level": "1",
        "name": "Sri Sarathy English School, Kothanur",
        "name:kn": "ಶ್ರೀ ಸಾರಥಿ ಆಂಗ್ಲ ಶಾಲೆ,ಕೊತ್ತನೂರು",
        "operator": "Private Un-Aided",
        "school": "primary"
      }
    },
    {
      "type": "node",
      "id": 6536364433,
      "lat": 12.8767474,
      "lon": 77.5725941,
      "tags": {
        "addr:place": "Kothanur",
        "amenity": "school",
        "isced:level": "3",
        "name": "Ennar School Aadithya Nagar, Kothanur",
        "name:kn": "ಎನ್ನಾರ್ ಶಾಲೆ ಆದಿತ್ಯ ನಗರ, ಕೊತ್ತನೂರು",
        "operator": "Private Un-Aided",
        "school": "Higher Secondary"
      }
    },
    {
      "type": "node",
      "id": 7580048827,
      "lat": 12.882734,
      "lon": 77.5694669,
      "tags": {
        "name": "Nandhini milk parlour",
        "shop": "dairy"
      }
    },
    {
      "type": "node",
      "id": 7580048828,
      "lat": 12.8829484,
      "lon": 77.5695688,
      "tags": {
        "name": "SLV Photo studio",
        "shop": "photo"
      }
    },
    {
      "type": "node",
      "id": 7580048829,
      "lat": 12.8828935,
      "lon": 77.569542,
      "tags": {
        "name": "Kitchen ware & Gas",
        "shop": "houseware"
      }
    },
    {
      "type": "node",
      "id": 9159687671,
      "lat": 12.8812943,
      "lon": 77.569696,
      "tags": {
        "leisure": "swimming_area",
        "name": "Swimming Pool"
      }
    },
    {
      "type": "node",
      "id": 9568556292,
      "lat": 12.8730816,
      "lon": 77.5666726,
      "tags": {
        "addr:city": "Bangalore",
        "addr:postcode": "560062",
        "addr:street": "Amruth Nagar Main Road",
        "name": "Reliance SMART Point",
        "operator": "Reliance",
        "payment:cash": "yes",
        "payment:credit_cards": "yes",
        "payment:debit_cards": "yes",
        "payment:upi": "yes",
        "shop": "supermarket"
      }
    },
    {
      "type": "node",
      "id": 9568586470,
      "lat": 12.873081,
      "lon": 77.5666966,
      "tags": {
        "addr:city": "Bangalore",
        "addr:postcode": "560062",
        "addr:street": "Amruth Nagar Main Road",
        "amenity": "pharmacy",
        "dispensing": "yes",
        "drive_through": "no",
        "healthcare": "pharmacy",
        "name": "Netmeds",
        "operator": "Reliance",
        "website": "https://www.netmeds.com/"
      }
    },
    {
      "type": "node",
      "id": 9568589340,
      "lat": 12.8758414,
      "lon": 77.5684744,
      "tags": {
        "amenity": "fuel",
        "brand": "Indian Oil",
        "brand:wikidata": "Q1289348",
        "compressed_air": "yes",
        "name": "Indian Oil Fuel Station"
      }
    },
    {
      "type": "node",
      "id": 9568597065,
      "lat": 12.8731205,
      "lon": 77.5666746,
      "tags": {
        "addr:city": "Bangalore",
        "addr:postcode": "560062",
        "addr:street": "Amruth Nagar Main Road",
        "amenity": "fast_food",
        "brand": "Domino's",
        "brand:wikidata": "Q839466",
        "brand:wikipedia": "en:Domino's Pizza",
        "cuisine": "pizza",
        "drive_through": "no",
        "name": "Domino's",
        "name:kn": "ಡಾಮಿನೋಸ್",
        "takeaway": "yes",
        "website": "https://pizzaonline.dominos.co.in/"
      }
    },
    {
      "type": "node",
      "id": 9577537663,
      "lat": 12.8717049,
      "lon": 77.5738395,
      "tags": {
        "name": "Plant Nursery",
        "shop": "florist"
      }
    },
    {
      "type": "node",
      "id": 9577551017,
      "lat": 12.8741353,
      "lon": 77.570379,
      "tags": {
        "amenity": "fuel",
        "compressed_air": "yes",
        "name": "MRPL Fuel Station"
      }
    },
    {
      "type": "node",
      "id": 9887427429,
      "lat": 12.876303,
      "lon": 77.5670186,
      "tags": {
        "addr:city": "Bengaluru",
        "addr:postcode": "560062",
        "addr:street": "Amruth Nagar Main Road",
        "name": "Kolar Farm Fresh",
        "payment:cash": "yes",
        "payment:debit_cards": "yes",
        "payment:upi": "yes",
        "shop": "greengrocer"
      }
    },
    {
      "type": "node",
      "id": 12632074325,
      "lat": 12.8714758,
      "lon": 77.576331,
      "tags": {
        "amenity": "restaurant",
        "name": "The Mansion"
      }
    },
    {
      "type": "node",
      "id": 12992403981,
      "lat": 12.8756037,
      "lon": 77.5688495,
      "tags": {
        "amenity": "restaurant",
        "name": "Sri Vasavi Cafe"
      }
    },
    {
      "type": "node",
      "id": 13131326933,
      "lat": 12.8720023,
      "lon": 77.5701117,
      "tags": {
        "name": "veggie's lover - Tea, vegetables & groceries",
        "shop": "supermarket"
      }
    },
    {
      "type": "node",
      "id": 13131326934,
      "lat": 12.8715697,
      "lon": 77.5696132,
      "tags": {
        "amenity": "cafe",
        "name": "Tea & cigarette stall"
      }
    },
    {
      "type": "node",
      "id": 13167997469,
      "lat": 12.8737909,
      "lon": 77.5718585,
      "tags": {
        "amenity": "bank",
        "atm": "yes",
        "brand": "Axis Bank",
        "brand:wikidata": "Q2003549",
        "drive_through": "no",
        "name": "Axis Bank"
      }
    },
    {
      "type": "node",
      "id": 13205997044,
      "lat": 12.8715628,
      "lon": 77.5760581,
      "tags": {
        "amenity": "police",
        "operational_status": "needs_maintenance",
        "operator": "Bengaluru Police - Konankunte Beat"
      }
    },
    {
      "type": "node",
      "id": 13259525668,
      "lat": 12.8764048,
      "lon": 77.5755103,
      "tags": {
        "name": "Indian Garage",
        "shop": "motorcycle_repair"
      }
    },
    {
      "type": "node",
      "id": 13259525669,
      "lat": 12.8765224,
      "lon": 77.5750231,
      "tags": {
        "name": "Sri Guruprasanna Enterprises",
        "shop": "mobile_phone_accessories"
      }
    },
    {
      "type": "node",
      "id": 13259525670,
      "lat": 12.8765307,
      "lon": 77.5749621,
      "tags": {
        "name": "Sri mahalakshmi Fancy and gift center",
        "shop": "gift"
      }
    },
    {
      "type": "node",
      "id": 13259525671,
      "lat": 12.8765326,
      "lon": 77.5749168,
      "tags": {
        "name": "Bengaluru Horticulture Flowers, Fruits and Vegetables shop",
        "shop": "greengrocer"
      }
    },
    {
      "type": "node",
      "id": 13259525672,
      "lat": 12.8765388,
      "lon": 77.5748667,
      "tags": {
        "name": "Sri guru Samba Shiva rice traders",
        "shop": "convenience"
      }
    },
    {
      "type": "node",
      "id": 13259525673,
      "lat": 12.8764914,
      "lon": 77.5746366,
      "tags": {
        "name": "Ramdev Departmental Store",
        "shop": "convenience"
      }
    },
    {
      "type": "way",
      "id": 133243116,
      "center": {
        "lat": 12.8810703,
        "lon": 77.568899
      },
      "tags": {
        "amenity": "school",
        "name": "Silicon City Public School"
      }
    },
    {
      "type": "way",
      "id": 1176579524,
      "center": {
        "lat": 12.8775146,
        "lon": 77.5686277
      },
      "tags": {
        "amenity": "school",
        "name": "DPS Bengaluru South, Junior School"
      }
    },
    {
      "type": "way",
      "id": 1328835858,
      "center": {
        "lat": 12.8737977,
        "lon": 77.5797985
      },
      "tags": {
        "leisure": "park"
      }
    },
    {
      "type": "way",
      "id": 1328835873,
      "center": {
        "lat": 12.8744868,
        "lon": 77.5754453
      },
      "tags": {
        "leisure": "park"
      }
    },
    {
      "type": "way",
      "id": 1328835876,
      "center": {
        "lat": 12.8724262,
        "lon": 77.5760129
      },
      "tags": {
        "leisure": "pitch"
      }
    },
    {
      "type": "way",
      "id": 1328835877,
      "center": {
        "lat": 12.8728257,
        "lon": 77.5760771
      },
      "tags": {
        "leisure": "pitch"
      }
    },
    {
      "type": "way",
      "id": 1328835878,
      "center": {
        "lat": 12.8727897,
        "lon": 77.5758253
      },
      "tags": {
        "amenity": "college",
        "name": "RV Institute of Technology and Management"
      }
    },
    {
      "type": "way",
      "id": 1432600214,
      "center": {
        "lat": 12.8747914,
        "lon": 77.5763354
      },
      "tags": {
        "amenity": "fuel",
        "brand": "Indian Oil",
        "brand:wikidata": "Q1289348",
        "fuel:diesel": "yes",
        "fuel:octane_80": "yes",
        "fuel:octane_95": "yes",
        "name": "Indian Oil",
        "self_service": "no"
      }
    },
    {
      "type": "way",
      "id": 1432600215,
      "center": {
        "lat": 12.8750716,
        "lon": 77.5701896
      },
      "tags": {
        "amenity": "cinema",
        "building": "yes",
        "name": "Vinayaka Theater",
        "payment:cash": "yes",
        "payment:upi": "yes",
        "screen": "1"
      }
    },
    {
      "type": "way",
      "id": 1432600216,
      "center": {
        "lat": 12.8748536,
        "lon": 77.5703085
      },
      "tags": {
        "amenity": "restaurant",
        "building": "yes",
        "cuisine": "regional",
        "diet:vegetarian": "yes",
        "name": "Brundavan Delicacy",
        "phone": "+91-9900364985"
      }
    },
    {
      "type": "way",
      "id": 1432600217,
      "center": {
        "lat": 12.8754255,
        "lon": 77.5703725
      },
      "tags": {
        "amenity": "events_venue",
        "building": "yes",
        "name": "Sri Lakshmi Narasimha Sabangana (Girija Kalyana Mantapa)"
      }
    }
  ]
}