{
  "area_name": "Hemmigepura",
  "osm_id": 19884587,
  "osm_type": "relation",
  "place_type": "administrative",
  "amenity_count": 77,
  "amenities": [
    {
      "type": "node",
      "id": 1228960966,
      "lat": 12.90306,
      "lon": 77.4974982,
      "tags": {
        "addr:district": "Bengaluru Urban",
        "addr:full": "67, Uttarahalli Road, Kengeri",
        "addr:postcode": "560060",
        "addr:state": "Karnataka",
        "amenity": "hospital",
        "email": "web.enquiries@globalhospitalsindia.com",
        "healthcare": "hospital",
        "healthcare:speciality": "multi speciality",
        "name": "BGS Gleneagles Hospitals",
        "name:kn": "ಬಿಜಿಎಸ್ ಆಸ್ಪತ್ರೆ",
        "operator:type": "private",
        "source": "OpenGovernmentData",
        "website": "https://bgsgleneaglesglobalhospitalbengaluru.com/"
      }
    },
    {
      "type": "node",
      "id": 1228960967,
      "lat": 12.9022641,
      "lon": 77.4974982,
      "tags": {
        "amenity": "school",
        "name": "BGS Public School"
      }
    },
    {
      "type": "node",
      "id": 3125514996,
      "lat": 12.9043665,
      "lon": 77.5053944,
      "tags": {
        "amenity": "bank",
        "atm": "no",
        "brand:wikidata": "Q1340361",
        "brand:wikipedia": "en:State Bank of India",
        "name": "State Bank of India",
        "name:kn": "ಮೈಸೂರು ಬ್ಯಾಂಕ್‌",
        "short_name": "SBI",
        "source": "GPS",
        "website": "https://www.sbi.co.in"
      }
    },
    {
      "type": "node",
      "id": 3214435257,
      "lat": 12.8990538,
      "lon": 77.4963065,
      "tags": {
        "amenity": "college",
        "name": "SJB Institute of Technology",
        "phone": "08028612445",
        "website": "https://www.sjbit.edu.in/"
      }
    },
    {
      "type": "node",
      "id": 3280224386,
      "lat": 12.8982,
      "lon": 77.4640772,
      "tags": {
        "amenity": "school",
        "name": "IBS business school"
      }
    },
    {
      "type": "node",
      "id": 3512412163,
      "lat": 12.899315,
      "lon": 77.4963246,
      "tags": {
        "amenity": "atm",
        "operator": "Bank of Baroda"
      }
    },
    {
      "type": "node",
      "id": 3512417933,
      "lat": 12.8996006,
      "lon": 77.4958799,
      "tags": {
        "amenity": "cafe",
        "name": "Tea Coffee",
        "name:kn": "ಟೀ ಕಾಫಿ",
        "opening_hours": "Mo-Sa 09:00-17:00"
      }
    },
    {
      "type": "node",
      "id": 4559404789,
      "lat": 12.9113106,
      "lon": 77.4847857,
      "tags": {
        "amenity": "atm",
        "brand": "Axis Bank",
        "brand:wikidata": "Q2003549",
        "operator": "Axis Bank",
        "operator:wikidata": "Q2003549"
      }
    },
    {
      "type": "node",
      "id": 5862499787,
      "lat": 12.9039405,
      "lon": 77.5106239,
      "tags": {
        "addr:postcode": "560060",
        "addr:street": "Dr. Vishnuvardhan Road",
        "name": "Aditya Bakery",
        "opening_hours": "Mo-Su 08:00-21:00",
        "shop": "bakery"
      }
    },
    {
      "type": "node",
      "id": 6886585302,
      "lat": 12.9029457,
      "lon": 77.497285,
      "tags": {
        "addr:city": "Kengeri",
        "addr:district": "BENGALURU RURAL",
        "addr:full": "No. 67, Uttarahalli Road",
        "addr:postcode": "560060",
        "addr:state": "Karnataka",
        "amenity": "blood_bank",
        "contact:mobile": "9535408623",
        "contact:phone": "8026255555",
        "name": "BGS Gleneagles Hospitals",
        "opening_hours": "24/7",
        "operator:type": "private",
        "source": "OpenGovernmentData"
      }
    },
    {
      "type": "node",
      "id": 6944616329,
      "lat": 12.9085981,
      "lon": 77.4784157,
      "tags": {
        "addr:district": "Bengaluru Urban",
        "addr:full": "106/2&135 - Mysore Road Kengeri",
        "addr:postcode": "560054",
        "addr:state": "Karnataka",
        "amenity": "hospital",
        "name": "HK Hospital",
        "source": "OpenGovernmentData"
      }
    },
    {
      "type": "node",
      "id": 7173041691,
      "lat": 12.902777,
      "lon": 77.5073782,
      "tags": {
        "alt_name": "Chitrakala Parishat College of Fine Arts",
        "amenity": "college",
        "name": "Chitrakala Parishattu",
        "name:kn": "ಚಿತ್ರಕಲಾ ಪರಿಷತ್ತು"
      }
    },
    {
      "type": "node",
      "id": 9582694784,
      "lat": 12.9003008,
      "lon": 77.4667029,
      "tags": {
        "addr:housenumber": "14/1",
        "addr:street": "Kengeri Check Post, Next to Udupi Garden Hotel, Mysore Road",
        "description": "Tyre sales and services",
        "name": "M.A.Wheel Alignment",
        "phone": "9632042229/9845479957",
        "shop": "tyres"
      }
    },
    {
      "type": "node",
      "id": 9654200719,
      "lat": 12.9022947,
      "lon": 77.4694785,
      "tags": {
        "amenity": "place_of_worship",
        "religion": "hindu"
      }
    },
    {
      "type": "node",
      "id": 9654247747,
      "lat": 12.9102452,
      "lon": 77.4830975,
      "tags": {
        "name": "Shanthala Bakery",
        "shop": "bakery"
      }
    },
    {
      "type": "node",
      "id": 9654247748,
      "lat": 12.9102334,
      "lon": 77.483414,
      "tags": {
        "amenity": "pharmacy",
        "brand": "Apollo Pharmacy",
        "brand:wikidata": "Q62562612",
        "healthcare": "pharmacy",
        "name": "Apollo Pharmacy"
      }
    },
    {
      "type": "node",
      "id": 10218075103,
      "lat": 12.9002744,
      "lon": 77.4671315,
      "tags": {
        "amenity": "place_of_worship",
        "check_date": "2023-02-08",
        "internet_access": "no",
        "name": "Sri Panchamukhi Ganesha Temple",
        "religion": "hindu",
        "source": "survey",
        "wheelchair": "no"
      }
    },
    {
      "type": "node",
      "id": 10218102082,
      "lat": 12.8872861,
      "lon": 77.4872151,
      "tags": {
        "amenity": "school",
        "check_date": "2022-11-25",
        "name": "Chinmaya Vidyalaya Banashankari",
        "name:kn": "ಚಿನ್ಮಯ ವಿದ್ಯಾಲಯ",
        "source": "survey",
        "website": "https://www.chinmayavidyalayabsk.in/"
      }
    },
    {
      "type": "node",
      "id": 10617504195,
      "lat": 12.9003599,
      "lon": 77.46676,
      "tags": {
        "air_conditioning": "no",
        "amenity": "restaurant",
        "bar": "no",
        "check_date": "2023-02-08",
        "cuisine": "indian",
        "diet:vegetarian": "yes",
        "highchair": "no",
        "internet_access": "no",
        "name": "Udupi Gardenia",
        "outdoor_seating": "no",
        "smoking": "no",
        "source": "survey",
        "wheelchair": "no"
      }
    },
    {
      "type": "node",
      "id": 10617504196,
      "lat": 12.899218,
      "lon": 77.4681595,
      "tags": {
        "amenity": "school",
        "check_date": "2023-02-08",
        "name": "S.G.K. Modern Public School",
        "source": "survey"
      }
    },
    {
      "type": "node",
      "id": 11248318178,
      "lat": 12.910247,
      "lon": 77.4827407,
      "tags": {
        "amenity": "atm",
        "brand": "Karnataka Bank",
        "brand:wikidata": "Q2042632",
        "check_date": "2023-10-08",
        "operator": "Karnataka Bank",
        "operator:wikidata": "Q2042632"
      }
    },
    {
      "type": "node",
      "id": 12089839615,
      "lat": 12.9078709,
      "lon": 77.4769832,
      "tags": {
        "addr:floor": "G",
        "amenity": "cafe",
        "check_date": "2024-08-03",
        "level": "0",
        "name": "Raj Cafe",
        "name:en": "Raj Cafe"
      }
    },
    {
      "type": "node",
      "id": 12300983061,
      "lat": 12.9017979,
      "lon": 77.5136545,
      "tags": {
        "amenity": "shelter",
        "shelter_type": "gazebo"
      }
    },
    {
      "type": "node",
      "id": 12343536892,
      "lat": 12.8965376,
      "lon": 77.4622208,
      "tags": {
        "addr:floor": "G",
        "amenity": "fast_food",
        "check_date": "2024-11-15",
        "cuisine": "juice",
        "level": "0",
        "name": "Lassi Shop"
      }
    },
    {
      "type": "node",
      "id": 12343865552,
      "lat": 12.8965444,
      "lon": 77.4622237,
      "tags": {
        "amenity": "fast_food",
        "name": "Daily Cafe"
      }
    },
    {
      "type": "node",
      "id": 12343885180,
      "lat": 12.8967735,
      "lon": 77.4620614,
      "tags": {
        "amenity": "cafe",
        "name": "Rambo Cafe"
      }
    },
    {
      "type": "node",
      "id": 12345171461,
      "lat": 12.8965375,
      "lon": 77.4622208,
      "tags": {
        "addr:floor": "G",
        "amenity": "fast_food",
        "check_date": "2024-11-15",
        "cuisine": "juice",
        "level": "0",
        "name": "Lassi Shop"
      }
    },
    {
      "type": "node",
      "id": 12632035885,
      "lat": 12.9069739,
      "lon": 77.4730955,
      "tags": {
        "brand": "Shell Select",
        "brand:wikidata": "Q124359752",
        "name": "Shell Select",
        "shop": "convenience"
      }
    },
    {
      "type": "node",
      "id": 12632035895,
      "lat": 12.9069549,
      "lon": 77.4752694,
      "tags": {
        "amenity": "cafe",
        "name": "Jack's Town"
      }
    },
    {
      "type": "node",
      "id": 12920552749,
      "lat": 12.901609,
      "lon": 77.4689944,
      "tags": {
        "amenity": "restaurant",
        "name": "Kadamba"
      }
    },
    {
      "type": "node",
      "id": 13276814996,
      "lat": 12.9036676,
      "lon": 77.5078566,
      "tags": {
        "brand": "Vishal Mega Mart",
        "brand:wikidata": "Q126895037",
        "name": "Vishal Mega Mart",
        "shop": "supermarket"
      }
    },
    {
      "type": "node",
      "id": 13276814997,
      "lat": 12.9036044,
      "lon": 77.5078535,
      "tags": {
        "amenity": "bar",
        "food": "yes",
        "min_age": "21",
        "name": "Skydeck"
      }
    },
    {
      "type": "way",
      "id": 106873634,
      "center": {
        "lat": 12.9025617,
        "lon": 77.5050775
      },
      "tags": {
        "addr:city": "bangalore",
        "addr:district": "bengaluru Urban",
        "addr:postcode": "560060",
        "addr:street": "Dr. Vishnuvardhan Road",
        "amenity": "college",
        "internet_access": "yes",
        "internet_access:fee": "Students and Faculty only",
        "name": "JSS Academy of Technical Education",
        "website": "https://jssateb.ac.in/"
      }
    },
    {
      "type": "way",
      "id": 253432461,
      "center": {
        "lat": 12.8912228,
        "lon": 77.4653706
      },
      "tags": {
        "amenity": "college",
        "name": "ACS College of Engineering"
      }
    },
    {
      "type": "way",
      "id": 307414835,
      "center": {
        "lat": 12.9030917,
        "lon": 77.5103778
      },
      "tags": {
        "amenity": "school",
        "building": "yes",
        "name": "JSS School",
        "source": "GPS"
      }
    },
    {
      "type": "way",
      "id": 315332692,
      "center": {
        "lat": 12.8963404,
        "lon": 77.4969481
      },
      "tags": {
        "leisure": "stadium",
        "name": "SJBIT Ground",
        "sport": "multi"
      }
    },
    {
      "type": "way",
      "id": 331547213,
      "center": {
        "lat": 12.9012695,
        "lon": 77.4972635
      },
      "tags": {
        "amenity": "college",
        "landuse": "education",
        "name": "Adichunchanagiri Shikshana Trust",
        "name:kn": "ಆದಿಚುಂಚನಗಿರಿ ಶಿಕ್ಷಣ ಸಂಸ್ಥೆ"
      }
    },
    {
      "type": "way",
      "id": 347087852,
      "center": {
        "lat": 12.8912712,
        "lon": 77.4660911
      },
      "tags": {
        "amenity": "fast_food",
        "building": "yes",
        "fast_food": "cafeteria"
      }
    },
    {
      "type": "way",
      "id": 348109926,
      "center": {
        "lat": 12.9067814,
        "lon": 77.4750228
      },
      "tags": {
        "amenity": "restaurant",
        "building": "yes",
        "diet:vegetarian": "yes",
        "name": "The Srisailam Veg"
      }
    },
    {
      "type": "way",
      "id": 348134392,
      "center": {
        "lat": 12.8998645,
        "lon": 77.5059316
      },
      "tags": {
        "amenity": "place_of_worship",
        "building": "yes",
        "denomination": "shaivism",
        "name": "Dwadasha Jyotirlinga Temple",
        "religion": "hindu",
        "wikidata": "Q17018520",
        "wikimedia_commons": "Category:Dwadasha Jyotirlinga Temple",
        "wikipedia": "en:Dwadasha Jyotirlinga Temple"
      }
    },
    {
      "type": "way",
      "id": 348134866,
      "center": {
        "lat": 12.902394,
        "lon": 77.5040165
      },
      "tags": {
        "access": "private",
        "amenity": "motorcycle_parking",
        "capacity": "100+",
        "covered": "yes",
        "operator": "JSSATEB"
      }
    },
    {
      "type": "way",
      "id": 401823008,
      "center": {
        "lat": 12.8939067,
        "lon": 77.462609
      },
      "tags": {
        "amenity": "college",
        "name": "Rajarajeshwari Medical College and Hospital",
        "name:kn": "ರಾಜರಾಜೇಶ್ವರಿ ವೈದ್ಯಕೀಯ ಕಾಲೇಜು ಮತ್ತು ಆಸ್ಪತ್ರೆ",
        "wikidata": "Q19895661",
        "wikipedia": "en:Rajarajeswari Medical College and Hospital"
      }
    },
    {
      "type": "way",
      "id": 775176997,
      "center": {
        "lat": 12.9009122,
        "lon": 77.4965199
      },
      "tags": {
        "leisure": "garden"
      }
    },
    {
      "type": "way",
      "id": 775176998,
      "center": {
        "lat": 12.900509,
        "lon": 77.4965005
      },
      "tags": {
        "leisure": "garden"
      }
    },
    {
      "type": "way",
      "id": 775176999,
      "center": {
        "lat": 12.9000482,
        "lon": 77.4964173
      },
      "tags": {
        "leisure": "garden"
      }
    },
    {
      "type": "way",
      "id": 775177000,
      "center": {
        "lat": 12.899673,
        "lon": 77.4963469
      },
      "tags": {
        "leisure": "garden"
      }
    },
    {
      "type": "way",
      "id": 803422674,
      "center": {
        "lat": 12.8970668,
        "lon": 77.4618628
      },
      "tags": {
        "amenity": "restaurant",
        "building": "yes",
        "cuisine": "chinese"
      }
    },
    {
      "type": "way",
      "id": 803422675,
      "center": {
        "lat": 12.8968989,
        "lon": 77.4620195
      },
      "tags": {
        "building": "yes",
        "name": "S Mart",
        "phone": "+919947910504",
        "shop": "supermarket"
      }
    },
    {
      "type": "way",
      "id": 803422676,
      "center": {
        "lat": 12.8963105,
        "lon": 77.4624721
      },
      "tags": {
        "amenity": "restaurant",
        "building": "yes"
      }
    },
    {
      "type": "way",
      "id": 803422677,
      "center": {
        "lat": 12.8967389,
        "lon": 77.4621714
      },
      "tags": {
        "amenity": "restaurant",
        "building": "yes"
      }
    },
    {
      "type": "way",
      "id": 803422678,
      "center": {
        "lat": 12.8966991,
        "lon": 77.4621073
      },
      "tags": {
        "amenity": "fast_food",
        "building": "yes",
        "name": "Srinidhi Sagar"
      }
    },
    {
      "type": "way",
      "id": 803422679,
      "center": {
        "lat": 12.8966391,
        "lon": 77.462168
      },
      "tags": {
        "building": "yes",
        "name": "Ambika Medicals",
        "shop": "chemist"
      }
    },
    {
      "type": "way",
      "id": 803422680,
      "center": {
        "lat": 12.8965963,
        "lon": 77.462213
      },
      "tags": {
        "building": "yes",
        "name": "Jain Medicals",
        "shop": "chemist"
      }
    },
    {
      "type": "way",
      "id": 803422681,
      "center": {
        "lat": 12.8965616,
        "lon": 77.4622495
      },
      "tags": {
        "amenity": "fast_food",
        "building": "yes",
        "name": "Fried Chicken"
      }
    },
    {
      "type": "way",
      "id": 803422682,
      "center": {
        "lat": 12.8964919,
        "lon": 77.462272
      },
      "tags": {
        "building": "yes",
        "shop": "hairdresser"
      }
    },
    {
      "type": "way",
      "id": 803422683,
      "center": {
        "lat": 12.8963944,
        "lon": 77.4623508
      },
      "tags": {
        "amenity": "pharmacy",
        "building": "yes",
        "dispensing": "yes",
        "healthcare": "pharmacy"
      }
    },
    {
      "type": "way",
      "id": 1050574668,
      "center": {
        "lat": 12.9018424,
        "lon": 77.4692191
      },
      "tags": {
        "amenity": "fuel",
        "brand": "Essar",
        "name": "Essar",
        "operator": "Essar"
      }
    },
    {
      "type": "way",
      "id": 1114982298,
      "center": {
        "lat": 12.8904886,
        "lon": 77.4691111
      },
      "tags": {
        "amenity": "school",
        "name": "Basava Residential Girls School"
      }
    },
    {
      "type": "way",
      "id": 1120154290,
      "center": {
        "lat": 12.9003146,
        "lon": 77.5049604
      },
      "tags": {
        "amenity": "place_of_worship",
        "name": "Omkar Ashram",
        "religion": "hindu",
        "website": "https://www.omkarhills.org/"
      }
    },
    {
      "type": "way",
      "id": 1120154291,
      "center": {
        "lat": 12.902964,
        "lon": 77.5074479
      },
      "tags": {
        "alt_name": "Chitrakala Parishat College of Fine Arts",
        "amenity": "college",
        "name": "Chitrakala Parishattu",
        "name:kn": "ಚಿತ್ರಕಲಾ ಪರಿಷತ್ತು"
      }
    },
    {
      "type": "way",
      "id": 1264388230,
      "center": {
        "lat": 12.8985691,
        "lon": 77.4645701
      },
      "tags": {
        "amenity": "fuel",
        "brand": "Hindustan Petroleum",
        "check_date": "2022-11-25",
        "fuel:diesel": "yes",
        "fuel:petrol": "yes",
        "self_service": "no",
        "source": "survey"
      }
    },
    {
      "type": "way",
      "id": 1264388231,
      "center": {
        "lat": 12.8972748,
        "lon": 77.4650489
      },
      "tags": {
        "amenity": "college",
        "name": "IBS Business School"
      }
    },
    {
      "type": "way",
      "id": 1281359305,
      "center": {
        "lat": 12.9105203,
        "lon": 77.4747659
      },
      "tags": {
        "leisure": "park"
      }
    },
    {
      "type": "way",
      "id": 1302553581,
      "center": {
        "lat": 12.9093315,
        "lon": 77.4813071
      },
      "tags": {
        "amenity": "school"
      }
    },
    {
      "type": "way",
      "id": 1302638768,
      "center": {
        "lat": 12.8932584,
        "lon": 77.5067956
      },
      "tags": {
        "access": "private",
        "leisure": "miniature_golf"
      }
    },
    {
      "type": "way",
      "id": 1302638771,
      "center": {
        "lat": 12.8934965,
        "lon": 77.5073842
      },
      "tags": {
        "access": "private",
        "leisure": "swimming_pool"
      }
    },
    {
      "type": "way",
      "id": 1304109154,
      "center": {
        "lat": 12.8875805,
        "lon": 77.4874923
      },
      "tags": {
        "amenity": "school"
      }
    },
    {
      "type": "way",
      "id": 1329553331,
      "center": {
        "lat": 12.9015848,
        "lon": 77.5134815
      },
      "tags": {
        "leisure": "playground"
      }
    },
    {
      "type": "way",
      "id": 1329553332,
      "center": {
        "lat": 12.9017864,
        "lon": 77.5133623
      },
      "tags": {
        "leisure": "playground"
      }
    },
    {
      "type": "way",
      "id": 1329553338,
      "center": {
        "lat": 12.9015561,
        "lon": 77.5134393
      },
      "tags": {
        "leisure": "park"
      }
    },
    {
      "type": "way",
      "id": 1353425185,
      "center": {
        "lat": 12.8986489,
        "lon": 77.4667132
      },
      "tags": {
        "amenity": "college",
        "name": "Fiscal Policy Institute",
        "operator": "Government of Karnataka"
      }
    },
    {
      "type": "way",
      "id": 1364170752,
      "center": {
        "lat": 12.9069802,
        "lon": 77.4731123
      },
      "tags": {
        "amenity": "fuel",
        "brand": "Shell",
        "brand:wikidata": "Q110716465",
        "name": "Shell"
      }
    },
    {
      "type": "way",
      "id": 1364433561,
      "center": {
        "lat": 12.9049222,
        "lon": 77.4948419
      },
      "tags": {
        "amenity": "college",
        "name": "St. Mary's Global Academy"
      }
    },
    {
      "type": "way",
      "id": 1365489291,
      "center": {
        "lat": 12.9007541,
        "lon": 77.4884411
      },
      "tags": {
        "amenity": "school"
      }
    },
    {
      "type": "way",
      "id": 1365489293,
      "center": {
        "lat": 12.9102301,
        "lon": 77.4854866
      },
      "tags": {
        "leisure": "pitch",
        "sport": "tennis"
      }
    },
    {
      "type": "way",
      "id": 1425365485,
      "center": {
        "lat": 12.9030262,
        "lon": 77.5063908
      },
      "tags": {
        "access": "private",
        "amenity": "parking",
        "fee": "no",
        "operator": "JSSATEB",
        "operator:type": "private",
        "parking": "surface",
        "surface": "dirt"
      }
    },
    {
      "type": "way",
      "id": 1425365487,
      "center": {
        "lat": 12.9020212,
        "lon": 77.505725
      },
      "tags": {
        "access": "private",
        "leisure": "pitch",
        "name": "JSSATEB Cricket Ground",
        "sport": "cricket",
        "surface": "grass"
      }
    }
  ]
}