{
  "area_name": "Hongasandra",
  "osm_id": 19883269,
  "osm_type": "relation",
  "place_type": "administrative",
  "amenity_count": 9,
  "amenities": [
    {
      "type": "node",
      "id": 2389667919,
      "lat": 12.9037635,
      "lon": 77.626806,
      "tags": {
        "name": "Vardhman Textiles",
        "shop": "clothes"
      }
    },
    {
      "type": "node",
      "id": 2444074728,
      "lat": 12.9038463,
      "lon": 77.6271871,
      "tags": {
        "amenity": "atm",
        "brand": "Indian Overseas Bank",
        "brand:wikidata": "Q2003611",
        "check_date": "2022-06-14",
        "operator": "Indian Overseas Bank",
        "operator:wikidata": "Q2003611"
      }
    },
    {
      "type": "node",
      "id": 4445493335,
      "lat": 12.9025398,
      "lon": 77.6253423,
      "tags": {
        "addr:city": "bagalore",
        "addr:postcode": "560068",
        "addr:street": "ATM, Bommanahalli Village, Begur, Bommanahalli,",
        "amenity": "restaurant",
        "cuisine": "regional",
        "delivery": "yes",
        "name": "Ammis Biryani",
        "name:kn": "ಅಮ್ಮಿ ಬಿರಿಯಾನಿ",
        "opening_hours": "12:00-23:00",
        "phone": "080 39457777",
        "smoking": "no",
        "takeaway": "yes"
      }
    },
    {
      "type": "node",
      "id": 6494578596,
      "lat": 12.8946717,
      "lon": 77.6234961,
      "tags": {
        "amenity": "school",
        "isced:level": "1",
        "name": "Bloosom Sch",
        "name:kn": "ಬ್ಲಾಸಮ್ ಶಾಲೆ,ಎಳ್ಳುಕುಂಟೆ",
        "operator": "Private Un-Aided",
        "school": "Primary Only"
      }
    },
    {
      "type": "node",
      "id": 6528204204,
      "lat": 12.8974858,
      "lon": 77.6302097,
      "tags": {
        "addr:place": "Hongasandra",
        "amenity": "school",
        "isced:level": "3",
        "name": "Gnanabharathi HPS , Hongasandra 1",
        "name:kn": "ಜ್ಞಾನಭಾರತಿ ಹಿರಿಯ ಪ್ರಾಥಮಿಕ ಶಾಲೆ ಹೊಂಗಸಂದ್ರ",
        "operator": "Private Un-Aided",
        "school": "Higher Secondary"
      }
    },
    {
      "type": "node",
      "id": 6528208622,
      "lat": 12.8956428,
      "lon": 77.6265101,
      "tags": {
        "addr:place": "Hongasandra",
        "amenity": "school",
        "isced:level": "3",
        "name": "Oxford HPS, Hongasandra 2",
        "name:kn": "ಆಕ್ಸ್ಫರ್ಡ್ ಹಿರಿಯ ಪ್ರಾಥಮಿಕ ಶಾಲೆ ಹೊಂಗಸಂದ್ರ",
        "operator": "Private Un-Aided",
        "school": "Higher secondary"
      }
    },
    {
      "type": "node",
      "id": 6528217093,
      "lat": 12.8999361,
      "lon": 77.6264784,
      "tags": {
        "addr:place": "Hongasandra",
        "amenity": "school",
        "isced:level": "2",
        "name": "Anikethan Pub Sch , Hongasandra 1",
        "name:kn": "ಅನಿಕೇತನ ಪಬ್ಲಿಕ್ ಎಸ್.ಸಿ.ಎಚ್ ಹೊಂಗಸಂದ್ರ",
        "operator": "Private Un-Aided",
        "school": "Higher Primary"
      }
    },
    {
      "type": "node",
      "id": 6939562670,
      "lat": 12.8987442,
      "lon": 77.6263127,
      "tags": {
        "addr:district": "Bengaluru Rural",
        "addr:full": "No 4/158, Hongasandra Begur Main Road Bdgur Main Road",
        "addr:postcode": "560068",
        "addr:state": "Karnataka",
        "amenity": "hospital",
        "name": "Kavya Hospital",
        "source": "OpenGovernmentData"
      }
    },
    {
      "type": "way",
      "id": 1271883891,
      "center": {
        "lat": 12.8995586,
        "lon": 77.6253424
      },
      "tags": {
        "amenity": "grave_yard",
        "landuse": "cemetery"
      }
    }
  ]
}