{
  "area_name": "Horamavu",
  "osm_id": 2474931873,
  "osm_type": "node",
  "place_type": "suburb",
  "amenity_count": 85,
  "amenities": [
    {
      "type": "node",
      "id": 595305444,
      "lat": 13.0255258,
      "lon": 77.6524721,
      "tags": {
        "amenity": "place_of_worship",
        "name": "Gethseman Sungji Church",
        "religion": "christian"
      }
    },
    {
      "type": "node",
      "id": 595305844,
      "lat": 13.0257078,
      "lon": 77.6517029,
      "tags": {
        "amenity": "pharmacy",
        "name": "Dava Sagar"
      }
    },
    {
      "type": "node",
      "id": 1533923521,
      "lat": 13.0201633,
      "lon": 77.6565925,
      "tags": {
        "addr:postcode": "560043",
        "addr:street": "Horamavu Main Road",
        "amenity": "bank",
        "atm": "yes",
        "brand": "State Bank of India",
        "brand:wikidata": "Q1340361",
        "brand:wikipedia": "en:State Bank of India",
        "name": "State Bank of India",
        "name:kn": "ಭಾರತೀಯ ಸ್ಟೇಟ್ ಬ್ಯಾಂಕ್",
        "short_name": "SBI"
      }
    },
    {
      "type": "node",
      "id": 1722802205,
      "lat": 13.0307899,
      "lon": 77.653594,
      "tags": {
        "amenity": "hospital",
        "emergency": "no",
        "name": "Karunya Homoeopathy Centre"
      }
    },
    {
      "type": "node",
      "id": 1725094663,
      "lat": 13.0249273,
      "lon": 77.6592607,
      "tags": {
        "brand": "Nilgiri's",
        "brand:wikidata": "Q17079567",
        "name": "Nilgiri's",
        "name:kn": "ನೀಲ್ಗಿರೀಸ್",
        "opening_hours": "Mo-Su 08:30-20:00",
        "shop": "supermarket"
      }
    },
    {
      "type": "node",
      "id": 1760701663,
      "lat": 13.020966,
      "lon": 77.6662986,
      "tags": {
        "amenity": "atm",
        "fee": "HDFC BANK ATM"
      }
    },
    {
      "type": "node",
      "id": 1760703149,
      "lat": 13.023316,
      "lon": 77.6647121,
      "tags": {
        "amenity": "place_of_worship",
        "name": "Hanuman Temple",
        "name:kn": "ಹನುಮಂತ ದೇವಸ್ಥಾನ",
        "religion": "hindu"
      }
    },
    {
      "type": "node",
      "id": 1760703805,
      "lat": 13.0215562,
      "lon": 77.6662295,
      "tags": {
        "amenity": "place_of_worship",
        "name": "Om Shakti Temple",
        "name:kn": "ಓಂ ಶಕ್ತಿ ದೇವಸ್ಥಾನ",
        "religion": "hindu"
      }
    },
    {
      "type": "node",
      "id": 2624180875,
      "lat": 13.0219084,
      "lon": 77.6577437,
      "tags": {
        "amenity": "atm",
        "brand": "HDFC Bank",
        "brand:wikidata": "Q631047",
        "name": "HDFC Bank",
        "operator": "HDFC Bank",
        "operator:wikidata": "Q631047",
        "short_name": "HDFC"
      }
    },
    {
      "type": "node",
      "id": 2624184578,
      "lat": 13.0218163,
      "lon": 77.657739,
      "tags": {
        "amenity": "cafe",
        "name": "Sweet Chariot Cafe"
      }
    },
    {
      "type": "node",
      "id": 2624211636,
      "lat": 13.0219675,
      "lon": 77.6549932,
      "tags": {
        "amenity": "place_of_worship",
        "name": "Ganesha Temple",
        "name:kn": "ಗಣೇಶ ದೇವಸ್ಥಾನ",
        "religion": "hindu"
      }
    },
    {
      "type": "node",
      "id": 2624213813,
      "lat": 13.0214757,
      "lon": 77.6575717,
      "tags": {
        "name": "HomeBuzz",
        "shop": "supermarket"
      }
    },
    {
      "type": "node",
      "id": 2625677571,
      "lat": 13.0219905,
      "lon": 77.6577775,
      "tags": {
        "amenity": "pharmacy",
        "brand": "MedPlus",
        "brand:wikidata": "Q65684234",
        "healthcare": "pharmacy",
        "name": "MedPlus",
        "name:kn": "ಮೆಡ್‍ಪ್ಲಸ್"
      }
    },
    {
      "type": "node",
      "id": 2625715089,
      "lat": 13.0198168,
      "lon": 77.6562684,
      "tags": {
        "amenity": "pharmacy",
        "name": "Maruthi Medicals"
      }
    },
    {
      "type": "node",
      "id": 2625722535,
      "lat": 13.0217627,
      "lon": 77.6577043,
      "tags": {
        "amenity": "restaurant",
        "cuisine": "chinese",
        "name": "Chung Wak"
      }
    },
    {
      "type": "node",
      "id": 3004219875,
      "lat": 13.0276893,
      "lon": 77.6616598,
      "tags": {
        "name": "Food Mart",
        "operator": "Food Mart",
        "shop": "supermarket"
      }
    },
    {
      "type": "node",
      "id": 4489699996,
      "lat": 13.0245541,
      "lon": 77.6559134,
      "tags": {
        "addr:city": "Bangalore",
        "addr:housenumber": "173",
        "addr:postcode": "560076",
        "addr:street": "Hormavu Main Road",
        "name": "Seven Days Supermarket",
        "phone": "(91)-9743257556",
        "shop": "supermarket"
      }
    },
    {
      "type": "node",
      "id": 4489848616,
      "lat": 13.0202407,
      "lon": 77.6551359,
      "tags": {
        "addr:city": "bangalore",
        "addr:housenumber": "34",
        "addr:postcode": "560043",
        "addr:street": "Outer Ring Road",
        "name": "Qi Spa and Salon",
        "opening_hours": "09:00-21:30",
        "phone": "8296137528",
        "shop": "beauty"
      }
    },
    {
      "type": "node",
      "id": 4489968461,
      "lat": 13.021991,
      "lon": 77.6620866,
      "tags": {
        "addr:city": "bangalore",
        "addr:housenumber": "326",
        "addr:postcode": "560043",
        "addr:street": "Hrbr layout",
        "name": "Magic Mirror Unisex Spa & Salon",
        "opening_hours": "09:00-21:00",
        "phone": "080 2542 0424",
        "shop": "beauty"
      }
    },
    {
      "type": "node",
      "id": 4844863333,
      "lat": 13.0257145,
      "lon": 77.6518053,
      "tags": {
        "name": "Meatz trading solutions",
        "name:en": "Meatz trading solutions",
        "shop": "butcher"
      }
    },
    {
      "type": "node",
      "id": 4844863334,
      "lat": 13.0259167,
      "lon": 77.652283,
      "tags": {
        "name": "Supreme travel solutions",
        "name:en": "Supreme travel solutions",
        "shop": "travel_agency"
      }
    },
    {
      "type": "node",
      "id": 4844863335,
      "lat": 13.0311093,
      "lon": 77.6534247,
      "tags": {
        "name": "Fashion footwear",
        "name:en": "Fashion footwear",
        "shop": "shoes"
      }
    },
    {
      "type": "node",
      "id": 4844863336,
      "lat": 13.0341188,
      "lon": 77.6543637,
      "tags": {
        "name": "SPN",
        "name:en": "SPN",
        "shop": "car"
      }
    },
    {
      "type": "node",
      "id": 4844863340,
      "lat": 13.0319862,
      "lon": 77.660617,
      "tags": {
        "name": "Shop ink",
        "name:en": "Shop ink",
        "shop": "supermarket"
      }
    },
    {
      "type": "node",
      "id": 4844863341,
      "lat": 13.0290724,
      "lon": 77.6635243,
      "tags": {
        "amenity": "restaurant",
        "name": "Biryani House",
        "name:en": "Biryani House"
      }
    },
    {
      "type": "node",
      "id": 4844863342,
      "lat": 13.0287244,
      "lon": 77.6638803,
      "tags": {
        "amenity": "restaurant",
        "name": "Kalleshwari Rice corner",
        "name:en": "Kalleshwari Rice corner"
      }
    },
    {
      "type": "node",
      "id": 4844865031,
      "lat": 13.0324608,
      "lon": 77.6538206,
      "tags": {
        "name": "Bhavani automobiles",
        "name:en": "Bhavani automobiles",
        "shop": "car"
      }
    },
    {
      "type": "node",
      "id": 4844867421,
      "lat": 13.0286188,
      "lon": 77.6526542,
      "tags": {
        "amenity": "pharmacy",
        "name": "Maruthi Medical's",
        "name:en": "Maruthi Medical's"
      }
    },
    {
      "type": "node",
      "id": 4844867521,
      "lat": 13.0301725,
      "lon": 77.6530855,
      "tags": {
        "amenity": "fast_food",
        "name": "Ifun",
        "name:en": "Ifun"
      }
    },
    {
      "type": "node",
      "id": 4851692299,
      "lat": 13.0309806,
      "lon": 77.6682208,
      "tags": {
        "amenity": "school",
        "name": "Sunshine Childrens Home and School"
      }
    },
    {
      "type": "node",
      "id": 4851692300,
      "lat": 13.0304629,
      "lon": 77.6669591,
      "tags": {
        "amenity": "car_wash",
        "name": "Sai Car Caare"
      }
    },
    {
      "type": "node",
      "id": 4851692301,
      "lat": 13.0302825,
      "lon": 77.6665431,
      "tags": {
        "name": "Sun Traders",
        "shop": "yes"
      }
    },
    {
      "type": "node",
      "id": 6900454795,
      "lat": 13.0205461,
      "lon": 77.6584402,
      "tags": {
        "addr:city": "Bengaluru",
        "addr:country": "IN",
        "addr:hamlet": "Horamavu",
        "addr:housenumber": "108/2",
        "addr:postcode": "560043",
        "addr:street": "4th Main Road",
        "amenity": "coworking_space",
        "email": "make.do@the-workshop.in",
        "leisure": "hackerspace",
        "name": "Think Happy Everyday - Workshop",
        "phone": "+91-9930749611",
        "website": "https://the-workshop.in/"
      }
    },
    {
      "type": "node",
      "id": 6947716900,
      "lat": 13.0276736,
      "lon": 77.6614188,
      "tags": {
        "addr:district": "Bengaluru Urban",
        "addr:full": "No.21,22,1st Floor,Horamavu Main Road",
        "addr:postcode": "560043",
        "addr:state": "Karnataka",
        "amenity": "hospital",
        "name": "Dr. Sailaja's Super Speciality Eye Hospital",
        "source": "OpenGovernmentData"
      }
    },
    {
      "type": "node",
      "id": 7507326241,
      "lat": 13.0306139,
      "lon": 77.667848,
      "tags": {
        "amenity": "place_of_worship",
        "religion": "hindu"
      }
    },
    {
      "type": "node",
      "id": 7507326242,
      "lat": 13.0305173,
      "lon": 77.6673115,
      "tags": {
        "name": "shop right",
        "shop": "supermarket"
      }
    },
    {
      "type": "node",
      "id": 7507326243,
      "lat": 13.0305251,
      "lon": 77.6675932,
      "tags": {
        "amenity": "dentist",
        "healthcare": "dentist"
      }
    },
    {
      "type": "node",
      "id": 7572131821,
      "lat": 13.0258249,
      "lon": 77.6604922,
      "tags": {
        "addr:district": "Bengaluru Urban",
        "addr:full": "Kalkere Main Road, Horamavu, Bengaluru",
        "addr:postcode": "560113",
        "addr:state": "Karnataka",
        "amenity": "clinic",
        "name": "Arjun's Child Care Clinic",
        "source": "Local Knowledge"
      }
    },
    {
      "type": "node",
      "id": 7572131825,
      "lat": 13.0236149,
      "lon": 77.6586628,
      "tags": {
        "addr:district": "Bengaluru Urban",
        "addr:full": "Horamavu, Bengaluru",
        "addr:postcode": "560043",
        "addr:state": "Karnataka",
        "amenity": "clinic",
        "name": "Women's Speciality Polyclinic",
        "source": "Local Knowledge"
      }
    },
    {
      "type": "node",
      "id": 7572131828,
      "lat": 13.0209741,
      "lon": 77.6573009,
      "tags": {
        "addr:district": "Bengaluru Urban",
        "addr:full": "Horamavu Main Road, Kallumantapa, Horamavu, Bengaluru",
        "addr:postcode": "560043",
        "addr:state": "Karnataka",
        "amenity": "clinic",
        "name": "Maneet Poly Clinic",
        "source": "Local Knowledge"
      }
    },
    {
      "type": "node",
      "id": 7572131832,
      "lat": 13.0281599,
      "lon": 77.6625832,
      "tags": {
        "addr:district": "Bengaluru Urban",
        "addr:full": "Horamavu, Bengaluru",
        "addr:postcode": "560113",
        "addr:state": "Karnataka",
        "amenity": "clinic",
        "name": "Sri Venkateshwara Clinic",
        "source": "Local Knowledge"
      }
    },
    {
      "type": "node",
      "id": 7572131833,
      "lat": 13.0239995,
      "lon": 77.6585299,
      "tags": {
        "addr:district": "Bengaluru Urban",
        "addr:full": "Horamavu, Near Banaswadi, Bengaluru",
        "addr:postcode": "560043",
        "addr:state": "Karnataka",
        "amenity": "hospital",
        "name": "Stroke Treatment Paralysis",
        "source": "Local Knowledge"
      }
    },
    {
      "type": "node",
      "id": 7572131835,
      "lat": 13.0283977,
      "lon": 77.6599575,
      "tags": {
        "addr:district": "Bengaluru Urban",
        "addr:full": "Banaswadi, Bengaluru",
        "addr:postcode": "560043",
        "addr:state": "Karnataka",
        "amenity": "hospital",
        "name": "Geriatric Hospitals",
        "source": "Local Knowledge"
      }
    },
    {
      "type": "node",
      "id": 7572131850,
      "lat": 13.024278,
      "lon": 77.6587297,
      "tags": {
        "addr:district": "Bengaluru Urban",
        "addr:full": "Ashirvad Colony, Horamavu, Bengaluru",
        "addr:postcode": "560043",
        "addr:state": "Karnataka",
        "amenity": "clinic",
        "name": "People's Clinic",
        "source": "Local Knowledge"
      }
    },
    {
      "type": "node",
      "id": 7572131854,
      "lat": 13.0236678,
      "lon": 77.6587012,
      "tags": {
        "addr:district": "Bengaluru Urban",
        "addr:full": "Amar Regency, Munireddy Layout, Horamavu, Bengaluru",
        "addr:postcode": "560043",
        "addr:state": "Karnataka",
        "amenity": "clinic",
        "name": "The Children's Clinic",
        "source": "Local Knowledge"
      }
    },
    {
      "type": "node",
      "id": 7572131869,
      "lat": 13.022726,
      "lon": 77.658252,
      "tags": {
        "addr:district": "Bengaluru Urban",
        "addr:full": "Ashirvad Colony, Horamavu, Bengaluru",
        "addr:postcode": "560043",
        "addr:state": "Karnataka",
        "amenity": "clinic",
        "name": "Motherhoodclinic",
        "source": "Local Knowledge"
      }
    },
    {
      "type": "node",
      "id": 7572131880,
      "lat": 13.0219021,
      "lon": 77.65971,
      "tags": {
        "addr:district": "Bengaluru Urban",
        "addr:full": "Nandanam Colony, Kallumantapa, Horamavu, Bengaluru",
        "addr:postcode": "560043",
        "addr:state": "Karnataka",
        "amenity": "clinic",
        "name": "Shubham Ayurvedic Clinic",
        "source": "Local Knowledge"
      }
    },
    {
      "type": "node",
      "id": 7572131893,
      "lat": 13.022742,
      "lon": 77.657851,
      "tags": {
        "addr:district": "Bengaluru Urban",
        "addr:full": "Horamavu Main Road, Horamavu, Bengaluru",
        "addr:postcode": "560043",
        "addr:state": "Karnataka",
        "amenity": "dentist",
        "name": "Jaya Dental Clinic",
        "source": "Local Knowledge"
      }
    },
    {
      "type": "node",
      "id": 7572131897,
      "lat": 13.0255719,
      "lon": 77.6599541,
      "tags": {
        "addr:district": "Bengaluru Urban",
        "addr:full": "Horamavu Banaswadi, Horamavu, Bengaluru",
        "addr:postcode": "560043",
        "addr:state": "Karnataka",
        "amenity": "clinic",
        "name": "Nava Chaithanya Clinic",
        "source": "Local Knowledge"
      }
    },
    {
      "type": "node",
      "id": 7572131899,
      "lat": 13.0234596,
      "lon": 77.6587343,
      "tags": {
        "addr:district": "Bengaluru Urban",
        "addr:full": "Horamavu, Bengaluru",
        "addr:postcode": "560043",
        "addr:state": "Karnataka",
        "amenity": "clinic",
        "name": "Lifespan Diabetic Clinic",
        "source": "Local Knowledge"
      }
    },
    {
      "type": "node",
      "id": 11107573795,
      "lat": 13.0255127,
      "lon": 77.6515929,
      "tags": {
        "amenity": "taxi",
        "name": "Auto Stand",
        "name:kn": "ಆಟೋ ನಿಲ್ದಾಣ"
      }
    },
    {
      "type": "node",
      "id": 12260379389,
      "lat": 13.0287091,
      "lon": 77.6634042,
      "tags": {
        "brand": "Kanti Sweets",
        "brand:wikidata": "Q124374180",
        "name": "Kanti Sweets",
        "shop": "confectionery"
      }
    },
    {
      "type": "node",
      "id": 12459196455,
      "lat": 13.0282394,
      "lon": 77.6558532,
      "tags": {
        "amenity": "place_of_worship",
        "religion": "hindu"
      }
    },
    {
      "type": "node",
      "id": 12538036889,
      "lat": 13.0276892,
      "lon": 77.6624314,
      "tags": {
        "addr:city": "Bengaluru",
        "addr:district": "Bengaluru Urban",
        "addr:postcode": "560043",
        "addr:street": "Horamavu Main Rd, Ashirvad Colony, Horamavu",
        "amenity": "bank",
        "brand": "State Bank of India",
        "brand:wikidata": "Q1340361",
        "name": "State Bank of India",
        "short_name": "SBI"
      }
    },
    {
      "type": "node",
      "id": 12542016150,
      "lat": 13.021882,
      "lon": 77.6580688,
      "tags": {
        "check_date": "2025-01-29",
        "contact:instagram": "https://www.instagram.com/lalithasbooknook",
        "name": "Lalitha's Book Nook",
        "shop": "books"
      }
    },
    {
      "type": "node",
      "id": 12985410879,
      "lat": 13.0267913,
      "lon": 77.6658288,
      "tags": {
        "addr:floor": "G",
        "amenity": "place_of_worship",
        "check_date": "2025-07-07",
        "level": "0",
        "religion": "hindu"
      }
    },
    {
      "type": "node",
      "id": 12985410880,
      "lat": 13.0265206,
      "lon": 77.6658185,
      "tags": {
        "addr:floor": "G",
        "amenity": "place_of_worship",
        "check_date": "2025-07-07",
        "level": "0",
        "name": "Sri Chamundeswari Temple",
        "name:en": "Sri Chamundeswari Temple",
        "religion": "hindu"
      }
    },
    {
      "type": "way",
      "id": 51130921,
      "center": {
        "lat": 13.0273088,
        "lon": 77.6527331
      },
      "tags": {
        "amenity": "school"
      }
    },
    {
      "type": "way",
      "id": 207854064,
      "center": {
        "lat": 13.0288063,
        "lon": 77.6530754
      },
      "tags": {
        "addr:housename": "MARUTHI SCHOOL",
        "amenity": "school",
        "name": "Maruthi School",
        "name:kn": "ಮಾರುತಿ ಶಾಲೆ"
      }
    },
    {
      "type": "way",
      "id": 239716193,
      "center": {
        "lat": 13.0313671,
        "lon": 77.6685691
      },
      "tags": {
        "addr:city": "KALKERE",
        "addr:street": "Kalkere Main Road;Horamavu Main Road",
        "amenity": "school",
        "name": "Sunshine School"
      }
    },
    {
      "type": "way",
      "id": 256940540,
      "center": {
        "lat": 13.0224158,
        "lon": 77.6580401
      },
      "tags": {
        "addr:district": "Bengaluru Urban",
        "addr:full": "No. 66, 9Th Main , Horamavu Post Horamavu Main Road Banaswadi",
        "addr:postcode": "560043",
        "addr:state": "Karnataka",
        "amenity": "hospital",
        "building": "yes",
        "emergency": "yes",
        "name": "Nmpc Hospital",
        "source": "OpenGovernmentData"
      }
    },
    {
      "type": "way",
      "id": 256948011,
      "center": {
        "lat": 13.0187259,
        "lon": 77.657214
      },
      "tags": {
        "building": "yes",
        "name": "Khivraj Motors - Bajaj",
        "shop": "motorcycle"
      }
    },
    {
      "type": "way",
      "id": 525518302,
      "center": {
        "lat": 13.0263279,
        "lon": 77.6559927
      },
      "tags": {
        "amenity": "school",
        "name": "Devamata Central School",
        "name:kn": "ದೇವಮಾತ ಕೇಂದ್ರ ಶಾಲೆ"
      }
    },
    {
      "type": "way",
      "id": 675387096,
      "center": {
        "lat": 13.0287492,
        "lon": 77.6553999
      },
      "tags": {
        "access": "private",
        "leisure": "swimming_pool"
      }
    },
    {
      "type": "way",
      "id": 695548659,
      "center": {
        "lat": 13.0297939,
        "lon": 77.6513457
      },
      "tags": {
        "amenity": "parking"
      }
    },
    {
      "type": "way",
      "id": 814167242,
      "center": {
        "lat": 13.0291464,
        "lon": 77.669209
      },
      "tags": {
        "addr:city": "Bengaluru",
        "addr:housenumber": "Survey no 505/1 & 505/2",
        "addr:postcode": "560043",
        "addr:street": "Kalkere Village, K.R. Puram Hobli, Bangalore South Taluk",
        "leisure": "park",
        "name": "Cumins Sports Park",
        "opening_hours": "sunrise-sunset",
        "opening_hours:covid19": "closed",
        "operator": "Cumins Genesis"
      }
    },
    {
      "type": "way",
      "id": 1082662449,
      "center": {
        "lat": 13.0286527,
        "lon": 77.6650662
      },
      "tags": {
        "leisure": "swimming_pool"
      }
    },
    {
      "type": "way",
      "id": 1322091226,
      "center": {
        "lat": 13.0323557,
        "lon": 77.6600139
      },
      "tags": {
        "amenity": "fuel",
        "brand": "Hindustan Petroleum",
        "brand:wikidata": "Q1619375",
        "name": "HP Petrol Pump",
        "official_name": "Hindustan Petroleum",
        "operator": "HPCL"
      }
    },
    {
      "type": "way",
      "id": 1322091227,
      "center": {
        "lat": 13.0299353,
        "lon": 77.6624162
      },
      "tags": {
        "amenity": "fuel",
        "brand": "Nayara",
        "brand:wikidata": "Q5399377",
        "name": "Nayara Essar Petrol Pump",
        "operator": "Nayara"
      }
    },
    {
      "type": "way",
      "id": 1324924809,
      "center": {
        "lat": 13.0300681,
        "lon": 77.6621769
      },
      "tags": {
        "building": "yes",
        "name": "Reliance Smartpoint",
        "shop": "mall",
        "source": "microsoft/BuildingFootprints"
      }
    },
    {
      "type": "way",
      "id": 1324924810,
      "center": {
        "lat": 13.0286576,
        "lon": 77.663343
      },
      "tags": {
        "building": "yes",
        "name": "VDS Complex",
        "shop": "yes",
        "source": "microsoft/BuildingFootprints"
      }
    },
    {
      "type": "way",
      "id": 1324924811,
      "center": {
        "lat": 13.0280364,
        "lon": 77.6642559
      },
      "tags": {
        "amenity": "restaurant",
        "building": "yes",
        "cuisine": "regional;south_indian",
        "diet:vegetarian": "yes",
        "name": "Udupi Gardenia Jayantinagar",
        "source": "microsoft/BuildingFootprints"
      }
    },
    {
      "type": "way",
      "id": 1346107775,
      "center": {
        "lat": 13.0355679,
        "lon": 77.6587929
      },
      "tags": {
        "leisure": "park",
        "name": "Horamavu Agara Lake Park"
      }
    },
    {
      "type": "way",
      "id": 1346910005,
      "center": {
        "lat": 13.0261629,
        "lon": 77.6564647
      },
      "tags": {
        "amenity": "school",
        "name": "Sri Chaitanya School"
      }
    },
    {
      "type": "way",
      "id": 1346910006,
      "center": {
        "lat": 13.0269962,
        "lon": 77.6569341
      },
      "tags": {
        "amenity": "college",
        "name": "Sri Chaitanya PU College, Horamavu"
      }
    },
    {
      "type": "way",
      "id": 1347574138,
      "center": {
        "lat": 13.0240196,
        "lon": 77.6527883
      },
      "tags": {
        "leisure": "pitch",
        "sport": "soccer"
      }
    },
    {
      "type": "way",
      "id": 1347720004,
      "center": {
        "lat": 13.0204758,
        "lon": 77.655831
      },
      "tags": {
        "access": "private",
        "leisure": "swimming_pool"
      }
    },
    {
      "type": "way",
      "id": 1415079192,
      "center": {
        "lat": 13.0261391,
        "lon": 77.6681095
      },
      "tags": {
        "leisure": "pitch",
        "sport": "tennis"
      }
    },
    {
      "type": "way",
      "id": 1415079193,
      "center": {
        "lat": 13.0252068,
        "lon": 77.6692877
      },
      "tags": {
        "amenity": "school",
        "check_date": "2025-07-07",
        "name": "Sri Chaitanya Techno School",
        "name:en": "Sri Chaitanya Techno School",
        "operator:type": "private"
      }
    },
    {
      "type": "way",
      "id": 1415079194,
      "center": {
        "lat": 13.0247312,
        "lon": 77.669619
      },
      "tags": {
        "amenity": "school"
      }
    },
    {
      "type": "way",
      "id": 1423887067,
      "center": {
        "lat": 13.0203776,
        "lon": 77.6656371
      },
      "tags": {
        "amenity": "school"
      }
    },
    {
      "type": "way",
      "id": 1424040646,
      "center": {
        "lat": 13.0208322,
        "lon": 77.663039
      },
      "tags": {
        "access": "private",
        "leisure": "swimming_pool"
      }
    },
    {
      "type": "way",
      "id": 1424040647,
      "center": {
        "lat": 13.0210729,
        "lon": 77.6642644
      },
      "tags": {
        "access": "private",
        "leisure": "swimming_pool"
      }
    },
    {
      "type": "way",
      "id": 1424040648,
      "center": {
        "lat": 13.0214293,
        "lon": 77.6643388
      },
      "tags": {
        "access": "private",
        "leisure": "pitch",
        "sport": "tennis"
      }
    },
    {
      "type": "way",
      "id": 1425204394,
      "center": {
        "lat": 13.0203726,
        "lon": 77.6656727
      },
      "tags": {
        "leisure": "pitch"
      }
    }
  ]
}