{
  "area_name": "Hunasemaradapalya",
  "osm_id": 10246363084,
  "osm_type": "node",
  "place_type": "neighbourhood",
  "amenity_count": 5,
  "amenities": [
    {
      "type": "way",
      "id": 1327758216,
      "center": {
        "lat": 12.9052987,
        "lon": 77.4469199
      },
      "tags": {
        "amenity": "college",
        "landuse": "religious",
        "name": "De Paul Institute of Religion and Philosopgy"
      }
    },
    {
      "type": "way",
      "id": 1365570089,
      "center": {
        "lat": 12.8976695,
        "lon": 77.4479901
      },
      "tags": {
        "amenity": "place_of_worship",
        "landuse": "religious",
        "religion": "hindu"
      }
    },
    {
      "type": "way",
      "id": 1365570119,
      "center": {
        "lat": 12.9003641,
        "lon": 77.4444793
      },
      "tags": {
        "amenity": "place_of_worship",
        "landuse": "religious",
        "religion": "hindu"
      }
    },
    {
      "type": "way",
      "id": 1392193941,
      "center": {
        "lat": 12.910538,
        "lon": 77.4494451
      },
      "tags": {
        "amenity": "place_of_worship",
        "landuse": "religious",
        "religion": "hindu"
      }
    },
    {
      "type": "way",
      "id": 1392193945,
      "center": {
        "lat": 12.90964,
        "lon": 77.4491796
      },
      "tags": {
        "amenity": "community_centre",
        "landuse": "commercial"
      }
    }
  ]
}