{
  "area_name": "IDBI Layout",
  "osm_id": 12555786507,
  "osm_type": "node",
  "place_type": "neighbourhood",
  "amenity_count": 59,
  "amenities": [
    {
      "type": "node",
      "id": 2105154661,
      "lat": 12.8578959,
      "lon": 77.5891475,
      "tags": {
        "amenity": "restaurant",
        "cuisine": "indian",
        "indoor_seating": "yes",
        "name": "Kubera Biriyani Paradise",
        "outdoor_seating": "no",
        "wheelchair": "no"
      }
    },
    {
      "type": "node",
      "id": 4443656796,
      "lat": 12.8565752,
      "lon": 77.5889783,
      "tags": {
        "addr:city": "Banglore",
        "addr:housenumber": "5",
        "addr:postcode": "560001",
        "addr:street": "Gottigere Tank Bund Road",
        "amenity": "police",
        "name": "Hulimavu Traffic Police Station",
        "phone": "080 2294 3030",
        "website": "bangaloretrafficpolice.gov.in"
      }
    },
    {
      "type": "node",
      "id": 4489862219,
      "lat": 12.8654395,
      "lon": 77.579798,
      "tags": {
        "addr:city": "bangaluru",
        "addr:housenumber": "Shop No.5",
        "addr:postcode": "560076",
        "addr:street": ", Byrappa Circle, Jambusavari Dinne, 8th Phase, JP Nagar, Bengaluru, Karnataka",
        "leisure": "sports_centre",
        "name": "Unique Fitness",
        "opening_hours": "6:00-18:00",
        "phone": "\"097401 97997 \"",
        "sport": "gymnasium"
      }
    },
    {
      "type": "node",
      "id": 6348786153,
      "lat": 12.8590074,
      "lon": 77.5890223,
      "tags": {
        "addr:place": "Gottigere",
        "amenity": "school",
        "isced:level": "2",
        "name": "GHPS Gottigere",
        "name:kn": "ಸರ್ಕಾರಿ ಹಿರಿಯ ಪ್ರಾಥಮಿಕ ಶಾಲೆ ಗೊಟ್ಟಿಗರೆ",
        "operator": "Department of Education",
        "school": "primary"
      }
    },
    {
      "type": "node",
      "id": 6349178484,
      "lat": 12.8655347,
      "lon": 77.5815146,
      "tags": {
        "addr:place": "Jambusavari Dinne",
        "amenity": "school",
        "isced:level": "2",
        "name": "GHPS Jambusavari Dinne",
        "name:kn": "ಸರ್ಕಾರಿ ಹಿರಿಯ ಪ್ರಾಥಮಿಕ ಶಾಲೆ ಜಂಬುಸವಾರಿ ದಿಣ್ಣೆ",
        "operator": "Department of Education",
        "school": "primary"
      }
    },
    {
      "type": "node",
      "id": 6496798356,
      "lat": 12.8569301,
      "lon": 77.5854776,
      "tags": {
        "addr:place": "Gottigere",
        "amenity": "school",
        "isced:level": "3",
        "name": "Silicon Vally LPS Gottigere",
        "name:kn": "ಸಿಲಿಕಾನ್ ವ್ಯಾಲಿ ಕಿರಿಯ ಪ್ರಾಥಮಿಕ ಶಾಲೆ ಗೊಟ್ಟಿಗೆರೆ",
        "operator": "Private Un-Aided",
        "school": "Higher Secondary"
      }
    },
    {
      "type": "node",
      "id": 6496810726,
      "lat": 12.8656934,
      "lon": 77.5860168,
      "tags": {
        "addr:place": "Gottigere",
        "amenity": "school",
        "isced:level": "2",
        "name": "Sri Ramakrishna C E Kendra,Gottigere",
        "name:kn": "ಶ್ರೀ ರಾಮಕೃಷ್ಣ ಸಿ ಇ ಕೇಂದ್ರ ಗೊಟ್ಟಿಗೆರೆ",
        "operator": "Private Aided",
        "school": "Higher Primary"
      }
    },
    {
      "type": "node",
      "id": 6496824065,
      "lat": 12.8546645,
      "lon": 77.5879146,
      "tags": {
        "addr:place": "Gottigere",
        "amenity": "school",
        "isced:level": "2",
        "name": "Little Angels, Gottigere",
        "name:kn": "ಲಿಟಲ್ ಏಂಜಲ್,ಗೊಟ್ಟಿಗೆರೆ",
        "operator": "Private Un-Aided",
        "school": "Higher Primary"
      }
    },
    {
      "type": "node",
      "id": 6496835649,
      "lat": 12.859947,
      "lon": 77.590048,
      "tags": {
        "addr:place": "Gottigere",
        "amenity": "school",
        "isced:level": "3",
        "name": "Sudarshan Public School (cbse), Gottigere",
        "name:kn": "ಸುದರ್ಶನ್ ಪಬ್ಲಿಕ್ ಎಸ್.ಸಿ.ಎಚ್ (ಸಿ.ಬಿ.ಎಸ್.ಇ), ಗೊಟ್ಟಿಗೆರೆ",
        "operator": "Private Un-Aided",
        "school": "Higher Secondary"
      }
    },
    {
      "type": "node",
      "id": 6536421096,
      "lat": 12.8686079,
      "lon": 77.5841946,
      "tags": {
        "addr:place": "Kothanur",
        "amenity": "school",
        "isced:level": "2",
        "name": "Vidyakirana Public School, Kothanur",
        "name:kn": "ವಿದ್ಯಾಕಿರಣ ಪಬ್ಲಿಕ್ ಶಾಲೆ ಕೊತ್ತನೂರು",
        "operator": "Private Un-Aided",
        "school": "Higher primary"
      }
    },
    {
      "type": "node",
      "id": 6944283814,
      "lat": 12.8579673,
      "lon": 77.5892687,
      "tags": {
        "addr:district": "Bengaluru Urban",
        "addr:full": "#3, Gottigere, Bannerghatta Main Road,Near Gottigere Bus Stand",
        "addr:postcode": "560083",
        "addr:state": "Karnataka",
        "amenity": "hospital",
        "healthcare": "hospital",
        "name": "Vijayashree Hospitals",
        "name:kn": "ವಿಜಯಶ್ರೀ ಆಸ್ಪತ್ರೆಗಳು",
        "source": "OpenGovernmentData",
        "wheelchair": "yes"
      }
    },
    {
      "type": "node",
      "id": 7179141561,
      "lat": 12.8538911,
      "lon": 77.5889038,
      "tags": {
        "addr:city": "Bangalore",
        "addr:street": "Bannerghatta Road",
        "amenity": "restaurant",
        "cuisine": "regional",
        "name": "Guru Greens Family Restaurant",
        "outdoor_seating": "yes"
      }
    },
    {
      "type": "node",
      "id": 7179141562,
      "lat": 12.853936,
      "lon": 77.5882726,
      "tags": {
        "addr:city": "Bangalore",
        "addr:postcode": "560083",
        "addr:street": "Bannerghatta Road",
        "brand": "DMart",
        "brand:wikidata": "Q5203271",
        "check_date:opening_hours": "2023-10-29",
        "name": "DMart",
        "opening_hours": "10:00-22:00",
        "operator": "DMart",
        "organic": "yes",
        "shop": "supermarket",
        "website": "http://dmartindia.com"
      }
    },
    {
      "type": "node",
      "id": 10697710360,
      "lat": 12.8610986,
      "lon": 77.589832,
      "tags": {
        "brand": "Cromā",
        "brand:wikidata": "Q5187683",
        "name": "Cromā",
        "shop": "electronics"
      }
    },
    {
      "type": "node",
      "id": 10697710409,
      "lat": 12.8582964,
      "lon": 77.5896874,
      "tags": {
        "amenity": "college",
        "name": "Dr. Ramanah Manohar College of Law"
      }
    },
    {
      "type": "node",
      "id": 11644229938,
      "lat": 12.8643426,
      "lon": 77.5892945,
      "tags": {
        "amenity": "restaurant",
        "check_date": "2024-02-20",
        "contact:instagram": "https://www.instagram.com/grasshopperbangalore",
        "delivery": "no",
        "name": "Grasshopper",
        "phone": "+91 80501 65130",
        "reservation": "recommended"
      }
    },
    {
      "type": "node",
      "id": 11939125780,
      "lat": 12.8664619,
      "lon": 77.5918193,
      "tags": {
        "amenity": "pharmacy",
        "name": "Medplus"
      }
    },
    {
      "type": "node",
      "id": 12167408281,
      "lat": 12.870188,
      "lon": 77.5865428,
      "tags": {
        "access": "private",
        "amenity": "parking_entrance",
        "parking": "underground"
      }
    },
    {
      "type": "node",
      "id": 12167408286,
      "lat": 12.8705505,
      "lon": 77.5866919,
      "tags": {
        "access": "private",
        "amenity": "parking_entrance",
        "parking": "underground"
      }
    },
    {
      "type": "node",
      "id": 12260569981,
      "lat": 12.8630573,
      "lon": 77.5910135,
      "tags": {
        "amenity": "restaurant",
        "name": "Soofi Mandi"
      }
    },
    {
      "type": "way",
      "id": 362880542,
      "center": {
        "lat": 12.8576648,
        "lon": 77.592483
      },
      "tags": {
        "access": "private",
        "leisure": "playground"
      }
    },
    {
      "type": "way",
      "id": 362882070,
      "center": {
        "lat": 12.8656488,
        "lon": 77.5943914
      },
      "tags": {
        "leisure": "playground",
        "name": "Play Area"
      }
    },
    {
      "type": "way",
      "id": 366244494,
      "center": {
        "lat": 12.8708151,
        "lon": 77.5848582
      },
      "tags": {
        "landuse": "commercial",
        "leisure": "fitness_centre",
        "name": "Breakthrough"
      }
    },
    {
      "type": "way",
      "id": 455958466,
      "center": {
        "lat": 12.8657411,
        "lon": 77.5814308
      },
      "tags": {
        "amenity": "bus_station",
        "name": "Jambu Savari Dinne Bus Bay"
      }
    },
    {
      "type": "way",
      "id": 1082360485,
      "center": {
        "lat": 12.8622781,
        "lon": 77.5829112
      },
      "tags": {
        "amenity": "college",
        "name": "Jeevalaya Institute of Philosophy",
        "website": "https://www.jeevalaya.in"
      }
    },
    {
      "type": "way",
      "id": 1082360489,
      "center": {
        "lat": 12.8680752,
        "lon": 77.5870384
      },
      "tags": {
        "amenity": "monastery",
        "landuse": "religious",
        "name": "Holy Trinity Ashram",
        "religion": "christian"
      }
    },
    {
      "type": "way",
      "id": 1082360490,
      "center": {
        "lat": 12.8688525,
        "lon": 77.5903201
      },
      "tags": {
        "amenity": "school",
        "name": "Mount St. Joseph",
        "name:kn": "ಮೌಂಟ್ ಸೆಂಟ್ ಜ್ಯೋಸೆಫ್"
      }
    },
    {
      "type": "way",
      "id": 1149959392,
      "center": {
        "lat": 12.8638347,
        "lon": 77.5905032
      },
      "tags": {
        "addr:city": "Bangalore",
        "addr:housenumber": "# 1st",
        "addr:postcode": "560083",
        "addr:street": "Raj Alkaa Park, Kalena Agrahara, Bannerghatta Main Road, Himagiri Meadows",
        "brand": "Decathlon",
        "brand:wikidata": "Q509349",
        "name": "Decathlon",
        "name:kn": "ಡೆಕಾತ್ಲಾನ್",
        "opening_hours": "09:00-22:00",
        "phone": "08095556217",
        "shop": "sports",
        "website": "https://decathlon.in/"
      }
    },
    {
      "type": "way",
      "id": 1149959393,
      "center": {
        "lat": 12.8625211,
        "lon": 77.5895943
      },
      "tags": {
        "amenity": "school",
        "name": "Carmel Academy"
      }
    },
    {
      "type": "way",
      "id": 1149959402,
      "center": {
        "lat": 12.8597756,
        "lon": 77.5900883
      },
      "tags": {
        "amenity": "fuel",
        "brand": "Shell",
        "brand:wikidata": "Q110716465",
        "compressed_air": "yes",
        "name": "Shell Petrol Bunk",
        "name:kn": "ಶೆಲ್"
      }
    },
    {
      "type": "way",
      "id": 1149959403,
      "center": {
        "lat": 12.8608984,
        "lon": 77.5896602
      },
      "tags": {
        "amenity": "fuel"
      }
    },
    {
      "type": "way",
      "id": 1199401161,
      "center": {
        "lat": 12.8685754,
        "lon": 77.5872217
      },
      "tags": {
        "amenity": "monastery",
        "landuse": "religious",
        "name": "Maitreya",
        "religion": "christian"
      }
    },
    {
      "type": "way",
      "id": 1199401166,
      "center": {
        "lat": 12.8686492,
        "lon": 77.5908886
      },
      "tags": {
        "leisure": "park"
      }
    },
    {
      "type": "way",
      "id": 1199401167,
      "center": {
        "lat": 12.8682221,
        "lon": 77.5907831
      },
      "tags": {
        "leisure": "park"
      }
    },
    {
      "type": "way",
      "id": 1308843403,
      "center": {
        "lat": 12.8586171,
        "lon": 77.5898715
      },
      "tags": {
        "leisure": "park"
      }
    },
    {
      "type": "way",
      "id": 1308843476,
      "center": {
        "lat": 12.8566513,
        "lon": 77.5910315
      },
      "tags": {
        "leisure": "sports_centre"
      }
    },
    {
      "type": "way",
      "id": 1308843539,
      "center": {
        "lat": 12.8575989,
        "lon": 77.5923535
      },
      "tags": {
        "access": "private",
        "amenity": "parking",
        "parking": "street_side"
      }
    },
    {
      "type": "way",
      "id": 1308843540,
      "center": {
        "lat": 12.8588298,
        "lon": 77.5925183
      },
      "tags": {
        "access": "private",
        "amenity": "parking",
        "parking": "street_side"
      }
    },
    {
      "type": "way",
      "id": 1328835941,
      "center": {
        "lat": 12.8707059,
        "lon": 77.5858942
      },
      "tags": {
        "access": "private",
        "amenity": "parking",
        "parking": "street_side"
      }
    },
    {
      "type": "way",
      "id": 1328835942,
      "center": {
        "lat": 12.8706763,
        "lon": 77.5863966
      },
      "tags": {
        "access": "private",
        "leisure": "swimming_pool"
      }
    },
    {
      "type": "way",
      "id": 1337360111,
      "center": {
        "lat": 12.8612667,
        "lon": 77.5796852
      },
      "tags": {
        "leisure": "park"
      }
    },
    {
      "type": "way",
      "id": 1353883393,
      "center": {
        "lat": 12.8669346,
        "lon": 77.5912825
      },
      "tags": {
        "addr:city": "Bengaluru",
        "addr:postcode": "560076",
        "addr:street": "Bannerghatta Road, Kalena Agrahara, Kothnur",
        "amenity": "college",
        "name": "Nirmala Jyothi Technical Institute Salesian Sisters"
      }
    },
    {
      "type": "way",
      "id": 1356594043,
      "center": {
        "lat": 12.8547613,
        "lon": 77.5910899
      },
      "tags": {
        "amenity": "place_of_worship",
        "landuse": "religious",
        "name": "Burhani Masjid",
        "religion": "muslim"
      }
    },
    {
      "type": "way",
      "id": 1356597042,
      "center": {
        "lat": 12.864519,
        "lon": 77.5864983
      },
      "tags": {
        "amenity": "school",
        "name": "Sri Ramakrishna Samagra Shikshana Kendra"
      }
    },
    {
      "type": "way",
      "id": 1356597055,
      "center": {
        "lat": 12.861861,
        "lon": 77.5914237
      },
      "tags": {
        "amenity": "school"
      }
    },
    {
      "type": "way",
      "id": 1356597056,
      "center": {
        "lat": 12.8601703,
        "lon": 77.590256
      },
      "tags": {
        "amenity": "fuel",
        "brand": "Indian Oil",
        "brand:wikidata": "Q1289348",
        "fuel:diesel": "yes",
        "fuel:e20": "yes",
        "fuel:ethanol": "yes",
        "fuel:octane_100": "yes",
        "fuel:octane_95": "yes",
        "name": "Indian Oil",
        "operator": "Ekadanta Fuel pump",
        "self_service": "no"
      }
    },
    {
      "type": "way",
      "id": 1356597057,
      "center": {
        "lat": 12.860555,
        "lon": 77.5903171
      },
      "tags": {
        "leisure": "park"
      }
    },
    {
      "type": "way",
      "id": 1356597058,
      "center": {
        "lat": 12.8568683,
        "lon": 77.5895168
      },
      "tags": {
        "amenity": "college"
      }
    },
    {
      "type": "way",
      "id": 1356597136,
      "center": {
        "lat": 12.8661113,
        "lon": 77.5907667
      },
      "tags": {
        "alt_name": "Immaculate Heart of Mary Church",
        "amenity": "place_of_worship",
        "name": "Immaculate Conception Church",
        "religion": "christian"
      }
    },
    {
      "type": "way",
      "id": 1356599513,
      "center": {
        "lat": 12.863864,
        "lon": 77.5779813
      },
      "tags": {
        "amenity": "school",
        "name": "Sri Chaitanya Techno School"
      }
    },
    {
      "type": "way",
      "id": 1391339680,
      "center": {
        "lat": 12.8652327,
        "lon": 77.5937956
      },
      "tags": {
        "access": "private",
        "leisure": "pitch",
        "name": "Purva Panorama Tennis Court",
        "sport": "tennis"
      }
    },
    {
      "type": "way",
      "id": 1391339681,
      "center": {
        "lat": 12.864941,
        "lon": 77.5936866
      },
      "tags": {
        "access": "private",
        "leisure": "park"
      }
    },
    {
      "type": "way",
      "id": 1391367665,
      "center": {
        "lat": 12.8704966,
        "lon": 77.5879444
      },
      "tags": {
        "leisure": "park"
      }
    },
    {
      "type": "way",
      "id": 1391388042,
      "center": {
        "lat": 12.8658569,
        "lon": 77.5940169
      },
      "tags": {
        "leisure": "swimming_pool"
      }
    },
    {
      "type": "way",
      "id": 1392516525,
      "center": {
        "lat": 12.8664725,
        "lon": 77.5930839
      },
      "tags": {
        "amenity": "theatre",
        "theatre:type": "amphi"
      }
    },
    {
      "type": "way",
      "id": 1424063525,
      "center": {
        "lat": 12.8607452,
        "lon": 77.5914777
      },
      "tags": {
        "leisure": "pitch",
        "sport": "basketball"
      }
    },
    {
      "type": "way",
      "id": 1424063526,
      "center": {
        "lat": 12.8606623,
        "lon": 77.5916065
      },
      "tags": {
        "leisure": "pitch",
        "sport": "tennis"
      }
    },
    {
      "type": "way",
      "id": 1424063535,
      "center": {
        "lat": 12.8632531,
        "lon": 77.5911378
      },
      "tags": {
        "amenity": "fuel"
      }
    },
    {
      "type": "way",
      "id": 1445703460,
      "center": {
        "lat": 12.8706388,
        "lon": 77.586642
      },
      "tags": {
        "leisure": "playground"
      }
    }
  ]
}