{
  "area_name": "Jai Maruthi Nagar",
  "osm_id": 19883272,
  "osm_type": "relation",
  "place_type": "administrative",
  "amenity_count": 23,
  "amenities": [
    {
      "type": "node",
      "id": 2090827123,
      "lat": 13.0124684,
      "lon": 77.5368288,
      "tags": {
        "amenity": "police",
        "name": "Nandini Layout Police Station",
        "name:kn": "ನಂದಿನಿ ಲೇಔಟ್ ಪೋಲಿಸ್ ಠಾಣೆ"
      }
    },
    {
      "type": "node",
      "id": 2090827478,
      "lat": 13.0124501,
      "lon": 77.5367215,
      "tags": {
        "amenity": "bank",
        "atm": "yes",
        "brand": "State Bank of India",
        "brand:wikidata": "Q1340361",
        "brand:wikipedia": "en:State Bank of India",
        "name": "State Bank of India",
        "name:kn": "ಮೈಸೂರು ಬ್ಯಾಂಕ್‌",
        "short_name": "SBI",
        "website": "https://www.sbi.co.in"
      }
    },
    {
      "type": "node",
      "id": 2090829415,
      "lat": 13.0103477,
      "lon": 77.5367403,
      "tags": {
        "amenity": "fuel",
        "brand": "Hindustan Petroleum",
        "brand:wikidata": "Q1619375",
        "name": "HP Petrol",
        "name:kn": "ಹಿಂದುಸ್ತಾನ್ ಪೆಟ್ರೋಲಿಯಂ",
        "official_name": "Hindustan Petroleum",
        "wheelchair": "yes"
      }
    },
    {
      "type": "node",
      "id": 6938690629,
      "lat": 13.0089953,
      "lon": 77.5406188,
      "tags": {
        "addr:district": "Bengaluru Urban",
        "addr:full": "41-42/5 7Th Cross, Saraswathipuram, Nandini Layout, Main Road",
        "addr:postcode": "560096",
        "addr:state": "Karnataka",
        "amenity": "hospital",
        "name": "Shankara Nethralaya Eye Hospital",
        "source": "OpenGovernmentData"
      }
    },
    {
      "type": "node",
      "id": 6944543261,
      "lat": 13.0098352,
      "lon": 77.5384723,
      "tags": {
        "addr:district": "Bengaluru Urban",
        "addr:full": "#4,Sfhs,Next To Nandini Layout",
        "addr:postcode": "560096",
        "addr:state": "Karnataka",
        "amenity": "hospital",
        "healthcare": "hospital",
        "healthcare:speciality": "blood_check;general",
        "name": "J.P.Nursing Home",
        "opening_hours": "24/7",
        "operator": "Jyothi Prakash",
        "operator:type": "public",
        "source": "OpenGovernmentData"
      }
    },
    {
      "type": "node",
      "id": 8187929872,
      "lat": 13.0092756,
      "lon": 77.5375966,
      "tags": {
        "addr:full": "Saraswathipura, Nandini Layout, Bengaluru, Karnataka",
        "addr:state": "Karnataka",
        "amenity": "atm",
        "brand": "Axis Bank",
        "brand:wikidata": "Q2003549",
        "name": "Axis Bank",
        "name:kn": "ಆಕ್ಸಿಸ್ ಬ್ಯಾಂಕ್ ಎಟಿಎಂ",
        "operator": "Axis Bank",
        "operator:wikidata": "Q2003549"
      }
    },
    {
      "type": "node",
      "id": 12985592701,
      "lat": 13.0110387,
      "lon": 77.5394468,
      "tags": {
        "addr:housenumber": "0",
        "addr:postcode": "560096",
        "addr:street": "11th Main Road",
        "amenity": "school",
        "name": "SG International Public School",
        "opening_hours": "Mo-Sa 09:00-05:00"
      }
    },
    {
      "type": "node",
      "id": 12985592707,
      "lat": 13.0114927,
      "lon": 77.5395216,
      "tags": {
        "addr:postcode": "560096",
        "amenity": "kindergarten",
        "name": "Happy Hoots Play School",
        "opening_hours": "Mo-Fr 10:00-01:00"
      }
    },
    {
      "type": "node",
      "id": 12985593409,
      "lat": 13.0100309,
      "lon": 77.5386261,
      "tags": {
        "addr:postcode": "560096",
        "addr:street": "4th Cross Road",
        "name": "Vijaya Krishna Bakery",
        "opening_hours": "Mo-Su 08:00-09:30",
        "shop": "bakery"
      }
    },
    {
      "type": "node",
      "id": 12985593906,
      "lat": 13.0117456,
      "lon": 77.5391611,
      "tags": {
        "leisure": "park",
        "name": "BBMP Park"
      }
    },
    {
      "type": "node",
      "id": 12985593907,
      "lat": 13.0092475,
      "lon": 77.5383111,
      "tags": {
        "addr:postcode": "560096",
        "addr:street": "Saraswathipuram Main Road",
        "amenity": "place_of_worship",
        "name": "Ganesha Temple"
      }
    },
    {
      "type": "node",
      "id": 12985594010,
      "lat": 13.0109802,
      "lon": 77.5398828,
      "tags": {
        "addr:postcode": "560096",
        "name": "Shahana Home Needs",
        "shop": "grocery"
      }
    },
    {
      "type": "node",
      "id": 12985604701,
      "lat": 13.009385,
      "lon": 77.538382,
      "tags": {
        "addr:postcode": "560096",
        "amenity": "restaurant",
        "name": "Sannidhi Grand"
      }
    },
    {
      "type": "node",
      "id": 12985610202,
      "lat": 13.0099404,
      "lon": 77.5390596,
      "tags": {
        "addr:postcode": "560096",
        "addr:street": "4th Cross Road",
        "amenity": "pharmacy",
        "healthcare": "pharmacy",
        "name": "Sri Ram Medical Store"
      }
    },
    {
      "type": "node",
      "id": 12985610401,
      "lat": 13.00911,
      "lon": 77.5382451,
      "tags": {
        "addr:postcode": "560096",
        "addr:street": "Saraswathipuram Main Road",
        "amenity": "pharmacy",
        "brand": "MedPlus",
        "brand:wikidata": "Q65684234",
        "healthcare": "pharmacy",
        "name": "MedPlus"
      }
    },
    {
      "type": "way",
      "id": 94441458,
      "center": {
        "lat": 13.0114373,
        "lon": 77.5366935
      },
      "tags": {
        "leisure": "park",
        "name": "Circular Park, Nandini Layout"
      }
    },
    {
      "type": "way",
      "id": 199023678,
      "center": {
        "lat": 13.0131335,
        "lon": 77.5352168
      },
      "tags": {
        "leisure": "park"
      }
    },
    {
      "type": "way",
      "id": 199023743,
      "center": {
        "lat": 13.0135226,
        "lon": 77.5356976
      },
      "tags": {
        "leisure": "park"
      }
    },
    {
      "type": "way",
      "id": 199023744,
      "center": {
        "lat": 13.0126462,
        "lon": 77.5349444
      },
      "tags": {
        "leisure": "park"
      }
    },
    {
      "type": "way",
      "id": 199023745,
      "center": {
        "lat": 13.0125724,
        "lon": 77.535532
      },
      "tags": {
        "leisure": "park"
      }
    },
    {
      "type": "way",
      "id": 199023795,
      "center": {
        "lat": 13.0113749,
        "lon": 77.5374511
      },
      "tags": {
        "amenity": "library",
        "name": "Nandini Layout Public Library",
        "name:kn": "ನಂದಿನಿ ಬಡಾವಣೆ ಗ್ರಂಥಾಲಯ"
      }
    },
    {
      "type": "way",
      "id": 363130685,
      "center": {
        "lat": 13.0111543,
        "lon": 77.531594
      },
      "tags": {
        "leisure": "park"
      }
    },
    {
      "type": "way",
      "id": 1271969090,
      "center": {
        "lat": 13.0115825,
        "lon": 77.535844
      },
      "tags": {
        "amenity": "bus_station",
        "name": "Nandini Layout",
        "name:kn": "ನಂದಿನಿ ಲೇಔಟ್",
        "wheelchair": "limited"
      }
    }
  ]
}