{
  "area_name": "Jakkur Plantation",
  "osm_id": 9940037948,
  "osm_type": "node",
  "place_type": "neighbourhood",
  "amenity_count": 57,
  "amenities": [
    {
      "type": "node",
      "id": 4490349010,
      "lat": 13.0902404,
      "lon": 77.6024288,
      "tags": {
        "addr:city": "Bengaluru, Karnataka",
        "addr:housenumber": "No:55,,",
        "addr:postcode": "560064",
        "addr:street": "Jakkur Main Road,, Shivanahalli,, Yelahanka,,",
        "name": "Multi Mart Super Market",
        "phone": "(91)-8105063226",
        "shop": "supermarket"
      }
    },
    {
      "type": "node",
      "id": 4834827722,
      "lat": 13.0865943,
      "lon": 77.5912059,
      "tags": {
        "amenity": "restaurant",
        "name": "9th Mile Dhaba",
        "name:en": "9th Mile Dhaba"
      }
    },
    {
      "type": "node",
      "id": 5524163950,
      "lat": 13.0758553,
      "lon": 77.6017317,
      "tags": {
        "name": "Austin Plywood",
        "shop": "craft"
      }
    },
    {
      "type": "node",
      "id": 5524165025,
      "lat": 13.0754431,
      "lon": 77.6016945,
      "tags": {
        "name": "Krona international",
        "shop": "doityourself"
      }
    },
    {
      "type": "node",
      "id": 5524165122,
      "lat": 13.0759489,
      "lon": 77.6018756,
      "tags": {
        "name": "Blue mas butterfly",
        "shop": "clothes"
      }
    },
    {
      "type": "node",
      "id": 10274195709,
      "lat": 13.0770305,
      "lon": 77.5922254,
      "tags": {
        "addr:postcode": "560064",
        "addr:street": "Judicial Layout, 80 feet road",
        "amenity": "restaurant",
        "cuisine": "chinese;indian",
        "diet:vegetarian": "yes",
        "internet_access": "wlan",
        "name": "UDAY HUTS",
        "phone": "+919880275789"
      }
    },
    {
      "type": "node",
      "id": 11817854343,
      "lat": 13.0872716,
      "lon": 77.5973622,
      "tags": {
        "amenity": "shelter",
        "shelter_type": "gazebo"
      }
    },
    {
      "type": "node",
      "id": 11817854344,
      "lat": 13.0878372,
      "lon": 77.5974601,
      "tags": {
        "amenity": "shelter",
        "shelter_type": "gazebo"
      }
    },
    {
      "type": "node",
      "id": 11817854563,
      "lat": 13.0807219,
      "lon": 77.5925088,
      "tags": {
        "brand": "Renault",
        "brand:wikidata": "Q6686",
        "name": "Renault",
        "shop": "car"
      }
    },
    {
      "type": "node",
      "id": 11817854570,
      "lat": 13.0795514,
      "lon": 77.59238,
      "tags": {
        "amenity": "restaurant",
        "name": "The Fisherman's Wharf"
      }
    },
    {
      "type": "node",
      "id": 12225535088,
      "lat": 13.0809047,
      "lon": 77.5928822,
      "tags": {
        "amenity": "cafe",
        "diet:vegetarian": "yes",
        "name": "The Idli Foundry"
      }
    },
    {
      "type": "node",
      "id": 12395928079,
      "lat": 13.0796102,
      "lon": 77.592081,
      "tags": {
        "addr:city": "Bengaluru",
        "addr:street": "Bellary Road",
        "addr:suburb": "Yelahanka",
        "amenity": "bar",
        "name": "Nido",
        "opening_hours": "Tu-Su 12:00-00:00"
      }
    },
    {
      "type": "node",
      "id": 12955486692,
      "lat": 13.0850755,
      "lon": 77.6055383,
      "tags": {
        "check_date:currency:XBT": "2025-06-27",
        "contact:instagram": "https://www.instagram.com/mr_meadow/",
        "contact:twitter": "https://x.com/meadow_mr",
        "currency:XBT": "yes",
        "description": "Bitcoin Art, T-shirts and Customer Care.",
        "name": "Bitcoin Art India",
        "opening_hours": "Mo-Fr 09:00-23:00",
        "payment:lightning": "yes",
        "payment:lightning_contactless": "no",
        "payment:onchain": "yes",
        "phone": "+91-8722-488683",
        "shop": "art",
        "website": "https://www.mrmeadow.org/"
      }
    },
    {
      "type": "node",
      "id": 13013978924,
      "lat": 13.0792013,
      "lon": 77.5920139,
      "tags": {
        "amenity": "pub",
        "name": "The Brew Factory"
      }
    },
    {
      "type": "node",
      "id": 13013978925,
      "lat": 13.079106,
      "lon": 77.5924753,
      "tags": {
        "amenity": "restaurant",
        "name": "The Food Factory"
      }
    },
    {
      "type": "node",
      "id": 13013978926,
      "lat": 13.0788957,
      "lon": 77.5924578,
      "tags": {
        "amenity": "restaurant",
        "name": "The Fisherman's Wharf"
      }
    },
    {
      "type": "node",
      "id": 13155767269,
      "lat": 13.0829906,
      "lon": 77.5941613,
      "tags": {
        "check_date": "2025-09-19",
        "name": "Luxurian",
        "shop": "furniture"
      }
    },
    {
      "type": "node",
      "id": 13155767270,
      "lat": 13.083187,
      "lon": 77.5941925,
      "tags": {
        "brand": "Škoda",
        "brand:wikidata": "Q29637",
        "check_date": "2025-09-19",
        "name": "Škoda",
        "shop": "car"
      }
    },
    {
      "type": "way",
      "id": 82508422,
      "center": {
        "lat": 13.083563,
        "lon": 77.5908706
      },
      "tags": {
        "amenity": "college",
        "landuse": "farmland",
        "name": "Central Institute of Medicinal and Aromatic Plants",
        "name:kn": "ಕೇಂದ್ರಿಯ ಔಷಧೀಯ ಮತ್ತು ಸುವಾಸನೆ ಗಿಡಮೂಲಿಕೆಗಳ ಸಂಸ್ಥೆ"
      }
    },
    {
      "type": "way",
      "id": 176068554,
      "center": {
        "lat": 13.0834616,
        "lon": 77.6008988
      },
      "tags": {
        "amenity": "parking",
        "parking": "surface"
      }
    },
    {
      "type": "way",
      "id": 176068556,
      "center": {
        "lat": 13.084355,
        "lon": 77.6012808
      },
      "tags": {
        "access": "private",
        "leisure": "pitch",
        "sport": "tennis"
      }
    },
    {
      "type": "way",
      "id": 176068557,
      "center": {
        "lat": 13.0852933,
        "lon": 77.6015135
      },
      "tags": {
        "access": "private",
        "leisure": "park"
      }
    },
    {
      "type": "way",
      "id": 176068561,
      "center": {
        "lat": 13.0852358,
        "lon": 77.6016748
      },
      "tags": {
        "access": "private",
        "covered": "no",
        "leisure": "swimming_pool",
        "sport": "swimming"
      }
    },
    {
      "type": "way",
      "id": 176068563,
      "center": {
        "lat": 13.0852026,
        "lon": 77.6018488
      },
      "tags": {
        "leisure": "recreation_ground",
        "name": "Club House & Gym"
      }
    },
    {
      "type": "way",
      "id": 363612211,
      "center": {
        "lat": 13.0863776,
        "lon": 77.5919964
      },
      "tags": {
        "alt_name": "Orchid Hotel",
        "landuse": "commercial",
        "leisure": "resort",
        "name": "Royal Orchid Hotel and Convention Centre",
        "swimming_pool": "outdoor",
        "tourism": "hotel"
      }
    },
    {
      "type": "way",
      "id": 368126724,
      "center": {
        "lat": 13.087543,
        "lon": 77.5971936
      },
      "tags": {
        "addr:city": "Bangalore Urban",
        "addr:postcode": "560064",
        "amenity": "school",
        "name": "Vidya Shilp Academy"
      }
    },
    {
      "type": "way",
      "id": 420777805,
      "center": {
        "lat": 13.0866878,
        "lon": 77.5916755
      },
      "tags": {
        "leisure": "swimming_pool",
        "name": "Royal Orchid"
      }
    },
    {
      "type": "way",
      "id": 736945762,
      "center": {
        "lat": 13.0860157,
        "lon": 77.6011067
      },
      "tags": {
        "access": "private",
        "leisure": "swimming_pool"
      }
    },
    {
      "type": "way",
      "id": 774716193,
      "center": {
        "lat": 13.0912753,
        "lon": 77.5935109
      },
      "tags": {
        "brand": "Suzuki",
        "landuse": "commercial",
        "name": "Nexa",
        "shop": "car"
      }
    },
    {
      "type": "way",
      "id": 1068394021,
      "center": {
        "lat": 13.0813774,
        "lon": 77.5927865
      },
      "tags": {
        "amenity": "fuel",
        "brand": "Hindustan Petroleum",
        "brand:wikidata": "Q1619375",
        "check_date": "2024-10-13",
        "name": "HP Petrol / Gas Station",
        "official_name": "Hindustan Petroleum",
        "operator": "HP"
      }
    },
    {
      "type": "way",
      "id": 1082671466,
      "center": {
        "lat": 13.0874259,
        "lon": 77.5982352
      },
      "tags": {
        "access": "private",
        "leisure": "swimming_pool"
      }
    },
    {
      "type": "way",
      "id": 1084735123,
      "center": {
        "lat": 13.0873487,
        "lon": 77.6024074
      },
      "tags": {
        "amenity": "school",
        "name": "Indira Gandhi International Academy",
        "name:etymology:wikidata": "Q1149"
      }
    },
    {
      "type": "way",
      "id": 1182968252,
      "center": {
        "lat": 13.0764404,
        "lon": 77.6024283
      },
      "tags": {
        "alt_name": "Rajyoga Retreat Center",
        "amenity": "monastery",
        "healthcare": "alternative",
        "name": "Brahma Kumaris",
        "name:kn": "ಬ್ರಹ್ಮ ಕುಮಾರಿಸ್",
        "religion": "hindu",
        "website": "https://www.brahmakumaris.com/"
      }
    },
    {
      "type": "way",
      "id": 1182968254,
      "center": {
        "lat": 13.0760636,
        "lon": 77.6037727
      },
      "tags": {
        "amenity": "school",
        "name": "Government School",
        "name:kn": "ಸರ್ಕಾರಿ ಶಾಲೆ"
      }
    },
    {
      "type": "way",
      "id": 1182968257,
      "center": {
        "lat": 13.082237,
        "lon": 77.6040651
      },
      "tags": {
        "leisure": "park"
      }
    },
    {
      "type": "way",
      "id": 1182968261,
      "center": {
        "lat": 13.0803587,
        "lon": 77.6053083
      },
      "tags": {
        "leisure": "sports_centre",
        "name": "Sobha Academy"
      }
    },
    {
      "type": "way",
      "id": 1182968264,
      "center": {
        "lat": 13.0812359,
        "lon": 77.6057596
      },
      "tags": {
        "access": "permissive",
        "leisure": "swimming_pool"
      }
    },
    {
      "type": "way",
      "id": 1186494035,
      "center": {
        "lat": 13.0874394,
        "lon": 77.5895866
      },
      "tags": {
        "amenity": "college",
        "name": "Manipal Institute of Regenerative Medicine"
      }
    },
    {
      "type": "way",
      "id": 1188428144,
      "center": {
        "lat": 13.0860544,
        "lon": 77.5993477
      },
      "tags": {
        "access": "private",
        "leisure": "park"
      }
    },
    {
      "type": "way",
      "id": 1208006648,
      "center": {
        "lat": 13.0859115,
        "lon": 77.6002552
      },
      "tags": {
        "access": "private",
        "leisure": "park"
      }
    },
    {
      "type": "way",
      "id": 1243274910,
      "center": {
        "lat": 13.0872617,
        "lon": 77.5921952
      },
      "tags": {
        "amenity": "fuel",
        "brand": "Nayara",
        "brand:wikidata": "Q5399377",
        "name": "Nayara"
      }
    },
    {
      "type": "way",
      "id": 1243274913,
      "center": {
        "lat": 13.086954,
        "lon": 77.5907296
      },
      "tags": {
        "access": "private",
        "amenity": "parking",
        "parking": "surface"
      }
    },
    {
      "type": "way",
      "id": 1272659087,
      "center": {
        "lat": 13.0898032,
        "lon": 77.5972221
      },
      "tags": {
        "amenity": "events_venue",
        "landuse": "commercial",
        "name": "Madhura Milana Convention Centre"
      }
    },
    {
      "type": "way",
      "id": 1272659089,
      "center": {
        "lat": 13.0873513,
        "lon": 77.5977404
      },
      "tags": {
        "leisure": "pitch",
        "sport": "basketball"
      }
    },
    {
      "type": "way",
      "id": 1272659090,
      "center": {
        "lat": 13.0876381,
        "lon": 77.5977867
      },
      "tags": {
        "leisure": "pitch",
        "sport": "basketball"
      }
    },
    {
      "type": "way",
      "id": 1279043202,
      "center": {
        "lat": 13.0825749,
        "lon": 77.6040168
      },
      "tags": {
        "leisure": "park"
      }
    },
    {
      "type": "way",
      "id": 1303487956,
      "center": {
        "lat": 13.0887527,
        "lon": 77.6005272
      },
      "tags": {
        "access": "private",
        "leisure": "swimming_pool"
      }
    },
    {
      "type": "way",
      "id": 1324157726,
      "center": {
        "lat": 13.0875097,
        "lon": 77.5922646
      },
      "tags": {
        "amenity": "fuel",
        "brand": "Essar",
        "brand:wikidata": "Q5399372",
        "brand:wikipedia": "https://en.m.wikipedia.org/wiki/Essar_Energy",
        "name": "Essar"
      }
    },
    {
      "type": "way",
      "id": 1378947158,
      "center": {
        "lat": 13.0894661,
        "lon": 77.6028702
      },
      "tags": {
        "leisure": "park"
      }
    },
    {
      "type": "way",
      "id": 1379543535,
      "center": {
        "lat": 13.082011,
        "lon": 77.6001323
      },
      "tags": {
        "access": "private",
        "leisure": "park"
      }
    },
    {
      "type": "way",
      "id": 1379543536,
      "center": {
        "lat": 13.0821002,
        "lon": 77.5999288
      },
      "tags": {
        "access": "private",
        "leisure": "swimming_pool"
      }
    },
    {
      "type": "way",
      "id": 1379543537,
      "center": {
        "lat": 13.0816183,
        "lon": 77.6000124
      },
      "tags": {
        "access": "private",
        "leisure": "pitch",
        "sport": "tennis"
      }
    },
    {
      "type": "way",
      "id": 1379543542,
      "center": {
        "lat": 13.0831098,
        "lon": 77.5952671
      },
      "tags": {
        "amenity": "school",
        "name": "Vidya Prakash High School"
      }
    },
    {
      "type": "way",
      "id": 1379543549,
      "center": {
        "lat": 13.0815615,
        "lon": 77.6013425
      },
      "tags": {
        "access": "private",
        "leisure": "swimming_pool"
      }
    },
    {
      "type": "way",
      "id": 1379543555,
      "center": {
        "lat": 13.083556,
        "lon": 77.6021756
      },
      "tags": {
        "access": "private",
        "leisure": "swimming_pool"
      }
    },
    {
      "type": "way",
      "id": 1392693060,
      "center": {
        "lat": 13.0880815,
        "lon": 77.5979483
      },
      "tags": {
        "access": "private",
        "amenity": "parking",
        "parking": "surface"
      }
    },
    {
      "type": "way",
      "id": 1455433882,
      "center": {
        "lat": 13.086194,
        "lon": 77.6031263
      },
      "tags": {
        "leisure": "park"
      }
    }
  ]
}