{
  "area_name": "Janatha Colony",
  "osm_id": 12672580967,
  "osm_type": "node",
  "place_type": "neighbourhood",
  "amenity_count": 11,
  "amenities": [
    {
      "type": "way",
      "id": 1127416863,
      "center": {
        "lat": 12.8645846,
        "lon": 77.699764
      },
      "tags": {
        "leisure": "pitch",
        "sport": "basketball"
      }
    },
    {
      "type": "way",
      "id": 1127416864,
      "center": {
        "lat": 12.8646849,
        "lon": 77.6996092
      },
      "tags": {
        "leisure": "pitch",
        "sport": "tennis"
      }
    },
    {
      "type": "way",
      "id": 1291974880,
      "center": {
        "lat": 12.8640726,
        "lon": 77.7002028
      },
      "tags": {
        "amenity": "monastery"
      }
    },
    {
      "type": "way",
      "id": 1359026715,
      "center": {
        "lat": 12.8684607,
        "lon": 77.6950496
      },
      "tags": {
        "leisure": "pitch",
        "sport": "soccer"
      }
    },
    {
      "type": "way",
      "id": 1364208261,
      "center": {
        "lat": 12.8766216,
        "lon": 77.6976246
      },
      "tags": {
        "leisure": "park"
      }
    },
    {
      "type": "way",
      "id": 1364208275,
      "center": {
        "lat": 12.8764822,
        "lon": 77.6975805
      },
      "tags": {
        "leisure": "pitch",
        "sport": "tennis"
      }
    },
    {
      "type": "way",
      "id": 1364208276,
      "center": {
        "lat": 12.876069,
        "lon": 77.6963662
      },
      "tags": {
        "leisure": "pitch",
        "sport": "tennis"
      }
    },
    {
      "type": "way",
      "id": 1368343959,
      "center": {
        "lat": 12.8749479,
        "lon": 77.7013592
      },
      "tags": {
        "amenity": "place_of_worship",
        "landuse": "religious",
        "religion": "hindu"
      }
    },
    {
      "type": "way",
      "id": 1368343979,
      "center": {
        "lat": 12.8741673,
        "lon": 77.6960489
      },
      "tags": {
        "access": "private",
        "leisure": "swimming_pool"
      }
    },
    {
      "type": "way",
      "id": 1413263560,
      "center": {
        "lat": 12.8673411,
        "lon": 77.690096
      },
      "tags": {
        "amenity": "place_of_worship",
        "building": "yes",
        "religion": "hindu"
      }
    },
    {
      "type": "way",
      "id": 1420117223,
      "center": {
        "lat": 12.8678078,
        "lon": 77.6872417
      },
      "tags": {
        "amenity": "school"
      }
    }
  ]
}