{
  "area_name": "Jaraganahalli",
  "osm_id": 19883456,
  "osm_type": "relation",
  "place_type": "administrative",
  "amenity_count": 18,
  "amenities": [
    {
      "type": "node",
      "id": 1922055380,
      "lat": 12.9017004,
      "lon": 77.5823794,
      "tags": {
        "name": "Posh Little",
        "note": "Baby Store",
        "shop": "toys"
      }
    },
    {
      "type": "node",
      "id": 2850537681,
      "lat": 12.9017134,
      "lon": 77.5824365,
      "tags": {
        "amenity": "library",
        "name": "Just Books CLC",
        "name:kn": "ಜಸ್ಟ್ ಬುಕ್ಸ್"
      }
    },
    {
      "type": "node",
      "id": 3016587966,
      "lat": 12.901616,
      "lon": 77.5822469,
      "tags": {
        "name": "James Bond Dry Cleaners",
        "shop": "dry_cleaning"
      }
    },
    {
      "type": "node",
      "id": 6531919903,
      "lat": 12.8951036,
      "lon": 77.5703915,
      "tags": {
        "addr:place": "Jaraganahalli",
        "amenity": "school",
        "isced:level": "3",
        "name": "Jyothi Kendriya Vidyalaya HPS, Jaragana Halli 1",
        "name:kn": "ಜ್ಯೋತಿ ಕೇಂದ್ರೀಯ ವಿದ್ಯಾಲಯ ಹಿರಿಯ ಪ್ರಾಥಮಿಕ ಶಾಲೆ,ಜರಗನ ಹಳ್ಳಿ",
        "operator": "Private Un-Aided",
        "school": "Higher Secondary"
      }
    },
    {
      "type": "node",
      "id": 6531943351,
      "lat": 12.9020965,
      "lon": 77.57588,
      "tags": {
        "addr:place": "Jaraganahalli",
        "amenity": "school",
        "isced:level": "2",
        "name": "Sri Vidyanikethan HPS Jaragana, Jaragana Halli 1",
        "name:kn": "ಶ್ರೀ ವಿದ್ಯಾನಿಕೆಥನ್ ಹಿರಿಯ ಪ್ರಾಥಮಿಕ ಶಾಲೆ ಜರಗನ ಹಳ್ಳಿ",
        "operator": "Private Un-Aided",
        "school": "Higher Primary"
      }
    },
    {
      "type": "node",
      "id": 6531954352,
      "lat": 12.8991056,
      "lon": 77.5763195,
      "tags": {
        "addr:place": "Jaraganahalli",
        "amenity": "school",
        "isced:level": "2",
        "name": "Vivekananda HPS, Jaragana Halli 1",
        "name:kn": "ವಿವೇಕಾನಂದ ಹಿರಿಯ ಪ್ರಾಥಮಿಕ ಶಾಲೆ,ಜರಗನ ಹಳ್ಳಿ",
        "operator": "Private Un-Aided",
        "school": "Higher Primary"
      }
    },
    {
      "type": "node",
      "id": 6536295717,
      "lat": 12.8996164,
      "lon": 77.5756288,
      "tags": {
        "addr:place": "Jaraganahalli",
        "amenity": "school",
        "isced:level": "2",
        "name": "Sincere Vidyalaya Jaraganahalli 1",
        "name:kn": "ಸಿನ್ಸೆರೆ  ವಿದ್ಯಾಲಯ ಜರಗನ ಹಳ್ಳಿ",
        "operator": "Private Un-Aided",
        "school": "Higher Primary"
      }
    },
    {
      "type": "node",
      "id": 12171236647,
      "lat": 12.9032735,
      "lon": 77.5737196,
      "tags": {
        "description": "Water filter and other consumables",
        "name": "Aqua World",
        "shop": "appliance"
      }
    },
    {
      "type": "node",
      "id": 12206369021,
      "lat": 12.8962804,
      "lon": 77.571013,
      "tags": {
        "name": "Zudio",
        "shop": "clothes"
      }
    },
    {
      "type": "node",
      "id": 12869993437,
      "lat": 12.8959767,
      "lon": 77.5702304,
      "tags": {
        "access": "permissive",
        "addr:floor": "1",
        "amenity": "toilets",
        "fee": "yes",
        "female": "yes",
        "fixme": "Accurate location within station",
        "level": "1",
        "male": "yes",
        "operator": "BMRCL",
        "toilets:handwashing": "yes",
        "toilets:position": "urinal"
      }
    },
    {
      "type": "node",
      "id": 13130809622,
      "lat": 12.9007691,
      "lon": 77.5737005,
      "tags": {
        "addr:city": "Bengaluru",
        "addr:district": "Bengaluru Urban",
        "addr:housenumber": "146",
        "addr:postcode": "560078",
        "addr:street": "Kanakapura Road",
        "name": "Sri Lakshmi Auto Electrical and Battery Works",
        "shop": "car_repair"
      }
    },
    {
      "type": "node",
      "id": 13180138045,
      "lat": 12.8962447,
      "lon": 77.5709505,
      "tags": {
        "name": "Star Bazar",
        "shop": "department_store"
      }
    },
    {
      "type": "way",
      "id": 466642967,
      "center": {
        "lat": 12.9028846,
        "lon": 77.5755502
      },
      "tags": {
        "barrier": "fence",
        "leisure": "park",
        "name": "Jaraganahalli Park",
        "name:kn": "ಜರಗನಹಳ್ಳಿ ಉದ್ಯಾನವನ",
        "name:ta": "ஜரகனஹல்லி பூங்கா"
      }
    },
    {
      "type": "way",
      "id": 1137982234,
      "center": {
        "lat": 12.900122,
        "lon": 77.5733646
      },
      "tags": {
        "addr:place": "Jaraganahalli",
        "amenity": "school",
        "isced:level": "2",
        "name": "GMPS Jaraganahalli",
        "name:kn": "ಸರ್ಕಾರಿ ಮರಾಠ ಹಿರಿಯ ಪ್ರಾಥಮಿಕ ಶಾಲೆ ಜರಗನಹಳ್ಳಿ",
        "operator": "Department of Education",
        "school": "primary"
      }
    },
    {
      "type": "way",
      "id": 1270788423,
      "center": {
        "lat": 12.8983062,
        "lon": 77.5778787
      },
      "tags": {
        "leisure": "park"
      }
    },
    {
      "type": "way",
      "id": 1428268204,
      "center": {
        "lat": 12.9013783,
        "lon": 77.5741397
      },
      "tags": {
        "leisure": "garden"
      }
    },
    {
      "type": "way",
      "id": 1428268205,
      "center": {
        "lat": 12.9013756,
        "lon": 77.5740871
      },
      "tags": {
        "access": "private",
        "leisure": "swimming_pool"
      }
    },
    {
      "type": "way",
      "id": 1434002507,
      "center": {
        "lat": 12.8965526,
        "lon": 77.5710357
      },
      "tags": {
        "amenity": "fuel",
        "brand": "Indian Oil",
        "brand:wikidata": "Q1289348",
        "name": "Indian Oil"
      }
    }
  ]
}