{
  "area_name": "Jaya Chamarajendra Nagara",
  "osm_id": 19883258,
  "osm_type": "relation",
  "place_type": "administrative",
  "amenity_count": 22,
  "amenities": [
    {
      "type": "node",
      "id": 1060580204,
      "lat": 13.006983,
      "lon": 77.5928253,
      "tags": {
        "addr:postcode": "560005",
        "addr:street": "Jayamahal Road",
        "amenity": "post_office",
        "name": "J C Nagar Post Office"
      }
    },
    {
      "type": "node",
      "id": 1422401765,
      "lat": 13.0231839,
      "lon": 77.6004176,
      "tags": {
        "addr:street": "Dinnur Main Road",
        "name": "Super Market",
        "shop": "supermarket"
      }
    },
    {
      "type": "node",
      "id": 2210804567,
      "lat": 13.023275,
      "lon": 77.6002829,
      "tags": {
        "name": "Blue Rose, Home Needs",
        "shop": "convenience"
      }
    },
    {
      "type": "node",
      "id": 2210806496,
      "lat": 13.0232222,
      "lon": 77.6003506,
      "tags": {
        "shop": "greengrocer"
      }
    },
    {
      "type": "node",
      "id": 2214747042,
      "lat": 13.0222291,
      "lon": 77.6004298,
      "tags": {
        "amenity": "atm",
        "operator": "ICICI"
      }
    },
    {
      "type": "node",
      "id": 3363186002,
      "lat": 13.0199268,
      "lon": 77.5951979,
      "tags": {
        "amenity": "atm"
      }
    },
    {
      "type": "node",
      "id": 4237195595,
      "lat": 13.00579,
      "lon": 77.5932698,
      "tags": {
        "amenity": "bank",
        "brand": "Axis Bank",
        "brand:wikidata": "Q2003549",
        "brand:wikipedia": "en:Axis Bank",
        "name": "Axis Bank",
        "name:en": "Axis Bank",
        "name:kn": "ಅಕ್ಸಿಸ್ ಬ್ಯಾಂಕ್",
        "website": "https://www.axisbank.com"
      }
    },
    {
      "type": "node",
      "id": 4446970715,
      "lat": 13.0192775,
      "lon": 77.5968129,
      "tags": {
        "addr:city": "bangalore",
        "addr:housenumber": "76",
        "addr:postcode": "560032",
        "addr:street": "14th Cross Rd, Thimaiah Garden, Devara Jeevanahalli",
        "amenity": "pharmacy",
        "name": "Rajkumar Diagnostics",
        "phone": "+919538244420",
        "source": "www.justdial.com"
      }
    },
    {
      "type": "node",
      "id": 4489095061,
      "lat": 13.0168374,
      "lon": 77.5952157,
      "tags": {
        "addr:city": "bangalore",
        "addr:housenumber": "1/5",
        "addr:postcode": "560032",
        "addr:street": "B/H Nilgiris Next Copn Scholl, Opposite Anjeya Temple, 1st Main, 1st Cross, R T Nagar, R T Nagar, Bhadrappa Layout, RT Nagar",
        "name": "Vinayaka Sports World",
        "opening_hours": "10:00-21:00",
        "phone": "098453 58652",
        "shop": "sports"
      }
    },
    {
      "type": "node",
      "id": 5862563585,
      "lat": 13.0099448,
      "lon": 77.5907516,
      "tags": {
        "amenity": "bench"
      }
    },
    {
      "type": "node",
      "id": 5862563685,
      "lat": 13.006676,
      "lon": 77.5930473,
      "tags": {
        "amenity": "place_of_worship",
        "check_date": "2025-03-26",
        "religion": "hindu"
      }
    },
    {
      "type": "node",
      "id": 6945075435,
      "lat": 13.015884,
      "lon": 77.5973475,
      "tags": {
        "addr:district": "Bengaluru Urban",
        "addr:full": "No 29, 9Th Cross Adi Kabir Ashram Road,H.D Devegowda Road",
        "addr:postcode": "560037",
        "addr:state": "Karnataka",
        "amenity": "hospital",
        "name": "V Care Hospital",
        "source": "OpenGovernmentData"
      }
    },
    {
      "type": "node",
      "id": 7087593358,
      "lat": 13.0062133,
      "lon": 77.5931539,
      "tags": {
        "amenity": "fast_food",
        "name": "Udupi Veg"
      }
    },
    {
      "type": "node",
      "id": 8911008862,
      "lat": 13.010028,
      "lon": 77.5906928,
      "tags": {
        "shop": "camera"
      }
    },
    {
      "type": "way",
      "id": 45739922,
      "center": {
        "lat": 13.0184494,
        "lon": 77.595658
      },
      "tags": {
        "amenity": "school"
      }
    },
    {
      "type": "way",
      "id": 45740308,
      "center": {
        "lat": 13.0194919,
        "lon": 77.5962353
      },
      "tags": {
        "leisure": "park"
      }
    },
    {
      "type": "way",
      "id": 45740328,
      "center": {
        "lat": 13.0209333,
        "lon": 77.5984875
      },
      "tags": {
        "landuse": "commercial",
        "leisure": "resort",
        "name": "Patel's Inn Resort"
      }
    },
    {
      "type": "way",
      "id": 133488225,
      "center": {
        "lat": 13.0131503,
        "lon": 77.5937948
      },
      "tags": {
        "amenity": "cinema",
        "name": "Radhakrishna Theatre",
        "name:kn": "ರಾಧಾಕೃಷ್ಣ ಚಿತ್ರಮಂದಿರ"
      }
    },
    {
      "type": "way",
      "id": 796374051,
      "center": {
        "lat": 13.0099309,
        "lon": 77.5941222
      },
      "tags": {
        "addr:district": "Bengaluru",
        "addr:full": "Munireddypalya, J.C.Nagar, Bengaluru",
        "addr:postcode": "560006",
        "addr:state": "Karnataka",
        "amenity": "hospital",
        "name": "JC Nagar Municipal Hospital",
        "source": "OpenGovernmentData"
      }
    },
    {
      "type": "way",
      "id": 839044763,
      "center": {
        "lat": 13.0194822,
        "lon": 77.5946407
      },
      "tags": {
        "leisure": "park"
      }
    },
    {
      "type": "way",
      "id": 1023657480,
      "center": {
        "lat": 13.0141331,
        "lon": 77.5938747
      },
      "tags": {
        "amenity": "place_of_worship",
        "religion": "hindu"
      }
    },
    {
      "type": "way",
      "id": 1023657481,
      "center": {
        "lat": 13.0123443,
        "lon": 77.5946694
      },
      "tags": {
        "amenity": "school"
      }
    }
  ]
}