{
  "area_name": "JK Pura",
  "osm_id": 12104424609,
  "osm_type": "node",
  "place_type": "neighbourhood",
  "amenity_count": 408,
  "amenities": [
    {
      "type": "node",
      "id": 315207084,
      "lat": 12.9537994,
      "lon": 77.5925553,
      "tags": {
        "amenity": "toilets",
        "survey:date": "2024-02-01"
      }
    },
    {
      "type": "node",
      "id": 317119985,
      "lat": 12.9543746,
      "lon": 77.5930172,
      "tags": {
        "amenity": "restaurant",
        "brand": "Adyar Ananda Bhavan",
        "brand:wikidata": "Q15178238",
        "name": "Adyar Ananda Bhavan",
        "name:kn": "ಕದಂಬ ವೆಜ್",
        "opening_hours": "PH,Mo-Su 07:00-22:30",
        "shop": "confectionery",
        "survey:date": "2024-02-01"
      }
    },
    {
      "type": "node",
      "id": 577393706,
      "lat": 12.9547341,
      "lon": 77.593073,
      "tags": {
        "amenity": "taxi",
        "auto_rickshaw": "yes",
        "fee": "yes"
      }
    },
    {
      "type": "node",
      "id": 577394250,
      "lat": 12.9511843,
      "lon": 77.5919036,
      "tags": {
        "amenity": "toilets"
      }
    },
    {
      "type": "node",
      "id": 579371985,
      "lat": 12.9430867,
      "lon": 77.5994637,
      "tags": {
        "amenity": "school",
        "name": "Madrasa-e Arabiya",
        "name:kn": "ಮದ್ರಸ ಎ ಅರಬಿಯ"
      }
    },
    {
      "type": "node",
      "id": 644420166,
      "lat": 12.9600242,
      "lon": 77.6015444,
      "tags": {
        "amenity": "restaurant",
        "name": "Sandhya Sagar",
        "name:kn": "ಸಂಧ್ಯಾ ಸಾಗರ್"
      }
    },
    {
      "type": "node",
      "id": 1101839426,
      "lat": 12.9455764,
      "lon": 77.5965053,
      "tags": {
        "addr:street": "MariGowda Road",
        "amenity": "place_of_worship",
        "check_date": "2024-10-23",
        "name": "C. S. I. T. A. Shanti Church",
        "religion": "christian"
      }
    },
    {
      "type": "node",
      "id": 1342910456,
      "lat": 12.9516439,
      "lon": 77.5950678,
      "tags": {
        "shop": "motorcycle"
      }
    },
    {
      "type": "node",
      "id": 1474476995,
      "lat": 12.9429045,
      "lon": 77.5977165,
      "tags": {
        "amenity": "place_of_worship",
        "name": "Ganesha Temple",
        "name:kn": "ಗಣೇಶ ದೇವಸ್ಥಾನ",
        "religion": "hindu"
      }
    },
    {
      "type": "node",
      "id": 1474509222,
      "lat": 12.9459429,
      "lon": 77.5956857,
      "tags": {
        "amenity": "restaurant",
        "name": "Jade Empress",
        "name:kn": "ಜೇಡ್ ಎಂಪ್ರೆಸ್"
      }
    },
    {
      "type": "node",
      "id": 1474509677,
      "lat": 12.9459575,
      "lon": 77.5951685,
      "tags": {
        "amenity": "restaurant",
        "name": "Keys Hotel",
        "name:kn": "ಕೀಸ್ ಹೋಟೆಲ್"
      }
    },
    {
      "type": "node",
      "id": 1474510894,
      "lat": 12.9467025,
      "lon": 77.5942807,
      "tags": {
        "amenity": "place_of_worship",
        "name": "Raghavendra Swamy Temple",
        "name:kn": "ರಾಘವೇಂದ್ರ ಸ್ವಾಮಿ ದೇವಸ್ಥಾನ",
        "religion": "hindu"
      }
    },
    {
      "type": "node",
      "id": 1474511948,
      "lat": 12.9483598,
      "lon": 77.5940621,
      "tags": {
        "addr:district": "Bengaluru Urban",
        "addr:full": "87/2, 8Th Cross,Wilson Garden",
        "addr:postcode": "560027",
        "addr:state": "Karnataka",
        "amenity": "hospital",
        "healthcare": "hospital",
        "name": "Manjunath Hospital",
        "name:kn": "ಮಂಜುನಾಥ ಆಸ್ಪತ್ರೆ",
        "source": "OpenGovernmentData"
      }
    },
    {
      "type": "node",
      "id": 1474512442,
      "lat": 12.9484356,
      "lon": 77.5942592,
      "tags": {
        "addr:street": "8th Cross",
        "amenity": "hospital",
        "healthcare": "hospital",
        "name": "Karthik Hospital",
        "name:kn": "ಕಾರ್ತಿಕ್ ಆಸ್ಪತ್ರೆ"
      }
    },
    {
      "type": "node",
      "id": 1474512610,
      "lat": 12.9494002,
      "lon": 77.5926204,
      "tags": {
        "amenity": "restaurant",
        "name": "Bhagini Hotel",
        "name:kn": "ಭಾಗಿನಿ ಹೋಟೆಲ್",
        "wheelchair": "no"
      }
    },
    {
      "type": "node",
      "id": 1603318749,
      "lat": 12.9441664,
      "lon": 77.5969354,
      "tags": {
        "amenity": "college",
        "name": "Bangalore Institute of Dental Sciences",
        "website": "https://bidsinstitution.com/"
      }
    },
    {
      "type": "node",
      "id": 1603318755,
      "lat": 12.9510846,
      "lon": 77.5955162,
      "tags": {
        "amenity": "doctors",
        "name": "Swetha Clinic"
      }
    },
    {
      "type": "node",
      "id": 1603318780,
      "lat": 12.9481696,
      "lon": 77.5986927,
      "tags": {
        "amenity": "atm",
        "brand": "Corporation Bank",
        "brand:wikidata": "Q2003387",
        "name": "Corporation Bank",
        "operator": "Corporation Bank",
        "operator:wikidata": "Q2003387"
      }
    },
    {
      "type": "node",
      "id": 1603318781,
      "lat": 12.9488718,
      "lon": 77.5977625,
      "tags": {
        "amenity": "atm",
        "brand": "Karnataka Bank",
        "brand:wikidata": "Q2042632",
        "name": "Karnataka Bank",
        "name:kn": "ಕರ್ನಾಟಕ ಬ್ಯಾಂಕ್",
        "operator": "Karnataka Bank",
        "operator:wikidata": "Q2042632"
      }
    },
    {
      "type": "node",
      "id": 1773364555,
      "lat": 12.9456792,
      "lon": 77.5960812,
      "tags": {
        "amenity": "atm",
        "brand": "Canara Bank",
        "brand:en": "Canara Bank",
        "brand:hi": "केनरा बैंक",
        "brand:kn": "ಕೆನರಾ ಬ್ಯಾಂಕ್",
        "brand:pa": "ਕੇਨਰਾ ਬੈਂਕ",
        "brand:pnb": "کینرا بینک",
        "brand:ur": "کینرا بینک",
        "brand:wikidata": "Q2003777",
        "name": "Canara Bank",
        "name:en": "Canara Bank",
        "name:hi": "केनरा बैंक",
        "name:kn": "ಕೆನರಾ ಬ್ಯಾಂಕ್",
        "name:pa": "ਕੇਨਰਾ ਬੈਂਕ",
        "name:pnb": "کینرا بینک",
        "name:ur": "کینرا بینک",
        "operator": "Canara Bank",
        "operator:wikidata": "Q2003777"
      }
    },
    {
      "type": "node",
      "id": 1851614956,
      "lat": 12.9596191,
      "lon": 77.6026157,
      "tags": {
        "name": "Namdharis",
        "shop": "supermarket"
      }
    },
    {
      "type": "node",
      "id": 1851615731,
      "lat": 12.958286,
      "lon": 77.605196,
      "tags": {
        "amenity": "restaurant",
        "cuisine": "international",
        "name": "Y! Cafe"
      }
    },
    {
      "type": "node",
      "id": 1851688340,
      "lat": 12.9602214,
      "lon": 77.6017286,
      "tags": {
        "shop": "alcohol"
      }
    },
    {
      "type": "node",
      "id": 1851701176,
      "lat": 12.9597386,
      "lon": 77.6018505,
      "tags": {
        "shop": "laundry"
      }
    },
    {
      "type": "node",
      "id": 1851701311,
      "lat": 12.9596942,
      "lon": 77.6018371,
      "tags": {
        "shop": "greengrocer"
      }
    },
    {
      "type": "node",
      "id": 1851701331,
      "lat": 12.9583088,
      "lon": 77.6022126,
      "tags": {
        "name": "Neelam Stores",
        "shop": "convenience"
      }
    },
    {
      "type": "node",
      "id": 1930675161,
      "lat": 12.9496534,
      "lon": 77.5966436,
      "tags": {
        "name": "Maariyah Opticals",
        "shop": "optician"
      }
    },
    {
      "type": "node",
      "id": 2526071423,
      "lat": 12.9441545,
      "lon": 77.5991339,
      "tags": {
        "amenity": "place_of_worship",
        "name": "Prince of Peace Disciples Church",
        "religion": "christian"
      }
    },
    {
      "type": "node",
      "id": 3302507156,
      "lat": 12.9487986,
      "lon": 77.597431,
      "tags": {
        "amenity": "post_office",
        "name": "Wilson Garden",
        "name:kn": "ಅಂಚೆ ಕಛೇರಿ"
      }
    },
    {
      "type": "node",
      "id": 3309341643,
      "lat": 12.9471719,
      "lon": 77.599717,
      "tags": {
        "name": "Uninor",
        "shop": "yes"
      }
    },
    {
      "type": "node",
      "id": 3391123031,
      "lat": 12.9460933,
      "lon": 77.5950233,
      "tags": {
        "amenity": "fuel",
        "name": "Aegis Autogas",
        "wheelchair": "yes"
      }
    },
    {
      "type": "node",
      "id": 3392655753,
      "lat": 12.9441339,
      "lon": 77.5971889,
      "tags": {
        "amenity": "toilets",
        "fee": "yes"
      }
    },
    {
      "type": "node",
      "id": 3394760961,
      "lat": 12.9426929,
      "lon": 77.6026966,
      "tags": {
        "amenity": "atm",
        "name": "HDFC ATM",
        "name:kn": "ಎಚ್ ಡಿ ಎಫ್ ಸಿ",
        "operator": "HDFC"
      }
    },
    {
      "type": "node",
      "id": 3394762170,
      "lat": 12.9424288,
      "lon": 77.6015084,
      "tags": {
        "amenity": "atm",
        "brand": "State Bank of India",
        "brand:wikidata": "Q1340361",
        "name": "State Bank of India",
        "operator": "State Bank of India",
        "operator:wikidata": "Q1340361",
        "short_name": "SBI"
      }
    },
    {
      "type": "node",
      "id": 3710157236,
      "lat": 12.9477109,
      "lon": 77.5997799,
      "tags": {
        "addr:city": "Bengaluru, Karnataka",
        "addr:postcode": "560030",
        "addr:street": "16th Cross Road, Chinnayanpalya, Wilson Garden",
        "name": "Appoji Dry Cleaners",
        "shop": "dry_cleaning"
      }
    },
    {
      "type": "node",
      "id": 3710158896,
      "lat": 12.9472236,
      "lon": 77.598734,
      "tags": {
        "amenity": "atm",
        "brand": "ICICI Bank",
        "brand:wikidata": "Q1653258",
        "name": "ICICI Bank",
        "name:kn": "ಐಸಿಐಸಿಐ",
        "operator": "ICICI Bank",
        "operator:wikidata": "Q1653258",
        "short_name": "ICICI"
      }
    },
    {
      "type": "node",
      "id": 3710179080,
      "lat": 12.9476738,
      "lon": 77.5990277,
      "tags": {
        "shop": "tailor"
      }
    },
    {
      "type": "node",
      "id": 3710210170,
      "lat": 12.9474222,
      "lon": 77.5986921,
      "tags": {
        "amenity": "hospital",
        "healthcare": "hospital",
        "name": "Krishna Nursing Home"
      }
    },
    {
      "type": "node",
      "id": 3710229270,
      "lat": 12.9474937,
      "lon": 77.5998176,
      "tags": {
        "name": "Karnataka Tailor",
        "shop": "tailor"
      }
    },
    {
      "type": "node",
      "id": 3710229271,
      "lat": 12.9479461,
      "lon": 77.5999219,
      "tags": {
        "name": "Shaheen Chicken Stall",
        "shop": "butcher"
      }
    },
    {
      "type": "node",
      "id": 3710229273,
      "lat": 12.9480956,
      "lon": 77.5999568,
      "tags": {
        "name": "Shree Sai Baba Condiments",
        "shop": "convenience"
      }
    },
    {
      "type": "node",
      "id": 3710229275,
      "lat": 12.9481356,
      "lon": 77.5999766,
      "tags": {
        "amenity": "recycling",
        "name": "Newspaper recycling store"
      }
    },
    {
      "type": "node",
      "id": 3710229276,
      "lat": 12.9482719,
      "lon": 77.5999963,
      "tags": {
        "name": "Wahid Pasha Vegetable stall",
        "shop": "greengrocer"
      }
    },
    {
      "type": "node",
      "id": 3710229277,
      "lat": 12.9482984,
      "lon": 77.6000248,
      "tags": {
        "name": "L S Iyengar Bakery",
        "shop": "bakery"
      }
    },
    {
      "type": "node",
      "id": 3710229278,
      "lat": 12.9483481,
      "lon": 77.6000553,
      "tags": {
        "amenity": "pharmacy",
        "healthcare": "pharmacy",
        "name": "Padmavathi Medicals"
      }
    },
    {
      "type": "node",
      "id": 3710229279,
      "lat": 12.9484922,
      "lon": 77.6001079,
      "tags": {
        "name": "AquaDay",
        "shop": "Water_cans"
      }
    },
    {
      "type": "node",
      "id": 3710229280,
      "lat": 12.9485115,
      "lon": 77.6001153,
      "tags": {
        "name": "Nandini Franchise Outlet",
        "shop": "dairy"
      }
    },
    {
      "type": "node",
      "id": 3710229281,
      "lat": 12.9486255,
      "lon": 77.600076,
      "tags": {
        "addr:district": "Bengaluru Urban",
        "addr:full": "16/10 3Road Main, 14Th Cross, Chinmaya Pallya, Wilson Garden",
        "addr:postcode": "560030",
        "addr:state": "Karnataka",
        "addr:street": "BTS Main Road",
        "amenity": "clinic",
        "healthcare": "clinic",
        "name": "Roshni Nursing Home",
        "source": "OpenGovernmentData"
      }
    },
    {
      "type": "node",
      "id": 3710229282,
      "lat": 12.948665,
      "lon": 77.6001706,
      "tags": {
        "amenity": "pharmacy",
        "healthcare": "pharmacy",
        "name": "Sanjana Medicals"
      }
    },
    {
      "type": "node",
      "id": 4062007588,
      "lat": 12.9476948,
      "lon": 77.600799,
      "tags": {
        "amenity": "place_of_worship",
        "name": "Sri Maramma Temple",
        "name:kn": "ಮಾರಮ್ಮ ದೇವಸ್ಥಾನ",
        "religion": "hindu"
      }
    },
    {
      "type": "node",
      "id": 4062011905,
      "lat": 12.9487281,
      "lon": 77.6003812,
      "tags": {
        "addr:housenumber": "299/1",
        "addr:street": "B.T.S Main Road, Wilson Garden, Bangalore",
        "name": "KH phrama",
        "shop": "medical_supply"
      }
    },
    {
      "type": "node",
      "id": 4062011906,
      "lat": 12.9487921,
      "lon": 77.6009276,
      "tags": {
        "amenity": "fast_food",
        "name": "Bharathi Restaurant"
      }
    },
    {
      "type": "node",
      "id": 4062011908,
      "lat": 12.9490257,
      "lon": 77.6001501,
      "tags": {
        "name": "Chowdeswsri Rice traders",
        "shop": "houseware"
      }
    },
    {
      "type": "node",
      "id": 4062011909,
      "lat": 12.9489334,
      "lon": 77.6001044,
      "tags": {
        "amenity": "atm",
        "brand": "Axis Bank",
        "brand:wikidata": "Q2003549",
        "name": "Axis Bank",
        "name:kn": "ಆಕ್ಸಿಸ್ ಬ್ಯಾಂಕ್ ಎಟಿಎಂ",
        "operator": "Axis Bank",
        "operator:wikidata": "Q2003549"
      }
    },
    {
      "type": "node",
      "id": 4062011910,
      "lat": 12.9489794,
      "lon": 77.5997483,
      "tags": {
        "name": "BSNL Customer Service Center",
        "shop": "mobile_phone"
      }
    },
    {
      "type": "node",
      "id": 4062014201,
      "lat": 12.9483365,
      "lon": 77.5988241,
      "tags": {
        "amenity": "food_court",
        "name": "Janatha Hotel"
      }
    },
    {
      "type": "node",
      "id": 4062014290,
      "lat": 12.9484634,
      "lon": 77.5989705,
      "tags": {
        "amenity": "atm",
        "brand": "State Bank of India",
        "brand:wikidata": "Q1340361",
        "check_date": "2022-04-23",
        "drive_through": "yes",
        "name": "State Bank of India",
        "operator": "State Bank of India",
        "operator:wikidata": "Q1340361",
        "short_name": "SBI"
      }
    },
    {
      "type": "node",
      "id": 4062014291,
      "lat": 12.9482223,
      "lon": 77.5990903,
      "tags": {
        "amenity": "school",
        "name": "Srs English Nursery School"
      }
    },
    {
      "type": "node",
      "id": 4314392992,
      "lat": 12.9541378,
      "lon": 77.5920058,
      "tags": {
        "addr:floor": "G",
        "amenity": "restaurant",
        "check_date": "2025-02-21",
        "cuisine": "indian",
        "diet:non-vegetarian": "yes",
        "diet:vegetarian": "yes",
        "indoor_seating": "yes",
        "level": "0",
        "name": "Swathi Deluxe",
        "name:kn": "ಸ್ವಾತಿ ಡಿಲಕ್ಸ್",
        "outdoor_seating": "no",
        "source": "survey"
      }
    },
    {
      "type": "node",
      "id": 4349257997,
      "lat": 12.9451931,
      "lon": 77.5969836,
      "tags": {
        "amenity": "bar",
        "name": "Imperial Blue Garden Bar and Restaurant"
      }
    },
    {
      "type": "node",
      "id": 4446974323,
      "lat": 12.9469375,
      "lon": 77.5981349,
      "tags": {
        "addr:city": "Bangalore",
        "addr:housenumber": "466/1",
        "addr:postcode": "560027",
        "addr:street": "10th Main, 13th Cross, Near-Brand Factory, Wilson Garden",
        "amenity": "pharmacy",
        "healthcare": "pharmacy",
        "name": "Nisarga Ayurvedic Medicine Research Centre",
        "phone": "+9180 2212 6994",
        "source": "www.justdial.com"
      }
    },
    {
      "type": "node",
      "id": 4489921297,
      "lat": 12.9484309,
      "lon": 77.5986254,
      "tags": {
        "addr:city": "Bengaluru,",
        "addr:housenumber": "#476/42",
        "addr:postcode": "560027",
        "addr:street": ", 2nd Floor, 12th Cross, Chinnayanpalya, Wilson Garden, Karnataka",
        "leisure": "sports_centre",
        "name": "Macho Fitness Centre",
        "opening_hours": "5:00-22:00",
        "phone": "080 2223 3827"
      }
    },
    {
      "type": "node",
      "id": 4527833926,
      "lat": 12.9572546,
      "lon": 77.6074721,
      "tags": {
        "amenity": "cafe"
      }
    },
    {
      "type": "node",
      "id": 4550578791,
      "lat": 12.949078,
      "lon": 77.5978259,
      "tags": {
        "amenity": "restaurant",
        "name": "Annapurna benne dosa",
        "name:en": "Annapurna benne dosa",
        "name:kn": "ಅನ್ನಪೂರ್ಣ ಬೆಣ್ಣೆ ದೋಸ",
        "opening_hours": "Mo-Sa 16:00-21:30"
      }
    },
    {
      "type": "node",
      "id": 4691599029,
      "lat": 12.9493419,
      "lon": 77.6058431,
      "tags": {
        "amenity": "place_of_worship",
        "religion": "christian"
      }
    },
    {
      "type": "node",
      "id": 4840984963,
      "lat": 12.9469705,
      "lon": 77.5944165,
      "tags": {
        "amenity": "restaurant",
        "name": "Biryani palace"
      }
    },
    {
      "type": "node",
      "id": 4841949621,
      "lat": 12.9460622,
      "lon": 77.595536,
      "tags": {
        "name": "Luna sweets",
        "name:en": "Luna sweets",
        "shop": "confectionery",
        "wheelchair": "limited"
      }
    },
    {
      "type": "node",
      "id": 4841950721,
      "lat": 12.9453765,
      "lon": 77.59506,
      "tags": {
        "amenity": "cafe",
        "name": "AR Tea Sagar",
        "name:en": "AR Tea Sagar"
      }
    },
    {
      "type": "node",
      "id": 4843097921,
      "lat": 12.945523,
      "lon": 77.5952075,
      "tags": {
        "amenity": "fast_food",
        "name": "AFC",
        "name:en": "AFC"
      }
    },
    {
      "type": "node",
      "id": 4843097922,
      "lat": 12.9453021,
      "lon": 77.5952136,
      "tags": {
        "name": "Silsila",
        "name:en": "Silsila",
        "shop": "clothes"
      }
    },
    {
      "type": "node",
      "id": 4843099633,
      "lat": 12.9455298,
      "lon": 77.5952158,
      "tags": {
        "amenity": "fast_food",
        "cuisine": "juice",
        "name": "Juice World"
      }
    },
    {
      "type": "node",
      "id": 4843100433,
      "lat": 12.9446921,
      "lon": 77.5968791,
      "tags": {
        "construction": "retail",
        "name": "Floral bakery",
        "name:en": "Floral bakery",
        "shop": "bakery"
      }
    },
    {
      "type": "node",
      "id": 4843100435,
      "lat": 12.9496879,
      "lon": 77.5931127,
      "tags": {
        "leisure": "fitness_centre",
        "name": "Mara fitness international",
        "name:en": "Mara fitness international"
      }
    },
    {
      "type": "node",
      "id": 4843104322,
      "lat": 12.9454861,
      "lon": 77.595168,
      "tags": {
        "amenity": "restaurant",
        "name": "Alfa fried and Grill",
        "name:en": "Alfa fried and Grill"
      }
    },
    {
      "type": "node",
      "id": 4847824823,
      "lat": 12.9453166,
      "lon": 77.5950506,
      "tags": {
        "amenity": "restaurant",
        "name": "Alfa",
        "name:en": "Alfa"
      }
    },
    {
      "type": "node",
      "id": 4847824824,
      "lat": 12.9449109,
      "lon": 77.5948763,
      "tags": {
        "name": "Bilal",
        "name:en": "Bilal",
        "shop": "bakery"
      }
    },
    {
      "type": "node",
      "id": 4847824825,
      "lat": 12.9451588,
      "lon": 77.5949507,
      "tags": {
        "name": "M Shoe centre",
        "name:en": "Shoe centre",
        "shop": "shoes"
      }
    },
    {
      "type": "node",
      "id": 4847824924,
      "lat": 12.9500152,
      "lon": 77.5929905,
      "tags": {
        "leisure": "fitness_centre",
        "name": "Mara fitness",
        "name:en": "Mara fitness"
      }
    },
    {
      "type": "node",
      "id": 4847824925,
      "lat": 12.946968,
      "lon": 77.5942273,
      "tags": {
        "amenity": "fast_food",
        "check_date": "2023-11-23",
        "name": "Limra Hotel",
        "name:en": "Limra Hotel"
      }
    },
    {
      "type": "node",
      "id": 4847824926,
      "lat": 12.94512,
      "lon": 77.5949263,
      "tags": {
        "name": "Fashion Zone",
        "name:en": "Fashion Zone",
        "shop": "clothes"
      }
    },
    {
      "type": "node",
      "id": 4847828421,
      "lat": 12.945194,
      "lon": 77.5949693,
      "tags": {
        "amenity": "atm",
        "brand": "Axis Bank",
        "brand:wikidata": "Q2003549",
        "name": "Axis Bank",
        "name:kn": "ಆಕ್ಸಿಸ್ ಬ್ಯಾಂಕ್",
        "operator": "Axis Bank",
        "operator:wikidata": "Q2003549"
      }
    },
    {
      "type": "node",
      "id": 4847829321,
      "lat": 12.9447719,
      "lon": 77.5949585,
      "tags": {
        "amenity": "restaurant",
        "name": "Kolkata",
        "name:en": "Kolkata"
      }
    },
    {
      "type": "node",
      "id": 4849094824,
      "lat": 12.9458364,
      "lon": 77.5959506,
      "tags": {
        "amenity": "cafe",
        "name": "Coffee works",
        "name:en": "Coffee works"
      }
    },
    {
      "type": "node",
      "id": 4849094825,
      "lat": 12.9458056,
      "lon": 77.5960259,
      "tags": {
        "name": "Vk export shops",
        "name:en": "Vk export shops",
        "shop": "clothes"
      }
    },
    {
      "type": "node",
      "id": 4849094830,
      "lat": 12.9479719,
      "lon": 77.5937414,
      "tags": {
        "amenity": "school",
        "name": "Driving school for all types of cars",
        "name:en": "Driving school for all types of cars"
      }
    },
    {
      "type": "node",
      "id": 4849107923,
      "lat": 12.9432876,
      "lon": 77.5973717,
      "tags": {
        "name": "Superb Opticals",
        "name:en": "Superb Opticals",
        "shop": "optician"
      }
    },
    {
      "type": "node",
      "id": 4849108022,
      "lat": 12.9456176,
      "lon": 77.5958465,
      "tags": {
        "amenity": "fast_food",
        "name": "Hungry lion",
        "name:en": "Hungry lion"
      }
    },
    {
      "type": "node",
      "id": 4849108024,
      "lat": 12.9453284,
      "lon": 77.5967062,
      "tags": {
        "name": "Bharat service station",
        "name:en": "Bharat service station",
        "shop": "bicycle"
      }
    },
    {
      "type": "node",
      "id": 4849108621,
      "lat": 12.945542,
      "lon": 77.595102,
      "tags": {
        "name": "Peace tours and travels",
        "name:en": "Peace tours and travels",
        "shop": "travel_agency"
      }
    },
    {
      "type": "node",
      "id": 4849108627,
      "lat": 12.9448176,
      "lon": 77.5970859,
      "tags": {
        "name": "Naveen Nitrelaya",
        "name:en": "Naveen nitrelaya",
        "shop": "optician"
      }
    },
    {
      "type": "node",
      "id": 4849108628,
      "lat": 12.9467871,
      "lon": 77.5944122,
      "tags": {
        "name": "Ssv automobiles",
        "name:en": "Ssv automobiles",
        "shop": "car_parts"
      }
    },
    {
      "type": "node",
      "id": 4849575705,
      "lat": 12.9453512,
      "lon": 77.5950744,
      "tags": {
        "name": "Fashion Gift Fancy",
        "shop": "gift"
      }
    },
    {
      "type": "node",
      "id": 4849575706,
      "lat": 12.945295,
      "lon": 77.5950328,
      "tags": {
        "name": "Alif Tours and Travels",
        "operator": "IRCTC Booking Agent",
        "shop": "travel_agency"
      }
    },
    {
      "type": "node",
      "id": 4849575707,
      "lat": 12.9452299,
      "lon": 77.5949858,
      "tags": {
        "name": "Star and Style",
        "shop": "hairdresser"
      }
    },
    {
      "type": "node",
      "id": 4849575708,
      "lat": 12.9450345,
      "lon": 77.5948487,
      "tags": {
        "name": "Star Footwear",
        "shop": "shoes"
      }
    },
    {
      "type": "node",
      "id": 4849575709,
      "lat": 12.9449796,
      "lon": 77.5948017,
      "tags": {
        "name": "Prince",
        "shop": "paint"
      }
    },
    {
      "type": "node",
      "id": 4849575710,
      "lat": 12.9447452,
      "lon": 77.5946247,
      "tags": {
        "name": "6XK Cycle Mart",
        "shop": "bicycle"
      }
    },
    {
      "type": "node",
      "id": 4849575711,
      "lat": 12.9447229,
      "lon": 77.5945885,
      "tags": {
        "amenity": "school",
        "name": "Govt. Urdu English Medium High School",
        "wheelchair": "no"
      }
    },
    {
      "type": "node",
      "id": 4849618960,
      "lat": 12.9446426,
      "lon": 77.5947035,
      "tags": {
        "name": "Ar automobiles",
        "shop": "motorcycle"
      }
    },
    {
      "type": "node",
      "id": 4849618961,
      "lat": 12.9446779,
      "lon": 77.5947558,
      "tags": {
        "name": "Moderm hardware",
        "shop": "hardware"
      }
    },
    {
      "type": "node",
      "id": 5168658567,
      "lat": 12.9570709,
      "lon": 77.6057127,
      "tags": {
        "name": "Hercules Sports International",
        "shop": "sports"
      }
    },
    {
      "type": "node",
      "id": 5234720701,
      "lat": 12.9468669,
      "lon": 77.5964194,
      "tags": {
        "amenity": "bank",
        "brand": "ICICI Bank",
        "brand:wikidata": "Q1653258",
        "name": "ICICI Bank",
        "name:kn": "ಐಸಿಐಸಿಐ ಬ್ಯಾಂಕು",
        "short_name": "ICICI"
      }
    },
    {
      "type": "node",
      "id": 5234722396,
      "lat": 12.9471118,
      "lon": 77.5966087,
      "tags": {
        "amenity": "bank",
        "brand": "HDFC Bank",
        "brand:wikidata": "Q631047",
        "name": "HDFC Bank",
        "name:kn": "ಎಚ್. ಡಿ. ಎಫ್. ಸಿ. ಬ್ಯಾಂಕ್",
        "short_name": "HDFC"
      }
    },
    {
      "type": "node",
      "id": 5234723863,
      "lat": 12.9472091,
      "lon": 77.5966914,
      "tags": {
        "addr:district": "Bengaluru Urban",
        "addr:full": "196, 10Th Cross, Wilson Gardens",
        "addr:postcode": "560027",
        "addr:state": "Karnataka",
        "amenity": "hospital",
        "healthcare": "hospital",
        "name": "V. S. Achar Multispeciality Hospital",
        "source": "OpenGovernmentData"
      }
    },
    {
      "type": "node",
      "id": 5234726029,
      "lat": 12.9477827,
      "lon": 77.5970683,
      "tags": {
        "amenity": "internet_cafe",
        "name": "iStar Cyber Cafe"
      }
    },
    {
      "type": "node",
      "id": 5234729438,
      "lat": 12.9478549,
      "lon": 77.5971182,
      "tags": {
        "amenity": "atm",
        "brand": "Kotak Mahindra Bank",
        "brand:wikidata": "Q2040404",
        "check_date": "2022-07-11",
        "operator": "Kotak Mahindra Bank",
        "operator:wikidata": "Q2040404"
      }
    },
    {
      "type": "node",
      "id": 5234729473,
      "lat": 12.948031,
      "lon": 77.5972353,
      "tags": {
        "amenity": "pharmacy",
        "healthcare": "pharmacy",
        "name": "Trust Medicals"
      }
    },
    {
      "type": "node",
      "id": 5234733420,
      "lat": 12.9483581,
      "lon": 77.5972643,
      "tags": {
        "amenity": "bank",
        "brand": "State Bank of India",
        "brand:wikidata": "Q1340361",
        "name": "State Bank of India",
        "name:kn": "ಭಾರತೀಯ ಸ್ಟೇಟ್ ಬ್ಯಾಂಕ್",
        "short_name": "SBI"
      }
    },
    {
      "type": "node",
      "id": 5234735116,
      "lat": 12.9488127,
      "lon": 77.5978542,
      "tags": {
        "amenity": "bank",
        "branch": "Ltd",
        "brand": "Karnataka Bank",
        "brand:wikidata": "Q2042632",
        "name": "Karnataka Bank",
        "name:kn": "ಕರ್ನಾಟಕ ಬ್ಯಾಂಕ್"
      }
    },
    {
      "type": "node",
      "id": 5234736190,
      "lat": 12.9486539,
      "lon": 77.5977493,
      "tags": {
        "amenity": "fast_food",
        "brand": "Domino's",
        "brand:ks": "ڈومینوز",
        "brand:pa": "ਡੋਮੀਨੋਜ਼",
        "brand:ur": "ڈومینوز",
        "brand:wikidata": "Q839466",
        "brand:wikipedia": "en:Domino's Pizza",
        "cuisine": "pizza",
        "name": "Domino's",
        "name:ks": "ڈومینوز",
        "name:pa": "ਡੋਮੀਨੋਜ਼",
        "name:ur": "ڈومینوز",
        "takeaway": "yes"
      }
    },
    {
      "type": "node",
      "id": 5234736819,
      "lat": 12.9485625,
      "lon": 77.5976727,
      "tags": {
        "amenity": "bank",
        "brand": "State Bank of India",
        "brand:wikidata": "Q1340361",
        "name": "State Bank of India",
        "name:kn": "ಭಾರತೀಯ ಸ್ಟೇಟ್ ಬ್ಯಾಂಕ್",
        "short_name": "SBI"
      }
    },
    {
      "type": "node",
      "id": 5234740873,
      "lat": 12.9495474,
      "lon": 77.5970623,
      "tags": {
        "name": "Anand Bhavan Sweets",
        "shop": "bakery"
      }
    },
    {
      "type": "node",
      "id": 5402302827,
      "lat": 12.9584526,
      "lon": 77.6046732,
      "tags": {
        "shop": "furniture"
      }
    },
    {
      "type": "node",
      "id": 5661650529,
      "lat": 12.9485812,
      "lon": 77.5990306,
      "tags": {
        "addr:city": "Bengaluru,",
        "addr:postcode": "560030",
        "addr:street": "12th Cross Road",
        "name": "Maruti Stores",
        "payment:cash": "yes",
        "shop": "department_store"
      }
    },
    {
      "type": "node",
      "id": 6348945618,
      "lat": 12.9438378,
      "lon": 77.6000871,
      "tags": {
        "addr:place": "Lakkasandra",
        "amenity": "school",
        "isced:level": "2",
        "name": "GHPS Lakkasandra",
        "name:kn": "ಸರ್ಕಾರಿ ಹಿರಿಯ ಪ್ರಾಥಮಿಕ ಶಾಲೆ ಲಕ್ಕಸಂದ್ರ",
        "operator": "Department of Education",
        "school": "primary"
      }
    },
    {
      "type": "node",
      "id": 6348971753,
      "lat": 12.9431126,
      "lon": 77.5995158,
      "tags": {
        "addr:place": "Lakkasandra",
        "amenity": "school",
        "isced:level": "2",
        "name": "GUHPS Lakkasandra",
        "name:kn": "ಸರ್ಕಾರಿ ಉರ್ದು ಹಿರಿಯ ಪ್ರಾಥಮಿಕ ಶಾಲೆ ಲಕ್ಕಸಂದ್ರ",
        "operator": "Department of Education",
        "school": "primary"
      }
    },
    {
      "type": "node",
      "id": 6349031908,
      "lat": 12.9539725,
      "lon": 77.6004211,
      "tags": {
        "addr:place": "Shanthinagar",
        "amenity": "school",
        "isced:level": "2",
        "name": "GHPS Ksrtc Shanthinagar",
        "name:kn": "ಸರ್ಕಾರಿ ಹಿರಿಯ ಪ್ರಾಥಮಿಕ ಶಾಲೆ ಕೆ.ಎಸ್‌.ಆರ್‌.ಟಿ.ಸಿ ಶಾಂತಿನಗರ",
        "operator": "Department of Education",
        "school": "primary"
      }
    },
    {
      "type": "node",
      "id": 6349040951,
      "lat": 12.9533162,
      "lon": 77.6005694,
      "tags": {
        "amenity": "school",
        "isced:level": "2",
        "name": "Shanthi KHPS Vinayakanagar",
        "name:kn": "ಶಾಂತಿ ಕನ್ನಡ ಹಿರಿಯ ಪ್ರಾಥಮಿಕ ಶಾಲೆ ವಿನಾಯಕನಗರ",
        "operator": "Department of Education",
        "school": "primary"
      }
    },
    {
      "type": "node",
      "id": 6349052554,
      "lat": 12.9482206,
      "lon": 77.5968593,
      "tags": {
        "addr:place": "Wilson Garden",
        "amenity": "school",
        "isced:level": "2",
        "name": "GKMPS Wilson Garden",
        "name:kn": "ಸರ್ಕಾರಿ ಕನ್ನಡ ಮಾದರಿ ಪ್ರಾಥಮಿಕ ಶಾಲೆ ವಿಲ್ಸನ್ ಗಾರ್ಡನ್",
        "operator": "Department of Education",
        "school": "primary"
      }
    },
    {
      "type": "node",
      "id": 6349074612,
      "lat": 12.9555605,
      "lon": 77.5978653,
      "tags": {
        "addr:place": "Shanthinagar",
        "amenity": "school",
        "isced:level": "2",
        "name": "St Michael LPS Shanthinagar",
        "name:kn": "ಸೆಂಟ್‌ ಮೈಕಲ್ ಕಿರಿಯ ಪ್ರಾಥಮಿಕ ಶಾಲೆ ಶಾಂತಿನಗರ",
        "operator": "Department of Education",
        "school": "primary"
      }
    },
    {
      "type": "node",
      "id": 6349206826,
      "lat": 12.9492633,
      "lon": 77.5974085,
      "tags": {
        "addr:place": "Willson Garden",
        "amenity": "school",
        "isced:level": "2",
        "name": "Maruthi KHPS Willson Garden",
        "name:kn": "ಮಾರುತಿ ಕನ್ನಡ ಹಿರಿಯ ಪ್ರಾಥಮಿಕ ಶಾಲೆ ವಿಲ್ಸನ್ ಗಾರ್ಡನ್",
        "operator": "Pvt. Aided",
        "school": "primary"
      }
    },
    {
      "type": "node",
      "id": 6349577893,
      "lat": 12.9446007,
      "lon": 77.594691,
      "tags": {
        "addr:place": "Arekempanahalli",
        "amenity": "school",
        "isced:level": "2",
        "name": "GUMPS Tank Garden Arekempanahalli",
        "name:kn": "ಸರ್ಕಾರಿ ಉರ್ದು ಮಾದರಿ ಪ್ರಾಥಮಿಕ ಶಾಲೆ ಟ್ಯಾಂಕ್ ಗಾರ್ಡನ್",
        "operator": "Department of Education",
        "school": "primary"
      }
    },
    {
      "type": "node",
      "id": 6745250346,
      "lat": 12.9505064,
      "lon": 77.6082572,
      "tags": {
        "addr:place": "Neelasandra",
        "amenity": "school",
        "fixme": "Is this a Methodist-run school? Check spelling of name.",
        "isced:level": "3",
        "name": "Methadist HPS Anepalya",
        "name:kn": "ಮೆಥೋಡಿಸ್ಟ್ ಹಿರಿಯ ಪ್ರಾಥಮಿಕ ಶಾಲೆ ಅನೆಪಾಲಿಯಾ, ನೀಲಸಂದ್ರ",
        "operator": "Private Un-Aided",
        "school": "Higher Secondary"
      }
    },
    {
      "type": "node",
      "id": 6745867506,
      "lat": 12.9515296,
      "lon": 77.6017794,
      "tags": {
        "addr:place": "Shanthinagar",
        "amenity": "school",
        "isced:level": "2",
        "name": "LPS Vinayakanagar,Shanthinagar",
        "name:kn": "ಕಿರಿಯ ಪ್ರಾಥಮಿಕ ಶಾಲೆ ವಿನಾಯಕನಗರ ಶಾಂತಿನಗರ",
        "operator": "Private Un-Aided",
        "school": "Higher primary"
      }
    },
    {
      "type": "node",
      "id": 6937688998,
      "lat": 12.9438106,
      "lon": 77.5974722,
      "tags": {
        "addr:district": "Bengaluru Urban",
        "addr:full": "449/1, 15th Main Lakksandra",
        "addr:postcode": "560030",
        "addr:state": "Karnataka",
        "amenity": "clinic",
        "healthcare": "clinic",
        "name": "Deepti Nursing Home",
        "source": "OpenGovernmentData"
      }
    },
    {
      "type": "node",
      "id": 6938868534,
      "lat": 12.9491537,
      "lon": 77.5978383,
      "tags": {
        "addr:district": "Bengaluru Urban",
        "addr:full": "376/21, T.V. Plaza, 6Th Cross, Wilson Garden",
        "addr:postcode": "560027",
        "addr:state": "Karnataka",
        "amenity": "clinic",
        "healthcare": "clinic",
        "name": "Shantha Nethralaya",
        "source": "OpenGovernmentData"
      }
    },
    {
      "type": "node",
      "id": 6944138100,
      "lat": 12.9465876,
      "lon": 77.6015028,
      "tags": {
        "addr:district": "Bengaluru Urban",
        "addr:full": "#20 (Old#310),7Th Main,16Th Cross,Lakkasandra Extension",
        "addr:postcode": "560030",
        "addr:state": "Karnataka",
        "amenity": "clinic",
        "healthcare": "clinic",
        "name": "Shiva Nursing Home, Bengaluru Urban",
        "source": "OpenGovernmentData"
      }
    },
    {
      "type": "node",
      "id": 6944138103,
      "lat": 12.9489406,
      "lon": 77.5949925,
      "tags": {
        "addr:district": "Bengaluru Urban",
        "addr:full": "56, 8Th Cross, Wilson Garden",
        "addr:postcode": "560027",
        "addr:state": "Karnataka",
        "amenity": "hospital",
        "healthcare": "hospital",
        "name": "Karthik Hospital, Bengaluru Urban",
        "source": "OpenGovernmentData"
      }
    },
    {
      "type": "node",
      "id": 6944138104,
      "lat": 12.9462401,
      "lon": 77.5975627,
      "tags": {
        "addr:district": "Bengaluru Urban",
        "addr:full": "#5/2, 13th Cross, Hosur Road, Wilson Garden",
        "addr:postcode": "560027",
        "addr:state": "Karnataka",
        "amenity": "clinic",
        "email": "enquiry@mgmihospitalsindia.com",
        "healthcare": "clinic",
        "name": "M.G. Speciality Health Care (A Unit Of Mgmi Hospitals(India) Pvt Ltd)",
        "operator:type": "private",
        "source": "OpenGovernmentData",
        "website": "http://mgmihospitalsindia.com/"
      }
    },
    {
      "type": "node",
      "id": 7043992186,
      "lat": 12.9583199,
      "lon": 77.6049603,
      "tags": {
        "name": "Hafele Appliances",
        "opening_hours": "Mo-Sa 10:00-17:00",
        "shop": "electronics"
      }
    },
    {
      "type": "node",
      "id": 7293708139,
      "lat": 12.9581548,
      "lon": 77.60537,
      "tags": {
        "amenity": "bank",
        "atm": "yes",
        "brand": "State Bank of India",
        "brand:wikidata": "Q1340361",
        "name": "State Bank of India",
        "name:kn": "ಭಾರತೀಯ ಸ್ಟೇಟ್ ಬ್ಯಾಂಕ್",
        "operator": "State Bank of India",
        "short_name": "SBI"
      }
    },
    {
      "type": "node",
      "id": 7293708177,
      "lat": 12.9596604,
      "lon": 77.6017229,
      "tags": {
        "amenity": "fast_food",
        "name": "Sudha Chats"
      }
    },
    {
      "type": "node",
      "id": 7293708178,
      "lat": 12.9597434,
      "lon": 77.6019703,
      "tags": {
        "name": "Family Mart",
        "shop": "supermarket"
      }
    },
    {
      "type": "node",
      "id": 7293708179,
      "lat": 12.9599937,
      "lon": 77.6019797,
      "tags": {
        "name": "Fazal Time Center",
        "shop": "watches"
      }
    },
    {
      "type": "node",
      "id": 7293708181,
      "lat": 12.9600786,
      "lon": 77.601863,
      "tags": {
        "name": "Naturals",
        "shop": "beauty"
      }
    },
    {
      "type": "node",
      "id": 7293719385,
      "lat": 12.9601322,
      "lon": 77.6017597,
      "tags": {
        "amenity": "restaurant",
        "name": "Malabar Cafe"
      }
    },
    {
      "type": "node",
      "id": 7293817151,
      "lat": 12.9485315,
      "lon": 77.6060768,
      "tags": {
        "amenity": "place_of_worship",
        "religion": "hindu"
      }
    },
    {
      "type": "node",
      "id": 7293817152,
      "lat": 12.9485159,
      "lon": 77.606176,
      "tags": {
        "amenity": "shelter",
        "bench": "yes",
        "covered": "yes",
        "shelter": "yes",
        "shelter_type": "public_transport"
      }
    },
    {
      "type": "node",
      "id": 7293817153,
      "lat": 12.9483852,
      "lon": 77.6062095,
      "tags": {
        "amenity": "shelter",
        "bench": "yes",
        "covered": "yes",
        "shelter": "yes",
        "shelter_type": "public_transport"
      }
    },
    {
      "type": "node",
      "id": 7293817155,
      "lat": 12.9491641,
      "lon": 77.6062001,
      "tags": {
        "amenity": "shelter",
        "bench": "yes",
        "covered": "yes",
        "shelter": "yes",
        "shelter_type": "public_transport"
      }
    },
    {
      "type": "node",
      "id": 7293817156,
      "lat": 12.9493118,
      "lon": 77.6061586,
      "tags": {
        "amenity": "shelter",
        "bench": "yes",
        "covered": "yes",
        "shelter": "yes",
        "shelter_type": "public_transport"
      }
    },
    {
      "type": "node",
      "id": 9179389770,
      "lat": 12.9583652,
      "lon": 77.604285,
      "tags": {
        "amenity": "cafe",
        "cuisine": "persian",
        "level": "3",
        "name": "The Cafe @ Saanchi",
        "outdoor_seating": "yes"
      }
    },
    {
      "type": "node",
      "id": 9179389771,
      "lat": 12.9583509,
      "lon": 77.6044124,
      "tags": {
        "level": "2",
        "name": "Kanakavalli",
        "shop": "fabric"
      }
    },
    {
      "type": "node",
      "id": 9507141939,
      "lat": 12.959883,
      "lon": 77.5978925,
      "tags": {
        "amenity": "cafe",
        "cuisine": "juice",
        "internet_access": "no",
        "name": "Sreeraj Lassi Bar",
        "outdoor_seating": "no"
      }
    },
    {
      "type": "node",
      "id": 9507141940,
      "lat": 12.9599213,
      "lon": 77.5979464,
      "tags": {
        "amenity": "fast_food",
        "cuisine": "sandwich",
        "name": "Hari Super Sandwich"
      }
    },
    {
      "type": "node",
      "id": 9611232066,
      "lat": 12.9582924,
      "lon": 77.6043893,
      "tags": {
        "level": "0;1",
        "name": "Saanchi Antiques",
        "shop": "antiques"
      }
    },
    {
      "type": "node",
      "id": 9906259149,
      "lat": 12.9430742,
      "lon": 77.5973428,
      "tags": {
        "access": "yes",
        "amenity": "toilets",
        "check_date": "2023-10-28",
        "fee": "no",
        "female": "yes",
        "male": "yes",
        "name": "Public Toilet",
        "name:en": "Public Toilet",
        "operator": "BBMP",
        "payment:cards": "no",
        "payment:cash": "yes",
        "payment:credit_cards": "no",
        "payment:debit_cards": "no"
      }
    },
    {
      "type": "node",
      "id": 9951289034,
      "lat": 12.9493916,
      "lon": 77.6094738,
      "tags": {
        "amenity": "waste_disposal"
      }
    },
    {
      "type": "node",
      "id": 9951289098,
      "lat": 12.9490504,
      "lon": 77.6062283,
      "tags": {
        "amenity": "shelter",
        "bench": "yes",
        "covered": "yes",
        "shelter": "yes",
        "shelter_type": "public_transport"
      }
    },
    {
      "type": "node",
      "id": 9951289099,
      "lat": 12.949436,
      "lon": 77.6062162,
      "tags": {
        "name": "Nandini Dairy",
        "shop": "dairy"
      }
    },
    {
      "type": "node",
      "id": 9951289105,
      "lat": 12.9486492,
      "lon": 77.605889,
      "tags": {
        "amenity": "place_of_worship",
        "name": "New Apostolic Church",
        "religion": "christian"
      }
    },
    {
      "type": "node",
      "id": 10032117278,
      "lat": 12.9548574,
      "lon": 77.6052768,
      "tags": {
        "access": "yes",
        "amenity": "toilets",
        "fee": "yes",
        "operator": "BBMP"
      }
    },
    {
      "type": "node",
      "id": 10032117279,
      "lat": 12.9548528,
      "lon": 77.6052969,
      "tags": {
        "access": "yes",
        "amenity": "toilets",
        "fee": "yes",
        "operator": "BBMP"
      }
    },
    {
      "type": "node",
      "id": 10032117280,
      "lat": 12.9558724,
      "lon": 77.6035687,
      "tags": {
        "amenity": "shelter",
        "shelter_type": "gazebo"
      }
    },
    {
      "type": "node",
      "id": 10042701717,
      "lat": 12.9518019,
      "lon": 77.6056759,
      "tags": {
        "name": "Cigarette & Tea Shop",
        "shop": "variety_store"
      }
    },
    {
      "type": "node",
      "id": 10042701718,
      "lat": 12.951793,
      "lon": 77.6055559,
      "tags": {
        "amenity": "fast_food",
        "name": "Sugarcane Juice Shop"
      }
    },
    {
      "type": "node",
      "id": 10042722517,
      "lat": 12.9513373,
      "lon": 77.605436,
      "tags": {
        "name": "Puncture Repair Shop",
        "shop": "motorcycle"
      }
    },
    {
      "type": "node",
      "id": 10042722617,
      "lat": 12.9512534,
      "lon": 77.6054853,
      "tags": {
        "amenity": "place_of_worship",
        "name": "Infant Jesus Mini Church",
        "religion": "christian"
      }
    },
    {
      "type": "node",
      "id": 10042722717,
      "lat": 12.9508739,
      "lon": 77.6054105,
      "tags": {
        "name": "Lakshmi Wood Industries",
        "shop": "furniture"
      }
    },
    {
      "type": "node",
      "id": 10042722817,
      "lat": 12.9504047,
      "lon": 77.6055149,
      "tags": {
        "name": "National Slate & Granite",
        "shop": "hardware"
      }
    },
    {
      "type": "node",
      "id": 10042733217,
      "lat": 12.9478479,
      "lon": 77.6066562,
      "tags": {
        "amenity": "atm",
        "cash_in": "no",
        "operator": "State Bank of India"
      }
    },
    {
      "type": "node",
      "id": 10289145777,
      "lat": 12.9555473,
      "lon": 77.5925404,
      "tags": {
        "amenity": "bench",
        "backrest": "no",
        "material": "stone"
      }
    },
    {
      "type": "node",
      "id": 10289145794,
      "lat": 12.9554494,
      "lon": 77.5926661,
      "tags": {
        "amenity": "bench",
        "backrest": "no",
        "material": "stone"
      }
    },
    {
      "type": "node",
      "id": 10571060033,
      "lat": 12.9471121,
      "lon": 77.5986482,
      "tags": {
        "addr:city": "Bengaluru, Karnataka",
        "addr:housenumber": "86/47",
        "addr:postcode": "560027",
        "addr:street": "8th Main Road, Lakkasandra, Wilson Garden",
        "name": "Bikenbiker",
        "opening_hours": "Mo-Su 11:00-19:30",
        "shop": "motorcycle"
      }
    },
    {
      "type": "node",
      "id": 10875973855,
      "lat": 12.9457622,
      "lon": 77.6001628,
      "tags": {
        "name": "Assam tea leaves",
        "opening_hours": "Mo-Su 09:30-13:30, 17:00-21:30",
        "phone": "9945937669",
        "shop": "tea"
      }
    },
    {
      "type": "node",
      "id": 10895966348,
      "lat": 12.9482721,
      "lon": 77.5970484,
      "tags": {
        "access": "yes",
        "amenity": "toilets",
        "fee": "yes",
        "operator": "Bruhat Bengaluru Mahanagara Palike",
        "operator:short": "BBMP",
        "operator:wikidata": "Q4978693"
      }
    },
    {
      "type": "node",
      "id": 10895966350,
      "lat": 12.9511455,
      "lon": 77.5951937,
      "tags": {
        "brand": "Lenskart",
        "brand:wikidata": "Q17068753",
        "name": "Lenskart",
        "shop": "optician"
      }
    },
    {
      "type": "node",
      "id": 11167710685,
      "lat": 12.9582865,
      "lon": 77.6011607,
      "tags": {
        "brand": "Ration Shop",
        "brand:wikidata": "Q60901",
        "name": "Ration Shop",
        "operator": "Public Distribution System",
        "operator:type": "public",
        "operator:wikidata": "Q60901",
        "shop": "convenience"
      }
    },
    {
      "type": "node",
      "id": 11171324534,
      "lat": 12.9597011,
      "lon": 77.6015633,
      "tags": {
        "amenity": "pharmacy",
        "healthcare": "pharmacy",
        "name": "Hafiz Pharma"
      }
    },
    {
      "type": "node",
      "id": 11171324535,
      "lat": 12.9600253,
      "lon": 77.6016276,
      "tags": {
        "amenity": "pharmacy",
        "healthcare": "pharmacy",
        "name": "HKGN Medicals"
      }
    },
    {
      "type": "node",
      "id": 11171324536,
      "lat": 12.9600684,
      "lon": 77.601953,
      "tags": {
        "shop": "hairdresser"
      }
    },
    {
      "type": "node",
      "id": 11171328737,
      "lat": 12.958252,
      "lon": 77.6011466,
      "tags": {
        "shop": "stationery"
      }
    },
    {
      "type": "node",
      "id": 11171328738,
      "lat": 12.9580872,
      "lon": 77.6010965,
      "tags": {
        "shop": "bakery"
      }
    },
    {
      "type": "node",
      "id": 11171328739,
      "lat": 12.9576687,
      "lon": 77.6009775,
      "tags": {
        "name": "Nandini Diary Parlor",
        "shop": "dairy"
      }
    },
    {
      "type": "node",
      "id": 11295066049,
      "lat": 12.9432703,
      "lon": 77.5973579,
      "tags": {
        "addr:floor": "G",
        "check_date": "2023-10-28",
        "internet_access": "no",
        "level": "0",
        "name": "Rajsheela Medicals",
        "payment:cash": "yes",
        "payment:credit_cards": "yes",
        "payment:mastercard": "yes",
        "payment:visa": "yes",
        "shop": "medical_supply"
      }
    },
    {
      "type": "node",
      "id": 11295280629,
      "lat": 12.9464443,
      "lon": 77.5946337,
      "tags": {
        "amenity": "events_venue",
        "check_date": "2023-10-28",
        "name": "Royal palace wedding hall and convention center",
        "wheelchair": "yes"
      }
    },
    {
      "type": "node",
      "id": 11295469699,
      "lat": 12.9519038,
      "lon": 77.5944072,
      "tags": {
        "amenity": "pharmacy",
        "healthcare": "pharmacy",
        "level": "0",
        "name": "Primecare Pharma",
        "opening_hours": "Mo-Su 08:00-23:00,13:30-18:30; PH open"
      }
    },
    {
      "type": "node",
      "id": 11295826654,
      "lat": 12.9550118,
      "lon": 77.5925388,
      "tags": {
        "amenity": "restaurant",
        "level": "0",
        "name": "Sri Vishnu Bhavan",
        "survey:date": "2024-02-01"
      }
    },
    {
      "type": "node",
      "id": 11295826656,
      "lat": 12.9547541,
      "lon": 77.5929871,
      "tags": {
        "amenity": "atm",
        "brand": "Karnataka Bank",
        "brand:wikidata": "Q2042632",
        "cash_in": "no",
        "level": "0",
        "operator": "Karnataka Bank",
        "operator:wikidata": "Q2042632"
      }
    },
    {
      "type": "node",
      "id": 11295833796,
      "lat": 12.9551335,
      "lon": 77.592631,
      "tags": {
        "amenity": "waste_basket",
        "waste": "trash"
      }
    },
    {
      "type": "node",
      "id": 11295848643,
      "lat": 12.9468716,
      "lon": 77.5947342,
      "tags": {
        "amenity": "shelter",
        "shelter_type": "public_transport"
      }
    },
    {
      "type": "node",
      "id": 11295848644,
      "lat": 12.9470676,
      "lon": 77.5945671,
      "tags": {
        "amenity": "shelter",
        "shelter_type": "public_transport"
      }
    },
    {
      "type": "node",
      "id": 11295848646,
      "lat": 12.946989,
      "lon": 77.594634,
      "tags": {
        "amenity": "shelter",
        "shelter_type": "public_transport"
      }
    },
    {
      "type": "node",
      "id": 11295921628,
      "lat": 12.9500344,
      "lon": 77.5965335,
      "tags": {
        "amenity": "pharmacy",
        "healthcare": "pharmacy",
        "level": "0",
        "name": "Kamaldeep Medicals"
      }
    },
    {
      "type": "node",
      "id": 11295921629,
      "lat": 12.9499736,
      "lon": 77.5966031,
      "tags": {
        "amenity": "pharmacy",
        "healthcare": "pharmacy",
        "level": "0",
        "name": "Amruth Medicals"
      }
    },
    {
      "type": "node",
      "id": 11295921632,
      "lat": 12.9494898,
      "lon": 77.5962984,
      "tags": {
        "level": "0",
        "name": "Bake Land",
        "opening_hours": "Mo-Su 07:00-23:30; PH open",
        "shop": "bakery"
      }
    },
    {
      "type": "node",
      "id": 11295921634,
      "lat": 12.9500034,
      "lon": 77.5965705,
      "tags": {
        "indoor_seating": "no",
        "level": "0",
        "name": "Sri Venkatesha Iyengar's Bakery",
        "outdoor_seating": "no",
        "shop": "bakery",
        "takeaway": "only",
        "wheelchair": "no"
      }
    },
    {
      "type": "node",
      "id": 11295921635,
      "lat": 12.9514745,
      "lon": 77.595132,
      "tags": {
        "amenity": "pharmacy",
        "healthcare": "pharmacy",
        "level": "0",
        "name": "Rajalakshmi Medicals"
      }
    },
    {
      "type": "node",
      "id": 11295921636,
      "lat": 12.94961,
      "lon": 77.5962261,
      "tags": {
        "amenity": "pharmacy",
        "brand": "Apollo Pharmacy",
        "brand:wikidata": "Q62562612",
        "healthcare": "pharmacy",
        "level": "0",
        "name": "Apollo Pharmacy",
        "name:kn": "ಅಪೋಲೋ ಫಾರ್ಮಸಿ"
      }
    },
    {
      "type": "node",
      "id": 11296003727,
      "lat": 12.9494082,
      "lon": 77.59618,
      "tags": {
        "amenity": "pharmacy",
        "healthcare": "pharmacy",
        "level": "0",
        "name": "Susheela Medicals"
      }
    },
    {
      "type": "node",
      "id": 11302937519,
      "lat": 12.9455956,
      "lon": 77.5952641,
      "tags": {
        "addr:city": "Bengaluru",
        "addr:full": "2, Arekempenahally, Near Brand Factory, Wilson Garden, Bangalore, 560027",
        "addr:housenumber": "2",
        "addr:postcode": "560027",
        "addr:street": "Arekempenahally",
        "amenity": "restaurant",
        "brand": "Revoli Inn",
        "cuisine": "indian;chinese;tibetan;regional;kebab;chicken",
        "description": "Multi cuisine restaurant",
        "name": "Empark Restaurant",
        "opening_hours": "Mo-Su 07:00-23:30",
        "phone": "+91 8904022661;+91 9946222661",
        "website": "https://www.emparkinternational.com"
      }
    },
    {
      "type": "node",
      "id": 11355730129,
      "lat": 12.9461493,
      "lon": 77.595148,
      "tags": {
        "amenity": "drinking_water",
        "operator": "BBMP"
      }
    },
    {
      "type": "node",
      "id": 11355730131,
      "lat": 12.9483269,
      "lon": 77.5935933,
      "tags": {
        "amenity": "toilets",
        "check_date": "2023-11-16"
      }
    },
    {
      "type": "node",
      "id": 11371245256,
      "lat": 12.9478186,
      "lon": 77.593784,
      "tags": {
        "check_date": "2023-11-23",
        "shop": "alcohol"
      }
    },
    {
      "type": "node",
      "id": 11371245258,
      "lat": 12.9491881,
      "lon": 77.5931321,
      "tags": {
        "check_date": "2023-11-23",
        "name": "Vara",
        "shop": "clothes",
        "wheelchair": "yes"
      }
    },
    {
      "type": "node",
      "id": 11400959258,
      "lat": 12.9575721,
      "lon": 77.6001983,
      "tags": {
        "addr:city": "Bengaluru",
        "addr:housenumber": "Pride Apartment 182",
        "addr:postcode": "560076",
        "addr:street": "Bannerghatta Main Road Phase 4 Bilekahalli",
        "becknified": "true",
        "image": "https:\\/\\/cdn.shopify.com\\/s\\/files\\/1\\/0647\\/3662\\/4854\\/files\\/logo_2_1_fc405c5b-4db5-419a-8ec3-380144685e90.svg?v=1669615619",
        "logo": "https:\\/\\/cdn.shopify.com\\/s\\/files\\/1\\/0647\\/3662\\/4854\\/files\\/logo_2_1_fc405c5b-4db5-419a-8ec3-380144685e90.svg?v=1669615619",
        "name": "Wiggles shopify store",
        "name:en": "Wiggles shopify store",
        "operator": "BOC Shopify",
        "payment:cash": "yes",
        "payment:credit_cards": "yes",
        "payment:debit_cards": "yes",
        "providerId": "bocshopify.humbhionline.in",
        "shop": "supermarket"
      }
    },
    {
      "type": "node",
      "id": 11417003452,
      "lat": 12.9444485,
      "lon": 77.5973468,
      "tags": {
        "check_date": "2025-09-19",
        "level": "0",
        "name": "Iyengar's Pastry Palace",
        "shop": "pastry",
        "wheelchair": "no"
      }
    },
    {
      "type": "node",
      "id": 11417003453,
      "lat": 12.9458387,
      "lon": 77.5960658,
      "tags": {
        "check_date": "2023-12-14",
        "name": "Red Rock Wines & Spirits",
        "shop": "alcohol"
      }
    },
    {
      "type": "node",
      "id": 11417003455,
      "lat": 12.9484916,
      "lon": 77.5938183,
      "tags": {
        "check_date": "2023-12-14",
        "name": "Right Tyres",
        "shop": "tyres"
      }
    },
    {
      "type": "node",
      "id": 11417003456,
      "lat": 12.9485984,
      "lon": 77.5937714,
      "tags": {
        "check_date": "2023-12-14",
        "name": "Front Line Decor",
        "shop": "interior_decoration"
      }
    },
    {
      "type": "node",
      "id": 11417003457,
      "lat": 12.9490255,
      "lon": 77.5936154,
      "tags": {
        "check_date": "2023-12-14",
        "name": "The Furniture Store",
        "shop": "furniture",
        "wheelchair": "yes"
      }
    },
    {
      "type": "node",
      "id": 11417003458,
      "lat": 12.9492483,
      "lon": 77.5934342,
      "tags": {
        "check_date": "2023-12-14",
        "name": "Prolink",
        "shop": "copyshop"
      }
    },
    {
      "type": "node",
      "id": 11417003459,
      "lat": 12.9500234,
      "lon": 77.593064,
      "tags": {
        "brand": "Tata",
        "brand:wikidata": "Q188514",
        "check_date": "2023-12-14",
        "name": "Tata",
        "shop": "car"
      }
    },
    {
      "type": "node",
      "id": 11524109257,
      "lat": 12.9576565,
      "lon": 77.6011948,
      "tags": {
        "addr:city": "Bengaluru",
        "addr:district": "Bannerghatta Main Road Phase 4 Bilekahalli",
        "addr:postcode": "560076",
        "addr:street": "P Street",
        "becknified": "true",
        "images": "https://ws1.humbhionline.in/resources/web_manifest/512x512.png?v=1.0",
        "logo": "https://ws1.humbhionline.in/resources/web_manifest/512x512.png?v=1.0",
        "name": "Vegetables Bhi Online",
        "operator": "HumBhi Online",
        "payment:cash": "yes",
        "payment:credit_cards": "yes",
        "payment:debit_cards": "yes",
        "providerId": "ws1.humbhionline.in",
        "shop": "supermarket"
      }
    },
    {
      "type": "node",
      "id": 11577096069,
      "lat": 12.9538309,
      "lon": 77.5926163,
      "tags": {
        "amenity": "shelter",
        "bench": "yes",
        "lit": "yes",
        "name": "Airavat Passengers Waiting Lounge",
        "shelter_type": "public_transport",
        "survey:date": "2024-02-01"
      }
    },
    {
      "type": "node",
      "id": 11602938154,
      "lat": 12.9569478,
      "lon": 77.6015303,
      "tags": {
        "amenity": "school",
        "name": "BBMP High School"
      }
    },
    {
      "type": "node",
      "id": 11963070622,
      "lat": 12.9536988,
      "lon": 77.59234,
      "tags": {
        "amenity": "atm",
        "brand": "Karnataka Bank",
        "brand:wikidata": "Q2042632",
        "cash_in": "no",
        "check_date": "2024-06-07",
        "currency:INR": "yes",
        "drive_through": "no",
        "indoor": "no",
        "operator": "Karnataka Bank",
        "operator:wikidata": "Q2042632"
      }
    },
    {
      "type": "node",
      "id": 11981271373,
      "lat": 12.953587,
      "lon": 77.5927559,
      "tags": {
        "addr:floor": "G",
        "brand": "METRO",
        "brand:wikidata": "Q13610282",
        "check_date": "2024-06-14",
        "level": "0",
        "name": "Metro",
        "name:en": "METRO",
        "shop": "wholesale"
      }
    },
    {
      "type": "node",
      "id": 12036211740,
      "lat": 12.9543622,
      "lon": 77.5929328,
      "tags": {
        "addr:floor": "G",
        "check_date": "2024-07-05",
        "level": "0",
        "name": "Sri Vari Stationary & Conditiments",
        "name:en": "Sri Vari Stationary & Conditiments",
        "shop": "convenience"
      }
    },
    {
      "type": "node",
      "id": 12078423950,
      "lat": 12.9539684,
      "lon": 77.5920517,
      "tags": {
        "access": "yes",
        "amenity": "toilets",
        "check_date": "2024-07-28",
        "fee": "no",
        "payment:cash": "yes",
        "payment:upi": "yes",
        "source": "survey"
      }
    },
    {
      "type": "node",
      "id": 12078423951,
      "lat": 12.9538065,
      "lon": 77.5922406,
      "tags": {
        "check_date": "2024-07-28",
        "name": "Venkatadri Condiments",
        "payment:cash": "yes",
        "payment:upi": "yes",
        "shop": "convenience",
        "source": "survey"
      }
    },
    {
      "type": "node",
      "id": 12078423952,
      "lat": 12.9540507,
      "lon": 77.5921812,
      "tags": {
        "check_date": "2024-07-28",
        "name": "Sri Sai Sweets & Coffee Point",
        "payment:cash": "yes",
        "payment:upi": "yes",
        "shop": "convenience",
        "source": "survey"
      }
    },
    {
      "type": "node",
      "id": 12101753701,
      "lat": 12.9595297,
      "lon": 77.6035588,
      "tags": {
        "amenity": "bank",
        "brand": "Kotak Mahindra Bank",
        "brand:wikidata": "Q2040404",
        "check_date": "2024-08-10",
        "name": "Kotak Mahindra Bank"
      }
    },
    {
      "type": "node",
      "id": 12101753702,
      "lat": 12.959495,
      "lon": 77.6036481,
      "tags": {
        "amenity": "bank",
        "atm": "yes",
        "brand": "Yes Bank",
        "brand:wikidata": "Q2040394",
        "check_date": "2024-08-10",
        "drive_through": "no",
        "name": "Yes Bank"
      }
    },
    {
      "type": "node",
      "id": 12103665088,
      "lat": 12.9546902,
      "lon": 77.5929698,
      "tags": {
        "amenity": "bicycle_parking",
        "brand": "Trin",
        "operator": "DULT",
        "operator:type": "government"
      }
    },
    {
      "type": "node",
      "id": 12103756243,
      "lat": 12.9501234,
      "lon": 77.6056473,
      "tags": {
        "amenity": "bench"
      }
    },
    {
      "type": "node",
      "id": 12151337498,
      "lat": 12.9506877,
      "lon": 77.605377,
      "tags": {
        "amenity": "fuel",
        "brand": "Total",
        "brand:wikidata": "Q154037",
        "name": "Total"
      }
    },
    {
      "type": "node",
      "id": 12161781667,
      "lat": 12.9448375,
      "lon": 77.5966341,
      "tags": {
        "amenity": "bench",
        "armrest": "yes",
        "backrest": "yes",
        "colour": "black",
        "material": "concrete",
        "seats": "3"
      }
    },
    {
      "type": "node",
      "id": 12161781668,
      "lat": 12.9451836,
      "lon": 77.5964615,
      "tags": {
        "amenity": "waste_basket",
        "waste": "trash"
      }
    },
    {
      "type": "node",
      "id": 12161781673,
      "lat": 12.9450619,
      "lon": 77.5965431,
      "tags": {
        "amenity": "bench",
        "armrest": "yes",
        "backrest": "yes",
        "colour": "black",
        "material": "concrete",
        "seats": "3"
      }
    },
    {
      "type": "node",
      "id": 12161781675,
      "lat": 12.9450279,
      "lon": 77.5964749,
      "tags": {
        "amenity": "waste_basket",
        "waste": "trash"
      }
    },
    {
      "type": "node",
      "id": 12161781683,
      "lat": 12.9449013,
      "lon": 77.5968265,
      "tags": {
        "amenity": "bench",
        "armrest": "yes",
        "backrest": "yes",
        "colour": "black",
        "material": "concrete",
        "seats": "3"
      }
    },
    {
      "type": "node",
      "id": 12161781684,
      "lat": 12.9450861,
      "lon": 77.5966096,
      "tags": {
        "amenity": "bench",
        "armrest": "yes",
        "backrest": "yes",
        "colour": "black",
        "material": "concrete",
        "seats": "3"
      }
    },
    {
      "type": "node",
      "id": 12161781686,
      "lat": 12.944987,
      "lon": 77.5967383,
      "tags": {
        "amenity": "waste_basket",
        "waste": "trash"
      }
    },
    {
      "type": "node",
      "id": 12161781688,
      "lat": 12.9449248,
      "lon": 77.5966053,
      "tags": {
        "amenity": "bench",
        "armrest": "yes",
        "backrest": "yes",
        "colour": "black",
        "material": "concrete",
        "seats": "3"
      }
    },
    {
      "type": "node",
      "id": 12161781689,
      "lat": 12.9448371,
      "lon": 77.5967768,
      "tags": {
        "amenity": "bench",
        "armrest": "yes",
        "backrest": "yes",
        "colour": "black",
        "material": "concrete",
        "seats": "3"
      }
    },
    {
      "type": "node",
      "id": 12161781693,
      "lat": 12.9451678,
      "lon": 77.5964536,
      "tags": {
        "amenity": "bench",
        "armrest": "yes",
        "backrest": "yes",
        "colour": "black",
        "material": "concrete",
        "seats": "3"
      }
    },
    {
      "type": "node",
      "id": 12161781697,
      "lat": 12.9449145,
      "lon": 77.5965919,
      "tags": {
        "amenity": "bench",
        "armrest": "yes",
        "backrest": "yes",
        "colour": "black",
        "material": "concrete",
        "seats": "3"
      }
    },
    {
      "type": "node",
      "id": 12161781698,
      "lat": 12.9448829,
      "lon": 77.5966155,
      "tags": {
        "amenity": "bench",
        "armrest": "yes",
        "backrest": "yes",
        "colour": "black",
        "material": "concrete",
        "seats": "3"
      }
    },
    {
      "type": "node",
      "id": 12161781700,
      "lat": 12.9447707,
      "lon": 77.5966888,
      "tags": {
        "amenity": "bench",
        "armrest": "yes",
        "backrest": "yes",
        "colour": "black",
        "material": "concrete",
        "seats": "3"
      }
    },
    {
      "type": "node",
      "id": 12161827805,
      "lat": 12.9449936,
      "lon": 77.5967313,
      "tags": {
        "amenity": "bench",
        "armrest": "yes",
        "backrest": "yes",
        "colour": "black",
        "material": "concrete",
        "seats": "3"
      }
    },
    {
      "type": "node",
      "id": 12161827807,
      "lat": 12.9451097,
      "lon": 77.5966152,
      "tags": {
        "amenity": "bench",
        "armrest": "yes",
        "backrest": "yes",
        "colour": "black",
        "material": "concrete",
        "seats": "3"
      }
    },
    {
      "type": "node",
      "id": 12161827808,
      "lat": 12.9451318,
      "lon": 77.5965522,
      "tags": {
        "amenity": "waste_basket",
        "waste": "trash"
      }
    },
    {
      "type": "node",
      "id": 12161827810,
      "lat": 12.9450146,
      "lon": 77.5964937,
      "tags": {
        "amenity": "bench",
        "armrest": "yes",
        "backrest": "yes",
        "colour": "black",
        "material": "concrete",
        "seats": "3"
      }
    },
    {
      "type": "node",
      "id": 12161827824,
      "lat": 12.944894,
      "lon": 77.5966309,
      "tags": {
        "amenity": "bench",
        "armrest": "yes",
        "backrest": "yes",
        "colour": "black",
        "material": "concrete",
        "seats": "3"
      }
    },
    {
      "type": "node",
      "id": 12161827830,
      "lat": 12.9448439,
      "lon": 77.5967477,
      "tags": {
        "amenity": "bench",
        "armrest": "yes",
        "backrest": "yes",
        "colour": "black",
        "material": "concrete",
        "seats": "3"
      }
    },
    {
      "type": "node",
      "id": 12161827831,
      "lat": 12.9451396,
      "lon": 77.5965027,
      "tags": {
        "amenity": "bench",
        "armrest": "yes",
        "backrest": "yes",
        "colour": "black",
        "material": "concrete",
        "seats": "3"
      }
    },
    {
      "type": "node",
      "id": 12162043399,
      "lat": 12.9443523,
      "lon": 77.5972744,
      "tags": {
        "check_date": "2025-09-19",
        "level": "0",
        "shop": "tobacco"
      }
    },
    {
      "type": "node",
      "id": 12162059529,
      "lat": 12.9433335,
      "lon": 77.5973926,
      "tags": {
        "amenity": "fast_food",
        "indoor_seating": "yes",
        "level": "0",
        "name": "Tejas Sweets",
        "outdoor_seating": "yes"
      }
    },
    {
      "type": "node",
      "id": 12162059542,
      "lat": 12.9442615,
      "lon": 77.5972443,
      "tags": {
        "check_date": "2025-09-19",
        "shop": "betel_quid"
      }
    },
    {
      "type": "node",
      "id": 12163099769,
      "lat": 12.9442542,
      "lon": 77.5972774,
      "tags": {
        "access": "permissive",
        "amenity": "drinking_water",
        "bottle": "yes",
        "indoor": "yes",
        "level": "0"
      }
    },
    {
      "type": "node",
      "id": 12163099776,
      "lat": 12.9434181,
      "lon": 77.5982473,
      "tags": {
        "addr:city": "Bangalore",
        "addr:housenumber": "417/9",
        "addr:place": "Lakkasandra",
        "addr:postcode": "560030",
        "addr:street": "15th Cross",
        "amenity": "internet_cafe",
        "contact:mobile": "+91-80504-12317",
        "level": "0",
        "name": "Vijaylakshmi Cyber Cafe",
        "operator": "Vijaylakshmi Enterprises",
        "wheelchair": "no"
      }
    },
    {
      "type": "node",
      "id": 12163099778,
      "lat": 12.945782,
      "lon": 77.595251,
      "tags": {
        "access": "permissive",
        "amenity": "toilets",
        "female": "yes",
        "male": "yes"
      }
    },
    {
      "type": "node",
      "id": 12163099779,
      "lat": 12.9459529,
      "lon": 77.5951966,
      "tags": {
        "air_conditioning": "no",
        "amenity": "fast_food",
        "level": "0",
        "name": "Murugan Tiffin Center"
      }
    },
    {
      "type": "node",
      "id": 12168410900,
      "lat": 12.9532918,
      "lon": 77.5930251,
      "tags": {
        "addr:floor": "G",
        "check_date": "2024-09-10",
        "level": "0",
        "name": "SRS Travels",
        "name:en": "SRS Travels",
        "shop": "travel_agency"
      }
    },
    {
      "type": "node",
      "id": 12168445591,
      "lat": 12.950762,
      "lon": 77.595979,
      "tags": {
        "addr:floor": "1",
        "check_date": "2024-09-10",
        "leisure": "fitness_centre",
        "level": "1",
        "name": "Game On Fitness",
        "name:en": "Game On Fitness"
      }
    },
    {
      "type": "node",
      "id": 12168445592,
      "lat": 12.9489708,
      "lon": 77.5979648,
      "tags": {
        "addr:floor": "G",
        "amenity": "restaurant",
        "check_date": "2024-09-10",
        "diet:vegetarian": "yes",
        "level": "0",
        "name": "Sandhya Veg",
        "name:en": "Sandhya Veg"
      }
    },
    {
      "type": "node",
      "id": 12168445593,
      "lat": 12.9482059,
      "lon": 77.5987156,
      "tags": {
        "addr:floor": "G",
        "amenity": "pharmacy",
        "brand": "MedPlus",
        "brand:wikidata": "Q65684234",
        "check_date": "2024-09-10",
        "healthcare": "pharmacy",
        "level": "0",
        "name": "MedPlus",
        "name:en": "Med Plus",
        "name:kn": "ಮೆಡ್‍ಪ್ಲಸ್"
      }
    },
    {
      "type": "node",
      "id": 12246167229,
      "lat": 12.9514622,
      "lon": 77.5971982,
      "tags": {
        "amenity": "place_of_worship",
        "check_date": "2024-10-12",
        "religion": "hindu"
      }
    },
    {
      "type": "node",
      "id": 12246167230,
      "lat": 12.9505253,
      "lon": 77.598265,
      "tags": {
        "amenity": "fast_food",
        "brand": "Indira Canteen",
        "brand:wikidata": "Q36164828",
        "check_date": "2024-10-12",
        "cuisine": "south_indian",
        "fast_food": "cafeteria",
        "name": "Indira Canteen",
        "operator": "BBMP",
        "takeaway": "yes"
      }
    },
    {
      "type": "node",
      "id": 12326784734,
      "lat": 12.9584889,
      "lon": 77.6011744,
      "tags": {
        "amenity": "bicycle_repair_station",
        "operator": "Skyline Rider Enterprise"
      }
    },
    {
      "type": "node",
      "id": 12326784735,
      "lat": 12.9586023,
      "lon": 77.601142,
      "tags": {
        "name": "Karnataka Mutton Stall",
        "shop": "butcher"
      }
    },
    {
      "type": "node",
      "id": 12326784736,
      "lat": 12.9586303,
      "lon": 77.6011561,
      "tags": {
        "name": "Reception Beauty Saloon",
        "shop": "beauty"
      }
    },
    {
      "type": "node",
      "id": 12326784738,
      "lat": 12.9597759,
      "lon": 77.6016028,
      "tags": {
        "name": "India Saloon",
        "shop": "hairdresser"
      }
    },
    {
      "type": "node",
      "id": 12327093397,
      "lat": 12.9600628,
      "lon": 77.6018387,
      "tags": {
        "amenity": "dentist",
        "healthcare": "dentist",
        "name": "Dental Centre"
      }
    },
    {
      "type": "node",
      "id": 12535615443,
      "lat": 12.9478762,
      "lon": 77.599636,
      "tags": {
        "addr:city": "Bangalore",
        "addr:postcode": "560030",
        "addr:street": "5th Main Road, 14th Cross",
        "amenity": "kindergarten",
        "name": "Merry Hill Kinder Garten"
      }
    },
    {
      "type": "node",
      "id": 13023090264,
      "lat": 12.9572298,
      "lon": 77.5943978,
      "tags": {
        "amenity": "cafe",
        "check_date": "2025-07-25",
        "name": "The Green Door Coffee House"
      }
    },
    {
      "type": "node",
      "id": 13155991171,
      "lat": 12.9498997,
      "lon": 77.5958958,
      "tags": {
        "amenity": "atm",
        "brand": "State Bank of India",
        "brand:wikidata": "Q1340361",
        "check_date": "2025-09-19",
        "operator": "State Bank of India",
        "operator:wikidata": "Q1340361"
      }
    },
    {
      "type": "node",
      "id": 13155991172,
      "lat": 12.9495651,
      "lon": 77.5962737,
      "tags": {
        "check_date": "2025-09-19",
        "name": "Sunil Raj Printers",
        "shop": "copyshop"
      }
    },
    {
      "type": "node",
      "id": 13155991173,
      "lat": 12.9492191,
      "lon": 77.5962052,
      "tags": {
        "amenity": "restaurant",
        "check_date": "2025-09-19",
        "name": "Flames Restaurant"
      }
    },
    {
      "type": "node",
      "id": 13158425219,
      "lat": 12.9445378,
      "lon": 77.5972756,
      "tags": {
        "addr:city": "Bangalore",
        "addr:full": "14th Cross, 13th Main, Lakksandra, Bangalore - 560030",
        "addr:parentstreet": "13th Main Road",
        "addr:postcode": "560030",
        "addr:street": "14th Cross Road",
        "addr:suburb": "Lakksandra",
        "amenity": "fast_food",
        "cuisine": "biryani",
        "level": "0",
        "name": "Ambur Biryani",
        "wheelchair": "no"
      }
    },
    {
      "type": "node",
      "id": 13161609978,
      "lat": 12.9430165,
      "lon": 77.5988989,
      "tags": {
        "check_date": "2025-09-20",
        "name": "Rex Bicycles",
        "service:bicycle:repair": "yes",
        "shop": "bicycle"
      }
    },
    {
      "type": "node",
      "id": 13161609979,
      "lat": 12.9430318,
      "lon": 77.5990927,
      "tags": {
        "check_date": "2025-09-20",
        "name": "Family Mart",
        "shop": "supermarket"
      }
    },
    {
      "type": "node",
      "id": 13161609980,
      "lat": 12.9441876,
      "lon": 77.5959383,
      "tags": {
        "check_date": "2025-09-20",
        "name": "Sri Ganesh Store",
        "shop": "convenience"
      }
    },
    {
      "type": "node",
      "id": 13161609981,
      "lat": 12.9443046,
      "lon": 77.5960438,
      "tags": {
        "amenity": "fast_food",
        "check_date": "2025-09-20",
        "diet:vegetarian": "yes",
        "name": "Ruha Cafe",
        "takeaway": "only"
      }
    },
    {
      "type": "node",
      "id": 13236852613,
      "lat": 12.9538537,
      "lon": 77.5924088,
      "tags": {
        "addr:floor": "G",
        "check_date": "2025-10-16",
        "level": "0",
        "name": "Sree Devi Condiments",
        "name:en": "Sree Devi Condiments",
        "shop": "convenience"
      }
    },
    {
      "type": "node",
      "id": 13341775165,
      "lat": 12.950955,
      "lon": 77.5938177,
      "tags": {
        "access": "yes",
        "amenity": "bench",
        "armrest": "no",
        "backrest": "yes",
        "material": "stone",
        "seats": "3"
      }
    },
    {
      "type": "node",
      "id": 13341775166,
      "lat": 12.9506612,
      "lon": 77.5919149,
      "tags": {
        "addr:floor": "2",
        "amenity": "restaurant",
        "check_date": "2025-11-30",
        "internet_access": "no",
        "name": "Alankaaram",
        "wheelchair": "no"
      }
    },
    {
      "type": "node",
      "id": 13341775173,
      "lat": 12.9502461,
      "lon": 77.5929829,
      "tags": {
        "addr:housenumber": "1",
        "addr:street": "3rd Cross Road",
        "amenity": "place_of_worship",
        "check_date": "2025-11-30",
        "name": "Ahmadiyya Masjid",
        "phone": "18001032131",
        "religion": "muslim",
        "website": "https://alislam.org"
      }
    },
    {
      "type": "node",
      "id": 13341775174,
      "lat": 12.9512757,
      "lon": 77.5941291,
      "tags": {
        "access": "yes",
        "amenity": "bench",
        "armrest": "no",
        "backrest": "yes",
        "material": "stone",
        "seats": "3"
      }
    },
    {
      "type": "node",
      "id": 13341775175,
      "lat": 12.9512355,
      "lon": 77.5940951,
      "tags": {
        "access": "yes",
        "amenity": "bench",
        "armrest": "no",
        "backrest": "yes",
        "material": "stone",
        "seats": "3"
      }
    },
    {
      "type": "node",
      "id": 13341775176,
      "lat": 12.9512041,
      "lon": 77.5940552,
      "tags": {
        "access": "yes",
        "amenity": "bench",
        "armrest": "no",
        "backrest": "no",
        "material": "stone",
        "seats": "3"
      }
    },
    {
      "type": "node",
      "id": 13341775177,
      "lat": 12.9511623,
      "lon": 77.5940154,
      "tags": {
        "access": "yes",
        "amenity": "bench",
        "armrest": "no",
        "backrest": "yes",
        "material": "stone",
        "seats": "4"
      }
    },
    {
      "type": "node",
      "id": 13341775178,
      "lat": 12.9510987,
      "lon": 77.5939516,
      "tags": {
        "access": "yes",
        "amenity": "bench",
        "armrest": "no",
        "backrest": "no",
        "material": "stone",
        "seats": "3"
      }
    },
    {
      "type": "node",
      "id": 13341775179,
      "lat": 12.9510585,
      "lon": 77.5939167,
      "tags": {
        "access": "yes",
        "amenity": "bench",
        "armrest": "no",
        "backrest": "yes",
        "material": "stone",
        "seats": "3"
      }
    },
    {
      "type": "node",
      "id": 13341775180,
      "lat": 12.9506612,
      "lon": 77.5919149,
      "tags": {
        "addr:floor": "G",
        "amenity": "fixme",
        "check_date": "2025-11-30",
        "fixme": "type",
        "fixme:type": "bike showroom",
        "internet_access": "no",
        "level": "0",
        "name": "Honda Big Wing",
        "wheelchair": "no"
      }
    },
    {
      "type": "node",
      "id": 13341775181,
      "lat": 12.9508398,
      "lon": 77.5937107,
      "tags": {
        "access": "yes",
        "amenity": "bench",
        "armrest": "no",
        "backrest": "yes",
        "material": "stone",
        "seats": "3"
      }
    },
    {
      "type": "node",
      "id": 13341775182,
      "lat": 12.9507637,
      "lon": 77.5936396,
      "tags": {
        "access": "yes",
        "amenity": "bench",
        "armrest": "no",
        "backrest": "yes",
        "material": "stone",
        "seats": "3"
      }
    },
    {
      "type": "node",
      "id": 13341775183,
      "lat": 12.9507045,
      "lon": 77.5935782,
      "tags": {
        "access": "yes",
        "amenity": "bench",
        "armrest": "no",
        "backrest": "yes",
        "material": "stone",
        "seats": "3"
      }
    },
    {
      "type": "node",
      "id": 13341775184,
      "lat": 12.9506327,
      "lon": 77.5935171,
      "tags": {
        "access": "yes",
        "amenity": "bench",
        "armrest": "no",
        "backrest": "yes",
        "material": "stone",
        "seats": "3"
      }
    },
    {
      "type": "node",
      "id": 13341775185,
      "lat": 12.9505504,
      "lon": 77.5934449,
      "tags": {
        "access": "yes",
        "amenity": "bench",
        "armrest": "no",
        "backrest": "yes",
        "material": "stone",
        "seats": "3"
      }
    },
    {
      "type": "node",
      "id": 13341775186,
      "lat": 12.9503847,
      "lon": 77.5933052,
      "tags": {
        "access": "yes",
        "amenity": "bench",
        "armrest": "no",
        "backrest": "yes",
        "material": "stone",
        "seats": "3"
      }
    },
    {
      "type": "node",
      "id": 13341775187,
      "lat": 12.9504496,
      "lon": 77.5935075,
      "tags": {
        "access": "yes",
        "amenity": "bench",
        "armrest": "no",
        "backrest": "yes",
        "material": "stone",
        "seats": "3"
      }
    },
    {
      "type": "node",
      "id": 13341775188,
      "lat": 12.9504677,
      "lon": 77.5935778,
      "tags": {
        "amenity": "waste_basket",
        "colour": "Green and Blue",
        "material": "plastic",
        "operator": "BBMP",
        "waste": "mixed"
      }
    },
    {
      "type": "node",
      "id": 13341775189,
      "lat": 12.9504829,
      "lon": 77.5936337,
      "tags": {
        "access": "yes",
        "amenity": "bench",
        "armrest": "no",
        "backrest": "yes",
        "material": "stone",
        "seats": "3"
      }
    },
    {
      "type": "node",
      "id": 13341775190,
      "lat": 12.9505083,
      "lon": 77.5936882,
      "tags": {
        "access": "yes",
        "amenity": "bench",
        "armrest": "no",
        "backrest": "yes",
        "material": "stone",
        "seats": "3"
      }
    },
    {
      "type": "node",
      "id": 13341775191,
      "lat": 12.9505426,
      "lon": 77.5937699,
      "tags": {
        "access": "yes",
        "amenity": "bench",
        "armrest": "no",
        "backrest": "yes",
        "material": "stone",
        "seats": "3"
      }
    },
    {
      "type": "node",
      "id": 13341775192,
      "lat": 12.9505884,
      "lon": 77.5938736,
      "tags": {
        "access": "yes",
        "amenity": "bench",
        "armrest": "no",
        "material": "stone",
        "seats": "3"
      }
    },
    {
      "type": "node",
      "id": 13341775193,
      "lat": 12.9506357,
      "lon": 77.5939583,
      "tags": {
        "access": "yes",
        "amenity": "bench",
        "armrest": "no",
        "backrest": "yes",
        "material": "stone",
        "seats": "3"
      }
    },
    {
      "type": "node",
      "id": 13341775194,
      "lat": 12.9506573,
      "lon": 77.5940061,
      "tags": {
        "access": "yes",
        "amenity": "bench",
        "armrest": "no",
        "backrest": "no",
        "material": "stone",
        "seats": "3"
      }
    },
    {
      "type": "node",
      "id": 13341775195,
      "lat": 12.9506997,
      "lon": 77.5940911,
      "tags": {
        "access": "yes",
        "amenity": "bench",
        "armrest": "no",
        "backrest": "yes",
        "material": "stone",
        "seats": "3"
      }
    },
    {
      "type": "node",
      "id": 13341775196,
      "lat": 12.9509344,
      "lon": 77.594536,
      "tags": {
        "access": "yes",
        "amenity": "bench",
        "armrest": "no",
        "backrest": "no",
        "material": "stone",
        "seats": "3"
      }
    },
    {
      "type": "node",
      "id": 13341775197,
      "lat": 12.9507483,
      "lon": 77.5941885,
      "tags": {
        "access": "yes",
        "amenity": "bench",
        "armrest": "no",
        "backrest": "yes",
        "material": "stone",
        "seats": "3"
      }
    },
    {
      "type": "node",
      "id": 13341775198,
      "lat": 12.9507739,
      "lon": 77.5942358,
      "tags": {
        "access": "yes",
        "amenity": "bench",
        "armrest": "no",
        "backrest": "no",
        "material": "stone",
        "seats": "3"
      }
    },
    {
      "type": "node",
      "id": 13341775199,
      "lat": 12.9508028,
      "lon": 77.5942867,
      "tags": {
        "access": "yes",
        "amenity": "bench",
        "armrest": "no",
        "backrest": "yes",
        "material": "stone",
        "seats": "3"
      }
    },
    {
      "type": "node",
      "id": 13341775200,
      "lat": 12.9508235,
      "lon": 77.594331,
      "tags": {
        "access": "yes",
        "amenity": "bench",
        "armrest": "no",
        "backrest": "no",
        "material": "stone",
        "seats": "3"
      }
    },
    {
      "type": "node",
      "id": 13341789489,
      "lat": 12.9510827,
      "lon": 77.5942784,
      "tags": {
        "amenity": "shelter",
        "bench": "yes",
        "name": "Gaze P",
        "shelter_type": "gazebo"
      }
    },
    {
      "type": "node",
      "id": 13341800373,
      "lat": 12.951193,
      "lon": 77.5948828,
      "tags": {
        "amenity": "bench"
      }
    },
    {
      "type": "node",
      "id": 13341800374,
      "lat": 12.9510853,
      "lon": 77.5946963,
      "tags": {
        "amenity": "bench"
      }
    },
    {
      "type": "node",
      "id": 13341800382,
      "lat": 12.9509376,
      "lon": 77.5921354,
      "tags": {
        "level": "0",
        "name": "Elica",
        "shop": "appliance"
      }
    },
    {
      "type": "node",
      "id": 13341800384,
      "lat": 12.9511529,
      "lon": 77.5948087,
      "tags": {
        "amenity": "bench"
      }
    },
    {
      "type": "node",
      "id": 13341800388,
      "lat": 12.9510515,
      "lon": 77.5946258,
      "tags": {
        "amenity": "bench"
      }
    },
    {
      "type": "node",
      "id": 13341800391,
      "lat": 12.9509903,
      "lon": 77.592186,
      "tags": {
        "level": "2",
        "name": "Double Two",
        "shop": "clothes"
      }
    },
    {
      "type": "node",
      "id": 13341800392,
      "lat": 12.9512697,
      "lon": 77.5945254,
      "tags": {
        "amenity": "shelter",
        "shelter_type": "gazebo"
      }
    },
    {
      "type": "node",
      "id": 13341800397,
      "lat": 12.9511181,
      "lon": 77.5947387,
      "tags": {
        "amenity": "bench"
      }
    },
    {
      "type": "node",
      "id": 13341812877,
      "lat": 12.951213,
      "lon": 77.5941732,
      "tags": {
        "amenity": "shelter",
        "bench": "yes",
        "name": "Gazebo",
        "shelter_type": "gazebo"
      }
    },
    {
      "type": "node",
      "id": 13341818301,
      "lat": 12.9508419,
      "lon": 77.5943618,
      "tags": {
        "access": "yes",
        "amenity": "bench",
        "armrest": "no",
        "backrest": "yes",
        "material": "stone",
        "seats": "3"
      }
    },
    {
      "type": "node",
      "id": 13341818302,
      "lat": 12.9508552,
      "lon": 77.5943934,
      "tags": {
        "access": "yes",
        "amenity": "bench",
        "armrest": "no",
        "backrest": "no",
        "material": "stone",
        "seats": "3"
      }
    },
    {
      "type": "node",
      "id": 13341818303,
      "lat": 12.9508754,
      "lon": 77.5944231,
      "tags": {
        "access": "yes",
        "amenity": "bench",
        "armrest": "no",
        "backrest": "yes",
        "material": "stone",
        "seats": "3"
      }
    },
    {
      "type": "node",
      "id": 13341818304,
      "lat": 12.9508843,
      "lon": 77.5944461,
      "tags": {
        "access": "yes",
        "amenity": "bench",
        "armrest": "no",
        "backrest": "no",
        "material": "stone",
        "seats": "3"
      }
    },
    {
      "type": "node",
      "id": 13341818305,
      "lat": 12.9508866,
      "lon": 77.5944535,
      "tags": {
        "amenity": "waste_basket",
        "colour": "Green and Blue",
        "material": "plastic",
        "operator": "BBMP",
        "waste": "mixed"
      }
    },
    {
      "type": "node",
      "id": 13341818306,
      "lat": 12.9508984,
      "lon": 77.5944766,
      "tags": {
        "access": "yes",
        "amenity": "bench",
        "armrest": "no",
        "backrest": "no",
        "material": "stone",
        "seats": "3"
      }
    },
    {
      "type": "node",
      "id": 13341818307,
      "lat": 12.9509094,
      "lon": 77.5944919,
      "tags": {
        "access": "yes",
        "amenity": "bench",
        "armrest": "no",
        "backrest": "yes",
        "material": "stone",
        "seats": "3"
      }
    },
    {
      "type": "node",
      "id": 13341818308,
      "lat": 12.9509273,
      "lon": 77.5945205,
      "tags": {
        "access": "yes",
        "amenity": "bench",
        "armrest": "no",
        "backrest": "yes",
        "material": "stone",
        "seats": "3"
      }
    },
    {
      "type": "node",
      "id": 13341818309,
      "lat": 12.9507263,
      "lon": 77.594144,
      "tags": {
        "access": "yes",
        "amenity": "bench",
        "armrest": "no",
        "backrest": "no",
        "material": "stone",
        "seats": "3"
      }
    },
    {
      "type": "node",
      "id": 13341823601,
      "lat": 12.9512445,
      "lon": 77.5941483,
      "tags": {
        "amenity": "waste_basket",
        "manufacturer": "aristo"
      }
    },
    {
      "type": "node",
      "id": 13342377538,
      "lat": 12.9552799,
      "lon": 77.592933,
      "tags": {
        "amenity": "bench"
      }
    },
    {
      "type": "node",
      "id": 13342464189,
      "lat": 12.955353,
      "lon": 77.5927762,
      "tags": {
        "amenity": "bench"
      }
    },
    {
      "type": "node",
      "id": 13342464190,
      "lat": 12.9552689,
      "lon": 77.5930082,
      "tags": {
        "amenity": "bench"
      }
    },
    {
      "type": "node",
      "id": 13342466241,
      "lat": 12.9552446,
      "lon": 77.5930388,
      "tags": {
        "amenity": "bench"
      }
    },
    {
      "type": "node",
      "id": 13342467443,
      "lat": 12.9551831,
      "lon": 77.5930617,
      "tags": {
        "amenity": "bench"
      }
    },
    {
      "type": "node",
      "id": 13342467572,
      "lat": 12.9551639,
      "lon": 77.5930683,
      "tags": {
        "amenity": "bench"
      }
    },
    {
      "type": "node",
      "id": 13342471978,
      "lat": 12.9552575,
      "lon": 77.5930235,
      "tags": {
        "amenity": "bench"
      }
    },
    {
      "type": "node",
      "id": 13342479152,
      "lat": 12.9553263,
      "lon": 77.592815,
      "tags": {
        "amenity": "bench"
      }
    },
    {
      "type": "node",
      "id": 13342480857,
      "lat": 12.955204,
      "lon": 77.5930607,
      "tags": {
        "amenity": "bench"
      }
    },
    {
      "type": "node",
      "id": 13342482275,
      "lat": 12.9552804,
      "lon": 77.5929511,
      "tags": {
        "amenity": "bench"
      }
    },
    {
      "type": "node",
      "id": 13342485808,
      "lat": 12.9552798,
      "lon": 77.5929697,
      "tags": {
        "amenity": "bench"
      }
    },
    {
      "type": "node",
      "id": 13343543419,
      "lat": 12.9550869,
      "lon": 77.5925863,
      "tags": {
        "amenity": "parking_entrance",
        "parking": "multi-storey"
      }
    },
    {
      "type": "node",
      "id": 13343543420,
      "lat": 12.9536152,
      "lon": 77.5925145,
      "tags": {
        "amenity": "parking_entrance",
        "parking": "multi-storey"
      }
    },
    {
      "type": "way",
      "id": 15802464,
      "center": {
        "lat": 12.9488929,
        "lon": 77.5866687
      },
      "tags": {
        "leisure": "park",
        "name": "Lalbagh Botanical Gardens",
        "name:kn": "ಲಾಲ್‌ಬಾಗ್ ಸಸ್ಯೋದ್ಯಾನ",
        "name:te": "లాల్‌బాగ్ వృక్షశాస్త్ర ఉద్యానవనం",
        "tourism": "attraction",
        "wikidata": "Q200711",
        "wikimedia_commons": "Category:Lalbagh Botanical Garden",
        "wikipedia": "en:Lal Bagh"
      }
    },
    {
      "type": "way",
      "id": 45439811,
      "center": {
        "lat": 12.9439601,
        "lon": 77.5973757
      },
      "tags": {
        "leisure": "park"
      }
    },
    {
      "type": "way",
      "id": 130863014,
      "center": {
        "lat": 12.9455044,
        "lon": 77.5957587
      },
      "tags": {
        "addr:street": "Dr. M H Marigowda Road",
        "building": "retail",
        "building:levels": "5",
        "building:levels:underground": "1",
        "name": "Brand Factory",
        "roof:shape": "flat",
        "shop": "clothes"
      }
    },
    {
      "type": "way",
      "id": 131396833,
      "center": {
        "lat": 12.9468482,
        "lon": 77.5956798
      },
      "tags": {
        "addr:city": "Bengaluru",
        "addr:district": "Bengaluru Urban",
        "addr:postcode": "560027",
        "addr:street": "Hombegowda Boys High School Skating Ground, Wilson Garden,Hombegowda Nagar",
        "amenity": "clinic",
        "building": "yes",
        "healthcare": "clinic",
        "name": "Nama Clinic"
      }
    },
    {
      "type": "way",
      "id": 131442463,
      "center": {
        "lat": 12.9506553,
        "lon": 77.5912883
      },
      "tags": {
        "amenity": "marketplace",
        "name": "HOPCOMS",
        "name:kn": "ಹಾಪ್ ಕಾಮ್ಸ್"
      }
    },
    {
      "type": "way",
      "id": 138991404,
      "center": {
        "lat": 12.9560946,
        "lon": 77.5929001
      },
      "tags": {
        "amenity": "place_of_worship",
        "landuse": "religious",
        "name": "Ishwara Temple",
        "name:kn": "ಈಶ್ವರ ದೇವಸ್ಥಾನ",
        "religion": "hindu"
      }
    },
    {
      "type": "way",
      "id": 147124751,
      "center": {
        "lat": 12.9510783,
        "lon": 77.594223
      },
      "tags": {
        "leisure": "park",
        "name": "Kitturu Rani Chennamma Park",
        "name:etymology:wikidata": "Q3536979",
        "name:kn": "ಕಿತ್ತೂರು ರಾಣಿ ಚೆನ್ನಮ್ಮ ಉದ್ಯಾನವನ",
        "old_name": "Wilson Garden Park"
      }
    },
    {
      "type": "way",
      "id": 152462761,
      "center": {
        "lat": 12.9568141,
        "lon": 77.5932416
      },
      "tags": {
        "leisure": "garden"
      }
    },
    {
      "type": "way",
      "id": 172899266,
      "center": {
        "lat": 12.9537421,
        "lon": 77.5938108
      },
      "tags": {
        "amenity": "school",
        "name": "Outreach School"
      }
    },
    {
      "type": "way",
      "id": 172899341,
      "center": {
        "lat": 12.953617,
        "lon": 77.5948769
      },
      "tags": {
        "amenity": "school"
      }
    },
    {
      "type": "way",
      "id": 172947365,
      "center": {
        "lat": 12.9445122,
        "lon": 77.6068396
      },
      "tags": {
        "amenity": "school",
        "name": "GHS Adugodi",
        "name:kn": "ಸರ್ಕಾರಿ ಪ್ರೌಡ ಶಾಲೆ"
      }
    },
    {
      "type": "way",
      "id": 323458337,
      "center": {
        "lat": 12.9479026,
        "lon": 77.5965298
      },
      "tags": {
        "amenity": "school",
        "name": "Hombegowda Boys School",
        "name:kn": "ಹೊಂಬೆಗೌಡ ಬಾಲಕರ ಶಾಲೆ"
      }
    },
    {
      "type": "way",
      "id": 323458338,
      "center": {
        "lat": 12.94484,
        "lon": 77.6003444
      },
      "tags": {
        "addr:city": "Bangalore",
        "addr:postcode": "560030",
        "addr:street": "12th Main, 15th Cross, Wilson Garden",
        "amenity": "school",
        "name": "Mary Immaculate School",
        "website": "http://www.maryimmaculateschool.in/index.php"
      }
    },
    {
      "type": "way",
      "id": 323458339,
      "center": {
        "lat": 12.9487167,
        "lon": 77.5971382
      },
      "tags": {
        "amenity": "place_of_worship",
        "name": "Ram Mandir",
        "name:kn": "ರಾಮ ಮಂದಿರ",
        "religion": "hindu"
      }
    },
    {
      "type": "way",
      "id": 326199006,
      "center": {
        "lat": 12.9559827,
        "lon": 77.6020973
      },
      "tags": {
        "leisure": "park"
      }
    },
    {
      "type": "way",
      "id": 326199007,
      "center": {
        "lat": 12.956985,
        "lon": 77.6011901
      },
      "tags": {
        "leisure": "park"
      }
    },
    {
      "type": "way",
      "id": 333556168,
      "center": {
        "lat": 12.9471261,
        "lon": 77.6021753
      },
      "tags": {
        "addr:street": "Bannerghatta Road",
        "amenity": "place_of_worship",
        "name": "Masjid-e-Aala",
        "name:kn": "ಮಸ್ಜಿದ್-ಎ-ಆಲ",
        "religion": "muslim"
      }
    },
    {
      "type": "way",
      "id": 335369724,
      "center": {
        "lat": 12.9490049,
        "lon": 77.5924776
      },
      "tags": {
        "amenity": "parking"
      }
    },
    {
      "type": "way",
      "id": 346789708,
      "center": {
        "lat": 12.9478582,
        "lon": 77.5999988
      },
      "tags": {
        "building": "yes",
        "name": "Karnataka Tailors",
        "shop": "tailor"
      }
    },
    {
      "type": "way",
      "id": 346789844,
      "center": {
        "lat": 12.9475435,
        "lon": 77.5998752
      },
      "tags": {
        "building": "yes",
        "name": "Mangaldeep Bankers and Jewellers",
        "shop": "jewelry"
      }
    },
    {
      "type": "way",
      "id": 346795143,
      "center": {
        "lat": 12.9457273,
        "lon": 77.5963562
      },
      "tags": {
        "building": "yes",
        "building:levels": "5",
        "check_date": "2024-09-08",
        "name": "TEXS Mart",
        "roof:shape": "flat",
        "shop": "clothes",
        "wheelchair": "no"
      }
    },
    {
      "type": "way",
      "id": 347074890,
      "center": {
        "lat": 12.9462798,
        "lon": 77.5947839
      },
      "tags": {
        "addr:district": "Bengaluru Urban",
        "addr:full": "17, Dr.M.H.Mari Gowda Road, Opp Wilson Garden",
        "addr:postcode": "560027",
        "addr:state": "Karnataka",
        "amenity": "hospital",
        "healthcare": "hospital",
        "healthcare:speciality": "Neuro Psychiatry; Neuro Surgery; Oncology; Orthopaedics; Joint Replacements; General Surgery",
        "name": "Abhaya Hospital",
        "name:kn": "ಅಭಯ ಆಸ್ಪತ್ರೆ",
        "operator:type": "private",
        "source": "OpenGovernmentData",
        "website": "https://www.abhayahospital.org/",
        "wheelchair": "yes"
      }
    },
    {
      "type": "way",
      "id": 347076931,
      "center": {
        "lat": 12.9500332,
        "lon": 77.5922164
      },
      "tags": {
        "building": "yes",
        "name": "HMG Stones",
        "shop": "jewelry"
      }
    },
    {
      "type": "way",
      "id": 347167749,
      "center": {
        "lat": 12.9491979,
        "lon": 77.596808
      },
      "tags": {
        "amenity": "hospital",
        "healthcare": "hospital",
        "name": "BBMP Maternity Hospital",
        "name:kn": "ಸರಕಾರಿ ಹೆರಿಗೆ ಆಸ್ಪತ್ರೆ"
      }
    },
    {
      "type": "way",
      "id": 347234063,
      "center": {
        "lat": 12.9538875,
        "lon": 77.5922444
      },
      "tags": {
        "alt_name": "TTMC Shanthinagara MLCP",
        "amenity": "parking",
        "building": "parking",
        "building:levels": "7",
        "name": "Multi Level Car Park",
        "parking": "multi-storey",
        "roof:shape": "flat"
      }
    },
    {
      "type": "way",
      "id": 348608464,
      "center": {
        "lat": 12.9470974,
        "lon": 77.5966177
      },
      "tags": {
        "amenity": "bank",
        "building": "yes"
      }
    },
    {
      "type": "way",
      "id": 393699912,
      "center": {
        "lat": 12.9540365,
        "lon": 77.5930748
      },
      "tags": {
        "alt_name": "TTMC Shanthinagara 'A' Block",
        "amenity": "office",
        "building": "yes",
        "building:levels": "6",
        "name": "'A' Block",
        "roof:shape": "flat"
      }
    },
    {
      "type": "way",
      "id": 393699932,
      "center": {
        "lat": 12.9533742,
        "lon": 77.5975797
      },
      "tags": {
        "amenity": "college",
        "name": "Indira Gandhi National Open University",
        "name:etymology:wikidata": "Q1149"
      }
    },
    {
      "type": "way",
      "id": 442014336,
      "center": {
        "lat": 12.9533316,
        "lon": 77.6011904
      },
      "tags": {
        "leisure": "park"
      }
    },
    {
      "type": "way",
      "id": 442014338,
      "center": {
        "lat": 12.9566712,
        "lon": 77.6006813
      },
      "tags": {
        "amenity": "place_of_worship",
        "building": "mosque",
        "name": "Masjid-e-Khizar",
        "religion": "muslim"
      }
    },
    {
      "type": "way",
      "id": 625747310,
      "center": {
        "lat": 12.9474276,
        "lon": 77.5952577
      },
      "tags": {
        "alt_name": "Elephant Park",
        "leisure": "park",
        "name": "Bhuvaneshwari Park",
        "name:kn": "ಭುವನೇಶ್ವರಿ ಉದ್ಯಾನವನ"
      }
    },
    {
      "type": "way",
      "id": 639010019,
      "center": {
        "lat": 12.9492019,
        "lon": 77.5977936
      },
      "tags": {
        "addr:district": "Bengaluru Urban",
        "addr:full": "35, Siddiah Road, Wilson Garden",
        "addr:postcode": "560027",
        "addr:state": "Karnataka",
        "amenity": "hospital",
        "building": "hospital",
        "healthcare": "hospital",
        "name": "Agadi Hospital",
        "name:kn": "ಅಗಡಿ ಆಸ್ಪತ್ರೆ",
        "source": "OpenGovernmentData"
      }
    },
    {
      "type": "way",
      "id": 639010029,
      "center": {
        "lat": 12.9457867,
        "lon": 77.5953339
      },
      "tags": {
        "amenity": "fuel",
        "brand": "Bharat Petroleum",
        "brand:wikidata": "Q854826",
        "name": "Nandini Filling Station",
        "name:kn": "ಭಾರತ್ ಪೆಟ್ರೋಲಿಯಂ"
      }
    },
    {
      "type": "way",
      "id": 673677240,
      "center": {
        "lat": 12.9482151,
        "lon": 77.5968238
      },
      "tags": {
        "amenity": "college"
      }
    },
    {
      "type": "way",
      "id": 688824194,
      "center": {
        "lat": 12.9496246,
        "lon": 77.5928626
      },
      "tags": {
        "amenity": "fuel",
        "brand": "Shell",
        "brand:wikidata": "Q110716465",
        "brand:wikipedia": "en:Royal Dutch Shell",
        "compressed_air": "yes",
        "name": "Shell",
        "name:kn": "ಶೆಲ್"
      }
    },
    {
      "type": "way",
      "id": 779344674,
      "center": {
        "lat": 12.9436204,
        "lon": 77.6056771
      },
      "tags": {
        "leisure": "pitch"
      }
    },
    {
      "type": "way",
      "id": 781182572,
      "center": {
        "lat": 12.9591357,
        "lon": 77.6010894
      },
      "tags": {
        "amenity": "school",
        "isced:level": "2",
        "landuse": "education",
        "name": "GTHPS Puduparacheri",
        "name:kn": "ಸರ್ಕಾರಿ ತೆಲುಗು ಹಿರಿಯ ಪ್ರಾಥಮಿಕ ಶಾಲೆ ಪುದುಪರಾಚೇರಿ",
        "operator": "Department of Education",
        "school": "primary"
      }
    },
    {
      "type": "way",
      "id": 781182573,
      "center": {
        "lat": 12.9595349,
        "lon": 77.6011922
      },
      "tags": {
        "amenity": "school",
        "isced:level": "2",
        "landuse": "education",
        "name": "GMPS AkkithimmanaHalli",
        "name:kn": "ಸರ್ಕಾರಿ ಮಾದರಿ ಪ್ರಾಥಮಿಕ ಶಾಲೆ ಅಕ್ಕಿತಿಮ್ಮನಹಳ್ಳಿ",
        "operator": "Department of Education",
        "school": "primary"
      }
    },
    {
      "type": "way",
      "id": 781182575,
      "center": {
        "lat": 12.9563799,
        "lon": 77.6027769
      },
      "tags": {
        "leisure": "park"
      }
    },
    {
      "type": "way",
      "id": 781192792,
      "center": {
        "lat": 12.949021,
        "lon": 77.6067587
      },
      "tags": {
        "leisure": "park"
      }
    },
    {
      "type": "way",
      "id": 781192796,
      "center": {
        "lat": 12.9506051,
        "lon": 77.6053997
      },
      "tags": {
        "amenity": "fuel",
        "brand": "Total",
        "brand:wikidata": "Q154037",
        "name": "Total",
        "operator": "Total"
      }
    },
    {
      "type": "way",
      "id": 897512106,
      "center": {
        "lat": 12.9471141,
        "lon": 77.5954126
      },
      "tags": {
        "leisure": "pitch",
        "sport": "skateboard",
        "wheelchair": "yes"
      }
    },
    {
      "type": "way",
      "id": 1049075231,
      "center": {
        "lat": 12.9573344,
        "lon": 77.6045898
      },
      "tags": {
        "addr:housenumber": "2",
        "addr:street": "Berlie Street",
        "amenity": "arts_centre",
        "contact:instagram": "kaashfoundation",
        "name": "Kaash",
        "operator": "Kaash Foundation"
      }
    },
    {
      "type": "way",
      "id": 1080795057,
      "center": {
        "lat": 12.9432398,
        "lon": 77.5970684
      },
      "tags": {
        "access": "permissive",
        "amenity": "motorcycle_parking",
        "parking": "surface"
      }
    },
    {
      "type": "way",
      "id": 1086044112,
      "center": {
        "lat": 12.9482501,
        "lon": 77.6086002
      },
      "tags": {
        "amenity": "college",
        "fixme": "Boundaries of the campus",
        "name": "National Institute of Animal Nutrition and Physiology",
        "official_name": "ICAR - National Institute of Animal Nutrition and Physiology",
        "short_name": "NIANP"
      }
    },
    {
      "type": "way",
      "id": 1095458699,
      "center": {
        "lat": 12.9592448,
        "lon": 77.601562
      },
      "tags": {
        "amenity": "place_of_worship",
        "denomination": "sunni",
        "landuse": "religious",
        "religion": "muslim"
      }
    },
    {
      "type": "way",
      "id": 1100674381,
      "center": {
        "lat": 12.955594,
        "lon": 77.5980861
      },
      "tags": {
        "amenity": "school",
        "name": "St. Michael's School",
        "name:kn": "ಸೈಂಟ್ ಮೈಕಲ್ ಶಾಲೆ"
      }
    },
    {
      "type": "way",
      "id": 1100674383,
      "center": {
        "lat": 12.9559596,
        "lon": 77.5970977
      },
      "tags": {
        "amenity": "place_of_worship",
        "denomination": "catholic",
        "name": "St. Michael's Church",
        "name:kn": "ಸೇಂಟ್ ಮೈಕೇಲ್ಸ್ ಚರ್ಚ್",
        "religion": "christian"
      }
    },
    {
      "type": "way",
      "id": 1125144619,
      "center": {
        "lat": 12.9556473,
        "lon": 77.5924648
      },
      "tags": {
        "leisure": "garden"
      }
    },
    {
      "type": "way",
      "id": 1125144620,
      "center": {
        "lat": 12.9552802,
        "lon": 77.592935
      },
      "tags": {
        "leisure": "garden"
      }
    },
    {
      "type": "way",
      "id": 1149213001,
      "center": {
        "lat": 12.9569001,
        "lon": 77.6047605
      },
      "tags": {
        "addr:district": "Bengaluru Urban",
        "addr:full": "15, Eagle Street Langford Town Shanti Nagar",
        "addr:postcode": "560025",
        "addr:state": "Karnataka",
        "amenity": "hospital",
        "emergency": "no",
        "name": "Dr Agarwal's Eye Hospital",
        "source": "OpenGovernmentData"
      }
    },
    {
      "type": "way",
      "id": 1172707221,
      "center": {
        "lat": 12.9514665,
        "lon": 77.5947664
      },
      "tags": {
        "access": "yes",
        "leisure": "playground"
      }
    },
    {
      "type": "way",
      "id": 1177319348,
      "center": {
        "lat": 12.9540105,
        "lon": 77.6003994
      },
      "tags": {
        "addr:place": "Shanthinagar",
        "amenity": "school",
        "isced:level": "2",
        "name": "GHPS Ksrtc Shanthinagar",
        "name:kn": "ಸರ್ಕಾರಿ ಹಿರಿಯ ಪ್ರಾಥಮಿಕ ಶಾಲೆ ಕೆ.ಎಸ್‌.ಆರ್‌.ಟಿ.ಸಿ ಶಾಂತಿನಗರ",
        "operator": "Department of Education",
        "school": "primary"
      }
    },
    {
      "type": "way",
      "id": 1182963076,
      "center": {
        "lat": 12.9449898,
        "lon": 77.6017514
      },
      "tags": {
        "access": "permissive",
        "leisure": "swimming_pool"
      }
    },
    {
      "type": "way",
      "id": 1182963077,
      "center": {
        "lat": 12.9452647,
        "lon": 77.6015696
      },
      "tags": {
        "access": "permissive",
        "leisure": "swimming_pool"
      }
    },
    {
      "type": "way",
      "id": 1182963078,
      "center": {
        "lat": 12.9452186,
        "lon": 77.6015996
      },
      "tags": {
        "leisure": "sports_centre",
        "name": "Wilson Garden Swimming Pool"
      }
    },
    {
      "type": "way",
      "id": 1203535875,
      "center": {
        "lat": 12.9454633,
        "lon": 77.6053415
      },
      "tags": {
        "leisure": "park"
      }
    },
    {
      "type": "way",
      "id": 1203535876,
      "center": {
        "lat": 12.945051,
        "lon": 77.6039766
      },
      "tags": {
        "leisure": "park"
      }
    },
    {
      "type": "way",
      "id": 1207541336,
      "center": {
        "lat": 12.9439285,
        "lon": 77.5955112
      },
      "tags": {
        "access": "private",
        "leisure": "swimming_pool"
      }
    },
    {
      "type": "way",
      "id": 1217537982,
      "center": {
        "lat": 12.9450003,
        "lon": 77.5966138
      },
      "tags": {
        "leisure": "park",
        "name": "Doctor Mujahid Pasha Park",
        "opening_hours": "mo-su 06:30-20:00"
      }
    },
    {
      "type": "way",
      "id": 1219285692,
      "center": {
        "lat": 12.9431708,
        "lon": 77.5964791
      },
      "tags": {
        "alt_name": "NIMHANS Convention Center",
        "amenity": "events_venue",
        "amenity_1": "conference_centre",
        "building": "yes",
        "building:levels": "2",
        "check_date": "2025-09-22",
        "max_level": "1",
        "min_level": "0",
        "name": "Nimhans Convention Center",
        "name:bn": "নিমহান্স সম্মেলন কেন্দ্র",
        "name:hi": "निम्हान्स कन्वेंशन सेंटर",
        "name:ml": "നിംഹാൻസ് കൺവെൻഷൻ സെന്റർ",
        "name:ta": "நிம்ஹான்ஸ் மாநாட்டு மையம்",
        "roof:shape": "flat",
        "wheelchair": "yes"
      }
    },
    {
      "type": "way",
      "id": 1222892857,
      "center": {
        "lat": 12.9479271,
        "lon": 77.5924806
      },
      "tags": {
        "access": "customers",
        "amenity": "parking"
      }
    },
    {
      "type": "way",
      "id": 1257327546,
      "center": {
        "lat": 12.9478274,
        "lon": 77.5924806
      },
      "tags": {
        "alt_name": "Truelife Maha Bodhi Hospital",
        "amenity": "hospital",
        "name": "Brains Super Speciality Hospital",
        "official_name": "Maha Bodhi Mallige Hospital",
        "old_name": "Mallige Hospital",
        "old_name:kn": "ಮಲ್ಲಿಗೆ ಆಸ್ಪತ್ರೆ"
      }
    },
    {
      "type": "way",
      "id": 1259003513,
      "center": {
        "lat": 12.9433411,
        "lon": 77.6053308
      },
      "tags": {
        "access": "permissive",
        "amenity": "parking",
        "parking": "surface"
      }
    },
    {
      "type": "way",
      "id": 1298074067,
      "center": {
        "lat": 12.9447394,
        "lon": 77.5964164
      },
      "tags": {
        "amenity": "hospital",
        "name": "Safa Medicure Hospital"
      }
    },
    {
      "type": "way",
      "id": 1298099609,
      "center": {
        "lat": 12.9432948,
        "lon": 77.5969351
      },
      "tags": {
        "amenity": "theatre",
        "capacity": "150",
        "check_date": "2025-09-22",
        "indoor": "room",
        "level": "0",
        "level_name": "0",
        "name": "Auditorium 3",
        "name:bn": "অডিটরিয়াম ৩",
        "ref": "A3",
        "room": "auditorium"
      }
    },
    {
      "type": "way",
      "id": 1298099610,
      "center": {
        "lat": 12.9432526,
        "lon": 77.596784
      },
      "tags": {
        "amenity": "theatre",
        "capacity": "200",
        "check_date": "2025-09-22",
        "indoor": "room",
        "level": "0",
        "level_name": "0",
        "name": "Auditorium 2",
        "name:bn": "অডিটরিয়াম ২",
        "ref": "A2",
        "room": "auditorium"
      }
    },
    {
      "type": "way",
      "id": 1306976437,
      "center": {
        "lat": 12.9523925,
        "lon": 77.5980116
      },
      "tags": {
        "leisure": "sports_centre",
        "name": "KSRTC Sports Complex"
      }
    },
    {
      "type": "way",
      "id": 1307025478,
      "center": {
        "lat": 12.9501836,
        "lon": 77.5961204
      },
      "tags": {
        "amenity": "police",
        "name": "Wilson Garden Police Station",
        "name:kn": "ವಿಲ್ಸನ್ ಗಾರ್ಡನ್ ಪೋಲಿಸ್ ಠಾಣೆ"
      }
    },
    {
      "type": "way",
      "id": 1313964260,
      "center": {
        "lat": 12.9451029,
        "lon": 77.5964436
      },
      "tags": {
        "leisure": "fitness_station",
        "wheelchair": "no"
      }
    },
    {
      "type": "way",
      "id": 1313964262,
      "center": {
        "lat": 12.9448302,
        "lon": 77.5966734
      },
      "tags": {
        "leisure": "fitness_station",
        "wheelchair": "no"
      }
    },
    {
      "type": "way",
      "id": 1313964263,
      "center": {
        "lat": 12.9448724,
        "lon": 77.5967342
      },
      "tags": {
        "leisure": "fitness_station",
        "wheelchair": "no"
      }
    },
    {
      "type": "way",
      "id": 1313964265,
      "center": {
        "lat": 12.9449858,
        "lon": 77.5966772
      },
      "tags": {
        "leisure": "fitness_station",
        "wheelchair": "no"
      }
    },
    {
      "type": "way",
      "id": 1313964266,
      "center": {
        "lat": 12.9449039,
        "lon": 77.5966126
      },
      "tags": {
        "amenity": "shelter",
        "shelter_type": "gazebo"
      }
    },
    {
      "type": "way",
      "id": 1314116678,
      "center": {
        "lat": 12.944281,
        "lon": 77.5973075
      },
      "tags": {
        "addr:full": "430/1, Hosur Main Road, 14th Cross, Willson Garden, Lakkasandra, Bangalore - 560 030",
        "addr:housenumber": "430/1",
        "addr:street": "Hosur Main Road",
        "air_conditioning": "yes",
        "amenity": "fast_food",
        "check_date": "2025-09-19",
        "cuisine": "indian;south_indian;north_indian;chinese",
        "diet:lacto_vegetarian": "yes",
        "image:menu": "41073199-c6ca-4d38-9883-3607bf24c8e8",
        "image:menu:0": "96c8691d-b4c0-426e-9670-a5d452411fce",
        "image:menu:1": "81d80f51-350c-4869-9701-a596af8eec67",
        "image:menu:10": "802820ce-eca9-450e-9c34-6b37a72cf573",
        "image:menu:11": "062db99d-c5c6-4ccf-b64a-1baa83d1c583",
        "image:menu:2": "f96a7a79-3776-4a09-979f-11ed40e49169",
        "image:menu:3": "c00cd16f-6990-4178-aa26-00d111adf4c5",
        "image:menu:4": "6284aa5e-ca69-4e10-8224-a0b0710d790c",
        "image:menu:5": "a588ca7d-d324-4222-a98b-1968c7813184",
        "image:menu:6": "49960351-6700-4bdc-be33-a17f5d27254b",
        "image:menu:7": "48c8cbcf-40bc-4f0a-8c1f-b96246002acb",
        "image:menu:8": "40d85c83-7aa0-4340-a752-56e02e75f896",
        "image:menu:9": "a390bbd7-39f1-46f6-b22f-0762439ec910",
        "indoor_seating": "yes",
        "level": "0",
        "name": "Udupi Upahar",
        "note": "There's a seating area with wait staff, and a standing area which is self-service. The two areas have separate (but overlapping) menus, with the self-service area being cheaper.",
        "outdoor_seating": "no",
        "payment:cash": "yes",
        "payment:upi": "yes",
        "smoking": "no",
        "takeaway": "yes",
        "toilets": "yes",
        "toilets:access": "customers",
        "wheelchair": "no",
        "wikimedia_commons": "Category:Udupi_Upahar,_Wilson_Garden,_Bangalore"
      }
    },
    {
      "type": "way",
      "id": 1431908648,
      "center": {
        "lat": 12.9426525,
        "lon": 77.6011642
      },
      "tags": {
        "addr:place": "Lakkasandra",
        "amenity": "school",
        "isced:level": "2",
        "name": "Corporation LPS Lakkasandra",
        "name:kn": "ಕಾರ್ಪೋರೇಶನ್ ಕಿರಿಯ ಪ್ರಾಥಮಿಕ ಶಾಲೆ ಲಕ್ಕಸಂದ್ರ",
        "operator": "Department of Education",
        "school": "primary"
      }
    },
    {
      "type": "way",
      "id": 1432018658,
      "center": {
        "lat": 12.9438635,
        "lon": 77.5969221
      },
      "tags": {
        "amenity": "hospital",
        "healthcare": "hospital",
        "name": "Vignan Hospital",
        "website": "https://bidsinstitution.com/"
      }
    },
    {
      "type": "way",
      "id": 1455412266,
      "center": {
        "lat": 12.9544737,
        "lon": 77.5926291
      },
      "tags": {
        "alt_name": "TTMC Shantinagara 'B' Block; Shanthinagar TTMC;Shanthi nagar TTMC",
        "amenity": "transportation",
        "building": "yes",
        "building:levels": "6",
        "bus": "yes",
        "full_name": "Atal Bihari Vajpayee Traffic and Transit Management Center",
        "name": "Shantinagara Bus Station",
        "name:kn": "ಶಾಂತಿನಗರ ಬಸ್ ನಿಲ್ದಾಣ",
        "official_name": "Atal Bihari Vajpayee TTMC",
        "phone": "7760991061",
        "public_transport": "station",
        "roof:shape": "flat",
        "short_name": "SBS",
        "start_date": "2005",
        "wikidata": "Q7489090",
        "wikipedia": "en:Atal Bihari Vajpayee TTMC"
      }
    },
    {
      "type": "way",
      "id": 1455412267,
      "center": {
        "lat": 12.9546736,
        "lon": 77.592278
      },
      "tags": {
        "alt_name": "Shanthinagar TTMC 'C' Block;Shanthi nagar TTMC 'C' block",
        "amenity": "office",
        "building": "yes",
        "building:levels": "7",
        "name": "Shanthinagara 'C' Block",
        "roof:shape": "flat"
      }
    }
  ]
}