{
  "area_name": "Jogpalya",
  "osm_id": 19884592,
  "osm_type": "relation",
  "place_type": "administrative",
  "amenity_count": 394,
  "amenities": [
    {
      "type": "node",
      "id": 1212309366,
      "lat": 12.9713009,
      "lon": 77.6347274,
      "tags": {
        "amenity": "atm",
        "brand": "IDBI Bank",
        "brand:wikidata": "Q3633485",
        "name": "IDBI Bank",
        "operator": "IDBI Bank",
        "operator:wikidata": "Q3633485",
        "short_name": "IDBI"
      }
    },
    {
      "type": "node",
      "id": 1282881158,
      "lat": 12.9711101,
      "lon": 77.6342171,
      "tags": {
        "amenity": "fast_food",
        "name": "Chat"
      }
    },
    {
      "type": "node",
      "id": 1328617006,
      "lat": 12.9700166,
      "lon": 77.6311695,
      "tags": {
        "amenity": "place_of_worship",
        "name": "Sai Baba Temple",
        "name:kn": "ಸಾಯಿಬಾಬಾ ದೇವಸ್ಥಾನ",
        "religion": "hindu"
      }
    },
    {
      "type": "node",
      "id": 1328617011,
      "lat": 12.9692586,
      "lon": 77.6286912,
      "tags": {
        "addr:city": "Bengaluru",
        "addr:housenumber": "15/39",
        "addr:postcode": "560008",
        "addr:street": "Cambridge Road, Halasuru Police Station Road, Halasuru",
        "name": "lal rakhra sports shop",
        "opening_hours": "10:00-20:00",
        "phone": "080 2555 5684",
        "shop": "sports"
      }
    },
    {
      "type": "node",
      "id": 1328617013,
      "lat": 12.9701421,
      "lon": 77.6314807,
      "tags": {
        "addr:street": "Sai Baba Mandira Road",
        "amenity": "pharmacy",
        "name": "Health and Glow"
      }
    },
    {
      "type": "node",
      "id": 1420105702,
      "lat": 12.9695606,
      "lon": 77.6411087,
      "tags": {
        "amenity": "cafe",
        "cuisine": "tea",
        "internet_access": "no",
        "name": "Chai Patti Teafe",
        "name:kn": "ಚಾಯೈ ಪತ್ತಿ",
        "outdoor_seating": "no"
      }
    },
    {
      "type": "node",
      "id": 1420105705,
      "lat": 12.9723006,
      "lon": 77.6392006,
      "tags": {
        "amenity": "fast_food",
        "cuisine": "rolls",
        "name": "Chakum Chukum"
      }
    },
    {
      "type": "node",
      "id": 1420105706,
      "lat": 12.9701103,
      "lon": 77.6373408,
      "tags": {
        "amenity": "ice_cream",
        "brand": "Corner House",
        "check_date": "2023-10-08",
        "delivery": "yes",
        "name": "Corner House",
        "shop": "confectionery",
        "takeaway": "yes"
      }
    },
    {
      "type": "node",
      "id": 1420105711,
      "lat": 12.9701438,
      "lon": 77.6376584,
      "tags": {
        "amenity": "bank",
        "atm": "yes",
        "brand": "HDFC Bank",
        "brand:wikidata": "Q631047",
        "name": "HDFC Bank",
        "name:kn": "ಎಚ್ ಡಿ ಎಫ್ ಸಿ",
        "short_name": "HDFC"
      }
    },
    {
      "type": "node",
      "id": 1420105733,
      "lat": 12.9705482,
      "lon": 77.6410087,
      "tags": {
        "addr:street": "100 Feet Road",
        "brand": "Cromā",
        "brand:wikidata": "Q5187683",
        "name": "Cromā",
        "name:kn": "ಕ್ರೋಮ",
        "shop": "electronics"
      }
    },
    {
      "type": "node",
      "id": 1420105853,
      "lat": 12.9698224,
      "lon": 77.6377171,
      "tags": {
        "amenity": "restaurant",
        "name": "Baan Phad Thai",
        "opening_hours": "Mo-Su 00:00-16:00,18:30-00:30"
      }
    },
    {
      "type": "node",
      "id": 1420105905,
      "lat": 12.9724613,
      "lon": 77.6391823,
      "tags": {
        "name": "Daily Bread",
        "shop": "bakery"
      }
    },
    {
      "type": "node",
      "id": 1474220563,
      "lat": 12.9692201,
      "lon": 77.6411398,
      "tags": {
        "amenity": "bank",
        "atm": "yes",
        "brand": "Axis Bank",
        "brand:wikidata": "Q2003549",
        "brand:wikipedia": "en:Axis Bank",
        "name": "Axis Bank",
        "name:en": "Axis Bank",
        "name:kn": "ಅಕ್ಸಿಸ್ ಬ್ಯಾಂಕ್",
        "website": "https://www.axisbank.com"
      }
    },
    {
      "type": "node",
      "id": 1474254705,
      "lat": 12.9713714,
      "lon": 77.6409298,
      "tags": {
        "addr:street": "100 Feet Road",
        "brand": "Van Heusen",
        "brand:wikidata": "Q67551865",
        "check_date": "2024-02-18",
        "clothes": "men",
        "name": "Van Heusen",
        "name:kn": "ವ್ಯಾನ್ ಹುಸೇನ್",
        "shop": "clothes"
      }
    },
    {
      "type": "node",
      "id": 1474254709,
      "lat": 12.9709774,
      "lon": 77.6410458,
      "tags": {
        "addr:street": "100 Feet Road( S K Karim Khan Road)",
        "name": "Erwan Thai SPA",
        "shop": "beauty"
      }
    },
    {
      "type": "node",
      "id": 1474254715,
      "lat": 12.9709206,
      "lon": 77.6410529,
      "tags": {
        "amenity": "bar",
        "name": "Salt Edition 1"
      }
    },
    {
      "type": "node",
      "id": 1543967418,
      "lat": 12.9720594,
      "lon": 77.6278089,
      "tags": {
        "addr:housename": "Bhavin Garments",
        "addr:housenumber": "12",
        "addr:postcode": "560008",
        "designation": "Manufacturer of Merchandise, Uniforms, Memorabilia, Books",
        "name": "Bhavin Garments",
        "shop": "clothes",
        "source": "Bhavin",
        "website": "www.studentsupplies.in , www.bhavingarments.com"
      }
    },
    {
      "type": "node",
      "id": 1543969345,
      "lat": 12.9719967,
      "lon": 77.6278036,
      "tags": {
        "addr:housename": "Ankur Nursery School",
        "addr:housenumber": "123, C/o Ankur Nursery School,",
        "addr:postcode": "560008",
        "addr:street": "Udani Layout, Cambridge Road",
        "amenity": "school",
        "designation": "Pre-School and Playhome",
        "name": "Ankur Nursery School",
        "source": "Bhavin"
      }
    },
    {
      "type": "node",
      "id": 1941465446,
      "lat": 12.9725555,
      "lon": 77.6266554,
      "tags": {
        "amenity": "restaurant",
        "name": "Ruchi Restaurant"
      }
    },
    {
      "type": "node",
      "id": 1941640770,
      "lat": 12.9726902,
      "lon": 77.6389158,
      "tags": {
        "amenity": "kindergarten",
        "name": "Serra PreSchool"
      }
    },
    {
      "type": "node",
      "id": 2901080141,
      "lat": 12.9714443,
      "lon": 77.6350673,
      "tags": {
        "amenity": "restaurant",
        "name": "Khan Saheb"
      }
    },
    {
      "type": "node",
      "id": 3369898146,
      "lat": 12.9753399,
      "lon": 77.638329,
      "tags": {
        "amenity": "place_of_worship",
        "name": "Sri Shaneshwara Sai Temple",
        "religion": "hindu"
      }
    },
    {
      "type": "node",
      "id": 3369909139,
      "lat": 12.9758453,
      "lon": 77.636445,
      "tags": {
        "addr:housenumber": "#778",
        "leisure": "sports_centre",
        "name": "Stay Fit"
      }
    },
    {
      "type": "node",
      "id": 3369921219,
      "lat": 12.9757846,
      "lon": 77.6361056,
      "tags": {
        "addr:housenumber": "1312",
        "addr:street": "Indiranagar Double Road",
        "amenity": "bank",
        "brand": "Punjab & Sind Bank",
        "brand:en": "Punjab & Sind Bank",
        "brand:hi": "पंजाब एण्ड सिंध बैंक",
        "brand:ur": "پنجاب اینڈ سندھ بینک",
        "brand:website": "https://punjabandsindbank.co.in/",
        "brand:wikidata": "Q2003302",
        "name": "Punjab & Sind Bank",
        "name:en": "Punjab & Sind Bank",
        "name:hi": "पंजाब एण्ड सिंध बैंक",
        "name:pa": "ਪੰਜਾਬ ਐਂਡ ਸਿੰਧ ਬੈਂਕ",
        "name:ur": "پنجاب اینڈ سندھ بینک"
      }
    },
    {
      "type": "node",
      "id": 3370283251,
      "lat": 12.9755127,
      "lon": 77.6360648,
      "tags": {
        "addr:housenumber": "1314",
        "addr:street": "Indiranagar Double Road (Paramahansa Yogananda road)",
        "amenity": "restaurant",
        "name": "Imperial Restaurant"
      }
    },
    {
      "type": "node",
      "id": 3370283252,
      "lat": 12.9754268,
      "lon": 77.6359973,
      "tags": {
        "addr:housenumber": "1315",
        "addr:street": "Indiranagar Double Road",
        "amenity": "clinic",
        "healthcare": "clinic",
        "name": "Speciality Clinic"
      }
    },
    {
      "type": "node",
      "id": 3370287787,
      "lat": 12.9754222,
      "lon": 77.636333,
      "tags": {
        "addr:street": "Indiranagar Double Road (Paramahansa Yogananda road)",
        "amenity": "clinic",
        "healthcare": "clinic",
        "name": "Dr.Spine Clinic"
      }
    },
    {
      "type": "node",
      "id": 3370453171,
      "lat": 12.9741726,
      "lon": 77.6357187,
      "tags": {
        "addr:housenumber": "58",
        "amenity": "bar",
        "name": "Aishwarya Bar N Restaurant"
      }
    },
    {
      "type": "node",
      "id": 3370453172,
      "lat": 12.97475,
      "lon": 77.635825,
      "tags": {
        "amenity": "restaurant",
        "cuisine": "indian",
        "name": "Annapoorani"
      }
    },
    {
      "type": "node",
      "id": 3370453173,
      "lat": 12.9734836,
      "lon": 77.6357281,
      "tags": {
        "amenity": "hospital",
        "healthcare": "hospital",
        "name": "Netradama Eye Hospital",
        "name:kn": "ನೇತ್ರಧಾಮ ಕಣ್ಣಿನ ಆಸ್ಪತ್ರೆ"
      }
    },
    {
      "type": "node",
      "id": 3370455929,
      "lat": 12.9742234,
      "lon": 77.6359937,
      "tags": {
        "amenity": "pharmacy",
        "healthcare": "pharmacy",
        "name": "Healing Touch Pharma"
      }
    },
    {
      "type": "node",
      "id": 3370455932,
      "lat": 12.9741296,
      "lon": 77.6359555,
      "tags": {
        "amenity": "atm",
        "brand": "Axis Bank",
        "brand:wikidata": "Q2003549",
        "name": "Axis Bank",
        "operator": "Axis Bank",
        "operator:wikidata": "Q2003549"
      }
    },
    {
      "type": "node",
      "id": 3374295114,
      "lat": 12.9742587,
      "lon": 77.6361742,
      "tags": {
        "name": "Oxford office solutions",
        "shop": "stationery"
      }
    },
    {
      "type": "node",
      "id": 3725719336,
      "lat": 12.9695257,
      "lon": 77.6411118,
      "tags": {
        "brand": "American Tourister",
        "brand:wikidata": "Q4745268",
        "check_date": "2023-10-08",
        "name": "American Tourister",
        "name:kn": "ಅಮೆರಿಕನ್ ಟೂರಿಸ್ಟರ್",
        "shop": "bag"
      }
    },
    {
      "type": "node",
      "id": 3725719337,
      "lat": 12.9708954,
      "lon": 77.6409413,
      "tags": {
        "addr:street": "100 Feet Road",
        "name": "Cirrus",
        "shop": "yes"
      }
    },
    {
      "type": "node",
      "id": 3725719338,
      "lat": 12.9708756,
      "lon": 77.641015,
      "tags": {
        "name": "Ellee Dress",
        "shop": "clothes"
      }
    },
    {
      "type": "node",
      "id": 3725719339,
      "lat": 12.9690747,
      "lon": 77.6410288,
      "tags": {
        "amenity": "bar",
        "name": "Ginger Tiger"
      }
    },
    {
      "type": "node",
      "id": 3725719340,
      "lat": 12.9700372,
      "lon": 77.6411107,
      "tags": {
        "brand": "Guess",
        "brand:wikidata": "Q2470307",
        "brand:wikipedia": "en:Guess (clothing)",
        "name": "Guess",
        "name:kn": "ಗೆಸ್",
        "shop": "clothes"
      }
    },
    {
      "type": "node",
      "id": 3725719341,
      "lat": 12.9695435,
      "lon": 77.6411125,
      "tags": {
        "name": "High Sierra",
        "name:kn": "ಹೈ ಸಿಯೆರಾ",
        "shop": "bag"
      }
    },
    {
      "type": "node",
      "id": 3725719342,
      "lat": 12.9699633,
      "lon": 77.6411137,
      "tags": {
        "name": "iPlanet",
        "name:kn": "ಐ ಪ್ಲಾನೆಟ್",
        "shop": "electronics",
        "wheelchair": "no"
      }
    },
    {
      "type": "node",
      "id": 3725719343,
      "lat": 12.9709468,
      "lon": 77.6409377,
      "tags": {
        "addr:street": "100 Feet Road",
        "name": "Janki Corp Limited",
        "shop": "yes"
      }
    },
    {
      "type": "node",
      "id": 3725719344,
      "lat": 12.9695757,
      "lon": 77.6411041,
      "tags": {
        "check_date": "2023-10-08",
        "name": "Jockey",
        "name:kn": "ಜಾಕೀ",
        "shop": "clothes",
        "wheelchair": "limited"
      }
    },
    {
      "type": "node",
      "id": 3725719346,
      "lat": 12.9690331,
      "lon": 77.6410328,
      "tags": {
        "amenity": "ice_cream",
        "brand": "Pinkberry",
        "brand:wikidata": "Q2904053",
        "cuisine": "frozen_yogurt",
        "name": "Pinkberry",
        "takeaway": "yes"
      }
    },
    {
      "type": "node",
      "id": 3725719348,
      "lat": 12.9695996,
      "lon": 77.641102,
      "tags": {
        "amenity": "restaurant",
        "cuisine": "asian;malaysian;indonesian",
        "name": "Hungry Walker",
        "name:kn": "ರಾಯಲ್ ಎನ್‌ಫೀಲ್ಡ್",
        "opening_hours": "Mo-Su 10:00-23:00",
        "shop": "motorcycle"
      }
    },
    {
      "type": "node",
      "id": 3725719349,
      "lat": 12.9709509,
      "lon": 77.6410572,
      "tags": {
        "addr:street": "100 Feet Road",
        "name": "Suvasa",
        "shop": "furniture"
      }
    },
    {
      "type": "node",
      "id": 3725719351,
      "lat": 12.9700996,
      "lon": 77.6411068,
      "tags": {
        "name": "The Body Shop",
        "name:kn": "ದಿ ಬಾಡೀ ಶಾಪ್",
        "payment:credit_cards": "yes",
        "payment:debit_cards": "yes",
        "shop": "clothes",
        "wheelchair": "limited"
      }
    },
    {
      "type": "node",
      "id": 3725719352,
      "lat": 12.9693807,
      "lon": 77.6411193,
      "tags": {
        "addr:city": "Bangalore",
        "addr:housenumber": "773",
        "addr:postcode": "560038",
        "addr:street": "100 Feet Road",
        "brand": "U.S. Polo Assn.",
        "brand:wikidata": "Q7863282",
        "name": "U.S. Polo Assn.",
        "name:kn": "ಯುಎಸ್ ಪೊಲೊ",
        "shop": "clothes"
      }
    },
    {
      "type": "node",
      "id": 3725719353,
      "lat": 12.9694282,
      "lon": 77.6411133,
      "tags": {
        "addr:city": "Bangalore",
        "addr:housenumber": "773",
        "addr:postcode": "560038",
        "addr:street": "100 Feet Road",
        "amenity": "pub",
        "brewery": "various",
        "microbrewery": "yes",
        "name": "Vapour",
        "name:kn": "ವೇಪರ್",
        "opening_hours": "12:00-23:00",
        "phone": "+91 80 4942 2313",
        "smoking": "outside",
        "website": "https://vapour.in/",
        "wheelchair": "no"
      }
    },
    {
      "type": "node",
      "id": 3725719354,
      "lat": 12.9708605,
      "lon": 77.6410649,
      "tags": {
        "addr:street": "100 Feet Road",
        "name": "W",
        "shop": "clothes"
      }
    },
    {
      "type": "node",
      "id": 3725719355,
      "lat": 12.9708975,
      "lon": 77.6410544,
      "tags": {
        "addr:street": "100 Feet Road",
        "amenity": "bar",
        "name": "Xtream Sports Bar"
      }
    },
    {
      "type": "node",
      "id": 3725814429,
      "lat": 12.9742661,
      "lon": 77.6409041,
      "tags": {
        "amenity": "restaurant",
        "check_date": "2024-01-06",
        "name": "pakwan"
      }
    },
    {
      "type": "node",
      "id": 3725814432,
      "lat": 12.9740974,
      "lon": 77.640751,
      "tags": {
        "amenity": "restaurant",
        "cuisine": "indian",
        "name": "Kota Kachori"
      }
    },
    {
      "type": "node",
      "id": 3725850699,
      "lat": 12.9736716,
      "lon": 77.6409138,
      "tags": {
        "addr:street": "100 Feet Road( S K Karim Khan Road)",
        "amenity": "restaurant",
        "check_date": "2024-01-06",
        "name": "Sri Udupi Park",
        "wheelchair": "limited"
      }
    },
    {
      "type": "node",
      "id": 3725850701,
      "lat": 12.9740336,
      "lon": 77.6408747,
      "tags": {
        "amenity": "dentist",
        "check_date": "2025-03-11",
        "healthcare": "dentist",
        "name": "Supriya Dental Clinic"
      }
    },
    {
      "type": "node",
      "id": 3725872056,
      "lat": 12.972076,
      "lon": 77.6409726,
      "tags": {
        "addr:street": "100 Feet Road",
        "brand": "Allen Solly",
        "brand:wikidata": "Q110036995",
        "name": "Allen Solly",
        "name:kn": "ಅಲೆನ್ ಸೊಲಿ",
        "shop": "clothes",
        "wheelchair": "no"
      }
    },
    {
      "type": "node",
      "id": 3725872058,
      "lat": 12.9719867,
      "lon": 77.640917,
      "tags": {
        "addr:street": "100 Feet Road( S K Karim Khan Road)",
        "name": "New glamour spa",
        "shop": "beauty"
      }
    },
    {
      "type": "node",
      "id": 3725872059,
      "lat": 12.9717347,
      "lon": 77.6410001,
      "tags": {
        "addr:street": "100 Feet Road",
        "brand": "Pantaloons",
        "brand:wikidata": "Q7131643",
        "name": "Pantaloons",
        "name:kn": "ಪ್ಯಾಂಟಲೂನ್ಸ್",
        "payment:credit_cards": "yes",
        "payment:debit_cards": "yes",
        "shop": "clothes",
        "wheelchair": "limited"
      }
    },
    {
      "type": "node",
      "id": 3725872060,
      "lat": 12.9720123,
      "lon": 77.6409807,
      "tags": {
        "addr:street": "100 Feet Road",
        "name": "Soma shop",
        "shop": "clothes"
      }
    },
    {
      "type": "node",
      "id": 3725872061,
      "lat": 12.9719085,
      "lon": 77.6409824,
      "tags": {
        "addr:street": "100 Feet Road( S K Karim Khan Road)",
        "brand": "Van Heusen",
        "brand:wikidata": "Q67551865",
        "clothes": "men",
        "name": "Van Heusen",
        "name:kn": "ವ್ಯಾನ್ ಹುಸೇನ್",
        "shop": "clothes",
        "wheelchair": "no"
      }
    },
    {
      "type": "node",
      "id": 3725882444,
      "lat": 12.9712452,
      "lon": 77.6409708,
      "tags": {
        "brand": "Brooks Brothers",
        "brand:wikidata": "Q929722",
        "name": "Brooks Brothers",
        "shop": "clothes"
      }
    },
    {
      "type": "node",
      "id": 3725882445,
      "lat": 12.9715662,
      "lon": 77.6410001,
      "tags": {
        "name": "Kaya skin bar",
        "shop": "beauty"
      }
    },
    {
      "type": "node",
      "id": 3725882446,
      "lat": 12.9714296,
      "lon": 77.6410321,
      "tags": {
        "addr:street": "100 Feet Road( S K Karim Khan Road)",
        "amenity": "pub",
        "name": "LOFT 38",
        "payment:credit_cards": "yes",
        "payment:debit_cards": "yes",
        "wheelchair": "no"
      }
    },
    {
      "type": "node",
      "id": 3725882448,
      "lat": 12.9712187,
      "lon": 77.6409749,
      "tags": {
        "name": "Steve madden",
        "shop": "yes"
      }
    },
    {
      "type": "node",
      "id": 3725882449,
      "lat": 12.9711882,
      "lon": 77.6409763,
      "tags": {
        "addr:street": "100 Feet Road",
        "name": "The Thai spa",
        "shop": "beauty"
      }
    },
    {
      "type": "node",
      "id": 3725882450,
      "lat": 12.9715875,
      "lon": 77.6409974,
      "tags": {
        "shop": "clothes"
      }
    },
    {
      "type": "node",
      "id": 3837000083,
      "lat": 12.9726449,
      "lon": 77.6382683,
      "tags": {
        "amenity": "restaurant",
        "capacity": "25",
        "cuisine": "kerala",
        "delivery": "no",
        "name": "New Life Kerala Mess",
        "opening_hours": "Mo-Su 09:00-23:00",
        "smoking": "no",
        "takeaway": "yes"
      }
    },
    {
      "type": "node",
      "id": 3837007682,
      "lat": 12.9723182,
      "lon": 77.6370479,
      "tags": {
        "amenity": "restaurant",
        "cuisine": "steak_house",
        "delivery": "yes",
        "level": "1",
        "name": "The Grill House",
        "smoking": "no",
        "takeaway": "yes"
      }
    },
    {
      "type": "node",
      "id": 3837039785,
      "lat": 12.9730357,
      "lon": 77.6356907,
      "tags": {
        "addr:street": "6th Main",
        "amenity": "fast_food",
        "cuisine": "rolls",
        "name": "New Roll Centre",
        "opening_hours": "Mo-Su 12:00-23:00",
        "takeaway": "only"
      }
    },
    {
      "type": "node",
      "id": 3837441455,
      "lat": 12.970003,
      "lon": 77.6310087,
      "tags": {
        "addr:housenumber": "114",
        "addr:street": "Sai Baba Mandira Road",
        "amenity": "fast_food",
        "cuisine": "indian",
        "delivery": "no",
        "diet:vegetarian": "yes",
        "name": "Om Sai Skanda Dosa Camp"
      }
    },
    {
      "type": "node",
      "id": 3838428440,
      "lat": 12.9726022,
      "lon": 77.6346269,
      "tags": {
        "level": "-1",
        "name": "Sri Vasavi Super Market",
        "shop": "convenience"
      }
    },
    {
      "type": "node",
      "id": 3838472766,
      "lat": 12.9730537,
      "lon": 77.6351916,
      "tags": {
        "name": "Karnataka Bakery",
        "shop": "convenience"
      }
    },
    {
      "type": "node",
      "id": 3838473034,
      "lat": 12.9728923,
      "lon": 77.6347705,
      "tags": {
        "name": "Nagasree Bakery",
        "shop": "convenience"
      }
    },
    {
      "type": "node",
      "id": 3840557162,
      "lat": 12.9730736,
      "lon": 77.6351922,
      "tags": {
        "addr:housenumber": "1100",
        "name": "Santosh Tailors",
        "shop": "tailor"
      }
    },
    {
      "type": "node",
      "id": 3884997057,
      "lat": 12.970096,
      "lon": 77.640898,
      "tags": {
        "brand": "Gold's Gym",
        "brand:wikidata": "Q1536234",
        "brand:wikipedia": "en:Gold's Gym",
        "leisure": "fitness_centre",
        "name": "Gold's Gym",
        "name:kn": "ಗೊಲ್ಡ್ಸ್ ಜಿಮ್"
      }
    },
    {
      "type": "node",
      "id": 3891289957,
      "lat": 12.974595,
      "lon": 77.636203,
      "tags": {
        "amenity": "post_office",
        "name": "Blue Dart / DHL"
      }
    },
    {
      "type": "node",
      "id": 3961390829,
      "lat": 12.9728596,
      "lon": 77.6347745,
      "tags": {
        "name": "Safa Super Bazar",
        "shop": "convenience"
      }
    },
    {
      "type": "node",
      "id": 4211849403,
      "lat": 12.9732665,
      "lon": 77.6384811,
      "tags": {
        "amenity": "place_of_worship",
        "name": "Adi Shakti Yelamma Temple",
        "name:kn": "ಆದಿಶಕ್ತಿ ಯಲ್ಲಮ್ಮ ದೇವಸ್ಥಾನ",
        "religion": "hindu"
      }
    },
    {
      "type": "node",
      "id": 4211877703,
      "lat": 12.9744678,
      "lon": 77.6395706,
      "tags": {
        "name": "Maha Wines",
        "shop": "alcohol"
      }
    },
    {
      "type": "node",
      "id": 4211878795,
      "lat": 12.9744534,
      "lon": 77.6388972,
      "tags": {
        "amenity": "restaurant",
        "name": "Sri Raghavendra Darshini"
      }
    },
    {
      "type": "node",
      "id": 4294801429,
      "lat": 12.9719937,
      "lon": 77.635835,
      "tags": {
        "amenity": "pharmacy",
        "healthcare": "pharmacy",
        "name": "Shree Guru Ganesh Pharma"
      }
    },
    {
      "type": "node",
      "id": 4294801430,
      "lat": 12.9729346,
      "lon": 77.6357245,
      "tags": {
        "amenity": "restaurant",
        "name": "Laban Palace"
      }
    },
    {
      "type": "node",
      "id": 4294801431,
      "lat": 12.9729985,
      "lon": 77.6357302,
      "tags": {
        "amenity": "pharmacy",
        "healthcare": "pharmacy",
        "level": "1",
        "name": "The Homeo Centre"
      }
    },
    {
      "type": "node",
      "id": 4294801432,
      "lat": 12.9733837,
      "lon": 77.6360035,
      "tags": {
        "amenity": "restaurant",
        "name": "Srinidhi Sagar Foodline"
      }
    },
    {
      "type": "node",
      "id": 4294801602,
      "lat": 12.9728794,
      "lon": 77.6357245,
      "tags": {
        "amenity": "restaurant",
        "level": "0",
        "name": "Rayaru's Kitchen"
      }
    },
    {
      "type": "node",
      "id": 4294801604,
      "lat": 12.9731905,
      "lon": 77.6359606,
      "tags": {
        "amenity": "restaurant",
        "name": "Byte"
      }
    },
    {
      "type": "node",
      "id": 4294810638,
      "lat": 12.9727077,
      "lon": 77.6347589,
      "tags": {
        "amenity": "place_of_worship",
        "name": "Sri Kolluru Mookambika Temple",
        "religion": "hindu"
      }
    },
    {
      "type": "node",
      "id": 4294810899,
      "lat": 12.9737814,
      "lon": 77.6359277,
      "tags": {
        "amenity": "pharmacy",
        "healthcare": "pharmacy",
        "name": "SLV Sagar Pharma"
      }
    },
    {
      "type": "node",
      "id": 4315512757,
      "lat": 12.9696986,
      "lon": 77.6362493,
      "tags": {
        "amenity": "clinic",
        "healthcare": "clinic",
        "name": "Diacure Diagnostics"
      }
    },
    {
      "type": "node",
      "id": 4315512758,
      "lat": 12.9696957,
      "lon": 77.6361088,
      "tags": {
        "check_date": "2025-03-14",
        "name": "Fenesta",
        "shop": "furniture"
      }
    },
    {
      "type": "node",
      "id": 4315529532,
      "lat": 12.9697275,
      "lon": 77.6375066,
      "tags": {
        "name": "Autoline",
        "shop": "car_parts"
      }
    },
    {
      "type": "node",
      "id": 4315529537,
      "lat": 12.9697027,
      "lon": 77.6374704,
      "tags": {
        "amenity": "bureau_de_change",
        "check_date": "2023-10-08",
        "name": "Rupeezone"
      }
    },
    {
      "type": "node",
      "id": 4315548870,
      "lat": 12.9698176,
      "lon": 77.6380759,
      "tags": {
        "amenity": "events_venue",
        "name": "De Courtyard Banquet"
      }
    },
    {
      "type": "node",
      "id": 4315548871,
      "lat": 12.969885,
      "lon": 77.6385058,
      "tags": {
        "leisure": "fitness_station",
        "name": "Propel",
        "sport": "fitness"
      }
    },
    {
      "type": "node",
      "id": 4315548872,
      "lat": 12.9699033,
      "lon": 77.638539,
      "tags": {
        "amenity": "bank",
        "atm": "yes",
        "brand": "South Indian Bank",
        "brand:wikidata": "Q2044973",
        "brand:wikipedia": "en:South Indian Bank",
        "check_date": "2023-10-08",
        "name": "South Indian Bank"
      }
    },
    {
      "type": "node",
      "id": 4315563373,
      "lat": 12.9699905,
      "lon": 77.6403837,
      "tags": {
        "amenity": "restaurant",
        "check_date": "2024-08-22",
        "cuisine": "italian",
        "name": "Chianti"
      }
    },
    {
      "type": "node",
      "id": 4315563374,
      "lat": 12.9699237,
      "lon": 77.6396323,
      "tags": {
        "amenity": "restaurant",
        "cuisine": "vietnamese",
        "name": "Phobidden Fruit"
      }
    },
    {
      "type": "node",
      "id": 4315639154,
      "lat": 12.9699374,
      "lon": 77.6377839,
      "tags": {
        "amenity": "bench"
      }
    },
    {
      "type": "node",
      "id": 4319165252,
      "lat": 12.9722993,
      "lon": 77.6372001,
      "tags": {
        "amenity": "dentist",
        "healthcare": "dentist",
        "name": "Specialists Dental Center"
      }
    },
    {
      "type": "node",
      "id": 4319165253,
      "lat": 12.972284,
      "lon": 77.6372136,
      "tags": {
        "name": "Sree VIdya Stores",
        "shop": "convenience"
      }
    },
    {
      "type": "node",
      "id": 4319165254,
      "lat": 12.9722792,
      "lon": 77.6371823,
      "tags": {
        "name": "White Way Cleaners",
        "shop": "dry_cleaning"
      }
    },
    {
      "type": "node",
      "id": 4322757093,
      "lat": 12.9700574,
      "lon": 77.6364117,
      "tags": {
        "amenity": "spa",
        "name": "Les Cheveux Spa"
      }
    },
    {
      "type": "node",
      "id": 4322765784,
      "lat": 12.9700837,
      "lon": 77.6367186,
      "tags": {
        "name": "Blind Love Custom Crafted blinds",
        "shop": "interior_decoration"
      }
    },
    {
      "type": "node",
      "id": 4322765785,
      "lat": 12.9701016,
      "lon": 77.6370093,
      "tags": {
        "name": "Cool Club",
        "shop": "clothes"
      }
    },
    {
      "type": "node",
      "id": 4322772452,
      "lat": 12.9701688,
      "lon": 77.6372519,
      "tags": {
        "amenity": "clinic",
        "healthcare": "clinic",
        "name": "Astha Centre of Autism"
      }
    },
    {
      "type": "node",
      "id": 4322772453,
      "lat": 12.9701186,
      "lon": 77.6371441,
      "tags": {
        "name": "House of Tamara",
        "shop": "clothes"
      }
    },
    {
      "type": "node",
      "id": 4322772454,
      "lat": 12.9701484,
      "lon": 77.6372594,
      "tags": {
        "amenity": "clinic",
        "contact:phone": "080 25262515",
        "name": "Kerala Ayurvedic clinic",
        "opening_hours": "09:30-01:00,15:00-19:30"
      }
    },
    {
      "type": "node",
      "id": 4322779012,
      "lat": 12.9701753,
      "lon": 77.638267,
      "tags": {
        "amenity": "restaurant",
        "name": "Slurp Cooking Studio"
      }
    },
    {
      "type": "node",
      "id": 4322781163,
      "lat": 12.9701712,
      "lon": 77.6383901,
      "tags": {
        "amenity": "bar",
        "check_date": "2023-10-08",
        "name": "Tycoons",
        "opening_hours:covid19": "closed"
      }
    },
    {
      "type": "node",
      "id": 4322781164,
      "lat": 12.9702457,
      "lon": 77.6383932,
      "tags": {
        "amenity": "bar",
        "check_date": "2024-07-18",
        "name": "Hangover"
      }
    },
    {
      "type": "node",
      "id": 4322794144,
      "lat": 12.9702111,
      "lon": 77.6392091,
      "tags": {
        "amenity": "spa",
        "check_date": "2024-05-15",
        "name": "Ruan Thai spa"
      }
    },
    {
      "type": "node",
      "id": 4322794145,
      "lat": 12.9702025,
      "lon": 77.6389092,
      "tags": {
        "amenity": "restaurant",
        "name": "Citrus",
        "payment:credit_cards": "yes",
        "payment:debit_cards": "yes"
      }
    },
    {
      "type": "node",
      "id": 4322794146,
      "lat": 12.9702185,
      "lon": 77.6390612,
      "tags": {
        "amenity": "spa;saloon;cafe",
        "name": "Divas and dudes"
      }
    },
    {
      "type": "node",
      "id": 4322794147,
      "lat": 12.9702633,
      "lon": 77.6390562,
      "tags": {
        "leisure": "fitness_centre",
        "name": "Fitness studio"
      }
    },
    {
      "type": "node",
      "id": 4322794148,
      "lat": 12.9702408,
      "lon": 77.6392223,
      "tags": {
        "amenity": "bar",
        "check_date": "2024-10-13",
        "name": "The Reservoire"
      }
    },
    {
      "type": "node",
      "id": 4322794149,
      "lat": 12.9702343,
      "lon": 77.6391972,
      "tags": {
        "addr:floor": "1",
        "check_date": "2024-10-13",
        "level": "1",
        "name": "Suta",
        "shop": "bakery"
      }
    },
    {
      "type": "node",
      "id": 4322794150,
      "lat": 12.9702045,
      "lon": 77.638934,
      "tags": {
        "amenity": "spa",
        "check_date": "2024-05-15",
        "level": "2",
        "name": "BBLUNT",
        "name:en": "BBLUNT"
      }
    },
    {
      "type": "node",
      "id": 4322796484,
      "lat": 12.9703059,
      "lon": 77.6394339,
      "tags": {
        "amenity": "restaurant",
        "check_date": "2023-10-11",
        "name": "Delhi Highway"
      }
    },
    {
      "type": "node",
      "id": 4322801616,
      "lat": 12.9703542,
      "lon": 77.6401833,
      "tags": {
        "name": "Crystal homes",
        "shop": "interior_decoration"
      }
    },
    {
      "type": "node",
      "id": 4322801617,
      "lat": 12.9703156,
      "lon": 77.6400317,
      "tags": {
        "name": "Lakme Saloon",
        "payment:credit_cards": "yes",
        "payment:debit_cards": "yes",
        "shop": "beauty"
      }
    },
    {
      "type": "node",
      "id": 4322803224,
      "lat": 12.9703384,
      "lon": 77.6408448,
      "tags": {
        "name": "Saloon mousse",
        "name:kn": "ಸಲೂನ್ ಮೌಸಿ",
        "shop": "beauty"
      }
    },
    {
      "type": "node",
      "id": 4322812542,
      "lat": 12.9700356,
      "lon": 77.6362439,
      "tags": {
        "amenity": "hospital",
        "healthcare": "hospital",
        "name": "Dr.Agarwal Eye & Dental Hospital"
      }
    },
    {
      "type": "node",
      "id": 4373282593,
      "lat": 12.9731447,
      "lon": 77.6354155,
      "tags": {
        "amenity": "place_of_worship",
        "name": "Temple",
        "name:en": "Temple",
        "name:kn": "ದೇವಸ್ಥಾನ",
        "religion": "hindu"
      }
    },
    {
      "type": "node",
      "id": 4373340995,
      "lat": 12.9711603,
      "lon": 77.6343125,
      "tags": {
        "name": "Sahil Cycle Store",
        "name:en": "Sahil Cycle Store",
        "shop": "bicycle"
      }
    },
    {
      "type": "node",
      "id": 4445139977,
      "lat": 12.9703581,
      "lon": 77.63022,
      "tags": {
        "addr:city": "Bangalore",
        "addr:housenumber": "58/1",
        "addr:postcode": "560008",
        "addr:street": "3rd main shridi sai baba mandir road, Cambridge layout halasuru",
        "amenity": "hospital",
        "name": "Indianova Healthcare Pvt Ltd",
        "phone": "+9197390 07505",
        "website": "indianovahealthcare.com"
      }
    },
    {
      "type": "node",
      "id": 4445595170,
      "lat": 12.9717331,
      "lon": 77.6357884,
      "tags": {
        "addr:housenumber": "3146",
        "addr:postcode": "560038",
        "addr:street": "7th Main Road Shirdi Sai Baba Mandir Road, Eshwara Layout, Indira Nagar",
        "amenity": "clinic",
        "healthcare": "clinic",
        "name": "Mother And Child Clinic",
        "phone": "+9198455 59050"
      }
    },
    {
      "type": "node",
      "id": 4487984593,
      "lat": 12.9711228,
      "lon": 77.6342464,
      "tags": {
        "addr:city": "Bangalore",
        "addr:housenumber": "3192",
        "addr:postcode": "560038",
        "addr:street": "HAL 2nd Stage 7th Main, Shirdi Sai Baba Mandir Rd, Indiranagar,",
        "name": "Noah Sports Store",
        "opening_hours": "10:00-20:00",
        "phone": "+9198458 12465",
        "shop": "sports"
      }
    },
    {
      "type": "node",
      "id": 4489092751,
      "lat": 12.9713439,
      "lon": 77.6348117,
      "tags": {
        "addr:city": "Bangalore",
        "addr:housenumber": "3192",
        "addr:postcode": "560038",
        "addr:street": "HAL 2nd Stage 7th Main, Shirdi Sai Baba Mandir Rd, Bhadrappa Layout, Indiranagar",
        "name": "Noah Sports Store",
        "opening_hours": "10:00-21:30",
        "phone": "098458 12465",
        "shop": "sports",
        "website": "https://noahsports.in/"
      }
    },
    {
      "type": "node",
      "id": 4489922189,
      "lat": 12.9696655,
      "lon": 77.6383191,
      "tags": {
        "addr:city": "Bangalore",
        "addr:housenumber": "1096, 12th A Main Rd, Near Corporation Bank",
        "addr:postcode": "560008",
        "addr:street": ", Doopanahalli, Indira Nagar",
        "check_date": "2025-08-21",
        "check_date:opening_hours": "2025-08-21",
        "name": "Body Raaga Wellness Spa",
        "opening_hours": "10:00-21:30",
        "phone": "080500 02828",
        "shop": "beauty",
        "website": "https://www.bodyraaga.com/"
      }
    },
    {
      "type": "node",
      "id": 4490237942,
      "lat": 12.9714764,
      "lon": 77.6389942,
      "tags": {
        "addr:city": "Bangalore",
        "addr:housenumber": "948, 12th Main Road",
        "addr:postcode": "560008",
        "addr:street": "HAL 2nd Stage, Indiranagar, Bhadrappa Layout, Sodepur, Appareddipalya, Indiranagar, Bengaluru",
        "leisure": "fitness_centre",
        "name": "Impact Fitness Studio",
        "opening_hours": "5:30-22:00",
        "phone": "9880602625",
        "website": "https://www.impactfitness.in/"
      }
    },
    {
      "type": "node",
      "id": 4490387636,
      "lat": 12.9724506,
      "lon": 77.6273001,
      "tags": {
        "addr:city": "Bangalore",
        "addr:postcode": "560008",
        "addr:street": "Near Frank Anthony Public School,, 17/1, Cambridge Road, Halasuru, Bhadrappa Layout, Udani Layout, Ulsoor, Bengaluru",
        "leisure": "sports_centre",
        "name": "Contours Women's Fitness Studio",
        "opening_hours": "6:00-20:00",
        "phone": "8041736700",
        "sport": "gymnasium",
        "website": "https://contours.in/"
      }
    },
    {
      "type": "node",
      "id": 4840185928,
      "lat": 12.9716236,
      "lon": 77.6273835,
      "tags": {
        "addr:district": "Bengaluru Urban",
        "addr:full": "No 18/17, Cambridge Road, Ulsoor",
        "addr:postcode": "560008",
        "addr:state": "Karnataka",
        "amenity": "hospital",
        "healthcare": "hospital",
        "name": "Cambridge Hospital",
        "name:en": "Cambridge Hospital",
        "source": "OpenGovernmentData"
      }
    },
    {
      "type": "node",
      "id": 5537874430,
      "lat": 12.9759341,
      "lon": 77.6390797,
      "tags": {
        "amenity": "bank",
        "brand": "Central Bank of India",
        "brand:wikidata": "Q2007090",
        "brand:wikipedia": "en:Central Bank of India",
        "name": "Central Bank of India"
      }
    },
    {
      "type": "node",
      "id": 5537882023,
      "lat": 12.9759637,
      "lon": 77.6388058,
      "tags": {
        "name": "Ganesh Juice Centre",
        "shop": "beverages"
      }
    },
    {
      "type": "node",
      "id": 5537882024,
      "lat": 12.9759637,
      "lon": 77.6388269,
      "tags": {
        "amenity": "atm",
        "brand": "Central Bank of India",
        "brand:wikidata": "Q2007090",
        "name": "Central Bank of India",
        "operator": "Central Bank of India",
        "operator:wikidata": "Q2007090"
      }
    },
    {
      "type": "node",
      "id": 5537882025,
      "lat": 12.975953,
      "lon": 77.6387163,
      "tags": {
        "name": "Madhurima Bakery",
        "shop": "bakery"
      }
    },
    {
      "type": "node",
      "id": 5537882026,
      "lat": 12.9759606,
      "lon": 77.6386929,
      "tags": {
        "name": "Raghavendra Fruits and Vegetables",
        "shop": "greengrocer"
      }
    },
    {
      "type": "node",
      "id": 5544549022,
      "lat": 12.975905,
      "lon": 77.6370864,
      "tags": {
        "name": "GMS",
        "shop": "copyshop"
      }
    },
    {
      "type": "node",
      "id": 5544597521,
      "lat": 12.9759147,
      "lon": 77.6371144,
      "tags": {
        "name": "Nikki Bakery",
        "shop": "bakery"
      }
    },
    {
      "type": "node",
      "id": 5550627022,
      "lat": 12.9718444,
      "lon": 77.6406043,
      "tags": {
        "amenity": "bench"
      }
    },
    {
      "type": "node",
      "id": 5567059895,
      "lat": 12.9743003,
      "lon": 77.6390483,
      "tags": {
        "amenity": "place_of_worship",
        "name": "Temple",
        "name:kn": "ದೇವಸ್ಥಾನ",
        "religion": "hindu"
      }
    },
    {
      "type": "node",
      "id": 5569651822,
      "lat": 12.9733553,
      "lon": 77.6383481,
      "tags": {
        "amenity": "community_centre",
        "name": "Human Rights Protection and Corruption Eradication Forum"
      }
    },
    {
      "type": "node",
      "id": 5585615126,
      "lat": 12.9742594,
      "lon": 77.6378253,
      "tags": {
        "name": "Bismillah Chicken Centre",
        "shop": "butcher"
      }
    },
    {
      "type": "node",
      "id": 5585615328,
      "lat": 12.9742298,
      "lon": 77.6377772,
      "tags": {
        "amenity": "drinking_water"
      }
    },
    {
      "type": "node",
      "id": 5585615329,
      "lat": 12.9741842,
      "lon": 77.6378353,
      "tags": {
        "amenity": "fast_food",
        "name": "Sri Raghavendra Hotel"
      }
    },
    {
      "type": "node",
      "id": 5585615330,
      "lat": 12.9741619,
      "lon": 77.6378167,
      "tags": {
        "amenity": "fast_food",
        "name": "Bengali Food Court"
      }
    },
    {
      "type": "node",
      "id": 5585615823,
      "lat": 12.9745775,
      "lon": 77.6392969,
      "tags": {
        "name": "Bengaluru Fruits and Vegetables",
        "shop": "greengrocer"
      }
    },
    {
      "type": "node",
      "id": 5585615824,
      "lat": 12.9745775,
      "lon": 77.6393436,
      "tags": {
        "name": "I Net Centre",
        "shop": "copyshop"
      }
    },
    {
      "type": "node",
      "id": 5585615826,
      "lat": 12.9744474,
      "lon": 77.6394513,
      "tags": {
        "amenity": "pharmacy",
        "healthcare": "pharmacy",
        "name": "Amar Medicals"
      }
    },
    {
      "type": "node",
      "id": 5585615827,
      "lat": 12.9741225,
      "lon": 77.639537,
      "tags": {
        "amenity": "drinking_water"
      }
    },
    {
      "type": "node",
      "id": 5585629421,
      "lat": 12.97449,
      "lon": 77.6381065,
      "tags": {
        "shop": "bicycle"
      }
    },
    {
      "type": "node",
      "id": 5585629422,
      "lat": 12.9744956,
      "lon": 77.6381464,
      "tags": {
        "amenity": "pharmacy",
        "healthcare": "pharmacy",
        "name": "Sri Balaji Medicals"
      }
    },
    {
      "type": "node",
      "id": 5585629521,
      "lat": 12.9744678,
      "lon": 77.6380837,
      "tags": {
        "shop": "hairdresser"
      }
    },
    {
      "type": "node",
      "id": 5585629621,
      "lat": 12.9744109,
      "lon": 77.6382219,
      "tags": {
        "addr:housenumber": "53",
        "name": "KN Bike Point",
        "shop": "motorcycle"
      }
    },
    {
      "type": "node",
      "id": 5585633521,
      "lat": 12.9744137,
      "lon": 77.6385453,
      "tags": {
        "name": "JRK",
        "shop": "dry_cleaning"
      }
    },
    {
      "type": "node",
      "id": 5585633721,
      "lat": 12.9745594,
      "lon": 77.6388928,
      "tags": {
        "name": "Fishmonger",
        "shop": "butcher"
      }
    },
    {
      "type": "node",
      "id": 5585633821,
      "lat": 12.9745442,
      "lon": 77.6388615,
      "tags": {
        "name": "Chicken Stall",
        "shop": "butcher"
      }
    },
    {
      "type": "node",
      "id": 5585635321,
      "lat": 12.9747106,
      "lon": 77.6390966,
      "tags": {
        "name": "Super Mutton Stall",
        "shop": "butcher"
      }
    },
    {
      "type": "node",
      "id": 5585635421,
      "lat": 12.9744673,
      "lon": 77.6390347,
      "tags": {
        "name": "Super White Dry Cleaners",
        "shop": "dry_cleaning"
      }
    },
    {
      "type": "node",
      "id": 5585635622,
      "lat": 12.9745744,
      "lon": 77.6393838,
      "tags": {
        "amenity": "recycling",
        "name": "Paper Mart"
      }
    },
    {
      "type": "node",
      "id": 5585635623,
      "lat": 12.9734394,
      "lon": 77.6395116,
      "tags": {
        "name": "New Royal Mutton and Chicken Centre",
        "shop": "butcher"
      }
    },
    {
      "type": "node",
      "id": 5585635624,
      "lat": 12.9736419,
      "lon": 77.6378172,
      "tags": {
        "amenity": "drinking_water"
      }
    },
    {
      "type": "node",
      "id": 5585637022,
      "lat": 12.9730471,
      "lon": 77.6374051,
      "tags": {
        "amenity": "place_of_worship",
        "name": "Temple",
        "religion": "hindu"
      }
    },
    {
      "type": "node",
      "id": 5585637023,
      "lat": 12.9729937,
      "lon": 77.6374046,
      "tags": {
        "amenity": "place_of_worship",
        "religion": "hindu"
      }
    },
    {
      "type": "node",
      "id": 5585639123,
      "lat": 12.9733584,
      "lon": 77.6385106,
      "tags": {
        "amenity": "drinking_water"
      }
    },
    {
      "type": "node",
      "id": 5631707724,
      "lat": 12.9730516,
      "lon": 77.6352655,
      "tags": {
        "name": "Pushpa Glass and Plywood",
        "shop": "hardware"
      }
    },
    {
      "type": "node",
      "id": 5646983221,
      "lat": 12.9729659,
      "lon": 77.6374812,
      "tags": {
        "name": "Vinayaka Bike Garage",
        "shop": "motorcycle"
      }
    },
    {
      "type": "node",
      "id": 5646985921,
      "lat": 12.973221,
      "lon": 77.6377882,
      "tags": {
        "name": "Appa Mobike Works",
        "shop": "motorcycle"
      }
    },
    {
      "type": "node",
      "id": 5646997521,
      "lat": 12.9745214,
      "lon": 77.63882,
      "tags": {
        "amenity": "drinking_water"
      }
    },
    {
      "type": "node",
      "id": 5661119023,
      "lat": 12.972707,
      "lon": 77.6397392,
      "tags": {
        "name": "Maeva Artisanal Living",
        "shop": "gift",
        "website": "https://www.themaevastore.com/"
      }
    },
    {
      "type": "node",
      "id": 5661127826,
      "lat": 12.970386,
      "lon": 77.6378968,
      "tags": {
        "check_date": "2024-09-21",
        "leisure": "fitness_centre",
        "name": "Sutvacha Skin and Laser Clinic"
      }
    },
    {
      "type": "node",
      "id": 5661149221,
      "lat": 12.9706267,
      "lon": 77.6388667,
      "tags": {
        "amenity": "waste_disposal"
      }
    },
    {
      "type": "node",
      "id": 5661159423,
      "lat": 12.9746231,
      "lon": 77.6358561,
      "tags": {
        "amenity": "clinic",
        "healthcare": "clinic",
        "name": "The Skin and Cosmetic Clinic"
      }
    },
    {
      "type": "node",
      "id": 5714935013,
      "lat": 12.9712318,
      "lon": 77.6385355,
      "tags": {
        "check_date": "2025-08-21",
        "leisure": "fitness_station",
        "sport": "fitness"
      }
    },
    {
      "type": "node",
      "id": 5714936467,
      "lat": 12.9712475,
      "lon": 77.6377027,
      "tags": {
        "amenity": "place_of_worship",
        "name": "Shiva Shakti Temple",
        "religion": "hindu"
      }
    },
    {
      "type": "node",
      "id": 5722218821,
      "lat": 12.9759272,
      "lon": 77.6381679,
      "tags": {
        "amenity": "doctors",
        "healthcare": "doctor",
        "name": "Dr G S Palaksha Psychatrist"
      }
    },
    {
      "type": "node",
      "id": 5732134226,
      "lat": 12.9737821,
      "lon": 77.6365673,
      "tags": {
        "amenity": "place_of_worship",
        "name": "Devi Temple",
        "name:kn": "ದೇವಿ ದೇವಸ್ಖಾನ",
        "religion": "hindu"
      }
    },
    {
      "type": "node",
      "id": 5732140022,
      "lat": 12.9738576,
      "lon": 77.6370477,
      "tags": {
        "amenity": "place_of_worship",
        "name": "Temple",
        "name:kn": "ದೇವಸ್ಥಾನ",
        "religion": "hindu"
      }
    },
    {
      "type": "node",
      "id": 5738207821,
      "lat": 12.9744772,
      "lon": 77.6390741,
      "tags": {
        "name": "Sudha Provisions",
        "shop": "convenience"
      }
    },
    {
      "type": "node",
      "id": 5738207822,
      "lat": 12.9743525,
      "lon": 77.6385763,
      "tags": {
        "amenity": "clinic",
        "name": "MM Clinic"
      }
    },
    {
      "type": "node",
      "id": 5747208925,
      "lat": 12.9718419,
      "lon": 77.6358262,
      "tags": {
        "name": "Pooja Electronics",
        "shop": "electronics"
      }
    },
    {
      "type": "node",
      "id": 5809775153,
      "lat": 12.9727841,
      "lon": 77.6381267,
      "tags": {
        "name": "GM Hi tech Automobiles",
        "shop": "car_repair"
      }
    },
    {
      "type": "node",
      "id": 5821774754,
      "lat": 12.9734184,
      "lon": 77.6396114,
      "tags": {
        "amenity": "fast_food",
        "name": "MM Fast Food"
      }
    },
    {
      "type": "node",
      "id": 5821774755,
      "lat": 12.9734184,
      "lon": 77.6395809,
      "tags": {
        "addr:housenumber": "361",
        "addr:street": "6th Main",
        "name": "Nature Fresh Fruits & Vegetables",
        "shop": "greengrocer"
      }
    },
    {
      "type": "node",
      "id": 5821776754,
      "lat": 12.9734136,
      "lon": 77.639771,
      "tags": {
        "name": "Aishwarya Condiments",
        "shop": "bakery"
      }
    },
    {
      "type": "node",
      "id": 5821776755,
      "lat": 12.9733273,
      "lon": 77.6392533,
      "tags": {
        "name": "Books & Books",
        "shop": "stationery"
      }
    },
    {
      "type": "node",
      "id": 5821783054,
      "lat": 12.9734212,
      "lon": 77.6397334,
      "tags": {
        "amenity": "fast_food",
        "name": "Calcutta Roll Centre"
      }
    },
    {
      "type": "node",
      "id": 5821786554,
      "lat": 12.9734197,
      "lon": 77.639652,
      "tags": {
        "addr:housenumber": "112",
        "name": "KS Murthy Gents Beauty Parlour",
        "shop": "hairdresser"
      }
    },
    {
      "type": "node",
      "id": 5821786555,
      "lat": 12.9733336,
      "lon": 77.6395554,
      "tags": {
        "name": "Monte Shoppe",
        "shop": "stationery"
      }
    },
    {
      "type": "node",
      "id": 5821786556,
      "lat": 12.9734188,
      "lon": 77.6395345,
      "tags": {
        "addr:housenumber": "302",
        "name": "Shabeena Provision Store",
        "shop": "convenience"
      }
    },
    {
      "type": "node",
      "id": 5824619753,
      "lat": 12.97325,
      "lon": 77.6367225,
      "tags": {
        "amenity": "place_of_worship",
        "name": "Temple",
        "religion": "hindu"
      }
    },
    {
      "type": "node",
      "id": 5826603253,
      "lat": 12.9748914,
      "lon": 77.6374914,
      "tags": {
        "shop": "convenience"
      }
    },
    {
      "type": "node",
      "id": 5826624554,
      "lat": 12.974315,
      "lon": 77.6366178,
      "tags": {
        "amenity": "restaurant",
        "name": "Hotel Sree Cauvery"
      }
    },
    {
      "type": "node",
      "id": 5880314785,
      "lat": 12.9740575,
      "lon": 77.6384868,
      "tags": {
        "shop": "convenience"
      }
    },
    {
      "type": "node",
      "id": 6348823859,
      "lat": 12.9723069,
      "lon": 77.6302852,
      "tags": {
        "addr:place": "Jogupalya",
        "amenity": "school",
        "isced:level": "2",
        "name": "GHPS (K) Jogupalya",
        "name:kn": "ಸರ್ಕಾರಿ ಹಿರಿಯ ಪ್ರಾಥಮಿಕ ಶಾಲೆ (ಕನ್ನಡ) ಜೊಗುಪಾಳ್ಯ",
        "operator": "Department of Education",
        "school": "primary"
      }
    },
    {
      "type": "node",
      "id": 6348827978,
      "lat": 12.9706487,
      "lon": 77.6311063,
      "tags": {
        "addr:place": "Jogupalya",
        "amenity": "school",
        "isced:level": "2",
        "name": "GUHPS Jogupalya",
        "name:kn": "ಸರ್ಕಾರಿ ಉರ್ದು ಹಿರಿಯ ಪ್ರಾಥಮಿಕ ಶಾಲೆ ಜೊಗುಪಾಳ್ಯ",
        "operator": "Department of Education",
        "school": "primary"
      }
    },
    {
      "type": "node",
      "id": 6349556765,
      "lat": 12.9685408,
      "lon": 77.6288761,
      "tags": {
        "addr:place": "Ulsoor",
        "amenity": "school",
        "isced:level": "2",
        "name": "St Miras HPS Ulsoor",
        "name:kn": "ಸೆಂಟ್‌ ಮಿರಸ್ ಹಿರಿಯ ಪ್ರಾಥಮಿಕ ಶಾಲೆ ಹಲಸೂರು",
        "operator": "Pvt. Aided",
        "school": "primary"
      }
    },
    {
      "type": "node",
      "id": 6349565035,
      "lat": 12.9741197,
      "lon": 77.6374384,
      "tags": {
        "addr:place": "Appareddypalya",
        "amenity": "school",
        "isced:level": "2",
        "name": "GHPS Appareddypalya",
        "name:kn": "ಸರ್ಕಾರಿ ಹಿರಿಯ ಪ್ರಾಥಮಿಕ ಶಾಲೆ ಅಪ್ಪರೆಡ್ಡಿಪಾಳ್ಯ",
        "operator": "Department of Education",
        "school": "primary"
      }
    },
    {
      "type": "node",
      "id": 6377377134,
      "lat": 12.9715538,
      "lon": 77.6360017,
      "tags": {
        "amenity": "bicycle_rental",
        "fee": "yes",
        "network": "DULT",
        "operator": "Yulu"
      }
    },
    {
      "type": "node",
      "id": 6377377135,
      "lat": 12.9686739,
      "lon": 77.6361562,
      "tags": {
        "amenity": "bicycle_rental",
        "bicycle_rental": "dropoff_point",
        "fee": "yes",
        "network": "DULT",
        "operator": "Yulu"
      }
    },
    {
      "type": "node",
      "id": 6393782375,
      "lat": 12.9759822,
      "lon": 77.6408063,
      "tags": {
        "check_date": "2023-10-09",
        "name": "Mi Home",
        "shop": "electronics"
      }
    },
    {
      "type": "node",
      "id": 6393818381,
      "lat": 12.969819,
      "lon": 77.6387145,
      "tags": {
        "name": "Ganesh Fruit Juice Centre",
        "payment:cash": "yes",
        "shop": "beverages"
      }
    },
    {
      "type": "node",
      "id": 6393846700,
      "lat": 12.9713759,
      "lon": 77.6348862,
      "tags": {
        "amenity": "atm",
        "brand": "IDBI Bank",
        "brand:wikidata": "Q3633485",
        "covered": "yes",
        "currency:INR": "yes",
        "name": "IDBI Bank",
        "operator": "IDBI Bank",
        "operator:wikidata": "Q3633485",
        "short_name": "IDBI"
      }
    },
    {
      "type": "node",
      "id": 6393846701,
      "lat": 12.9712853,
      "lon": 77.6348681,
      "tags": {
        "amenity": "atm",
        "brand": "Andhra Bank",
        "brand:wikidata": "Q2003476",
        "covered": "yes",
        "currency:INR": "yes",
        "name": "Andhra Bank",
        "name:kn": "ಆಂಧ್ರ ಬ್ಯಾಂಕ್",
        "operator": "Andhra Bank",
        "operator:wikidata": "Q2003476"
      }
    },
    {
      "type": "node",
      "id": 6443160709,
      "lat": 12.9754217,
      "lon": 77.6363694,
      "tags": {
        "leisure": "fitness_centre",
        "name": "Yogakshema",
        "sport": "yoga"
      }
    },
    {
      "type": "node",
      "id": 6443184083,
      "lat": 12.9727713,
      "lon": 77.6348249,
      "tags": {
        "female": "no",
        "male": "yes",
        "name": "First Choice Mens Salon",
        "shop": "hairdresser",
        "unisex": "no"
      }
    },
    {
      "type": "node",
      "id": 6443216005,
      "lat": 12.969801,
      "lon": 77.6303775,
      "tags": {
        "amenity": "place_of_worship",
        "name": "Shirdi Sai Baba Temple",
        "religion": "hindu"
      }
    },
    {
      "type": "node",
      "id": 6480345746,
      "lat": 12.9725478,
      "lon": 77.6402224,
      "tags": {
        "addr:city": "Bengaluru",
        "addr:housenumber": "837/1",
        "addr:postcode": "560038",
        "addr:street": "Sai Baba Mandira Road",
        "name": "Pedal in Tandem",
        "payment:cash": "yes",
        "payment:upi": "yes",
        "phone": "+91 9731280808",
        "repair": "yes",
        "service:bicycle:pump": "yes",
        "service:bicycle:rental": "yes",
        "service:bicycle:repair": "yes",
        "service:bicycle:retail": "yes",
        "service:bicycle:tools": "yes",
        "shop": "bicycle",
        "website": "https://www.pedalintandem.com/"
      }
    },
    {
      "type": "node",
      "id": 6531687424,
      "lat": 12.9723602,
      "lon": 77.6304912,
      "tags": {
        "addr:place": "jogupalya",
        "amenity": "school",
        "isced:level": "1",
        "name": "GTLPS jogupalya",
        "name:kn": "ಸರ್ಕಾರಿ ತೆಲುಗು ಕಿರಿಯ ಪ್ರಾಥಮಿಕ ಶಾಲೆ ಜೊಗುಪಾಳ್ಯ",
        "operator": "Private Un-Aided",
        "school": "primary"
      }
    },
    {
      "type": "node",
      "id": 6944364980,
      "lat": 12.970023,
      "lon": 77.6307987,
      "tags": {
        "addr:district": "Bengaluru Urban",
        "addr:full": "No. 114, 5Th Cross, Sai Baba Temple Road, Cambridge Layout, Ulsoor",
        "addr:postcode": "560008",
        "addr:state": "Karnataka",
        "amenity": "hospital",
        "name": "Sadhana Eye Hospital, Bengaluru Urban",
        "source": "OpenGovernmentData"
      }
    },
    {
      "type": "node",
      "id": 6947371813,
      "lat": 12.9709143,
      "lon": 77.6321116,
      "tags": {
        "addr:district": "Bengaluru Urban",
        "addr:full": "#289.1 Cross, Cambridge Layout, Halasuru, Near Sai Baba Temple",
        "addr:postcode": "560008",
        "addr:state": "Karnataka",
        "amenity": "hospital",
        "name": "Health Cottage Hospital",
        "source": "OpenGovernmentData"
      }
    },
    {
      "type": "node",
      "id": 6987406045,
      "lat": 12.9760157,
      "lon": 77.6391205,
      "tags": {
        "amenity": "fast_food",
        "cuisine": "indian",
        "name": "Pani Puri"
      }
    },
    {
      "type": "node",
      "id": 7031769604,
      "lat": 12.9703801,
      "lon": 77.632265,
      "tags": {
        "air_conditioning": "yes",
        "description": "Our focus is on design innovation and promotion of handcrafted products made by skilled artisans using natural inputs which sustains and preserves the environment. We are dedicated towards preserving rich and vibrant traditional Indian art.",
        "name": "Jute Cottage",
        "payment:all": "yes",
        "payment:credit_cards": "yes",
        "payment:debit_cards": "yes",
        "shop": "gift",
        "source": "survey;local knowledge;gps",
        "website": "https://www.jutecottage.co.in/"
      }
    },
    {
      "type": "node",
      "id": 7572526702,
      "lat": 12.9695354,
      "lon": 77.6404876,
      "tags": {
        "addr:district": "Bengaluru Urban",
        "addr:full": "Indiranagar, Bengaluru",
        "addr:postcode": "560008",
        "addr:state": "Karnataka",
        "amenity": "dentist",
        "healthcare": "dentist",
        "name": "Sai Ganesh Dental Clinic",
        "source": "Local Knowledge"
      }
    },
    {
      "type": "node",
      "id": 7572526710,
      "lat": 12.9698194,
      "lon": 77.6317472,
      "tags": {
        "addr:district": "Bengaluru Urban",
        "addr:full": "Someshvarapura Layout, Jogupalya, Bengaluru",
        "addr:postcode": "560008",
        "addr:state": "Karnataka",
        "amenity": "hospital",
        "name": "Sai Baba Hospital",
        "name:kn": "ಸಾಯಿಬಾಬ ಆಸ್ಪತ್ರೆ",
        "source": "Local Knowledge"
      }
    },
    {
      "type": "node",
      "id": 7572526767,
      "lat": 12.9693009,
      "lon": 77.6317545,
      "tags": {
        "addr:district": "Bengaluru Urban",
        "addr:full": "Someshvarapura Layout, Jogupalya, Bengaluru",
        "addr:postcode": "560008",
        "addr:state": "Karnataka",
        "amenity": "hospital",
        "name": "ESIC Hospital",
        "source": "Local Knowledge"
      }
    },
    {
      "type": "node",
      "id": 7572526773,
      "lat": 12.9697379,
      "lon": 77.6375339,
      "tags": {
        "addr:district": "Bengaluru Urban",
        "addr:full": "Doopanahalli, Indiranagar, Bengaluru",
        "addr:postcode": "560008",
        "addr:state": "Karnataka",
        "amenity": "clinic",
        "name": "Lifespan Diabetes & Cardiometabolic",
        "source": "Local Knowledge"
      }
    },
    {
      "type": "node",
      "id": 7572526775,
      "lat": 12.9714838,
      "lon": 77.6350988,
      "tags": {
        "addr:district": "Bengaluru Urban",
        "addr:full": "Indiranagar, Bengaluru",
        "addr:postcode": "560008",
        "addr:state": "Karnataka",
        "amenity": "clinic",
        "check_date": "2023-10-12",
        "name": "Dr. Banerjee Homeopathy Clinic",
        "source": "Local Knowledge"
      }
    },
    {
      "type": "node",
      "id": 7572526777,
      "lat": 12.9694023,
      "lon": 77.6300504,
      "tags": {
        "addr:district": "Bengaluru Urban",
        "addr:full": "Cambridge Layout, Halasuru, Bengaluru",
        "addr:postcode": "560008",
        "addr:state": "Karnataka",
        "amenity": "clinic",
        "name": "Orthotrend Clinic",
        "source": "Local Knowledge"
      }
    },
    {
      "type": "node",
      "id": 7572526809,
      "lat": 12.9728469,
      "lon": 77.6268497,
      "tags": {
        "addr:district": "Bengaluru Urban",
        "addr:full": "Cambridge Road, Udani Layout, Jogupalya, Bengaluru",
        "addr:postcode": "560008",
        "addr:state": "Karnataka",
        "amenity": "clinic",
        "healthcare": "clinic",
        "name": "Rai Clinic",
        "source": "Local Knowledge"
      }
    },
    {
      "type": "node",
      "id": 7970346627,
      "lat": 12.9715621,
      "lon": 77.6352678,
      "tags": {
        "addr:city": "Indiranagar, Bangalore",
        "addr:housenumber": "/458, 2nd cross",
        "addr:postcode": "560038",
        "addr:street": "7th main, Indrangar 2nd stage, Bangalore 560038",
        "clothes": "women;sports",
        "name": "Deivee",
        "organic": "yes",
        "shop": "clothes"
      }
    },
    {
      "type": "node",
      "id": 8758561574,
      "lat": 12.9702244,
      "lon": 77.6388413,
      "tags": {
        "addr:floor": "G",
        "amenity": "bank",
        "atm": "yes",
        "brand": "ICICI Bank",
        "brand:wikidata": "Q1653258",
        "brand:wikipedia": "en:ICICI Bank",
        "check_date": "2024-05-15",
        "drive_through": "no",
        "level": "0",
        "name": "ICICI Bank",
        "name:en": "ICICI Bank",
        "name:kn": "ಐಸಿಐಸಿಐ ಬ್ಯಾಂಕು",
        "short_name": "ICICI",
        "website": "https://www.icicibank.com"
      }
    },
    {
      "type": "node",
      "id": 8758561575,
      "lat": 12.9701976,
      "lon": 77.6386624,
      "tags": {
        "amenity": "cafe",
        "brand": "Third Wave Coffee Roasters",
        "brand:wikidata": "Q7785004",
        "check_date": "2025-03-14",
        "cuisine": "coffee_shop",
        "delivery": "yes",
        "internet_access": "yes",
        "internet_access:fee": "no",
        "name": "Third Wave Coffee Roasters",
        "outdoor_seating": "yes",
        "payment:credit_cards": "yes",
        "payment:debit_cards": "yes",
        "takeaway": "yes",
        "toilets:wheelchair": "no",
        "website": "https://www.thirdwavecoffeeroasters.com/",
        "wheelchair": "yes"
      }
    },
    {
      "type": "node",
      "id": 8758566369,
      "lat": 12.9720162,
      "lon": 77.6409055,
      "tags": {
        "addr:city": "Indira Nagar, Bangalore",
        "addr:housenumber": "759",
        "addr:postcode": "560038",
        "addr:street": "100ft Road, HAL 2nd Stage",
        "brand": "Academy of Strength",
        "leisure": "fitness_centre",
        "name": "Academy of Strength",
        "phone": "+91 9916099243",
        "sport": "gymnasium",
        "website": "https://www.academyofstrength.in/"
      }
    },
    {
      "type": "node",
      "id": 9066455075,
      "lat": 12.9715511,
      "lon": 77.635481,
      "tags": {
        "addr:housenumber": "3142, Ground Floor",
        "addr:street": "7th Main, ESI Hospital Road",
        "amenity": "pharmacy",
        "branch": "ESI Hospital Road Indiranagar",
        "brand": "MedPlus",
        "brand:wikidata": "Q65684234",
        "healthcare": "pharmacy",
        "name": "MedPlus",
        "name:kn": "ಮೆಡ್‍ಪ್ಲಸ್",
        "opening_hours": "Mo-Su 07:00-23:00",
        "phone": "+916366374166",
        "website": "https://pharmacy.medplusmart.com/INKABLR00500"
      }
    },
    {
      "type": "node",
      "id": 9288431549,
      "lat": 12.9704038,
      "lon": 77.6399131,
      "tags": {
        "amenity": "restaurant",
        "level": "2",
        "name": "Salt Mango Tree",
        "payment:credit_cards": "yes",
        "payment:debit_cards": "yes"
      }
    },
    {
      "type": "node",
      "id": 9288431554,
      "lat": 12.9699008,
      "lon": 77.6387045,
      "tags": {
        "amenity": "fast_food",
        "name": "Bangalore Thindies",
        "payment:credit_cards": "yes",
        "payment:debit_cards": "yes"
      }
    },
    {
      "type": "node",
      "id": 9288431558,
      "lat": 12.9705157,
      "lon": 77.6390558,
      "tags": {
        "name": "Moriyo Artisanal Linen",
        "shop": "fabric"
      }
    },
    {
      "type": "node",
      "id": 9288431559,
      "lat": 12.9705287,
      "lon": 77.6391886,
      "tags": {
        "addr:floor": "G",
        "check_date": "2024-09-21",
        "level": "0",
        "shop": "greengrocer"
      }
    },
    {
      "type": "node",
      "id": 9288431560,
      "lat": 12.9705468,
      "lon": 77.6395469,
      "tags": {
        "check_date": "2024-09-21",
        "name": "Dr. Karishma Cosmetics",
        "shop": "cosmetics"
      }
    },
    {
      "type": "node",
      "id": 9288431561,
      "lat": 12.9705392,
      "lon": 77.6396808,
      "tags": {
        "amenity": "kindergarten",
        "name": "Seven Senses Montessori"
      }
    },
    {
      "type": "node",
      "id": 9288431562,
      "lat": 12.9709404,
      "lon": 77.6402441,
      "tags": {
        "amenity": "cafe",
        "name": "Maison du",
        "payment:credit_cards": "yes",
        "payment:debit_cards": "yes"
      }
    },
    {
      "type": "node",
      "id": 9288431563,
      "lat": 12.9717271,
      "lon": 77.6399504,
      "tags": {
        "name": "Craftizen Foundation",
        "office": "company",
        "shop": "gift",
        "website": "https://craftizen.org/"
      }
    },
    {
      "type": "node",
      "id": 9288431564,
      "lat": 12.9719428,
      "lon": 77.6399329,
      "tags": {
        "amenity": "dentist",
        "healthcare": "dentist",
        "name": "Flourish Dental Studio"
      }
    },
    {
      "type": "node",
      "id": 9534316322,
      "lat": 12.9699492,
      "lon": 77.6394919,
      "tags": {
        "amenity": "restaurant",
        "cuisine": "asian",
        "level": "1",
        "name": "Wakame"
      }
    },
    {
      "type": "node",
      "id": 9534316323,
      "lat": 12.969873,
      "lon": 77.6390616,
      "tags": {
        "brand": "Fabindia",
        "brand:wikidata": "Q5427779",
        "name": "Fabindia",
        "payment:credit_cards": "yes",
        "payment:debit_cards": "yes",
        "shop": "clothes"
      }
    },
    {
      "type": "node",
      "id": 9534316324,
      "lat": 12.9699243,
      "lon": 77.6393627,
      "tags": {
        "amenity": "restaurant",
        "check_date": "2024-05-15",
        "name": "Bhola & Blonde",
        "name:en": "Bhola & Blonde"
      }
    },
    {
      "type": "node",
      "id": 9534316325,
      "lat": 12.9698751,
      "lon": 77.6392046,
      "tags": {
        "amenity": "restaurant",
        "name": "Secret Story Bar & Kitchen"
      }
    },
    {
      "type": "node",
      "id": 9545465493,
      "lat": 12.9700759,
      "lon": 77.640814,
      "tags": {
        "amenity": "cafe",
        "name": "Magnolia Bakery",
        "payment:credit_cards": "yes",
        "payment:debit_cards": "yes",
        "shop": "bakery"
      }
    },
    {
      "type": "node",
      "id": 9545465494,
      "lat": 12.9699073,
      "lon": 77.6394944,
      "tags": {
        "amenity": "restaurant",
        "level": "0",
        "name": "Bohemians",
        "payment:credit_cards": "yes",
        "payment:debit_cards": "yes"
      }
    },
    {
      "type": "node",
      "id": 9655459411,
      "lat": 12.9726123,
      "lon": 77.6379008,
      "tags": {
        "amenity": "veterinary",
        "name": "Indira pet clinic"
      }
    },
    {
      "type": "node",
      "id": 9689539843,
      "lat": 12.9703615,
      "lon": 77.640816,
      "tags": {
        "amenity": "cafe",
        "brand": "Chaayos",
        "brand:wikidata": "Q117235235",
        "cuisine": "tea",
        "name": "Chaayos",
        "takeaway": "yes"
      }
    },
    {
      "type": "node",
      "id": 9689539844,
      "lat": 12.9703399,
      "lon": 77.6407054,
      "tags": {
        "amenity": "pub",
        "contact:instagram": "swwingblr",
        "name": "Swwing"
      }
    },
    {
      "type": "node",
      "id": 9689539845,
      "lat": 12.9702412,
      "lon": 77.639087,
      "tags": {
        "amenity": "restaurant",
        "check_date": "2024-10-13",
        "cuisine": "pizza",
        "name": "Thin Tony's Pizza",
        "website": "https://www.thintonyspizza.com"
      }
    },
    {
      "type": "node",
      "id": 9723056419,
      "lat": 12.9705124,
      "lon": 77.6391504,
      "tags": {
        "addr:floor": "G",
        "amenity": "fast_food",
        "check_date": "2024-09-21",
        "level": "0",
        "name": "Outpost Kitchen"
      }
    },
    {
      "type": "node",
      "id": 9723056420,
      "lat": 12.970383,
      "lon": 77.6410648,
      "tags": {
        "addr:street": "100 Feet Road",
        "brand": "Reliance Digital",
        "brand:wikidata": "Q7311012",
        "name": "Reliance Digital",
        "name:kn": "ಸೋನಿ ಸೆಂಟರ್",
        "shop": "electronics"
      }
    },
    {
      "type": "node",
      "id": 9723056435,
      "lat": 12.9698942,
      "lon": 77.6386368,
      "tags": {
        "amenity": "cafe",
        "name": "Avoke: The Avocado Cafe",
        "payment:credit_cards": "yes",
        "payment:debit_cards": "yes"
      }
    },
    {
      "type": "node",
      "id": 9723056436,
      "lat": 12.9696753,
      "lon": 77.640755,
      "tags": {
        "amenity": "bank",
        "atm": "yes"
      }
    },
    {
      "type": "node",
      "id": 9723056437,
      "lat": 12.9697864,
      "lon": 77.6404935,
      "tags": {
        "name": "Fiona Diamonds",
        "shop": "jewelry"
      }
    },
    {
      "type": "node",
      "id": 9723056438,
      "lat": 12.969363,
      "lon": 77.6379186,
      "tags": {
        "name": "Kaapi Machines",
        "shop": "coffee"
      }
    },
    {
      "type": "node",
      "id": 9723056439,
      "lat": 12.9692467,
      "lon": 77.6361255,
      "tags": {
        "amenity": "ice_cream",
        "brand": "Baskin-Robbins",
        "brand:wikidata": "Q584601",
        "cuisine": "ice_cream",
        "name": "Baskin-Robbins"
      }
    },
    {
      "type": "node",
      "id": 9723056488,
      "lat": 12.9691872,
      "lon": 77.6361242,
      "tags": {
        "addr:city": "Bangalore",
        "addr:country": "IN",
        "addr:hamlet": "HAL 2nd Stage",
        "addr:housenumber": "3302",
        "addr:postcode": "560008",
        "addr:street": "12th A Main Road",
        "addr:suburb": "Indiranagar",
        "check_date": "2025-03-14",
        "email": "hello@somethingsbrewing.in",
        "mobile": "+91-880-077-0649",
        "name": "Something's Brewing",
        "phone": "+91-880-077-0649",
        "shop": "coffee",
        "website": "https://somethingsbrewing.in/"
      }
    },
    {
      "type": "node",
      "id": 9723056489,
      "lat": 12.969035,
      "lon": 77.6361658,
      "tags": {
        "amenity": "cafe",
        "check_date": "2025-03-14",
        "name": "infinitea"
      }
    },
    {
      "type": "node",
      "id": 9739850131,
      "lat": 12.9699668,
      "lon": 77.6398927,
      "tags": {
        "amenity": "restaurant",
        "cuisine": "asian",
        "delivery": "yes",
        "name": "MisoSexy",
        "payment:credit_cards": "yes",
        "payment:debit_cards": "yes",
        "takeaway": "yes",
        "website": "https://www.misosexy.in/"
      }
    },
    {
      "type": "node",
      "id": 9826455125,
      "lat": 12.9720407,
      "lon": 77.6408995,
      "tags": {
        "amenity": "restaurant",
        "cuisine": "italian",
        "name": "Bologna"
      }
    },
    {
      "type": "node",
      "id": 9890165406,
      "lat": 12.9746676,
      "lon": 77.6362047,
      "tags": {
        "amenity": "arts_centre",
        "name": "Artisera"
      }
    },
    {
      "type": "node",
      "id": 9890165407,
      "lat": 12.9741096,
      "lon": 77.6360209,
      "tags": {
        "name": "Amma's Pastries",
        "shop": "pastry"
      }
    },
    {
      "type": "node",
      "id": 9890165409,
      "lat": 12.9703013,
      "lon": 77.6360987,
      "tags": {
        "amenity": "cafe",
        "diet:vegan": "yes",
        "name": "Charlie Chaplain La Vegano"
      }
    },
    {
      "type": "node",
      "id": 9890165411,
      "lat": 12.9701066,
      "lon": 77.636261,
      "tags": {
        "addr:city": "Bangalore",
        "amenity": "restaurant",
        "brand": "Cafe Noir",
        "brand:wikidata": "Q124374751",
        "cuisine": "french;burger",
        "delivery": "yes",
        "indoor_seating": "yes",
        "name": "Cafe Noir",
        "name:kn": "ಕಫೆ ನಾರ್ಯ್",
        "payment:credit_cards": "yes",
        "payment:debit_cards": "yes",
        "takeaway": "yes"
      }
    },
    {
      "type": "node",
      "id": 9917415767,
      "lat": 12.974435,
      "lon": 77.6357956,
      "tags": {
        "brand": "Steelcase",
        "name": "Steelcase",
        "operator": "Steelcase",
        "shop": "furniture",
        "website": "https://www.steelcase.com"
      }
    },
    {
      "type": "node",
      "id": 9917415768,
      "lat": 12.9733967,
      "lon": 77.6357561,
      "tags": {
        "amenity": "charging_station",
        "bicycle": "yes",
        "motorcycle": "yes",
        "scooter": "yes"
      }
    },
    {
      "type": "node",
      "id": 9917415769,
      "lat": 12.9733738,
      "lon": 77.6357554,
      "tags": {
        "amenity": "charging_station",
        "bicycle": "yes",
        "motorcycle": "yes",
        "scooter": "yes"
      }
    },
    {
      "type": "node",
      "id": 9981919773,
      "lat": 12.9689958,
      "lon": 77.6405713,
      "tags": {
        "amenity": "spa",
        "name": "Spa Nation",
        "shop": "beauty"
      }
    },
    {
      "type": "node",
      "id": 9981919774,
      "lat": 12.9691264,
      "lon": 77.6405793,
      "tags": {
        "amenity": "clinic",
        "healthcare": "alternative",
        "name": "Hurbz"
      }
    },
    {
      "type": "node",
      "id": 9981919775,
      "lat": 12.9693695,
      "lon": 77.6408167,
      "tags": {
        "addr:city": "Bengaluru",
        "addr:country": "IN",
        "addr:street": "1st Cross Road",
        "addr:suburb": "Indiranagar",
        "amenity": "coworking_space",
        "fee": "yes",
        "name": "Beginest Harbor 1",
        "office": "coworking",
        "operator": "Beginest",
        "website": "https://www.beginest.com/"
      }
    },
    {
      "type": "node",
      "id": 9981919776,
      "lat": 12.972527,
      "lon": 77.6401596,
      "tags": {
        "amenity": "dentist"
      }
    },
    {
      "type": "node",
      "id": 9981919789,
      "lat": 12.9759444,
      "lon": 77.6393247,
      "tags": {
        "amenity": "spa",
        "name": "Nava Spa and Salon",
        "shop": "beauty"
      }
    },
    {
      "type": "node",
      "id": 10006815594,
      "lat": 12.9732714,
      "lon": 77.635996,
      "tags": {
        "name": "Machleez sea food",
        "shop": "seafood"
      }
    },
    {
      "type": "node",
      "id": 10051816947,
      "lat": 12.9701549,
      "lon": 77.6371431,
      "tags": {
        "amenity": "restaurant",
        "cuisine": "burger",
        "name": "Burgerman",
        "website": "https://burgerman.in"
      }
    },
    {
      "type": "node",
      "id": 10051816953,
      "lat": 12.9699145,
      "lon": 77.639208,
      "tags": {
        "amenity": "cafe",
        "check_date": "2024-10-13",
        "name": "Araku Coffee",
        "name:en": "Araku Coffee",
        "payment:credit_cards": "yes",
        "payment:debit_cards": "yes",
        "wheelchair": "no"
      }
    },
    {
      "type": "node",
      "id": 10139996736,
      "lat": 12.9699891,
      "lon": 77.6399613,
      "tags": {
        "addr:floor": "4",
        "amenity": "pub",
        "check_date": "2023-12-30",
        "level": "4",
        "name": "Daddy",
        "payment:cash": "yes",
        "payment:mastercard": "yes",
        "payment:visa": "yes",
        "smoking": "separated"
      }
    },
    {
      "type": "node",
      "id": 10139996737,
      "lat": 12.9703055,
      "lon": 77.6399193,
      "tags": {
        "amenity": "cafe",
        "brand": "Starbucks",
        "brand:wikidata": "Q37158",
        "cuisine": "coffee_shop",
        "level": "0",
        "name": "Starbucks",
        "official_name": "Starbucks Coffee",
        "takeaway": "yes"
      }
    },
    {
      "type": "node",
      "id": 10237998981,
      "lat": 12.9725224,
      "lon": 77.6398506,
      "tags": {
        "fee": "yes",
        "leisure": "escape_game",
        "level": "5",
        "name": "The Amazing Escape",
        "phone": "+91 8884440258"
      }
    },
    {
      "type": "node",
      "id": 10272842148,
      "lat": 12.9700452,
      "lon": 77.6407993,
      "tags": {
        "contact:facebook": "SubkoCoffee",
        "contact:instagram": "subkocoffee",
        "email": "wheresmystuff@subko.coffee",
        "name": "Subko",
        "shop": "coffee",
        "website": "https://www.subko.coffee"
      }
    },
    {
      "type": "node",
      "id": 10272842149,
      "lat": 12.970053,
      "lon": 77.640867,
      "tags": {
        "addr:city": "Bangalore",
        "addr:country": "IN",
        "addr:district": "Bangalore Urban",
        "addr:hamlet": "HAL 2nd Stage",
        "addr:housenumber": "789/A",
        "addr:postcode": "560003",
        "addr:state": "Karnataka",
        "addr:street": "12th Main Road",
        "addr:suburb": "Indiranagar",
        "contact:facebook": "BombayShirts",
        "contact:instagram": "bombayshirts",
        "contact:whatsapp": "https://web.whatsapp.com/send?phone=+918879621003",
        "contact:youtube": "https://www.youtube.com/channel/UCMd8a7hw8z9zDIplp4HKKzQ",
        "email": "support@bombayshirts.com",
        "name": "Bombay Shirt Company",
        "opening_hours": "10:30-21:00",
        "phone": "+91 96424 16621",
        "shop": "clothes",
        "website": "https://www.bombayshirts.com"
      }
    },
    {
      "type": "node",
      "id": 10279324973,
      "lat": 12.9723622,
      "lon": 77.637045,
      "tags": {
        "addr:city": "Bengaluru",
        "addr:country": "IN",
        "addr:floor": "1",
        "addr:hamlet": "Appareddipalya",
        "addr:housenumber": "10/1",
        "addr:postcode": "560038",
        "addr:street": "1st Cross Road",
        "addr:suburb": "Indiranagar",
        "amenity": "restaurant",
        "check_date": "2024-05-19",
        "contact:instagram": "hokkaido_bangalore",
        "cuisine": "japanese;korean",
        "karaoke": "yes",
        "level": "1",
        "name": "Hokkaido",
        "wheelchair": "limited"
      }
    },
    {
      "type": "node",
      "id": 10280790807,
      "lat": 12.9725047,
      "lon": 77.6265299,
      "tags": {
        "addr:city": "Bengaluru",
        "addr:country": "IN",
        "addr:housenumber": "18/1",
        "addr:postcode": "560008",
        "addr:street": "Cambridge Road",
        "addr:suburb": "Halasuru",
        "amenity": "pub",
        "contact:instagram": "adda1522blr",
        "email": "adda1522blr@gmail.com",
        "mobile": "+919164441522",
        "name": "ADDA 1522",
        "payment:credit_cards": "yes",
        "payment:debit_cards": "yes",
        "phone": "+919916661522",
        "website": "https://adda1522.com/"
      }
    },
    {
      "type": "node",
      "id": 10280801510,
      "lat": 12.9698374,
      "lon": 77.6385241,
      "tags": {
        "amenity": "restaurant",
        "brand": "Daily Sushi",
        "brand:wikidata": "Q124374644",
        "cuisine": "asian",
        "delivery": "yes",
        "name": "Daily Sushi",
        "takeaway": "yes"
      }
    },
    {
      "type": "node",
      "id": 10293607181,
      "lat": 12.9757157,
      "lon": 77.6407135,
      "tags": {
        "name": "Taneira",
        "payment:credit_cards": "yes",
        "payment:debit_cards": "yes",
        "shop": "boutique"
      }
    },
    {
      "type": "node",
      "id": 10296978082,
      "lat": 12.9699596,
      "lon": 77.6408261,
      "tags": {
        "addr:city": "Bangalore",
        "addr:country": "IN",
        "addr:housenumber": "787",
        "addr:postcode": "560008",
        "addr:street": "1st Cross Road",
        "addr:suburb": "Indiranagar",
        "amenity": "cafe",
        "contact:instagram": "nuagepatisserie",
        "delivery": "yes",
        "mobile": "+91 7618740692",
        "name": "Nuage Pâtisserie & Café",
        "phone": "+08048520831",
        "takeaway": "yes"
      }
    },
    {
      "type": "node",
      "id": 10924790345,
      "lat": 12.971909,
      "lon": 77.6409168,
      "tags": {
        "addr:city": "Bengaluru",
        "addr:country": "IN",
        "addr:housenumber": "759",
        "addr:postcode": "560038",
        "addr:street": "100 Feet Road",
        "addr:suburb": "Indiranagar",
        "brand": "Bath & Body Works",
        "brand:wikidata": "Q810773",
        "name": "Bath & Body Works",
        "payment:credit_cards": "yes",
        "payment:debit_cards": "yes",
        "shop": "cosmetics",
        "website": "https://www.bathandbodyworks.in/"
      }
    },
    {
      "type": "node",
      "id": 11003327933,
      "lat": 12.9727798,
      "lon": 77.6408925,
      "tags": {
        "addr:floor": "G",
        "addr:street": "Sai Baba Mandira Road",
        "amenity": "cafe",
        "check_date": "2024-01-06",
        "level": "0",
        "name": "Shambhu's Cafe",
        "payment:credit_cards": "yes",
        "payment:debit_cards": "yes"
      }
    },
    {
      "type": "node",
      "id": 11019815734,
      "lat": 12.9698139,
      "lon": 77.6379119,
      "tags": {
        "amenity": "cafe",
        "name": "Conçu"
      }
    },
    {
      "type": "node",
      "id": 11051702616,
      "lat": 12.9672483,
      "lon": 77.6369934,
      "tags": {
        "addr:city": "Bengaluru",
        "addr:country": "IN",
        "addr:hamlet": "HAL 2nd Stage",
        "addr:housenumber": "15",
        "addr:postcode": "560008",
        "addr:street": "12th Cross Road",
        "addr:suburb": "Domlur",
        "contact:facebook": "lxgindia.co",
        "contact:instagram": "lxgindia",
        "email": "info@lxgindia.com",
        "leisure": "amusement_arcade",
        "level": "0",
        "name": "League of Extraordinary Gamers",
        "phone": "+91 7798735930",
        "shop": "video_games",
        "short_name": "LXG",
        "website": "https://www.lxgindia.com/"
      }
    },
    {
      "type": "node",
      "id": 11131430541,
      "lat": 12.9700642,
      "lon": 77.6410836,
      "tags": {
        "name": "Angel & Rocket",
        "payment:credit_cards": "yes",
        "payment:debit_cards": "yes",
        "shop": "clothes"
      }
    },
    {
      "type": "node",
      "id": 11131430542,
      "lat": 12.9697355,
      "lon": 77.6410904,
      "tags": {
        "name": "Nadira",
        "shop": "clothes"
      }
    },
    {
      "type": "node",
      "id": 11131430553,
      "lat": 12.9714323,
      "lon": 77.6351019,
      "tags": {
        "leisure": "fitness_centre",
        "name": "Fitness One"
      }
    },
    {
      "type": "node",
      "id": 11131430555,
      "lat": 12.9702732,
      "lon": 77.6325236,
      "tags": {
        "name": "Sangeeta Mobiles",
        "shop": "mobile_phone"
      }
    },
    {
      "type": "node",
      "id": 11131430556,
      "lat": 12.9696889,
      "lon": 77.6325273,
      "tags": {
        "amenity": "restaurant",
        "cuisine": "chinese",
        "name": "Hong Kong Chinese Restaurant"
      }
    },
    {
      "type": "node",
      "id": 11131430557,
      "lat": 12.9685723,
      "lon": 77.6308921,
      "tags": {
        "name": "theskinstore.in",
        "shop": "cosmetics"
      }
    },
    {
      "type": "node",
      "id": 11131430558,
      "lat": 12.9686442,
      "lon": 77.6291495,
      "tags": {
        "amenity": "fast_food",
        "brand": "Domino's",
        "brand:wikidata": "Q839466",
        "cuisine": "pizza",
        "name": "Domino's",
        "name:kn": "ಡಾಮಿನೋಸ್",
        "takeaway": "yes"
      }
    },
    {
      "type": "node",
      "id": 11131430559,
      "lat": 12.9693732,
      "lon": 77.6287175,
      "tags": {
        "amenity": "bank",
        "brand": "HDFC Bank",
        "brand:wikidata": "Q631047",
        "name": "HDFC Bank",
        "name:kn": "ಎಚ್ ಡಿ ಎಫ್ ಸಿ",
        "short_name": "HDFC"
      }
    },
    {
      "type": "node",
      "id": 11131430560,
      "lat": 12.9714734,
      "lon": 77.6277316,
      "tags": {
        "amenity": "pharmacy",
        "brand": "MedPlus",
        "brand:wikidata": "Q65684234",
        "healthcare": "pharmacy",
        "name": "MedPlus"
      }
    },
    {
      "type": "node",
      "id": 11131430561,
      "lat": 12.9714974,
      "lon": 77.6277058,
      "tags": {
        "amenity": "atm",
        "brand": "Kotak Mahindra Bank",
        "brand:wikidata": "Q2040404",
        "operator": "Kotak Mahindra Bank",
        "operator:wikidata": "Q2040404"
      }
    },
    {
      "type": "node",
      "id": 11131430562,
      "lat": 12.9721652,
      "lon": 77.6273558,
      "tags": {
        "amenity": "kindergarten",
        "name": "Little Wings Pre Primary School"
      }
    },
    {
      "type": "node",
      "id": 11249358262,
      "lat": 12.9739972,
      "lon": 77.6358989,
      "tags": {
        "amenity": "restaurant",
        "name": "Hotel Gowdru"
      }
    },
    {
      "type": "node",
      "id": 11250337401,
      "lat": 12.9724268,
      "lon": 77.6393352,
      "tags": {
        "amenity": "parking_entrance",
        "parking": "underground"
      }
    },
    {
      "type": "node",
      "id": 11359565959,
      "lat": 12.9700707,
      "lon": 77.6407145,
      "tags": {
        "name": "Mokobara",
        "shop": "bag"
      }
    },
    {
      "type": "node",
      "id": 11359575331,
      "lat": 12.969981,
      "lon": 77.6398642,
      "tags": {
        "name": "Ratnadeep",
        "shop": "supermarket"
      }
    },
    {
      "type": "node",
      "id": 11359585576,
      "lat": 12.9696997,
      "lon": 77.6387029,
      "tags": {
        "name": "J24 Brothers Store",
        "shop": "supermarket"
      }
    },
    {
      "type": "node",
      "id": 11493951517,
      "lat": 12.9728986,
      "lon": 77.640896,
      "tags": {
        "check_date": "2024-01-06",
        "name": "Rare Rabbit",
        "shop": "clothes"
      }
    },
    {
      "type": "node",
      "id": 11493951518,
      "lat": 12.9728374,
      "lon": 77.640897,
      "tags": {
        "check_date": "2024-01-06",
        "name": "Mochi crocs",
        "shop": "shoes"
      }
    },
    {
      "type": "node",
      "id": 11493951519,
      "lat": 12.9728313,
      "lon": 77.6408323,
      "tags": {
        "brand": "Sony Centre",
        "brand:wikidata": "Q3437496",
        "check_date": "2024-01-06",
        "name": "Sony Centre",
        "shop": "electronics"
      }
    },
    {
      "type": "node",
      "id": 11493951520,
      "lat": 12.9734535,
      "lon": 77.6408882,
      "tags": {
        "access": "yes",
        "amenity": "drinking_water",
        "fee": "yes",
        "man_made": "water_tap",
        "operator": "BBMP"
      }
    },
    {
      "type": "node",
      "id": 11499112406,
      "lat": 12.972617,
      "lon": 77.6266243,
      "tags": {
        "addr:floor": "2",
        "amenity": "restaurant",
        "check_date": "2024-01-08",
        "contact:instagram": "https://www.instagram.com/podiandspice",
        "level": "2",
        "name": "Podi and Spice"
      }
    },
    {
      "type": "node",
      "id": 11510253121,
      "lat": 12.9703448,
      "lon": 77.6399169,
      "tags": {
        "level": "1",
        "name": "The Hair Square",
        "shop": "hairdresser",
        "unisex": "yes"
      }
    },
    {
      "type": "node",
      "id": 11534808271,
      "lat": 12.9700536,
      "lon": 77.6361068,
      "tags": {
        "addr:housenumber": "3275/A",
        "addr:street": "12th Main Road",
        "amenity": "restaurant",
        "check_date": "2025-03-14",
        "contact:instagram": "https://www.instagram.com/pizza4ps.india",
        "cuisine": "pizza",
        "name": "Pizza 4P's",
        "phone": "+91 89519 40444",
        "reservation": "recommended",
        "website": "https://pizza4ps.com"
      }
    },
    {
      "type": "node",
      "id": 11564558383,
      "lat": 12.9702372,
      "lon": 77.6380876,
      "tags": {
        "addr:housenumber": "1078",
        "addr:street": "12th Main Road",
        "amenity": "events_venue",
        "check_date": "2024-01-29",
        "contact:instagram": "https://www.instagram.com/thebangaloreroom",
        "email": "thebangaloreroom@gmail.com",
        "name": "The Bangalore Room"
      }
    },
    {
      "type": "node",
      "id": 11637653608,
      "lat": 12.9723676,
      "lon": 77.6409417,
      "tags": {
        "brand": "Peter England",
        "brand:wikidata": "Q19573665",
        "check_date": "2024-02-18",
        "clothes": "men",
        "name": "Peter England",
        "shop": "clothes"
      }
    },
    {
      "type": "node",
      "id": 11637653609,
      "lat": 12.972193,
      "lon": 77.6409102,
      "tags": {
        "check_date": "2024-02-18",
        "name": "Caratlane",
        "shop": "jewelry"
      }
    },
    {
      "type": "node",
      "id": 11637653610,
      "lat": 12.9720603,
      "lon": 77.6409226,
      "tags": {
        "check_date": "2024-02-18",
        "name": "Louis Phillippe",
        "shop": "clothes"
      }
    },
    {
      "type": "node",
      "id": 11637653613,
      "lat": 12.9708236,
      "lon": 77.6409228,
      "tags": {
        "check_date": "2024-02-18",
        "name": "sculpt",
        "shop": "beauty"
      }
    },
    {
      "type": "node",
      "id": 11637653614,
      "lat": 12.9708894,
      "lon": 77.6409157,
      "tags": {
        "check_date": "2024-02-18",
        "name": "Just In Time",
        "shop": "watches"
      }
    },
    {
      "type": "node",
      "id": 11637669676,
      "lat": 12.970439,
      "lon": 77.6401833,
      "tags": {
        "check_date": "2024-02-18",
        "name": "Health & Glow",
        "shop": "beauty"
      }
    },
    {
      "type": "node",
      "id": 11637669677,
      "lat": 12.970297,
      "lon": 77.6394943,
      "tags": {
        "brand": "Fabindia",
        "brand:wikidata": "Q5427779",
        "check_date": "2024-02-18",
        "name": "Fabindia",
        "shop": "clothes"
      }
    },
    {
      "type": "node",
      "id": 11637669678,
      "lat": 12.970314,
      "lon": 77.6391971,
      "tags": {
        "amenity": "restaurant",
        "brand": "PizzaExpress",
        "brand:wikidata": "Q662845",
        "check_date": "2024-10-13",
        "cuisine": "pizza",
        "name": "PizzaExpress",
        "wheelchair": "no"
      }
    },
    {
      "type": "node",
      "id": 11637669679,
      "lat": 12.9701915,
      "lon": 77.6386267,
      "tags": {
        "amenity": "fast_food",
        "check_date": "2025-03-14",
        "name": "Samosa Party"
      }
    },
    {
      "type": "node",
      "id": 11637864321,
      "lat": 12.9710188,
      "lon": 77.6409834,
      "tags": {
        "brand": "Allen Solly",
        "brand:wikidata": "Q110036995",
        "check_date": "2024-08-22",
        "name": "Superdry",
        "shop": "clothes"
      }
    },
    {
      "type": "node",
      "id": 11637864323,
      "lat": 12.9740806,
      "lon": 77.6408573,
      "tags": {
        "check_date": "2024-02-18",
        "laundry_service": "yes",
        "name": "Cleanovo",
        "self_service": "no",
        "shop": "laundry"
      }
    },
    {
      "type": "node",
      "id": 11786003993,
      "lat": 12.9702907,
      "lon": 77.6393544,
      "tags": {
        "addr:housenumber": "950",
        "addr:street": "12th Main Road",
        "amenity": "restaurant",
        "check_date": "2024-04-04",
        "contact:instagram": "https://www.instagram.com/jamieoliverkitchenindia",
        "name": "Jamie Oliver Kitchen",
        "opening_hours": "11:00-23:00"
      }
    },
    {
      "type": "node",
      "id": 12005884108,
      "lat": 12.970121,
      "lon": 77.6368712,
      "tags": {
        "name": "Mon Cherie",
        "shop": "clothes"
      }
    },
    {
      "type": "node",
      "id": 12005884125,
      "lat": 12.9698746,
      "lon": 77.638388,
      "tags": {
        "addr:city": "Bengaluru",
        "addr:country": "IN",
        "addr:housenumber": "1085",
        "addr:postcode": "560008",
        "addr:street": "12th Main",
        "addr:suburb": "Indiranagar",
        "amenity": "restaurant",
        "contact:instagram": "zedthebaker",
        "email": "info@zedthebaker.com",
        "name": "Zed The Baker",
        "phone": "+91 6366435741",
        "website": "https://zedthebaker.com/"
      }
    },
    {
      "type": "node",
      "id": 12009009947,
      "lat": 12.9691458,
      "lon": 77.6361275,
      "tags": {
        "amenity": "cafe",
        "check_date": "2025-03-14",
        "name": "natuf",
        "start_date": "2024-08-15",
        "website": "https://natuf.in/"
      }
    },
    {
      "type": "node",
      "id": 12059584769,
      "lat": 12.9698254,
      "lon": 77.6380772,
      "tags": {
        "addr:city": "Bengaluru",
        "addr:country": "IN",
        "addr:hamlet": "Domlur 2nd Stage",
        "addr:housenumber": "1088",
        "addr:postcode": "560008",
        "addr:street": "12th Main Road",
        "addr:suburb": "Indiranagar",
        "amenity": "cafe",
        "check_date": "2025-03-14",
        "contact:instagram": "kopitiamlah",
        "cuisine": "malaysian",
        "email": "hello@kopitiamlah.in",
        "name": "Kopitiam Lah",
        "opening_hours": "Tu-Su 08:30-11:30,12:30-16:30",
        "phone": "+91 72595 43888",
        "start_date": "2024-07-17",
        "website": "https://www.kopitiamlah.com/"
      }
    },
    {
      "type": "node",
      "id": 12061267354,
      "lat": 12.9702381,
      "lon": 77.6385178,
      "tags": {
        "addr:housenumber": "1081",
        "addr:street": "12th Main Road",
        "amenity": "pub",
        "check_date": "2024-07-18",
        "name": "Jimi's",
        "opening_hours": "11:00-24:00",
        "toilets": "yes"
      }
    },
    {
      "type": "node",
      "id": 12075133356,
      "lat": 12.9697917,
      "lon": 77.6383974,
      "tags": {
        "addr:city": "Bengaluru",
        "addr:country": "IN",
        "addr:floor": "1",
        "addr:housenumber": "1085",
        "addr:postcode": "560008",
        "addr:street": "12th Main",
        "addr:suburb": "Indiranagar",
        "amenity": "restaurant",
        "cuisine": "italian",
        "level": "1",
        "name": "La Gioia",
        "opening_hours": "12:00-23:30"
      }
    },
    {
      "type": "node",
      "id": 12107634725,
      "lat": 12.9727674,
      "lon": 77.6397586,
      "tags": {
        "amenity": "cafe",
        "contact:instagram": "neonmarketindia",
        "name": "Neon Market",
        "website": "https://neon.market/"
      }
    },
    {
      "type": "node",
      "id": 12116713302,
      "lat": 12.9699586,
      "lon": 77.6410247,
      "tags": {
        "addr:housenumber": "769;770",
        "addr:street": "12th Main Road",
        "air_conditioning": "yes",
        "amenity": "restaurant",
        "check_date": "2024-08-17",
        "contact:instagram": "https://www.instagram.com/cavos.experience",
        "cuisine": "nikkei;japanese;peruvian",
        "name": "Los Cavos",
        "opening_hours": "Mo-Su 18:00-00:00",
        "phone": "+91 96202 07743",
        "reservation": "recommended",
        "source": "local knowledge",
        "start_date": "2024-08-14",
        "toilets": "yes"
      }
    },
    {
      "type": "node",
      "id": 12125802589,
      "lat": 12.969916,
      "lon": 77.6393702,
      "tags": {
        "check_date": "2024-08-22",
        "name": "Hatsu",
        "shop": "clothes"
      }
    },
    {
      "type": "node",
      "id": 12125802590,
      "lat": 12.9699483,
      "lon": 77.6400836,
      "tags": {
        "amenity": "fast_food",
        "brand": "Krispy Kreme",
        "brand:wikidata": "Q1192805",
        "check_date": "2024-08-22",
        "cuisine": "donut",
        "name": "Krispy Kreme",
        "takeaway": "yes"
      }
    },
    {
      "type": "node",
      "id": 12125802591,
      "lat": 12.9710432,
      "lon": 77.641057,
      "tags": {
        "check_date": "2024-08-22",
        "name": "Brookes Brothers",
        "shop": "clothes"
      }
    },
    {
      "type": "node",
      "id": 12125802592,
      "lat": 12.9718678,
      "lon": 77.6409801,
      "tags": {
        "amenity": "restaurant",
        "check_date": "2024-08-22",
        "cuisine": "italian",
        "name": "Bologna"
      }
    },
    {
      "type": "node",
      "id": 12125802594,
      "lat": 12.9752286,
      "lon": 77.6409331,
      "tags": {
        "amenity": "bicycle_rental",
        "check_date": "2024-08-22",
        "name": "Yulu"
      }
    },
    {
      "type": "node",
      "id": 12125802597,
      "lat": 12.9697099,
      "lon": 77.6368108,
      "tags": {
        "check_date": "2024-08-22",
        "name": "Cottons Jaipur",
        "shop": "clothes"
      }
    },
    {
      "type": "node",
      "id": 12190347816,
      "lat": 12.970494,
      "lon": 77.6391484,
      "tags": {
        "check_date": "2024-09-21",
        "name": "Desire Salon",
        "shop": "hairdresser"
      }
    },
    {
      "type": "node",
      "id": 12190347817,
      "lat": 12.9703082,
      "lon": 77.636649,
      "tags": {
        "addr:floor": "G",
        "amenity": "doctors",
        "check_date": "2024-09-21",
        "healthcare": "doctor",
        "level": "0",
        "mobile": "+919868105544",
        "name": "Dr. Kalyan Banerjee",
        "opening_hours": "Mo-We,Fr-Su 10:00-13:30,14:30-19:00; Th off"
      }
    },
    {
      "type": "node",
      "id": 12190347818,
      "lat": 12.9705807,
      "lon": 77.6404586,
      "tags": {
        "check_date": "2024-09-21",
        "name": "Amplifon",
        "shop": "hearing_aids"
      }
    },
    {
      "type": "node",
      "id": 12190347819,
      "lat": 12.9702921,
      "lon": 77.6362546,
      "tags": {
        "addr:floor": "G",
        "amenity": "bank",
        "atm": "yes",
        "brand": "Indian Overseas Bank",
        "brand:wikidata": "Q2003611",
        "check_date": "2024-09-21",
        "level": "0",
        "name": "Indian Overseas Bank",
        "wheelchair": "no"
      }
    },
    {
      "type": "node",
      "id": 12190347820,
      "lat": 12.9702859,
      "lon": 77.6364017,
      "tags": {
        "check_date": "2024-09-21",
        "name": "Meyaa",
        "shop": "clothes"
      }
    },
    {
      "type": "node",
      "id": 12190347822,
      "lat": 12.9703886,
      "lon": 77.6373579,
      "tags": {
        "check_date": "2024-09-21",
        "name": "Cakes Corner",
        "shop": "bakery"
      }
    },
    {
      "type": "node",
      "id": 12287375450,
      "lat": 12.9717604,
      "lon": 77.6275714,
      "tags": {
        "addr:housenumber": "12/36",
        "addr:street": "Cambridge Road",
        "amenity": "restaurant",
        "check_date": "2024-10-25",
        "contact:instagram": "https://www.instagram.com/guerilladiner",
        "cuisine": "burger;mexican",
        "name": "Guerilla Diner"
      }
    },
    {
      "type": "node",
      "id": 12320506601,
      "lat": 12.970248,
      "lon": 77.6361439,
      "tags": {
        "addr:housenumber": "3274/A",
        "addr:street": "11th Main Road",
        "amenity": "restaurant",
        "check_date": "2024-11-07",
        "cuisine": "korean",
        "name": "Koreyaki"
      }
    },
    {
      "type": "node",
      "id": 12328218540,
      "lat": 12.9686863,
      "lon": 77.6371391,
      "tags": {
        "amenity": "bench",
        "backrest": "yes",
        "material": "stone",
        "seats": "2"
      }
    },
    {
      "type": "node",
      "id": 12328218541,
      "lat": 12.9687363,
      "lon": 77.6370747,
      "tags": {
        "amenity": "bench",
        "backrest": "yes",
        "material": "stone",
        "seats": "2"
      }
    },
    {
      "type": "node",
      "id": 12632035861,
      "lat": 12.9708215,
      "lon": 77.6409964,
      "tags": {
        "amenity": "restaurant",
        "name": "Kitchen Ministry"
      }
    },
    {
      "type": "node",
      "id": 12646869169,
      "lat": 12.9702491,
      "lon": 77.6382636,
      "tags": {
        "addr:housenumber": "1079",
        "addr:street": "12th Main Road",
        "check_date": "2025-03-09",
        "name": "Superkicks",
        "shop": "shoes",
        "website": "https://www.superkicks.in/"
      }
    },
    {
      "type": "node",
      "id": 12662655087,
      "lat": 12.9676839,
      "lon": 77.6367985,
      "tags": {
        "amenity": "restaurant",
        "check_date": "2025-08-12",
        "name": "LICK - Lavonne Ice Cream Kitchen"
      }
    },
    {
      "type": "node",
      "id": 12877280447,
      "lat": 12.9701785,
      "lon": 77.6385147,
      "tags": {
        "amenity": "bar",
        "contact:instagram": "barwildblr",
        "name": "Wild Bar",
        "toilets": "yes"
      }
    },
    {
      "type": "node",
      "id": 12927909822,
      "lat": 12.9703064,
      "lon": 77.6390491,
      "tags": {
        "amenity": "restaurant",
        "cuisine": "burger",
        "name": "Smash Guys"
      }
    },
    {
      "type": "node",
      "id": 12988984439,
      "lat": 12.9711634,
      "lon": 77.6343582,
      "tags": {
        "amenity": "fast_food",
        "name": "Tronic Rolls"
      }
    },
    {
      "type": "node",
      "id": 13013584296,
      "lat": 12.9702451,
      "lon": 77.6393656,
      "tags": {
        "amenity": "cafe",
        "name": "The Coffee Theatre"
      }
    },
    {
      "type": "node",
      "id": 13034094897,
      "lat": 12.9698478,
      "lon": 77.6377114,
      "tags": {
        "amenity": "restaurant",
        "cuisine": "thai",
        "name": "Baan Phad Thai"
      }
    },
    {
      "type": "node",
      "id": 13086370348,
      "lat": 12.9714719,
      "lon": 77.6352447,
      "tags": {
        "addr:city": "Bengaluru",
        "addr:district": "Bengaluru Urban",
        "addr:housenumber": "3138",
        "addr:postcode": "560008",
        "addr:street": "Sai Baba Mandira Road",
        "amenity": "dentist",
        "healthcare": "dentist",
        "healthcare:speciality": "implantology",
        "mobile": "+91 82968 01240",
        "name": "Emerge Dental Studio",
        "opening_hours": "Mo-Sa 10:00-13:00,16:00-20:00",
        "operator": "Dr Tanisha Kaulavkar",
        "website": "https://emergedentalstudio.com/"
      }
    },
    {
      "type": "node",
      "id": 13120496069,
      "lat": 12.97041,
      "lon": 77.6403283,
      "tags": {
        "addr:city": "Bengaluru",
        "addr:housenumber": "957",
        "addr:postcode": "560038",
        "addr:street": "12th Main",
        "addr:suburb": "Indiranagar",
        "amenity": "restaurant",
        "bar": "yes",
        "contact:instagram": "circa11.blr",
        "name": "Circa 11",
        "reservation": "recommended",
        "toilets": "yes",
        "website": "https://www.circa11.in/"
      }
    },
    {
      "type": "node",
      "id": 13275708490,
      "lat": 12.9755494,
      "lon": 77.6357652,
      "tags": {
        "amenity": "restaurant",
        "cuisine": "asian;bagel;breakfast;cake;coffee_shop",
        "internet_access": "wlan",
        "internet_access:fee": "no",
        "level": "0",
        "name": "Turtle Matcha",
        "opening_hours": "Mo-Su 12:00-22:00",
        "outdoor_seating": "yes",
        "takeaway": "yes",
        "wheelchair": "limited"
      }
    },
    {
      "type": "way",
      "id": 49712539,
      "center": {
        "lat": 12.9713385,
        "lon": 77.6286336
      },
      "tags": {
        "amenity": "school",
        "name": "Frank Anthony Public School",
        "name:etymology:wikidata": "Q5485043"
      }
    },
    {
      "type": "way",
      "id": 59358741,
      "center": {
        "lat": 12.9713479,
        "lon": 77.6367243
      },
      "tags": {
        "amenity": "hospital",
        "healthcare": "hospital",
        "name": "ESI Hospital",
        "name:kn": "ಇಎಸ್ಐ ಆಸ್ಪತ್ರೆ",
        "operator": "Employees' State Insurance",
        "operator:short": "ESI",
        "operator:wikidata": "Q3595726"
      }
    },
    {
      "type": "way",
      "id": 128510778,
      "center": {
        "lat": 12.9686326,
        "lon": 77.6367992
      },
      "tags": {
        "leisure": "park",
        "name": "Doopanahalli Park",
        "name:kn": "ದೂಪನಹಳ್ಳಿ ಉದ್ಯಾನವನ"
      }
    },
    {
      "type": "way",
      "id": 138223660,
      "center": {
        "lat": 12.9720071,
        "lon": 77.6379617
      },
      "tags": {
        "amenity": "college",
        "check_date": "2025-08-21",
        "name": "Dr Ambedkar College",
        "name:etymology:wikidata": "Q231690",
        "name:kn": "ಡಾ|| ಅಂಬೇಡ್ಕರ್ ಕಾಲೇಜು"
      }
    },
    {
      "type": "way",
      "id": 142374812,
      "center": {
        "lat": 12.9704702,
        "lon": 77.6290171
      },
      "tags": {
        "amenity": "school",
        "name": "Lourde's Boys High School"
      }
    },
    {
      "type": "way",
      "id": 147545746,
      "center": {
        "lat": 12.9709615,
        "lon": 77.6366808
      },
      "tags": {
        "leisure": "park"
      }
    },
    {
      "type": "way",
      "id": 147545759,
      "center": {
        "lat": 12.9714584,
        "lon": 77.6370194
      },
      "tags": {
        "leisure": "park"
      }
    },
    {
      "type": "way",
      "id": 147545766,
      "center": {
        "lat": 12.9711896,
        "lon": 77.6370421
      },
      "tags": {
        "leisure": "park"
      }
    },
    {
      "type": "way",
      "id": 147545786,
      "center": {
        "lat": 12.970918,
        "lon": 77.6370551
      },
      "tags": {
        "leisure": "park"
      }
    },
    {
      "type": "way",
      "id": 169709339,
      "center": {
        "lat": 12.9699932,
        "lon": 77.633458
      },
      "tags": {
        "leisure": "park",
        "name": "Udani Layout Park"
      }
    },
    {
      "type": "way",
      "id": 169717868,
      "center": {
        "lat": 12.9663077,
        "lon": 77.6375826
      },
      "tags": {
        "leisure": "park",
        "name": "Paramahansa Yogananda Circle",
        "name:kn": "ಪರಮಹಂಸ ಯೋಗಾನಂದ ವೃತ್ತ"
      }
    },
    {
      "type": "way",
      "id": 217536635,
      "center": {
        "lat": 12.9713377,
        "lon": 77.6380075
      },
      "tags": {
        "leisure": "park",
        "name": "Dr Ambedkar Park",
        "name:etymology:wikidata": "Q231690",
        "name:kn": "ಅಂಬೇಡ್ಕರ್ ಉದ್ಯಾನ"
      }
    },
    {
      "type": "way",
      "id": 330471450,
      "center": {
        "lat": 12.9750556,
        "lon": 77.6400675
      },
      "tags": {
        "leisure": "park",
        "name": "BDA Public Site",
        "note": "Property under dispute in the High Court. Currently usable as a park till resolved."
      }
    },
    {
      "type": "way",
      "id": 331497951,
      "center": {
        "lat": 12.9710325,
        "lon": 77.6296727
      },
      "tags": {
        "amenity": "place_of_worship",
        "building": "church",
        "denomination": "catholic",
        "name": "Our Lady of Lourdes Church",
        "name:kn": "ಅವರ್ ಲೇಡಿ ಅಫ್ ಲೂರ್ಡ್ಸ್ ಚರ್ಚ್",
        "religion": "christian"
      }
    },
    {
      "type": "way",
      "id": 343626378,
      "center": {
        "lat": 12.9739385,
        "lon": 77.6359439
      },
      "tags": {
        "addr:city": "Bengaluru",
        "addr:housenumber": "60/1",
        "addr:postcode": "560038",
        "addr:street": "Paramahansa Yogananda Rd,Appareddy Palya, Stage 3, Indiranagar",
        "amenity": "fast_food",
        "brand": "Five Star Chicken",
        "brand:wikidata": "Q127784422",
        "building": "yes",
        "cuisine": "chicken",
        "delivery": "yes",
        "name": "Five Star Chicken",
        "opening_hours": "Mo-Su 12:00-23:00",
        "smoking": "no",
        "takeaway": "yes"
      }
    },
    {
      "type": "way",
      "id": 346250097,
      "center": {
        "lat": 12.9710404,
        "lon": 77.6340486
      },
      "tags": {
        "amenity": "place_of_worship",
        "building": "yes",
        "name": "Madina Masjid",
        "name:kn": "ಮದೀನ ಮಸ್ಜಿದ್",
        "religion": "muslim"
      }
    },
    {
      "type": "way",
      "id": 346250133,
      "center": {
        "lat": 12.9756886,
        "lon": 77.6335932
      },
      "tags": {
        "amenity": "place_of_worship",
        "building": "yes",
        "name": "Temple",
        "name:en": "Temple",
        "name:kn": "ದೇವಸ್ಥಾನ",
        "religion": "hindu"
      }
    },
    {
      "type": "way",
      "id": 346436208,
      "center": {
        "lat": 12.9702189,
        "lon": 77.6382451
      },
      "tags": {
        "addr:city": "Bengaluru",
        "addr:district": "Bengaluru Urban",
        "addr:housenumber": "1079",
        "addr:postcode": "560038",
        "addr:street": "12th Main Road",
        "amenity": "clinic",
        "building": "commercial",
        "building:addr": "1079",
        "building:levels": "2",
        "description": "Skin, Hair, Aesthetic and Laser clinic for beauty and wellness. We offer treatments for Laser Hair reduction, Tattoo removal, wart removal, skin treatments, medi facials, antiaging treatments, diet consultations and body contouring treatments.",
        "healthcare": "clinic",
        "healthcare:speciality": "dermatology;plastic_surgery",
        "image": "https://www.metphi.com/gallery",
        "name": "Metphi Clinic",
        "phone": "+919632077410",
        "website": "https://www.metphi.com/"
      }
    },
    {
      "type": "way",
      "id": 346457738,
      "center": {
        "lat": 12.9732975,
        "lon": 77.6360872
      },
      "tags": {
        "addr:city": "Bangalore",
        "addr:housenumber": "68/1",
        "addr:street": "Indiranagar Double Road",
        "amenity": "restaurant",
        "building": "yes",
        "cuisine": "regional",
        "name": "Jive Pub",
        "opening_hours": "Mo-Su 11:00-23:30",
        "smoking": "isolated"
      }
    },
    {
      "type": "way",
      "id": 346457936,
      "center": {
        "lat": 12.9722959,
        "lon": 77.6343985
      },
      "tags": {
        "access": "private",
        "leisure": "swimming_pool"
      }
    },
    {
      "type": "way",
      "id": 346554916,
      "center": {
        "lat": 12.9736552,
        "lon": 77.6400322
      },
      "tags": {
        "amenity": "school",
        "name": "SSB International School"
      }
    },
    {
      "type": "way",
      "id": 346711854,
      "center": {
        "lat": 12.9714272,
        "lon": 77.627494
      },
      "tags": {
        "addr:city": "Bangalore",
        "addr:district": "Bengaluru Urban",
        "addr:full": "17/4, Cambridge Road, Ulsoor",
        "addr:housenumber": "17/4",
        "addr:postcode": "560008",
        "addr:state": "Karnataka",
        "addr:street": "Cambridge Road",
        "amenity": "hospital",
        "emergency": "no",
        "healthcare": "hospital",
        "name": "Shyamala Hospital",
        "name:kn": "ಶ್ಯಾಮಲಾ ಆಸ್ಪತ್ರೆ",
        "source": "OpenGovernmentData"
      }
    },
    {
      "type": "way",
      "id": 346761097,
      "center": {
        "lat": 12.9720193,
        "lon": 77.6316265
      },
      "tags": {
        "amenity": "place_of_worship",
        "building": "yes",
        "name": "Shri Varasiddhi Vinayaka Temple, Jogupalya",
        "religion": "hindu"
      }
    },
    {
      "type": "way",
      "id": 385034309,
      "center": {
        "lat": 12.9745042,
        "lon": 77.6382605
      },
      "tags": {
        "amenity": "place_of_worship",
        "building": "yes",
        "name": "Dharmaraja Temple",
        "name:kn": "ಧರ್ಮರಾಜ ದೇವಸ್ಥಾನ",
        "religion": "hindu"
      }
    },
    {
      "type": "way",
      "id": 416707048,
      "center": {
        "lat": 12.9706904,
        "lon": 77.636151
      },
      "tags": {
        "amenity": "place_of_worship",
        "building": "yes"
      }
    },
    {
      "type": "way",
      "id": 457146562,
      "center": {
        "lat": 12.9705218,
        "lon": 77.6274434
      },
      "tags": {
        "leisure": "swimming_pool"
      }
    },
    {
      "type": "way",
      "id": 457146563,
      "center": {
        "lat": 12.9702411,
        "lon": 77.6274552
      },
      "tags": {
        "leisure": "swimming_pool"
      }
    },
    {
      "type": "way",
      "id": 478447819,
      "center": {
        "lat": 12.9725698,
        "lon": 77.628564
      },
      "tags": {
        "leisure": "park"
      }
    },
    {
      "type": "way",
      "id": 526748584,
      "center": {
        "lat": 12.9715381,
        "lon": 77.6287373
      },
      "tags": {
        "leisure": "playground"
      }
    },
    {
      "type": "way",
      "id": 526752169,
      "center": {
        "lat": 12.9719553,
        "lon": 77.6377498
      },
      "tags": {
        "leisure": "pitch"
      }
    },
    {
      "type": "way",
      "id": 616276010,
      "center": {
        "lat": 12.9738555,
        "lon": 77.6302876
      },
      "tags": {
        "amenity": "school",
        "name": "BBMP College",
        "name:kn": "ಬೃ.ಬೆಂ.ಮ.ಪಾ. ಕಾಲೇಜು"
      }
    },
    {
      "type": "way",
      "id": 616276014,
      "center": {
        "lat": 12.9717468,
        "lon": 77.631471
      },
      "tags": {
        "amenity": "community_centre",
        "name": "Jogupalya Community Hall"
      }
    },
    {
      "type": "way",
      "id": 691134035,
      "center": {
        "lat": 12.971739,
        "lon": 77.6284244
      },
      "tags": {
        "amenity": "food_court",
        "building": "yes",
        "name": "Canteen Area"
      }
    },
    {
      "type": "way",
      "id": 691134036,
      "center": {
        "lat": 12.9718314,
        "lon": 77.6285742
      },
      "tags": {
        "leisure": "playground"
      }
    },
    {
      "type": "way",
      "id": 691134079,
      "center": {
        "lat": 12.9713244,
        "lon": 77.6282139
      },
      "tags": {
        "amenity": "theatre",
        "building": "yes",
        "name": "Assembly Stage"
      }
    },
    {
      "type": "way",
      "id": 695920527,
      "center": {
        "lat": 12.9717004,
        "lon": 77.6285665
      },
      "tags": {
        "leisure": "pitch",
        "sport": "basketball"
      }
    },
    {
      "type": "way",
      "id": 1330557657,
      "center": {
        "lat": 12.9688475,
        "lon": 77.6301549
      },
      "tags": {
        "access": "private",
        "leisure": "park"
      }
    },
    {
      "type": "way",
      "id": 1332562827,
      "center": {
        "lat": 12.9686243,
        "lon": 77.6372528
      },
      "tags": {
        "leisure": "fitness_station"
      }
    },
    {
      "type": "way",
      "id": 1365459517,
      "center": {
        "lat": 12.9723486,
        "lon": 77.6304802
      },
      "tags": {
        "amenity": "school"
      }
    },
    {
      "type": "way",
      "id": 1369206475,
      "center": {
        "lat": 12.9727648,
        "lon": 77.6306002
      },
      "tags": {
        "addr:place": "Ulsoor",
        "amenity": "school",
        "isced:level": "1",
        "name": "Corporation HPS Ulsoor",
        "name:kn": "ಕಾರ್ಪೋರೇಶನ್ ಹಿರಿಯ ಪ್ರಾಥಮಿಕ ಶಾಲೆ ಹಲಸೂರು",
        "operator": "Department of Education",
        "school": "primary"
      }
    }
  ]
}