{
  "area_name": "JP Nagar",
  "osm_id": 429853335,
  "osm_type": "node",
  "place_type": "suburb",
  "amenity_count": 507,
  "amenities": [
    {
      "type": "node",
      "id": 362539259,
      "lat": 12.9141893,
      "lon": 77.5933299,
      "tags": {
        "amenity": "place_of_worship",
        "name": "Ragigudda Temple",
        "name:kn": "ರಾಗಿಗುಡ್ಡ ದೇವಸ್ತಾನ",
        "religion": "hindu"
      }
    },
    {
      "type": "node",
      "id": 665727324,
      "lat": 12.9081047,
      "lon": 77.5925498,
      "tags": {
        "amenity": "school",
        "name": "Vasavi Education Trust School"
      }
    },
    {
      "type": "node",
      "id": 665727326,
      "lat": 12.9100629,
      "lon": 77.5924585,
      "tags": {
        "addr:district": "Bengaluru Urban",
        "addr:full": "220, 2nd phase, JP Nagar,Next to Nilgiris",
        "addr:postcode": "560078",
        "addr:state": "Karnataka",
        "amenity": "hospital",
        "check_date": "2025-06-21",
        "healthcare:speciality": "General Gynecology; Obstetrics; Prenatal Care; nulife clinic; Laboratory Testing and In-Office Surgery; Medical Spa for Women; Ophthalmology",
        "name": "Divakars speciality Hospital",
        "operator:type": "private",
        "source": "OpenGovernmentData",
        "website": "http://www.healthforher.in/"
      }
    },
    {
      "type": "node",
      "id": 928188132,
      "lat": 12.9104601,
      "lon": 77.5823629,
      "tags": {
        "addr:street": "Sarakki Main Road (9th Cross)",
        "amenity": "place_of_worship",
        "name": "Sri Kalyana Venkateshwara Temple",
        "name:kn": "ಕಲ್ಯಾಣ ವೆಂಕಟೇಶ್ವರ ಸ್ವಾಮಿ",
        "religion": "hindu"
      }
    },
    {
      "type": "node",
      "id": 1272424543,
      "lat": 12.9073391,
      "lon": 77.5830655,
      "tags": {
        "addr:street": "29 Main",
        "address": "593 14th cross 29th main",
        "amenity": "hospital",
        "designation": "Clinic",
        "emergency": "no",
        "name": "Srinivas Clinic",
        "name:kn": "ಶ್ರೀನಿವಾಸ್ ಕ್ಲಿನಿಕ್"
      }
    },
    {
      "type": "node",
      "id": 1331946754,
      "lat": 12.9109843,
      "lon": 77.5791221,
      "tags": {
        "amenity": "restaurant",
        "cuisine": "indian",
        "name": "Prasiddhi",
        "name:kn": "ಪ್ರಸಿದ್ಧಿ"
      }
    },
    {
      "type": "node",
      "id": 1331946768,
      "lat": 12.9107281,
      "lon": 77.5792052,
      "tags": {
        "brand": "Reliance Fresh",
        "brand:wikidata": "Q7311014",
        "name": "Reliance Fresh",
        "name:kn": "ರಿಲೈಯನ್ಸ್ ಫ್ರೆಶ್",
        "shop": "supermarket"
      }
    },
    {
      "type": "node",
      "id": 1331946776,
      "lat": 12.9056456,
      "lon": 77.5855728,
      "tags": {
        "amenity": "restaurant",
        "cuisine": "indian",
        "name": "Nandhini Deluxe",
        "name:kn": "ನಂದಿನಿ ಡಿಲಕ್ಸ್"
      }
    },
    {
      "type": "node",
      "id": 1331989769,
      "lat": 12.9022616,
      "lon": 77.5827185,
      "tags": {
        "amenity": "place_of_worship",
        "name": "Ganesha Temple",
        "name:kn": "ಗಣೇಶ ದೇವಸ್ಥಾನ",
        "religion": "hindu"
      }
    },
    {
      "type": "node",
      "id": 1331989779,
      "lat": 12.9027732,
      "lon": 77.5837541,
      "tags": {
        "amenity": "restaurant",
        "cuisine": "indian",
        "name": "Incara",
        "name:kn": "ಇಂಚರ"
      }
    },
    {
      "type": "node",
      "id": 1336815278,
      "lat": 12.9088775,
      "lon": 77.5924507,
      "tags": {
        "leisure": "pitch",
        "name": "VET Cricket Ground"
      }
    },
    {
      "type": "node",
      "id": 1463753949,
      "lat": 12.9165317,
      "lon": 77.5923697,
      "tags": {
        "brand": "Pantaloons",
        "brand:wikidata": "Q7131643",
        "name": "Pantaloons Onloop",
        "shop": "clothes"
      }
    },
    {
      "type": "node",
      "id": 1463769765,
      "lat": 12.9168759,
      "lon": 77.5903866,
      "tags": {
        "name": "Karnataka Hardware Shop",
        "shop": "doityourself"
      }
    },
    {
      "type": "node",
      "id": 1463771564,
      "lat": 12.9170955,
      "lon": 77.5905046,
      "tags": {
        "amenity": "school"
      }
    },
    {
      "type": "node",
      "id": 1463771768,
      "lat": 12.9162428,
      "lon": 77.592424,
      "tags": {
        "amenity": "cinema",
        "brand": "INOX Leisure",
        "brand:wikidata": "Q5972349",
        "name": "Inox",
        "short_name": "INOX"
      }
    },
    {
      "type": "node",
      "id": 1464921265,
      "lat": 12.9126298,
      "lon": 77.5913594,
      "tags": {
        "addr:district": "Bengaluru Urban",
        "addr:full": "1635,17Th Main ( Near To Woody `S Hotel) 2nd Phase J.P. Nagar, Banglore",
        "addr:postcode": "560078",
        "addr:state": "Karnataka",
        "addr:street": "17th Main Road",
        "amenity": "hospital",
        "healthcare": "hospital",
        "name": "Chirag Hospital and Maternity Center",
        "source": "OpenGovernmentData"
      }
    },
    {
      "type": "node",
      "id": 1464921285,
      "lat": 12.9139266,
      "lon": 77.5854371,
      "tags": {
        "amenity": "bank",
        "atm": "yes",
        "brand": "State Bank of India",
        "brand:wikidata": "Q1340361",
        "brand:wikipedia": "en:State Bank of India",
        "name": "State Bank of India",
        "name:kn": "ಭಾರತೀಯ ಸ್ಟೇಟ್ ಬ್ಯಾಂಕ್",
        "short_name": "SBI"
      }
    },
    {
      "type": "node",
      "id": 1465122303,
      "lat": 12.9166102,
      "lon": 77.5914577,
      "tags": {
        "addr:floor": "0",
        "amenity": "restaurant",
        "check_date": "2023-11-29",
        "level": "0",
        "name": "Shiv Sagar Signature"
      }
    },
    {
      "type": "node",
      "id": 1465122309,
      "lat": 12.9163528,
      "lon": 77.5921287,
      "tags": {
        "amenity": "fast_food",
        "name": "Food Court"
      }
    },
    {
      "type": "node",
      "id": 1465122324,
      "lat": 12.9165527,
      "lon": 77.5921175,
      "tags": {
        "amenity": "fast_food",
        "brand": "McDonald's",
        "brand:pa": "ਮੈਕਡੋਨਲਡ’ਜ਼",
        "brand:ur": "مکڈونلڈز",
        "brand:wikidata": "Q38076",
        "brand:wikipedia": "en:McDonald's",
        "brand:wikipedia:pa": "ਮੈਕਡੋਨਲਡ’ਜ਼",
        "brand:wikipedia:ur": "مکڈونلڈز",
        "cuisine": "burger",
        "name": "McDonald's",
        "name:kn": "ಮ್ಯಾಕ್‌ಡೊನಾಲ್ಡ್ಸ್",
        "name:pa": "ਮੈਕਡੋਨਲਡ’ਜ਼",
        "name:ur": "مکڈونلڈز",
        "takeaway": "yes"
      }
    },
    {
      "type": "node",
      "id": 1465138598,
      "lat": 12.9144392,
      "lon": 77.5858525,
      "tags": {
        "amenity": "bank",
        "atm": "yes",
        "brand": "HDFC Bank",
        "brand:wikidata": "Q631047",
        "brand:wikipedia": "en:HDFC Bank",
        "name": "HDFC Bank",
        "name:kn": "ಎಚ್ ಡಿ ಎಫ್ ಸಿ",
        "short_name": "HDFC",
        "website": "https://www.hdfcbank.com"
      }
    },
    {
      "type": "node",
      "id": 1466691751,
      "lat": 12.9100191,
      "lon": 77.5925018,
      "tags": {
        "amenity": "bank",
        "atm": "yes",
        "brand": "Karnataka Bank",
        "brand:wikidata": "Q2042632",
        "name": "Karnataka Bank",
        "name:kn": "ಕರ್ನಾಟಕ ಬ್ಯಾಂಕ್"
      }
    },
    {
      "type": "node",
      "id": 1466692902,
      "lat": 12.9104428,
      "lon": 77.590838,
      "tags": {
        "addr:housenumber": "1756",
        "addr:postcode": "560078",
        "addr:street": "18th Main Road",
        "check_date": "2025-06-21",
        "name": "Vignesh Jewellary",
        "shop": "jewelry"
      }
    },
    {
      "type": "node",
      "id": 1467155166,
      "lat": 12.9166557,
      "lon": 77.5913219,
      "tags": {
        "brand": "Cromā",
        "brand:wikidata": "Q5187683",
        "name": "Cromā",
        "shop": "electronics",
        "website": "http://www.cromaretail.com/"
      }
    },
    {
      "type": "node",
      "id": 1473881036,
      "lat": 12.9168936,
      "lon": 77.5816496,
      "tags": {
        "name": "Krishnaiya Chetty and Sons",
        "shop": "jewelry"
      }
    },
    {
      "type": "node",
      "id": 1474277935,
      "lat": 12.9115238,
      "lon": 77.5783798,
      "tags": {
        "amenity": "pharmacy",
        "dispensing": "no",
        "healthcare": "pharmacy",
        "name": "Balaji Medicals",
        "name:kn": "ಬಾಲಾಜಿ ಮೆಡಿಕಲ್"
      }
    },
    {
      "type": "node",
      "id": 1474277938,
      "lat": 12.9135707,
      "lon": 77.5788941,
      "tags": {
        "addr:street": "Ayodhyarama Road",
        "amenity": "hospital",
        "name": "Parimala Clinic",
        "name:kn": "ಪರಿಮಳ ಚಿಕಿತ್ಸಾಲಯ"
      }
    },
    {
      "type": "node",
      "id": 1474277947,
      "lat": 12.9122041,
      "lon": 77.5784992,
      "tags": {
        "name": "Venkateshwara Stationary",
        "shop": "stationery"
      }
    },
    {
      "type": "node",
      "id": 1474277950,
      "lat": 12.9135528,
      "lon": 77.5787869,
      "tags": {
        "amenity": "pharmacy",
        "dispensing": "no",
        "name": "Vidya Medicals"
      }
    },
    {
      "type": "node",
      "id": 1474282184,
      "lat": 12.9112343,
      "lon": 77.5784318,
      "tags": {
        "name": "Jagadamba Jewellers",
        "shop": "jewelry"
      }
    },
    {
      "type": "node",
      "id": 1474797135,
      "lat": 12.9143701,
      "lon": 77.5858719,
      "tags": {
        "name": "Taaza Mitai",
        "name:kn": "ತಾಜ ಮಿಟಾಯಿ",
        "shop": "confectionery"
      }
    },
    {
      "type": "node",
      "id": 1474800466,
      "lat": 12.9169431,
      "lon": 77.5822354,
      "tags": {
        "name": "Angadi Silks",
        "shop": "clothes"
      }
    },
    {
      "type": "node",
      "id": 1474800468,
      "lat": 12.9172523,
      "lon": 77.5821549,
      "tags": {
        "name": "Nalli Silks",
        "name:kn": "ನಳ್ಳಿ ಸಿಲ್ಕ್ಸ್",
        "shop": "clothes"
      }
    },
    {
      "type": "node",
      "id": 1614268617,
      "lat": 12.9168408,
      "lon": 77.5851479,
      "tags": {
        "amenity": "restaurant",
        "diet:vegetarian": "only",
        "name": "Cable Car Restaurant",
        "name:kn": "ಕೇಬಲ್ ಕಾರ್ ರೆಸ್ಟೋರೆಂಟ್"
      }
    },
    {
      "type": "node",
      "id": 1732931230,
      "lat": 12.9116079,
      "lon": 77.58708,
      "tags": {
        "addr:street": "22nd Main",
        "amenity": "theatre",
        "name": "Ranga Shankara",
        "name:kn": "ರಂಗ ಶಂಕರ",
        "website": "http://www.rangashankara.org/",
        "wikidata": "Q7292595",
        "wikipedia": "en:Ranga Shankara"
      }
    },
    {
      "type": "node",
      "id": 1732932721,
      "lat": 12.9118641,
      "lon": 77.5867606,
      "tags": {
        "amenity": "restaurant",
        "name": "Adithya",
        "name:kn": "ಅದಿತ್ಯ"
      }
    },
    {
      "type": "node",
      "id": 1732933830,
      "lat": 12.91411,
      "lon": 77.5856235,
      "tags": {
        "amenity": "atm",
        "brand": "Corporation Bank",
        "brand:wikidata": "Q2003387",
        "name": "Corporation Bank",
        "operator": "Corporation Bank",
        "operator:wikidata": "Q2003387"
      }
    },
    {
      "type": "node",
      "id": 1761883485,
      "lat": 12.9156658,
      "lon": 77.5902764,
      "tags": {
        "amenity": "kindergarten",
        "name": "Jumbo Kids"
      }
    },
    {
      "type": "node",
      "id": 1761883513,
      "lat": 12.915569,
      "lon": 77.5902817,
      "tags": {
        "amenity": "kindergarten",
        "name": "Podar Happy Kids"
      }
    },
    {
      "type": "node",
      "id": 1763231466,
      "lat": 12.9166803,
      "lon": 77.5898443,
      "tags": {
        "addr:housename": "Pai Comforts",
        "amenity": "restaurant",
        "diet:vegetarian": "only",
        "name": "Pai Princess",
        "name:kn": "ಪೈ ಪ್ರಿನ್ಸೆಸ್"
      }
    },
    {
      "type": "node",
      "id": 1866181822,
      "lat": 12.9064987,
      "lon": 77.5930188,
      "tags": {
        "addr:housename": "Emlion Hotel",
        "addr:postcode": "560078",
        "addr:street": "15th Cross",
        "amenity": "restaurant",
        "level": "0",
        "name": "The Onyx"
      }
    },
    {
      "type": "node",
      "id": 1866221218,
      "lat": 12.9065766,
      "lon": 77.5907568,
      "tags": {
        "amenity": "fuel",
        "brand": "Hindustan Petroleum",
        "brand:wikidata": "Q1619375",
        "fuel:diesel": "yes",
        "name": "Hindustan Petroleum",
        "name:kn": "ಹಿಂದುಸ್ತಾನ್ ಪೆಟ್ರೋಲಿಯಂ",
        "official_name": "Hindustan Petroleum"
      }
    },
    {
      "type": "node",
      "id": 1922055380,
      "lat": 12.9017004,
      "lon": 77.5823794,
      "tags": {
        "name": "Posh Little",
        "note": "Baby Store",
        "shop": "toys"
      }
    },
    {
      "type": "node",
      "id": 1927688270,
      "lat": 12.9171903,
      "lon": 77.585952,
      "tags": {
        "amenity": "atm",
        "brand": "Standard Chartered",
        "brand:wikidata": "Q548278",
        "name": "Standard Chartered",
        "operator": "Standard Chartered",
        "operator:wikidata": "Q548278"
      }
    },
    {
      "type": "node",
      "id": 2059571642,
      "lat": 12.9164567,
      "lon": 77.5859615,
      "tags": {
        "amenity": "bank",
        "brand": "State Bank of India",
        "brand:wikidata": "Q1340361",
        "brand:wikipedia": "en:State Bank of India",
        "name": "State Bank of India",
        "name:kn": "ಮೈಸೂರು ಬ್ಯಾಂಕ್‌",
        "short_name": "SBI",
        "website": "https://www.sbi.co.in"
      }
    },
    {
      "type": "node",
      "id": 2384193093,
      "lat": 12.900724,
      "lon": 77.5869656,
      "tags": {
        "name": "Royal Supermarket",
        "shop": "supermarket"
      }
    },
    {
      "type": "node",
      "id": 2643403147,
      "lat": 12.9061299,
      "lon": 77.5920538,
      "tags": {
        "name": "Vijay Wheel Alignment",
        "note": "Monday, Tuesday, Wednesday, Thursday, Friday, Saturday: 10:00 am to 08:00 pm Sunday Holiday",
        "phone": "+91 8049157378",
        "shop": "car_repair",
        "wheelchair": "limited"
      }
    },
    {
      "type": "node",
      "id": 2649089253,
      "lat": 12.9168277,
      "lon": 77.5864776,
      "tags": {
        "name": "Tork Motors",
        "shop": "motorcycle"
      }
    },
    {
      "type": "node",
      "id": 2712283239,
      "lat": 12.9122652,
      "lon": 77.5937771,
      "tags": {
        "amenity": "place_of_worship",
        "name:kn": "ಮಸೀದಿ",
        "religion": "muslim"
      }
    },
    {
      "type": "node",
      "id": 2850537681,
      "lat": 12.9017134,
      "lon": 77.5824365,
      "tags": {
        "amenity": "library",
        "name": "Just Books CLC",
        "name:kn": "ಜಸ್ಟ್ ಬುಕ್ಸ್"
      }
    },
    {
      "type": "node",
      "id": 2893518450,
      "lat": 12.9104004,
      "lon": 77.5947964,
      "tags": {
        "amenity": "fuel",
        "brand": "Indian Oil",
        "brand:wikidata": "Q1289348",
        "brand:wikipedia": "en:Indian Oil Corporation",
        "name": "Indian Oil Corporation",
        "name:kn": "ಇಂಡಿಯನ್ ಆಯಿಲ್"
      }
    },
    {
      "type": "node",
      "id": 2893520202,
      "lat": 12.9103464,
      "lon": 77.5862157,
      "tags": {
        "brand": "Reliance Digital",
        "brand:wikidata": "Q7311012",
        "name": "Reliance Digital",
        "name:kn": "ರಿಲಾಯನ್ಸ್ ಡಿಜಿಟಲ್",
        "shop": "electronics"
      }
    },
    {
      "type": "node",
      "id": 2934051705,
      "lat": 12.9133572,
      "lon": 77.5859308,
      "tags": {
        "name": "Cakewala",
        "shop": "bakery"
      }
    },
    {
      "type": "node",
      "id": 2934051706,
      "lat": 12.9136778,
      "lon": 77.5856582,
      "tags": {
        "brand": "Liberty",
        "brand:wikidata": "Q6541947",
        "name": "Liberty Exclusive Showroom",
        "name:kn": "ಲಿಬರ್ಟಿ",
        "shop": "shoes"
      }
    },
    {
      "type": "node",
      "id": 2934051707,
      "lat": 12.9136768,
      "lon": 77.5859029,
      "tags": {
        "amenity": "restaurant",
        "name": "Shanthi Sagar",
        "name:kn": "ಶಾಂತಿ ಸಾಗರ"
      }
    },
    {
      "type": "node",
      "id": 2934051708,
      "lat": 12.9123213,
      "lon": 77.5855908,
      "tags": {
        "amenity": "restaurant",
        "cuisine": "indian",
        "name": "Siddhas Veg"
      }
    },
    {
      "type": "node",
      "id": 2934051709,
      "lat": 12.9124015,
      "lon": 77.5856011,
      "tags": {
        "name": "Yash Technologies",
        "note": "Laptop Repairs",
        "shop": "computer"
      }
    },
    {
      "type": "node",
      "id": 2934090869,
      "lat": 12.9147454,
      "lon": 77.5859258,
      "tags": {
        "name": "Foodworld",
        "name:kn": "ಫುಡ್ ವರ್ಲ್ಡ್",
        "shop": "department_store"
      }
    },
    {
      "type": "node",
      "id": 2934090870,
      "lat": 12.9145899,
      "lon": 77.5857184,
      "tags": {
        "amenity": "bank",
        "atm": "yes",
        "brand": "ICICI Bank",
        "brand:wikidata": "Q1653258",
        "name": "ICICI Bank",
        "name:en": "ICICI Bank",
        "name:kn": "ಐಸಿಐಸಿಐ ಬ್ಯಾಂಕು",
        "short_name": "ICICI",
        "website": "https://www.icicibank.com"
      }
    },
    {
      "type": "node",
      "id": 2934090871,
      "lat": 12.9156187,
      "lon": 77.5859244,
      "tags": {
        "amenity": "bank",
        "atm": "yes",
        "brand": "Indian Overseas Bank",
        "brand:wikidata": "Q2003611",
        "brand:wikipedia": "en:Indian Overseas Bank",
        "name": "Indian Overseas Bank",
        "name:en": "Indian Overseas Bank",
        "name:kn": "ಐ ಓ ಬಿ",
        "short_name": "IOB",
        "website": "https://www.iob.in"
      }
    },
    {
      "type": "node",
      "id": 2934090872,
      "lat": 12.9152396,
      "lon": 77.585919,
      "tags": {
        "alt_name": "Kentucky Fried Chicken",
        "alt_name:en": "Kentucky Fried Chicken",
        "alt_name:hi": "केंटुकी फ्राइड चिकन",
        "alt_name:pa": "ਕੈਂਟੁਕੀ ਫ੍ਰਾਈਡ ਚਿਕਨ",
        "alt_name:pnb": "کینٹکی فرائیڈ چکن",
        "alt_name:ur": "کینٹکی فرائیڈ چکن",
        "amenity": "fast_food",
        "brand": "KFC",
        "brand:en": "KFC",
        "brand:hi": "केएफसी",
        "brand:pa": "ਕੇਐਫਸੀ",
        "brand:pnb": "کے ایف سی",
        "brand:ur": "کے ایف سی",
        "brand:wikidata": "Q524757",
        "brand:wikipedia": "en:KFC",
        "brand:wikipedia:pa": "ਕੇਐਫਸੀ",
        "brand:wikipedia:ur": "کینٹکی فرائیڈ چکن",
        "cuisine": "chicken",
        "name": "KFC",
        "name:en": "KFC",
        "name:hi": "केएफसी",
        "name:kn": "ಕೆಎಫ್‌ಸಿ",
        "name:pa": "ਕੇਐਫਸੀ",
        "name:pnb": "کے ایف سی",
        "name:ur": "کے ایف سی",
        "takeaway": "yes"
      }
    },
    {
      "type": "node",
      "id": 2934090873,
      "lat": 12.9155443,
      "lon": 77.5857799,
      "tags": {
        "name": "Mockaholic",
        "shop": "beverages"
      }
    },
    {
      "type": "node",
      "id": 2934090874,
      "lat": 12.9151486,
      "lon": 77.5857021,
      "tags": {
        "amenity": "bank",
        "atm": "yes",
        "brand": "State Bank of India",
        "brand:wikidata": "Q1340361",
        "brand:wikipedia": "en:State Bank of India",
        "name": "State Bank of India",
        "name:kn": "ಭಾರತೀಯ ಸ್ಟೇಟ್ ಬ್ಯಾಂಕ್",
        "short_name": "SBI"
      }
    },
    {
      "type": "node",
      "id": 2934090875,
      "lat": 12.9149792,
      "lon": 77.5859134,
      "tags": {
        "name": "Viveks",
        "shop": "electronics"
      }
    },
    {
      "type": "node",
      "id": 2934090876,
      "lat": 12.9153853,
      "lon": 77.585774,
      "tags": {
        "name": "3m Car Care",
        "shop": "yes"
      }
    },
    {
      "type": "node",
      "id": 3010263827,
      "lat": 12.9055717,
      "lon": 77.5855866,
      "tags": {
        "amenity": "atm",
        "brand": "Yes Bank",
        "brand:wikidata": "Q2040394",
        "name": "Yes Bank",
        "name:kn": "ಯಸ್ ಬ್ಯಾಂಕ್",
        "operator": "Yes Bank",
        "operator:wikidata": "Q2040394",
        "source": "voice, GPS"
      }
    },
    {
      "type": "node",
      "id": 3016052460,
      "lat": 12.9049455,
      "lon": 77.5856013,
      "tags": {
        "amenity": "bank",
        "atm": "no",
        "brand": "Bank of Maharashtra",
        "brand:wikidata": "Q2004304",
        "brand:wikipedia": "en:Bank of Maharashtra",
        "name": "Bank of Maharashtra",
        "name:en": "Bank of Maharashtra",
        "name:kn": "ಬ್ಯಾಂಕ್ ಆಫ್ ಮಹರಾಷ್ಟ್ರ",
        "website": "https://www.bankofmaharashtra.in/",
        "wheelchair": "no"
      }
    },
    {
      "type": "node",
      "id": 3016052465,
      "lat": 12.9059571,
      "lon": 77.58558,
      "tags": {
        "name": "Linen Club - The Ramp",
        "shop": "clothes"
      }
    },
    {
      "type": "node",
      "id": 3016052467,
      "lat": 12.9060964,
      "lon": 77.5855631,
      "tags": {
        "amenity": "fast_food",
        "brand": "McDonald's",
        "brand:pa": "ਮੈਕਡੋਨਲਡ’ਜ਼",
        "brand:ur": "مکڈونلڈز",
        "brand:wikidata": "Q38076",
        "brand:wikipedia": "en:McDonald's",
        "brand:wikipedia:pa": "ਮੈਕਡੋਨਲਡ’ਜ਼",
        "brand:wikipedia:ur": "مکڈونلڈز",
        "check_date": "2023-10-27",
        "cuisine": "burger",
        "name": "McDonald's",
        "name:kn": "ಮ್ಯಾಕ್‌ಡೊನಾಲ್ಡ್ಸ್",
        "name:pa": "ਮੈਕਡੋਨਲਡ’ਜ਼",
        "name:ur": "مکڈونلڈز",
        "takeaway": "yes"
      }
    },
    {
      "type": "node",
      "id": 3016052468,
      "lat": 12.9101075,
      "lon": 77.5950902,
      "tags": {
        "branch": "Shoppe",
        "brand": "Nandini",
        "brand:wikidata": "Q124374212",
        "name": "Nandini",
        "shop": "dairy"
      }
    },
    {
      "type": "node",
      "id": 3016052470,
      "lat": 12.9104179,
      "lon": 77.5950737,
      "tags": {
        "amenity": "bank",
        "atm": "no",
        "brand": "State Bank of India",
        "brand:wikidata": "Q1340361",
        "brand:wikipedia": "en:State Bank of India",
        "name": "State Bank of India",
        "name:kn": "ಭಾರತೀಯ ಸ್ಟೇಟ್ ಬ್ಯಾಂಕ್",
        "operator": "State Bank of India",
        "short_name": "SBI"
      }
    },
    {
      "type": "node",
      "id": 3016090357,
      "lat": 12.9020984,
      "lon": 77.5859455,
      "tags": {
        "amenity": "bank",
        "atm": "no",
        "brand": "Allahabad Bank",
        "brand:wikidata": "Q2018840",
        "brand:wikipedia": "en:Allahabad Bank",
        "name": "Allahabad Bank",
        "name:en": "Allahabad Bank",
        "name:kn": "ಅಲ್ಲಹಾಬಾದ್ ಬ್ಯಾಂಕ್",
        "website": "https://www.allahabadbank.in",
        "wheelchair": "no"
      }
    },
    {
      "type": "node",
      "id": 3016090361,
      "lat": 12.9007262,
      "lon": 77.5859519,
      "tags": {
        "amenity": "ice_cream",
        "brand": "Baskin-Robbins",
        "brand:wikidata": "Q584601",
        "cuisine": "ice_cream",
        "name": "Baskin-Robbins",
        "name:kn": "ಬಸ್ಕಿನ್ ರಾಬಿನ್ಸ್",
        "wheelchair": "limited"
      }
    },
    {
      "type": "node",
      "id": 3016090364,
      "lat": 12.9055088,
      "lon": 77.5858347,
      "tags": {
        "addr:city": "bangalore",
        "addr:housenumber": "250",
        "addr:postcode": "560078",
        "addr:street": "24th Main, 5th Phase, Opp Nandini Hotel, Puttenhalli, JP Nagar",
        "amenity": "hospital",
        "name": "Cloud Nine Fertility",
        "name:kn": "ಕ್ಲೌಡ್ ನೈನ್ ಫರ್ಟಿಲಿಟಿ",
        "phone": "080 4350 0123",
        "source": "justdial",
        "website": "https://www.cloudninefertility.com/",
        "wheelchair": "limited"
      }
    },
    {
      "type": "node",
      "id": 3016090365,
      "lat": 12.903812,
      "lon": 77.5858613,
      "tags": {
        "amenity": "bank",
        "atm": "no",
        "brand": "IDBI Bank",
        "brand:wikidata": "Q3633485",
        "brand:wikipedia": "en:IDBI Bank",
        "name": "IDBI Bank",
        "name:en": "IDBI Bank",
        "name:kn": "ಐಡಿಬಿಐ ಬ್ಯಾಂಕ್",
        "old_name": "Industrial Development Bank of India",
        "operator": "IDBI Bank",
        "short_name": "IDBI",
        "website": "https://www.idbi.com",
        "wheelchair": "no"
      }
    },
    {
      "type": "node",
      "id": 3016090369,
      "lat": 12.9061288,
      "lon": 77.593146,
      "tags": {
        "amenity": "restaurant",
        "brand": "Pizza Hut",
        "brand:wikidata": "Q191615",
        "cuisine": "pizza",
        "name": "Pizza Hut",
        "name:kn": "ಪಿಟ್ಸ ಹಟ್"
      }
    },
    {
      "type": "node",
      "id": 3016090372,
      "lat": 12.9009848,
      "lon": 77.5859587,
      "tags": {
        "amenity": "atm",
        "brand": "Yes Bank",
        "brand:wikidata": "Q2040394",
        "currency:INR": "yes",
        "name": "Yes Bank",
        "name:kn": "ಯಸ್ ಬ್ಯಾಂಕ್",
        "operator": "Yes Bank",
        "operator:wikidata": "Q2040394"
      }
    },
    {
      "type": "node",
      "id": 3022109715,
      "lat": 12.90602,
      "lon": 77.5937277,
      "tags": {
        "amenity": "cafe",
        "brand": "Starbucks",
        "brand:pa": "ਸਟਾਰਬਕਸ",
        "brand:ur": "اسٹاربکس",
        "brand:wikidata": "Q37158",
        "brand:wikipedia": "en:Starbucks",
        "cuisine": "coffee_shop",
        "internet_access": "wlan",
        "level": "0",
        "name": "Starbucks",
        "name:kn": "ಸ್ಟಾರ್ಬಕ್ಸ್",
        "name:pa": "ਸਟਾਰਬਕਸ",
        "name:ur": "اسٹاربکس",
        "official_name": "Starbucks Coffee",
        "official_name:pa": "ਸਟਾਰਬਕਸ ਕੌਫੀ",
        "official_name:ur": "اسٹاربکس کافی",
        "outdoor_seating": "yes",
        "takeaway": "yes",
        "wheelchair": "no"
      }
    },
    {
      "type": "node",
      "id": 3022109716,
      "lat": 12.9065663,
      "lon": 77.5949745,
      "tags": {
        "amenity": "post_box",
        "operator": "India Post",
        "operator:wikidata": "Q3519720"
      }
    },
    {
      "type": "node",
      "id": 3024944754,
      "lat": 12.9061196,
      "lon": 77.5926081,
      "tags": {
        "amenity": "restaurant",
        "name": "Wangs Kitchen",
        "source": "survey"
      }
    },
    {
      "type": "node",
      "id": 3024967813,
      "lat": 12.9179404,
      "lon": 77.5860042,
      "tags": {
        "amenity": "bank",
        "brand": "State Bank of India",
        "brand:wikidata": "Q1340361",
        "brand:wikipedia": "en:State Bank of India",
        "name": "State Bank of India",
        "name:kn": "ಭಾರತೀಯ ಸ್ಟೇಟ್ ಬ್ಯಾಂಕ್",
        "short_name": "SBI",
        "source": "survey",
        "website": "https://www.sbi.co.in"
      }
    },
    {
      "type": "node",
      "id": 3024967815,
      "lat": 12.904523,
      "lon": 77.5803913,
      "tags": {
        "amenity": "atm",
        "brand": "Axis Bank",
        "brand:wikidata": "Q2003549",
        "name": "Axis Bank",
        "name:kn": "ಆಕ್ಸಿಸ್ ಬ್ಯಾಂಕ್",
        "operator": "Axis Bank",
        "operator:wikidata": "Q2003549"
      }
    },
    {
      "type": "node",
      "id": 3208555392,
      "lat": 12.9045002,
      "lon": 77.5888265,
      "tags": {
        "addr:city": "Bangalore",
        "addr:housenumber": "58",
        "addr:street": "22nd Main, Marenahalli Extension, 2nd Phase, JP Nagar",
        "amenity": "restaurant",
        "capacity": "0",
        "cuisine": "regional_(South_Indian,_North_Indian)",
        "name": "Nammoora",
        "note": "This is a strictly \"takeaway\" food joint.   This place only sells each type of food by weight. You have to bring your own vessels. There is NO seating.  \"nammoora\" means \"(food) of our village-\".",
        "phone": "08026490077"
      }
    },
    {
      "type": "node",
      "id": 3217683306,
      "lat": 12.90648,
      "lon": 77.5901751,
      "tags": {
        "amenity": "bank",
        "atm": "yes",
        "branch": "JP Nagar Phase 2",
        "brand": "Canara Bank",
        "brand:en": "Canara Bank",
        "brand:hi": "केनरा बैंक",
        "brand:kn": "ಕೆನರಾ ಬ್ಯಾಂಕ್",
        "brand:pa": "ਕੇਨਰਾ ਬੈਂਕ",
        "brand:pnb": "کینرا بینک",
        "brand:ur": "کینرا بینک",
        "brand:wikidata": "Q2003777",
        "brand:wikipedia": "en:Canara Bank",
        "brand:wikipedia:pa": "ਕੇਨਰਾ ਬੈਂਕ",
        "level": "0",
        "name": "Canara Bank",
        "name:en": "Canara Bank",
        "name:hi": "केनरा बैंक",
        "name:kn": "ಕೆನರಾ ಬ್ಯಾಂಕ್",
        "name:pa": "ਕੇਨਰਾ ਬੈਂਕ",
        "name:pnb": "کینرا بینک",
        "name:ur": "کینرا بینک",
        "note": "Business hours Mo-Sa 10:00-16:00, Office hours Mo-Sa 10:00-14:00, 14:30-17:00, 2nd and 4th Saturdays off",
        "source": "survey",
        "website": "https://www.canarabank.com/",
        "wheelchair": "no"
      }
    },
    {
      "type": "node",
      "id": 3217683307,
      "lat": 12.9058455,
      "lon": 77.5858943,
      "tags": {
        "amenity": "bank",
        "atm": "no",
        "brand": "Citi Union Bank",
        "name": "Citi Union Bank",
        "name:kn": "ಸಿಟಿ ಯುನಿಯನ್ ಬ್ಯಾಂಕ್",
        "operator": "Citi Union Bank",
        "source": "survey",
        "wheelchair": "no"
      }
    },
    {
      "type": "node",
      "id": 3217683309,
      "lat": 12.9051478,
      "lon": 77.5858377,
      "tags": {
        "name": "Eye World Opticians",
        "shop": "optician",
        "source": "survey"
      }
    },
    {
      "type": "node",
      "id": 3217683311,
      "lat": 12.9043815,
      "lon": 77.5858999,
      "tags": {
        "amenity": "restaurant",
        "cuisine": "indian",
        "name": "Vasantha Grand",
        "name:kn": "ಶ್ರೀಕೃಷ್ಣ ಸಾಗರ",
        "source": "survey"
      }
    },
    {
      "type": "node",
      "id": 3220549890,
      "lat": 12.9033409,
      "lon": 77.5856019,
      "tags": {
        "name": "Kidzon",
        "shop": "baby_goods",
        "source": "survey"
      }
    },
    {
      "type": "node",
      "id": 3220550248,
      "lat": 12.9058961,
      "lon": 77.5802982,
      "tags": {
        "amenity": "restaurant",
        "cuisine": "indian",
        "name": "Vinaya Cafe",
        "name:kn": "ವಿನಯ ಕೆಫೆ",
        "source": "survey"
      }
    },
    {
      "type": "node",
      "id": 3221380823,
      "lat": 12.9065354,
      "lon": 77.5898784,
      "tags": {
        "amenity": "post_office",
        "brand": "FedEx",
        "brand:wikidata": "Q459477",
        "check_date": "2023-11-01",
        "name": "FedEx",
        "operator": "FedEx",
        "shop": "copyshop"
      }
    },
    {
      "type": "node",
      "id": 3221380824,
      "lat": 12.9065734,
      "lon": 77.5823503,
      "tags": {
        "amenity": "veterinary",
        "name": "Pampapathi Veterinary Centre",
        "name:kn": "ಪಂಪಾಪತಿ ಪಶು ಕೇಂದ್ರ"
      }
    },
    {
      "type": "node",
      "id": 3226809436,
      "lat": 12.9100858,
      "lon": 77.5920685,
      "tags": {
        "amenity": "bank",
        "atm": "yes",
        "brand": "ING",
        "brand:wikidata": "Q645708",
        "name": "ING",
        "operator": "ING"
      }
    },
    {
      "type": "node",
      "id": 3226809438,
      "lat": 12.9009271,
      "lon": 77.5859552,
      "tags": {
        "addr:city": "Bangalore",
        "addr:postcode": "560078",
        "addr:street": "24th Main Road",
        "amenity": "pharmacy",
        "dispensing": "yes",
        "healthcare": "pharmacy",
        "name": "White Lotus",
        "wheelchair": "limited"
      }
    },
    {
      "type": "node",
      "id": 3226825473,
      "lat": 12.9044659,
      "lon": 77.5802459,
      "tags": {
        "amenity": "restaurant",
        "cuisine": "indian",
        "name": "Karavali Garden Restaurant",
        "name:kn": "ಕರಾವಳಿ ಗಾರ್ಡನ್ ರೆಸ್ಟೋರೆಂಟ್"
      }
    },
    {
      "type": "node",
      "id": 3226825476,
      "lat": 12.9065306,
      "lon": 77.5804788,
      "tags": {
        "amenity": "post_box",
        "operator": "India Post",
        "operator:wikidata": "Q3519720"
      }
    },
    {
      "type": "node",
      "id": 3377391054,
      "lat": 12.9098297,
      "lon": 77.5811845,
      "tags": {
        "amenity": "school",
        "name": "The Oxford Secondary School"
      }
    },
    {
      "type": "node",
      "id": 3377392810,
      "lat": 12.9099238,
      "lon": 77.5813562,
      "tags": {
        "amenity": "bank",
        "atm": "no",
        "brand": "Bank of Baroda",
        "brand:wikidata": "Q2003797",
        "name": "Bank of Baroda",
        "name:kn": "ವಿಜಯ ಬ್ಯಾಂಕು"
      }
    },
    {
      "type": "node",
      "id": 3377392811,
      "lat": 12.9099264,
      "lon": 77.5810745,
      "tags": {
        "amenity": "atm",
        "brand": "Bank of Baroda",
        "brand:wikidata": "Q2003797",
        "name": "Bank of Baroda",
        "operator": "Bank of Baroda",
        "operator:wikidata": "Q2003797"
      }
    },
    {
      "type": "node",
      "id": 3381393095,
      "lat": 12.9092617,
      "lon": 77.5817945,
      "tags": {
        "amenity": "atm",
        "brand": "HDFC Bank",
        "brand:wikidata": "Q631047",
        "cash_in": "no",
        "check_date": "2023-11-01",
        "name": "HDFC Bank",
        "name:kn": "ಎಚ್ ಡಿ ಎಫ್ ಸಿ",
        "operator": "HDFC Bank",
        "operator:wikidata": "Q631047",
        "short_name": "HDFC"
      }
    },
    {
      "type": "node",
      "id": 3381393099,
      "lat": 12.9105018,
      "lon": 77.5816131,
      "tags": {
        "amenity": "restaurant",
        "cuisine": "South_Indian",
        "name": "Sri Upahara",
        "smoking": "no"
      }
    },
    {
      "type": "node",
      "id": 3381398164,
      "lat": 12.9104876,
      "lon": 77.581675,
      "tags": {
        "name": "Muthoot Finance",
        "name:kn": "ಮುತ್ತೂಟ್ ಫೈನಾನ್ಸ್",
        "shop": "pawnbroker"
      }
    },
    {
      "type": "node",
      "id": 3381398165,
      "lat": 12.9104628,
      "lon": 77.5816568,
      "tags": {
        "leisure": "sports_centre",
        "name": "Rock Fitness"
      }
    },
    {
      "type": "node",
      "id": 3381400341,
      "lat": 12.9104906,
      "lon": 77.5815408,
      "tags": {
        "addr:street": "Sarakki Main Road (9th Cross)",
        "amenity": "bank",
        "atm": "no",
        "brand": "State Bank of India",
        "brand:wikidata": "Q1340361",
        "brand:wikipedia": "en:State Bank of India",
        "name": "State Bank of India",
        "name:kn": "ಭಾರತೀಯ ಸ್ಟೇಟ್ ಬ್ಯಾಂಕ್",
        "short_name": "SBI"
      }
    },
    {
      "type": "node",
      "id": 3393457970,
      "lat": 12.9096963,
      "lon": 77.5808492,
      "tags": {
        "amenity": "college",
        "name": "The Oxford College of Hotel Management"
      }
    },
    {
      "type": "node",
      "id": 3393457971,
      "lat": 12.9098009,
      "lon": 77.5808465,
      "tags": {
        "amenity": "college",
        "name": "The Oxford Pre-University College"
      }
    },
    {
      "type": "node",
      "id": 3393457972,
      "lat": 12.9095133,
      "lon": 77.5812489,
      "tags": {
        "amenity": "school",
        "name": "The Oxford English School"
      }
    },
    {
      "type": "node",
      "id": 3393457974,
      "lat": 12.9098297,
      "lon": 77.5812542,
      "tags": {
        "amenity": "school",
        "name": "The Oxford Senior Secondary School"
      }
    },
    {
      "type": "node",
      "id": 3393458919,
      "lat": 12.9095343,
      "lon": 77.5808465,
      "tags": {
        "amenity": "college",
        "level": "0",
        "name": "The Oxford Evening Polytechnic"
      }
    },
    {
      "type": "node",
      "id": 3393458920,
      "lat": 12.9098532,
      "lon": 77.5808465,
      "tags": {
        "amenity": "college",
        "name": "The Oxford Polytechnic"
      }
    },
    {
      "type": "node",
      "id": 3393466557,
      "lat": 12.9106895,
      "lon": 77.581347,
      "tags": {
        "name": "Nandini",
        "name:kn": "ನಂದಿನಿ",
        "shop": "dairy"
      }
    },
    {
      "type": "node",
      "id": 3393478952,
      "lat": 12.910501,
      "lon": 77.5818478,
      "tags": {
        "name": "Hot N Cool",
        "shop": "convenience"
      }
    },
    {
      "type": "node",
      "id": 3393478953,
      "lat": 12.9100928,
      "lon": 77.5811668,
      "tags": {
        "amenity": "dentist",
        "healthcare": "dentist",
        "name": "The Oxford Children's Dental Clinic"
      }
    },
    {
      "type": "node",
      "id": 3393478954,
      "lat": 12.9100822,
      "lon": 77.5815125,
      "tags": {
        "amenity": "school",
        "name": "The Oxford Primary School"
      }
    },
    {
      "type": "node",
      "id": 3393483876,
      "lat": 12.9096977,
      "lon": 77.5806118,
      "tags": {
        "amenity": "parking"
      }
    },
    {
      "type": "node",
      "id": 3393485024,
      "lat": 12.9105063,
      "lon": 77.5819403,
      "tags": {
        "amenity": "pharmacy",
        "brand": "Apollo Pharmacy",
        "brand:wikidata": "Q62562612",
        "healthcare": "pharmacy",
        "name": "Apollo Pharmacy",
        "name:kn": "ಅಪೋಲೋ ಫಾರ್ಮಸಿ"
      }
    },
    {
      "type": "node",
      "id": 3393485027,
      "lat": 12.910505,
      "lon": 77.5820811,
      "tags": {
        "amenity": "cafe",
        "name": "H.S.M Iyengar"
      }
    },
    {
      "type": "node",
      "id": 3393501416,
      "lat": 12.9107057,
      "lon": 77.5835123,
      "tags": {
        "amenity": "bank",
        "atm": "yes",
        "brand": "Indian Bank",
        "brand:wikidata": "Q2003789",
        "brand:wikipedia": "en:Indian Bank",
        "name": "Indian Bank",
        "name:en": "Indian Bank",
        "name:kn": "ಇಂಡಿಯನ್ ಬ್ಯಾಂಕ್",
        "website": "https://www.indianbank.in/"
      }
    },
    {
      "type": "node",
      "id": 3393504221,
      "lat": 12.9106315,
      "lon": 77.584622,
      "tags": {
        "addr:city": "Bangalore",
        "addr:district": "Bengaluru",
        "addr:street": "1st Phase, JP Nagar",
        "amenity": "restaurant",
        "check_date": "2023-11-01",
        "cuisine": "regional",
        "diet:vegan": "on_demand",
        "diet:vegetarian": "only",
        "dog": "no",
        "image:menu": "https://panoramax.mapcomplete.org/api/pictures/0d6781a7-eb83-4304-81d0-82fc4daf457f/hd.jpg",
        "image:menu:0": "https://panoramax.mapcomplete.org/api/pictures/4e9e5fb1-89c2-473b-a47b-439ae2136cdb/hd.jpg",
        "indoor_seating": "yes",
        "internet_access": "no",
        "name": "Paakashala",
        "outdoor_seating": "no",
        "reservation": "yes",
        "service:electricity": "limited",
        "smoking": "no",
        "takeaway": "yes",
        "website": "https://paakashala.com/",
        "wheelchair": "limited"
      }
    },
    {
      "type": "node",
      "id": 3393511032,
      "lat": 12.9106137,
      "lon": 77.5805904,
      "tags": {
        "amenity": "restaurant",
        "cuisine": "regional",
        "delivery": "no",
        "name": "Spicy Tree"
      }
    },
    {
      "type": "node",
      "id": 3393514749,
      "lat": 12.9109507,
      "lon": 77.5794442,
      "tags": {
        "leisure": "sports_centre",
        "name": "O2 The fitness..."
      }
    },
    {
      "type": "node",
      "id": 3393519681,
      "lat": 12.9109471,
      "lon": 77.5793168,
      "tags": {
        "amenity": "bank",
        "atm": "yes",
        "brand": "Canara Bank",
        "brand:en": "Canara Bank",
        "brand:hi": "केनरा बैंक",
        "brand:kn": "ಕೆನರಾ ಬ್ಯಾಂಕ್",
        "brand:pa": "ਕੇਨਰਾ ਬੈਂਕ",
        "brand:pnb": "کینرا بینک",
        "brand:ur": "کینرا بینک",
        "brand:wikidata": "Q2003777",
        "brand:wikipedia": "en:Canara Bank",
        "brand:wikipedia:pa": "ਕੇਨਰਾ ਬੈਂਕ",
        "name": "Canara Bank",
        "name:en": "Canara Bank",
        "name:hi": "केनरा बैंक",
        "name:kn": "ಕೆನರಾ ಬ್ಯಾಂಕ್",
        "name:pa": "ਕੇਨਰਾ ਬੈਂਕ",
        "name:pnb": "کینرا بینک",
        "name:ur": "کینرا بینک",
        "website": "https://www.canarabank.com/"
      }
    },
    {
      "type": "node",
      "id": 3393519682,
      "lat": 12.9109649,
      "lon": 77.5792295,
      "tags": {
        "name": "Zuari Furniture",
        "shop": "furniture"
      }
    },
    {
      "type": "node",
      "id": 3393524592,
      "lat": 12.9110032,
      "lon": 77.5788747,
      "tags": {
        "addr:street": "Sarakki Main Road (9th Cross)",
        "amenity": "bank",
        "atm": "yes",
        "brand": "State Bank of India",
        "brand:wikidata": "Q1340361",
        "brand:wikipedia": "en:State Bank of India",
        "name": "State Bank of India",
        "name:kn": "ಮೈಸೂರು ಬ್ಯಾಂಕ್‌",
        "short_name": "SBI",
        "website": "https://www.sbi.co.in"
      }
    },
    {
      "type": "node",
      "id": 3393524601,
      "lat": 12.911014,
      "lon": 77.5788106,
      "tags": {
        "amenity": "bank",
        "brand": "Western Union",
        "brand:wikidata": "Q861042",
        "name": "Western Union"
      }
    },
    {
      "type": "node",
      "id": 3393528194,
      "lat": 12.9108052,
      "lon": 77.5786692,
      "tags": {
        "amenity": "pharmacy",
        "name": "Life Care Medicals"
      }
    },
    {
      "type": "node",
      "id": 3393528195,
      "lat": 12.910803,
      "lon": 77.5787134,
      "tags": {
        "name": "Hello Baby",
        "shop": "toys"
      }
    },
    {
      "type": "node",
      "id": 3393528606,
      "lat": 12.9110032,
      "lon": 77.5786913,
      "tags": {
        "amenity": "clinic",
        "name": "JP Nagar Diagnostic Centre"
      }
    },
    {
      "type": "node",
      "id": 3393529289,
      "lat": 12.9110205,
      "lon": 77.578656,
      "tags": {
        "amenity": "clinic",
        "healthcare": "physiotherapist",
        "name": "JP Nagar Physiotherapy Clinic"
      }
    },
    {
      "type": "node",
      "id": 3393529951,
      "lat": 12.9110226,
      "lon": 77.578561,
      "tags": {
        "amenity": "restaurant",
        "cuisine": "regional",
        "name": "Rolls of heaven"
      }
    },
    {
      "type": "node",
      "id": 3393529952,
      "lat": 12.9108461,
      "lon": 77.5782827,
      "tags": {
        "amenity": "restaurant",
        "name": "Sri Devi"
      }
    },
    {
      "type": "node",
      "id": 3393531562,
      "lat": 12.9110549,
      "lon": 77.5781943,
      "tags": {
        "amenity": "atm",
        "name": "Kotak Bank",
        "name:kn": "ಕೋಟಕ್ ಮಹಿಂದ್ರ ಬ್ಯಾಂಕ್"
      }
    },
    {
      "type": "node",
      "id": 3393531563,
      "lat": 12.9110743,
      "lon": 77.5780397,
      "tags": {
        "amenity": "restaurant",
        "name": "Sunrise Restaurant"
      }
    },
    {
      "type": "node",
      "id": 3393531564,
      "lat": 12.9110743,
      "lon": 77.5780949,
      "tags": {
        "name": "Nayana Fabco",
        "shop": "clothes"
      }
    },
    {
      "type": "node",
      "id": 3394938755,
      "lat": 12.9104137,
      "lon": 77.5818078,
      "tags": {
        "amenity": "pharmacy",
        "healthcare": "pharmacy",
        "name": "Shree Sai Ram Drug House"
      }
    },
    {
      "type": "node",
      "id": 3394944799,
      "lat": 12.9105047,
      "lon": 77.581862,
      "tags": {
        "addr:floor": "0",
        "addr:housenumber": "1st floor",
        "addr:street": "Sarakki Main Road (9th Cross)",
        "check_date": "2023-11-01",
        "name": "Sri Krishna Cake Palace",
        "shop": "bakery"
      }
    },
    {
      "type": "node",
      "id": 3394944800,
      "lat": 12.9104994,
      "lon": 77.5818295,
      "tags": {
        "addr:floor": "1",
        "check_date": "2023-11-01",
        "name": "Omika Bridal Hair & Skin Care",
        "shop": "beauty"
      }
    },
    {
      "type": "node",
      "id": 3394950260,
      "lat": 12.9108005,
      "lon": 77.5809977,
      "tags": {
        "name": "Archies Paper Rose Shoppe",
        "shop": "gift"
      }
    },
    {
      "type": "node",
      "id": 3394967010,
      "lat": 12.9085186,
      "lon": 77.5811693,
      "tags": {
        "name": "Nandini Milk Booth",
        "name:kn": "ನಂದಿನಿ ಹಾಲಿನ ಅಂಗಡಿ",
        "shop": "dairy"
      }
    },
    {
      "type": "node",
      "id": 3397786440,
      "lat": 12.9066169,
      "lon": 77.5858809,
      "tags": {
        "name": "Mithai Mane",
        "shop": "bakery"
      }
    },
    {
      "type": "node",
      "id": 3407447891,
      "lat": 12.9099986,
      "lon": 77.5928725,
      "tags": {
        "amenity": "bank",
        "brand": "Punjab National Bank",
        "brand:wikidata": "Q2743499",
        "building": "bank",
        "description": "J.P.Nagar branch",
        "name": "Punjab National Bank",
        "name:kn": "ಪಂಜಾಬ ರಾಷ್ಟ್ರೀಯ ಬ್ಯಾಂಕ್"
      }
    },
    {
      "type": "node",
      "id": 3407448747,
      "lat": 12.9101446,
      "lon": 77.5904634,
      "tags": {
        "amenity": "bank",
        "brand": "Karur Vysya Bank",
        "brand:wikidata": "Q6373724",
        "name": "Karur Vysya Bank",
        "name:kn": "ಕರೂರು ವೈಶ್ಯ ಬ್ಯಾಂಕ್"
      }
    },
    {
      "type": "node",
      "id": 3407449080,
      "lat": 12.9100568,
      "lon": 77.5918225,
      "tags": {
        "name": "Just Bake",
        "shop": "bakery"
      }
    },
    {
      "type": "node",
      "id": 3509485608,
      "lat": 12.9173321,
      "lon": 77.5893024,
      "tags": {
        "amenity": "toilets",
        "name": "Public Toilets",
        "name:kn": "ಸಾರ್ವಜನಿಕ ಶೌಚಾಲಯ"
      }
    },
    {
      "type": "node",
      "id": 3719549886,
      "lat": 12.9159249,
      "lon": 77.5856011,
      "tags": {
        "addr:district": "Bengaluru Urban",
        "addr:full": "Jayanagar, J P Nagar, Bengaluru",
        "addr:postcode": "560041",
        "addr:state": "Karnataka",
        "amenity": "hospital",
        "healthcare": "clinic",
        "healthcare:speciality": "fertility",
        "name": "Milann Fertility Center",
        "source": "Local Knowledge"
      }
    },
    {
      "type": "node",
      "id": 3836771261,
      "lat": 12.9167244,
      "lon": 77.5897233,
      "tags": {
        "brand": "Honda",
        "brand:wikidata": "Q9584",
        "level": "0-1",
        "name": "Honda",
        "name:kn": "ಹೊಂಡ",
        "shop": "motorcycle"
      }
    },
    {
      "type": "node",
      "id": 4187514189,
      "lat": 12.9105778,
      "lon": 77.5807084,
      "tags": {
        "addr:street": "Sarakki Main Road (9th Cross)",
        "amenity": "fast_food",
        "name": "Crunch Sip"
      }
    },
    {
      "type": "node",
      "id": 4320467192,
      "lat": 12.9085614,
      "lon": 77.5859107,
      "tags": {
        "amenity": "restaurant",
        "check_date": "2023-11-01",
        "cuisine": "indian;chinese",
        "diet:vegetarian": "yes",
        "name": "24th Main Pan Indian Bistro",
        "name:kn": "೨೪ನೇ ಮುಖ್ಯ ರಸ್ತೆ",
        "opening_hours": "12:00-22:30",
        "payment:mastercard": "yes",
        "payment:visa": "yes",
        "phone": "+91 99000 92564",
        "website": "https://www.24thmain.com"
      }
    },
    {
      "type": "node",
      "id": 4320476590,
      "lat": 12.9171866,
      "lon": 77.586079,
      "tags": {
        "amenity": "atm",
        "brand": "Kotak Mahindra Bank",
        "brand:wikidata": "Q2040404",
        "operator": "Kotak Mahindra Bank",
        "operator:wikidata": "Q2040404"
      }
    },
    {
      "type": "node",
      "id": 4321212103,
      "lat": 12.9104062,
      "lon": 77.5951099,
      "tags": {
        "amenity": "atm",
        "brand": "State Bank of India",
        "brand:wikidata": "Q1340361",
        "check_date": "2024-12-28",
        "name": "State Bank of India",
        "operator": "State Bank of India",
        "operator:wikidata": "Q1340361",
        "short_name": "SBI"
      }
    },
    {
      "type": "node",
      "id": 4321222913,
      "lat": 12.9010386,
      "lon": 77.5859577,
      "tags": {
        "addr:street": "24th Main",
        "amenity": "bank",
        "brand": "HDFC Bank",
        "brand:wikidata": "Q631047",
        "name": "HDFC Bank",
        "name:kn": "ಎಚ್ ಡಿ ಎಫ್ ಸಿ",
        "short_name": "HDFC",
        "wheelchair": "limited"
      }
    },
    {
      "type": "node",
      "id": 4321223315,
      "lat": 12.9065707,
      "lon": 77.5875216,
      "tags": {
        "addr:street": "Outer Ring Road",
        "check_date": "2023-09-11",
        "name": "Damro",
        "opening_hours": "10:30-21:00",
        "shop": "furniture"
      }
    },
    {
      "type": "node",
      "id": 4321245416,
      "lat": 12.9030809,
      "lon": 77.5855786,
      "tags": {
        "addr:street": "24th Main",
        "air_conditioning": "yes",
        "amenity": "restaurant",
        "contact:website": "https://thezaitoon.com/",
        "cuisine": "arab",
        "level": "1",
        "name": "Zaitoon",
        "name:kn": "ಜಾಐಟುನ್",
        "opening_hours": "Mo-Su 11:30-23:30",
        "toilets": "yes",
        "wheelchair": "no"
      }
    },
    {
      "type": "node",
      "id": 4321245505,
      "lat": 12.9017285,
      "lon": 77.5857629,
      "tags": {
        "addr:street": "24th Main",
        "amenity": "restaurant",
        "cuisine": "indian",
        "name": "Sea Salt"
      }
    },
    {
      "type": "node",
      "id": 4321245702,
      "lat": 12.9060223,
      "lon": 77.5853926,
      "tags": {
        "addr:street": "Aurobindo Marg (24th Main)",
        "leisure": "fitness_centre",
        "name": "Body Vignyan"
      }
    },
    {
      "type": "node",
      "id": 4321280190,
      "lat": 12.9061462,
      "lon": 77.5906223,
      "tags": {
        "addr:street": "Outer Ring Road",
        "amenity": "restaurant",
        "name": "Egg Factory"
      }
    },
    {
      "type": "node",
      "id": 4321280396,
      "lat": 12.9100655,
      "lon": 77.5921205,
      "tags": {
        "amenity": "bank",
        "brand": "Kotak Mahindra Bank",
        "brand:wikidata": "Q2040404",
        "name": "Kotak Mahindra Bank"
      }
    },
    {
      "type": "node",
      "id": 4321288191,
      "lat": 12.9061407,
      "lon": 77.5918526,
      "tags": {
        "addr:street": "Outer Ring Road",
        "amenity": "cafe",
        "brand": "Cafe Coffee Day",
        "brand:wikidata": "Q5017235",
        "cuisine": "coffee_shop",
        "name": "Cafe Coffee Day",
        "name:kn": "ಕಫೆ ಕಾಫಿ ಡೇ",
        "takeaway": "yes"
      }
    },
    {
      "type": "node",
      "id": 4321288192,
      "lat": 12.9061034,
      "lon": 77.5920152,
      "tags": {
        "addr:street": "Outer Ring Road",
        "amenity": "cafe",
        "name": "Pipe Yard"
      }
    },
    {
      "type": "node",
      "id": 4360018702,
      "lat": 12.9162662,
      "lon": 77.5856417,
      "tags": {
        "brand": "Peter England",
        "brand:wikidata": "Q19573665",
        "clothes": "men",
        "name": "Peter England",
        "name:kn": "ಪೀಟರ್ ಇಂಗ್ಲೆಂಡ್",
        "shop": "clothes"
      }
    },
    {
      "type": "node",
      "id": 4360019301,
      "lat": 12.9166705,
      "lon": 77.5834214,
      "tags": {
        "addr:city": "Bangalore",
        "addr:district": "Bengaluru Urban",
        "addr:housenumber": "499/32-4",
        "addr:postcode": "560078",
        "addr:street": "9th Main, 46th Cross Rd, 5th Block, Jayanagar",
        "air_conditioning": "yes",
        "amenity": "restaurant",
        "bar": "yes",
        "capacity": "80",
        "contact:facebook": "https://www.facebook.com/gardenbysu/",
        "cuisine": "indian;italian;italian_pizza;italian_pasta;burger;japanese;sushi;mexican;thai;ice_cream;greek;international;mediterranean;bistro",
        "delivery": "yes",
        "description": "Garden By Su, a global vegetarian fine dine restaurant which also serves wine.",
        "diet:gluten_free": "yes",
        "diet:halal": "yes",
        "diet:vegan": "yes",
        "diet:vegetarian": "yes",
        "email": "hello@gardenbysu.com",
        "highchair": "yes",
        "internet_access": "wlan",
        "internet_access:fee": "no",
        "internet_access:ssid": "GardenBySu",
        "level": "0",
        "microbrewery": "no",
        "mobile": "+918971228404",
        "name": "Garden By Su",
        "official_name": "Asai Hospitality & Management LLP",
        "opening_hours": "Mo-Su 12:00-23:00",
        "organic": "yes",
        "outdoor_seating": "yes",
        "payment:app": "yes",
        "payment:cash": "yes",
        "payment:contactless": "yes",
        "payment:credit_cards": "yes",
        "payment:debit_cards": "yes",
        "payment:diners_club": "yes",
        "payment:google_pay": "yes",
        "payment:maestro": "yes",
        "payment:mastercard": "yes",
        "payment:mastercard_contactless": "yes",
        "payment:visa": "yes",
        "payment:visa_debit": "yes",
        "phone": "+918971228404",
        "ref:vatin": "29ABTFA0725G1ZB",
        "reservation": "recommended",
        "smoking": "outside",
        "source": "streetlevel imagery;gps",
        "start_date": "2024-06-29",
        "takeaway": "yes",
        "toilets": "yes",
        "toilets:wheelchair": "limited",
        "website": "https://www.gardenbysu.com/",
        "website:menu": "https://www.gardenbysu.com/",
        "wheelchair": "limited"
      }
    },
    {
      "type": "node",
      "id": 4360077089,
      "lat": 12.9118329,
      "lon": 77.5859133,
      "tags": {
        "amenity": "restaurant",
        "name": "Namma Adda",
        "name:kn": "ನಮ್ಮ ಅಡ್ಡ"
      }
    },
    {
      "type": "node",
      "id": 4447156427,
      "lat": 12.9062193,
      "lon": 77.580682,
      "tags": {
        "addr:city": "Bengaluru",
        "addr:district": "Bengaluru Urban",
        "addr:full": "#726, 17Th Cross, 6Th Phase, J.P. Nagar",
        "addr:housenumber": "5",
        "addr:postcode": "560078",
        "addr:state": "Karnataka",
        "addr:street": "Outer Ring Rd, Rose Garden, JP Nagar Phase 6, JP Nagar,",
        "amenity": "hospital",
        "name": "Green City Hospital, Bengaluru Urban",
        "name:kn": "ಗ್ರೀನ್ ಸಿಟಿ ಆಸ್ಪತ್ರೆ",
        "phone": "080 2653 6222",
        "source": "OpenGovernmentData"
      }
    },
    {
      "type": "node",
      "id": 4447316956,
      "lat": 12.9059465,
      "lon": 77.5904192,
      "tags": {
        "addr:city": "Bangalore",
        "addr:housenumber": "11/2",
        "addr:postcode": "560078",
        "addr:street": "8th cross, Gangadhar Nagar, 100 Feet Ring Road, J P Nagar,",
        "amenity": "hospital",
        "name": "R R Hospital & Trauma Centre",
        "phone": "080 2671 8785"
      }
    },
    {
      "type": "node",
      "id": 4447327973,
      "lat": 12.9105534,
      "lon": 77.5811091,
      "tags": {
        "addr:city": "bangalore",
        "addr:housenumber": "53/A",
        "addr:postcode": "560078",
        "addr:street": "9th Cross, Near-Oxford Collage, J P Nagar 1st Phase",
        "amenity": "pharmacy",
        "healthcare": "pharmacy",
        "name": "Durga Medicals",
        "phone": "080 2691 1062"
      }
    },
    {
      "type": "node",
      "id": 4447353516,
      "lat": 12.91032,
      "lon": 77.5935628,
      "tags": {
        "addr:city": "Bangalore",
        "addr:housenumber": "213",
        "addr:postcode": "560078",
        "addr:street": "9th Cross Road",
        "amenity": "pharmacy",
        "check_date": "2025-06-21",
        "fixme": "the name doesn't sound very pharmacy like, also there are ambulances here",
        "healthcare": "pharmacy",
        "name": "Trinity Diagnostic And Imaging Research Centre",
        "phone": "080 2658 1757",
        "source": "justdial"
      }
    },
    {
      "type": "node",
      "id": 4447383325,
      "lat": 12.9039905,
      "lon": 77.5859569,
      "tags": {
        "addr:city": "bangalore",
        "addr:housenumber": "9",
        "addr:postcode": "560078",
        "addr:street": "24th Main Rd, KR Layout, 1st Phase, JP Nagar",
        "amenity": "hospital",
        "name": "M N Speciality Clinic",
        "name:kn": "ಎಮ್ ಎನ್ ಸ್ಪೆಶಾಲಿಟಿ ಕ್ಲಿನಿಕ್",
        "phone": "080 2653 0121"
      }
    },
    {
      "type": "node",
      "id": 4456223691,
      "lat": 12.9030471,
      "lon": 77.5851583,
      "tags": {
        "addr:housenumber": "CMS Annex 319",
        "addr:postcode": "560 078",
        "addr:street": "17th Cross Road",
        "amenity": "school",
        "email": "bschool@cms.ac.in",
        "name": "CMS Business School, Jain University",
        "name:en": "CMS Business School, Jain University",
        "name:kn": "ಸಿಎಂಎಸ್ ಬಿಸಿನೆಸ್ ಸ್ಕೂಲ್, ಜೈನ್ ವಿಶ್ವವಿದ್ಯಾಲಯ",
        "opening_hours": "Mo-Fr 09:00-17:00",
        "phone": "+91 80 4343 0400",
        "website": "http://www.bschool.cms.ac.in"
      }
    },
    {
      "type": "node",
      "id": 4456310690,
      "lat": 12.907453,
      "lon": 77.5785311,
      "tags": {
        "amenity": "clinic",
        "name": "Government Hospital",
        "name:en": "Government Hospital",
        "name:kn": "ಸರ್ಕಾರಿ ಆಸ್ಪತ್ರೆ"
      }
    },
    {
      "type": "node",
      "id": 4456336990,
      "lat": 12.9079578,
      "lon": 77.5783267,
      "tags": {
        "amenity": "atm",
        "brand": "ICICI Bank",
        "brand:wikidata": "Q1653258",
        "name": "ICICI Bank",
        "opening_hours": "24/7",
        "operator": "ICICI Bank",
        "operator:wikidata": "Q1653258",
        "short_name": "ICICI"
      }
    },
    {
      "type": "node",
      "id": 4456346090,
      "lat": 12.9074342,
      "lon": 77.578346,
      "tags": {
        "amenity": "atm",
        "brand": "Karnataka Bank",
        "brand:wikidata": "Q2042632",
        "name": "Karnataka Bank",
        "name:kn": "ಕರ್ನಾಟಕ ಬ್ಯಾಂಕ್",
        "opening_hours": "24/7",
        "operator": "Karnataka Bank",
        "operator:wikidata": "Q2042632"
      }
    },
    {
      "type": "node",
      "id": 4463113589,
      "lat": 12.9035208,
      "lon": 77.5843442,
      "tags": {
        "amenity": "atm",
        "brand": "Canara Bank",
        "brand:en": "Canara Bank",
        "brand:hi": "केनरा बैंक",
        "brand:kn": "ಕೆನರಾ ಬ್ಯಾಂಕ್",
        "brand:pa": "ਕੇਨਰਾ ਬੈਂਕ",
        "brand:pnb": "کینرا بینک",
        "brand:ur": "کینرا بینک",
        "brand:wikidata": "Q2003777",
        "name": "Canara Bank",
        "name:en": "Canara Bank",
        "name:hi": "केनरा बैंक",
        "name:kn": "ಕೆನರಾ ಬ್ಯಾಂಕ್",
        "name:pa": "ਕੇਨਰਾ ਬੈਂਕ",
        "name:pnb": "کینرا بینک",
        "name:ur": "کینرا بینک",
        "opening_hours": "24/7",
        "operator": "Canara Bank",
        "operator:wikidata": "Q2003777"
      }
    },
    {
      "type": "node",
      "id": 4470962689,
      "lat": 12.9040892,
      "lon": 77.5847141,
      "tags": {
        "amenity": "atm",
        "brand": "Axis Bank",
        "brand:wikidata": "Q2003549",
        "name": "Axis Bank",
        "opening_hours": "24/7",
        "operator": "Axis Bank",
        "operator:wikidata": "Q2003549"
      }
    },
    {
      "type": "node",
      "id": 4487317090,
      "lat": 12.9164396,
      "lon": 77.5925822,
      "tags": {
        "addr:city": "Bangalore",
        "addr:postcode": "560078",
        "addr:street": "South End C Cross",
        "brand": "Puma",
        "brand:wikidata": "Q157064",
        "brand:wikipedia": "en:Puma (brand)",
        "name": "Puma",
        "name:kn": "ಪೂಮ",
        "phone": "081422 75227",
        "shop": "clothes",
        "website": "https://in.puma.com/"
      }
    },
    {
      "type": "node",
      "id": 4487982290,
      "lat": 12.9167204,
      "lon": 77.5864519,
      "tags": {
        "addr:city": "Bangalore",
        "addr:housenumber": "664",
        "addr:postcode": "560041",
        "addr:street": "11th A Main Rd, 4th T Block East, Pattabhirama Nagar, Jayanagara Jaya Nagar",
        "name": "Hercules Sport International",
        "opening_hours": "Mo-Sa 09:00-17:00; Su off",
        "phone": "+919741095147",
        "shop": "sports"
      }
    },
    {
      "type": "node",
      "id": 4488069422,
      "lat": 12.9027124,
      "lon": 77.5855115,
      "tags": {
        "addr:city": "bangalore",
        "addr:housenumber": "No-10/2, 1st Floor",
        "addr:postcode": "560078",
        "addr:street": "24th Main, Sarakki Village, J.P Nagar 6th Phase, Opp. Crystal Castle Hotel,",
        "building": "yes",
        "fee": "yes",
        "leisure": "sports_centre",
        "name": "Elite Batminton Arena",
        "opening_hours": "11:00-21:00",
        "phone": "080 4171 3131",
        "sport": "multi",
        "website": "http://thesportmall.in/"
      }
    },
    {
      "type": "node",
      "id": 4488103616,
      "lat": 12.9116408,
      "lon": 77.5860843,
      "tags": {
        "addr:city": "bangalore",
        "addr:housenumber": "1",
        "addr:postcode": "560078",
        "addr:street": "Sudarsanamma Arcade Opp R.V.Dental Collage J.P., Marenahalli, 2nd Phase, JP Nagar",
        "check_date": "2023-11-01",
        "name": "SportsBunke.in",
        "opening_hours": "10:30-21:00",
        "phone": "080 4123 3530",
        "shop": "sports",
        "wheelchair": "no"
      }
    },
    {
      "type": "node",
      "id": 4488500225,
      "lat": 12.9065816,
      "lon": 77.590597,
      "tags": {
        "addr:city": "Bangalore",
        "addr:housenumber": "no:52",
        "addr:postcode": "560078",
        "addr:street": "17th Main Road",
        "name": "Aveda Oasis",
        "opening_hours": "11:00-22:00",
        "phone": "+91-80-26592930",
        "shop": "beauty",
        "website": "www.avedaoasis.com"
      }
    },
    {
      "type": "node",
      "id": 4489841840,
      "lat": 12.9060712,
      "lon": 77.5922254,
      "tags": {
        "addr:city": "Bengaluru,",
        "addr:housenumber": "309",
        "addr:postcode": "560078",
        "addr:street": "\" #309, 100 Feet Ring Road, Above Pizza Hut Near Delmia Cricle 2 Floor JP, Nagar, 5th Ph, JP Nagar Phase 6, JP Nagar, Bengaluru, Karnataka 560078\"",
        "leisure": "sports_centre",
        "name": "Play on Fitness",
        "opening_hours": "6:00-21:00",
        "sport": "gymnasium"
      }
    },
    {
      "type": "node",
      "id": 4489898193,
      "lat": 12.9061,
      "lon": 77.5924802,
      "tags": {
        "addr:city": ", Bengaluru",
        "addr:housenumber": "#309,",
        "addr:postcode": "560078",
        "addr:street": "100 Feet Ring Road, Above Pizza Hut Near Delmia Cricle 2 Floor JP, Nagar, 5th Ph, JP Nagar Phase 6, JP Nagar, Karnataka",
        "leisure": "sports_centre",
        "name": "Play on Fitness JP Nagar",
        "opening_hours": "5:00-22:00",
        "phone": "080 4123 4777",
        "website": "playonfitness.in"
      }
    },
    {
      "type": "node",
      "id": 4489917029,
      "lat": 12.9185507,
      "lon": 77.5856306,
      "tags": {
        "addr:city": "Bangalore",
        "addr:housenumber": "No.166,Ground Floor, 4th Cross,Dollars Colony",
        "addr:postcode": "560041",
        "addr:street": "Jp Nagar 4th Phase, Jp Nagar",
        "name": "Trans studio",
        "opening_hours": "09:00-21:00",
        "phone": "8892183101",
        "shop": "beauty",
        "website": "www.transstudio.in"
      }
    },
    {
      "type": "node",
      "id": 4609603646,
      "lat": 12.9168014,
      "lon": 77.5851878,
      "tags": {
        "addr:district": "Bengaluru Urban",
        "addr:full": "No.25, 46th Cross, 5th Block, Jayanagar",
        "addr:postcode": "560011",
        "addr:state": "Karnataka",
        "amenity": "hospital",
        "email": "contactus@apollocradle.com",
        "healthcare": "hospital",
        "name": "Apollo Bengaluru Cradle Limited, Jayanagar",
        "operator:type": "private",
        "source": "OpenGovernmentData",
        "website": "https://www.apollocradle.com/"
      }
    },
    {
      "type": "node",
      "id": 4621580989,
      "lat": 12.9114527,
      "lon": 77.5870878,
      "tags": {
        "amenity": "cafe",
        "name": "Ranga Shankara Cafe",
        "name:en": "Ranga Shankara Cafe"
      }
    },
    {
      "type": "node",
      "id": 5078495163,
      "lat": 12.9037265,
      "lon": 77.5917721,
      "tags": {
        "addr:city": "Bangalore",
        "addr:housenumber": "92",
        "addr:postcode": "560078",
        "addr:street": "15th Main Road",
        "name": "Banagalore Fresh & Fresh",
        "shop": "supermarket"
      }
    },
    {
      "type": "node",
      "id": 5265620513,
      "lat": 12.9168645,
      "lon": 77.5859473,
      "tags": {
        "amenity": "restaurant",
        "cuisine": "indian",
        "name": "Hyderabad Biryani"
      }
    },
    {
      "type": "node",
      "id": 5268233218,
      "lat": 12.9065569,
      "lon": 77.5858871,
      "tags": {
        "amenity": "fast_food",
        "name": "Iyengar Bakery",
        "name:kn": "ಐಯ್ಯಂಗಾರ್ ಬೇಕರಿ"
      }
    },
    {
      "type": "node",
      "id": 6072894936,
      "lat": 12.9008702,
      "lon": 77.587901,
      "tags": {
        "addr:street": "18th Cross Road",
        "amenity": "atm",
        "brand": "Canara Bank",
        "brand:en": "Canara Bank",
        "brand:hi": "केनरा बैंक",
        "brand:kn": "ಕೆನರಾ ಬ್ಯಾಂಕ್",
        "brand:pa": "ਕੇਨਰਾ ਬੈਂਕ",
        "brand:pnb": "کینرا بینک",
        "brand:ur": "کینرا بینک",
        "brand:wikidata": "Q2003777",
        "name": "Canara Bank",
        "name:en": "Canara Bank",
        "name:hi": "केनरा बैंक",
        "name:kn": "ಕೆನರಾ ಬ್ಯಾಂಕ್",
        "name:pa": "ਕੇਨਰਾ ਬੈਂਕ",
        "name:pnb": "کینرا بینک",
        "name:ur": "کینرا بینک",
        "opening_hours": "24/7",
        "operator": "Canara Bank",
        "operator:wikidata": "Q2003777"
      }
    },
    {
      "type": "node",
      "id": 6072907744,
      "lat": 12.9007694,
      "lon": 77.5872749,
      "tags": {
        "addr:city": "Bangalore",
        "addr:postcode": "560078",
        "addr:street": "18th cross road",
        "amenity": "restaurant",
        "name": "Kakal Kai Ruchi"
      }
    },
    {
      "type": "node",
      "id": 6083081071,
      "lat": 12.9122707,
      "lon": 77.5860983,
      "tags": {
        "amenity": "restaurant",
        "name": "Chulha Chauki da Dhaba"
      }
    },
    {
      "type": "node",
      "id": 6083129849,
      "lat": 12.9121661,
      "lon": 77.586287,
      "tags": {
        "amenity": "ice_cream",
        "name": "Apsara IceCreams"
      }
    },
    {
      "type": "node",
      "id": 6115117985,
      "lat": 12.9123323,
      "lon": 77.5855405,
      "tags": {
        "leisure": "sports_centre",
        "name": "Golden Ace Shooting Academy"
      }
    },
    {
      "type": "node",
      "id": 6338071472,
      "lat": 12.9020427,
      "lon": 77.5857467,
      "tags": {
        "amenity": "restaurant",
        "name": "Empire Restaurant",
        "name:kn": "ಎಂಪೈರ್",
        "wheelchair": "no"
      }
    },
    {
      "type": "node",
      "id": 6338071473,
      "lat": 12.9017016,
      "lon": 77.5857953,
      "tags": {
        "amenity": "pharmacy",
        "healthcare": "pharmacy",
        "name": "Bengaluru Drug House Pharmacy",
        "wheelchair": "no"
      }
    },
    {
      "type": "node",
      "id": 6338071922,
      "lat": 12.9032342,
      "lon": 77.5856124,
      "tags": {
        "name": "SLV Flowers",
        "shop": "florist"
      }
    },
    {
      "type": "node",
      "id": 6338071923,
      "lat": 12.9021091,
      "lon": 77.5857727,
      "tags": {
        "amenity": "fast_food",
        "name": "Cheesiano Pizza"
      }
    },
    {
      "type": "node",
      "id": 6338071924,
      "lat": 12.9018724,
      "lon": 77.5859502,
      "tags": {
        "amenity": "ice_cream",
        "name": "Polar Bear",
        "wheelchair": "yes"
      }
    },
    {
      "type": "node",
      "id": 6338071925,
      "lat": 12.9013144,
      "lon": 77.585703,
      "tags": {
        "amenity": "fuel",
        "name": "HiDrive Auto LPG",
        "wheelchair": "yes"
      }
    },
    {
      "type": "node",
      "id": 6339952604,
      "lat": 12.9169098,
      "lon": 77.5826789,
      "tags": {
        "addr:street": "510/37, Jayanagar 5th Block, Jayanagar",
        "name": "Wicked Ride Bike Rental",
        "shop": "motorcycle"
      }
    },
    {
      "type": "node",
      "id": 6491957990,
      "lat": 12.9123405,
      "lon": 77.5913841,
      "tags": {
        "amenity": "cafe",
        "name": "Vidya Cafe"
      }
    },
    {
      "type": "node",
      "id": 6717675008,
      "lat": 12.9083274,
      "lon": 77.5855201,
      "tags": {
        "addr:city": "Bengaluru",
        "addr:postcode": "560078",
        "addr:street": "Aurobindo Marg (24th Main)",
        "brand": "Kia",
        "brand:wikidata": "Q35349",
        "brand:wikipedia": "en:Kia Motors",
        "name": "Kia",
        "name:kn": "ಕೀಯ",
        "second_hand": "no",
        "shop": "car"
      }
    },
    {
      "type": "node",
      "id": 6938995621,
      "lat": 12.9163994,
      "lon": 77.5847384,
      "tags": {
        "addr:district": "Bengaluru Urban",
        "addr:full": "909, 47Th Cross, 9Thmain, 5Th Block, Opposite Adarshapalace Apts And Near Raghavendra Matha, Jayanagar",
        "addr:postcode": "560041",
        "addr:state": "Karnataka",
        "amenity": "hospital",
        "healthcare": "hospital",
        "name": "Dr Kamini Rao Hospital(A Unit Of Bacc Health Care Pvt Ltd)",
        "source": "OpenGovernmentData"
      }
    },
    {
      "type": "node",
      "id": 6945010490,
      "lat": 12.9067079,
      "lon": 77.5849275,
      "tags": {
        "addr:district": "Bengaluru Urban",
        "addr:full": "No. 4, Sarakki Industrial Estate, 3Road Phase, J.P.Nagar, Bannerghatta Road",
        "addr:postcode": "560076",
        "addr:state": "Karnataka",
        "amenity": "hospital",
        "name": "North Star Maternity and Nursing Home",
        "source": "OpenGovernmentData"
      }
    },
    {
      "type": "node",
      "id": 7105078866,
      "lat": 12.9083264,
      "lon": 77.5871218,
      "tags": {
        "addr:city": "Bengaluru",
        "addr:postcode": "560078",
        "addr:street": "12th Cross Road",
        "amenity": "fast_food",
        "cuisine": "indian;south",
        "name": "SN Refreshment"
      }
    },
    {
      "type": "node",
      "id": 7126122233,
      "lat": 12.9066049,
      "lon": 77.5896205,
      "tags": {
        "addr:city": "Bangalore",
        "amenity": "restaurant",
        "cuisine": "indian",
        "diet:vegetarian": "yes",
        "name": "Kesariya",
        "name:kn": "ಕೇಸರಿಯ"
      }
    },
    {
      "type": "node",
      "id": 7579924755,
      "lat": 12.915263,
      "lon": 77.584736,
      "tags": {
        "addr:district": "Bengaluru Urban",
        "addr:full": "TMC Layout, Jayanagar, Bengaluru",
        "addr:postcode": "560041",
        "addr:state": "Karnataka",
        "amenity": "clinic",
        "healthcare": "clinic",
        "name": "Banashankari Poly Clinic",
        "source": "Local Knowledge"
      }
    },
    {
      "type": "node",
      "id": 7579924780,
      "lat": 12.916885,
      "lon": 77.585258,
      "tags": {
        "addr:district": "Bengaluru Urban",
        "addr:full": "TMC Layout, Jayanagar, Bengaluru",
        "addr:postcode": "560011",
        "addr:state": "Karnataka",
        "amenity": "hospital",
        "healthcare": "hospital",
        "name": "Apollo Cradle Maternity & Children's Hospital",
        "source": "Local Knowledge"
      }
    },
    {
      "type": "node",
      "id": 8035783019,
      "lat": 12.9077038,
      "lon": 77.5847444,
      "tags": {
        "address": "547, 26th Main, JP Nagar 1st phase, Bangalore",
        "amenity": "taxi",
        "name": "HornOK"
      }
    },
    {
      "type": "node",
      "id": 8408691942,
      "lat": 12.9060198,
      "lon": 77.5938556,
      "tags": {
        "check_date": "2023-10-27",
        "level": "0",
        "name": "Wildcraft",
        "opening_hours": "Mo-Su 09:00-21:00",
        "shop": "outdoor",
        "website": "https://wildcraft.com",
        "wheelchair": "no"
      }
    },
    {
      "type": "node",
      "id": 9274940516,
      "lat": 12.9070866,
      "lon": 77.5855025,
      "tags": {
        "addr:city": "bangalore",
        "addr:housenumber": "12/A",
        "addr:postcode": "560078",
        "addr:street": "24th Main Road",
        "clothes": "women;wedding;fashion;babies;fur;denim",
        "name": "Nathaya Designer Studio",
        "opening_hours": "11:30-19:30",
        "payment:cash": "yes",
        "payment:contactless": "yes",
        "payment:credit_cards": "yes",
        "payment:debit_cards": "yes",
        "payment:mastercard": "yes",
        "shop": "fashion_accessories",
        "website": "https://www.instagram.com/nathaya_designer_studio/"
      }
    },
    {
      "type": "node",
      "id": 9856264725,
      "lat": 12.9061738,
      "lon": 77.5825444,
      "tags": {
        "amenity": "restaurant",
        "name": "Neemsi"
      }
    },
    {
      "type": "node",
      "id": 10032026858,
      "lat": 12.9142714,
      "lon": 77.5859736,
      "tags": {
        "amenity": "restaurant",
        "name": "Terrace by House of Commons"
      }
    },
    {
      "type": "node",
      "id": 10280790808,
      "lat": 12.9061131,
      "lon": 77.5897944,
      "tags": {
        "amenity": "pub",
        "microbrewery": "yes",
        "name": "Jamming Goat 3.0"
      }
    },
    {
      "type": "node",
      "id": 10685071178,
      "lat": 12.9019561,
      "lon": 77.5857322,
      "tags": {
        "diet:vegetarian": "only",
        "name": "Simpli Namdhari's",
        "organic": "only",
        "shop": "supermarket",
        "website": "https://www.simplinamdharis.com/",
        "wheelchair": "no"
      }
    },
    {
      "type": "node",
      "id": 10686139974,
      "lat": 12.9065092,
      "lon": 77.5905856,
      "tags": {
        "amenity": "fast_food",
        "cuisine": "regional",
        "level": "0",
        "name": "The Rameshwaram Cafe",
        "wheelchair": "no"
      }
    },
    {
      "type": "node",
      "id": 10727997905,
      "lat": 12.9058477,
      "lon": 77.5829239,
      "tags": {
        "alt_name": "Sante Spa Cuisine",
        "cuisine": "indian;international;italian;pasta;pizza;thai",
        "diet:vegan": "yes",
        "diet:vegetarian": "yes",
        "name": "Santé Spa Cuisine",
        "opening_hours": "Mo-Su 11:00-23:00",
        "shop": "pastry",
        "takeaway": "yes",
        "toilets": "yes",
        "wheelchair": "limited"
      }
    },
    {
      "type": "node",
      "id": 10728055706,
      "lat": 12.9143171,
      "lon": 77.5870237,
      "tags": {
        "amenity": "theatre",
        "contact:facebook": "artkhoj",
        "contact:instagram": "artkhoj",
        "contact:linkedin": "artkhoj",
        "name": "Artkhoj",
        "website": "https://linktr.ee/Artkhoj"
      }
    },
    {
      "type": "node",
      "id": 10763481568,
      "lat": 12.9105942,
      "lon": 77.5896147,
      "tags": {
        "amenity": "cafe",
        "contact:instagram": "thekind.india",
        "cuisine": "coffee_shop",
        "delivery": "yes",
        "email": "thekindindia@gmail.com",
        "name": "The Kind Roastery and Brewroom",
        "phone": "+91 08042112800",
        "takeaway": "yes",
        "website": "https://thekindindia.com/"
      }
    },
    {
      "type": "node",
      "id": 10792812732,
      "lat": 12.916836,
      "lon": 77.5861178,
      "tags": {
        "name": "Varam Jewels",
        "shop": "jewelry"
      }
    },
    {
      "type": "node",
      "id": 10792812733,
      "lat": 12.9168694,
      "lon": 77.5861828,
      "tags": {
        "name": "Kumaran Silk",
        "shop": "clothes"
      }
    },
    {
      "type": "node",
      "id": 10854298569,
      "lat": 12.9168184,
      "lon": 77.5866576,
      "tags": {
        "name": "YLG",
        "shop": "beauty"
      }
    },
    {
      "type": "node",
      "id": 10854298570,
      "lat": 12.9172445,
      "lon": 77.5859816,
      "tags": {
        "amenity": "fast_food",
        "name": "Bombay Kulfi and Rabdi"
      }
    },
    {
      "type": "node",
      "id": 10854298571,
      "lat": 12.9168615,
      "lon": 77.5856531,
      "tags": {
        "amenity": "restaurant",
        "cuisine": "regional",
        "name": "Dindigul Thalappakatti"
      }
    },
    {
      "type": "node",
      "id": 10854298574,
      "lat": 12.9172818,
      "lon": 77.584607,
      "tags": {
        "name": "Duroflex",
        "shop": "bed"
      }
    },
    {
      "type": "node",
      "id": 10854298575,
      "lat": 12.9172857,
      "lon": 77.5845399,
      "tags": {
        "amenity": "clinic",
        "name": "Parency Hospital"
      }
    },
    {
      "type": "node",
      "id": 10854298576,
      "lat": 12.9172726,
      "lon": 77.5842851,
      "tags": {
        "name": "Kamakshi Silks",
        "shop": "clothes"
      }
    },
    {
      "type": "node",
      "id": 10854298577,
      "lat": 12.9172962,
      "lon": 77.5840116,
      "tags": {
        "name": "Restoflex",
        "shop": "bed"
      }
    },
    {
      "type": "node",
      "id": 10854298583,
      "lat": 12.9168805,
      "lon": 77.5825015,
      "tags": {
        "name": "Mugdha",
        "shop": "boutique"
      }
    },
    {
      "type": "node",
      "id": 10854298584,
      "lat": 12.9172675,
      "lon": 77.5819882,
      "tags": {
        "name": "Thirumal",
        "shop": "boutique"
      }
    },
    {
      "type": "node",
      "id": 11015446614,
      "lat": 12.9046821,
      "lon": 77.5819794,
      "tags": {
        "access": "private",
        "amenity": "parking_entrance",
        "parking": "underground"
      }
    },
    {
      "type": "node",
      "id": 11048973795,
      "lat": 12.9101235,
      "lon": 77.5953898,
      "tags": {
        "amenity": "bank",
        "brand": "CSB Bank",
        "brand:wikidata": "Q5053244",
        "name": "CSB Bank",
        "official_name": "Catholic Syrian Bank"
      }
    },
    {
      "type": "node",
      "id": 11117270553,
      "lat": 12.9174347,
      "lon": 77.5834483,
      "tags": {
        "amenity": "cafe",
        "delivery": "yes",
        "name": "Glen's Bakehouse",
        "outdoor_seating": "yes",
        "shop": "bakery",
        "takeaway": "yes"
      }
    },
    {
      "type": "node",
      "id": 11126820403,
      "lat": 12.9166861,
      "lon": 77.5856654,
      "tags": {
        "name": "Merwans",
        "shop": "bakery",
        "website": "https://merwans.co.in/"
      }
    },
    {
      "type": "node",
      "id": 11162603758,
      "lat": 12.9100271,
      "lon": 77.5953771,
      "tags": {
        "amenity": "restaurant",
        "name": "Vyana World Cuisine",
        "website": "https://thevyana.com"
      }
    },
    {
      "type": "node",
      "id": 11183618458,
      "lat": 12.9060628,
      "lon": 77.5895222,
      "tags": {
        "amenity": "pub",
        "check_date": "2023-09-11",
        "level": "0;1",
        "microbrewery": "yes",
        "name": "Indian Biere House",
        "opening_hours": "12:00-01:00",
        "payment:mastercard": "yes",
        "payment:visa": "yes"
      }
    },
    {
      "type": "node",
      "id": 11183640991,
      "lat": 12.9065319,
      "lon": 77.5866397,
      "tags": {
        "amenity": "restaurant",
        "check_date": "2023-09-11",
        "cuisine": "asian",
        "name": "Khmer Kitchen",
        "opening_hours": "11:30-22:30",
        "payment:mastercard": "yes",
        "payment:visa": "yes"
      }
    },
    {
      "type": "node",
      "id": 11245712606,
      "lat": 12.9046774,
      "lon": 77.5856497,
      "tags": {
        "addr:street": "24th Main Road, JP Nagar, 6th Phase, Bengaluru",
        "amenity": "clinic",
        "name": "Saphire Heart Care"
      }
    },
    {
      "type": "node",
      "id": 11277885753,
      "lat": 12.9067066,
      "lon": 77.5896865,
      "tags": {
        "amenity": "restaurant",
        "contact:instagram": "rangoon.blr",
        "cuisine": "burmese",
        "name": "Societe Rangoon"
      }
    },
    {
      "type": "node",
      "id": 11279857429,
      "lat": 12.9167942,
      "lon": 77.5869781,
      "tags": {
        "name": "The Ooty Chocolates",
        "shop": "chocolate"
      }
    },
    {
      "type": "node",
      "id": 11293127658,
      "lat": 12.9061255,
      "lon": 77.5934155,
      "tags": {
        "level": "0",
        "name": "babyhug",
        "shop": "baby_goods",
        "wheelchair": "limited"
      }
    },
    {
      "type": "node",
      "id": 11293127668,
      "lat": 12.9061194,
      "lon": 77.593415,
      "tags": {
        "level": "1",
        "name": "Escape",
        "shop": "clothes",
        "wheelchair": "limited"
      }
    },
    {
      "type": "node",
      "id": 11293201576,
      "lat": 12.9061308,
      "lon": 77.5933823,
      "tags": {
        "level": "0",
        "shop": "tobacco"
      }
    },
    {
      "type": "node",
      "id": 11293201589,
      "lat": 12.9061135,
      "lon": 77.5934146,
      "tags": {
        "addr:city": "Bangalore",
        "addr:full": "#312, 15th Cross Road, 3rd floor, JP Nagar 5th Phase, Bangalore - 560078",
        "addr:housenumber": "312",
        "addr:postcode": "560078",
        "addr:street": "15th Cross Road",
        "addr:suburb": "JP Nagar 5th Phase",
        "amenity": "restaurant",
        "contact:mobile": "+91-70224-50852",
        "cuisine": "korean",
        "level": "3",
        "name": "Kimchi",
        "wheelchair": "limited"
      }
    },
    {
      "type": "node",
      "id": 11293333405,
      "lat": 12.906084,
      "lon": 77.586789,
      "tags": {
        "amenity": "restaurant",
        "cuisine": "sattvic",
        "level": "2",
        "name": "Sattvam"
      }
    },
    {
      "type": "node",
      "id": 11293333408,
      "lat": 12.9065473,
      "lon": 77.5896937,
      "tags": {
        "amenity": "fast_food",
        "contact:facebook": "FrozenBottle",
        "contact:instagram": "Frozen_Bottle",
        "contact:website": "https://frozenbottle.in",
        "cuisine": "shakes",
        "name": "Frozen Bottle"
      }
    },
    {
      "type": "node",
      "id": 11293333411,
      "lat": 12.9065122,
      "lon": 77.5904379,
      "tags": {
        "amenity": "cafe",
        "cuisine": "tea",
        "indoor_seating": "no",
        "level": "0",
        "name": "Sahukar Chai",
        "outdoor_seating": "no"
      }
    },
    {
      "type": "node",
      "id": 11293333412,
      "lat": 12.9064635,
      "lon": 77.5901354,
      "tags": {
        "amenity": "fast_food",
        "check_date": "2023-11-01",
        "cuisine": "regional",
        "level": "0",
        "name": "SLV Refreshments"
      }
    },
    {
      "type": "node",
      "id": 11293333414,
      "lat": 12.9065647,
      "lon": 77.5904576,
      "tags": {
        "amenity": "restaurant",
        "level": "0",
        "name": "Jayanagara Donne Biryani"
      }
    },
    {
      "type": "node",
      "id": 11293333416,
      "lat": 12.9061075,
      "lon": 77.5862616,
      "tags": {
        "level": "0;1",
        "name": "Fabindia",
        "shop": "clothes"
      }
    },
    {
      "type": "node",
      "id": 11293333417,
      "lat": 12.9065151,
      "lon": 77.5873603,
      "tags": {
        "level": "0",
        "name": "Style Struck Jaipur",
        "note": "A shop selling a variety of handicrafts - wooden item (including furniture) and clothes",
        "shop": "furniture",
        "wheelchair": "no"
      }
    },
    {
      "type": "node",
      "id": 11293333423,
      "lat": 12.9061295,
      "lon": 77.5884337,
      "tags": {
        "amenity": "restaurant",
        "name": "Peek-a-Boo"
      }
    },
    {
      "type": "node",
      "id": 11293333428,
      "lat": 12.9064752,
      "lon": 77.5903211,
      "tags": {
        "level": "0",
        "name": "The Liqor Baron",
        "shop": "alcohol",
        "wheelchair": "no"
      }
    },
    {
      "type": "node",
      "id": 11293333429,
      "lat": 12.9064858,
      "lon": 77.5903235,
      "tags": {
        "level": "1;2",
        "shop": "lighting"
      }
    },
    {
      "type": "node",
      "id": 11293333432,
      "lat": 12.9060555,
      "lon": 77.5898068,
      "tags": {
        "amenity": "restaurant",
        "cuisine": "asian",
        "name": "Yuki"
      }
    },
    {
      "type": "node",
      "id": 11293484188,
      "lat": 12.9051695,
      "lon": 77.5938563,
      "tags": {
        "amenity": "bench",
        "backrest": "yes",
        "material": "stone"
      }
    },
    {
      "type": "node",
      "id": 11293484199,
      "lat": 12.9053753,
      "lon": 77.5938595,
      "tags": {
        "amenity": "bench",
        "backrest": "yes",
        "material": "stone"
      }
    },
    {
      "type": "node",
      "id": 11293484201,
      "lat": 12.9061505,
      "lon": 77.5907609,
      "tags": {
        "name": "Dry Fruit Naturals",
        "organic": "yes",
        "shop": "nuts"
      }
    },
    {
      "type": "node",
      "id": 11293484203,
      "lat": 12.906521,
      "lon": 77.592566,
      "tags": {
        "level": "0;1",
        "name": "Sling Spirits",
        "shop": "alcohol",
        "wheelchair": "limited"
      }
    },
    {
      "type": "node",
      "id": 11293484205,
      "lat": 12.9053454,
      "lon": 77.5938378,
      "tags": {
        "amenity": "bench",
        "backrest": "yes",
        "material": "stone"
      }
    },
    {
      "type": "node",
      "id": 11293484206,
      "lat": 12.9051677,
      "lon": 77.5938338,
      "tags": {
        "amenity": "bench",
        "backrest": "yes",
        "material": "stone"
      }
    },
    {
      "type": "node",
      "id": 11293484207,
      "lat": 12.9052675,
      "lon": 77.5938355,
      "tags": {
        "amenity": "bench",
        "backrest": "yes",
        "material": "stone"
      }
    },
    {
      "type": "node",
      "id": 11293484209,
      "lat": 12.9065628,
      "lon": 77.5925599,
      "tags": {
        "amenity": "restaurant",
        "level": "2",
        "name": "154 Breakfast Club"
      }
    },
    {
      "type": "node",
      "id": 11293484210,
      "lat": 12.9053735,
      "lon": 77.593837,
      "tags": {
        "amenity": "bench",
        "backrest": "yes",
        "material": "stone"
      }
    },
    {
      "type": "node",
      "id": 11293484212,
      "lat": 12.9052693,
      "lon": 77.593858,
      "tags": {
        "amenity": "bench",
        "backrest": "yes",
        "material": "stone"
      }
    },
    {
      "type": "node",
      "id": 11293484217,
      "lat": 12.906496,
      "lon": 77.5918426,
      "tags": {
        "access": "permissive",
        "amenity": "toilets",
        "level": "0",
        "unisex": "yes"
      }
    },
    {
      "type": "node",
      "id": 11293484224,
      "lat": 12.9061506,
      "lon": 77.5908126,
      "tags": {
        "amenity": "ice_cream",
        "diet:lacto_vegetarian": "yes",
        "name": "Gelatone",
        "operator": "Frozen Creamery"
      }
    },
    {
      "type": "node",
      "id": 11293484225,
      "lat": 12.9064935,
      "lon": 77.5917984,
      "tags": {
        "amenity": "restaurant",
        "cuisine": "sandwich",
        "level": "0",
        "name": "Paris Panini"
      }
    },
    {
      "type": "node",
      "id": 11293484229,
      "lat": 12.9065116,
      "lon": 77.5917977,
      "tags": {
        "amenity": "restaurant",
        "cuisine": "pizza",
        "diet:lacto_vegetarian": "yes",
        "diet:vegan": "yes",
        "level": "1",
        "name": "The Pizza Bakery",
        "wheelchair": "no"
      }
    },
    {
      "type": "node",
      "id": 11293484230,
      "lat": 12.9060944,
      "lon": 77.5927056,
      "tags": {
        "amenity": "ice_cream",
        "brand": "Polar Bear",
        "brand:wikidata": "Q124374249",
        "delivery": "yes",
        "name": "Polar Bear",
        "takeaway": "yes"
      }
    },
    {
      "type": "node",
      "id": 11293484237,
      "lat": 12.9053472,
      "lon": 77.5938603,
      "tags": {
        "amenity": "bench",
        "backrest": "yes",
        "material": "stone"
      }
    },
    {
      "type": "node",
      "id": 11293484241,
      "lat": 12.9055622,
      "lon": 77.5937946,
      "tags": {
        "amenity": "bench",
        "backrest": "yes",
        "material": "stone"
      }
    },
    {
      "type": "node",
      "id": 11293484243,
      "lat": 12.906592,
      "lon": 77.5925708,
      "tags": {
        "brand": "cult.fit",
        "brand:wikidata": "Q121289250",
        "leisure": "fitness_centre",
        "level": "3",
        "name": "cult.fit"
      }
    },
    {
      "type": "node",
      "id": 11293484246,
      "lat": 12.9055067,
      "lon": 77.5938367,
      "tags": {
        "amenity": "bench",
        "backrest": "yes",
        "material": "stone"
      }
    },
    {
      "type": "node",
      "id": 11293484247,
      "lat": 12.9065058,
      "lon": 77.5918414,
      "tags": {
        "access": "permissive",
        "amenity": "toilets",
        "level": "0",
        "unisex": "yes"
      }
    },
    {
      "type": "node",
      "id": 11303632425,
      "lat": 12.9108057,
      "lon": 77.5821293,
      "tags": {
        "amenity": "restaurant",
        "check_date": "2023-11-01",
        "name": "Arogya Ahaara"
      }
    },
    {
      "type": "node",
      "id": 11303681064,
      "lat": 12.9061749,
      "lon": 77.5789241,
      "tags": {
        "amenity": "kindergarten",
        "name": "Yello"
      }
    },
    {
      "type": "node",
      "id": 11303695822,
      "lat": 12.9104903,
      "lon": 77.5819683,
      "tags": {
        "check_date": "2023-11-01",
        "level": "0",
        "name": "Sarayu Branding & Printing",
        "phone": "+91 99800 71161",
        "shop": "copyshop",
        "website": "https://sarayus.com"
      }
    },
    {
      "type": "node",
      "id": 11303696484,
      "lat": 12.9097266,
      "lon": 77.5824286,
      "tags": {
        "amenity": "social_facility",
        "check_date": "2023-11-01",
        "name": "Belaku Vatsalya Dhama",
        "social_facility": "group_home",
        "social_facility:for": "senior"
      }
    },
    {
      "type": "node",
      "id": 11303698240,
      "lat": 12.9103304,
      "lon": 77.5862796,
      "tags": {
        "check_date": "2023-11-01",
        "name": "Reliance Trends",
        "shop": "clothes"
      }
    },
    {
      "type": "node",
      "id": 11303698297,
      "lat": 12.9067877,
      "lon": 77.5858782,
      "tags": {
        "amenity": "restaurant",
        "check_date": "2023-11-01",
        "diet:non-vegetarian": "yes",
        "name": "Bendakaluru Donne Briyani"
      }
    },
    {
      "type": "node",
      "id": 11303698303,
      "lat": 12.9064621,
      "lon": 77.5900836,
      "tags": {
        "check_date": "2023-11-01",
        "name": "Top Store",
        "shop": "convenience"
      }
    },
    {
      "type": "node",
      "id": 11303698304,
      "lat": 12.9064664,
      "lon": 77.590046,
      "tags": {
        "check_date": "2023-11-01",
        "name": "Iyengar's Bakery",
        "name:kn": "ಐಯ್ಯಂಗಾರ್ ಬೇಕರಿ",
        "shop": "bakery"
      }
    },
    {
      "type": "node",
      "id": 11303699892,
      "lat": 12.910476,
      "lon": 77.5822027,
      "tags": {
        "amenity": "fixme",
        "check_date": "2023-11-01",
        "fixme": "type",
        "fixme:type": "vehicle rental",
        "name": "Swytchd"
      }
    },
    {
      "type": "node",
      "id": 11303702484,
      "lat": 12.9103011,
      "lon": 77.5858865,
      "tags": {
        "amenity": "restaurant",
        "check_date": "2023-11-01",
        "name": "Paradise Biryani"
      }
    },
    {
      "type": "node",
      "id": 11303705701,
      "lat": 12.9066927,
      "lon": 77.5790664,
      "tags": {
        "amenity": "kindergarten",
        "name": "Vidyasagar Preschool"
      }
    },
    {
      "type": "node",
      "id": 11303710183,
      "lat": 12.9107901,
      "lon": 77.5822781,
      "tags": {
        "amenity": "clinic",
        "check_date": "2023-11-01",
        "healthcare": "clinic",
        "name": "Pristyn Care"
      }
    },
    {
      "type": "node",
      "id": 11303710184,
      "lat": 12.9107901,
      "lon": 77.5822781,
      "tags": {
        "check_date": "2023-11-01",
        "leisure": "fitness_centre",
        "name": "Goldkraft Fitness",
        "phone": "+91 88841 08822; +91 88841 08855; +91 80 2664 7664"
      }
    },
    {
      "type": "node",
      "id": 11303710185,
      "lat": 12.9069743,
      "lon": 77.5820075,
      "tags": {
        "amenity": "dentist",
        "check_date": "2023-11-01",
        "healthcare": "dentist",
        "name": "Bangalore Dental Clinic",
        "opening_hours": "Mo-Sa 09:00-12:30,16:30-20:30",
        "phone": "+91 80 2663 2094",
        "wheelchair": "limited"
      }
    },
    {
      "type": "node",
      "id": 11303710697,
      "lat": 12.9060288,
      "lon": 77.5792706,
      "tags": {
        "amenity": "atm",
        "brand": "State Bank of India",
        "brand:wikidata": "Q1340361",
        "operator": "State Bank of India",
        "operator:wikidata": "Q1340361",
        "short_name": "SBI"
      }
    },
    {
      "type": "node",
      "id": 11303710927,
      "lat": 12.9122347,
      "lon": 77.5855628,
      "tags": {
        "amenity": "cafe",
        "brand": "Cafe Coffee Day",
        "brand:wikidata": "Q5017235",
        "check_date": "2023-11-01",
        "cuisine": "coffee_shop",
        "name": "Cafe Coffee Day",
        "name:kn": "ಕಫೆ ಕಾಫಿ ಡೇ",
        "takeaway": "yes"
      }
    },
    {
      "type": "node",
      "id": 11303711285,
      "lat": 12.9066266,
      "lon": 77.5805059,
      "tags": {
        "brand": "Renault",
        "brand:wikidata": "Q6686",
        "check_date": "2023-11-01",
        "internet_access": "wlan",
        "internet_access:fee": "customers",
        "name": "Renault",
        "name:en": "Renault",
        "shop": "car"
      }
    },
    {
      "type": "node",
      "id": 11303711371,
      "lat": 12.906071,
      "lon": 77.5869281,
      "tags": {
        "amenity": "hospital",
        "check_date": "2023-11-01",
        "healthcare": "hospital",
        "level": "0;1;2",
        "name": "Cadabam's Hospitals",
        "wheelchair": "yes"
      }
    },
    {
      "type": "node",
      "id": 11303711372,
      "lat": 12.9065764,
      "lon": 77.5869587,
      "tags": {
        "check_date": "2023-11-01",
        "level": "1",
        "name": "Wakefit.co",
        "shop": "bed"
      }
    },
    {
      "type": "node",
      "id": 11303711373,
      "lat": 12.9066349,
      "lon": 77.586965,
      "tags": {
        "check_date": "2023-11-01",
        "level": "2",
        "name": "Ruan Thai Spa",
        "shop": "massage",
        "wheelchair": "no"
      }
    },
    {
      "type": "node",
      "id": 11303711374,
      "lat": 12.9060987,
      "lon": 77.5874595,
      "tags": {
        "check_date": "2023-11-01",
        "level": "0",
        "name": "Friends Automotives",
        "second_hand": "only",
        "shop": "car",
        "wheelchair": "limited"
      }
    },
    {
      "type": "node",
      "id": 11303711375,
      "lat": 12.9065923,
      "lon": 77.5873203,
      "tags": {
        "check_date": "2023-11-01",
        "level": "0",
        "name": "Rajasthan Wood Works",
        "shop": "furniture",
        "wheelchair": "no"
      }
    },
    {
      "type": "node",
      "id": 11303711405,
      "lat": 12.9061552,
      "lon": 77.5903307,
      "tags": {
        "amenity": "restaurant",
        "bar": "yes",
        "check_date": "2023-11-01",
        "level": "0",
        "name": "Eagle Bar & Restaurant",
        "wheelchair": "no"
      }
    },
    {
      "type": "node",
      "id": 11303711406,
      "lat": 12.9061515,
      "lon": 77.5908928,
      "tags": {
        "brand": "Snack Shop",
        "check_date": "2023-11-01",
        "level": "0",
        "name": "Sri Venkateshwara",
        "shop": "convenience",
        "wheelchair": "no"
      }
    },
    {
      "type": "node",
      "id": 11303711407,
      "lat": 12.9061373,
      "lon": 77.5908522,
      "tags": {
        "check_date": "2023-11-01",
        "level": "1",
        "name": "One Homes",
        "shop": "furniture",
        "wheelchair": "no"
      }
    },
    {
      "type": "node",
      "id": 11303711408,
      "lat": 12.9061467,
      "lon": 77.5909889,
      "tags": {
        "check_date": "2023-11-01",
        "level": "0",
        "name": "Ather",
        "shop": "motorcycle",
        "wheelchair": "no"
      }
    },
    {
      "type": "node",
      "id": 11303711410,
      "lat": 12.9061171,
      "lon": 77.5909724,
      "tags": {
        "check_date": "2023-11-01",
        "level": "1",
        "name": "Guhina",
        "shop": "furniture",
        "wheelchair": "no"
      }
    },
    {
      "type": "node",
      "id": 11303711412,
      "lat": 12.9061135,
      "lon": 77.590881,
      "tags": {
        "check_date": "2023-11-01",
        "level": "2",
        "name": "Truww",
        "shop": "interior_decoration",
        "wheelchair": "no"
      }
    },
    {
      "type": "node",
      "id": 11303716150,
      "lat": 12.9060151,
      "lon": 77.579232,
      "tags": {
        "amenity": "bank",
        "branch": "NRI Branch JP Nagar",
        "brand": "State Bank of India",
        "brand:wikidata": "Q1340361",
        "name": "State Bank of India",
        "name:kn": "ಎಸ್ ಬಿ ಐ",
        "short_name": "SBI"
      }
    },
    {
      "type": "node",
      "id": 11303723684,
      "lat": 12.9069535,
      "lon": 77.5803073,
      "tags": {
        "check_date": "2023-11-01",
        "fixme": "type",
        "name": "Truly",
        "shop": "greengrocer"
      }
    },
    {
      "type": "node",
      "id": 11303726646,
      "lat": 12.9082824,
      "lon": 77.5814838,
      "tags": {
        "amenity": "waste_basket"
      }
    },
    {
      "type": "node",
      "id": 11303726647,
      "lat": 12.9081145,
      "lon": 77.581483,
      "tags": {
        "amenity": "bench",
        "backrest": "yes",
        "colour": "grey",
        "material": "stone",
        "seats": "4"
      }
    },
    {
      "type": "node",
      "id": 11303726648,
      "lat": 12.9081766,
      "lon": 77.5816164,
      "tags": {
        "amenity": "shelter",
        "bench": "yes",
        "shelter_type": "gazebo"
      }
    },
    {
      "type": "node",
      "id": 11303726650,
      "lat": 12.9083702,
      "lon": 77.5812526,
      "tags": {
        "fitness_station": "fitness_station",
        "leisure": "fitness_station",
        "sport": "fitness"
      }
    },
    {
      "type": "node",
      "id": 11303726651,
      "lat": 12.9083413,
      "lon": 77.5817017,
      "tags": {
        "leisure": "playground"
      }
    },
    {
      "type": "node",
      "id": 11303726652,
      "lat": 12.9074264,
      "lon": 77.5824555,
      "tags": {
        "check_date": "2023-11-01",
        "name": "Kashyapi Naturals",
        "organic": "only",
        "shop": "supermarket"
      }
    },
    {
      "type": "node",
      "id": 11303726653,
      "lat": 12.9070993,
      "lon": 77.5825707,
      "tags": {
        "amenity": "clinic",
        "check_date": "2023-11-01",
        "healthcare": "clinic",
        "name": "Medall Clumax Diagnostics"
      }
    },
    {
      "type": "node",
      "id": 11303726654,
      "lat": 12.9072137,
      "lon": 77.5829997,
      "tags": {
        "amenity": "pharmacy",
        "check_date": "2023-11-01",
        "healthcare": "pharmacy",
        "name": "Harsitha Medicals"
      }
    },
    {
      "type": "node",
      "id": 11303726655,
      "lat": 12.907408,
      "lon": 77.5829527,
      "tags": {
        "amenity": "post_depot",
        "brand": "FedEx",
        "brand:wikidata": "Q459477",
        "check_date": "2023-11-01",
        "name": "Sri Ganesh Courier Services",
        "operator": "FedEx",
        "operator:type": "private",
        "operator:wikidata": "Q459477"
      }
    },
    {
      "type": "node",
      "id": 11303727833,
      "lat": 12.9106694,
      "lon": 77.5835369,
      "tags": {
        "amenity": "pharmacy",
        "check_date": "2023-11-01",
        "healthcare": "pharmacy",
        "level": "0",
        "name": "Pharma One",
        "phone": "+91 98117 89001"
      }
    },
    {
      "type": "node",
      "id": 11303728664,
      "lat": 12.907298,
      "lon": 77.5819357,
      "tags": {
        "check_date": "2023-11-01",
        "name": "Labdhi Vinay - Glass & Crockery",
        "shop": "houseware"
      }
    },
    {
      "type": "node",
      "id": 11303728955,
      "lat": 12.9066836,
      "lon": 77.5805215,
      "tags": {
        "amenity": "pub",
        "check_date": "2023-11-01",
        "name": "The Scene Craft Kitchen & Bar"
      }
    },
    {
      "type": "node",
      "id": 11303730516,
      "lat": 12.9107357,
      "lon": 77.5829631,
      "tags": {
        "amenity": "bank",
        "check_date": "2023-11-01",
        "name": "People's India Souharda Credit Cooperative Limited"
      }
    },
    {
      "type": "node",
      "id": 11303735210,
      "lat": 12.9106407,
      "lon": 77.5845458,
      "tags": {
        "amenity": "conference_centre",
        "check_date": "2023-11-01",
        "name": "India Sweet House"
      }
    },
    {
      "type": "node",
      "id": 11303736032,
      "lat": 12.9095975,
      "lon": 77.5818484,
      "tags": {
        "amenity": "kindergarten",
        "check_date": "2023-11-01",
        "name": "Little Sparkle Pre-school",
        "operator:type": "private",
        "preschool": "yes"
      }
    },
    {
      "type": "node",
      "id": 11303736994,
      "lat": 12.9082574,
      "lon": 77.5858666,
      "tags": {
        "access": "yes",
        "amenity": "toilets",
        "check_date": "2023-11-01"
      }
    },
    {
      "type": "node",
      "id": 11303737786,
      "lat": 12.9104716,
      "lon": 77.5822556,
      "tags": {
        "check_date": "2023-11-01",
        "name": "Howzzat Sports",
        "shop": "sports"
      }
    },
    {
      "type": "node",
      "id": 11303742134,
      "lat": 12.9062042,
      "lon": 77.5793891,
      "tags": {
        "check_date": "2023-11-01",
        "name": "Jodhpuri Furniture",
        "shop": "furniture"
      }
    },
    {
      "type": "node",
      "id": 11303742135,
      "lat": 12.9061991,
      "lon": 77.5794423,
      "tags": {
        "amenity": "bank",
        "brand": "Federal Bank",
        "brand:wikidata": "Q2044983",
        "check_date": "2023-11-01",
        "name": "Federal Bank"
      }
    },
    {
      "type": "node",
      "id": 11303742136,
      "lat": 12.9107076,
      "lon": 77.5843671,
      "tags": {
        "amenity": "toilets",
        "check_date": "2023-11-01",
        "toilets:disposal": "flush"
      }
    },
    {
      "type": "node",
      "id": 11303742269,
      "lat": 12.910476,
      "lon": 77.5822027,
      "tags": {
        "amenity": "restaurant",
        "check_date": "2023-11-01",
        "name": "Aata Oota Maathu"
      }
    },
    {
      "type": "node",
      "id": 11303742270,
      "lat": 12.910476,
      "lon": 77.5822027,
      "tags": {
        "check_date": "2023-11-01",
        "name": "Cream And Fudge",
        "shop": "bakery"
      }
    },
    {
      "type": "node",
      "id": 11303742272,
      "lat": 12.910476,
      "lon": 77.5822027,
      "tags": {
        "check_date": "2023-11-01",
        "leisure": "fitness_centre",
        "name": "O2 The Fitness",
        "phone": "08042007236"
      }
    },
    {
      "type": "node",
      "id": 11303742273,
      "lat": 12.9065442,
      "lon": 77.5782946,
      "tags": {
        "check_date": "2023-11-01",
        "name": "SSD Dhalith Sangam",
        "shop": "shoe_repair"
      }
    },
    {
      "type": "node",
      "id": 11303743268,
      "lat": 12.9072606,
      "lon": 77.5858955,
      "tags": {
        "brand": "Zudio",
        "brand:wikidata": "Q123375926",
        "check_date": "2023-11-01",
        "name": "Zudio",
        "shop": "clothes"
      }
    },
    {
      "type": "node",
      "id": 11303744482,
      "lat": 12.9066905,
      "lon": 77.5799554,
      "tags": {
        "amenity": "kindergarten",
        "check_date": "2023-11-01",
        "name": "Absorbent Mind"
      }
    },
    {
      "type": "node",
      "id": 11303744483,
      "lat": 12.9061058,
      "lon": 77.5876799,
      "tags": {
        "amenity": "cafe",
        "check_date": "2023-11-01",
        "level": "0",
        "name": "Third Wave Coffee",
        "wheelchair": "no"
      }
    },
    {
      "type": "node",
      "id": 11303744484,
      "lat": 12.9061073,
      "lon": 77.5876277,
      "tags": {
        "check_date": "2023-11-01",
        "level": "0",
        "name": "Heads Up For Tails",
        "shop": "pet",
        "wheelchair": "no"
      }
    },
    {
      "type": "node",
      "id": 11303744485,
      "lat": 12.9060441,
      "lon": 77.5876157,
      "tags": {
        "check_date": "2023-11-01",
        "level": "1",
        "name": "HomeLane.com",
        "shop": "interior_decoration",
        "wheelchair": "no"
      }
    },
    {
      "type": "node",
      "id": 11303744487,
      "lat": 12.90608,
      "lon": 77.587813,
      "tags": {
        "check_date": "2023-11-01",
        "level": "0",
        "name": "Maruit Suzuki Nexa",
        "shop": "car",
        "wheelchair": "yes"
      }
    },
    {
      "type": "node",
      "id": 11303744488,
      "lat": 12.9060772,
      "lon": 77.5880885,
      "tags": {
        "amenity": "bank",
        "brand": "ICICI Bank",
        "brand:wikidata": "Q1653258",
        "check_date": "2023-11-01",
        "level": "0",
        "name": "ICICI Bank",
        "short_name": "ICICI",
        "wheelchair": "no"
      }
    },
    {
      "type": "node",
      "id": 11303744489,
      "lat": 12.9065841,
      "lon": 77.5886336,
      "tags": {
        "check_date": "2023-11-01",
        "level": "0",
        "name": "The organic world",
        "organic": "only",
        "shop": "supermarket",
        "wheelchair": "limited"
      }
    },
    {
      "type": "node",
      "id": 11303746612,
      "lat": 12.9069387,
      "lon": 77.5856442,
      "tags": {
        "amenity": "bicycle_rental",
        "check_date": "2023-11-01",
        "name": "Yulu Bike Stand"
      }
    },
    {
      "type": "node",
      "id": 11303746666,
      "lat": 12.9086287,
      "lon": 77.5834793,
      "tags": {
        "check_date": "2023-11-01",
        "name": "Hair Sessions Men's Saloon",
        "shop": "hairdresser"
      }
    },
    {
      "type": "node",
      "id": 11303748075,
      "lat": 12.9107338,
      "lon": 77.5828423,
      "tags": {
        "check_date": "2023-11-01",
        "name": "Shana Trading Company",
        "shop": "department_store"
      }
    },
    {
      "type": "node",
      "id": 11303751506,
      "lat": 12.9061033,
      "lon": 77.5866031,
      "tags": {
        "amenity": "restaurant",
        "check_date": "2023-11-01",
        "name": "1947"
      }
    },
    {
      "type": "node",
      "id": 11303751507,
      "lat": 12.9060244,
      "lon": 77.5868402,
      "tags": {
        "check_date": "2023-11-01",
        "name": "Royal King",
        "shop": "massage"
      }
    },
    {
      "type": "node",
      "id": 11303758350,
      "lat": 12.9107148,
      "lon": 77.583503,
      "tags": {
        "amenity": "doctors",
        "check_date": "2023-11-01",
        "healthcare": "doctor",
        "healthcare:speciality": "orthopaedics",
        "name": "Prime Orthopedics"
      }
    },
    {
      "type": "node",
      "id": 11303758351,
      "lat": 12.9106464,
      "lon": 77.5841885,
      "tags": {
        "amenity": "clinic",
        "check_date": "2023-11-01",
        "healthcare": "clinic",
        "name": "Aster Labs"
      }
    },
    {
      "type": "node",
      "id": 11303758352,
      "lat": 12.9106464,
      "lon": 77.5841885,
      "tags": {
        "amenity": "clinic",
        "check_date": "2023-11-01",
        "healthcare": "clinic",
        "healthcare:speciality": "fertility",
        "name": "Baby Science IVF clinic"
      }
    },
    {
      "type": "node",
      "id": 11303761207,
      "lat": 12.9068406,
      "lon": 77.585623,
      "tags": {
        "check_date": "2023-11-01",
        "name": "Urban Sarees",
        "shop": "fashion_accessories"
      }
    },
    {
      "type": "node",
      "id": 11303761208,
      "lat": 12.9065242,
      "lon": 77.5783848,
      "tags": {
        "shop": "tea"
      }
    },
    {
      "type": "node",
      "id": 11303762242,
      "lat": 12.9060616,
      "lon": 77.5855244,
      "tags": {
        "amenity": "restaurant",
        "check_date": "2023-11-01",
        "level": "2",
        "name": "Casa Piccosa",
        "opening_hours": "00:00-01:00,11:00-24:00"
      }
    },
    {
      "type": "node",
      "id": 11303762243,
      "lat": 12.9060789,
      "lon": 77.5854544,
      "tags": {
        "check_date": "2023-11-01",
        "level": "1",
        "name": "Wooden Street",
        "shop": "furniture"
      }
    },
    {
      "type": "node",
      "id": 11303762244,
      "lat": 12.906127,
      "lon": 77.5860544,
      "tags": {
        "check_date": "2023-11-01",
        "level": "0",
        "name": "Global Hardware & Power Tools",
        "shop": "hardware"
      }
    },
    {
      "type": "node",
      "id": 11303762245,
      "lat": 12.9065673,
      "lon": 77.5864076,
      "tags": {
        "amenity": "restaurant",
        "check_date": "2023-11-01",
        "cuisine": "asian",
        "level": "1",
        "name": "NI YU",
        "wheelchair": "limited"
      }
    },
    {
      "type": "node",
      "id": 11303762985,
      "lat": 12.9075107,
      "lon": 77.5859176,
      "tags": {
        "check_date": "2023-11-01",
        "leisure": "fitness_centre",
        "name": "Karma Center",
        "sport": "yoga"
      }
    },
    {
      "type": "node",
      "id": 11303763219,
      "lat": 12.9060608,
      "lon": 77.58713,
      "tags": {
        "check_date": "2023-11-01",
        "name": "Pepperfry Studio",
        "shop": "furniture"
      }
    },
    {
      "type": "node",
      "id": 11303763223,
      "lat": 12.9102031,
      "lon": 77.5878491,
      "tags": {
        "check_date": "2023-11-01",
        "name": "Kinderdreams Baby Store",
        "shop": "baby_goods"
      }
    },
    {
      "type": "node",
      "id": 11303763740,
      "lat": 12.9103298,
      "lon": 77.587092,
      "tags": {
        "amenity": "doctors",
        "check_date": "2023-11-01",
        "healthcare": "doctor",
        "healthcare:speciality": "gynaecology",
        "name": "Bloom Women's Health",
        "phone": "+91 95917 87988"
      }
    },
    {
      "type": "node",
      "id": 11303765165,
      "lat": 12.9065042,
      "lon": 77.5898768,
      "tags": {
        "amenity": "post_office",
        "brand": "Delhivery",
        "brand:wikidata": "Q55609321",
        "check_date": "2023-11-01",
        "level": "0",
        "name": "Delhivery",
        "operator": "Delhivery",
        "operator:wikidata": "Q55609321",
        "wheelchair": "no"
      }
    },
    {
      "type": "node",
      "id": 11303765166,
      "lat": 12.906458,
      "lon": 77.5899535,
      "tags": {
        "check_date": "2023-11-01",
        "level": "0",
        "name": "Chetan Hardware",
        "shop": "hardware",
        "wheelchair": "no"
      }
    },
    {
      "type": "node",
      "id": 11303765856,
      "lat": 12.9093099,
      "lon": 77.5817838,
      "tags": {
        "check_date": "2023-11-01",
        "name": "Sri Durga Condiments",
        "shop": "confectionery"
      }
    },
    {
      "type": "node",
      "id": 11303765887,
      "lat": 12.9116875,
      "lon": 77.5859426,
      "tags": {
        "check_date": "2023-11-01",
        "clothes": "lingerie",
        "name": "Van Heusen Inner Wear",
        "shop": "clothes",
        "wheelchair": "no"
      }
    },
    {
      "type": "node",
      "id": 11303767325,
      "lat": 12.9103136,
      "lon": 77.5875758,
      "tags": {
        "amenity": "cafe",
        "check_date": "2023-11-01",
        "cuisine": "coffee_shop",
        "name": "Benki Coffee",
        "opening_hours": "Mo-Tu 11:00-20:00; We-Su 07:00-21:00",
        "payment:cash": "yes",
        "payment:mastercard": "yes",
        "payment:visa": "yes"
      }
    },
    {
      "type": "node",
      "id": 11303767729,
      "lat": 12.9083628,
      "lon": 77.5847684,
      "tags": {
        "check_date": "2023-11-01",
        "name": "Hopcoms",
        "shop": "greengrocer"
      }
    },
    {
      "type": "node",
      "id": 11303767730,
      "lat": 12.9083725,
      "lon": 77.5848558,
      "tags": {
        "check_date": "2023-11-01",
        "name": "Nandini Shoppe",
        "shop": "dairy"
      }
    },
    {
      "type": "node",
      "id": 11303767732,
      "lat": 12.9107078,
      "lon": 77.5843154,
      "tags": {
        "access": "yes",
        "amenity": "toilets",
        "check_date": "2023-11-01"
      }
    },
    {
      "type": "node",
      "id": 11303767734,
      "lat": 12.9104661,
      "lon": 77.5853389,
      "tags": {
        "amenity": "post_box",
        "operator": "India Post",
        "operator:wikidata": "Q3519720"
      }
    },
    {
      "type": "node",
      "id": 11303767735,
      "lat": 12.9086288,
      "lon": 77.5858739,
      "tags": {
        "amenity": "ice_cream",
        "check_date": "2023-11-01",
        "name": "Freez"
      }
    },
    {
      "type": "node",
      "id": 11303771924,
      "lat": 12.9105758,
      "lon": 77.5880187,
      "tags": {
        "amenity": "restaurant",
        "check_date": "2023-11-01",
        "name": "Baba Punjabi"
      }
    },
    {
      "type": "node",
      "id": 11303773815,
      "lat": 12.9064812,
      "lon": 77.5909953,
      "tags": {
        "check_date": "2023-11-01",
        "name": "Motors",
        "second_hand": "only",
        "shop": "car"
      }
    },
    {
      "type": "node",
      "id": 11303773816,
      "lat": 12.906477,
      "lon": 77.591074,
      "tags": {
        "check_date": "2023-11-01",
        "fixme": "only detailing",
        "name": "Rhino",
        "shop": "car_repair"
      }
    },
    {
      "type": "node",
      "id": 11303774164,
      "lat": 12.9061152,
      "lon": 77.5887159,
      "tags": {
        "check_date": "2023-11-01",
        "level": "0",
        "name": "Abaran",
        "shop": "jewelry",
        "wheelchair": "limited"
      }
    },
    {
      "type": "node",
      "id": 11303776046,
      "lat": 12.9101758,
      "lon": 77.5818113,
      "tags": {
        "check_date": "2023-11-01",
        "name": "Mari Swamy Xerox",
        "shop": "copyshop"
      }
    },
    {
      "type": "node",
      "id": 11303778271,
      "lat": 12.9061345,
      "lon": 77.5911575,
      "tags": {
        "check_date": "2023-11-01",
        "level": "0",
        "name": "Tafe Access Ltd",
        "shop": "car",
        "wheelchair": "no"
      }
    },
    {
      "type": "node",
      "id": 11303778272,
      "lat": 12.9061141,
      "lon": 77.5911619,
      "tags": {
        "check_date": "2023-11-01",
        "level": "1",
        "name": "Liv Space",
        "shop": "furniture",
        "wheelchair": "no"
      }
    },
    {
      "type": "node",
      "id": 11303778273,
      "lat": 12.9060879,
      "lon": 77.5912044,
      "tags": {
        "check_date": "2023-11-01",
        "level": "2",
        "name": "Schell",
        "shop": "bathroom_furnishing",
        "wheelchair": "no"
      }
    },
    {
      "type": "node",
      "id": 11303778274,
      "lat": 12.9061242,
      "lon": 77.5912854,
      "tags": {
        "check_date": "2023-11-01",
        "level": "0",
        "name": "enrich",
        "shop": "beauty",
        "wheelchair": "limited"
      }
    },
    {
      "type": "node",
      "id": 11303782101,
      "lat": 12.9103521,
      "lon": 77.5818133,
      "tags": {
        "check_date": "2023-11-01",
        "name": "Ramdev Stationery",
        "shop": "stationery"
      }
    },
    {
      "type": "node",
      "id": 11303784532,
      "lat": 12.9099304,
      "lon": 77.581821,
      "tags": {
        "amenity": "dentist",
        "check_date": "2023-11-01",
        "healthcare": "dentist",
        "name": "Spectrum Dental Clinic"
      }
    },
    {
      "type": "node",
      "id": 11303785278,
      "lat": 12.9104384,
      "lon": 77.5817415,
      "tags": {
        "check_date": "2023-11-01",
        "name": "Srinivasa Traders",
        "shop": "department_store"
      }
    },
    {
      "type": "node",
      "id": 11303785279,
      "lat": 12.9104384,
      "lon": 77.5817415,
      "tags": {
        "check_date": "2023-11-01",
        "name": "Ramdev Novelties",
        "shop": "craft"
      }
    },
    {
      "type": "node",
      "id": 11303787987,
      "lat": 12.910378,
      "lon": 77.5816822,
      "tags": {
        "amenity": "fixme",
        "check_date": "2023-11-01",
        "fixme": "type",
        "fixme:type": "courier",
        "name": "Professional Courier"
      }
    },
    {
      "type": "node",
      "id": 11303787988,
      "lat": 12.9104295,
      "lon": 77.5818288,
      "tags": {
        "check_date": "2023-11-01",
        "name": "New Classic Men's Parlour",
        "phone": "+91 99006 15439",
        "shop": "hairdresser"
      }
    },
    {
      "type": "node",
      "id": 11303787989,
      "lat": 12.9104295,
      "lon": 77.5818288,
      "tags": {
        "check_date": "2023-11-01",
        "name": "Ramdev Stationers",
        "shop": "mobile_phone"
      }
    },
    {
      "type": "node",
      "id": 11303789827,
      "lat": 12.9086016,
      "lon": 77.5834712,
      "tags": {
        "check_date": "2023-11-01",
        "name": "MedPlus",
        "shop": "chemist",
        "wheelchair": "limited"
      }
    },
    {
      "type": "node",
      "id": 11303837286,
      "lat": 12.9072205,
      "lon": 77.5786884,
      "tags": {
        "access": "yes",
        "amenity": "toilets",
        "check_date": "2023-11-01",
        "toilets:disposal": "flush",
        "wheelchair": "no"
      }
    },
    {
      "type": "node",
      "id": 11304329506,
      "lat": 12.9061209,
      "lon": 77.591745,
      "tags": {
        "brand": "Lenskart",
        "brand:wikidata": "Q17068753",
        "name": "Lenskart",
        "shop": "optician"
      }
    },
    {
      "type": "node",
      "id": 11304329508,
      "lat": 12.9061026,
      "lon": 77.5914037,
      "tags": {
        "amenity": "clinic",
        "healthcare": "clinic",
        "name": "Skanda Health Care"
      }
    },
    {
      "type": "node",
      "id": 11304329512,
      "lat": 12.9061546,
      "lon": 77.5914043,
      "tags": {
        "amenity": "parking_entrance",
        "parking": "underground"
      }
    },
    {
      "type": "node",
      "id": 11304329617,
      "lat": 12.9061542,
      "lon": 77.5911952,
      "tags": {
        "amenity": "parking_entrance",
        "parking": "underground"
      }
    },
    {
      "type": "node",
      "id": 11304378396,
      "lat": 12.9072425,
      "lon": 77.5787712,
      "tags": {
        "amenity": "fast_food",
        "brand": "Indira Canteen",
        "brand:wikidata": "Q36164828",
        "cuisine": "south_indian",
        "name": "Indira Canteen",
        "operator": "BBMP",
        "takeaway": "yes"
      }
    },
    {
      "type": "node",
      "id": 11304378405,
      "lat": 12.9072177,
      "lon": 77.5784721,
      "tags": {
        "name": "HOPCOMS",
        "shop": "greengrocer"
      }
    },
    {
      "type": "node",
      "id": 11309492474,
      "lat": 12.9072205,
      "lon": 77.5784124,
      "tags": {
        "brand": "Nandini",
        "name": "Bamul",
        "shop": "kiosk"
      }
    },
    {
      "type": "node",
      "id": 11309805447,
      "lat": 12.9168722,
      "lon": 77.5834061,
      "tags": {
        "check_date": "2023-11-03",
        "name": "VRK Heritage",
        "shop": "clothes"
      }
    },
    {
      "type": "node",
      "id": 11309805463,
      "lat": 12.9168572,
      "lon": 77.5860216,
      "tags": {
        "check_date": "2023-11-03",
        "name": "Giri",
        "shop": "religion"
      }
    },
    {
      "type": "node",
      "id": 11309805464,
      "lat": 12.9167467,
      "lon": 77.5856694,
      "tags": {
        "amenity": "fast_food",
        "check_date": "2023-11-03",
        "cuisine": "pizza",
        "name": "Mojo Pizza"
      }
    },
    {
      "type": "node",
      "id": 11309805466,
      "lat": 12.9168357,
      "lon": 77.5854597,
      "tags": {
        "amenity": "fast_food",
        "check_date": "2023-11-03",
        "name": "Vishranti Bhavan"
      }
    },
    {
      "type": "node",
      "id": 11394086046,
      "lat": 12.9171936,
      "lon": 77.586517,
      "tags": {
        "check_date": "2023-12-04",
        "name": "Atelier",
        "shop": "clothes"
      }
    },
    {
      "type": "node",
      "id": 11618125610,
      "lat": 12.9105694,
      "lon": 77.5892499,
      "tags": {
        "contact:instagram": "harleysfinebaking",
        "email": "care@harleys.in",
        "name": "Harley's Fine Baking",
        "shop": "pastry",
        "website": "https://www.harleys.in"
      }
    },
    {
      "type": "node",
      "id": 11754772661,
      "lat": 12.9061758,
      "lon": 77.5805046,
      "tags": {
        "addr:city": "Bangalore",
        "addr:country": "IN",
        "addr:postcode": "560078",
        "addr:street": "Outer Ring Road",
        "addr:suburb": "JP Nagar",
        "amenity": "restaurant",
        "cuisine": "american",
        "name": "JP Nagara Social",
        "smoking": "separated"
      }
    },
    {
      "type": "node",
      "id": 12067827169,
      "lat": 12.9136597,
      "lon": 77.5862704,
      "tags": {
        "amenity": "music_school",
        "name": "Shubham School of Performing Arts"
      }
    },
    {
      "type": "node",
      "id": 12094543106,
      "lat": 12.9062386,
      "lon": 77.5788939,
      "tags": {
        "addr:city": "Bengaluru",
        "addr:country": "IN",
        "addr:hamlet": "6th Phase",
        "addr:housenumber": "597",
        "addr:postcode": "560078",
        "addr:street": "Outer Ring Road",
        "addr:suburb": "JP Nagar",
        "amenity": "restaurant",
        "contact:instagram": "sinonnas",
        "cuisine": "pizza",
        "delivery": "yes",
        "name": "Si Nonna's",
        "phone": "+91 9653423631",
        "takeaway": "yes",
        "website": "https://sinonnas.com/"
      }
    },
    {
      "type": "node",
      "id": 12102862215,
      "lat": 12.906053,
      "lon": 77.5890997,
      "tags": {
        "addr:city": "Bengaluru",
        "addr:housenumber": "7",
        "addr:postcode": "560078",
        "addr:street": "Outer Ring Road",
        "addr:suburb": "JP Nagar",
        "amenity": "cafe",
        "contact:instagram": "suay.india",
        "delivery": "yes",
        "email": "cafesuay@gmail.com",
        "name": "Suay",
        "phone": "+91 8884552022",
        "takeaway": "yes",
        "toilets": "yes",
        "website": "https://www.suay.co.in/"
      }
    },
    {
      "type": "node",
      "id": 12102862216,
      "lat": 12.906036,
      "lon": 77.5889428,
      "tags": {
        "amenity": "cafe",
        "name": "Take A Break"
      }
    },
    {
      "type": "node",
      "id": 12106532161,
      "lat": 12.9060614,
      "lon": 77.5930541,
      "tags": {
        "addr:city": "Bengaluru",
        "addr:housenumber": "309",
        "addr:postcode": "560078",
        "addr:street": "Outer Ring Road",
        "amenity": "bar",
        "level": "3,4",
        "name": "Bottle Breacher Bar"
      }
    },
    {
      "type": "node",
      "id": 12161544267,
      "lat": 12.9030499,
      "lon": 77.5859107,
      "tags": {
        "amenity": "restaurant",
        "brand": "Restaurante Popular",
        "level": "0",
        "name": "Samskruthi Sathkara",
        "wheelchair": "limited"
      }
    },
    {
      "type": "node",
      "id": 12290419101,
      "lat": 12.9065813,
      "lon": 77.58214,
      "tags": {
        "amenity": "bar",
        "name": "The Pump House",
        "opening_hours": "Mo-Su 12:00-00:30",
        "phone": "+91 96061 27666",
        "website": "https://thepumphouse.in/"
      }
    },
    {
      "type": "node",
      "id": 12292078854,
      "lat": 12.9060713,
      "lon": 77.5943602,
      "tags": {
        "amenity": "cafe",
        "check_date": "2025-10-27",
        "name": "Nenapu"
      }
    },
    {
      "type": "node",
      "id": 12320273044,
      "lat": 12.9060286,
      "lon": 77.5852067,
      "tags": {
        "addr:housenumber": "745",
        "addr:street": "Aurobindo Marg (24th Main)",
        "amenity": "pub",
        "check_date": "2024-11-07",
        "name": "Taproom by Sherlock's"
      }
    },
    {
      "type": "node",
      "id": 12320273045,
      "lat": 12.9059207,
      "lon": 77.5858993,
      "tags": {
        "amenity": "pharmacy",
        "check_date": "2024-11-07",
        "healthcare": "pharmacy",
        "wheelchair": "no"
      }
    },
    {
      "type": "node",
      "id": 12320273046,
      "lat": 12.9066822,
      "lon": 77.5851367,
      "tags": {
        "air_conditioning": "yes",
        "amenity": "cafe",
        "check_date": "2025-02-22",
        "cuisine": "coffee_shop",
        "highchair": "yes",
        "level": "0",
        "name": "Cafe Petriqor",
        "outdoor_seating": "yes",
        "toilets": "yes"
      }
    },
    {
      "type": "node",
      "id": 12320273047,
      "lat": 12.906049,
      "lon": 77.586435,
      "tags": {
        "amenity": "restaurant",
        "check_date": "2024-11-07",
        "contact:instagram": "https://www.instagram.com/gaia.blr",
        "cuisine": "regional",
        "diet:vegan": "yes",
        "diet:vegetarian": "yes",
        "name": "Gaia"
      }
    },
    {
      "type": "node",
      "id": 12405993166,
      "lat": 12.906136,
      "lon": 77.5905005,
      "tags": {
        "addr:city": "Bangalore",
        "addr:district": "Bangalore",
        "addr:housenumber": "No 289",
        "addr:postcode": "560078",
        "addr:street": "15th Cross, 5th Phose, JP Nagar",
        "air_conditioning": "yes",
        "amenity": "cafe",
        "capacity": "50",
        "cuisine": "coffee_shop;cafe;breakfast;tea",
        "delivery": "yes",
        "highchair": "yes",
        "internet_access": "yes",
        "internet_access:fee": "no",
        "internet_access:ssid": "Drip and Drop_5G",
        "name": "Drip and Drop Coffee",
        "opening_hours": "Mo-Th 09:00-22:00, Fr-Su 08:00-23:00",
        "phone": "+919538238355",
        "toilets": "yes",
        "website:menu": "https://www.zomato.com/bangalore/drip-and-drop-coffee-jp-nagar-bangalore/menu",
        "wheelchair": "limited"
      }
    },
    {
      "type": "node",
      "id": 12461000331,
      "lat": 12.9119682,
      "lon": 77.5860142,
      "tags": {
        "amenity": "pub",
        "contact:instagram": "senditbob",
        "delivery": "yes",
        "name": "Bob's Bar",
        "takeaway": "yes",
        "toilets": "yes"
      }
    },
    {
      "type": "node",
      "id": 12553367899,
      "lat": 12.9052342,
      "lon": 77.585597,
      "tags": {
        "addr:city": "Bengaluru",
        "addr:district": "Bengaluru Urban",
        "addr:full": "3rd floor, 722, 24th Main Rd, near Nandhini hotel, KR Layout, 6th phase, J. P. Nagar",
        "addr:postcode": "560078",
        "addr:street": "24th Main Road",
        "beauty": "spa;massage",
        "name": "Siyara Spa in JP Nagar",
        "opening_hours": "Mo-Su 10:00-21:00",
        "operator": "Mr. Ajith",
        "phone": "09148112300",
        "shop": "beauty",
        "website": "https://siyaraspa.in/"
      }
    },
    {
      "type": "node",
      "id": 12609542987,
      "lat": 12.9057047,
      "lon": 77.5831816,
      "tags": {
        "amenity": "cafe",
        "check_date": "2025-02-22",
        "name": "Iris Cafe and Kitchen"
      }
    },
    {
      "type": "node",
      "id": 12609959246,
      "lat": 12.9104282,
      "lon": 77.5910714,
      "tags": {
        "amenity": "fast_food",
        "check_date": "2025-02-22",
        "name": "Trot - The Republic of Taste"
      }
    },
    {
      "type": "node",
      "id": 12828276462,
      "lat": 12.9061539,
      "lon": 77.5802618,
      "tags": {
        "check_date": "2023-11-01",
        "shop": "electronics"
      }
    },
    {
      "type": "node",
      "id": 12862846461,
      "lat": 12.9020393,
      "lon": 77.5856761,
      "tags": {
        "amenity": "fast_food",
        "cuisine": "burger",
        "delivery": "yes",
        "name": "Easy Bites by Empire",
        "takeaway": "yes"
      }
    },
    {
      "type": "node",
      "id": 12941883828,
      "lat": 12.9103445,
      "lon": 77.5949151,
      "tags": {
        "building": "kiosk",
        "check_date": "2025-06-21",
        "contact:phone": "+91 98863 37871",
        "fixme": "unsure if this is the most appropriate tag",
        "name": "Puncture Star Services",
        "shop": "tyres"
      }
    },
    {
      "type": "node",
      "id": 12941883829,
      "lat": 12.9103658,
      "lon": 77.5946245,
      "tags": {
        "check_date": "2025-06-21",
        "name": "Big Bear Customs",
        "shop": "motorcycle_repair"
      }
    },
    {
      "type": "node",
      "id": 12941883830,
      "lat": 12.910312,
      "lon": 77.5939578,
      "tags": {
        "addr:floor": "0",
        "amenity": "school",
        "check_date": "2025-06-21",
        "level": "0",
        "name": "Community Learning Center"
      }
    },
    {
      "type": "node",
      "id": 12941883831,
      "lat": 12.9103115,
      "lon": 77.5937865,
      "tags": {
        "check_date": "2025-06-21",
        "shop": "butcher"
      }
    },
    {
      "type": "node",
      "id": 12941883832,
      "lat": 12.9103017,
      "lon": 77.5937162,
      "tags": {
        "check_date": "2025-06-21",
        "shop": "motorcycle_repair"
      }
    },
    {
      "type": "node",
      "id": 12941883835,
      "lat": 12.9103547,
      "lon": 77.5925251,
      "tags": {
        "amenity": "pub",
        "check_date": "2025-06-21",
        "name": "Isobar & Pub"
      }
    },
    {
      "type": "node",
      "id": 12941883836,
      "lat": 12.9103585,
      "lon": 77.5923714,
      "tags": {
        "amenity": "events_venue",
        "check_date": "2025-06-21",
        "description": "A/C party hall",
        "name": "JP Palace"
      }
    },
    {
      "type": "node",
      "id": 12941883837,
      "lat": 12.9100981,
      "lon": 77.5921837,
      "tags": {
        "check_date": "2025-06-21",
        "name": "Sri Deep a Retail",
        "shop": "supermarket"
      }
    },
    {
      "type": "node",
      "id": 12941883838,
      "lat": 12.9104027,
      "lon": 77.5919875,
      "tags": {
        "check_date": "2025-06-21",
        "shop": "motorcycle_repair"
      }
    },
    {
      "type": "node",
      "id": 12941883840,
      "lat": 12.9104422,
      "lon": 77.5915328,
      "tags": {
        "brand": "cult.fit",
        "brand:wikidata": "Q121289250",
        "check_date": "2025-06-21",
        "leisure": "fitness_centre",
        "name": "cult.fit"
      }
    },
    {
      "type": "node",
      "id": 12941883841,
      "lat": 12.9104021,
      "lon": 77.5915317,
      "tags": {
        "check_date": "2025-06-21",
        "name": "100 Pipers",
        "shop": "alcohol"
      }
    },
    {
      "type": "node",
      "id": 12941883842,
      "lat": 12.9103984,
      "lon": 77.5914952,
      "tags": {
        "check_date": "2025-06-21",
        "shop": "laundry"
      }
    },
    {
      "type": "node",
      "id": 12941883843,
      "lat": 12.9105092,
      "lon": 77.5911399,
      "tags": {
        "amenity": "prep_school",
        "check_date": "2025-06-21"
      }
    },
    {
      "type": "node",
      "id": 12941883844,
      "lat": 12.9101317,
      "lon": 77.5908631,
      "tags": {
        "amenity": "clinic",
        "check_date": "2025-06-21",
        "healthcare": "clinic",
        "healthcare:speciality": "fertility",
        "name": "Genea"
      }
    },
    {
      "type": "node",
      "id": 12941883845,
      "lat": 12.9104408,
      "lon": 77.5905547,
      "tags": {
        "check_date": "2025-06-21",
        "name": "Mamta Super Bazar",
        "shop": "convenience"
      }
    },
    {
      "type": "node",
      "id": 12941883846,
      "lat": 12.9104467,
      "lon": 77.5904839,
      "tags": {
        "check_date": "2025-06-21",
        "name": "SRK Silks & Sarees",
        "shop": "clothes"
      }
    },
    {
      "type": "node",
      "id": 12941883847,
      "lat": 12.9104874,
      "lon": 77.5903305,
      "tags": {
        "check_date": "2025-06-21",
        "name": "Glow Dry Cleaners",
        "shop": "dry_cleaning"
      }
    },
    {
      "type": "node",
      "id": 12941883848,
      "lat": 12.9104811,
      "lon": 77.5903009,
      "tags": {
        "check_date": "2025-06-21",
        "name": "Premium Optical Studio",
        "shop": "optician"
      }
    },
    {
      "type": "node",
      "id": 12941883849,
      "lat": 12.9104754,
      "lon": 77.5902245,
      "tags": {
        "check_date": "2025-06-21",
        "name": "Sarah Home Decor",
        "shop": "interior_decoration"
      }
    },
    {
      "type": "node",
      "id": 13013588714,
      "lat": 12.906053,
      "lon": 77.5897421,
      "tags": {
        "amenity": "restaurant",
        "name": "Kalpaney"
      }
    },
    {
      "type": "node",
      "id": 13013978949,
      "lat": 12.906051,
      "lon": 77.5825477,
      "tags": {
        "amenity": "restaurant",
        "name": "Tuk Tuk Thai"
      }
    },
    {
      "type": "node",
      "id": 13062869343,
      "lat": 12.9162412,
      "lon": 77.5925774,
      "tags": {
        "amenity": "cafe",
        "brand": "Starbucks",
        "brand:wikidata": "Q37158",
        "cuisine": "coffee_shop",
        "indoor_seating": "yes",
        "name": "Starbucks",
        "official_name": "Starbucks Coffee",
        "outdoor_seating": "no",
        "takeaway": "yes"
      }
    },
    {
      "type": "node",
      "id": 13070296259,
      "lat": 12.9172779,
      "lon": 77.5885297,
      "tags": {
        "access": "yes",
        "amenity": "motorcycle_parking",
        "capacity": "220",
        "fee": "yes",
        "name": "Ragigudda Metro Parking",
        "operator": "BMRCL",
        "parking": "surface"
      }
    },
    {
      "type": "node",
      "id": 13156003407,
      "lat": 12.916322,
      "lon": 77.5899092,
      "tags": {
        "addr:floor": "G",
        "beauty": "nails;cosmetics;skin_care;waxing;hair;hair_removal",
        "check_date": "2025-09-19",
        "level": "0",
        "payment:cash": "yes",
        "payment:upi": "yes",
        "shop": "beauty",
        "wheelchair": "limited"
      }
    },
    {
      "type": "node",
      "id": 13156003426,
      "lat": 12.9125899,
      "lon": 77.5905613,
      "tags": {
        "addr:floor": "G",
        "check_date": "2025-09-19",
        "level": "0",
        "shop": "tailor"
      }
    },
    {
      "type": "node",
      "id": 13158114701,
      "lat": 12.9128491,
      "lon": 77.585578,
      "tags": {
        "addr:floor": "4",
        "air_conditioning": "yes",
        "amenity": "restaurant",
        "bar": "yes",
        "check_date": "2025-09-20",
        "cuisine": "indian;andhra;chinese;chicken;regional",
        "diet:lactose_free": "limited",
        "diet:non-vegetarian": "yes",
        "diet:vegan": "on_demand",
        "diet:vegetarian": "yes",
        "handwashing:soap": "yes",
        "image:menu": "9903160b-e5bd-4a94-a931-9f09cf78cc0a",
        "image:menu:0": "0785e08f-c2c7-47fe-8d91-435d2fb7b7b5",
        "image:menu:1": "92a57144-ecf3-4598-9bf0-3b3163be94f8",
        "image:menu:2": "f626bb09-f056-45cb-b418-c4a40a04df7d",
        "image:menu:3": "ade2fa8a-33c5-4a7b-bb9d-f513db95be04",
        "image:menu:4": "d4d1febe-0f79-4b37-853a-4241c2f9ebbe",
        "image:menu:5": "6308f86a-901e-4333-b58f-77c49ac2640d",
        "indoor_seating": "yes",
        "level": "4",
        "name": "Mayuri",
        "outdoor_seating": "no",
        "payment:cards": "no",
        "payment:cash": "yes",
        "payment:debit_cards": "yes",
        "payment:qr_code": "no",
        "payment:upi": "yes",
        "reservation": "yes",
        "takeaway": "yes",
        "toilets": "yes",
        "toilets:access": "customers",
        "toilets:disposal": "flush",
        "toilets:fee": "no",
        "toilets:handwashing": "yes",
        "toilets:level": "4",
        "wheelchair": "yes",
        "wikimedia_commons": "Category:Mayuri,_JP_Nagar,_Bangalore"
      }
    },
    {
      "type": "node",
      "id": 13164727368,
      "lat": 12.916322,
      "lon": 77.5899092,
      "tags": {
        "addr:floor": "G",
        "beauty": "nails;cosmetics;skin_care;waxing;hair;hair_removal",
        "check_date": "2025-09-19",
        "level": "0",
        "payment:cash": "yes",
        "payment:upi": "yes",
        "shop": "beauty",
        "wheelchair": "limited"
      }
    },
    {
      "type": "node",
      "id": 13164727387,
      "lat": 12.9125899,
      "lon": 77.5905613,
      "tags": {
        "addr:floor": "G",
        "check_date": "2025-09-19",
        "level": "0",
        "shop": "tailor"
      }
    },
    {
      "type": "node",
      "id": 13168786893,
      "lat": 12.9010005,
      "lon": 77.5857148,
      "tags": {
        "amenity": "restaurant",
        "bar": "yes",
        "contact:instagram": "jewel.sizzle",
        "name": "Jewel Sizzle",
        "website": "https://www.jewelsizzle.in/",
        "wheelchair": "no"
      }
    },
    {
      "type": "node",
      "id": 13260788309,
      "lat": 12.9060589,
      "lon": 77.5945085,
      "tags": {
        "amenity": "cafe",
        "check_date": "2025-10-27",
        "name": "Cherry Bean Coffee"
      }
    },
    {
      "type": "way",
      "id": 32258996,
      "center": {
        "lat": 12.9079385,
        "lon": 77.5814156
      },
      "tags": {
        "leisure": "park",
        "name": "Sri SK Nataraj Park"
      }
    },
    {
      "type": "way",
      "id": 32260421,
      "center": {
        "lat": 12.9085681,
        "lon": 77.5925789
      },
      "tags": {
        "amenity": "college",
        "name": "Vasavi Education Trust",
        "name:kn": "ವಾಸವಿ ಶಿಕ್ಷಣ ಸಂಸ್ಥೆ"
      }
    },
    {
      "type": "way",
      "id": 97948550,
      "center": {
        "lat": 12.9089335,
        "lon": 77.5811366
      },
      "tags": {
        "leisure": "pitch",
        "name": "Sarakki Pitch",
        "name:kn": "ಸಾರಕ್ಕಿ ಆಟದ ಮೈದಾನ",
        "sport": "cricket"
      }
    },
    {
      "type": "way",
      "id": 118411722,
      "center": {
        "lat": 12.9110143,
        "lon": 77.5797725
      },
      "tags": {
        "addr:city": "bangalore",
        "addr:district": "Bengaluru Urban",
        "addr:full": "No 21, 9Th Cross, B-78 Jp Nagar",
        "addr:housenumber": "21",
        "addr:postcode": "560078",
        "addr:state": "Karnataka",
        "addr:street": "9th Cross Road, Phase 1, Sarakki Layout, JP Nagar",
        "amenity": "hospital",
        "emergency": "yes",
        "healthcare": "hospital",
        "name": "Rajshekhar Hospital",
        "name:kn": "ರಾಜಶೇಖರ ಆಸ್ಪತ್ರೆ",
        "phone": "080 4252 7555",
        "source": "OpenGovernmentData",
        "website": "https://www.rajshekarhospital.com/"
      }
    },
    {
      "type": "way",
      "id": 118411725,
      "center": {
        "lat": 12.9111132,
        "lon": 77.5816348
      },
      "tags": {
        "amenity": "place_of_worship",
        "name": "Sri Aurobindo Ashram",
        "name:kn": "ಶ್ರೀ ಅರವಿಂದ ಆಶ್ರಾಮ",
        "religion": "hindu"
      }
    },
    {
      "type": "way",
      "id": 133131184,
      "center": {
        "lat": 12.9173236,
        "lon": 77.5855971
      },
      "tags": {
        "amenity": "place_of_worship",
        "building": "yes",
        "name": "Raghavendra Swami Mutt",
        "name:kn": "ರಾಘವೇಂದ್ರ ಸ್ವಾಮಿ ಮಠ",
        "religion": "hindu"
      }
    },
    {
      "type": "way",
      "id": 133134238,
      "center": {
        "lat": 12.9121793,
        "lon": 77.5908618
      },
      "tags": {
        "designation": "Senior Citizens Park",
        "leisure": "park",
        "name": "Senior Citizen Park",
        "name:kn": "ಹಿರಿಯ ನಾಗರಿಕರ ಉದ್ಯಾನ"
      }
    },
    {
      "type": "way",
      "id": 161298656,
      "center": {
        "lat": 12.9082913,
        "lon": 77.5783957
      },
      "tags": {
        "amenity": "school",
        "grades": "0-12",
        "name": "Government Public School",
        "name:kn": "ಸರ್ಕಾರಿ ಶಾಲೆ"
      }
    },
    {
      "type": "way",
      "id": 161520129,
      "center": {
        "lat": 12.9074139,
        "lon": 77.5793532
      },
      "tags": {
        "leisure": "park"
      }
    },
    {
      "type": "way",
      "id": 162258166,
      "center": {
        "lat": 12.9173272,
        "lon": 77.5891568
      },
      "tags": {
        "amenity": "bus_station",
        "building": "roof",
        "bus": "yes",
        "name": "Atal Bihari Vajpayee Bus Stand",
        "name:etymology:wikidata": "Q233289",
        "name:kn": "ಬಸ್ ನಿಲ್ದಾಣ",
        "public_transport": "station"
      }
    },
    {
      "type": "way",
      "id": 164568988,
      "center": {
        "lat": 12.9162738,
        "lon": 77.5923203
      },
      "tags": {
        "addr:housename": "Mantri Junction",
        "building": "retail",
        "check_date": "2023-11-29",
        "name": "Mantri Junction",
        "shop": "mall",
        "toilets": "yes"
      }
    },
    {
      "type": "way",
      "id": 233078450,
      "center": {
        "lat": 12.9060986,
        "lon": 77.5903941
      },
      "tags": {
        "addr:city": "Bengaluru",
        "addr:postcode": "560078",
        "addr:street": "Outer Ring Road",
        "amenity": "restaurant",
        "brand": "California Burrito",
        "brand:wikidata": "Q124374596",
        "check_date": "2023-10-27",
        "cuisine": "mexican",
        "level": "0",
        "name": "California Burrito",
        "operator": "Burrito Restaurants Private Limited",
        "toilets": "yes",
        "toilets:wheelchair": "no",
        "wheelchair": "no"
      }
    },
    {
      "type": "way",
      "id": 259487871,
      "center": {
        "lat": 12.9173301,
        "lon": 77.5851028
      },
      "tags": {
        "addr:city": "Bangalore",
        "addr:district": "Bengaluru Urban",
        "addr:full": "#523, 10th Main,45th Cross, 5th Block, Jayanagar",
        "addr:housename": "523",
        "addr:postcode": "560041",
        "addr:state": "Karnataka",
        "amenity": "hospital",
        "building": "yes",
        "email": "admin@sksh.com",
        "healthcare": "hospital",
        "name": "Shri Krishna Sevashrama Hospital",
        "name:kn": "ಶ್ರೀಕ್ಷೇತ್ರ ಸೇವಾಶ್ರಮ ಆಸ್ಪತ್ರೆ",
        "operator:type": "private",
        "phone": "+918022441631",
        "source": "OpenGovernmentData",
        "website": "http://www.sks-hospital.org/"
      }
    },
    {
      "type": "way",
      "id": 262072817,
      "center": {
        "lat": 12.9052976,
        "lon": 77.5810468
      },
      "tags": {
        "leisure": "park"
      }
    },
    {
      "type": "way",
      "id": 262072818,
      "center": {
        "lat": 12.9050716,
        "lon": 77.5810481
      },
      "tags": {
        "amenity": "place_of_worship",
        "building": "yes",
        "denomination": "Shiva,Ayyappan",
        "religion": "hindu"
      }
    },
    {
      "type": "way",
      "id": 299706900,
      "center": {
        "lat": 12.9155925,
        "lon": 77.5855349
      },
      "tags": {
        "addr:city": "Bangalore",
        "addr:district": "Bengaluru Urban",
        "addr:housenumber": "1107",
        "addr:postcode": "560075",
        "addr:street": "24th Main Rd, TMC Layout, 1st Phase, J. P. Nagar",
        "amenity": "bar",
        "building": "industrial",
        "name": "Mockaholic Restro Beer Cafe"
      }
    },
    {
      "type": "way",
      "id": 330741929,
      "center": {
        "lat": 12.9095495,
        "lon": 77.5805932
      },
      "tags": {
        "amenity": "place_of_worship",
        "name": "Satyanarayana Swami Temple",
        "name:kn": "ಸತ್ಯನಾರಯಣ ಸ್ವಾಮಿ",
        "religion": "hindu"
      }
    },
    {
      "type": "way",
      "id": 332234669,
      "center": {
        "lat": 12.9094412,
        "lon": 77.5805872
      },
      "tags": {
        "amenity": "place_of_worship",
        "building": "yes",
        "name": "Sri Dharmarayaswami Devasthana",
        "name:kn": "ಧರ್ಮರಾಯಸ್ವಾಮಿ ದೇವಸ್ಥಾನ",
        "religion": "hindu"
      }
    },
    {
      "type": "way",
      "id": 334633597,
      "center": {
        "lat": 12.9023029,
        "lon": 77.5825752
      },
      "tags": {
        "addr:city": "Bengaluru",
        "addr:housenumber": "132",
        "addr:postcode": "560078",
        "addr:street": "Puttenahalli Rd, KR Layout, JP Nagar Phase 6, J. P. Nagar",
        "amenity": "place_of_worship",
        "landuse": "religious",
        "name": "Shri Ganesha Devasthana Mattu Saibaba Devasthana",
        "religion": "hindu"
      }
    },
    {
      "type": "way",
      "id": 347177169,
      "center": {
        "lat": 12.9115629,
        "lon": 77.5874941
      },
      "tags": {
        "amenity": "place_of_worship",
        "building": "yes",
        "name": "Sai Gitanjali Seva Kshethra",
        "name:kn": "ಸಾಯಿ ಗೀತಾಂಜಲಿ ಸೇವಾ ಕ್ಷೇತ್ರ",
        "religion": "hindu"
      }
    },
    {
      "type": "way",
      "id": 347236620,
      "center": {
        "lat": 12.9118515,
        "lon": 77.5875409
      },
      "tags": {
        "amenity": "police",
        "building": "yes",
        "name": "JP Nagar Police Station",
        "name:kn": "ಜಯಪ್ರಕಾಶ ನಗರ ಆರಕ್ಷಕ ಟಾಣೆ"
      }
    },
    {
      "type": "way",
      "id": 347567453,
      "center": {
        "lat": 12.9120629,
        "lon": 77.5788308
      },
      "tags": {
        "amenity": "place_of_worship",
        "building": "yes",
        "name": "Masjid-e-Mohammadia",
        "religion": "muslim"
      }
    },
    {
      "type": "way",
      "id": 348097519,
      "center": {
        "lat": 12.91015,
        "lon": 77.5885555
      },
      "tags": {
        "amenity": "place_of_worship",
        "building": "yes",
        "name": "Venkataramanaswamy Temple",
        "name:kn": "ವೆಂಕಟರಮಣಸ್ವಾಮಿ ದೇವಸ್ಥನ",
        "opening_hours": "07:30-21:00",
        "religion": "hindu"
      }
    },
    {
      "type": "way",
      "id": 348137003,
      "center": {
        "lat": 12.9123225,
        "lon": 77.5815246
      },
      "tags": {
        "addr:city": "Bengaluru",
        "addr:postcode": "560078",
        "addr:street": "29th Main Rd, Jeewan Sathi Colony, 1st Phase, J. P. Nagar",
        "amenity": "place_of_worship",
        "building": "yes",
        "name": "Vijaya Vinayaka Temple",
        "religion": "hindu"
      }
    },
    {
      "type": "way",
      "id": 348322680,
      "center": {
        "lat": 12.9059934,
        "lon": 77.5941328
      },
      "tags": {
        "addr:city": "Bengaluru",
        "addr:housenumber": "#14",
        "addr:postcode": "560078",
        "addr:street": "Outer Ring Road, JP Nagar 4th Phase",
        "amenity": "pub",
        "building": "yes",
        "check_date": "2023-10-27",
        "cuisine": "pub",
        "name": "Levels Pub",
        "phone": "+91 9845881144",
        "website": "https://thelevelspub.com/"
      }
    },
    {
      "type": "way",
      "id": 348475515,
      "center": {
        "lat": 12.9127766,
        "lon": 77.5903657
      },
      "tags": {
        "addr:city": "Bengaluru",
        "addr:postcode": "560078",
        "addr:street": "4th Cross",
        "amenity": "place_of_worship",
        "building": "yes",
        "name": "Munneswara Temple",
        "name:kn": "ಮುನ್ನೇಶ್ವರ ದೇವಸ್ಥಾನ",
        "religion": "hindu"
      }
    },
    {
      "type": "way",
      "id": 348498473,
      "center": {
        "lat": 12.9147118,
        "lon": 77.59407
      },
      "tags": {
        "addr:place": "Gurappanapalya",
        "amenity": "school",
        "building": "yes",
        "isced:level": "2",
        "name": "Ragigudda Sri Prasanna Anjaneya Gurappanapalya",
        "name:kn": "ರಾಗಿಗುಡ್ಡ ಶ್ರೀಪ್ರಸನ್ನಆಂಜನೇಯ ಗುರಪ್ಪನಪಾಳ್ಯ",
        "operator": "Pvt. Aided",
        "school": "primary"
      }
    },
    {
      "type": "way",
      "id": 348498733,
      "center": {
        "lat": 12.9108238,
        "lon": 77.5859953
      },
      "tags": {
        "amenity": "place_of_worship",
        "building": "yes",
        "name": "Durga Parameshwari Temple",
        "name:kn": "ದುರ್ಗಾ ಪರಮೇಶ್ವರಿ ದೇವಸ್ತಾನ",
        "religion": "hindu"
      }
    },
    {
      "type": "way",
      "id": 350578129,
      "center": {
        "lat": 12.9118422,
        "lon": 77.5870665
      },
      "tags": {
        "addr:postcode": "560067",
        "amenity": "post_office",
        "building": "yes",
        "name": "JP Nagar Post Office",
        "name:kn": "ಅಂಚೆ ಕಛೇರಿ",
        "operator": "India Post",
        "operator:wikidata": "Q3519720"
      }
    },
    {
      "type": "way",
      "id": 362882074,
      "center": {
        "lat": 12.908586,
        "lon": 77.586709
      },
      "tags": {
        "leisure": "park"
      }
    },
    {
      "type": "way",
      "id": 485869152,
      "center": {
        "lat": 12.9017768,
        "lon": 77.5903273
      },
      "tags": {
        "leisure": "swimming_pool"
      }
    },
    {
      "type": "way",
      "id": 494321761,
      "center": {
        "lat": 12.9057589,
        "lon": 77.5908606
      },
      "tags": {
        "leisure": "park"
      }
    },
    {
      "type": "way",
      "id": 544749518,
      "center": {
        "lat": 12.9130946,
        "lon": 77.59031
      },
      "tags": {
        "leisure": "playground",
        "name": "BBMP Park",
        "name:kn": "ಬೃ. ಬೆ. ಮ. ಪಾ. ಉದ್ಯಾನವನ"
      }
    },
    {
      "type": "way",
      "id": 547652016,
      "center": {
        "lat": 12.9095679,
        "lon": 77.5941468
      },
      "tags": {
        "leisure": "park",
        "name": "BNV Park"
      }
    },
    {
      "type": "way",
      "id": 658687560,
      "center": {
        "lat": 12.9058886,
        "lon": 77.5800176
      },
      "tags": {
        "amenity": "clinic",
        "healthcare": "doctor",
        "healthcare:speciality": "gynaecology",
        "name": "Janani Clinic",
        "operator": "Dr. Radha"
      }
    },
    {
      "type": "way",
      "id": 1080541309,
      "center": {
        "lat": 12.9175596,
        "lon": 77.5896916
      },
      "tags": {
        "amenity": "place_of_worship",
        "religion": "hindu"
      }
    },
    {
      "type": "way",
      "id": 1157395073,
      "center": {
        "lat": 12.9129034,
        "lon": 77.5938603
      },
      "tags": {
        "leisure": "park"
      }
    },
    {
      "type": "way",
      "id": 1157395074,
      "center": {
        "lat": 12.9122543,
        "lon": 77.5928722
      },
      "tags": {
        "leisure": "park"
      }
    },
    {
      "type": "way",
      "id": 1157395075,
      "center": {
        "lat": 12.913857,
        "lon": 77.5925644
      },
      "tags": {
        "addr:city": "Bengaluru",
        "addr:district": "Bengaluru Urban",
        "addr:postcode": "560078",
        "addr:street": "16th A Main Road, KSRTC Layout, 2nd Phase, J. P. Nagar",
        "amenity": "place_of_worship",
        "landuse": "religious",
        "name": "Sri Lakshmi Narayana Temple",
        "religion": "hindu"
      }
    },
    {
      "type": "way",
      "id": 1160442879,
      "center": {
        "lat": 12.9167658,
        "lon": 77.5838493
      },
      "tags": {
        "amenity": "fuel",
        "brand": "Shell",
        "brand:wikidata": "Q110716465",
        "name": "Shell",
        "name:kn": "ಶೆಲ್",
        "operator": "Shell"
      }
    },
    {
      "type": "way",
      "id": 1213812869,
      "center": {
        "lat": 12.9111994,
        "lon": 77.5850613
      },
      "tags": {
        "amenity": "parking"
      }
    },
    {
      "type": "way",
      "id": 1217375996,
      "center": {
        "lat": 12.9157593,
        "lon": 77.5881093
      },
      "tags": {
        "leisure": "park"
      }
    },
    {
      "type": "way",
      "id": 1217375997,
      "center": {
        "lat": 12.9155936,
        "lon": 77.5878253
      },
      "tags": {
        "amenity": "place_of_worship",
        "religion": "hindu"
      }
    },
    {
      "type": "way",
      "id": 1217375998,
      "center": {
        "lat": 12.9162232,
        "lon": 77.5890151
      },
      "tags": {
        "addr:district": "Bengaluru Urban",
        "addr:full": "JP Nagar, Bengaluru",
        "addr:postcode": "560078",
        "addr:state": "Karnataka",
        "amenity": "hospital",
        "healthcare": "hospital",
        "name": "Jnana Sanjeevini",
        "name:kn": "ಜ್ಞಾನ ಸಂಜೀವಿನಿ",
        "source": "Local Knowledge"
      }
    },
    {
      "type": "way",
      "id": 1218777643,
      "center": {
        "lat": 12.9053337,
        "lon": 77.5936977
      },
      "tags": {
        "leisure": "park"
      }
    },
    {
      "type": "way",
      "id": 1218814305,
      "center": {
        "lat": 12.9064453,
        "lon": 77.592557
      },
      "tags": {
        "access": "customers",
        "amenity": "parking"
      }
    },
    {
      "type": "way",
      "id": 1219837013,
      "center": {
        "lat": 12.9109677,
        "lon": 77.5873007
      },
      "tags": {
        "addr:full": "9th Cross, 2nd Phase, J.P.Nagar, Bangalore India 560078",
        "amenity": "school",
        "email": "office@innisfreehouseschool.com",
        "name": "Innisfree House School",
        "phone": "+91 80 2659 7110",
        "school:gender": "mixed",
        "website": "https://innisfreehouseschool.com/",
        "wikidata": "Q15228708",
        "wikipedia": "en:Innisfree House School"
      }
    },
    {
      "type": "way",
      "id": 1219843715,
      "center": {
        "lat": 12.9087795,
        "lon": 77.5859899
      },
      "tags": {
        "amenity": "fuel",
        "brand": "Essar",
        "brand:wikidata": "Q5399372",
        "name": "Essar Fuel"
      }
    },
    {
      "type": "way",
      "id": 1219843728,
      "center": {
        "lat": 12.9147902,
        "lon": 77.5855586
      },
      "tags": {
        "amenity": "fuel",
        "brand": "Indian Oil",
        "brand:wikidata": "Q1289348",
        "name": "Indian Oil",
        "name:kn": "ಇಂಡಿಯನ್ ಆಯಿಲ್"
      }
    },
    {
      "type": "way",
      "id": 1219998589,
      "center": {
        "lat": 12.9093191,
        "lon": 77.5881207
      },
      "tags": {
        "leisure": "park"
      }
    },
    {
      "type": "way",
      "id": 1219998647,
      "center": {
        "lat": 12.9061559,
        "lon": 77.5869576
      },
      "tags": {
        "amenity": "parking",
        "parking": "surface"
      }
    },
    {
      "type": "way",
      "id": 1220009715,
      "center": {
        "lat": 12.9079994,
        "lon": 77.5839556
      },
      "tags": {
        "leisure": "playground"
      }
    },
    {
      "type": "way",
      "id": 1220009721,
      "center": {
        "lat": 12.9079522,
        "lon": 77.5834672
      },
      "tags": {
        "leisure": "park"
      }
    },
    {
      "type": "way",
      "id": 1220009722,
      "center": {
        "lat": 12.9077811,
        "lon": 77.5825095
      },
      "tags": {
        "leisure": "playground"
      }
    },
    {
      "type": "way",
      "id": 1220010689,
      "center": {
        "lat": 12.9088281,
        "lon": 77.5808124
      },
      "tags": {
        "hoops": "2",
        "leisure": "pitch",
        "sport": "basketball"
      }
    },
    {
      "type": "way",
      "id": 1220427740,
      "center": {
        "lat": 12.90674,
        "lon": 77.579297
      },
      "tags": {
        "amenity": "fuel",
        "brand": "Shell",
        "brand:wikidata": "Q110716465",
        "name": "Shell",
        "name:en": "Shell",
        "name:kn": "ಶೆಲ್"
      }
    },
    {
      "type": "way",
      "id": 1265806929,
      "center": {
        "lat": 12.9065829,
        "lon": 77.5943933
      },
      "tags": {
        "amenity": "fuel",
        "brand": "Indian Oil",
        "brand:wikidata": "Q1289348",
        "brand:wikipedia": "en:Indian Oil Corporation",
        "fuel:diesel": "no",
        "name": "Indian Oil Corporation",
        "name:kn": "ಇಂಡಿಯನ್ ಆಯಿಲ್"
      }
    },
    {
      "type": "way",
      "id": 1306880051,
      "center": {
        "lat": 12.9055709,
        "lon": 77.5887259
      },
      "tags": {
        "amenity": "school"
      }
    },
    {
      "type": "way",
      "id": 1361893654,
      "center": {
        "lat": 12.9086262,
        "lon": 77.5785925
      },
      "tags": {
        "amenity": "place_of_worship",
        "landuse": "religious",
        "religion": "hindu"
      }
    },
    {
      "type": "way",
      "id": 1361893659,
      "center": {
        "lat": 12.9037586,
        "lon": 77.5807186
      },
      "tags": {
        "amenity": "theatre",
        "landuse": "commercial",
        "name": "Siddhalingeswara Theatre",
        "name:kn": "ಸಿದ್ದಲಿಂಗೇಶ್ವರ ತಿಯಟರ್"
      }
    },
    {
      "type": "way",
      "id": 1361893660,
      "center": {
        "lat": 12.9038236,
        "lon": 77.5804227
      },
      "tags": {
        "addr:street": "33 Main Road",
        "amenity": "theatre",
        "landuse": "commercial",
        "name": "Siddheswara Theatre",
        "name:kn": "ಸಿದ್ದೇಶ್ವರ"
      }
    },
    {
      "type": "way",
      "id": 1361893709,
      "center": {
        "lat": 12.9052591,
        "lon": 77.5799249
      },
      "tags": {
        "amenity": "school",
        "name": "Frank Public School",
        "name:kn": "ಫ್ರಾಂಕ್ ಪಬ್ಲಿಕ್ ಶಾಲೆ"
      }
    },
    {
      "type": "way",
      "id": 1361929851,
      "center": {
        "lat": 12.9053078,
        "lon": 77.5824875
      },
      "tags": {
        "leisure": "pitch",
        "name": "\\",
        "sport": "tennis"
      }
    },
    {
      "type": "way",
      "id": 1426267777,
      "center": {
        "lat": 12.9141506,
        "lon": 77.5796072
      },
      "tags": {
        "amenity": "place_of_worship",
        "landuse": "religious",
        "religion": "hindu"
      }
    }
  ]
}