{
  "area_name": "K.R Pura",
  "osm_id": 19884602,
  "osm_type": "relation",
  "place_type": "administrative",
  "amenity_count": 26,
  "amenities": [
    {
      "type": "node",
      "id": 2041904659,
      "lat": 13.0082799,
      "lon": 77.6947345,
      "tags": {
        "addr:city": "K.R Puram",
        "amenity": "place_of_worship",
        "name": "Ganesha Temple",
        "name:kn": "ಗಣೇಶ ದೇವಸ್ಥಾನ",
        "religion": "hindu"
      }
    },
    {
      "type": "node",
      "id": 2466603915,
      "lat": 13.0045053,
      "lon": 77.6960311,
      "tags": {
        "amenity": "fuel",
        "brand": "Indian Oil",
        "brand:wikidata": "Q1289348",
        "brand:wikipedia": "en:Indian Oil Corporation",
        "name": "B R Muniyappa Petrol / Gas Station",
        "operator": "Indian Oil"
      }
    },
    {
      "type": "node",
      "id": 4441953724,
      "lat": 13.0083873,
      "lon": 77.6961576,
      "tags": {
        "addr:city": "Bangaluru",
        "addr:housenumber": "528, Bvr Complex",
        "addr:postcode": "560037",
        "addr:street": "Sarjapur Road Bellandur Gate, Bellandur",
        "amenity": "pharmacy",
        "name": "Life Line Medicals & General Stores",
        "phone": "+91-080 4116 9446"
      }
    },
    {
      "type": "node",
      "id": 4445986377,
      "lat": 13.0087504,
      "lon": 77.6939806,
      "tags": {
        "addr:city": "K.R Puram, Bangalore",
        "addr:district": "Bengaluru Urban",
        "addr:full": "No. 107 / 2, Nishvasahaa Centre, Opposite Traffic Police Station Road, Old Madras Road, Krishnaparajapuram",
        "addr:housenumber": "107/2,",
        "addr:postcode": "560036",
        "addr:state": "Karnataka",
        "addr:street": "Old Madras Road",
        "amenity": "hospital",
        "emergency": "yes",
        "name": "Sriram Hospital, Bangalore",
        "phone": "080 2561 0988",
        "source": "OpenGovernmentData"
      }
    },
    {
      "type": "node",
      "id": 4445998037,
      "lat": 13.0110115,
      "lon": 77.6935975,
      "tags": {
        "addr:city": "Bangalore",
        "addr:housenumber": "#301",
        "addr:postcode": "560036",
        "addr:street": "3rd Main Road, Old Extension, Krishnarajapuram, Near Indane Gas",
        "amenity": "hospital",
        "emergency": "yes",
        "name": "K R Puram Super Speciality Hospital",
        "phone": "080 2561 7799",
        "source": "http://www.bangalorean.co.in/",
        "website": "aaxishospitals.com"
      }
    },
    {
      "type": "node",
      "id": 4488064311,
      "lat": 13.0096783,
      "lon": 77.6968069,
      "tags": {
        "addr:city": "Bangaluru",
        "addr:postcode": "500036",
        "addr:street": "No. 1218, Pooja Complex, Old Madras Road, K.R Puram",
        "leisure": "sports_centre",
        "name": "Khadim's",
        "phone": "080 2561 5324"
      }
    },
    {
      "type": "node",
      "id": 4488600552,
      "lat": 13.0118942,
      "lon": 77.6985133,
      "tags": {
        "addr:city": "Bangalore",
        "addr:housenumber": "No 30",
        "addr:postcode": "560036",
        "addr:street": "Old Madras Road",
        "name": "Buy Right Super Store",
        "phone": "(91)-80-33059773",
        "shop": "supermarket"
      }
    },
    {
      "type": "node",
      "id": 4528847591,
      "lat": 13.0120509,
      "lon": 77.6998816,
      "tags": {
        "addr:city": "Bangalore",
        "addr:district": "Bengaluru Urban",
        "addr:full": "#27, Old Madras Road",
        "addr:postcode": "560036",
        "addr:state": "Karnataka",
        "amenity": "hospital",
        "healthcare:speciality": "Gyanecology; Medicine; Maternity; Surgery; Immunisation Facility; Laprascopic Surgery; Endoscopy; Dermatology; Child Health Care; Eye; ENT; OPTHALMOLOGY; Urology; Ultrasound Scan; X- Ray; ECG; Health Check up",
        "name": "Deepa Hospital",
        "operator:type": "private",
        "source": "OpenGovernmentData",
        "website": "http://www.deepahospital.creativotech.com/",
        "wheelchair": "yes"
      }
    },
    {
      "type": "node",
      "id": 4689909389,
      "lat": 13.0085108,
      "lon": 77.6944731,
      "tags": {
        "name": "Yatra Genie",
        "name:en": "Yatra Genie",
        "shop": "travel_agency"
      }
    },
    {
      "type": "node",
      "id": 6464656077,
      "lat": 13.011214,
      "lon": 77.6979598,
      "tags": {
        "addr:city": "Bangalore",
        "addr:postcode": "560036",
        "addr:street": "Sri Thimappa Complex, Old Madras Road, KR Puram, Below Syndicate Bank",
        "amenity": "hospital",
        "emergency": "yes",
        "name": "Patil Hospital",
        "note": "exact location not correct",
        "phone": "080 2561 3891",
        "source": "http://www.bangalorean.co.in/"
      }
    },
    {
      "type": "node",
      "id": 6947662464,
      "lat": 13.0080397,
      "lon": 77.6971089,
      "tags": {
        "addr:district": "Bengaluru Urban",
        "addr:full": "37/, 1st Cross, Devasandra Main Road, K.R.Puram",
        "addr:postcode": "560035",
        "addr:state": "Karnataka",
        "amenity": "hospital",
        "name": "Suresh Hospital, Bengaluru Urban",
        "source": "OpenGovernmentData"
      }
    },
    {
      "type": "node",
      "id": 6947662469,
      "lat": 13.0088071,
      "lon": 77.6948659,
      "tags": {
        "addr:district": "Bengaluru Urban",
        "addr:full": "2 1st Floor, Kr Purav",
        "addr:postcode": "560003",
        "addr:state": "Karnataka",
        "amenity": "hospital",
        "name": "Sri Ram Netralaya and Surgical Centre",
        "source": "OpenGovernmentData"
      }
    },
    {
      "type": "node",
      "id": 6947662474,
      "lat": 13.0090854,
      "lon": 77.6969567,
      "tags": {
        "addr:district": "Bengaluru Urban",
        "addr:full": "No. 42-B1, Below Synicate Bank, Sri Thimmappa Complex, Old Madras Road, Krishnarajapuram",
        "addr:postcode": "560036",
        "addr:state": "Karnataka",
        "amenity": "hospital",
        "name": "Patil Hospital, Bengaluru Urban",
        "source": "OpenGovernmentData"
      }
    },
    {
      "type": "node",
      "id": 7572131815,
      "lat": 13.010692,
      "lon": 77.6969366,
      "tags": {
        "addr:district": "Bengaluru Urban",
        "addr:full": "Ayyappa Nagar, Krishnarajapura, Bengaluru",
        "addr:postcode": "560036",
        "addr:state": "Karnataka",
        "amenity": "clinic",
        "name": "Sri Ragavendra Homeo Clinic",
        "source": "Local Knowledge"
      }
    },
    {
      "type": "node",
      "id": 7572131818,
      "lat": 13.0082031,
      "lon": 77.697197,
      "tags": {
        "addr:district": "Bengaluru Urban",
        "addr:full": "Devasandra Main Road, Krishnarajapura, Bengaluru",
        "addr:postcode": "560036",
        "addr:state": "Karnataka",
        "amenity": "hospital",
        "name": "R R Hospital",
        "source": "Local Knowledge"
      }
    },
    {
      "type": "node",
      "id": 7572131820,
      "lat": 13.0128275,
      "lon": 77.6990436,
      "tags": {
        "addr:district": "Bengaluru Urban",
        "addr:full": "Krishnarajapura, Bengaluru",
        "addr:postcode": "560036",
        "addr:state": "Karnataka",
        "amenity": "clinic",
        "name": "Indianova Heart Centre",
        "source": "Local Knowledge"
      }
    },
    {
      "type": "node",
      "id": 7572131838,
      "lat": 13.0119196,
      "lon": 77.6972899,
      "tags": {
        "addr:district": "Bengaluru Urban",
        "addr:full": "Krishnarajapuram, Bengaluru",
        "addr:postcode": "560036",
        "addr:state": "Karnataka",
        "amenity": "dentist",
        "name": "Speciality Dental Clinic",
        "source": "Local Knowledge"
      }
    },
    {
      "type": "node",
      "id": 7572131839,
      "lat": 13.012492,
      "lon": 77.697752,
      "tags": {
        "addr:district": "Bengaluru Urban",
        "addr:full": "Vasavi Mahal Road, V B Layout Extension, Krishnarajapura, Bengaluru",
        "addr:postcode": "560036",
        "addr:state": "Karnataka",
        "amenity": "clinic",
        "name": "Shyam ENT clinic",
        "source": "Local Knowledge"
      }
    },
    {
      "type": "node",
      "id": 7572131840,
      "lat": 13.0100916,
      "lon": 77.6970612,
      "tags": {
        "addr:district": "Bengaluru Urban",
        "addr:full": "Krishnarajapura, Bengaluru",
        "addr:postcode": "560036",
        "addr:state": "Karnataka",
        "amenity": "clinic",
        "name": "Bhavani Skin & Cosmetology Clinic",
        "source": "Local Knowledge"
      }
    },
    {
      "type": "node",
      "id": 7572131905,
      "lat": 13.0106539,
      "lon": 77.6969464,
      "tags": {
        "addr:district": "Bengaluru Urban",
        "addr:full": "V B Layout, Krishnarajapura, Bengaluru",
        "addr:postcode": "560036",
        "addr:state": "Karnataka",
        "amenity": "hospital",
        "name": "Sad Bydya Shala Ayurvedic Hospital",
        "source": "Local Knowledge"
      }
    },
    {
      "type": "node",
      "id": 7572131909,
      "lat": 13.011115,
      "lon": 77.697361,
      "tags": {
        "addr:district": "Bengaluru Urban",
        "addr:full": "Krishnarajapura, Bengaluru",
        "addr:postcode": "560036",
        "addr:state": "Karnataka",
        "amenity": "hospital",
        "name": "Sri Lakshmi Super Speciality Hospital",
        "source": "Local Knowledge"
      }
    },
    {
      "type": "node",
      "id": 7572131938,
      "lat": 13.0078685,
      "lon": 77.6964983,
      "tags": {
        "addr:district": "Bengaluru Urban",
        "addr:full": "Devasandra, Krishnarajapura, Bengaluru",
        "addr:postcode": "560036",
        "addr:state": "Karnataka",
        "amenity": "clinic",
        "name": "Maithri Nursing Maternity Home",
        "source": "Local Knowledge"
      }
    },
    {
      "type": "way",
      "id": 239758722,
      "center": {
        "lat": 13.0076873,
        "lon": 77.695047
      },
      "tags": {
        "addr:city": "Devasandra, K.R Puram",
        "amenity": "marketplace",
        "landuse": "retail",
        "name": "KR Puram Vegetable Market"
      }
    },
    {
      "type": "way",
      "id": 997867402,
      "center": {
        "lat": 13.0087574,
        "lon": 77.6932934
      },
      "tags": {
        "addr:city": "Bangalore",
        "addr:postcode": "560036",
        "addr:street": "New Police Station Road",
        "amenity": "police",
        "name": "KR Puram Police Station",
        "name:kn": "ಆರಕ್ಷಕ ಠಾಣೆ"
      }
    },
    {
      "type": "way",
      "id": 1410389597,
      "center": {
        "lat": 13.0142399,
        "lon": 77.6985279
      },
      "tags": {
        "amenity": "college",
        "name": "Government First Grade College, KR Puram"
      }
    },
    {
      "type": "way",
      "id": 1443406415,
      "center": {
        "lat": 13.0078716,
        "lon": 77.6938172
      },
      "tags": {
        "addr:city": "K.R Puram, Bangalore",
        "addr:street": "Old Madras Road",
        "amenity": "police",
        "name": "KR Puram Traffic Police Station"
      }
    }
  ]
}