{
  "area_name": "Kadugodi Colony",
  "osm_id": 1497218663,
  "osm_type": "node",
  "place_type": "neighbourhood",
  "amenity_count": 202,
  "amenities": [
    {
      "type": "node",
      "id": 1262057184,
      "lat": 12.9838028,
      "lon": 77.7489996,
      "tags": {
        "amenity": "kindergarten",
        "name": "Apple Kids"
      }
    },
    {
      "type": "node",
      "id": 1497217077,
      "lat": 12.995384,
      "lon": 77.7574684,
      "tags": {
        "amenity": "police",
        "name": "Kadugodi Police Station",
        "name:kn": "ಕಾಡುಗೋಡಿ ಆರಕ್ಷಕ ಟಾಣೆ"
      }
    },
    {
      "type": "node",
      "id": 2876319736,
      "lat": 12.9835135,
      "lon": 77.7520657,
      "tags": {
        "addr:city": "Bangalore",
        "addr:housename": "Arya Hub",
        "addr:postcode": "560068",
        "addr:street": "Whitefield Main Road",
        "air_conditioning": "yes",
        "alt_name": "A2B",
        "amenity": "restaurant",
        "brand": "Adyar Ananda Bhavan",
        "brand:wikidata": "Q15178238",
        "check_date": "2025-08-26",
        "cuisine": "regional",
        "diet:vegetarian": "only",
        "indoor_seating": "yes",
        "name": "Adyar Ananda Bhavan",
        "name:kn": "ಆದ್ಯಾರ್ ಆನಂದ ಭವನ",
        "operator": "Adyar Ananda Bhavan",
        "outdoor_seating": "no",
        "phone": "+91 44 42333333",
        "smoking": "no",
        "website": "https://aabsweets.com"
      }
    },
    {
      "type": "node",
      "id": 4445163720,
      "lat": 12.9977711,
      "lon": 77.7548105,
      "tags": {
        "addr:city": "Bangalore",
        "addr:housenumber": "817/744",
        "addr:postcode": "560067,",
        "addr:street": "Kk White Castle Apartment, Vijaya Lakshmi Colony, Kumbena Agaraha Main Rd, Kadugodi",
        "amenity": "hospital",
        "name": "Sky Diagnostic Centre kumbena agrahara",
        "phone": "08033051529"
      }
    },
    {
      "type": "node",
      "id": 9965888792,
      "lat": 12.983415,
      "lon": 77.752032,
      "tags": {
        "addr:housename": "Arya Hub",
        "addr:street": "Whitefield Main Road",
        "check_date": "2025-08-02",
        "level": "0",
        "name": "Punlu Sports",
        "shop": "sports"
      }
    },
    {
      "type": "node",
      "id": 10281069567,
      "lat": 12.9845957,
      "lon": 77.7491648,
      "tags": {
        "amenity": "restaurant",
        "check_date": "2025-07-25",
        "cuisine": "arab;indian",
        "indoor_seating": "yes",
        "level": "0",
        "name": "Orbis Restaurant",
        "operator": "Orbis",
        "outdoor_seating": "no",
        "takeaway": "yes",
        "wheelchair": "yes"
      }
    },
    {
      "type": "node",
      "id": 10281069570,
      "lat": 12.9843662,
      "lon": 77.7498873,
      "tags": {
        "addr:housename": "Pearl Grand Tower",
        "addr:street": "Whitefield Road",
        "amenity": "restaurant",
        "check_date": "2025-07-25",
        "cuisine": "indian",
        "indoor_seating": "yes",
        "internet_access": "no",
        "level": "0",
        "name": "Thalassery Restaurant",
        "outdoor_seating": "no",
        "takeaway": "yes",
        "toilets": "yes",
        "toilets:access": "permissive",
        "wheelchair": "limited"
      }
    },
    {
      "type": "node",
      "id": 10695073022,
      "lat": 12.9843198,
      "lon": 77.7492539,
      "tags": {
        "amenity": "kindergarten",
        "name": "Ani Bee"
      }
    },
    {
      "type": "node",
      "id": 10695073023,
      "lat": 12.9841434,
      "lon": 77.7490802,
      "tags": {
        "amenity": "restaurant",
        "name": "Sri Balaji Restaurant"
      }
    },
    {
      "type": "node",
      "id": 10695073024,
      "lat": 12.9842256,
      "lon": 77.7491072,
      "tags": {
        "male": "yes",
        "name": "New Mirage Salon",
        "shop": "hairdresser"
      }
    },
    {
      "type": "node",
      "id": 10695073025,
      "lat": 12.9861258,
      "lon": 77.7450403,
      "tags": {
        "amenity": "atm",
        "brand": "IDBI Bank",
        "brand:wikidata": "Q3633485",
        "check_date": "2025-07-03",
        "operator": "IDBI Bank",
        "operator:wikidata": "Q3633485",
        "short_name": "IDBI"
      }
    },
    {
      "type": "node",
      "id": 11028341135,
      "lat": 12.9846095,
      "lon": 77.7490486,
      "tags": {
        "amenity": "veterinary",
        "check_date": "2025-07-25",
        "name": "Dr. Santa Animal Health Care"
      }
    },
    {
      "type": "node",
      "id": 11197292313,
      "lat": 12.9846314,
      "lon": 77.7517785,
      "tags": {
        "amenity": "parking_entrance",
        "parking": "underground"
      }
    },
    {
      "type": "node",
      "id": 12135160549,
      "lat": 12.9957425,
      "lon": 77.7578469,
      "tags": {
        "access": "customers",
        "amenity": "drinking_water",
        "indoor": "yes",
        "level": "1",
        "operator": "BMRCL"
      }
    },
    {
      "type": "node",
      "id": 12135160550,
      "lat": 12.9954341,
      "lon": 77.7577583,
      "tags": {
        "access": "customers",
        "amenity": "toilets",
        "fee": "no",
        "level": "1",
        "male": "yes",
        "operator": "BMRCL"
      }
    },
    {
      "type": "node",
      "id": 12135160551,
      "lat": 12.9958157,
      "lon": 77.757871,
      "tags": {
        "access": "customers",
        "amenity": "toilets",
        "fee": "no",
        "female": "yes",
        "level": "1",
        "operator": "BMRCL"
      }
    },
    {
      "type": "node",
      "id": 12135160553,
      "lat": 12.995834,
      "lon": 77.7576041,
      "tags": {
        "amenity": "veterinary",
        "name": "Veterinary Dispensary"
      }
    },
    {
      "type": "node",
      "id": 12231652223,
      "lat": 12.9860865,
      "lon": 77.746705,
      "tags": {
        "amenity": "bench",
        "armrest": "no",
        "backrest": "no",
        "material": "stone"
      }
    },
    {
      "type": "node",
      "id": 12231652224,
      "lat": 12.9860932,
      "lon": 77.7466835,
      "tags": {
        "amenity": "waste_basket"
      }
    },
    {
      "type": "node",
      "id": 12232459990,
      "lat": 12.9859601,
      "lon": 77.7466685,
      "tags": {
        "amenity": "motorcycle_parking",
        "covered": "yes",
        "fee": "yes"
      }
    },
    {
      "type": "node",
      "id": 12232459994,
      "lat": 12.986719,
      "lon": 77.7447523,
      "tags": {
        "shop": "ticket"
      }
    },
    {
      "type": "node",
      "id": 12260570017,
      "lat": 12.9928925,
      "lon": 77.7530873,
      "tags": {
        "amenity": "restaurant",
        "cuisine": "seafood",
        "name": "Seven Seas Seafood Restaurant",
        "website": "https://sevenseasfood.in/"
      }
    },
    {
      "type": "node",
      "id": 12300985823,
      "lat": 12.9867471,
      "lon": 77.7447863,
      "tags": {
        "amenity": "waste_basket"
      }
    },
    {
      "type": "node",
      "id": 12300985824,
      "lat": 12.9871038,
      "lon": 77.7450101,
      "tags": {
        "amenity": "bench",
        "armrest": "no",
        "backrest": "yes",
        "material": "stone"
      }
    },
    {
      "type": "node",
      "id": 12300985825,
      "lat": 12.9874219,
      "lon": 77.7448373,
      "tags": {
        "amenity": "waste_basket"
      }
    },
    {
      "type": "node",
      "id": 12300985826,
      "lat": 12.9874324,
      "lon": 77.7449245,
      "tags": {
        "amenity": "bench",
        "armrest": "no",
        "backrest": "no",
        "material": "stone"
      }
    },
    {
      "type": "node",
      "id": 12301096033,
      "lat": 12.9877243,
      "lon": 77.7458948,
      "tags": {
        "amenity": "bench",
        "armrest": "no",
        "backrest": "yes",
        "material": "stone"
      }
    },
    {
      "type": "node",
      "id": 12301096034,
      "lat": 12.9879645,
      "lon": 77.7450803,
      "tags": {
        "amenity": "bench",
        "armrest": "no",
        "backrest": "no",
        "material": "stone"
      }
    },
    {
      "type": "node",
      "id": 12301096035,
      "lat": 12.9882532,
      "lon": 77.744915,
      "tags": {
        "amenity": "waste_basket"
      }
    },
    {
      "type": "node",
      "id": 12301096036,
      "lat": 12.9883661,
      "lon": 77.7449096,
      "tags": {
        "amenity": "bench",
        "armrest": "no",
        "backrest": "no",
        "material": "stone"
      }
    },
    {
      "type": "node",
      "id": 12301096037,
      "lat": 12.9885482,
      "lon": 77.7453686,
      "tags": {
        "amenity": "bench",
        "armrest": "no",
        "backrest": "yes",
        "material": "stone"
      }
    },
    {
      "type": "node",
      "id": 12301096038,
      "lat": 12.9885235,
      "lon": 77.7454179,
      "tags": {
        "amenity": "waste_basket"
      }
    },
    {
      "type": "node",
      "id": 12301096039,
      "lat": 12.9885274,
      "lon": 77.7455383,
      "tags": {
        "amenity": "bench",
        "armrest": "no",
        "backrest": "no",
        "material": "stone"
      }
    },
    {
      "type": "node",
      "id": 12301096040,
      "lat": 12.9885833,
      "lon": 77.7457059,
      "tags": {
        "amenity": "bench",
        "armrest": "no",
        "backrest": "no",
        "material": "stone"
      }
    },
    {
      "type": "node",
      "id": 12301096041,
      "lat": 12.988571,
      "lon": 77.7457396,
      "tags": {
        "amenity": "waste_basket"
      }
    },
    {
      "type": "node",
      "id": 12301096042,
      "lat": 12.9885751,
      "lon": 77.7459579,
      "tags": {
        "amenity": "bench",
        "armrest": "no",
        "backrest": "yes",
        "material": "stone"
      }
    },
    {
      "type": "node",
      "id": 12301096043,
      "lat": 12.988559,
      "lon": 77.7463712,
      "tags": {
        "amenity": "waste_basket"
      }
    },
    {
      "type": "node",
      "id": 12301096044,
      "lat": 12.9885594,
      "lon": 77.7464282,
      "tags": {
        "amenity": "bench",
        "armrest": "no",
        "backrest": "no",
        "material": "stone"
      }
    },
    {
      "type": "node",
      "id": 12301096045,
      "lat": 12.988558,
      "lon": 77.7464638,
      "tags": {
        "amenity": "bench",
        "armrest": "no",
        "backrest": "yes",
        "material": "stone"
      }
    },
    {
      "type": "node",
      "id": 12301096046,
      "lat": 12.988326,
      "lon": 77.7463677,
      "tags": {
        "amenity": "waste_basket"
      }
    },
    {
      "type": "node",
      "id": 12301096047,
      "lat": 12.9882632,
      "lon": 77.7463606,
      "tags": {
        "amenity": "bench",
        "armrest": "no",
        "backrest": "yes",
        "material": "stone"
      }
    },
    {
      "type": "node",
      "id": 12301096048,
      "lat": 12.9880925,
      "lon": 77.7463754,
      "tags": {
        "amenity": "bench",
        "armrest": "no",
        "backrest": "yes",
        "material": "stone"
      }
    },
    {
      "type": "node",
      "id": 12301096049,
      "lat": 12.9876486,
      "lon": 77.7462077,
      "tags": {
        "amenity": "bench",
        "armrest": "no",
        "backrest": "yes",
        "material": "stone"
      }
    },
    {
      "type": "node",
      "id": 12301096050,
      "lat": 12.9875473,
      "lon": 77.7461837,
      "tags": {
        "amenity": "bench",
        "armrest": "no",
        "backrest": "yes",
        "material": "stone"
      }
    },
    {
      "type": "node",
      "id": 12301096051,
      "lat": 12.9874587,
      "lon": 77.7461581,
      "tags": {
        "amenity": "bench",
        "armrest": "no",
        "backrest": "yes",
        "material": "stone"
      }
    },
    {
      "type": "node",
      "id": 12301096052,
      "lat": 12.9873577,
      "lon": 77.7461332,
      "tags": {
        "amenity": "bench",
        "armrest": "no",
        "backrest": "yes",
        "material": "stone"
      }
    },
    {
      "type": "node",
      "id": 12301096053,
      "lat": 12.9876547,
      "lon": 77.7461854,
      "tags": {
        "amenity": "waste_basket"
      }
    },
    {
      "type": "node",
      "id": 12301096054,
      "lat": 12.9875385,
      "lon": 77.7461558,
      "tags": {
        "amenity": "waste_basket"
      }
    },
    {
      "type": "node",
      "id": 12301096055,
      "lat": 12.9877054,
      "lon": 77.7459603,
      "tags": {
        "amenity": "waste_basket"
      }
    },
    {
      "type": "node",
      "id": 12301096056,
      "lat": 12.9876183,
      "lon": 77.745951,
      "tags": {
        "amenity": "waste_basket"
      }
    },
    {
      "type": "node",
      "id": 12301096057,
      "lat": 12.9876016,
      "lon": 77.7459201,
      "tags": {
        "amenity": "bench",
        "armrest": "no",
        "backrest": "yes",
        "material": "stone"
      }
    },
    {
      "type": "node",
      "id": 12301096058,
      "lat": 12.9876561,
      "lon": 77.7459328,
      "tags": {
        "amenity": "bench",
        "armrest": "no",
        "backrest": "yes",
        "material": "stone"
      }
    },
    {
      "type": "node",
      "id": 12301096059,
      "lat": 12.9877124,
      "lon": 77.7459408,
      "tags": {
        "amenity": "bench",
        "armrest": "no",
        "backrest": "yes",
        "material": "stone"
      }
    },
    {
      "type": "node",
      "id": 12301096060,
      "lat": 12.9876186,
      "lon": 77.7458663,
      "tags": {
        "amenity": "bench",
        "armrest": "no",
        "backrest": "yes",
        "material": "stone"
      }
    },
    {
      "type": "node",
      "id": 12301096061,
      "lat": 12.9876707,
      "lon": 77.7458825,
      "tags": {
        "amenity": "bench",
        "armrest": "no",
        "backrest": "yes",
        "material": "stone"
      }
    },
    {
      "type": "node",
      "id": 12301096062,
      "lat": 12.9879768,
      "lon": 77.7449957,
      "tags": {
        "amenity": "waste_basket"
      }
    },
    {
      "type": "node",
      "id": 12301096063,
      "lat": 12.9876021,
      "lon": 77.7458739,
      "tags": {
        "amenity": "waste_basket"
      }
    },
    {
      "type": "node",
      "id": 12301096064,
      "lat": 12.9875813,
      "lon": 77.7458518,
      "tags": {
        "amenity": "bench",
        "armrest": "no",
        "backrest": "yes",
        "material": "stone"
      }
    },
    {
      "type": "node",
      "id": 12301096065,
      "lat": 12.9875139,
      "lon": 77.7458323,
      "tags": {
        "amenity": "bench",
        "armrest": "no",
        "backrest": "yes",
        "material": "stone"
      }
    },
    {
      "type": "node",
      "id": 12301096066,
      "lat": 12.9874408,
      "lon": 77.7458162,
      "tags": {
        "amenity": "bench",
        "armrest": "no",
        "backrest": "yes",
        "material": "stone"
      }
    },
    {
      "type": "node",
      "id": 12301096067,
      "lat": 12.9874316,
      "lon": 77.7458309,
      "tags": {
        "amenity": "waste_basket"
      }
    },
    {
      "type": "node",
      "id": 12301096068,
      "lat": 12.9874129,
      "lon": 77.7458757,
      "tags": {
        "amenity": "bench",
        "armrest": "no",
        "backrest": "yes",
        "material": "stone"
      }
    },
    {
      "type": "node",
      "id": 12301096069,
      "lat": 12.9873074,
      "lon": 77.7458452,
      "tags": {
        "amenity": "bench",
        "armrest": "no",
        "backrest": "yes",
        "material": "stone"
      }
    },
    {
      "type": "node",
      "id": 12301096070,
      "lat": 12.9873417,
      "lon": 77.7459358,
      "tags": {
        "amenity": "bench",
        "armrest": "no",
        "backrest": "yes",
        "material": "stone"
      }
    },
    {
      "type": "node",
      "id": 12301096071,
      "lat": 12.9873605,
      "lon": 77.7461039,
      "tags": {
        "amenity": "waste_basket"
      }
    },
    {
      "type": "node",
      "id": 12301096072,
      "lat": 12.9878049,
      "lon": 77.7455693,
      "tags": {
        "amenity": "waste_basket"
      }
    },
    {
      "type": "node",
      "id": 12301096073,
      "lat": 12.9878562,
      "lon": 77.7455745,
      "tags": {
        "amenity": "bench",
        "armrest": "no",
        "backrest": "no",
        "material": "stone"
      }
    },
    {
      "type": "node",
      "id": 12301096074,
      "lat": 12.987695,
      "lon": 77.746423,
      "tags": {
        "amenity": "bench",
        "armrest": "no",
        "backrest": "yes",
        "material": "stone"
      }
    },
    {
      "type": "node",
      "id": 12301096075,
      "lat": 12.9876224,
      "lon": 77.7467761,
      "tags": {
        "amenity": "waste_basket"
      }
    },
    {
      "type": "node",
      "id": 12301096076,
      "lat": 12.9876073,
      "lon": 77.7468515,
      "tags": {
        "amenity": "bench",
        "armrest": "no",
        "backrest": "yes",
        "material": "stone"
      }
    },
    {
      "type": "node",
      "id": 12301096077,
      "lat": 12.9875238,
      "lon": 77.7469566,
      "tags": {
        "amenity": "waste_basket"
      }
    },
    {
      "type": "node",
      "id": 12301096078,
      "lat": 12.9875212,
      "lon": 77.7469942,
      "tags": {
        "amenity": "bench",
        "armrest": "no",
        "backrest": "no",
        "material": "stone"
      }
    },
    {
      "type": "node",
      "id": 12301096079,
      "lat": 12.9874403,
      "lon": 77.7477225,
      "tags": {
        "amenity": "bench",
        "armrest": "no",
        "backrest": "no",
        "material": "stone"
      }
    },
    {
      "type": "node",
      "id": 12301096080,
      "lat": 12.9874594,
      "lon": 77.7477234,
      "tags": {
        "amenity": "waste_basket"
      }
    },
    {
      "type": "node",
      "id": 12301096081,
      "lat": 12.987798,
      "lon": 77.7477915,
      "tags": {
        "amenity": "bench",
        "armrest": "no",
        "backrest": "yes",
        "material": "stone"
      }
    },
    {
      "type": "node",
      "id": 12301096082,
      "lat": 12.987826,
      "lon": 77.7477949,
      "tags": {
        "amenity": "waste_basket"
      }
    },
    {
      "type": "node",
      "id": 12301096083,
      "lat": 12.9884795,
      "lon": 77.7478656,
      "tags": {
        "amenity": "waste_basket"
      }
    },
    {
      "type": "node",
      "id": 12301096084,
      "lat": 12.9884957,
      "lon": 77.7478041,
      "tags": {
        "amenity": "bench",
        "armrest": "no",
        "backrest": "no",
        "material": "stone"
      }
    },
    {
      "type": "node",
      "id": 12301096085,
      "lat": 12.9884558,
      "lon": 77.7477927,
      "tags": {
        "amenity": "bench",
        "armrest": "no",
        "backrest": "yes",
        "material": "stone"
      }
    },
    {
      "type": "node",
      "id": 12301096086,
      "lat": 12.988462,
      "lon": 77.7471886,
      "tags": {
        "amenity": "bench",
        "armrest": "no",
        "backrest": "no",
        "material": "stone"
      }
    },
    {
      "type": "node",
      "id": 12301096087,
      "lat": 12.9885343,
      "lon": 77.7468388,
      "tags": {
        "amenity": "waste_basket"
      }
    },
    {
      "type": "node",
      "id": 12301096088,
      "lat": 12.9884615,
      "lon": 77.7468597,
      "tags": {
        "amenity": "bench",
        "armrest": "no",
        "backrest": "yes",
        "material": "stone"
      }
    },
    {
      "type": "node",
      "id": 12301096089,
      "lat": 12.9869294,
      "lon": 77.7459713,
      "tags": {
        "amenity": "bench",
        "armrest": "no",
        "backrest": "yes",
        "material": "stone"
      }
    },
    {
      "type": "node",
      "id": 12301096090,
      "lat": 12.9867857,
      "lon": 77.7445116,
      "tags": {
        "amenity": "bench",
        "armrest": "no",
        "backrest": "no",
        "material": "stone"
      }
    },
    {
      "type": "node",
      "id": 12301096091,
      "lat": 12.9869466,
      "lon": 77.7459164,
      "tags": {
        "amenity": "bench",
        "armrest": "no",
        "backrest": "yes",
        "material": "stone"
      }
    },
    {
      "type": "node",
      "id": 12301096092,
      "lat": 12.9867646,
      "lon": 77.7460101,
      "tags": {
        "amenity": "waste_basket"
      }
    },
    {
      "type": "node",
      "id": 12301096093,
      "lat": 12.9869318,
      "lon": 77.745696,
      "tags": {
        "amenity": "waste_basket"
      }
    },
    {
      "type": "node",
      "id": 12301096094,
      "lat": 12.9869252,
      "lon": 77.7456421,
      "tags": {
        "amenity": "bench",
        "armrest": "no",
        "backrest": "yes",
        "material": "stone"
      }
    },
    {
      "type": "node",
      "id": 12301096095,
      "lat": 12.9869271,
      "lon": 77.7453762,
      "tags": {
        "amenity": "waste_basket"
      }
    },
    {
      "type": "node",
      "id": 12301096096,
      "lat": 12.986938,
      "lon": 77.745337,
      "tags": {
        "amenity": "bench",
        "armrest": "no",
        "backrest": "no",
        "material": "stone"
      }
    },
    {
      "type": "node",
      "id": 12301096097,
      "lat": 12.9865888,
      "lon": 77.7459078,
      "tags": {
        "amenity": "bench",
        "armrest": "no",
        "backrest": "yes",
        "material": "stone"
      }
    },
    {
      "type": "node",
      "id": 12301096098,
      "lat": 12.986421,
      "lon": 77.7458657,
      "tags": {
        "amenity": "bench",
        "armrest": "no",
        "backrest": "yes",
        "material": "stone"
      }
    },
    {
      "type": "node",
      "id": 12301096099,
      "lat": 12.986314,
      "lon": 77.7458263,
      "tags": {
        "amenity": "waste_basket"
      }
    },
    {
      "type": "node",
      "id": 12301096100,
      "lat": 12.9862959,
      "lon": 77.7458618,
      "tags": {
        "amenity": "bench",
        "armrest": "no",
        "backrest": "no",
        "material": "stone"
      }
    },
    {
      "type": "node",
      "id": 12301097801,
      "lat": 12.9859088,
      "lon": 77.7473989,
      "tags": {
        "amenity": "bench",
        "armrest": "no",
        "backrest": "no",
        "material": "stone"
      }
    },
    {
      "type": "node",
      "id": 12301097802,
      "lat": 12.9858849,
      "lon": 77.7474368,
      "tags": {
        "amenity": "waste_basket"
      }
    },
    {
      "type": "node",
      "id": 12301097803,
      "lat": 12.9862681,
      "lon": 77.7474595,
      "tags": {
        "amenity": "bench",
        "armrest": "no",
        "backrest": "yes",
        "material": "stone"
      }
    },
    {
      "type": "node",
      "id": 12301097804,
      "lat": 12.9863171,
      "lon": 77.7474767,
      "tags": {
        "amenity": "waste_basket"
      }
    },
    {
      "type": "node",
      "id": 12301097805,
      "lat": 12.9864289,
      "lon": 77.7475378,
      "tags": {
        "amenity": "bench",
        "armrest": "no",
        "backrest": "no",
        "material": "stone"
      }
    },
    {
      "type": "node",
      "id": 12301097806,
      "lat": 12.9864448,
      "lon": 77.7475372,
      "tags": {
        "amenity": "waste_basket"
      }
    },
    {
      "type": "node",
      "id": 12301097807,
      "lat": 12.9869524,
      "lon": 77.7476353,
      "tags": {
        "amenity": "waste_basket"
      }
    },
    {
      "type": "node",
      "id": 12301097808,
      "lat": 12.9869609,
      "lon": 77.7476,
      "tags": {
        "amenity": "bench",
        "armrest": "no",
        "backrest": "yes",
        "material": "stone"
      }
    },
    {
      "type": "node",
      "id": 12301097809,
      "lat": 12.9865904,
      "lon": 77.7467969,
      "tags": {
        "amenity": "bench",
        "armrest": "no",
        "backrest": "no",
        "material": "stone"
      }
    },
    {
      "type": "node",
      "id": 12301097810,
      "lat": 12.9867436,
      "lon": 77.7464698,
      "tags": {
        "amenity": "bench",
        "armrest": "no",
        "backrest": "yes",
        "material": "stone"
      }
    },
    {
      "type": "node",
      "id": 12301097811,
      "lat": 12.9867193,
      "lon": 77.7465407,
      "tags": {
        "amenity": "waste_basket"
      }
    },
    {
      "type": "node",
      "id": 12301097812,
      "lat": 12.9865297,
      "lon": 77.7453233,
      "tags": {
        "amenity": "waste_basket"
      }
    },
    {
      "type": "node",
      "id": 12301097813,
      "lat": 12.9865073,
      "lon": 77.7451468,
      "tags": {
        "amenity": "bench",
        "armrest": "no",
        "backrest": "yes",
        "material": "stone"
      }
    },
    {
      "type": "node",
      "id": 12301097814,
      "lat": 12.9866343,
      "lon": 77.7448091,
      "tags": {
        "amenity": "waste_basket"
      }
    },
    {
      "type": "node",
      "id": 12301097815,
      "lat": 12.9866652,
      "lon": 77.7447366,
      "tags": {
        "amenity": "waste_basket"
      }
    },
    {
      "type": "node",
      "id": 12301097816,
      "lat": 12.986707,
      "lon": 77.7446607,
      "tags": {
        "amenity": "waste_basket"
      }
    },
    {
      "type": "node",
      "id": 12301097817,
      "lat": 12.9866784,
      "lon": 77.7446635,
      "tags": {
        "amenity": "bench",
        "armrest": "no",
        "backrest": "no",
        "material": "stone"
      }
    },
    {
      "type": "node",
      "id": 12301097818,
      "lat": 12.9866999,
      "lon": 77.7447389,
      "tags": {
        "amenity": "bench",
        "armrest": "no",
        "backrest": "no",
        "material": "stone"
      }
    },
    {
      "type": "node",
      "id": 12301097819,
      "lat": 12.9867714,
      "lon": 77.7447144,
      "tags": {
        "amenity": "bench",
        "armrest": "no",
        "backrest": "no",
        "material": "stone"
      }
    },
    {
      "type": "node",
      "id": 12301097820,
      "lat": 12.9868952,
      "lon": 77.7459285,
      "tags": {
        "amenity": "bench",
        "armrest": "no",
        "backrest": "yes",
        "material": "stone"
      }
    },
    {
      "type": "node",
      "id": 12852810064,
      "lat": 12.9868453,
      "lon": 77.7440031,
      "tags": {
        "amenity": "toilets",
        "check_date": "2025-07-23"
      }
    },
    {
      "type": "node",
      "id": 12872594925,
      "lat": 12.9834458,
      "lon": 77.7519909,
      "tags": {
        "addr:housename": "Arya Hub",
        "addr:street": "Whitefield Main Road",
        "amenity": "music_school",
        "check_date": "2025-08-02",
        "level": "1",
        "name": "Gems Music School"
      }
    },
    {
      "type": "node",
      "id": 12874807511,
      "lat": 12.9836015,
      "lon": 77.7516254,
      "tags": {
        "brand": "Vishal Mega Mart",
        "brand:wikidata": "Q126895037",
        "check_date": "2025-05-30",
        "name": "Vishal Mega Mart",
        "shop": "supermarket"
      }
    },
    {
      "type": "node",
      "id": 12874807513,
      "lat": 12.983665,
      "lon": 77.7520297,
      "tags": {
        "addr:street": "Whitefield Road",
        "amenity": "fast_food",
        "building": "kiosk",
        "building:levels": "1",
        "check_date": "2025-08-02",
        "cuisine": "roll",
        "drive_through": "no",
        "name": "FS Kati Roll Junction",
        "roof:levels": "0",
        "roof:shape": "flat"
      }
    },
    {
      "type": "node",
      "id": 12874807514,
      "lat": 12.9836112,
      "lon": 77.752016,
      "tags": {
        "addr:housename": "Arya Hub",
        "addr:street": "Whitefield Main Road",
        "check_date": "2025-08-26",
        "name": "Perimeter",
        "shop": "hairdresser"
      }
    },
    {
      "type": "node",
      "id": 12880382708,
      "lat": 12.9838269,
      "lon": 77.7513513,
      "tags": {
        "check_date": "2025-06-02",
        "name": "Sofas And More",
        "shop": "furniture"
      }
    },
    {
      "type": "node",
      "id": 12927909817,
      "lat": 12.9854431,
      "lon": 77.7489022,
      "tags": {
        "addr:city": "Bengaluru",
        "addr:country": "IN",
        "amenity": "restaurant",
        "contact:instagram": "sinonnas",
        "cuisine": "pizza",
        "delivery": "yes",
        "name": "Si Nonna's",
        "reservation": "yes",
        "takeaway": "yes",
        "toilets": "yes",
        "website": "https://sinonnas.com/"
      }
    },
    {
      "type": "node",
      "id": 12963890401,
      "lat": 12.9848056,
      "lon": 77.7485569,
      "tags": {
        "check_date": "2025-06-30",
        "shop": "garden_centre"
      }
    },
    {
      "type": "node",
      "id": 12972911341,
      "lat": 12.9860032,
      "lon": 77.7452869,
      "tags": {
        "amenity": "atm",
        "brand": "Kotak Mahindra Bank",
        "brand:wikidata": "Q2040404",
        "check_date": "2025-08-13",
        "operator": "Kotak Mahindra Bank",
        "operator:wikidata": "Q2040404"
      }
    },
    {
      "type": "node",
      "id": 12972911342,
      "lat": 12.9838519,
      "lon": 77.7514636,
      "tags": {
        "amenity": "restaurant",
        "check_date": "2025-07-03",
        "cuisine": "indian",
        "diet:vegetarian": "only",
        "indoor_seating": "yes",
        "name": "Sri Udupi Food Hub",
        "outdoor_seating": "no"
      }
    },
    {
      "type": "node",
      "id": 12972911343,
      "lat": 12.9839969,
      "lon": 77.7511159,
      "tags": {
        "brand": "TVS",
        "brand:wikidata": "Q3300084",
        "check_date": "2025-07-03",
        "name": "Trijal TVS",
        "shop": "motorcycle"
      }
    },
    {
      "type": "node",
      "id": 12972911344,
      "lat": 12.9838793,
      "lon": 77.7515475,
      "tags": {
        "check_date": "2025-07-03",
        "shop": "kiosk"
      }
    },
    {
      "type": "node",
      "id": 12972911345,
      "lat": 12.9836831,
      "lon": 77.7519769,
      "tags": {
        "amenity": "fast_food",
        "check_date": "2025-07-03",
        "name": "Swirl"
      }
    },
    {
      "type": "node",
      "id": 12972911346,
      "lat": 12.9836774,
      "lon": 77.7520031,
      "tags": {
        "amenity": "cafe",
        "check_date": "2025-07-03",
        "cuisine": "tea",
        "name": "Chai Makhani"
      }
    },
    {
      "type": "node",
      "id": 12979257770,
      "lat": 12.9833103,
      "lon": 77.7515625,
      "tags": {
        "check_date": "2025-07-05",
        "name": "Sheesham Homes",
        "shop": "furniture"
      }
    },
    {
      "type": "node",
      "id": 12979272521,
      "lat": 12.9841607,
      "lon": 77.7504265,
      "tags": {
        "brand": "Hyundai",
        "brand:wikidata": "Q55931",
        "check_date": "2025-07-05",
        "name": "Lakshmi Hyundai",
        "shop": "car"
      }
    },
    {
      "type": "node",
      "id": 12985113917,
      "lat": 12.9833772,
      "lon": 77.7519481,
      "tags": {
        "amenity": "clinic",
        "check_date": "2025-07-07",
        "healthcare": "clinic",
        "healthcare:speciality": "urology",
        "name": "Whitefield Clinic of Nephro-Urology"
      }
    },
    {
      "type": "node",
      "id": 12987060869,
      "lat": 12.9836787,
      "lon": 77.7523109,
      "tags": {
        "amenity": "place_of_worship",
        "check_date": "2025-07-08",
        "religion": "hindu"
      }
    },
    {
      "type": "node",
      "id": 12987086502,
      "lat": 12.9842611,
      "lon": 77.7502347,
      "tags": {
        "brand": "KTM",
        "brand:wikidata": "Q215657",
        "check_date": "2025-07-08",
        "name": "KTM",
        "shop": "motorcycle"
      }
    },
    {
      "type": "node",
      "id": 12999157278,
      "lat": 12.9836025,
      "lon": 77.7519245,
      "tags": {
        "brand": "cult.fit",
        "brand:wikidata": "Q121289250",
        "check_date": "2025-08-02",
        "leisure": "fitness_centre",
        "name": "cult.fit"
      }
    },
    {
      "type": "node",
      "id": 12999157293,
      "lat": 12.9868643,
      "lon": 77.7538517,
      "tags": {
        "access": "customers",
        "amenity": "motorcycle_parking",
        "capacity": "30",
        "fee": "yes",
        "operator": "BMRCL",
        "parking": "surface"
      }
    },
    {
      "type": "node",
      "id": 13001080192,
      "lat": 12.9853165,
      "lon": 77.7493239,
      "tags": {
        "amenity": "restaurant",
        "check_date": "2025-07-15",
        "name": "Whisk And Thyme"
      }
    },
    {
      "type": "node",
      "id": 13013588708,
      "lat": 12.9848898,
      "lon": 77.7506397,
      "tags": {
        "addr:city": "Bengaluru",
        "addr:country": "IN",
        "amenity": "restaurant",
        "cuisine": "pizza",
        "delivery": "yes",
        "name": "Mad Doh Sourdough Pizzeria",
        "reservation": "yes",
        "takeaway": "yes",
        "toilets": "yes"
      }
    },
    {
      "type": "node",
      "id": 13013588743,
      "lat": 12.9851759,
      "lon": 77.7497399,
      "tags": {
        "amenity": "cafe",
        "brand": "Blue Tokai",
        "cuisine": "coffee_shop",
        "delivery": "yes",
        "internet_access": "yes",
        "name": "Blue Tokai Coffee Roasters",
        "takeaway": "yes",
        "toilets": "yes"
      }
    },
    {
      "type": "node",
      "id": 13013792944,
      "lat": 12.9849929,
      "lon": 77.7503729,
      "tags": {
        "amenity": "fast_food",
        "name": "Harvest Salad Cafe"
      }
    },
    {
      "type": "node",
      "id": 13013792945,
      "lat": 12.9850883,
      "lon": 77.7500591,
      "tags": {
        "amenity": "fast_food",
        "cuisine": "mexican",
        "name": "Maiz Mexican Kitchen"
      }
    },
    {
      "type": "node",
      "id": 13018734717,
      "lat": 12.9846593,
      "lon": 77.7511117,
      "tags": {
        "amenity": "kindergarten",
        "check_date": "2025-07-23",
        "name": "Klay Preschool And Daycare"
      }
    },
    {
      "type": "node",
      "id": 13018734718,
      "lat": 12.9845946,
      "lon": 77.7512785,
      "tags": {
        "amenity": "fast_food",
        "check_date": "2025-07-23",
        "cuisine": "pizza",
        "name": "Si Nonna's Pizza"
      }
    },
    {
      "type": "node",
      "id": 13022417925,
      "lat": 12.9847476,
      "lon": 77.7489168,
      "tags": {
        "check_date": "2025-07-25",
        "name": "MS Flower Designs",
        "shop": "florist"
      }
    },
    {
      "type": "node",
      "id": 13022417926,
      "lat": 12.9843377,
      "lon": 77.7496869,
      "tags": {
        "check_date": "2025-07-25",
        "name": "Avyanna",
        "shop": "massage"
      }
    },
    {
      "type": "node",
      "id": 13022417927,
      "lat": 12.9843577,
      "lon": 77.7496932,
      "tags": {
        "check_date": "2025-07-25",
        "leisure": "fitness_centre",
        "name": "Ample Fit"
      }
    },
    {
      "type": "node",
      "id": 13022417928,
      "lat": 12.9843792,
      "lon": 77.749701,
      "tags": {
        "check_date": "2025-07-25",
        "shop": "vacant"
      }
    },
    {
      "type": "node",
      "id": 13022417929,
      "lat": 12.9844002,
      "lon": 77.7497076,
      "tags": {
        "check_date": "2025-07-25",
        "name": "Würfel",
        "shop": "furniture"
      }
    },
    {
      "type": "node",
      "id": 13022417930,
      "lat": 12.9844171,
      "lon": 77.7497141,
      "tags": {
        "amenity": "restaurant",
        "check_date": "2025-07-25",
        "name": "Family Kitchen"
      }
    },
    {
      "type": "node",
      "id": 13022417931,
      "lat": 12.9844058,
      "lon": 77.7495205,
      "tags": {
        "amenity": "prep_school",
        "check_date": "2025-07-25",
        "name": "Centum Academy"
      }
    },
    {
      "type": "node",
      "id": 13022417933,
      "lat": 12.9844548,
      "lon": 77.7495405,
      "tags": {
        "addr:floor": "2",
        "amenity": "fast_food",
        "check_date": "2025-07-25",
        "cuisine": "pizza",
        "name": "Pepe's Pizza"
      }
    },
    {
      "type": "node",
      "id": 13022417934,
      "lat": 12.9844717,
      "lon": 77.7495433,
      "tags": {
        "amenity": "restaurant",
        "check_date": "2025-07-25",
        "level": "1",
        "name": "Mani's Dum Biriyani"
      }
    },
    {
      "type": "node",
      "id": 13022417935,
      "lat": 12.9844913,
      "lon": 77.7495495,
      "tags": {
        "amenity": "bank",
        "brand": "Bank of Baroda",
        "brand:wikidata": "Q2003797",
        "check_date": "2025-07-25",
        "level": "0",
        "name": "Bank of Baroda",
        "operator": "Bank of Baroda",
        "operator:wikidata": "Q2003797"
      }
    },
    {
      "type": "node",
      "id": 13022417944,
      "lat": 12.9847043,
      "lon": 77.748794,
      "tags": {
        "amenity": "restaurant",
        "check_date": "2025-07-25",
        "name": "The Heaven Mandi"
      }
    },
    {
      "type": "node",
      "id": 13022417945,
      "lat": 12.984719,
      "lon": 77.7488832,
      "tags": {
        "amenity": "restaurant",
        "check_date": "2025-07-25",
        "name": "House Of Desserts"
      }
    },
    {
      "type": "node",
      "id": 13022417946,
      "lat": 12.9847782,
      "lon": 77.7488158,
      "tags": {
        "amenity": "restaurant",
        "check_date": "2025-07-25",
        "name": "Smoky Dock"
      }
    },
    {
      "type": "node",
      "id": 13022417947,
      "lat": 12.9844636,
      "lon": 77.7493771,
      "tags": {
        "addr:housename": "SDR Tower",
        "addr:street": "Whitefield Road",
        "check_date": "2025-07-25",
        "leisure": "fitness_centre",
        "level": "3",
        "name": "Rock's Gym"
      }
    },
    {
      "type": "node",
      "id": 13022417948,
      "lat": 12.9846806,
      "lon": 77.748896,
      "tags": {
        "amenity": "restaurant",
        "check_date": "2025-07-25",
        "name": "Donne Biriyani Palace"
      }
    },
    {
      "type": "node",
      "id": 13022417949,
      "lat": 12.9846441,
      "lon": 77.7489586,
      "tags": {
        "check_date": "2025-07-25",
        "name": "Kent Spa",
        "shop": "massage"
      }
    },
    {
      "type": "node",
      "id": 13022417950,
      "lat": 12.9845912,
      "lon": 77.748989,
      "tags": {
        "check_date": "2025-07-25",
        "name": "Aluma Salon",
        "shop": "hairdresser"
      }
    },
    {
      "type": "node",
      "id": 13022417951,
      "lat": 12.9846354,
      "lon": 77.7490087,
      "tags": {
        "amenity": "studio",
        "check_date": "2025-07-25",
        "name": "Studio II"
      }
    },
    {
      "type": "node",
      "id": 13022417952,
      "lat": 12.9846111,
      "lon": 77.7491282,
      "tags": {
        "amenity": "restaurant",
        "check_date": "2025-07-25",
        "name": "Laffah"
      }
    },
    {
      "type": "node",
      "id": 13022417953,
      "lat": 12.9845332,
      "lon": 77.7491765,
      "tags": {
        "check_date": "2025-07-25",
        "shop": "beauty"
      }
    },
    {
      "type": "node",
      "id": 13022417954,
      "lat": 12.9844954,
      "lon": 77.7496757,
      "tags": {
        "addr:street": "Whitefield Road",
        "amenity": "cafe",
        "building": "kiosk",
        "building:levels": "2",
        "building:material": "metal",
        "name": "Family Kitchen",
        "roof:levels": "0",
        "roof:shape": "flat"
      }
    },
    {
      "type": "node",
      "id": 13022417955,
      "lat": 12.9845057,
      "lon": 77.7493875,
      "tags": {
        "addr:housename": "SDR Tower",
        "addr:street": "Whitefield Road",
        "amenity": "restaurant",
        "check_date": "2025-07-25",
        "level": "1",
        "name": "Star Biriyani"
      }
    },
    {
      "type": "node",
      "id": 13022417956,
      "lat": 12.9845257,
      "lon": 77.7493918,
      "tags": {
        "addr:housename": "SDR Tower",
        "addr:street": "Whitefield Road",
        "amenity": "atm",
        "brand": "South Indian Bank",
        "brand:wikidata": "Q2044973",
        "check_date": "2025-07-25",
        "level": "0",
        "operator": "South Indian Bank",
        "operator:wikidata": "Q2044973"
      }
    },
    {
      "type": "node",
      "id": 13022417957,
      "lat": 12.9844842,
      "lon": 77.749381,
      "tags": {
        "addr:housename": "SDR Tower",
        "addr:street": "Whitefield Road",
        "amenity": "bank",
        "check_date": "2025-07-25",
        "level": "2",
        "name": "Tata Capital"
      }
    },
    {
      "type": "node",
      "id": 13022417958,
      "lat": 12.9844294,
      "lon": 77.74953,
      "tags": {
        "check_date": "2025-07-25",
        "leisure": "fitness_centre",
        "level": "3",
        "name": "Phoenix Fitness"
      }
    },
    {
      "type": "node",
      "id": 13335147238,
      "lat": 12.9889452,
      "lon": 77.7579463,
      "tags": {
        "access": "permissive",
        "amenity": "parking_entrance",
        "parking": "underground"
      }
    },
    {
      "type": "node",
      "id": 13335147239,
      "lat": 12.9889944,
      "lon": 77.7579689,
      "tags": {
        "access": "permissive",
        "amenity": "parking_entrance",
        "parking": "underground"
      }
    },
    {
      "type": "way",
      "id": 130127246,
      "center": {
        "lat": 12.9957008,
        "lon": 77.7585103
      },
      "tags": {
        "amenity": "bus_station",
        "bus": "yes",
        "designation": "BMTC",
        "name": "Kadugodi Bus Station",
        "name:kn": "ಕಾಡುಗೋಡಿ",
        "public_transport": "station"
      }
    },
    {
      "type": "way",
      "id": 136492654,
      "center": {
        "lat": 12.9942469,
        "lon": 77.7571802
      },
      "tags": {
        "amenity": "police",
        "building": "yes",
        "name": "Whitefield Traffic Police Station",
        "name:kn": "ಸಂಚಾರ ಪೊಲೀಸ್ ಠಾಣೆ"
      }
    },
    {
      "type": "way",
      "id": 239572655,
      "center": {
        "lat": 12.9984828,
        "lon": 77.7531194
      },
      "tags": {
        "addr:street": "Junior College Road, Kadugodi Industrial Area",
        "amenity": "college",
        "name": "Government High School & Junior College,Belatur Colony"
      }
    },
    {
      "type": "way",
      "id": 1083394762,
      "center": {
        "lat": 12.9838223,
        "lon": 77.7506996
      },
      "tags": {
        "access": "private",
        "layer": "10",
        "leisure": "swimming_pool",
        "location": "roof"
      }
    },
    {
      "type": "way",
      "id": 1135846628,
      "center": {
        "lat": 12.9835296,
        "lon": 77.7489362
      },
      "tags": {
        "leisure": "park"
      }
    },
    {
      "type": "way",
      "id": 1156196453,
      "center": {
        "lat": 12.9872159,
        "lon": 77.7460902
      },
      "tags": {
        "fee": "yes",
        "landuse": "forest",
        "leisure": "park",
        "name": "Kadugodi Reserved Forest",
        "name:kn": "ಕಾಡುಗೋಡಿ ಟ್ರೀ ಪಾರ್ಕ್",
        "opening_hours": "Mo-Su 06:00-21:00",
        "toilets:wheelchair": "yes",
        "wheelchair": "limited"
      }
    },
    {
      "type": "way",
      "id": 1156196459,
      "center": {
        "lat": 12.9874401,
        "lon": 77.7459692
      },
      "tags": {
        "access": "yes",
        "leisure": "playground"
      }
    },
    {
      "type": "way",
      "id": 1157456784,
      "center": {
        "lat": 12.987627,
        "lon": 77.7460223
      },
      "tags": {
        "leisure": "fitness_station",
        "sport": "fitness"
      }
    },
    {
      "type": "way",
      "id": 1157456785,
      "center": {
        "lat": 12.9869842,
        "lon": 77.7459111
      },
      "tags": {
        "amenity": "shelter",
        "shelter_type": "gazebo"
      }
    },
    {
      "type": "way",
      "id": 1157456787,
      "center": {
        "lat": 12.9868163,
        "lon": 77.7439845
      },
      "tags": {
        "access": "yes",
        "amenity": "parking",
        "fee": "yes",
        "parking": "surface"
      }
    },
    {
      "type": "way",
      "id": 1187678803,
      "center": {
        "lat": 12.9844411,
        "lon": 77.7499129
      },
      "tags": {
        "access": "customers",
        "amenity": "parking",
        "fee": "no",
        "operator": "Thalassery Restaurant",
        "operator:type": "private",
        "parking": "surface",
        "surface": "paved"
      }
    },
    {
      "type": "way",
      "id": 1187679088,
      "center": {
        "lat": 12.984717,
        "lon": 77.7490274
      },
      "tags": {
        "access": "customers",
        "amenity": "parking",
        "parking": "surface",
        "surface": "paved"
      }
    },
    {
      "type": "way",
      "id": 1208443502,
      "center": {
        "lat": 12.9845438,
        "lon": 77.7519226
      },
      "tags": {
        "access": "private",
        "leisure": "park"
      }
    },
    {
      "type": "way",
      "id": 1208446239,
      "center": {
        "lat": 12.9836161,
        "lon": 77.751234
      },
      "tags": {
        "access": "customers",
        "amenity": "parking",
        "parking": "surface"
      }
    },
    {
      "type": "way",
      "id": 1272039723,
      "center": {
        "lat": 12.9854465,
        "lon": 77.7518516
      },
      "tags": {
        "access": "private",
        "leisure": "swimming_pool"
      }
    },
    {
      "type": "way",
      "id": 1272039724,
      "center": {
        "lat": 12.9858744,
        "lon": 77.7515387
      },
      "tags": {
        "access": "private",
        "amenity": "parking",
        "parking": "surface"
      }
    },
    {
      "type": "way",
      "id": 1272039725,
      "center": {
        "lat": 12.9851216,
        "lon": 77.7512182
      },
      "tags": {
        "access": "private",
        "amenity": "parking",
        "parking": "surface"
      }
    },
    {
      "type": "way",
      "id": 1272039726,
      "center": {
        "lat": 12.985325,
        "lon": 77.7527094
      },
      "tags": {
        "access": "private",
        "leisure": "park"
      }
    },
    {
      "type": "way",
      "id": 1272039727,
      "center": {
        "lat": 12.9848243,
        "lon": 77.7523403
      },
      "tags": {
        "access": "private",
        "leisure": "park"
      }
    },
    {
      "type": "way",
      "id": 1272039731,
      "center": {
        "lat": 12.9855761,
        "lon": 77.7486035
      },
      "tags": {
        "access": "private",
        "leisure": "park"
      }
    },
    {
      "type": "way",
      "id": 1272039733,
      "center": {
        "lat": 12.9848316,
        "lon": 77.7498144
      },
      "tags": {
        "access": "private",
        "amenity": "parking",
        "parking": "surface"
      }
    },
    {
      "type": "way",
      "id": 1272039735,
      "center": {
        "lat": 12.9844261,
        "lon": 77.7509569
      },
      "tags": {
        "access": "private",
        "amenity": "parking",
        "parking": "surface"
      }
    },
    {
      "type": "way",
      "id": 1272039738,
      "center": {
        "lat": 12.9859901,
        "lon": 77.7503601
      },
      "tags": {
        "amenity": "place_of_worship",
        "building": "church",
        "denomination": "nazarene",
        "name": "Church of the Nazarene",
        "religion": "christian"
      }
    },
    {
      "type": "way",
      "id": 1273983470,
      "center": {
        "lat": 12.9917468,
        "lon": 77.7461605
      },
      "tags": {
        "access": "private",
        "amenity": "parking",
        "parking": "surface"
      }
    },
    {
      "type": "way",
      "id": 1287904688,
      "center": {
        "lat": 12.9946174,
        "lon": 77.7586699
      },
      "tags": {
        "amenity": "school",
        "name": "Ujjval World School"
      }
    },
    {
      "type": "way",
      "id": 1306213262,
      "center": {
        "lat": 12.9933131,
        "lon": 77.7572503
      },
      "tags": {
        "access": "no",
        "garden:type": "landscaping",
        "leisure": "garden"
      }
    },
    {
      "type": "way",
      "id": 1310982672,
      "center": {
        "lat": 12.9979601,
        "lon": 77.7549005
      },
      "tags": {
        "amenity": "school"
      }
    },
    {
      "type": "way",
      "id": 1314991499,
      "center": {
        "lat": 12.9845931,
        "lon": 77.7538496
      },
      "tags": {
        "amenity": "school",
        "landuse": "education",
        "name": "Divine Light Trust For The Blind"
      }
    },
    {
      "type": "way",
      "id": 1454051718,
      "center": {
        "lat": 12.9889638,
        "lon": 77.7566733
      },
      "tags": {
        "leisure": "garden"
      }
    },
    {
      "type": "way",
      "id": 1454051719,
      "center": {
        "lat": 12.9896501,
        "lon": 77.758125
      },
      "tags": {
        "leisure": "garden"
      }
    },
    {
      "type": "way",
      "id": 1454051736,
      "center": {
        "lat": 12.9905964,
        "lon": 77.7559237
      },
      "tags": {
        "amenity": "telephone",
        "landuse": "commercial",
        "operator": "BSNL",
        "operator:wikidata": "Q278834"
      }
    },
    {
      "type": "way",
      "id": 1454095244,
      "center": {
        "lat": 12.9889457,
        "lon": 77.757696
      },
      "tags": {
        "leisure": "garden"
      }
    },
    {
      "type": "way",
      "id": 1455401177,
      "center": {
        "lat": 12.998062,
        "lon": 77.752349
      },
      "tags": {
        "access": "private",
        "leisure": "swimming_pool"
      }
    }
  ]
}