{
  "area_name": "Kalahalli",
  "osm_id": 6310532126,
  "osm_type": "node",
  "place_type": "neighbourhood",
  "amenity_count": 113,
  "amenities": [
    {
      "type": "node",
      "id": 1462127117,
      "lat": 12.9805233,
      "lon": 77.6288041,
      "tags": {
        "name": "Kolimi Motors",
        "shop": "car_repair"
      }
    },
    {
      "type": "node",
      "id": 1469320276,
      "lat": 12.9950065,
      "lon": 77.6202748,
      "tags": {
        "amenity": "place_of_worship",
        "name": "Mouna Guru Swamy Mutt and Temple",
        "religion": "hindu"
      }
    },
    {
      "type": "node",
      "id": 1852663951,
      "lat": 12.9875167,
      "lon": 77.6203112,
      "tags": {
        "amenity": "place_of_worship",
        "name": "Raghavendra Swami Mutt",
        "name:kn": "ರಾಘವೇಂದ್ರ ಸ್ವಾಮಿ ಮಠ",
        "religion": "hindu"
      }
    },
    {
      "type": "node",
      "id": 1852664343,
      "lat": 12.9864817,
      "lon": 77.6194153,
      "tags": {
        "shop": "florist"
      }
    },
    {
      "type": "node",
      "id": 1852665371,
      "lat": 12.9865706,
      "lon": 77.6194475,
      "tags": {
        "amenity": "restaurant",
        "cuisine": "international",
        "name": "Rogue Elephant"
      }
    },
    {
      "type": "node",
      "id": 2003935536,
      "lat": 12.994291,
      "lon": 77.6196026,
      "tags": {
        "amenity": "school",
        "name": "St Aloysius Pre Unniversity College"
      }
    },
    {
      "type": "node",
      "id": 4117249120,
      "lat": 12.9814424,
      "lon": 77.6288865,
      "tags": {
        "amenity": "place_of_worship",
        "name": "Christ Grace Church",
        "religion": "christian"
      }
    },
    {
      "type": "node",
      "id": 4117249122,
      "lat": 12.987086,
      "lon": 77.6189974,
      "tags": {
        "addr:street": "Saint John's Church Road",
        "amenity": "restaurant",
        "name": "Shanti Sagar",
        "name:kn": "ಶಾಂತಿ ಸಾಗರ್"
      }
    },
    {
      "type": "node",
      "id": 4225196591,
      "lat": 12.9872979,
      "lon": 77.6178332,
      "tags": {
        "addr:housenumber": "59",
        "addr:postcode": "560042",
        "addr:street": "Osbourne Road",
        "name": "Garden care",
        "opening_hours": "Mo-Su 10:00-19:30",
        "shop": "greengrocer"
      }
    },
    {
      "type": "node",
      "id": 4227854807,
      "lat": 12.9875355,
      "lon": 77.6190745,
      "tags": {
        "amenity": "restaurant"
      }
    },
    {
      "type": "node",
      "id": 4227854808,
      "lat": 12.9875472,
      "lon": 77.6189672,
      "tags": {
        "name": "Lake View Supermarket",
        "shop": "supermarket"
      }
    },
    {
      "type": "node",
      "id": 4227854812,
      "lat": 12.9875826,
      "lon": 77.6188927,
      "tags": {
        "amenity": "restaurant",
        "name": "Moritz Nano Restaurant"
      }
    },
    {
      "type": "node",
      "id": 4252085630,
      "lat": 12.9908548,
      "lon": 77.6192753,
      "tags": {
        "addr:floor": "4",
        "addr:street": "Assayee Road",
        "amenity": "pub",
        "check_date": "2023-12-30",
        "level": "4",
        "name": "Watson's Ulsoor",
        "smoking": "separated",
        "toilets:wheelchair": "no",
        "wheelchair": "no"
      }
    },
    {
      "type": "node",
      "id": 4252092996,
      "lat": 12.9908261,
      "lon": 77.6193188,
      "tags": {
        "amenity": "cafe",
        "name": "Cafe Thulp",
        "toilets:wheelchair": "no",
        "wheelchair": "no"
      }
    },
    {
      "type": "node",
      "id": 4489180444,
      "lat": 12.9825245,
      "lon": 77.6235846,
      "tags": {
        "addr:city": "bangalore",
        "addr:postcode": "560008",
        "addr:street": "A1, Silver Oaks, Kensington Cross Road, Ulsoor, Kensington Gardens, Kalhalli, Ulsoor",
        "name": "Zeven",
        "opening_hours": "10:00-21:30",
        "phone": "080 4170 9090",
        "shop": "sports",
        "website": "zevenworld.com"
      }
    },
    {
      "type": "node",
      "id": 4844863354,
      "lat": 12.9868859,
      "lon": 77.6162486,
      "tags": {
        "name": "Big boss",
        "name:en": "Big boss",
        "shop": "dry_cleaning"
      }
    },
    {
      "type": "node",
      "id": 4844865037,
      "lat": 12.985305,
      "lon": 77.6152381,
      "tags": {
        "amenity": "cafe",
        "name": "Pepper Cafe",
        "name:en": "Pepper Cafe"
      }
    },
    {
      "type": "node",
      "id": 4845223688,
      "lat": 12.9878222,
      "lon": 77.6185314,
      "tags": {
        "leisure": "fitness_centre",
        "name": "Pyro Fitness Center"
      }
    },
    {
      "type": "node",
      "id": 4845223689,
      "lat": 12.9877987,
      "lon": 77.618514,
      "tags": {
        "amenity": "restaurant",
        "name": "Adyar Anand Bhawan",
        "name:kn": "ಆದ್ಯಾರ್ ಆನಂದ ಭವನ"
      }
    },
    {
      "type": "node",
      "id": 5604142122,
      "lat": 12.9814345,
      "lon": 77.6283604,
      "tags": {
        "amenity": "shelter"
      }
    },
    {
      "type": "node",
      "id": 5862574185,
      "lat": 12.9878631,
      "lon": 77.6177434,
      "tags": {
        "amenity": "hospital",
        "name": "Lakeside Medical Centre and Hospital"
      }
    },
    {
      "type": "node",
      "id": 6453978785,
      "lat": 12.978438,
      "lon": 77.6229537,
      "tags": {
        "amenity": "place_of_worship",
        "name": "Sri Panchamukhi Ganesh Temple",
        "religion": "hindu"
      }
    },
    {
      "type": "node",
      "id": 6455766772,
      "lat": 12.9807967,
      "lon": 77.6297271,
      "tags": {
        "amenity": "clinic",
        "name": "Ramakrishna Math Charitable Dispensary"
      }
    },
    {
      "type": "node",
      "id": 6944418995,
      "lat": 12.9876196,
      "lon": 77.6204668,
      "tags": {
        "addr:district": "Bengaluru Urban",
        "addr:full": "11, Ulsoor Tank Road Ulsoor Lake",
        "addr:postcode": "560042",
        "addr:state": "Karnataka",
        "amenity": "clinic",
        "name": "Sai Jyothi Netra Seva",
        "source": "OpenGovernmentData"
      }
    },
    {
      "type": "node",
      "id": 8220809198,
      "lat": 12.9840602,
      "lon": 77.6173267,
      "tags": {
        "addr:city": "Bangalore",
        "addr:street": "Annaswamy Mudaliar Road",
        "clothes": "women;children",
        "fair_trade": "yes",
        "name": "Ambara",
        "organic": "yes",
        "shop": "clothes"
      }
    },
    {
      "type": "node",
      "id": 8522744899,
      "lat": 12.9911306,
      "lon": 77.6162233,
      "tags": {
        "addr:street": "Promenade Road",
        "name": "Pretty Dan Good Salon",
        "opening_hours": "Mo-Su 10:00-18:00; Tu off",
        "payment:cash": "yes",
        "payment:credit_cards": "yes",
        "payment:upi": "yes",
        "phone": "+91-73384-75554",
        "shop": "hairdresser",
        "website": "https://prettydangood.in/"
      }
    },
    {
      "type": "node",
      "id": 8522762905,
      "lat": 12.9913026,
      "lon": 77.6156011,
      "tags": {
        "addr:street": "Promenade Road",
        "name": "MotoAdda",
        "shop": "car_repair"
      }
    },
    {
      "type": "node",
      "id": 9656382523,
      "lat": 12.9850818,
      "lon": 77.616241,
      "tags": {
        "amenity": "place_of_worship",
        "religion": "jain"
      }
    },
    {
      "type": "node",
      "id": 9672296514,
      "lat": 12.9821075,
      "lon": 77.6157676,
      "tags": {
        "access": "yes",
        "amenity": "toilets"
      }
    },
    {
      "type": "node",
      "id": 9687954318,
      "lat": 12.9865306,
      "lon": 77.6194645,
      "tags": {
        "amenity": "cafe",
        "check_date": "2024-04-20",
        "dog": "leashed",
        "highchair": "yes",
        "name": "Kaara by Lake",
        "outdoor_seating": "yes",
        "pets": "yes",
        "takeaway": "yes",
        "toilets": "yes",
        "toilets:wheelchair": "limited",
        "wheelchair": "limited"
      }
    },
    {
      "type": "node",
      "id": 10979409747,
      "lat": 12.9850531,
      "lon": 77.6182955,
      "tags": {
        "addr:city": "Bengaluru",
        "addr:country": "IN",
        "addr:housenumber": "32",
        "addr:postcode": "560042",
        "addr:state": "Karnataka",
        "addr:street": "Annaswamy Mudaliar Road",
        "addr:suburb": "Ulsoor",
        "amenity": "cafe",
        "contact:instagram": "myurbansolace",
        "cuisine": "american",
        "name": "Urban Solace",
        "name:kn": "ಅರ್ಬನ್ ಸೊಲೇಸ್"
      }
    },
    {
      "type": "node",
      "id": 11129099866,
      "lat": 12.9953074,
      "lon": 77.6216752,
      "tags": {
        "addr:city": "Bengaluru",
        "addr:country": "IN",
        "addr:housenumber": "51",
        "addr:postcode": "560005",
        "addr:street": "MM Road",
        "addr:suburb": "Cox Town",
        "contact:facebook": "breadtimestories.blr",
        "contact:instagram": "breadtimestories.blr",
        "email": "breadtimestories.blr@gmail.com",
        "name": "Breadtime Stories",
        "shop": "bakery",
        "website": "https://www.breadtimestories.in"
      }
    },
    {
      "type": "node",
      "id": 11282630668,
      "lat": 12.9880012,
      "lon": 77.6175244,
      "tags": {
        "amenity": "bank",
        "atm": "yes",
        "brand": "HDFC Bank",
        "brand:wikidata": "Q631047",
        "name": "HDFC Bank",
        "operator": "HDFC Bank",
        "short_name": "HDFC"
      }
    },
    {
      "type": "node",
      "id": 11304941403,
      "lat": 12.9861069,
      "lon": 77.6164486,
      "tags": {
        "access": "permissive",
        "amenity": "parking_entrance",
        "parking": "underground"
      }
    },
    {
      "type": "node",
      "id": 11304941409,
      "lat": 12.9859003,
      "lon": 77.6159611,
      "tags": {
        "access": "permissive",
        "amenity": "parking_entrance",
        "parking": "underground"
      }
    },
    {
      "type": "node",
      "id": 11530082861,
      "lat": 12.9857804,
      "lon": 77.6167848,
      "tags": {
        "addr:city": "Bengaluru",
        "addr:floor": "G",
        "addr:housenumber": "9",
        "addr:postcode": "560042",
        "addr:street": "Osbourne Road",
        "amenity": "dentist",
        "check_date": "2024-01-19",
        "email": "oralrehabilitationcenter@gmail.com",
        "healthcare": "dentist",
        "internet_access": "no",
        "mobile": "+91-7406110333",
        "name": "Oral rehabilitation center",
        "name:en": "Oral rehabilitation center",
        "name:kn": "ಒರಲ್ ರಿಹಾಬಿಲಿಟೇಶನ್ ಸೆಂಟರ್",
        "opening_hours": "Mo-Su 09:00-13:00,Mo-Su 16:00-22:00",
        "payment:cash": "yes",
        "payment:credit_cards": "yes",
        "payment:debit_cards": "yes",
        "website": "https://oralrehabilitationcenter.com/",
        "wheelchair": "limited"
      }
    },
    {
      "type": "node",
      "id": 11708703071,
      "lat": 12.9799014,
      "lon": 77.6287716,
      "tags": {
        "amenity": "place_of_worship",
        "check_date": "2024-03-09",
        "internet_access": "no",
        "name": "Sri Munishwaran Temple",
        "payment:cards": "no",
        "payment:cash": "yes",
        "payment:credit_cards": "no",
        "payment:debit_cards": "no",
        "religion": "hindu",
        "wheelchair": "no"
      }
    },
    {
      "type": "node",
      "id": 11708703072,
      "lat": 12.9811642,
      "lon": 77.6286416,
      "tags": {
        "amenity": "pharmacy",
        "check_date": "2024-03-09",
        "healthcare": "pharmacy",
        "internet_access": "no",
        "name": "Friends Pharma",
        "payment:cash": "yes",
        "payment:credit_cards": "yes",
        "payment:debit_cards": "yes",
        "wheelchair": "no"
      }
    },
    {
      "type": "node",
      "id": 11708703073,
      "lat": 12.9811275,
      "lon": 77.62852,
      "tags": {
        "amenity": "place_of_worship",
        "check_date": "2024-03-09",
        "name": "Sri Ganesha Ayyappa Temple",
        "religion": "hindu"
      }
    },
    {
      "type": "node",
      "id": 11708703074,
      "lat": 12.9820074,
      "lon": 77.6266972,
      "tags": {
        "amenity": "restaurant",
        "check_date": "2024-03-09",
        "internet_access": "no",
        "name": "New Shahi Kabab Rolls Center",
        "payment:cards": "no",
        "payment:cash": "yes",
        "payment:credit_cards": "no",
        "payment:debit_cards": "no",
        "wheelchair": "no"
      }
    },
    {
      "type": "node",
      "id": 11969472096,
      "lat": 12.9803341,
      "lon": 77.6281419,
      "tags": {
        "amenity": "shelter",
        "shelter_type": "gazebo"
      }
    },
    {
      "type": "node",
      "id": 12222732600,
      "lat": 12.9840162,
      "lon": 77.6174052,
      "tags": {
        "addr:housenumber": "22",
        "addr:street": "Annaswamy Mudaliar Road",
        "amenity": "cafe",
        "check_date": "2024-10-04",
        "contact:instagram": "https://www.instagram.com/amagat.blr",
        "name": "Amagat Garden Cafe"
      }
    },
    {
      "type": "node",
      "id": 12480291450,
      "lat": 12.9814136,
      "lon": 77.6245263,
      "tags": {
        "amenity": "place_of_worship",
        "religion": "hindu"
      }
    },
    {
      "type": "node",
      "id": 12480291525,
      "lat": 12.9864128,
      "lon": 77.6241582,
      "tags": {
        "amenity": "place_of_worship",
        "religion": "hindu"
      }
    },
    {
      "type": "node",
      "id": 12788139581,
      "lat": 12.9861844,
      "lon": 77.6156891,
      "tags": {
        "amenity": "charging_station",
        "charging_station:battery_swapping": "yes",
        "fee": "yes",
        "level": "0",
        "motorcar": "no",
        "motorcycle": "yes",
        "name": "Honda e:swap",
        "operator": "Honda e:swap"
      }
    },
    {
      "type": "node",
      "id": 12788682209,
      "lat": 12.9872864,
      "lon": 77.6168337,
      "tags": {
        "amenity": "restaurant",
        "name": "Citrus Cafe"
      }
    },
    {
      "type": "node",
      "id": 12788682234,
      "lat": 12.9862396,
      "lon": 77.6159245,
      "tags": {
        "brand": "Honda",
        "brand:wikidata": "Q9584",
        "name": "Honda",
        "shop": "motorcycle"
      }
    },
    {
      "type": "node",
      "id": 13290544301,
      "lat": 12.9875972,
      "lon": 77.6208401,
      "tags": {
        "name": "6oz Coffee and Roasters",
        "opening_hours": "Mo-Su 09:00-22:00",
        "phone": "+91 80502 02148",
        "shop": "coffee",
        "website": "http://6oz.coffee"
      }
    },
    {
      "type": "way",
      "id": 30810609,
      "center": {
        "lat": 12.9897489,
        "lon": 77.6168853
      },
      "tags": {
        "leisure": "track",
        "name": "Kendriya Vidyala MEG and Centre",
        "name:kn": "ಕೇಂದ್ರಿಯ ವಿದ್ಯಾಲಯ",
        "sport": "athletics"
      }
    },
    {
      "type": "way",
      "id": 37136671,
      "center": {
        "lat": 12.9876751,
        "lon": 77.6147713
      },
      "tags": {
        "amenity": "school",
        "name": "Kendriya Vidhyalaya, MEG Centre",
        "name:kn": "ಕೇಂದ್ರಿಯ ವಿದ್ಯಾಲಯ",
        "short_name": "KV MEG"
      }
    },
    {
      "type": "way",
      "id": 59358729,
      "center": {
        "lat": 12.9790236,
        "lon": 77.6285473
      },
      "tags": {
        "leisure": "park",
        "name": "B R Ambedkar Playground",
        "name:etymology:wikidata": "Q231690"
      }
    },
    {
      "type": "way",
      "id": 59358843,
      "center": {
        "lat": 12.9797301,
        "lon": 77.6285752
      },
      "tags": {
        "amenity": "school",
        "name": "Government Kannada Higher Primary School",
        "name:kn": "ಸರ್ಕಾರಿ ಕನ್ನಡ ಹಿರಿಯ ಪ್ರಾಥಮಿಕ ಶಾಲೆ"
      }
    },
    {
      "type": "way",
      "id": 134021579,
      "center": {
        "lat": 12.9915559,
        "lon": 77.6342403
      },
      "tags": {
        "amenity": "crematorium",
        "landuse": "cemetery",
        "name": "Kalpalli Cemetery Crematorium",
        "name:kn": "ಕಲಪಲ್ಲಿ ಸ್ಮಶಾನ"
      }
    },
    {
      "type": "way",
      "id": 138314536,
      "center": {
        "lat": 12.9870764,
        "lon": 77.6195355
      },
      "tags": {
        "leisure": "park"
      }
    },
    {
      "type": "way",
      "id": 169709281,
      "center": {
        "lat": 12.9788896,
        "lon": 77.6276716
      },
      "tags": {
        "amenity": "marketplace",
        "landuse": "retail",
        "name": "Murphy Town Market",
        "name:kn": "ಮಾರುಕಟ್ಟೆ"
      }
    },
    {
      "type": "way",
      "id": 182177279,
      "center": {
        "lat": 12.9853954,
        "lon": 77.6221829
      },
      "tags": {
        "leisure": "park",
        "name": "Ulsoor Lake Park",
        "operator": "ಬೃಹತ್ ಬೆಂಗಳೂರು ಮಹಾನಗರ ಪಾಲಿಕೆ",
        "operator:en": "Bruhat Bengaluru Mahanagara Palike",
        "operator:ka": "ಬೃಹತ್ ಬೆಂಗಳೂರು ಮಹಾನಗರ ಪಾಲಿಕೆ",
        "operator:short": "BBMP",
        "operator:type": "government",
        "operator:wikidata": "Q4978693"
      }
    },
    {
      "type": "way",
      "id": 217536632,
      "center": {
        "lat": 12.9805172,
        "lon": 77.6275193
      },
      "tags": {
        "leisure": "playground"
      }
    },
    {
      "type": "way",
      "id": 217536633,
      "center": {
        "lat": 12.9797005,
        "lon": 77.6272862
      },
      "tags": {
        "leisure": "playground"
      }
    },
    {
      "type": "way",
      "id": 217536634,
      "center": {
        "lat": 12.9803621,
        "lon": 77.6281335
      },
      "tags": {
        "leisure": "playground"
      }
    },
    {
      "type": "way",
      "id": 217536636,
      "center": {
        "lat": 12.9806681,
        "lon": 77.6268962
      },
      "tags": {
        "leisure": "park"
      }
    },
    {
      "type": "way",
      "id": 217536639,
      "center": {
        "lat": 12.9812865,
        "lon": 77.6276874
      },
      "tags": {
        "leisure": "park"
      }
    },
    {
      "type": "way",
      "id": 217536640,
      "center": {
        "lat": 12.9788845,
        "lon": 77.6272201
      },
      "tags": {
        "leisure": "park",
        "name": "Children's Park"
      }
    },
    {
      "type": "way",
      "id": 217536641,
      "center": {
        "lat": 12.9798755,
        "lon": 77.6267697
      },
      "tags": {
        "leisure": "playground"
      }
    },
    {
      "type": "way",
      "id": 217558963,
      "center": {
        "lat": 12.9938563,
        "lon": 77.6194601
      },
      "tags": {
        "amenity": "school",
        "name": "St. Aloysius High School"
      }
    },
    {
      "type": "way",
      "id": 217558972,
      "center": {
        "lat": 12.9946242,
        "lon": 77.6188542
      },
      "tags": {
        "leisure": "playground",
        "name": "Clarence High School Playground"
      }
    },
    {
      "type": "way",
      "id": 239772775,
      "center": {
        "lat": 12.9803266,
        "lon": 77.6297834
      },
      "tags": {
        "addr:city": "Bangalore",
        "addr:housenumber": "113",
        "addr:postcode": "560008",
        "addr:street": "Swamy Vivekananda Road",
        "addr:suburb": "Ulsoor",
        "amenity": "place_of_worship",
        "name": "Ramakrishna Math",
        "name:kn": "ರಾಮಕೃಷ್ಣ ಮಠ",
        "old_name": "Vivekananda Ashram",
        "religion": "unitarian_universalist",
        "start_date": "1906",
        "website": "https://www.ramakrishnamath.in/"
      }
    },
    {
      "type": "way",
      "id": 323639484,
      "center": {
        "lat": 12.9814681,
        "lon": 77.6228861
      },
      "tags": {
        "leisure": "garden"
      }
    },
    {
      "type": "way",
      "id": 323639485,
      "center": {
        "lat": 12.9817834,
        "lon": 77.6229747
      },
      "tags": {
        "leisure": "garden"
      }
    },
    {
      "type": "way",
      "id": 323639487,
      "center": {
        "lat": 12.9817283,
        "lon": 77.6233462
      },
      "tags": {
        "leisure": "garden"
      }
    },
    {
      "type": "way",
      "id": 323639490,
      "center": {
        "lat": 12.9803288,
        "lon": 77.6295405
      },
      "tags": {
        "amenity": "place_of_worship",
        "building": "yes",
        "name": "Ramakrishna Matha - Halasuru",
        "religion": "unitarian_universalist"
      }
    },
    {
      "type": "way",
      "id": 329076197,
      "center": {
        "lat": 12.9879883,
        "lon": 77.6304042
      },
      "tags": {
        "leisure": "pitch",
        "sport": "soccer"
      }
    },
    {
      "type": "way",
      "id": 409003899,
      "center": {
        "lat": 12.9807984,
        "lon": 77.6227654
      },
      "tags": {
        "name": "Dhobi Ghat",
        "name:kn": "ಧೋಬಿ ಘಾಟ್",
        "shop": "laundry"
      }
    },
    {
      "type": "way",
      "id": 421097861,
      "center": {
        "lat": 12.9860564,
        "lon": 77.6188133
      },
      "tags": {
        "leisure": "pitch"
      }
    },
    {
      "type": "way",
      "id": 421097862,
      "center": {
        "lat": 12.9862788,
        "lon": 77.618436
      },
      "tags": {
        "leisure": "garden"
      }
    },
    {
      "type": "way",
      "id": 421097866,
      "center": {
        "lat": 12.984747,
        "lon": 77.6178878
      },
      "tags": {
        "amenity": "community_centre",
        "name": "Bangalore Tamil Sangam",
        "name:kn": "ಬೆಂಗಳೂರು ತಮಿಳು ಸಂಗಂ",
        "website": "https://www.bangaloretamilsangam.org/"
      }
    },
    {
      "type": "way",
      "id": 436666219,
      "center": {
        "lat": 12.9841065,
        "lon": 77.6221108
      },
      "tags": {
        "access": "customers",
        "leisure": "swimming_pool",
        "length": "50",
        "location": "outdoor"
      }
    },
    {
      "type": "way",
      "id": 492502342,
      "center": {
        "lat": 12.9840801,
        "lon": 77.6221647
      },
      "tags": {
        "leisure": "sports_centre",
        "name": "Kensington Swimming Pool",
        "sport": "swimming"
      }
    },
    {
      "type": "way",
      "id": 526095699,
      "center": {
        "lat": 12.9805076,
        "lon": 77.6258528
      },
      "tags": {
        "leisure": "playground",
        "name": "Ground"
      }
    },
    {
      "type": "way",
      "id": 526096135,
      "center": {
        "lat": 12.981077,
        "lon": 77.6262588
      },
      "tags": {
        "leisure": "park",
        "name": "Childrens Playing Park"
      }
    },
    {
      "type": "way",
      "id": 526097595,
      "center": {
        "lat": 12.9812734,
        "lon": 77.624778
      },
      "tags": {
        "addr:city": "bangalore",
        "addr:postcode": "560008",
        "amenity": "place_of_worship",
        "building": "yes",
        "name": "Sir Moogambigai Amman Temple",
        "religion": "hindu"
      }
    },
    {
      "type": "way",
      "id": 674028953,
      "center": {
        "lat": 12.9802024,
        "lon": 77.6171231
      },
      "tags": {
        "access": "private",
        "amenity": "parking",
        "parking": "surface"
      }
    },
    {
      "type": "way",
      "id": 674028955,
      "center": {
        "lat": 12.9797894,
        "lon": 77.617344
      },
      "tags": {
        "leisure": "garden"
      }
    },
    {
      "type": "way",
      "id": 688353425,
      "center": {
        "lat": 12.9810372,
        "lon": 77.6246913
      },
      "tags": {
        "amenity": "college",
        "name": "Aavishkar Academy"
      }
    },
    {
      "type": "way",
      "id": 688353427,
      "center": {
        "lat": 12.978366,
        "lon": 77.6236685
      },
      "tags": {
        "leisure": "playground"
      }
    },
    {
      "type": "way",
      "id": 688353433,
      "center": {
        "lat": 12.9782781,
        "lon": 77.6232947
      },
      "tags": {
        "amenity": "place_of_worship",
        "name": "Satyanarayana Temple",
        "name:kn": "ಸತ್ಯನಾರಾಯಣ ದೇವಸ್ಥಾನ",
        "religion": "hindu"
      }
    },
    {
      "type": "way",
      "id": 688353437,
      "center": {
        "lat": 12.9784999,
        "lon": 77.6228104
      },
      "tags": {
        "amenity": "place_of_worship",
        "name": "Sri Venkateshwara Swamy Temple",
        "name:kn": "ವೆಂಕಟೇಶ್ವರ ಸ್ವಾಮಿ ದೇವಸ್ಥಾನ",
        "religion": "hindu"
      }
    },
    {
      "type": "way",
      "id": 688356350,
      "center": {
        "lat": 12.9804661,
        "lon": 77.6259975
      },
      "tags": {
        "amenity": "school",
        "name": "Government Girls Tamil School",
        "name:kn": "ಸರ್ಕಾರಿ ಬಾಲಕಿಯರ ತಮಿಳು ಶಾಲೆ"
      }
    },
    {
      "type": "way",
      "id": 688356352,
      "center": {
        "lat": 12.979026,
        "lon": 77.6264656
      },
      "tags": {
        "amenity": "veterinary",
        "name": "Veterinary Hospital",
        "name:kn": "ಪಶುವೈದ್ಯ ಆಸ್ಪತ್ರೆ"
      }
    },
    {
      "type": "way",
      "id": 688356353,
      "center": {
        "lat": 12.9790012,
        "lon": 77.6267043
      },
      "tags": {
        "amenity": "clinic",
        "name": "Halasuru BBMP Primary Health Centre",
        "name:kn": "ಆರೋಗ್ಯ ಪ್ರಾಥಮಿಕ ಕೇಂದ್ರ"
      }
    },
    {
      "type": "way",
      "id": 688432870,
      "center": {
        "lat": 12.9807315,
        "lon": 77.6300214
      },
      "tags": {
        "amenity": "parking"
      }
    },
    {
      "type": "way",
      "id": 688444676,
      "center": {
        "lat": 12.9813273,
        "lon": 77.6283257
      },
      "tags": {
        "amenity": "place_of_worship",
        "name": "Good Shepherd Church",
        "religion": "christian"
      }
    },
    {
      "type": "way",
      "id": 688446487,
      "center": {
        "lat": 12.9813274,
        "lon": 77.6267989
      },
      "tags": {
        "leisure": "park"
      }
    },
    {
      "type": "way",
      "id": 691153651,
      "center": {
        "lat": 12.9873184,
        "lon": 77.6223456
      },
      "tags": {
        "leisure": "park"
      }
    },
    {
      "type": "way",
      "id": 1051886122,
      "center": {
        "lat": 12.9912597,
        "lon": 77.6172381
      },
      "tags": {
        "leisure": "pitch",
        "sport": "tennis"
      }
    },
    {
      "type": "way",
      "id": 1051886124,
      "center": {
        "lat": 12.991261,
        "lon": 77.619072
      },
      "tags": {
        "leisure": "park"
      }
    },
    {
      "type": "way",
      "id": 1052463665,
      "center": {
        "lat": 12.9821415,
        "lon": 77.6151763
      },
      "tags": {
        "amenity": "college",
        "name": "RBANMS First Grade Evening College"
      }
    },
    {
      "type": "way",
      "id": 1087008972,
      "center": {
        "lat": 12.9835444,
        "lon": 77.6234989
      },
      "tags": {
        "amenity": "social_facility",
        "brand": "Red Cross",
        "name": "Indian Red Cross Society",
        "office": "ngo"
      }
    },
    {
      "type": "way",
      "id": 1125007550,
      "center": {
        "lat": 12.9921005,
        "lon": 77.6252113
      },
      "tags": {
        "golf:course": "18_hole",
        "landuse": "grass",
        "leisure": "golf_course",
        "name": "MEG Golf Course"
      }
    },
    {
      "type": "way",
      "id": 1171722760,
      "center": {
        "lat": 12.9848345,
        "lon": 77.6161119
      },
      "tags": {
        "amenity": "place_of_worship",
        "name": "Sri Chandraprabhu Jain Temple",
        "religion": "jain"
      }
    },
    {
      "type": "way",
      "id": 1235866756,
      "center": {
        "lat": 12.9922229,
        "lon": 77.6176314
      },
      "tags": {
        "access": "private",
        "leisure": "swimming_pool"
      }
    },
    {
      "type": "way",
      "id": 1235995421,
      "center": {
        "lat": 12.9893901,
        "lon": 77.621104
      },
      "tags": {
        "access": "private",
        "leisure": "pitch",
        "sport": "tennis"
      }
    },
    {
      "type": "way",
      "id": 1304189526,
      "center": {
        "lat": 12.9873586,
        "lon": 77.6170219
      },
      "tags": {
        "access": "private",
        "amenity": "parking",
        "parking": "surface"
      }
    },
    {
      "type": "way",
      "id": 1304189527,
      "center": {
        "lat": 12.9870992,
        "lon": 77.6168483
      },
      "tags": {
        "access": "private",
        "amenity": "parking",
        "parking": "surface"
      }
    },
    {
      "type": "way",
      "id": 1305737836,
      "center": {
        "lat": 12.9899666,
        "lon": 77.6261665
      },
      "tags": {
        "access": "private",
        "leisure": "pitch",
        "sport": "basketball"
      }
    },
    {
      "type": "way",
      "id": 1349194501,
      "center": {
        "lat": 12.986285,
        "lon": 77.6230704
      },
      "tags": {
        "amenity": "place_of_worship",
        "landuse": "religious",
        "name": "Sri Anandpur Satsang Ashram",
        "religion": "hindu"
      }
    },
    {
      "type": "way",
      "id": 1349194506,
      "center": {
        "lat": 12.9869299,
        "lon": 77.6226142
      },
      "tags": {
        "leisure": "park"
      }
    },
    {
      "type": "way",
      "id": 1349194514,
      "center": {
        "lat": 12.9825143,
        "lon": 77.62327
      },
      "tags": {
        "access": "private",
        "leisure": "swimming_pool"
      }
    },
    {
      "type": "way",
      "id": 1349194555,
      "center": {
        "lat": 12.9876888,
        "lon": 77.6210655
      },
      "tags": {
        "amenity": "events_venue",
        "building": "yes"
      }
    },
    {
      "type": "way",
      "id": 1350607160,
      "center": {
        "lat": 12.9904005,
        "lon": 77.6190992
      },
      "tags": {
        "amenity": "community_centre",
        "name": "Young Men Indians' Association"
      }
    },
    {
      "type": "way",
      "id": 1350607177,
      "center": {
        "lat": 12.9949693,
        "lon": 77.6194125
      },
      "tags": {
        "amenity": "place_of_worship",
        "landuse": "religious",
        "religion": "hindu"
      }
    },
    {
      "type": "way",
      "id": 1381418977,
      "center": {
        "lat": 12.9861309,
        "lon": 77.6161109
      },
      "tags": {
        "access": "permissive",
        "amenity": "parking",
        "capacity": "8",
        "parking": "surface"
      }
    },
    {
      "type": "way",
      "id": 1381418978,
      "center": {
        "lat": 12.9858532,
        "lon": 77.6165343
      },
      "tags": {
        "access": "permissive",
        "amenity": "parking",
        "capacity": "12",
        "parking": "surface"
      }
    },
    {
      "type": "way",
      "id": 1381418979,
      "center": {
        "lat": 12.9858045,
        "lon": 77.616076
      },
      "tags": {
        "access": "permissive",
        "amenity": "parking",
        "capacity": "9",
        "parking": "surface"
      }
    }
  ]
}