{
  "area_name": "Kalkere",
  "osm_id": 440680091,
  "osm_type": "node",
  "place_type": "neighbourhood",
  "amenity_count": 68,
  "amenities": [
    {
      "type": "node",
      "id": 2474941762,
      "lat": 13.0331716,
      "lon": 77.6739337,
      "tags": {
        "addr:city": "Kalkere",
        "amenity": "clinic",
        "name": "Veterinary Hospital",
        "name:kn": "ಪಶುವೈದ್ಯ ಆಸ್ಪತ್ರೆ"
      }
    },
    {
      "type": "node",
      "id": 2474947034,
      "lat": 13.0386903,
      "lon": 77.6774703,
      "tags": {
        "addr:city": "K Channasandra",
        "addr:street": "Kalkere Channasandra Main Road",
        "amenity": "place_of_worship",
        "name": "Bhakthanjeneya Temple",
        "name:kn": "ಭಕ್ತಾಂಜನೇಯ ದೇವಸ್ಥಾನ",
        "religion": "hindu"
      }
    },
    {
      "type": "node",
      "id": 4844863345,
      "lat": 13.0388233,
      "lon": 77.6803069,
      "tags": {
        "shop": "bicycle"
      }
    },
    {
      "type": "node",
      "id": 4844863346,
      "lat": 13.0401108,
      "lon": 77.6798879,
      "tags": {
        "amenity": "pharmacy",
        "name": "Shri Vishnu",
        "name:en": "Shri Vishnu"
      }
    },
    {
      "type": "node",
      "id": 4844865035,
      "lat": 13.0387346,
      "lon": 77.681556,
      "tags": {
        "name": "PVC DOORS",
        "name:en": "PVC DOORS",
        "shop": "hardware"
      }
    },
    {
      "type": "node",
      "id": 4844865036,
      "lat": 13.0399608,
      "lon": 77.6801905,
      "tags": {
        "shop": "florist"
      }
    },
    {
      "type": "node",
      "id": 4851635498,
      "lat": 13.040195,
      "lon": 77.6798279,
      "tags": {
        "name": "Honeyland",
        "shop": "bakery"
      }
    },
    {
      "type": "node",
      "id": 4851635499,
      "lat": 13.0400233,
      "lon": 77.6788525,
      "tags": {
        "name": "Fresh vegetables and fruits center",
        "shop": "greengrocer"
      }
    },
    {
      "type": "node",
      "id": 4851635500,
      "lat": 13.0400213,
      "lon": 77.6786663,
      "tags": {
        "name": "Mahaveer Hardware",
        "shop": "hardware"
      }
    },
    {
      "type": "node",
      "id": 4851635501,
      "lat": 13.0400726,
      "lon": 77.6784842,
      "tags": {
        "name": "Mahesh Hardware",
        "shop": "hardware"
      }
    },
    {
      "type": "node",
      "id": 4851635502,
      "lat": 13.0400278,
      "lon": 77.6780069,
      "tags": {
        "name": "Shree Renukamba Steel and Cements",
        "shop": "hardware"
      }
    },
    {
      "type": "node",
      "id": 4851635503,
      "lat": 13.0400656,
      "lon": 77.6781209,
      "tags": {
        "amenity": "pharmacy",
        "name": "Shivagami Medicals and General Shop"
      }
    },
    {
      "type": "node",
      "id": 4851635504,
      "lat": 13.040117,
      "lon": 77.6778178,
      "tags": {
        "name": "Indira Glass Plywood",
        "shop": "hardware"
      }
    },
    {
      "type": "node",
      "id": 4851635505,
      "lat": 13.0400299,
      "lon": 77.6777769,
      "tags": {
        "name": "Yadhu Krishna Bakery and Sweets",
        "shop": "bakery"
      }
    },
    {
      "type": "node",
      "id": 4851635506,
      "lat": 13.0401292,
      "lon": 77.6777474,
      "tags": {
        "name": "Sri Balaji Wheel Alignment",
        "shop": "tyres"
      }
    },
    {
      "type": "node",
      "id": 4851635507,
      "lat": 13.0388466,
      "lon": 77.6772433,
      "tags": {
        "name": "Kavyashree Automobiles",
        "shop": "car_parts"
      }
    },
    {
      "type": "node",
      "id": 4851635508,
      "lat": 13.0371706,
      "lon": 77.6753552,
      "tags": {
        "name": "Bloom",
        "shop": "yes"
      }
    },
    {
      "type": "node",
      "id": 4851635509,
      "lat": 13.0372007,
      "lon": 77.6754142,
      "tags": {
        "name": "Tirumala Hot Chips",
        "shop": "yes"
      }
    },
    {
      "type": "node",
      "id": 4851635510,
      "lat": 13.0339931,
      "lon": 77.6751473,
      "tags": {
        "name": "Green Wood Furnitures",
        "shop": "furniture"
      }
    },
    {
      "type": "node",
      "id": 4851692288,
      "lat": 13.0338048,
      "lon": 77.6749929,
      "tags": {
        "name": "Sri Sai Enterprises",
        "shop": "yes"
      }
    },
    {
      "type": "node",
      "id": 4851692289,
      "lat": 13.0336328,
      "lon": 77.6749574,
      "tags": {
        "amenity": "clinic",
        "name": "Bhagat Dental Clinic"
      }
    },
    {
      "type": "node",
      "id": 4851692290,
      "lat": 13.0336124,
      "lon": 77.6748084,
      "tags": {
        "amenity": "pharmacy",
        "name": "Chandru Medicals and General Stores"
      }
    },
    {
      "type": "node",
      "id": 4851692291,
      "lat": 13.0333056,
      "lon": 77.6734249,
      "tags": {
        "name": "SLV",
        "shop": "greengrocer"
      }
    },
    {
      "type": "node",
      "id": 4851692292,
      "lat": 13.0324535,
      "lon": 77.6713146,
      "tags": {
        "name": "Sai Kanda fruits and vegetables shop",
        "shop": "greengrocer"
      }
    },
    {
      "type": "node",
      "id": 4851692293,
      "lat": 13.0324901,
      "lon": 77.6713723,
      "tags": {
        "name": "Ambar Puncture Shop",
        "shop": "tyres"
      }
    },
    {
      "type": "node",
      "id": 4851692294,
      "lat": 13.0315352,
      "lon": 77.6696599,
      "tags": {
        "name": "Cauvery Bakery and Sweets",
        "shop": "bakery"
      }
    },
    {
      "type": "node",
      "id": 4851692295,
      "lat": 13.031594,
      "lon": 77.6697377,
      "tags": {
        "name": "Vision World",
        "shop": "optician"
      }
    },
    {
      "type": "node",
      "id": 4851692296,
      "lat": 13.0313613,
      "lon": 77.6693813,
      "tags": {
        "name": "Super Art Glass Enterprises",
        "shop": "hardware"
      }
    },
    {
      "type": "node",
      "id": 4851692297,
      "lat": 13.0311434,
      "lon": 77.6691847,
      "tags": {
        "amenity": "school",
        "name": "St George High School",
        "name:kn": "ಸೇಂಟ್ ಜಾರ್ಜ್ ಪ್ರೌಡಶಾಲೆ"
      }
    },
    {
      "type": "node",
      "id": 4851692298,
      "lat": 13.0310425,
      "lon": 77.6689617,
      "tags": {
        "amenity": "restaurant",
        "name": "Ruchi"
      }
    },
    {
      "type": "node",
      "id": 4851692299,
      "lat": 13.0309806,
      "lon": 77.6682208,
      "tags": {
        "amenity": "school",
        "name": "Sunshine Childrens Home and School"
      }
    },
    {
      "type": "node",
      "id": 4851692300,
      "lat": 13.0304629,
      "lon": 77.6669591,
      "tags": {
        "amenity": "car_wash",
        "name": "Sai Car Caare"
      }
    },
    {
      "type": "node",
      "id": 4851692301,
      "lat": 13.0302825,
      "lon": 77.6665431,
      "tags": {
        "name": "Sun Traders",
        "shop": "yes"
      }
    },
    {
      "type": "node",
      "id": 7507326236,
      "lat": 13.0309302,
      "lon": 77.6690791,
      "tags": {
        "amenity": "fuel",
        "brand": "Bharat Petroleum",
        "brand:wikidata": "Q854826",
        "name": "Bharat Petroleum",
        "operator": "Bharat Petroleum",
        "self_service": "no"
      }
    },
    {
      "type": "node",
      "id": 7507326237,
      "lat": 13.0328638,
      "lon": 77.671933,
      "tags": {
        "amenity": "place_of_worship",
        "name": "Hanuman",
        "name:kn": "ಹನುಮಂತ",
        "religion": "hindu"
      }
    },
    {
      "type": "node",
      "id": 7507326238,
      "lat": 13.0328037,
      "lon": 77.6717238,
      "tags": {
        "amenity": "place_of_worship",
        "name": "Shiva",
        "religion": "hindu"
      }
    },
    {
      "type": "node",
      "id": 7507326239,
      "lat": 13.0326731,
      "lon": 77.6715575,
      "tags": {
        "leisure": "fitness_centre"
      }
    },
    {
      "type": "node",
      "id": 7507326240,
      "lat": 13.0332767,
      "lon": 77.6715307,
      "tags": {
        "leisure": "playground"
      }
    },
    {
      "type": "node",
      "id": 7507326241,
      "lat": 13.0306139,
      "lon": 77.667848,
      "tags": {
        "amenity": "place_of_worship",
        "religion": "hindu"
      }
    },
    {
      "type": "node",
      "id": 7507326242,
      "lat": 13.0305173,
      "lon": 77.6673115,
      "tags": {
        "name": "shop right",
        "shop": "supermarket"
      }
    },
    {
      "type": "node",
      "id": 7507326243,
      "lat": 13.0305251,
      "lon": 77.6675932,
      "tags": {
        "amenity": "dentist",
        "healthcare": "dentist"
      }
    },
    {
      "type": "node",
      "id": 7572131859,
      "lat": 13.0308448,
      "lon": 77.6686663,
      "tags": {
        "addr:district": "Bengaluru Urban",
        "addr:full": "Kalkere, Bengaluru",
        "addr:postcode": "560016",
        "addr:state": "Karnataka",
        "amenity": "clinic",
        "name": "Urban Kids Clinic",
        "source": "Local Knowledge"
      }
    },
    {
      "type": "node",
      "id": 7572131865,
      "lat": 13.0281472,
      "lon": 77.67947,
      "tags": {
        "addr:district": "Bengaluru Urban",
        "addr:full": "Ramamurthy Nagar, Bengaluru",
        "addr:postcode": "560043",
        "addr:state": "Karnataka",
        "amenity": "dentist",
        "name": "Healthy smiles dental clinic",
        "source": "Local Knowledge"
      }
    },
    {
      "type": "node",
      "id": 7572131884,
      "lat": 13.033219,
      "lon": 77.6747693,
      "tags": {
        "addr:district": "Bengaluru Urban",
        "addr:full": "Punyabhoomi Layout, Kalkere, Bengaluru",
        "addr:postcode": "560016",
        "addr:state": "Karnataka",
        "amenity": "hospital",
        "name": "Eshawar HospItal",
        "source": "Local Knowledge"
      }
    },
    {
      "type": "node",
      "id": 7572131910,
      "lat": 13.033771,
      "lon": 77.674877,
      "tags": {
        "addr:district": "Bengaluru Urban",
        "addr:full": "Channasandra Main Road, Kalkere, Bengaluru",
        "addr:postcode": "560016",
        "addr:state": "Karnataka",
        "amenity": "dentist",
        "name": "Bhagat Dental Clinic",
        "source": "Local Knowledge"
      }
    },
    {
      "type": "node",
      "id": 7572131922,
      "lat": 13.0329207,
      "lon": 77.6747772,
      "tags": {
        "addr:district": "Bengaluru Urban",
        "addr:full": "Near Dr. Rajkumar Circle, Punyabhoomi Layout, Kalkere, Bengaluru",
        "addr:postcode": "560043",
        "addr:state": "Karnataka",
        "amenity": "clinic",
        "name": "R K Polyclinic",
        "source": "Local Knowledge"
      }
    },
    {
      "type": "node",
      "id": 7572131929,
      "lat": 13.033656,
      "lon": 77.674772,
      "tags": {
        "addr:district": "Bengaluru Urban",
        "addr:full": "Kalkere, Bengaluru",
        "addr:postcode": "560016",
        "addr:state": "Karnataka",
        "amenity": "dentist",
        "name": "Asesh Dental Clinic",
        "source": "Local Knowledge"
      }
    },
    {
      "type": "node",
      "id": 7605605797,
      "lat": 13.0291681,
      "lon": 77.6691999,
      "tags": {
        "addr:city": "Bengaluru",
        "addr:housenumber": "Survey no 505/1 & 505/2",
        "addr:postcode": "560043",
        "addr:street": "Kalkere Village, K.R. Puram Hobli, Bangalore South Taluk",
        "leisure": "park",
        "name": "Cumins Sports park",
        "operator": "Cumins"
      }
    },
    {
      "type": "node",
      "id": 12116422270,
      "lat": 13.0375671,
      "lon": 77.6651503,
      "tags": {
        "amenity": "atm",
        "branch": "Banjara Layout",
        "brand": "ICICI Bank",
        "brand:wikidata": "Q1653258",
        "operator": "ICICI Bank",
        "operator:wikidata": "Q1653258",
        "short_name": "ICICI"
      }
    },
    {
      "type": "node",
      "id": 12116422271,
      "lat": 13.0381551,
      "lon": 77.6658727,
      "tags": {
        "amenity": "atm",
        "branch": "Banjara Layout",
        "brand": "Axis Bank",
        "brand:wikidata": "Q2003549",
        "operator": "Axis Bank",
        "operator:wikidata": "Q2003549"
      }
    },
    {
      "type": "node",
      "id": 12116422272,
      "lat": 13.0381517,
      "lon": 77.6659314,
      "tags": {
        "amenity": "pharmacy",
        "healthcare": "pharmacy",
        "name": "Ashok Medicals"
      }
    },
    {
      "type": "way",
      "id": 37592665,
      "center": {
        "lat": 13.0312504,
        "lon": 77.6696022
      },
      "tags": {
        "amenity": "college",
        "name": "Saint John's Academy of Management Studies"
      }
    },
    {
      "type": "way",
      "id": 239716193,
      "center": {
        "lat": 13.0313671,
        "lon": 77.6685691
      },
      "tags": {
        "addr:city": "KALKERE",
        "addr:street": "Kalkere Main Road;Horamavu Main Road",
        "amenity": "school",
        "name": "Sunshine School"
      }
    },
    {
      "type": "way",
      "id": 239716959,
      "center": {
        "lat": 13.0337969,
        "lon": 77.6741817
      },
      "tags": {
        "leisure": "park",
        "name": "Kalkere Park",
        "name:kn": "ಕಾಲ್ಕೆರೆ ಉದ್ಯಾನವನ"
      }
    },
    {
      "type": "way",
      "id": 239716960,
      "center": {
        "lat": 13.0330113,
        "lon": 77.6735548
      },
      "tags": {
        "amenity": "school",
        "name": "Kalkere Government High School",
        "name:kn": "ಕಾಲ್ಕೆರೆ ಸರ್ಕಾರಿ ಪ್ರೌಢ ಶಾಲೆ"
      }
    },
    {
      "type": "way",
      "id": 239770800,
      "center": {
        "lat": 13.0395322,
        "lon": 77.668328
      },
      "tags": {
        "amenity": "place_of_worship",
        "building": "yes",
        "name": "Om Shakthi Temple",
        "name:kn": "ಓಂ ಶಕ್ತಿ ದೇವಸ್ಥಾನ",
        "religion": "hindu"
      }
    },
    {
      "type": "way",
      "id": 814167242,
      "center": {
        "lat": 13.0291464,
        "lon": 77.669209
      },
      "tags": {
        "addr:city": "Bengaluru",
        "addr:housenumber": "Survey no 505/1 & 505/2",
        "addr:postcode": "560043",
        "addr:street": "Kalkere Village, K.R. Puram Hobli, Bangalore South Taluk",
        "leisure": "park",
        "name": "Cumins Sports Park",
        "opening_hours": "sunrise-sunset",
        "opening_hours:covid19": "closed",
        "operator": "Cumins Genesis"
      }
    },
    {
      "type": "way",
      "id": 1266460872,
      "center": {
        "lat": 13.0361217,
        "lon": 77.6699629
      },
      "tags": {
        "amenity": "school"
      }
    },
    {
      "type": "way",
      "id": 1266481189,
      "center": {
        "lat": 13.037857,
        "lon": 77.6706352
      },
      "tags": {
        "addr:city": "Bengaluru",
        "addr:postcode": "560113",
        "addr:street": "C Pillappa Farms, Kalkere Agara Main Road, Kalkere",
        "amenity": "school",
        "name": "National Public School Kalkere",
        "name:kn": "ರಾಷ್ಟ್ರೀಯ ಸಾರ್ವಜನಿಕ ಶಾಲೆ ಕಾಲ್ಕೆರೆ",
        "website": "https://npskalkere.com/"
      }
    },
    {
      "type": "way",
      "id": 1266488168,
      "center": {
        "lat": 13.0381449,
        "lon": 77.6709911
      },
      "tags": {
        "leisure": "playground"
      }
    },
    {
      "type": "way",
      "id": 1324924815,
      "center": {
        "lat": 13.034161,
        "lon": 77.6719542
      },
      "tags": {
        "amenity": "place_of_worship",
        "building": "yes",
        "name": "Kalkere Sri Shankara Matha",
        "religion": "hindu",
        "source": "microsoft/BuildingFootprints"
      }
    },
    {
      "type": "way",
      "id": 1410389202,
      "center": {
        "lat": 13.0302581,
        "lon": 77.6776616
      },
      "tags": {
        "amenity": "place_of_worship",
        "building": "yes",
        "religion": "hindu"
      }
    },
    {
      "type": "way",
      "id": 1414809417,
      "center": {
        "lat": 13.041719,
        "lon": 77.672285
      },
      "tags": {
        "amenity": "school"
      }
    },
    {
      "type": "way",
      "id": 1414809488,
      "center": {
        "lat": 13.035822,
        "lon": 77.6778621
      },
      "tags": {
        "amenity": "school"
      }
    },
    {
      "type": "way",
      "id": 1414843305,
      "center": {
        "lat": 13.0276262,
        "lon": 77.6783264
      },
      "tags": {
        "leisure": "swimming_pool"
      }
    },
    {
      "type": "way",
      "id": 1424733006,
      "center": {
        "lat": 13.039069,
        "lon": 77.666754
      },
      "tags": {
        "leisure": "pitch",
        "sport": "tennis"
      }
    },
    {
      "type": "way",
      "id": 1424733174,
      "center": {
        "lat": 13.0376483,
        "lon": 77.6755123
      },
      "tags": {
        "amenity": "fuel",
        "brand": "Hindustan Petroleum",
        "brand:wikidata": "Q1619375",
        "man_made": "fuel_pump",
        "name": "HPCL KSJ enterprises",
        "official_name": "Hindustan Petroleum",
        "operator": "Hindustan Petroleum",
        "self_service": "no"
      }
    },
    {
      "type": "way",
      "id": 1424933711,
      "center": {
        "lat": 13.0416863,
        "lon": 77.6726023
      },
      "tags": {
        "leisure": "pitch"
      }
    }
  ]
}