{
  "area_name": "Kalyanagar",
  "osm_id": 19883427,
  "osm_type": "relation",
  "place_type": "administrative",
  "amenity_count": 174,
  "amenities": [
    {
      "type": "node",
      "id": 762086731,
      "lat": 13.0210003,
      "lon": 77.6401088,
      "tags": {
        "amenity": "place_of_worship",
        "denomination": "brethren",
        "name": "Bethel Brethren Assembly",
        "religion": "christian"
      }
    },
    {
      "type": "node",
      "id": 762088825,
      "lat": 13.0198322,
      "lon": 77.6409454,
      "tags": {
        "leisure": "fitness_centre",
        "name": "Body & Soul Gym"
      }
    },
    {
      "type": "node",
      "id": 1283697980,
      "lat": 13.0215955,
      "lon": 77.6393557,
      "tags": {
        "addr:street": "5th Main",
        "amenity": "fast_food",
        "brand": "Domino's",
        "brand:ks": "ڈومینوز",
        "brand:pa": "ਡੋਮੀਨੋਜ਼",
        "brand:ur": "ڈومینوز",
        "brand:wikidata": "Q839466",
        "brand:wikipedia": "en:Domino's Pizza",
        "cuisine": "pizza",
        "name": "Domino's",
        "name:kn": "ಡಾಮಿನೋಸ್",
        "name:ks": "ڈومینوز",
        "name:pa": "ਡੋਮੀਨੋਜ਼",
        "name:ur": "ڈومینوز",
        "takeaway": "yes"
      }
    },
    {
      "type": "node",
      "id": 1742635196,
      "lat": 13.0149612,
      "lon": 77.6438861,
      "tags": {
        "amenity": "fast_food",
        "cuisine": "coffee_shop",
        "name": "Cuppa"
      }
    },
    {
      "type": "node",
      "id": 1742635612,
      "lat": 13.0150344,
      "lon": 77.6437466,
      "tags": {
        "name": "Pacer Yamaha showroom",
        "shop": "motorcycle"
      }
    },
    {
      "type": "node",
      "id": 1742637590,
      "lat": 13.0155149,
      "lon": 77.6430312,
      "tags": {
        "amenity": "place_of_worship",
        "check_date": "2024-07-10",
        "name": "Om Shakthi Temple",
        "name:kn": "ಓಂ ಶಕ್ತಿ ದೇವಸ್ಥಾನ",
        "religion": "hindu"
      }
    },
    {
      "type": "node",
      "id": 1742639143,
      "lat": 13.0159282,
      "lon": 77.6430921,
      "tags": {
        "name": "City Honda",
        "shop": "motorcycle"
      }
    },
    {
      "type": "node",
      "id": 1742641132,
      "lat": 13.0145928,
      "lon": 77.6462464,
      "tags": {
        "amenity": "bank",
        "atm": "yes",
        "brand": "Bank of Maharashtra",
        "brand:wikidata": "Q2004304",
        "brand:wikipedia": "en:Bank of Maharashtra",
        "name": "Bank of Maharashtra",
        "name:en": "Bank of Maharashtra",
        "website": "https://www.bankofmaharashtra.in/"
      }
    },
    {
      "type": "node",
      "id": 1742641459,
      "lat": 13.0147104,
      "lon": 77.6462571,
      "tags": {
        "amenity": "library",
        "name": "Just Books"
      }
    },
    {
      "type": "node",
      "id": 1742654255,
      "lat": 13.0163724,
      "lon": 77.6428346,
      "tags": {
        "amenity": "bank",
        "atm": "yes",
        "brand": "State Bank of India",
        "brand:wikidata": "Q1340361",
        "brand:wikipedia": "en:State Bank of India",
        "name": "State Bank of India",
        "name:kn": "ಮೈಸೂರು ಬ್ಯಾಂಕ್‌",
        "short_name": "SBI",
        "website": "https://www.sbi.co.in"
      }
    },
    {
      "type": "node",
      "id": 1742670069,
      "lat": 13.0143184,
      "lon": 77.6423518,
      "tags": {
        "amenity": "school",
        "check_date": "2024-07-06",
        "name": "Patel Public School"
      }
    },
    {
      "type": "node",
      "id": 1742670267,
      "lat": 13.0140832,
      "lon": 77.6423465,
      "tags": {
        "name": "Bake Fields",
        "shop": "bakery"
      }
    },
    {
      "type": "node",
      "id": 1743937707,
      "lat": 13.0095498,
      "lon": 77.6434526,
      "tags": {
        "amenity": "restaurant",
        "cuisine": "indian",
        "name": "Uttam Sagar",
        "name:kn": "ಉತ್ತಮ್ ಸಾಗರ್"
      }
    },
    {
      "type": "node",
      "id": 1743937742,
      "lat": 13.0144106,
      "lon": 77.6427176,
      "tags": {
        "amenity": "restaurant",
        "cuisine": "indian",
        "name": "Adigas Annapoorna",
        "name:kn": "ಅಡಿಗಾಸ್ ಅನ್ನಪೂರ್ಣ"
      }
    },
    {
      "type": "node",
      "id": 1743939200,
      "lat": 13.0126649,
      "lon": 77.6474598,
      "tags": {
        "amenity": "bar",
        "name": "Sreeraj Lassi Bar"
      }
    },
    {
      "type": "node",
      "id": 1808847105,
      "lat": 13.0221658,
      "lon": 77.6401765,
      "tags": {
        "alt_name": "Lenovo Store",
        "name": "Syscom",
        "shop": "hifi"
      }
    },
    {
      "type": "node",
      "id": 1808847124,
      "lat": 13.0219361,
      "lon": 77.6392168,
      "tags": {
        "amenity": "cafe",
        "brand": "Barista",
        "brand:wikidata": "Q644735",
        "cuisine": "coffee_shop",
        "name": "Barista",
        "name:kn": "ಬರಿಸ್ಟಾ",
        "takeaway": "yes"
      }
    },
    {
      "type": "node",
      "id": 2013325720,
      "lat": 13.0239856,
      "lon": 77.6431902,
      "tags": {
        "brand": "Gold's Gym",
        "brand:wikidata": "Q1536234",
        "leisure": "fitness_centre",
        "name": "Gold's Gym"
      }
    },
    {
      "type": "node",
      "id": 2470763135,
      "lat": 13.0178488,
      "lon": 77.6364588,
      "tags": {
        "amenity": "fast_food",
        "local_ref": "KAMAANAHALLI",
        "name": "Kammanahalli",
        "name:en": "Kammanahalli",
        "name:kn": "ಕಮ್ಮನಹಳ್ಳಿ",
        "network": "BMTC",
        "operator": "BMTC"
      }
    },
    {
      "type": "node",
      "id": 2475354324,
      "lat": 13.0155815,
      "lon": 77.6426558,
      "tags": {
        "addr:city": "Kalyan Nagar, Bangalore",
        "addr:street": "7 Main Road",
        "amenity": "college",
        "check_date": "2024-07-06",
        "name": "East Point College"
      }
    },
    {
      "type": "node",
      "id": 2728559202,
      "lat": 13.0207557,
      "lon": 77.6437335,
      "tags": {
        "addr:city": "Bangalore",
        "addr:housenumber": "Canara Bank",
        "addr:postcode": "560043",
        "addr:street": "7th A Main",
        "amenity": "bank",
        "atm": "yes"
      }
    },
    {
      "type": "node",
      "id": 2730805923,
      "lat": 13.020785,
      "lon": 77.6435221,
      "tags": {
        "addr:city": "Bangalore",
        "addr:postcode": "560043",
        "addr:street": "80 feet road babusapalya main road Kalyan Nagar",
        "amenity": "cafe",
        "name": "Rastarasta.com"
      }
    },
    {
      "type": "node",
      "id": 3918664256,
      "lat": 13.0195687,
      "lon": 77.6371797,
      "tags": {
        "amenity": "restaurant",
        "cuisine": "korean",
        "name": "Arirang Korean Restaurant"
      }
    },
    {
      "type": "node",
      "id": 4189843307,
      "lat": 13.0206063,
      "lon": 77.6445361,
      "tags": {
        "addr:city": "Bangalore",
        "addr:postcode": "560043",
        "addr:street": "4th B cross, 7th C Main",
        "amenity": "hospital",
        "emergency": "no",
        "name": "Rajbal Skin Clinic",
        "operator": "Skin Specialist"
      }
    },
    {
      "type": "node",
      "id": 4349394092,
      "lat": 13.0099795,
      "lon": 77.6434028,
      "tags": {
        "amenity": "bank",
        "brand:wikidata": "Q1340361",
        "brand:wikipedia": "en:State Bank of India",
        "name": "State Bank of India",
        "name:kn": "ಎಸ್ ಬಿ ಐ",
        "short_name": "SBI",
        "website": "https://www.sbi.co.in"
      }
    },
    {
      "type": "node",
      "id": 4349443891,
      "lat": 13.0169826,
      "lon": 77.6432959,
      "tags": {
        "addr:district": "Bengaluru Urban",
        "addr:full": "Kalyan Nagar, Bengaluru",
        "addr:postcode": "560043",
        "addr:state": "Karnataka",
        "amenity": "hospital",
        "name": "Trilife Hospital",
        "source": "Local Knowledge"
      }
    },
    {
      "type": "node",
      "id": 4426126391,
      "lat": 13.0155316,
      "lon": 77.6394955,
      "tags": {
        "amenity": "cafe",
        "name": "Al Amanah Cafe",
        "name:en": "Al amanah cafe"
      }
    },
    {
      "type": "node",
      "id": 4443594010,
      "lat": 13.0214839,
      "lon": 77.6408994,
      "tags": {
        "addr:city": "Bangalore",
        "addr:housenumber": "507",
        "addr:postcode": "560043",
        "addr:street": "CMR Road",
        "amenity": "restaurant",
        "cuisine": "korean",
        "name": "Thran",
        "opening_hours": "12:00-15:00,18:00-22:00",
        "phone": "080 4205 0685",
        "takeaway": "yes"
      }
    },
    {
      "type": "node",
      "id": 4446869496,
      "lat": 13.0208903,
      "lon": 77.643156,
      "tags": {
        "addr:city": "Bangalore",
        "addr:housenumber": "315, 7th Main Rd",
        "addr:postcode": "560043",
        "addr:street": ", HRBR Layout 2nd Block, Kalyan Nagar",
        "amenity": "restaurant",
        "cuisine": "regional",
        "delivery": "yes",
        "name": "Sway",
        "opening_hours": "NA",
        "smoking": "no",
        "takeaway": "yes"
      }
    },
    {
      "type": "node",
      "id": 4446876066,
      "lat": 13.0204424,
      "lon": 77.6440607,
      "tags": {
        "addr:city": "Bangalore",
        "addr:housenumber": "714",
        "addr:postcode": "560043",
        "addr:street": "4th B Cross, 7th A Main, 1st Block, HRBR Layout, Kalyan Nagar",
        "amenity": "hospital",
        "name": "Herbocare Hospital Pvt",
        "phone": "+9174064 30003",
        "website": "herbocare.info"
      }
    },
    {
      "type": "node",
      "id": 4446961587,
      "lat": 13.0217392,
      "lon": 77.6397872,
      "tags": {
        "addr:city": "Bangalore",
        "addr:housenumber": "11th/ 14th cross rd",
        "addr:postcode": "560043",
        "addr:street": "HRBR Lay out, Near Axis bank",
        "amenity": "restaurant",
        "cuisine": "regional",
        "delivery": "yes",
        "name": "Food Magic Restaurant",
        "opening_hours": "08:00-00:00",
        "smoking": "no",
        "takeaway": "yes"
      }
    },
    {
      "type": "node",
      "id": 4446981238,
      "lat": 13.0155944,
      "lon": 77.6397049,
      "tags": {
        "addr:city": "bangalore",
        "addr:housenumber": "20, 5th Avenue",
        "addr:postcode": "560043",
        "addr:street": "PNS Layout, Kalyan Nagar,",
        "amenity": "restaurant",
        "cuisine": "regional",
        "delivery": "yes",
        "name": "Al Amanah Cafe",
        "opening_hours": "16:00-23:30",
        "smoking": "no",
        "takeaway": "yes"
      }
    },
    {
      "type": "node",
      "id": 4447006821,
      "lat": 13.0210445,
      "lon": 77.6426065,
      "tags": {
        "addr:city": "Bangalore",
        "addr:housenumber": "614",
        "addr:postcode": "560043",
        "addr:street": "6th A Main Rd, HRBR Layout 2nd Block, Kalyan Nagar,",
        "amenity": "ice_cream",
        "cuisine": "regional",
        "delivery": "yes",
        "name": "Corner House",
        "name:kn": "ಕಾರ್ನರ್ ಹೌಸ್",
        "opening_hours": "11:00-23:00",
        "phone": "080 6546 5551",
        "smoking": "no",
        "takeaway": "yes"
      }
    },
    {
      "type": "node",
      "id": 4447013600,
      "lat": 13.022023,
      "lon": 77.6389206,
      "tags": {
        "addr:city": "Bangalore",
        "addr:housenumber": "420",
        "addr:postcode": "560043",
        "addr:street": "CMR Rd, HRBR Layout 2nd Block, Kalyan Nagar",
        "amenity": "fast_food",
        "cuisine": "regional",
        "delivery": "yes",
        "drive_through": "yes",
        "name": "Majlis Restaurant",
        "opening_hours": "12:00-23:00",
        "phone": "080 4123 1221",
        "smoking": "no",
        "takeaway": "yes"
      }
    },
    {
      "type": "node",
      "id": 4447228633,
      "lat": 13.0236936,
      "lon": 77.6431324,
      "tags": {
        "addr:city": "bangalore",
        "addr:housenumber": "415",
        "addr:postcode": "560043",
        "addr:street": "7th Main Rd, HRBR Layout 1st Block, Vijaya Bank Colony Extension, Kalyan Nagar",
        "amenity": "restaurant"
      }
    },
    {
      "type": "node",
      "id": 4447268977,
      "lat": 13.021689,
      "lon": 77.639838,
      "tags": {
        "addr:city": "Bangalore",
        "addr:postcode": "560043",
        "addr:street": "CMR Rd, HRBR Layout, Kalyan Nagar",
        "amenity": "restaurant",
        "cuisine": "regional",
        "delivery": "yes",
        "name": "Paranthas and Dosas",
        "opening_hours": "09:00-22:30",
        "phone": "080 3271 3131",
        "smoking": "no"
      }
    },
    {
      "type": "node",
      "id": 4447284873,
      "lat": 13.0184721,
      "lon": 77.6427206,
      "tags": {
        "addr:city": "Bangalore",
        "addr:housenumber": "615",
        "addr:postcode": "560043",
        "addr:street": "2nd B cross , 2nd Block , 6th A Main, Kalyan Nagar",
        "amenity": "restaurant",
        "cuisine": "regional",
        "delivery": "yes",
        "name": "Oye Hoye",
        "opening_hours": "09:30-15:30,18:30-22:00",
        "phone": "099000 03026",
        "smoking": "no",
        "takeaway": "yes"
      }
    },
    {
      "type": "node",
      "id": 4447307112,
      "lat": 13.0250736,
      "lon": 77.6401906,
      "tags": {
        "addr:city": "bangalore",
        "addr:postcode": "560043",
        "addr:street": "5th Main Cross Road, HRBR Layout Kalyan Nagar 2 Block",
        "amenity": "restaurant",
        "cuisine": "regional",
        "delivery": "yes",
        "name": "La Casa",
        "opening_hours": "11:00-23:00",
        "phone": "080 4208 4201",
        "smoking": "no",
        "takeaway": "yes"
      }
    },
    {
      "type": "node",
      "id": 4447315290,
      "lat": 13.0219932,
      "lon": 77.6405659,
      "tags": {
        "addr:city": "Bangalore",
        "addr:postcode": "560043",
        "addr:street": "First Floor, CMR Road, HRBR Layout,2nd Block, Kalyan Nagar",
        "amenity": "restaurant",
        "cuisine": "regional",
        "delivery": "yes",
        "name": "Mast Kalandar",
        "name:kn": "ಮಸ್ತ್ ಕಲಂದರ್",
        "opening_hours": "12:00-23:00",
        "phone": "080 4161 0777",
        "smoking": "no",
        "takeaway": "yes",
        "website": "http://mkdabbawala.com/"
      }
    },
    {
      "type": "node",
      "id": 4447363016,
      "lat": 13.0215823,
      "lon": 77.6403247,
      "tags": {
        "addr:city": "Bangalore",
        "addr:housenumber": "No. 30,",
        "addr:postcode": "560043",
        "addr:street": "B.R.Plaza, 3rd Floor, 4th Cross, CMR Road, Hrbr Layout, Kalyan Nagar, Kalyan Naga",
        "amenity": "restaurant",
        "cuisine": "regional",
        "delivery": "yes",
        "name": "Barbeque Nation",
        "opening_hours": "12:30-22:30",
        "phone": "080 6060 0000",
        "smoking": "no",
        "takeaway": "yes",
        "website": "https://www.barbequenation.com/"
      }
    },
    {
      "type": "node",
      "id": 4488838434,
      "lat": 13.0220604,
      "lon": 77.638771,
      "tags": {
        "addr:city": "Bangalore",
        "addr:postcode": "560043",
        "addr:street": "CMR Road, Beside Aravind Life Style, HRBR Layout 2nd Block, Kalyan Nagar",
        "name": "The Sport Mall",
        "phone": "080 3927 5511",
        "shop": "sports",
        "website": "thesportmall.in"
      }
    },
    {
      "type": "node",
      "id": 4488962870,
      "lat": 13.0220316,
      "lon": 77.6389717,
      "tags": {
        "addr:city": "Bangalore",
        "addr:postcode": "560043",
        "addr:street": "CMR Road, Beside Aravind Life Style, HRBR Layout 2nd Block, Kalyan Nagar, Bhadrappa Layout, Kalyan Nagar,",
        "name": "The Sport Mall",
        "opening_hours": "10:30-21:30",
        "phone": "08039275511",
        "shop": "sports",
        "website": "thesportmall.in"
      }
    },
    {
      "type": "node",
      "id": 4489763428,
      "lat": 13.0131486,
      "lon": 77.6481052,
      "tags": {
        "addr:city": "bangalore",
        "addr:housenumber": "6",
        "addr:postcode": "560043",
        "addr:street": "1st Floor, 1st Cross, Banswadi Main Road, Dodda Banaswadi",
        "name": "Venus Unisex Salon",
        "opening_hours": "11:00-21:00",
        "phone": "9916248091",
        "shop": "beauty"
      }
    },
    {
      "type": "node",
      "id": 4489813530,
      "lat": 13.0209701,
      "lon": 77.6430322,
      "tags": {
        "addr:city": "Bangalore",
        "addr:housenumber": "3rd Floor",
        "addr:postcode": "560043",
        "addr:street": ", No. 7M 319, 7th Main Road, 2nd Block, HRBR Layout, Kalyan Nagar, HRBR Layout 2nd Block, HRBR Layout, Kalyan Nagar, Bengaluru, Karnataka",
        "leisure": "sports_centre",
        "name": "Figurine Fitness Kalyan Nagar",
        "opening_hours": "6:00-24:00",
        "phone": "080 6565 3777",
        "website": "https://figurinefitness.in/"
      }
    },
    {
      "type": "node",
      "id": 4489844854,
      "lat": 13.0195645,
      "lon": 77.6372622,
      "tags": {
        "addr:city": "bangalore",
        "addr:housenumber": "43",
        "addr:postcode": "560043",
        "addr:street": "1st Floor, Horamavu Main Road, Horamavu",
        "name": "Shaakya Body Spa",
        "opening_hours": "09:00-21:30",
        "phone": "9886440056",
        "shop": "beauty",
        "website": "https://www.shaakyaspa.com/"
      }
    },
    {
      "type": "node",
      "id": 4489872855,
      "lat": 13.0217349,
      "lon": 77.6371117,
      "tags": {
        "addr:city": "Bangalore",
        "addr:housenumber": "10",
        "addr:postcode": "560043",
        "addr:street": "Kammanahalli Main Road",
        "name": "Impress Cuts Family Salon",
        "opening_hours": "09:00-21:30",
        "phone": "80-33094638",
        "shop": "beauty"
      }
    },
    {
      "type": "node",
      "id": 4489890908,
      "lat": 13.021842,
      "lon": 77.6372078,
      "tags": {
        "addr:city": "Bangalore",
        "addr:housenumber": "10",
        "addr:postcode": "560084",
        "addr:street": "Kammanahalli Main Road",
        "name": "Impress Cuts",
        "opening_hours": "09:00-21:30",
        "phone": "8041106017",
        "shop": "beauty"
      }
    },
    {
      "type": "node",
      "id": 4490504246,
      "lat": 13.0216799,
      "lon": 77.6372975,
      "tags": {
        "addr:city": "Bangalore",
        "addr:housenumber": "4/1",
        "addr:postcode": "560084",
        "addr:street": "4/1, Kammanalli Main Road, Opp. Jal Vayu Vihar, Bhadrappa Layout, Sena Vihar, Kammanahalli, Bengaluru,",
        "leisure": "sports_centre",
        "name": "Cubo Fitness",
        "opening_hours": "5:30-21:30",
        "phone": "9880079611",
        "sport": "gymnasium",
        "website": "https://cubofitness.com/"
      }
    },
    {
      "type": "node",
      "id": 4535189245,
      "lat": 13.021608,
      "lon": 77.6416377,
      "tags": {
        "addr:postcode": "5600043",
        "amenity": "restaurant",
        "name": "Fusion",
        "name:en": "fusion"
      }
    },
    {
      "type": "node",
      "id": 4784848418,
      "lat": 13.0097185,
      "lon": 77.6444698,
      "tags": {
        "addr:city": "Bangalore",
        "addr:full": "586, 3rd Cross Road, Near Maruthi School Bus Stop, Erappa Layout, Subbaiahna Palya, Banaswadi, Bangalore - 560043",
        "addr:housenumber": "586",
        "addr:postcode": "560043",
        "addr:street": "3rd Cross Road",
        "amenity": "bank",
        "atm": "yes",
        "brand": "Syndicate Bank",
        "brand:wikidata": "Q2004088",
        "name": "Syndicate Bank",
        "name:en": "Syndicate Bank",
        "name:kn": "ಸಿಂಡಿಕೇಟ್ ಬ್ಯಾಂಕ್",
        "website": "https://www.syndicatebank.in"
      }
    },
    {
      "type": "node",
      "id": 4798061775,
      "lat": 13.0216594,
      "lon": 77.6396888,
      "tags": {
        "addr:city": "Bangalore",
        "addr:housenumber": "421",
        "addr:postcode": "560043",
        "addr:street": "CMR Rd, HRBR Layout 2nd Block, Kalyan Nagar",
        "alt_name": "A2B",
        "amenity": "restaurant",
        "brand": "Adyar Ananda Bhavan",
        "brand:wikidata": "Q15178238",
        "cuisine": "regional",
        "delivery": "yes",
        "diet:vegetarian": "only",
        "name": "Adyar Ananda Bhavan",
        "name:kn": "ಆದ್ಯಾರ್ ಆನಂದ ಭವನ",
        "opening_hours": "06:30-22:30",
        "operator": "Adyar Ananda Bhavan",
        "phone": "+91 80 4205 8999;+91 80 4206 1999",
        "smoking": "no",
        "takeaway": "yes",
        "website": "https://aabsweets.com"
      }
    },
    {
      "type": "node",
      "id": 4844863327,
      "lat": 13.0085671,
      "lon": 77.6420845,
      "tags": {
        "name": "Multiplex",
        "name:en": "Multiplex",
        "shop": "supermarket"
      }
    },
    {
      "type": "node",
      "id": 4844863328,
      "lat": 13.0106572,
      "lon": 77.6454963,
      "tags": {
        "name": "Digital world",
        "name:en": "Digital world",
        "shop": "electronics"
      }
    },
    {
      "type": "node",
      "id": 4844863330,
      "lat": 13.0129746,
      "lon": 77.6479687,
      "tags": {
        "amenity": "restaurant",
        "name": "New Shanti sagar",
        "name:en": "New Shanti sagar"
      }
    },
    {
      "type": "node",
      "id": 4844863378,
      "lat": 13.0089466,
      "lon": 77.6427801,
      "tags": {
        "name": "Happy shoppy",
        "name:en": "Happy shoppy",
        "shop": "supermarket"
      }
    },
    {
      "type": "node",
      "id": 4844863379,
      "lat": 13.0093391,
      "lon": 77.6432232,
      "tags": {
        "amenity": "bank",
        "brand": "Punjab National Bank",
        "brand:wikidata": "Q2743499",
        "name": "Punjab National Bank",
        "name:en": "Punjab National Bank",
        "name:kn": "ಪಂಜಾಬ ರಾಷ್ಟ್ರೀಯ ಬ್ಯಾಂಕ್",
        "short_name": "PNB",
        "website": "https://www.pnbindia.in"
      }
    },
    {
      "type": "node",
      "id": 4844865053,
      "lat": 13.0100548,
      "lon": 77.6431061,
      "tags": {
        "amenity": "bank",
        "brand": "IDBI",
        "brand:wikidata": "Q3633485",
        "brand:wikipedia": "en:IDBI Bank",
        "check_date": "2024-07-10",
        "name": "IDBI Bank",
        "name:en": "IDBI Bank",
        "name:kn": "ಐಡಿಬಿಐ ಬ್ಯಾಂಕ್",
        "old_name": "Industrial Development Bank of India",
        "short_name": "IDBI",
        "website": "https://www.idbi.com"
      }
    },
    {
      "type": "node",
      "id": 4844867425,
      "lat": 13.0139843,
      "lon": 77.642086,
      "tags": {
        "name": "Regal furniture",
        "name:en": "Regal furniture",
        "shop": "furniture"
      }
    },
    {
      "type": "node",
      "id": 4881272874,
      "lat": 13.0208689,
      "lon": 77.6425433,
      "tags": {
        "amenity": "community_centre",
        "name": "All Peoples Church & World Outreach"
      }
    },
    {
      "type": "node",
      "id": 4905066223,
      "lat": 13.022258,
      "lon": 77.6433948,
      "tags": {
        "amenity": "bank",
        "brand": "State Bank of India",
        "brand:wikidata": "Q1340361",
        "name": "State Bank of India",
        "name:en": "SBI RACPC",
        "short_name": "SBI"
      }
    },
    {
      "type": "node",
      "id": 5080786067,
      "lat": 13.006508,
      "lon": 77.6452745,
      "tags": {
        "amenity": "school"
      }
    },
    {
      "type": "node",
      "id": 5080801905,
      "lat": 13.0085915,
      "lon": 77.64736,
      "tags": {
        "amenity": "school"
      }
    },
    {
      "type": "node",
      "id": 5964486003,
      "lat": 13.0182255,
      "lon": 77.6430175,
      "tags": {
        "amenity": "bank",
        "atm": "yes",
        "brand": "Kotak Mahindra Bank",
        "brand:wikidata": "Q2040404",
        "name": "Kotak Mahindra Bank"
      }
    },
    {
      "type": "node",
      "id": 5964486004,
      "lat": 13.0184085,
      "lon": 77.642996,
      "tags": {
        "name": "Hettich",
        "shop": "hardware"
      }
    },
    {
      "type": "node",
      "id": 5964486005,
      "lat": 13.0182739,
      "lon": 77.643275,
      "tags": {
        "amenity": "restaurant",
        "name": "The Chef's Story",
        "note": "name may be slightly off"
      }
    },
    {
      "type": "node",
      "id": 5964486006,
      "lat": 13.0181628,
      "lon": 77.6432669,
      "tags": {
        "brand": "Nilgiri's",
        "brand:wikidata": "Q17079567",
        "name": "Nilgiri's",
        "shop": "supermarket"
      }
    },
    {
      "type": "node",
      "id": 6938900156,
      "lat": 13.0086882,
      "lon": 77.6431717,
      "tags": {
        "addr:district": "Bengaluru Urban",
        "addr:full": "J. Ramgopal Layout, Subbannapalya, Banaswadi Main Road",
        "addr:postcode": "560033",
        "addr:state": "Karnataka",
        "amenity": "clinic",
        "name": "Dewans Maternity and Nursing Home",
        "source": "OpenGovernmentData"
      }
    },
    {
      "type": "node",
      "id": 6939069014,
      "lat": 13.0144467,
      "lon": 77.6427305,
      "tags": {
        "addr:district": "Bengaluru Urban",
        "addr:full": "# 924, 80 Feet Road, Kalyan Nagar, Next To Adigas Hotel",
        "addr:postcode": "560033",
        "addr:state": "Karnataka",
        "amenity": "clinic",
        "name": "Pratham Ent and Child Care Centre",
        "source": "OpenGovernmentData"
      }
    },
    {
      "type": "node",
      "id": 6939221867,
      "lat": 13.0195531,
      "lon": 77.6443814,
      "tags": {
        "addr:district": "Bengaluru Urban",
        "addr:full": "346, Hrbr 1st Kalyan Nagar 4Th Cross 7Th B Main H R B R Layout",
        "addr:postcode": "560043",
        "addr:state": "Karnataka",
        "amenity": "clinic",
        "name": "Amrik Nethralaya",
        "source": "OpenGovernmentData"
      }
    },
    {
      "type": "node",
      "id": 6944392376,
      "lat": 13.0221036,
      "lon": 77.6387729,
      "tags": {
        "addr:district": "Bengaluru Urban",
        "addr:full": "#4 Ac-426,4Thcross,2nd Block, Oop.Kalyana Nagar,Telephone Exchange",
        "addr:postcode": "560043",
        "addr:state": "Karnataka",
        "amenity": "hospital",
        "name": "Bangalore Eye Hospital And Retina Centre",
        "source": "OpenGovernmentData"
      }
    },
    {
      "type": "node",
      "id": 6956584485,
      "lat": 13.021546,
      "lon": 77.6372002,
      "tags": {
        "amenity": "bureau_de_change",
        "name": "Currency Exchange, Western Union"
      }
    },
    {
      "type": "node",
      "id": 6956587093,
      "lat": 13.0196087,
      "lon": 77.6369532,
      "tags": {
        "name": "Feet Fair",
        "note": "“Feet Fair” Shoe Store",
        "shop": "shoes"
      }
    },
    {
      "type": "node",
      "id": 6956587094,
      "lat": 13.0194926,
      "lon": 77.6369287,
      "tags": {
        "amenity": "restaurant",
        "name": "Thalassery",
        "note": "“Thalassery” Restaurant"
      }
    },
    {
      "type": "node",
      "id": 6956587195,
      "lat": 13.0213499,
      "lon": 77.6371042,
      "tags": {
        "amenity": "dentist",
        "name": "Care Dental Clinic",
        "note": "“Care” Dental Clinic"
      }
    },
    {
      "type": "node",
      "id": 6956588689,
      "lat": 13.0189238,
      "lon": 77.6367836,
      "tags": {
        "amenity": "restaurant",
        "name": "Moriz",
        "note": "“Moriz” Restaurant"
      }
    },
    {
      "type": "node",
      "id": 7164771196,
      "lat": 13.0239905,
      "lon": 77.6430942,
      "tags": {
        "amenity": "restaurant",
        "cuisine": "indian;arab",
        "name": "Imperio"
      }
    },
    {
      "type": "node",
      "id": 7206004834,
      "lat": 13.024534,
      "lon": 77.6418448,
      "tags": {
        "amenity": "restaurant",
        "cuisine": "regional",
        "name": "Royal Andhra Spice"
      }
    },
    {
      "type": "node",
      "id": 7206004835,
      "lat": 13.0238518,
      "lon": 77.6431395,
      "tags": {
        "amenity": "restaurant",
        "check_date": "2024-02-14",
        "diet:vegetarian": "yes",
        "name": "White Garden"
      }
    },
    {
      "type": "node",
      "id": 7206004836,
      "lat": 13.0228092,
      "lon": 77.643102,
      "tags": {
        "addr:city": "Bangalore",
        "addr:country": "IN",
        "addr:hamlet": "HRBR Layout",
        "addr:housenumber": "415",
        "addr:postcode": "560043",
        "addr:street": "7th Main Road",
        "addr:suburb": "Kalyan Nagar",
        "name": "O2 Spa",
        "shop": "massage",
        "website": "https://www.o2spa.org/"
      }
    },
    {
      "type": "node",
      "id": 7206004849,
      "lat": 13.0225688,
      "lon": 77.6435164,
      "tags": {
        "addr:city": "Bangalore",
        "addr:country": "IN",
        "addr:hamlet": "HRBR Layout",
        "addr:postcode": "560043",
        "addr:street": "7th Main Road",
        "addr:suburb": "Kalyan Nagar",
        "amenity": "pub",
        "indoor_seating": "yes",
        "name": "Float Brewery",
        "outdoor_seating": "no"
      }
    },
    {
      "type": "node",
      "id": 7206004851,
      "lat": 13.020503,
      "lon": 77.6431489,
      "tags": {
        "name": "Royal Canin",
        "shop": "pet_grooming"
      }
    },
    {
      "type": "node",
      "id": 7206004852,
      "lat": 13.0203776,
      "lon": 77.6433782,
      "tags": {
        "amenity": "pharmacy",
        "name": "The Family Pharma"
      }
    },
    {
      "type": "node",
      "id": 7206004853,
      "lat": 13.0202861,
      "lon": 77.6433822,
      "tags": {
        "name": "Lawrence and Mayo",
        "shop": "optician"
      }
    },
    {
      "type": "node",
      "id": 7206016086,
      "lat": 13.0200444,
      "lon": 77.6434466,
      "tags": {
        "addr:city": "Bengaluru",
        "addr:country": "IN",
        "addr:hamlet": "HRBR Layout",
        "addr:postcode": "560043",
        "addr:street": "7th Main Road",
        "addr:suburb": "Kalyan Nagar",
        "amenity": "restaurant",
        "cuisine": "arab;regional",
        "microbrewery": "no",
        "name": "Aramana",
        "outdoor_seating": "no",
        "takeaway": "yes"
      }
    },
    {
      "type": "node",
      "id": 7206016087,
      "lat": 13.0194133,
      "lon": 77.6434118,
      "tags": {
        "brand": "Bata",
        "brand:wikidata": "Q688082",
        "name": "Bata",
        "shop": "shoes",
        "wheelchair": "no"
      }
    },
    {
      "type": "node",
      "id": 7577248189,
      "lat": 13.0210072,
      "lon": 77.6434284,
      "tags": {
        "addr:district": "Bengaluru Urban",
        "addr:full": "Hennur, Banaswadi, Bengaluru",
        "addr:postcode": "560043",
        "addr:state": "Karnataka",
        "amenity": "clinic",
        "name": "Oliva Skin and Hair Clinic",
        "source": "Local Knowledge"
      }
    },
    {
      "type": "node",
      "id": 7577248202,
      "lat": 13.0116786,
      "lon": 77.6470294,
      "tags": {
        "addr:district": "Bengaluru Urban",
        "addr:full": "Balaji Layout, OMBR Layout, Banaswadi, Bengaluru",
        "addr:postcode": "560043",
        "addr:state": "Karnataka",
        "amenity": "clinic",
        "name": "Roots Skin Clinic"
      }
    },
    {
      "type": "node",
      "id": 7577248219,
      "lat": 13.013776,
      "lon": 77.646793,
      "tags": {
        "addr:district": "Bengaluru Urban",
        "addr:full": "Balaji Layout, Subbaiahnapalya, Banaswadi, Bengaluru",
        "addr:postcode": "560043",
        "addr:state": "Karnataka",
        "amenity": "clinic",
        "name": "Krupa Homeopathic Clinic",
        "source": "Local Knowledge"
      }
    },
    {
      "type": "node",
      "id": 7577248222,
      "lat": 13.0161535,
      "lon": 77.6428067,
      "tags": {
        "addr:district": "Bengaluru Urban",
        "addr:full": "Kalyan Nagar, Bengaluru",
        "addr:postcode": "560043",
        "addr:state": "Karnataka",
        "amenity": "clinic",
        "name": "Dr. Dinakar's Child Care",
        "source": "Local Knowledge"
      }
    },
    {
      "type": "node",
      "id": 7577248245,
      "lat": 13.0204243,
      "lon": 77.6439492,
      "tags": {
        "addr:district": "Bengaluru Urban",
        "addr:full": "HRBR Layout, Kalyan Nagar, Bengaluru",
        "addr:postcode": "560043",
        "addr:state": "Karnataka",
        "amenity": "dentist",
        "name": "Allure Dental and Facial Aesthetics Clinic",
        "source": "Local Knowledge"
      }
    },
    {
      "type": "node",
      "id": 7577248257,
      "lat": 13.0227961,
      "lon": 77.6425472,
      "tags": {
        "addr:district": "Bengaluru Urban",
        "addr:full": "HRBR Layout, Kalyan Nagar, Bengaluru",
        "addr:postcode": "560043",
        "addr:state": "Karnataka",
        "amenity": "clinic",
        "name": "Kalyan Eye Clinic",
        "source": "Local Knowledge"
      }
    },
    {
      "type": "node",
      "id": 7577248260,
      "lat": 13.013761,
      "lon": 77.648529,
      "tags": {
        "addr:district": "Bengaluru Urban",
        "addr:full": "Balaji Layout, Subbaiahnapalya, Banaswadi, Bengaluru",
        "addr:postcode": "560043",
        "addr:state": "Karnataka",
        "amenity": "hospital",
        "name": "Endocrine Speciality Centre",
        "source": "Local Knowledge"
      }
    },
    {
      "type": "node",
      "id": 7577248261,
      "lat": 13.020847,
      "lon": 77.643086,
      "tags": {
        "addr:district": "Bengaluru Urban",
        "addr:full": "HRBR Layout, Kalyan Nagar, Bengaluru",
        "addr:postcode": "560043",
        "addr:state": "Karnataka",
        "amenity": "clinic",
        "healthcare": "clinic",
        "name": "Tranquil Healthcare",
        "source": "Local Knowledge"
      }
    },
    {
      "type": "node",
      "id": 7577248278,
      "lat": 13.0109537,
      "lon": 77.6476418,
      "tags": {
        "addr:district": "Bengaluru Urban",
        "addr:full": "Chikka Banaswadi, Banaswadi, Bengaluru",
        "addr:postcode": "560043",
        "addr:state": "Karnataka",
        "amenity": "hospital",
        "name": "Milaan Hospital",
        "source": "Local Knowledge"
      }
    },
    {
      "type": "node",
      "id": 7658290170,
      "lat": 13.019263,
      "lon": 77.6427036,
      "tags": {
        "addr:city": "Bengaluru",
        "addr:country": "IN",
        "addr:housenumber": "234",
        "addr:postcode": "560043",
        "addr:street": "6th A Main",
        "addr:suburb": "Kalyan Nagar",
        "email": "care.freshmills@gmail.com",
        "name": "Freshmills",
        "opening_hours": "Mo-Su 9:00-21:00",
        "phone": "+91 97390 59502",
        "shop": "convenience",
        "website": "https://freshmills.in"
      }
    },
    {
      "type": "node",
      "id": 10302703781,
      "lat": 13.0216515,
      "lon": 77.6416723,
      "tags": {
        "amenity": "fast_food",
        "brand": "Popeyes",
        "brand:wikidata": "Q1330910",
        "brand:wikipedia": "en:Popeyes",
        "cuisine": "chicken",
        "delivery": "yes",
        "name": "Popeyes",
        "official_name": "Popeyes Louisiana Kitchen",
        "takeaway": "yes",
        "website": "https://www.popeyes.in/",
        "wikipedia": "en:Popeyes Louisiana Kitchen"
      }
    },
    {
      "type": "node",
      "id": 10303904024,
      "lat": 13.0249984,
      "lon": 77.6407176,
      "tags": {
        "amenity": "bank",
        "atm": "yes",
        "brand": "IDFC First Bank",
        "brand:wikidata": "Q22031467",
        "check_date": "2023-01-04",
        "name": "IDFC First Bank",
        "source": "survey"
      }
    },
    {
      "type": "node",
      "id": 10696981908,
      "lat": 13.0177551,
      "lon": 77.6429169,
      "tags": {
        "addr:city": "Bangalore",
        "addr:country": "IN",
        "addr:postcode": "560043",
        "addr:street": "7th Main Road",
        "addr:suburb": "Kalyan Nagar",
        "amenity": "restaurant",
        "check_date": "2024-02-04",
        "contact:instagram": "https://www.instagram.com/thefiltercoffee.in",
        "cuisine": "regional",
        "delivery": "yes",
        "diet:vegetarian": "yes",
        "name": "The Filter Coffee",
        "takeaway": "yes"
      }
    },
    {
      "type": "node",
      "id": 10731175104,
      "lat": 13.0249501,
      "lon": 77.6400286,
      "tags": {
        "amenity": "fast_food",
        "cuisine": "pizza",
        "name": "Pizzaa Chef"
      }
    },
    {
      "type": "node",
      "id": 10731175602,
      "lat": 13.023138,
      "lon": 77.6449561,
      "tags": {
        "brand": "Kia",
        "brand:wikidata": "Q35349",
        "name": "Tapasee Kia",
        "shop": "car"
      }
    },
    {
      "type": "node",
      "id": 10731175603,
      "lat": 13.0234488,
      "lon": 77.6442434,
      "tags": {
        "amenity": "bar",
        "name": "House of Commons"
      }
    },
    {
      "type": "node",
      "id": 10731190997,
      "lat": 13.0218548,
      "lon": 77.6396997,
      "tags": {
        "amenity": "cafe",
        "brand": "Chaayos",
        "brand:wikidata": "Q117235235",
        "cuisine": "tea",
        "name": "Chaayos",
        "takeaway": "yes"
      }
    },
    {
      "type": "node",
      "id": 10731190998,
      "lat": 13.0218029,
      "lon": 77.639821,
      "tags": {
        "amenity": "cafe",
        "cuisine": "coffee_shop",
        "name": "Third Wave Coffee"
      }
    },
    {
      "type": "node",
      "id": 10770523198,
      "lat": 13.0227055,
      "lon": 77.6435679,
      "tags": {
        "amenity": "cafe",
        "delivery": "yes",
        "name": "Glen's Bakehouse",
        "takeaway": "yes"
      }
    },
    {
      "type": "node",
      "id": 11117270550,
      "lat": 13.0223754,
      "lon": 77.643519,
      "tags": {
        "amenity": "cafe",
        "name": "Glen's Bakehouse",
        "shop": "bakery"
      }
    },
    {
      "type": "node",
      "id": 11219406681,
      "lat": 13.0206355,
      "lon": 77.6436073,
      "tags": {
        "amenity": "atm",
        "check_date": "2023-09-26",
        "name": "Canara Bank"
      }
    },
    {
      "type": "node",
      "id": 11219451413,
      "lat": 13.014037,
      "lon": 77.6423838,
      "tags": {
        "amenity": "restaurant",
        "check_date": "2023-09-26",
        "name": "Bandipura Donne Biriyaani"
      }
    },
    {
      "type": "node",
      "id": 11219451414,
      "lat": 13.0139282,
      "lon": 77.6423538,
      "tags": {
        "amenity": "clinic",
        "check_date": "2023-09-26",
        "healthcare": "clinic",
        "name": "Smile 365 Dental Clinic",
        "name:kn": "ಸ್ಮೈಲ್ ೩೬೫ ದಂತ ಚಿಕಿತ್ಸಾಲಯ"
      }
    },
    {
      "type": "node",
      "id": 11219451415,
      "lat": 13.0139139,
      "lon": 77.6423634,
      "tags": {
        "check_date": "2023-09-26",
        "name": "Apollo Pharmacy",
        "name:kn": "ಅಪೊಲೊ ಫಾರ್ಮ್‌ಸಿ",
        "payment:mastercard": "yes",
        "payment:visa": "yes",
        "shop": "chemist"
      }
    },
    {
      "type": "node",
      "id": 11250389086,
      "lat": 13.0113802,
      "lon": 77.6465207,
      "tags": {
        "brand": "Snack Shop",
        "check_date": "2023-10-09",
        "description": "Sweets and Savouries",
        "name": "Sri Bharani Mixtures",
        "shop": "convenience"
      }
    },
    {
      "type": "node",
      "id": 11348674809,
      "lat": 13.025011,
      "lon": 77.640714,
      "tags": {
        "amenity": "atm",
        "name": "IDFC bank ATM"
      }
    },
    {
      "type": "node",
      "id": 11575753883,
      "lat": 13.0117532,
      "lon": 77.6470108,
      "tags": {
        "name": "IFB Point",
        "shop": "electronics",
        "wheelchair": "no"
      }
    },
    {
      "type": "node",
      "id": 11575755772,
      "lat": 13.0126685,
      "lon": 77.6466543,
      "tags": {
        "amenity": "car_wash",
        "name": "Smart Car Wash",
        "wheelchair": "yes"
      }
    },
    {
      "type": "node",
      "id": 11575755773,
      "lat": 13.0127702,
      "lon": 77.6466864,
      "tags": {
        "brand": "cult.fit",
        "leisure": "fitness_centre",
        "name": "cult.fit",
        "sport": "fitness"
      }
    },
    {
      "type": "node",
      "id": 12046492133,
      "lat": 13.019548,
      "lon": 77.6435611,
      "tags": {
        "amenity": "pub",
        "check_date": "2024-07-10",
        "contact:instagram": "senditbob",
        "delivery": "yes",
        "name": "Bob's Bar",
        "takeaway": "yes",
        "toilets": "yes"
      }
    },
    {
      "type": "node",
      "id": 12046492134,
      "lat": 13.0195588,
      "lon": 77.6434529,
      "tags": {
        "addr:floor": "3",
        "brand": "Zudio",
        "brand:wikidata": "Q123375926",
        "check_date": "2024-07-10",
        "internet_access": "wlan",
        "internet_access:fee": "no",
        "level": "3",
        "name": "Zudio",
        "payment:cash": "yes",
        "payment:credit_cards": "yes",
        "payment:debit_cards": "yes",
        "shop": "clothes",
        "source": "survey"
      }
    },
    {
      "type": "node",
      "id": 12046492135,
      "lat": 13.0185474,
      "lon": 77.6433113,
      "tags": {
        "amenity": "bank",
        "brand": "HDFC Bank",
        "brand:wikidata": "Q631047",
        "check_date": "2024-07-10",
        "name": "HDFC Bank",
        "name:kn": "ಎಚ್ ಡಿ ಎಫ್ ಸಿ",
        "short_name": "HDFC"
      }
    },
    {
      "type": "node",
      "id": 12046492136,
      "lat": 13.0184898,
      "lon": 77.6433081,
      "tags": {
        "amenity": "atm",
        "brand": "HDFC Bank",
        "brand:wikidata": "Q631047",
        "check_date": "2024-07-10",
        "operator": "HDFC Bank",
        "operator:wikidata": "Q631047",
        "short_name": "HDFC"
      }
    },
    {
      "type": "node",
      "id": 12046492137,
      "lat": 13.0186892,
      "lon": 77.6430099,
      "tags": {
        "amenity": "atm",
        "brand": "AU Small Finance Bank",
        "brand:wikidata": "Q48729722",
        "check_date": "2024-07-10",
        "operator": "AU Small Finance Bank",
        "operator:wikidata": "Q48729722"
      }
    },
    {
      "type": "node",
      "id": 12046492138,
      "lat": 13.0191561,
      "lon": 77.6433478,
      "tags": {
        "amenity": "bank",
        "brand": "Union Bank of India",
        "brand:wikidata": "Q2004078",
        "check_date": "2024-07-10",
        "name": "Union Bank of India"
      }
    },
    {
      "type": "node",
      "id": 12046492139,
      "lat": 13.0191027,
      "lon": 77.6433499,
      "tags": {
        "amenity": "atm",
        "brand": "Union Bank of India",
        "brand:wikidata": "Q2004078",
        "check_date": "2024-07-10",
        "operator": "Union Bank of India",
        "operator:wikidata": "Q2004078"
      }
    },
    {
      "type": "node",
      "id": 12046492140,
      "lat": 13.019331,
      "lon": 77.6430305,
      "tags": {
        "amenity": "cafe",
        "brand": "Starbucks",
        "brand:wikidata": "Q37158",
        "check_date": "2024-07-10",
        "cuisine": "coffee_shop",
        "name": "Starbucks",
        "official_name": "Starbucks Coffee",
        "takeaway": "yes"
      }
    },
    {
      "type": "node",
      "id": 12162210544,
      "lat": 13.0193779,
      "lon": 77.6430195,
      "tags": {
        "addr:floor": "3",
        "addr:housenumber": "3rd Floor, Y4 Heights Building, 6th Main Rd, above Starbucks Coffee, HRBR Layout 2nd Block, HRBR Layout, Kalyan Nagar",
        "addr:street": "7th Main Road",
        "check_date": "2024-09-07",
        "leisure": "fitness_centre",
        "level": "3",
        "name": "Dr. Pilates",
        "phone": "+91 88922 36442"
      }
    },
    {
      "type": "node",
      "id": 12538079771,
      "lat": 13.0146398,
      "lon": 77.6462474,
      "tags": {
        "amenity": "place_of_worship",
        "name": "Vision Immanuel - Bangalore Korean Community",
        "religion": "christian"
      }
    },
    {
      "type": "node",
      "id": 12632035873,
      "lat": 13.0225479,
      "lon": 77.6375417,
      "tags": {
        "amenity": "restaurant",
        "name": "Sree Godavari Ruchulu"
      }
    },
    {
      "type": "node",
      "id": 12632074305,
      "lat": 13.0222643,
      "lon": 77.6383156,
      "tags": {
        "amenity": "cafe",
        "brand": "Chai Point",
        "brand:wikidata": "Q28173415",
        "cuisine": "coffee_shop",
        "name": "Chai Point",
        "takeaway": "yes"
      }
    },
    {
      "type": "node",
      "id": 12632074306,
      "lat": 13.022525,
      "lon": 77.6374982,
      "tags": {
        "amenity": "cafe",
        "name": "The Dome Cafe"
      }
    },
    {
      "type": "node",
      "id": 12632074307,
      "lat": 13.0223666,
      "lon": 77.6380289,
      "tags": {
        "amenity": "restaurant",
        "name": "The King of Taste"
      }
    },
    {
      "type": "node",
      "id": 12632074308,
      "lat": 13.0223907,
      "lon": 77.6379343,
      "tags": {
        "amenity": "restaurant",
        "name": "Zamindar"
      }
    },
    {
      "type": "node",
      "id": 12632074324,
      "lat": 13.0188985,
      "lon": 77.6429518,
      "tags": {
        "amenity": "restaurant",
        "name": "MahanagaraM"
      }
    },
    {
      "type": "node",
      "id": 12657078748,
      "lat": 13.0194172,
      "lon": 77.6411842,
      "tags": {
        "amenity": "place_of_worship",
        "religion": "hindu"
      }
    },
    {
      "type": "node",
      "id": 12657078778,
      "lat": 13.0199144,
      "lon": 77.6397277,
      "tags": {
        "amenity": "place_of_worship",
        "religion": "hindu"
      }
    },
    {
      "type": "node",
      "id": 12696683343,
      "lat": 13.0222774,
      "lon": 77.6382465,
      "tags": {
        "brand": "Lenskart",
        "brand:wikidata": "Q17068753",
        "name": "Lenskart",
        "shop": "optician"
      }
    },
    {
      "type": "node",
      "id": 12696683344,
      "lat": 13.0222447,
      "lon": 77.638384,
      "tags": {
        "amenity": "fast_food",
        "brand": "Subway",
        "brand:wikidata": "Q244457",
        "cuisine": "sandwich",
        "name": "Subway",
        "takeaway": "yes"
      }
    },
    {
      "type": "node",
      "id": 12715063630,
      "lat": 13.0212414,
      "lon": 77.6415983,
      "tags": {
        "amenity": "pub",
        "check_date": "2025-03-31",
        "name": "The Local"
      }
    },
    {
      "type": "node",
      "id": 12715063631,
      "lat": 13.0215052,
      "lon": 77.640534,
      "tags": {
        "air_conditioning": "yes",
        "amenity": "restaurant",
        "bar": "yes",
        "check_date": "2025-03-31",
        "contact:instagram": "https://www.instagram.com/ilabengaluru",
        "name": "Ila Bengaluru",
        "start_date": "2025-03-30",
        "toilets": "yes"
      }
    },
    {
      "type": "node",
      "id": 12722075584,
      "lat": 13.022113,
      "lon": 77.6388793,
      "tags": {
        "addr:city": "Bangalore",
        "addr:district": "Bengaluru Urban",
        "addr:housenumber": "426",
        "addr:postcode": "560043",
        "addr:street": "CMR Main Rd, 3rd Cross, 2nd Block HRBR Layout, Kalyan nagar",
        "amenity": "clinic",
        "healthcare": "clinic",
        "name": "BOSH Physiotherapy",
        "operator": "Novosalus Technology",
        "operator:type": "private"
      }
    },
    {
      "type": "node",
      "id": 12862846441,
      "lat": 13.0216922,
      "lon": 77.6400017,
      "tags": {
        "amenity": "fast_food",
        "cuisine": "burger",
        "delivery": "yes",
        "name": "Original Burger Co.",
        "takeaway": "yes"
      }
    },
    {
      "type": "node",
      "id": 12862846477,
      "lat": 13.0220312,
      "lon": 77.6384962,
      "tags": {
        "amenity": "fast_food",
        "contact:instagram": "goodflippin",
        "cuisine": "burger",
        "delivery": "yes",
        "name": "Good Flippin' Burgers",
        "takeaway": "yes",
        "website": "https://goodflippin.com/"
      }
    },
    {
      "type": "node",
      "id": 12927909823,
      "lat": 13.021972,
      "lon": 77.6378266,
      "tags": {
        "addr:city": "Bengaluru",
        "addr:housenumber": "11",
        "addr:postcode": "560043",
        "addr:street": "3rd A Cross Road",
        "addr:suburb": "Kalyan Nagar",
        "amenity": "cafe",
        "contact:instagram": "fuku.coffee.commune",
        "cuisine": "coffee_shop",
        "name": "Fuku Coffee Commune"
      }
    },
    {
      "type": "node",
      "id": 12941892981,
      "lat": 13.0252988,
      "lon": 77.6400749,
      "tags": {
        "amenity": "fuel",
        "check_date": "2025-06-21",
        "name": "Premier"
      }
    },
    {
      "type": "node",
      "id": 12941892985,
      "lat": 13.0250159,
      "lon": 77.6406472,
      "tags": {
        "check_date": "2025-06-21",
        "name": "Neelkanth",
        "shop": "jewelry"
      }
    },
    {
      "type": "node",
      "id": 12941892986,
      "lat": 13.0248546,
      "lon": 77.6410368,
      "tags": {
        "amenity": "kindergarten",
        "check_date": "2025-06-21",
        "name": "Klay"
      }
    },
    {
      "type": "node",
      "id": 12941892988,
      "lat": 13.0246407,
      "lon": 77.6415589,
      "tags": {
        "brand": "LG",
        "brand:wikidata": "Q162345",
        "check_date": "2025-06-21",
        "name": "LG",
        "shop": "electronics"
      }
    },
    {
      "type": "node",
      "id": 12959840781,
      "lat": 13.0170153,
      "lon": 77.6429262,
      "tags": {
        "amenity": "hospital",
        "check_date": "2025-06-29",
        "healthcare": "hospital",
        "name": "Trilife Hospital",
        "name:en": "Trilife Hospital",
        "operator:type": "private"
      }
    },
    {
      "type": "node",
      "id": 13013588744,
      "lat": 13.0233978,
      "lon": 77.6431482,
      "tags": {
        "addr:city": "Bengaluru",
        "addr:country": "IN",
        "addr:hamlet": "HRBR Layout 2nd Stage",
        "addr:postcode": "560043",
        "addr:street": "7th Main Road",
        "addr:suburb": "Kalyan Nagar",
        "amenity": "restaurant",
        "contact:instagram": "sinonnas",
        "cuisine": "pizza",
        "delivery": "yes",
        "name": "Si Nonna's",
        "reservation": "yes",
        "takeaway": "yes",
        "toilets": "yes",
        "website": "https://sinonnas.com/"
      }
    },
    {
      "type": "node",
      "id": 13164592436,
      "lat": 13.0219385,
      "lon": 77.6385853,
      "tags": {
        "addr:city": "Bangalore",
        "addr:district": "Bengaluru Urban",
        "addr:housenumber": "426",
        "addr:postcode": "560043",
        "addr:street": "CMR Main Rd, 3rd Cross,2nd Block HRBR Layout, Kalyan nagar",
        "amenity": "hospital",
        "healthcare": "hospital",
        "name": "Bangalore Orthopeadic And Surgical Hospital",
        "operator": "Novosalus Technology",
        "operator:type": "private"
      }
    },
    {
      "type": "node",
      "id": 13168786889,
      "lat": 13.0155835,
      "lon": 77.6403473,
      "tags": {
        "contact:instagram": "luxemisu",
        "name": "Luxemisu",
        "shop": "pastry"
      }
    },
    {
      "type": "node",
      "id": 13288585234,
      "lat": 13.0214589,
      "lon": 77.6406815,
      "tags": {
        "name": "Harley's Ivory Lougne",
        "shop": "pastry"
      }
    },
    {
      "type": "way",
      "id": 38421704,
      "center": {
        "lat": 13.0179378,
        "lon": 77.6369821
      },
      "tags": {
        "amenity": "school",
        "name": "Saint Charles High School"
      }
    },
    {
      "type": "way",
      "id": 160470308,
      "center": {
        "lat": 13.0129862,
        "lon": 77.6475998
      },
      "tags": {
        "building": "yes",
        "name": "Food World",
        "name:kn": "ಫುಡ್ ವರ್ಲ್ಡ್",
        "shop": "supermarket"
      }
    },
    {
      "type": "way",
      "id": 160470310,
      "center": {
        "lat": 13.0127079,
        "lon": 77.6475927
      },
      "tags": {
        "amenity": "restaurant",
        "building": "yes",
        "name": "Tamarind"
      }
    },
    {
      "type": "way",
      "id": 168712748,
      "center": {
        "lat": 13.0163415,
        "lon": 77.6407229
      },
      "tags": {
        "leisure": "park",
        "name": "Dr. Rajkumar Park",
        "name:etymology:wikidata": "Q984634",
        "name:kn": "ರಾಜ್ಕುಮಾರ್ ಉದ್ಯಾನ"
      }
    },
    {
      "type": "way",
      "id": 346521829,
      "center": {
        "lat": 13.0146094,
        "lon": 77.6464563
      },
      "tags": {
        "addr:postcode": "560043",
        "addr:street": "2nd Cross Road",
        "amenity": "hospital",
        "building:levels": "2",
        "healthcare": "hospital",
        "name": "Indicus"
      }
    },
    {
      "type": "way",
      "id": 347192813,
      "center": {
        "lat": 13.0104363,
        "lon": 77.6432265
      },
      "tags": {
        "addr:city": "Bangalore",
        "addr:housenumber": "11",
        "addr:postcode": "560043",
        "addr:street": "7th Main Road",
        "beauty": "nails",
        "building": "yes",
        "building:levels": "2",
        "name": "Shaakya Salon & Spa",
        "payment:cash": "yes",
        "payment:credit_cards": "yes",
        "payment:debit_cards": "yes",
        "payment:visa": "yes",
        "phone": "+91 9741117707",
        "shop": "beauty",
        "website": "https://shaakyaspa.com/"
      }
    },
    {
      "type": "way",
      "id": 350750824,
      "center": {
        "lat": 13.0171298,
        "lon": 77.6432944
      },
      "tags": {
        "addr:postcode": "560043,",
        "addr:street": "8th Main Road (west)",
        "amenity": "hospital",
        "check_date": "2024-09-18",
        "name": "Ovum Hospitals"
      }
    },
    {
      "type": "way",
      "id": 552372245,
      "center": {
        "lat": 13.0229987,
        "lon": 77.6414813
      },
      "tags": {
        "alt_name": "BDA Kalyan Nagar Park",
        "leisure": "park",
        "name": "Dr. Puneeth Rajkumar Park",
        "name:etymology:wikidata": "Q3351697"
      }
    },
    {
      "type": "way",
      "id": 675933727,
      "center": {
        "lat": 13.0185653,
        "lon": 77.6410638
      },
      "tags": {
        "leisure": "park"
      }
    },
    {
      "type": "way",
      "id": 1153861853,
      "center": {
        "lat": 13.0231745,
        "lon": 77.6454262
      },
      "tags": {
        "leisure": "park"
      }
    },
    {
      "type": "way",
      "id": 1263380580,
      "center": {
        "lat": 13.0119515,
        "lon": 77.6466304
      },
      "tags": {
        "amenity": "fuel",
        "brand": "Bharat Petroleum",
        "brand:wikidata": "Q854826",
        "name": "Bharat Petroleum"
      }
    },
    {
      "type": "way",
      "id": 1316119405,
      "center": {
        "lat": 13.0217498,
        "lon": 77.6425277
      },
      "tags": {
        "access": "permissive",
        "leisure": "pitch",
        "sport": "tennis"
      }
    },
    {
      "type": "way",
      "id": 1354858903,
      "center": {
        "lat": 13.0204889,
        "lon": 77.6422731
      },
      "tags": {
        "amenity": "library",
        "landuse": "commercial",
        "name": "City Central Library"
      }
    },
    {
      "type": "way",
      "id": 1364481598,
      "center": {
        "lat": 13.0095735,
        "lon": 77.6483665
      },
      "tags": {
        "addr:city": "Bangalore",
        "addr:postcode": "560043",
        "addr:street": "Banaswadi",
        "amenity": "place_of_worship",
        "check_date": "2024-09-18",
        "denomination": "catholic",
        "name": "St. Vincent Pallotti Church",
        "religion": "christian"
      }
    },
    {
      "type": "way",
      "id": 1364481599,
      "center": {
        "lat": 13.0116118,
        "lon": 77.6459969
      },
      "tags": {
        "amenity": "fire_station",
        "landuse": "commercial",
        "name": "Banaswadi Fire Station",
        "name:kn": "ಬಾಣಸವಾಡಿ ಅಗ್ನಿಶಾಮಕ ಠಾಣೆ"
      }
    },
    {
      "type": "way",
      "id": 1364481614,
      "center": {
        "lat": 13.0128418,
        "lon": 77.6428309
      },
      "tags": {
        "amenity": "fuel",
        "brand": "Bharat Petroleum",
        "brand:wikidata": "Q854826",
        "compressed_air": "yes",
        "name": "Matrushree Petrol / Gas Station",
        "operator": "Bharat Petroleum"
      }
    },
    {
      "type": "way",
      "id": 1364697717,
      "center": {
        "lat": 13.009651,
        "lon": 77.6436983
      },
      "tags": {
        "amenity": "events_venue",
        "landuse": "commercial"
      }
    },
    {
      "type": "way",
      "id": 1364921398,
      "center": {
        "lat": 13.0084402,
        "lon": 77.6419715
      },
      "tags": {
        "amenity": "place_of_worship",
        "building": "yes",
        "name": "Sree Panchamukhi Ganapthy Temple",
        "name:kn": "ಶ್ರೀ ಪಂಚಮುಖಿ ಗಣಪತಿ ದೇವಸ್ಥಾನ",
        "religion": "hindu"
      }
    },
    {
      "type": "way",
      "id": 1366023291,
      "center": {
        "lat": 13.0087502,
        "lon": 77.6444553
      },
      "tags": {
        "amenity": "school",
        "education": "school",
        "name": "Maruthi Vidyalaya",
        "name:kn": "ಮಾರುತಿ ವಿದ್ಯಾಲಯ"
      }
    },
    {
      "type": "way",
      "id": 1366656620,
      "center": {
        "lat": 13.0196732,
        "lon": 77.6401561
      },
      "tags": {
        "amenity": "police",
        "landuse": "commercial",
        "name": "Banaswadi Police Station",
        "name:kn": "ಬಾಣಸವಾಡಿ ಆರಕ್ಷಕ ಠಾಣೆ"
      }
    },
    {
      "type": "way",
      "id": 1366744185,
      "center": {
        "lat": 13.0110872,
        "lon": 77.6463117
      },
      "tags": {
        "addr:postcode": "560043",
        "addr:street": "Banaswadi Main Road",
        "amenity": "fuel",
        "brand": "Hindustan Petroleum",
        "brand:wikidata": "Q1619375",
        "name": "HP Petrol Pump",
        "name:en": "HP Petrol Pump",
        "name:kn": "ಹಿಂದುಸ್ತಾನ್ ಪೆಟ್ರೋಲಿಯಂ",
        "official_name": "Hindustan Petroleum"
      }
    },
    {
      "type": "way",
      "id": 1366744186,
      "center": {
        "lat": 13.0107611,
        "lon": 77.6465591
      },
      "tags": {
        "leisure": "park",
        "name": "OMBR Layout Park"
      }
    },
    {
      "type": "way",
      "id": 1382088997,
      "center": {
        "lat": 13.0255314,
        "lon": 77.6400662
      },
      "tags": {
        "access": "yes",
        "amenity": "toilets",
        "building": "yes",
        "fee": "yes",
        "female": "yes",
        "male": "yes"
      }
    },
    {
      "type": "way",
      "id": 1410597948,
      "center": {
        "lat": 13.0103596,
        "lon": 77.644748
      },
      "tags": {
        "amenity": "marketplace",
        "landuse": "retail",
        "shop": "greengrocer"
      }
    },
    {
      "type": "way",
      "id": 1410597951,
      "center": {
        "lat": 13.0098523,
        "lon": 77.6439029
      },
      "tags": {
        "amenity": "fuel"
      }
    }
  ]
}