{
  "area_name": "Kamakshipalya",
  "osm_id": 19883460,
  "osm_type": "relation",
  "place_type": "administrative",
  "amenity_count": 23,
  "amenities": [
    {
      "type": "node",
      "id": 2505742993,
      "lat": 12.9850131,
      "lon": 77.5369987,
      "tags": {
        "addr:city": "Bangalore",
        "addr:housename": "Basaweshwara Nagar",
        "addr:postcode": "560079",
        "addr:street": "Siddhaiah Puranik Road",
        "name": "Mega Mart",
        "shop": "clothes"
      }
    },
    {
      "type": "node",
      "id": 2505743003,
      "lat": 12.9849948,
      "lon": 77.5345955,
      "tags": {
        "addr:city": "Bangalore",
        "addr:housename": "Basaweshwara Nagar",
        "addr:postcode": "560079",
        "addr:street": "1st Main Road",
        "amenity": "dentist",
        "name": "Future Dentistry"
      }
    },
    {
      "type": "node",
      "id": 3740403250,
      "lat": 12.9878989,
      "lon": 77.5366101,
      "tags": {
        "name": "Sri Ganesh Gold and Diamonds",
        "shop": "jewelry"
      }
    },
    {
      "type": "node",
      "id": 4058429380,
      "lat": 12.9867587,
      "lon": 77.5349053,
      "tags": {
        "amenity": "place_of_worship"
      }
    },
    {
      "type": "node",
      "id": 4087635780,
      "lat": 12.9879478,
      "lon": 77.5361198,
      "tags": {
        "name": "Annapoorneshwari Hot Chips",
        "shop": "confectionery"
      }
    },
    {
      "type": "node",
      "id": 4134992091,
      "lat": 12.9869198,
      "lon": 77.532286,
      "tags": {
        "amenity": "clinic"
      }
    },
    {
      "type": "node",
      "id": 4226905471,
      "lat": 12.9887296,
      "lon": 77.5319585,
      "tags": {
        "name": "Skanda",
        "shop": "clothes"
      }
    },
    {
      "type": "node",
      "id": 4226932018,
      "lat": 12.9868514,
      "lon": 77.5327927,
      "tags": {
        "name": "Mamta Provision store",
        "shop": "convenience"
      }
    },
    {
      "type": "node",
      "id": 4447521452,
      "lat": 12.9816064,
      "lon": 77.5346671,
      "tags": {
        "addr:city": "Bangalore",
        "addr:postcode": "560079",
        "addr:street": "4th Main Rd, KHB Colony, Basaveshwar Nagar,",
        "amenity": "school",
        "name": "Traffic Police Station",
        "name:kn": "ಸಂಚಾರ ಪೊಲೀಸ್ ಠಾಣೆ",
        "phone": "NA",
        "website": "NA"
      }
    },
    {
      "type": "node",
      "id": 4489394989,
      "lat": 12.9865408,
      "lon": 77.5371426,
      "tags": {
        "addr:city": "Bangalore",
        "addr:postcode": "560079",
        "addr:street": "Shree Complex, 80 Feet Road, Basaveshwara Nagar, Basaveshwara Nagar, Bhadrappa Layout, 3rd Stage, Basaveshwar Nagar",
        "name": "Champion Sports",
        "opening_hours": "10:00-21:30",
        "phone": "98443 12148",
        "shop": "sports"
      }
    },
    {
      "type": "node",
      "id": 4490340281,
      "lat": 12.9841382,
      "lon": 77.5289161,
      "tags": {
        "addr:city": "Bangalore",
        "addr:postcode": "560064",
        "addr:street": "Allasandra main road , Yelahanka,Near janapriya havernce",
        "name": "R R Provision Store",
        "phone": "(91)-8453897174",
        "shop": "supermarket"
      }
    },
    {
      "type": "node",
      "id": 6938540502,
      "lat": 12.9829857,
      "lon": 77.5309655,
      "tags": {
        "addr:district": "Bengaluru Urban",
        "addr:full": "No. 2/3, 5Th Main Shiva Complex, Kamakshipalya, Nagadimain Road , Opp Vishal Theatre",
        "addr:postcode": "560043",
        "addr:state": "Karnataka",
        "amenity": "hospital",
        "name": "Shreyas Hospital, Bengaluru Urban",
        "source": "OpenGovernmentData"
      }
    },
    {
      "type": "node",
      "id": 6939656823,
      "lat": 12.9879829,
      "lon": 77.5366303,
      "tags": {
        "addr:district": "Bengaluru Urban",
        "addr:full": "No.9 Shree Complex. 1st Floor Mig. Khb Colony Near Pavithraparadise Basaveshwaranagar",
        "addr:postcode": "560079",
        "addr:state": "Karnataka",
        "amenity": "dentist",
        "name": "Shreesha Dental Clinic",
        "source": "OpenGovernmentData"
      }
    },
    {
      "type": "node",
      "id": 10749106801,
      "lat": 12.9882809,
      "lon": 77.5345825,
      "tags": {
        "name": "Uttara Karnataka Jolada Rotti Mane",
        "shop": "bakery"
      }
    },
    {
      "type": "node",
      "id": 10749106803,
      "lat": 12.9878235,
      "lon": 77.5368583,
      "tags": {
        "name": "Iyengar Bakery",
        "name:kn": "ಐಯ್ಯಂಗಾರ್ ಬೇಕರಿ",
        "shop": "bakery"
      }
    },
    {
      "type": "node",
      "id": 10749106804,
      "lat": 12.9878575,
      "lon": 77.5372781,
      "tags": {
        "name": "SM Silks",
        "shop": "clothes"
      }
    },
    {
      "type": "node",
      "id": 12519602641,
      "lat": 12.9880795,
      "lon": 77.5355606,
      "tags": {
        "addr:city": "Bengaluru",
        "addr:postcode": "560079",
        "addr:street": "Stage 1, KHB Colony, Basaveshwar Nagar",
        "brand": "More",
        "brand:wikidata": "Q6910891",
        "name": "More",
        "shop": "supermarket"
      }
    },
    {
      "type": "way",
      "id": 141375009,
      "center": {
        "lat": 12.9884535,
        "lon": 77.5336645
      },
      "tags": {
        "addr:postcode": "560079",
        "alt_name": "Sharadha Colony",
        "amenity": "bus_station",
        "designation": "Sharadha Colony",
        "name": "Sharada Colony Bus Depot",
        "name:kn": "ಬಸ್ ನಿಲ್ದಾಣ ಬಸವೇಶ್ವರನಗರ"
      }
    },
    {
      "type": "way",
      "id": 354557914,
      "center": {
        "lat": 12.9883622,
        "lon": 77.5343261
      },
      "tags": {
        "amenity": "hospital",
        "building": "yes",
        "name": "Gopala Eye Care Centre"
      }
    },
    {
      "type": "way",
      "id": 401214561,
      "center": {
        "lat": 12.988019,
        "lon": 77.5355789
      },
      "tags": {
        "addr:city": "Bengaluru",
        "addr:postcode": "560079",
        "addr:street": "Stage 1, KHB Colony, Basaveshwar Nagar",
        "amenity": "bank",
        "atm": "yes",
        "brand": "Union Bank of India",
        "brand:wikidata": "Q2004078",
        "building": "yes",
        "name": "Union Bank of India",
        "name:kn": "ಕಾರ್ಪರೇಷನ್ ಬ್ಯಾಂಕ್"
      }
    },
    {
      "type": "way",
      "id": 649260703,
      "center": {
        "lat": 12.9879879,
        "lon": 77.5357463
      },
      "tags": {
        "alt_name": "R S Arcade",
        "amenity": "bank",
        "brand": "Karnataka Bank",
        "brand:wikidata": "Q2042632",
        "building": "commercial",
        "name": "Karnataka Bank"
      }
    },
    {
      "type": "way",
      "id": 991531036,
      "center": {
        "lat": 12.9830337,
        "lon": 77.5365274
      },
      "tags": {
        "addr:full": "Stage 1, KHB Colony, Basaveshwar Nagar, Bengaluru, Karnataka",
        "addr:state": "Karnataka",
        "amenity": "hospital",
        "healthcare": "hospital",
        "name": "Government Homeopathic Hospital"
      }
    },
    {
      "type": "way",
      "id": 1206777030,
      "center": {
        "lat": 12.9852997,
        "lon": 77.5356728
      },
      "tags": {
        "amenity": "place_of_worship",
        "religion": "hindu"
      }
    }
  ]
}