{
  "area_name": "Kanshiram Nagar",
  "osm_id": 10310636358,
  "osm_type": "node",
  "place_type": "neighbourhood",
  "amenity_count": 26,
  "amenities": [
    {
      "type": "node",
      "id": 1462443864,
      "lat": 13.0900453,
      "lon": 77.54119,
      "tags": {
        "name": "Brothers Supermarket",
        "shop": "supermarket"
      }
    },
    {
      "type": "node",
      "id": 4488073917,
      "lat": 13.0942914,
      "lon": 77.5459382,
      "tags": {
        "addr:city": "bangalore",
        "addr:housenumber": "37/2",
        "addr:street": "Virat Nagar Main Road, Roopen Agrahara",
        "name": "SLN Super Market",
        "phone": "+918033569365",
        "shop": "supermarket"
      }
    },
    {
      "type": "node",
      "id": 7577248184,
      "lat": 13.081777,
      "lon": 77.54091,
      "tags": {
        "addr:district": "Bengaluru Urban",
        "addr:full": "Varadharaja Nagar, Varadarajaswamy Layout, Singapura, Bengaluru",
        "addr:postcode": "560097",
        "addr:state": "Karnataka",
        "amenity": "hospital",
        "name": "Aveksha Hospital",
        "source": "Local Knowledge"
      }
    },
    {
      "type": "node",
      "id": 7577248196,
      "lat": 13.0897212,
      "lon": 77.5442226,
      "tags": {
        "addr:district": "Bengaluru Urban",
        "addr:full": "Vidyaranyapura, Bengaluru",
        "addr:postcode": "560097",
        "addr:state": "Karnataka",
        "amenity": "clinic",
        "name": "Sri Gopalan Clinic",
        "source": "Local Knowledge"
      }
    },
    {
      "type": "node",
      "id": 7577248214,
      "lat": 13.0892527,
      "lon": 77.5388313,
      "tags": {
        "addr:district": "Bengaluru Urban",
        "addr:full": "Sadguru Layout, Kanshiram Nagar, Bengaluru",
        "addr:postcode": "560097",
        "addr:state": "Karnataka",
        "amenity": "clinic",
        "name": "Sanjeevani Health Care",
        "source": "Local Knowledge"
      }
    },
    {
      "type": "node",
      "id": 7577248262,
      "lat": 13.0885791,
      "lon": 77.5455057,
      "tags": {
        "addr:district": "Bengaluru Urban",
        "addr:full": "Vinayak Nagar, Vidyaranyapura, Bengaluru",
        "addr:postcode": "560097",
        "addr:state": "Karnataka",
        "amenity": "hospital",
        "name": "Shree Sai Hospital",
        "source": "Local Knowledge"
      }
    },
    {
      "type": "node",
      "id": 11752018039,
      "lat": 13.0814795,
      "lon": 77.5373612,
      "tags": {
        "amenity": "shelter",
        "shelter_type": "gazebo"
      }
    },
    {
      "type": "node",
      "id": 12005861272,
      "lat": 13.0822105,
      "lon": 77.5422422,
      "tags": {
        "name": "New Bharath Store",
        "shop": "yes"
      }
    },
    {
      "type": "way",
      "id": 133000232,
      "center": {
        "lat": 13.0897175,
        "lon": 77.5458768
      },
      "tags": {
        "amenity": "college",
        "landuse": "education",
        "name": "Sambhram Institute of Technology"
      }
    },
    {
      "type": "way",
      "id": 413529794,
      "center": {
        "lat": 13.085631,
        "lon": 77.5473552
      },
      "tags": {
        "amenity": "place_of_worship",
        "name": "Missionaries of Charity",
        "religion": "christian"
      }
    },
    {
      "type": "way",
      "id": 1127727174,
      "center": {
        "lat": 13.0911878,
        "lon": 77.5400421
      },
      "tags": {
        "amenity": "events_venue",
        "landuse": "commercial",
        "name": "The King's Meadows"
      }
    },
    {
      "type": "way",
      "id": 1265029267,
      "center": {
        "lat": 13.0812425,
        "lon": 77.5374196
      },
      "tags": {
        "leisure": "park"
      }
    },
    {
      "type": "way",
      "id": 1380270901,
      "center": {
        "lat": 13.0946055,
        "lon": 77.5464251
      },
      "tags": {
        "leisure": "park"
      }
    },
    {
      "type": "way",
      "id": 1382219451,
      "center": {
        "lat": 13.0947813,
        "lon": 77.5319416
      },
      "tags": {
        "amenity": "school",
        "name": "Basil Woods Nature School"
      }
    },
    {
      "type": "way",
      "id": 1382977359,
      "center": {
        "lat": 13.0908867,
        "lon": 77.5367329
      },
      "tags": {
        "amenity": "fuel",
        "brand": "Hindustan Petroleum",
        "brand:wikidata": "Q1619375",
        "name": "HP",
        "official_name": "Hindustan Petroleum"
      }
    },
    {
      "type": "way",
      "id": 1382977360,
      "center": {
        "lat": 13.0910562,
        "lon": 77.53603
      },
      "tags": {
        "amenity": "fuel",
        "brand": "Nayara",
        "brand:wikidata": "Q5399377",
        "name": "Nayara"
      }
    },
    {
      "type": "way",
      "id": 1382977474,
      "center": {
        "lat": 13.0841927,
        "lon": 77.5414117
      },
      "tags": {
        "leisure": "pitch",
        "sport": "tennis"
      }
    },
    {
      "type": "way",
      "id": 1382977476,
      "center": {
        "lat": 13.0846042,
        "lon": 77.541693
      },
      "tags": {
        "leisure": "pitch",
        "sport": "basketball"
      }
    },
    {
      "type": "way",
      "id": 1382977477,
      "center": {
        "lat": 13.0845993,
        "lon": 77.5413685
      },
      "tags": {
        "access": "private",
        "leisure": "swimming_pool"
      }
    },
    {
      "type": "way",
      "id": 1382977679,
      "center": {
        "lat": 13.0944933,
        "lon": 77.5465688
      },
      "tags": {
        "leisure": "playground"
      }
    },
    {
      "type": "way",
      "id": 1382977687,
      "center": {
        "lat": 13.0932036,
        "lon": 77.5451269
      },
      "tags": {
        "amenity": "place_of_worship",
        "landuse": "religious",
        "name": "Sai baba Mandir",
        "religion": "hindu"
      }
    },
    {
      "type": "way",
      "id": 1382977862,
      "center": {
        "lat": 13.091178,
        "lon": 77.5405017
      },
      "tags": {
        "access": "private",
        "amenity": "parking",
        "parking": "surface"
      }
    },
    {
      "type": "way",
      "id": 1409396189,
      "center": {
        "lat": 13.0909879,
        "lon": 77.5307476
      },
      "tags": {
        "amenity": "school"
      }
    },
    {
      "type": "way",
      "id": 1419417211,
      "center": {
        "lat": 13.0910781,
        "lon": 77.5379151
      },
      "tags": {
        "amenity": "fuel"
      }
    },
    {
      "type": "way",
      "id": 1419417227,
      "center": {
        "lat": 13.088134,
        "lon": 77.5465619
      },
      "tags": {
        "amenity": "place_of_worship",
        "building": "yes",
        "religion": "hindu"
      }
    },
    {
      "type": "way",
      "id": 1419417232,
      "center": {
        "lat": 13.0875061,
        "lon": 77.543024
      },
      "tags": {
        "leisure": "park"
      }
    }
  ]
}