{
  "area_name": "Kareemsab Nagar",
  "osm_id": 10272690555,
  "osm_type": "node",
  "place_type": "neighbourhood",
  "amenity_count": 14,
  "amenities": [
    {
      "type": "node",
      "id": 1794150253,
      "lat": 12.9945246,
      "lon": 77.5043269,
      "tags": {
        "amenity": "place_of_worship",
        "name": "Sollapuradamma Temple",
        "name:kn": "ಸೊಲ್ಲಾಪುರದಮ್ಮ ದೇವಸ್ಥಾನ",
        "religion": "hindu"
      }
    },
    {
      "type": "node",
      "id": 1794163355,
      "lat": 12.9986487,
      "lon": 77.5036725,
      "tags": {
        "amenity": "cinema",
        "name": "Mohan Cinema"
      }
    },
    {
      "type": "node",
      "id": 3455398720,
      "lat": 13.0008775,
      "lon": 77.5173607,
      "tags": {
        "amenity": "place_of_worship",
        "name": "Veera Brahmendra temple",
        "name:kn": "ವೀರ ಬ್ರಹ್ಮೇಂದ್ರ",
        "religion": "hindu"
      }
    },
    {
      "type": "node",
      "id": 6947226705,
      "lat": 13.0004769,
      "lon": 77.5054027,
      "tags": {
        "addr:district": "Bengaluru Rural",
        "addr:full": "Ktg Educational Campus, Sy No. 93, Srigandadakaval, Sunkadakatte Road, Vishwaneedam Post",
        "addr:postcode": "560091",
        "addr:state": "Karnataka",
        "amenity": "hospital",
        "name": "K.T.G. Hospital",
        "source": "OpenGovernmentData"
      }
    },
    {
      "type": "node",
      "id": 8187962396,
      "lat": 13.0009029,
      "lon": 77.5046255,
      "tags": {
        "addr:full": "224, Matrushri kalyana mantap, Hegganahalli Main Road, Gajanana Nagar, 1st Stage, Srigandha Nagar, Sunkadakatte, Bengaluru, Karnataka",
        "addr:state": "Karnataka",
        "amenity": "bank",
        "brand": "Canara Bank",
        "brand:pa": "ਕੇਨਰਾ ਬੈਂਕ",
        "brand:ur": "کینرا بینک",
        "brand:wikidata": "Q2003777",
        "brand:wikipedia": "en:Canara Bank",
        "brand:wikipedia:pa": "ਕੇਨਰਾ ਬੈਂਕ",
        "name": "Canara Bank",
        "name:kn": "ಕೆನರಾ ಬ್ಯಾಂಕ್",
        "name:pa": "ਕੇਨਰਾ ਬੈਂਕ",
        "name:ur": "کینرا بینک"
      }
    },
    {
      "type": "way",
      "id": 143731427,
      "center": {
        "lat": 12.9909868,
        "lon": 77.513684
      },
      "tags": {
        "amenity": "college",
        "name": "National Institute of Unani Medicine"
      }
    },
    {
      "type": "way",
      "id": 785010682,
      "center": {
        "lat": 12.9899803,
        "lon": 77.5136653
      },
      "tags": {
        "leisure": "garden"
      }
    },
    {
      "type": "way",
      "id": 785010718,
      "center": {
        "lat": 12.98941,
        "lon": 77.513334
      },
      "tags": {
        "leisure": "garden"
      }
    },
    {
      "type": "way",
      "id": 886184252,
      "center": {
        "lat": 12.9961678,
        "lon": 77.5213994
      },
      "tags": {
        "shop": "laundry"
      }
    },
    {
      "type": "way",
      "id": 1120737746,
      "center": {
        "lat": 12.9961474,
        "lon": 77.5194088
      },
      "tags": {
        "amenity": "fuel",
        "brand": "GAIL",
        "fuel:cng": "yes",
        "name": "GAIL",
        "operator": "GAIL"
      }
    },
    {
      "type": "way",
      "id": 1247976105,
      "center": {
        "lat": 12.9916237,
        "lon": 77.5198011
      },
      "tags": {
        "amenity": "theatre",
        "name": "Babu Jagjivanram Auditorium & Training Centre",
        "start_date": "2024"
      }
    },
    {
      "type": "way",
      "id": 1247976122,
      "center": {
        "lat": 12.9910315,
        "lon": 77.5170909
      },
      "tags": {
        "leisure": "park"
      }
    },
    {
      "type": "way",
      "id": 1353420077,
      "center": {
        "lat": 12.9929933,
        "lon": 77.5090794
      },
      "tags": {
        "leisure": "park"
      }
    },
    {
      "type": "way",
      "id": 1353420079,
      "center": {
        "lat": 12.9924455,
        "lon": 77.5067163
      },
      "tags": {
        "leisure": "park"
      }
    }
  ]
}