{
  "area_name": "Kasavanahalli",
  "osm_id": 13316652691,
  "osm_type": "node",
  "place_type": "suburb",
  "amenity_count": 95,
  "amenities": [
    {
      "type": "node",
      "id": 4273047590,
      "lat": 12.8899392,
      "lon": 77.6733771,
      "tags": {
        "addr:housenumber": "65/1",
        "addr:postcode": "560099",
        "addr:street": "Central Jail Road",
        "name": "Loyal World Retail Mart",
        "opening_hours": "Mo-Sa 08:30-21:30; Su 08:30-09:30",
        "phone": "08025746285",
        "shop": "supermarket"
      }
    },
    {
      "type": "node",
      "id": 4440946384,
      "lat": 12.9041502,
      "lon": 77.6741043,
      "tags": {
        "addr:city": "Bangalore",
        "addr:housenumber": "9 IAS layout",
        "addr:postcode": "560035",
        "addr:street": "Lake Shore HomesRoad, Amrita college road, off sarjapur road, Kasavanahalli",
        "amenity": "hospital",
        "healthcare": "hospital",
        "name": "Raksha Orthopaedic And Multi Speciality Centre",
        "phone": "+91-74115 27777"
      }
    },
    {
      "type": "node",
      "id": 4441820056,
      "lat": 12.9055322,
      "lon": 77.6757546,
      "tags": {
        "addr:city": "Bengaluru",
        "addr:housenumber": "No.01",
        "addr:postcode": "560034",
        "addr:street": "Mathrusree Plaza, Tulsi Lyt, Kasavanahalli Main Road",
        "amenity": "dentist",
        "healthcare": "dentist",
        "name": "The Smile Kraftz Speciality Clinic",
        "phone": "+91-9738123415"
      }
    },
    {
      "type": "node",
      "id": 4441853154,
      "lat": 12.9058599,
      "lon": 77.6756805,
      "tags": {
        "addr:city": "Bengaluru",
        "addr:housenumber": "8",
        "addr:postcode": "560035",
        "addr:street": "Amruth College Main Road, Varthur Hobli, Kasavanahalli",
        "amenity": "pharmacy",
        "healthcare": "pharmacy",
        "name": "Banashankari Medicals",
        "phone": "+91-9535509099"
      }
    },
    {
      "type": "node",
      "id": 4441925587,
      "lat": 12.8901398,
      "lon": 77.6734141,
      "tags": {
        "addr:city": "Bangaluru",
        "addr:housename": "Muniyellapa Building",
        "addr:postcode": "560099",
        "addr:street": "Central Jail Road",
        "amenity": "clinic",
        "healthcare": "clinic",
        "name": "Harmony Wellness Concepts Center",
        "phone": "+91-97418 99116",
        "website": "https://www.harmonywellnessconcepts.com/"
      }
    },
    {
      "type": "node",
      "id": 4442645351,
      "lat": 12.9001458,
      "lon": 77.6753736,
      "tags": {
        "addr:city": "Bangalore",
        "addr:postcode": "560035",
        "addr:street": "Kristal Jasper Commercial Complex, Kasavanahalli Main Road, Sarjapur Road",
        "amenity": "clinic",
        "name": "Esthetix Orthodontic and Cosmetic Dental Clinic",
        "phone": "+91-9986003860"
      }
    },
    {
      "type": "node",
      "id": 4489919010,
      "lat": 12.9044744,
      "lon": 77.6761437,
      "tags": {
        "addr:city": "Bengaluru,",
        "addr:housenumber": "No. 58/4,",
        "addr:postcode": "560035",
        "addr:street": "G.R. Arcade, Amruta Engineering College Road, Kasavanahalli Main Road, Kasavanahalli,  Karnataka",
        "leisure": "sports_centre",
        "name": "New U Fitness",
        "phone": "090089 08080",
        "website": "newufitness.in"
      }
    },
    {
      "type": "node",
      "id": 4981641424,
      "lat": 12.9048267,
      "lon": 77.6759353,
      "tags": {
        "addr:city": "Bengaluru",
        "addr:housenumber": "SURVEY NO: 15/2, 15/1",
        "addr:postcode": "560035",
        "addr:street": "Central Jail Road",
        "amenity": "ice_cream",
        "name": "Polar bear",
        "outdoor_seating": "yes",
        "phone": "9986083006",
        "source": "http://www.polarbear.co.in/storelocator.html",
        "takeaway": "yes",
        "website": "https://polarbear.co.in/"
      }
    },
    {
      "type": "node",
      "id": 4993974829,
      "lat": 12.9050375,
      "lon": 77.675952,
      "tags": {
        "addr:city": "Bengaluru",
        "addr:housenumber": "166, IAS Officers Layout,",
        "addr:postcode": "560035",
        "addr:street": "Central Jail Road",
        "name": "Just Bake",
        "operator": "Just Bake",
        "phone": "8050022055",
        "shop": "bakery",
        "source": "https://www.justbake.in/bangalore/3-kasavanahalli-110",
        "website": "https://www.justbake.in/"
      }
    },
    {
      "type": "node",
      "id": 5004546590,
      "lat": 12.8996788,
      "lon": 77.6753159,
      "tags": {
        "addr:city": "Bangalore",
        "addr:housenumber": "Shell Heights, Hosa Road, Opp.Owners court, Kasavanahalli",
        "addr:postcode": "560035",
        "addr:street": "Central Jail Road",
        "brand": "Reliance Fresh",
        "brand:wikidata": "Q7311014",
        "name": "Reliance Fresh",
        "name:kn": "ರಿಲಾಯನ್ಸ್ ಫ್ರೆಶ್",
        "shop": "supermarket",
        "source": "http://www.reliancefresh.co.in/storeadd377c.php"
      }
    },
    {
      "type": "node",
      "id": 5004555635,
      "lat": 12.9047595,
      "lon": 77.6759172,
      "tags": {
        "addr:city": "Bengaluru",
        "addr:housenumber": "No-34/5, Aadeshwar Chambers, Kasavanhalli Main Road",
        "addr:postcode": "560035",
        "addr:street": "Central Jail Road",
        "amenity": "bank",
        "atm": "yes",
        "brand": "ICICI Bank",
        "brand:wikidata": "Q1653258",
        "brand:wikipedia": "en:ICICI Bank",
        "name": "ICICI Bank",
        "name:kn": "ಐಸಿಐಸಿಐ ಬ್ಯಾಂಕು",
        "short_name": "ICICI",
        "source": "http://maps.icicibank.com/mobile/"
      }
    },
    {
      "type": "node",
      "id": 6749776309,
      "lat": 12.9028489,
      "lon": 77.6694198,
      "tags": {
        "access": "private",
        "amenity": "parking_entrance",
        "parking": "underground"
      }
    },
    {
      "type": "node",
      "id": 6801884242,
      "lat": 12.8985491,
      "lon": 77.6753954,
      "tags": {
        "name": "Just Bake",
        "shop": "bakery"
      }
    },
    {
      "type": "node",
      "id": 9830902329,
      "lat": 12.904414,
      "lon": 77.6760495,
      "tags": {
        "alt_name": "Kentucky Fried Chicken",
        "alt_name:en": "Kentucky Fried Chicken",
        "alt_name:hi": "केंटुकी फ्राइड चिकन",
        "alt_name:pa": "ਕੈਂਟੁਕੀ ਫ੍ਰਾਈਡ ਚਿਕਨ",
        "alt_name:pnb": "کینٹکی فرائیڈ چکن",
        "alt_name:ur": "کینٹکی فرائیڈ چکن",
        "amenity": "fast_food",
        "brand": "KFC",
        "brand:en": "KFC",
        "brand:hi": "केएफसी",
        "brand:pa": "ਕੇਐਫਸੀ",
        "brand:pnb": "کے ایف سی",
        "brand:ur": "کے ایف سی",
        "brand:wikidata": "Q524757",
        "cuisine": "chicken",
        "indoor_seating": "yes",
        "name": "KFC",
        "name:en": "KFC",
        "name:hi": "केएफसी",
        "name:pa": "ਕੇਐਫਸੀ",
        "name:pnb": "کے ایف سی",
        "name:ur": "کے ایف سی",
        "outdoor_seating": "no",
        "takeaway": "yes"
      }
    },
    {
      "type": "node",
      "id": 9830902330,
      "lat": 12.90268,
      "lon": 77.6758874,
      "tags": {
        "name": "Reliance Trends",
        "shop": "clothes"
      }
    },
    {
      "type": "node",
      "id": 9830902335,
      "lat": 12.9015659,
      "lon": 77.6758023,
      "tags": {
        "name": "Vishal Mega Mart",
        "opening_hours": "PH,Mo-Su 10:00-23:00",
        "shop": "supermarket"
      }
    },
    {
      "type": "node",
      "id": 11282845405,
      "lat": 12.8910948,
      "lon": 77.6687585,
      "tags": {
        "addr:city": "Bengaluru",
        "addr:district": "Bengaluru",
        "addr:full": "BARSHA Durga Puja Ground, Sarjapur Road, opp. TCIS, HSR Extension, Haralur, Bengaluru, Karnataka 560068",
        "addr:postcode": "560068",
        "addr:street": "Sarjapur Road, opp. TCIS, HSR Extension, Haralur",
        "amenity": "place_of_worship",
        "check_date": "2023-10-22",
        "mobile": "9535952664",
        "name": "Barsha Bengali Association",
        "opening_hours": "Mo-Su 07:00-11:30",
        "website": "https://www.barshabangalore.com/"
      }
    },
    {
      "type": "node",
      "id": 11657341574,
      "lat": 12.899526,
      "lon": 77.6752508,
      "tags": {
        "amenity": "bar",
        "name": "Budweiser"
      }
    },
    {
      "type": "node",
      "id": 11662741917,
      "lat": 12.899519,
      "lon": 77.6752339,
      "tags": {
        "leisure": "fitness_centre",
        "name": "Body Forge",
        "phone": "07618705096",
        "sport": "fitness"
      }
    },
    {
      "type": "node",
      "id": 11662768862,
      "lat": 12.899593,
      "lon": 77.6755634,
      "tags": {
        "amenity": "restaurant",
        "cuisine": "kebab;shawarma",
        "name": "Rotana Cafe"
      }
    },
    {
      "type": "node",
      "id": 11662768863,
      "lat": 12.8991427,
      "lon": 77.6755711,
      "tags": {
        "male": "yes",
        "name": "Infinity Men's parlour",
        "shop": "hairdresser"
      }
    },
    {
      "type": "node",
      "id": 11662768864,
      "lat": 12.8993376,
      "lon": 77.6755636,
      "tags": {
        "air_conditioning": "no",
        "amenity": "restaurant",
        "cuisine": "biriyani",
        "diet:halal": "yes",
        "indoor_seating": "yes",
        "name": "Indian Dum Biriyani",
        "outdoor_seating": "no"
      }
    },
    {
      "type": "node",
      "id": 11662768865,
      "lat": 12.8998435,
      "lon": 77.675559,
      "tags": {
        "amenity": "restaurant",
        "indoor_seating": "yes",
        "name": "Ambur Dum Biriyani",
        "outdoor_seating": "no"
      }
    },
    {
      "type": "node",
      "id": 11662811567,
      "lat": 12.8985354,
      "lon": 77.6753954,
      "tags": {
        "amenity": "cafe",
        "name": "Chai Kada"
      }
    },
    {
      "type": "node",
      "id": 11662811568,
      "lat": 12.8985408,
      "lon": 77.6753792,
      "tags": {
        "amenity": "dentist",
        "healthcare": "dentist",
        "name": "Supra Dental Care"
      }
    },
    {
      "type": "node",
      "id": 11662811969,
      "lat": 12.8984117,
      "lon": 77.6753647,
      "tags": {
        "name": "Mobicom",
        "phone": "07899256949",
        "shop": "mobile_phone"
      }
    },
    {
      "type": "node",
      "id": 11664019648,
      "lat": 12.8989754,
      "lon": 77.6761562,
      "tags": {
        "amenity": "restaurant",
        "name": "Pita Pocket Factory"
      }
    },
    {
      "type": "node",
      "id": 11664019649,
      "lat": 12.8989725,
      "lon": 77.6763124,
      "tags": {
        "amenity": "dentist",
        "healthcare": "dentist",
        "name": "RCT Dental Inn"
      }
    },
    {
      "type": "node",
      "id": 11680911320,
      "lat": 12.8995858,
      "lon": 77.6782177,
      "tags": {
        "leisure": "pitch",
        "name": "Tennis Gurukul",
        "sport": "tennis"
      }
    },
    {
      "type": "node",
      "id": 11740693081,
      "lat": 12.9018889,
      "lon": 77.6760323,
      "tags": {
        "addr:city": "Bangalore",
        "addr:housenumber": "2nd floor, KPCL LAYOUT",
        "addr:postcode": "560035",
        "addr:street": "Central Jail Road",
        "female": "yes",
        "male": "yes",
        "name": "Naturals Signature",
        "operator": "Naturals",
        "shop": "hairdresser"
      }
    },
    {
      "type": "node",
      "id": 12862846453,
      "lat": 12.9013282,
      "lon": 77.6757897,
      "tags": {
        "amenity": "fast_food",
        "cuisine": "burger;wings;chicken",
        "delivery": "yes",
        "name": "Big Guys: Wings & More",
        "takeaway": "yes"
      }
    },
    {
      "type": "node",
      "id": 13103135473,
      "lat": 12.9017823,
      "lon": 77.6779575,
      "tags": {
        "addr:city": "Bengaluru",
        "addr:district": "Bangalore Urban",
        "addr:housenumber": "341",
        "addr:postcode": "560035",
        "addr:street": "2nd Main Road",
        "amenity": "dentist",
        "healthcare": "dentist",
        "healthcare:speciality": "orthodontics;endodontics;dental_oral_maxillo_facial_surgery;prosthodontics;oral_surgery;oral_medecine;dentist",
        "level": "1",
        "mobile": "+917483805407",
        "name": "AlignBy Orthodontic & Multi-Speciality Clinic",
        "opening_hours": "Mo-Sa 10:30-20:30",
        "operator": "Dr Ranjitha",
        "operator:type": "business",
        "website": "https://alignby.com/"
      }
    },
    {
      "type": "node",
      "id": 13139144743,
      "lat": 12.9006077,
      "lon": 77.6751912,
      "tags": {
        "access": "private",
        "amenity": "parking_entrance",
        "parking": "underground"
      }
    },
    {
      "type": "node",
      "id": 13139144747,
      "lat": 12.9003214,
      "lon": 77.6751463,
      "tags": {
        "access": "private",
        "amenity": "parking_entrance",
        "parking": "underground"
      }
    },
    {
      "type": "node",
      "id": 13140374195,
      "lat": 12.9036692,
      "lon": 77.6704276,
      "tags": {
        "access": "private",
        "amenity": "parking_entrance",
        "parking": "underground"
      }
    },
    {
      "type": "node",
      "id": 13140374414,
      "lat": 12.9020927,
      "lon": 77.6755413,
      "tags": {
        "access": "private",
        "amenity": "parking_entrance",
        "parking": "underground"
      }
    },
    {
      "type": "node",
      "id": 13173681439,
      "lat": 12.9003224,
      "lon": 77.6756632,
      "tags": {
        "name": "Naya",
        "shop": "confectionery"
      }
    },
    {
      "type": "way",
      "id": 583256406,
      "center": {
        "lat": 12.9010679,
        "lon": 77.6662731
      },
      "tags": {
        "leisure": "park"
      }
    },
    {
      "type": "way",
      "id": 627130923,
      "center": {
        "lat": 12.9055049,
        "lon": 77.6750217
      },
      "tags": {
        "leisure": "pitch",
        "lit": "yes",
        "sport": "basketball"
      }
    },
    {
      "type": "way",
      "id": 705755078,
      "center": {
        "lat": 12.896195,
        "lon": 77.6777571
      },
      "tags": {
        "leisure": "swimming_pool"
      }
    },
    {
      "type": "way",
      "id": 781696175,
      "center": {
        "lat": 12.8996736,
        "lon": 77.6678737
      },
      "tags": {
        "amenity": "parking",
        "parking": "surface"
      }
    },
    {
      "type": "way",
      "id": 902970378,
      "center": {
        "lat": 12.8958024,
        "lon": 77.6789688
      },
      "tags": {
        "amenity": "school",
        "name": "Narayana CO-Kaveri Bhavan",
        "operator": "Narayana",
        "operator:type": "private",
        "phone": "1800 102 3344",
        "website": "https://narayanaschools.in"
      }
    },
    {
      "type": "way",
      "id": 902970380,
      "center": {
        "lat": 12.8958223,
        "lon": 77.6792509
      },
      "tags": {
        "leisure": "pitch",
        "sport": "basketball"
      }
    },
    {
      "type": "way",
      "id": 902970381,
      "center": {
        "lat": 12.8957321,
        "lon": 77.6791209
      },
      "tags": {
        "leisure": "pitch",
        "sport": "tennis"
      }
    },
    {
      "type": "way",
      "id": 907621385,
      "center": {
        "lat": 12.8972738,
        "lon": 77.6833476
      },
      "tags": {
        "amenity": "school",
        "name": "Government School"
      }
    },
    {
      "type": "way",
      "id": 922840254,
      "center": {
        "lat": 12.8960717,
        "lon": 77.6726794
      },
      "tags": {
        "amenity": "school",
        "name": "Amatra Academy"
      }
    },
    {
      "type": "way",
      "id": 922840256,
      "center": {
        "lat": 12.8964625,
        "lon": 77.6727841
      },
      "tags": {
        "amenity": "conference_centre",
        "building": "yes"
      }
    },
    {
      "type": "way",
      "id": 922840257,
      "center": {
        "lat": 12.8959844,
        "lon": 77.6730456
      },
      "tags": {
        "access": "private",
        "hoops": "4",
        "leisure": "pitch",
        "sport": "basketball"
      }
    },
    {
      "type": "way",
      "id": 1065395456,
      "center": {
        "lat": 12.9042849,
        "lon": 77.675782
      },
      "tags": {
        "amenity": "pub",
        "building": "yes",
        "cuisine": "north_indian;spanish",
        "diet:non-vegetarian": "yes",
        "diet:vegetarian": "yes",
        "microbrewery": "yes",
        "name": "La Casa",
        "name:kn": "ಲಾ ಕಾಸಾ",
        "smoking": "isolated",
        "source": "microsoft/BuildingFootprints"
      }
    },
    {
      "type": "way",
      "id": 1065763508,
      "center": {
        "lat": 12.8919766,
        "lon": 77.6751207
      },
      "tags": {
        "access": "customers",
        "leisure": "swimming_pool",
        "location": "outdoor",
        "swimming_pool": "outdoor"
      }
    },
    {
      "type": "way",
      "id": 1070970723,
      "center": {
        "lat": 12.9046396,
        "lon": 77.6761288
      },
      "tags": {
        "building": "yes",
        "name": "Aishwarya Value Mart",
        "shop": "convenience"
      }
    },
    {
      "type": "way",
      "id": 1204249114,
      "center": {
        "lat": 12.8943551,
        "lon": 77.666714
      },
      "tags": {
        "leisure": "pitch",
        "sport": "soccer"
      }
    },
    {
      "type": "way",
      "id": 1204249115,
      "center": {
        "lat": 12.8944567,
        "lon": 77.6677108
      },
      "tags": {
        "leisure": "pitch",
        "sport": "basketball"
      }
    },
    {
      "type": "way",
      "id": 1204249116,
      "center": {
        "lat": 12.894109,
        "lon": 77.6676229
      },
      "tags": {
        "leisure": "pitch",
        "sport": "tennis"
      }
    },
    {
      "type": "way",
      "id": 1244165575,
      "center": {
        "lat": 12.8960497,
        "lon": 77.6645006
      },
      "tags": {
        "leisure": "park"
      }
    },
    {
      "type": "way",
      "id": 1244165577,
      "center": {
        "lat": 12.894706,
        "lon": 77.6657022
      },
      "tags": {
        "leisure": "park"
      }
    },
    {
      "type": "way",
      "id": 1254114731,
      "center": {
        "lat": 12.8990834,
        "lon": 77.6751555
      },
      "tags": {
        "brand": "Max",
        "brand:wikidata": "Q24939079",
        "building": "yes",
        "clothes": "men;women;children",
        "name": "Max",
        "operator": "Max",
        "shop": "clothes"
      }
    },
    {
      "type": "way",
      "id": 1256466794,
      "center": {
        "lat": 12.899699,
        "lon": 77.678446
      },
      "tags": {
        "leisure": "pitch",
        "name": "Tennis Gurukul",
        "sport": "tennis"
      }
    },
    {
      "type": "way",
      "id": 1256466795,
      "center": {
        "lat": 12.9000363,
        "lon": 77.67849
      },
      "tags": {
        "leisure": "pitch",
        "name": "Tennis Gurukul",
        "sport": "tennis"
      }
    },
    {
      "type": "way",
      "id": 1270617936,
      "center": {
        "lat": 12.9066207,
        "lon": 77.67077
      },
      "tags": {
        "leisure": "park"
      }
    },
    {
      "type": "way",
      "id": 1285046619,
      "center": {
        "lat": 12.9061246,
        "lon": 77.6709598
      },
      "tags": {
        "leisure": "playground"
      }
    },
    {
      "type": "way",
      "id": 1312726766,
      "center": {
        "lat": 12.8949242,
        "lon": 77.6677032
      },
      "tags": {
        "leisure": "park"
      }
    },
    {
      "type": "way",
      "id": 1312726768,
      "center": {
        "lat": 12.8981117,
        "lon": 77.6713276
      },
      "tags": {
        "leisure": "park",
        "name": "Janaki Ammal Park",
        "name:etymology:wikidata": "Q4794782",
        "name:etymology:wikipedia": "en:Janaki Ammal"
      }
    },
    {
      "type": "way",
      "id": 1312726769,
      "center": {
        "lat": 12.8947463,
        "lon": 77.6730225
      },
      "tags": {
        "leisure": "track",
        "sport": "athletics"
      }
    },
    {
      "type": "way",
      "id": 1312726770,
      "center": {
        "lat": 12.8986659,
        "lon": 77.6714073
      },
      "tags": {
        "access": "private",
        "leisure": "swimming_pool"
      }
    },
    {
      "type": "way",
      "id": 1312726773,
      "center": {
        "lat": 12.8958898,
        "lon": 77.6728081
      },
      "tags": {
        "access": "private",
        "leisure": "pitch",
        "sport": "tennis"
      }
    },
    {
      "type": "way",
      "id": 1363265488,
      "center": {
        "lat": 12.8999391,
        "lon": 77.6659796
      },
      "tags": {
        "amenity": "school",
        "name": "Orchids the International School"
      }
    },
    {
      "type": "way",
      "id": 1363512459,
      "center": {
        "lat": 12.8955025,
        "lon": 77.6796803
      },
      "tags": {
        "addr:city": "Bangalore",
        "addr:postcode": "560035",
        "addr:street": "15th Main Road",
        "amenity": "school",
        "name": "Narayana",
        "roof:colour": "#f8f7f7"
      }
    },
    {
      "type": "way",
      "id": 1363512461,
      "center": {
        "lat": 12.8954126,
        "lon": 77.6798388
      },
      "tags": {
        "leisure": "pitch",
        "sport": "basketball"
      }
    },
    {
      "type": "way",
      "id": 1363512462,
      "center": {
        "lat": 12.8954628,
        "lon": 77.6797301
      },
      "tags": {
        "leisure": "pitch",
        "sport": "volleyball"
      }
    },
    {
      "type": "way",
      "id": 1420117184,
      "center": {
        "lat": 12.8957568,
        "lon": 77.6740463
      },
      "tags": {
        "amenity": "college",
        "name": "Karnataka Reddyjana Sangha Medical College"
      }
    },
    {
      "type": "way",
      "id": 1422822846,
      "center": {
        "lat": 12.9001784,
        "lon": 77.6744207
      },
      "tags": {
        "access": "private",
        "leisure": "swimming_pool"
      }
    },
    {
      "type": "way",
      "id": 1422822847,
      "center": {
        "lat": 12.9010893,
        "lon": 77.674632
      },
      "tags": {
        "access": "private",
        "leisure": "swimming_pool"
      }
    },
    {
      "type": "way",
      "id": 1422822894,
      "center": {
        "lat": 12.9026051,
        "lon": 77.6753184
      },
      "tags": {
        "access": "private",
        "leisure": "swimming_pool"
      }
    },
    {
      "type": "way",
      "id": 1422822895,
      "center": {
        "lat": 12.9030836,
        "lon": 77.6756448
      },
      "tags": {
        "leisure": "pitch",
        "sport": "tennis"
      }
    },
    {
      "type": "way",
      "id": 1429153347,
      "center": {
        "lat": 12.8971376,
        "lon": 77.677667
      },
      "tags": {
        "access": "private",
        "leisure": "swimming_pool"
      }
    },
    {
      "type": "way",
      "id": 1429319297,
      "center": {
        "lat": 12.9066502,
        "lon": 77.6764575
      },
      "tags": {
        "access": "private",
        "leisure": "playground"
      }
    },
    {
      "type": "way",
      "id": 1429319304,
      "center": {
        "lat": 12.9057706,
        "lon": 77.6751095
      },
      "tags": {
        "leisure": "pitch",
        "sport": "soccer"
      }
    },
    {
      "type": "way",
      "id": 1429319305,
      "center": {
        "lat": 12.9063196,
        "lon": 77.67498
      },
      "tags": {
        "access": "private",
        "leisure": "swimming_pool"
      }
    },
    {
      "type": "way",
      "id": 1429319310,
      "center": {
        "lat": 12.9025574,
        "lon": 77.6755309
      },
      "tags": {
        "access": "private",
        "leisure": "playground"
      }
    },
    {
      "type": "way",
      "id": 1429319316,
      "center": {
        "lat": 12.9004992,
        "lon": 77.674835
      },
      "tags": {
        "access": "private",
        "leisure": "swimming_pool"
      }
    },
    {
      "type": "way",
      "id": 1429319320,
      "center": {
        "lat": 12.9006628,
        "lon": 77.6747232
      },
      "tags": {
        "access": "private",
        "leisure": "playground"
      }
    },
    {
      "type": "way",
      "id": 1429319327,
      "center": {
        "lat": 12.8922855,
        "lon": 77.674971
      },
      "tags": {
        "access": "private",
        "leisure": "swimming_pool"
      }
    },
    {
      "type": "way",
      "id": 1429335841,
      "center": {
        "lat": 12.8913056,
        "lon": 77.6690477
      },
      "tags": {
        "leisure": "pitch",
        "sport": "basketball"
      }
    },
    {
      "type": "way",
      "id": 1429442441,
      "center": {
        "lat": 12.9030494,
        "lon": 77.6696942
      },
      "tags": {
        "access": "private",
        "leisure": "playground"
      }
    },
    {
      "type": "way",
      "id": 1429442443,
      "center": {
        "lat": 12.9033449,
        "lon": 77.6698198
      },
      "tags": {
        "access": "private",
        "leisure": "pitch",
        "sport": "tennis"
      }
    },
    {
      "type": "way",
      "id": 1429442444,
      "center": {
        "lat": 12.9028566,
        "lon": 77.6695816
      },
      "tags": {
        "access": "private",
        "leisure": "swimming_pool"
      }
    },
    {
      "type": "way",
      "id": 1429442448,
      "center": {
        "lat": 12.902244,
        "lon": 77.6694952
      },
      "tags": {
        "access": "private",
        "amenity": "theatre",
        "theatre:type": "amphi"
      }
    },
    {
      "type": "way",
      "id": 1429442450,
      "center": {
        "lat": 12.9016982,
        "lon": 77.670861
      },
      "tags": {
        "access": "private",
        "leisure": "swimming_pool"
      }
    },
    {
      "type": "way",
      "id": 1429442459,
      "center": {
        "lat": 12.9024358,
        "lon": 77.6752241
      },
      "tags": {
        "leisure": "garden"
      }
    },
    {
      "type": "way",
      "id": 1429442460,
      "center": {
        "lat": 12.9025348,
        "lon": 77.675326
      },
      "tags": {
        "access": "private",
        "leisure": "park"
      }
    },
    {
      "type": "way",
      "id": 1429442461,
      "center": {
        "lat": 12.9024151,
        "lon": 77.674885
      },
      "tags": {
        "access": "private",
        "leisure": "pitch",
        "sport": "cricket_nets"
      }
    },
    {
      "type": "way",
      "id": 1429442473,
      "center": {
        "lat": 12.9006686,
        "lon": 77.6757951
      },
      "tags": {
        "access": "customers",
        "amenity": "parking",
        "parking": "surface"
      }
    },
    {
      "type": "way",
      "id": 1433363981,
      "center": {
        "lat": 12.9005656,
        "lon": 77.6757868
      },
      "tags": {
        "amenity": "hospital",
        "healthcare": "hospital",
        "name": "Aarogya Hastha Hospital"
      }
    },
    {
      "type": "way",
      "id": 1453020421,
      "center": {
        "lat": 12.8938083,
        "lon": 77.6750777
      },
      "tags": {
        "amenity": "restaurant",
        "building": "yes",
        "name": "cafeteria"
      }
    }
  ]
}