{
  "area_name": "Kasturi Nagar",
  "osm_id": 19883291,
  "osm_type": "relation",
  "place_type": "administrative",
  "amenity_count": 106,
  "amenities": [
    {
      "type": "node",
      "id": 1436125689,
      "lat": 12.9926382,
      "lon": 77.6506116,
      "tags": {
        "amenity": "place_of_worship",
        "name": "Ganesha Temple",
        "name:kn": "ಗಣೇಶ ದೇವಸ್ಥಾನ",
        "religion": "hindu"
      }
    },
    {
      "type": "node",
      "id": 1474872713,
      "lat": 13.0042548,
      "lon": 77.6580406,
      "tags": {
        "amenity": "school",
        "name": "Indo-German School"
      }
    },
    {
      "type": "node",
      "id": 1541338044,
      "lat": 13.0044439,
      "lon": 77.6554748,
      "tags": {
        "shop": "car_repair"
      }
    },
    {
      "type": "node",
      "id": 1541342700,
      "lat": 13.0059466,
      "lon": 77.6593935,
      "tags": {
        "amenity": "atm",
        "brand": "State Bank of India",
        "brand:wikidata": "Q1340361",
        "check_date": "2024-02-23",
        "name": "State Bank of India",
        "name:kn": "ಎಸ್ ಬಿ ಐ",
        "operator": "State Bank of India",
        "operator:wikidata": "Q1340361",
        "short_name": "SBI"
      }
    },
    {
      "type": "node",
      "id": 1834619196,
      "lat": 13.001038,
      "lon": 77.6623051,
      "tags": {
        "amenity": "kindergarten",
        "name": "Shemrock Happy Hearts"
      }
    },
    {
      "type": "node",
      "id": 2473242531,
      "lat": 13.0054674,
      "lon": 77.6482717,
      "tags": {
        "amenity": "school",
        "name": "Mother Mary English School"
      }
    },
    {
      "type": "node",
      "id": 2473253524,
      "lat": 13.0107913,
      "lon": 77.6588641,
      "tags": {
        "amenity": "place_of_worship",
        "name": "Chowdeshwari Temple B Channasandra, Banasawadi",
        "religion": "hindu"
      }
    },
    {
      "type": "node",
      "id": 2473254869,
      "lat": 13.0109838,
      "lon": 77.6593955,
      "tags": {
        "addr:street": "B Channasandra, Bennigana Halli",
        "amenity": "place_of_worship",
        "name": "Sri Muneshwara Temple",
        "name:kn": "ಮುನೇಶ್ವರ ದೇವಸ್ಥಾನ",
        "religion": "hindu"
      }
    },
    {
      "type": "node",
      "id": 2614285176,
      "lat": 13.007962,
      "lon": 77.658766,
      "tags": {
        "addr:city": "Bangalore",
        "addr:district": "Bengaluru Urban",
        "addr:postcode": "560043",
        "addr:street": "2nd Main Rd, B Channasandra, Kasturi Nagar",
        "air_conditioning": "yes",
        "amenity": "cafe",
        "brand": "Cafe Coffee Day",
        "brand:wikidata": "Q5017235",
        "cuisine": "coffee_shop",
        "diet:vegetarian": "yes",
        "indoor_seating": "yes",
        "internet_access": "yes",
        "name": "Cafe Coffee Day",
        "name:kn": "ಕಫೆ ಕಾಫಿ ಡೇ",
        "outdoor_seating": "no",
        "smoking": "no",
        "takeaway": "yes"
      }
    },
    {
      "type": "node",
      "id": 2991981783,
      "lat": 13.0059276,
      "lon": 77.6594682,
      "tags": {
        "amenity": "bank",
        "atm": "yes",
        "brand": "State Bank of India",
        "brand:wikidata": "Q1340361",
        "brand:wikipedia": "en:State Bank of India",
        "name": "State Bank of India",
        "name:kn": "ಭಾರತೀಯ ಸ್ಟೇಟ್ ಬ್ಯಾಂಕ್",
        "short_name": "SBI"
      }
    },
    {
      "type": "node",
      "id": 2991986418,
      "lat": 13.0039518,
      "lon": 77.6573921,
      "tags": {
        "amenity": "atm",
        "brand": "HDFC Bank",
        "brand:wikidata": "Q631047",
        "name": "HDFC Bank",
        "name:kn": "ಎಚ್. ಡಿ. ಎಫ್. ಸಿ..",
        "operator": "HDFC Bank",
        "operator:wikidata": "Q631047",
        "short_name": "HDFC"
      }
    },
    {
      "type": "node",
      "id": 4447012972,
      "lat": 13.0034429,
      "lon": 77.6629393,
      "tags": {
        "addr:city": "Bangalore",
        "addr:housenumber": "#141",
        "addr:postcode": "560043",
        "addr:street": "3rd main, Kasturi Nagar, East of NGEF Layout, Kasturi Nagar",
        "amenity": "clinic",
        "check_date": "2024-01-25",
        "level": "1",
        "name": "Anand Diagnostic Laboratory",
        "phone": "080 2545 1202",
        "source": "http://www.justdial.com/",
        "website": "https://www.anandlab.com/"
      }
    },
    {
      "type": "node",
      "id": 5112182301,
      "lat": 13.0090127,
      "lon": 77.6562397,
      "tags": {
        "amenity": "bank",
        "atm": "yes",
        "drive_through": "no",
        "name": "Vijaya Bank",
        "name:kn": "ವಿಜಯ ಬ್ಯಾಂಕು",
        "operator": "Vijaya Bank"
      }
    },
    {
      "type": "node",
      "id": 5112185895,
      "lat": 13.0086666,
      "lon": 77.6559015,
      "tags": {
        "addr:city": "Bangalore",
        "addr:district": "Bengaluru Urban",
        "addr:housenumber": "201",
        "addr:postcode": "560043",
        "addr:street": "B Channasandra Main Road",
        "amenity": "restaurant",
        "cuisine": "regional;indian;breakfast",
        "name": "Raghavendra Bhavan",
        "name:kn": "ರಾಘವೇಂದ್ರ ಭವನ",
        "takeaway": "yes"
      }
    },
    {
      "type": "node",
      "id": 5112187604,
      "lat": 13.0090912,
      "lon": 77.656317,
      "tags": {
        "amenity": "hospital",
        "name": "Subramanium Medicine Store"
      }
    },
    {
      "type": "node",
      "id": 5112191947,
      "lat": 13.0104342,
      "lon": 77.6583242,
      "tags": {
        "addr:district": "Bengaluru Urban",
        "addr:full": "6C - 335, 4Th C Main Road, 6Th Cross Ombr Layout Bhuvanagiri",
        "addr:postcode": "560041",
        "addr:state": "Karnataka",
        "amenity": "hospital",
        "name": "Chaya Super Speciality Hospital",
        "source": "OpenGovernmentData"
      }
    },
    {
      "type": "node",
      "id": 5112228446,
      "lat": 13.0048108,
      "lon": 77.6601929,
      "tags": {
        "amenity": "bank",
        "atm": "yes",
        "brand": "Karnataka Bank",
        "brand:wikidata": "Q2042632",
        "check_date": "2025-07-09",
        "name": "Karnataka Bank",
        "name:kn": "ಕರ್ನಾಟಕ ಬ್ಯಾಂಕ್",
        "operator": "Karnataka Bank"
      }
    },
    {
      "type": "node",
      "id": 5255533513,
      "lat": 13.0102536,
      "lon": 77.6579312,
      "tags": {
        "amenity": "bank",
        "brand": "Axis Bank",
        "brand:wikidata": "Q2003549",
        "name": "Axis Bank",
        "name:kn": "ಅಕ್ಸಿಸ್ ಬ್ಯಾಂಕ್"
      }
    },
    {
      "type": "node",
      "id": 5255533519,
      "lat": 13.0088489,
      "lon": 77.6591724,
      "tags": {
        "amenity": "car_wash",
        "name": "Bosch Car Service"
      }
    },
    {
      "type": "node",
      "id": 5255533520,
      "lat": 13.0084602,
      "lon": 77.6609259,
      "tags": {
        "amenity": "place_of_worship",
        "name": "Kashi Vishalakshi Temple",
        "religion": "hindu"
      }
    },
    {
      "type": "node",
      "id": 5255534222,
      "lat": 13.0056978,
      "lon": 77.6604552,
      "tags": {
        "amenity": "bank",
        "brand": "Indian Bank",
        "brand:wikidata": "Q2003789",
        "name": "Indian Bank",
        "name:kn": "ಇಂಡಿಯನ್ ಬ್ಯಾಂಕ್"
      }
    },
    {
      "type": "node",
      "id": 5255534241,
      "lat": 13.0044271,
      "lon": 77.6601481,
      "tags": {
        "check_date": "2025-07-09",
        "name": "Ramdev Fashions",
        "opening_hours": "Mo-Su,PH 10:00-21:00",
        "shop": "clothes",
        "wheelchair": "no"
      }
    },
    {
      "type": "node",
      "id": 5255534242,
      "lat": 13.0030093,
      "lon": 77.6608924,
      "tags": {
        "name": "Apna Computer and Books Shop",
        "opening_hours": "Mo-Su,PH 08:00-21:00",
        "shop": "books",
        "wheelchair": "no"
      }
    },
    {
      "type": "node",
      "id": 5611375921,
      "lat": 13.0054335,
      "lon": 77.6599299,
      "tags": {
        "addr:city": "Bangalore",
        "addr:postcode": "560043",
        "addr:street": "2nd Main Road",
        "email": "jockey.B63@pageind.com",
        "name": "Jockey",
        "opening_hours": "Mo-Su,PH 11:00-21:00",
        "phone": "+918043026668",
        "shop": "clothes",
        "website": "https://www.jockeyindia.com"
      }
    },
    {
      "type": "node",
      "id": 5833747054,
      "lat": 13.0037485,
      "lon": 77.6603498,
      "tags": {
        "addr:city": "Bangalore",
        "addr:housenumber": "1BM, 219, East of NGEF Layout, Kasturi Nagar",
        "addr:postcode": "560043",
        "addr:street": "3rd Cross Road",
        "amenity": "bank",
        "atm": "yes",
        "brand": "HDFC Bank",
        "brand:wikidata": "Q631047",
        "description": "HDFC ATM",
        "name": "HDFC Bank",
        "name:kn": "ಎಚ್. ಡಿ. ಎಫ್. ಸಿ..",
        "opening_hours": "Mo-Su,PH 01:00-24:00",
        "operator": "HDFC",
        "short_name": "HDFC"
      }
    },
    {
      "type": "node",
      "id": 5833756771,
      "lat": 13.0021237,
      "lon": 77.6615626,
      "tags": {
        "addr:city": "Bangalore",
        "addr:housenumber": "201, 2nd Main Road, East of NGEF Layout, Kasturi Nagar",
        "addr:postcode": "560043",
        "addr:street": "1st C Cross Road",
        "amenity": "ice_cream",
        "brand": "Corner House",
        "check_date": "2025-06-25",
        "cuisine": "ice_cream",
        "delivery": "yes",
        "name": "Corner House",
        "opening_hours": "Mo-Su,PH 11:00-23:00",
        "takeaway": "yes"
      }
    },
    {
      "type": "node",
      "id": 7577248193,
      "lat": 13.0091103,
      "lon": 77.6579493,
      "tags": {
        "addr:district": "Bengaluru Urban",
        "addr:full": "Lal Bahadur Nagar, Kasturi Nagar, Bengaluru",
        "addr:postcode": "560043",
        "addr:state": "Karnataka",
        "amenity": "hospital",
        "name": "Skin Remediez",
        "source": "Local Knowledge"
      }
    },
    {
      "type": "node",
      "id": 7577248195,
      "lat": 13.0089068,
      "lon": 77.656123,
      "tags": {
        "addr:district": "Bengaluru Urban",
        "addr:full": "Channasandra, Kasturi Nagar, Bengaluru",
        "addr:postcode": "560043",
        "addr:state": "Karnataka",
        "amenity": "clinic",
        "name": "Janani Women & Kids Clinic",
        "source": "Local Knowledge"
      }
    },
    {
      "type": "node",
      "id": 7577248255,
      "lat": 13.0102168,
      "lon": 77.6580368,
      "tags": {
        "addr:district": "Bengaluru Urban",
        "addr:full": "Channasandra, Bengaluru",
        "addr:postcode": "560043",
        "addr:state": "Karnataka",
        "amenity": "clinic",
        "name": "Ashwini Clinic",
        "name:kn": "ಅಶ್ವಿನಿ ಚಿಕಿತ್ಸಾಲಯ",
        "source": "Local Knowledge"
      }
    },
    {
      "type": "node",
      "id": 9783706519,
      "lat": 12.9965632,
      "lon": 77.6425776,
      "tags": {
        "amenity": "police",
        "name": "Police Station",
        "name:kn": "ಬೈಯಪ್ಪನಹಳ್ಳಿ ಆರಕ್ಷಕ ಠಾಣೆ"
      }
    },
    {
      "type": "node",
      "id": 10303904020,
      "lat": 13.0074481,
      "lon": 77.6624228,
      "tags": {
        "check_date": "2023-01-04",
        "name": "Maharatna Furniture",
        "shop": "furniture",
        "source": "survey",
        "wheelchair": "no"
      }
    },
    {
      "type": "node",
      "id": 10303904021,
      "lat": 13.0104693,
      "lon": 77.6622,
      "tags": {
        "check_date": "2023-01-04",
        "name": "Andrew Wood Crafts",
        "shop": "furniture",
        "source": "survey"
      }
    },
    {
      "type": "node",
      "id": 10309324765,
      "lat": 12.9997072,
      "lon": 77.6408081,
      "tags": {
        "addr:city": "Bengaluru",
        "addr:postcode": "560033",
        "addr:street": "Baiyappanahalli Rd, Sathya Nagar",
        "amenity": "food_court",
        "name": "SMVT Food Court"
      }
    },
    {
      "type": "node",
      "id": 11250389087,
      "lat": 13.0063718,
      "lon": 77.6513121,
      "tags": {
        "check_date": "2023-10-09",
        "name": "Shiva Laptops",
        "opening_hours": "10:00-20:00",
        "payment:cash": "yes",
        "payment:upi": "yes",
        "phone": "+91 78925 56897",
        "shop": "computer"
      }
    },
    {
      "type": "node",
      "id": 11583714336,
      "lat": 13.0113153,
      "lon": 77.6621399,
      "tags": {
        "amenity": "bench",
        "backrest": "no",
        "material": "concrete"
      }
    },
    {
      "type": "node",
      "id": 11583714341,
      "lat": 13.0113498,
      "lon": 77.6621426,
      "tags": {
        "amenity": "bench",
        "backrest": "no",
        "material": "concrete"
      }
    },
    {
      "type": "node",
      "id": 12638457255,
      "lat": 13.0063802,
      "lon": 77.6504432,
      "tags": {
        "amenity": "fast_food",
        "fast_food": "cafeteria",
        "name": "CMR Collage cafeteria"
      }
    },
    {
      "type": "node",
      "id": 12638457280,
      "lat": 13.0062138,
      "lon": 77.6508142,
      "tags": {
        "amenity": "conference_centre",
        "name": "CMRU Auditorium"
      }
    },
    {
      "type": "node",
      "id": 12638482899,
      "lat": 13.0062045,
      "lon": 77.6506157,
      "tags": {
        "amenity": "conference_centre",
        "name": "AV Hall"
      }
    },
    {
      "type": "node",
      "id": 12883873345,
      "lat": 13.0010582,
      "lon": 77.6618418,
      "tags": {
        "addr:floor": "G",
        "amenity": "fast_food",
        "check_date": "2025-06-03",
        "level": "0",
        "name": "Calcutta Victoria Chat House",
        "name:en": "Calcutta Victoria Chat House"
      }
    },
    {
      "type": "node",
      "id": 12883873346,
      "lat": 13.0010509,
      "lon": 77.6620713,
      "tags": {
        "addr:floor": "G",
        "amenity": "fast_food",
        "check_date": "2025-06-03",
        "level": "0",
        "name": "Pooja Dosa Camp",
        "name:en": "Pooja Dosa Camp"
      }
    },
    {
      "type": "node",
      "id": 12887426834,
      "lat": 13.001333,
      "lon": 77.6619286,
      "tags": {
        "addr:floor": "G",
        "amenity": "pharmacy",
        "check_date": "2025-06-05",
        "healthcare": "pharmacy",
        "level": "0",
        "name": "MedPlus",
        "name:en": "MedPlus"
      }
    },
    {
      "type": "node",
      "id": 12899812395,
      "lat": 13.0021565,
      "lon": 77.6612709,
      "tags": {
        "addr:floor": "G",
        "check_date": "2025-06-09",
        "internet_access": "no",
        "level": "0",
        "name": "Kasturi Mart",
        "name:en": "Kasturi Mart",
        "payment:cash": "yes",
        "payment:credit_cards": "yes",
        "payment:debit_cards": "yes",
        "shop": "supermarket"
      }
    },
    {
      "type": "node",
      "id": 12899812396,
      "lat": 13.0022963,
      "lon": 77.6612279,
      "tags": {
        "addr:floor": "G",
        "check_date": "2025-06-09",
        "level": "0",
        "name": "Kasturi Provision Store",
        "name:en": "Kasturi Provision Store",
        "shop": "convenience"
      }
    },
    {
      "type": "node",
      "id": 12903025368,
      "lat": 12.9994881,
      "lon": 77.6616085,
      "tags": {
        "addr:floor": "G",
        "amenity": "place_of_worship",
        "check_date": "2025-06-10",
        "level": "0",
        "name": "Mahaganapathi Temple",
        "name:en": "Mahaganapathi Temple",
        "religion": "hindu"
      }
    },
    {
      "type": "node",
      "id": 12907525856,
      "lat": 13.0033511,
      "lon": 77.6607132,
      "tags": {
        "addr:floor": "G",
        "amenity": "pharmacy",
        "brand": "Apollo Pharmacy",
        "brand:wikidata": "Q62562612",
        "check_date": "2025-06-11",
        "dispensing": "no",
        "drive_through": "no",
        "healthcare": "pharmacy",
        "level": "0",
        "name": "Apollo Pharmacy",
        "name:en": "Apollo Pharmacy",
        "payment:cash": "yes",
        "payment:credit_cards": "yes",
        "payment:debit_cards": "yes",
        "source": "local knowledge"
      }
    },
    {
      "type": "node",
      "id": 12909823284,
      "lat": 13.0009099,
      "lon": 77.6619081,
      "tags": {
        "addr:floor": "-1",
        "check_date": "2025-07-15",
        "level": "-1",
        "name": "Your Saloon",
        "name:en": "Your Saloon",
        "shop": "beauty"
      }
    },
    {
      "type": "node",
      "id": 12913173465,
      "lat": 13.001637,
      "lon": 77.6618886,
      "tags": {
        "addr:floor": "G",
        "brand": "Nandini",
        "brand:wikidata": "Q124374212",
        "check_date": "2025-06-14",
        "level": "0",
        "name": "Nandini",
        "name:en": "Nandini",
        "shop": "dairy"
      }
    },
    {
      "type": "node",
      "id": 12915242286,
      "lat": 13.0023503,
      "lon": 77.6611974,
      "tags": {
        "addr:floor": "G",
        "amenity": "restaurant",
        "check_date": "2025-06-14",
        "cuisine": "regional;indian",
        "diet:vegetarian": "yes",
        "level": "0",
        "name": "Sri Ganesh",
        "name:en": "Sri Ganesh"
      }
    },
    {
      "type": "node",
      "id": 12916979748,
      "lat": 13.0055402,
      "lon": 77.6595826,
      "tags": {
        "addr:floor": "G",
        "check_date": "2025-06-15",
        "level": "0",
        "name": "D Mart",
        "name:en": "D Mart",
        "shop": "supermarket"
      }
    },
    {
      "type": "node",
      "id": 12917094457,
      "lat": 13.0054941,
      "lon": 77.659597,
      "tags": {
        "addr:floor": "1",
        "amenity": "clinic",
        "check_date": "2025-06-15",
        "healthcare": "clinic",
        "healthcare:speciality": "dentist",
        "level": "1",
        "name": "Dezy",
        "name:en": "Dezy",
        "operator:type": "private"
      }
    },
    {
      "type": "node",
      "id": 12941965940,
      "lat": 12.9999452,
      "lon": 77.6625746,
      "tags": {
        "access": "yes",
        "amenity": "toilets",
        "check_date": "2025-06-21",
        "fee": "no",
        "wheelchair": "yes"
      }
    },
    {
      "type": "node",
      "id": 12947058516,
      "lat": 13.0029313,
      "lon": 77.6613616,
      "tags": {
        "check_date": "2025-06-23",
        "name": "Nandos",
        "name:en": "Nandos",
        "shop": "butcher"
      }
    },
    {
      "type": "node",
      "id": 12950084738,
      "lat": 13.0028734,
      "lon": 77.6612764,
      "tags": {
        "check_date": "2025-09-20",
        "female": "yes",
        "level": "-1",
        "male": "yes",
        "name": "New Life Style Saloon",
        "name:en": "New Life Style Saloon",
        "shop": "hairdresser"
      }
    },
    {
      "type": "node",
      "id": 12952231674,
      "lat": 13.0021166,
      "lon": 77.6611947,
      "tags": {
        "check_date": "2025-06-25",
        "leisure": "fitness_centre",
        "name": "J L Fitness",
        "name:en": "J L Fitness"
      }
    },
    {
      "type": "node",
      "id": 12954222006,
      "lat": 12.9995293,
      "lon": 77.6617739,
      "tags": {
        "addr:floor": "G",
        "check_date": "2025-06-26",
        "female": "yes",
        "level": "0",
        "male": "yes",
        "name": "New Life Style",
        "name:en": "New Life Style",
        "shop": "hairdresser"
      }
    },
    {
      "type": "node",
      "id": 12956968429,
      "lat": 13.0014783,
      "lon": 77.6618646,
      "tags": {
        "addr:floor": "G",
        "check_date": "2025-06-27",
        "level": "0",
        "name": "Specsmakers",
        "name:en": "Specsmakers",
        "payment:cash": "yes",
        "payment:credit_cards": "yes",
        "payment:debit_cards": "yes",
        "shop": "optician"
      }
    },
    {
      "type": "node",
      "id": 12961548923,
      "lat": 13.0021742,
      "lon": 77.6598831,
      "tags": {
        "addr:floor": "G",
        "amenity": "fast_food",
        "check_date": "2025-08-08",
        "cuisine": "juice",
        "drive_through": "no",
        "indoor_seating": "no",
        "level": "0",
        "name": "Lassi Centre",
        "name:en": "Lassi Centre",
        "outdoor_seating": "no",
        "payment:cards": "no",
        "payment:cash": "yes",
        "payment:credit_cards": "no",
        "payment:debit_cards": "no",
        "takeaway": "only"
      }
    },
    {
      "type": "node",
      "id": 12971718845,
      "lat": 13.0010141,
      "lon": 77.6620874,
      "tags": {
        "addr:floor": "G",
        "check_date": "2025-11-27",
        "level": "0",
        "name": "Fresh One Fruits and Vegetables",
        "name:en": "Fresh One Fruits and Vegetables",
        "organic": "yes",
        "payment:cards": "no",
        "payment:cash": "yes",
        "payment:credit_cards": "no",
        "payment:debit_cards": "no",
        "payment:upi": "yes",
        "shop": "greengrocer"
      }
    },
    {
      "type": "node",
      "id": 12988267480,
      "lat": 13.0047453,
      "lon": 77.6599498,
      "tags": {
        "addr:floor": "G",
        "amenity": "restaurant",
        "check_date": "2025-07-09",
        "cuisine": "indian;regional",
        "diet:vegetarian": "yes",
        "level": "0",
        "name": "Sendhoor Coffee"
      }
    },
    {
      "type": "node",
      "id": 12988895224,
      "lat": 13.0111617,
      "lon": 77.6613705,
      "tags": {
        "amenity": "school",
        "check_date": "2025-07-09",
        "name": "New Learning Ladders International School",
        "name:en": "New Learning Ladders International School",
        "operator:type": "private"
      }
    },
    {
      "type": "node",
      "id": 12998564066,
      "lat": 13.0012793,
      "lon": 77.6617499,
      "tags": {
        "addr:floor": "G",
        "brand": "Lenskart",
        "brand:wikidata": "Q17068753",
        "check_date": "2025-07-14",
        "level": "0",
        "name": "Lenskart",
        "name:en": "Lenskart",
        "shop": "optician"
      }
    },
    {
      "type": "node",
      "id": 12998564067,
      "lat": 13.0011546,
      "lon": 77.6618014,
      "tags": {
        "addr:floor": "G",
        "check_date": "2025-07-14",
        "level": "0",
        "name": "Bakery Train",
        "name:en": "Bakery Train",
        "shop": "bakery"
      }
    },
    {
      "type": "node",
      "id": 12998564068,
      "lat": 13.0016248,
      "lon": 77.661574,
      "tags": {
        "addr:floor": "G",
        "check_date": "2025-07-14",
        "level": "0",
        "name": "Kanti Sweets",
        "name:en": "Kanti Sweets",
        "shop": "confectionery"
      }
    },
    {
      "type": "node",
      "id": 13002321117,
      "lat": 13.000966,
      "lon": 77.6616602,
      "tags": {
        "addr:floor": "G",
        "check_date": "2025-07-15",
        "level": "0",
        "shop": "greengrocer"
      }
    },
    {
      "type": "node",
      "id": 13072628554,
      "lat": 13.0058328,
      "lon": 77.6597392,
      "tags": {
        "amenity": "hospital",
        "check_date": "2025-08-15",
        "healthcare": "hospital",
        "name": "NASA Hospitals"
      }
    },
    {
      "type": "node",
      "id": 13072706614,
      "lat": 13.0047791,
      "lon": 77.6568374,
      "tags": {
        "addr:floor": "G",
        "amenity": "bank",
        "atm": "yes",
        "brand": "Canara Bank",
        "brand:en": "Canara Bank",
        "brand:hi": "केनरा बैंक",
        "brand:kn": "ಕೆನರಾ ಬ್ಯಾಂಕ್",
        "brand:pa": "ਕੇਨਰਾ ਬੈਂਕ",
        "brand:pnb": "کینرا بینک",
        "brand:ur": "کینرا بینک",
        "brand:wikidata": "Q2003777",
        "check_date": "2025-08-15",
        "drive_through": "no",
        "level": "0",
        "name": "Canara Bank",
        "name:en": "Canara Bank",
        "name:hi": "केनरा बैंक",
        "name:kn": "ಕೆನರಾ ಬ್ಯಾಂಕ್",
        "name:pa": "ਕੇਨਰਾ ਬੈਂਕ",
        "name:pnb": "کینرا بینک",
        "name:ur": "کینرا بینک"
      }
    },
    {
      "type": "node",
      "id": 13089232587,
      "lat": 13.0049835,
      "lon": 77.6601436,
      "tags": {
        "addr:floor": "G",
        "check_date": "2025-08-22",
        "level": "0",
        "name": "Licious Store",
        "name:en": "Licious Store",
        "payment:cash": "yes",
        "payment:credit_cards": "yes",
        "payment:debit_cards": "yes",
        "shop": "butcher"
      }
    },
    {
      "type": "node",
      "id": 13089232588,
      "lat": 13.004728,
      "lon": 77.660252,
      "tags": {
        "addr:floor": "G",
        "amenity": "bank",
        "check_date": "2025-08-22",
        "level": "0",
        "name": "Utkarsh Small Finance Bank"
      }
    },
    {
      "type": "node",
      "id": 13089232589,
      "lat": 13.0043462,
      "lon": 77.6604392,
      "tags": {
        "addr:floor": "G",
        "amenity": "pharmacy",
        "check_date": "2025-08-22",
        "healthcare": "pharmacy",
        "level": "0",
        "name": "Puran Medical And Central Store",
        "name:en": "Puran Medical And Central Store"
      }
    },
    {
      "type": "node",
      "id": 13094603990,
      "lat": 13.0017907,
      "lon": 77.6614691,
      "tags": {
        "addr:floor": "G",
        "amenity": "atm",
        "brand": "Canara Bank",
        "brand:en": "Canara Bank",
        "brand:hi": "केनरा बैंक",
        "brand:kn": "ಕೆನರಾ ಬ್ಯಾಂಕ್",
        "brand:pa": "ਕੇਨਰਾ ਬੈਂਕ",
        "brand:pnb": "کینرا بینک",
        "brand:ur": "کینرا بینک",
        "brand:wikidata": "Q2003777",
        "cash_in": "no",
        "check_date": "2025-08-24",
        "drive_through": "no",
        "level": "0",
        "operator": "Canara Bank",
        "operator:wikidata": "Q2003777"
      }
    },
    {
      "type": "node",
      "id": 13100714478,
      "lat": 13.0055959,
      "lon": 77.6598682,
      "tags": {
        "addr:floor": "G",
        "amenity": "restaurant",
        "check_date": "2025-08-27",
        "diet:halal": "yes",
        "level": "0",
        "name": "Punjabi Adda",
        "name:en": "Punjabi Adda",
        "wheelchair": "no"
      }
    },
    {
      "type": "node",
      "id": 13100714479,
      "lat": 13.0056949,
      "lon": 77.6598137,
      "tags": {
        "addr:floor": "1",
        "amenity": "restaurant",
        "check_date": "2025-08-27",
        "level": "1",
        "name": "Rumi",
        "name:en": "Rumi"
      }
    },
    {
      "type": "node",
      "id": 13100714480,
      "lat": 13.0052929,
      "lon": 77.6597115,
      "tags": {
        "addr:floor": "G",
        "amenity": "bank",
        "brand": "Yes Bank",
        "brand:wikidata": "Q2040394",
        "check_date": "2025-08-27",
        "level": "0",
        "name": "Yes Bank",
        "name:en": "Yes Bank"
      }
    },
    {
      "type": "node",
      "id": 13100714481,
      "lat": 13.0057911,
      "lon": 77.6595163,
      "tags": {
        "addr:floor": "G",
        "amenity": "pharmacy",
        "check_date": "2025-08-27",
        "healthcare": "pharmacy",
        "level": "0",
        "name": "Krishna Pharma",
        "name:en": "Krishna Pharma"
      }
    },
    {
      "type": "node",
      "id": 13158293113,
      "lat": 13.0021682,
      "lon": 77.6612885,
      "tags": {
        "addr:floor": "1",
        "check_date": "2025-09-20",
        "level": "1",
        "name": "New Life Style Saloon",
        "name:en": "New Life Style Saloon",
        "shop": "beauty"
      }
    },
    {
      "type": "node",
      "id": 13231741530,
      "lat": 13.0014835,
      "lon": 77.6616171,
      "tags": {
        "addr:floor": "G",
        "amenity": "restaurant",
        "check_date": "2025-10-14",
        "level": "0",
        "name": "Tea Party",
        "name:en": "Tea Party"
      }
    },
    {
      "type": "node",
      "id": 13324558094,
      "lat": 13.0024232,
      "lon": 77.6613912,
      "tags": {
        "addr:floor": "G",
        "amenity": "restaurant",
        "check_date": "2025-11-22",
        "cuisine": "regional",
        "diet:vegetarian": "yes",
        "level": "0",
        "name": "Sri Udupi Vaibhava",
        "name:en": "Sri Udupi Vaibhava"
      }
    },
    {
      "type": "node",
      "id": 13344632701,
      "lat": 13.0021062,
      "lon": 77.6615763,
      "tags": {
        "addr:floor": "1",
        "amenity": "restaurant",
        "check_date": "2025-12-01",
        "cuisine": "chinese",
        "level": "1",
        "name": "The Red Lantern",
        "name:en": "The Red Lantern"
      }
    },
    {
      "type": "way",
      "id": 232875109,
      "center": {
        "lat": 13.008287,
        "lon": 77.6581534
      },
      "tags": {
        "leisure": "park",
        "name": "Green View Welfare Park"
      }
    },
    {
      "type": "way",
      "id": 232881073,
      "center": {
        "lat": 13.0005436,
        "lon": 77.6625118
      },
      "tags": {
        "addr:city": "Bengaluru",
        "addr:housenumber": "1st A Cross, East of NGEF Layout, Kasturi Nagar",
        "addr:postcode": "560043",
        "addr:street": "1st A Cross Road",
        "description": "Bruhat Bangalore Mahanagara Palike Park",
        "leisure": "park",
        "name": "BBMP Park",
        "name:kn": "ಬೃ. ಬೆ. ಮ. ಪಾ. ಉದ್ಯಾನವನ",
        "operator": "ಬೃಹತ್ ಬೆಂಗಳೂರು ಮಹಾನಗರ ಪಾಲಿಕೆ",
        "operator:en": "Bruhat Bengaluru Mahanagara Palike",
        "operator:ka": "ಬೃಹತ್ ಬೆಂಗಳೂರು ಮಹಾನಗರ ಪಾಲಿಕೆ",
        "operator:short": "BBMP",
        "operator:type": "government",
        "operator:wikidata": "Q4978693"
      }
    },
    {
      "type": "way",
      "id": 239547642,
      "center": {
        "lat": 13.0061592,
        "lon": 77.6507354
      },
      "tags": {
        "addr:housenumber": "CA 2",
        "addr:postcode": "560043",
        "addr:street": "3rd Cross, 6th 'A' Ma, 4th Main Road, East of NGEF Layout, Bennigana Halli",
        "amenity": "college",
        "name": "CMR College",
        "operator": "CMR University"
      }
    },
    {
      "type": "way",
      "id": 239548076,
      "center": {
        "lat": 13.0074593,
        "lon": 77.6552191
      },
      "tags": {
        "addr:street": "Channasandra Main Road, Gurijiya Gutta, Bennigana Halli",
        "amenity": "school",
        "name": "Sri Chaithanya PU college Banasawadi"
      }
    },
    {
      "type": "way",
      "id": 255741541,
      "center": {
        "lat": 13.0044708,
        "lon": 77.6612846
      },
      "tags": {
        "leisure": "park"
      }
    },
    {
      "type": "way",
      "id": 255741542,
      "center": {
        "lat": 13.003506,
        "lon": 77.6594679
      },
      "tags": {
        "leisure": "park"
      }
    },
    {
      "type": "way",
      "id": 362932940,
      "center": {
        "lat": 13.0034456,
        "lon": 77.6618892
      },
      "tags": {
        "addr:city": "Bangalore",
        "addr:housenumber": "2nd A Cross Rd, East of NGEF Layout, Kasturi Nagar",
        "addr:postcode": "560043",
        "addr:street": "2nd A Cross Road",
        "description": "Shivaram Karanth Park, Kasturi Nagar",
        "leisure": "park",
        "name": "Shivaram Karanth Park"
      }
    },
    {
      "type": "way",
      "id": 363101934,
      "center": {
        "lat": 12.9990397,
        "lon": 77.6630597
      },
      "tags": {
        "leisure": "park"
      }
    },
    {
      "type": "way",
      "id": 366981473,
      "center": {
        "lat": 13.0054864,
        "lon": 77.6608858
      },
      "tags": {
        "addr:city": "Kasturi Nagar, Bangalore",
        "addr:postcode": "560043",
        "addr:street": "3rd A Cross, 2nd A Main",
        "amenity": "college",
        "name": "New Horizon PU College",
        "name:en": "New Horizon College"
      }
    },
    {
      "type": "way",
      "id": 525512526,
      "center": {
        "lat": 13.0052442,
        "lon": 77.6611503
      },
      "tags": {
        "amenity": "school",
        "name": "Presidency School"
      }
    },
    {
      "type": "way",
      "id": 525513750,
      "center": {
        "lat": 13.0054129,
        "lon": 77.6596136
      },
      "tags": {
        "amenity": "restaurant",
        "building": "yes",
        "cuisine": "chinese",
        "name": "Chung Wah",
        "name:kn": "ಚುಂಗ್ ವಾ"
      }
    },
    {
      "type": "way",
      "id": 676038910,
      "center": {
        "lat": 13.0066341,
        "lon": 77.6602453
      },
      "tags": {
        "leisure": "park"
      }
    },
    {
      "type": "way",
      "id": 994835161,
      "center": {
        "lat": 12.9991703,
        "lon": 77.6503039
      },
      "tags": {
        "leisure": "pitch",
        "sport": "basketball"
      }
    },
    {
      "type": "way",
      "id": 1065306086,
      "center": {
        "lat": 13.0019707,
        "lon": 77.6392044
      },
      "tags": {
        "leisure": "garden"
      }
    },
    {
      "type": "way",
      "id": 1065306087,
      "center": {
        "lat": 12.99778,
        "lon": 77.6416469
      },
      "tags": {
        "leisure": "garden"
      }
    },
    {
      "type": "way",
      "id": 1065306088,
      "center": {
        "lat": 12.9985752,
        "lon": 77.6413003
      },
      "tags": {
        "access": "customers",
        "amenity": "parking",
        "parking": "surface"
      }
    },
    {
      "type": "way",
      "id": 1065306093,
      "center": {
        "lat": 13.0010579,
        "lon": 77.6398329
      },
      "tags": {
        "access": "customers",
        "amenity": "parking",
        "fee": "yes",
        "parking": "surface"
      }
    },
    {
      "type": "way",
      "id": 1087934553,
      "center": {
        "lat": 12.9980114,
        "lon": 77.6416259
      },
      "tags": {
        "amenity": "motorcycle_parking"
      }
    },
    {
      "type": "way",
      "id": 1157172405,
      "center": {
        "lat": 13.0102547,
        "lon": 77.6621923
      },
      "tags": {
        "amenity": "fuel",
        "brand": "Hindustan Petroleum",
        "brand:wikidata": "Q1619375",
        "check_date": "2022-12-09",
        "compressed_air": "yes",
        "fuel:diesel": "yes",
        "fuel:petrol": "yes",
        "name": "HP",
        "name:kn": "ಹಿಂದುಸ್ತಾನ್ ಪೆಟ್ರೋಲಿಯಂ",
        "official_name": "Hindustan Petroleum",
        "self_service": "no",
        "source": "survey"
      }
    },
    {
      "type": "way",
      "id": 1278777823,
      "center": {
        "lat": 13.0000461,
        "lon": 77.6403996
      },
      "tags": {
        "access": "customers",
        "amenity": "parking",
        "fee": "yes",
        "parking": "surface"
      }
    },
    {
      "type": "way",
      "id": 1364736446,
      "center": {
        "lat": 13.0063417,
        "lon": 77.6506168
      },
      "tags": {
        "leisure": "playground",
        "name": "CMRU Playground & Basket ball court"
      }
    },
    {
      "type": "way",
      "id": 1366533317,
      "center": {
        "lat": 13.0046832,
        "lon": 77.6537517
      },
      "tags": {
        "addr:floor": "G",
        "amenity": "fuel",
        "brand": "Nayara",
        "brand:wikidata": "Q5399377",
        "check_date": "2025-06-20",
        "level": "0",
        "name": "Nayara",
        "payment:cash": "yes",
        "payment:credit_cards": "yes",
        "payment:debit_cards": "yes"
      }
    },
    {
      "type": "way",
      "id": 1371021625,
      "center": {
        "lat": 13.0038847,
        "lon": 77.6573616
      },
      "tags": {
        "amenity": "fuel",
        "brand": "Bharat Petroleum",
        "brand:wikidata": "Q854826",
        "compressed_air": "yes",
        "name": "Bharat Petroleum Petrol Pump",
        "name:kn": "ಭಾರತ್ ಪೆಟ್ರೋಲಿಯಂ"
      }
    },
    {
      "type": "way",
      "id": 1371961870,
      "center": {
        "lat": 13.0087532,
        "lon": 77.6617862
      },
      "tags": {
        "amenity": "school"
      }
    },
    {
      "type": "way",
      "id": 1372019687,
      "center": {
        "lat": 13.0019535,
        "lon": 77.6608045
      },
      "tags": {
        "leisure": "park"
      }
    },
    {
      "type": "way",
      "id": 1372019688,
      "center": {
        "lat": 13.0011175,
        "lon": 77.6614775
      },
      "tags": {
        "leisure": "park"
      }
    },
    {
      "type": "way",
      "id": 1372097519,
      "center": {
        "lat": 13.0085608,
        "lon": 77.6619723
      },
      "tags": {
        "access": "private",
        "leisure": "pitch",
        "sport": "basketball"
      }
    }
  ]
}