{
  "area_name": "Kaveri Nagar",
  "osm_id": 11119054567,
  "osm_type": "node",
  "place_type": "neighbourhood",
  "amenity_count": 146,
  "amenities": [
    {
      "type": "node",
      "id": 1160646223,
      "lat": 13.0376828,
      "lon": 77.6128514,
      "tags": {
        "landuse": "industrial",
        "name": "Mahiti Infotech",
        "name:kn": "ಮಾಹಿತಿ ಇನ್ಫೊಟೆಕ್",
        "shop": "computer"
      }
    },
    {
      "type": "node",
      "id": 1370760927,
      "lat": 13.0395856,
      "lon": 77.6074967,
      "tags": {
        "amenity": "post_office",
        "name": "Kanakanagar Post Office"
      }
    },
    {
      "type": "node",
      "id": 1370764173,
      "lat": 13.0390602,
      "lon": 77.6092188,
      "tags": {
        "leisure": "yoga",
        "name": "SMART Foundation Yoga Centre"
      }
    },
    {
      "type": "node",
      "id": 1370777376,
      "lat": 13.0317411,
      "lon": 77.611461,
      "tags": {
        "amenity": "atm",
        "fee": "SBM ATM"
      }
    },
    {
      "type": "node",
      "id": 1370777378,
      "lat": 13.0328921,
      "lon": 77.6065664,
      "tags": {
        "amenity": "place_of_worship",
        "name": "Ganesh Temple",
        "name:kn": "ಗಣೇಶ ದೇವಸ್ಥಾನ",
        "religion": "hindu"
      }
    },
    {
      "type": "node",
      "id": 1370777379,
      "lat": 13.0303875,
      "lon": 77.6079607,
      "tags": {
        "brand": "Reliance Fresh",
        "brand:wikidata": "Q7311014",
        "name": "Reliance Fresh",
        "name:kn": "ರಿಲಾಯನ್ಸ್ ಫ್ರೆಶ್",
        "shop": "supermarket"
      }
    },
    {
      "type": "node",
      "id": 1370777380,
      "lat": 13.0318378,
      "lon": 77.6124561,
      "tags": {
        "amenity": "bench",
        "designation": "BDA Park"
      }
    },
    {
      "type": "node",
      "id": 1370783346,
      "lat": 13.0383104,
      "lon": 77.6072338,
      "tags": {
        "amenity": "pharmacy",
        "brand": "MedPlus",
        "brand:wikidata": "Q65684234",
        "healthcare": "pharmacy",
        "name": "Medplus",
        "name:kn": "ಮೆಡ್‍ಪ್ಲಸ್"
      }
    },
    {
      "type": "node",
      "id": 1370783363,
      "lat": 13.0365701,
      "lon": 77.6064886,
      "tags": {
        "amenity": "school",
        "wheelchair": "yes"
      }
    },
    {
      "type": "node",
      "id": 1422402902,
      "lat": 13.0252349,
      "lon": 77.6054904,
      "tags": {
        "brand": "More",
        "brand:wikidata": "Q6910891",
        "name": "More",
        "name:kn": "ಮೋರ್",
        "shop": "supermarket"
      }
    },
    {
      "type": "node",
      "id": 1474875685,
      "lat": 13.0248621,
      "lon": 77.6139585,
      "tags": {
        "amenity": "hospital",
        "emergency": "yes",
        "name": "Dr. Ambedkar Medical College Hospital",
        "name:kn": "ಅಂಬೇಡ್ಕರ್ ವೈದ್ಯಕೀಯ ಕಾಲೇಜು ಆಸ್ಪತ್ರೆ"
      }
    },
    {
      "type": "node",
      "id": 1722602478,
      "lat": 13.026256,
      "lon": 77.6062003,
      "tags": {
        "alt_name": "New Punjabi",
        "amenity": "restaurant",
        "diet:vegetarian": "only",
        "name": "Punjabi Dhaba",
        "name:kn": "ಪಂಜಾಬಿ ಧಾಬ"
      }
    },
    {
      "type": "node",
      "id": 2125939229,
      "lat": 13.032436,
      "lon": 77.6088298,
      "tags": {
        "amenity": "atm",
        "fee": "no",
        "operator": "Canara Bank"
      }
    },
    {
      "type": "node",
      "id": 2125939655,
      "lat": 13.0324467,
      "lon": 77.6087814,
      "tags": {
        "amenity": "atm",
        "fee": "no",
        "operator": "Axis Bank"
      }
    },
    {
      "type": "node",
      "id": 2125939660,
      "lat": 13.0318249,
      "lon": 77.6084004,
      "tags": {
        "amenity": "atm",
        "fee": "no",
        "operator": "ICICI Bank"
      }
    },
    {
      "type": "node",
      "id": 2125941628,
      "lat": 13.0304891,
      "lon": 77.6081971,
      "tags": {
        "addr:housename": "SMS Complex",
        "addr:housenumber": "G3",
        "addr:postcode": "560032",
        "addr:street": "KHB Main Road",
        "amenity": "restaurant",
        "cuisine": "regional",
        "name": "Peacock Restaurant"
      }
    },
    {
      "type": "node",
      "id": 2129248997,
      "lat": 13.0304655,
      "lon": 77.6088898,
      "tags": {
        "amenity": "place_of_worship",
        "name": "Varasiddi Vinayaka Temple",
        "name:kn": "ವರಸಿದ್ಧಿ ವಿನಾಯಕ ದೇವಸ್ಥಾನ",
        "religion": "hindu",
        "wheelchair": "limited"
      }
    },
    {
      "type": "node",
      "id": 4386500102,
      "lat": 13.0257661,
      "lon": 77.6037904,
      "tags": {
        "name": "Dream Wear",
        "shop": "clothes"
      }
    },
    {
      "type": "node",
      "id": 4386500103,
      "lat": 13.0258196,
      "lon": 77.6038066,
      "tags": {
        "name": "Patel Novelty Stores",
        "shop": "gift"
      }
    },
    {
      "type": "node",
      "id": 4386500104,
      "lat": 13.0258377,
      "lon": 77.6038083,
      "tags": {
        "name": "Galmor And Shine Beauty Parlour",
        "shop": "cosmetics"
      }
    },
    {
      "type": "node",
      "id": 4386500105,
      "lat": 13.025883,
      "lon": 77.6038199,
      "tags": {
        "name": "Manoj Textiles",
        "shop": "clothes"
      }
    },
    {
      "type": "node",
      "id": 4386500106,
      "lat": 13.026204,
      "lon": 77.6039342,
      "tags": {
        "name": "Dreams Mobile World",
        "shop": "mobile_phone"
      }
    },
    {
      "type": "node",
      "id": 4386500107,
      "lat": 13.0262474,
      "lon": 77.6039456,
      "tags": {
        "name": "Shivam Condiments",
        "shop": "bakery"
      }
    },
    {
      "type": "node",
      "id": 4386500108,
      "lat": 13.0262805,
      "lon": 77.6039576,
      "tags": {
        "name": "Mango Bake and Shake",
        "shop": "bakery"
      }
    },
    {
      "type": "node",
      "id": 4386500110,
      "lat": 13.0265617,
      "lon": 77.6040589,
      "tags": {
        "name": "Smita Info Solutions",
        "shop": "copyshop"
      }
    },
    {
      "type": "node",
      "id": 4386500111,
      "lat": 13.0266169,
      "lon": 77.6040449,
      "tags": {
        "name": "GM Time Center Watch Repair",
        "shop": "convenience"
      }
    },
    {
      "type": "node",
      "id": 4386500112,
      "lat": 13.0268489,
      "lon": 77.6041398,
      "tags": {
        "name": "Fond",
        "shop": "mobile_phone"
      }
    },
    {
      "type": "node",
      "id": 4386500113,
      "lat": 13.0268721,
      "lon": 77.6041478,
      "tags": {
        "name": "KSRTC Travel House",
        "shop": "travel_agency"
      }
    },
    {
      "type": "node",
      "id": 4386500114,
      "lat": 13.026938,
      "lon": 77.6041637,
      "tags": {
        "amenity": "school",
        "name": "Marian Kids"
      }
    },
    {
      "type": "node",
      "id": 4386500115,
      "lat": 13.0270552,
      "lon": 77.6041687,
      "tags": {
        "name": "Deluxe Bedding and Sofa center",
        "shop": "convenience"
      }
    },
    {
      "type": "node",
      "id": 4386500116,
      "lat": 13.0271281,
      "lon": 77.6042299,
      "tags": {
        "amenity": "pharmacy",
        "name": "Sakshi Medical And General Stores"
      }
    },
    {
      "type": "node",
      "id": 4386500117,
      "lat": 13.0273712,
      "lon": 77.6043059,
      "tags": {
        "amenity": "clinic",
        "name": "Hemant Clinic"
      }
    },
    {
      "type": "node",
      "id": 4386500118,
      "lat": 13.0274345,
      "lon": 77.6042708,
      "tags": {
        "name": "Shukrutha Chicken Center",
        "shop": "butcher"
      }
    },
    {
      "type": "node",
      "id": 4386500119,
      "lat": 13.0276254,
      "lon": 77.6043712,
      "tags": {
        "amenity": "school",
        "name": "Mona Nursery, Primary and High School"
      }
    },
    {
      "type": "node",
      "id": 4386500120,
      "lat": 13.0276582,
      "lon": 77.604326,
      "tags": {
        "name": "Prem Fancy Store",
        "shop": "convenience"
      }
    },
    {
      "type": "node",
      "id": 4386500121,
      "lat": 13.0276805,
      "lon": 77.6043445,
      "tags": {
        "name": "Sri Vinayaka Hot Chips",
        "shop": "convenience"
      }
    },
    {
      "type": "node",
      "id": 4386500122,
      "lat": 13.0278433,
      "lon": 77.6043961,
      "tags": {
        "name": "Raghavendra Jewellery Woris",
        "shop": "jewelry"
      }
    },
    {
      "type": "node",
      "id": 4386500196,
      "lat": 13.0263546,
      "lon": 77.6039914,
      "tags": {
        "name": "Nizam Collections",
        "shop": "clothes"
      }
    },
    {
      "type": "node",
      "id": 4386500197,
      "lat": 13.0267182,
      "lon": 77.6040529,
      "tags": {
        "name": "Ganga Bookstore",
        "shop": "books"
      }
    },
    {
      "type": "node",
      "id": 4386500198,
      "lat": 13.0267584,
      "lon": 77.6040579,
      "tags": {
        "name": "Time House",
        "shop": "convenience"
      }
    },
    {
      "type": "node",
      "id": 4386500199,
      "lat": 13.026904,
      "lon": 77.6041555,
      "tags": {
        "name": "Veena Collections",
        "shop": "clothes"
      }
    },
    {
      "type": "node",
      "id": 4386500200,
      "lat": 13.0271819,
      "lon": 77.6042504,
      "tags": {
        "name": "Keishna Electricals",
        "shop": "electronics"
      }
    },
    {
      "type": "node",
      "id": 4386506499,
      "lat": 13.0257924,
      "lon": 77.6037965,
      "tags": {
        "name": "Anjana Stationery",
        "shop": "books"
      }
    },
    {
      "type": "node",
      "id": 4386506500,
      "lat": 13.0261242,
      "lon": 77.6039117,
      "tags": {
        "amenity": "recycling",
        "name": "Omshakti Paper Mart"
      }
    },
    {
      "type": "node",
      "id": 4386506501,
      "lat": 13.0265159,
      "lon": 77.6040547,
      "tags": {
        "name": "SR Consultant Real Estate",
        "shop": "department_store"
      }
    },
    {
      "type": "node",
      "id": 4386506502,
      "lat": 13.0266962,
      "lon": 77.6040529,
      "tags": {
        "name": "Yakshini Condiments",
        "shop": "convenience"
      }
    },
    {
      "type": "node",
      "id": 4386506503,
      "lat": 13.0267483,
      "lon": 77.6041132,
      "tags": {
        "amenity": "atm",
        "operator": "Karur Vaisya Bank"
      }
    },
    {
      "type": "node",
      "id": 4386506504,
      "lat": 13.0268576,
      "lon": 77.6041118,
      "tags": {
        "amenity": "pharmacy",
        "name": "Kushal Medical Devices"
      }
    },
    {
      "type": "node",
      "id": 4386506505,
      "lat": 13.0270352,
      "lon": 77.6041657,
      "tags": {
        "name": "Shine Telecom",
        "shop": "mobile_phone"
      }
    },
    {
      "type": "node",
      "id": 4386506506,
      "lat": 13.0275314,
      "lon": 77.6042985,
      "tags": {
        "name": "MHN Jewellers",
        "shop": "jewelry"
      }
    },
    {
      "type": "node",
      "id": 4386506507,
      "lat": 13.0275936,
      "lon": 77.6043528,
      "tags": {
        "amenity": "fast_food",
        "name": "Goli Vadapav No.1"
      }
    },
    {
      "type": "node",
      "id": 4386506508,
      "lat": 13.0276513,
      "lon": 77.6043712,
      "tags": {
        "name": "Shree Sai Appliances",
        "shop": "electronics"
      }
    },
    {
      "type": "node",
      "id": 4386506509,
      "lat": 13.0276765,
      "lon": 77.6043712,
      "tags": {
        "amenity": "restaurant",
        "name": "Chitra Darshini",
        "name:kn": "ಚಿತ್ರ ದರ್ಶಿನಿ"
      }
    },
    {
      "type": "node",
      "id": 4386506510,
      "lat": 13.0276316,
      "lon": 77.604326,
      "tags": {
        "name": "Shree Basaveswara Frame Works",
        "shop": "convenience"
      }
    },
    {
      "type": "node",
      "id": 4386506511,
      "lat": 13.027842,
      "lon": 77.6044191,
      "tags": {
        "name": "PN Tools Hardware",
        "shop": "hardware"
      }
    },
    {
      "type": "node",
      "id": 4386506512,
      "lat": 13.027778,
      "lon": 77.6043901,
      "tags": {
        "craft": "tailor",
        "name": "Sangam Ladies Tailor",
        "shop": "mobile_phone"
      }
    },
    {
      "type": "node",
      "id": 4386506598,
      "lat": 13.0265752,
      "lon": 77.6040303,
      "tags": {
        "name": "Zooland Aquatic",
        "shop": "pet"
      }
    },
    {
      "type": "node",
      "id": 4386506599,
      "lat": 13.0266474,
      "lon": 77.6040449,
      "tags": {
        "name": "Golden Choice Footwear",
        "shop": "shoes"
      }
    },
    {
      "type": "node",
      "id": 4386506600,
      "lat": 13.0266933,
      "lon": 77.6041031,
      "tags": {
        "name": "Seek n Hide Tours and Travels",
        "shop": "convenience"
      }
    },
    {
      "type": "node",
      "id": 4386506601,
      "lat": 13.0269861,
      "lon": 77.6041889,
      "tags": {
        "amenity": "atm",
        "operator": "ICICI Bank"
      }
    },
    {
      "type": "node",
      "id": 4386506602,
      "lat": 13.0275985,
      "lon": 77.6043248,
      "tags": {
        "name": "Khushi Beauty Parlour",
        "shop": "cosmetics"
      }
    },
    {
      "type": "node",
      "id": 4386506603,
      "lat": 13.0277189,
      "lon": 77.6044033,
      "tags": {
        "name": "Chaitra Pan",
        "shop": "convenience"
      }
    },
    {
      "type": "node",
      "id": 4386506604,
      "lat": 13.0277645,
      "lon": 77.604407,
      "tags": {
        "name": "KGN FootWear",
        "shop": "shoes"
      }
    },
    {
      "type": "node",
      "id": 4386506605,
      "lat": 13.0277965,
      "lon": 77.604407,
      "tags": {
        "name": "A1 Mobile Service Center",
        "shop": "mobile_phone"
      }
    },
    {
      "type": "node",
      "id": 4386506606,
      "lat": 13.0278097,
      "lon": 77.6043901,
      "tags": {
        "amenity": "atm",
        "operator": "Axis Bank"
      }
    },
    {
      "type": "node",
      "id": 4386506694,
      "lat": 13.0264161,
      "lon": 77.6040116,
      "tags": {
        "amenity": "fast_food",
        "name": "HMS Fast Food"
      }
    },
    {
      "type": "node",
      "id": 4386506695,
      "lat": 13.0266014,
      "lon": 77.6040359,
      "tags": {
        "name": "Om Ganesh Juice Center",
        "shop": "convenience"
      }
    },
    {
      "type": "node",
      "id": 4386506696,
      "lat": 13.0274651,
      "lon": 77.6042813,
      "tags": {
        "name": "Durga Pan Bhandar",
        "shop": "convenience"
      }
    },
    {
      "type": "node",
      "id": 4386506697,
      "lat": 13.0275697,
      "lon": 77.6043333,
      "tags": {
        "name": "Mummy Daddy Garments",
        "shop": "clothes"
      }
    },
    {
      "type": "node",
      "id": 4386506790,
      "lat": 13.0267774,
      "lon": 77.6040589,
      "tags": {
        "name": "Maharaja Hi Fashion",
        "shop": "clothes"
      }
    },
    {
      "type": "node",
      "id": 4386506791,
      "lat": 13.0269118,
      "lon": 77.6041118,
      "tags": {
        "name": "Bangalore Time Center",
        "shop": "convenience"
      }
    },
    {
      "type": "node",
      "id": 4386506792,
      "lat": 13.0275104,
      "lon": 77.6043235,
      "tags": {
        "amenity": "clinic",
        "name": "Anagha Polyclinic"
      }
    },
    {
      "type": "node",
      "id": 4386506793,
      "lat": 13.0275425,
      "lon": 77.6043333,
      "tags": {
        "amenity": "pharmacy",
        "name": "Anagha Pharma"
      }
    },
    {
      "type": "node",
      "id": 4386506794,
      "lat": 13.027668,
      "lon": 77.6043446,
      "tags": {
        "name": "Sleep Good Matress",
        "shop": "convenience"
      }
    },
    {
      "type": "node",
      "id": 4386506899,
      "lat": 13.0269196,
      "lon": 77.6041622,
      "tags": {
        "name": "China Bazzar",
        "shop": "gift"
      }
    },
    {
      "type": "node",
      "id": 4386506900,
      "lat": 13.0272795,
      "lon": 77.6042868,
      "tags": {
        "amenity": "clinic",
        "name": "Gandhi Dental Clinic"
      }
    },
    {
      "type": "node",
      "id": 4386506901,
      "lat": 13.0273351,
      "lon": 77.6042946,
      "tags": {
        "name": "Pavithra Enterprises",
        "shop": "convenience"
      }
    },
    {
      "type": "node",
      "id": 4386506902,
      "lat": 13.0275755,
      "lon": 77.6043124,
      "tags": {
        "amenity": "cafe",
        "name": "Cool Corner"
      }
    },
    {
      "type": "node",
      "id": 4386506992,
      "lat": 13.0268892,
      "lon": 77.6041118,
      "tags": {
        "amenity": "fast_food",
        "name": "Five Star Chicken"
      }
    },
    {
      "type": "node",
      "id": 4386507095,
      "lat": 13.0267226,
      "lon": 77.6041132,
      "tags": {
        "amenity": "hospital",
        "name": "Vignesh Lab and Diagnostics"
      }
    },
    {
      "type": "node",
      "id": 4386507096,
      "lat": 13.0270235,
      "lon": 77.6041889,
      "tags": {
        "amenity": "pharmacy",
        "name": "Medplus",
        "name:kn": "ಮೆಡ್‍ಪ್ಲಸ್"
      }
    },
    {
      "type": "node",
      "id": 4386507097,
      "lat": 13.0269891,
      "lon": 77.6041517,
      "tags": {
        "name": "All Brands Collections",
        "shop": "shoes"
      }
    },
    {
      "type": "node",
      "id": 4386507098,
      "lat": 13.0274094,
      "lon": 77.6042695,
      "tags": {
        "name": "Mobile Hut",
        "shop": "mobile_phone"
      }
    },
    {
      "type": "node",
      "id": 4386507099,
      "lat": 13.0278285,
      "lon": 77.6044191,
      "tags": {
        "name": "DK Kova",
        "shop": "confectionery"
      }
    },
    {
      "type": "node",
      "id": 4386507391,
      "lat": 13.0274943,
      "lon": 77.6042931,
      "tags": {
        "name": "New Lovely Trends",
        "shop": "gift"
      }
    },
    {
      "type": "node",
      "id": 4386507689,
      "lat": 13.0271564,
      "lon": 77.6042369,
      "tags": {
        "name": "Jagathamba Bankers and Jewellers",
        "shop": "jewelry"
      }
    },
    {
      "type": "node",
      "id": 4445614215,
      "lat": 13.0373064,
      "lon": 77.6052013,
      "tags": {
        "addr:city": "Bangalore",
        "addr:housenumber": "20",
        "addr:postcode": "560032",
        "addr:street": "1st Main Rd, Kanaka Nagar, Hebbal,",
        "amenity": "restaurant",
        "cuisine": "regional",
        "delivery": "yes",
        "name": "Al Khair Restaurant",
        "opening_hours": "11:00-23:00",
        "phone": "080 2365 1666",
        "smoking": "no",
        "takeaway": "yes",
        "website": "https://www.alkhair.in/"
      }
    },
    {
      "type": "node",
      "id": 4445687662,
      "lat": 13.0314172,
      "lon": 77.6043283,
      "tags": {
        "addr:city": "Bangalore",
        "addr:housenumber": "#56/2",
        "addr:postcode": "560032",
        "addr:street": "Sulthanpalya Main Road, 1st Floor,R.T.Nagar Post",
        "amenity": "pharmacy",
        "name": "Shiva Homoeo Medicals",
        "phone": "+9199165 21079"
      }
    },
    {
      "type": "node",
      "id": 4445802548,
      "lat": 13.0292674,
      "lon": 77.6045683,
      "tags": {
        "addr:city": "Bangalore",
        "addr:housenumber": "#53",
        "addr:postcode": "560032",
        "addr:street": "Sulthanpalya Main Road, 12th Cross,Manorayana Palya,",
        "amenity": "clinic",
        "name": "Synergy Health Care",
        "phone": "080500 80120",
        "source": "http://www.bangalorehospital.co.in/"
      }
    },
    {
      "type": "node",
      "id": 4445886952,
      "lat": 13.0316481,
      "lon": 77.6023154,
      "tags": {
        "addr:city": "Bangalore",
        "addr:postcode": "560032",
        "addr:street": "Sultanpalya Main Road, Near-Bus Stand, R T Nagar",
        "amenity": "hospital",
        "name": "Sanjeevini Children & Women Clinic",
        "phone": "080 2292 4422"
      }
    },
    {
      "type": "node",
      "id": 4488400190,
      "lat": 13.0400633,
      "lon": 77.6061723,
      "tags": {
        "addr:city": "bangalore",
        "addr:postcode": "560032",
        "addr:street": "Kanaka Nagar 1st Main Road",
        "name": "Daisy's Beauty Parlour",
        "opening_hours": "10:00-19:00",
        "phone": "097400 07553",
        "shop": "beauty"
      }
    },
    {
      "type": "node",
      "id": 5329386293,
      "lat": 13.0264895,
      "lon": 77.6040339,
      "tags": {
        "highway": "bus_stop",
        "name": "Shaji Stores",
        "shop": "department_store"
      }
    },
    {
      "type": "node",
      "id": 6886594828,
      "lat": 13.0250774,
      "lon": 77.6140174,
      "tags": {
        "addr:city": "Bengaluru",
        "addr:district": "BENGALURU URBAN",
        "addr:full": "K. G. Halli, Bengaluru",
        "addr:postcode": "560045",
        "addr:state": "Karnataka",
        "amenity": "blood_bank",
        "contact:mobile": "9980155789",
        "contact:phone": "8025463442",
        "name": "Dr. B. R. Ambedkar Medical College Hospital Blood Bank",
        "opening_hours": "24/7",
        "operator:type": "private",
        "source": "OpenGovernmentData",
        "website": "https://www.bramc.org/"
      }
    },
    {
      "type": "node",
      "id": 6938547661,
      "lat": 13.0289685,
      "lon": 77.6045479,
      "tags": {
        "addr:district": "Bengaluru Urban",
        "addr:full": "# 125 1st Cross Bhuwaneshwarinagar Sultanpalya Main Road R T Nagar Post",
        "addr:postcode": "560032",
        "addr:state": "Karnataka",
        "amenity": "hospital",
        "name": "Ashirwad Hospital",
        "source": "OpenGovernmentData"
      }
    },
    {
      "type": "node",
      "id": 6948529644,
      "lat": 13.034899,
      "lon": 77.6050904,
      "tags": {
        "addr:district": "Bengaluru Urban",
        "addr:full": "#9 Sulthanpalya Main Road,2nd Cross,6Th Main,Bhuvaneshwari Nagar,R.T.Nagar Post",
        "addr:postcode": "560032",
        "addr:state": "Karnataka",
        "amenity": "clinic",
        "name": "Parvathi Piles Clinic",
        "source": "OpenGovernmentData"
      }
    },
    {
      "type": "node",
      "id": 7213565705,
      "lat": 13.0324318,
      "lon": 77.6085263,
      "tags": {
        "addr:district": "Bengaluru Urban",
        "addr:full": "48/1, KHB Colony Main Rd, Sultanpalya, Hebbal, Bengaluru",
        "addr:postcode": "560032",
        "addr:state": "Karnataka",
        "amenity": "hospital",
        "healthcare": "hospital",
        "name": "Cure Hospital",
        "source": "OpenGovernmentData"
      }
    },
    {
      "type": "node",
      "id": 9082429618,
      "lat": 13.0259658,
      "lon": 77.6060233,
      "tags": {
        "addr:postcode": "560032",
        "amenity": "pharmacy",
        "name": "Jan Aushadhi"
      }
    },
    {
      "type": "node",
      "id": 11119054523,
      "lat": 13.0356097,
      "lon": 77.6096075,
      "tags": {
        "amenity": "restaurant",
        "cuisine": "indian",
        "diet:vegetarian": "yes",
        "name": "Durga shree Samruddhi Grand"
      }
    },
    {
      "type": "node",
      "id": 11119054524,
      "lat": 13.0334824,
      "lon": 77.6090904,
      "tags": {
        "name": "Families Supermarket",
        "payment:cash": "yes",
        "payment:coins": "yes",
        "payment:contactless": "yes",
        "payment:credit_cards": "yes",
        "payment:debit_cards": "yes",
        "payment:maestro": "yes",
        "payment:mastercard": "yes",
        "payment:notes": "yes",
        "payment:visa": "yes",
        "shop": "supermarket"
      }
    },
    {
      "type": "node",
      "id": 11119054525,
      "lat": 13.0329717,
      "lon": 77.6089188,
      "tags": {
        "amenity": "pharmacy",
        "brand": "MedPlus",
        "brand:wikidata": "Q65684234",
        "healthcare": "pharmacy",
        "name": "MedPlus"
      }
    },
    {
      "type": "node",
      "id": 11119054526,
      "lat": 13.0331645,
      "lon": 77.6090114,
      "tags": {
        "amenity": "events_venue",
        "name": "R.K. Palace"
      }
    },
    {
      "type": "node",
      "id": 11119054532,
      "lat": 13.0321371,
      "lon": 77.6102366,
      "tags": {
        "male": "yes",
        "name": "Flamingo Men's Salon",
        "shop": "hairdresser"
      }
    },
    {
      "type": "node",
      "id": 11119054553,
      "lat": 13.0320869,
      "lon": 77.6103477,
      "tags": {
        "name": "Inaya Interiors",
        "shop": "interior_decoration"
      }
    },
    {
      "type": "node",
      "id": 11119054568,
      "lat": 13.0314636,
      "lon": 77.609802,
      "tags": {
        "male": "yes",
        "name": "D-1 Mens Salon",
        "shop": "hairdresser"
      }
    },
    {
      "type": "node",
      "id": 11119054573,
      "lat": 13.0319851,
      "lon": 77.6096682,
      "tags": {
        "amenity": "childcare",
        "name": "Smiling Kangaroo Preschool and Daycare"
      }
    },
    {
      "type": "node",
      "id": 11119061418,
      "lat": 13.0324302,
      "lon": 77.6066728,
      "tags": {
        "amenity": "place_of_worship",
        "name": "St. Alphonsa Forane Church",
        "religion": "christian"
      }
    },
    {
      "type": "node",
      "id": 11119061439,
      "lat": 13.0304639,
      "lon": 77.6080348,
      "tags": {
        "name": "Kaveri Jewellers",
        "shop": "jewelry"
      }
    },
    {
      "type": "node",
      "id": 11119061495,
      "lat": 13.029036,
      "lon": 77.6071212,
      "tags": {
        "brand": "DMart",
        "brand:wikidata": "Q5203271",
        "name": "DMart",
        "shop": "supermarket"
      }
    },
    {
      "type": "node",
      "id": 11119061496,
      "lat": 13.0272269,
      "lon": 77.6066805,
      "tags": {
        "amenity": "fast_food",
        "name": "Mad Eats"
      }
    },
    {
      "type": "node",
      "id": 11119061497,
      "lat": 13.0270827,
      "lon": 77.6066478,
      "tags": {
        "name": "Cake Magic",
        "shop": "bakery"
      }
    },
    {
      "type": "node",
      "id": 11119061498,
      "lat": 13.0252044,
      "lon": 77.6057928,
      "tags": {
        "name": "Ganga Bakery",
        "shop": "bakery"
      }
    },
    {
      "type": "node",
      "id": 12027541896,
      "lat": 13.0387741,
      "lon": 77.6144426,
      "tags": {
        "amenity": "fast_food",
        "brand": "Indira Canteen",
        "brand:wikidata": "Q36164828",
        "cuisine": "south_indian",
        "name": "Indira Canteen",
        "operator": "BBMP",
        "takeaway": "yes"
      }
    },
    {
      "type": "node",
      "id": 12846322963,
      "lat": 13.0292958,
      "lon": 77.6013165,
      "tags": {
        "amenity": "place_of_worship",
        "religion": "hindu"
      }
    },
    {
      "type": "node",
      "id": 13103627555,
      "lat": 13.0362236,
      "lon": 77.6090759,
      "tags": {
        "addr:city": "bangalore",
        "addr:district": "42, 7th Cross Rd, Kanaka Nagar, Hebbal, Bengaluru, Karnataka 560045",
        "addr:housenumber": "42",
        "addr:postcode": "560032",
        "addr:street": "7th Cross Road",
        "amenity": "school",
        "grades": "0-6",
        "name": "Little Angels Public School",
        "religion": "none"
      }
    },
    {
      "type": "way",
      "id": 175876882,
      "center": {
        "lat": 13.0241073,
        "lon": 77.6148515
      },
      "tags": {
        "addr:postcode": "560045",
        "alt_name": "Ambedkar Medical College",
        "amenity": "college",
        "landuse": "education",
        "name": "Dr. Ambedkar Medical College",
        "name:etymology:wikidata": "Q231690",
        "name:kn": "ಅಂಬೇಡ್ಕರ್ ವೈದ್ಯಕೀಯ ಕಾಲೇಜು"
      }
    },
    {
      "type": "way",
      "id": 775442577,
      "center": {
        "lat": 13.0385501,
        "lon": 77.6132302
      },
      "tags": {
        "amenity": "school"
      }
    },
    {
      "type": "way",
      "id": 775442582,
      "center": {
        "lat": 13.0415316,
        "lon": 77.6086782
      },
      "tags": {
        "leisure": "pitch",
        "sport": "beachvolleyball"
      }
    },
    {
      "type": "way",
      "id": 775442583,
      "center": {
        "lat": 13.041301,
        "lon": 77.608647
      },
      "tags": {
        "leisure": "playground"
      }
    },
    {
      "type": "way",
      "id": 775442584,
      "center": {
        "lat": 13.04104,
        "lon": 77.6080156
      },
      "tags": {
        "leisure": "sports_centre"
      }
    },
    {
      "type": "way",
      "id": 775442585,
      "center": {
        "lat": 13.0410064,
        "lon": 77.6083368
      },
      "tags": {
        "leisure": "pitch",
        "sport": "tennis"
      }
    },
    {
      "type": "way",
      "id": 775442586,
      "center": {
        "lat": 13.0410167,
        "lon": 77.6086396
      },
      "tags": {
        "leisure": "sports_centre",
        "sport": "roller_skating"
      }
    },
    {
      "type": "way",
      "id": 775442594,
      "center": {
        "lat": 13.0411304,
        "lon": 77.6097258
      },
      "tags": {
        "access": "private",
        "leisure": "swimming_pool"
      }
    },
    {
      "type": "way",
      "id": 775442595,
      "center": {
        "lat": 13.0414807,
        "lon": 77.6102255
      },
      "tags": {
        "leisure": "garden"
      }
    },
    {
      "type": "way",
      "id": 775442600,
      "center": {
        "lat": 13.041296,
        "lon": 77.6095543
      },
      "tags": {
        "access": "private",
        "leisure": "swimming_pool"
      }
    },
    {
      "type": "way",
      "id": 1034261996,
      "center": {
        "lat": 13.0318789,
        "lon": 77.6126193
      },
      "tags": {
        "leisure": "park"
      }
    },
    {
      "type": "way",
      "id": 1111845890,
      "center": {
        "lat": 13.0405589,
        "lon": 77.6072104
      },
      "tags": {
        "leisure": "sports_centre",
        "name": "Adroit Tennis Academy",
        "sport": "tennis",
        "website": "https://adroittennis.com/",
        "wheelchair": "yes"
      }
    },
    {
      "type": "way",
      "id": 1111845891,
      "center": {
        "lat": 13.0378792,
        "lon": 77.6039746
      },
      "tags": {
        "amenity": "school",
        "name": "Young Scholars Academy",
        "wheelchair": "yes"
      }
    },
    {
      "type": "way",
      "id": 1198647091,
      "center": {
        "lat": 13.0293789,
        "lon": 77.60653
      },
      "tags": {
        "access": "private",
        "leisure": "swimming_pool"
      }
    },
    {
      "type": "way",
      "id": 1202598184,
      "center": {
        "lat": 13.0391795,
        "lon": 77.6050169
      },
      "tags": {
        "alt_name": "Nagenahalli Church",
        "amenity": "place_of_worship",
        "name": "St. Paul the Hermit Church",
        "name:kn": "ನಾಗೇನಹಳ್ಳಿ ಇಗರ್ಜೆ",
        "religion": "christian"
      }
    },
    {
      "type": "way",
      "id": 1202598185,
      "center": {
        "lat": 13.0373353,
        "lon": 77.6087852
      },
      "tags": {
        "amenity": "school"
      }
    },
    {
      "type": "way",
      "id": 1202598188,
      "center": {
        "lat": 13.0286366,
        "lon": 77.6083318
      },
      "tags": {
        "access": "private",
        "leisure": "park"
      }
    },
    {
      "type": "way",
      "id": 1202598190,
      "center": {
        "lat": 13.0279258,
        "lon": 77.6093161
      },
      "tags": {
        "amenity": "place_of_worship",
        "religion": "hindu"
      }
    },
    {
      "type": "way",
      "id": 1258134505,
      "center": {
        "lat": 13.0407957,
        "lon": 77.608249
      },
      "tags": {
        "leisure": "swimming_pool"
      }
    },
    {
      "type": "way",
      "id": 1258134506,
      "center": {
        "lat": 13.0407074,
        "lon": 77.6084861
      },
      "tags": {
        "leisure": "pitch",
        "sport": "basketball",
        "wheelchair": "yes"
      }
    },
    {
      "type": "way",
      "id": 1258134507,
      "center": {
        "lat": 13.0406652,
        "lon": 77.6086662
      },
      "tags": {
        "leisure": "pitch",
        "sport": "soccer"
      }
    },
    {
      "type": "way",
      "id": 1258134509,
      "center": {
        "lat": 13.0404158,
        "lon": 77.6092753
      },
      "tags": {
        "amenity": "school",
        "name": "St. Paul's Public School"
      }
    },
    {
      "type": "way",
      "id": 1258134510,
      "center": {
        "lat": 13.0393487,
        "lon": 77.6120246
      },
      "tags": {
        "leisure": "park"
      }
    },
    {
      "type": "way",
      "id": 1385496251,
      "center": {
        "lat": 13.0283296,
        "lon": 77.6102895
      },
      "tags": {
        "amenity": "school"
      }
    },
    {
      "type": "way",
      "id": 1387155259,
      "center": {
        "lat": 13.0309571,
        "lon": 77.6096233
      },
      "tags": {
        "access": "private",
        "leisure": "swimming_pool"
      }
    },
    {
      "type": "way",
      "id": 1387155424,
      "center": {
        "lat": 13.0301395,
        "lon": 77.6079288
      },
      "tags": {
        "amenity": "fuel",
        "brand": "Bharat Petroleum",
        "brand:wikidata": "Q854826",
        "operator": "Bharat Petroleum"
      }
    },
    {
      "type": "way",
      "id": 1387946479,
      "center": {
        "lat": 13.0291677,
        "lon": 77.6066994
      },
      "tags": {
        "access": "private",
        "leisure": "garden"
      }
    },
    {
      "type": "way",
      "id": 1387957381,
      "center": {
        "lat": 13.0318083,
        "lon": 77.6030804
      },
      "tags": {
        "amenity": "place_of_worship",
        "landuse": "religious",
        "name": "Sri Lakshmi Narasimha Swamy Temple",
        "religion": "hindu"
      }
    },
    {
      "type": "way",
      "id": 1388296336,
      "center": {
        "lat": 13.0354921,
        "lon": 77.6056231
      },
      "tags": {
        "amenity": "school"
      }
    },
    {
      "type": "way",
      "id": 1388440056,
      "center": {
        "lat": 13.0379907,
        "lon": 77.6043638
      },
      "tags": {
        "access": "private",
        "leisure": "swimming_pool"
      }
    },
    {
      "type": "way",
      "id": 1388440057,
      "center": {
        "lat": 13.0378975,
        "lon": 77.6040771
      },
      "tags": {
        "leisure": "pitch",
        "sport": "soccer",
        "wheelchair": "yes"
      }
    },
    {
      "type": "way",
      "id": 1388440058,
      "center": {
        "lat": 13.037576,
        "lon": 77.6039203
      },
      "tags": {
        "leisure": "pitch",
        "sport": "tennis"
      }
    }
  ]
}