{
  "area_name": "Kempanahalli",
  "osm_id": 11808848173,
  "osm_type": "node",
  "place_type": "neighbourhood",
  "amenity_count": 20,
  "amenities": [
    {
      "type": "node",
      "id": 12512224849,
      "lat": 13.1091324,
      "lon": 77.5597832,
      "tags": {
        "amenity": "pub",
        "name": "Nysa Sky Bar"
      }
    },
    {
      "type": "way",
      "id": 346128896,
      "center": {
        "lat": 13.1068567,
        "lon": 77.5608013
      },
      "tags": {
        "leisure": "park"
      }
    },
    {
      "type": "way",
      "id": 515233982,
      "center": {
        "lat": 13.1102691,
        "lon": 77.5610752
      },
      "tags": {
        "access": "yes",
        "bicycle": "no",
        "highway": "path",
        "leisure": "track",
        "lit": "yes",
        "motor_vehicle": "no",
        "name": "Ananthapura / Attur Lake Trial",
        "sport": "running",
        "surface": "paving_stones"
      }
    },
    {
      "type": "way",
      "id": 515233983,
      "center": {
        "lat": 13.111466,
        "lon": 77.5630935
      },
      "tags": {
        "access": "yes",
        "bicycle": "no",
        "highway": "path",
        "leisure": "track",
        "lit": "yes",
        "motor_vehicle": "no",
        "name": "Attur lake trail",
        "sport": "running",
        "surface": "paving_stones"
      }
    },
    {
      "type": "way",
      "id": 963357010,
      "center": {
        "lat": 13.1114469,
        "lon": 77.5550611
      },
      "tags": {
        "amenity": "hospital",
        "name": "NIKISA Dementia Village",
        "website": "https://carefordementia.in/"
      }
    },
    {
      "type": "way",
      "id": 1182962321,
      "center": {
        "lat": 13.1136225,
        "lon": 77.5609391
      },
      "tags": {
        "leisure": "park"
      }
    },
    {
      "type": "way",
      "id": 1182962322,
      "center": {
        "lat": 13.113255,
        "lon": 77.562276
      },
      "tags": {
        "craft": "gardener",
        "leisure": "garden",
        "name": "Attur Nursery"
      }
    },
    {
      "type": "way",
      "id": 1182962327,
      "center": {
        "lat": 13.1102596,
        "lon": 77.5608713
      },
      "tags": {
        "access": "yes",
        "bicycle": "no",
        "highway": "path",
        "leisure": "track",
        "lit": "yes",
        "motor_vehicle": "no",
        "name": "Ananthapura / Attur Lake Trial",
        "sport": "running",
        "surface": "paving_stones"
      }
    },
    {
      "type": "way",
      "id": 1234220598,
      "center": {
        "lat": 13.1124673,
        "lon": 77.5598196
      },
      "tags": {
        "access": "yes",
        "bicycle": "no",
        "highway": "path",
        "leisure": "track",
        "lit": "yes",
        "motor_vehicle": "no",
        "name": "Attur Lake trail",
        "sport": "running",
        "surface": "paving_stones"
      }
    },
    {
      "type": "way",
      "id": 1234220599,
      "center": {
        "lat": 13.11336,
        "lon": 77.559945
      },
      "tags": {
        "bridge": "yes",
        "highway": "path",
        "layer": "1",
        "leisure": "track",
        "lit": "yes",
        "name": "Attur / Ananthapura Lake Trial",
        "sport": "running",
        "surface": "paving_stones"
      }
    },
    {
      "type": "way",
      "id": 1301678942,
      "center": {
        "lat": 13.1086341,
        "lon": 77.5660374
      },
      "tags": {
        "amenity": "place_of_worship",
        "landuse": "religious",
        "name": "Sri Kashi Vishwanath Swamy Temple",
        "religion": "hindu"
      }
    },
    {
      "type": "way",
      "id": 1308090822,
      "center": {
        "lat": 13.114113,
        "lon": 77.5550948
      },
      "tags": {
        "leisure": "park"
      }
    },
    {
      "type": "way",
      "id": 1332745005,
      "center": {
        "lat": 13.1088061,
        "lon": 77.560382
      },
      "tags": {
        "access": "private",
        "leisure": "swimming_pool"
      }
    },
    {
      "type": "way",
      "id": 1365364522,
      "center": {
        "lat": 13.116599,
        "lon": 77.5642066
      },
      "tags": {
        "amenity": "events_venue",
        "landuse": "commercial",
        "name": "Le Terra Gardens"
      }
    },
    {
      "type": "way",
      "id": 1365364523,
      "center": {
        "lat": 13.1172919,
        "lon": 77.5616723
      },
      "tags": {
        "amenity": "place_of_worship",
        "building": "yes",
        "religion": "hindu"
      }
    },
    {
      "type": "way",
      "id": 1365364524,
      "center": {
        "lat": 13.1161867,
        "lon": 77.5619876
      },
      "tags": {
        "amenity": "college",
        "name": "Nagarjuna Degree College"
      }
    },
    {
      "type": "way",
      "id": 1409426355,
      "center": {
        "lat": 13.1064052,
        "lon": 77.5516095
      },
      "tags": {
        "leisure": "sports_centre",
        "name": "SDM Square Cricket Academy"
      }
    },
    {
      "type": "way",
      "id": 1409426356,
      "center": {
        "lat": 13.1063359,
        "lon": 77.5507045
      },
      "tags": {
        "amenity": "place_of_worship",
        "building": "yes",
        "religion": "hindu"
      }
    },
    {
      "type": "way",
      "id": 1409426358,
      "center": {
        "lat": 13.1096427,
        "lon": 77.5503907
      },
      "tags": {
        "amenity": "place_of_worship",
        "building": "yes",
        "religion": "hindu"
      }
    },
    {
      "type": "way",
      "id": 1409426360,
      "center": {
        "lat": 13.1131401,
        "lon": 77.5538135
      },
      "tags": {
        "leisure": "park"
      }
    }
  ]
}