{
  "area_name": "KHB Colony",
  "osm_id": 9161008292,
  "osm_type": "node",
  "place_type": "neighbourhood",
  "amenity_count": 188,
  "amenities": [
    {
      "type": "node",
      "id": 519549759,
      "lat": 12.9918012,
      "lon": 77.5379737,
      "tags": {
        "addr:city": "Basaveshwara Nagar, Bangalore",
        "amenity": "atm",
        "brand": "State Bank of India",
        "brand:wikidata": "Q1340361",
        "name": "State Bank of India",
        "name:kn": "ಭಾರತೀಯ ಸ್ಟೇಟ್ ಬ್ಯಾಂಕ್",
        "operator": "State Bank of India",
        "operator:wikidata": "Q1340361",
        "short_name": "SBI"
      }
    },
    {
      "type": "node",
      "id": 529897859,
      "lat": 12.9854915,
      "lon": 77.5425698,
      "tags": {
        "amenity": "police",
        "name": "Basaveshwaranagar Police Station",
        "name:kn": "ಬಸವೇಶ್ವರ ನಗರ ಆರಕ್ಷಕ ಠಾಣೆ",
        "wheelchair": "yes"
      }
    },
    {
      "type": "node",
      "id": 1024942731,
      "lat": 12.9899522,
      "lon": 77.5378467,
      "tags": {
        "amenity": "bank",
        "atm": "yes",
        "brand": "Bank of India",
        "brand:wikidata": "Q2004439",
        "brand:wikipedia": "en:Bank of India",
        "name": "Bank of India",
        "name:en": "Bank of India",
        "short_name": "BoI",
        "website": "http://www.bankofindia.co.in"
      }
    },
    {
      "type": "node",
      "id": 1440193832,
      "lat": 12.9865791,
      "lon": 77.5403594,
      "tags": {
        "amenity": "fuel",
        "brand": "Total",
        "brand:wikidata": "Q154037",
        "fuel:lpg": "yes",
        "name": "Total gas",
        "operator": "Total"
      }
    },
    {
      "type": "node",
      "id": 1440194638,
      "lat": 12.98568,
      "lon": 77.5421189,
      "tags": {
        "addr:housename": "Canara bank",
        "addr:postcode": "560079",
        "addr:street": "Basaveshwaranagar",
        "amenity": "bank",
        "atm": "yes",
        "brand": "Canara Bank",
        "brand:en": "Canara Bank",
        "brand:hi": "केनरा बैंक",
        "brand:kn": "ಕೆನರಾ ಬ್ಯಾಂಕ್",
        "brand:pa": "ਕੇਨਰਾ ਬੈਂਕ",
        "brand:pnb": "کینرا بینک",
        "brand:ur": "کینرا بینک",
        "brand:wikidata": "Q2003777",
        "brand:wikipedia": "en:Canara Bank",
        "brand:wikipedia:pa": "ਕੇਨਰਾ ਬੈਂਕ",
        "name": "Canara Bank",
        "name:en": "Canara Bank",
        "name:hi": "केनरा बैंक",
        "name:kn": "ಕೆನರಾ ಬ್ಯಾಂಕ್",
        "name:pa": "ਕੇਨਰਾ ਬੈਂਕ",
        "name:pnb": "کینرا بینک",
        "name:ur": "کینرا بینک",
        "website": "https://www.canarabank.com/"
      }
    },
    {
      "type": "node",
      "id": 1440197001,
      "lat": 12.9860568,
      "lon": 77.5418754,
      "tags": {
        "addr:housename": "Karnataka State Co-op Apex Bank",
        "addr:housenumber": "No 1",
        "addr:postcode": "560079",
        "addr:street": "15th Main, 3rd Stage, Basaveshwaranagar",
        "amenity": "bank",
        "atm": "no",
        "name": "Karnataka State Co-op Apex Bank"
      }
    },
    {
      "type": "node",
      "id": 1440198432,
      "lat": 12.9862868,
      "lon": 77.539676,
      "tags": {
        "amenity": "place_of_worship",
        "name": "Muneshwara Temple",
        "name:kn": "ಮುನೇಶ್ವರ ದೇವಸ್ಥಾನ",
        "religion": "hindu"
      }
    },
    {
      "type": "node",
      "id": 1467501674,
      "lat": 12.9856724,
      "lon": 77.5420617,
      "tags": {
        "amenity": "atm",
        "brand": "Canara Bank",
        "brand:en": "Canara Bank",
        "brand:hi": "केनरा बैंक",
        "brand:kn": "ಕೆನರಾ ಬ್ಯಾಂಕ್",
        "brand:pa": "ਕੇਨਰਾ ਬੈਂਕ",
        "brand:pnb": "کینرا بینک",
        "brand:ur": "کینرا بینک",
        "brand:wikidata": "Q2003777",
        "name": "Canara Bank",
        "name:en": "Canara Bank",
        "name:hi": "केनरा बैंक",
        "name:kn": "ಕೆನರಾ ಬ್ಯಾಂಕ್",
        "name:pa": "ਕੇਨਰਾ ਬੈਂਕ",
        "name:pnb": "کینرا بینک",
        "name:ur": "کینرا بینک",
        "operator": "Canara Bank",
        "operator:wikidata": "Q2003777"
      }
    },
    {
      "type": "node",
      "id": 1467501725,
      "lat": 12.988545,
      "lon": 77.5377868,
      "tags": {
        "amenity": "restaurant",
        "name": "New Shanti Sagar",
        "name:kn": "ನ್ಯೂ ಶಾರದ"
      }
    },
    {
      "type": "node",
      "id": 1778895940,
      "lat": 12.9760846,
      "lon": 77.5312127,
      "tags": {
        "amenity": "atm",
        "designation": "Karnataka Bank ATM",
        "fee": "no",
        "operator": "Karnataka Bank ATM",
        "source": "Survey"
      }
    },
    {
      "type": "node",
      "id": 1778896668,
      "lat": 12.9760637,
      "lon": 77.5315131,
      "tags": {
        "addr:street": "Nagarbhavi Main Road",
        "amenity": "fast_food",
        "name": "Ayodhya Food Line",
        "source": "Survey"
      }
    },
    {
      "type": "node",
      "id": 1778909061,
      "lat": 12.9809408,
      "lon": 77.5354587,
      "tags": {
        "addr:housename": "Housing Board Bus Stop",
        "addr:street": "Magadi Road",
        "amenity": "restaurant",
        "diet:vegetarian": "only",
        "name": "Vasudev Adigas",
        "name:kn": "ವಾಸುದೇವ್ ಅಡಿಗಾಸ್",
        "source": "Survey"
      }
    },
    {
      "type": "node",
      "id": 1809624008,
      "lat": 12.9886227,
      "lon": 77.5378109,
      "tags": {
        "amenity": "restaurant",
        "name": "Nisarga Andhra Style",
        "name:kn": "ನಿಸರ್ಗ ಅಂಧ್ರ ಸ್ಟೈಲ್"
      }
    },
    {
      "type": "node",
      "id": 1809734261,
      "lat": 12.9761294,
      "lon": 77.5326369,
      "tags": {
        "addr:district": "Bengaluru Urban",
        "addr:full": "No.4, Nagarabhavi Main Road,Prashanth Nagar,Near Shopper City Shop",
        "addr:postcode": "560079",
        "addr:state": "Karnataka",
        "amenity": "hospital",
        "name": "Bharathy Hospital",
        "name:kn": "ಭಾರತಿ ಆಸ್ಪತ್ರೆ",
        "source": "OpenGovernmentData"
      }
    },
    {
      "type": "node",
      "id": 1813492400,
      "lat": 12.9784006,
      "lon": 77.5311242,
      "tags": {
        "amenity": "place_of_worship",
        "name": "Ganapathi Temple",
        "name:kn": "ಗಣಪತಿ ದೇವಸ್ಥಾನ",
        "religion": "hindu"
      }
    },
    {
      "type": "node",
      "id": 1843664896,
      "lat": 12.9761262,
      "lon": 77.5307639,
      "tags": {
        "addr:street": "Pattegarara Palya Main Road",
        "name": "Karanth Vihar",
        "shop": "bakery"
      }
    },
    {
      "type": "node",
      "id": 1843673711,
      "lat": 12.9760451,
      "lon": 77.5311984,
      "tags": {
        "addr:street": "Nagarbhavi Main Road",
        "amenity": "bank",
        "brand": "Karnataka Bank",
        "brand:wikidata": "Q2042632",
        "name": "Karnataka Bank",
        "name:kn": "ಕರ್ನಾಟಕ ಬ್ಯಾಂಕ್"
      }
    },
    {
      "type": "node",
      "id": 1843680399,
      "lat": 12.9762502,
      "lon": 77.5320438,
      "tags": {
        "addr:street": "Nagarbhavi Main Road",
        "name": "Shopper City",
        "shop": "supermarket",
        "source": "Survey"
      }
    },
    {
      "type": "node",
      "id": 1843729743,
      "lat": 12.9808177,
      "lon": 77.535785,
      "tags": {
        "addr:housename": "Near Housing  Board Bus Stop",
        "addr:street": "Magadi Road",
        "amenity": "restaurant",
        "name": "Amaravati Andhra Style"
      }
    },
    {
      "type": "node",
      "id": 2027517361,
      "lat": 12.991257,
      "lon": 77.5384096,
      "tags": {
        "addr:city": "Bangalore",
        "addr:housename": "Basaveshwara Nagar",
        "addr:postcode": "560079",
        "addr:street": "Siddhaiah Puranik Road",
        "amenity": "atm",
        "name": "Karnataka Bank Money Plant",
        "operator": "Karnatakaa Bank"
      }
    },
    {
      "type": "node",
      "id": 2245111330,
      "lat": 12.9888754,
      "lon": 77.5378467,
      "tags": {
        "brand": "Bata",
        "brand:wikidata": "Q688082",
        "name": "Bata",
        "name:kn": "ಬಾಟಾ",
        "shop": "shoes"
      }
    },
    {
      "type": "node",
      "id": 2245131003,
      "lat": 12.9915322,
      "lon": 77.5382491,
      "tags": {
        "name": "Airtel Relationship Centre",
        "name:kn": "ಏರ್ಟೆಲ್",
        "shop": "customer_service"
      }
    },
    {
      "type": "node",
      "id": 2245145511,
      "lat": 12.9914936,
      "lon": 77.538699,
      "tags": {
        "addr:city": "Bangalore",
        "addr:housenumber": "491/A",
        "addr:street": "8th Main Road",
        "amenity": "ice_cream",
        "brand": "Polar Bear",
        "name": "Polar Bear",
        "opening_hours": "Mo-Su 11:00-23:00",
        "phone": "+91 80 2322 5704",
        "website": "https://polarbear.co.in/"
      }
    },
    {
      "type": "node",
      "id": 2249045755,
      "lat": 12.9851341,
      "lon": 77.5433278,
      "tags": {
        "amenity": "fuel",
        "brand": "BP",
        "brand:wikidata": "Q152057",
        "name": "BP petrol pump",
        "wheelchair": "yes"
      }
    },
    {
      "type": "node",
      "id": 2279531470,
      "lat": 12.9855941,
      "lon": 77.5252604,
      "tags": {
        "amenity": "fuel",
        "name": "IBP petrol pump"
      }
    },
    {
      "type": "node",
      "id": 2400390754,
      "lat": 12.991344,
      "lon": 77.5382423,
      "tags": {
        "name": "Bombay Dyeing",
        "name:kn": "ಬೊಂಬೆ ಡೈಯಿಂಗ್",
        "shop": "clothes"
      }
    },
    {
      "type": "node",
      "id": 2497073980,
      "lat": 12.9894445,
      "lon": 77.5379861,
      "tags": {
        "addr:city": "Bangalore",
        "addr:housename": "Near Havanur Circle, Basaveshwaranagar",
        "addr:street": "1st main Basaveshwaranagar",
        "amenity": "ice_cream",
        "name": "Arun Ice Cream"
      }
    },
    {
      "type": "node",
      "id": 2497073985,
      "lat": 12.9900378,
      "lon": 77.537746,
      "tags": {
        "addr:city": "Bangalore",
        "addr:housename": "Near Havanur Circle, Basaveshwara Nagar",
        "addr:housenumber": "313, 313/A",
        "addr:street": "1st main Basaveshwaranagar",
        "amenity": "college",
        "name": "Zee Institute of Creative Arts",
        "name:en": "ZICA",
        "operator": "Zee",
        "phone": "+91 80 66490571"
      }
    },
    {
      "type": "node",
      "id": 2497073991,
      "lat": 12.989651,
      "lon": 77.5377152,
      "tags": {
        "addr:city": "Bangalore",
        "addr:housename": "Opp Bank of India, Basaveshwara Nagar",
        "addr:street": "1st main Basaveshwaranagar",
        "amenity": "cafe",
        "cuisine": "coffee_shop",
        "internet_access": "no",
        "name": "Fresh and ground"
      }
    },
    {
      "type": "node",
      "id": 2503514687,
      "lat": 12.9917578,
      "lon": 77.5386852,
      "tags": {
        "addr:city": "Bangalore",
        "addr:housename": "Near 8th Main Intersection",
        "addr:postcode": "560079",
        "addr:street": "Siddhaiah Puranik Road",
        "name": "Prestige Smart Kitchen",
        "name:en": "PSK",
        "shop": "kitchen"
      }
    },
    {
      "type": "node",
      "id": 2503514688,
      "lat": 12.991912,
      "lon": 77.5386905,
      "tags": {
        "addr:city": "Bangalore",
        "addr:housename": "Near 8th Main Intersection",
        "addr:postcode": "560079",
        "addr:street": "Siddhaiah Puranik Road",
        "amenity": "clinic",
        "healthcare": "clinic",
        "name": "Positive Homeopathy"
      }
    },
    {
      "type": "node",
      "id": 2504573701,
      "lat": 12.9922983,
      "lon": 77.5384739,
      "tags": {
        "addr:city": "Bangalore",
        "addr:housename": "Near 8th Main, Basaveshwara Nagar",
        "addr:street": "Siddhaiah Puranik Road",
        "name": "World of Titan",
        "shop": "watches"
      }
    },
    {
      "type": "node",
      "id": 2504573702,
      "lat": 12.9917539,
      "lon": 77.5383401,
      "tags": {
        "addr:city": "Bangalore",
        "addr:housename": "Near 8th Main, Basaveshwara Nagar",
        "addr:street": "Siddhaiah Puranik Road",
        "name": "Titan Eye+",
        "shop": "eye_care"
      }
    },
    {
      "type": "node",
      "id": 2504573703,
      "lat": 12.9923206,
      "lon": 77.5384859,
      "tags": {
        "addr:city": "Bangalore",
        "addr:housename": "Above World of Titan, Basaveshwara Nagar",
        "addr:postcode": "560079",
        "addr:street": "Siddhaiah Puranik Road",
        "brand": "Gold's Gym",
        "brand:wikidata": "Q1536234",
        "leisure": "fitness_centre",
        "name": "Gold's Gym",
        "name:kn": "ಗೊಲ್ಡ್ಸ್ ಜಿಮ್"
      }
    },
    {
      "type": "node",
      "id": 2504573704,
      "lat": 12.9919077,
      "lon": 77.5384055,
      "tags": {
        "addr:city": "Bangalore",
        "addr:housename": "Near 8th Main, Basaveshwara Nagar",
        "addr:postcode": "560079",
        "addr:street": "Siddhaiah Puranik Road",
        "name": "Wrangler Jeans",
        "shop": "clothes"
      }
    },
    {
      "type": "node",
      "id": 2504573705,
      "lat": 12.9919338,
      "lon": 77.5384148,
      "tags": {
        "addr:city": "Bangalore",
        "addr:housename": "Near 8th Main, Basaveshwara Nagar",
        "addr:postcode": "560079",
        "addr:street": "Siddhaiah Puranik Road",
        "name": "Lee Jeans",
        "shop": "clothes"
      }
    },
    {
      "type": "node",
      "id": 2505742898,
      "lat": 12.991155,
      "lon": 77.5383908,
      "tags": {
        "amenity": "atm",
        "brand": "IndusInd Bank",
        "brand:wikidata": "Q2040323",
        "name": "IndusInd Bank",
        "operator": "IndusInd Bank",
        "operator:wikidata": "Q2040323"
      }
    },
    {
      "type": "node",
      "id": 2505742917,
      "lat": 12.9918738,
      "lon": 77.5386617,
      "tags": {
        "addr:city": "Bangalore",
        "addr:housename": "Near 8th Main Junction, Basaweshwara Nagar",
        "addr:postcode": "560079",
        "addr:street": "Siddhaiah Puranik Road",
        "name": "On Track Mobiles",
        "shop": "mobile_phone"
      }
    },
    {
      "type": "node",
      "id": 2505742918,
      "lat": 12.9920018,
      "lon": 77.5387341,
      "tags": {
        "addr:city": "Bangalore",
        "addr:housename": "opp Titan Eye+, Basaweshwara Nagar",
        "addr:postcode": "560079",
        "addr:street": "Siddhaiah Puranik Road",
        "name": "Punjab Handlooms",
        "shop": "clothes"
      }
    },
    {
      "type": "node",
      "id": 2505742936,
      "lat": 12.9893282,
      "lon": 77.5379751,
      "tags": {
        "addr:city": "Bangalore",
        "addr:housename": "Basaweshwara Nagar",
        "addr:postcode": "560079",
        "addr:street": "Siddhaiah Puranik Road",
        "amenity": "ice_cream",
        "name": "Amul Ice Cream"
      }
    },
    {
      "type": "node",
      "id": 2505742941,
      "lat": 12.9884317,
      "lon": 77.5377873,
      "tags": {
        "addr:city": "Bangalore",
        "addr:housename": "Neat Pavithra Paradise, Havanur Circle, Basaweshwara Nagar",
        "addr:postcode": "560079",
        "addr:street": "Siddhaiah Puranik Road",
        "name": "KSIC Silks",
        "shop": "clothes"
      }
    },
    {
      "type": "node",
      "id": 2505742971,
      "lat": 12.9877574,
      "lon": 77.5378544,
      "tags": {
        "addr:city": "Bangalore",
        "addr:housename": "Havanur Circle, Basaweshwara Nagar",
        "addr:postcode": "560079",
        "addr:street": "1st main Basaveshwaranagar",
        "name": "Srinivasa Wines",
        "shop": "alcohol"
      }
    },
    {
      "type": "node",
      "id": 2505742993,
      "lat": 12.9850131,
      "lon": 77.5369987,
      "tags": {
        "addr:city": "Bangalore",
        "addr:housename": "Basaweshwara Nagar",
        "addr:postcode": "560079",
        "addr:street": "Siddhaiah Puranik Road",
        "name": "Mega Mart",
        "shop": "clothes"
      }
    },
    {
      "type": "node",
      "id": 2505743003,
      "lat": 12.9849948,
      "lon": 77.5345955,
      "tags": {
        "addr:city": "Bangalore",
        "addr:housename": "Basaweshwara Nagar",
        "addr:postcode": "560079",
        "addr:street": "1st Main Road",
        "amenity": "dentist",
        "name": "Future Dentistry"
      }
    },
    {
      "type": "node",
      "id": 2587490997,
      "lat": 12.9915093,
      "lon": 77.538526,
      "tags": {
        "name": "Ice Fort Ice Creams",
        "shop": "yes"
      }
    },
    {
      "type": "node",
      "id": 3740403250,
      "lat": 12.9878989,
      "lon": 77.5366101,
      "tags": {
        "name": "Sri Ganesh Gold and Diamonds",
        "shop": "jewelry"
      }
    },
    {
      "type": "node",
      "id": 3740406895,
      "lat": 12.9886459,
      "lon": 77.5375264,
      "tags": {
        "amenity": "fast_food",
        "brand": "McDonald's",
        "brand:pa": "ਮੈਕਡੋਨਲਡ’ਜ਼",
        "brand:ur": "مکڈونلڈز",
        "brand:wikidata": "Q38076",
        "brand:wikipedia": "en:McDonald's",
        "brand:wikipedia:pa": "ਮੈਕਡੋਨਲਡ’ਜ਼",
        "brand:wikipedia:ur": "مکڈونلڈز",
        "cuisine": "burger",
        "name": "McDonald's",
        "name:kn": "ಮ್ಯಾಕ್‌ಡೊನಾಲ್ಡ್ಸ್",
        "name:pa": "ਮੈਕਡੋਨਲਡ’ਜ਼",
        "name:ur": "مکڈونلڈز",
        "takeaway": "yes"
      }
    },
    {
      "type": "node",
      "id": 3823691057,
      "lat": 12.9775705,
      "lon": 77.5312574,
      "tags": {
        "addr:city": "Bangalore",
        "addr:postcode": "560079",
        "amenity": "studio",
        "level": "1",
        "name": "Sathvick Infotech Private Limited",
        "studio": "video"
      }
    },
    {
      "type": "node",
      "id": 3861909814,
      "lat": 12.9760478,
      "lon": 77.5319661,
      "tags": {
        "addr:city": "Bangalore",
        "addr:postcode": "560040",
        "addr:street": "Nagarabhavi Road",
        "name": "Star Bazar",
        "shop": "supermarket"
      }
    },
    {
      "type": "node",
      "id": 3861909815,
      "lat": 12.9760251,
      "lon": 77.5330067,
      "tags": {
        "addr:city": "Bangalore",
        "addr:postcode": "560040",
        "addr:street": "Nagarabhavi Road",
        "amenity": "fast_food",
        "cuisine": "regional",
        "name": "Five Star Chicken"
      }
    },
    {
      "type": "node",
      "id": 3861909816,
      "lat": 12.9759953,
      "lon": 77.5332486,
      "tags": {
        "addr:city": "Bangalore",
        "addr:postcode": "560040",
        "addr:street": "Nagarabhavi Road",
        "amenity": "pharmacy",
        "brand": "MedPlus",
        "brand:wikidata": "Q65684234",
        "healthcare": "pharmacy",
        "name": "MedPlus",
        "name:kn": "ಮೆಡ್‍ಪ್ಲಸ್"
      }
    },
    {
      "type": "node",
      "id": 4007480961,
      "lat": 12.991837,
      "lon": 77.5376289,
      "tags": {
        "air_conditioning": "yes",
        "amenity": "fast_food",
        "brand": "Domino's",
        "brand:ks": "ڈومینوز",
        "brand:pa": "ਡੋਮੀਨੋਜ਼",
        "brand:ur": "ڈومینوز",
        "brand:wikidata": "Q839466",
        "brand:wikipedia": "en:Domino's Pizza",
        "cuisine": "pizza",
        "delivery": "yes",
        "internet_access": "no",
        "name": "Domino's",
        "name:kn": "ಡಾಮಿನೋಸ್",
        "name:ks": "ڈومینوز",
        "name:pa": "ਡੋਮੀਨੋਜ਼",
        "name:ur": "ڈومینوز",
        "opening_hours": "Mo-Su 10:00-01:00",
        "outdoor_seating": "no",
        "smoking": "no",
        "takeaway": "yes",
        "wheelchair": "no"
      }
    },
    {
      "type": "node",
      "id": 4007498897,
      "lat": 12.9918631,
      "lon": 77.5375645,
      "tags": {
        "leisure": "sports_centre",
        "name": "Talwarkars",
        "sport": "fitness"
      }
    },
    {
      "type": "node",
      "id": 4036600738,
      "lat": 12.9879988,
      "lon": 77.5381661,
      "tags": {
        "cuisine": "indian",
        "name": "Tango Sandwich Centre",
        "shop": "fast_food"
      }
    },
    {
      "type": "node",
      "id": 4036604298,
      "lat": 12.9886368,
      "lon": 77.534281,
      "tags": {
        "amenity": "car_wash",
        "name": "Ventateshwara Car Wash"
      }
    },
    {
      "type": "node",
      "id": 4058429380,
      "lat": 12.9867587,
      "lon": 77.5349053,
      "tags": {
        "amenity": "place_of_worship"
      }
    },
    {
      "type": "node",
      "id": 4073025961,
      "lat": 12.9902696,
      "lon": 77.5358713,
      "tags": {
        "amenity": "library",
        "designation": "Library",
        "name": "Nagara Kendra Granthalaya (City Central Library)",
        "name:kn": "ನಗರ ಕೇಂದ್ರ ಗ್ರಂಥಾಲಯ"
      }
    },
    {
      "type": "node",
      "id": 4073175527,
      "lat": 12.9919453,
      "lon": 77.5372687,
      "tags": {
        "amenity": "bank",
        "atm": "yes",
        "brand": "Canara Bank",
        "brand:en": "Canara Bank",
        "brand:hi": "केनरा बैंक",
        "brand:kn": "ಕೆನರಾ ಬ್ಯಾಂಕ್",
        "brand:pa": "ਕੇਨਰਾ ਬੈਂਕ",
        "brand:pnb": "کینرا بینک",
        "brand:ur": "کینرا بینک",
        "brand:wikidata": "Q2003777",
        "brand:wikipedia": "en:Canara Bank",
        "brand:wikipedia:pa": "ਕੇਨਰਾ ਬੈਂਕ",
        "name": "Canara Bank",
        "name:en": "Canara Bank",
        "name:hi": "केनरा बैंक",
        "name:kn": "ಕೆನರಾ ಬ್ಯಾಂಕ್",
        "name:pa": "ਕੇਨਰਾ ਬੈਂਕ",
        "name:pnb": "کینرا بینک",
        "name:ur": "کینرا بینک",
        "website": "https://www.canarabank.com/"
      }
    },
    {
      "type": "node",
      "id": 4073175528,
      "lat": 12.9916895,
      "lon": 77.5375425,
      "tags": {
        "amenity": "bank",
        "atm": "yes",
        "brand": "Central Bank of India",
        "brand:wikidata": "Q2007090",
        "brand:wikipedia": "en:Central Bank of India",
        "name": "Central Bank of India",
        "name:en": "Central Bank of India",
        "website": "https://www.centralbankofindia.co.in"
      }
    },
    {
      "type": "node",
      "id": 4073175529,
      "lat": 12.9904129,
      "lon": 77.535888,
      "tags": {
        "name": "KMF - Nandini Milk Parlour",
        "shop": "dairy"
      }
    },
    {
      "type": "node",
      "id": 4073230950,
      "lat": 12.9917285,
      "lon": 77.5386255,
      "tags": {
        "name": "Tata Docomo Customer Servie",
        "shop": "customer_service"
      }
    },
    {
      "type": "node",
      "id": 4087635780,
      "lat": 12.9879478,
      "lon": 77.5361198,
      "tags": {
        "name": "Annapoorneshwari Hot Chips",
        "shop": "confectionery"
      }
    },
    {
      "type": "node",
      "id": 4087635781,
      "lat": 12.9866737,
      "lon": 77.5408083,
      "tags": {
        "amenity": "fast_food",
        "name": "Bansuri"
      }
    },
    {
      "type": "node",
      "id": 4087635782,
      "lat": 12.9878328,
      "lon": 77.5376138,
      "tags": {
        "name": "Gundappa Bakery",
        "shop": "bakery"
      }
    },
    {
      "type": "node",
      "id": 4087635783,
      "lat": 12.9884235,
      "lon": 77.5352159,
      "tags": {
        "amenity": "fast_food",
        "name": "Mahadeshwara Chats"
      }
    },
    {
      "type": "node",
      "id": 4087675581,
      "lat": 12.9902817,
      "lon": 77.5378602,
      "tags": {
        "amenity": "restaurant",
        "cuisine": "regional",
        "name": "Priyadarshini Grand",
        "smoking": "no",
        "takeaway": "yes"
      }
    },
    {
      "type": "node",
      "id": 4134992091,
      "lat": 12.9869198,
      "lon": 77.532286,
      "tags": {
        "amenity": "clinic"
      }
    },
    {
      "type": "node",
      "id": 4226905471,
      "lat": 12.9887296,
      "lon": 77.5319585,
      "tags": {
        "name": "Skanda",
        "shop": "clothes"
      }
    },
    {
      "type": "node",
      "id": 4226932018,
      "lat": 12.9868514,
      "lon": 77.5327927,
      "tags": {
        "name": "Mamta Provision store",
        "shop": "convenience"
      }
    },
    {
      "type": "node",
      "id": 4402345272,
      "lat": 12.9898833,
      "lon": 77.5374156,
      "tags": {
        "amenity": "pharmacy",
        "name": "Sudarshan Medicals"
      }
    },
    {
      "type": "node",
      "id": 4444302998,
      "lat": 12.9862573,
      "lon": 77.5403259,
      "tags": {
        "addr:city": "Bengaluru",
        "addr:housenumber": "12",
        "addr:postcode": "560079",
        "addr:street": "4th Stage, 3rd Block,Basaveshwara Nagar,",
        "amenity": "restaurant",
        "cuisine": "chinese",
        "name": "Cave n Dine",
        "opening_hours": "11:00 to 16:00 , 180:30  to 23:30",
        "phone": "080 23102051",
        "website": "https://cavendine.com/"
      }
    },
    {
      "type": "node",
      "id": 4445878633,
      "lat": 12.9881757,
      "lon": 77.5413711,
      "tags": {
        "addr:city": "Banglore",
        "addr:housenumber": "1",
        "addr:postcode": "560079",
        "addr:street": "Shamavana, 4th B Main, III Block, Basaveshwaranagar",
        "amenity": "school",
        "name": "Sri Vani Education Centre",
        "phone": "+9180 2323 8608",
        "website": "https://srivani.org/"
      }
    },
    {
      "type": "node",
      "id": 4446337629,
      "lat": 12.9864094,
      "lon": 77.5405663,
      "tags": {
        "addr:city": "Bangalore",
        "addr:housenumber": "14",
        "addr:postcode": "560079",
        "addr:street": "4th Stage, 3rd Block,Basaveshwara Naga",
        "amenity": "restaurant",
        "cuisine": "regional",
        "name": "Cave N Dine",
        "opening_hours": "11:00-16:00,18:30-23:30",
        "phone": "080 23102051",
        "website": "https://cavendine.com/"
      }
    },
    {
      "type": "node",
      "id": 4446489376,
      "lat": 12.9787404,
      "lon": 77.5405545,
      "tags": {
        "addr:city": "bangalore",
        "addr:housenumber": "30",
        "addr:postcode": "560040",
        "addr:street": "1st Floor, SV Complex, Near Raheja Apartments, Magadi Road",
        "amenity": "restaurant",
        "cuisine": "regional",
        "name": "The square plate",
        "opening_hours": "11:30-15:30,18:30-23:00",
        "phone": "+91 9742201125"
      }
    },
    {
      "type": "node",
      "id": 4446517434,
      "lat": 12.9757428,
      "lon": 77.5335935,
      "tags": {
        "addr:city": "Bangalore",
        "addr:housenumber": "4",
        "addr:postcode": "560040",
        "addr:street": "Prashanth Nagar Main Road,Vijay Nagar,",
        "amenity": "restaurant",
        "cuisine": "regional",
        "name": "Spoorthy dosa point",
        "opening_hours": "07:30-12:00,16:00-23:00",
        "phone": "+91 9632143413"
      }
    },
    {
      "type": "node",
      "id": 4446983284,
      "lat": 12.9853927,
      "lon": 77.5383552,
      "tags": {
        "addr:city": "Bangalore",
        "addr:housenumber": "723/B",
        "addr:postcode": "560010",
        "addr:street": "11th Main Rd, 3rd Block, Rajaji Nagar",
        "amenity": "pharmacy",
        "name": "Dr. Suresh's Dia Care",
        "phone": "+91 80 2338 2867",
        "source": "www.justdial.com",
        "website": "drsureshdiacare.com"
      }
    },
    {
      "type": "node",
      "id": 4446985998,
      "lat": 12.9857599,
      "lon": 77.5386584,
      "tags": {
        "amenity": "pharmacy"
      }
    },
    {
      "type": "node",
      "id": 4446985999,
      "lat": 12.9851133,
      "lon": 77.5390188,
      "tags": {
        "addr:city": "Bangalore",
        "addr:housenumber": "403",
        "addr:postcode": "560010",
        "addr:street": "Dr. Rajkumar Road, 6th Block, 80 Feet Rd, 4th Block, Ramchandrapuram",
        "amenity": "pharmacy",
        "name": "Amrutha Medicals",
        "name:kn": "ಅಮೃತ ಮೆಡಿಕಲ್ಸ್",
        "phone": "+91 80 2311 7929",
        "source": "www.justdial.com"
      }
    },
    {
      "type": "node",
      "id": 4447076167,
      "lat": 12.9787049,
      "lon": 77.5403581,
      "tags": {
        "addr:housenumber": "30/2",
        "addr:street": "S V Complex Magadi Main Vijaynagar, Magadi Road",
        "amenity": "hospital",
        "name": "V Care Medical Systems P Ltd",
        "phone": "+918023110651"
      }
    },
    {
      "type": "node",
      "id": 4447521452,
      "lat": 12.9816064,
      "lon": 77.5346671,
      "tags": {
        "addr:city": "Bangalore",
        "addr:postcode": "560079",
        "addr:street": "4th Main Rd, KHB Colony, Basaveshwar Nagar,",
        "amenity": "school",
        "name": "Traffic Police Station",
        "name:kn": "ಸಂಚಾರ ಪೊಲೀಸ್ ಠಾಣೆ",
        "phone": "NA",
        "website": "NA"
      }
    },
    {
      "type": "node",
      "id": 4447535055,
      "lat": 12.9879713,
      "lon": 77.5402233,
      "tags": {
        "addr:city": "Banglore",
        "addr:postcode": "560079",
        "addr:street": "4th Main Rd, KHB Colony, Basaveshwar Nagar,",
        "amenity": "school",
        "name": "Traffic Police Station Kamakshipalya",
        "name:kn": "ಕಾಮಾಕ್ಷಿಪಾಳ್ಯ ಸಂಚಾರ ಪೊಲೀಸ್ ಠಾಣೆ",
        "phone": "NA",
        "website": "NA"
      }
    },
    {
      "type": "node",
      "id": 4488432291,
      "lat": 12.9925827,
      "lon": 77.5372971,
      "tags": {
        "addr:city": "Bangalore",
        "addr:housenumber": "354/355",
        "addr:postcode": "560079",
        "addr:street": "Kamla Nehru Nagar Main Road, West of Court Road, 4th Stage, 8th Main, 4th Block, Near Dominos,, Bhadrappa Layout, Basaveshwar Nagar",
        "branch": "Better Value Fitness Ltd",
        "brand": "Talkwalkars",
        "brand:wikidata": "Q7680402",
        "leisure": "fitness_centre",
        "name": "Talwalkars",
        "opening_hours": "5:30-22:00",
        "phone": "080 4206 0686",
        "sport": "gymnastics"
      }
    },
    {
      "type": "node",
      "id": 4488494322,
      "lat": 12.9888729,
      "lon": 77.536874,
      "tags": {
        "addr:city": "Bangalore",
        "addr:housenumber": "18",
        "addr:postcode": "560079",
        "addr:street": "1st Main Basaveshwaranagar",
        "name": "Touch Spa & Salons",
        "opening_hours": "10:00-19:030",
        "phone": "080 2335 9620",
        "shop": "beauty",
        "website": "miracletouch.in"
      }
    },
    {
      "type": "node",
      "id": 4489394989,
      "lat": 12.9865408,
      "lon": 77.5371426,
      "tags": {
        "addr:city": "Bangalore",
        "addr:postcode": "560079",
        "addr:street": "Shree Complex, 80 Feet Road, Basaveshwara Nagar, Basaveshwara Nagar, Bhadrappa Layout, 3rd Stage, Basaveshwar Nagar",
        "name": "Champion Sports",
        "opening_hours": "10:00-21:30",
        "phone": "98443 12148",
        "shop": "sports"
      }
    },
    {
      "type": "node",
      "id": 4489804408,
      "lat": 12.9883892,
      "lon": 77.5367931,
      "tags": {
        "addr:city": "Bangalore",
        "addr:housenumber": "No.173/A",
        "addr:postcode": "560050",
        "addr:street": "50 Feet Road,2nd Block Hanumanth Nagar, Banashankari 1st Stage",
        "name": "Yemkay Supermarket",
        "phone": "80-33518340",
        "shop": "supermarket"
      }
    },
    {
      "type": "node",
      "id": 4489873401,
      "lat": 12.9874641,
      "lon": 77.5385407,
      "tags": {
        "addr:city": "Bengaluru",
        "addr:housenumber": "20/3",
        "addr:postcode": "560079",
        "addr:street": ", Kaushik Plaza, 80 Feet Road, 2nd Stage, Khb Colony, Near-Sony Show Room, Basaveshwara Nagar, 2nd Stage, KHB Colony, Basaveshwar Nagar, Bengaluru, Karnataka",
        "leisure": "sports_centre",
        "name": "Celebrities Fitness Slimming Studio",
        "opening_hours": "5:00-22:00",
        "phone": "\"096321 55362 \""
      }
    },
    {
      "type": "node",
      "id": 4490309089,
      "lat": 12.9774951,
      "lon": 77.5309619,
      "tags": {
        "addr:city": "Bangalore",
        "addr:housenumber": "No.1",
        "addr:postcode": "560040",
        "addr:street": "Amarjyothi Nagar,6th Cross, Vijayanagar",
        "name": "Miracle Touch",
        "opening_hours": "10:00-19:00",
        "phone": "91)-80-33722582",
        "shop": "beauty"
      }
    },
    {
      "type": "node",
      "id": 4490315583,
      "lat": 12.9920853,
      "lon": 77.5375849,
      "tags": {
        "addr:city": "Bangalore",
        "addr:housenumber": "No,461/A,",
        "addr:postcode": "560079",
        "addr:street": "Basaveshvanagar Main Road, Basaveshwara Nagar,",
        "name": "Shobas Herbal Beauty Parlour",
        "opening_hours": "10:00-20:00",
        "phone": "91)-80-33761193",
        "shop": "beauty"
      }
    },
    {
      "type": "node",
      "id": 4490340281,
      "lat": 12.9841382,
      "lon": 77.5289161,
      "tags": {
        "addr:city": "Bangalore",
        "addr:postcode": "560064",
        "addr:street": "Allasandra main road , Yelahanka,Near janapriya havernce",
        "name": "R R Provision Store",
        "phone": "(91)-8453897174",
        "shop": "supermarket"
      }
    },
    {
      "type": "node",
      "id": 4518518892,
      "lat": 12.982076,
      "lon": 77.5313241,
      "tags": {
        "addr:street": "Magadi Road",
        "amenity": "bank",
        "brand": "State Bank of India",
        "brand:wikidata": "Q1340361",
        "brand:wikipedia": "en:State Bank of India",
        "name": "State Bank of India",
        "name:en": "State bank of India",
        "name:kn": "ಭಾರತೀಯ ಸ್ಟೇಟ್ ಬ್ಯಾಂಕ್",
        "short_name": "SBI"
      }
    },
    {
      "type": "node",
      "id": 4519860791,
      "lat": 12.9811444,
      "lon": 77.5350546,
      "tags": {
        "addr:street": "Magadi Road",
        "amenity": "bank",
        "brand": "IDBI Bank",
        "brand:wikidata": "Q3633485",
        "brand:wikipedia": "en:IDBI Bank",
        "name": "IDBI Bank",
        "name:en": "IDBI Bank",
        "name:kn": "ಐಡಿಬಿಐ ಬ್ಯಾಂಕ್",
        "old_name": "Industrial Development Bank of India",
        "short_name": "IDBI",
        "website": "https://www.idbi.com"
      }
    },
    {
      "type": "node",
      "id": 4558046689,
      "lat": 12.9842792,
      "lon": 77.5282764,
      "tags": {
        "amenity": "atm",
        "operator": "Axis Bank"
      }
    },
    {
      "type": "node",
      "id": 4577564293,
      "lat": 12.9921093,
      "lon": 77.5380224,
      "tags": {
        "amenity": "doctors",
        "name": "Shastra",
        "name:en": "Shastra"
      }
    },
    {
      "type": "node",
      "id": 5086281341,
      "lat": 12.9868452,
      "lon": 77.5403901,
      "tags": {
        "name": "Soumya Medicals",
        "shop": "medical_supply"
      }
    },
    {
      "type": "node",
      "id": 5846720763,
      "lat": 12.9918166,
      "lon": 77.5375888,
      "tags": {
        "amenity": "bank",
        "atm": "yes",
        "brand": "Allahabad Bank",
        "brand:wikidata": "Q2018840",
        "name": "Allahabad Bank",
        "name:kn": "ಅಲ್ಲಹಾಬಾದ್ ಬ್ಯಾಂಕ್"
      }
    },
    {
      "type": "node",
      "id": 5846733389,
      "lat": 12.9880976,
      "lon": 77.5376599,
      "tags": {
        "name": "Pavithra Paradise",
        "payment:coins": "yes",
        "payment:debit_cards": "yes",
        "payment:notes": "yes",
        "shop": "bakery"
      }
    },
    {
      "type": "node",
      "id": 6093573541,
      "lat": 12.9883671,
      "lon": 77.5356916,
      "tags": {
        "amenity": "pharmacy",
        "name": "Moulya Medicals"
      }
    },
    {
      "type": "node",
      "id": 6938540502,
      "lat": 12.9829857,
      "lon": 77.5309655,
      "tags": {
        "addr:district": "Bengaluru Urban",
        "addr:full": "No. 2/3, 5Th Main Shiva Complex, Kamakshipalya, Nagadimain Road , Opp Vishal Theatre",
        "addr:postcode": "560043",
        "addr:state": "Karnataka",
        "amenity": "hospital",
        "name": "Shreyas Hospital, Bengaluru Urban",
        "source": "OpenGovernmentData"
      }
    },
    {
      "type": "node",
      "id": 6938777957,
      "lat": 12.9817311,
      "lon": 77.5333714,
      "tags": {
        "addr:district": "Bengaluru Urban",
        "addr:full": "67/1, H V R Complex Magadi Main Road Kanakapura",
        "addr:postcode": "560079",
        "addr:state": "Karnataka",
        "amenity": "hospital",
        "name": "Padmavathi Hospital, Bengaluru Urban",
        "source": "OpenGovernmentData"
      }
    },
    {
      "type": "node",
      "id": 6939656823,
      "lat": 12.9879829,
      "lon": 77.5366303,
      "tags": {
        "addr:district": "Bengaluru Urban",
        "addr:full": "No.9 Shree Complex. 1st Floor Mig. Khb Colony Near Pavithraparadise Basaveshwaranagar",
        "addr:postcode": "560079",
        "addr:state": "Karnataka",
        "amenity": "dentist",
        "name": "Shreesha Dental Clinic",
        "source": "OpenGovernmentData"
      }
    },
    {
      "type": "node",
      "id": 6947707895,
      "lat": 12.9862161,
      "lon": 77.5374853,
      "tags": {
        "addr:district": "Bengaluru Urban",
        "addr:full": "# 52 /10 80 Ft Road, Khb Colony Basaveshwaranagar",
        "addr:postcode": "560079",
        "addr:state": "Karnataka",
        "amenity": "hospital",
        "email": "support@punyahospitals.com",
        "healthcare": "hospital",
        "name": "Punya Hospital, Bengaluru Urban",
        "operator:type": "private",
        "source": "OpenGovernmentData",
        "website": "https://punyahospitals.com/"
      }
    },
    {
      "type": "node",
      "id": 6947707901,
      "lat": 12.9895981,
      "lon": 77.5388995,
      "tags": {
        "addr:district": "Bengaluru Urban",
        "addr:full": "425/A, 6Th Main Road 3Road Stage, 3Road Block Basaveshwara Nagar",
        "addr:postcode": "560079",
        "addr:state": "Karnataka",
        "amenity": "clinic",
        "name": "Matru Nursing Home And Trauma Care Centre",
        "source": "OpenGovernmentData"
      }
    },
    {
      "type": "node",
      "id": 7112539085,
      "lat": 12.9761897,
      "lon": 77.5331156,
      "tags": {
        "amenity": "restaurant",
        "name": "Samudra"
      }
    },
    {
      "type": "node",
      "id": 7112539185,
      "lat": 12.9758225,
      "lon": 77.5331488,
      "tags": {
        "amenity": "ice_cream",
        "name": "Pooja Ice creams"
      }
    },
    {
      "type": "node",
      "id": 7211891285,
      "lat": 12.9759377,
      "lon": 77.5314973,
      "tags": {
        "amenity": "pharmacy",
        "name": "Khushal Medicals"
      }
    },
    {
      "type": "node",
      "id": 7572526686,
      "lat": 12.975501,
      "lon": 77.534972,
      "tags": {
        "addr:district": "Bengaluru Urban",
        "addr:full": "Govindarajanagar, Bengaluru",
        "addr:postcode": "560040",
        "addr:state": "Karnataka",
        "amenity": "hospital",
        "name": "Kamadhenu Hospital",
        "source": "Local Knowledge"
      }
    },
    {
      "type": "node",
      "id": 7572526691,
      "lat": 12.9764141,
      "lon": 77.5302028,
      "tags": {
        "addr:district": "Bengaluru Urban",
        "addr:full": "Govindaraja Nagar Ward, Govindarajanagar, Vijayanagar, Bengaluru",
        "addr:postcode": "560079",
        "addr:state": "Karnataka",
        "amenity": "clinic",
        "name": "Nidevs Child Care",
        "source": "Local Knowledge"
      }
    },
    {
      "type": "node",
      "id": 7572526693,
      "lat": 12.9835824,
      "lon": 77.5289448,
      "tags": {
        "addr:district": "Bengaluru Urban",
        "addr:full": "Govindaraja Nagar Ward, Priyadarshini Layout, Kamakshipalya, Bengaluru",
        "addr:postcode": "560079",
        "addr:state": "Karnataka",
        "amenity": "hospital",
        "name": "Benaka Hospital",
        "source": "Local Knowledge"
      }
    },
    {
      "type": "node",
      "id": 7572526778,
      "lat": 12.9771657,
      "lon": 77.5381764,
      "tags": {
        "addr:district": "Bengaluru Urban",
        "addr:full": "Vijayanagar, Govindaraja Nagar Ward, J P Nagar",
        "addr:postcode": "560040",
        "addr:state": "Karnataka",
        "amenity": "dentist",
        "name": "Chinmaya Dental Clinic",
        "source": "Local Knowledge"
      }
    },
    {
      "type": "node",
      "id": 9063447833,
      "lat": 12.9870447,
      "lon": 77.5422372,
      "tags": {
        "amenity": "cafe",
        "name": "Rasayana coffee bar"
      }
    },
    {
      "type": "node",
      "id": 9161008239,
      "lat": 12.9824636,
      "lon": 77.5375074,
      "tags": {
        "name": "Daily Needs Exim Pvt. Ltd.",
        "office": "company",
        "shop": "convenience"
      }
    },
    {
      "type": "node",
      "id": 9161008291,
      "lat": 12.9820356,
      "lon": 77.5373867,
      "tags": {
        "amenity": "bank",
        "atm": "yes",
        "brand": "Union Bank of India",
        "brand:wikidata": "Q2004078",
        "name": "Union Bank of India",
        "name:kn": "ಯೂನಿಯನ್ ಬ್ಯಾಂಕ್"
      }
    },
    {
      "type": "node",
      "id": 9161008304,
      "lat": 12.987796,
      "lon": 77.537777,
      "tags": {
        "brand": "cult.fit",
        "brand:wikidata": "Q121289250",
        "leisure": "fitness_centre",
        "name": "cult.fit",
        "operator": "cult.fit"
      }
    },
    {
      "type": "node",
      "id": 9163088408,
      "lat": 12.9873836,
      "lon": 77.5386851,
      "tags": {
        "amenity": "language_school",
        "email": "enquiry@sayuri.co.in",
        "name": "Sayuri",
        "phone": "+91 99 006 31710",
        "website": "https://sayuri.co.in/"
      }
    },
    {
      "type": "node",
      "id": 9911735811,
      "lat": 12.9918233,
      "lon": 77.5377992,
      "tags": {
        "addr:city": "Bangalore",
        "addr:country": "IN",
        "addr:housenumber": "353",
        "addr:postcode": "560079",
        "addr:street": "8th Main Road",
        "addr:suburb": "Basaveshwarnagar",
        "board_games": "yes",
        "contact:instagram": "boardgamesbazaar",
        "email": "hello@boardgamesbazaar.com",
        "name": "Board Games Bazaar",
        "shop": "games",
        "website": "https://boardgamesbazaar.com"
      }
    },
    {
      "type": "node",
      "id": 10749106801,
      "lat": 12.9882809,
      "lon": 77.5345825,
      "tags": {
        "name": "Uttara Karnataka Jolada Rotti Mane",
        "shop": "bakery"
      }
    },
    {
      "type": "node",
      "id": 10749106802,
      "lat": 12.9884873,
      "lon": 77.5348037,
      "tags": {
        "name": "Skanda Fashions",
        "shop": "clothes"
      }
    },
    {
      "type": "node",
      "id": 10749106803,
      "lat": 12.9878235,
      "lon": 77.5368583,
      "tags": {
        "name": "Iyengar Bakery",
        "name:kn": "ಐಯ್ಯಂಗಾರ್ ಬೇಕರಿ",
        "shop": "bakery"
      }
    },
    {
      "type": "node",
      "id": 10749106804,
      "lat": 12.9878575,
      "lon": 77.5372781,
      "tags": {
        "name": "SM Silks",
        "shop": "clothes"
      }
    },
    {
      "type": "node",
      "id": 10749130205,
      "lat": 12.988439,
      "lon": 77.534555,
      "tags": {
        "amenity": "fast_food",
        "name": "Kaati Rolls"
      }
    },
    {
      "type": "node",
      "id": 10749130206,
      "lat": 12.9884468,
      "lon": 77.5346227,
      "tags": {
        "amenity": "restaurant",
        "cuisine": "multicuisine",
        "name": "Sirimane"
      }
    },
    {
      "type": "node",
      "id": 11117270549,
      "lat": 12.9899954,
      "lon": 77.5372124,
      "tags": {
        "amenity": "cafe",
        "name": "Glen's Bakehouse",
        "shop": "bakery"
      }
    },
    {
      "type": "node",
      "id": 11388846369,
      "lat": 12.9819185,
      "lon": 77.5323018,
      "tags": {
        "addr:housenumber": "16/1",
        "addr:postcode": "560079",
        "addr:street": "Magadi Road",
        "name": "Anant Bajaj",
        "opening_hours": "Mo-Sa 09:00-20:00; Su 09:00-18:00",
        "shop": "motorcycle",
        "website": "https://www.bajajauto.com/"
      }
    },
    {
      "type": "node",
      "id": 11697222023,
      "lat": 12.9781138,
      "lon": 77.5355749,
      "tags": {
        "amenity": "shelter",
        "shelter_type": "gazebo"
      }
    },
    {
      "type": "node",
      "id": 11697222024,
      "lat": 12.9763629,
      "lon": 77.5350264,
      "tags": {
        "amenity": "shelter",
        "shelter_type": "gazebo"
      }
    },
    {
      "type": "node",
      "id": 11906537349,
      "lat": 12.9883959,
      "lon": 77.5358123,
      "tags": {
        "amenity": "atm",
        "brand": "Karnataka Bank",
        "brand:wikidata": "Q2042632",
        "fee": "Karnataka Bank ATM",
        "operator": "Karnataka Bank",
        "operator:wikidata": "Q2042632"
      }
    },
    {
      "type": "node",
      "id": 11913334196,
      "lat": 12.9867896,
      "lon": 77.5423336,
      "tags": {
        "check_date": "2024-05-17",
        "name": "GK Vale",
        "shop": "photo"
      }
    },
    {
      "type": "node",
      "id": 11913334295,
      "lat": 12.9867617,
      "lon": 77.542063,
      "tags": {
        "check_date": "2024-05-17",
        "name": "Ganesh Green Tea",
        "shop": "tea"
      }
    },
    {
      "type": "node",
      "id": 11913334987,
      "lat": 12.9865586,
      "lon": 77.5422486,
      "tags": {
        "check_date": "2024-05-17",
        "name": "Usha Shringar",
        "shop": "beauty"
      }
    },
    {
      "type": "node",
      "id": 11917795792,
      "lat": 12.9864809,
      "lon": 77.5422287,
      "tags": {
        "check_date": "2024-05-17",
        "name": "Cheveux",
        "shop": "hairdresser"
      }
    },
    {
      "type": "node",
      "id": 11917795793,
      "lat": 12.9865869,
      "lon": 77.5422792,
      "tags": {
        "check_date": "2024-05-17",
        "name": "Nithya Garments",
        "shop": "clothes"
      }
    },
    {
      "type": "node",
      "id": 12438122540,
      "lat": 12.9756471,
      "lon": 77.5360648,
      "tags": {
        "check_date": "2024-12-21",
        "name": "Odeon - Men's Beauty Salon",
        "shop": "beauty"
      }
    },
    {
      "type": "node",
      "id": 12438122541,
      "lat": 12.9756434,
      "lon": 77.5361674,
      "tags": {
        "amenity": "clinic",
        "check_date": "2024-12-21",
        "healthcare": "clinic",
        "name": "Ashirvad Clinic"
      }
    },
    {
      "type": "node",
      "id": 12438165401,
      "lat": 12.9757309,
      "lon": 77.5362061,
      "tags": {
        "check_date": "2024-12-21",
        "name": "Suma Provision Store",
        "shop": "convenience"
      }
    },
    {
      "type": "node",
      "id": 12438165801,
      "lat": 12.9756888,
      "lon": 77.5358028,
      "tags": {
        "amenity": "place_of_worship",
        "check_date": "2024-12-21",
        "name": "Poojamma Temple",
        "religion": "hindu"
      }
    },
    {
      "type": "node",
      "id": 12438168002,
      "lat": 12.9756929,
      "lon": 77.5358082,
      "tags": {
        "amenity": "clinic",
        "check_date": "2024-12-21",
        "healthcare": "clinic",
        "name": "Chaitanya Clinic"
      }
    },
    {
      "type": "node",
      "id": 12438175329,
      "lat": 12.9756469,
      "lon": 77.5358203,
      "tags": {
        "amenity": "pharmacy",
        "check_date": "2024-12-21",
        "healthcare": "pharmacy",
        "name": "Sri Ranga Medicals",
        "phone": "+91 99160 50298"
      }
    },
    {
      "type": "node",
      "id": 12438175331,
      "lat": 12.9756571,
      "lon": 77.5357438,
      "tags": {
        "check_date": "2024-12-21",
        "name": "Vijaylakshmi Boutique",
        "phone": "+91 99867 65749",
        "shop": "fashion_accessories"
      }
    },
    {
      "type": "node",
      "id": 12438175332,
      "lat": 12.9756693,
      "lon": 77.5355314,
      "tags": {
        "check_date": "2024-12-21",
        "name": "Surya Iyengar's Bakery",
        "shop": "bakery"
      }
    },
    {
      "type": "node",
      "id": 12441867970,
      "lat": 12.9916231,
      "lon": 77.5385334,
      "tags": {
        "access": "yes",
        "amenity": "toilets",
        "fee": "yes"
      }
    },
    {
      "type": "node",
      "id": 12519602641,
      "lat": 12.9880795,
      "lon": 77.5355606,
      "tags": {
        "addr:city": "Bengaluru",
        "addr:postcode": "560079",
        "addr:street": "Stage 1, KHB Colony, Basaveshwar Nagar",
        "brand": "More",
        "brand:wikidata": "Q6910891",
        "name": "More",
        "shop": "supermarket"
      }
    },
    {
      "type": "node",
      "id": 12520580167,
      "lat": 12.9881733,
      "lon": 77.5370466,
      "tags": {
        "alt_name": "KPN Super Market",
        "name": "Carry Fresh home",
        "shop": "supermarket"
      }
    },
    {
      "type": "way",
      "id": 133442471,
      "center": {
        "lat": 12.9840941,
        "lon": 77.5439081
      },
      "tags": {
        "leisure": "sports_centre",
        "name": "Ambedkar Ground",
        "name:kn": "ಅಂಬೇಡ್ಕರ್ ಮೈದಾನ",
        "wheelchair": "limited"
      }
    },
    {
      "type": "way",
      "id": 133756163,
      "center": {
        "lat": 12.9897894,
        "lon": 77.535985
      },
      "tags": {
        "leisure": "park",
        "name": "Sir M Vishweshwaraya Park (Monkey Park)",
        "name:etymology:wikidata": "Q741700",
        "name:kn": "ವಿಶ್ವೇಶ್ವರಯ್ಯ ಉದ್ಯಾನವನ"
      }
    },
    {
      "type": "way",
      "id": 133756195,
      "center": {
        "lat": 12.9911963,
        "lon": 77.5341081
      },
      "tags": {
        "leisure": "park",
        "name": "SBI officers colony park"
      }
    },
    {
      "type": "way",
      "id": 138449004,
      "center": {
        "lat": 12.9782911,
        "lon": 77.5278275
      },
      "tags": {
        "leisure": "park",
        "name": "Balalayanna Kere Park",
        "name:kn": "ಬಾಳಯ್ಯನ ಕೆರೆ ಉದ್ಯಾನ"
      }
    },
    {
      "type": "way",
      "id": 141375009,
      "center": {
        "lat": 12.9884535,
        "lon": 77.5336645
      },
      "tags": {
        "addr:postcode": "560079",
        "alt_name": "Sharadha Colony",
        "amenity": "bus_station",
        "designation": "Sharadha Colony",
        "name": "Sharada Colony Bus Depot",
        "name:kn": "ಬಸ್ ನಿಲ್ದಾಣ ಬಸವೇಶ್ವರನಗರ"
      }
    },
    {
      "type": "way",
      "id": 141508010,
      "center": {
        "lat": 12.9931166,
        "lon": 77.5319509
      },
      "tags": {
        "leisure": "park"
      }
    },
    {
      "type": "way",
      "id": 141508066,
      "center": {
        "lat": 12.9921312,
        "lon": 77.5294014
      },
      "tags": {
        "leisure": "park"
      }
    },
    {
      "type": "way",
      "id": 169718925,
      "center": {
        "lat": 12.9802501,
        "lon": 77.5310515
      },
      "tags": {
        "amenity": "place_of_worship",
        "name": "Sai Baba Mandir",
        "name:kn": "ಸಾಯಿಬಾಬಾ ಮಂದಿರ"
      }
    },
    {
      "type": "way",
      "id": 169718941,
      "center": {
        "lat": 12.9771539,
        "lon": 77.5301802
      },
      "tags": {
        "leisure": "park"
      }
    },
    {
      "type": "way",
      "id": 169718945,
      "center": {
        "lat": 12.9782267,
        "lon": 77.5356299
      },
      "tags": {
        "leisure": "park"
      }
    },
    {
      "type": "way",
      "id": 169718954,
      "center": {
        "lat": 12.9781827,
        "lon": 77.5307531
      },
      "tags": {
        "leisure": "park"
      }
    },
    {
      "type": "way",
      "id": 169718956,
      "center": {
        "lat": 12.9784056,
        "lon": 77.5310575
      },
      "tags": {
        "addr:city": "Bengaluru",
        "addr:postcode": "560079",
        "addr:street": "8th Cross,Near 2nd Main, 3rd Main Rd, Prashant Nagar, Vijayanagar",
        "amenity": "place_of_worship",
        "building": "yes",
        "name": "Shri Prashantha Ganapathi Temple",
        "religion": "hindu"
      }
    },
    {
      "type": "way",
      "id": 169719304,
      "center": {
        "lat": 12.983033,
        "lon": 77.5376807
      },
      "tags": {
        "amenity": "college",
        "name": "Government Homeopathy College & Hospital"
      }
    },
    {
      "type": "way",
      "id": 169801514,
      "center": {
        "lat": 12.9803798,
        "lon": 77.5390159
      },
      "tags": {
        "addr:district": "Bengaluru Urban",
        "addr:full": "#11/2, Magadi Main Road ,Agrahara , Dasarahalli,Next To Raheja Park",
        "addr:postcode": "560079",
        "addr:state": "Karnataka",
        "amenity": "hospital",
        "emergency": "yes",
        "name": "Sarvodaya Hospital",
        "name:kn": "ಸರ್ವೋದಯ ಆಸ್ಪತ್ರೆ",
        "source": "OpenGovernmentData"
      }
    },
    {
      "type": "way",
      "id": 169801559,
      "center": {
        "lat": 12.9819702,
        "lon": 77.5379822
      },
      "tags": {
        "leisure": "park"
      }
    },
    {
      "type": "way",
      "id": 219384062,
      "center": {
        "lat": 12.9929068,
        "lon": 77.5330173
      },
      "tags": {
        "amenity": "place_of_worship",
        "name": "Huttada Venkataramana Temple",
        "name:kn": "ಹುತ್ತದ ವೆಂಕಟರಮಣ ಸ್ವಾಮಿ ದೇವಸ್ಥಾನ",
        "religion": "hindu"
      }
    },
    {
      "type": "way",
      "id": 255543238,
      "center": {
        "lat": 12.9863176,
        "lon": 77.5384952
      },
      "tags": {
        "leisure": "park"
      }
    },
    {
      "type": "way",
      "id": 349836590,
      "center": {
        "lat": 12.9799802,
        "lon": 77.5369515
      },
      "tags": {
        "amenity": "bank",
        "name": "Bharath Co-operative Bank"
      }
    },
    {
      "type": "way",
      "id": 354557129,
      "center": {
        "lat": 12.9914025,
        "lon": 77.5357164
      },
      "tags": {
        "addr:city": "Bangalore",
        "addr:postcode": "560079",
        "addr:street": "6 main Basaveshwarnagar",
        "amenity": "school",
        "building": "school",
        "name": "VLS International School"
      }
    },
    {
      "type": "way",
      "id": 354557501,
      "center": {
        "lat": 12.9898665,
        "lon": 77.5377091
      },
      "tags": {
        "amenity": "bank",
        "brand": "Bank of India",
        "brand:wikidata": "Q2004439",
        "brand:wikipedia": "en:Bank of India",
        "building": "yes",
        "name": "Bank of India",
        "name:en": "Bank of India",
        "name:kn": "ಬ್ಯಾಂಕ್ ಅಫ್ ಇಂಡಿಯ",
        "short_name": "BoI",
        "website": "http://www.bankofindia.co.in"
      }
    },
    {
      "type": "way",
      "id": 354557584,
      "center": {
        "lat": 12.9916248,
        "lon": 77.5374776
      },
      "tags": {
        "amenity": "bank",
        "atm": "yes",
        "brand": "Central Bank of India",
        "brand:wikidata": "Q2007090",
        "brand:wikipedia": "en:Central Bank of India",
        "building": "yes",
        "name": "Central Bank of India",
        "name:en": "Central Bank of India",
        "name:kn": "ಸೆಂಟ್ರಲ್ ಬ್ಯಾಂಕ್",
        "website": "https://www.centralbankofindia.co.in"
      }
    },
    {
      "type": "way",
      "id": 354557914,
      "center": {
        "lat": 12.9883622,
        "lon": 77.5343261
      },
      "tags": {
        "amenity": "hospital",
        "building": "yes",
        "name": "Gopala Eye Care Centre"
      }
    },
    {
      "type": "way",
      "id": 354557995,
      "center": {
        "lat": 12.9885435,
        "lon": 77.5344927
      },
      "tags": {
        "amenity": "bank",
        "brand": "State Bank of India",
        "brand:wikidata": "Q1340361",
        "brand:wikipedia": "en:State Bank of India",
        "name": "State Bank of India",
        "name:kn": "ಭಾರತೀಯ ಸ್ಟೇಟ್ ಬ್ಯಾಂಕ್",
        "short_name": "SBI",
        "website": "https://www.sbi.co.in"
      }
    },
    {
      "type": "way",
      "id": 363070951,
      "center": {
        "lat": 12.9775542,
        "lon": 77.5297934
      },
      "tags": {
        "leisure": "park"
      }
    },
    {
      "type": "way",
      "id": 363145084,
      "center": {
        "lat": 12.9845464,
        "lon": 77.541172
      },
      "tags": {
        "leisure": "park",
        "name": "Basava Park",
        "name:kn": "ಬಸವ ಉದ್ಯಾನವನ"
      }
    },
    {
      "type": "way",
      "id": 401214561,
      "center": {
        "lat": 12.988019,
        "lon": 77.5355789
      },
      "tags": {
        "addr:city": "Bengaluru",
        "addr:postcode": "560079",
        "addr:street": "Stage 1, KHB Colony, Basaveshwar Nagar",
        "amenity": "bank",
        "atm": "yes",
        "brand": "Union Bank of India",
        "brand:wikidata": "Q2004078",
        "building": "yes",
        "name": "Union Bank of India",
        "name:kn": "ಕಾರ್ಪರೇಷನ್ ಬ್ಯಾಂಕ್"
      }
    },
    {
      "type": "way",
      "id": 404739433,
      "center": {
        "lat": 12.9902514,
        "lon": 77.5358942
      },
      "tags": {
        "addr:city": "Basaveshwaranagar, Bangalore",
        "addr:housename": "Bangalore One",
        "addr:postcode": "560079",
        "addr:street": "1st F Cross, 3rd stage, 4th block",
        "amenity": "public_building",
        "building": "yes",
        "name": "Bangalore One, Basaveshwaranagar",
        "name:kn": "ಬೆಂಗಳೂರು ಓನ್"
      }
    },
    {
      "type": "way",
      "id": 405079331,
      "center": {
        "lat": 12.9920019,
        "lon": 77.5342419
      },
      "tags": {
        "amenity": "public_building",
        "building": "yes",
        "name": "Municipal Corporation Office",
        "name:kn": "ಬೃ ಬೆಂ ಮ ಪಾ ಕಛೇರಿ"
      }
    },
    {
      "type": "way",
      "id": 405079334,
      "center": {
        "lat": 12.9910814,
        "lon": 77.5355729
      },
      "tags": {
        "amenity": "school",
        "leisure": "pitch",
        "name": "VLS International School grounds"
      }
    },
    {
      "type": "way",
      "id": 405081112,
      "center": {
        "lat": 12.9901503,
        "lon": 77.5362593
      },
      "tags": {
        "leisure": "pitch"
      }
    },
    {
      "type": "way",
      "id": 405095229,
      "center": {
        "lat": 12.9879381,
        "lon": 77.5419973
      },
      "tags": {
        "leisure": "pitch"
      }
    },
    {
      "type": "way",
      "id": 422974248,
      "center": {
        "lat": 12.9915349,
        "lon": 77.5347453
      },
      "tags": {
        "leisure": "park"
      }
    },
    {
      "type": "way",
      "id": 498155234,
      "center": {
        "lat": 12.9762522,
        "lon": 77.5383161
      },
      "tags": {
        "leisure": "park"
      }
    },
    {
      "type": "way",
      "id": 618592983,
      "center": {
        "lat": 12.9897882,
        "lon": 77.5381094
      },
      "tags": {
        "building": "yes",
        "name": "Mangala Sweets",
        "shop": "bakery"
      }
    },
    {
      "type": "way",
      "id": 649260703,
      "center": {
        "lat": 12.9879879,
        "lon": 77.5357463
      },
      "tags": {
        "alt_name": "R S Arcade",
        "amenity": "bank",
        "brand": "Karnataka Bank",
        "brand:wikidata": "Q2042632",
        "building": "commercial",
        "name": "Karnataka Bank"
      }
    },
    {
      "type": "way",
      "id": 851795158,
      "center": {
        "lat": 12.987142,
        "lon": 77.5426794
      },
      "tags": {
        "amenity": "college",
        "name": "VVS Girls College"
      }
    },
    {
      "type": "way",
      "id": 851795159,
      "center": {
        "lat": 12.9880639,
        "lon": 77.5414201
      },
      "tags": {
        "addr:city": "Banglore",
        "addr:housenumber": "1",
        "addr:postcode": "560079",
        "addr:street": "Shamavana, 4th B Main, III Block, Basaveshwaranagar",
        "amenity": "school",
        "email": "bsnr@srivani.org",
        "name": "Sri Vani Education Centre",
        "phone": "+91 80 2323 8608",
        "school:gender": "mixed",
        "website": "https://srivani.edu.in/shamavana/"
      }
    },
    {
      "type": "way",
      "id": 851795162,
      "center": {
        "lat": 12.9878783,
        "lon": 77.5419686
      },
      "tags": {
        "addr:city": "Bengaluru",
        "addr:postcode": "560079",
        "addr:street": "3rd Cross",
        "amenity": "school",
        "email": "naflblr@gmail.com",
        "name": "National Academy for Learning",
        "phone": "+91-80-23239281",
        "phone_1": "+91-80-23231567",
        "wikidata": "Q6970108"
      }
    },
    {
      "type": "way",
      "id": 991531036,
      "center": {
        "lat": 12.9830337,
        "lon": 77.5365274
      },
      "tags": {
        "addr:full": "Stage 1, KHB Colony, Basaveshwar Nagar, Bengaluru, Karnataka",
        "addr:state": "Karnataka",
        "amenity": "hospital",
        "healthcare": "hospital",
        "name": "Government Homeopathic Hospital"
      }
    },
    {
      "type": "way",
      "id": 1054822216,
      "center": {
        "lat": 12.9786839,
        "lon": 77.5278579
      },
      "tags": {
        "amenity": "shelter",
        "shelter_type": "gazebo"
      }
    },
    {
      "type": "way",
      "id": 1206776988,
      "center": {
        "lat": 12.9841866,
        "lon": 77.5398134
      },
      "tags": {
        "leisure": "park"
      }
    },
    {
      "type": "way",
      "id": 1206777030,
      "center": {
        "lat": 12.9852997,
        "lon": 77.5356728
      },
      "tags": {
        "amenity": "place_of_worship",
        "religion": "hindu"
      }
    },
    {
      "type": "way",
      "id": 1258216424,
      "center": {
        "lat": 12.9764005,
        "lon": 77.5350478
      },
      "tags": {
        "leisure": "park"
      }
    },
    {
      "type": "way",
      "id": 1339066328,
      "center": {
        "lat": 12.9788943,
        "lon": 77.5416146
      },
      "tags": {
        "amenity": "fuel"
      }
    },
    {
      "type": "way",
      "id": 1343404261,
      "center": {
        "lat": 12.9758575,
        "lon": 77.5348799
      },
      "tags": {
        "amenity": "place_of_worship",
        "landuse": "religious",
        "religion": "hindu"
      }
    },
    {
      "type": "way",
      "id": 1343404263,
      "center": {
        "lat": 12.976137,
        "lon": 77.5349584
      },
      "tags": {
        "leisure": "playground"
      }
    }
  ]
}