{
  "area_name": "Kodichikkanahalli",
  "osm_id": 7617355938,
  "osm_type": "node",
  "place_type": "neighbourhood",
  "amenity_count": 143,
  "amenities": [
    {
      "type": "node",
      "id": 746490972,
      "lat": 12.8985118,
      "lon": 77.617863,
      "tags": {
        "amenity": "place_of_worship",
        "name": "Hanuman Temple",
        "name:kn": "ಹನುಮಂತ ದೇವಸ್ಥಾನ",
        "religion": "hindu"
      }
    },
    {
      "type": "node",
      "id": 746494602,
      "lat": 12.8981899,
      "lon": 77.6181991,
      "tags": {
        "amenity": "place_of_worship",
        "name": "Shanishwara temple",
        "name:kn": "ಶನೀಶ್ವರ ದೇವಸ್ಥಾನ",
        "religion": "hindu"
      }
    },
    {
      "type": "node",
      "id": 746559493,
      "lat": 12.8986161,
      "lon": 77.6179121,
      "tags": {
        "name": "Sweet City Bakery",
        "shop": "convenience"
      }
    },
    {
      "type": "node",
      "id": 1530452299,
      "lat": 12.8948991,
      "lon": 77.6093817,
      "tags": {
        "name": "Smart Supermarket",
        "shop": "supermarket"
      }
    },
    {
      "type": "node",
      "id": 1568844529,
      "lat": 12.8926814,
      "lon": 77.6104995,
      "tags": {
        "addr:city": "bangalore",
        "addr:housenumber": "999",
        "addr:postcode": "560076",
        "addr:street": "5th Cross Road",
        "name": "Sangeetha Mobiles",
        "opening_hours": "Mo-Su 10:00-22:00",
        "phone": "07019450931",
        "shop": "mobile_phone"
      }
    },
    {
      "type": "node",
      "id": 1568845291,
      "lat": 12.8946896,
      "lon": 77.6092646,
      "tags": {
        "name": "Daily fresh supermarket",
        "shop": "supermarket"
      }
    },
    {
      "type": "node",
      "id": 1727330728,
      "lat": 12.8914338,
      "lon": 77.6080737,
      "tags": {
        "amenity": "cafe",
        "brand": "Cafe Coffee Day",
        "brand:wikidata": "Q5017235",
        "cuisine": "coffee_shop",
        "name": "Cafe Coffee Day",
        "name:kn": "ಕಫೆ ಕಾಫಿ ಡೇ",
        "takeaway": "yes"
      }
    },
    {
      "type": "node",
      "id": 1752304494,
      "lat": 12.9054349,
      "lon": 77.612819,
      "tags": {
        "access": "yes",
        "amenity": "parking",
        "parking": "surface"
      }
    },
    {
      "type": "node",
      "id": 1893261284,
      "lat": 12.897393,
      "lon": 77.6209332,
      "tags": {
        "amenity": "place_of_worship",
        "name": "Muneeshwara Swamy Temple",
        "name:kn": "ಮುನೀಶ್ವರ ಸ್ವಾಮಿ ದೇವಸ್ಥಾನ",
        "religion": "hindu"
      }
    },
    {
      "type": "node",
      "id": 1894283517,
      "lat": 12.8931908,
      "lon": 77.6199692,
      "tags": {
        "name": "PK Home Needs",
        "shop": "convenience"
      }
    },
    {
      "type": "node",
      "id": 1894298053,
      "lat": 12.8924828,
      "lon": 77.6198497,
      "tags": {
        "amenity": "hospital",
        "emergency": "no",
        "name": "Nayantara Opticals"
      }
    },
    {
      "type": "node",
      "id": 1894298063,
      "lat": 12.8928095,
      "lon": 77.6197262,
      "tags": {
        "amenity": "pharmacy",
        "dispensing": "yes",
        "name": "Trust Chemists & Druggists",
        "website": "https://www.trustpharmacy.co.in/"
      }
    },
    {
      "type": "node",
      "id": 1896171379,
      "lat": 12.8916707,
      "lon": 77.6195466,
      "tags": {
        "addr:housename": "114",
        "name": "Jhankaar",
        "shop": "music"
      }
    },
    {
      "type": "node",
      "id": 1896192625,
      "lat": 12.892272,
      "lon": 77.6104915,
      "tags": {
        "amenity": "kindergarten",
        "name": "Euro Kids"
      }
    },
    {
      "type": "node",
      "id": 1896211333,
      "lat": 12.8926145,
      "lon": 77.6107222,
      "tags": {
        "amenity": "kindergarten",
        "name": "Little Millenium"
      }
    },
    {
      "type": "node",
      "id": 1896211359,
      "lat": 12.892659,
      "lon": 77.6106015,
      "tags": {
        "amenity": "pharmacy",
        "dispensing": "yes",
        "healthcare": "pharmacy",
        "name": "Religare Wellness"
      }
    },
    {
      "type": "node",
      "id": 1896211370,
      "lat": 12.8923796,
      "lon": 77.6112261,
      "tags": {
        "amenity": "bank",
        "atm": "yes",
        "name": "Vijaya Bank",
        "name:kn": "ವಿಜಯ ಬ್ಯಾಂಕು"
      }
    },
    {
      "type": "node",
      "id": 1896211378,
      "lat": 12.8926407,
      "lon": 77.6106417,
      "tags": {
        "amenity": "clinic",
        "emergency": "no",
        "healthcare": "clinic",
        "healthcare:speciality": "dentist",
        "name": "Shraddha Dental Care"
      }
    },
    {
      "type": "node",
      "id": 1898355603,
      "lat": 12.8945443,
      "lon": 77.6203167,
      "tags": {
        "amenity": "restaurant",
        "cuisine": "indian",
        "name": "Adda"
      }
    },
    {
      "type": "node",
      "id": 1910062363,
      "lat": 12.8927015,
      "lon": 77.6192826,
      "tags": {
        "amenity": "kindergarten",
        "name": "Rayen Kids"
      }
    },
    {
      "type": "node",
      "id": 1910062364,
      "lat": 12.8931423,
      "lon": 77.6199716,
      "tags": {
        "name": "Suguna Chicken",
        "shop": "butcher"
      }
    },
    {
      "type": "node",
      "id": 1911377258,
      "lat": 12.8983441,
      "lon": 77.6191394,
      "tags": {
        "name": "Al Halal Chicken Center",
        "shop": "butcher"
      }
    },
    {
      "type": "node",
      "id": 2297421659,
      "lat": 12.8932015,
      "lon": 77.6114181,
      "tags": {
        "amenity": "clinic",
        "emergency": "yes",
        "healthcare": "clinic",
        "name": "Narayana Hrudayalaya Dental Clinic",
        "name:kn": "ನಾರಾಯಣ ಹೃದಯಾಲಯ ದಂತ ಆಸ್ಪತ್ರೆ"
      }
    },
    {
      "type": "node",
      "id": 2389645442,
      "lat": 12.8981136,
      "lon": 77.6186091,
      "tags": {
        "amenity": "pharmacy",
        "dispensing": "yes",
        "name": "Sri Sairam Medicals"
      }
    },
    {
      "type": "node",
      "id": 2389645944,
      "lat": 12.8980875,
      "lon": 77.6182846,
      "tags": {
        "amenity": "pharmacy",
        "dispensing": "yes",
        "name": "Balaji Medicals",
        "name:kn": "ಬಾಲಾಜಿ ಮೆಡಿಕಲ್"
      }
    },
    {
      "type": "node",
      "id": 2389647504,
      "lat": 12.8980247,
      "lon": 77.6178984,
      "tags": {
        "name": "Udaya Fruits & Vegetables",
        "shop": "greengrocer"
      }
    },
    {
      "type": "node",
      "id": 2389647508,
      "lat": 12.8980692,
      "lon": 77.6178984,
      "tags": {
        "name": "Udaya General Stores",
        "shop": "department_store"
      }
    },
    {
      "type": "node",
      "id": 2389648560,
      "lat": 12.8982417,
      "lon": 77.6178957,
      "tags": {
        "amenity": "restaurant"
      }
    },
    {
      "type": "node",
      "id": 2389648971,
      "lat": 12.8978678,
      "lon": 77.6205859,
      "tags": {
        "name": "Adhi Wines",
        "shop": "alcohol"
      }
    },
    {
      "type": "node",
      "id": 2398082815,
      "lat": 12.8992908,
      "lon": 77.6205867,
      "tags": {
        "leisure": "playground"
      }
    },
    {
      "type": "node",
      "id": 2398928941,
      "lat": 12.8933803,
      "lon": 77.620154,
      "tags": {
        "name": "New Fish Mart",
        "shop": "seafood"
      }
    },
    {
      "type": "node",
      "id": 2398928950,
      "lat": 12.8933816,
      "lon": 77.6202157,
      "tags": {
        "name": "Sri Venkateshwara Motors",
        "shop": "motorcycle"
      }
    },
    {
      "type": "node",
      "id": 2407965402,
      "lat": 12.8928115,
      "lon": 77.6199345,
      "tags": {
        "amenity": "pharmacy",
        "dispensing": "yes",
        "name": "Apollo Pharmacy",
        "name:kn": "ಅಪೋಲೋ ಫಾರ್ಮಸಿ"
      }
    },
    {
      "type": "node",
      "id": 2446775057,
      "lat": 12.8993949,
      "lon": 77.6204253,
      "tags": {
        "amenity": "waste_basket"
      }
    },
    {
      "type": "node",
      "id": 2446775058,
      "lat": 12.8990995,
      "lon": 77.6208222,
      "tags": {
        "amenity": "waste_basket"
      }
    },
    {
      "type": "node",
      "id": 2446864014,
      "lat": 12.8985693,
      "lon": 77.6179039,
      "tags": {
        "shop": "bakery"
      }
    },
    {
      "type": "node",
      "id": 2446983582,
      "lat": 12.8996662,
      "lon": 77.6207564,
      "tags": {
        "amenity": "waste_basket"
      }
    },
    {
      "type": "node",
      "id": 2446983583,
      "lat": 12.8993916,
      "lon": 77.6212016,
      "tags": {
        "amenity": "waste_basket"
      }
    },
    {
      "type": "node",
      "id": 2449068218,
      "lat": 12.8932294,
      "lon": 77.6199699,
      "tags": {
        "shop": "greengrocer"
      }
    },
    {
      "type": "node",
      "id": 2449068219,
      "lat": 12.8932607,
      "lon": 77.6199726,
      "tags": {
        "shop": "bakery"
      }
    },
    {
      "type": "node",
      "id": 2449295683,
      "lat": 12.8997405,
      "lon": 77.6207679,
      "tags": {
        "name": "Royal Home Needs",
        "shop": "convenience"
      }
    },
    {
      "type": "node",
      "id": 2450173629,
      "lat": 12.8983182,
      "lon": 77.6198745,
      "tags": {
        "name": "Madhu Chicken Center",
        "shop": "butcher"
      }
    },
    {
      "type": "node",
      "id": 2510065617,
      "lat": 12.8979208,
      "lon": 77.6108339,
      "tags": {
        "amenity": "place_of_worship",
        "religion": "hindu"
      }
    },
    {
      "type": "node",
      "id": 2510065628,
      "lat": 12.8978553,
      "lon": 77.6147901,
      "tags": {
        "amenity": "place_of_worship",
        "religion": "hindu"
      }
    },
    {
      "type": "node",
      "id": 2510071348,
      "lat": 12.892932,
      "lon": 77.6117539,
      "tags": {
        "amenity": "atm",
        "brand": "HDFC Bank",
        "brand:wikidata": "Q631047",
        "name": "HDFC Bank",
        "operator": "HDFC Bank",
        "operator:wikidata": "Q631047",
        "short_name": "HDFC"
      }
    },
    {
      "type": "node",
      "id": 2720469709,
      "lat": 12.8914778,
      "lon": 77.6197053,
      "tags": {
        "amenity": "kindergarten",
        "name": "Rayen Kids"
      }
    },
    {
      "type": "node",
      "id": 2720476857,
      "lat": 12.8948505,
      "lon": 77.6109105,
      "tags": {
        "amenity": "hospital",
        "emergency": "no",
        "healthcare": "hospital",
        "name": "Vatsalya Chidren's Clinic"
      }
    },
    {
      "type": "node",
      "id": 2720476861,
      "lat": 12.8950571,
      "lon": 77.6109237,
      "tags": {
        "amenity": "pharmacy",
        "brand": "MedPlus",
        "brand:wikidata": "Q65684234",
        "dispensing": "yes",
        "healthcare": "pharmacy",
        "name": "MedPlus",
        "name:kn": "ಮೆಡ್ ಪ್ಲಸ್"
      }
    },
    {
      "type": "node",
      "id": 2891382844,
      "lat": 12.8927701,
      "lon": 77.6119949,
      "tags": {
        "name": "Oh My Baby",
        "shop": "toys"
      }
    },
    {
      "type": "node",
      "id": 2892761118,
      "lat": 12.8947594,
      "lon": 77.6150069,
      "tags": {
        "addr:place": "Bommanahalli",
        "amenity": "school",
        "isced:level": "3",
        "name": "New Arvind Memorial School",
        "name:kn": "ನ್ಯೂ ಅರವಿಂದ ಸ್ಮಾರಕ ಪ್ರೌಢಶಾಲೆ,",
        "operator": "Private Un-Aided",
        "school": "Higher Secondary"
      }
    },
    {
      "type": "node",
      "id": 2894967922,
      "lat": 12.8960461,
      "lon": 77.6206287,
      "tags": {
        "name": "Planet Ocean",
        "shop": "seafood"
      }
    },
    {
      "type": "node",
      "id": 2938949426,
      "lat": 12.8978632,
      "lon": 77.6215573,
      "tags": {
        "amenity": "pharmacy",
        "dispensing": "yes",
        "name": "Ram Medicals",
        "opening_hours": "PH,Mo-Su 06:00-23:30"
      }
    },
    {
      "type": "node",
      "id": 2939003347,
      "lat": 12.8925844,
      "lon": 77.6116519,
      "tags": {
        "amenity": "bank",
        "atm": "yes",
        "brand": "Andhra Bank",
        "brand:wikidata": "Q2003476",
        "brand:wikipedia": "en:Andhra Bank",
        "name": "Andhra Bank",
        "name:en": "Andhra Bank",
        "name:kn": "ಆಂಧ್ರ ಬ್ಯಾಂಕ್",
        "website": "https://www.andhrabank.in"
      }
    },
    {
      "type": "node",
      "id": 4487937014,
      "lat": 12.8986056,
      "lon": 77.61784,
      "tags": {
        "addr:city": "Bangalore",
        "addr:housenumber": "14",
        "addr:postcode": "560068",
        "addr:street": "Kodichikkanahalli Road",
        "name": "Indeca Sporting Goods Private Limited",
        "phone": "08026785982",
        "shop": "sports"
      }
    },
    {
      "type": "node",
      "id": 4489162010,
      "lat": 12.8977213,
      "lon": 77.6209903,
      "tags": {
        "addr:city": "Bangalore",
        "addr:housenumber": "1",
        "addr:postcode": "560068",
        "addr:street": "Kodichikkanahalli Road",
        "name": "The Big Market",
        "phone": "(91)-80-25733170",
        "shop": "supermarket"
      }
    },
    {
      "type": "node",
      "id": 4489678344,
      "lat": 12.8925021,
      "lon": 77.6116554,
      "tags": {
        "addr:city": "bangalore",
        "addr:housenumber": "929",
        "addr:postcode": "560076",
        "addr:street": "Devarachikkanahalli Road",
        "name": "Span Retail",
        "phone": "(91)-9535807361",
        "shop": "supermarket"
      }
    },
    {
      "type": "node",
      "id": 4489689941,
      "lat": 12.9051928,
      "lon": 77.6113706,
      "tags": {
        "addr:city": "Bangalore",
        "addr:housenumber": "37/1",
        "addr:postcode": "560076",
        "addr:street": "16th Main Road",
        "name": "Heritage Fresh",
        "phone": "(91)-40-44249590",
        "shop": "supermarket",
        "website": "https://www.heritagefoods.in/"
      }
    },
    {
      "type": "node",
      "id": 4489716765,
      "lat": 12.8944899,
      "lon": 77.6203027,
      "tags": {
        "addr:city": "Bangalore",
        "addr:postcode": "560076",
        "addr:street": "Bs-5 , Yellamma Devi Complex , 1st Cross Devachanhalli Main Road, Maruthi Layout",
        "leisure": "sports_centre",
        "name": "Silicon City Sports And Equipment",
        "phone": "099453 41517"
      }
    },
    {
      "type": "node",
      "id": 4489716789,
      "lat": 12.8949631,
      "lon": 77.6090105,
      "tags": {
        "addr:city": "bangalore",
        "addr:housenumber": "14",
        "addr:postcode": "560076",
        "addr:street": "Devarachikkanahalli Road",
        "name": "Ever Fine Super Market",
        "phone": "(91)-80-41475959",
        "shop": "supermarket"
      }
    },
    {
      "type": "node",
      "id": 4489724919,
      "lat": 12.8964974,
      "lon": 77.6109057,
      "tags": {
        "addr:city": "bangalore",
        "addr:housenumber": "12/14",
        "addr:postcode": "560076",
        "addr:street": "Kodichikkanahalli Main Road",
        "name": "Day To Day Super Market",
        "phone": "(91)-8762404850",
        "shop": "supermarket"
      }
    },
    {
      "type": "node",
      "id": 4489777069,
      "lat": 12.8942703,
      "lon": 77.6094497,
      "tags": {
        "addr:city": "bangalore",
        "addr:housenumber": "441",
        "addr:postcode": "560076",
        "addr:street": "Devarachikkanahalli Road",
        "name": "Ruffles Spa",
        "opening_hours": "09:30-21:30",
        "phone": "089717 99015",
        "shop": "massage",
        "website": "rufflesspasalon.weebly.com"
      }
    },
    {
      "type": "node",
      "id": 4558333190,
      "lat": 12.8956232,
      "lon": 77.6068313,
      "tags": {
        "amenity": "place_of_worship",
        "name": "ಕಾವೇರಮ್ಮ ದೇವಾಲಯ",
        "name:en": "Kaveramma Devalaya",
        "name:kn": "ಕಾವೇರಮ್ಮ ದೇವಾಲಯ"
      }
    },
    {
      "type": "node",
      "id": 4794968170,
      "lat": 12.8979762,
      "lon": 77.6064023,
      "tags": {
        "amenity": "place_of_worship",
        "name": "Shaneeshwara Temple",
        "name:kn": "ಶನೀಶ್ವರ ದೇವಸ್ಥಾನ",
        "religion": "hindu"
      }
    },
    {
      "type": "node",
      "id": 4794981618,
      "lat": 12.8979474,
      "lon": 77.6079394,
      "tags": {
        "amenity": "ice_cream",
        "name": "FAB ice cream"
      }
    },
    {
      "type": "node",
      "id": 4794989731,
      "lat": 12.8998618,
      "lon": 77.6085502,
      "tags": {
        "amenity": "place_of_worship",
        "name": "Someshwara",
        "name:kn": "ಸೋಮೇಶ್ವರ ದೇವಸ್ಥಾನ",
        "religion": "hindu"
      }
    },
    {
      "type": "node",
      "id": 4794991961,
      "lat": 12.8983322,
      "lon": 77.6079663,
      "tags": {
        "name": "Poorna enterprises",
        "organic": "only",
        "shop": "supermarket"
      }
    },
    {
      "type": "node",
      "id": 6347274963,
      "lat": 12.8998165,
      "lon": 77.6083074,
      "tags": {
        "addr:place": "Bilekalli",
        "amenity": "school",
        "isced:level": "2",
        "name": "GHPS Bilekalli",
        "name:kn": "ಸರ್ಕಾರಿ ಹಿರಿಯ ಪ್ರಾಥಮಿಕ ಶಾಲೆ ಬಿಳೇಕಳ್ಳಿ",
        "operator": "Department of Education",
        "school": "primary"
      }
    },
    {
      "type": "node",
      "id": 6348775331,
      "lat": 12.8887812,
      "lon": 77.6158231,
      "tags": {
        "addr:place": "Devarachikkana Halli",
        "amenity": "school",
        "isced:level": "2",
        "name": "GHPS Devarachikkana Halli",
        "name:kn": "ಸರ್ಕಾರಿ ಹಿರಿಯ ಪ್ರಾಥಮಿಕ ಶಾಲೆ ದೇವರಚಿಕ್ಕನಹಳ್ಳಿ",
        "operator": "Department of Education",
        "school": "primary"
      }
    },
    {
      "type": "node",
      "id": 6349202586,
      "lat": 12.9006028,
      "lon": 77.6201862,
      "tags": {
        "addr:place": "Kodichikkana Halli",
        "amenity": "school",
        "isced:level": "2",
        "name": "GHPS Kodichikkana Halli",
        "name:kn": "ಸರ್ಕಾರಿ ಹಿರಿಯ ಪ್ರಾಥಮಿಕ ಶಾಲೆ ಕೋಡಿಚಿಕ್ಕನಹಳ್ಳಿ",
        "operator": "Department of Education",
        "school": "primary"
      }
    },
    {
      "type": "node",
      "id": 6422436022,
      "lat": 12.8984964,
      "lon": 77.6203713,
      "tags": {
        "addr:place": "Bommanahalli",
        "amenity": "school",
        "isced:level": "3",
        "name": "Silicon City HPS Bommana Halli",
        "name:kn": "ಸಿಲಿಕಾನ್ ಸಿಟಿ ಪ್ರೌಢಶಾಲೆ ಬೊಮ್ಮನಹಳ್ಳಿ",
        "operator": "Private Un-Aided",
        "school": "Higher Secondary"
      }
    },
    {
      "type": "node",
      "id": 6422515985,
      "lat": 12.8966211,
      "lon": 77.6075885,
      "tags": {
        "addr:place": "Bilekalli",
        "amenity": "school",
        "isced:level": "3",
        "name": "Dileep HPS Bilekalli",
        "name:kn": "ದಿಲೀಪ್ ಹಿರಿಯ ಪ್ರಾಥಮಿಕ ಶಾಲೆ ಬಿಳೇಕಳ್ಳಿ",
        "operator": "Private Un-Aided",
        "school": "Higher Secondary"
      }
    },
    {
      "type": "node",
      "id": 6422523984,
      "lat": 12.8986518,
      "lon": 77.6073698,
      "tags": {
        "addr:place": "Bilekalli",
        "amenity": "school",
        "isced:level": "3",
        "name": "Mgs Infant LPS Bilekalli",
        "name:kn": "ಎಂ.ಜಿ.ಎಸ್ ಇನ್ಫಂಟ್ ಕಿರಿಯ ಪ್ರಾಥಮಿಕ ಶಾಲೆ ಬಿಳೇಕಳ್ಳಿ",
        "operator": "Private Un-Aided",
        "school": "Higher Secondary"
      }
    },
    {
      "type": "node",
      "id": 6422527365,
      "lat": 12.8953975,
      "lon": 77.6108776,
      "tags": {
        "addr:place": "Bilekalli",
        "amenity": "school",
        "isced:level": "2",
        "name": "Blue Star Education Trust, Bilekalli",
        "name:kn": "ಬ್ಲೂ ಸ್ಟಾರ್ ಎಜುಕೇಶನ್ ಟ್ರಸ್ಟ್, ಬಿಳೇಕಳ್ಳಿ",
        "operator": "Private Un-Aided",
        "school": "Higher Primary"
      }
    },
    {
      "type": "node",
      "id": 6422529781,
      "lat": 12.9008131,
      "lon": 77.6088442,
      "tags": {
        "addr:place": "Bilekalli",
        "amenity": "school",
        "isced:level": "3",
        "name": "Shantinketan Trust Sch, Bilekalli",
        "name:kn": "ಶಾಂತಿನಿಕೇತನ ಟ್ರಸ್ಟ್ ಶಾಲೆ ,ಬಿಳೇಕಳ್ಳಿ",
        "operator": "Private Un-Aided",
        "school": "Higher Secondary"
      }
    },
    {
      "type": "node",
      "id": 6422536123,
      "lat": 12.8952857,
      "lon": 77.6082654,
      "tags": {
        "addr:place": "Bilekahalli",
        "amenity": "school",
        "isced:level": "3",
        "name": "Teresa Pub Sch Bilekahalli",
        "name:kn": "ತೆರೇಸಾ ಪಬ್ಲಿಕ್ ಶಾಲೆ ಬಿಳೇಕಳ್ಳಿ",
        "operator": "Private Un-Aided",
        "school": "Higher Secondary"
      }
    },
    {
      "type": "node",
      "id": 6422554513,
      "lat": 12.900731,
      "lon": 77.6047963,
      "tags": {
        "addr:place": "Bilekalli",
        "amenity": "school",
        "isced:level": "3",
        "name": "Ankith HPS Bilekalli",
        "name:kn": "ಅಂಕಿತ್ ಹಿರಿಯ ಪ್ರಾಥಮಿಕ ಶಾಲೆ ಬಿಳೇಕಳ್ಳಿ",
        "operator": "Private Un-Aided",
        "school": "Higher Secondary"
      }
    },
    {
      "type": "node",
      "id": 6422573848,
      "lat": 12.8909372,
      "lon": 77.6091428,
      "tags": {
        "addr:place": "Bilekalli",
        "amenity": "school",
        "isced:level": "1",
        "name": "Orchid English School, Bilekalli",
        "name:kn": "ಆರ್ಕಿಡ್ ಆಂಗ್ಲ ಶಾಲೆ, ಬಿಳೇಕಳ್ಳಿ",
        "operator": "Private Un-Aided",
        "school": "primary"
      }
    },
    {
      "type": "node",
      "id": 6496795658,
      "lat": 12.8933125,
      "lon": 77.6134451,
      "tags": {
        "addr:place": "Devarachikkanahalli",
        "amenity": "school",
        "isced": "3",
        "name": "Nightingale English School",
        "name:kn": "ನೈಟಿಂಗೇಲ್ ಆಂಗ್ಲ ಶಾಲೆ, ದೇವರಚಿಕ್ಕನಹಳ್ಳಿ",
        "operator": "Private Un-Aided",
        "school": "Higher Secondary"
      }
    },
    {
      "type": "node",
      "id": 6939632965,
      "lat": 12.8981742,
      "lon": 77.6058662,
      "tags": {
        "addr:district": "Bengaluru Urban",
        "addr:full": "Bilekahalli, Bannerghatta Road",
        "addr:postcode": "560076",
        "addr:state": "Karnataka",
        "amenity": "clinic",
        "healthcare": "clinic",
        "name": "Anand Clinic",
        "source": "OpenGovernmentData"
      }
    },
    {
      "type": "node",
      "id": 6944507676,
      "lat": 12.8981572,
      "lon": 77.6207364,
      "tags": {
        "addr:district": "Bengaluru Rural",
        "addr:full": "124, Kanakapura Main Road, Jayanagara 7Th Block, Bangalore",
        "addr:postcode": "560082",
        "addr:state": "Karnataka",
        "amenity": "hospital",
        "name": "Srushti Hospital, Bengaluru Rural",
        "name:kn": "ಸೃಷ್ಟಿ ಆಸ್ಪತ್ರೆ",
        "source": "OpenGovernmentData"
      }
    },
    {
      "type": "node",
      "id": 6944577868,
      "lat": 12.8990265,
      "lon": 77.6055551,
      "tags": {
        "addr:district": "Bengaluru Urban",
        "addr:full": "S.V.Arcade, Devarachikkana Halli Road, Off Bannerugatta Road, Iim Post",
        "addr:postcode": "560076",
        "addr:state": "Karnataka",
        "amenity": "clinic",
        "healthcare": "clinic",
        "name": "Akshara Eye Hospital",
        "operator:type": "private",
        "source": "OpenGovernmentData",
        "website": "http://dpal.kar.nic.in/Kanunu%20padakosha%20PDF%20Files/Recognised%20Hospitals.pdf"
      }
    },
    {
      "type": "node",
      "id": 7572669016,
      "lat": 12.891789,
      "lon": 77.606337,
      "tags": {
        "addr:district": "Bengaluru Urban",
        "addr:full": "Vijaya Bank Layout, Swamy Arcade, Bannerghatta Main Road, Bengaluru",
        "addr:postcode": "560076",
        "addr:state": "Karnataka",
        "amenity": "dentist",
        "healthcare": "dentist",
        "name": "Gayathri Dental Clinic",
        "source": "Local Knowledge"
      }
    },
    {
      "type": "node",
      "id": 7572669031,
      "lat": 12.9056165,
      "lon": 77.6122688,
      "tags": {
        "addr:district": "Bengaluru Urban",
        "addr:full": "EWS Colony, BTM Layout, Bengaluru",
        "addr:postcode": "560076",
        "addr:state": "Karnataka",
        "amenity": "hospital",
        "name": "Sri Venkateswara Hospital",
        "source": "Local Knowledge"
      }
    },
    {
      "type": "node",
      "id": 7572669032,
      "lat": 12.895426,
      "lon": 77.607662,
      "tags": {
        "addr:district": "Bengaluru Urban",
        "addr:full": "Vijaya Bank Layout, Bilekahalli, Bengaluru",
        "addr:postcode": "560076",
        "addr:state": "Karnataka",
        "amenity": "hospital",
        "healthcare": "hospital",
        "name": "Rajashri Grandhim Hospitals",
        "source": "Local Knowledge"
      }
    },
    {
      "type": "node",
      "id": 7572669046,
      "lat": 12.895218,
      "lon": 77.608579,
      "tags": {
        "addr:district": "Bengaluru Urban",
        "addr:full": "Vijaya Bank Layout, Bilekahalli, Bengaluru",
        "addr:postcode": "560076",
        "addr:state": "Karnataka",
        "amenity": "clinic",
        "healthcare": "clinic",
        "name": "The Child Clinic",
        "source": "Local Knowledge"
      }
    },
    {
      "type": "node",
      "id": 11305222351,
      "lat": 12.8889199,
      "lon": 77.6112548,
      "tags": {
        "access": "permissive",
        "amenity": "parking",
        "parking": "surface"
      }
    },
    {
      "type": "node",
      "id": 11568510100,
      "lat": 12.8941884,
      "lon": 77.6042025,
      "tags": {
        "addr:city": "Bengaluru",
        "addr:district": "Bengaluru",
        "addr:postcode": "560076",
        "addr:state": "KA",
        "addr:street": "Arekere Main Road",
        "addr:suburb": "Bilekahalli",
        "leisure": "stadium",
        "name": "IIM-B Playground"
      }
    },
    {
      "type": "node",
      "id": 11683480459,
      "lat": 12.9053681,
      "lon": 77.6115665,
      "tags": {
        "check_date": "2024-03-02",
        "description": "BTM 2nd stage",
        "internet_access": "no",
        "name": "Royal Enfield Service Centre",
        "payment:cash": "yes",
        "payment:credit_cards": "yes",
        "payment:debit_cards": "yes",
        "phone": "+91 79960 00040",
        "shop": "motorcycle_repair",
        "wheelchair": "no"
      }
    },
    {
      "type": "node",
      "id": 11683480460,
      "lat": 12.9053934,
      "lon": 77.6114094,
      "tags": {
        "check_date": "2024-03-02",
        "internet_access": "no",
        "name": "Wheels On Street",
        "payment:cash": "yes",
        "payment:credit_cards": "yes",
        "payment:debit_cards": "yes",
        "phone": "+91 98869 79622",
        "shop": "motorcycle",
        "wheelchair": "yes"
      }
    },
    {
      "type": "node",
      "id": 11683480461,
      "lat": 12.9052408,
      "lon": 77.6115512,
      "tags": {
        "brand": "Royal Enfield",
        "brand:wikidata": "Q2668720",
        "check_date": "2024-03-02",
        "internet_access": "wlan",
        "internet_access:fee": "customers",
        "name": "Royal Enfield Showroom",
        "payment:cash": "yes",
        "payment:credit_cards": "yes",
        "payment:debit_cards": "yes",
        "shop": "motorcycle",
        "wheelchair": "no"
      }
    },
    {
      "type": "node",
      "id": 11683483665,
      "lat": 12.905095,
      "lon": 77.612091,
      "tags": {
        "amenity": "pharmacy",
        "check_date": "2024-03-02",
        "healthcare": "pharmacy",
        "internet_access": "no",
        "name": "Asha Pharma",
        "payment:cash": "yes",
        "payment:credit_cards": "yes",
        "payment:debit_cards": "yes",
        "wheelchair": "yes"
      }
    },
    {
      "type": "node",
      "id": 11957600380,
      "lat": 12.8908863,
      "lon": 77.606061,
      "tags": {
        "addr:housenumber": "133",
        "amenity": "clinic",
        "healthcare": "clinic",
        "name": "Aposs Diagnostics Health Care Pvt Ltd",
        "opening_hours": "Mo-Su 07:00-21:00",
        "phone": "080 2648 3828"
      }
    },
    {
      "type": "node",
      "id": 11957613931,
      "lat": 12.891759,
      "lon": 77.6059942,
      "tags": {
        "addr:housenumber": "31",
        "addr:street": "4th Cross",
        "amenity": "restaurant",
        "name": "Sri Laksmi Upahara",
        "opening_hours": "Mo-Su 07:00-22:00",
        "phone": "08197750435"
      }
    },
    {
      "type": "node",
      "id": 11957620950,
      "lat": 12.8917479,
      "lon": 77.6064234,
      "tags": {
        "addr:city": "Bengaluru",
        "addr:housenumber": "268",
        "addr:postcode": "560076",
        "addr:street": "8th Cross Road",
        "name": "Bangalore Bakery And Sweets",
        "opening_hours": "Mo-Su 07:00-22:00",
        "shop": "bakery",
        "wheelchair": "no"
      }
    },
    {
      "type": "node",
      "id": 11957620951,
      "lat": 12.8918045,
      "lon": 77.6064435,
      "tags": {
        "air_conditioning": "no",
        "amenity": "restaurant",
        "delivery": "yes",
        "diet:vegetarian": "yes",
        "internet_access": "no",
        "level": "0",
        "name": "Brahmin Tiffins and Coffee",
        "opening_hours": "Mo-Su 06:30-21:30",
        "outdoor_seating": "yes",
        "phone": "07975356028",
        "takeaway": "yes",
        "toilets": "no",
        "wheelchair": "no"
      }
    },
    {
      "type": "node",
      "id": 11957635105,
      "lat": 12.891181,
      "lon": 77.6064826,
      "tags": {
        "addr:housenumber": "513",
        "amenity": "pharmacy",
        "healthcare": "pharmacy",
        "name": "Ashraya Mediacals"
      }
    },
    {
      "type": "node",
      "id": 11957635106,
      "lat": 12.8910969,
      "lon": 77.6064048,
      "tags": {
        "name": "Pet corner",
        "shop": "pet"
      }
    },
    {
      "type": "node",
      "id": 11957635107,
      "lat": 12.8911861,
      "lon": 77.6064469,
      "tags": {
        "addr:housenumber": "513",
        "amenity": "dentist",
        "healthcare": "dentist",
        "name": "R R Dental Center"
      }
    },
    {
      "type": "node",
      "id": 11957635108,
      "lat": 12.8911892,
      "lon": 77.6065268,
      "tags": {
        "amenity": "clinic",
        "healthcare": "clinic",
        "name": "Ketaki kids care clinic",
        "opening_hours": "Mo-Sa 11:00-13:30 19:00-21:00"
      }
    },
    {
      "type": "node",
      "id": 11957774855,
      "lat": 12.8906991,
      "lon": 77.6090805,
      "tags": {
        "addr:city": "bangalore",
        "addr:housenumber": "857",
        "addr:postcode": "560076",
        "addr:street": "3rd Cross, 5th Main",
        "leisure": "fitness_centre",
        "name": "National Academy Of Naturopathy And Yoga",
        "opening_hours": "Mo-Sa 09:00-20:30 So 09:00-23:30",
        "phone": "080 8834 7855",
        "sport": "yoga",
        "website": "https://sahajaswasthya.com/"
      }
    },
    {
      "type": "node",
      "id": 11958462030,
      "lat": 12.892281,
      "lon": 77.6112304,
      "tags": {
        "amenity": "clinic",
        "healthcare": "clinic",
        "healthcare:speciality": "gynaecology;dermatology;orthopedic",
        "name": "Vijaya Medical Centre"
      }
    },
    {
      "type": "node",
      "id": 11958462469,
      "lat": 12.8923531,
      "lon": 77.6113104,
      "tags": {
        "level": "0",
        "name": "Go Colours!",
        "shop": "clothes",
        "website": "https://gocolors.com/"
      }
    },
    {
      "type": "node",
      "id": 11958462470,
      "lat": 12.8926931,
      "lon": 77.6112416,
      "tags": {
        "addr:housenumber": "1000",
        "level": "1",
        "name": "Cut And Sttyle Salon",
        "opening_hours": "Mo-Su 10:00-21:00",
        "phone": "07090220099",
        "shop": "hairdresser",
        "website": "https://salons.cutandstyle.in/bilekahalli-bengaluru-37511/home?utm_source=GBP"
      }
    },
    {
      "type": "node",
      "id": 11958470443,
      "lat": 12.8920402,
      "lon": 77.610283,
      "tags": {
        "amenity": "kindergarten",
        "name": "Euro kids"
      }
    },
    {
      "type": "node",
      "id": 11958491418,
      "lat": 12.8924494,
      "lon": 77.6111256,
      "tags": {
        "addr:housenumber": "989",
        "name": "BreadCrumbs Bakery",
        "shop": "bakery",
        "wheelchair": "no"
      }
    },
    {
      "type": "node",
      "id": 11958493507,
      "lat": 12.8927777,
      "lon": 77.611033,
      "tags": {
        "level": "0",
        "name": "Reliance Trends",
        "shop": "clothes"
      }
    },
    {
      "type": "node",
      "id": 12338274501,
      "lat": 12.9053383,
      "lon": 77.6105791,
      "tags": {
        "addr:postcode": "560076",
        "addr:street": "13th Main Road",
        "amenity": "restaurant",
        "name": "Rbp Greens garden bar and restaurant"
      }
    },
    {
      "type": "node",
      "id": 12475387081,
      "lat": 12.8919175,
      "lon": 77.6196125,
      "tags": {
        "name": "Retro",
        "shop": "beauty"
      }
    },
    {
      "type": "node",
      "id": 13262974223,
      "lat": 12.8915219,
      "lon": 77.6196898,
      "tags": {
        "addr:city": "Bangalore",
        "addr:district": "bangalore",
        "addr:housenumber": "265",
        "addr:postcode": "560114",
        "addr:street": "Deverachikkanahalli Main Road",
        "air_conditioning": "yes",
        "branch": "one",
        "name": "ajna spa massage centre bangalore",
        "opening_hours": "24/7",
        "operator": "asif",
        "payment:cash": "yes",
        "payment:credit_cards": "yes",
        "payment:debit_cards": "yes",
        "phone": "+918123049998",
        "shop": "massage"
      }
    },
    {
      "type": "way",
      "id": 23003438,
      "center": {
        "lat": 12.8958685,
        "lon": 77.6023239
      },
      "tags": {
        "addr:city": "Bengaluru",
        "addr:street": "Bannerghatta Road",
        "alt_name": "IIMB",
        "amenity": "university",
        "name": "Indian Institute of Management Bangalore",
        "name:kn": "ಇಂಡಿಯನ್ ಇನ್‌ಸ್ಟಿಟುಟ್ ಆಫ್ ಮ್ಯಾನಜ್‌ಮೆಂಟ್ ಬೆಂಗಳೂರು",
        "name:ml": "ഇന്ത്യൻ ഇൻസ്റ്റിറ്റ്യൂട്ട് ഓഫ് മാനേജ്‌മെന്റ്, ബാംഗ്ലൂർ",
        "note": "IIMB was inaugrated in 1973, but finally moved to the current campus on Bannerghatta Road in 1983",
        "short_name": "IIMB",
        "start_date": "1983",
        "website": "https://www.iimb.ac.in/",
        "wikidata": "Q46021",
        "wikipedia": "en:Indian Institute of Management Bangalore"
      }
    },
    {
      "type": "way",
      "id": 179092126,
      "center": {
        "lat": 12.8932733,
        "lon": 77.613473
      },
      "tags": {
        "addr:city": "bangalore",
        "addr:district": "Devarachikkanahalli",
        "addr:housenumber": "45/46",
        "addr:postcode": "560076",
        "addr:street": "3rd cross road",
        "amenity": "school",
        "building": "school",
        "name": "Nightingales English High School",
        "website": "https://www.nightingalesschool.com/"
      }
    },
    {
      "type": "way",
      "id": 230476872,
      "center": {
        "lat": 12.8994156,
        "lon": 77.6209736
      },
      "tags": {
        "access": "private",
        "covered": "no",
        "horse": "no",
        "leisure": "swimming_pool",
        "motor_vehicle": "no",
        "sport": "swimming"
      }
    },
    {
      "type": "way",
      "id": 230476932,
      "center": {
        "lat": 12.8995895,
        "lon": 77.6211183
      },
      "tags": {
        "amenity": "fountain"
      }
    },
    {
      "type": "way",
      "id": 231414881,
      "center": {
        "lat": 12.8995036,
        "lon": 77.6205891
      },
      "tags": {
        "amenity": "theatre"
      }
    },
    {
      "type": "way",
      "id": 236947315,
      "center": {
        "lat": 12.8929276,
        "lon": 77.6139569
      },
      "tags": {
        "leisure": "park"
      }
    },
    {
      "type": "way",
      "id": 237087599,
      "center": {
        "lat": 12.8984865,
        "lon": 77.6203664
      },
      "tags": {
        "amenity": "school",
        "name": "Silicon City High School"
      }
    },
    {
      "type": "way",
      "id": 243623620,
      "center": {
        "lat": 12.8974998,
        "lon": 77.6211329
      },
      "tags": {
        "addr:city": "Bengaluru",
        "addr:housenumber": "8",
        "addr:postcode": "560068",
        "addr:street": "Kodichikkanahalli Road, Seenappa Layout, Cauvery Nagar, Bommanahalli",
        "amenity": "fuel",
        "brand": "Hindustan Petroleum",
        "brand:wikidata": "Q1619375",
        "building": "office",
        "name": "HP",
        "official_name": "Hindustan Petroleum"
      }
    },
    {
      "type": "way",
      "id": 243624633,
      "center": {
        "lat": 12.8909108,
        "lon": 77.6085585
      },
      "tags": {
        "leisure": "park"
      }
    },
    {
      "type": "way",
      "id": 243624642,
      "center": {
        "lat": 12.8900493,
        "lon": 77.6075948
      },
      "tags": {
        "leisure": "park"
      }
    },
    {
      "type": "way",
      "id": 243624765,
      "center": {
        "lat": 12.8910379,
        "lon": 77.6096655
      },
      "tags": {
        "leisure": "pitch",
        "sport": "tennis"
      }
    },
    {
      "type": "way",
      "id": 243624894,
      "center": {
        "lat": 12.8889212,
        "lon": 77.609993
      },
      "tags": {
        "leisure": "park"
      }
    },
    {
      "type": "way",
      "id": 285468209,
      "center": {
        "lat": 12.8935024,
        "lon": 77.606787
      },
      "tags": {
        "leisure": "pitch"
      }
    },
    {
      "type": "way",
      "id": 285468215,
      "center": {
        "lat": 12.8948785,
        "lon": 77.6062912
      },
      "tags": {
        "leisure": "park"
      }
    },
    {
      "type": "way",
      "id": 334548998,
      "center": {
        "lat": 12.90544,
        "lon": 77.6115348
      },
      "tags": {
        "amenity": "place_of_worship",
        "name": "Anjaneya Temple",
        "name:kn": "ಆಂಜನೇಯ ದೇವಸ್ಥಾನ",
        "religion": "hindu",
        "wheelchair": "no"
      }
    },
    {
      "type": "way",
      "id": 334655244,
      "center": {
        "lat": 12.8917125,
        "lon": 77.6051759
      },
      "tags": {
        "leisure": "park"
      }
    },
    {
      "type": "way",
      "id": 334655245,
      "center": {
        "lat": 12.8915182,
        "lon": 77.6060795
      },
      "tags": {
        "amenity": "place_of_worship",
        "name": "Ayyappa Temple",
        "name:kn": "ಅಯ್ಯಪ್ಪ ದೇವಸ್ಥಾನ",
        "religion": "hindu"
      }
    },
    {
      "type": "way",
      "id": 362888430,
      "center": {
        "lat": 12.9038268,
        "lon": 77.6074431
      },
      "tags": {
        "leisure": "park"
      }
    },
    {
      "type": "way",
      "id": 362888858,
      "center": {
        "lat": 12.8919306,
        "lon": 77.6081055
      },
      "tags": {
        "leisure": "park",
        "name": "Vijaya Bank Layout Park"
      }
    },
    {
      "type": "way",
      "id": 586856378,
      "center": {
        "lat": 12.8948508,
        "lon": 77.6033596
      },
      "tags": {
        "amenity": "parking"
      }
    },
    {
      "type": "way",
      "id": 586856420,
      "center": {
        "lat": 12.8942281,
        "lon": 77.6042676
      },
      "tags": {
        "leisure": "pitch",
        "sport": "soccer"
      }
    },
    {
      "type": "way",
      "id": 587078646,
      "center": {
        "lat": 12.8926976,
        "lon": 77.6042097
      },
      "tags": {
        "leisure": "pitch",
        "sport": "basketball"
      }
    },
    {
      "type": "way",
      "id": 587078647,
      "center": {
        "lat": 12.8927238,
        "lon": 77.6040236
      },
      "tags": {
        "leisure": "pitch",
        "sport": "tennis"
      }
    },
    {
      "type": "way",
      "id": 635504283,
      "center": {
        "lat": 12.8950035,
        "lon": 77.6046697
      },
      "tags": {
        "leisure": "pitch",
        "sport": "basketball"
      }
    },
    {
      "type": "way",
      "id": 895115935,
      "center": {
        "lat": 12.9000244,
        "lon": 77.6113234
      },
      "tags": {
        "amenity": "school"
      }
    },
    {
      "type": "way",
      "id": 1220092524,
      "center": {
        "lat": 12.8881179,
        "lon": 77.6112737
      },
      "tags": {
        "leisure": "park",
        "wheelchair": "no"
      }
    },
    {
      "type": "way",
      "id": 1220092525,
      "center": {
        "lat": 12.8886604,
        "lon": 77.6112931
      },
      "tags": {
        "leisure": "park"
      }
    },
    {
      "type": "way",
      "id": 1220092531,
      "center": {
        "lat": 12.8883329,
        "lon": 77.6113151
      },
      "tags": {
        "amenity": "college",
        "name": "Bosch Learning Campus"
      }
    },
    {
      "type": "way",
      "id": 1265794512,
      "center": {
        "lat": 12.9043647,
        "lon": 77.6076156
      },
      "tags": {
        "access": "private",
        "leisure": "pitch",
        "sport": "tennis"
      }
    },
    {
      "type": "way",
      "id": 1265794513,
      "center": {
        "lat": 12.9043553,
        "lon": 77.6074787
      },
      "tags": {
        "access": "private",
        "leisure": "pitch",
        "sport": "basketball"
      }
    },
    {
      "type": "way",
      "id": 1265835948,
      "center": {
        "lat": 12.9095516,
        "lon": 77.6137211
      },
      "tags": {
        "leisure": "park",
        "name": "Madiwala Lake Park"
      }
    },
    {
      "type": "way",
      "id": 1271883880,
      "center": {
        "lat": 12.8914731,
        "lon": 77.6172897
      },
      "tags": {
        "amenity": "grave_yard",
        "landuse": "cemetery"
      }
    },
    {
      "type": "way",
      "id": 1286549232,
      "center": {
        "lat": 12.8919069,
        "lon": 77.6114356
      },
      "tags": {
        "amenity": "fuel",
        "brand": "Indian Oil Petrol Pump",
        "brand:wikidata": "Q1289348",
        "name": "Indian Oil Petrol Pump"
      }
    },
    {
      "type": "way",
      "id": 1286559021,
      "center": {
        "lat": 12.8926517,
        "lon": 77.6100439
      },
      "tags": {
        "leisure": "park",
        "wheelchair": "no"
      }
    }
  ]
}