{
  "area_name": "Kogilu",
  "osm_id": 19884610,
  "osm_type": "relation",
  "place_type": "administrative",
  "amenity_count": 195,
  "amenities": [
    {
      "type": "node",
      "id": 410861199,
      "lat": 13.0989262,
      "lon": 77.6350463,
      "tags": {
        "amenity": "school",
        "name": "Golden Chariot Public School",
        "name:kn": "ಗೋಲ್ಡನ್ ಚಾರಿಯಟ್ ಪಬ್ಲಿಕ್ ಸ್ಕೂಲ್"
      }
    },
    {
      "type": "node",
      "id": 1101095235,
      "lat": 13.1246098,
      "lon": 77.6202857,
      "tags": {
        "amenity": "college",
        "name": "Bridavan College of Engineering"
      }
    },
    {
      "type": "node",
      "id": 3666698602,
      "lat": 13.1170344,
      "lon": 77.6355731,
      "tags": {
        "amenity": "bench"
      }
    },
    {
      "type": "node",
      "id": 3666698603,
      "lat": 13.1170074,
      "lon": 77.635585,
      "tags": {
        "amenity": "bench"
      }
    },
    {
      "type": "node",
      "id": 3666710967,
      "lat": 13.1170818,
      "lon": 77.635595,
      "tags": {
        "amenity": "bench"
      }
    },
    {
      "type": "node",
      "id": 3666710968,
      "lat": 13.1143272,
      "lon": 77.635364,
      "tags": {
        "amenity": "waste_basket"
      }
    },
    {
      "type": "node",
      "id": 3666713426,
      "lat": 13.1167279,
      "lon": 77.6355845,
      "tags": {
        "amenity": "bench"
      }
    },
    {
      "type": "node",
      "id": 3666713428,
      "lat": 13.1165241,
      "lon": 77.6355952,
      "tags": {
        "amenity": "bench"
      }
    },
    {
      "type": "node",
      "id": 3666713431,
      "lat": 13.1174066,
      "lon": 77.6346379,
      "tags": {
        "amenity": "restaurant",
        "name": "Reva canteen"
      }
    },
    {
      "type": "node",
      "id": 3666723642,
      "lat": 13.1174604,
      "lon": 77.6342379,
      "tags": {
        "amenity": "bank",
        "atm": "yes",
        "brand": "Karnataka Bank",
        "brand:wikidata": "Q2042632",
        "name": "Karnataka Bank",
        "name:kn": "ಕರ್ನಾಟಕ ಬ್ಯಾಂಕ್",
        "wheelchair": "limited"
      }
    },
    {
      "type": "node",
      "id": 3666723643,
      "lat": 13.117397,
      "lon": 77.6344822,
      "tags": {
        "amenity": "restaurant",
        "wheelchair": "limited"
      }
    },
    {
      "type": "node",
      "id": 3666723647,
      "lat": 13.1148963,
      "lon": 77.6358856,
      "tags": {
        "amenity": "fast_food",
        "cuisine": "chicken",
        "name": "TFC"
      }
    },
    {
      "type": "node",
      "id": 5685671918,
      "lat": 13.1095538,
      "lon": 77.6344905,
      "tags": {
        "amenity": "animal_shelter",
        "animal": "cat",
        "name": "Charlie's Animal Rescue Centre (CARE)"
      }
    },
    {
      "type": "node",
      "id": 5936153686,
      "lat": 13.1238209,
      "lon": 77.6202417,
      "tags": {
        "amenity": "cafe",
        "name": "Brindavan College Canteen"
      }
    },
    {
      "type": "node",
      "id": 5936153689,
      "lat": 13.1253521,
      "lon": 77.62013,
      "tags": {
        "amenity": "cafe",
        "name": "Brindavan College Bakery"
      }
    },
    {
      "type": "node",
      "id": 5936153690,
      "lat": 13.1254176,
      "lon": 77.6201477,
      "tags": {
        "name": "Stationary Store",
        "shop": "supermarket"
      }
    },
    {
      "type": "node",
      "id": 6944464779,
      "lat": 13.1215236,
      "lon": 77.6126106,
      "tags": {
        "addr:district": "Bengaluru Urban",
        "addr:full": "Near Bagalur Cross Signal,International Airport Main Road,Yelahanka",
        "addr:postcode": "560063",
        "addr:state": "Karnataka",
        "amenity": "hospital",
        "name": "Saranalaya Hospital",
        "source": "OpenGovernmentData"
      }
    },
    {
      "type": "node",
      "id": 7299083117,
      "lat": 13.0845424,
      "lon": 77.6397904,
      "tags": {
        "amenity": "parking_entrance",
        "parking": "underground"
      }
    },
    {
      "type": "node",
      "id": 7579683188,
      "lat": 13.122004,
      "lon": 77.625004,
      "tags": {
        "addr:district": "Bengaluru Urban",
        "addr:full": "Chidananda Reddy Layout, Dwarka Nagar, Bengaluru",
        "addr:postcode": "560063",
        "addr:state": "Karnataka",
        "amenity": "clinic",
        "name": "Dr. Ashwin clinic",
        "source": "Local Knowledge"
      }
    },
    {
      "type": "node",
      "id": 7579683190,
      "lat": 13.1209301,
      "lon": 77.6164782,
      "tags": {
        "addr:district": "Bengaluru Urban",
        "addr:full": "Vinayaka Nagar, Yelahanka, Bengaluru",
        "addr:postcode": "560063",
        "addr:state": "Karnataka",
        "amenity": "dentist",
        "name": "iDentist Family Dental Care",
        "source": "Local Knowledge"
      }
    },
    {
      "type": "node",
      "id": 7579683192,
      "lat": 13.1214057,
      "lon": 77.6140329,
      "tags": {
        "addr:district": "Bengaluru Urban",
        "addr:full": "Vinayak Nagar, Kattigenahalli, Bengaluru",
        "addr:postcode": "560064",
        "addr:state": "Karnataka",
        "amenity": "clinic",
        "name": "Chirayu Clinic",
        "source": "Local Knowledge"
      }
    },
    {
      "type": "node",
      "id": 7579683193,
      "lat": 13.120977,
      "lon": 77.6176084,
      "tags": {
        "addr:district": "Bengaluru Urban",
        "addr:full": "Dwarka Nagar, Bengaluru",
        "addr:postcode": "560064",
        "addr:state": "Karnataka",
        "amenity": "hospital",
        "name": "Valens Hospitals",
        "source": "Local Knowledge"
      }
    },
    {
      "type": "node",
      "id": 7579683194,
      "lat": 13.121692,
      "lon": 77.6260514,
      "tags": {
        "addr:district": "Bengaluru Urban",
        "addr:full": "Kattigenahalli, Bengaluru",
        "addr:postcode": "560064",
        "addr:state": "Karnataka",
        "amenity": "clinic",
        "name": "Venkateshwara Clinic",
        "source": "Local Knowledge"
      }
    },
    {
      "type": "node",
      "id": 7579683201,
      "lat": 13.0982962,
      "lon": 77.6259125,
      "tags": {
        "addr:district": "Bengaluru Urban",
        "addr:full": "Agrahara Badavane, Bengaluru",
        "addr:postcode": "560064",
        "addr:state": "Karnataka",
        "amenity": "clinic",
        "name": "Chaithanya Poly Clinic",
        "source": "Local Knowledge"
      }
    },
    {
      "type": "node",
      "id": 7579683212,
      "lat": 13.10266,
      "lon": 77.631167,
      "tags": {
        "addr:district": "Bengaluru Urban",
        "addr:full": "Kogilu Layout, Yelahanka",
        "addr:postcode": "560064",
        "addr:state": "Karnataka",
        "amenity": "dentist",
        "name": "MK Dental Excellence",
        "source": "Local Knowledge"
      }
    },
    {
      "type": "node",
      "id": 7579683213,
      "lat": 13.102578,
      "lon": 77.627895,
      "tags": {
        "addr:district": "Bengaluru Urban",
        "addr:full": "Agrahara Badavane, Bengaluru",
        "addr:postcode": "560064",
        "addr:state": "Karnataka",
        "amenity": "hospital",
        "name": "Amruth Hospital",
        "name:kn": "ಅಮೃತ ಆಸ್ಪತ್ರೆ",
        "source": "Local Knowledge"
      }
    },
    {
      "type": "node",
      "id": 7579683217,
      "lat": 13.121743,
      "lon": 77.629478,
      "tags": {
        "addr:district": "Bengaluru Urban",
        "addr:full": "Saralaya Layout, Kattigenahalli, Bengaluru",
        "addr:postcode": "560064",
        "addr:state": "Karnataka",
        "amenity": "hospital",
        "name": "Saralaya Hospital",
        "source": "Local Knowledge"
      }
    },
    {
      "type": "node",
      "id": 7579683218,
      "lat": 13.115486,
      "lon": 77.635823,
      "tags": {
        "addr:district": "Bengaluru Urban",
        "addr:full": "Srinivasa Nagar, Bengaluru",
        "addr:postcode": "560064",
        "addr:state": "Karnataka",
        "amenity": "clinic",
        "name": "Reva Health Centre",
        "source": "Local Knowledge"
      }
    },
    {
      "type": "node",
      "id": 7579683220,
      "lat": 13.1215701,
      "lon": 77.6126077,
      "tags": {
        "addr:district": "Bengaluru Urban",
        "addr:full": "Vinayak Nagar, Kattigenahalli, Bengaluru",
        "addr:postcode": "560063",
        "addr:state": "Karnataka",
        "amenity": "hospital",
        "name": "Om Shakthi Hospital",
        "source": "Local Knowledge"
      }
    },
    {
      "type": "node",
      "id": 7579683225,
      "lat": 13.1025229,
      "lon": 77.6278506,
      "tags": {
        "addr:district": "Bengaluru Urban",
        "addr:full": "Kogilu Layout, Srinivaspur, Bengaluru",
        "addr:postcode": "560064",
        "addr:state": "Karnataka",
        "amenity": "hospital",
        "name": "Shadab Hospital",
        "source": "Local Knowledge"
      }
    },
    {
      "type": "node",
      "id": 7579683227,
      "lat": 13.1213645,
      "lon": 77.6173714,
      "tags": {
        "addr:district": "Bengaluru Urban",
        "addr:full": "Dwarka Nagar, Bengaluru",
        "addr:postcode": "560063",
        "addr:state": "Karnataka",
        "amenity": "clinic",
        "name": "Seven Hills Clinic",
        "source": "Local Knowledge"
      }
    },
    {
      "type": "node",
      "id": 7579683229,
      "lat": 13.1214663,
      "lon": 77.6153779,
      "tags": {
        "addr:district": "Bengaluru Urban",
        "addr:full": "Vinayaka Nagar, Bengaluru",
        "addr:postcode": "560064",
        "addr:state": "Karnataka",
        "amenity": "dentist",
        "name": "Dentteq Dental Clinic",
        "source": "Local Knowledge"
      }
    },
    {
      "type": "node",
      "id": 7579683230,
      "lat": 13.1022087,
      "lon": 77.6301433,
      "tags": {
        "addr:district": "Bengaluru Urban",
        "addr:full": "P V Complex, Kannuru, Bengaluru",
        "addr:postcode": "560064",
        "addr:state": "Karnataka",
        "amenity": "dentist",
        "name": "Indigo Dental Care",
        "source": "Local Knowledge"
      }
    },
    {
      "type": "node",
      "id": 7579683233,
      "lat": 13.1213917,
      "lon": 77.6124201,
      "tags": {
        "addr:district": "Bengaluru Urban",
        "addr:full": "Near Anandnagar, Yelahanka, Bengaluru",
        "addr:postcode": "560063",
        "addr:state": "Karnataka",
        "amenity": "clinic",
        "name": "Ganga ENT Clinic",
        "source": "Local Knowledge"
      }
    },
    {
      "type": "node",
      "id": 7579683234,
      "lat": 13.1219782,
      "lon": 77.6247778,
      "tags": {
        "addr:district": "Bengaluru Urban",
        "addr:full": "RK Hegde Nagar, Bengaluru",
        "addr:postcode": "560077",
        "addr:state": "Karnataka",
        "amenity": "dentist",
        "name": "Happy Pearl's Dental Clinic",
        "source": "Local Knowledge"
      }
    },
    {
      "type": "node",
      "id": 7579683240,
      "lat": 13.1215659,
      "lon": 77.6250507,
      "tags": {
        "addr:district": "Bengaluru Urban",
        "addr:full": "Kattigenahalli, Bengaluru",
        "addr:postcode": "560064",
        "addr:state": "Karnataka",
        "amenity": "hospital",
        "name": "Sri Arogya Hospital",
        "source": "Local Knowledge"
      }
    },
    {
      "type": "node",
      "id": 7579683247,
      "lat": 13.1213668,
      "lon": 77.6174817,
      "tags": {
        "addr:district": "Bengaluru Urban",
        "addr:full": "Bagalur Main Road, Vinayak Nagar, Kattigenahalli, Bengaluru",
        "addr:postcode": "560064",
        "addr:state": "Karnataka",
        "amenity": "hospital",
        "name": "Sapthagiri Hospital",
        "source": "Local Knowledge"
      }
    },
    {
      "type": "node",
      "id": 7579683254,
      "lat": 13.1205677,
      "lon": 77.6280394,
      "tags": {
        "addr:district": "Bengaluru Urban",
        "addr:full": "Kattigenahalli, Sathanur",
        "addr:state": "Karnataka",
        "amenity": "clinic",
        "name": "Nisarga Poly Clinic",
        "source": "Local Knowledge"
      }
    },
    {
      "type": "node",
      "id": 7579683258,
      "lat": 13.1026581,
      "lon": 77.6297932,
      "tags": {
        "addr:district": "Bengaluru Urban",
        "addr:full": "Kogilu Layout, Srinivaspur, Bengaluru",
        "addr:postcode": "560064",
        "addr:state": "Karnataka",
        "amenity": "hospital",
        "name": "Varsha Hospital",
        "source": "Local Knowledge"
      }
    },
    {
      "type": "node",
      "id": 7579683259,
      "lat": 13.102292,
      "lon": 77.6289175,
      "tags": {
        "addr:district": "Bengaluru Urban",
        "addr:full": "Kogilu Main Road, Bengaluru",
        "addr:postcode": "560064",
        "addr:state": "Karnataka",
        "amenity": "clinic",
        "name": "Sri Ragavendra Poly Clinic",
        "source": "Local Knowledge"
      }
    },
    {
      "type": "node",
      "id": 9667658456,
      "lat": 13.0838701,
      "lon": 77.6438865,
      "tags": {
        "alt_name": "Kentucky Fried Chicken",
        "alt_name:en": "Kentucky Fried Chicken",
        "alt_name:hi": "केंटुकी फ्राइड चिकन",
        "alt_name:pa": "ਕੈਂਟੁਕੀ ਫ੍ਰਾਈਡ ਚਿਕਨ",
        "alt_name:pnb": "کینٹکی فرائیڈ چکن",
        "alt_name:ur": "کینٹکی فرائیڈ چکن",
        "amenity": "fast_food",
        "brand": "KFC",
        "brand:en": "KFC",
        "brand:hi": "केएफसी",
        "brand:pa": "ਕੇਐਫਸੀ",
        "brand:pnb": "کے ایف سی",
        "brand:ur": "کے ایف سی",
        "brand:wikidata": "Q524757",
        "cuisine": "chicken",
        "name": "KFC",
        "name:en": "KFC",
        "name:hi": "केएफसी",
        "name:pa": "ਕੇਐਫਸੀ",
        "name:pnb": "کے ایف سی",
        "name:ur": "کے ایف سی",
        "takeaway": "yes"
      }
    },
    {
      "type": "node",
      "id": 9667658457,
      "lat": 13.0841026,
      "lon": 77.643688,
      "tags": {
        "amenity": "fast_food",
        "brand": "McDonald's",
        "brand:wikidata": "Q38076",
        "cuisine": "burger",
        "name": "McDonald's",
        "name:kn": "ಮ್ಯಾಕ್‌ಡೊನಾಲ್ಡ್ಸ್",
        "takeaway": "yes"
      }
    },
    {
      "type": "node",
      "id": 9667658458,
      "lat": 13.0839955,
      "lon": 77.6441547,
      "tags": {
        "name": "Girias",
        "shop": "electronics"
      }
    },
    {
      "type": "node",
      "id": 9667658459,
      "lat": 13.0835278,
      "lon": 77.6439267,
      "tags": {
        "name": "Miniso",
        "shop": "clothes"
      }
    },
    {
      "type": "node",
      "id": 9667658460,
      "lat": 13.083614,
      "lon": 77.6435298,
      "tags": {
        "name": "Westside",
        "shop": "clothes"
      }
    },
    {
      "type": "node",
      "id": 9667696124,
      "lat": 13.0834834,
      "lon": 77.6430121,
      "tags": {
        "amenity": "restaurant",
        "name": "Quattro"
      }
    },
    {
      "type": "node",
      "id": 9667696125,
      "lat": 13.0838805,
      "lon": 77.6430818,
      "tags": {
        "amenity": "bar",
        "name": "The Library Bar"
      }
    },
    {
      "type": "node",
      "id": 9667696126,
      "lat": 13.0842149,
      "lon": 77.6431784,
      "tags": {
        "amenity": "restaurant",
        "cuisine": "asian",
        "name": "The Lotus Oriental"
      }
    },
    {
      "type": "node",
      "id": 9667696127,
      "lat": 13.0844631,
      "lon": 77.6431301,
      "tags": {
        "amenity": "cafe",
        "name": "The Lobby Lounge"
      }
    },
    {
      "type": "node",
      "id": 9667696128,
      "lat": 13.0845467,
      "lon": 77.6427948,
      "tags": {
        "amenity": "restaurant",
        "cuisine": "indian",
        "name": "Falak"
      }
    },
    {
      "type": "node",
      "id": 10314206951,
      "lat": 13.0836402,
      "lon": 77.6433903,
      "tags": {
        "amenity": "fast_food",
        "brand": "Krispy Kreme",
        "brand:wikidata": "Q1192805",
        "cuisine": "donut",
        "name": "Krispy Kreme",
        "takeaway": "yes"
      }
    },
    {
      "type": "node",
      "id": 10314206952,
      "lat": 13.0834364,
      "lon": 77.6433232,
      "tags": {
        "amenity": "cafe",
        "brand": "Starbucks",
        "brand:wikidata": "Q37158",
        "cuisine": "coffee_shop",
        "name": "Starbucks",
        "official_name": "Starbucks Coffee",
        "takeaway": "yes"
      }
    },
    {
      "type": "node",
      "id": 10314206953,
      "lat": 13.0833711,
      "lon": 77.6434439,
      "tags": {
        "amenity": "cinema",
        "name": "PVR",
        "operator": "PVR Cinemas",
        "screen": "7"
      }
    },
    {
      "type": "node",
      "id": 10685071181,
      "lat": 13.0842258,
      "lon": 77.6440472,
      "tags": {
        "name": "Plum Goodness",
        "shop": "beauty",
        "website": "https://plumgoodness.com/"
      }
    },
    {
      "type": "node",
      "id": 10946873741,
      "lat": 13.084032,
      "lon": 77.6439562,
      "tags": {
        "amenity": "fast_food",
        "building": "yes",
        "cuisine": "pizza",
        "delivery": "yes",
        "name": "Gopizza",
        "operator": "GOPIZZA",
        "takeaway": "yes"
      }
    },
    {
      "type": "node",
      "id": 11386036953,
      "lat": 13.121367,
      "lon": 77.6175957,
      "tags": {
        "amenity": "restaurant",
        "name": "Panchami sagar"
      }
    },
    {
      "type": "node",
      "id": 11475697469,
      "lat": 13.0838256,
      "lon": 77.6440313,
      "tags": {
        "amenity": "bar",
        "contact:instagram": "thegrootin",
        "name": "The Groot",
        "website": "https://thegroot.in/"
      }
    },
    {
      "type": "node",
      "id": 11640334690,
      "lat": 13.0833356,
      "lon": 77.6433237,
      "tags": {
        "addr:city": "Bengaluru",
        "addr:postcode": "560064",
        "amenity": "pub",
        "dog": "leashed",
        "name": "Geist Brewing Co. Hennur",
        "pets": "yes",
        "phone": "+918867707102",
        "website": "https://geist.com"
      }
    },
    {
      "type": "node",
      "id": 11644984388,
      "lat": 13.0841496,
      "lon": 77.6445678,
      "tags": {
        "access": "permissive",
        "amenity": "parking_entrance",
        "parking": "underground"
      }
    },
    {
      "type": "node",
      "id": 12201270868,
      "lat": 13.1236389,
      "lon": 77.6190497,
      "tags": {
        "amenity": "parking_entrance"
      }
    },
    {
      "type": "node",
      "id": 12201270870,
      "lat": 13.123549,
      "lon": 77.619059,
      "tags": {
        "amenity": "parking_entrance"
      }
    },
    {
      "type": "node",
      "id": 12211544312,
      "lat": 13.1223644,
      "lon": 77.6306507,
      "tags": {
        "amenity": "restaurant",
        "check_date": "2024-09-30",
        "cuisine": "indian",
        "diet:vegetarian": "yes",
        "name": "Krishna Leela Grand"
      }
    },
    {
      "type": "node",
      "id": 12211544313,
      "lat": 13.1216825,
      "lon": 77.6267464,
      "tags": {
        "amenity": "ice_cream",
        "check_date": "2024-09-30",
        "name": "Polar Bear"
      }
    },
    {
      "type": "node",
      "id": 12211544314,
      "lat": 13.1216609,
      "lon": 77.6266052,
      "tags": {
        "check_date": "2024-09-30",
        "name": "More",
        "shop": "supermarket"
      }
    },
    {
      "type": "node",
      "id": 12211559773,
      "lat": 13.1214308,
      "lon": 77.6218865,
      "tags": {
        "amenity": "place_of_worship",
        "check_date": "2024-09-30",
        "religion": "hindu"
      }
    },
    {
      "type": "node",
      "id": 12211559774,
      "lat": 13.1213753,
      "lon": 77.6204923,
      "tags": {
        "check_date": "2024-09-30",
        "name": "Airtel",
        "shop": "telecommunication"
      }
    },
    {
      "type": "node",
      "id": 12211559775,
      "lat": 13.1210351,
      "lon": 77.6174285,
      "tags": {
        "check_date": "2024-09-30",
        "name": "Tumbledry",
        "shop": "dry_cleaning"
      }
    },
    {
      "type": "node",
      "id": 12211559776,
      "lat": 13.1208905,
      "lon": 77.6164926,
      "tags": {
        "amenity": "bank",
        "brand": "Axis Bank",
        "brand:wikidata": "Q2003549",
        "check_date": "2024-09-30",
        "name": "Axis Bank"
      }
    },
    {
      "type": "node",
      "id": 12211559777,
      "lat": 13.1213851,
      "lon": 77.6141248,
      "tags": {
        "amenity": "restaurant",
        "brand": "Pizza Hut",
        "brand:wikidata": "Q191615",
        "check_date": "2024-09-30",
        "cuisine": "pizza",
        "name": "Pizza Hut",
        "name:kn": "ಪಿಟ್ಸ ಹಟ್"
      }
    },
    {
      "type": "node",
      "id": 12211559778,
      "lat": 13.1212999,
      "lon": 77.6140854,
      "tags": {
        "brand": "Lenskart",
        "brand:wikidata": "Q17068753",
        "check_date": "2024-09-30",
        "name": "Lenskart",
        "shop": "optician"
      }
    },
    {
      "type": "node",
      "id": 12212969786,
      "lat": 13.1213515,
      "lon": 77.617323,
      "tags": {
        "amenity": "restaurant",
        "check_date": "2024-10-01",
        "name": "Dine Spot"
      }
    },
    {
      "type": "node",
      "id": 12212969787,
      "lat": 13.1216608,
      "lon": 77.6199518,
      "tags": {
        "check_date": "2024-10-01",
        "name": "Adishwar",
        "shop": "electronics"
      }
    },
    {
      "type": "node",
      "id": 12212969788,
      "lat": 13.1218601,
      "lon": 77.6226174,
      "tags": {
        "amenity": "restaurant",
        "check_date": "2024-10-09",
        "name": "Thamaq"
      }
    },
    {
      "type": "node",
      "id": 12212969789,
      "lat": 13.1219021,
      "lon": 77.6232327,
      "tags": {
        "amenity": "bank",
        "brand": "Kotak Mahindra Bank",
        "brand:wikidata": "Q2040404",
        "check_date": "2024-10-01",
        "name": "Kotak Mahindra Bank"
      }
    },
    {
      "type": "node",
      "id": 12212969790,
      "lat": 13.1220989,
      "lon": 77.6278814,
      "tags": {
        "check_date": "2024-10-01",
        "name": "Vastra",
        "shop": "clothes"
      }
    },
    {
      "type": "node",
      "id": 12212969791,
      "lat": 13.1222311,
      "lon": 77.6290095,
      "tags": {
        "amenity": "pharmacy",
        "check_date": "2024-10-01",
        "healthcare": "pharmacy",
        "name": "Aditya Pharma"
      }
    },
    {
      "type": "node",
      "id": 12212969792,
      "lat": 13.1222868,
      "lon": 77.6294122,
      "tags": {
        "amenity": "pharmacy",
        "check_date": "2024-10-01",
        "healthcare": "pharmacy",
        "name": "Chiru Pharma"
      }
    },
    {
      "type": "node",
      "id": 12212978983,
      "lat": 13.122356,
      "lon": 77.6297732,
      "tags": {
        "check_date": "2024-10-01",
        "name": "Krishna Sweets",
        "shop": "confectionery"
      }
    },
    {
      "type": "node",
      "id": 12212978985,
      "lat": 13.12233,
      "lon": 77.6296681,
      "tags": {
        "amenity": "restaurant",
        "check_date": "2024-10-01",
        "name": "Donne Biryani Corner"
      }
    },
    {
      "type": "node",
      "id": 12212978986,
      "lat": 13.122016,
      "lon": 77.630345,
      "tags": {
        "amenity": "pharmacy",
        "brand": "Apollo Pharmacy",
        "brand:wikidata": "Q62562612",
        "check_date": "2024-10-01",
        "healthcare": "pharmacy",
        "name": "Apollo Pharmacy"
      }
    },
    {
      "type": "node",
      "id": 12212978987,
      "lat": 13.1220914,
      "lon": 77.6309162,
      "tags": {
        "amenity": "fast_food",
        "check_date": "2024-10-01",
        "name": "Biggies Burger"
      }
    },
    {
      "type": "node",
      "id": 12234798249,
      "lat": 13.1215257,
      "lon": 77.6267513,
      "tags": {
        "check_date": "2024-10-08",
        "name": "G.K. Vale",
        "shop": "photo"
      }
    },
    {
      "type": "node",
      "id": 12234798250,
      "lat": 13.1215205,
      "lon": 77.6266519,
      "tags": {
        "check_date": "2024-10-08",
        "name": "Lakme Salon",
        "shop": "beauty"
      }
    },
    {
      "type": "node",
      "id": 12234828969,
      "lat": 13.1216215,
      "lon": 77.6258249,
      "tags": {
        "check_date": "2024-10-08",
        "name": "All Mart",
        "shop": "supermarket"
      }
    },
    {
      "type": "node",
      "id": 12236664687,
      "lat": 13.1218806,
      "lon": 77.623023,
      "tags": {
        "amenity": "restaurant",
        "check_date": "2024-10-09",
        "name": "Panchami Garden"
      }
    },
    {
      "type": "node",
      "id": 12236664688,
      "lat": 13.1219231,
      "lon": 77.6258721,
      "tags": {
        "amenity": "place_of_worship",
        "check_date": "2024-10-09",
        "name": "Hanuman Temple",
        "religion": "hindu"
      }
    },
    {
      "type": "node",
      "id": 12265556668,
      "lat": 13.1025916,
      "lon": 77.6292752,
      "tags": {
        "amenity": "pharmacy",
        "name": "P.P Pharma"
      }
    },
    {
      "type": "node",
      "id": 12265567755,
      "lat": 13.1042386,
      "lon": 77.6195773,
      "tags": {
        "check_date": "2024-10-19",
        "name": "IOC",
        "shop": "fuel"
      }
    },
    {
      "type": "node",
      "id": 12265567757,
      "lat": 13.1036172,
      "lon": 77.6162882,
      "tags": {
        "check_date": "2024-10-19",
        "name": "SLV bakery",
        "shop": "bakery"
      }
    },
    {
      "type": "node",
      "id": 12265573828,
      "lat": 13.1024983,
      "lon": 77.6307431,
      "tags": {
        "name": "Limra Tea Stall",
        "shop": "bakery"
      }
    },
    {
      "type": "node",
      "id": 12265574591,
      "lat": 13.1039619,
      "lon": 77.6145301,
      "tags": {
        "amenity": "fast_food",
        "check_date": "2024-10-19",
        "cuisine": "juice",
        "name": "Om Ganesh Fruit And Juice Center"
      }
    },
    {
      "type": "node",
      "id": 12265588386,
      "lat": 13.1024731,
      "lon": 77.6284623,
      "tags": {
        "amenity": "fuel",
        "name": "HP"
      }
    },
    {
      "type": "node",
      "id": 12342928518,
      "lat": 13.1035676,
      "lon": 77.6156677,
      "tags": {
        "amenity": "atm",
        "cash_in": "yes",
        "check_date": "2024-11-12",
        "covered": "yes",
        "currency:INR": "yes",
        "drive_through": "no",
        "indoor": "yes",
        "lit": "yes",
        "operator": "ICICI"
      }
    },
    {
      "type": "node",
      "id": 12357225897,
      "lat": 13.1121169,
      "lon": 77.6168083,
      "tags": {
        "amenity": "shelter",
        "shelter_type": "gazebo"
      }
    },
    {
      "type": "node",
      "id": 13075555919,
      "lat": 13.0832669,
      "lon": 77.6436602,
      "tags": {
        "addr:city": "Bengaluru",
        "addr:country": "IN",
        "addr:neighbourhood": "Bhartiya City",
        "air_conditioning": "yes",
        "amenity": "restaurant",
        "check_date": "2025-08-17",
        "contact:instagram": "sinonnas",
        "cuisine": "pizza",
        "delivery": "yes",
        "level": "0",
        "name": "Si Nonna's",
        "reservation": "yes",
        "takeaway": "yes",
        "toilets": "yes",
        "website": "https://sinonnas.com/"
      }
    },
    {
      "type": "node",
      "id": 13288585568,
      "lat": 13.0843057,
      "lon": 77.6431187,
      "tags": {
        "amenity": "restaurant",
        "name": "Alfresco"
      }
    },
    {
      "type": "node",
      "id": 13325810043,
      "lat": 13.1160982,
      "lon": 77.6354744,
      "tags": {
        "name": "Nandini",
        "shop": "dairy"
      }
    },
    {
      "type": "node",
      "id": 13325810056,
      "lat": 13.1156754,
      "lon": 77.6359987,
      "tags": {
        "amenity": "food_court",
        "name": "REVA Food Court",
        "outdoor_seating": "yes"
      }
    },
    {
      "type": "node",
      "id": 13340595779,
      "lat": 13.0832382,
      "lon": 77.643777,
      "tags": {
        "amenity": "restaurant",
        "name": "MTR"
      }
    },
    {
      "type": "node",
      "id": 13340602770,
      "lat": 13.0833171,
      "lon": 77.6432488,
      "tags": {
        "brand": "Mango",
        "brand:wikidata": "Q136503",
        "name": "Mango",
        "shop": "clothes"
      }
    },
    {
      "type": "node",
      "id": 13340602771,
      "lat": 13.0834206,
      "lon": 77.6433784,
      "tags": {
        "brand": "Bose",
        "brand:wikidata": "Q328568",
        "name": "Bose",
        "shop": "hifi"
      }
    },
    {
      "type": "way",
      "id": 133125919,
      "center": {
        "lat": 13.129696,
        "lon": 77.6168769
      },
      "tags": {
        "amenity": "school",
        "name": "Kendriya Vidyalaya, Yelahanka AFS",
        "name:kn": "ಕೇಂದ್ರೀಯ ವಿದ್ಯಾಲಯ"
      }
    },
    {
      "type": "way",
      "id": 353766456,
      "center": {
        "lat": 13.1155417,
        "lon": 77.6358788
      },
      "tags": {
        "amenity": "university",
        "landuse": "education",
        "name": "REVA University",
        "name:kn": "ರೇವಾ ವಿಶ್ವವಿದ್ಯಾಲಯ"
      }
    },
    {
      "type": "way",
      "id": 362345157,
      "center": {
        "lat": 13.114666,
        "lon": 77.6370646
      },
      "tags": {
        "leisure": "pitch",
        "sport": "badminton"
      }
    },
    {
      "type": "way",
      "id": 362345305,
      "center": {
        "lat": 13.115285,
        "lon": 77.637139
      },
      "tags": {
        "landuse": "grass",
        "leisure": "garden"
      }
    },
    {
      "type": "way",
      "id": 363368963,
      "center": {
        "lat": 13.1146107,
        "lon": 77.6353386
      },
      "tags": {
        "amenity": "library",
        "building": "university",
        "name": "REVA University Library",
        "name:kn": "ರೇವಾ ವಿಶ್ವವಿದ್ಯಾಲಯ ಗ್ರಂಥಾಲಯ"
      }
    },
    {
      "type": "way",
      "id": 363373284,
      "center": {
        "lat": 13.1167986,
        "lon": 77.6361176
      },
      "tags": {
        "leisure": "stadium"
      }
    },
    {
      "type": "way",
      "id": 363378772,
      "center": {
        "lat": 13.1164462,
        "lon": 77.6351953
      },
      "tags": {
        "leisure": "park"
      }
    },
    {
      "type": "way",
      "id": 363378774,
      "center": {
        "lat": 13.1155021,
        "lon": 77.6352419
      },
      "tags": {
        "leisure": "park"
      }
    },
    {
      "type": "way",
      "id": 363378775,
      "center": {
        "lat": 13.1170362,
        "lon": 77.635142
      },
      "tags": {
        "leisure": "park"
      }
    },
    {
      "type": "way",
      "id": 363378776,
      "center": {
        "lat": 13.1146709,
        "lon": 77.6351224
      },
      "tags": {
        "leisure": "park"
      }
    },
    {
      "type": "way",
      "id": 363378777,
      "center": {
        "lat": 13.1147006,
        "lon": 77.6354764
      },
      "tags": {
        "leisure": "park"
      }
    },
    {
      "type": "way",
      "id": 363378778,
      "center": {
        "lat": 13.1174765,
        "lon": 77.6350262
      },
      "tags": {
        "access": "private",
        "amenity": "parking",
        "parking": "surface"
      }
    },
    {
      "type": "way",
      "id": 363378788,
      "center": {
        "lat": 13.1156581,
        "lon": 77.6362036
      },
      "tags": {
        "landuse": "grass",
        "leisure": "park"
      }
    },
    {
      "type": "way",
      "id": 363378789,
      "center": {
        "lat": 13.1156169,
        "lon": 77.6357835
      },
      "tags": {
        "landuse": "grass",
        "leisure": "park"
      }
    },
    {
      "type": "way",
      "id": 363378793,
      "center": {
        "lat": 13.1151513,
        "lon": 77.6357441
      },
      "tags": {
        "landuse": "grass",
        "leisure": "park"
      }
    },
    {
      "type": "way",
      "id": 363378794,
      "center": {
        "lat": 13.1147018,
        "lon": 77.6357933
      },
      "tags": {
        "landuse": "grass",
        "leisure": "park"
      }
    },
    {
      "type": "way",
      "id": 628739078,
      "center": {
        "lat": 13.1240154,
        "lon": 77.6204825
      },
      "tags": {
        "addr:city": "Bengaluru",
        "addr:postcode": "560063",
        "addr:street": "Bagalur Road",
        "amenity": "college",
        "contact:email": "brindavancollege.edu.in",
        "internet_access": "yes",
        "name": "Brindavan Group of Institutions",
        "phone": "080-28478766"
      }
    },
    {
      "type": "way",
      "id": 628742116,
      "center": {
        "lat": 13.1255642,
        "lon": 77.620526
      },
      "tags": {
        "leisure": "pitch",
        "name": "Soccer Field",
        "sport": "soccer"
      }
    },
    {
      "type": "way",
      "id": 628747685,
      "center": {
        "lat": 13.1237984,
        "lon": 77.6202242
      },
      "tags": {
        "amenity": "cafe",
        "building": "yes",
        "cuisine": "rice",
        "name": "Brindavan College Canteen",
        "outdoor_seating": "yes"
      }
    },
    {
      "type": "way",
      "id": 781780396,
      "center": {
        "lat": 13.0846992,
        "lon": 77.6460286
      },
      "tags": {
        "leisure": "pitch",
        "sport": "basketball"
      }
    },
    {
      "type": "way",
      "id": 781780401,
      "center": {
        "lat": 13.0831774,
        "lon": 77.639291
      },
      "tags": {
        "leisure": "garden"
      }
    },
    {
      "type": "way",
      "id": 781780409,
      "center": {
        "lat": 13.0843141,
        "lon": 77.6417447
      },
      "tags": {
        "leisure": "sports_centre"
      }
    },
    {
      "type": "way",
      "id": 781780413,
      "center": {
        "lat": 13.085129,
        "lon": 77.6458693
      },
      "tags": {
        "leisure": "park"
      }
    },
    {
      "type": "way",
      "id": 781780414,
      "center": {
        "lat": 13.0845383,
        "lon": 77.6441868
      },
      "tags": {
        "leisure": "park"
      }
    },
    {
      "type": "way",
      "id": 844928305,
      "center": {
        "lat": 13.0899926,
        "lon": 77.6364272
      },
      "tags": {
        "amenity": "place_of_worship",
        "name": "New Haj Bhavan",
        "religion": "muslim"
      }
    },
    {
      "type": "way",
      "id": 844928306,
      "center": {
        "lat": 13.0883323,
        "lon": 77.6371783
      },
      "tags": {
        "addr:city": "Hegde Nagar, Bangalore",
        "addr:postcode": "560 064",
        "amenity": "college",
        "email": "info@knsit.com",
        "fax": "+91-80-28567359",
        "name": "KNS Institute of Technology",
        "phone": "+91-80-28567955",
        "website": "https://www.knsit.com/"
      }
    },
    {
      "type": "way",
      "id": 1052012963,
      "center": {
        "lat": 13.0860699,
        "lon": 77.6359056
      },
      "tags": {
        "amenity": "college",
        "name": "Karnataka College of Pharmacy"
      }
    },
    {
      "type": "way",
      "id": 1084735115,
      "center": {
        "lat": 13.1091167,
        "lon": 77.6142983
      },
      "tags": {
        "amenity": "school",
        "name": "Alpha Public School"
      }
    },
    {
      "type": "way",
      "id": 1084735133,
      "center": {
        "lat": 13.1157885,
        "lon": 77.6120715
      },
      "tags": {
        "amenity": "school",
        "name": "Chinmaya Vidyalaya",
        "name:kn": "ಚಿನ್ಮಯ ವಿದ್ಯಾಲಯ"
      }
    },
    {
      "type": "way",
      "id": 1084735135,
      "center": {
        "lat": 13.121393,
        "lon": 77.6269081
      },
      "tags": {
        "amenity": "school",
        "name": "Yashasvi Vidya Niketan",
        "name:kn": "ಯಶಸ್ವಿ ವಿದ್ಯಾ ನಿಕೇತನ"
      }
    },
    {
      "type": "way",
      "id": 1167174305,
      "center": {
        "lat": 13.0960054,
        "lon": 77.6435891
      },
      "tags": {
        "addr:city": "Bengaluru",
        "addr:postcode": "560064",
        "addr:street": "Paradise Enclave, Bellahalli",
        "amenity": "place_of_worship",
        "name": "Christian Fellowship Church",
        "religion": "christian"
      }
    },
    {
      "type": "way",
      "id": 1168448945,
      "center": {
        "lat": 13.097274,
        "lon": 77.6477522
      },
      "tags": {
        "addr:city": "Bengaluru",
        "addr:postcode": "562149",
        "addr:street": "Kannuru Main Road, Mitganahalli, Bellahalli",
        "amenity": "hospital",
        "healthcare": "hospital",
        "name": "Government Primary Health Centre",
        "name:kn": "ಸರ್ಕಾರಿ ಪ್ರಾಥಮಿಕ ಆರೋಗ್ಯ ಕೇಂದ್ರ",
        "operator": "Health and Family Welfare Development",
        "operator:type": "government"
      }
    },
    {
      "type": "way",
      "id": 1191446972,
      "center": {
        "lat": 13.0836865,
        "lon": 77.6418174
      },
      "tags": {
        "leisure": "park"
      }
    },
    {
      "type": "way",
      "id": 1199335040,
      "center": {
        "lat": 13.0842992,
        "lon": 77.6406418
      },
      "tags": {
        "leisure": "park"
      }
    },
    {
      "type": "way",
      "id": 1208006771,
      "center": {
        "lat": 13.0991489,
        "lon": 77.6330574
      },
      "tags": {
        "leisure": "pitch",
        "sport": "basketball"
      }
    },
    {
      "type": "way",
      "id": 1208006772,
      "center": {
        "lat": 13.0992456,
        "lon": 77.6329083
      },
      "tags": {
        "leisure": "pitch",
        "sport": "tennis"
      }
    },
    {
      "type": "way",
      "id": 1208006773,
      "center": {
        "lat": 13.0985984,
        "lon": 77.6326266
      },
      "tags": {
        "leisure": "park"
      }
    },
    {
      "type": "way",
      "id": 1208006778,
      "center": {
        "lat": 13.1012643,
        "lon": 77.6312793
      },
      "tags": {
        "leisure": "swimming_pool"
      }
    },
    {
      "type": "way",
      "id": 1208006779,
      "center": {
        "lat": 13.1007215,
        "lon": 77.6307124
      },
      "tags": {
        "leisure": "pitch",
        "sport": "tennis"
      }
    },
    {
      "type": "way",
      "id": 1240749073,
      "center": {
        "lat": 13.0850672,
        "lon": 77.6459584
      },
      "tags": {
        "access": "private",
        "leisure": "pitch",
        "sport": "tennis"
      }
    },
    {
      "type": "way",
      "id": 1240749074,
      "center": {
        "lat": 13.0853739,
        "lon": 77.6459966
      },
      "tags": {
        "access": "private",
        "leisure": "pitch",
        "sport": "tennis"
      }
    },
    {
      "type": "way",
      "id": 1252736692,
      "center": {
        "lat": 13.083611,
        "lon": 77.6438653
      },
      "tags": {
        "alt_name": "Bhartiya City Mall",
        "landuse": "retail",
        "name": "Bhartiya Mall",
        "official_name": "Bhartiya City Center",
        "shop": "mall",
        "website": "https://bhartiyacity.com/bhartiya-city-centre/"
      }
    },
    {
      "type": "way",
      "id": 1252777840,
      "center": {
        "lat": 13.0857199,
        "lon": 77.6435644
      },
      "tags": {
        "access": "permissive",
        "amenity": "parking",
        "parking": "surface"
      }
    },
    {
      "type": "way",
      "id": 1252777841,
      "center": {
        "lat": 13.086531,
        "lon": 77.6440367
      },
      "tags": {
        "leisure": "park"
      }
    },
    {
      "type": "way",
      "id": 1252777843,
      "center": {
        "lat": 13.0853178,
        "lon": 77.6447837
      },
      "tags": {
        "access": "private",
        "leisure": "swimming_pool"
      }
    },
    {
      "type": "way",
      "id": 1252777844,
      "center": {
        "lat": 13.0856831,
        "lon": 77.6448334
      },
      "tags": {
        "access": "private",
        "leisure": "swimming_pool"
      }
    },
    {
      "type": "way",
      "id": 1252777845,
      "center": {
        "lat": 13.0855075,
        "lon": 77.644674
      },
      "tags": {
        "access": "private",
        "leisure": "swimming_pool"
      }
    },
    {
      "type": "way",
      "id": 1252777846,
      "center": {
        "lat": 13.0855617,
        "lon": 77.6447435
      },
      "tags": {
        "leisure": "park"
      }
    },
    {
      "type": "way",
      "id": 1252777847,
      "center": {
        "lat": 13.0850144,
        "lon": 77.645182
      },
      "tags": {
        "leisure": "park"
      }
    },
    {
      "type": "way",
      "id": 1252777848,
      "center": {
        "lat": 13.0854736,
        "lon": 77.6452692
      },
      "tags": {
        "leisure": "park"
      }
    },
    {
      "type": "way",
      "id": 1252777849,
      "center": {
        "lat": 13.0859163,
        "lon": 77.6453108
      },
      "tags": {
        "leisure": "park"
      }
    },
    {
      "type": "way",
      "id": 1252777850,
      "center": {
        "lat": 13.086015,
        "lon": 77.6443177
      },
      "tags": {
        "leisure": "park"
      }
    },
    {
      "type": "way",
      "id": 1252777851,
      "center": {
        "lat": 13.0855708,
        "lon": 77.6442238
      },
      "tags": {
        "leisure": "park"
      }
    },
    {
      "type": "way",
      "id": 1252777852,
      "center": {
        "lat": 13.0851159,
        "lon": 77.6441692
      },
      "tags": {
        "leisure": "park"
      }
    },
    {
      "type": "way",
      "id": 1267624394,
      "center": {
        "lat": 13.1252899,
        "lon": 77.6221235
      },
      "tags": {
        "access": "private",
        "leisure": "swimming_pool"
      }
    },
    {
      "type": "way",
      "id": 1267624397,
      "center": {
        "lat": 13.125284,
        "lon": 77.6220626
      },
      "tags": {
        "leisure": "park"
      }
    },
    {
      "type": "way",
      "id": 1267624398,
      "center": {
        "lat": 13.1244055,
        "lon": 77.6218231
      },
      "tags": {
        "leisure": "garden"
      }
    },
    {
      "type": "way",
      "id": 1267624408,
      "center": {
        "lat": 13.1226344,
        "lon": 77.6217587
      },
      "tags": {
        "leisure": "garden"
      }
    },
    {
      "type": "way",
      "id": 1267672107,
      "center": {
        "lat": 13.1273101,
        "lon": 77.6182855
      },
      "tags": {
        "access": "private",
        "amenity": "parking",
        "building": "parking",
        "name": "MLCP",
        "parking": "multi-storey"
      }
    },
    {
      "type": "way",
      "id": 1272839501,
      "center": {
        "lat": 13.1291905,
        "lon": 77.6169927
      },
      "tags": {
        "leisure": "pitch",
        "sport": "basketball"
      }
    },
    {
      "type": "way",
      "id": 1278818348,
      "center": {
        "lat": 13.102354,
        "lon": 77.6285336
      },
      "tags": {
        "amenity": "fuel"
      }
    },
    {
      "type": "way",
      "id": 1279826101,
      "center": {
        "lat": 13.1041043,
        "lon": 77.625389
      },
      "tags": {
        "leisure": "pitch",
        "sport": "tennis"
      }
    },
    {
      "type": "way",
      "id": 1279826104,
      "center": {
        "lat": 13.1043015,
        "lon": 77.6252391
      },
      "tags": {
        "amenity": "school",
        "name": "EuroSchool North Camputs"
      }
    },
    {
      "type": "way",
      "id": 1279826113,
      "center": {
        "lat": 13.1028982,
        "lon": 77.6236634
      },
      "tags": {
        "amenity": "college",
        "name": "Presidency PU College, Kogilu"
      }
    },
    {
      "type": "way",
      "id": 1279826119,
      "center": {
        "lat": 13.1031266,
        "lon": 77.6195133
      },
      "tags": {
        "amenity": "school",
        "name": "National Public School, North",
        "name:kn": "ರಾಷ್ಟ್ರೀಯ ಸಾರ್ವಜನಿಕ ಶಾಲೆ"
      }
    },
    {
      "type": "way",
      "id": 1279826126,
      "center": {
        "lat": 13.1021953,
        "lon": 77.6146249
      },
      "tags": {
        "leisure": "pitch",
        "sport": "tennis"
      }
    },
    {
      "type": "way",
      "id": 1279826182,
      "center": {
        "lat": 13.0988756,
        "lon": 77.6114055
      },
      "tags": {
        "amenity": "events_venue",
        "landuse": "commercial",
        "name": "VK Palace"
      }
    },
    {
      "type": "way",
      "id": 1299793458,
      "center": {
        "lat": 13.0972611,
        "lon": 77.6362261
      },
      "tags": {
        "amenity": "place_of_worship",
        "religion": "muslim"
      }
    },
    {
      "type": "way",
      "id": 1312557132,
      "center": {
        "lat": 13.0997847,
        "lon": 77.6396204
      },
      "tags": {
        "amenity": "events_venue",
        "landuse": "commercial",
        "name": "Aarambha"
      }
    },
    {
      "type": "way",
      "id": 1312557135,
      "center": {
        "lat": 13.0917737,
        "lon": 77.6361751
      },
      "tags": {
        "amenity": "fuel",
        "brand": "Hindustan Petroleum",
        "brand:wikidata": "Q1619375",
        "name": "HP",
        "official_name": "Hindustan Petroleum"
      }
    },
    {
      "type": "way",
      "id": 1338323731,
      "center": {
        "lat": 13.1190734,
        "lon": 77.6329461
      },
      "tags": {
        "amenity": "fuel"
      }
    },
    {
      "type": "way",
      "id": 1338323862,
      "center": {
        "lat": 13.1226834,
        "lon": 77.6324227
      },
      "tags": {
        "amenity": "fuel",
        "check_date": "2024-09-30",
        "name": "Hindustan Petroleum",
        "name:kn": "ಹಿಂದುಸ್ತಾನ್ ಪೆಟ್ರೋಲಿಯಂ"
      }
    },
    {
      "type": "way",
      "id": 1346902328,
      "center": {
        "lat": 13.0956761,
        "lon": 77.6433987
      },
      "tags": {
        "access": "permissive",
        "amenity": "parking",
        "parking": "surface"
      }
    },
    {
      "type": "way",
      "id": 1346902339,
      "center": {
        "lat": 13.0895486,
        "lon": 77.6399907
      },
      "tags": {
        "leisure": "park"
      }
    },
    {
      "type": "way",
      "id": 1347351891,
      "center": {
        "lat": 13.1042565,
        "lon": 77.6198807
      },
      "tags": {
        "amenity": "fuel"
      }
    },
    {
      "type": "way",
      "id": 1347351892,
      "center": {
        "lat": 13.1052106,
        "lon": 77.6203759
      },
      "tags": {
        "amenity": "school",
        "check_date": "2024-10-19",
        "name": "Millenium World School"
      }
    },
    {
      "type": "way",
      "id": 1347351937,
      "center": {
        "lat": 13.1041687,
        "lon": 77.6290065
      },
      "tags": {
        "amenity": "school",
        "name": "Mathru Center for the Dead and Differently-abled"
      }
    },
    {
      "type": "way",
      "id": 1347351940,
      "center": {
        "lat": 13.1045759,
        "lon": 77.6276291
      },
      "tags": {
        "amenity": "place_of_worship",
        "religion": "hindu"
      }
    },
    {
      "type": "way",
      "id": 1347351947,
      "center": {
        "lat": 13.1031357,
        "lon": 77.6195414
      },
      "tags": {
        "leisure": "pitch"
      }
    },
    {
      "type": "way",
      "id": 1347351988,
      "center": {
        "lat": 13.0993308,
        "lon": 77.6213988
      },
      "tags": {
        "amenity": "school",
        "name": "Navkis Educational Centre, Kogilu"
      }
    },
    {
      "type": "way",
      "id": 1373685914,
      "center": {
        "lat": 13.1214351,
        "lon": 77.6232339
      },
      "tags": {
        "amenity": "fuel",
        "check_date": "2024-10-16",
        "check_date:compressed_air": "2024-10-16",
        "compressed_air": "yes",
        "name": "Indian Oil"
      }
    },
    {
      "type": "way",
      "id": 1383295695,
      "center": {
        "lat": 13.1011975,
        "lon": 77.6332908
      },
      "tags": {
        "amenity": "school",
        "landuse": "education",
        "name": "Shams Public School"
      }
    },
    {
      "type": "way",
      "id": 1383295697,
      "center": {
        "lat": 13.1010472,
        "lon": 77.6346201
      },
      "tags": {
        "amenity": "place_of_worship",
        "name": "Dargah-e-Sharif Hazrath Sultan Shahwar Ali Shah Hussaini Khadari Sarwari",
        "religion": "muslim"
      }
    },
    {
      "type": "way",
      "id": 1424743343,
      "center": {
        "lat": 13.1043409,
        "lon": 77.6106994
      },
      "tags": {
        "amenity": "fuel"
      }
    },
    {
      "type": "way",
      "id": 1426691106,
      "center": {
        "lat": 13.1199293,
        "lon": 77.6123727
      },
      "tags": {
        "amenity": "school",
        "landuse": "education"
      }
    },
    {
      "type": "way",
      "id": 1427144679,
      "center": {
        "lat": 13.115139,
        "lon": 77.6339212
      },
      "tags": {
        "amenity": "hospital",
        "building": "hospital",
        "name": "Apex Hospital"
      }
    },
    {
      "type": "way",
      "id": 1427248358,
      "center": {
        "lat": 13.1252882,
        "lon": 77.6299921
      },
      "tags": {
        "amenity": "community_centre",
        "landuse": "commercial"
      }
    },
    {
      "type": "way",
      "id": 1432189743,
      "center": {
        "lat": 13.1083762,
        "lon": 77.6218432
      },
      "tags": {
        "access": "permissive",
        "amenity": "parking",
        "parking": "surface"
      }
    },
    {
      "type": "way",
      "id": 1432189744,
      "center": {
        "lat": 13.107002,
        "lon": 77.6192813
      },
      "tags": {
        "leisure": "pitch",
        "sport": "tennis"
      }
    },
    {
      "type": "way",
      "id": 1442524761,
      "center": {
        "lat": 13.1229782,
        "lon": 77.6191227
      },
      "tags": {
        "access": "private",
        "leisure": "swimming_pool",
        "location": "outdoor"
      }
    },
    {
      "type": "way",
      "id": 1453040562,
      "center": {
        "lat": 13.1160209,
        "lon": 77.6335251
      },
      "tags": {
        "access": "permissive",
        "amenity": "parking",
        "fee": "no",
        "name": "REVA College Parking",
        "operator": "REVA College",
        "parking": "surface"
      }
    },
    {
      "type": "way",
      "id": 1453040576,
      "center": {
        "lat": 13.1040841,
        "lon": 77.6337162
      },
      "tags": {
        "amenity": "college",
        "name": "Westline College"
      }
    },
    {
      "type": "way",
      "id": 1453040581,
      "center": {
        "lat": 13.1036464,
        "lon": 77.6340381
      },
      "tags": {
        "amenity": "community_centre",
        "landuse": "commercial",
        "name": "White Pearl Convention Centre"
      }
    },
    {
      "type": "way",
      "id": 1453040583,
      "center": {
        "lat": 13.1017721,
        "lon": 77.6333267
      },
      "tags": {
        "amenity": "place_of_worship",
        "name": "Masjid-e-Salar",
        "religion": "muslim"
      }
    }
  ]
}