{
  "area_name": "Koramangala 3rd Block",
  "osm_id": 9790284768,
  "osm_type": "node",
  "place_type": "neighbourhood",
  "amenity_count": 537,
  "amenities": [
    {
      "type": "node",
      "id": 263227115,
      "lat": 12.9271867,
      "lon": 77.6266252,
      "tags": {
        "amenity": "post_office",
        "created_by": "Potlatch 0.10c",
        "name": "Koramangala 3rd Block",
        "name:kn": "ಕೋರಮಂಗಲ ೩ನೇ ಹಂತ"
      }
    },
    {
      "type": "node",
      "id": 303933809,
      "lat": 12.9365346,
      "lon": 77.627846,
      "tags": {
        "amenity": "bank",
        "brand": "State Bank of India",
        "brand:wikidata": "Q1340361",
        "brand:wikipedia": "en:State Bank of India",
        "name": "State Bank of India",
        "name:kn": "ಭಾರತೀಯ ಸ್ಟೇಟ್ ಬ್ಯಾಂಕ್",
        "short_name": "SBI"
      }
    },
    {
      "type": "node",
      "id": 306585721,
      "lat": 12.9333646,
      "lon": 77.6230728,
      "tags": {
        "addr:street": "Mahayogi Vemana Road",
        "amenity": "restaurant",
        "name": "Sukh Sagar",
        "name:kn": "ಸುಖ್ ಸಾಗರ"
      }
    },
    {
      "type": "node",
      "id": 363758557,
      "lat": 12.9298186,
      "lon": 77.6214543,
      "tags": {
        "addr:street": "Mahayogi Vemana Road",
        "amenity": "post_office",
        "name": "St Johns Post Office"
      }
    },
    {
      "type": "node",
      "id": 595411389,
      "lat": 12.925064,
      "lon": 77.6328706,
      "tags": {
        "amenity": "pub",
        "name": "Sathya's"
      }
    },
    {
      "type": "node",
      "id": 748866082,
      "lat": 12.9242835,
      "lon": 77.6181188,
      "tags": {
        "amenity": "place_of_worship",
        "check_date": "2024-04-03",
        "name": "Ayyappa Swamy Temple",
        "name:kn": "ಅಯ್ಯಪ್ಪಸ್ವಾಮಿ ದೇವಾಲಯ",
        "religion": "hindu",
        "source": "survey"
      }
    },
    {
      "type": "node",
      "id": 1274328868,
      "lat": 12.9349444,
      "lon": 77.6293498,
      "tags": {
        "amenity": "cafe",
        "brand": "Barista",
        "brand:wikidata": "Q644735",
        "cuisine": "coffee_shop",
        "name": "Barista",
        "name:kn": "ಬರಿಸ್ಟ",
        "takeaway": "yes"
      }
    },
    {
      "type": "node",
      "id": 1274328878,
      "lat": 12.9355492,
      "lon": 77.6287026,
      "tags": {
        "amenity": "bar",
        "name": "Rendezvous"
      }
    },
    {
      "type": "node",
      "id": 1328615128,
      "lat": 12.9337818,
      "lon": 77.6232571,
      "tags": {
        "name": "Pai Electronics",
        "shop": "hifi"
      }
    },
    {
      "type": "node",
      "id": 1328615136,
      "lat": 12.9362306,
      "lon": 77.6254307,
      "tags": {
        "amenity": "fast_food",
        "name": "Kota Kachori",
        "name:kn": "ಶಾಂತಿ ಸಾಗರ್"
      }
    },
    {
      "type": "node",
      "id": 1328615137,
      "lat": 12.9370423,
      "lon": 77.6245906,
      "tags": {
        "amenity": "restaurant",
        "name": "Coast to Coast Sea food restaurant",
        "name:kn": "ಕೋಸ್ಟ್ ಟು ಕೋಸ್ಟ್ ಸೀ ಫುಡ್ ರೆಸ್ಟೋರೆಂಟ್"
      }
    },
    {
      "type": "node",
      "id": 1328615138,
      "lat": 12.9342471,
      "lon": 77.6234716,
      "tags": {
        "amenity": "restaurant",
        "name": "Tamrind Restaurant",
        "name:kn": "ಟ್ಯಾಮರಿಂಡ್ ರೆಸ್ಟೋರೆಂಟ್"
      }
    },
    {
      "type": "node",
      "id": 1328615139,
      "lat": 12.9370998,
      "lon": 77.6245424,
      "tags": {
        "amenity": "restaurant",
        "name": "Kubey Seafood Restaurant",
        "name:kn": "ಕುಬೆ ಸೀಫುಂಡ್ ರೆಸ್ಟೋರೆಂಟ್"
      }
    },
    {
      "type": "node",
      "id": 1375978245,
      "lat": 12.9338202,
      "lon": 77.6193658,
      "tags": {
        "amenity": "restaurant",
        "cuisine": "Mughlai",
        "name": "Lazeej",
        "name:kn": "ಲಜೀಜ್"
      }
    },
    {
      "type": "node",
      "id": 1375978262,
      "lat": 12.9338304,
      "lon": 77.6194655,
      "tags": {
        "amenity": "restaurant",
        "cuisine": "north indian",
        "name": "Golmal Paratha",
        "name:kn": "ಗೊಲ್ಮಾಲ್ ಪರಾಟ"
      }
    },
    {
      "type": "node",
      "id": 1375978266,
      "lat": 12.9336331,
      "lon": 77.622557,
      "tags": {
        "amenity": "restaurant",
        "cuisine": "chinese",
        "name": "Ping",
        "name:kn": "ಪಿಂಗ್"
      }
    },
    {
      "type": "node",
      "id": 1375978277,
      "lat": 12.9338227,
      "lon": 77.6193019,
      "tags": {
        "amenity": "restaurant",
        "cuisine": "tandoori",
        "name": "Tunday Kabab",
        "name:kn": "ತುಂಡೆ ಕಬಾಬ್"
      }
    },
    {
      "type": "node",
      "id": 1375978283,
      "lat": 12.9337973,
      "lon": 77.6189966,
      "tags": {
        "amenity": "restaurant",
        "name": "KC Das",
        "name:kn": "ಕೆಸಿ ದಾಸ್"
      }
    },
    {
      "type": "node",
      "id": 1375978287,
      "lat": 12.9334311,
      "lon": 77.6217925,
      "tags": {
        "amenity": "restaurant",
        "cuisine": "chinese",
        "name": "Beijing Bites",
        "name:kn": "ಬೀಜಿಂಗ್ ಬೈಟ್ಸ್"
      }
    },
    {
      "type": "node",
      "id": 1375978291,
      "lat": 12.9338857,
      "lon": 77.6194174,
      "tags": {
        "amenity": "restaurant",
        "name": "Tandoor Hut",
        "name:kn": "ತಂದೂರ್ ಹಟ್"
      }
    },
    {
      "type": "node",
      "id": 1457778754,
      "lat": 12.9361984,
      "lon": 77.6214666,
      "tags": {
        "amenity": "restaurant",
        "cuisine": "chinese",
        "name": "China Pearl",
        "name:kn": "ಚೈನಾ ಪರ್ಲ್"
      }
    },
    {
      "type": "node",
      "id": 1463745568,
      "lat": 12.9372017,
      "lon": 77.6244522,
      "tags": {
        "amenity": "fast_food",
        "name": "Madurai Idly shop"
      }
    },
    {
      "type": "node",
      "id": 1463831582,
      "lat": 12.934295,
      "lon": 77.6300787,
      "tags": {
        "amenity": "restaurant",
        "name": "Maharaja Restaurant",
        "name:kn": "ಮಹಾರಾಜ ರೆಸ್ಟೋರೆಂಟ್"
      }
    },
    {
      "type": "node",
      "id": 1463831750,
      "lat": 12.9338627,
      "lon": 77.6304381,
      "tags": {
        "amenity": "bank",
        "brand": "Axis Bank",
        "brand:wikidata": "Q2003549",
        "name": "Axis Bank",
        "name:kn": "ಆಕ್ಸಿಸ್ ಬ್ಯಾಂಕ್",
        "operator": "Axix"
      }
    },
    {
      "type": "node",
      "id": 1464784180,
      "lat": 12.9344222,
      "lon": 77.6240149,
      "tags": {
        "addr:street": "Koramangala, Bangalore",
        "amenity": "bank",
        "atm": "yes",
        "brand": "Canara Bank",
        "brand:en": "Canara Bank",
        "brand:hi": "केनरा बैंक",
        "brand:kn": "ಕೆನರಾ ಬ್ಯಾಂಕ್",
        "brand:pa": "ਕੇਨਰਾ ਬੈਂਕ",
        "brand:pnb": "کینرا بینک",
        "brand:ur": "کینرا بینک",
        "brand:wikidata": "Q2003777",
        "brand:wikipedia": "en:Canara Bank",
        "brand:wikipedia:pa": "ਕੇਨਰਾ ਬੈਂਕ",
        "name": "Canara Bank",
        "name:en": "Canara Bank",
        "name:hi": "केनरा बैंक",
        "name:kn": "ಕೆನರಾ ಬ್ಯಾಂಕ್",
        "name:pa": "ਕੇਨਰਾ ਬੈਂਕ",
        "name:pnb": "کینرا بینک",
        "name:ur": "کینرا بینک",
        "website": "https://www.canarabank.com/"
      }
    },
    {
      "type": "node",
      "id": 1464784876,
      "lat": 12.9331413,
      "lon": 77.6228508,
      "tags": {
        "amenity": "restaurant",
        "cuisine": "spanish",
        "name": "Fiorano Ristorante",
        "name:kn": "ಫಿಯೊರಾನೊ ರಿಸ್ಟೊರಂಟೆ"
      }
    },
    {
      "type": "node",
      "id": 1464790791,
      "lat": 12.9336643,
      "lon": 77.6231619,
      "tags": {
        "addr:city": "Bengaluru",
        "addr:street": "Koramanagala",
        "amenity": "bank",
        "atm": "yes",
        "brand": "Kotak Mahindra Bank",
        "brand:wikidata": "Q2040404",
        "drive_through": "no",
        "name": "Kotak Mahindra Bank",
        "name:en": "Kotak Mahindra Bank",
        "name:kn": "ಕೋಟಕ್ ಮಹಿಂದ್ರ ಬ್ಯಾಂಕ್"
      }
    },
    {
      "type": "node",
      "id": 1464790817,
      "lat": 12.9338891,
      "lon": 77.6232852,
      "tags": {
        "addr:city": "Bengaluru",
        "addr:street": "Koramangala",
        "amenity": "bank",
        "atm": "yes",
        "brand": "IDBI Bank",
        "brand:wikidata": "Q3633485",
        "drive_through": "no",
        "name": "IDBI Bank",
        "name:kn": "ಐಡಿಬಿಐ ಬ್ಯಾಂಕ್",
        "old_name": "Industrial Development Bank of India",
        "short_name": "IDBI"
      }
    },
    {
      "type": "node",
      "id": 1464791102,
      "lat": 12.935716,
      "lon": 77.6218199,
      "tags": {
        "name": "Nilgiris",
        "name:kn": "ನೀಲ್ಗಿರಿಸ್",
        "shop": "convenience"
      }
    },
    {
      "type": "node",
      "id": 1464792416,
      "lat": 12.9352432,
      "lon": 77.6248678,
      "tags": {
        "addr:street": "Koramangala, Bangalore",
        "name": "Mystique Saloons",
        "shop": "hairdresser"
      }
    },
    {
      "type": "node",
      "id": 1464886374,
      "lat": 12.9337444,
      "lon": 77.6301835,
      "tags": {
        "name": "Levi's and Nike",
        "shop": "shoes"
      }
    },
    {
      "type": "node",
      "id": 1464896674,
      "lat": 12.933506,
      "lon": 77.6303939,
      "tags": {
        "amenity": "fuel",
        "brand": "Hindustan Petroleum",
        "brand:wikidata": "Q1619375",
        "name": "HP Petrol Pump",
        "official_name": "Hindustan Petroleum"
      }
    },
    {
      "type": "node",
      "id": 1464921660,
      "lat": 12.936103,
      "lon": 77.6251968,
      "tags": {
        "addr:street": "Koramangala, Bangalore",
        "amenity": "bank",
        "atm": "yes",
        "brand": "Karur Vysya Bank",
        "brand:wikidata": "Q6373724",
        "brand:wikipedia": "en:Karur Vysya Bank",
        "name": "Karur Vysya Bank",
        "name:en": "Karur Vysya Bank",
        "name:kn": "ಕರೂರು ವೈಶ್ಯ ಬ್ಯಾಂಕ್",
        "short_name": "KVB",
        "website": "https://www.kvb.co.in"
      }
    },
    {
      "type": "node",
      "id": 1464923222,
      "lat": 12.9358758,
      "lon": 77.6259621,
      "tags": {
        "addr:street": "Koramangala, Bangalore",
        "amenity": "bank",
        "atm": "yes",
        "name": "Dhanalakshmi Bank",
        "name:kn": "ದನಲಕ್ಷ್ಮಿ ಬ್ಯಾಂಕ್"
      }
    },
    {
      "type": "node",
      "id": 1465180269,
      "lat": 12.9363586,
      "lon": 77.623812,
      "tags": {
        "amenity": "car_rental",
        "designation": "Car rental, bus/train/flight ticket booking",
        "name": "Geo Travels"
      }
    },
    {
      "type": "node",
      "id": 1465190491,
      "lat": 12.9352032,
      "lon": 77.6228947,
      "tags": {
        "description": "Convenience store for all household items & accessories",
        "name": "Sowbhagya Traders",
        "shop": "supermarket"
      }
    },
    {
      "type": "node",
      "id": 1465272544,
      "lat": 12.9371376,
      "lon": 77.6241392,
      "tags": {
        "addr:postcode": "560095",
        "addr:street": "17th C Main",
        "designation": "Saree/Salwar shop",
        "name": "Navya shree sarees",
        "shop": "clothes"
      }
    },
    {
      "type": "node",
      "id": 1465657720,
      "lat": 12.9362976,
      "lon": 77.6213531,
      "tags": {
        "addr:housename": "Hotel Nandhana Palace",
        "amenity": "restaurant",
        "cuisine": "indian",
        "designation": "Business class hotel",
        "name": "Nandhana Grand",
        "name:kn": "ನಂದನಾ ಗ್ರಾಂಡ್"
      }
    },
    {
      "type": "node",
      "id": 1465714385,
      "lat": 12.9357629,
      "lon": 77.6219971,
      "tags": {
        "name": "Printo",
        "operator": "printo document services pvt.ltd",
        "shop": "copyshop"
      }
    },
    {
      "type": "node",
      "id": 1468025772,
      "lat": 12.9350683,
      "lon": 77.6245014,
      "tags": {
        "name": "Ooty Chocolates",
        "shop": "confectionery"
      }
    },
    {
      "type": "node",
      "id": 1468025779,
      "lat": 12.9364077,
      "lon": 77.6250803,
      "tags": {
        "amenity": "restaurant",
        "cuisine": "indian",
        "name": "Imperial Hotel",
        "name:kn": "ಇಂಪಿರಿಯಲ್ ಹೋಟೆಲ್"
      }
    },
    {
      "type": "node",
      "id": 1468025791,
      "lat": 12.9368711,
      "lon": 77.6248696,
      "tags": {
        "amenity": "restaurant",
        "cuisine": "international",
        "name": "Ocean restaurant",
        "name:kn": "ಒಷನ್ ರೆಸ್ಟೊರೆಂಟ್"
      }
    },
    {
      "type": "node",
      "id": 1468516359,
      "lat": 12.936869,
      "lon": 77.6247225,
      "tags": {
        "addr:postcode": "560095",
        "addr:street": "Koramangala",
        "amenity": "restaurant",
        "cuisine": "indian",
        "name": "Naati oota",
        "name:kn": "ನಾಟಿ ಊಟ"
      }
    },
    {
      "type": "node",
      "id": 1468516362,
      "lat": 12.9357659,
      "lon": 77.6217238,
      "tags": {
        "designation": "Garments",
        "name": "Swiss Embroideries",
        "shop": "clothes"
      }
    },
    {
      "type": "node",
      "id": 1468516363,
      "lat": 12.9366613,
      "lon": 77.6253726,
      "tags": {
        "amenity": "atm",
        "brand": "Indian Bank",
        "brand:wikidata": "Q2003789",
        "fee": "no",
        "name": "Indian Bank",
        "name:kn": "ಇಂಡಿಯನ್ ಬ್ಯಾಂಕ್",
        "operator": "Indian Bank",
        "operator:wikidata": "Q2003789"
      }
    },
    {
      "type": "node",
      "id": 1468516366,
      "lat": 12.9356613,
      "lon": 77.621933,
      "tags": {
        "addr:postcode": "560095",
        "addr:street": "5th cross Koramangala",
        "brand": "Kanti Sweets",
        "name": "Kanti Sweets",
        "shop": "confectionery"
      }
    },
    {
      "type": "node",
      "id": 1468516370,
      "lat": 12.9364508,
      "lon": 77.6239983,
      "tags": {
        "addr:postcode": "560095",
        "addr:street": "17th b main koramangala",
        "designation": "Car Accessories and services",
        "name": "Kinetic Zone Service station",
        "shop": "car_repair"
      }
    },
    {
      "type": "node",
      "id": 1468516372,
      "lat": 12.9368847,
      "lon": 77.6246206,
      "tags": {
        "amenity": "restaurant",
        "cuisine": "chinese",
        "name": "Chinese Cottage",
        "name:kn": "ಚೈನೀಸ್ ಕಾಟೆಜ್"
      }
    },
    {
      "type": "node",
      "id": 1468516373,
      "lat": 12.936754,
      "lon": 77.6247439,
      "tags": {
        "addr:postcode": "560095",
        "name": "HMS Mutton center",
        "shop": "butcher"
      }
    },
    {
      "type": "node",
      "id": 1468516375,
      "lat": 12.9351019,
      "lon": 77.6230488,
      "tags": {
        "designation": "Cakes and confectioneries",
        "name": "Iyengar bakers",
        "shop": "bakery"
      }
    },
    {
      "type": "node",
      "id": 1468540676,
      "lat": 12.9361835,
      "lon": 77.6258638,
      "tags": {
        "amenity": "restaurant",
        "cuisine": "international",
        "name": "Ambrosia restaurant",
        "name:kn": "ಅಂಬ್ರೊಸಿಯ ರೆಸ್ಟೊರೆಂಟ್"
      }
    },
    {
      "type": "node",
      "id": 1468540684,
      "lat": 12.9364455,
      "lon": 77.6255862,
      "tags": {
        "name": "OM Stationery and xerox",
        "shop": "convenience"
      }
    },
    {
      "type": "node",
      "id": 1468540717,
      "lat": 12.9362155,
      "lon": 77.6259241,
      "tags": {
        "amenity": "bar",
        "name": "B52 Bar"
      }
    },
    {
      "type": "node",
      "id": 1468540754,
      "lat": 12.9367383,
      "lon": 77.6259938,
      "tags": {
        "amenity": "atm",
        "brand": "Bank of Baroda",
        "brand:wikidata": "Q2003797",
        "name": "Bank of Baroda",
        "name:kn": "ವಿಜಯ ಬ್ಯಾಂಕು",
        "operator": "Bank of Baroda",
        "operator:wikidata": "Q2003797"
      }
    },
    {
      "type": "node",
      "id": 1470516028,
      "lat": 12.9258752,
      "lon": 77.6170606,
      "tags": {
        "addr:street": "Hosur Road",
        "amenity": "restaurant",
        "cuisine": "indian",
        "name": "MAS",
        "name:kn": "ಮಾಸ್"
      }
    },
    {
      "type": "node",
      "id": 1470523381,
      "lat": 12.9338184,
      "lon": 77.6192443,
      "tags": {
        "designation": "Ladies Wear",
        "name": "Gia Garments",
        "shop": "clothes"
      }
    },
    {
      "type": "node",
      "id": 1470523383,
      "lat": 12.9338001,
      "lon": 77.619424,
      "tags": {
        "amenity": "restaurant",
        "cuisine": "ice_cream",
        "designation": "Italian Ice-cream",
        "name": "Mama mia",
        "name:kn": "ಮಾಮ ಮೀಯ"
      }
    },
    {
      "type": "node",
      "id": 1470523389,
      "lat": 12.9351281,
      "lon": 77.6228492,
      "tags": {
        "name": "House Man Cleaners",
        "shop": "dry_cleaning;laundry"
      }
    },
    {
      "type": "node",
      "id": 1471128648,
      "lat": 12.9364989,
      "lon": 77.6240368,
      "tags": {
        "name": "Auto Fusion",
        "shop": "hifi"
      }
    },
    {
      "type": "node",
      "id": 1471891610,
      "lat": 12.9254095,
      "lon": 77.6173387,
      "tags": {
        "addr:housenumber": "Hosur road",
        "addr:street": "Hosur Road",
        "amenity": "atm",
        "brand": "Federal Bank",
        "brand:wikidata": "Q2044983",
        "name": "Federal Bank",
        "operator": "Federal Bank",
        "operator:wikidata": "Q2044983"
      }
    },
    {
      "type": "node",
      "id": 1472015388,
      "lat": 12.927395,
      "lon": 77.621901,
      "tags": {
        "amenity": "bank",
        "brand": "State Bank of India",
        "brand:wikidata": "Q1340361",
        "brand:wikipedia": "en:State Bank of India",
        "name": "State Bank of India",
        "name:kn": "ಎಸ್ ಬಿ ಐ",
        "short_name": "SBI",
        "website": "https://www.sbi.co.in"
      }
    },
    {
      "type": "node",
      "id": 1472015890,
      "lat": 12.9273417,
      "lon": 77.6221301,
      "tags": {
        "amenity": "hospital",
        "healthcare": "hospital",
        "name": "Agarwal Eye Hospital"
      }
    },
    {
      "type": "node",
      "id": 1472248473,
      "lat": 12.9271081,
      "lon": 77.6226087,
      "tags": {
        "amenity": "pharmacy",
        "dispensing": "Vijayashree Diagnostics",
        "healthcare": "pharmacy",
        "name": "Vijaya Shree Diagnostics"
      }
    },
    {
      "type": "node",
      "id": 1472735174,
      "lat": 12.9257842,
      "lon": 77.6170828,
      "tags": {
        "addr:street": "Hosur road",
        "amenity": "hospital",
        "name": "Venkateshwara Hospital",
        "name:kn": "ವೆಂಕಟೆಶ್ವರ ಆಸ್ಪತ್ರೆ",
        "wheelchair": "yes"
      }
    },
    {
      "type": "node",
      "id": 1472871254,
      "lat": 12.9322872,
      "lon": 77.6320394,
      "tags": {
        "addr:postcode": "560034",
        "addr:street": "80 Feet Road",
        "amenity": "bank",
        "name": "Unity Small Finance Bank"
      }
    },
    {
      "type": "node",
      "id": 1472874576,
      "lat": 12.9345413,
      "lon": 77.6268856,
      "tags": {
        "amenity": "place_of_worship",
        "denomination": "methodist",
        "name": "Kormangala Methodist Church",
        "religion": "christian"
      }
    },
    {
      "type": "node",
      "id": 1472880535,
      "lat": 12.9252403,
      "lon": 77.6337162,
      "tags": {
        "name": "Kanyaka Clothes",
        "shop": "clothes"
      }
    },
    {
      "type": "node",
      "id": 1473298102,
      "lat": 12.9226146,
      "lon": 77.6225721,
      "tags": {
        "amenity": "marketplace",
        "check_date": "2025-04-09",
        "name": "Madiwala Market",
        "shop": "seafood"
      }
    },
    {
      "type": "node",
      "id": 1473298103,
      "lat": 12.9257639,
      "lon": 77.6290836,
      "tags": {
        "amenity": "place_of_worship",
        "denomination": "catholic",
        "name": "Seva Sadan",
        "religion": "christian"
      }
    },
    {
      "type": "node",
      "id": 1473308080,
      "lat": 12.9353953,
      "lon": 77.6233434,
      "tags": {
        "amenity": "pharmacy",
        "healthcare": "pharmacy",
        "name": "Arathi medicals"
      }
    },
    {
      "type": "node",
      "id": 1473308100,
      "lat": 12.9367337,
      "lon": 77.6249849,
      "tags": {
        "name": "Roots Multiclean",
        "shop": "hifi"
      }
    },
    {
      "type": "node",
      "id": 1473821768,
      "lat": 12.925908,
      "lon": 77.61691,
      "tags": {
        "addr:street": "Hosur road",
        "name": "Atlas Travels",
        "shop": "travel_agency"
      }
    },
    {
      "type": "node",
      "id": 1474004437,
      "lat": 12.9317341,
      "lon": 77.6228586,
      "tags": {
        "addr:street": "Mahayogi Vemana Road",
        "amenity": "restaurant",
        "name": "Nandini Andra Style",
        "name:en": "Nandhana Andra style",
        "name:kn": "ನಂದಿನಿ ಆಂದ್ರ ಶೈಲಿ"
      }
    },
    {
      "type": "node",
      "id": 1474102127,
      "lat": 12.922039,
      "lon": 77.620302,
      "tags": {
        "addr:street": "Hosur road",
        "amenity": "restaurant",
        "name": "Ohris",
        "name:kn": "ಒರಿಸ್"
      }
    },
    {
      "type": "node",
      "id": 1474103046,
      "lat": 12.921876,
      "lon": 77.620493,
      "tags": {
        "addr:street": "Hosur road",
        "amenity": "restaurant",
        "name": "Silver Metro",
        "name:kn": "ಸಿಲ್ವರ್ ಮೆಟ್ರೊ"
      }
    },
    {
      "type": "node",
      "id": 1474343930,
      "lat": 12.9215958,
      "lon": 77.6202694,
      "tags": {
        "amenity": "fast_food",
        "brand": "McDonald's",
        "brand:pa": "ਮੈਕਡੋਨਲਡ’ਜ਼",
        "brand:ur": "مکڈونلڈز",
        "brand:wikidata": "Q38076",
        "brand:wikipedia": "en:McDonald's",
        "brand:wikipedia:pa": "ਮੈਕਡੋਨਲਡ’ਜ਼",
        "brand:wikipedia:ur": "مکڈونلڈز",
        "check_date": "2024-10-23",
        "cuisine": "burger",
        "name": "McDonald's",
        "name:pa": "ਮੈਕਡੋਨਲਡ’ਜ਼",
        "name:ur": "مکڈونلڈز",
        "payment:cash": "yes",
        "payment:mastercard": "yes",
        "payment:visa": "yes",
        "takeaway": "yes"
      }
    },
    {
      "type": "node",
      "id": 1474819117,
      "lat": 12.921875,
      "lon": 77.620121,
      "tags": {
        "addr:street": "Hosur road",
        "amenity": "restaurant",
        "name": "Adigas",
        "name:kn": "ಅಡಿಗಾಸ್"
      }
    },
    {
      "type": "node",
      "id": 1615727952,
      "lat": 12.9311975,
      "lon": 77.6228542,
      "tags": {
        "amenity": "restaurant",
        "diet:vegetarian": "only",
        "name": "Utsav",
        "name:kn": "ಉತ್ಸವ್"
      }
    },
    {
      "type": "node",
      "id": 1615734800,
      "lat": 12.9256885,
      "lon": 77.6250527,
      "tags": {
        "amenity": "atm",
        "brand": "State Bank of India",
        "brand:wikidata": "Q1340361",
        "check_date": "2023-02-23",
        "name": "State Bank of India",
        "operator": "State Bank of India",
        "operator:wikidata": "Q1340361",
        "short_name": "SBI",
        "source": "I live here"
      }
    },
    {
      "type": "node",
      "id": 1615735026,
      "lat": 12.9266971,
      "lon": 77.6236359,
      "tags": {
        "brand": "Nilgiri's",
        "brand:wikidata": "Q17079567",
        "name": "Nilgiri's",
        "name:kn": "ನೀಲ್ಗಿರಿಸ್",
        "shop": "supermarket"
      }
    },
    {
      "type": "node",
      "id": 1744342634,
      "lat": 12.9365165,
      "lon": 77.6274121,
      "tags": {
        "amenity": "restaurant",
        "name": "Great Indian Thali",
        "name:kn": "ಗ್ರೇಟ್ ಇಂಡಿಯನ್ ತಾಲಿ"
      }
    },
    {
      "type": "node",
      "id": 2115432127,
      "lat": 12.9222964,
      "lon": 77.6194432,
      "tags": {
        "amenity": "place_of_worship",
        "name": "Anjaneya Temple",
        "name:kn": "ಆಂಜನೇಯ ದೇವಸ್ಥಾನ",
        "religion": "hindu"
      }
    },
    {
      "type": "node",
      "id": 2148655413,
      "lat": 12.933447,
      "lon": 77.6219099,
      "tags": {
        "amenity": "restaurant",
        "cuisine": "italian",
        "name": "Chianti"
      }
    },
    {
      "type": "node",
      "id": 2285451602,
      "lat": 12.9347958,
      "lon": 77.6298075,
      "tags": {
        "amenity": "bank",
        "atm": "yes",
        "brand": "HDFC Bank",
        "brand:wikidata": "Q631047",
        "name": "HDFC Bank",
        "name:kn": "ಎಚ್ ಡಿ ಎಫ್ ಸಿ",
        "short_name": "HDFC"
      }
    },
    {
      "type": "node",
      "id": 2285451678,
      "lat": 12.9347383,
      "lon": 77.6298155,
      "tags": {
        "amenity": "atm",
        "brand": "HDFC Bank",
        "brand:wikidata": "Q631047",
        "fee": "no",
        "name": "HDFC Bank",
        "operator": "HDFC Bank",
        "operator:wikidata": "Q631047",
        "short_name": "HDFC"
      }
    },
    {
      "type": "node",
      "id": 2285453337,
      "lat": 12.9349187,
      "lon": 77.6305022,
      "tags": {
        "amenity": "hospital",
        "emergency": "no",
        "healthcare": "hospital",
        "name": "Magnus Diagnostic Lab"
      }
    },
    {
      "type": "node",
      "id": 2285466693,
      "lat": 12.9299126,
      "lon": 77.621549,
      "tags": {
        "amenity": "bank",
        "atm": "yes",
        "brand": "Bank of Baroda",
        "brand:wikidata": "Q2003797",
        "brand:wikipedia": "en:Bank of Baroda",
        "name": "Bank of Baroda",
        "name:en": "Bank of Baroda",
        "short_name": "BoB",
        "website": "http://www.bankofbaroda.com"
      }
    },
    {
      "type": "node",
      "id": 2285468345,
      "lat": 12.9285453,
      "lon": 77.6283645,
      "tags": {
        "shop": "seafood"
      }
    },
    {
      "type": "node",
      "id": 2285468403,
      "lat": 12.9285532,
      "lon": 77.6282626,
      "tags": {
        "shop": "hairdresser"
      }
    },
    {
      "type": "node",
      "id": 2285468610,
      "lat": 12.9295466,
      "lon": 77.6291289,
      "tags": {
        "amenity": "pharmacy",
        "healthcare": "pharmacy",
        "name": "Ajit Medicals"
      }
    },
    {
      "type": "node",
      "id": 2285469320,
      "lat": 12.935306,
      "lon": 77.6306217,
      "tags": {
        "addr:housenumber": "924",
        "addr:street": "1st Cross Road",
        "amenity": "pharmacy",
        "healthcare": "pharmacy",
        "name": "Pharma Plus"
      }
    },
    {
      "type": "node",
      "id": 2285469526,
      "lat": 12.9333424,
      "lon": 77.6298772,
      "tags": {
        "shop": "greengrocer"
      }
    },
    {
      "type": "node",
      "id": 2285469554,
      "lat": 12.9334024,
      "lon": 77.6298023,
      "tags": {
        "name": "Food Mall",
        "shop": "convenience"
      }
    },
    {
      "type": "node",
      "id": 2531029517,
      "lat": 12.9303605,
      "lon": 77.6228604,
      "tags": {
        "amenity": "cafe",
        "brand": "Cafe Coffee Day",
        "brand:wikidata": "Q5017235",
        "cuisine": "coffee_shop",
        "name": "Cafe Coffee Day",
        "name:kn": "ಕಫೆ ಕಾಫಿ ಡೇ",
        "takeaway": "yes"
      }
    },
    {
      "type": "node",
      "id": 2542686704,
      "lat": 12.9305918,
      "lon": 77.6229717,
      "tags": {
        "amenity": "restaurant",
        "cuisine": "indian",
        "name": "Sagar Fast Food"
      }
    },
    {
      "type": "node",
      "id": 2542686705,
      "lat": 12.9308637,
      "lon": 77.623075,
      "tags": {
        "name": "Food Triangle",
        "shop": "supermarket"
      }
    },
    {
      "type": "node",
      "id": 2542702362,
      "lat": 12.9312166,
      "lon": 77.6233097,
      "tags": {
        "amenity": "pharmacy",
        "brand": "MedPlus",
        "brand:wikidata": "Q65684234",
        "healthcare": "pharmacy",
        "name": "MedPlus",
        "name:kn": "ಮೆಡ್‍ಪ್ಲಸ್"
      }
    },
    {
      "type": "node",
      "id": 2547432010,
      "lat": 12.9306861,
      "lon": 77.6230253,
      "tags": {
        "amenity": "bank",
        "atm": "yes",
        "brand": "Syndicate Bank",
        "brand:wikidata": "Q2004088",
        "name": "Syndicate Bank",
        "name:en": "Syndicate Bank",
        "name:kn": "ಸಿಂಡಿಕೇಟ್ ಬ್ಯಾಂಕ್",
        "website": "https://www.syndicatebank.in"
      }
    },
    {
      "type": "node",
      "id": 2700229002,
      "lat": 12.9219827,
      "lon": 77.6200068,
      "tags": {
        "addr:city": "Bangalore",
        "addr:housenumber": "Total Mall",
        "addr:postcode": "560068",
        "addr:street": "Hosur Road",
        "air_conditioning": "yes",
        "alt_name": "Kentucky Fried Chicken",
        "alt_name:en": "Kentucky Fried Chicken",
        "alt_name:hi": "केंटुकी फ्राइड चिकन",
        "alt_name:pa": "ਕੈਂਟੁਕੀ ਫ੍ਰਾਈਡ ਚਿਕਨ",
        "alt_name:pnb": "کینٹکی فرائیڈ چکن",
        "alt_name:ur": "کینٹکی فرائیڈ چکن",
        "amenity": "fast_food",
        "brand": "KFC",
        "brand:en": "KFC",
        "brand:hi": "केएफसी",
        "brand:pa": "ਕੇਐਫਸੀ",
        "brand:pnb": "کے ایف سی",
        "brand:ur": "کے ایف سی",
        "brand:wikidata": "Q524757",
        "brand:wikipedia": "en:KFC",
        "brand:wikipedia:pa": "ਕੇਐਫਸੀ",
        "brand:wikipedia:ur": "کینٹکی فرائیڈ چکن",
        "check_date": "2024-10-23",
        "cuisine": "chicken",
        "diet:vegetarian": "yes",
        "indoor_seating": "yes",
        "name": "KFC",
        "name:en": "KFC",
        "name:hi": "केएफसी",
        "name:pa": "ਕੇਐਫਸੀ",
        "name:pnb": "کے ایف سی",
        "name:ur": "کے ایف سی",
        "opening_hours": "11:00-23:00",
        "outdoor_seating": "no",
        "payment:cash": "yes",
        "payment:mastercard": "yes",
        "payment:visa": "yes",
        "smoking": "no",
        "takeaway": "yes"
      }
    },
    {
      "type": "node",
      "id": 2700229003,
      "lat": 12.9308439,
      "lon": 77.6226408,
      "tags": {
        "addr:city": "Bangalore",
        "addr:housenumber": "BDA Complex",
        "addr:postcode": "560034",
        "addr:street": "Mahayogi Vemana Road",
        "amenity": "restaurant",
        "capacity": "16",
        "cuisine": "regional",
        "name": "Ambur Biriyani",
        "name:kn": "ಅಂಬುರ್ ಬಿರಿಯಾನಿ",
        "opening_hours": "10:00-19:00"
      }
    },
    {
      "type": "node",
      "id": 2700229004,
      "lat": 12.924596,
      "lon": 77.6184995,
      "tags": {
        "addr:city": "Bangalore",
        "addr:postcode": "560034",
        "addr:street": "Mahayogi Vemana Road",
        "amenity": "bank",
        "atm": "yes",
        "brand": "State Bank of India",
        "brand:wikidata": "Q1340361",
        "brand:wikipedia": "en:State Bank of India",
        "name": "State Bank of India",
        "name:kn": "ಭಾರತೀಯ ಸ್ಟೇಟ್ ಬ್ಯಾಂಕ್",
        "opening_hours": "24/7",
        "short_name": "SBI"
      }
    },
    {
      "type": "node",
      "id": 2746542444,
      "lat": 12.9249779,
      "lon": 77.6194667,
      "tags": {
        "addr:city": "Bangalore",
        "addr:postcode": "560068",
        "addr:street": "Mahayogi Vemana Road",
        "brand": "Fabindia",
        "brand:wikidata": "Q5427779",
        "clothes": "women;men",
        "name": "Fabindia",
        "organic": "yes",
        "payment:cash": "yes",
        "payment:debit_cards": "yes",
        "shop": "clothes",
        "website": "https://www.fabindia.com/"
      }
    },
    {
      "type": "node",
      "id": 2910639885,
      "lat": 12.9219037,
      "lon": 77.6203113,
      "tags": {
        "check_date": "2024-08-29",
        "name": "Market Square Value Mall",
        "shop": "mall",
        "source": "survey",
        "toilets": "yes"
      }
    },
    {
      "type": "node",
      "id": 3013765074,
      "lat": 12.9363204,
      "lon": 77.6222034,
      "tags": {
        "addr:city": "Bangalore",
        "addr:postcode": "560095",
        "addr:street": "17th E Main",
        "amenity": "restaurant",
        "cuisine": "international",
        "name": "Black Pepper Lounge",
        "smoking": "separated"
      }
    },
    {
      "type": "node",
      "id": 3145158638,
      "lat": 12.9342822,
      "lon": 77.6317632,
      "tags": {
        "leisure": "park",
        "name": "S T Bed Park at 5th Cross"
      }
    },
    {
      "type": "node",
      "id": 3145158639,
      "lat": 12.9330379,
      "lon": 77.6329291,
      "tags": {
        "leisure": "park",
        "name": "S T Bed Park and Field at 8th Cross"
      }
    },
    {
      "type": "node",
      "id": 3304764045,
      "lat": 12.9263734,
      "lon": 77.6222522,
      "tags": {
        "name": "Map Sales Office",
        "shop": "books"
      }
    },
    {
      "type": "node",
      "id": 3490658866,
      "lat": 12.9252297,
      "lon": 77.6190939,
      "tags": {
        "addr:city": "Bangalore",
        "addr:postcode": "560068",
        "addr:street": "Mahayogi Vemana Road",
        "brand": "Fabindia",
        "brand:wikidata": "Q5427779",
        "name": "Fabindia",
        "operator": "Fabindia",
        "organic": "yes",
        "payment:cash": "yes",
        "payment:debit_cards": "yes",
        "shop": "clothes",
        "website": "https://www.fabindia.com/"
      }
    },
    {
      "type": "node",
      "id": 3490669799,
      "lat": 12.9253133,
      "lon": 77.6192763,
      "tags": {
        "name": "Cross Words",
        "shop": "books"
      }
    },
    {
      "type": "node",
      "id": 3490677257,
      "lat": 12.9320659,
      "lon": 77.6182289,
      "tags": {
        "amenity": "restaurant"
      }
    },
    {
      "type": "node",
      "id": 3490677458,
      "lat": 12.9319665,
      "lon": 77.6179178,
      "tags": {
        "brand": "Food Basics",
        "brand:wikidata": "Q5465300",
        "name": "Food Basics",
        "shop": "supermarket"
      }
    },
    {
      "type": "node",
      "id": 3507444982,
      "lat": 12.9254221,
      "lon": 77.6194529,
      "tags": {
        "amenity": "restaurant",
        "name": "Sanjeevanam"
      }
    },
    {
      "type": "node",
      "id": 3782893189,
      "lat": 12.9342864,
      "lon": 77.6301111,
      "tags": {
        "amenity": "bar",
        "name": "1522"
      }
    },
    {
      "type": "node",
      "id": 3801694532,
      "lat": 12.9249765,
      "lon": 77.6338267,
      "tags": {
        "amenity": "toilets",
        "check_date": "2021-11-28",
        "fee": "yes",
        "name": "Pay and Use Toilet",
        "operator": "Sulabh International",
        "operator:wikidata": "Q3064151",
        "wheelchair": "no"
      }
    },
    {
      "type": "node",
      "id": 3922276284,
      "lat": 12.926326,
      "lon": 77.6171749,
      "tags": {
        "addr:street": "Hosur Road",
        "name": "Friends Travels",
        "operator": "G4 Kallada",
        "shop": "travel_agency"
      }
    },
    {
      "type": "node",
      "id": 3955672810,
      "lat": 12.9337036,
      "lon": 77.6229616,
      "tags": {
        "addr:city": "Bengaluru",
        "addr:postcode": "560034",
        "addr:suburb": "Koramangala",
        "brand": "Nature's Basket",
        "brand:wikidata": "Q28174237",
        "level": "0",
        "name": "Nature's Basket",
        "opening_hours": "8:00-22:00",
        "operator": "Natures Basket Limited",
        "organic": "yes",
        "phone": "+91 80 41 31 74 01",
        "shop": "supermarket",
        "shop_1": "deli",
        "source": "website",
        "website": "http://www.naturesbasket.co.in/"
      }
    },
    {
      "type": "node",
      "id": 3960924263,
      "lat": 12.9324956,
      "lon": 77.631848,
      "tags": {
        "addr:postcode": "560034",
        "addr:street": "80 Feet Road",
        "amenity": "bank",
        "atm": "yes",
        "brand": "Axis Bank",
        "brand:wikidata": "Q2003549",
        "brand:wikipedia": "en:Axis Bank",
        "level": "0",
        "name": "Axis Bank",
        "name:en": "Axis Bank",
        "name:kn": "ಅಕ್ಸಿಸ್ ಬ್ಯಾಂಕ್",
        "website": "https://www.axisbank.com",
        "wheelchair": "no"
      }
    },
    {
      "type": "node",
      "id": 4267702355,
      "lat": 12.9327419,
      "lon": 77.6269861,
      "tags": {
        "operator": "FlipKart",
        "shop": "Flipkart.com"
      }
    },
    {
      "type": "node",
      "id": 4294187645,
      "lat": 12.9253813,
      "lon": 77.6337008,
      "tags": {
        "amenity": "bar",
        "indoor_seating": "yes",
        "name": "Pingara Restaurant & Bar",
        "outdoor_seating": "no"
      }
    },
    {
      "type": "node",
      "id": 4411070791,
      "lat": 12.9353544,
      "lon": 77.6210999,
      "tags": {
        "addr:housenumber": "No.15",
        "addr:postcode": "560095",
        "addr:street": "17th B Main Road",
        "name": "William Penn Private Limited (Pendels)",
        "name:de": "William Penn Private Limited (Schreibwarengeschäft)",
        "name:en": "William Penn Private Limited (Pendels)",
        "opening_hours": "Mo-Sa 09:00-18:00",
        "phone": "+91 80 4053 5555",
        "shop": "gift",
        "website": "https://www.williampenn.net/"
      }
    },
    {
      "type": "node",
      "id": 4441888253,
      "lat": 12.9263384,
      "lon": 77.6168571,
      "tags": {
        "addr:city": "Bangalore",
        "addr:postcode": "560068",
        "addr:street": "Hosur Rd, Zuzuvadi, Madiwala, 1st Stage, BTM Layout",
        "amenity": "pharmacy",
        "name": "Trust Chemists & Druggists Ltd",
        "phone": "+91-80 2563 0022",
        "website": "https://www.trustpharmacy.co.in/"
      }
    },
    {
      "type": "node",
      "id": 4442516055,
      "lat": 12.9250105,
      "lon": 77.6278708,
      "tags": {
        "addr:city": "bangalore",
        "addr:housenumber": "365",
        "addr:postcode": "560034",
        "addr:street": "Sulochana Building, 1st Cross Rd, 3rd Block, Sarjapura Main Road, Koramangala",
        "amenity": "hospital",
        "name": "Gunasheela Hospitals",
        "phone": "+91-80 - 4646 2626",
        "website": "http://gunasheela.co.in/"
      }
    },
    {
      "type": "node",
      "id": 4445201629,
      "lat": 12.9238866,
      "lon": 77.6195995,
      "tags": {
        "addr:city": "Bangalore",
        "addr:housenumber": "1543",
        "addr:postcode": "560102",
        "addr:street": "Ground Floor, 19th Main, Opposite to BMTC bus depot, Sector 1, HSR Layout, 1st Sector, HSR Layout,",
        "amenity": "pharmacy",
        "healthcare": "pharmacy",
        "name": "Clumax Diagnostic Center",
        "phone": "080 6940 7777",
        "website": "https://www.medall.in/"
      }
    },
    {
      "type": "node",
      "id": 4445505534,
      "lat": 12.9366734,
      "lon": 77.6228961,
      "tags": {
        "addr:city": "Bangalore",
        "addr:housenumber": "69",
        "addr:postcode": "560095",
        "addr:street": "17th E Main Road",
        "addr:suburb": "Koramangala",
        "amenity": "clinic",
        "healthcare": "clinic",
        "name": "Koramangala Poly Clinic",
        "phone": "080 2553 0685"
      }
    },
    {
      "type": "node",
      "id": 4446849884,
      "lat": 12.9344224,
      "lon": 77.6299785,
      "tags": {
        "addr:city": "Bengaluru",
        "addr:housenumber": "101",
        "addr:postcode": "560034",
        "addr:street": "KAY ARR CORNER STONE 2nd Floor 80 Feet Road 4th Block, Koramangala,Karnataka",
        "amenity": "hospital",
        "healthcare": "hospital",
        "name": "Fj Merrit Hydrotherapy And Wellness",
        "phone": "080 4095 1282"
      }
    },
    {
      "type": "node",
      "id": 4447025891,
      "lat": 12.9301422,
      "lon": 77.6231727,
      "tags": {
        "addr:city": "Bangalore",
        "addr:housenumber": "677",
        "addr:postcode": "560034",
        "addr:street": "16th main, 3rd Block, Koramangala, Bengaluru",
        "amenity": "pharmacy",
        "healthcare": "pharmacy",
        "name": "Anand Diagnostic Laboratory",
        "phone": "080 2550 4207",
        "source": "justdial",
        "website": "https://www.anandlab.com/"
      }
    },
    {
      "type": "node",
      "id": 4447072622,
      "lat": 12.9317312,
      "lon": 77.6230979,
      "tags": {
        "addr:city": "Bangalore",
        "addr:postcode": "560034",
        "addr:street": "Koramangala BDA, 6th B Cross Road, Koramangala 3 Block, Koramangala",
        "amenity": "pharmacy",
        "healthcare": "pharmacy",
        "name": "Ruth Medicals",
        "phone": "+9180 2553 7424",
        "source": "justdail"
      }
    },
    {
      "type": "node",
      "id": 4447075923,
      "lat": 12.9340694,
      "lon": 77.625222,
      "tags": {
        "addr:city": "Bengaluru",
        "addr:postcode": "560034",
        "addr:street": "BDA Complex, Koramangala 4th Block, Koramangala",
        "amenity": "pharmacy",
        "healthcare": "pharmacy",
        "name": "Maxwell Pharma",
        "phone": "+9180 2553 1177",
        "source": "justdial"
      }
    },
    {
      "type": "node",
      "id": 4447087999,
      "lat": 12.9353208,
      "lon": 77.6205504,
      "tags": {
        "addr:city": "Bangalore",
        "addr:district": "Bengaluru Urban",
        "addr:full": "435, Acura Hospital, 18th Main, 6th Block, Koramangala",
        "addr:housenumber": "105",
        "addr:postcode": "560095",
        "addr:state": "Karnataka",
        "addr:street": "5th Block, 17th C Main Road, KHB Colony , Koramangala",
        "amenity": "hospital",
        "name": "Acura Speciality Hospital",
        "operator:type": "private",
        "phone": "+9180 4110 5151",
        "source": "OpenGovernmentData",
        "website": "https://www.seekandsource.com/acurahospital"
      }
    },
    {
      "type": "node",
      "id": 4447127002,
      "lat": 12.9338298,
      "lon": 77.6199371,
      "tags": {
        "addr:city": "Bangalore",
        "addr:housenumber": "143",
        "addr:postcode": "560034",
        "addr:street": "4th Floor, 1st Cross, 5th Block, Koramangala",
        "amenity": "clinic",
        "healthcare": "clinic",
        "name": "Nova IVI Fertility",
        "phone": "080673 66244",
        "source": "justdial",
        "website": "https://novaivifertility.com/"
      }
    },
    {
      "type": "node",
      "id": 4447594673,
      "lat": 12.9353486,
      "lon": 77.6249595,
      "tags": {
        "addr:housenumber": "41",
        "addr:street": "100 feet road, Koramangala 4th Block",
        "amenity": "cafe",
        "description": "Pay by the hour. INR 190 for the first hour. INR 3 per minute after that. Food and beverages on the house",
        "name": "Dialogues Cafe",
        "opening_hours": "Mo-Su 10:00-22:00",
        "phone": "098119 74842",
        "website": "www.dialoguescafe.com"
      }
    },
    {
      "type": "node",
      "id": 4457715091,
      "lat": 12.9301342,
      "lon": 77.6181807,
      "tags": {
        "amenity": "atm",
        "brand": "South Indian Bank",
        "brand:wikidata": "Q2044973",
        "name": "South Indian Bank",
        "opening_hours": "24/7",
        "operator": "South Indian Bank",
        "operator:wikidata": "Q2044973"
      }
    },
    {
      "type": "node",
      "id": 4457715192,
      "lat": 12.9301613,
      "lon": 77.618137,
      "tags": {
        "amenity": "atm",
        "brand": "Bank of Baroda",
        "brand:wikidata": "Q2003797",
        "name": "Bank of Baroda",
        "opening_hours": "24/7",
        "operator": "Bank of Baroda",
        "operator:wikidata": "Q2003797"
      }
    },
    {
      "type": "node",
      "id": 4457765089,
      "lat": 12.9304666,
      "lon": 77.6183064,
      "tags": {
        "amenity": "atm",
        "brand": "Federal Bank",
        "brand:wikidata": "Q2044983",
        "name": "Federal Bank",
        "opening_hours": "24/7",
        "operator": "Federal Bank",
        "operator:wikidata": "Q2044983"
      }
    },
    {
      "type": "node",
      "id": 4485323002,
      "lat": 12.9268723,
      "lon": 77.623687,
      "tags": {
        "name": "TVS",
        "name:en": "TVS",
        "shop": "car"
      }
    },
    {
      "type": "node",
      "id": 4487228564,
      "lat": 12.9268233,
      "lon": 77.6164922,
      "tags": {
        "addr:city": "Bangalore",
        "addr:housenumber": "2nd Floor, S V R Complex 89",
        "addr:postcode": "560068",
        "addr:street": "Hosur Road",
        "brand": "Puma",
        "brand:wikidata": "Q157064",
        "name": "Puma",
        "name:kn": "ಪೂಮ ಸ್ಟೋರ್",
        "phone": "094003 77812",
        "shop": "clothes",
        "website": "https://in.puma.com/"
      }
    },
    {
      "type": "node",
      "id": 4487958594,
      "lat": 12.9243069,
      "lon": 77.6184898,
      "tags": {
        "addr:city": "Bangalore",
        "addr:housenumber": "4/1",
        "addr:postcode": "560068",
        "addr:street": "Sree Rama Arcade, Hosur Main Road, Opposite Ayyappa Temple, Madiwala",
        "leisure": "sports_centre",
        "name": "R.R Cycle Junction",
        "opening_hours": "11:00-21:00",
        "phone": "080 4123 2743",
        "wheelchair": "no"
      }
    },
    {
      "type": "node",
      "id": 4487963577,
      "lat": 12.9220015,
      "lon": 77.6193966,
      "tags": {
        "addr:city": "Bangalore",
        "addr:housenumber": "69/1",
        "addr:postcode": "560068",
        "addr:street": "HOSUR MAIN ROAD",
        "name": "R R International Bikes",
        "opening_hours": "11:00-20:00",
        "phone": "080 4128 0307",
        "shop": "sports"
      }
    },
    {
      "type": "node",
      "id": 4488531162,
      "lat": 12.9217519,
      "lon": 77.6205602,
      "tags": {
        "addr:city": "Bangalore",
        "addr:housenumber": "No.24",
        "addr:postcode": "560068",
        "addr:street": "Madiwala Sarjapura Road",
        "beauty": "hair;spa",
        "brand": "Naturals",
        "brand:wikidata": "Q125728261",
        "name": "Naturals Unisex Salon And Spa",
        "opening_hours": "10:00-21:00",
        "phone": "+91-80-33100461",
        "shop": "beauty",
        "website": "https://naturals.in/"
      }
    },
    {
      "type": "node",
      "id": 4489715133,
      "lat": 12.9358801,
      "lon": 77.6214605,
      "tags": {
        "addr:city": "Bangalore",
        "addr:housenumber": "34,",
        "addr:postcode": "560095",
        "addr:street": "60 Feet Rd, KHB Block Koramangala, 5th Block, Koramangala, Bengaluru, Karnataka",
        "leisure": "sports_centre",
        "name": "Cutz and Curvz Fitness",
        "opening_hours": "5:30-22:00",
        "phone": "093422 60772"
      }
    },
    {
      "type": "node",
      "id": 4489725301,
      "lat": 12.9359041,
      "lon": 77.6284372,
      "tags": {
        "addr:city": "Bangalore",
        "addr:housenumber": "No.107,2nd Floor,Art Arcade",
        "addr:postcode": "560034",
        "addr:street": "80 Feet Road;7th Main Road",
        "name": "Charisma Spa Pvt Ltd",
        "opening_hours": "09:30-20:30",
        "phone": "9742009417",
        "shop": "beauty",
        "website": "https://www.charismabeautyspa.com/"
      }
    },
    {
      "type": "node",
      "id": 4489737685,
      "lat": 12.9362135,
      "lon": 77.6260578,
      "tags": {
        "addr:city": "Bengaluru,",
        "addr:housenumber": "48",
        "addr:postcode": "560034",
        "addr:street": ", I-Star Building, 3rd Floor, 100 Feet Road, 4th Block, Koramangala, Above All Plus Showroom, Koramangala 4th Block, Koramangala,  Karnataka",
        "leisure": "sports_centre",
        "name": "Hyper Monkey Fitness",
        "opening_hours": "6:00-21:30",
        "website": "hypermonkey.in"
      }
    },
    {
      "type": "node",
      "id": 4489756652,
      "lat": 12.926081,
      "lon": 77.6254085,
      "tags": {
        "addr:city": "Bengaluru",
        "addr:housenumber": "374",
        "addr:postcode": "560034",
        "addr:street": "Sarjapura Road",
        "addr:suburb": "Koramangala",
        "amenity": "cafe",
        "cuisine": "coffee_shop",
        "delivery": "yes",
        "name": "The Craftery by Subko, BLR",
        "operator": "Subko Coffee Roasters",
        "shop": "chocolate",
        "smoking": "separated",
        "takeaway": "yes",
        "toilets": "yes",
        "toilets:access": "customers",
        "website": "https://www.subko.coffee"
      }
    },
    {
      "type": "node",
      "id": 4489757553,
      "lat": 12.9289891,
      "lon": 77.6278047,
      "tags": {
        "addr:city": "bangalore",
        "addr:housenumber": "Grand Mercure Hotel,, 12th Main Rd,",
        "addr:postcode": "560034",
        "addr:street": "12th Main Road",
        "name": "O2 Spa",
        "opening_hours": "10:00-21:00",
        "phone": "9247020202",
        "shop": "beauty"
      }
    },
    {
      "type": "node",
      "id": 4489771035,
      "lat": 12.9349925,
      "lon": 77.6228415,
      "tags": {
        "addr:city": "Bangalore",
        "addr:housenumber": "No.22/1,",
        "addr:postcode": "560034",
        "addr:street": "Koramangala",
        "name": "Four Fountains De Stress Spa",
        "opening_hours": "080-41215656",
        "phone": "08:00-21:00",
        "shop": "beauty",
        "website": "https://www.thefourfountainsspa.in/"
      }
    },
    {
      "type": "node",
      "id": 4489795674,
      "lat": 12.9336239,
      "lon": 77.6296283,
      "tags": {
        "addr:city": "Bengaluru",
        "addr:housenumber": "#638, 2nd Floor, 12th Main Road, Koramangala 4 Block,",
        "addr:postcode": "560034",
        "addr:street": "Koramangala, Koramangala 4th Block",
        "name": "Renaissance Unisex Salon & Spa",
        "opening_hours": "11:00-20:00",
        "phone": "8861350829",
        "shop": "beauty"
      }
    },
    {
      "type": "node",
      "id": 4489845028,
      "lat": 12.9322428,
      "lon": 77.6321637,
      "tags": {
        "addr:postcode": "560034",
        "addr:street": "80 Feet Road",
        "leisure": "fitness_centre",
        "level": "2;3",
        "name": "Posh Fitness"
      }
    },
    {
      "type": "node",
      "id": 4489896406,
      "lat": 12.9252152,
      "lon": 77.6338719,
      "tags": {
        "addr:city": "Bengaluru",
        "addr:housenumber": "Varthur Sarjapur Road, Near Govt. School",
        "addr:postcode": "560087",
        "addr:street": "Gunjur, 239, 1st Cross Rd, 1st Block Koramangala",
        "name": "Isthaa spa",
        "opening_hours": "08:00-20:00",
        "phone": "090353 52000",
        "shop": "beauty",
        "website": "https://isthaa.com/"
      }
    },
    {
      "type": "node",
      "id": 4545940589,
      "lat": 12.9341008,
      "lon": 77.6272181,
      "tags": {
        "amenity": "pharmacy",
        "brand": "MedPlus",
        "brand:wikidata": "Q65684234",
        "healthcare": "pharmacy",
        "name": "MedPlus",
        "name:en": "Medplus Pharmacy"
      }
    },
    {
      "type": "node",
      "id": 4545940689,
      "lat": 12.9340373,
      "lon": 77.6272494,
      "tags": {
        "name": "Fringes Unisex Salon",
        "name:en": "Fringes Unisex Salon",
        "shop": "cosmetics"
      }
    },
    {
      "type": "node",
      "id": 4563420692,
      "lat": 12.9308168,
      "lon": 77.6180438,
      "tags": {
        "addr:street": "Sarjapur Road",
        "name": "St.John's Utility Complex",
        "name:en": "St.John's Utility Complex",
        "name:hi": "St.John's Utility Complex",
        "opening_hours": "Mo-Su 08:00-00:00",
        "shop": "bakery"
      }
    },
    {
      "type": "node",
      "id": 4566357889,
      "lat": 12.9338103,
      "lon": 77.6199863,
      "tags": {
        "name": "William Penn",
        "name:en": "William Penn",
        "shop": "stationery"
      }
    },
    {
      "type": "node",
      "id": 4582748890,
      "lat": 12.9304984,
      "lon": 77.6338469,
      "tags": {
        "amenity": "restaurant",
        "name:zh": "中国菜"
      }
    },
    {
      "type": "node",
      "id": 4596325797,
      "lat": 12.9331913,
      "lon": 77.6230591,
      "tags": {
        "addr:housenumber": "63",
        "addr:postcode": "560034",
        "addr:street": "100 feet Road",
        "amenity": "restaurant",
        "cuisine": "italian_pizza;italian",
        "email": "info@thetowerofpizza.com",
        "name": "The Tower Of Pizza",
        "name:en": "The Tower Of Pizza",
        "opening_hours": "Mo-Su 11:30-03:30",
        "operator": "Subir Kumar guha",
        "phone": "9148971958",
        "website": "http://www.thetowerofpizza.com"
      }
    },
    {
      "type": "node",
      "id": 4632212544,
      "lat": 12.9323787,
      "lon": 77.6294117,
      "tags": {
        "description": "Has a basketball half court and Sea saws ",
        "leisure": "playground",
        "name": "Rectangle Park Playground"
      }
    },
    {
      "type": "node",
      "id": 4691598842,
      "lat": 12.9230869,
      "lon": 77.6192348,
      "tags": {
        "addr:city": "Bengaluru",
        "amenity": "place_of_worship",
        "name": "Shri Balamuri Mahaganapati Temple",
        "name:kn": "ಶ್ರೀ ಬಲಮುರಿ ಮಹಾಗಣಪತಿ ದೇವಾಲಯ",
        "religion": "hindu",
        "wheelchair": "no"
      }
    },
    {
      "type": "node",
      "id": 4691599027,
      "lat": 12.9244236,
      "lon": 77.6180355,
      "tags": {
        "access": "yes",
        "amenity": "toilets",
        "changing_table": "no",
        "fee": "yes"
      }
    },
    {
      "type": "node",
      "id": 4691599028,
      "lat": 12.9236536,
      "lon": 77.6184482,
      "tags": {
        "amenity": "restaurant"
      }
    },
    {
      "type": "node",
      "id": 4772955933,
      "lat": 12.9315321,
      "lon": 77.6228069,
      "tags": {
        "addr:street": "Mahayogi Vemana Road",
        "brand": "Maruti Suzuki",
        "brand:wikidata": "Q963718",
        "name": "Maruti Suzuki",
        "name:en": "Maruti Suzuki",
        "shop": "car"
      }
    },
    {
      "type": "node",
      "id": 4772964932,
      "lat": 12.9318997,
      "lon": 77.6229415,
      "tags": {
        "leisure": "fitness_centre",
        "name": "Vibes",
        "name:en": "Vibes"
      }
    },
    {
      "type": "node",
      "id": 4772964933,
      "lat": 12.9317652,
      "lon": 77.6229215,
      "tags": {
        "amenity": "bar",
        "name": "Sutra Spice Resto Bar",
        "name:en": "Sutra Spice Resto Bar"
      }
    },
    {
      "type": "node",
      "id": 4772964954,
      "lat": 12.9317704,
      "lon": 77.6228514,
      "tags": {
        "amenity": "bank",
        "branch": "4th Block",
        "brand": "ICICI Bank",
        "brand:wikidata": "Q1653258",
        "name": "ICICI Bank",
        "name:en": "ICICI Bank",
        "name:kn": "ಐಸಿಐಸಿಐ ಬ್ಯಾಂಕು",
        "short_name": "ICICI",
        "website": "https://www.icicibank.com"
      }
    },
    {
      "type": "node",
      "id": 4772964955,
      "lat": 12.9332818,
      "lon": 77.6233214,
      "tags": {
        "addr:street": "Mahayogi Vemana Road",
        "amenity": "bar",
        "name": "Bar Code",
        "name:en": "Barcode"
      }
    },
    {
      "type": "node",
      "id": 4772969935,
      "lat": 12.9320032,
      "lon": 77.6229997,
      "tags": {
        "amenity": "clinic",
        "healthcare": "clinic",
        "name": "Vachani Vista",
        "name:en": "Vachani Vista"
      }
    },
    {
      "type": "node",
      "id": 4772969936,
      "lat": 12.9320232,
      "lon": 77.6229745,
      "tags": {
        "amenity": "community_centre",
        "name": "MituToyo",
        "name:en": "MituToyo"
      }
    },
    {
      "type": "node",
      "id": 4805856923,
      "lat": 12.9306558,
      "lon": 77.6179004,
      "tags": {
        "name": "St Johns opticians and hearing aid",
        "name:en": "St Johns opticians and hearing aid",
        "shop": "optician"
      }
    },
    {
      "type": "node",
      "id": 4805858621,
      "lat": 12.9307586,
      "lon": 77.6179314,
      "tags": {
        "amenity": "fast_food",
        "name": "ಬೇಕ್ಸ್ ಅಂಡ್ ಶೇಕ್ಸ್",
        "name:en": "Bakes and Shakes",
        "name:kn": "ಬೇಕ್ಸ್ ಅಂಡ್ ಶೇಕ್ಸ್"
      }
    },
    {
      "type": "node",
      "id": 4805858622,
      "lat": 12.9310212,
      "lon": 77.6180799,
      "tags": {
        "amenity": "fast_food",
        "name": "ಆಶೀರ್ವಾದ್ ರೆಸ್ಟೋರಂಟ್ - ಸಸ್ಯಾಹಾರಿ",
        "name:en": "Aashirwaad Restaurant - Pure Veg",
        "name:kn": "ಆಶೀರ್ವಾದ್ ರೆಸ್ಟೋರಂಟ್ - ಸಸ್ಯಾಹಾರಿ"
      }
    },
    {
      "type": "node",
      "id": 4805862921,
      "lat": 12.9308485,
      "lon": 77.6179719,
      "tags": {
        "amenity": "fast_food",
        "name": "ಕೋಸ್ಟಲ್ ಬೇ - ಮಾಂಸಾಹಾರಿ",
        "name:en": "Coastal Bay - Non Veg",
        "name:kn": "ಕೋಸ್ಟಲ್ ಬೇ - ಮಾಂಸಾಹಾರಿ"
      }
    },
    {
      "type": "node",
      "id": 5029379018,
      "lat": 12.9338158,
      "lon": 77.6198404,
      "tags": {
        "addr:city": "Bangalore",
        "addr:housenumber": "#475",
        "addr:postcode": "560095",
        "addr:street": "1st A Cross Road",
        "amenity": "ice_cream",
        "name": "Berrylicious",
        "outdoor_seating": "no"
      }
    },
    {
      "type": "node",
      "id": 5029379019,
      "lat": 12.9345723,
      "lon": 77.6199541,
      "tags": {
        "addr:city": "Bangalore",
        "addr:housenumber": "#462",
        "addr:postcode": "560095",
        "addr:street": "17 C Cross",
        "amenity": "restaurant",
        "name": "Naati Manae",
        "outdoor_seating": "no"
      }
    },
    {
      "type": "node",
      "id": 5036131084,
      "lat": 12.9336798,
      "lon": 77.6222761,
      "tags": {
        "amenity": "restaurant",
        "cuisine": "indian",
        "name": "Casinova",
        "phone": "080-25526363",
        "website": "http://bonsouth.com"
      }
    },
    {
      "type": "node",
      "id": 5036138595,
      "lat": 12.9334968,
      "lon": 77.6212815,
      "tags": {
        "amenity": "cafe",
        "name": "Java City"
      }
    },
    {
      "type": "node",
      "id": 5247276738,
      "lat": 12.9370109,
      "lon": 77.6275262,
      "tags": {
        "addr:housenumber": "8, near Sapphire toy store",
        "amenity": "cafe",
        "name": "Via Milano",
        "phone": "+918041309997"
      }
    },
    {
      "type": "node",
      "id": 5349525423,
      "lat": 12.9272982,
      "lon": 77.6162285,
      "tags": {
        "name": "A1 Travels",
        "shop": "travel_agency"
      }
    },
    {
      "type": "node",
      "id": 5350092822,
      "lat": 12.9272402,
      "lon": 77.6162757,
      "tags": {
        "amenity": "bar",
        "name": "Invitation Restaurant and Bar"
      }
    },
    {
      "type": "node",
      "id": 5350114421,
      "lat": 12.9273422,
      "lon": 77.6162245,
      "tags": {
        "name": "RP Wines",
        "shop": "wine"
      }
    },
    {
      "type": "node",
      "id": 5402307926,
      "lat": 12.9240637,
      "lon": 77.6186205,
      "tags": {
        "brand": "Metro",
        "brand:wikidata": "Q16938284",
        "name": "Metro",
        "shop": "shoes"
      }
    },
    {
      "type": "node",
      "id": 5800791044,
      "lat": 12.9242148,
      "lon": 77.6185133,
      "tags": {
        "name": "R R International Bikes",
        "service:bicycle:Bicycle_Sales_and_Service": "yes",
        "service:bicycle:repair": "yes",
        "shop": "bicycle"
      }
    },
    {
      "type": "node",
      "id": 5807262206,
      "lat": 12.9251568,
      "lon": 77.6338744,
      "tags": {
        "amenity": "restaurant",
        "indoor_seating": "yes",
        "name": "Pingara",
        "outdoor_seating": "no"
      }
    },
    {
      "type": "node",
      "id": 5915230899,
      "lat": 12.9367256,
      "lon": 77.6265291,
      "tags": {
        "name": "Riya Kodali Design House",
        "shop": "yes"
      }
    },
    {
      "type": "node",
      "id": 5915230900,
      "lat": 12.936096,
      "lon": 77.6258876,
      "tags": {
        "amenity": "bank",
        "name": "Saraswat Bank"
      }
    },
    {
      "type": "node",
      "id": 5915230901,
      "lat": 12.9360713,
      "lon": 77.6251208,
      "tags": {
        "brand": "Malabar Gold and Diamonds",
        "brand:wikidata": "Q60748883",
        "name": "Malabar Gold and Diamonds",
        "shop": "jewelry"
      }
    },
    {
      "type": "node",
      "id": 5915230903,
      "lat": 12.9347999,
      "lon": 77.6242687,
      "tags": {
        "amenity": "place_of_worship",
        "name": "Balasubramania Swamy Temple",
        "religion": "hindu"
      }
    },
    {
      "type": "node",
      "id": 5915230905,
      "lat": 12.9344948,
      "lon": 77.6236101,
      "tags": {
        "amenity": "pub",
        "name": "Over The Top"
      }
    },
    {
      "type": "node",
      "id": 5915230906,
      "lat": 12.9341518,
      "lon": 77.6234672,
      "tags": {
        "amenity": "atm",
        "operator": "ICICI Bank ATM"
      }
    },
    {
      "type": "node",
      "id": 5915230908,
      "lat": 12.9325902,
      "lon": 77.6232725,
      "tags": {
        "amenity": "bank",
        "brand": "HDFC Bank",
        "brand:wikidata": "Q631047",
        "name": "HDFC Bank",
        "short_name": "HDFC"
      }
    },
    {
      "type": "node",
      "id": 5915230912,
      "lat": 12.9333881,
      "lon": 77.623589,
      "tags": {
        "amenity": "pub",
        "name": "Fandom Gillys Redefined"
      }
    },
    {
      "type": "node",
      "id": 5915230913,
      "lat": 12.9334502,
      "lon": 77.623612,
      "tags": {
        "amenity": "pub",
        "name": "Myu Bar at Gilly's Redefined"
      }
    },
    {
      "type": "node",
      "id": 5915230914,
      "lat": 12.9342194,
      "lon": 77.623433,
      "tags": {
        "amenity": "pub",
        "check_date": "2024-08-28",
        "name": "Brooks and Bonds Brewery"
      }
    },
    {
      "type": "node",
      "id": 5915409403,
      "lat": 12.9334898,
      "lon": 77.6184132,
      "tags": {
        "amenity": "place_of_worship",
        "name": "Ganesha Temple",
        "name:kn": "ಗಣೇಶ ದೇವಸ್ಥಾನ",
        "religion": "hindu"
      }
    },
    {
      "type": "node",
      "id": 5915409404,
      "lat": 12.9335157,
      "lon": 77.6184839,
      "tags": {
        "amenity": "place_of_worship",
        "name": "Subramanya Temple",
        "name:kn": "ಸುಬ್ರಮಣ್ಯ ದೇವಸ್ಥಾನ",
        "religion": "hindu"
      }
    },
    {
      "type": "node",
      "id": 5915409405,
      "lat": 12.9335312,
      "lon": 77.6186326,
      "tags": {
        "amenity": "community_centre",
        "name": "PMR Hall"
      }
    },
    {
      "type": "node",
      "id": 5915409411,
      "lat": 12.9338175,
      "lon": 77.6201615,
      "tags": {
        "amenity": "hospital",
        "healthcare": "hospital",
        "name": "Apollo Spectra Hospitals"
      }
    },
    {
      "type": "node",
      "id": 5915569162,
      "lat": 12.9356454,
      "lon": 77.628683,
      "tags": {
        "amenity": "bank",
        "branch": "4th Block",
        "brand": "HDFC Bank",
        "brand:wikidata": "Q631047",
        "name": "HDFC Bank",
        "short_name": "HDFC"
      }
    },
    {
      "type": "node",
      "id": 5915569163,
      "lat": 12.9350683,
      "lon": 77.6292839,
      "tags": {
        "addr:city": "Bangalore",
        "addr:country": "IN",
        "addr:housenumber": "974",
        "addr:postcode": "560034",
        "addr:street": "80 Feet Road",
        "addr:suburb": "Koramangala",
        "amenity": "restaurant",
        "contact:facebook": "nasiandmee",
        "contact:instagram": "nasiandmee",
        "cuisine": "asian",
        "delivery": "yes",
        "level": "0",
        "name": "Nasi and Mee",
        "official_name": "Nasi and Mee Asian Canteen",
        "phone": "+91 80 4151 3456",
        "takeaway": "yes",
        "website": "https://www.nasiandmee.co.in/"
      }
    },
    {
      "type": "node",
      "id": 5915887950,
      "lat": 12.9362974,
      "lon": 77.6277069,
      "tags": {
        "amenity": "bank",
        "brand": "Yes Bank",
        "brand:wikidata": "Q2040394",
        "name": "Yes Bank",
        "name:kn": "ಯಸ್ ಬ್ಯಾಂಕ್"
      }
    },
    {
      "type": "node",
      "id": 5915887963,
      "lat": 12.9344393,
      "lon": 77.6295345,
      "tags": {
        "amenity": "restaurant",
        "name": "BSR Lassi Packers Shop"
      }
    },
    {
      "type": "node",
      "id": 5915887964,
      "lat": 12.9346219,
      "lon": 77.6293199,
      "tags": {
        "amenity": "bank",
        "brand": "Andhra Bank",
        "brand:wikidata": "Q2003476",
        "name": "Andhra Bank",
        "name:kn": "ಆಂಧ್ರ ಬ್ಯಾಂಕ್"
      }
    },
    {
      "type": "node",
      "id": 5915887965,
      "lat": 12.9348078,
      "lon": 77.6291104,
      "tags": {
        "name": "Petals",
        "shop": "yes"
      }
    },
    {
      "type": "node",
      "id": 5915887966,
      "lat": 12.9304826,
      "lon": 77.6331908,
      "tags": {
        "amenity": "ice_cream",
        "name": "Natural Ice Cream",
        "not:brand:wikidata": "Q24439154",
        "outdoor_seating": "no",
        "website": "https://naturalicecreams.in/"
      }
    },
    {
      "type": "node",
      "id": 5915887967,
      "lat": 12.9312594,
      "lon": 77.6329642,
      "tags": {
        "amenity": "pub",
        "name": "Bira 91 Taproom"
      }
    },
    {
      "type": "node",
      "id": 5915887969,
      "lat": 12.9255456,
      "lon": 77.6333329,
      "tags": {
        "amenity": "restaurant",
        "check_date": "2023-11-30",
        "indoor_seating": "yes",
        "name": "Bistro Claytopia",
        "outdoor_seating": "yes",
        "start_date": "2004"
      }
    },
    {
      "type": "node",
      "id": 5915887970,
      "lat": 12.9257724,
      "lon": 77.6333947,
      "tags": {
        "amenity": "bank",
        "brand": "State Bank of India",
        "brand:wikidata": "Q1340361",
        "check_date": "2025-08-08",
        "name": "State Bank of India",
        "short_name": "SBI"
      }
    },
    {
      "type": "node",
      "id": 5915887971,
      "lat": 12.9260044,
      "lon": 77.6332862,
      "tags": {
        "amenity": "restaurant",
        "name": "Magnolia"
      }
    },
    {
      "type": "node",
      "id": 5915887973,
      "lat": 12.926672,
      "lon": 77.6335707,
      "tags": {
        "name": "iService - iPhone, MacBook, Oneplus, Xiaomi Repairs and Service Center",
        "shop": "electronics"
      }
    },
    {
      "type": "node",
      "id": 5915887975,
      "lat": 12.9269862,
      "lon": 77.6332224,
      "tags": {
        "amenity": "bank",
        "brand": "Federal Bank",
        "brand:wikidata": "Q2044983",
        "name": "Federal Bank"
      }
    },
    {
      "type": "node",
      "id": 6067868839,
      "lat": 12.9332568,
      "lon": 77.6296592,
      "tags": {
        "amenity": "pharmacy",
        "healthcare": "pharmacy",
        "name": "Kiran Medical Store"
      }
    },
    {
      "type": "node",
      "id": 6124618182,
      "lat": 12.934138,
      "lon": 77.6303069,
      "tags": {
        "amenity": "car_wash",
        "check_date": "2024-03-02",
        "name": "3M Car Care"
      }
    },
    {
      "type": "node",
      "id": 6124618183,
      "lat": 12.9366526,
      "lon": 77.6277125,
      "tags": {
        "amenity": "hospital",
        "healthcare": "hospital",
        "name": "Shiva Vision Care"
      }
    },
    {
      "type": "node",
      "id": 6124618658,
      "lat": 12.9367507,
      "lon": 77.62774,
      "tags": {
        "name": "Lassi top",
        "shop": "coffee"
      }
    },
    {
      "type": "node",
      "id": 6124618695,
      "lat": 12.9367615,
      "lon": 77.6276835,
      "tags": {
        "amenity": "restaurant",
        "name": "The Tiffin Express"
      }
    },
    {
      "type": "node",
      "id": 6348984684,
      "lat": 12.9243486,
      "lon": 77.6325688,
      "tags": {
        "addr:place": "Koramangala",
        "amenity": "school",
        "isced:level": "2",
        "name": "GHPS Ksrp Koramangala",
        "name:kn": "ಸರ್ಕಾರಿ ಹಿರಿಯ ಪ್ರಾಥಮಿಕ ಶಾಲೆ ಕನ್ನಡ ಹಿರಿಯ ಪ್ರಾಥಮಿಕ ಶಾಲೆ ಕೋರಮಂಗಲ",
        "operator": "Department of Primary and Secondary Education",
        "operator:type": "government",
        "operator:wikidata": "Q111467381",
        "school": "primary"
      }
    },
    {
      "type": "node",
      "id": 6348996832,
      "lat": 12.9244734,
      "lon": 77.6185744,
      "tags": {
        "addr:place": "Madival",
        "amenity": "school",
        "isced:level": "2",
        "name": "Sri Sathyanarayana HPS Madival",
        "name:kn": "ಶ್ರೀ ಸತ್ಯನಾರಾಯಣ ಹಿರಿಯ ಪ್ರಾಥಮಿಕ ಶಾಲೆ ಮಡಿವಾಲ್",
        "operator": "Department of Primary and Secondary Education",
        "operator:type": "government",
        "operator:wikidata": "Q111467381",
        "school": "primary"
      }
    },
    {
      "type": "node",
      "id": 6349007390,
      "lat": 12.9221808,
      "lon": 77.619154,
      "tags": {
        "addr:place": "Madivala",
        "amenity": "school",
        "isced:level": "2",
        "name": "GUHPS Madivala",
        "name:kn": "ಸರ್ಕಾರಿ ಉರ್ದು ಹಿರಿಯ ಪ್ರಾಥಮಿಕ ಶಾಲೆ ಮಡಿವಾಳ",
        "operator": "Department of Primary and Secondary Education",
        "operator:type": "government",
        "operator:wikidata": "Q111467381",
        "school": "primary"
      }
    },
    {
      "type": "node",
      "id": 6534631815,
      "lat": 12.9245257,
      "lon": 77.6180091,
      "tags": {
        "addr:street": "Hosur Road",
        "amenity": "atm",
        "brand": "Citibank",
        "brand:wikidata": "Q857063",
        "cash_in": "no",
        "name": "Citibank",
        "name:kn": "ಸಿಟಿಬ್ಯಾಂಕ್",
        "operator": "Citibank",
        "operator:wikidata": "Q857063",
        "short_name": "Citi"
      }
    },
    {
      "type": "node",
      "id": 6536304794,
      "lat": 12.9349547,
      "lon": 77.6217464,
      "tags": {
        "addr:place": "Koramangala",
        "amenity": "school",
        "isced:level": "3",
        "name": "Babymona EHPS Koramangala",
        "name:kn": "ಬೇಬಿ ಮೋನಾ ಆಂಗ್ಲ ಹಿರಿಯ ಪ್ರಾಥಮಿಕ ಶಾಲೆ ಕೋರಮಂಗಲ",
        "operator": "Private Un-Aided",
        "school": "Higher Secondary"
      }
    },
    {
      "type": "node",
      "id": 6536328458,
      "lat": 12.9289663,
      "lon": 77.6240375,
      "tags": {
        "addr:place": "Koramangala",
        "amenity": "school",
        "isced:level": "3",
        "name": "Dba Reddy Janasangha Koramangala",
        "name:kn": "ಡಿಬಿಎ ರೆಡ್ಡಿ ಜನಸಂಘ ಕೋರಮಂಗಲ",
        "operator": "Private Un-Aided",
        "school": "Higher Secondary"
      }
    },
    {
      "type": "node",
      "id": 6536356188,
      "lat": 12.9350185,
      "lon": 77.6276797,
      "tags": {
        "addr:place": "Koramangala",
        "amenity": "school",
        "isced:level": "3",
        "name": "Chinmaya Vidyalaya, Koramangala",
        "name:kn": "ಚಿನ್ಮಯ ವಿದ್ಯಾಲಯ, ಕೋರಮಂಗಲ",
        "operator": "Private Un-Aided",
        "school": "Higher Secondary"
      }
    },
    {
      "type": "node",
      "id": 6536936978,
      "lat": 12.9233791,
      "lon": 77.618714,
      "tags": {
        "addr:place": "Madivala",
        "amenity": "school",
        "isced:level": "3",
        "name": "Khalsa Public LPS Madivala",
        "name:kn": "ಖಾಲ್ಸ ಪಬ್ಲಿಕ್ ಕಿರಿಯ ಪ್ರಾಥಮಿಕ ಶಾಲೆ ಮಡಿವಾಳ",
        "operator": "Private Un-Aided",
        "school": "Higher Secondary"
      }
    },
    {
      "type": "node",
      "id": 6569023746,
      "lat": 12.9289898,
      "lon": 77.6329994,
      "tags": {
        "addr:city": "Bengaluru",
        "addr:country": "IN",
        "addr:hamlet": "Koramangala 1A Block",
        "addr:housename": "Prestige Atlanta",
        "addr:postcode": "560034",
        "addr:street": "80 Feet Road",
        "amenity": "coworking_space",
        "brand": "WeWork",
        "brand:wikidata": "Q19995004",
        "fee": "yes",
        "name": "WeWork",
        "office": "coworking",
        "operator": "WeWork",
        "website": "https://www.wework.com/buildings/prestige-atlanta--bengaluru--Karnataka"
      }
    },
    {
      "type": "node",
      "id": 6609184248,
      "lat": 12.9340215,
      "lon": 77.6293735,
      "tags": {
        "name": "Lassi Shop",
        "shop": "coffee"
      }
    },
    {
      "type": "node",
      "id": 6609198087,
      "lat": 12.934137,
      "lon": 77.6291472,
      "tags": {
        "amenity": "bicycle_rental",
        "brand": "Yulu",
        "brand:wikidata": "Q104871276",
        "name": "Yulu",
        "network": "Yulu",
        "network:wikidata": "Q104871276",
        "operator": "Yulu"
      }
    },
    {
      "type": "node",
      "id": 6702830215,
      "lat": 12.9331051,
      "lon": 77.62526,
      "tags": {
        "addr:place": "Mestri Palya",
        "amenity": "school",
        "isced:level": "1",
        "name": "GLPS Mestri Palya",
        "name:kn": "ಸರ್ಕಾರಿ ಕಿರಿಯ ಪ್ರಾಥಮಿಕ ಶಾಲೆ ಮೇಸ್ತ್ರಿ ಪಾಳ್ಯ ,ಈಜಿಪುರ",
        "operator": "Department of Primary and Secondary Education",
        "operator:type": "government",
        "operator:wikidata": "Q111467381",
        "school": "primary"
      }
    },
    {
      "type": "node",
      "id": 6734448697,
      "lat": 12.9248675,
      "lon": 77.6292823,
      "tags": {
        "addr:place": "Eegipura",
        "amenity": "school",
        "isced:level": "3",
        "name": "St Frances Icse School Koramangala",
        "name:kn": "ಸೇಂಟ್ ಫ್ರಾನ್ಸಿಸ್ ಐ.ಸಿ.ಎಸ್.ಇ. ಕೋರಮಂಗಲ, ಈಜಿಪುರ",
        "operator": "Private Un-Aided",
        "school": "Private Un-Aided"
      }
    },
    {
      "type": "node",
      "id": 6882713314,
      "lat": 12.9292434,
      "lon": 77.6201463,
      "tags": {
        "addr:city": "Bengaluru",
        "addr:district": "BENGALURU URBAN",
        "addr:full": "Sarjapur Road, Bengaluru",
        "addr:state": "Karnataka",
        "amenity": "blood_bank",
        "contact:mobile": "9591990365",
        "contact:phone": "8022065045",
        "name": "St. John ' Medical College Blood Bank",
        "opening_hours": "24/7",
        "operator:type": "private",
        "source": "OpenGovernmentData",
        "website": "https://stjohns.in/"
      }
    },
    {
      "type": "node",
      "id": 6938758526,
      "lat": 12.926471,
      "lon": 77.6167399,
      "tags": {
        "addr:district": "Bengaluru Urban",
        "addr:full": "#86 Hosur Main Road, Madivala",
        "addr:postcode": "560068",
        "addr:state": "Karnataka",
        "amenity": "hospital",
        "name": "Sri Venkateshwara Hospitals",
        "operator:type": "private",
        "source": "OpenGovernmentData",
        "website": "http://dpal.kar.nic.in/Kanunu%20padakosha%20PDF%20Files/Recognised%20Hospitals.pdf"
      }
    },
    {
      "type": "node",
      "id": 6938759412,
      "lat": 12.9339097,
      "lon": 77.620208,
      "tags": {
        "addr:district": "Bengaluru Urban",
        "addr:full": "Opus, 143, 1st Cross, 5th Block, Koramangala",
        "addr:postcode": "560034",
        "addr:state": "Karnataka",
        "amenity": "hospital",
        "email": "info@novamedicalcenters.com",
        "healthcare:speciality": "multi speciality",
        "name": "Nova Specialty Surgery Center, Koramangala",
        "operator:type": "private",
        "source": "OpenGovernmentData",
        "website": "www.novaspecialtysurgery.com"
      }
    },
    {
      "type": "node",
      "id": 6938790393,
      "lat": 12.924624,
      "lon": 77.6170966,
      "tags": {
        "addr:district": "Bengaluru Rural",
        "addr:full": "No. 38/2, 2nd Main Road, Madiwala New Extension",
        "addr:postcode": "560068",
        "addr:state": "Karnataka",
        "amenity": "hospital",
        "name": "Varalakshmi Hospital",
        "name:kn": "ವರಲಕ್ಷ್ಮಿ ಆಸ್ಪತ್ರೆ",
        "source": "OpenGovernmentData"
      }
    },
    {
      "type": "node",
      "id": 6939350511,
      "lat": 12.9314314,
      "lon": 77.6233582,
      "tags": {
        "addr:district": "Bengaluru Urban",
        "addr:full": "81, 7Th Cross 4Th Block, Near Bda Complex Koramangala",
        "addr:postcode": "560034",
        "addr:state": "Karnataka",
        "amenity": "clinic",
        "healthcare": "clinic",
        "name": "Kamala Nethralaya",
        "source": "OpenGovernmentData"
      }
    },
    {
      "type": "node",
      "id": 6939418124,
      "lat": 12.9251521,
      "lon": 77.6245022,
      "tags": {
        "addr:district": "Bengaluru Urban",
        "addr:full": "CGHS Dispensary No.7, Koramangala, CPWDQuarters, Koramangala",
        "addr:postcode": "560034",
        "addr:state": "Karnataka",
        "amenity": "clinic",
        "health_facility:type": "dispensary",
        "healthcare": "centre",
        "name": "CGHS Dispensary No.7",
        "operator:type": "government",
        "source": "OpenGovernmentData",
        "website": "http://nb.bsf.gov.in/CGHS%20DIspenseries.pdf"
      }
    },
    {
      "type": "node",
      "id": 6939445234,
      "lat": 12.9343279,
      "lon": 77.6228848,
      "tags": {
        "addr:district": "Bengaluru Urban",
        "addr:full": "# 88, 17th, A Main, 2nd Cross, 5th Block, Koramangala",
        "addr:postcode": "560095",
        "addr:state": "Karnataka",
        "amenity": "hospital",
        "healthcare:speciality": "Clinical Labs; Diagnosis; Medical Oncology; Radiation oncology; Surgical Oncology",
        "name": "HCG, Koramangala",
        "operator:type": "private",
        "source": "OpenGovernmentData",
        "website": "https://www.hcgoncology.com/"
      }
    },
    {
      "type": "node",
      "id": 6944290484,
      "lat": 12.9236768,
      "lon": 77.6193111,
      "tags": {
        "addr:district": "Bengaluru Rural",
        "addr:full": "4/1, Road Cross,Hosur Main Road, Madiwala",
        "addr:postcode": "560068",
        "addr:state": "Karnataka",
        "amenity": "clinic",
        "healthcare": "clinic",
        "name": "Kaveri Speciality Hospital",
        "source": "OpenGovernmentData"
      }
    },
    {
      "type": "node",
      "id": 7036015201,
      "lat": 12.9232415,
      "lon": 77.6191958,
      "tags": {
        "amenity": "bank",
        "branch": "Madiwala Branch",
        "brand": "Canara Bank",
        "brand:en": "Canara Bank",
        "brand:hi": "केनरा बैंक",
        "brand:kn": "ಕೆನರಾ ಬ್ಯಾಂಕ್",
        "brand:pa": "ਕੇਨਰਾ ਬੈਂਕ",
        "brand:pnb": "کینرا بینک",
        "brand:ur": "کینرا بینک",
        "brand:wikidata": "Q2003777",
        "brand:wikipedia": "en:Canara Bank",
        "brand:wikipedia:pa": "ਕੇਨਰਾ ਬੈਂਕ",
        "name": "Canara Bank",
        "name:en": "Canara Bank",
        "name:hi": "केनरा बैंक",
        "name:kn": "ಕೆನರಾ ಬ್ಯಾಂಕ್",
        "name:pa": "ਕੇਨਰਾ ਬੈਂਕ",
        "name:pnb": "کینرا بینک",
        "name:ur": "کینرا بینک"
      }
    },
    {
      "type": "node",
      "id": 7036023470,
      "lat": 12.9228918,
      "lon": 77.6194018,
      "tags": {
        "addr:city": "Bengaluru",
        "brand": "TVS",
        "brand:wikidata": "Q3300084",
        "name": "Indian TVS",
        "shop": "motorcycle"
      }
    },
    {
      "type": "node",
      "id": 7164319496,
      "lat": 12.9209511,
      "lon": 77.620137,
      "tags": {
        "amenity": "restaurant",
        "check_date": "2024-08-29",
        "indoor_seating": "yes",
        "name": "Mayur Andra Style Restaraunt",
        "outdoor_seating": "no",
        "source": "survey"
      }
    },
    {
      "type": "node",
      "id": 7164323510,
      "lat": 12.9216966,
      "lon": 77.620318,
      "tags": {
        "check_date": "2024-08-29",
        "name": "Davanam Sarovar Portico Suites",
        "shop": "mall",
        "source": "survey"
      }
    },
    {
      "type": "node",
      "id": 7294299976,
      "lat": 12.9220738,
      "lon": 77.6195025,
      "tags": {
        "amenity": "bank",
        "atm": "yes",
        "brand": "HDFC Bank",
        "brand:wikidata": "Q631047",
        "name": "HDFC Bank",
        "operator": "HDFC Bank",
        "short_name": "HDFC"
      }
    },
    {
      "type": "node",
      "id": 7514681681,
      "lat": 12.9240924,
      "lon": 77.6177848,
      "tags": {
        "addr:city": "Bengaluru",
        "addr:postcode": "560068",
        "amenity": "hospital",
        "healthcare": "hospital",
        "name": "Chamundi Hi Tech Hospital"
      }
    },
    {
      "type": "node",
      "id": 7579924738,
      "lat": 12.9239445,
      "lon": 77.6198634,
      "tags": {
        "addr:district": "Bengaluru Urban",
        "addr:full": "Sidharata Colony, Santhosapuram, Koramangala, Bengaluru",
        "addr:postcode": "560034",
        "addr:state": "Karnataka",
        "amenity": "hospital",
        "healthcare": "hospital",
        "name": "Devi Hospital",
        "source": "Local Knowledge"
      }
    },
    {
      "type": "node",
      "id": 8428403226,
      "lat": 12.9305937,
      "lon": 77.6186159,
      "tags": {
        "amenity": "hospital",
        "healthcare": "hospital",
        "name": "St. Johns hospital Emergency ward"
      }
    },
    {
      "type": "node",
      "id": 8948240439,
      "lat": 12.9285794,
      "lon": 77.628205,
      "tags": {
        "name": "Iyengar Bakery",
        "shop": "bakery"
      }
    },
    {
      "type": "node",
      "id": 8948240441,
      "lat": 12.9286787,
      "lon": 77.6242715,
      "tags": {
        "shop": "car"
      }
    },
    {
      "type": "node",
      "id": 9810733197,
      "lat": 12.9366398,
      "lon": 77.6251927,
      "tags": {
        "amenity": "bank",
        "brand": "Indian Bank",
        "brand:wikidata": "Q2003789",
        "name": "Indian Bank",
        "name:kn": "ಇಂಡಿಯನ್ ಬ್ಯಾಂಕ್"
      }
    },
    {
      "type": "node",
      "id": 9810748012,
      "lat": 12.9350754,
      "lon": 77.6249289,
      "tags": {
        "amenity": "restaurant",
        "name": "Sour House"
      }
    },
    {
      "type": "node",
      "id": 9852222512,
      "lat": 12.9349148,
      "lon": 77.6294281,
      "tags": {
        "brand": "The Sleep Company",
        "name": "The Sleep Company Store",
        "operator": "The Sleep Company",
        "shop": "furniture",
        "website": "https://thesleepcompany.in/"
      }
    },
    {
      "type": "node",
      "id": 9930197120,
      "lat": 12.9342979,
      "lon": 77.623428,
      "tags": {
        "brand": "Tanishq",
        "brand:en": "Tanishq",
        "brand:wikidata": "Q13117711",
        "check_date": "2024-08-28",
        "name": "Tanishq",
        "name:en": "Tanishq",
        "shop": "jewelry"
      }
    },
    {
      "type": "node",
      "id": 10068956759,
      "lat": 12.933337,
      "lon": 77.6226923,
      "tags": {
        "amenity": "restaurant",
        "name": "La Arabia"
      }
    },
    {
      "type": "node",
      "id": 10068956760,
      "lat": 12.9338428,
      "lon": 77.6197996,
      "tags": {
        "amenity": "cafe",
        "name": "What's In a Name"
      }
    },
    {
      "type": "node",
      "id": 10068956762,
      "lat": 12.9334588,
      "lon": 77.6210465,
      "tags": {
        "amenity": "restaurant",
        "cuisine": "regional;indian",
        "diet:vegetarian": "yes",
        "name": "Moplah's",
        "outdoor_seating": "yes"
      }
    },
    {
      "type": "node",
      "id": 10068956763,
      "lat": 12.9334577,
      "lon": 77.6210123,
      "tags": {
        "amenity": "pub",
        "name": "Drunklings"
      }
    },
    {
      "type": "node",
      "id": 10068956764,
      "lat": 12.9334854,
      "lon": 77.6210369,
      "tags": {
        "amenity": "restaurant",
        "level": "1",
        "name": "Basaveshwar Khanavali",
        "outdoor_seating": "yes"
      }
    },
    {
      "type": "node",
      "id": 10068956765,
      "lat": 12.9334799,
      "lon": 77.621003,
      "tags": {
        "amenity": "restaurant",
        "cuisine": "indian;regional",
        "level": "0",
        "name": "Cafe Malabars",
        "outdoor_seating": "yes"
      }
    },
    {
      "type": "node",
      "id": 10068956766,
      "lat": 12.9333552,
      "lon": 77.6224709,
      "tags": {
        "amenity": "clinic",
        "healthcare": "clinic",
        "healthcare:speciality": "dermatology",
        "name": "Skinsi"
      }
    },
    {
      "type": "node",
      "id": 10068956767,
      "lat": 12.9333754,
      "lon": 77.6224577,
      "tags": {
        "amenity": "clinic",
        "healthcare": "clinic",
        "healthcare:speciality": "dentist",
        "name": "Toothsi"
      }
    },
    {
      "type": "node",
      "id": 10068956768,
      "lat": 12.9336927,
      "lon": 77.6224652,
      "tags": {
        "amenity": "restaurant",
        "cuisine": "chinese;thai",
        "name": "Tim Tai"
      }
    },
    {
      "type": "node",
      "id": 10068956880,
      "lat": 12.9365956,
      "lon": 77.6273239,
      "tags": {
        "name": "icycle.in",
        "shop": "bicycle",
        "website": "https://icycle.in/"
      }
    },
    {
      "type": "node",
      "id": 10068956881,
      "lat": 12.9367647,
      "lon": 77.6271187,
      "tags": {
        "name": "VLCC",
        "shop": "beauty"
      }
    },
    {
      "type": "node",
      "id": 10072982933,
      "lat": 12.9348218,
      "lon": 77.6304221,
      "tags": {
        "amenity": "dentist",
        "healthcare": "dentist",
        "name": "Pinnacle Family Dental and Implant Clinic"
      }
    },
    {
      "type": "node",
      "id": 10073475701,
      "lat": 12.9335751,
      "lon": 77.6267634,
      "tags": {
        "addr:housenumber": "437",
        "addr:street": "8th Main",
        "amenity": "veterinary",
        "check_date": "2025-08-08",
        "name": "Pet Zone Pet Clinic",
        "phone": "08041217299"
      }
    },
    {
      "type": "node",
      "id": 10075729404,
      "lat": 12.9318955,
      "lon": 77.6333311,
      "tags": {
        "addr:street": "1st Main Road",
        "check_date": "2025-05-25",
        "leisure": "fitness_centre",
        "name": "Iconic Gym"
      }
    },
    {
      "type": "node",
      "id": 10075730026,
      "lat": 12.9320203,
      "lon": 77.6333683,
      "tags": {
        "addr:street": "8th Cross Road",
        "name": "Green Grocer",
        "shop": "greengrocer"
      }
    },
    {
      "type": "node",
      "id": 10075730590,
      "lat": 12.932216,
      "lon": 77.6321306,
      "tags": {
        "amenity": "restaurant",
        "name": "La Pino'z Pizza",
        "website": "https://lapinozpizza.in/"
      }
    },
    {
      "type": "node",
      "id": 10076899906,
      "lat": 12.9339911,
      "lon": 77.6303086,
      "tags": {
        "addr:street": "80 Feet Road",
        "amenity": "money_transfer",
        "brand": "Western Union",
        "brand:wikidata": "Q861042",
        "name": "Western Union",
        "website": "https://www.westernunion.com/"
      }
    },
    {
      "type": "node",
      "id": 10079235535,
      "lat": 12.9352952,
      "lon": 77.6305775,
      "tags": {
        "addr:street": "1st Cross Road",
        "name": "Bangalore Xerox Shop",
        "shop": "copyshop"
      }
    },
    {
      "type": "node",
      "id": 10111454506,
      "lat": 12.9350124,
      "lon": 77.6302132,
      "tags": {
        "amenity": "bank",
        "brand": "Indian Bank",
        "brand:wikidata": "Q2003789",
        "name": "Indian Bank"
      }
    },
    {
      "type": "node",
      "id": 10111454507,
      "lat": 12.9350238,
      "lon": 77.6302683,
      "tags": {
        "amenity": "atm",
        "brand": "Indian Bank",
        "brand:wikidata": "Q2003789",
        "operator": "Indian Bank",
        "operator:wikidata": "Q2003789"
      }
    },
    {
      "type": "node",
      "id": 10111481929,
      "lat": 12.9353206,
      "lon": 77.6299347,
      "tags": {
        "amenity": "restaurant",
        "name": "Login2Eat.com"
      }
    },
    {
      "type": "node",
      "id": 10111481930,
      "lat": 12.9352769,
      "lon": 77.6299633,
      "tags": {
        "name": "KM Shukla Store",
        "shop": "convenience"
      }
    },
    {
      "type": "node",
      "id": 10111481931,
      "lat": 12.9350889,
      "lon": 77.6300415,
      "tags": {
        "name": "Sri Bhuvaneswari Laundry",
        "shop": "laundry"
      }
    },
    {
      "type": "node",
      "id": 10111497269,
      "lat": 12.9355706,
      "lon": 77.6298416,
      "tags": {
        "name": "Sri Manjunatha 2 Wheeler Repair",
        "shop": "motorcycle_repair"
      }
    },
    {
      "type": "node",
      "id": 10219532237,
      "lat": 12.9351115,
      "lon": 77.6292155,
      "tags": {
        "addr:city": "Bangalore",
        "addr:country": "IN",
        "addr:housenumber": "974",
        "addr:postcode": "560034",
        "addr:street": "80 Feet Road",
        "addr:suburb": "Koramangala",
        "amenity": "restaurant",
        "contact:facebook": "altpizza.in",
        "contact:instagram": "altpizza.in",
        "cuisine": "pizza",
        "delivery": "yes",
        "level": "1",
        "name": "Alt Pizza",
        "opening_hours": "12:30-22:30",
        "phone": "+91 8123892268",
        "takeaway": "yes",
        "website": "https://www.altpizza.co.in/"
      }
    },
    {
      "type": "node",
      "id": 10238264073,
      "lat": 12.9300329,
      "lon": 77.6210019,
      "tags": {
        "amenity": "theatre",
        "name": "Pope Paul VI Auditorium"
      }
    },
    {
      "type": "node",
      "id": 10295524798,
      "lat": 12.9294166,
      "lon": 77.6323832,
      "tags": {
        "addr:city": "Bengaluru",
        "addr:country": "IN",
        "addr:housenumber": "12",
        "addr:postcode": "560034",
        "addr:street": "7th Cross Road",
        "addr:suburb": "Koramangala",
        "amenity": "coworking_space",
        "fee": "yes",
        "name": "Attic Space Trishul",
        "office": "coworking",
        "operator": "Attic Space",
        "website": "https://atticspace.in/location/attic-space-trishul-kormangala"
      }
    },
    {
      "type": "node",
      "id": 10295524802,
      "lat": 12.9295061,
      "lon": 77.6314384,
      "tags": {
        "amenity": "post_box"
      }
    },
    {
      "type": "node",
      "id": 10295532229,
      "lat": 12.9255952,
      "lon": 77.6286368,
      "tags": {
        "amenity": "bicycle_parking",
        "bicycle_parking": "rack"
      }
    },
    {
      "type": "node",
      "id": 10295532236,
      "lat": 12.9240463,
      "lon": 77.6271871,
      "tags": {
        "amenity": "fast_food",
        "brand": "Indira Canteen",
        "brand:wikidata": "Q36164828",
        "cuisine": "south_indian",
        "name": "Indira Canteen",
        "operator": "BBMP",
        "takeaway": "yes"
      }
    },
    {
      "type": "node",
      "id": 10295532250,
      "lat": 12.9259481,
      "lon": 77.6239108,
      "tags": {
        "amenity": "bank",
        "atm": "yes",
        "brand": "Bank of India",
        "brand:wikidata": "Q2004439",
        "name": "Bank of India",
        "operator": "Bank of India"
      }
    },
    {
      "type": "node",
      "id": 10314122725,
      "lat": 12.9347397,
      "lon": 77.6296212,
      "tags": {
        "amenity": "cafe",
        "brand": "Third Wave Coffee Roasters",
        "brand:wikidata": "Q7785004",
        "cuisine": "coffee_shop",
        "delivery": "yes",
        "name": "Third Wave Coffee Roasters",
        "operator": "Third Wave Coffee Roasters",
        "takeaway": "yes"
      }
    },
    {
      "type": "node",
      "id": 10649347387,
      "lat": 12.935354,
      "lon": 77.6284155,
      "tags": {
        "amenity": "cafe",
        "delivery": "yes",
        "name": "Maverick and Farmer Coffee",
        "takeaway": "yes",
        "website": "https://www.maverickandfarmer.com/"
      }
    },
    {
      "type": "node",
      "id": 10688121233,
      "lat": 12.9263325,
      "lon": 77.6168052,
      "tags": {
        "amenity": "atm",
        "brand": "Citibank",
        "brand:wikidata": "Q857063",
        "check_date": "2023-06-30",
        "name": "Citibank",
        "operator": "Citibank",
        "operator:wikidata": "Q857063",
        "short_name": "Citi"
      }
    },
    {
      "type": "node",
      "id": 10688121234,
      "lat": 12.9263464,
      "lon": 77.6167941,
      "tags": {
        "amenity": "atm",
        "brand": "Federal Bank",
        "brand:wikidata": "Q2044983",
        "check_date": "2023-06-30",
        "name": "Federal Bank",
        "operator": "Federal Bank",
        "operator:wikidata": "Q2044983"
      }
    },
    {
      "type": "node",
      "id": 10695242204,
      "lat": 12.9351187,
      "lon": 77.6226367,
      "tags": {
        "addr:city": "Bangalore",
        "addr:country": "IN",
        "addr:hamlet": "Koramangala 5th Block",
        "addr:housename": "Peace Vill",
        "addr:housenumber": "23",
        "addr:postcode": "560095",
        "addr:street": "5th Cross Road",
        "addr:suburb": "Koramangala",
        "amenity": "restaurant",
        "contact:instagram": "maffeikitchen",
        "contact:twitter": "maffeikitchen",
        "contact:youtube": "UCg5ynIWr7V6lmRXtqctwG3Q",
        "cuisine": "mediterranean",
        "delivery": "yes",
        "name": "Maffei Kitchen",
        "opening_hours": "11:00-23:00",
        "phone": "+91 8005471058",
        "takeaway": "yes",
        "website": "https://www.maffei.in/"
      }
    },
    {
      "type": "node",
      "id": 10728008693,
      "lat": 12.933281,
      "lon": 77.6270744,
      "tags": {
        "amenity": "restaurant",
        "contact:facebook": "154breakfastclub",
        "cuisine": "american",
        "delivery": "yes",
        "name": "154 Breakfast Club",
        "takeaway": "yes"
      }
    },
    {
      "type": "node",
      "id": 10728008696,
      "lat": 12.9333868,
      "lon": 77.6223524,
      "tags": {
        "amenity": "cafe",
        "contact:facebook": "theteatoastco",
        "contact:instagram": "theteatoastco",
        "contact:twitter": "TheTeaToastCo",
        "delivery": "yes",
        "name": "The Tea Toast Co.",
        "takeaway": "yes",
        "website": "https://www.theteatoastco.in"
      }
    },
    {
      "type": "node",
      "id": 10743638825,
      "lat": 12.9334275,
      "lon": 77.6201698,
      "tags": {
        "amenity": "toilets",
        "unisex": "yes",
        "wheelchair": "no"
      }
    },
    {
      "type": "node",
      "id": 10797060928,
      "lat": 12.9351488,
      "lon": 77.621022,
      "tags": {
        "name": "Nandini Milk Parlour",
        "shop": "dairy"
      }
    },
    {
      "type": "node",
      "id": 10819508449,
      "lat": 12.9350462,
      "lon": 77.6249939,
      "tags": {
        "addr:housenumber": "39",
        "addr:street": "8th Main Road",
        "name": "Coorg Fresh Vegetables and Fruits",
        "phone": "+919620848497",
        "shop": "greengrocer"
      }
    },
    {
      "type": "node",
      "id": 10819535526,
      "lat": 12.9346147,
      "lon": 77.6250274,
      "tags": {
        "addr:housenumber": "423",
        "addr:street": "8th Main Road",
        "brand": "Bhima Jewellers",
        "brand:wikidata": "Q17004889",
        "name": "Bhima Jewellers",
        "shop": "jewelry",
        "website": "https://bhima.com"
      }
    },
    {
      "type": "node",
      "id": 10895997184,
      "lat": 12.9256704,
      "lon": 77.625097,
      "tags": {
        "shop": "greengrocer"
      }
    },
    {
      "type": "node",
      "id": 10924790334,
      "lat": 12.9328588,
      "lon": 77.6309864,
      "tags": {
        "amenity": "restaurant",
        "contact:facebook": "pastastreet",
        "contact:instagram": "pasta.street",
        "cuisine": "pasta",
        "email": "info@pastastreet.co.in",
        "name": "Pasta Street",
        "phone": "+91 9266844026",
        "website": "https://pastastreet.co.in/"
      }
    },
    {
      "type": "node",
      "id": 10924790335,
      "lat": 12.9318674,
      "lon": 77.6320308,
      "tags": {
        "amenity": "bar",
        "name": "Chin Lung Resto Bar"
      }
    },
    {
      "type": "node",
      "id": 10924790336,
      "lat": 12.9313575,
      "lon": 77.6324685,
      "tags": {
        "level": "1",
        "name": "Truefitt & Hill",
        "payment:credit_cards": "yes",
        "payment:debit_cards": "yes",
        "shop": "hairdresser",
        "website": "https://www.truefittandhill.in/",
        "wheelchair": "no"
      }
    },
    {
      "type": "node",
      "id": 11061435984,
      "lat": 12.9336416,
      "lon": 77.628382,
      "tags": {
        "contact:instagram": "nariandkage",
        "name": "Nari & Kāge",
        "shop": "cheese"
      }
    },
    {
      "type": "node",
      "id": 11096390238,
      "lat": 12.9346233,
      "lon": 77.62302,
      "tags": {
        "amenity": "restaurant",
        "name": "The Doner Company"
      }
    },
    {
      "type": "node",
      "id": 11096390239,
      "lat": 12.9345149,
      "lon": 77.6232464,
      "tags": {
        "amenity": "restaurant",
        "name": "De Shack"
      }
    },
    {
      "type": "node",
      "id": 11096390254,
      "lat": 12.9354458,
      "lon": 77.6212553,
      "tags": {
        "amenity": "restaurant",
        "name": "Shyamji's Chole Bature"
      }
    },
    {
      "type": "node",
      "id": 11096390255,
      "lat": 12.9358867,
      "lon": 77.6214265,
      "tags": {
        "amenity": "restaurant",
        "name": "Chaska Bun"
      }
    },
    {
      "type": "node",
      "id": 11096390256,
      "lat": 12.9356285,
      "lon": 77.6210394,
      "tags": {
        "amenity": "cafe",
        "name": "Fresh Pressery"
      }
    },
    {
      "type": "node",
      "id": 11096390257,
      "lat": 12.9361263,
      "lon": 77.6216574,
      "tags": {
        "amenity": "pub",
        "name": "Zoey's"
      }
    },
    {
      "type": "node",
      "id": 11096390276,
      "lat": 12.933737,
      "lon": 77.6186634,
      "tags": {
        "amenity": "ice_cream",
        "name": "Gelato"
      }
    },
    {
      "type": "node",
      "id": 11096390281,
      "lat": 12.9337599,
      "lon": 77.6188292,
      "tags": {
        "amenity": "restaurant",
        "name": "Churoland"
      }
    },
    {
      "type": "node",
      "id": 11096390282,
      "lat": 12.9337958,
      "lon": 77.6189412,
      "tags": {
        "name": "Bookstop",
        "shop": "books"
      }
    },
    {
      "type": "node",
      "id": 11096818319,
      "lat": 12.9337796,
      "lon": 77.6214948,
      "tags": {
        "amenity": "restaurant",
        "brand": "PizzaExpress",
        "brand:wikidata": "Q662845",
        "cuisine": "pizza",
        "name": "PizzaExpress"
      }
    },
    {
      "type": "node",
      "id": 11096818320,
      "lat": 12.9334333,
      "lon": 77.6216543,
      "tags": {
        "amenity": "fast_food",
        "cuisine": "pizza",
        "delivery": "only",
        "name": "Fermentation Stories",
        "takeaway": "only"
      }
    },
    {
      "type": "node",
      "id": 11106992211,
      "lat": 12.9304908,
      "lon": 77.6229826,
      "tags": {
        "name": "Kanti Sweets",
        "shop": "confectionery"
      }
    },
    {
      "type": "node",
      "id": 11189879642,
      "lat": 12.9335348,
      "lon": 77.6187775,
      "tags": {
        "addr:city": "Bangalore",
        "addr:district": "Bengaluru Urban",
        "addr:housenumber": "137",
        "addr:postcode": "560095",
        "addr:street": "1st Cross Rd, KHB Colony, 5th Block, Koramangala,",
        "amenity": "place_of_worship",
        "name": "Sri Krishna Temple",
        "religion": "hindu"
      }
    },
    {
      "type": "node",
      "id": 11277885671,
      "lat": 12.936282,
      "lon": 77.6225938,
      "tags": {
        "amenity": "restaurant",
        "contact:instagram": "ferrara.in",
        "cuisine": "italian",
        "name": "Ferrara",
        "toilets": "yes"
      }
    },
    {
      "type": "node",
      "id": 11277885724,
      "lat": 12.9291597,
      "lon": 77.6273802,
      "tags": {
        "amenity": "restaurant",
        "contact:instagram": "theverandahkoramangala",
        "name": "The Verandah"
      }
    },
    {
      "type": "node",
      "id": 11299999642,
      "lat": 12.935429,
      "lon": 77.6284361,
      "tags": {
        "brand": "BMW",
        "brand:wikidata": "Q249173",
        "name": "JSP Motorrad",
        "shop": "motorcycle"
      }
    },
    {
      "type": "node",
      "id": 11385511624,
      "lat": 12.9262798,
      "lon": 77.6332784,
      "tags": {
        "amenity": "bank",
        "check_date": "2023-11-30",
        "name": "Bharat Bank"
      }
    },
    {
      "type": "node",
      "id": 11385511625,
      "lat": 12.9271334,
      "lon": 77.6332033,
      "tags": {
        "amenity": "cafe",
        "check_date": "2023-11-30",
        "name": "Chai Fast"
      }
    },
    {
      "type": "node",
      "id": 11385511629,
      "lat": 12.9302112,
      "lon": 77.6329689,
      "tags": {
        "check_date": "2024-01-10",
        "name": "Wooden Street",
        "shop": "furniture"
      }
    },
    {
      "type": "node",
      "id": 11385511630,
      "lat": 12.9310729,
      "lon": 77.6326552,
      "tags": {
        "amenity": "cafe",
        "brand": "Barista",
        "brand:wikidata": "Q644735",
        "check_date": "2023-11-30",
        "cuisine": "coffee_shop",
        "name": "Barista",
        "takeaway": "yes"
      }
    },
    {
      "type": "node",
      "id": 11385511631,
      "lat": 12.9311872,
      "lon": 77.6326024,
      "tags": {
        "amenity": "fast_food",
        "brand": "Domino's",
        "brand:wikidata": "Q839466",
        "check_date": "2023-11-30",
        "cuisine": "pizza",
        "name": "Domino's",
        "takeaway": "yes"
      }
    },
    {
      "type": "node",
      "id": 11385511632,
      "lat": 12.9323886,
      "lon": 77.6314845,
      "tags": {
        "amenity": "cafe",
        "brand": "Starbucks",
        "brand:wikidata": "Q37158",
        "check_date": "2023-11-30",
        "cuisine": "coffee_shop",
        "name": "Starbucks",
        "official_name": "Starbucks Coffee",
        "takeaway": "yes"
      }
    },
    {
      "type": "node",
      "id": 11385511633,
      "lat": 12.9343675,
      "lon": 77.630024,
      "tags": {
        "amenity": "bank",
        "brand": "Jana Small Finance Bank",
        "brand:wikidata": "Q65122274",
        "check_date": "2023-11-30",
        "name": "Jana Small Finance Bank"
      }
    },
    {
      "type": "node",
      "id": 11385511634,
      "lat": 12.9346521,
      "lon": 77.6297029,
      "tags": {
        "check_date": "2023-11-30",
        "name": "Duroflex",
        "shop": "bed"
      }
    },
    {
      "type": "node",
      "id": 11385580169,
      "lat": 12.9353516,
      "lon": 77.6289478,
      "tags": {
        "check_date": "2023-11-30",
        "name": "Sleepwell",
        "shop": "bed"
      }
    },
    {
      "type": "node",
      "id": 11385580170,
      "lat": 12.9355461,
      "lon": 77.62827,
      "tags": {
        "brand": "Mercedes-Benz",
        "brand:wikidata": "Q36008",
        "check_date": "2023-11-30",
        "name": "Mercedes Benz",
        "shop": "car"
      }
    },
    {
      "type": "node",
      "id": 11385580171,
      "lat": 12.9366403,
      "lon": 77.6277623,
      "tags": {
        "brand": "Sony Centre",
        "brand:wikidata": "Q3437496",
        "check_date": "2024-03-02",
        "name": "Sony Centre",
        "operator": "Haavit Retail",
        "shop": "electronics"
      }
    },
    {
      "type": "node",
      "id": 11385580172,
      "lat": 12.9363775,
      "lon": 77.6274783,
      "tags": {
        "check_date": "2023-11-30",
        "name": "imagine",
        "shop": "electronics"
      }
    },
    {
      "type": "node",
      "id": 11385580173,
      "lat": 12.9363539,
      "lon": 77.6274229,
      "tags": {
        "check_date": "2023-11-30",
        "name": "Amona",
        "shop": "beauty"
      }
    },
    {
      "type": "node",
      "id": 11385580175,
      "lat": 12.9364323,
      "lon": 77.6273237,
      "tags": {
        "check_date": "2023-11-30",
        "name": "Reliance Jewels",
        "shop": "jewelry"
      }
    },
    {
      "type": "node",
      "id": 11397803296,
      "lat": 12.9268376,
      "lon": 77.6332674,
      "tags": {
        "check_date": "2023-12-06",
        "name": "JusBake",
        "shop": "bakery"
      }
    },
    {
      "type": "node",
      "id": 11463172583,
      "lat": 12.9241801,
      "lon": 77.6285542,
      "tags": {
        "check_date": "2023-12-28",
        "shop": "tea"
      }
    },
    {
      "type": "node",
      "id": 11494201368,
      "lat": 12.933798,
      "lon": 77.6299607,
      "tags": {
        "check_date": "2024-01-10",
        "name": "Electronics Bazaar",
        "shop": "computer"
      }
    },
    {
      "type": "node",
      "id": 11505691627,
      "lat": 12.935764,
      "lon": 77.6285398,
      "tags": {
        "check_date": "2024-01-10",
        "name": "Helios",
        "shop": "watches"
      }
    },
    {
      "type": "node",
      "id": 11505691628,
      "lat": 12.936888,
      "lon": 77.6270479,
      "tags": {
        "check_date": "2024-01-10",
        "name": "Lighting Emporio",
        "shop": "lighting"
      }
    },
    {
      "type": "node",
      "id": 11505695829,
      "lat": 12.9266025,
      "lon": 77.6332815,
      "tags": {
        "brand": "LG",
        "brand:wikidata": "Q162345",
        "check_date": "2024-01-10",
        "name": "LG",
        "shop": "electronics"
      }
    },
    {
      "type": "node",
      "id": 11505695830,
      "lat": 12.9268066,
      "lon": 77.6332725,
      "tags": {
        "amenity": "cafe",
        "check_date": "2024-01-10",
        "name": "Tatvika Cafe"
      }
    },
    {
      "type": "node",
      "id": 11505695833,
      "lat": 12.9320555,
      "lon": 77.6318284,
      "tags": {
        "check_date": "2024-01-10",
        "shop": "garden_centre"
      }
    },
    {
      "type": "node",
      "id": 11505695835,
      "lat": 12.9338285,
      "lon": 77.629995,
      "tags": {
        "check_date": "2024-01-10",
        "name": "The Organic World",
        "organic": "only",
        "shop": "supermarket"
      }
    },
    {
      "type": "node",
      "id": 11505695836,
      "lat": 12.9338503,
      "lon": 77.6299284,
      "tags": {
        "amenity": "post_office",
        "brand": "Desk to Desk Courier & Cargo",
        "brand:short": "DTDC",
        "brand:wikidata": "Q55608802",
        "check_date": "2024-01-10",
        "operator": "Desk to Desk Courier & Cargo",
        "operator:short": "DTDC",
        "operator:wikidata": "Q55608802"
      }
    },
    {
      "type": "node",
      "id": 11505695837,
      "lat": 12.9345066,
      "lon": 77.6293607,
      "tags": {
        "check_date": "2024-01-10",
        "name": "Kurl-On",
        "shop": "bed"
      }
    },
    {
      "type": "node",
      "id": 11542689650,
      "lat": 12.9251115,
      "lon": 77.6206366,
      "tags": {
        "access": "permissive",
        "amenity": "parking",
        "parking": "surface"
      }
    },
    {
      "type": "node",
      "id": 11542703445,
      "lat": 12.9317092,
      "lon": 77.6168649,
      "tags": {
        "access": "permissive",
        "amenity": "parking_entrance",
        "parking": "underground"
      }
    },
    {
      "type": "node",
      "id": 11642174955,
      "lat": 12.9333912,
      "lon": 77.6222441,
      "tags": {
        "addr:city": "Bengaluru",
        "addr:district": "Bengaluru Urban",
        "addr:postcode": "560095",
        "amenity": "pub",
        "dog": "leashed",
        "name": "The Reservoire",
        "pets": "yes",
        "phone": "+919148909148",
        "website": "https://www.thereservoire.com"
      }
    },
    {
      "type": "node",
      "id": 11659905691,
      "lat": 12.9295032,
      "lon": 77.6326634,
      "tags": {
        "name": "Cut & Style Salon",
        "shop": "hairdresser"
      }
    },
    {
      "type": "node",
      "id": 11659905692,
      "lat": 12.930344,
      "lon": 77.6332226,
      "tags": {
        "amenity": "pharmacy",
        "brand": "MedPlus",
        "brand:wikidata": "Q65684234",
        "healthcare": "pharmacy",
        "name": "MedPlus",
        "name:kn": "ಮೆಡ್‍ಪ್ಲಸ್"
      }
    },
    {
      "type": "node",
      "id": 11659905693,
      "lat": 12.9307348,
      "lon": 77.633114,
      "tags": {
        "amenity": "cafe",
        "brand": "Chai Point",
        "brand:wikidata": "Q28173415",
        "check_date": "2025-05-25",
        "cuisine": "coffee_shop",
        "name": "Chai Point",
        "takeaway": "yes"
      }
    },
    {
      "type": "node",
      "id": 11659905694,
      "lat": 12.9309544,
      "lon": 77.6330697,
      "tags": {
        "amenity": "restaurant",
        "name": "Gabru Di Chaap"
      }
    },
    {
      "type": "node",
      "id": 11659905695,
      "lat": 12.9311505,
      "lon": 77.6325856,
      "tags": {
        "level": "1",
        "name": "YLG Salon",
        "shop": "beauty"
      }
    },
    {
      "type": "node",
      "id": 11659905696,
      "lat": 12.9314093,
      "lon": 77.6325158,
      "tags": {
        "amenity": "bank",
        "atm": "yes",
        "brand": "ICICI Bank",
        "brand:wikidata": "Q1653258",
        "name": "ICICI Bank",
        "name:kn": "ಐಸಿಐಸಿಐ ಬ್ಯಾಂಕು",
        "short_name": "ICICI"
      }
    },
    {
      "type": "node",
      "id": 11659905697,
      "lat": 12.9308067,
      "lon": 77.6327707,
      "tags": {
        "amenity": "bank",
        "name": "SVC Cooperative Bank Ltd"
      }
    },
    {
      "type": "node",
      "id": 11659905698,
      "lat": 12.9308262,
      "lon": 77.6330783,
      "tags": {
        "addr:housenumber": "1025",
        "addr:street": "80 Feet Road",
        "amenity": "fast_food",
        "cuisine": "kebab;burger;shawarma",
        "diet:halal": "yes",
        "diet:meat": "yes",
        "diet:non-vegetarian": "yes",
        "drive_through": "no",
        "name": "Al Taza"
      }
    },
    {
      "type": "node",
      "id": 11659905699,
      "lat": 12.930842,
      "lon": 77.633114,
      "tags": {
        "name": "Lotus Unisex Spa",
        "shop": "massage"
      }
    },
    {
      "type": "node",
      "id": 11684016164,
      "lat": 12.9361379,
      "lon": 77.6277548,
      "tags": {
        "check_date": "2024-03-02",
        "second_hand": "only",
        "shop": "car"
      }
    },
    {
      "type": "node",
      "id": 11684016165,
      "lat": 12.9368734,
      "lon": 77.6275483,
      "tags": {
        "check_date": "2024-03-02",
        "name": "GKB Opticals",
        "shop": "optician"
      }
    },
    {
      "type": "node",
      "id": 11684016166,
      "lat": 12.9367572,
      "lon": 77.6276099,
      "tags": {
        "amenity": "restaurant",
        "check_date": "2024-03-02",
        "name": "Royal Tandoor"
      }
    },
    {
      "type": "node",
      "id": 11684016167,
      "lat": 12.9369935,
      "lon": 77.6273987,
      "tags": {
        "check_date": "2024-03-02",
        "name": "iworld",
        "shop": "electronics"
      }
    },
    {
      "type": "node",
      "id": 11758608876,
      "lat": 12.9313963,
      "lon": 77.6234718,
      "tags": {
        "addr:housenumber": "82",
        "addr:street": "7th Cross Road",
        "amenity": "cafe",
        "check_date": "2024-03-24",
        "contact:instagram": "https://www.instagram.com/dailybakehouse",
        "name": "Daily Bakehouse",
        "opening_hours": "08:00-23:00",
        "shop": "bakery",
        "website": "https://dailybakehouse.in"
      }
    },
    {
      "type": "node",
      "id": 11758608877,
      "lat": 12.9313462,
      "lon": 77.6234605,
      "tags": {
        "addr:housenumber": "82",
        "addr:street": "7th Cross Road",
        "amenity": "restaurant",
        "check_date": "2024-03-24",
        "contact:instagram": "https://www.instagram.com/just.loaf",
        "cuisine": "american",
        "name": "Just Loaf",
        "website": "https://justloaf.in"
      }
    },
    {
      "type": "node",
      "id": 11915646724,
      "lat": 12.9333446,
      "lon": 77.6223642,
      "tags": {
        "addr:postcode": "560095",
        "amenity": "restaurant",
        "cuisine": "thai",
        "diet:vegetarian": "yes",
        "email": "tuktukthai.blr@gmail.com",
        "name": "Tuk Tuk Thai",
        "phone": "+91 080 48526265",
        "website": "https://www.tuktukthai.in/"
      }
    },
    {
      "type": "node",
      "id": 11927677057,
      "lat": 12.9337755,
      "lon": 77.6236693,
      "tags": {
        "access": "yes",
        "amenity": "charging_station",
        "brand": "ChargePoint",
        "brand:wikidata": "Q5176149",
        "capacity": "2",
        "fee": "no",
        "name": "Ola Hyper Charger",
        "name:en": "Ola charger",
        "operator": "ChargePoint",
        "operator:wikidata": "Q5176149"
      }
    },
    {
      "type": "node",
      "id": 11927677058,
      "lat": 12.9285835,
      "lon": 77.6241904,
      "tags": {
        "access": "yes",
        "amenity": "charging_station",
        "brand": "ChargePoint",
        "brand:wikidata": "Q5176149",
        "name": "Battery Swap",
        "operator": "ChargePoint",
        "operator:wikidata": "Q5176149"
      }
    },
    {
      "type": "node",
      "id": 11936564076,
      "lat": 12.9311453,
      "lon": 77.6238461,
      "tags": {
        "access": "yes",
        "amenity": "charging_station",
        "brand": "ChargePoint",
        "brand:wikidata": "Q5176149",
        "fee": "no",
        "name": "Ather Charging Station",
        "name:en": "EVRE Charging Point",
        "operator": "ChargePoint",
        "operator:wikidata": "Q5176149"
      }
    },
    {
      "type": "node",
      "id": 11968859178,
      "lat": 12.9331176,
      "lon": 77.6307088,
      "tags": {
        "addr:city": "Bengaluru",
        "addr:country": "IN",
        "addr:housenumber": "749",
        "addr:postcode": "560034",
        "addr:street": "80 Feet Road",
        "addr:suburb": "Koramangala",
        "amenity": "bar",
        "contact:instagram": "pbbunnybar",
        "name": "Bunny Bar"
      }
    },
    {
      "type": "node",
      "id": 11968859180,
      "lat": 12.9357945,
      "lon": 77.6280548,
      "tags": {
        "addr:city": "Bengaluru",
        "addr:country": "IN",
        "addr:housenumber": "612",
        "addr:postcode": "560034",
        "addr:street": "80 Feet Road",
        "addr:suburb": "Koramangala",
        "amenity": "cafe",
        "contact:instagram": "roastea.outlets",
        "delivery": "yes",
        "name": "Roastea",
        "takeaway": "yes",
        "website": "https://roastea.in/"
      }
    },
    {
      "type": "node",
      "id": 12030715034,
      "lat": 12.9336933,
      "lon": 77.622146,
      "tags": {
        "amenity": "restaurant",
        "check_date": "2024-07-03",
        "name": "Mahe Global Kitchen"
      }
    },
    {
      "type": "node",
      "id": 12031617546,
      "lat": 12.9293372,
      "lon": 77.6218922,
      "tags": {
        "brand": "Volkswagen",
        "brand:wikidata": "Q246",
        "name": "Volkswagen City Store",
        "shop": "car"
      }
    },
    {
      "type": "node",
      "id": 12043260297,
      "lat": 12.9361524,
      "lon": 77.6285782,
      "tags": {
        "addr": "Green Leaf Layout, 418/4, 80 Feet Rd, near maharaja hotel, 4th Block, Koramangala, Bengaluru, Karnataka 560034",
        "addr:city": "Bengaluru",
        "addr:district": "Bengaluru",
        "addr:housenumber": "418/4",
        "addr:postcode": "560034",
        "addr:street": "80 Feet Road",
        "amenity": "post_office",
        "brand": "Blue Dart Express",
        "brand:short": "Blue Dart",
        "brand:wikidata": "Q54621493",
        "name": "Blue Dart Express Limited",
        "operator": "Blue Dart Express",
        "operator:short": "Blue Dart",
        "operator:wikidata": "Q54621493"
      }
    },
    {
      "type": "node",
      "id": 12061239754,
      "lat": 12.9340508,
      "lon": 77.6196507,
      "tags": {
        "amenity": "restaurant",
        "contact:instagram": "romadeliblr",
        "cuisine": "italian",
        "delivery": "yes",
        "name": "Roma Italian Deli",
        "takeaway": "yes"
      }
    },
    {
      "type": "node",
      "id": 12083603347,
      "lat": 12.9322948,
      "lon": 77.6316027,
      "tags": {
        "amenity": "bar",
        "name": "The Fixx Bar"
      }
    },
    {
      "type": "node",
      "id": 12083603348,
      "lat": 12.9325502,
      "lon": 77.6318589,
      "tags": {
        "amenity": "cafe",
        "level": "3",
        "name": "Dialogues Cafe",
        "outdoor_seating": "yes"
      }
    },
    {
      "type": "node",
      "id": 12083603349,
      "lat": 12.931798,
      "lon": 77.632117,
      "tags": {
        "amenity": "cafe",
        "name": "Helloo Dilli"
      }
    },
    {
      "type": "node",
      "id": 12083603350,
      "lat": 12.9315093,
      "lon": 77.6324208,
      "tags": {
        "name": "Zeiss Vision Center",
        "shop": "optician"
      }
    },
    {
      "type": "node",
      "id": 12083603351,
      "lat": 12.9317143,
      "lon": 77.6322196,
      "tags": {
        "amenity": "bank",
        "brand": "Bandhan Bank",
        "brand:wikidata": "Q19882235",
        "name": "Bandhan Bank"
      }
    },
    {
      "type": "node",
      "id": 12083603353,
      "lat": 12.9315158,
      "lon": 77.6328365,
      "tags": {
        "name": "enrich",
        "shop": "beauty"
      }
    },
    {
      "type": "node",
      "id": 12083603354,
      "lat": 12.9313995,
      "lon": 77.6329049,
      "tags": {
        "amenity": "restaurant",
        "cuisine": "thai",
        "name": "Thai Basil"
      }
    },
    {
      "type": "node",
      "id": 12115149767,
      "lat": 12.9332839,
      "lon": 77.6310669,
      "tags": {
        "addr:postcode": "560034",
        "addr:street": "80 Feet Road",
        "amenity": "bank",
        "atm": "yes",
        "brand": "Kotak Mahindra Bank",
        "brand:wikidata": "Q2040404",
        "name": "Kotak Mahindra Bank"
      }
    },
    {
      "type": "node",
      "id": 12115149768,
      "lat": 12.9333297,
      "lon": 77.6310562,
      "tags": {
        "addr:postcode": "560034",
        "addr:street": "80 Feet Road",
        "amenity": "restaurant",
        "cuisine": "pizza",
        "level": "1",
        "name": "Onesta"
      }
    },
    {
      "type": "node",
      "id": 12115149769,
      "lat": 12.9333329,
      "lon": 77.6311199,
      "tags": {
        "addr:postcode": "560034",
        "addr:street": "80 Feet Road",
        "leisure": "fitness_centre",
        "level": "2",
        "name": "Aurum Elite Fitness Club"
      }
    },
    {
      "type": "node",
      "id": 12115149770,
      "lat": 12.9331813,
      "lon": 77.6311695,
      "tags": {
        "addr:postcode": "560034",
        "addr:street": "80 Feet Road",
        "amenity": "bank",
        "atm": "yes",
        "brand": "RBL Bank",
        "brand:wikidata": "Q13120398",
        "name": "RBL Bank"
      }
    },
    {
      "type": "node",
      "id": 12115149772,
      "lat": 12.9330896,
      "lon": 77.6312388,
      "tags": {
        "amenity": "atm",
        "brand": "State Bank of India",
        "brand:wikidata": "Q1340361",
        "operator": "State Bank of India",
        "operator:wikidata": "Q1340361",
        "short_name": "SBI"
      }
    },
    {
      "type": "node",
      "id": 12115149773,
      "lat": 12.9330648,
      "lon": 77.6312713,
      "tags": {
        "addr:postcode": "560034",
        "addr:street": "80 Feet Road",
        "amenity": "bank",
        "brand": "State Bank of India",
        "brand:wikidata": "Q1340361",
        "level": "1",
        "name": "State Bank of India",
        "short_name": "SBI"
      }
    },
    {
      "type": "node",
      "id": 12115149775,
      "lat": 12.9323246,
      "lon": 77.6320872,
      "tags": {
        "addr:postcode": "560034",
        "addr:street": "80 Feet Road",
        "level": "1",
        "name": "Noodira Salon",
        "shop": "beauty"
      }
    },
    {
      "type": "node",
      "id": 12115149776,
      "lat": 12.932367,
      "lon": 77.6321201,
      "tags": {
        "addr:postcode": "560034",
        "addr:street": "80 Feet Road",
        "brand": "cult.fit",
        "brand:wikidata": "Q121289250",
        "leisure": "fitness_centre",
        "level": "2",
        "name": "cult.fit"
      }
    },
    {
      "type": "node",
      "id": 12115149777,
      "lat": 12.9322049,
      "lon": 77.6321901,
      "tags": {
        "addr:postcode": "560034",
        "addr:street": "80 Feet Road",
        "amenity": "dentist",
        "healthcare": "dentist",
        "level": "1",
        "name": "Clove Dental"
      }
    },
    {
      "type": "node",
      "id": 12115149778,
      "lat": 12.9321791,
      "lon": 77.6321694,
      "tags": {
        "addr:postcode": "560034",
        "addr:street": "80 Feet Road",
        "name": "Bottle Store",
        "shop": "alcohol"
      }
    },
    {
      "type": "node",
      "id": 12115251881,
      "lat": 12.9295347,
      "lon": 77.6308153,
      "tags": {
        "addr:postcode": "560034",
        "addr:street": "7th Cross Road",
        "amenity": "cafe",
        "name": "Cafe OTW On The Way"
      }
    },
    {
      "type": "node",
      "id": 12115251882,
      "lat": 12.9296138,
      "lon": 77.6316244,
      "tags": {
        "addr:postcode": "560034",
        "addr:street": "7th Cross Road",
        "amenity": "clinic",
        "healthcare": "clinic",
        "healthcare:speciality": "fertility",
        "name": "Cherish Fertinity Clinic"
      }
    },
    {
      "type": "node",
      "id": 12115251883,
      "lat": 12.9300397,
      "lon": 77.6332545,
      "tags": {
        "addr:postcode": "560034",
        "addr:street": "80 Feet Road",
        "name": "DriveX NIAX Motors",
        "second_hand": "only",
        "shop": "motorcycle"
      }
    },
    {
      "type": "node",
      "id": 12115251884,
      "lat": 12.9295327,
      "lon": 77.6320146,
      "tags": {
        "addr:postcode": "560034",
        "addr:street": "7th Cross Road",
        "name": "Nanesh Unisex Salon",
        "shop": "beauty"
      }
    },
    {
      "type": "node",
      "id": 12115251886,
      "lat": 12.9295262,
      "lon": 77.6319228,
      "tags": {
        "addr:postcode": "560034",
        "addr:street": "7th Cross Road",
        "amenity": "cafe",
        "name": "Kaffe 399"
      }
    },
    {
      "type": "node",
      "id": 12115251888,
      "lat": 12.9306501,
      "lon": 77.6331509,
      "tags": {
        "addr:postcode": "560034",
        "addr:street": "80 Feet Road",
        "name": "Pulito Wash",
        "shop": "laundry"
      }
    },
    {
      "type": "node",
      "id": 12115251889,
      "lat": 12.9305861,
      "lon": 77.6331696,
      "tags": {
        "addr:postcode": "560034",
        "addr:street": "80 Feet Road",
        "amenity": "cafe",
        "cuisine": "waffle",
        "name": "Belgian Waffle"
      }
    },
    {
      "type": "node",
      "id": 12129005537,
      "lat": 12.9308818,
      "lon": 77.6327024,
      "tags": {
        "contact:instagram": "lokomadofficial",
        "name": "LokoMAD",
        "shop": "pastry"
      }
    },
    {
      "type": "node",
      "id": 12144440753,
      "lat": 12.9217186,
      "lon": 77.6204743,
      "tags": {
        "air_conditioning": "yes",
        "brand": "Max",
        "brand:wikidata": "Q24939079",
        "check_date": "2024-08-29",
        "name": "Max",
        "payment:cash": "yes",
        "payment:credit_cards": "yes",
        "payment:debit_cards": "yes",
        "shop": "clothes",
        "source": "survey"
      }
    },
    {
      "type": "node",
      "id": 12149863540,
      "lat": 12.9307344,
      "lon": 77.6253594,
      "tags": {
        "amenity": "waste_basket"
      }
    },
    {
      "type": "node",
      "id": 12149863541,
      "lat": 12.9307759,
      "lon": 77.6249442,
      "tags": {
        "amenity": "waste_basket"
      }
    },
    {
      "type": "node",
      "id": 12149863542,
      "lat": 12.9312883,
      "lon": 77.6257252,
      "tags": {
        "amenity": "waste_basket"
      }
    },
    {
      "type": "node",
      "id": 12149863543,
      "lat": 12.9313946,
      "lon": 77.6262441,
      "tags": {
        "amenity": "waste_basket"
      }
    },
    {
      "type": "node",
      "id": 12149863544,
      "lat": 12.9313606,
      "lon": 77.6267031,
      "tags": {
        "amenity": "waste_basket"
      }
    },
    {
      "type": "node",
      "id": 12149863545,
      "lat": 12.9312863,
      "lon": 77.6267464,
      "tags": {
        "amenity": "waste_basket"
      }
    },
    {
      "type": "node",
      "id": 12149863547,
      "lat": 12.9306981,
      "lon": 77.6267801,
      "tags": {
        "amenity": "bench",
        "backrest": "yes",
        "seats": "3"
      }
    },
    {
      "type": "node",
      "id": 12149863548,
      "lat": 12.9307116,
      "lon": 77.6268424,
      "tags": {
        "amenity": "bench",
        "backrest": "yes",
        "seats": "3"
      }
    },
    {
      "type": "node",
      "id": 12149863549,
      "lat": 12.9305906,
      "lon": 77.6268448,
      "tags": {
        "amenity": "bench",
        "backrest": "yes",
        "seats": "3"
      }
    },
    {
      "type": "node",
      "id": 12149863550,
      "lat": 12.9306309,
      "lon": 77.626844,
      "tags": {
        "amenity": "bench",
        "backrest": "yes",
        "seats": "3"
      }
    },
    {
      "type": "node",
      "id": 12149863551,
      "lat": 12.9306073,
      "lon": 77.6266899,
      "tags": {
        "amenity": "bench",
        "backrest": "yes",
        "seats": "3"
      }
    },
    {
      "type": "node",
      "id": 12149863552,
      "lat": 12.9306438,
      "lon": 77.6266933,
      "tags": {
        "amenity": "bench",
        "backrest": "yes",
        "seats": "3"
      }
    },
    {
      "type": "node",
      "id": 12154759018,
      "lat": 12.9314682,
      "lon": 77.6229057,
      "tags": {
        "amenity": "driving_school",
        "name": "Maruti Suzuki Driving School"
      }
    },
    {
      "type": "node",
      "id": 12154759019,
      "lat": 12.9312568,
      "lon": 77.623582,
      "tags": {
        "amenity": "bank",
        "atm": "yes",
        "brand": "HDFC Bank",
        "brand:wikidata": "Q631047",
        "name": "HDFC Bank",
        "name:kn": "ಎಚ್ ಡಿ ಎಫ್ ಸಿ",
        "short_name": "HDFC"
      }
    },
    {
      "type": "node",
      "id": 12154759020,
      "lat": 12.9310666,
      "lon": 77.6240212,
      "tags": {
        "amenity": "bank",
        "atm": "yes",
        "brand": "Axis Bank",
        "brand:wikidata": "Q2003549",
        "name": "Axis Bank",
        "name:kn": "ಆಕ್ಸಿಸ್ ಬ್ಯಾಂಕ್"
      }
    },
    {
      "type": "node",
      "id": 12155310940,
      "lat": 12.9337842,
      "lon": 77.6224798,
      "tags": {
        "addr:city": "Bengaluru",
        "addr:country": "IN",
        "addr:suburb": "Koramangala",
        "amenity": "restaurant",
        "contact:instagram": "https://www.instagram.com/thefiltercoffee.in",
        "cuisine": "south_indian",
        "delivery": "yes",
        "diet:vegetarian": "yes",
        "name": "The Filter Coffee",
        "payment:credit_cards": "yes",
        "payment:debit_cards": "yes",
        "takeaway": "yes",
        "wheelchair": "no"
      }
    },
    {
      "type": "node",
      "id": 12164898060,
      "lat": 12.9238038,
      "lon": 77.6280066,
      "tags": {
        "amenity": "waste_basket",
        "waste": "trash"
      }
    },
    {
      "type": "node",
      "id": 12164898061,
      "lat": 12.9238009,
      "lon": 77.6279577,
      "tags": {
        "amenity": "shelter",
        "bench": "yes",
        "shelter_type": "public_transport"
      }
    },
    {
      "type": "node",
      "id": 12164898062,
      "lat": 12.9237403,
      "lon": 77.6277015,
      "tags": {
        "amenity": "shelter",
        "bench": "yes",
        "shelter_type": "public_transport"
      }
    },
    {
      "type": "node",
      "id": 12208448673,
      "lat": 12.9333097,
      "lon": 77.6270074,
      "tags": {
        "amenity": "cafe",
        "contact:instagram": "brunchproject.blr",
        "name": "Brunch Project",
        "opening_hours": "Mo-Su 09:00-20:00"
      }
    },
    {
      "type": "node",
      "id": 12229924652,
      "lat": 12.93678,
      "lon": 77.6249117,
      "tags": {
        "amenity": "restaurant",
        "check_date": "2024-10-06",
        "cuisine": "indian",
        "name": "Mitra Cafe",
        "payment:cash": "yes",
        "payment:credit_cards": "yes",
        "payment:debit_cards": "yes",
        "wheelchair": "yes"
      }
    },
    {
      "type": "node",
      "id": 12236165326,
      "lat": 12.9288856,
      "lon": 77.6216973,
      "tags": {
        "amenity": "kindergarten",
        "name": "Child-Care Montessori",
        "website": "https://www.child-caremontessori.com/"
      }
    },
    {
      "type": "node",
      "id": 12248318141,
      "lat": 12.9340933,
      "lon": 77.6297208,
      "tags": {
        "name": "Wire up",
        "shop": "musical_instrument"
      }
    },
    {
      "type": "node",
      "id": 12260569934,
      "lat": 12.9258462,
      "lon": 77.6184377,
      "tags": {
        "amenity": "cafe",
        "name": "Sunshine Cafe"
      }
    },
    {
      "type": "node",
      "id": 12285338812,
      "lat": 12.9239614,
      "lon": 77.618357,
      "tags": {
        "amenity": "pharmacy",
        "check_date": "2024-10-23",
        "healthcare": "pharmacy"
      }
    },
    {
      "type": "node",
      "id": 12285338813,
      "lat": 12.9221005,
      "lon": 77.6194529,
      "tags": {
        "amenity": "atm",
        "brand": "HDFC Bank",
        "brand:wikidata": "Q631047",
        "check_date": "2024-10-23",
        "operator": "HDFC Bank",
        "operator:wikidata": "Q631047",
        "short_name": "HDFC"
      }
    },
    {
      "type": "node",
      "id": 12285558792,
      "lat": 12.9335112,
      "lon": 77.6203365,
      "tags": {
        "amenity": "ice_cream",
        "name": "Milano"
      }
    },
    {
      "type": "node",
      "id": 12285662757,
      "lat": 12.9337934,
      "lon": 77.6197867,
      "tags": {
        "amenity": "restaurant",
        "name": "Cafe Amudham"
      }
    },
    {
      "type": "node",
      "id": 12285673035,
      "lat": 12.9336313,
      "lon": 77.6226322,
      "tags": {
        "amenity": "restaurant",
        "name": "The Filter Coffee"
      }
    },
    {
      "type": "node",
      "id": 12285689717,
      "lat": 12.9337657,
      "lon": 77.62097,
      "tags": {
        "name": "Slay",
        "shop": "coffee"
      }
    },
    {
      "type": "node",
      "id": 12369374732,
      "lat": 12.9291476,
      "lon": 77.6240789,
      "tags": {
        "amenity": "school",
        "name": "DBM & RJS School"
      }
    },
    {
      "type": "node",
      "id": 12395928081,
      "lat": 12.9350501,
      "lon": 77.6250594,
      "tags": {
        "addr:city": "Bengaluru",
        "addr:hamlet": "Koramangala 4th Block",
        "addr:housenumber": "39",
        "addr:street": "8th Main Road",
        "addr:suburb": "Koramangala",
        "amenity": "cafe",
        "contact:instagram": "fastcoffee.in",
        "cuisine": "coffee_shop",
        "name": "Fast Coffee",
        "website": "https://fastcoffee.in/"
      }
    },
    {
      "type": "node",
      "id": 12441512698,
      "lat": 12.9277062,
      "lon": 77.6279059,
      "tags": {
        "amenity": "bench",
        "backrest": "yes",
        "seats": "2"
      }
    },
    {
      "type": "node",
      "id": 12508687328,
      "lat": 12.9342277,
      "lon": 77.6296323,
      "tags": {
        "addr:city": "Bengaluru",
        "addr:district": "Bengaluru Urban",
        "addr:full": "640, 12Th Main, 80 Ft Road, 4Th Block, Koramangala",
        "addr:housenumber": "640",
        "addr:postcode": "560034",
        "addr:state": "Karnataka",
        "addr:street": "640, 12Th Main, 80 Ft Road, 4Th Block, Koramangala",
        "amenity": "hospital",
        "healthcare": "hospital",
        "name": "Beams Hospitals Private Limited"
      }
    },
    {
      "type": "node",
      "id": 12512224856,
      "lat": 12.9334666,
      "lon": 77.6208718,
      "tags": {
        "amenity": "restaurant",
        "name": "Kritunga The Palegar's Cuisine"
      }
    },
    {
      "type": "node",
      "id": 12525417485,
      "lat": 12.9358705,
      "lon": 77.6284503,
      "tags": {
        "name": "Helios The Watch Store.",
        "shop": "watches"
      }
    },
    {
      "type": "node",
      "id": 12550773109,
      "lat": 12.9361615,
      "lon": 77.6224708,
      "tags": {
        "addr:city": "Bangalore",
        "addr:district": "Bengaluru Urban",
        "addr:housenumber": "74",
        "addr:postcode": "560095",
        "addr:street": "17th E Main Road",
        "amenity": "restaurant",
        "cuisine": "turkish",
        "name": "Kebapci"
      }
    },
    {
      "type": "node",
      "id": 12553261624,
      "lat": 12.9218259,
      "lon": 77.6205566,
      "tags": {
        "addr:city": "Bengaluru",
        "addr:district": "Bengaluru Urban",
        "addr:full": "Hotel Davanam Sarovar Portico Suites, 7th floor, Hosur road Besides Total Mall, Madiwala, Koramangala 2nd Block, Koramangala",
        "addr:postcode": "560068",
        "addr:street": "Hosur Road",
        "name": "Aloe Spa",
        "opening_hours": "Mo-Su 09:00-20:00",
        "operator": "Mr. Bibin",
        "phone": "09986511272",
        "shop": "beauty",
        "website": "https://www.thealoespa.com/"
      }
    },
    {
      "type": "node",
      "id": 12553304870,
      "lat": 12.9258553,
      "lon": 77.6170186,
      "tags": {
        "addr:city": "Bengaluru",
        "addr:district": "Bengaluru Urban",
        "addr:full": "1st floor Hosur main road, 1stage, next to bajaj showroom, near ayyappa temple, Madiwala, BTM Layout",
        "addr:postcode": "560068",
        "addr:street": "Hosur Road",
        "beauty": "spa;massage",
        "name": "Nirmaya Spa in Madiwala",
        "opening_hours": "Mo-Su 11:00-21:00",
        "operator": "Mr. Bibin",
        "phone": "082175 90197",
        "shop": "beauty",
        "website": "https://nirmayaspa.com/"
      }
    },
    {
      "type": "node",
      "id": 12553319439,
      "lat": 12.9217289,
      "lon": 77.6202688,
      "tags": {
        "addr:city": "Bengaluru",
        "addr:district": "Bengaluru Urban",
        "addr:full": "2nd floor, Market Square Mall, Hosur Rd, opp. Madiwala Traffic Police Station, Sidharata Colony, Madiwala, Koramangala 2nd Block, Koramangala",
        "addr:postcode": "560068",
        "addr:street": "Hosur Road",
        "beauty": "spa;massage",
        "name": "Southern Spa Madiwala",
        "opening_hours": "Mo-Su 10:00-21:00",
        "operator": "Mr. Bibin",
        "phone": "09108612001",
        "shop": "beauty",
        "website": "https://southernspa.in/"
      }
    },
    {
      "type": "node",
      "id": 12634999220,
      "lat": 12.9353545,
      "lon": 77.6295503,
      "tags": {
        "addr:housenumber": "10",
        "addr:street": "4th cross street, Green Leaf Extension, 80 ft road, 4th Block, Koramangala",
        "amenity": "restaurant",
        "description": "Low spice everyday healthy full nutrition meals, for dine in and delivery",
        "name": "Friendz Flavour Kitchen",
        "phone": "+918971192097",
        "website": "www.friendzflavourkitchen.com"
      }
    },
    {
      "type": "node",
      "id": 12862846434,
      "lat": 12.9261467,
      "lon": 77.6332737,
      "tags": {
        "amenity": "restaurant",
        "cuisine": "burger",
        "delivery": "yes",
        "name": "The High Joint",
        "takeaway": "yes"
      }
    },
    {
      "type": "node",
      "id": 12862846438,
      "lat": 12.9337424,
      "lon": 77.6186976,
      "tags": {
        "amenity": "fast_food",
        "cuisine": "burger",
        "delivery": "yes",
        "name": "Original Burger Co.",
        "takeaway": "yes"
      }
    },
    {
      "type": "node",
      "id": 12862846454,
      "lat": 12.9256478,
      "lon": 77.6250965,
      "tags": {
        "amenity": "fast_food",
        "cuisine": "burger;wings;chicken",
        "delivery": "yes",
        "name": "Big Guys: Wings & More",
        "takeaway": "yes"
      }
    },
    {
      "type": "node",
      "id": 12956090274,
      "lat": 12.9346221,
      "lon": 77.6284665,
      "tags": {
        "addr:city": "Bangalore",
        "addr:district": "Bengaluru",
        "addr:housenumber": "224",
        "addr:postcode": "560034",
        "addr:street": "5th cross, 4th block",
        "amenity": "hospital",
        "emergency": "no",
        "healthcare": "hospital",
        "healthcare:speciality": "dentistry;prosthodontist;pediatric_dentist;implants;orthodontics;invisalign;root_canal_treatment",
        "name": "Proteeth Dental",
        "operator": "Dr Saranya, Dr Dipen",
        "operator:type": "private"
      }
    },
    {
      "type": "node",
      "id": 13057726125,
      "lat": 12.9359805,
      "lon": 77.6250264,
      "tags": {
        "amenity": "bank",
        "brand": "Bank of Baroda",
        "brand:wikidata": "Q2003797",
        "check_date": "2025-08-08",
        "name": "Bank of Baroda"
      }
    },
    {
      "type": "node",
      "id": 13112735901,
      "lat": 12.9340414,
      "lon": 77.6302958,
      "tags": {
        "name": "Crave by Leena",
        "shop": "bakery"
      }
    },
    {
      "type": "node",
      "id": 13155168301,
      "lat": 12.9303877,
      "lon": 77.6332249,
      "tags": {
        "amenity": "events_venue",
        "name": "Ministry of Comedy"
      }
    },
    {
      "type": "node",
      "id": 13159664725,
      "lat": 12.9336553,
      "lon": 77.6315409,
      "tags": {
        "addr:housenumber": "749",
        "addr:street": "80 Feet Road",
        "amenity": "fixme",
        "check_date": "2025-09-21",
        "fixme": "type",
        "fixme:type": "Zostel Koramangala",
        "internet_access": "wlan",
        "internet_access:fee": "customers",
        "level": "3",
        "name": "Zostel Koramangala",
        "opening_hours": "24/7",
        "payment:cash": "yes",
        "payment:credit_cards": "yes",
        "payment:debit_cards": "yes",
        "wheelchair": "no"
      }
    },
    {
      "type": "node",
      "id": 13168786892,
      "lat": 12.933894,
      "lon": 77.6198284,
      "tags": {
        "amenity": "restaurant",
        "contact:instagram": "bameys.blr",
        "cuisine": "nepali",
        "name": "Bamey's Gastro Bar",
        "website": "https://bameys.co/"
      }
    },
    {
      "type": "node",
      "id": 13288585452,
      "lat": 12.9303331,
      "lon": 77.6332426,
      "tags": {
        "name": "The Tempt Bakehouse",
        "shop": "pastry"
      }
    },
    {
      "type": "node",
      "id": 13288585564,
      "lat": 12.9292646,
      "lon": 77.6278468,
      "tags": {
        "amenity": "restaurant",
        "name": "By The Blue"
      }
    },
    {
      "type": "node",
      "id": 13295904715,
      "lat": 12.9267782,
      "lon": 77.6281833,
      "tags": {
        "addr:city": "Bengaluru",
        "addr:housenumber": "791",
        "addr:postcode": "560011",
        "addr:street": "9th Main Road",
        "branch": "Jaya Nagar",
        "contact:facebook": "https://www.facebook.com/VurveSalon/",
        "description": "Salon offering hair, skin, makeup, and lash transformations",
        "name": "Vurve Salon",
        "opening_hours": "Mo-Su 10:00-21:00",
        "phone": "+91-89-2581-4881",
        "shop": "hairdresser",
        "website": "https://vurvesalon.com/salon/bangalore-jayanagar/"
      }
    },
    {
      "type": "node",
      "id": 13316687535,
      "lat": 12.9239053,
      "lon": 77.6183201,
      "tags": {
        "name": "Shoba super market",
        "shop": "supermarket"
      }
    },
    {
      "type": "way",
      "id": 27789854,
      "center": {
        "lat": 12.9283646,
        "lon": 77.6334858
      },
      "tags": {
        "created_by": "Potlatch 0.10f",
        "leisure": "park",
        "name": "Wipro Park"
      }
    },
    {
      "type": "way",
      "id": 32290801,
      "center": {
        "lat": 12.9328613,
        "lon": 77.6165599
      },
      "tags": {
        "amenity": "college",
        "landuse": "education",
        "name": "Jyoti Nivas Women's College",
        "name:kn": "ಜ್ಯೋತಿ ನಿವಾಸ ಕಾಲೇಜು",
        "short_name": "JNC"
      }
    },
    {
      "type": "way",
      "id": 32315160,
      "center": {
        "lat": 12.9341574,
        "lon": 77.6191922
      },
      "tags": {
        "leisure": "park",
        "name": "Sidharth Park"
      }
    },
    {
      "type": "way",
      "id": 37786371,
      "center": {
        "lat": 12.9308899,
        "lon": 77.6319955
      },
      "tags": {
        "leisure": "park",
        "name": "BBMP Park",
        "name:kn": "ಬೃ. ಬೆ. ಮ. ಪಾ. ಉದ್ಯಾನವನ",
        "operator": "ಬೃಹತ್ ಬೆಂಗಳೂರು ಮಹಾನಗರ ಪಾಲಿಕೆ",
        "operator:en": "Bruhat Bengaluru Mahanagara Palike",
        "operator:ka": "ಬೃಹತ್ ಬೆಂಗಳೂರು ಮಹಾನಗರ ಪಾಲಿಕೆ",
        "operator:short": "BBMP",
        "operator:type": "government",
        "operator:wikidata": "Q4978693"
      }
    },
    {
      "type": "way",
      "id": 41184092,
      "center": {
        "lat": 12.9264869,
        "lon": 77.6213331
      },
      "tags": {
        "amenity": "research_institute",
        "boundary": "wall",
        "landuse": "education",
        "name": "Indian Institute of Astrophysics",
        "short_name": "IIA",
        "start_date": "1971",
        "website": "https://www.iiap.res.in",
        "wikidata": "Q675608",
        "wikipedia": "en:Indian Institute of Astrophysics"
      }
    },
    {
      "type": "way",
      "id": 128446267,
      "center": {
        "lat": 12.935134,
        "lon": 77.6193675
      },
      "tags": {
        "leisure": "park"
      }
    },
    {
      "type": "way",
      "id": 133822899,
      "center": {
        "lat": 12.926253,
        "lon": 77.6296211
      },
      "tags": {
        "amenity": "college",
        "name": "St. Francis College"
      }
    },
    {
      "type": "way",
      "id": 133883975,
      "center": {
        "lat": 12.9238171,
        "lon": 77.6293555
      },
      "tags": {
        "addr:street": "Sarjapur road",
        "amenity": "college",
        "check_date": "2024-03-28",
        "name": "Krupanidhi College",
        "name:kn": "ಕೃಪಾನಿಧಿ ಕಾಲೇಜು"
      }
    },
    {
      "type": "way",
      "id": 134223205,
      "center": {
        "lat": 12.9296226,
        "lon": 77.6225779
      },
      "tags": {
        "amenity": "college",
        "building": "yes",
        "name": "Vemana Institute of Technology"
      }
    },
    {
      "type": "way",
      "id": 134223490,
      "center": {
        "lat": 12.9294621,
        "lon": 77.6230045
      },
      "tags": {
        "amenity": "college",
        "building": "yes",
        "name": "RJS Institute of Management Studies"
      }
    },
    {
      "type": "way",
      "id": 164210883,
      "center": {
        "lat": 12.9271752,
        "lon": 77.6330217
      },
      "tags": {
        "addr:city": "Bengaluru",
        "addr:postcode": "560034",
        "addr:street": "100 Feet Rd, 3rd Block, Koramangala",
        "building": "commercial",
        "name": "Spencer",
        "organic": "yes",
        "payment:credit_cards": "yes",
        "payment:debit_cards": "yes",
        "shop": "supermarket",
        "website": "https://www.spencers.in/"
      }
    },
    {
      "type": "way",
      "id": 164210884,
      "center": {
        "lat": 12.9271608,
        "lon": 77.6325899
      },
      "tags": {
        "amenity": "parking"
      }
    },
    {
      "type": "way",
      "id": 164570816,
      "center": {
        "lat": 12.9364374,
        "lon": 77.6280698
      },
      "tags": {
        "addr:city": "Bangalore",
        "addr:country": "IN",
        "addr:housename": "Reliancedigital Retail Ltd.,",
        "addr:housenumber": "18",
        "addr:postcode": "560095",
        "addr:street": "80 Feet Peripheral Rd",
        "branch": "Retail Ltd",
        "brand": "Reliance Digital",
        "brand:wikidata": "Q7311012",
        "building": "retail",
        "email": "crm_dan.4598_kor@zmail.ril.com",
        "name": "Reliance Digital",
        "name:kn": "ರಿಲಾಯನ್ಸ್ ಡಿಜಿಟಲ್",
        "phone": "+91 80 40933777",
        "shop": "electronics",
        "website": "https://www.reliancedigital.in/"
      }
    },
    {
      "type": "way",
      "id": 164627253,
      "center": {
        "lat": 12.9351012,
        "lon": 77.6276505
      },
      "tags": {
        "amenity": "university",
        "name": "Chinmaya Mission School",
        "name:kn": "ಚಿನ್ಮಯ ಶಾಲೆ"
      }
    },
    {
      "type": "way",
      "id": 201071753,
      "center": {
        "lat": 12.9345461,
        "lon": 77.6218521
      },
      "tags": {
        "leisure": "park",
        "name": "Akhila Park",
        "name:kn": "ಅಖೀಲ ಉದ್ಯಾನವನ"
      }
    },
    {
      "type": "way",
      "id": 239585279,
      "center": {
        "lat": 12.9219021,
        "lon": 77.620384
      },
      "tags": {
        "addr:street": "Madiwala Sarajpura Road",
        "alt_name": "Madivala Commercial Plaza",
        "landuse": "retail",
        "name": "Market Square Mall",
        "official_name": "BBMP Commercial Plaza",
        "shop": "mall"
      }
    },
    {
      "type": "way",
      "id": 244582790,
      "center": {
        "lat": 12.9286595,
        "lon": 77.6272629
      },
      "tags": {
        "amenity": "place_of_worship",
        "building": "yes",
        "religion": "hindu"
      }
    },
    {
      "type": "way",
      "id": 250768276,
      "center": {
        "lat": 12.9283209,
        "lon": 77.6171796
      },
      "tags": {
        "leisure": "pitch"
      }
    },
    {
      "type": "way",
      "id": 269436419,
      "center": {
        "lat": 12.9291829,
        "lon": 77.6282255
      },
      "tags": {
        "access": "private",
        "leisure": "swimming_pool"
      }
    },
    {
      "type": "way",
      "id": 323458335,
      "center": {
        "lat": 12.9246934,
        "lon": 77.6178048
      },
      "tags": {
        "leisure": "park",
        "name": "Madiwala Park"
      }
    },
    {
      "type": "way",
      "id": 323696990,
      "center": {
        "lat": 12.9209121,
        "lon": 77.6273339
      },
      "tags": {
        "landuse": "recreation_ground",
        "leisure": "common"
      }
    },
    {
      "type": "way",
      "id": 323696991,
      "center": {
        "lat": 12.921851,
        "lon": 77.6274569
      },
      "tags": {
        "landuse": "recreation_ground",
        "leisure": "common"
      }
    },
    {
      "type": "way",
      "id": 323696992,
      "center": {
        "lat": 12.9225036,
        "lon": 77.6246894
      },
      "tags": {
        "landuse": "recreation_ground",
        "leisure": "common"
      }
    },
    {
      "type": "way",
      "id": 323696993,
      "center": {
        "lat": 12.9201346,
        "lon": 77.6316173
      },
      "tags": {
        "leisure": "park"
      }
    },
    {
      "type": "way",
      "id": 342013038,
      "center": {
        "lat": 12.9318751,
        "lon": 77.6181485
      },
      "tags": {
        "amenity": "parking",
        "name": "Faculty Car Parking, St.John's Hospital",
        "operator:type": "private"
      }
    },
    {
      "type": "way",
      "id": 342013495,
      "center": {
        "lat": 12.9285657,
        "lon": 77.6193124
      },
      "tags": {
        "amenity": "parking",
        "parking": "surface",
        "supervised": "yes"
      }
    },
    {
      "type": "way",
      "id": 343961636,
      "center": {
        "lat": 12.9256759,
        "lon": 77.6187545
      },
      "tags": {
        "leisure": "park"
      }
    },
    {
      "type": "way",
      "id": 343961637,
      "center": {
        "lat": 12.9229515,
        "lon": 77.6237459
      },
      "tags": {
        "amenity": "marketplace",
        "name": "Madiwala Market",
        "name:kn": "ಮಡಿವಾಳ"
      }
    },
    {
      "type": "way",
      "id": 343961638,
      "center": {
        "lat": 12.9249376,
        "lon": 77.6183573
      },
      "tags": {
        "addr:city": "Bangalore",
        "addr:postcode": "560068",
        "amenity": "place_of_worship",
        "building": "yes",
        "denomination": "sunni",
        "name": "Masjid-e-Noor",
        "name:kn": "ಮಡಿವಾಲ ಮಸೀದಿ",
        "name:ur": "مسجد نور",
        "religion": "muslim"
      }
    },
    {
      "type": "way",
      "id": 345860929,
      "center": {
        "lat": 12.935657,
        "lon": 77.624555
      },
      "tags": {
        "addr:housenumber": "42",
        "addr:street": "Mahayogi Vemana Road",
        "amenity": "childcare",
        "building": "yes",
        "name": "Little Feet Montessori School"
      }
    },
    {
      "type": "way",
      "id": 345955207,
      "center": {
        "lat": 12.9309751,
        "lon": 77.6338422
      },
      "tags": {
        "building": "yes",
        "name": "Nuts Corner",
        "shop": "nuts",
        "source": "local knowledge;survey"
      }
    },
    {
      "type": "way",
      "id": 347039621,
      "center": {
        "lat": 12.9251991,
        "lon": 77.6337342
      },
      "tags": {
        "addr:housenumber": "168",
        "amenity": "restaurant",
        "building": "yes",
        "cuisine": "regional",
        "name": "Udupi Upahar",
        "name:kn": "ಉಡುಪಿ ಉಪಹಾರ",
        "opening_hours": "07:00-22:30",
        "source": "GEPTIS",
        "takeaway": "yes"
      }
    },
    {
      "type": "way",
      "id": 347236027,
      "center": {
        "lat": 12.9368506,
        "lon": 77.6270002
      },
      "tags": {
        "branch": "Koramangala",
        "brand": "Sony",
        "brand:wikidata": "Q41187",
        "building": "yes",
        "building:levels": "3",
        "check_date": "2023-11-30",
        "name": "Philips Hue",
        "shop": "electronics"
      }
    },
    {
      "type": "way",
      "id": 347236390,
      "center": {
        "lat": 12.9346732,
        "lon": 77.6287815
      },
      "tags": {
        "amenity": "hospital",
        "healthcare": "hospital"
      }
    },
    {
      "type": "way",
      "id": 347236718,
      "center": {
        "lat": 12.9346254,
        "lon": 77.6284672
      },
      "tags": {
        "addr:city": "Bangalore",
        "addr:district": "Bengaluru Urban",
        "addr:housenumber": "224",
        "addr:postcode": "560034",
        "addr:street": "5th Cross Road, 4th block",
        "amenity": "hospital",
        "building:levels": "2",
        "healthcare": "hospital",
        "healthcare:speciality": "dentistry;prosthodontist;pediatric_dentist",
        "name": "Proteeth Dental"
      }
    },
    {
      "type": "way",
      "id": 347237183,
      "center": {
        "lat": 12.9351715,
        "lon": 77.6247566
      },
      "tags": {
        "building": "yes",
        "name": "Panasonic Brand shop 100 feet",
        "operator": "Panasonic",
        "shop": "electronics"
      }
    },
    {
      "type": "way",
      "id": 347237381,
      "center": {
        "lat": 12.9327071,
        "lon": 77.6275313
      },
      "tags": {
        "addr:city": "Bengaluru",
        "addr:housenumber": "447",
        "addr:postcode": "560039",
        "addr:street": "12th Main Road",
        "amenity": "childcare",
        "building": "yes",
        "check_date": "2025-08-08",
        "name": "Planet Bloomingdale",
        "website": "https://www.planetbloomingdale.com/"
      }
    },
    {
      "type": "way",
      "id": 347237497,
      "center": {
        "lat": 12.9347614,
        "lon": 77.6254885
      },
      "tags": {
        "addr:city": "Bengaluru",
        "addr:housenumber": "4",
        "addr:postcode": "560034",
        "addr:street": "8th Main Road",
        "amenity": "cafe",
        "building": "yes",
        "check_date": "2025-08-08",
        "cuisine": "american",
        "dog": "leashed",
        "internet_access": "wlan",
        "name": "The Hole In The Wall Cafe",
        "opening_hours": "Tu-Su 08:00-21:00",
        "pets": "yes",
        "website": "https://www.theholeinthewallcafe.org/"
      }
    },
    {
      "type": "way",
      "id": 347446544,
      "center": {
        "lat": 12.9316085,
        "lon": 77.6218092
      },
      "tags": {
        "amenity": "theatre",
        "building": "yes",
        "name": "St. John's Auditorium"
      }
    },
    {
      "type": "way",
      "id": 347447341,
      "center": {
        "lat": 12.9338342,
        "lon": 77.6211473
      },
      "tags": {
        "addr:city": "Bengaluru",
        "addr:housenumber": "131",
        "addr:postcode": "560095",
        "addr:street": "1st Cross Road",
        "amenity": "restaurant",
        "building": "yes",
        "cuisine": "Andhra",
        "delivery": "yes",
        "name": "Nagarjuna",
        "name:kn": "ನಾಗಾರ್ಜುನ",
        "opening_hours": "Mo-Su 11:00-16:00,19:00-23:00",
        "outdoor_seating": "no",
        "phone": "080 4099 6000",
        "smoking": "no"
      }
    },
    {
      "type": "way",
      "id": 347447837,
      "center": {
        "lat": 12.9337155,
        "lon": 77.6229454
      },
      "tags": {
        "building": "yes",
        "building:levels": "3",
        "name": "Godrej Nature's Basket",
        "shop": "yes",
        "smoking": "no"
      }
    },
    {
      "type": "way",
      "id": 347483429,
      "center": {
        "lat": 12.9242209,
        "lon": 77.6180856
      },
      "tags": {
        "addr:city": "Bengaluru",
        "addr:postcode": "560068",
        "addr:street": "Hosur Road",
        "amenity": "place_of_worship",
        "building": "yes",
        "name": "Ayyapa Swamy Temple",
        "name:kn": "ಅಯ್ಯಪ್ಪಸ್ವಾಮಿ ದೇವಾಲಯ",
        "religion": "hindu"
      }
    },
    {
      "type": "way",
      "id": 348457949,
      "center": {
        "lat": 12.9207876,
        "lon": 77.62083
      },
      "tags": {
        "addr:street": "Hosur Road",
        "amenity": "fuel",
        "brand": "Bharat Petroleum",
        "brand:wikidata": "Q854826",
        "brand:wikipedia": "en:Bharat Petroleum",
        "compressed_air": "yes",
        "fuel:diesel": "yes",
        "fuel:engine_oil": "yes",
        "fuel:petrol": "yes",
        "name": "Bharat Petroleum",
        "name:kn": "ಭಾರತ್ ಪೆಟ್ರೋಲಿಯಂ",
        "operator": "Bharat Petroleum",
        "self_service": "no"
      }
    },
    {
      "type": "way",
      "id": 348457970,
      "center": {
        "lat": 12.9210124,
        "lon": 77.6206703
      },
      "tags": {
        "addr:city": "Bengaluru",
        "addr:district": "Bengaluru Urban",
        "addr:postcode": "560068",
        "addr:street": "Madiwala Road, Santhosapuram, 1st Block Koramangala, Koramangala",
        "amenity": "police",
        "building": "yes",
        "check_date": "2024-08-29",
        "name": "Madiwala Traffic Police Station",
        "name:kn": "ಮಡಿವಾಳ ಸಂಚಾರ ಪೊಲೀಸ್ ಠಾಣೆ",
        "phone": "+91 80 2294 2568",
        "source": "survey"
      }
    },
    {
      "type": "way",
      "id": 362919956,
      "center": {
        "lat": 12.9288113,
        "lon": 77.6303716
      },
      "tags": {
        "leisure": "park"
      }
    },
    {
      "type": "way",
      "id": 362920330,
      "center": {
        "lat": 12.9321809,
        "lon": 77.6295061
      },
      "tags": {
        "leisure": "park",
        "name": "Rectangle Park"
      }
    },
    {
      "type": "way",
      "id": 362921972,
      "center": {
        "lat": 12.9331364,
        "lon": 77.6327824
      },
      "tags": {
        "leisure": "park",
        "name": "Children's Park"
      }
    },
    {
      "type": "way",
      "id": 362922597,
      "center": {
        "lat": 12.9342196,
        "lon": 77.6318221
      },
      "tags": {
        "leisure": "park",
        "name": "S T Bed Park at 5th Cross"
      }
    },
    {
      "type": "way",
      "id": 389344277,
      "center": {
        "lat": 12.9285869,
        "lon": 77.6167673
      },
      "tags": {
        "leisure": "pitch"
      }
    },
    {
      "type": "way",
      "id": 389344278,
      "center": {
        "lat": 12.9266041,
        "lon": 77.6179719
      },
      "tags": {
        "leisure": "pitch",
        "sport": "cricket"
      }
    },
    {
      "type": "way",
      "id": 389344279,
      "center": {
        "lat": 12.9271749,
        "lon": 77.6169995
      },
      "tags": {
        "leisure": "pitch",
        "sport": "tennis"
      }
    },
    {
      "type": "way",
      "id": 389344280,
      "center": {
        "lat": 12.9323974,
        "lon": 77.6168484
      },
      "tags": {
        "leisure": "park"
      }
    },
    {
      "type": "way",
      "id": 389344281,
      "center": {
        "lat": 12.9273256,
        "lon": 77.6175119
      },
      "tags": {
        "leisure": "pitch",
        "sport": "tennis"
      }
    },
    {
      "type": "way",
      "id": 389344283,
      "center": {
        "lat": 12.9267201,
        "lon": 77.6172762
      },
      "tags": {
        "leisure": "pitch",
        "sport": "tennis"
      }
    },
    {
      "type": "way",
      "id": 389344285,
      "center": {
        "lat": 12.9308787,
        "lon": 77.6185833
      },
      "tags": {
        "leisure": "garden"
      }
    },
    {
      "type": "way",
      "id": 389344286,
      "center": {
        "lat": 12.9275801,
        "lon": 77.6175967
      },
      "tags": {
        "leisure": "pitch",
        "sport": "tennis"
      }
    },
    {
      "type": "way",
      "id": 389344287,
      "center": {
        "lat": 12.9270645,
        "lon": 77.6173485
      },
      "tags": {
        "leisure": "pitch",
        "sport": "tennis"
      }
    },
    {
      "type": "way",
      "id": 389344288,
      "center": {
        "lat": 12.9276308,
        "lon": 77.6170244
      },
      "tags": {
        "leisure": "pitch"
      }
    },
    {
      "type": "way",
      "id": 389344289,
      "center": {
        "lat": 12.9277533,
        "lon": 77.6170906
      },
      "tags": {
        "leisure": "sports_centre",
        "name": "St. John's Grounds",
        "sport": "cricket"
      }
    },
    {
      "type": "way",
      "id": 487988009,
      "center": {
        "lat": 12.9235742,
        "lon": 77.6305491
      },
      "tags": {
        "leisure": "pitch"
      }
    },
    {
      "type": "way",
      "id": 487988011,
      "center": {
        "lat": 12.9245761,
        "lon": 77.629208
      },
      "tags": {
        "leisure": "playground"
      }
    },
    {
      "type": "way",
      "id": 487988013,
      "center": {
        "lat": 12.9249345,
        "lon": 77.6290329
      },
      "tags": {
        "hoops": "2",
        "leisure": "pitch",
        "sport": "basketball"
      }
    },
    {
      "type": "way",
      "id": 487990356,
      "center": {
        "lat": 12.9287804,
        "lon": 77.6319089
      },
      "tags": {
        "access": "private",
        "leisure": "swimming_pool"
      }
    },
    {
      "type": "way",
      "id": 523040202,
      "center": {
        "lat": 12.9332325,
        "lon": 77.619509
      },
      "tags": {
        "leisure": "park"
      }
    },
    {
      "type": "way",
      "id": 547746814,
      "center": {
        "lat": 12.9326788,
        "lon": 77.6332164
      },
      "tags": {
        "leisure": "playground",
        "name": "Children's Playground"
      }
    },
    {
      "type": "way",
      "id": 613469045,
      "center": {
        "lat": 12.9369493,
        "lon": 77.6269231
      },
      "tags": {
        "building": "yes",
        "name": "Wildcraft",
        "shop": "clothes"
      }
    },
    {
      "type": "way",
      "id": 662278780,
      "center": {
        "lat": 12.9274271,
        "lon": 77.62728
      },
      "tags": {
        "access": "yes",
        "alt_name": "Post Office Playground",
        "landuse": "recreation_ground",
        "leisure": "pitch",
        "name": "Post Office Grounds",
        "old_name": "3rd Block Grounds"
      }
    },
    {
      "type": "way",
      "id": 662280188,
      "center": {
        "lat": 12.9281426,
        "lon": 77.6274329
      },
      "tags": {
        "alt_name": "Post Office Park",
        "leisure": "park",
        "name": "Heble Park",
        "old_name": "3rd Block Park"
      }
    },
    {
      "type": "way",
      "id": 779344654,
      "center": {
        "lat": 12.926722,
        "lon": 77.6302447
      },
      "tags": {
        "leisure": "playground"
      }
    },
    {
      "type": "way",
      "id": 779344655,
      "center": {
        "lat": 12.9270487,
        "lon": 77.6301463
      },
      "tags": {
        "amenity": "college",
        "fixme": "Boundaries of college campus",
        "name": "St. Francis Composite PU College"
      }
    },
    {
      "type": "way",
      "id": 803346374,
      "center": {
        "lat": 12.9247437,
        "lon": 77.6173648
      },
      "tags": {
        "addr:city": "Bengaluru",
        "addr:district": "Bengaluru Urban",
        "addr:postcode": "560068",
        "addr:street": "Somasundarapalaya, HSR layout Sector 2, 1st Stage, BTM Layout",
        "amenity": "fast_food",
        "brand": "Indira Canteen",
        "brand:wikidata": "Q36164828",
        "building": "yes",
        "cuisine": "south_indian",
        "name": "Indira Canteen",
        "opening_hours": "Mo-Su 07:30-09:00,01:00-02:30",
        "operator": "BBMP",
        "takeaway": "yes"
      }
    },
    {
      "type": "way",
      "id": 803346375,
      "center": {
        "lat": 12.9248093,
        "lon": 77.6174924
      },
      "tags": {
        "addr:city": "Bengaluru",
        "addr:postcode": "560068",
        "amenity": "veterinary",
        "building": "yes",
        "name": "Government Veterinary Hospital",
        "name:kn": "ಸರ್ಕಾರಿ ಪಶುವೈದ್ಯ ಆಸ್ಪತ್ರೆ"
      }
    },
    {
      "type": "way",
      "id": 967216468,
      "center": {
        "lat": 12.9293924,
        "lon": 77.6231114
      },
      "tags": {
        "amenity": "college"
      }
    },
    {
      "type": "way",
      "id": 996354904,
      "center": {
        "lat": 12.9303714,
        "lon": 77.6292074
      },
      "tags": {
        "leisure": "park"
      }
    },
    {
      "type": "way",
      "id": 996354905,
      "center": {
        "lat": 12.9308165,
        "lon": 77.6295353
      },
      "tags": {
        "leisure": "park"
      }
    },
    {
      "type": "way",
      "id": 1066116299,
      "center": {
        "lat": 12.9248645,
        "lon": 77.6293181
      },
      "tags": {
        "hoops": "2",
        "leisure": "pitch",
        "sport": "basketball"
      }
    },
    {
      "type": "way",
      "id": 1066116300,
      "center": {
        "lat": 12.9270252,
        "lon": 77.6304325
      },
      "tags": {
        "leisure": "pitch",
        "sport": "basketball"
      }
    },
    {
      "type": "way",
      "id": 1066116301,
      "center": {
        "lat": 12.9270845,
        "lon": 77.6301025
      },
      "tags": {
        "leisure": "pitch",
        "sport": "basketball"
      }
    },
    {
      "type": "way",
      "id": 1125892149,
      "center": {
        "lat": 12.9251104,
        "lon": 77.6331617
      },
      "tags": {
        "addr:city": "Bangalore",
        "addr:country": "IN",
        "addr:hamlet": "SBI Colony",
        "addr:housenumber": "19,20",
        "addr:postcode": "560034",
        "addr:street": "Thoshiba Front Office Road",
        "addr:suburb": "Koramangala",
        "amenity": "coworking_space",
        "landuse": "commercial",
        "name": "IndiQube Celestia",
        "office": "coworking",
        "operator": "IndiQube",
        "website": "https://indiqube.com/bangalore/coworking-spaces-koramangala/indiqube-celestia/"
      }
    },
    {
      "type": "way",
      "id": 1125892156,
      "center": {
        "lat": 12.9278086,
        "lon": 77.6316812
      },
      "tags": {
        "access": "private",
        "leisure": "pitch",
        "sport": "badminton"
      }
    },
    {
      "type": "way",
      "id": 1125892161,
      "center": {
        "lat": 12.9257318,
        "lon": 77.6291079
      },
      "tags": {
        "amenity": "place_of_worship",
        "denomination": "catholic",
        "name": "Seva Sadan",
        "name:kn": "ಸೇವಾ ಸದನ",
        "religion": "christian"
      }
    },
    {
      "type": "way",
      "id": 1125892162,
      "center": {
        "lat": 12.9274608,
        "lon": 77.6292184
      },
      "tags": {
        "amenity": "monastery",
        "name": "Jyoti Sadan",
        "religion": "christian"
      }
    },
    {
      "type": "way",
      "id": 1125892164,
      "center": {
        "lat": 12.9249611,
        "lon": 77.629232
      },
      "tags": {
        "amenity": "school",
        "name": "St. Francis School"
      }
    },
    {
      "type": "way",
      "id": 1125892176,
      "center": {
        "lat": 12.9219512,
        "lon": 77.6210144
      },
      "tags": {
        "amenity": "school",
        "check_date": "2024-08-29",
        "name": "Government Model Primary School",
        "name:kn": "ಸರ್ಕಾರಿ ಮಾದರಿ ಪ್ರಾಥಮಿಕ ಶಾಲೆ",
        "operator:type": "government",
        "source": "survey"
      }
    },
    {
      "type": "way",
      "id": 1160859589,
      "center": {
        "lat": 12.934566,
        "lon": 77.6209387
      },
      "tags": {
        "leisure": "park"
      }
    },
    {
      "type": "way",
      "id": 1195520755,
      "center": {
        "lat": 12.9346661,
        "lon": 77.6214805
      },
      "tags": {
        "leisure": "pitch",
        "sport": "basketball"
      }
    },
    {
      "type": "way",
      "id": 1195573208,
      "center": {
        "lat": 12.9343515,
        "lon": 77.6221955
      },
      "tags": {
        "leisure": "park"
      }
    },
    {
      "type": "way",
      "id": 1240985780,
      "center": {
        "lat": 12.9287653,
        "lon": 77.6317307
      },
      "tags": {
        "leisure": "park"
      }
    },
    {
      "type": "way",
      "id": 1242149133,
      "center": {
        "lat": 12.927125,
        "lon": 77.6270012
      },
      "tags": {
        "leisure": "pitch",
        "sport": "tennis"
      }
    },
    {
      "type": "way",
      "id": 1242149134,
      "center": {
        "lat": 12.9270724,
        "lon": 77.6271588
      },
      "tags": {
        "leisure": "pitch",
        "sport": "basketball"
      }
    },
    {
      "type": "way",
      "id": 1242182559,
      "center": {
        "lat": 12.9311951,
        "lon": 77.6173557
      },
      "tags": {
        "access": "permissive",
        "amenity": "parking",
        "parking": "surface"
      }
    },
    {
      "type": "way",
      "id": 1242263790,
      "center": {
        "lat": 12.9252806,
        "lon": 77.6341216
      },
      "tags": {
        "addr:housenumber": "165",
        "amenity": "fuel",
        "source": "GEPTIS"
      }
    },
    {
      "type": "way",
      "id": 1344787455,
      "center": {
        "lat": 12.9258315,
        "lon": 77.627014
      },
      "tags": {
        "access": "private",
        "leisure": "swimming_pool"
      }
    },
    {
      "type": "way",
      "id": 1344787457,
      "center": {
        "lat": 12.9288768,
        "lon": 77.6269617
      },
      "tags": {
        "access": "private",
        "leisure": "swimming_pool"
      }
    }
  ]
}