{
  "area_name": "Koramangala 7th Block",
  "osm_id": 5537275042,
  "osm_type": "node",
  "place_type": "neighbourhood",
  "amenity_count": 663,
  "amenities": [
    {
      "type": "node",
      "id": 306588111,
      "lat": 12.935703,
      "lon": 77.6156133,
      "tags": {
        "amenity": "place_of_worship",
        "name": "Masjid-e-Mamoor",
        "name:kn": "ಮಸ್ಜಿದ್ ಎ ಮಮೂರ್",
        "religion": "muslim"
      }
    },
    {
      "type": "node",
      "id": 308779330,
      "lat": 12.9353555,
      "lon": 77.6148616,
      "tags": {
        "addr:street": "80 Feet Road",
        "amenity": "bank",
        "atm": "yes",
        "brand": "ICICI Bank",
        "brand:wikidata": "Q1653258",
        "name": "ICICI Bank",
        "name:en": "ICICI Bank",
        "short_name": "ICICI",
        "website": "https://www.icicibank.com"
      }
    },
    {
      "type": "node",
      "id": 308779347,
      "lat": 12.9356671,
      "lon": 77.6144578,
      "tags": {
        "addr:street": "80 Feet Road",
        "amenity": "fuel",
        "brand": "Bharat Petroleum",
        "brand:wikidata": "Q854826",
        "name": "Bharat Petroleum",
        "name:kn": "ಭಾರತ್ ಪೆಟ್ರೋಲಿಯಂ"
      }
    },
    {
      "type": "node",
      "id": 363167057,
      "lat": 12.9344837,
      "lon": 77.6130843,
      "tags": {
        "amenity": "pub",
        "contact:instagram": "senditbob",
        "delivery": "yes",
        "name": "Bob's Bar",
        "takeaway": "yes",
        "toilets": "yes"
      }
    },
    {
      "type": "node",
      "id": 537535762,
      "lat": 12.932679,
      "lon": 77.6135844,
      "tags": {
        "addr:street": "Hosur Road",
        "amenity": "restaurant",
        "cuisine": "indian",
        "name": "Hyderabad House",
        "name:kn": "ಹೈದರಾಬಾದ್ ಹೌಸ್",
        "speciality": "biriyani"
      }
    },
    {
      "type": "node",
      "id": 537535805,
      "lat": 12.9351086,
      "lon": 77.611565,
      "tags": {
        "addr:city": "Bangalore",
        "addr:housename": "Forum Mall",
        "addr:street": "Hosur Road",
        "amenity": "fast_food",
        "brand": "McDonald's",
        "brand:pa": "ਮੈਕਡੋਨਲਡ’ਜ਼",
        "brand:ur": "مکڈونلڈز",
        "brand:wikidata": "Q38076",
        "brand:wikipedia": "en:McDonald's",
        "brand:wikipedia:pa": "ਮੈਕਡੋਨਲਡ’ਜ਼",
        "brand:wikipedia:ur": "مکڈونلڈز",
        "cuisine": "burger",
        "name": "McDonald's",
        "name:kn": "ಮ್ಯಾಕ್‌ಡೊನಾಲ್ಡ್ಸ್",
        "name:pa": "ਮੈਕਡੋਨਲਡ’ਜ਼",
        "name:ur": "مکڈونلڈز",
        "takeaway": "yes",
        "wheelchair": "yes"
      }
    },
    {
      "type": "node",
      "id": 537535920,
      "lat": 12.9343669,
      "lon": 77.6107742,
      "tags": {
        "addr:city": "Bangalore",
        "addr:housename": "Forum Mall",
        "addr:postcode": "560095",
        "addr:street": "Hosur Road",
        "alt_name": "Kentucky Fried Chicken",
        "alt_name:en": "Kentucky Fried Chicken",
        "alt_name:hi": "केंटुकी फ्राइड चिकन",
        "alt_name:pa": "ਕੈਂਟੁਕੀ ਫ੍ਰਾਈਡ ਚਿਕਨ",
        "alt_name:pnb": "کینٹکی فرائیڈ چکن",
        "alt_name:ur": "کینٹکی فرائیڈ چکن",
        "amenity": "fast_food",
        "brand": "KFC",
        "brand:en": "KFC",
        "brand:hi": "केएफसी",
        "brand:pa": "ਕੇਐਫਸੀ",
        "brand:pnb": "کے ایف سی",
        "brand:ur": "کے ایف سی",
        "brand:wikidata": "Q524757",
        "brand:wikipedia": "en:KFC",
        "brand:wikipedia:pa": "ਕੇਐਫਸੀ",
        "brand:wikipedia:ur": "کینٹکی فرائیڈ چکن",
        "cuisine": "chicken",
        "name": "KFC",
        "name:en": "KFC",
        "name:hi": "केएफसी",
        "name:kn": "ಕೆಎಫ್‌ಸಿ",
        "name:pa": "ਕੇਐਫਸੀ",
        "name:pnb": "کے ایف سی",
        "name:ur": "کے ایف سی",
        "takeaway": "yes",
        "toilets:wheelchair": "yes",
        "wheelchair": "yes"
      }
    },
    {
      "type": "node",
      "id": 668990999,
      "lat": 12.9356995,
      "lon": 77.6145787,
      "tags": {
        "addr:street": "80 Feet Road",
        "amenity": "cafe",
        "brand": "Cafe Coffee Day",
        "brand:wikidata": "Q5017235",
        "cuisine": "coffee_shop",
        "name": "Cafe Coffee Day",
        "name:kn": "ಕಫೆ ಕಾಫಿ ಡೇ",
        "takeaway": "yes"
      }
    },
    {
      "type": "node",
      "id": 672579813,
      "lat": 12.941691,
      "lon": 77.6190666,
      "tags": {
        "amenity": "recycling",
        "name": "Sakappan"
      }
    },
    {
      "type": "node",
      "id": 672579825,
      "lat": 12.9433716,
      "lon": 77.6180879,
      "tags": {
        "amenity": "recycling",
        "name": "Elumalai"
      }
    },
    {
      "type": "node",
      "id": 672579826,
      "lat": 12.9419692,
      "lon": 77.6193404,
      "tags": {
        "amenity": "recycling",
        "name": "Mukesh"
      }
    },
    {
      "type": "node",
      "id": 672579834,
      "lat": 12.9430309,
      "lon": 77.6193113,
      "tags": {
        "amenity": "recycling",
        "name": "Gajendra",
        "name:kn": "ಗಜೇಂದ್ರ"
      }
    },
    {
      "type": "node",
      "id": 672579841,
      "lat": 12.9433546,
      "lon": 77.6187346,
      "tags": {
        "amenity": "recycling",
        "description": "dumpsite"
      }
    },
    {
      "type": "node",
      "id": 878034972,
      "lat": 12.9356089,
      "lon": 77.6151797,
      "tags": {
        "amenity": "bank",
        "atm": "yes",
        "brand": "HDFC Bank",
        "brand:wikidata": "Q631047",
        "brand:wikipedia": "en:HDFC Bank",
        "name": "HDFC Bank",
        "name:kn": "ಎಚ್ ಡಿ ಎಫ್ ಸಿ",
        "operator": "HDFC",
        "short_name": "HDFC",
        "website": "https://www.hdfcbank.com"
      }
    },
    {
      "type": "node",
      "id": 1070361755,
      "lat": 12.934729,
      "lon": 77.6125976,
      "tags": {
        "addr:street": "80 Feet Road",
        "amenity": "restaurant",
        "cuisine": "chinese",
        "name": "Hungry Panda",
        "name:kn": "ಹಂಗ್ರಿ ಪಾಂಡ"
      }
    },
    {
      "type": "node",
      "id": 1307443100,
      "lat": 12.9343647,
      "lon": 77.6110938,
      "tags": {
        "addr:city": "Bangalore",
        "addr:housename": "Forum Mall",
        "addr:street": "Hosur Road",
        "amenity": "food_court",
        "name": "Transit"
      }
    },
    {
      "type": "node",
      "id": 1307443105,
      "lat": 12.9344118,
      "lon": 77.6109865,
      "tags": {
        "addr:city": "Bangalore",
        "addr:housename": "Forum Mall",
        "addr:street": "Hosur Road",
        "amenity": "cafe",
        "brand": "Cafe Coffee Day",
        "brand:wikidata": "Q5017235",
        "cuisine": "coffee_shop",
        "internet_access": "wlan",
        "name": "Cafe Coffee Day",
        "name:kn": "ಕಫೆ ಕಾಫಿ ಡೇ",
        "takeaway": "yes"
      }
    },
    {
      "type": "node",
      "id": 1346450614,
      "lat": 12.9354349,
      "lon": 77.6058672,
      "tags": {
        "amenity": "library",
        "name": "Christ University Library"
      }
    },
    {
      "type": "node",
      "id": 1375978217,
      "lat": 12.9359939,
      "lon": 77.6151031,
      "tags": {
        "amenity": "cafe",
        "brand": "Sweet Chariot",
        "delivery": "yes",
        "name": "Sweet Chariot",
        "shop": "pastry",
        "takeaway": "yes"
      }
    },
    {
      "type": "node",
      "id": 1375978240,
      "lat": 12.9334642,
      "lon": 77.6151016,
      "tags": {
        "amenity": "cafe",
        "name": "Latte Tude"
      }
    },
    {
      "type": "node",
      "id": 1375978244,
      "lat": 12.9365445,
      "lon": 77.6142714,
      "tags": {
        "amenity": "restaurant",
        "name": "Lucky da dhaba",
        "name:kn": "ಲಕ್ಕಿ ದ ಡಾಬ"
      }
    },
    {
      "type": "node",
      "id": 1375978245,
      "lat": 12.9338202,
      "lon": 77.6193658,
      "tags": {
        "amenity": "restaurant",
        "cuisine": "Mughlai",
        "name": "Lazeej",
        "name:kn": "ಲಜೀಜ್"
      }
    },
    {
      "type": "node",
      "id": 1375978247,
      "lat": 12.9360494,
      "lon": 77.6149821,
      "tags": {
        "amenity": "pharmacy",
        "healthcare": "pharmacy",
        "name": "Shakti Medical"
      }
    },
    {
      "type": "node",
      "id": 1375978253,
      "lat": 12.9345967,
      "lon": 77.6162526,
      "tags": {
        "amenity": "restaurant",
        "name": "Meghna Biryani",
        "name:kn": "ಮೇಘನ ಬಿರಿಯಾನಿ"
      }
    },
    {
      "type": "node",
      "id": 1375978258,
      "lat": 12.9336119,
      "lon": 77.6152238,
      "tags": {
        "amenity": "restaurant",
        "check_date": "2024-01-20",
        "cuisine": "chinese",
        "name": "Zheng",
        "name:kn": "ಜೆಂಗ್"
      }
    },
    {
      "type": "node",
      "id": 1375978262,
      "lat": 12.9338304,
      "lon": 77.6194655,
      "tags": {
        "amenity": "restaurant",
        "cuisine": "north indian",
        "name": "Golmal Paratha",
        "name:kn": "ಗೊಲ್ಮಾಲ್ ಪರಾಟ"
      }
    },
    {
      "type": "node",
      "id": 1375978263,
      "lat": 12.9345246,
      "lon": 77.6162996,
      "tags": {
        "amenity": "cafe",
        "brand": "Costa",
        "brand:wikidata": "Q608845",
        "cuisine": "coffee_shop",
        "name": "Costa",
        "takeaway": "yes"
      }
    },
    {
      "type": "node",
      "id": 1375978264,
      "lat": 12.9365369,
      "lon": 77.614409,
      "tags": {
        "amenity": "restaurant",
        "name": "Aalishan",
        "name:kn": "ಆಲಿಶಾನ್"
      }
    },
    {
      "type": "node",
      "id": 1375978265,
      "lat": 12.936364,
      "lon": 77.6147769,
      "tags": {
        "alt_name": "Jukebox",
        "amenity": "pub",
        "cuisine": "burger;steak_house",
        "name": "The Juke Box"
      }
    },
    {
      "type": "node",
      "id": 1375978268,
      "lat": 12.9351354,
      "lon": 77.6134273,
      "tags": {
        "amenity": "pharmacy",
        "healthcare": "pharmacy",
        "name": "Health And Glow"
      }
    },
    {
      "type": "node",
      "id": 1375978269,
      "lat": 12.9339266,
      "lon": 77.6161393,
      "tags": {
        "addr:city": "Bangalore",
        "addr:district": "Bengaluru Urban",
        "addr:full": "No.51, Jyothi Nivas Colleges, 5Th Block, Kormangala",
        "addr:housenumber": "143",
        "addr:postcode": "560095",
        "addr:state": "Karnataka",
        "addr:street": "1st Cross, 5th Block, Koramangala, Near Nagarjuna Hotel",
        "amenity": "clinic",
        "healthcare": "clinic",
        "name": "The Apollo Clinic, Bengaluru Urban",
        "name:kn": "ಅಪೊಲೊ ಕ್ಲಿನಿಕ್",
        "phone": "+91860 500 2244",
        "source": "OpenGovernmentData",
        "website": "https://www.apollospectra.com/"
      }
    },
    {
      "type": "node",
      "id": 1375978270,
      "lat": 12.9366058,
      "lon": 77.614973,
      "tags": {
        "amenity": "pub",
        "name": "Sixtyfour"
      }
    },
    {
      "type": "node",
      "id": 1375978272,
      "lat": 12.9359336,
      "lon": 77.6146718,
      "tags": {
        "amenity": "restaurant",
        "name": "Daawat",
        "name:kn": "ದಾವತ್"
      }
    },
    {
      "type": "node",
      "id": 1375978274,
      "lat": 12.9362549,
      "lon": 77.6145138,
      "tags": {
        "amenity": "restaurant",
        "name": "Atithya",
        "name:kn": "ಅತಿತ್ಯ"
      }
    },
    {
      "type": "node",
      "id": 1375978275,
      "lat": 12.9334928,
      "lon": 77.6157175,
      "tags": {
        "service": "spair",
        "shop": "car"
      }
    },
    {
      "type": "node",
      "id": 1375978276,
      "lat": 12.9363466,
      "lon": 77.6146761,
      "tags": {
        "amenity": "pharmacy",
        "brand": "Apollo Pharmacy",
        "brand:wikidata": "Q62562612",
        "dispensing": "no",
        "healthcare": "pharmacy",
        "name": "Apollo Pharmacy",
        "name:kn": "ಅಪೋಲೋ ಫಾರ್ಮಸಿ"
      }
    },
    {
      "type": "node",
      "id": 1375978277,
      "lat": 12.9338227,
      "lon": 77.6193019,
      "tags": {
        "amenity": "restaurant",
        "cuisine": "tandoori",
        "name": "Tunday Kabab",
        "name:kn": "ತುಂಡೆ ಕಬಾಬ್"
      }
    },
    {
      "type": "node",
      "id": 1375978278,
      "lat": 12.9358653,
      "lon": 77.6149483,
      "tags": {
        "amenity": "restaurant",
        "name": "Udupi Upahaara",
        "name:kn": "ಉಡುಪಿ ಉಪಹಾರ"
      }
    },
    {
      "type": "node",
      "id": 1375978279,
      "lat": 12.9354363,
      "lon": 77.6147873,
      "tags": {
        "amenity": "cafe",
        "name": "Friends"
      }
    },
    {
      "type": "node",
      "id": 1375978280,
      "lat": 12.9332689,
      "lon": 77.6147839,
      "tags": {
        "amenity": "pub",
        "name": "Purple Haze"
      }
    },
    {
      "type": "node",
      "id": 1375978281,
      "lat": 12.9333951,
      "lon": 77.6155122,
      "tags": {
        "amenity": "cafe",
        "check_date": "2024-01-20",
        "name": "Cuppa"
      }
    },
    {
      "type": "node",
      "id": 1375978282,
      "lat": 12.9363343,
      "lon": 77.6151183,
      "tags": {
        "amenity": "restaurant",
        "name": "Coorg",
        "name:kn": "ಕೂರ್ಗ್"
      }
    },
    {
      "type": "node",
      "id": 1375978283,
      "lat": 12.9337973,
      "lon": 77.6189966,
      "tags": {
        "amenity": "restaurant",
        "name": "KC Das",
        "name:kn": "ಕೆಸಿ ದಾಸ್"
      }
    },
    {
      "type": "node",
      "id": 1375978284,
      "lat": 12.9358031,
      "lon": 77.6147343,
      "tags": {
        "addr:city": "Bangalore",
        "addr:postcode": "560065",
        "addr:street": "80 Feet Road, Koramangala, Bangalore",
        "alt_name": "A2B",
        "amenity": "restaurant",
        "brand": "Adyar Ananda Bhavan",
        "brand:wikidata": "Q15178238",
        "cuisine": "regional",
        "diet:vegetarian": "only",
        "name": "Adyar Ananda Bhavan",
        "name:kn": "ಆದ್ಯಾರ್ ಆನಂದ ಭವನ",
        "operator": "Adyar Ananda Bhavan",
        "phone": "+91 77950 73031",
        "shop": "confectionery",
        "smoking": "no",
        "website": "https://aabsweets.com"
      }
    },
    {
      "type": "node",
      "id": 1375978285,
      "lat": 12.9361583,
      "lon": 77.6146013,
      "tags": {
        "name": "Mobile Store",
        "shop": "mobile_phone"
      }
    },
    {
      "type": "node",
      "id": 1375978286,
      "lat": 12.9363805,
      "lon": 77.6151025,
      "tags": {
        "amenity": "restaurant",
        "cuisine": "Naga",
        "name": "Zingron",
        "name:kn": "ಜಿಂಗ್ರೊನ್"
      }
    },
    {
      "type": "node",
      "id": 1375978287,
      "lat": 12.9334311,
      "lon": 77.6217925,
      "tags": {
        "amenity": "restaurant",
        "cuisine": "chinese",
        "name": "Beijing Bites",
        "name:kn": "ಬೀಜಿಂಗ್ ಬೈಟ್ಸ್"
      }
    },
    {
      "type": "node",
      "id": 1375978289,
      "lat": 12.9341001,
      "lon": 77.6164042,
      "tags": {
        "amenity": "restaurant",
        "name": "Lazeez Express",
        "name:kn": "ಲಜೀಜ್ ಎಕ್ಸ್‌ಪ್ರೆಸ್"
      }
    },
    {
      "type": "node",
      "id": 1375978290,
      "lat": 12.936529,
      "lon": 77.6146211,
      "tags": {
        "amenity": "restaurant",
        "name": "Ammi's Biryani",
        "name:kn": "ಅಮ್ಮಿ ಬಿರಿಯಾನಿ"
      }
    },
    {
      "type": "node",
      "id": 1375978291,
      "lat": 12.9338857,
      "lon": 77.6194174,
      "tags": {
        "amenity": "restaurant",
        "name": "Tandoor Hut",
        "name:kn": "ತಂದೂರ್ ಹಟ್"
      }
    },
    {
      "type": "node",
      "id": 1444233099,
      "lat": 12.934708,
      "lon": 77.6126855,
      "tags": {
        "amenity": "atm",
        "brand": "State Bank of India",
        "brand:wikidata": "Q1340361",
        "check_date": "2021-09-24",
        "fee": "None/Standard",
        "level": "0",
        "name": "State Bank of India",
        "name:kn": "ಭಾರತೀಯ ಸ್ಟೇಟ್ ಬ್ಯಾಂಕ್",
        "operator": "State Bank of India",
        "operator:wikidata": "Q1340361",
        "short_name": "SBI"
      }
    },
    {
      "type": "node",
      "id": 1455123608,
      "lat": 12.9356059,
      "lon": 77.6143393,
      "tags": {
        "amenity": "atm",
        "brand": "Axis Bank",
        "brand:wikidata": "Q2003549",
        "fee": "None/Standard",
        "name": "Axis Bank",
        "name:kn": "ಆಕ್ಸಿಸ್ ಬ್ಯಾಂಕ್",
        "operator": "Axis Bank",
        "operator:wikidata": "Q2003549"
      }
    },
    {
      "type": "node",
      "id": 1455123611,
      "lat": 12.9354419,
      "lon": 77.6141569,
      "tags": {
        "name": "Sree Mittai",
        "shop": "bakery"
      }
    },
    {
      "type": "node",
      "id": 1457778754,
      "lat": 12.9361984,
      "lon": 77.6214666,
      "tags": {
        "amenity": "restaurant",
        "cuisine": "chinese",
        "name": "China Pearl",
        "name:kn": "ಚೈನಾ ಪರ್ಲ್"
      }
    },
    {
      "type": "node",
      "id": 1459472858,
      "lat": 12.9346877,
      "lon": 77.6116748,
      "tags": {
        "addr:city": "Bangalore",
        "addr:housename": "Forum Mall",
        "addr:street": "Hosur Road",
        "amenity": "cinema",
        "brand": "PVR Cinemas",
        "brand:short": "PVR",
        "brand:wikidata": "Q3359908",
        "name": "PVR",
        "operator": "PVR Cinemas",
        "screen": "12",
        "short_name": "PVR"
      }
    },
    {
      "type": "node",
      "id": 1459719058,
      "lat": 12.934745,
      "lon": 77.611659,
      "tags": {
        "addr:city": "Bangalore",
        "addr:housename": "Forum Mall",
        "addr:street": "Hosur Road",
        "brand": "Westside",
        "brand:wikidata": "Q123376384",
        "name": "Westside",
        "shop": "clothes"
      }
    },
    {
      "type": "node",
      "id": 1459720916,
      "lat": 12.934792,
      "lon": 77.6113,
      "tags": {
        "addr:city": "Bangalore",
        "addr:housename": "Forum Mall",
        "addr:housenumber": "21, Shop No.5",
        "addr:postcode": "560095",
        "addr:street": "Hosur Road",
        "brand": "Reebok",
        "brand:wikidata": "Q466183",
        "name": "Reebok",
        "name:kn": "ರೀಬಾಕ್",
        "shop": "clothes"
      }
    },
    {
      "type": "node",
      "id": 1459721959,
      "lat": 12.934525,
      "lon": 77.610909,
      "tags": {
        "addr:city": "Bangalore",
        "addr:housename": "Forum Mall",
        "addr:street": "Hosur Road",
        "amenity": "restaurant",
        "brand": "Pizza Hut",
        "brand:wikidata": "Q191615",
        "cuisine": "pizza",
        "level": "1",
        "name": "Pizza Hut",
        "name:kn": "ಪಿಟ್ಸ ಹಟ್"
      }
    },
    {
      "type": "node",
      "id": 1459722798,
      "lat": 12.934546,
      "lon": 77.61107,
      "tags": {
        "addr:city": "Bangalore",
        "addr:housename": "Forum Mall",
        "addr:street": "Hosur Road",
        "brand": "Metro",
        "brand:wikidata": "Q16938284",
        "name": "Metro",
        "shop": "shoes",
        "wheelchair": "yes"
      }
    },
    {
      "type": "node",
      "id": 1459725062,
      "lat": 12.935016,
      "lon": 77.611357,
      "tags": {
        "addr:city": "Bangalore",
        "addr:housename": "Forum Mall",
        "addr:street": "Hosur Road",
        "amenity": "restaurant",
        "level": "2",
        "name": "Sahib Singh Sultan",
        "name:kn": "ಸಾಹಿಬ್ ಸಿಂಗ್ ಸುಲ್ತಾನ್"
      }
    },
    {
      "type": "node",
      "id": 1459965429,
      "lat": 12.934504,
      "lon": 77.613547,
      "tags": {
        "addr:housename": "Raheja Arcade",
        "addr:street": "80ft Road",
        "amenity": "restaurant",
        "diet:vegetarian": "only",
        "name": "Gramin",
        "name:kn": "ಗ್ರಾಮೀಣ್ ಶಾರದ"
      }
    },
    {
      "type": "node",
      "id": 1459966148,
      "lat": 12.934323,
      "lon": 77.613299,
      "tags": {
        "amenity": "restaurant",
        "name": "Om",
        "name:kn": "ಓಂ"
      }
    },
    {
      "type": "node",
      "id": 1462973987,
      "lat": 12.9378468,
      "lon": 77.6107028,
      "tags": {
        "name": "Tata Docomo Show Room",
        "shop": "mobile_phone"
      }
    },
    {
      "type": "node",
      "id": 1462976045,
      "lat": 12.9337269,
      "lon": 77.6112285,
      "tags": {
        "addr:postcode": "560095",
        "addr:street": "Near Forum Mall, Koramangala, Bangalore",
        "shop": "florist"
      }
    },
    {
      "type": "node",
      "id": 1462977137,
      "lat": 12.9341298,
      "lon": 77.6109889,
      "tags": {
        "addr:city": "Bangalore",
        "addr:housename": "Forum Mall",
        "addr:postcode": "560095",
        "addr:street": "Hosur Road",
        "brand": "More",
        "brand:wikidata": "Q6910891",
        "name": "More",
        "shop": "supermarket",
        "toilets:wheelchair": "yes",
        "wheelchair": "yes"
      }
    },
    {
      "type": "node",
      "id": 1462977852,
      "lat": 12.9348719,
      "lon": 77.6114029,
      "tags": {
        "addr:city": "Bangalore",
        "addr:housename": "Forum Mall",
        "addr:postcode": "560095",
        "addr:street": "Hosur Road",
        "brand": "Archies",
        "brand:wikidata": "Q4786843",
        "name": "Archies",
        "shop": "gift",
        "website": "https://archiecomics.com/"
      }
    },
    {
      "type": "node",
      "id": 1462978306,
      "lat": 12.9342498,
      "lon": 77.6099223,
      "tags": {
        "addr:postcode": "560095",
        "addr:street": "Near Forum Mall, Koramangala",
        "name": "Forum Cars",
        "shop": "car"
      }
    },
    {
      "type": "node",
      "id": 1462984888,
      "lat": 12.9333844,
      "lon": 77.6132413,
      "tags": {
        "addr:postcode": "560095",
        "addr:street": "Hosur Road, Koramangala, Bangalore",
        "amenity": "bank",
        "atm": "yes",
        "brand": "Standard Chartered",
        "brand:wikidata": "Q548278",
        "name": "Standard Chartered",
        "name:kn": "ಸ್ಟಾಂಡರ್ಡ್ ಚಾರ್ಟರ್ಡ್"
      }
    },
    {
      "type": "node",
      "id": 1462991954,
      "lat": 12.9355699,
      "lon": 77.6142407,
      "tags": {
        "addr:postcode": "560095",
        "addr:street": "80 Feet Road, Koramangala, Bangalore",
        "amenity": "bank",
        "atm": "yes",
        "brand": "Axis Bank",
        "brand:wikidata": "Q2003549",
        "brand:wikipedia": "en:Axis Bank",
        "name": "Axis Bank",
        "name:en": "Axis Bank",
        "name:kn": "ಅಕ್ಸಿಸ್ ಬ್ಯಾಂಕ್",
        "website": "https://www.axisbank.com"
      }
    },
    {
      "type": "node",
      "id": 1462994517,
      "lat": 12.9365162,
      "lon": 77.6135755,
      "tags": {
        "addr:postcode": "560095",
        "addr:street": "Near BOSCH Back Gate, Koramangala, Bangalore",
        "name": "Sachin's Autoshop",
        "shop": "car_repair"
      }
    },
    {
      "type": "node",
      "id": 1463612973,
      "lat": 12.9351451,
      "lon": 77.611553,
      "tags": {
        "addr:city": "Bangalore",
        "addr:housename": "Forum Mall",
        "addr:postcode": "560095",
        "addr:street": "Hosur Road",
        "name": "Ali-n-Arts Florist",
        "shop": "florist"
      }
    },
    {
      "type": "node",
      "id": 1463863510,
      "lat": 12.9353385,
      "lon": 77.6138382,
      "tags": {
        "addr:postcode": "560095",
        "addr:street": "KORAMANGALA BRANCH, BANGALORE",
        "amenity": "bank",
        "atm": "yes",
        "brand": "State Bank of India",
        "brand:wikidata": "Q1340361",
        "brand:wikipedia": "en:State Bank of India",
        "name": "State Bank of India",
        "name:kn": "ಭಾರತೀಯ ಸ್ಟೇಟ್ ಬ್ಯಾಂಕ್",
        "short_name": "SBI"
      }
    },
    {
      "type": "node",
      "id": 1464156665,
      "lat": 12.9423147,
      "lon": 77.6150065,
      "tags": {
        "addr:postcode": "560095",
        "addr:street": "Adugodi main road",
        "name": "More Supermarket",
        "name:kn": "ಮೋರ್",
        "shop": "supermarket"
      }
    },
    {
      "type": "node",
      "id": 1464791102,
      "lat": 12.935716,
      "lon": 77.6218199,
      "tags": {
        "name": "Nilgiris",
        "name:kn": "ನೀಲ್ಗಿರಿಸ್",
        "shop": "convenience"
      }
    },
    {
      "type": "node",
      "id": 1464792933,
      "lat": 12.9404971,
      "lon": 77.6207624,
      "tags": {
        "addr:place": "Koramangala",
        "amenity": "school",
        "isced:level": "3",
        "name": "Bethany High School Koramangala",
        "name:kn": "ಬೆಥನಿ ಪ್ರೌಢಶಾಲೆ ,ಕೋರಮಂಗಲ",
        "operator": "Private Un-Aided",
        "school": "Higher Secondary"
      }
    },
    {
      "type": "node",
      "id": 1465515463,
      "lat": 12.9345734,
      "lon": 77.6115121,
      "tags": {
        "addr:city": "Bangalore",
        "addr:housename": "Forum Mall",
        "addr:postcode": "560095",
        "addr:street": "Hosur Road",
        "name": "Landmark",
        "shop": "hifi",
        "website": "http://www.landmarkonthenet.com/"
      }
    },
    {
      "type": "node",
      "id": 1465570259,
      "lat": 12.9362282,
      "lon": 77.61472,
      "tags": {
        "addr:street": "Koramangala, Bangalore",
        "name": "Computer Mall",
        "shop": "computer"
      }
    },
    {
      "type": "node",
      "id": 1465577230,
      "lat": 12.9365387,
      "lon": 77.6144945,
      "tags": {
        "name": "Banchaaram Sweets",
        "shop": "confectionery"
      }
    },
    {
      "type": "node",
      "id": 1465610689,
      "lat": 12.9354469,
      "lon": 77.6154094,
      "tags": {
        "amenity": "fast_food",
        "brand": "McDonald's",
        "brand:pa": "ਮੈਕਡੋਨਲਡ’ਜ਼",
        "brand:ur": "مکڈونلڈز",
        "brand:wikidata": "Q38076",
        "brand:wikipedia": "en:McDonald's",
        "brand:wikipedia:pa": "ਮੈਕਡੋਨਲਡ’ਜ਼",
        "brand:wikipedia:ur": "مکڈونلڈز",
        "cuisine": "burger",
        "name": "McDonald's",
        "name:pa": "ਮੈਕਡੋਨਲਡ’ਜ਼",
        "name:ur": "مکڈونلڈز",
        "takeaway": "yes"
      }
    },
    {
      "type": "node",
      "id": 1465628983,
      "lat": 12.9365314,
      "lon": 77.6137437,
      "tags": {
        "amenity": "post_box",
        "operator": "India Post",
        "operator:wikidata": "Q3519720"
      }
    },
    {
      "type": "node",
      "id": 1465646870,
      "lat": 12.9368587,
      "lon": 77.6200385,
      "tags": {
        "addr:street": "Koramangala 5t cross",
        "designation": "Liqour boutique",
        "name": "Madhuloka",
        "name:kn": "ಮಧುಲೋಕ",
        "shop": "alcohol"
      }
    },
    {
      "type": "node",
      "id": 1465650471,
      "lat": 12.9365646,
      "lon": 77.6207273,
      "tags": {
        "addr:street": "Kor 5th cross",
        "amenity": "bar",
        "designation": "Bar cum pub",
        "name": "Banana Beach bar"
      }
    },
    {
      "type": "node",
      "id": 1465655319,
      "lat": 12.9364031,
      "lon": 77.6207917,
      "tags": {
        "addr:housename": "Filling station",
        "addr:street": "Koramangala 5th cross",
        "amenity": "bar;pub;restaurant",
        "name": "Filling station"
      }
    },
    {
      "type": "node",
      "id": 1465657720,
      "lat": 12.9362976,
      "lon": 77.6213531,
      "tags": {
        "addr:housename": "Hotel Nandhana Palace",
        "amenity": "restaurant",
        "cuisine": "indian",
        "designation": "Business class hotel",
        "name": "Nandhana Grand",
        "name:kn": "ನಂದನಾ ಗ್ರಾಂಡ್"
      }
    },
    {
      "type": "node",
      "id": 1465668254,
      "lat": 12.9366384,
      "lon": 77.6206523,
      "tags": {
        "addr:housename": "Fulki Boutique",
        "addr:housenumber": "55",
        "addr:postcode": "560095",
        "addr:street": "6th block koramangala",
        "designation": "Salwars, sarees and designer tops boutique",
        "name": "fulki",
        "shop": "clothes"
      }
    },
    {
      "type": "node",
      "id": 1465678880,
      "lat": 12.9365443,
      "lon": 77.6205772,
      "tags": {
        "addr:housename": "U fashion store",
        "addr:housenumber": "100",
        "addr:postcode": "560095",
        "addr:street": "5th cross 5th block koramangala",
        "designation": "garments for women",
        "name": "U Fashion store",
        "shop": "clothes"
      }
    },
    {
      "type": "node",
      "id": 1465714385,
      "lat": 12.9357629,
      "lon": 77.6219971,
      "tags": {
        "name": "Printo",
        "operator": "printo document services pvt.ltd",
        "shop": "copyshop"
      }
    },
    {
      "type": "node",
      "id": 1465777960,
      "lat": 12.9418577,
      "lon": 77.6159961,
      "tags": {
        "addr:postcode": "560095",
        "addr:street": "Adugodi main road",
        "name": "Forum bakery",
        "shop": "convenience"
      }
    },
    {
      "type": "node",
      "id": 1466631787,
      "lat": 12.9429573,
      "lon": 77.6174085,
      "tags": {
        "addr:district": "Bengaluru Urban",
        "addr:full": "No.3&4, 7Nth Main 1st Block OppositeB.T.S Kalyana Mantapa Koramangala",
        "addr:postcode": "560034",
        "addr:state": "Karnataka",
        "amenity": "clinic",
        "name": "Sharadha Nursing Home",
        "source": "OpenGovernmentData"
      }
    },
    {
      "type": "node",
      "id": 1466638204,
      "lat": 12.9423039,
      "lon": 77.6174893,
      "tags": {
        "amenity": "hospital",
        "healthcare": "hospital",
        "name": "Srinivasa Nursing Home"
      }
    },
    {
      "type": "node",
      "id": 1466648669,
      "lat": 12.9422358,
      "lon": 77.6178071,
      "tags": {
        "amenity": "restaurant",
        "cuisine": "chinese",
        "name": "Dim Sum",
        "name:kn": "ದಿಮ್ ಸಮ್"
      }
    },
    {
      "type": "node",
      "id": 1466650618,
      "lat": 12.9423666,
      "lon": 77.6174611,
      "tags": {
        "amenity": "pharmacy",
        "brand": "Apollo Pharmacy",
        "brand:wikidata": "Q62562612",
        "healthcare": "pharmacy",
        "name": "Apollo Pharmacy",
        "name:kn": "ಅಪೋಲೋ ಫಾರ್ಮಸಿ"
      }
    },
    {
      "type": "node",
      "id": 1466731605,
      "lat": 12.9351927,
      "lon": 77.6136464,
      "tags": {
        "addr:housename": "F M Silks",
        "addr:housenumber": "115",
        "addr:postcode": "560095",
        "addr:street": "80 feet road",
        "designation": "Garment retailers - sarees, salwars",
        "name": "F M Silks",
        "shop": "clothes"
      }
    },
    {
      "type": "node",
      "id": 1466742214,
      "lat": 12.9336342,
      "lon": 77.6176324,
      "tags": {
        "amenity": "place_of_worship",
        "denomination": "vaishnavism",
        "name": "Krishna Temple",
        "name:kn": "ಕೃಷ್ಣ ದೇವಸ್ಥಾನ",
        "religion": "hindu"
      }
    },
    {
      "type": "node",
      "id": 1466752184,
      "lat": 12.9402493,
      "lon": 77.6201159,
      "tags": {
        "shop": "florist"
      }
    },
    {
      "type": "node",
      "id": 1466753854,
      "lat": 12.9373737,
      "lon": 77.6194722,
      "tags": {
        "name": "Shri Venkateshwara flowers",
        "shop": "florist"
      }
    },
    {
      "type": "node",
      "id": 1466921785,
      "lat": 12.9335033,
      "lon": 77.606469,
      "tags": {
        "addr:city": "Bangalore",
        "addr:postcode": "560029",
        "amenity": "library",
        "name": "Christ University Library"
      }
    },
    {
      "type": "node",
      "id": 1466932410,
      "lat": 12.93091,
      "lon": 77.608255,
      "tags": {
        "amenity": "place_of_worship",
        "name": "Anjaneya Temple",
        "name:kn": "ಆಂಜನೇಯ ದೇವಸ್ಥಾನ",
        "religion": "hindu"
      }
    },
    {
      "type": "node",
      "id": 1466932413,
      "lat": 12.9309532,
      "lon": 77.6084387,
      "tags": {
        "amenity": "place_of_worship",
        "name": "Srirama Temple",
        "name:kn": "ಶ್ರೀರಾಮ ದೇವಸ್ಥಾನ",
        "religion": "hindu"
      }
    },
    {
      "type": "node",
      "id": 1467937185,
      "lat": 12.934104,
      "lon": 77.6164798,
      "tags": {
        "addr:housename": "Adaa",
        "addr:postcode": "560095",
        "addr:street": "5th Block Koramangala",
        "amenity": "restaurant",
        "cuisine": "indian",
        "designation": "Punjabi",
        "name": "Adaa Restaurant",
        "name:kn": "ಅದಾ ರೆಸ್ಟೋರೆಂಟ್"
      }
    },
    {
      "type": "node",
      "id": 1467937186,
      "lat": 12.9364646,
      "lon": 77.614012,
      "tags": {
        "addr:city": "Bengaluru",
        "addr:postcode": "560095",
        "addr:street": "Someshwara Temple Road, 7th Block, Koramangala",
        "amenity": "place_of_worship",
        "denomination": "hindu",
        "designation": "Temple",
        "name": "Shri Someshwara Temple",
        "name:kn": "ಸೋಮೇಶ್ವರ ದೇವಸ್ಥಾನ",
        "religion": "hindu",
        "wikidata": "Q16934416",
        "wikipedia": "en:Old Madiwala Someshwara Temple, Bangalore"
      }
    },
    {
      "type": "node",
      "id": 1467937188,
      "lat": 12.9368528,
      "lon": 77.6203487,
      "tags": {
        "addr:housename": "Willi vanili",
        "addr:postcode": "560095",
        "addr:street": "5th block Koramangala",
        "amenity": "restaurant",
        "cuisine": "ice_cream",
        "designation": "Ice cream parlor",
        "name": "Willy Vanilli",
        "name:kn": "ವಿಲ್ಲಿ ವನಿಲಿ"
      }
    },
    {
      "type": "node",
      "id": 1467937189,
      "lat": 12.9366057,
      "lon": 77.6205137,
      "tags": {
        "addr:housename": "Chung Wah",
        "addr:housenumber": "20",
        "amenity": "restaurant",
        "cuisine": "chinese",
        "name": "Chung wah",
        "name:kn": "ಚಂಗ್ ವ",
        "website": "http://chungwahrestaurants.co.in/"
      }
    },
    {
      "type": "node",
      "id": 1468014994,
      "lat": 12.93567,
      "lon": 77.6152337,
      "tags": {
        "amenity": "atm",
        "fee": "HDFC ATM",
        "operator": "HDFC Bank ATM"
      }
    },
    {
      "type": "node",
      "id": 1468014995,
      "lat": 12.9364151,
      "lon": 77.6144033,
      "tags": {
        "name": "Safal Supermarket",
        "shop": "supermarket"
      }
    },
    {
      "type": "node",
      "id": 1468014996,
      "lat": 12.9363015,
      "lon": 77.6151475,
      "tags": {
        "amenity": "restaurant",
        "cuisine": "indian",
        "name": "Sathyas Biriyani",
        "name:kn": "ಸತ್ಯಸ್ ಬಿರಿಯಾನಿ"
      }
    },
    {
      "type": "node",
      "id": 1468014999,
      "lat": 12.935901,
      "lon": 77.614926,
      "tags": {
        "addr:housenumber": "1st floor",
        "amenity": "pub",
        "name": "Madan Pub",
        "opening_hours": "Fr-Su 00:00-24:00"
      }
    },
    {
      "type": "node",
      "id": 1468015000,
      "lat": 12.9365288,
      "lon": 77.6150063,
      "tags": {
        "name": "Glamorous Unisex salon",
        "shop": "hairdresser"
      }
    },
    {
      "type": "node",
      "id": 1468015001,
      "lat": 12.9360411,
      "lon": 77.6148636,
      "tags": {
        "amenity": "restaurant",
        "diet:vegetarian": "only",
        "name": "Red fort restaurant",
        "name:kn": "ರೆಡ್ ಫಾರ್ಟ್ ರೆಸ್ಟೋರೆಂಟ್"
      }
    },
    {
      "type": "node",
      "id": 1468015002,
      "lat": 12.936049,
      "lon": 77.6150661,
      "tags": {
        "amenity": "ice_cream",
        "brand": "Corner House",
        "cuisine": "ice_cream",
        "delivery": "yes",
        "name": "Corner House",
        "name:kn": "ಕಾರ್ನರ್ ಹೌಸ್",
        "takeaway": "yes"
      }
    },
    {
      "type": "node",
      "id": 1468025778,
      "lat": 12.9368986,
      "lon": 77.6198954,
      "tags": {
        "amenity": "restaurant",
        "diet:vegetarian": "only",
        "name": "Krishna Cafe",
        "name:en": "Sree Krishna Cafe",
        "name:kn": "ಶ್ರೀಕೃಷ್ಣ ಕೆಫೆ"
      }
    },
    {
      "type": "node",
      "id": 1468025788,
      "lat": 12.9369809,
      "lon": 77.6197694,
      "tags": {
        "amenity": "restaurant",
        "diet:vegetarian": "only",
        "name": "Anand Sweets and Restaurant",
        "name:kn": "ಆನಂದ್ ಸ್ವೀಟ್ಸ್ ಮತ್ತು ರೆಸ್ಟೋರೆಂಟ್"
      }
    },
    {
      "type": "node",
      "id": 1468164169,
      "lat": 12.9348451,
      "lon": 77.6128809,
      "tags": {
        "amenity": "restaurant",
        "name": "N.E Diner",
        "name:kn": "ಎನ್.ಇ ಡೈನರ್"
      }
    },
    {
      "type": "node",
      "id": 1468164170,
      "lat": 12.9349392,
      "lon": 77.6129828,
      "tags": {
        "name": "Vodafone Store",
        "shop": "kiosk"
      }
    },
    {
      "type": "node",
      "id": 1468190772,
      "lat": 12.9371612,
      "lon": 77.6129292,
      "tags": {
        "name": "Yem and Tee Beauty parlor",
        "shop": "hairdresser"
      }
    },
    {
      "type": "node",
      "id": 1468190774,
      "lat": 12.9350385,
      "lon": 77.6130633,
      "tags": {
        "addr:postcode": "560095",
        "addr:street": "Koramangala Industrial Layout",
        "amenity": "restaurant",
        "cuisine": "ice_cream",
        "name": "Thanco Fresh Fruitz Ice-Creams",
        "name:kn": "ತಾನ್ಕೊ ಫ್ರೆಷ್ ಫ್ರುಟ್ಸ್ ಐಸ್-ಕ್ರೀಮ್ಸ್"
      }
    },
    {
      "type": "node",
      "id": 1468190775,
      "lat": 12.935577,
      "lon": 77.6130901,
      "tags": {
        "addr:postcode": "560095",
        "amenity": "restaurant",
        "cuisine": "seafood",
        "name": "Mangoa Coastal cuisine",
        "name:kn": "ಮಂಗೊ ಕೊಸ್ಟಲ್ ಕ್ಯೂಸಿನ್"
      }
    },
    {
      "type": "node",
      "id": 1468190776,
      "lat": 12.935294,
      "lon": 77.61306,
      "tags": {
        "addr:postcode": "560095",
        "name": "The Book shoppe",
        "shop": "books"
      }
    },
    {
      "type": "node",
      "id": 1468190779,
      "lat": 12.9353286,
      "lon": 77.6128207,
      "tags": {
        "designation": "Dresses/Toys for Kids",
        "name": "Baby's day out",
        "shop": "convenience"
      }
    },
    {
      "type": "node",
      "id": 1468235009,
      "lat": 12.9371352,
      "lon": 77.619779,
      "tags": {
        "amenity": "restaurant",
        "name": "Flambe",
        "name:kn": "ಫ್ಲಂಬೆ"
      }
    },
    {
      "type": "node",
      "id": 1468235024,
      "lat": 12.9365549,
      "lon": 77.6165979,
      "tags": {
        "amenity": "restaurant",
        "name": "Aangan restaurant",
        "name:kn": "ಆಂಗನ್ ರೆಸ್ಟೊರೆಂಟ್"
      }
    },
    {
      "type": "node",
      "id": 1468235026,
      "lat": 12.9364451,
      "lon": 77.6170968,
      "tags": {
        "name": "Nandini Shoppe",
        "shop": "convenience"
      }
    },
    {
      "type": "node",
      "id": 1468516360,
      "lat": 12.9370938,
      "lon": 77.6199696,
      "tags": {
        "designation": "Men's garments",
        "name": "F square",
        "shop": "clothes"
      }
    },
    {
      "type": "node",
      "id": 1468516361,
      "lat": 12.9368481,
      "lon": 77.6198784,
      "tags": {
        "amenity": "restaurant",
        "cuisine": "international",
        "name": "Sizzlers and more",
        "name:kn": "ಸಿಜ್ಲರ್ಸ್ ಆಂಡ್ ಮೋರ್"
      }
    },
    {
      "type": "node",
      "id": 1468516362,
      "lat": 12.9357659,
      "lon": 77.6217238,
      "tags": {
        "designation": "Garments",
        "name": "Swiss Embroideries",
        "shop": "clothes"
      }
    },
    {
      "type": "node",
      "id": 1468516365,
      "lat": 12.936937,
      "lon": 77.6202003,
      "tags": {
        "amenity": "restaurant",
        "cuisine": "chinese",
        "name": "China Bowl restaurant",
        "name:kn": "ಚೈನ ಬೌಲ್ ರೆಸ್ಟೊರೆಂಟ್"
      }
    },
    {
      "type": "node",
      "id": 1468516366,
      "lat": 12.9356613,
      "lon": 77.621933,
      "tags": {
        "addr:postcode": "560095",
        "addr:street": "5th cross Koramangala",
        "brand": "Kanti Sweets",
        "name": "Kanti Sweets",
        "shop": "confectionery"
      }
    },
    {
      "type": "node",
      "id": 1468516367,
      "lat": 12.9368167,
      "lon": 77.619975,
      "tags": {
        "designation": "Jewelry",
        "name": "Shubh Jewellers",
        "shop": "jewelry"
      }
    },
    {
      "type": "node",
      "id": 1468516368,
      "lat": 12.9368899,
      "lon": 77.6197711,
      "tags": {
        "amenity": "restaurant",
        "cuisine": "indian",
        "name": "Malabar cafe",
        "name:kn": "ಮಲಬಾರ್ ಕೆಫೆ"
      }
    },
    {
      "type": "node",
      "id": 1468516369,
      "lat": 12.9369893,
      "lon": 77.6201144,
      "tags": {
        "amenity": "restaurant",
        "cuisine": "indian",
        "designation": "1st floor",
        "name": "Desi Tadka",
        "name:kn": "ದೆಸಿ ಟಡ್ಕ"
      }
    },
    {
      "type": "node",
      "id": 1468516376,
      "lat": 12.9368533,
      "lon": 77.6201144,
      "tags": {
        "designation": "Men's garments",
        "name": "Reid & Taylor",
        "shop": "clothes"
      }
    },
    {
      "type": "node",
      "id": 1469272712,
      "lat": 12.93647,
      "lon": 77.6165564,
      "tags": {
        "name": "Sapna Book Stall",
        "shop": "books"
      }
    },
    {
      "type": "node",
      "id": 1469643919,
      "lat": 12.9362945,
      "lon": 77.6149366,
      "tags": {
        "designation": "Dresses/Toys for Kids",
        "name": "Babys Planet",
        "shop": "convenience"
      }
    },
    {
      "type": "node",
      "id": 1469643988,
      "lat": 12.9367342,
      "lon": 77.6131209,
      "tags": {
        "amenity": "driving_school",
        "name": "KMS driving school"
      }
    },
    {
      "type": "node",
      "id": 1469643991,
      "lat": 12.9352294,
      "lon": 77.6076048,
      "tags": {
        "amenity": "restaurant",
        "designation": "Kerala Style",
        "name": "Kairali Restaurant",
        "name:kn": "ಕೈರಾಲಿ ರೆಸ್ಟೊರೆಂಟ್"
      }
    },
    {
      "type": "node",
      "id": 1469644017,
      "lat": 12.9343755,
      "lon": 77.6090481,
      "tags": {
        "amenity": "restaurant",
        "cuisine": "italian",
        "name": "Little Italy",
        "name:kn": "ಲಿಟಲ್ ಇಟಲಿ"
      }
    },
    {
      "type": "node",
      "id": 1469644046,
      "lat": 12.935785,
      "lon": 77.6076261,
      "tags": {
        "addr:floor": "1",
        "amenity": "restaurant",
        "check_date": "2023-11-23",
        "indoor_seating": "yes",
        "level": "1",
        "name": "Karavali Fine Dine",
        "outdoor_seating": "no"
      }
    },
    {
      "type": "node",
      "id": 1469644049,
      "lat": 12.9335261,
      "lon": 77.6152234,
      "tags": {
        "amenity": "restaurant",
        "check_date": "2024-01-20",
        "name": "Sultan of Spice",
        "name:kn": "ಸುಲ್ತಾನ್ ಆಫ್ ಸ್ಪೈಸ್"
      }
    },
    {
      "type": "node",
      "id": 1470523365,
      "lat": 12.9364743,
      "lon": 77.6166077,
      "tags": {
        "name": "Vellara Avenue",
        "shop": "gift"
      }
    },
    {
      "type": "node",
      "id": 1470523369,
      "lat": 12.936209,
      "lon": 77.6171253,
      "tags": {
        "amenity": "atm",
        "brand": "Deutsche Bank",
        "brand:wikidata": "Q66048",
        "fee": "no",
        "name": "Deutsche Bank",
        "operator": "Deutsche Bank",
        "operator:wikidata": "Q66048"
      }
    },
    {
      "type": "node",
      "id": 1470523370,
      "lat": 12.9364168,
      "lon": 77.6164628,
      "tags": {
        "name": "Reliance Footprint",
        "shop": "convenience"
      }
    },
    {
      "type": "node",
      "id": 1470523375,
      "lat": 12.933536,
      "lon": 77.6155026,
      "tags": {
        "amenity": "restaurant",
        "cuisine": "indian",
        "name": "Ammis Biriyani",
        "name:kn": "ಅಮ್ಮಿ ಬಿರಿಯಾನಿ"
      }
    },
    {
      "type": "node",
      "id": 1470523376,
      "lat": 12.9352797,
      "lon": 77.6157628,
      "tags": {
        "amenity": "restaurant",
        "cuisine": "chinese",
        "name": "Chung Wah Restaurant",
        "name:kn": "ಚುಂಗ್ ವಾ ರೆಸ್ಟೊರೆಂಟ್"
      }
    },
    {
      "type": "node",
      "id": 1470523377,
      "lat": 12.933719,
      "lon": 77.6176805,
      "tags": {
        "designation": "Kids and Gift shop",
        "name": "Kids N Gifts",
        "shop": "gift"
      }
    },
    {
      "type": "node",
      "id": 1470523379,
      "lat": 12.9369821,
      "lon": 77.6181785,
      "tags": {
        "amenity": "toilets"
      }
    },
    {
      "type": "node",
      "id": 1470523381,
      "lat": 12.9338184,
      "lon": 77.6192443,
      "tags": {
        "designation": "Ladies Wear",
        "name": "Gia Garments",
        "shop": "clothes"
      }
    },
    {
      "type": "node",
      "id": 1470523383,
      "lat": 12.9338001,
      "lon": 77.619424,
      "tags": {
        "amenity": "restaurant",
        "cuisine": "ice_cream",
        "designation": "Italian Ice-cream",
        "name": "Mama mia",
        "name:kn": "ಮಾಮ ಮೀಯ"
      }
    },
    {
      "type": "node",
      "id": 1470523388,
      "lat": 12.9365946,
      "lon": 77.6176725,
      "tags": {
        "designation": "Fruits and Vegetables",
        "name": "Hopcoms",
        "name:kn": "ಹಾಪ್ ಕಾಮ್ಸ್",
        "shop": "convenience"
      }
    },
    {
      "type": "node",
      "id": 1470523393,
      "lat": 12.936712,
      "lon": 77.6176175,
      "tags": {
        "amenity": "bench",
        "designation": "Lakshmi Devi Park"
      }
    },
    {
      "type": "node",
      "id": 1470523396,
      "lat": 12.9365949,
      "lon": 77.6177189,
      "tags": {
        "addr:postcode": "560095",
        "addr:street": "20th Main",
        "shop": "florist"
      }
    },
    {
      "type": "node",
      "id": 1470539723,
      "lat": 12.9348619,
      "lon": 77.6112385,
      "tags": {
        "addr:city": "Bangalore",
        "addr:housename": "Forum Mall",
        "addr:street": "Hosur Road",
        "name": "Soch",
        "shop": "clothes",
        "wheelchair": "yes"
      }
    },
    {
      "type": "node",
      "id": 1470541759,
      "lat": 12.93419,
      "lon": 77.6109248,
      "tags": {
        "addr:city": "Bangalore",
        "addr:housename": "Forum Mall",
        "addr:street": "Hosur Road",
        "name": "Nexus Mall Koramangla",
        "shop": "alcohol"
      }
    },
    {
      "type": "node",
      "id": 1470608018,
      "lat": 12.9345459,
      "lon": 77.6114217,
      "tags": {
        "addr:city": "Bangalore",
        "addr:housename": "Forum Mall",
        "addr:street": "Hosur Road",
        "brand": "United Colors of Benetton",
        "brand:wikidata": "Q817139",
        "name": "United Colors of Benetton",
        "shop": "clothes",
        "short_name": "Benetton",
        "toilets:wheelchair": "yes",
        "wheelchair": "yes"
      }
    },
    {
      "type": "node",
      "id": 1470608021,
      "lat": 12.934891,
      "lon": 77.6110462,
      "tags": {
        "addr:city": "Bangalore",
        "addr:housename": "Forum Mall",
        "addr:street": "Hosur Road",
        "branch": "Dockers",
        "brand": "Levi's",
        "brand:wikidata": "Q127962",
        "clothes": "denim;men;women",
        "name": "Levi's",
        "shop": "clothes",
        "wheelchair": "yes"
      }
    },
    {
      "type": "node",
      "id": 1470608022,
      "lat": 12.9341695,
      "lon": 77.6110462,
      "tags": {
        "addr:city": "Bangalore",
        "addr:housename": "Forum Mall",
        "addr:street": "Hosur Road",
        "name": "Raymonds",
        "shop": "clothes"
      }
    },
    {
      "type": "node",
      "id": 1470628750,
      "lat": 12.9366298,
      "lon": 77.6132797,
      "tags": {
        "amenity": "restaurant",
        "cuisine": "indian",
        "name": "Sri Sai Vijay Mess",
        "name:kn": "ಶ್ರೀ ಸಾಯಿ ವಿಜಯ್ ಮೆಸ್"
      }
    },
    {
      "type": "node",
      "id": 1470628752,
      "lat": 12.9367971,
      "lon": 77.6130007,
      "tags": {
        "addr:street": "Koramangala 7th block",
        "designation": "Garments",
        "name": "The Look Shoppe",
        "shop": "clothes"
      }
    },
    {
      "type": "node",
      "id": 1470628753,
      "lat": 12.9367971,
      "lon": 77.6131509,
      "tags": {
        "name": "463 Cross roads",
        "shop": "clothes"
      }
    },
    {
      "type": "node",
      "id": 1470628754,
      "lat": 12.9360965,
      "lon": 77.614653,
      "tags": {
        "name": "Leher Casuals",
        "shop": "clothes"
      }
    },
    {
      "type": "node",
      "id": 1470628755,
      "lat": 12.9360233,
      "lon": 77.6153074,
      "tags": {
        "name": "Cantabil Showroom",
        "shop": "clothes"
      }
    },
    {
      "type": "node",
      "id": 1470628756,
      "lat": 12.9370062,
      "lon": 77.6120888,
      "tags": {
        "name": "Hot Chips",
        "shop": "convenience"
      }
    },
    {
      "type": "node",
      "id": 1470631821,
      "lat": 12.9358593,
      "lon": 77.6150138,
      "tags": {
        "designation": "Cakes",
        "name": "Cake Yard",
        "shop": "bakery"
      }
    },
    {
      "type": "node",
      "id": 1470631822,
      "lat": 12.9366085,
      "lon": 77.6181363,
      "tags": {
        "amenity": "bank",
        "atm": "yes",
        "brand": "Oriental Bank of Commerce",
        "brand:wikidata": "Q367008",
        "brand:wikipedia": "en:Oriental Bank of Commerce",
        "name": "Oriental Bank of Commerce",
        "name:en": "Oriental Bank of Commerce",
        "short_name": "OBC",
        "website": "https://www.obcindia.co.in"
      }
    },
    {
      "type": "node",
      "id": 1470634294,
      "lat": 12.9364753,
      "lon": 77.621053,
      "tags": {
        "amenity": "restaurant",
        "name": "Oye Amritsar",
        "name:kn": "ಓಯ್ ಅಮೃತ್ಸರ್"
      }
    },
    {
      "type": "node",
      "id": 1470634295,
      "lat": 12.9362348,
      "lon": 77.6210315,
      "tags": {
        "name": "Hot Chips",
        "shop": "convenience"
      }
    },
    {
      "type": "node",
      "id": 1470634304,
      "lat": 12.9367367,
      "lon": 77.6206239,
      "tags": {
        "amenity": "restaurant",
        "name": "Pizzeria Romano",
        "name:kn": "ಪಿಜೆರಿಯ ರೊಮನೊ"
      }
    },
    {
      "type": "node",
      "id": 1470634329,
      "lat": 12.9375575,
      "lon": 77.618462,
      "tags": {
        "amenity": "place_of_worship",
        "name": "Chamundeshwari Temple",
        "name:kn": "ಚಾಮುಂಡೇಶ್ವರಿ ದೇವಸ್ಥಾನ",
        "religion": "hindu"
      }
    },
    {
      "type": "node",
      "id": 1470707052,
      "lat": 12.941581,
      "lon": 77.617208,
      "tags": {
        "amenity": "pharmacy",
        "name": "Krishna Pharma"
      }
    },
    {
      "type": "node",
      "id": 1470856078,
      "lat": 12.9347915,
      "lon": 77.6109681,
      "tags": {
        "addr:city": "Bangalore",
        "addr:housename": "Forum Mall",
        "addr:street": "Hosur Road",
        "name": "Ayesha",
        "name:kn": "ಅಯೇಶ",
        "shop": "jewelry"
      }
    },
    {
      "type": "node",
      "id": 1470856090,
      "lat": 12.9347444,
      "lon": 77.6110003,
      "tags": {
        "addr:city": "Bangalore",
        "addr:housename": "Forum Mall",
        "addr:street": "Hosur Road",
        "name": "Cookie Man",
        "shop": "bakery"
      }
    },
    {
      "type": "node",
      "id": 1470856097,
      "lat": 12.9346922,
      "lon": 77.6110539,
      "tags": {
        "addr:city": "Bangalore",
        "addr:housename": "Forum Mall",
        "addr:street": "Hosur Road",
        "name": "Sangeeta Mobiles",
        "shop": "hifi"
      }
    },
    {
      "type": "node",
      "id": 1470856114,
      "lat": 12.9343785,
      "lon": 77.611365,
      "tags": {
        "addr:city": "Bangalore",
        "addr:housename": "Forum Mall",
        "addr:street": "Hosur Road",
        "amenity": "toilets",
        "fee": "no",
        "wheelchair": "limited"
      }
    },
    {
      "type": "node",
      "id": 1470856144,
      "lat": 12.9347706,
      "lon": 77.6110968,
      "tags": {
        "addr:city": "Bangalore",
        "addr:housename": "Forum Mall",
        "addr:street": "Hosur Road",
        "branch": "showroom",
        "brand": "Samsung",
        "brand:wikidata": "Q20718",
        "name": "Samsung",
        "shop": "electronics",
        "wheelchair": "yes"
      }
    },
    {
      "type": "node",
      "id": 1471128625,
      "lat": 12.9388934,
      "lon": 77.6188923,
      "tags": {
        "amenity": "library",
        "name": "Just Books",
        "name:kn": "ಜಸ್ಟ್ ಬುಕ್ಸ್"
      }
    },
    {
      "type": "node",
      "id": 1471128628,
      "lat": 12.9382768,
      "lon": 77.6186753,
      "tags": {
        "amenity": "hospital",
        "emergency": "yes",
        "healthcare": "hospital",
        "name": "Pristine Health care"
      }
    },
    {
      "type": "node",
      "id": 1471128630,
      "lat": 12.9388779,
      "lon": 77.61893,
      "tags": {
        "amenity": "restaurant",
        "cuisine": "coffee_shop",
        "name": "Kiwi kiss",
        "name:kn": "ಕಿವಿ ಕಿಸ್"
      }
    },
    {
      "type": "node",
      "id": 1471128642,
      "lat": 12.9392359,
      "lon": 77.6191015,
      "tags": {
        "name": "Scissors Enrich Unisex salon",
        "shop": "hairdresser"
      }
    },
    {
      "type": "node",
      "id": 1471128646,
      "lat": 12.9380674,
      "lon": 77.6188279,
      "tags": {
        "name": "Sizzling styles beauty parlor",
        "shop": "hairdresser"
      }
    },
    {
      "type": "node",
      "id": 1471128651,
      "lat": 12.9359421,
      "lon": 77.6157219,
      "tags": {
        "name": "Airtel Office",
        "name:kn": "ಏರ್ಟೆಲ್",
        "shop": "telecommunication"
      }
    },
    {
      "type": "node",
      "id": 1471128655,
      "lat": 12.9390997,
      "lon": 77.6190857,
      "tags": {
        "brand": "Bajaj",
        "brand:wikidata": "Q10910065",
        "name": "Bajaj Showroom",
        "shop": "motorcycle"
      }
    },
    {
      "type": "node",
      "id": 1471128658,
      "lat": 12.9386399,
      "lon": 77.6188173,
      "tags": {
        "amenity": "bank",
        "atm": "yes",
        "brand": "State Bank of India",
        "brand:wikidata": "Q1340361",
        "brand:wikipedia": "en:State Bank of India",
        "name": "State Bank of India",
        "name:kn": "ಭಾರತೀಯ ಸ್ಟೇಟ್ ಬ್ಯಾಂಕ್",
        "short_name": "SBI",
        "website": "https://www.sbi.co.in"
      }
    },
    {
      "type": "node",
      "id": 1471128660,
      "lat": 12.93893,
      "lon": 77.6189888,
      "tags": {
        "amenity": "cafe",
        "cuisine": "indian",
        "name": "Booster Juice"
      }
    },
    {
      "type": "node",
      "id": 1471780770,
      "lat": 12.9332663,
      "lon": 77.6153051,
      "tags": {
        "amenity": "restaurant",
        "name": "Ande ka funda",
        "name:kn": "ಅಂಡೆ ಕ ಫಂಡಾ"
      }
    },
    {
      "type": "node",
      "id": 1472014087,
      "lat": 12.9324841,
      "lon": 77.6137336,
      "tags": {
        "addr:street": "Jyothinivas college road",
        "name": "Bhima",
        "shop": "jewelry"
      }
    },
    {
      "type": "node",
      "id": 1472748545,
      "lat": 12.9335885,
      "lon": 77.6107455,
      "tags": {
        "addr:street": "Hosur road",
        "name": "@home",
        "shop": "furniture",
        "wheelchair": "no"
      }
    },
    {
      "type": "node",
      "id": 1474100959,
      "lat": 12.934928,
      "lon": 77.6126828,
      "tags": {
        "name": "Print Express",
        "shop": "hifi"
      }
    },
    {
      "type": "node",
      "id": 1474101623,
      "lat": 12.9351759,
      "lon": 77.6127454,
      "tags": {
        "name": "Fabric Spa",
        "shop": "dry_cleaning"
      }
    },
    {
      "type": "node",
      "id": 1474324416,
      "lat": 12.9366448,
      "lon": 77.612113,
      "tags": {
        "access": "private",
        "amenity": "library",
        "designation": "Second floor",
        "name": "Kor 901 Library"
      }
    },
    {
      "type": "node",
      "id": 1474324422,
      "lat": 12.9366224,
      "lon": 77.6134497,
      "tags": {
        "amenity": "parking",
        "name": "Bosch (DH) Parking"
      }
    },
    {
      "type": "node",
      "id": 1474324424,
      "lat": 12.9356619,
      "lon": 77.619186,
      "tags": {
        "name": "DHL couriers",
        "shop": "convenience"
      }
    },
    {
      "type": "node",
      "id": 1474324426,
      "lat": 12.9365507,
      "lon": 77.6204895,
      "tags": {
        "amenity": "restaurant",
        "cuisine": "international",
        "name": "Olio",
        "name:kn": "ಒಲಿಒ"
      }
    },
    {
      "type": "node",
      "id": 1474324431,
      "lat": 12.9372461,
      "lon": 77.6198029,
      "tags": {
        "name": "Sthra",
        "shop": "clothes"
      }
    },
    {
      "type": "node",
      "id": 1474324437,
      "lat": 12.9368121,
      "lon": 77.6200764,
      "tags": {
        "name": "Gini & Jony",
        "shop": "clothes"
      }
    },
    {
      "type": "node",
      "id": 1474324439,
      "lat": 12.9367494,
      "lon": 77.6200067,
      "tags": {
        "amenity": "cafe",
        "cuisine": "coffee_shop",
        "name": "Coffee Lounge"
      }
    },
    {
      "type": "node",
      "id": 1474324446,
      "lat": 12.9371565,
      "lon": 77.6194335,
      "tags": {
        "name": "G K Vale Photo Studio",
        "shop": "photo"
      }
    },
    {
      "type": "node",
      "id": 1474324449,
      "lat": 12.9370422,
      "lon": 77.6200711,
      "tags": {
        "name": "Proline fitness",
        "shop": "hifi"
      }
    },
    {
      "type": "node",
      "id": 1474351202,
      "lat": 12.9377454,
      "lon": 77.6188695,
      "tags": {
        "name": "New meena cotton sale",
        "shop": "clothes"
      }
    },
    {
      "type": "node",
      "id": 1474351207,
      "lat": 12.9346333,
      "lon": 77.6124687,
      "tags": {
        "amenity": "restaurant",
        "check_date": "2023-10-28",
        "diet:vegetarian": "only",
        "name": "Kota Kachori",
        "takeaway": "yes"
      }
    },
    {
      "type": "node",
      "id": 1474351209,
      "lat": 12.9373532,
      "lon": 77.6195239,
      "tags": {
        "name": "Meena Fashions",
        "shop": "clothes"
      }
    },
    {
      "type": "node",
      "id": 1474351211,
      "lat": 12.9370761,
      "lon": 77.6204976,
      "tags": {
        "amenity": "kindergarten",
        "name": "Anubhav Play school"
      }
    },
    {
      "type": "node",
      "id": 1474351217,
      "lat": 12.9361926,
      "lon": 77.6147442,
      "tags": {
        "name": "Sports Planet",
        "shop": "convenience"
      }
    },
    {
      "type": "node",
      "id": 1474351218,
      "lat": 12.9374839,
      "lon": 77.6194381,
      "tags": {
        "name": "Book sale",
        "shop": "books"
      }
    },
    {
      "type": "node",
      "id": 1474432222,
      "lat": 12.9345952,
      "lon": 77.6094985,
      "tags": {
        "amenity": "bar",
        "name": "Manchester United"
      }
    },
    {
      "type": "node",
      "id": 1474432223,
      "lat": 12.9340524,
      "lon": 77.6102738,
      "tags": {
        "name": "Mom & Me",
        "shop": "clothes",
        "wheelchair": "no"
      }
    },
    {
      "type": "node",
      "id": 1474432224,
      "lat": 12.9339607,
      "lon": 77.6104356,
      "tags": {
        "addr:street": "hosur road",
        "amenity": "restaurant",
        "indoor_seating": "yes",
        "name": "Shiva Sagar",
        "name:kn": "ಶಿವಸಾಗರ್",
        "outdoor_seating": "yes"
      }
    },
    {
      "type": "node",
      "id": 1474432226,
      "lat": 12.930861,
      "lon": 77.6069707,
      "tags": {
        "addr:street": "Christ School Road",
        "amenity": "dentist",
        "name": "Tooth N Care"
      }
    },
    {
      "type": "node",
      "id": 1474432228,
      "lat": 12.9316137,
      "lon": 77.6072662,
      "tags": {
        "addr:street": "8th Cross",
        "name": "Bakery",
        "shop": "bakery"
      }
    },
    {
      "type": "node",
      "id": 1474455985,
      "lat": 12.9312664,
      "lon": 77.6097492,
      "tags": {
        "name": "SreeVinayaka Alcohol Shop",
        "shop": "alcohol"
      }
    },
    {
      "type": "node",
      "id": 1474456651,
      "lat": 12.9325892,
      "lon": 77.6101676,
      "tags": {
        "amenity": "place_of_worship",
        "name": "Ayyappa Swami Temple",
        "name:kn": "ಅಯ್ಯಪ್ಪ ಸ್ವಾಮಿ ದೇವಸ್ಥಾನ",
        "religion": "hindu"
      }
    },
    {
      "type": "node",
      "id": 1474458358,
      "lat": 12.9351929,
      "lon": 77.6086817,
      "tags": {
        "amenity": "hospital",
        "healthcare": "hospital",
        "name": "Prasad Eye Hospital"
      }
    },
    {
      "type": "node",
      "id": 1669961198,
      "lat": 12.9337369,
      "lon": 77.6176108,
      "tags": {
        "name": "Lords & Kings Eye Gallery",
        "shop": "optician"
      }
    },
    {
      "type": "node",
      "id": 1675248129,
      "lat": 12.935464,
      "lon": 77.616304,
      "tags": {
        "name": "Furtados Music India Private Limited",
        "shop": "music"
      }
    },
    {
      "type": "node",
      "id": 1675552772,
      "lat": 12.9347196,
      "lon": 77.61367,
      "tags": {
        "amenity": "atm",
        "brand": "Citibank",
        "brand:wikidata": "Q857063",
        "check_date": "2021-09-24",
        "name": "Citibank",
        "operator": "Citibank",
        "operator:wikidata": "Q857063",
        "short_name": "Citi"
      }
    },
    {
      "type": "node",
      "id": 1675555859,
      "lat": 12.9341965,
      "lon": 77.6164502,
      "tags": {
        "alt_name": "Goli Vada Pav No.1",
        "amenity": "fast_food",
        "brand": "Goli Vada Pav",
        "brand:wikidata": "Q5580697",
        "cuisine": "indian",
        "name": "Goli Vada Pav",
        "name:kn": "ಗೋಲಿ ವಡ ಪಾವ್",
        "takeaway": "yes"
      }
    },
    {
      "type": "node",
      "id": 1675556127,
      "lat": 12.9341648,
      "lon": 77.6164835,
      "tags": {
        "amenity": "fast_food",
        "name": "Jumboking Vadapav"
      }
    },
    {
      "type": "node",
      "id": 1682878082,
      "lat": 12.9363897,
      "lon": 77.613793,
      "tags": {
        "amenity": "place_of_worship",
        "name": "Sai Baba Temple",
        "name:kn": "ಸಾಯಿಬಾಬಾ ದೇವಸ್ಥಾನ",
        "religion": "hindu"
      }
    },
    {
      "type": "node",
      "id": 1683016694,
      "lat": 12.9417658,
      "lon": 77.6158811,
      "tags": {
        "amenity": "bank",
        "atm": "yes",
        "brand": "Corporation Bank",
        "brand:wikidata": "Q2003387",
        "brand:wikipedia": "en:Corporation Bank",
        "name": "Corporation Bank",
        "name:en": "Corporation Bank",
        "name:kn": "ಕಾರ್ಪರೇಷನ್ ಬ್ಯಾಂಕ್",
        "website": "https://corpbank.com/"
      }
    },
    {
      "type": "node",
      "id": 1697594718,
      "lat": 12.9348541,
      "lon": 77.6110076,
      "tags": {
        "access": "customers",
        "addr:city": "Bangalore",
        "addr:housename": "Forum Mall",
        "addr:street": "Hosur Road",
        "amenity": "parking",
        "fee": "yes",
        "name": "Nexus Mall Parking",
        "parking": "multi-storey"
      }
    },
    {
      "type": "node",
      "id": 1781815219,
      "lat": 12.9410107,
      "lon": 77.6176795,
      "tags": {
        "amenity": "pharmacy",
        "dispensing": "no",
        "name": "Lavish Medical"
      }
    },
    {
      "type": "node",
      "id": 1781815220,
      "lat": 12.9416536,
      "lon": 77.6161121,
      "tags": {
        "name": "Surf In Cyber Cafe",
        "shop": "stationery"
      }
    },
    {
      "type": "node",
      "id": 1781889338,
      "lat": 12.939175,
      "lon": 77.6191546,
      "tags": {
        "craft": "photographer",
        "name": "G K Vale Photo Studio",
        "shop": "electronics"
      }
    },
    {
      "type": "node",
      "id": 1781918450,
      "lat": 12.9348525,
      "lon": 77.6157906,
      "tags": {
        "amenity": "restaurant",
        "cuisine": "indian",
        "name": "Hotel Empire",
        "name:kn": "ಹೋಟೆಲ್ ಎಂಪೈರ್"
      }
    },
    {
      "type": "node",
      "id": 1781918451,
      "lat": 12.9340146,
      "lon": 77.6163371,
      "tags": {
        "amenity": "restaurant",
        "cuisine": "chinese",
        "internet_access": "no",
        "name": "Khawa Karpo",
        "name:kn": "ಖಾವ ಕಾರ್ಪೊ"
      }
    },
    {
      "type": "node",
      "id": 1781959088,
      "lat": 12.943062,
      "lon": 77.6175679,
      "tags": {
        "amenity": "fast_food",
        "cuisine": "indian",
        "name": "Manasa Veg"
      }
    },
    {
      "type": "node",
      "id": 1781959093,
      "lat": 12.9410164,
      "lon": 77.6175336,
      "tags": {
        "name": "Pooja Items",
        "religion": "hindu",
        "shop": "gift"
      }
    },
    {
      "type": "node",
      "id": 1781959102,
      "lat": 12.943452,
      "lon": 77.6178697,
      "tags": {
        "amenity": "atm",
        "brand": "HDFC Bank",
        "brand:wikidata": "Q631047",
        "name": "HDFC Bank",
        "operator": "HDFC Bank",
        "operator:wikidata": "Q631047",
        "short_name": "HDFC"
      }
    },
    {
      "type": "node",
      "id": 1781959104,
      "lat": 12.9434676,
      "lon": 77.6178331,
      "tags": {
        "amenity": "atm",
        "brand": "ICICI Bank",
        "brand:wikidata": "Q1653258",
        "name": "ICICI Bank",
        "operator": "ICICI Bank",
        "operator:wikidata": "Q1653258",
        "short_name": "ICICI"
      }
    },
    {
      "type": "node",
      "id": 1824140227,
      "lat": 12.942312,
      "lon": 77.60802,
      "tags": {
        "addr:street": "Hosur Road",
        "name": "Manokamana Cermanic",
        "shop": "mall"
      }
    },
    {
      "type": "node",
      "id": 2148655413,
      "lat": 12.933447,
      "lon": 77.6219099,
      "tags": {
        "amenity": "restaurant",
        "cuisine": "italian",
        "name": "Chianti"
      }
    },
    {
      "type": "node",
      "id": 2322770073,
      "lat": 12.934646,
      "lon": 77.6067313,
      "tags": {
        "amenity": "food_court",
        "name": "Christ University Food Court"
      }
    },
    {
      "type": "node",
      "id": 2647774007,
      "lat": 12.9338666,
      "lon": 77.6123477,
      "tags": {
        "addr:postcode": "560095",
        "addr:street": "Hosur Road",
        "brand": "Tata",
        "brand:wikidata": "Q188514",
        "check_date": "2023-10-28",
        "name": "Tata Motors",
        "shop": "car"
      }
    },
    {
      "type": "node",
      "id": 2647774013,
      "lat": 12.9351849,
      "lon": 77.6135299,
      "tags": {
        "amenity": "cafe",
        "brand": "Starbucks",
        "brand:pa": "ਸਟਾਰਬਕਸ",
        "brand:ur": "اسٹاربکس",
        "brand:wikidata": "Q37158",
        "brand:wikipedia": "en:Starbucks",
        "cuisine": "coffee_shop",
        "internet_access": "wlan",
        "internet_access:fee": "no",
        "name": "Starbucks",
        "name:pa": "ਸਟਾਰਬਕਸ",
        "name:ur": "اسٹاربکس",
        "official_name": "Starbucks Coffee",
        "official_name:pa": "ਸਟਾਰਬਕਸ ਕੌਫੀ",
        "official_name:ur": "اسٹاربکس کافی",
        "opening_hours": "10:00-23:00",
        "takeaway": "yes",
        "website": "https://www.starbucks.com/"
      }
    },
    {
      "type": "node",
      "id": 2746556770,
      "lat": 12.9344918,
      "lon": 77.6160061,
      "tags": {
        "amenity": "restaurant",
        "cuisine": "barbecue",
        "diet:vegetarian": "yes",
        "name": "Black Pearl"
      }
    },
    {
      "type": "node",
      "id": 2941500439,
      "lat": 12.9338837,
      "lon": 77.6072471,
      "tags": {
        "addr:street": "Christ School Road",
        "amenity": "fast_food",
        "cuisine": "chinese",
        "name": "Hot n Cool"
      }
    },
    {
      "type": "node",
      "id": 3013765074,
      "lat": 12.9363204,
      "lon": 77.6222034,
      "tags": {
        "addr:city": "Bangalore",
        "addr:postcode": "560095",
        "addr:street": "17th E Main",
        "amenity": "restaurant",
        "cuisine": "international",
        "name": "Black Pepper Lounge",
        "smoking": "separated"
      }
    },
    {
      "type": "node",
      "id": 3193517612,
      "lat": 12.9353301,
      "lon": 77.6091895,
      "tags": {
        "name": "Stellar",
        "shop": "furniture"
      }
    },
    {
      "type": "node",
      "id": 3211789974,
      "lat": 12.9341751,
      "lon": 77.6170762,
      "tags": {
        "amenity": "restaurant",
        "name": "California Burritos"
      }
    },
    {
      "type": "node",
      "id": 3417176625,
      "lat": 12.9311572,
      "lon": 77.6070088,
      "tags": {
        "addr:street": "Christ School Road",
        "amenity": "fast_food",
        "cuisine": "indian",
        "name": "Ande Ka Funda"
      }
    },
    {
      "type": "node",
      "id": 3490677257,
      "lat": 12.9320659,
      "lon": 77.6182289,
      "tags": {
        "amenity": "restaurant"
      }
    },
    {
      "type": "node",
      "id": 3490677458,
      "lat": 12.9319665,
      "lon": 77.6179178,
      "tags": {
        "brand": "Food Basics",
        "brand:wikidata": "Q5465300",
        "name": "Food Basics",
        "shop": "supermarket"
      }
    },
    {
      "type": "node",
      "id": 3510047245,
      "lat": 12.9371896,
      "lon": 77.6176798,
      "tags": {
        "addr:city": "Koramangala",
        "addr:housenumber": "Shop No. 1, No. 23 MIG",
        "addr:postcode": "560030",
        "addr:street": "KHB Colony, Next To Mangala Kalyana Mantapa 5th Block Adugodi Road, Koramangala 8th Block",
        "amenity": "cafe",
        "cuisine": "coffee_shop",
        "name": "Dyu Art Cafe",
        "opening_hours": "10:00-22:30"
      }
    },
    {
      "type": "node",
      "id": 3510053759,
      "lat": 12.9360891,
      "lon": 77.6159498,
      "tags": {
        "addr:city": "Koramangala",
        "addr:housenumber": "Next to Airtel Office",
        "addr:postcode": "560095",
        "addr:street": "80 Feet Road, 5th Block",
        "amenity": "cafe",
        "cuisine": "Juice_shop",
        "internet_access": "no",
        "name": "Juicy",
        "smoking": "outside"
      }
    },
    {
      "type": "node",
      "id": 3510063809,
      "lat": 12.9359584,
      "lon": 77.6162475,
      "tags": {
        "addr:city": "Koramangala",
        "addr:housenumber": "A/4, KHB Colony, Near Airtel Office",
        "addr:postcode": "560095",
        "addr:street": "5th Block, 80 Feet Road",
        "amenity": "restaurant",
        "cuisine": "chinese",
        "delivery": "yes",
        "name": "Momoz",
        "opening_hours": "12 Noon to 3:30 PM, 7 PM to 11 PM",
        "phone": "+91 80 41739353",
        "smoking": "outside"
      }
    },
    {
      "type": "node",
      "id": 3510063810,
      "lat": 12.9346905,
      "lon": 77.6159203,
      "tags": {
        "addr:city": "Koramangala",
        "addr:housenumber": "Near Hotel Empire International",
        "addr:postcode": "560095",
        "addr:street": "Koramangala 5th Block",
        "amenity": "cafe",
        "brand": "Chai Point",
        "brand:wikidata": "Q28173415",
        "cuisine": "coffee_shop",
        "name": "Chai Point",
        "takeaway": "yes"
      }
    },
    {
      "type": "node",
      "id": 3510063811,
      "lat": 12.9344396,
      "lon": 77.6160195,
      "tags": {
        "addr:city": "Koramangala",
        "addr:housenumber": "Shop No.105, Ground Floor, 5th Floor",
        "addr:postcode": "560095",
        "addr:street": "1A Cross Road, Koramangala Industrial Layout, Koramangala",
        "amenity": "restaurant",
        "brand": "California Pizza Kitchen",
        "brand:wikidata": "Q15109854",
        "cuisine": "pizza",
        "delivery": "yes",
        "name": "California Pizza Kitchen",
        "opening_hours": "11:00-23:00",
        "short_name": "CPK"
      }
    },
    {
      "type": "node",
      "id": 3510319613,
      "lat": 12.934947,
      "lon": 77.6139133,
      "tags": {
        "addr:street": "80 feet road",
        "name": "Inmark",
        "opening_hours": "Mo-Su 10:00 21:00",
        "shop": "clothes"
      }
    },
    {
      "type": "node",
      "id": 3520665041,
      "lat": 12.935925,
      "lon": 77.6061828,
      "tags": {
        "amenity": "bank",
        "atm": "yes",
        "brand": "South Indian Bank",
        "brand:wikidata": "Q2044973",
        "name": "South Indian Bank"
      }
    },
    {
      "type": "node",
      "id": 3535507108,
      "lat": 12.9374554,
      "lon": 77.6195629,
      "tags": {
        "name": "Vasthraa",
        "shop": "clothes"
      }
    },
    {
      "type": "node",
      "id": 3709164638,
      "lat": 12.9335629,
      "lon": 77.614322,
      "tags": {
        "addr:street": "1st A Cross Road",
        "amenity": "fast_food",
        "cuisine": "cake;burger;grill;italian_pizza;breakfast;american;donut;international;hot_dog;french;coffee_shop;barbecue;ice_cream",
        "name": "Truffles",
        "name:en": "Truffles",
        "name:kn": "ಟ್ರಫಲ್ಸ್"
      }
    },
    {
      "type": "node",
      "id": 3924977249,
      "lat": 12.9302063,
      "lon": 77.6140996,
      "tags": {
        "addr:street": "Hosur road",
        "amenity": "cafe",
        "name": "Seekers Cafe",
        "wheelchair": "yes"
      }
    },
    {
      "type": "node",
      "id": 3931929663,
      "lat": 12.9341108,
      "lon": 77.6099202,
      "tags": {
        "addr:city": "Bengaluru",
        "addr:country": "IN",
        "addr:housenumber": "16",
        "addr:postcode": "560029",
        "addr:street": "Tavarekere Main Road",
        "amenity": "coworking_space",
        "email": "ikpeden@ikpknowledgepark.com",
        "leisure": "hackerspace",
        "name": "IKP EDEN",
        "name:kn": "ಐಕೆಪಿ-ಇಡೆನ್",
        "phone": "+91-8790672424",
        "source": "https://ikpeden.com",
        "website": "https://ikpeden.com/"
      }
    },
    {
      "type": "node",
      "id": 4117092201,
      "lat": 12.9310409,
      "lon": 77.6081159,
      "tags": {
        "amenity": "restaurant",
        "cuisine": "indian",
        "name": "Jose Mess",
        "source": "gps"
      }
    },
    {
      "type": "node",
      "id": 4191956493,
      "lat": 12.9416121,
      "lon": 77.6172504,
      "tags": {
        "amenity": "atm",
        "opening_hours": "24/7"
      }
    },
    {
      "type": "node",
      "id": 4191976704,
      "lat": 12.9411724,
      "lon": 77.6172571,
      "tags": {
        "amenity": "fast_food",
        "cuisine": "indian;south_indian",
        "name": "Ksheera Sagar",
        "takeaway": "yes"
      }
    },
    {
      "type": "node",
      "id": 4191976705,
      "lat": 12.940484,
      "lon": 77.6183624,
      "tags": {
        "amenity": "atm"
      }
    },
    {
      "type": "node",
      "id": 4192020689,
      "lat": 12.9414316,
      "lon": 77.6174359,
      "tags": {
        "amenity": "atm",
        "opening_hours": "24/7"
      }
    },
    {
      "type": "node",
      "id": 4307156988,
      "lat": 12.9355231,
      "lon": 77.6189666,
      "tags": {
        "addr:city": "Bangalore",
        "addr:housenumber": "272",
        "addr:street": "17th D Main Rd, 5th Block, Koramangala",
        "amenity": "cafe",
        "cuisine": "regional;odia",
        "internet_access": "no",
        "name": "Pahala Rasagola shop",
        "note": "Odia sweets like Rasagola (Rosogola/Rasgulla), Chenapodo (Chenapoda) and other snacks like Dahibara-Aludomo (aludum), Singoda (singada/samosa), Alu-chopo (alu chop).",
        "opening_hours": "Mo-Su 07:30-21:00",
        "smoking": "no"
      }
    },
    {
      "type": "node",
      "id": 4319280082,
      "lat": 12.9364231,
      "lon": 77.6151528,
      "tags": {
        "amenity": "restaurant",
        "name": "Maria's Goan Kitchen"
      }
    },
    {
      "type": "node",
      "id": 4392117494,
      "lat": 12.9371939,
      "lon": 77.6198328,
      "tags": {
        "amenity": "restaurant",
        "name": "Upsouth",
        "name:en": "Upsouth"
      }
    },
    {
      "type": "node",
      "id": 4392117495,
      "lat": 12.9365073,
      "lon": 77.6197375,
      "tags": {
        "amenity": "restaurant",
        "name": "Swadist",
        "name:en": "Swadist"
      }
    },
    {
      "type": "node",
      "id": 4392272590,
      "lat": 12.9359986,
      "lon": 77.619624,
      "tags": {
        "name": "Sree Uday Sweets",
        "name:en": "Sree Uday Sweets",
        "shop": "confectionery"
      }
    },
    {
      "type": "node",
      "id": 4392379191,
      "lat": 12.9360738,
      "lon": 77.6194476,
      "tags": {
        "name": "Bangalore Horticulture Fruits and Vegetables",
        "name:en": "Bangalore Horticulture Fruits and Vegetables",
        "shop": "greengrocer"
      }
    },
    {
      "type": "node",
      "id": 4392383890,
      "lat": 12.9368104,
      "lon": 77.6206345,
      "tags": {
        "addr:district": "Bengaluru Urban",
        "addr:full": "No.58, 5th Cross, 18th Main Dhanlakshmi Bank Building",
        "addr:postcode": "560095",
        "addr:state": "Karnataka",
        "addr:subdistrict": "Koramangala",
        "amenity": "hospital",
        "email": "contactus@apollocradle.com",
        "healthcare:speciality": "Maternity Services; Birthing Fertility and IVF; Woman's Health; Women Health Checks; Procedures; Cancer Evaluation; Children's Health; New Born Screening; Vaccination",
        "name": "Apollo Cradle",
        "name:en": "Apollo Cradle",
        "operator:type": "private",
        "source": "OpenGovernmentData",
        "website": "https://www.apollocradle.com/"
      }
    },
    {
      "type": "node",
      "id": 4392383891,
      "lat": 12.9367073,
      "lon": 77.6206344,
      "tags": {
        "amenity": "atm",
        "operator": "Dhanalakshmi Bank"
      }
    },
    {
      "type": "node",
      "id": 4411070791,
      "lat": 12.9353544,
      "lon": 77.6210999,
      "tags": {
        "addr:housenumber": "No.15",
        "addr:postcode": "560095",
        "addr:street": "17th B Main Road",
        "name": "William Penn Private Limited (Pendels)",
        "name:de": "William Penn Private Limited (Schreibwarengeschäft)",
        "name:en": "William Penn Private Limited (Pendels)",
        "opening_hours": "Mo-Sa 09:00-18:00",
        "phone": "+91 80 4053 5555",
        "shop": "gift",
        "website": "https://www.williampenn.net/"
      }
    },
    {
      "type": "node",
      "id": 4443240833,
      "lat": 12.9350497,
      "lon": 77.6114296,
      "tags": {
        "addr:city": "Bangalore",
        "addr:housename": "Forum Mall",
        "addr:housenumber": "forum mall",
        "addr:postcode": "560095",
        "addr:street": "Hosur Road",
        "description": "It is a fashion store",
        "level": "1",
        "name": "Chumbak",
        "opening_hours": "00:00-12:00",
        "phone": "6747589579869",
        "shop": "clothes",
        "website": "https://www.chumbak.com/"
      }
    },
    {
      "type": "node",
      "id": 4447010431,
      "lat": 12.9409856,
      "lon": 77.6085956,
      "tags": {
        "addr:city": "Bangalore",
        "addr:postcode": "560030",
        "addr:street": "Hosur Rd, Koramangala",
        "amenity": "restaurant",
        "cuisine": "regional",
        "delivery": "yes",
        "name": "Ambur Biriyani Center",
        "opening_hours": "09:00-22:00",
        "phone": "090080 10360",
        "smoking": "no",
        "takeaway": "yes"
      }
    },
    {
      "type": "node",
      "id": 4447013603,
      "lat": 12.943229,
      "lon": 77.6091984,
      "tags": {
        "addr:city": "Bangalore",
        "addr:postcode": "560030",
        "addr:street": "Basavanna Temple Road, AK Colony, Adugodi",
        "amenity": "restaurant",
        "cuisine": "regional",
        "delivery": "yes",
        "name": "Sri Sathya Sai Food Corner",
        "opening_hours": "08:00-12:00, 17:00-21:00",
        "phone": "098862 35580",
        "smoking": "no",
        "takeaway": "yes"
      }
    },
    {
      "type": "node",
      "id": 4447017355,
      "lat": 12.939969,
      "lon": 77.6091099,
      "tags": {
        "addr:city": "Bangalore",
        "addr:postcode": "560030",
        "addr:street": "Adugodi, Hosur Road",
        "amenity": "restaurant",
        "cuisine": "regional",
        "delivery": "yes",
        "name": "Taj Food Point",
        "phone": "9008010360",
        "smoking": "no",
        "takeaway": "yes"
      }
    },
    {
      "type": "node",
      "id": 4447020567,
      "lat": 12.9424172,
      "lon": 77.6079042,
      "tags": {
        "addr:city": "Bangalore",
        "addr:postcode": "560030",
        "addr:street": "Hosur Rd, Nanjappa Layout, Adugodi",
        "amenity": "restaurant",
        "cuisine": "regional",
        "delivery": "yes",
        "name": "D3 multi cusine",
        "smoking": "no",
        "takeaway": "yes"
      }
    },
    {
      "type": "node",
      "id": 4447075922,
      "lat": 12.9414978,
      "lon": 77.6087872,
      "tags": {
        "addr:city": "Bangalore",
        "addr:housenumber": "31",
        "addr:postcode": "560030",
        "addr:street": "AK Colony, Adugodi",
        "amenity": "restaurant",
        "cuisine": "regional",
        "delivery": "yes",
        "name": "Shri Ganesh Upahar",
        "opening_hours": "10:00-22:00",
        "phone": "9448619303",
        "smoking": "no",
        "takeaway": "yes"
      }
    },
    {
      "type": "node",
      "id": 4447078886,
      "lat": 12.9415138,
      "lon": 77.6083283,
      "tags": {
        "addr:city": "Bangalore",
        "addr:housenumber": "43/41",
        "addr:postcode": "560030",
        "addr:street": "Laksar Hosur Road, Adugodi",
        "amenity": "restaurant",
        "cuisine": "regional",
        "delivery": "yes",
        "name": "iLounge Cafe",
        "phone": "080 6456 7738",
        "smoking": "no",
        "takeaway": "yes",
        "website": "www.ioungecafe.asia.com"
      }
    },
    {
      "type": "node",
      "id": 4447087999,
      "lat": 12.9353208,
      "lon": 77.6205504,
      "tags": {
        "addr:city": "Bangalore",
        "addr:district": "Bengaluru Urban",
        "addr:full": "435, Acura Hospital, 18th Main, 6th Block, Koramangala",
        "addr:housenumber": "105",
        "addr:postcode": "560095",
        "addr:state": "Karnataka",
        "addr:street": "5th Block, 17th C Main Road, KHB Colony , Koramangala",
        "amenity": "hospital",
        "name": "Acura Speciality Hospital",
        "operator:type": "private",
        "phone": "+9180 4110 5151",
        "source": "OpenGovernmentData",
        "website": "https://www.seekandsource.com/acurahospital"
      }
    },
    {
      "type": "node",
      "id": 4447127002,
      "lat": 12.9338298,
      "lon": 77.6199371,
      "tags": {
        "addr:city": "Bangalore",
        "addr:housenumber": "143",
        "addr:postcode": "560034",
        "addr:street": "4th Floor, 1st Cross, 5th Block, Koramangala",
        "amenity": "clinic",
        "healthcare": "clinic",
        "name": "Nova IVI Fertility",
        "phone": "080673 66244",
        "source": "justdial",
        "website": "https://novaivifertility.com/"
      }
    },
    {
      "type": "node",
      "id": 4457715091,
      "lat": 12.9301342,
      "lon": 77.6181807,
      "tags": {
        "amenity": "atm",
        "brand": "South Indian Bank",
        "brand:wikidata": "Q2044973",
        "name": "South Indian Bank",
        "opening_hours": "24/7",
        "operator": "South Indian Bank",
        "operator:wikidata": "Q2044973"
      }
    },
    {
      "type": "node",
      "id": 4457715192,
      "lat": 12.9301613,
      "lon": 77.618137,
      "tags": {
        "amenity": "atm",
        "brand": "Bank of Baroda",
        "brand:wikidata": "Q2003797",
        "name": "Bank of Baroda",
        "opening_hours": "24/7",
        "operator": "Bank of Baroda",
        "operator:wikidata": "Q2003797"
      }
    },
    {
      "type": "node",
      "id": 4457765089,
      "lat": 12.9304666,
      "lon": 77.6183064,
      "tags": {
        "amenity": "atm",
        "brand": "Federal Bank",
        "brand:wikidata": "Q2044983",
        "name": "Federal Bank",
        "opening_hours": "24/7",
        "operator": "Federal Bank",
        "operator:wikidata": "Q2044983"
      }
    },
    {
      "type": "node",
      "id": 4487272388,
      "lat": 12.9350706,
      "lon": 77.6116041,
      "tags": {
        "addr:city": "Bangalore",
        "addr:housename": "Forum Mall",
        "addr:housenumber": "Chikku Lakshmaiah Layout",
        "addr:postcode": "560029",
        "addr:street": "Hosur Road",
        "brand": "Adidas",
        "brand:wikidata": "Q3895",
        "name": "Adidas",
        "name:kn": "ಅಡಿಡಾಸ್",
        "shop": "sports",
        "website": "https://shop.adidas.co.in/"
      }
    },
    {
      "type": "node",
      "id": 4487302966,
      "lat": 12.934232,
      "lon": 77.6111578,
      "tags": {
        "addr:city": "Bangalore",
        "addr:housename": "Forum Mall",
        "addr:postcode": "560029",
        "addr:street": "Hosur Road",
        "brand": "Puma",
        "brand:wikidata": "Q157064",
        "name": "Puma",
        "phone": "088422 76825",
        "shop": "clothes",
        "website": "https://in.puma.com/"
      }
    },
    {
      "type": "node",
      "id": 4487307801,
      "lat": 12.9343711,
      "lon": 77.6109597,
      "tags": {
        "addr:city": "Bangalore",
        "addr:housename": "Forum Mall",
        "addr:housenumber": "17",
        "addr:postcode": "560029",
        "addr:street": "Hosur Road",
        "brand": "Nike",
        "brand:wikidata": "Q483915",
        "level": "0",
        "name": "Nike",
        "name:kn": "ನೈಕ್",
        "phone": "080 2206 7664",
        "shop": "clothes",
        "website": "https://nike.ssiplgroup.com/"
      }
    },
    {
      "type": "node",
      "id": 4487927689,
      "lat": 12.9364072,
      "lon": 77.621398,
      "tags": {
        "addr:city": "Bangalore",
        "addr:full": "Ground Floor, ARD Complex, 5th Cross, 6th Block, 5th Block, Koramangala",
        "addr:housenumber": "99",
        "addr:postcode": "560095",
        "addr:street": "5th Cross Road",
        "name": "Proline Fitness",
        "opening_hours": "10:30-21:00",
        "phone": "080 4164 3592",
        "shop": "sports",
        "website": "prolinefitness.in"
      }
    },
    {
      "type": "node",
      "id": 4488383692,
      "lat": 12.9349788,
      "lon": 77.6081457,
      "tags": {
        "addr:city": "Bangalore",
        "addr:housenumber": "No.39",
        "addr:postcode": "560029",
        "addr:street": "Ground Floor Krishna Nagar Industrial Layout, Dharmaram College Post Hosur Road, Koramangala, Venkateshwara Layout, Suddagunte Palya",
        "leisure": "sports_centre",
        "name": "360° workout",
        "opening_hours": "6:00-22:00",
        "phone": "8040992414",
        "sport": "gymnastics",
        "website": "360workout.in"
      }
    },
    {
      "type": "node",
      "id": 4489307261,
      "lat": 12.9362197,
      "lon": 77.6149088,
      "tags": {
        "addr:city": "Bengaluru",
        "addr:housenumber": "#64, #351",
        "addr:postcode": "560095",
        "addr:street": "1st B Main, 7th Block, Opposite HDFC Bank, 1st B Main Road, Koramangala 7th Block, Koramangala 5th Block, Koramangala, 7th Block, Koramangala,",
        "name": "Sports Planet",
        "opening_hours": "10:00-21:00",
        "phone": "+919900454672",
        "shop": "sports"
      }
    },
    {
      "type": "node",
      "id": 4489711293,
      "lat": 12.9354439,
      "lon": 77.6140945,
      "tags": {
        "addr:city": "Bengaluru",
        "addr:housenumber": "118",
        "addr:postcode": "560095",
        "addr:street": "Ganapathi Temple Road,7th Block, Koramangala",
        "leisure": "sports_centre",
        "name": "Bodycraft Academy",
        "opening_hours": "09:00-22:00",
        "phone": "9972388844",
        "sport": "gymnastics",
        "website": "https://www.bodycraft.co.in/"
      }
    },
    {
      "type": "node",
      "id": 4489715133,
      "lat": 12.9358801,
      "lon": 77.6214605,
      "tags": {
        "addr:city": "Bangalore",
        "addr:housenumber": "34,",
        "addr:postcode": "560095",
        "addr:street": "60 Feet Rd, KHB Block Koramangala, 5th Block, Koramangala, Bengaluru, Karnataka",
        "leisure": "sports_centre",
        "name": "Cutz and Curvz Fitness",
        "opening_hours": "5:30-22:00",
        "phone": "093422 60772"
      }
    },
    {
      "type": "node",
      "id": 4489768760,
      "lat": 12.9367017,
      "lon": 77.6104595,
      "tags": {
        "addr:city": "Bangalore",
        "addr:postcode": "560034",
        "addr:street": "H M Vibha Towers, Adugodi Road, Koramangala",
        "brand": "Star Bazaar",
        "brand:wikidata": "Q124175958",
        "name": "Star Bazaar",
        "organic": "yes",
        "phone": "80-25535222",
        "shop": "supermarket",
        "website": "https://starbazaarindia.com/",
        "wheelchair": "yes"
      }
    },
    {
      "type": "node",
      "id": 4489798323,
      "lat": 12.9343332,
      "lon": 77.616638,
      "tags": {
        "addr:city": "Bangalore",
        "addr:housenumber": "126",
        "addr:postcode": "560095",
        "addr:street": "1st A Cross Rd, 5th Block, Koramangala, Bengaluru,",
        "leisure": "sports_centre",
        "name": "Contours Women's Fitness Studio Kormangala",
        "opening_hours": "6:00-21:00",
        "phone": "8042068635",
        "sport": "gymnasium",
        "website": "https://contours.in/"
      }
    },
    {
      "type": "node",
      "id": 4489799742,
      "lat": 12.9348205,
      "lon": 77.6169334,
      "tags": {
        "addr:city": "Bangalore",
        "addr:housenumber": "106 MIG, KHB Colony, 5 Block",
        "addr:postcode": "560095",
        "addr:street": "Koramangala., 5th Block, Koramangala",
        "name": "The Beautique Women's Salon and Spa",
        "opening_hours": "10:00-20:30",
        "phone": "9845184473",
        "shop": "beauty",
        "website": "www.beautique.in"
      }
    },
    {
      "type": "node",
      "id": 4489848317,
      "lat": 12.9344426,
      "lon": 77.6130436,
      "tags": {
        "addr:city": "Bengaluru",
        "addr:housenumber": "No.15,16,17, Raheja Arcade",
        "addr:postcode": "560095",
        "addr:street": "80 Feet Road kormangala",
        "name": "Margarets Hair Dressing",
        "opening_hours": "8:30-19:30",
        "phone": "080-39557096",
        "shop": "beauty",
        "website": "www.margaretsbeautyparlour.co.in"
      }
    },
    {
      "type": "node",
      "id": 4489855612,
      "lat": 12.937152,
      "lon": 77.6195215,
      "tags": {
        "addr:city": "Bangalore",
        "addr:housenumber": "5th block, Door no 152, 1st floor",
        "addr:postcode": "560095",
        "addr:street": ", R.K complex, K.H.B colony",
        "name": "Green Trends - Unisex Hair & Style Salon",
        "opening_hours": "08:00-20:00",
        "phone": "080 4162 8777",
        "shop": "beauty",
        "website": "https://www.mygreentrends.in/"
      }
    },
    {
      "type": "node",
      "id": 4489931170,
      "lat": 12.9365166,
      "lon": 77.6212519,
      "tags": {
        "addr:city": "Bangalore",
        "addr:housenumber": "34, 60",
        "addr:postcode": "560034",
        "addr:street": "Feet Rd, KHB Block Koramangala, 5th Block, Koramangala",
        "leisure": "sports_centre",
        "name": "Cutz and Curvz Fitness",
        "opening_hours": "05:30-22:00",
        "phone": "093422 60772",
        "sport": "gymnastics",
        "website": "https://www.weddingplz.com/"
      }
    },
    {
      "type": "node",
      "id": 4489951082,
      "lat": 12.9402498,
      "lon": 77.6176946,
      "tags": {
        "addr:city": "Bengaluru",
        "addr:postcode": "560095",
        "addr:street": "1st B Cross Street, Koramangala 8th Block, Nanjappa Reddy Layout, Koramangala, Koramangala 8th Block, Koramangala, Karnataka",
        "name": "Shobas Herbal Beauty Parlour",
        "opening_hours": "10:00-20:00",
        "phone": "080 2553 6344",
        "shop": "beauty"
      }
    },
    {
      "type": "node",
      "id": 4490259040,
      "lat": 12.9350103,
      "lon": 77.6089671,
      "tags": {
        "addr:city": "Bangalore",
        "addr:housenumber": "9",
        "addr:street": "No. 5, 2nd floor, Krishna Nagar, Hosur Road, Above Royal Enfield Showroom, Bangalore, India, Venkateshwara Layout, Suddagunte Palya",
        "leisure": "sports_centre",
        "name": "Fuerza - The Fitness Squad",
        "opening_hours": "5:30-22:30",
        "phone": "9916983338",
        "sport": "gymnasium",
        "website": "fuerza.co.in"
      }
    },
    {
      "type": "node",
      "id": 4490297125,
      "lat": 12.9364773,
      "lon": 77.6150929,
      "tags": {
        "addr:city": "Bengaluru",
        "addr:housenumber": "62",
        "addr:postcode": "560095",
        "addr:street": "Near HDFC Bank, Opp. Corner House, 1st Main Rd, 7th Block, Koramangala,",
        "leisure": "sports_centre",
        "name": "O2 The Fitness",
        "opening_hours": "5:30-21:00",
        "phone": "8041742020",
        "sport": "gymnasium",
        "website": "https://www.o2thefitness.com"
      }
    },
    {
      "type": "node",
      "id": 4506805592,
      "lat": 12.936323,
      "lon": 77.6148832,
      "tags": {
        "addr:postcode": "560084",
        "amenity": "cafe",
        "cuisine": "burger;sandwich;ice_cream;cake;coffee_shop;donut;pancake;pizza;italian_pizza;mexican;breakfast;tea;italian",
        "diet:vegetarian": "yes",
        "internet_access": "wlan",
        "name": "The Chocolate Room",
        "name:en": "The Chocolate Room",
        "name:hi": "The Chocolate Room",
        "opening_hours": "Mo-Su 11:00-23:00"
      }
    },
    {
      "type": "node",
      "id": 4531744796,
      "lat": 12.9345661,
      "lon": 77.6116372,
      "tags": {
        "addr:city": "Bangalore",
        "addr:housename": "Forum Mall",
        "addr:housenumber": "345",
        "addr:postcode": "560095",
        "addr:street": "Hosur Road",
        "brand": "Pantaloons",
        "brand:wikidata": "Q7131643",
        "level": "3",
        "name": "Pantaloons",
        "opening_hours": "09:00-20:00, Su closed",
        "phone": "+91 9886921292",
        "shop": "clothes"
      }
    },
    {
      "type": "node",
      "id": 4563420692,
      "lat": 12.9308168,
      "lon": 77.6180438,
      "tags": {
        "addr:street": "Sarjapur Road",
        "name": "St.John's Utility Complex",
        "name:en": "St.John's Utility Complex",
        "name:hi": "St.John's Utility Complex",
        "opening_hours": "Mo-Su 08:00-00:00",
        "shop": "bakery"
      }
    },
    {
      "type": "node",
      "id": 4566357889,
      "lat": 12.9338103,
      "lon": 77.6199863,
      "tags": {
        "name": "William Penn",
        "name:en": "William Penn",
        "shop": "stationery"
      }
    },
    {
      "type": "node",
      "id": 4635147132,
      "lat": 12.9348261,
      "lon": 77.6158067,
      "tags": {
        "amenity": "restaurant",
        "name": "Karama restaurant"
      }
    },
    {
      "type": "node",
      "id": 4636026837,
      "lat": 12.9411745,
      "lon": 77.6157544,
      "tags": {
        "leisure": "playground"
      }
    },
    {
      "type": "node",
      "id": 4716734089,
      "lat": 12.9365279,
      "lon": 77.6148198,
      "tags": {
        "amenity": "fast_food",
        "name": "Sri Balaji Dosa Corner",
        "name:en": "Sri Balaji Dosa Corner"
      }
    },
    {
      "type": "node",
      "id": 4716734389,
      "lat": 12.9365231,
      "lon": 77.6148638,
      "tags": {
        "name": "Hairkraft",
        "name:en": "Hairkraft",
        "shop": "hairdresser"
      }
    },
    {
      "type": "node",
      "id": 4723511153,
      "lat": 12.9351549,
      "lon": 77.6134782,
      "tags": {
        "addr:city": "Bengaluru",
        "addr:housenumber": "115",
        "addr:postcode": "560094",
        "addr:street": "80 Feet Road",
        "amenity": "fast_food",
        "brand": "Krispy Kreme",
        "brand:wikidata": "Q1192805",
        "cuisine": "donut",
        "name": "Krispy Kreme",
        "takeaway": "yes",
        "website": "https://krispykremeindia.in/"
      }
    },
    {
      "type": "node",
      "id": 4733642622,
      "lat": 12.9356426,
      "lon": 77.6087092,
      "tags": {
        "addr:housenumber": "8",
        "addr:postcode": "560029",
        "addr:street": "Hosur Road",
        "amenity": "cafe",
        "cuisine": "italian_pizza",
        "email": "destreetcafe@mail.com",
        "name": "De Street Cafe",
        "name:en": "De Street Cafe",
        "opening_hours": "24/7"
      }
    },
    {
      "type": "node",
      "id": 4805856923,
      "lat": 12.9306558,
      "lon": 77.6179004,
      "tags": {
        "name": "St Johns opticians and hearing aid",
        "name:en": "St Johns opticians and hearing aid",
        "shop": "optician"
      }
    },
    {
      "type": "node",
      "id": 4805858621,
      "lat": 12.9307586,
      "lon": 77.6179314,
      "tags": {
        "amenity": "fast_food",
        "name": "ಬೇಕ್ಸ್ ಅಂಡ್ ಶೇಕ್ಸ್",
        "name:en": "Bakes and Shakes",
        "name:kn": "ಬೇಕ್ಸ್ ಅಂಡ್ ಶೇಕ್ಸ್"
      }
    },
    {
      "type": "node",
      "id": 4805858622,
      "lat": 12.9310212,
      "lon": 77.6180799,
      "tags": {
        "amenity": "fast_food",
        "name": "ಆಶೀರ್ವಾದ್ ರೆಸ್ಟೋರಂಟ್ - ಸಸ್ಯಾಹಾರಿ",
        "name:en": "Aashirwaad Restaurant - Pure Veg",
        "name:kn": "ಆಶೀರ್ವಾದ್ ರೆಸ್ಟೋರಂಟ್ - ಸಸ್ಯಾಹಾರಿ"
      }
    },
    {
      "type": "node",
      "id": 4805862921,
      "lat": 12.9308485,
      "lon": 77.6179719,
      "tags": {
        "amenity": "fast_food",
        "name": "ಕೋಸ್ಟಲ್ ಬೇ - ಮಾಂಸಾಹಾರಿ",
        "name:en": "Coastal Bay - Non Veg",
        "name:kn": "ಕೋಸ್ಟಲ್ ಬೇ - ಮಾಂಸಾಹಾರಿ"
      }
    },
    {
      "type": "node",
      "id": 4849094826,
      "lat": 12.935018,
      "lon": 77.6088654,
      "tags": {
        "amenity": "restaurant",
        "name": "Punjabi by Nature",
        "name:en": "Punjabi by Nature"
      }
    },
    {
      "type": "node",
      "id": 4849094827,
      "lat": 12.9354982,
      "lon": 77.6089438,
      "tags": {
        "amenity": "fast_food",
        "name": "Sip N Snacks",
        "name:en": "Sip N Snacks"
      }
    },
    {
      "type": "node",
      "id": 4849094828,
      "lat": 12.9353203,
      "lon": 77.6090576,
      "tags": {
        "amenity": "fast_food",
        "name": "Salads and Grill's",
        "name:en": "Salads and Grill's"
      }
    },
    {
      "type": "node",
      "id": 4849108025,
      "lat": 12.9361427,
      "lon": 77.6070292,
      "tags": {
        "name": "Kanpur shoe mela",
        "name:en": "Kanpur shoe mela",
        "shop": "shoes"
      }
    },
    {
      "type": "node",
      "id": 4849108622,
      "lat": 12.9345853,
      "lon": 77.6095622,
      "tags": {
        "check_date": "2023-11-23",
        "name": "Nexa",
        "name:en": "NEXA",
        "shop": "car"
      }
    },
    {
      "type": "node",
      "id": 4849108623,
      "lat": 12.9355551,
      "lon": 77.608926,
      "tags": {
        "amenity": "restaurant",
        "name": "The Royal Pride",
        "name:en": "The Royal Pride"
      }
    },
    {
      "type": "node",
      "id": 4849108624,
      "lat": 12.9352983,
      "lon": 77.6091104,
      "tags": {
        "amenity": "atm",
        "brand": "South Indian Bank",
        "brand:wikidata": "Q2044973",
        "name": "South Indian Bank",
        "operator": "South Indian Bank",
        "operator:wikidata": "Q2044973"
      }
    },
    {
      "type": "node",
      "id": 4849108921,
      "lat": 12.9353982,
      "lon": 77.6090182,
      "tags": {
        "amenity": "restaurant",
        "name": "Forum Park",
        "name:en": "Forum Park"
      }
    },
    {
      "type": "node",
      "id": 4851635491,
      "lat": 12.9353584,
      "lon": 77.6089853,
      "tags": {
        "name": "Laboratory Traders",
        "shop": "yes"
      }
    },
    {
      "type": "node",
      "id": 4851635492,
      "lat": 12.935344,
      "lon": 77.6090148,
      "tags": {
        "name": "Star Electronics",
        "shop": "electronics"
      }
    },
    {
      "type": "node",
      "id": 4851635493,
      "lat": 12.9348245,
      "lon": 77.6092786,
      "tags": {
        "brand": "Kohler",
        "brand:wikidata": "Q6426036",
        "name": "Kohler",
        "shop": "bathroom_furnishing"
      }
    },
    {
      "type": "node",
      "id": 4851635494,
      "lat": 12.9349422,
      "lon": 77.6091848,
      "tags": {
        "name": "Kajoria",
        "shop": "yes"
      }
    },
    {
      "type": "node",
      "id": 4851635497,
      "lat": 12.9347845,
      "lon": 77.60897,
      "tags": {
        "name": "@home",
        "shop": "furniture"
      }
    },
    {
      "type": "node",
      "id": 5029379018,
      "lat": 12.9338158,
      "lon": 77.6198404,
      "tags": {
        "addr:city": "Bangalore",
        "addr:housenumber": "#475",
        "addr:postcode": "560095",
        "addr:street": "1st A Cross Road",
        "amenity": "ice_cream",
        "name": "Berrylicious",
        "outdoor_seating": "no"
      }
    },
    {
      "type": "node",
      "id": 5029379019,
      "lat": 12.9345723,
      "lon": 77.6199541,
      "tags": {
        "addr:city": "Bangalore",
        "addr:housenumber": "#462",
        "addr:postcode": "560095",
        "addr:street": "17 C Cross",
        "amenity": "restaurant",
        "name": "Naati Manae",
        "outdoor_seating": "no"
      }
    },
    {
      "type": "node",
      "id": 5033066528,
      "lat": 12.9355095,
      "lon": 77.6187649,
      "tags": {
        "name": "Sanoop Provision Stores",
        "shop": "convenience"
      }
    },
    {
      "type": "node",
      "id": 5036138595,
      "lat": 12.9334968,
      "lon": 77.6212815,
      "tags": {
        "amenity": "cafe",
        "name": "Java City"
      }
    },
    {
      "type": "node",
      "id": 5395290524,
      "lat": 12.9376028,
      "lon": 77.6108891,
      "tags": {
        "name": "Budweiser",
        "shop": "beverages"
      }
    },
    {
      "type": "node",
      "id": 5396222724,
      "lat": 12.9340385,
      "lon": 77.6122448,
      "tags": {
        "amenity": "bank",
        "atm": "yes",
        "brand": "UCO Bank",
        "brand:wikidata": "Q2005310",
        "name": "UCO Bank"
      }
    },
    {
      "type": "node",
      "id": 5402224037,
      "lat": 12.9417037,
      "lon": 77.6085642,
      "tags": {
        "amenity": "bank",
        "atm": "yes",
        "brand": "Bank of Baroda",
        "brand:wikidata": "Q2003797",
        "name": "Bank of Baroda",
        "name:kn": "ಬ್ಯಾಂಕ್ ಆಫ್ ಬರೋಡ",
        "operator": "Bank of Baroda"
      }
    },
    {
      "type": "node",
      "id": 5402302823,
      "lat": 12.9365495,
      "lon": 77.6113287,
      "tags": {
        "amenity": "toilets"
      }
    },
    {
      "type": "node",
      "id": 5597795472,
      "lat": 12.9353554,
      "lon": 77.6075043,
      "tags": {
        "amenity": "fast_food",
        "name": "Just Shawarma",
        "smoking": "separated",
        "takeaway": "yes"
      }
    },
    {
      "type": "node",
      "id": 5915195078,
      "lat": 12.9350324,
      "lon": 77.6089973,
      "tags": {
        "amenity": "pub",
        "contact:instagram": "theweekly.blr",
        "name": "The Weekly - Brewhouse & Kitchen"
      }
    },
    {
      "type": "node",
      "id": 5915195079,
      "lat": 12.9358056,
      "lon": 77.6084211,
      "tags": {
        "amenity": "pub",
        "name": "Avon Bar And Kitchen"
      }
    },
    {
      "type": "node",
      "id": 5915195080,
      "lat": 12.9352198,
      "lon": 77.6093401,
      "tags": {
        "amenity": "pub",
        "name": "Johnny Fox RestoBar & Pub"
      }
    },
    {
      "type": "node",
      "id": 5915195081,
      "lat": 12.9343841,
      "lon": 77.6127469,
      "tags": {
        "amenity": "pub",
        "name": "Harry's Bar And Cafe"
      }
    },
    {
      "type": "node",
      "id": 5915195084,
      "lat": 12.9347403,
      "lon": 77.6126656,
      "tags": {
        "amenity": "cafe",
        "name": "MDP Coffee shop"
      }
    },
    {
      "type": "node",
      "id": 5915195085,
      "lat": 12.9351887,
      "lon": 77.6135481,
      "tags": {
        "amenity": "pub",
        "name": "Fenny's Lounge & Kitchen"
      }
    },
    {
      "type": "node",
      "id": 5915195086,
      "lat": 12.935327,
      "lon": 77.6137071,
      "tags": {
        "leisure": "bowling_alley",
        "name": "Blue Moustache"
      }
    },
    {
      "type": "node",
      "id": 5915195087,
      "lat": 12.9355957,
      "lon": 77.6141769,
      "tags": {
        "amenity": "pub",
        "name": "Koramangala Social"
      }
    },
    {
      "type": "node",
      "id": 5915195088,
      "lat": 12.9353889,
      "lon": 77.6157423,
      "tags": {
        "name": "Mi store",
        "shop": "mobile_phone"
      }
    },
    {
      "type": "node",
      "id": 5915195090,
      "lat": 12.9360677,
      "lon": 77.6160036,
      "tags": {
        "amenity": "restaurant",
        "contact:instagram": "bameys.blr",
        "cuisine": "nepali",
        "name": "Bamey’s Restro Cafe",
        "website": "https://bameys.co/"
      }
    },
    {
      "type": "node",
      "id": 5915195092,
      "lat": 12.9362087,
      "lon": 77.616947,
      "tags": {
        "amenity": "hospital",
        "healthcare": "hospital",
        "name": "Aparna Hospital"
      }
    },
    {
      "type": "node",
      "id": 5915195093,
      "lat": 12.936315,
      "lon": 77.6178107,
      "tags": {
        "amenity": "place_of_worship",
        "name": "Sri Prasanna Ganapathi Temple",
        "religion": "hindu"
      }
    },
    {
      "type": "node",
      "id": 5915195094,
      "lat": 12.9368246,
      "lon": 77.6182965,
      "tags": {
        "branch": "Koramangala",
        "brand": "Van Heusen",
        "brand:wikidata": "Q67551865",
        "clothes": "men",
        "name": "Van Heusen",
        "shop": "clothes"
      }
    },
    {
      "type": "node",
      "id": 5915247698,
      "lat": 12.9325612,
      "lon": 77.6138214,
      "tags": {
        "amenity": "pub",
        "name": "Crawl Street"
      }
    },
    {
      "type": "node",
      "id": 5915247699,
      "lat": 12.9328538,
      "lon": 77.6140068,
      "tags": {
        "amenity": "pub",
        "name": "Indigo XP"
      }
    },
    {
      "type": "node",
      "id": 5915247700,
      "lat": 12.9329338,
      "lon": 77.6145578,
      "tags": {
        "amenity": "cafe",
        "name": "Tarbouche"
      }
    },
    {
      "type": "node",
      "id": 5915247701,
      "lat": 12.9329953,
      "lon": 77.6146513,
      "tags": {
        "amenity": "pub",
        "name": "Gilly's Resto Bar"
      }
    },
    {
      "type": "node",
      "id": 5915247702,
      "lat": 12.9342494,
      "lon": 77.6160805,
      "tags": {
        "amenity": "pub",
        "name": "Sherlocks Pub"
      }
    },
    {
      "type": "node",
      "id": 5915247703,
      "lat": 12.9339697,
      "lon": 77.6154797,
      "tags": {
        "amenity": "pub",
        "name": "Happy Brew"
      }
    },
    {
      "type": "node",
      "id": 5915247704,
      "lat": 12.9341449,
      "lon": 77.6155709,
      "tags": {
        "amenity": "pub",
        "name": "Tilt Gastro Lounge"
      }
    },
    {
      "type": "node",
      "id": 5915247705,
      "lat": 12.9344559,
      "lon": 77.6159732,
      "tags": {
        "amenity": "pub",
        "name": "The Boozy Griffin"
      }
    },
    {
      "type": "node",
      "id": 5915409395,
      "lat": 12.9353243,
      "lon": 77.6146417,
      "tags": {
        "amenity": "bank",
        "name": "The National Co-operative Bank"
      }
    },
    {
      "type": "node",
      "id": 5915409397,
      "lat": 12.9348404,
      "lon": 77.6162173,
      "tags": {
        "amenity": "restaurant",
        "name": "House of Commons"
      }
    },
    {
      "type": "node",
      "id": 5915409398,
      "lat": 12.9337996,
      "lon": 77.6159147,
      "tags": {
        "name": "Tibet Mall",
        "shop": "mall"
      }
    },
    {
      "type": "node",
      "id": 5915409399,
      "lat": 12.9342331,
      "lon": 77.6164224,
      "tags": {
        "name": "Spice Girls",
        "shop": "yes"
      }
    },
    {
      "type": "node",
      "id": 5915409400,
      "lat": 12.9341641,
      "lon": 77.6166913,
      "tags": {
        "amenity": "restaurant",
        "name": "Juice Junction"
      }
    },
    {
      "type": "node",
      "id": 5915409401,
      "lat": 12.9339899,
      "lon": 77.6170683,
      "tags": {
        "amenity": "cafe",
        "name": "Hatti Kaapi"
      }
    },
    {
      "type": "node",
      "id": 5915409403,
      "lat": 12.9334898,
      "lon": 77.6184132,
      "tags": {
        "amenity": "place_of_worship",
        "name": "Ganesha Temple",
        "name:kn": "ಗಣೇಶ ದೇವಸ್ಥಾನ",
        "religion": "hindu"
      }
    },
    {
      "type": "node",
      "id": 5915409404,
      "lat": 12.9335157,
      "lon": 77.6184839,
      "tags": {
        "amenity": "place_of_worship",
        "name": "Subramanya Temple",
        "name:kn": "ಸುಬ್ರಮಣ್ಯ ದೇವಸ್ಥಾನ",
        "religion": "hindu"
      }
    },
    {
      "type": "node",
      "id": 5915409405,
      "lat": 12.9335312,
      "lon": 77.6186326,
      "tags": {
        "amenity": "community_centre",
        "name": "PMR Hall"
      }
    },
    {
      "type": "node",
      "id": 5915409411,
      "lat": 12.9338175,
      "lon": 77.6201615,
      "tags": {
        "amenity": "hospital",
        "healthcare": "hospital",
        "name": "Apollo Spectra Hospitals"
      }
    },
    {
      "type": "node",
      "id": 5964485617,
      "lat": 12.9360198,
      "lon": 77.6153871,
      "tags": {
        "check_date": "2023-10-28",
        "contact:website": "https://sangeethamobiles.com",
        "name": "Sangeetha",
        "shop": "mobile_phone"
      }
    },
    {
      "type": "node",
      "id": 5964485846,
      "lat": 12.9354291,
      "lon": 77.6139861,
      "tags": {
        "name": "Woodlands",
        "shop": "shoes"
      }
    },
    {
      "type": "node",
      "id": 5983489045,
      "lat": 12.9296155,
      "lon": 77.615275,
      "tags": {
        "amenity": "clock",
        "check_date": "2021-12-04",
        "support": "pole"
      }
    },
    {
      "type": "node",
      "id": 6067927667,
      "lat": 12.9354619,
      "lon": 77.6150961,
      "tags": {
        "addr:housenumber": "8",
        "addr:street": "80 Feet Road",
        "amenity": "restaurant",
        "cuisine": "asian",
        "level": "0;1",
        "name": "Xoox Brewmill",
        "smoking": "isolated",
        "toilets": "yes"
      }
    },
    {
      "type": "node",
      "id": 6140714666,
      "lat": 12.9353589,
      "lon": 77.6083993,
      "tags": {
        "amenity": "fast_food",
        "brand": "Domino's",
        "brand:ks": "ڈومینوز",
        "brand:pa": "ਡੋਮੀਨੋਜ਼",
        "brand:ur": "ڈومینوز",
        "brand:wikidata": "Q839466",
        "brand:wikipedia": "en:Domino's Pizza",
        "check_date": "2023-11-23",
        "cuisine": "pizza",
        "name": "Domino's",
        "name:kn": "ಡಾಮಿನೋಸ್",
        "name:ks": "ڈومینوز",
        "name:pa": "ਡੋਮੀਨੋਜ਼",
        "name:ur": "ڈومینوز",
        "takeaway": "yes"
      }
    },
    {
      "type": "node",
      "id": 6348845055,
      "lat": 12.9411408,
      "lon": 77.6120178,
      "tags": {
        "addr:place": "Adugodi",
        "amenity": "school",
        "isced:level": "2",
        "name": "GMPS Marp Adugodi",
        "name:kn": "ಸರ್ಕಾರಿ ಮಾದರಿ ಪ್ರಾಥಮಿಕ ಶಾಲೆ ಅಡುಗೊಡಿ",
        "operator": "Department of Education",
        "school": "primary"
      }
    },
    {
      "type": "node",
      "id": 6348871070,
      "lat": 12.942581,
      "lon": 77.6089966,
      "tags": {
        "amenity": "school",
        "isced:level": "2",
        "name": "Long Memorial HPS",
        "name:kn": "ಲಾಂಗ್ ಮೆಮೋರಿಯಲ್ ಹಿರಿಯ ಪ್ರಾಥಮಿಕ ಶಾಲೆ",
        "operator": "Department of Education",
        "school": "primary"
      }
    },
    {
      "type": "node",
      "id": 6348880655,
      "lat": 12.9436634,
      "lon": 77.6189383,
      "tags": {
        "addr:place": "Koramangala",
        "amenity": "school",
        "isced:level": "2",
        "name": "GMPS Koramangala",
        "name:kn": "ಸರ್ಕಾರಿ ಮಾದರಿ ಪ್ರಾಥಮಿಕ ಶಾಲೆ ಕೋರಮಂಗಲ",
        "operator": "Department of Primary and Secondary Education",
        "operator:type": "government",
        "operator:wikidata": "Q111467381",
        "school": "primary"
      }
    },
    {
      "type": "node",
      "id": 6348906937,
      "lat": 12.9386863,
      "lon": 77.6072286,
      "tags": {
        "addr:place": "Dairy Colony",
        "amenity": "school",
        "isced:level": "2",
        "name": "GHPS Dairy Colony",
        "name:kn": "ಸರ್ಕಾರಿ ಹಿರಿಯ ಪ್ರಾಥಮಿಕ ಶಾಲೆ ಡೈರಿ ಕಾಲೋನಿ",
        "operator": "Department of Education",
        "school": "primary"
      }
    },
    {
      "type": "node",
      "id": 6348945619,
      "lat": 12.9305952,
      "lon": 77.6083105,
      "tags": {
        "addr:place": "Suddagunte Palya",
        "amenity": "school",
        "isced:level": "2",
        "name": "GHPS Suddagunte Palya",
        "name:kn": "ಸರ್ಕಾರಿ ಹಿರಿಯ ಪ್ರಾಥಮಿಕ ಶಾಲೆ ಸುದ್ದಗುಂಟೆ ಪಾಳ್ಯ",
        "operator": "Department of Primary and Secondary Education",
        "operator:type": "government",
        "operator:wikidata": "Q111467381",
        "school": "primary"
      }
    },
    {
      "type": "node",
      "id": 6349591431,
      "lat": 12.93132,
      "lon": 77.6088007,
      "tags": {
        "addr:place": "S G Palya",
        "amenity": "school",
        "isced:level": "2",
        "name": "Francescon S G Palya",
        "name:kn": "ಫ್ರಾನ್ಸೆಸ್ಕಾನ್ ಎಸ್.ಜಿ ಪಾಳ್ಯ",
        "operator": "Pvt. Aided",
        "school": "primary"
      }
    },
    {
      "type": "node",
      "id": 6515046862,
      "lat": 12.9325375,
      "lon": 77.613431,
      "tags": {
        "amenity": "toilets",
        "fee": "yes"
      }
    },
    {
      "type": "node",
      "id": 6536296450,
      "lat": 12.9356984,
      "lon": 77.6166336,
      "tags": {
        "addr:place": "Koramangala",
        "amenity": "school",
        "isced:level": "3",
        "name": "Holy Saint Eng Sch Koramangala",
        "name:kn": "ಹೋಲಿ ಸೇಂಟ್‌ ಆಂಗ್ಲ ಶಾಲೆ ಕೋರಮಂಗಲ",
        "operator": "Private Un-Aided",
        "school": "Higher Secondary"
      }
    },
    {
      "type": "node",
      "id": 6536303016,
      "lat": 12.935468,
      "lon": 77.6172102,
      "tags": {
        "addr:place": "Koramangala",
        "amenity": "school",
        "isced:level": "3",
        "name": "Neena HPS Kormangala",
        "name:kn": "ನೀನಾ ಹಿರಿಯ ಪ್ರಾಥಮಿಕ ಶಾಲೆ ಕೋರಮಂಗಲ",
        "operator": "Private Un-Aided",
        "school": "Higher Secondary"
      }
    },
    {
      "type": "node",
      "id": 6536304794,
      "lat": 12.9349547,
      "lon": 77.6217464,
      "tags": {
        "addr:place": "Koramangala",
        "amenity": "school",
        "isced:level": "3",
        "name": "Babymona EHPS Koramangala",
        "name:kn": "ಬೇಬಿ ಮೋನಾ ಆಂಗ್ಲ ಹಿರಿಯ ಪ್ರಾಥಮಿಕ ಶಾಲೆ ಕೋರಮಂಗಲ",
        "operator": "Private Un-Aided",
        "school": "Higher Secondary"
      }
    },
    {
      "type": "node",
      "id": 6536306636,
      "lat": 12.9399342,
      "lon": 77.6157295,
      "tags": {
        "addr:place": "Koramangala",
        "amenity": "school",
        "isced:level": "3",
        "name": "Lawrence High School Koramangala",
        "name:kn": "ಲಾರೆನ್ಸ್ ಪ್ರೌಢಶಾಲೆ ಕೋರಮಂಗಲ",
        "operator": "Private Un-Aided",
        "school": "Higher Secondary"
      }
    },
    {
      "type": "node",
      "id": 6536310217,
      "lat": 12.9412382,
      "lon": 77.6187265,
      "tags": {
        "addr:place": "Koramangala",
        "amenity": "school",
        "isced:level": "3",
        "name": "Mes HS, Koramangala",
        "name:kn": "ಎಂ.ಇ.ಎಸ್. ಪ್ರೌಢಶಾಲೆ,ಕೋರಮಂಗಲ",
        "operator": "Private Un-Aided",
        "school": "Higher Secondary"
      }
    },
    {
      "type": "node",
      "id": 6536678805,
      "lat": 12.9393229,
      "lon": 77.6076781,
      "tags": {
        "addr:place": "Lakkasandra",
        "amenity": "school",
        "isced:level": "1",
        "name": "GLPS (U) Adugodi, Lakkasandra",
        "name:kn": "ಸರ್ಕಾರಿ ಕಿರಿಯ ಪ್ರಾಥಮಿಕ ಶಾಲೆ(ಉರ್ದು)ಆಡುಗೋಡಿ, ಲಕ್ಕಸಂದ್ರ",
        "operator": "Department of Primary and Secondary Education",
        "operator:type": "government",
        "operator:wikidata": "Q111467381",
        "school": "primary"
      }
    },
    {
      "type": "node",
      "id": 6536731028,
      "lat": 12.9299028,
      "lon": 77.6071901,
      "tags": {
        "addr:place": "Lakkasandra",
        "amenity": "school",
        "isced:level": "3",
        "name": "Genises Public School, Lakkasandra",
        "name:kn": "ಜೆನೆಸಿಸ್ ಪಬ್ಲಿಕ್ ಶಾಲೆ, ಲಕ್ಕಸಂದ್ರ",
        "operator": "Pvt. Unaided",
        "school": "Higher Secondary"
      }
    },
    {
      "type": "node",
      "id": 6937841407,
      "lat": 12.9418644,
      "lon": 77.6163161,
      "tags": {
        "addr:district": "Bengaluru Urban",
        "addr:full": "#639,2-C Main, 8Th Block,Koramangala",
        "addr:postcode": "560095",
        "addr:state": "Karnataka",
        "amenity": "dentist",
        "name": "J P Dental Clinic",
        "source": "OpenGovernmentData"
      }
    },
    {
      "type": "node",
      "id": 6938704941,
      "lat": 12.941871,
      "lon": 77.6081394,
      "tags": {
        "addr:district": "Bengaluru Urban",
        "addr:full": "No.44/22,Srinivasa Complex, Najjappa Layout,Hosur Road, Adugodi",
        "addr:postcode": "560030",
        "addr:state": "Karnataka",
        "amenity": "clinic",
        "name": "Sankalpa Nursing Home",
        "source": "OpenGovernmentData"
      }
    },
    {
      "type": "node",
      "id": 6938759412,
      "lat": 12.9339097,
      "lon": 77.620208,
      "tags": {
        "addr:district": "Bengaluru Urban",
        "addr:full": "Opus, 143, 1st Cross, 5th Block, Koramangala",
        "addr:postcode": "560034",
        "addr:state": "Karnataka",
        "amenity": "hospital",
        "email": "info@novamedicalcenters.com",
        "healthcare:speciality": "multi speciality",
        "name": "Nova Specialty Surgery Center, Koramangala",
        "operator:type": "private",
        "source": "OpenGovernmentData",
        "website": "www.novaspecialtysurgery.com"
      }
    },
    {
      "type": "node",
      "id": 6944525392,
      "lat": 12.9356703,
      "lon": 77.6079905,
      "tags": {
        "addr:district": "Bengaluru Urban",
        "addr:full": "#11, Krishna Nagar Industrial Layout, D.R.C.Post,Near Christ College,Hosur",
        "addr:postcode": "560029",
        "addr:state": "Karnataka",
        "amenity": "hospital",
        "name": "Prasad Eye Hospital, Bengaluru Urban",
        "source": "OpenGovernmentData"
      }
    },
    {
      "type": "node",
      "id": 7035335585,
      "lat": 12.9317986,
      "lon": 77.6101387,
      "tags": {
        "name": "Look Smart",
        "shop": "clothes"
      }
    },
    {
      "type": "node",
      "id": 7035372785,
      "lat": 12.9314962,
      "lon": 77.609838,
      "tags": {
        "amenity": "restaurant",
        "cuisine": "chinese;chicken;asian;indian",
        "name": "BNG Dining",
        "phone": "7259452829"
      }
    },
    {
      "type": "node",
      "id": 7043991786,
      "lat": 12.9418442,
      "lon": 77.6085286,
      "tags": {
        "name": "Anugraha Textiles",
        "shop": "clothes"
      }
    },
    {
      "type": "node",
      "id": 7178597282,
      "lat": 12.9407064,
      "lon": 77.6201677,
      "tags": {
        "addr:city": "Bengaluru",
        "addr:country": "IN",
        "addr:hamlet": "Koramangala 8tth Block",
        "addr:housenumber": "583",
        "addr:postcode": "560095",
        "addr:street": "80 Feet Road",
        "email": "hello@sourhouse.in",
        "name": "Sour House",
        "opening_hours": "Mo-Sa 10:00-19:00",
        "shop": "bakery",
        "website": "https://www.sourhouse.in"
      }
    },
    {
      "type": "node",
      "id": 7293804847,
      "lat": 12.9329058,
      "lon": 77.6134662,
      "tags": {
        "amenity": "restaurant",
        "cuisine": "indian",
        "name": "Taste of Rampur"
      }
    },
    {
      "type": "node",
      "id": 7293804877,
      "lat": 12.9333764,
      "lon": 77.6125275,
      "tags": {
        "addr:city": "Bengaluru",
        "addr:housename": "Salarpuria Towers",
        "addr:housenumber": "22",
        "addr:postcode": "560095",
        "addr:street": "Hosur Road",
        "addr:suburb": "Koramangala",
        "amenity": "coworking_space",
        "fee": "yes",
        "name": "315 Work Avenue",
        "office": "coworking",
        "operator": "315 Work Avenue",
        "website": "https://www.315workavenue.com"
      }
    },
    {
      "type": "node",
      "id": 7293817023,
      "lat": 12.9364493,
      "lon": 77.6107974,
      "tags": {
        "addr:city": "Bengaluru",
        "addr:country": "IN",
        "addr:hamlet": "Adugodi",
        "addr:housename": "Prestige Cube",
        "addr:housenumber": "26",
        "addr:postcode": "560029",
        "addr:street": "Hosur Road",
        "addr:suburb": "Koramangala",
        "amenity": "coworking_space",
        "brand": "WeWork",
        "brand:wikidata": "Q19995004",
        "fee": "yes",
        "name": "WeWork",
        "office": "coworking",
        "operator": "WeWork",
        "website": "https://www.wework.com/buildings/prestige-cube--bengaluru--Karnataka"
      }
    },
    {
      "type": "node",
      "id": 7293817077,
      "lat": 12.9388556,
      "lon": 77.6094228,
      "tags": {
        "addr:city": "Bangalore",
        "addr:postcode": "560030",
        "addr:street": "Hosur Road",
        "name": "Levi Strauss",
        "name:kn": "ಲೆವಿ ಸ್ಟ್ರೌಸ್",
        "shop": "clothes"
      }
    },
    {
      "type": "node",
      "id": 7293817086,
      "lat": 12.9433728,
      "lon": 77.6079865,
      "tags": {
        "amenity": "restaurant",
        "name": "Biriyani Paradise"
      }
    },
    {
      "type": "node",
      "id": 7528043670,
      "lat": 12.9338933,
      "lon": 77.6059367,
      "tags": {
        "leisure": "pitch",
        "name": "Gourmet Basketball Court",
        "sport": "basketball"
      }
    },
    {
      "type": "node",
      "id": 7528069001,
      "lat": 12.934076,
      "lon": 77.6056306,
      "tags": {
        "amenity": "restaurant",
        "name": "Just Bake",
        "name:kn": "ಜಸ್ಟ್ ಬೇಕ್"
      }
    },
    {
      "type": "node",
      "id": 7528069002,
      "lat": 12.9337727,
      "lon": 77.6047348,
      "tags": {
        "amenity": "restaurant",
        "name": "Raja Rajeswari Hotel"
      }
    },
    {
      "type": "node",
      "id": 7579924764,
      "lat": 12.928795,
      "lon": 77.609192,
      "tags": {
        "addr:district": "Bengaluru Urban",
        "addr:full": "Thavarekere Main Road, Bengaluru",
        "addr:postcode": "560029",
        "addr:state": "Karnataka",
        "amenity": "dentist",
        "name": "Vinayaka Sai Dental Clinic",
        "source": "Local Knowledge"
      }
    },
    {
      "type": "node",
      "id": 7913548757,
      "lat": 12.9331848,
      "lon": 77.6139332,
      "tags": {
        "amenity": "bar",
        "name": "Smoky The sheesha lounge"
      }
    },
    {
      "type": "node",
      "id": 8428403226,
      "lat": 12.9305937,
      "lon": 77.6186159,
      "tags": {
        "amenity": "hospital",
        "healthcare": "hospital",
        "name": "St. Johns hospital Emergency ward"
      }
    },
    {
      "type": "node",
      "id": 8645272055,
      "lat": 12.9333892,
      "lon": 77.6156339,
      "tags": {
        "amenity": "cafe",
        "currency:BCH": "yes",
        "name": "Candy Cloud",
        "website": "https://candycloudfactory.in"
      }
    },
    {
      "type": "node",
      "id": 9654389704,
      "lat": 12.9332287,
      "lon": 77.6146102,
      "tags": {
        "amenity": "restaurant",
        "name": "Sharief Bhai"
      }
    },
    {
      "type": "node",
      "id": 10068956723,
      "lat": 12.9344223,
      "lon": 77.6161086,
      "tags": {
        "amenity": "fast_food",
        "cuisine": "ice_cream;juice",
        "name": "Frozen Bottle"
      }
    },
    {
      "type": "node",
      "id": 10068956760,
      "lat": 12.9338428,
      "lon": 77.6197996,
      "tags": {
        "amenity": "cafe",
        "name": "What's In a Name"
      }
    },
    {
      "type": "node",
      "id": 10068956762,
      "lat": 12.9334588,
      "lon": 77.6210465,
      "tags": {
        "amenity": "restaurant",
        "cuisine": "regional;indian",
        "diet:vegetarian": "yes",
        "name": "Moplah's",
        "outdoor_seating": "yes"
      }
    },
    {
      "type": "node",
      "id": 10068956763,
      "lat": 12.9334577,
      "lon": 77.6210123,
      "tags": {
        "amenity": "pub",
        "name": "Drunklings"
      }
    },
    {
      "type": "node",
      "id": 10068956764,
      "lat": 12.9334854,
      "lon": 77.6210369,
      "tags": {
        "amenity": "restaurant",
        "level": "1",
        "name": "Basaveshwar Khanavali",
        "outdoor_seating": "yes"
      }
    },
    {
      "type": "node",
      "id": 10068956765,
      "lat": 12.9334799,
      "lon": 77.621003,
      "tags": {
        "amenity": "restaurant",
        "cuisine": "indian;regional",
        "level": "0",
        "name": "Cafe Malabars",
        "outdoor_seating": "yes"
      }
    },
    {
      "type": "node",
      "id": 10068956816,
      "lat": 12.9388006,
      "lon": 77.6189318,
      "tags": {
        "amenity": "bureau_de_change",
        "name": "Thomas Cook"
      }
    },
    {
      "type": "node",
      "id": 10068956817,
      "lat": 12.9388287,
      "lon": 77.6189463,
      "tags": {
        "amenity": "bank",
        "brand": "IndusInd Bank",
        "brand:wikidata": "Q2040323",
        "name": "IndusInd Bank",
        "name:kn": "ಇಂಡಸ್ಇಂಡ್"
      }
    },
    {
      "type": "node",
      "id": 10068956818,
      "lat": 12.9392334,
      "lon": 77.6191718,
      "tags": {
        "brand": "Biba",
        "brand:wikidata": "Q4902942",
        "clothes": "women",
        "name": "Biba",
        "name:kn": "ಬೀಬ",
        "shop": "clothes"
      }
    },
    {
      "type": "node",
      "id": 10068956856,
      "lat": 12.9402915,
      "lon": 77.6198934,
      "tags": {
        "name": "Enrich",
        "shop": "beauty"
      }
    },
    {
      "type": "node",
      "id": 10068956857,
      "lat": 12.940527,
      "lon": 77.620013,
      "tags": {
        "name": "Heads up For Tails",
        "shop": "pet"
      }
    },
    {
      "type": "node",
      "id": 10068956858,
      "lat": 12.9404955,
      "lon": 77.6200555,
      "tags": {
        "amenity": "bank",
        "brand": "IDFC First Bank",
        "brand:wikidata": "Q22031467",
        "name": "IDFC First Bank"
      }
    },
    {
      "type": "node",
      "id": 10068956859,
      "lat": 12.9407577,
      "lon": 77.6202069,
      "tags": {
        "amenity": "cafe",
        "name": "Blue Tokai"
      }
    },
    {
      "type": "node",
      "id": 10220802211,
      "lat": 12.9342205,
      "lon": 77.617012,
      "tags": {
        "amenity": "cafe",
        "name": "Atta Galatta",
        "shop": "books"
      }
    },
    {
      "type": "node",
      "id": 10242924679,
      "lat": 12.9340268,
      "lon": 77.6141786,
      "tags": {
        "amenity": "recycling",
        "recycling_type": "centre"
      }
    },
    {
      "type": "node",
      "id": 10302658788,
      "lat": 12.9340979,
      "lon": 77.6158695,
      "tags": {
        "amenity": "pub",
        "name": "Tipsy Bull"
      }
    },
    {
      "type": "node",
      "id": 10302658789,
      "lat": 12.9364556,
      "lon": 77.6162683,
      "tags": {
        "amenity": "restaurant",
        "cuisine": "regional",
        "name": "Bombay Adda"
      }
    },
    {
      "type": "node",
      "id": 10302658790,
      "lat": 12.9362755,
      "lon": 77.6156791,
      "tags": {
        "amenity": "fast_food",
        "brand": "Popeyes",
        "brand:wikidata": "Q1330910",
        "brand:wikipedia": "en:Popeyes",
        "cuisine": "chicken",
        "delivery": "yes",
        "name": "Popeyes",
        "official_name": "Popeyes Louisiana Kitchen",
        "takeaway": "yes",
        "website": "https://www.popeyes.in/"
      }
    },
    {
      "type": "node",
      "id": 10571105440,
      "lat": 12.9335943,
      "lon": 77.6108114,
      "tags": {
        "addr:city": "Bengaluru",
        "addr:housenumber": "518",
        "addr:postcode": "560029",
        "addr:street": "1st Floor, Above Orion Suzuki Showroom, Bhoovanappa Layout, Hosur Road, Opposite to Forum, Kormangala",
        "name": "Orion Motors Riding Store",
        "opening_hours": "Mo-Su 09:30-20:00",
        "phone": "09902077488",
        "shop": "motorcycle"
      }
    },
    {
      "type": "node",
      "id": 10728008690,
      "lat": 12.9342717,
      "lon": 77.6167694,
      "tags": {
        "amenity": "restaurant",
        "delivery": "yes",
        "name": "Terra Bites",
        "takeaway": "yes"
      }
    },
    {
      "type": "node",
      "id": 10728008691,
      "lat": 12.9374388,
      "lon": 77.6176518,
      "tags": {
        "amenity": "restaurant",
        "cuisine": "regional",
        "name": "Malgudi Mylari Mane",
        "website": "http://www.malgudimylari.com/"
      }
    },
    {
      "type": "node",
      "id": 10728008694,
      "lat": 12.9337097,
      "lon": 77.6156616,
      "tags": {
        "amenity": "fast_food",
        "cuisine": "regional",
        "delivery": "yes",
        "name": "IDC",
        "takeaway": "yes"
      }
    },
    {
      "type": "node",
      "id": 10728008695,
      "lat": 12.9370153,
      "lon": 77.6202241,
      "tags": {
        "amenity": "restaurant",
        "cuisine": "regional",
        "diet:vegetarian": "only",
        "name": "Sendhoor Coffee",
        "opening_hours": "Mo-Su 10:00-22:00",
        "wheelchair": "no"
      }
    },
    {
      "type": "node",
      "id": 10740614251,
      "lat": 12.9379519,
      "lon": 77.6209361,
      "tags": {
        "amenity": "bicycle_parking"
      }
    },
    {
      "type": "node",
      "id": 10740621566,
      "lat": 12.9377909,
      "lon": 77.6215174,
      "tags": {
        "amenity": "toilets"
      }
    },
    {
      "type": "node",
      "id": 10740635747,
      "lat": 12.9402168,
      "lon": 77.6201873,
      "tags": {
        "amenity": "toilets",
        "male": "yes"
      }
    },
    {
      "type": "node",
      "id": 10741885471,
      "lat": 12.9383894,
      "lon": 77.6194835,
      "tags": {
        "amenity": "toilets",
        "female": "yes"
      }
    },
    {
      "type": "node",
      "id": 10743638825,
      "lat": 12.9334275,
      "lon": 77.6201698,
      "tags": {
        "amenity": "toilets",
        "unisex": "yes",
        "wheelchair": "no"
      }
    },
    {
      "type": "node",
      "id": 10797060928,
      "lat": 12.9351488,
      "lon": 77.621022,
      "tags": {
        "name": "Nandini Milk Parlour",
        "shop": "dairy"
      }
    },
    {
      "type": "node",
      "id": 10895986054,
      "lat": 12.9340175,
      "lon": 77.6073173,
      "tags": {
        "access": "yes",
        "amenity": "toilets",
        "fee": "yes",
        "operator": "ಬೃಹತ್ ಬೆಂಗಳೂರು ಮಹಾನಗರ ಪಾಲಿಕೆ",
        "operator:en": "Bruhat Bengaluru Mahanagara Palike",
        "operator:ka": "ಬೃಹತ್ ಬೆಂಗಳೂರು ಮಹಾನಗರ ಪಾಲಿಕೆ",
        "operator:short": "BBMP",
        "operator:wikidata": "Q4978693"
      }
    },
    {
      "type": "node",
      "id": 10895986055,
      "lat": 12.9357474,
      "lon": 77.6078135,
      "tags": {
        "name": "Tea Fusion",
        "shop": "tea"
      }
    },
    {
      "type": "node",
      "id": 10982294161,
      "lat": 12.9346756,
      "lon": 77.6115122,
      "tags": {
        "brand": "Birkenstock",
        "brand:wikidata": "Q648458",
        "name": "Birkenstock",
        "shop": "shoes"
      }
    },
    {
      "type": "node",
      "id": 11036798846,
      "lat": 12.9400467,
      "lon": 77.6179642,
      "tags": {
        "amenity": "pharmacy",
        "healthcare": "pharmacy",
        "name": "Roots Pharma"
      }
    },
    {
      "type": "node",
      "id": 11041699824,
      "lat": 12.9378285,
      "lon": 77.6177291,
      "tags": {
        "amenity": "restaurant",
        "name": "Cafe A Paris"
      }
    },
    {
      "type": "node",
      "id": 11096390254,
      "lat": 12.9354458,
      "lon": 77.6212553,
      "tags": {
        "amenity": "restaurant",
        "name": "Shyamji's Chole Bature"
      }
    },
    {
      "type": "node",
      "id": 11096390255,
      "lat": 12.9358867,
      "lon": 77.6214265,
      "tags": {
        "amenity": "restaurant",
        "name": "Chaska Bun"
      }
    },
    {
      "type": "node",
      "id": 11096390256,
      "lat": 12.9356285,
      "lon": 77.6210394,
      "tags": {
        "amenity": "cafe",
        "name": "Fresh Pressery"
      }
    },
    {
      "type": "node",
      "id": 11096390257,
      "lat": 12.9361263,
      "lon": 77.6216574,
      "tags": {
        "amenity": "pub",
        "name": "Zoey's"
      }
    },
    {
      "type": "node",
      "id": 11096390276,
      "lat": 12.933737,
      "lon": 77.6186634,
      "tags": {
        "amenity": "ice_cream",
        "name": "Gelato"
      }
    },
    {
      "type": "node",
      "id": 11096390281,
      "lat": 12.9337599,
      "lon": 77.6188292,
      "tags": {
        "amenity": "restaurant",
        "name": "Churoland"
      }
    },
    {
      "type": "node",
      "id": 11096390282,
      "lat": 12.9337958,
      "lon": 77.6189412,
      "tags": {
        "name": "Bookstop",
        "shop": "books"
      }
    },
    {
      "type": "node",
      "id": 11096390284,
      "lat": 12.9338788,
      "lon": 77.6175708,
      "tags": {
        "amenity": "fast_food",
        "name": "The Chatpata Affair",
        "website": "https://www.chatpataaffair.com/"
      }
    },
    {
      "type": "node",
      "id": 11096390285,
      "lat": 12.9341198,
      "lon": 77.6169953,
      "tags": {
        "amenity": "cafe",
        "name": "Jalandhar Sweets"
      }
    },
    {
      "type": "node",
      "id": 11096390286,
      "lat": 12.9340561,
      "lon": 77.6169989,
      "tags": {
        "amenity": "bank",
        "brand": "RBL Bank",
        "brand:wikidata": "Q13120398",
        "name": "RBL Bank"
      }
    },
    {
      "type": "node",
      "id": 11096390287,
      "lat": 12.934246,
      "lon": 77.6157354,
      "tags": {
        "amenity": "pub",
        "name": "Baadshah"
      }
    },
    {
      "type": "node",
      "id": 11096397009,
      "lat": 12.9340007,
      "lon": 77.6155974,
      "tags": {
        "amenity": "restaurant",
        "name": "Marcopolo"
      }
    },
    {
      "type": "node",
      "id": 11096397020,
      "lat": 12.933443,
      "lon": 77.6141153,
      "tags": {
        "amenity": "pub",
        "contact:instagram": "biergartenbangalore",
        "cuisine": "pizza;regional;sandwich;burger",
        "delivery": "no",
        "name": "Biergarten Brewery & Kitchen",
        "smoking": "isolated",
        "takeaway": "yes"
      }
    },
    {
      "type": "node",
      "id": 11096818319,
      "lat": 12.9337796,
      "lon": 77.6214948,
      "tags": {
        "amenity": "restaurant",
        "brand": "PizzaExpress",
        "brand:wikidata": "Q662845",
        "cuisine": "pizza",
        "name": "PizzaExpress"
      }
    },
    {
      "type": "node",
      "id": 11096818320,
      "lat": 12.9334333,
      "lon": 77.6216543,
      "tags": {
        "amenity": "fast_food",
        "cuisine": "pizza",
        "delivery": "only",
        "name": "Fermentation Stories",
        "takeaway": "only"
      }
    },
    {
      "type": "node",
      "id": 11153217748,
      "lat": 12.9309855,
      "lon": 77.6163564,
      "tags": {
        "access": "permissive",
        "amenity": "parking_entrance",
        "parking": "underground"
      }
    },
    {
      "type": "node",
      "id": 11153217753,
      "lat": 12.9311787,
      "lon": 77.6154529,
      "tags": {
        "access": "permissive",
        "amenity": "parking_entrance",
        "parking": "underground"
      }
    },
    {
      "type": "node",
      "id": 11153217757,
      "lat": 12.9319448,
      "lon": 77.6156962,
      "tags": {
        "access": "permissive",
        "amenity": "parking_entrance",
        "parking": "underground"
      }
    },
    {
      "type": "node",
      "id": 11155827456,
      "lat": 12.9326464,
      "lon": 77.6135955,
      "tags": {
        "addr:city": "Bangalore",
        "addr:street": "Hosur Road",
        "amenity": "fast_food",
        "brand": "Subway",
        "brand:wikidata": "Q244457",
        "cuisine": "sandwich",
        "name": "Subway",
        "takeaway": "yes"
      }
    },
    {
      "type": "node",
      "id": 11155827457,
      "lat": 12.9326637,
      "lon": 77.6139282,
      "tags": {
        "addr:city": "Bangalore",
        "addr:street": "Jyoti Nivas College Road",
        "amenity": "restaurant",
        "name": "Spiceguard"
      }
    },
    {
      "type": "node",
      "id": 11155827458,
      "lat": 12.9327438,
      "lon": 77.6138112,
      "tags": {
        "addr:city": "Bangalore",
        "addr:street": "Jyoti Nivas College Road",
        "brand": "Kalyan Jewellers",
        "brand:wikidata": "Q6354854",
        "name": "Kalyan Jewellers",
        "shop": "jewelry"
      }
    },
    {
      "type": "node",
      "id": 11189879642,
      "lat": 12.9335348,
      "lon": 77.6187775,
      "tags": {
        "addr:city": "Bangalore",
        "addr:district": "Bengaluru Urban",
        "addr:housenumber": "137",
        "addr:postcode": "560095",
        "addr:street": "1st Cross Rd, KHB Colony, 5th Block, Koramangala,",
        "amenity": "place_of_worship",
        "name": "Sri Krishna Temple",
        "religion": "hindu"
      }
    },
    {
      "type": "node",
      "id": 11257087553,
      "lat": 12.9346348,
      "lon": 77.6158725,
      "tags": {
        "amenity": "restaurant",
        "name": "Absolute Barbeque"
      }
    },
    {
      "type": "node",
      "id": 11257087558,
      "lat": 12.9346423,
      "lon": 77.6159362,
      "tags": {
        "amenity": "restaurant",
        "name": "Star Briyani"
      }
    },
    {
      "type": "node",
      "id": 11277885671,
      "lat": 12.936282,
      "lon": 77.6225938,
      "tags": {
        "amenity": "restaurant",
        "contact:instagram": "ferrara.in",
        "cuisine": "italian",
        "name": "Ferrara",
        "toilets": "yes"
      }
    },
    {
      "type": "node",
      "id": 11277885676,
      "lat": 12.935039,
      "lon": 77.6161015,
      "tags": {
        "amenity": "cafe",
        "contact:instagram": "avocadosandbrownies.in",
        "name": "Avocados and Brownies"
      }
    },
    {
      "type": "node",
      "id": 11283405698,
      "lat": 12.9322172,
      "lon": 77.6142725,
      "tags": {
        "amenity": "charging_station",
        "capacity": "4",
        "description": "EV charging point for OLA scooters",
        "man_made": "charge_point",
        "manufacturer": "Ola",
        "name": "Ola Hypercharger"
      }
    },
    {
      "type": "node",
      "id": 11295513142,
      "lat": 12.9359771,
      "lon": 77.615876,
      "tags": {
        "brand": "Samsung",
        "brand:wikidata": "Q20718",
        "name": "Samsung",
        "name:kn": "ಸ್ಯಾಮ್‌ಸಂಗ್",
        "shop": "electronics",
        "wheelchair": "no"
      }
    },
    {
      "type": "node",
      "id": 11295513143,
      "lat": 12.93639,
      "lon": 77.6160951,
      "tags": {
        "amenity": "atm",
        "brand": "HDFC Bank",
        "brand:wikidata": "Q631047",
        "operator": "HDFC Bank",
        "operator:wikidata": "Q631047",
        "short_name": "HDFC"
      }
    },
    {
      "type": "node",
      "id": 11295513144,
      "lat": 12.9363537,
      "lon": 77.6159818,
      "tags": {
        "amenity": "atm",
        "brand": "Federal Bank",
        "brand:wikidata": "Q2044983",
        "operator": "Federal Bank",
        "operator:wikidata": "Q2044983"
      }
    },
    {
      "type": "node",
      "id": 11295513145,
      "lat": 12.9361931,
      "lon": 77.6165834,
      "tags": {
        "brand": "Fastrack",
        "brand:wikidata": "Q28164179",
        "name": "Fastrack",
        "shop": "fashion_accessories"
      }
    },
    {
      "type": "node",
      "id": 11295513147,
      "lat": 12.9363489,
      "lon": 77.6159468,
      "tags": {
        "amenity": "bank",
        "branch": "Koramangala",
        "brand": "Federal Bank",
        "brand:wikidata": "Q2044983",
        "level": "0",
        "name": "Federal Bank"
      }
    },
    {
      "type": "node",
      "id": 11295513148,
      "lat": 12.9365034,
      "lon": 77.6166785,
      "tags": {
        "brand": "Van Heusen",
        "brand:wikidata": "Q67551865",
        "clothes": "women;men",
        "name": "Van Heusen",
        "shop": "clothes"
      }
    },
    {
      "type": "node",
      "id": 11295513149,
      "lat": 12.9364799,
      "lon": 77.6168107,
      "tags": {
        "amenity": "restaurant",
        "contact:mobile": "+91-81050-48582",
        "name": "Hoy Punjab"
      }
    },
    {
      "type": "node",
      "id": 11295513150,
      "lat": 12.9361248,
      "lon": 77.6162068,
      "tags": {
        "level": "0",
        "name": "Lenzkare.in",
        "shop": "fashion_accessories"
      }
    },
    {
      "type": "node",
      "id": 11295513151,
      "lat": 12.936149,
      "lon": 77.6162675,
      "tags": {
        "shop": "mobile_phone"
      }
    },
    {
      "type": "node",
      "id": 11295513152,
      "lat": 12.9360921,
      "lon": 77.6155067,
      "tags": {
        "amenity": "fast_food",
        "name": "Biryani Blues"
      }
    },
    {
      "type": "node",
      "id": 11295513153,
      "lat": 12.9364406,
      "lon": 77.6160982,
      "tags": {
        "contact:website": "https://iconicfitnessindia.com",
        "leisure": "fitness_centre",
        "name": "Iconic Fitness",
        "opening_hours": "24/7"
      }
    },
    {
      "type": "node",
      "id": 11295513154,
      "lat": 12.9364635,
      "lon": 77.6164085,
      "tags": {
        "brand": "Reliance Trends",
        "level": "0;1",
        "name": "Reliance Trends",
        "shop": "clothes"
      }
    },
    {
      "type": "node",
      "id": 11295513155,
      "lat": 12.9363255,
      "lon": 77.6158017,
      "tags": {
        "amenity": "restaurant",
        "name": "Babylonia"
      }
    },
    {
      "type": "node",
      "id": 11295513156,
      "lat": 12.9364148,
      "lon": 77.6161388,
      "tags": {
        "amenity": "bank",
        "branch": "Koramangala Main",
        "brand": "HDFC Bank",
        "brand:wikidata": "Q631047",
        "name": "HDFC Bank",
        "name:kn": "ಎಚ್ ಡಿ ಎಫ್ ಸಿ",
        "short_name": "HDFC"
      }
    },
    {
      "type": "node",
      "id": 11295513157,
      "lat": 12.9361751,
      "lon": 77.6163698,
      "tags": {
        "brand": "Titan",
        "name": "Titan",
        "shop": "watches"
      }
    },
    {
      "type": "node",
      "id": 11295513158,
      "lat": 12.9360998,
      "lon": 77.6160737,
      "tags": {
        "level": "1",
        "name": "Keychron India",
        "note": "Seller of mechanical keyboards",
        "opening_hours": "Mo-Su 10:30-21:00",
        "shop": "computer",
        "wheelchair": "no"
      }
    },
    {
      "type": "node",
      "id": 11295513159,
      "lat": 12.9362753,
      "lon": 77.6158391,
      "tags": {
        "amenity": "bar",
        "name": "Boom Rang"
      }
    },
    {
      "type": "node",
      "id": 11295622696,
      "lat": 12.9343273,
      "lon": 77.6127983,
      "tags": {
        "level": "0",
        "name": "Tonique",
        "shop": "alcohol",
        "wheelchair": "limited"
      }
    },
    {
      "type": "node",
      "id": 11295769113,
      "lat": 12.934646,
      "lon": 77.6125298,
      "tags": {
        "check_date": "2023-10-28",
        "name": "GIVA",
        "shop": "jewelry"
      }
    },
    {
      "type": "node",
      "id": 11371245252,
      "lat": 12.9349058,
      "lon": 77.609149,
      "tags": {
        "amenity": "bank",
        "brand": "Axis Bank",
        "brand:wikidata": "Q2003549",
        "check_date": "2023-11-23",
        "name": "Axis Bank"
      }
    },
    {
      "type": "node",
      "id": 11371245253,
      "lat": 12.9352891,
      "lon": 77.6085432,
      "tags": {
        "amenity": "fast_food",
        "brand": "Subway",
        "brand:wikidata": "Q244457",
        "check_date": "2023-11-23",
        "cuisine": "sandwich",
        "name": "Subway",
        "takeaway": "yes"
      }
    },
    {
      "type": "node",
      "id": 11371245254,
      "lat": 12.9357653,
      "lon": 77.6076728,
      "tags": {
        "check_date": "2023-11-23",
        "name": "Mahindra",
        "shop": "car"
      }
    },
    {
      "type": "node",
      "id": 11396013057,
      "lat": 12.9346055,
      "lon": 77.6168873,
      "tags": {
        "amenity": "restaurant",
        "name": "chai sutta bar"
      }
    },
    {
      "type": "node",
      "id": 11396013058,
      "lat": 12.9347048,
      "lon": 77.6167408,
      "tags": {
        "amenity": "restaurant",
        "name": "Smoky Docky"
      }
    },
    {
      "type": "node",
      "id": 11396013059,
      "lat": 12.9343315,
      "lon": 77.6170022,
      "tags": {
        "name": "Kunafa Story",
        "shop": "confectionery"
      }
    },
    {
      "type": "node",
      "id": 11396013060,
      "lat": 12.9350476,
      "lon": 77.613283,
      "tags": {
        "name": "Smoor",
        "shop": "confectionery"
      }
    },
    {
      "type": "node",
      "id": 11396038127,
      "lat": 12.9351034,
      "lon": 77.611625,
      "tags": {
        "addr:city": "Bangalore",
        "addr:housename": "Forum Mall",
        "addr:street": "Hosur Road",
        "amenity": "fast_food",
        "name": "Samosa Party",
        "takeaway": "yes",
        "wheelchair": "yes"
      }
    },
    {
      "type": "node",
      "id": 11396038128,
      "lat": 12.9342242,
      "lon": 77.6109653,
      "tags": {
        "addr:city": "Bangalore",
        "addr:housename": "Forum mall",
        "addr:street": "Hosur Road",
        "brand": "Apple Store",
        "brand:wikidata": "Q421253",
        "level": "0",
        "name": "Apple Store",
        "name:kn": "ಆಪೆಲ್",
        "operator": "iCare - Ample technologies pvt ltd",
        "phone": "+9108046999888",
        "shop": "electronics",
        "short_name": "Apple"
      }
    },
    {
      "type": "node",
      "id": 11398011945,
      "lat": 12.9390758,
      "lon": 77.6191481,
      "tags": {
        "amenity": "cafe",
        "branch": "Koramangala",
        "brand": "Chaayos",
        "brand:wikidata": "Q117235235",
        "cuisine": "tea",
        "name": "Chaayos",
        "takeaway": "yes"
      }
    },
    {
      "type": "node",
      "id": 11398011946,
      "lat": 12.9394664,
      "lon": 77.6193423,
      "tags": {
        "amenity": "cafe",
        "brand": "Tim Hortons",
        "brand:wikidata": "Q175106",
        "cuisine": "coffee_shop",
        "name": "Tim Hortons",
        "takeaway": "yes"
      }
    },
    {
      "type": "node",
      "id": 11398011947,
      "lat": 12.939072,
      "lon": 77.6180094,
      "tags": {
        "amenity": "restaurant",
        "name": "Bonito Bistro"
      }
    },
    {
      "type": "node",
      "id": 11398011948,
      "lat": 12.9390011,
      "lon": 77.6179869,
      "tags": {
        "amenity": "restaurant",
        "cuisine": "punjabi",
        "name": "Amritsari"
      }
    },
    {
      "type": "node",
      "id": 11398011949,
      "lat": 12.9393554,
      "lon": 77.6179771,
      "tags": {
        "amenity": "ice_cream",
        "name": "Omm Nom Nomm - Cloud kitchen",
        "outdoor_seating": "no"
      }
    },
    {
      "type": "node",
      "id": 11398011950,
      "lat": 12.9381608,
      "lon": 77.6177663,
      "tags": {
        "amenity": "restaurant",
        "cuisine": "rajasthani",
        "name": "Thar - Rajasthani Restaurant"
      }
    },
    {
      "type": "node",
      "id": 11398011951,
      "lat": 12.9384223,
      "lon": 77.6178277,
      "tags": {
        "amenity": "theatre",
        "name": "Medai - Bengaluru"
      }
    },
    {
      "type": "node",
      "id": 11463172582,
      "lat": 12.9301946,
      "lon": 77.6148303,
      "tags": {
        "amenity": "charging_station",
        "battery_swapping": "yes",
        "brand": "Honda e:swap"
      }
    },
    {
      "type": "node",
      "id": 11503032066,
      "lat": 12.9351187,
      "lon": 77.6088557,
      "tags": {
        "amenity": "pub",
        "check_date": "2024-01-09",
        "name": "The Weekly Brewhouse and Kitchen"
      }
    },
    {
      "type": "node",
      "id": 11519453582,
      "lat": 12.9367564,
      "lon": 77.6102968,
      "tags": {
        "brand": "Zudio",
        "brand:wikidata": "Q123375926",
        "name": "Zudio",
        "shop": "clothes"
      }
    },
    {
      "type": "node",
      "id": 11542703445,
      "lat": 12.9317092,
      "lon": 77.6168649,
      "tags": {
        "access": "permissive",
        "amenity": "parking_entrance",
        "parking": "underground"
      }
    },
    {
      "type": "node",
      "id": 11542817233,
      "lat": 12.9365027,
      "lon": 77.6070849,
      "tags": {
        "amenity": "fast_food",
        "brand": "Indira Canteen",
        "brand:wikidata": "Q36164828",
        "cuisine": "south_indian",
        "name": "Indira Canteen",
        "operator": "BBMP",
        "takeaway": "yes"
      }
    },
    {
      "type": "node",
      "id": 11542817290,
      "lat": 12.9362684,
      "lon": 77.6076884,
      "tags": {
        "amenity": "charging_station",
        "fee": "yes",
        "motorcar": "yes",
        "motorcycle": "yes"
      }
    },
    {
      "type": "node",
      "id": 11739418608,
      "lat": 12.9348122,
      "lon": 77.612678,
      "tags": {
        "amenity": "restaurant",
        "cuisine": "tibetan",
        "name": "Tibetan Mother's Kitchen"
      }
    },
    {
      "type": "node",
      "id": 11770650943,
      "lat": 12.9375779,
      "lon": 77.6191715,
      "tags": {
        "amenity": "restaurant",
        "check_date": "2024-03-29",
        "cuisine": "pizza",
        "name": "Fiero Pizza"
      }
    },
    {
      "type": "node",
      "id": 12020411693,
      "lat": 12.9371283,
      "lon": 77.6143212,
      "tags": {
        "addr:housenumber": "72",
        "addr:street": "4th cross 7th block",
        "amenity": "restaurant",
        "name": "God's own cafe",
        "opening_hours": "Tu-Su 12:30-15:00,19:30-22:00"
      }
    },
    {
      "type": "node",
      "id": 12030715034,
      "lat": 12.9336933,
      "lon": 77.622146,
      "tags": {
        "amenity": "restaurant",
        "check_date": "2024-07-03",
        "name": "Mahe Global Kitchen"
      }
    },
    {
      "type": "node",
      "id": 12041051350,
      "lat": 12.9326835,
      "lon": 77.6137535,
      "tags": {
        "amenity": "restaurant",
        "name": "Ayutthaya cuisines of India"
      }
    },
    {
      "type": "node",
      "id": 12041067182,
      "lat": 12.9328303,
      "lon": 77.6139704,
      "tags": {
        "amenity": "cafe",
        "name": "Kannu Ki Chai",
        "outdoor_seating": "yes"
      }
    },
    {
      "type": "node",
      "id": 12047387594,
      "lat": 12.934701,
      "lon": 77.6149856,
      "tags": {
        "name": "ABCD",
        "shop": "yes"
      }
    },
    {
      "type": "node",
      "id": 12061239754,
      "lat": 12.9340508,
      "lon": 77.6196507,
      "tags": {
        "amenity": "restaurant",
        "contact:instagram": "romadeliblr",
        "cuisine": "italian",
        "delivery": "yes",
        "name": "Roma Italian Deli",
        "takeaway": "yes"
      }
    },
    {
      "type": "node",
      "id": 12129019639,
      "lat": 12.9408358,
      "lon": 77.6202589,
      "tags": {
        "amenity": "cafe",
        "delivery": "no",
        "name": "The Peck",
        "takeaway": "yes"
      }
    },
    {
      "type": "node",
      "id": 12162201547,
      "lat": 12.9393477,
      "lon": 77.6192653,
      "tags": {
        "amenity": "restaurant",
        "check_date": "2024-09-07",
        "cuisine": "regional;indian",
        "name": "Dindigul Ponram",
        "payment:cash": "yes",
        "payment:credit_cards": "yes",
        "payment:debit_cards": "yes"
      }
    },
    {
      "type": "node",
      "id": 12164866909,
      "lat": 12.9370365,
      "lon": 77.6196493,
      "tags": {
        "amenity": "restaurant",
        "cuisine": "keralite",
        "level": "0",
        "name": "Kuttanad Restaurant",
        "tables": "10",
        "toilets": "yes",
        "wheelchair": "no"
      }
    },
    {
      "type": "node",
      "id": 12164866913,
      "lat": 12.9364604,
      "lon": 77.6166936,
      "tags": {
        "air_conditioning": "yes",
        "amenity": "restaurant",
        "level": "0",
        "name": "Saaras Café"
      }
    },
    {
      "type": "node",
      "id": 12178338601,
      "lat": 12.9331657,
      "lon": 77.6139128,
      "tags": {
        "addr:housenumber": "28",
        "addr:postcode": "560034",
        "addr:street": "4th B Cross Road",
        "amenity": "cafe",
        "cuisine": "coffee_shop;international",
        "name": "Gully Coffee Roasters",
        "opening_hours": "Mo-Su 11:00-23:00",
        "outdoor_seating": "yes",
        "website:menu": "https://gullycoffeeroasters.dotpe.in"
      }
    },
    {
      "type": "node",
      "id": 12247812583,
      "lat": 12.9393619,
      "lon": 77.6094321,
      "tags": {
        "amenity": "restaurant",
        "cuisine": "chinese"
      }
    },
    {
      "type": "node",
      "id": 12247812584,
      "lat": 12.9392802,
      "lon": 77.6094704,
      "tags": {
        "amenity": "bank",
        "atm": "yes",
        "brand": "ICICI Bank",
        "brand:wikidata": "Q1653258",
        "name": "ICICI Bank",
        "short_name": "ICICI"
      }
    },
    {
      "type": "node",
      "id": 12247812594,
      "lat": 12.9436081,
      "lon": 77.6078644,
      "tags": {
        "addr:postcode": "560030",
        "addr:street": "Hosur Road",
        "amenity": "fast_food",
        "brand": "Domino's",
        "brand:wikidata": "Q839466",
        "cuisine": "pizza",
        "name": "Domino's",
        "takeaway": "yes"
      }
    },
    {
      "type": "node",
      "id": 12247812595,
      "lat": 12.9433767,
      "lon": 77.6076357,
      "tags": {
        "addr:postcode": "560030",
        "addr:street": "Hosur Road",
        "amenity": "bank",
        "atm": "yes",
        "brand": "Axis Bank",
        "brand:wikidata": "Q2003549",
        "name": "Axis Bank"
      }
    },
    {
      "type": "node",
      "id": 12247812596,
      "lat": 12.9433633,
      "lon": 77.6075854,
      "tags": {
        "addr:postcode": "560030",
        "addr:street": "Hosur Road",
        "amenity": "bank",
        "atm": "yes",
        "brand": "State Bank of India",
        "brand:wikidata": "Q1340361",
        "level": "1",
        "name": "State Bank of India",
        "short_name": "SBI"
      }
    },
    {
      "type": "node",
      "id": 12285338810,
      "lat": 12.9355353,
      "lon": 77.6082518,
      "tags": {
        "amenity": "fast_food",
        "brand": "Domino's",
        "brand:wikidata": "Q839466",
        "check_date": "2024-10-23",
        "cuisine": "pizza",
        "name": "Domino's",
        "takeaway": "yes"
      }
    },
    {
      "type": "node",
      "id": 12285338811,
      "lat": 12.9333391,
      "lon": 77.6110527,
      "tags": {
        "amenity": "atm",
        "brand": "HDFC Bank",
        "brand:wikidata": "Q631047",
        "check_date": "2024-10-23",
        "operator": "HDFC Bank",
        "operator:wikidata": "Q631047",
        "short_name": "HDFC"
      }
    },
    {
      "type": "node",
      "id": 12285558792,
      "lat": 12.9335112,
      "lon": 77.6203365,
      "tags": {
        "amenity": "ice_cream",
        "name": "Milano"
      }
    },
    {
      "type": "node",
      "id": 12285662757,
      "lat": 12.9337934,
      "lon": 77.6197867,
      "tags": {
        "amenity": "restaurant",
        "name": "Cafe Amudham"
      }
    },
    {
      "type": "node",
      "id": 12285689717,
      "lat": 12.9337657,
      "lon": 77.62097,
      "tags": {
        "name": "Slay",
        "shop": "coffee"
      }
    },
    {
      "type": "node",
      "id": 12293550210,
      "lat": 12.9290374,
      "lon": 77.6158964,
      "tags": {
        "amenity": "fixme",
        "check_date": "2024-10-28",
        "fixme": "type",
        "fixme:type": "playground",
        "internet_access": "wlan",
        "internet_access:fee": "no",
        "name": "Play ground"
      }
    },
    {
      "type": "node",
      "id": 12294001113,
      "lat": 12.9347344,
      "lon": 77.6112226,
      "tags": {
        "amenity": "fast_food",
        "contact:instagram": "goodflippin",
        "cuisine": "burger",
        "delivery": "yes",
        "name": "Good Flippin' Burgers",
        "takeaway": "yes",
        "website": "https://goodflippin.com/"
      }
    },
    {
      "type": "node",
      "id": 12432736252,
      "lat": 12.9365501,
      "lon": 77.6150659,
      "tags": {
        "addr:city": "Bengaluru",
        "addr:country": "IN",
        "addr:housenumber": "64",
        "addr:street": "1st Main Road",
        "addr:suburb": "Koramangala",
        "amenity": "restaurant",
        "contact:instagram": "sinonnas",
        "cuisine": "pizza",
        "delivery": "yes",
        "name": "Si Nonna's",
        "reservation": "yes",
        "takeaway": "yes",
        "toilets": "yes",
        "website": "https://sinonnas.com/"
      }
    },
    {
      "type": "node",
      "id": 12466486195,
      "lat": 12.931069,
      "lon": 77.613948,
      "tags": {
        "amenity": "post_box",
        "operator": "India Post",
        "operator:wikidata": "Q3519720"
      }
    },
    {
      "type": "node",
      "id": 12512224856,
      "lat": 12.9334666,
      "lon": 77.6208718,
      "tags": {
        "amenity": "restaurant",
        "name": "Kritunga The Palegar's Cuisine"
      }
    },
    {
      "type": "node",
      "id": 12526156587,
      "lat": 12.9338133,
      "lon": 77.6158653,
      "tags": {
        "addr:city": "Bangalore",
        "addr:housenumber": "55",
        "addr:postcode": "560095",
        "addr:street": "Jyoti Nivas College Road",
        "amenity": "restaurant",
        "branch": "& Restaurant",
        "brand": "Indian Coffee House",
        "brand:wikidata": "Q3595301",
        "cuisine": "coffee_shop;indian",
        "name": "Indian Coffee House"
      }
    },
    {
      "type": "node",
      "id": 12531970255,
      "lat": 12.9363428,
      "lon": 77.6147228,
      "tags": {
        "name": "Merwans",
        "shop": "bakery",
        "website": "https://merwans.co.in/"
      }
    },
    {
      "type": "node",
      "id": 12541018910,
      "lat": 12.9313727,
      "lon": 77.6160967,
      "tags": {
        "amenity": "cafe",
        "check_date": "2025-01-29",
        "name": "Ola Farzi Cafe"
      }
    },
    {
      "type": "node",
      "id": 12550773109,
      "lat": 12.9361615,
      "lon": 77.6224708,
      "tags": {
        "addr:city": "Bangalore",
        "addr:district": "Bengaluru Urban",
        "addr:housenumber": "74",
        "addr:postcode": "560095",
        "addr:street": "17th E Main Road",
        "amenity": "restaurant",
        "cuisine": "turkish",
        "name": "Kebapci"
      }
    },
    {
      "type": "node",
      "id": 12581402358,
      "lat": 12.934097,
      "lon": 77.6102499,
      "tags": {
        "alt_name": "Konians",
        "amenity": "bar",
        "check_date": "2025-02-12",
        "name": "Konian Bar And Restaurant"
      }
    },
    {
      "type": "node",
      "id": 12862846438,
      "lat": 12.9337424,
      "lon": 77.6186976,
      "tags": {
        "amenity": "fast_food",
        "cuisine": "burger",
        "delivery": "yes",
        "name": "Original Burger Co.",
        "takeaway": "yes"
      }
    },
    {
      "type": "node",
      "id": 12862846443,
      "lat": 12.9352844,
      "lon": 77.6137299,
      "tags": {
        "amenity": "fast_food",
        "cuisine": "burger",
        "delivery": "yes",
        "name": "Boss Burger",
        "takeaway": "yes"
      }
    },
    {
      "type": "node",
      "id": 12862846462,
      "lat": 12.9347823,
      "lon": 77.6158283,
      "tags": {
        "amenity": "fast_food",
        "cuisine": "burger",
        "delivery": "yes",
        "name": "Easy Bites by Empire",
        "takeaway": "yes"
      }
    },
    {
      "type": "node",
      "id": 12862846474,
      "lat": 12.9344461,
      "lon": 77.611403,
      "tags": {
        "amenity": "fast_food",
        "contact:instagram": "goodflippin",
        "cuisine": "burger",
        "delivery": "yes",
        "name": "Good Flippin' Burgers",
        "takeaway": "yes",
        "website": "https://goodflippin.com/"
      }
    },
    {
      "type": "node",
      "id": 13013584294,
      "lat": 12.9341515,
      "lon": 77.6101349,
      "tags": {
        "amenity": "bar",
        "name": "404 by TOF"
      }
    },
    {
      "type": "node",
      "id": 13013588746,
      "lat": 12.9368179,
      "lon": 77.6148469,
      "tags": {
        "addr:city": "Bengaluru",
        "addr:country": "IN",
        "addr:postcode": "560034",
        "addr:suburb": "Koramangala",
        "amenity": "restaurant",
        "contact:instagram": "sinonnas",
        "cuisine": "pizza",
        "delivery": "yes",
        "name": "Si Nonna's",
        "reservation": "yes",
        "takeaway": "yes",
        "toilets": "yes",
        "website": "https://sinonnas.com/"
      }
    },
    {
      "type": "node",
      "id": 13013958062,
      "lat": 12.9328117,
      "lon": 77.613835,
      "tags": {
        "amenity": "pub",
        "name": "Blah Bla"
      }
    },
    {
      "type": "node",
      "id": 13013978947,
      "lat": 12.9346469,
      "lon": 77.6139987,
      "tags": {
        "amenity": "cafe",
        "cuisine": "coffee_shop",
        "name": "La Grace"
      }
    },
    {
      "type": "node",
      "id": 13045205432,
      "lat": 12.9333407,
      "lon": 77.6149591,
      "tags": {
        "amenity": "cafe",
        "check_date": "2025-08-03",
        "name": "Olive Cafe"
      }
    },
    {
      "type": "node",
      "id": 13103122517,
      "lat": 12.9350389,
      "lon": 77.6100816,
      "tags": {
        "amenity": "parking_entrance"
      }
    },
    {
      "type": "node",
      "id": 13103122519,
      "lat": 12.9349132,
      "lon": 77.610268,
      "tags": {
        "amenity": "parking_entrance"
      }
    },
    {
      "type": "node",
      "id": 13103122521,
      "lat": 12.9356656,
      "lon": 77.6110898,
      "tags": {
        "amenity": "parking_entrance"
      }
    },
    {
      "type": "node",
      "id": 13103122522,
      "lat": 12.935858,
      "lon": 77.610987,
      "tags": {
        "amenity": "parking_entrance"
      }
    },
    {
      "type": "node",
      "id": 13103315636,
      "lat": 12.9308506,
      "lon": 77.6065375,
      "tags": {
        "amenity": "cafe",
        "cuisine": "coffee_shop;tea;indian",
        "name": "Malabar Cafe"
      }
    },
    {
      "type": "node",
      "id": 13168786892,
      "lat": 12.933894,
      "lon": 77.6198284,
      "tags": {
        "amenity": "restaurant",
        "contact:instagram": "bameys.blr",
        "cuisine": "nepali",
        "name": "Bamey's Gastro Bar",
        "website": "https://bameys.co/"
      }
    },
    {
      "type": "node",
      "id": 13246318504,
      "lat": 12.9341765,
      "lon": 77.6164512,
      "tags": {
        "amenity": "fast_food",
        "brand": "Domino's",
        "cuisine": "pizza",
        "name": "Domino's",
        "takeaway": "yes"
      }
    },
    {
      "type": "node",
      "id": 13246318505,
      "lat": 12.9341448,
      "lon": 77.6164544,
      "tags": {
        "amenity": "food_court",
        "name": "Belgian Waffle"
      }
    },
    {
      "type": "node",
      "id": 13246332803,
      "lat": 12.934784,
      "lon": 77.6159841,
      "tags": {
        "amenity": "pub",
        "check_date": "2025-10-20",
        "name": "Toca"
      }
    },
    {
      "type": "node",
      "id": 13246333825,
      "lat": 12.9357018,
      "lon": 77.6153729,
      "tags": {
        "amenity": "atm",
        "check_date": "2025-10-20",
        "operator": "Idfc Bank"
      }
    },
    {
      "type": "node",
      "id": 13288585236,
      "lat": 12.9328511,
      "lon": 77.6135016,
      "tags": {
        "amenity": "pub",
        "name": "Brau Galie"
      }
    },
    {
      "type": "way",
      "id": 23542631,
      "center": {
        "lat": 12.9345856,
        "lon": 77.6112435
      },
      "tags": {
        "alt_name": "Forum Mall",
        "landuse": "retail",
        "name": "Nexus Koramangala",
        "official_name": "Nexus Mall, Koramangala",
        "old_name": "The Forum",
        "opening_hours": "Mo-Su 09:00-20:00",
        "shop": "mall",
        "start_date": "2004",
        "toilets": "yes",
        "toilets:wheelchair": "yes",
        "website": "https://www.nexusselecttrust.com/nexus-koramangala",
        "wheelchair": "yes",
        "wikidata": "Q7734919",
        "wikipedia": "en:Nexus Mall (Koramangala)"
      }
    },
    {
      "type": "way",
      "id": 27932007,
      "center": {
        "lat": 12.934142,
        "lon": 77.6145075
      },
      "tags": {
        "amenity": "parking"
      }
    },
    {
      "type": "way",
      "id": 28186877,
      "center": {
        "lat": 12.9390827,
        "lon": 77.6197058
      },
      "tags": {
        "leisure": "park",
        "name": "Lakshmi Devi Park",
        "name:kn": "ಲಕ್ಷ್ಮಿದೇವಿ ಉದ್ಯಾನ"
      }
    },
    {
      "type": "way",
      "id": 28186930,
      "center": {
        "lat": 12.9349252,
        "lon": 77.6180763
      },
      "tags": {
        "created_by": "Potlatch 0.10f",
        "leisure": "park"
      }
    },
    {
      "type": "way",
      "id": 28186950,
      "center": {
        "lat": 12.9372867,
        "lon": 77.6188924
      },
      "tags": {
        "leisure": "playground",
        "name": "Kalyana Mantapa Ground"
      }
    },
    {
      "type": "way",
      "id": 32290801,
      "center": {
        "lat": 12.9328613,
        "lon": 77.6165599
      },
      "tags": {
        "amenity": "college",
        "landuse": "education",
        "name": "Jyoti Nivas Women's College",
        "name:kn": "ಜ್ಯೋತಿ ನಿವಾಸ ಕಾಲೇಜು",
        "short_name": "JNC"
      }
    },
    {
      "type": "way",
      "id": 32291138,
      "center": {
        "lat": 12.9406352,
        "lon": 77.6209531
      },
      "tags": {
        "amenity": "school",
        "name": "Bethany High School",
        "name:kn": "ಬೆತಾನಿ ಪ್ರೌಡಶಾಲೆ"
      }
    },
    {
      "type": "way",
      "id": 32315160,
      "center": {
        "lat": 12.9341574,
        "lon": 77.6191922
      },
      "tags": {
        "leisure": "park",
        "name": "Sidharth Park"
      }
    },
    {
      "type": "way",
      "id": 32315410,
      "center": {
        "lat": 12.9367726,
        "lon": 77.617663
      },
      "tags": {
        "leisure": "garden"
      }
    },
    {
      "type": "way",
      "id": 32315469,
      "center": {
        "lat": 12.9375743,
        "lon": 77.6182864
      },
      "tags": {
        "created_by": "Potlatch 0.10f",
        "leisure": "garden"
      }
    },
    {
      "type": "way",
      "id": 32316224,
      "center": {
        "lat": 12.941095,
        "lon": 77.6156687
      },
      "tags": {
        "leisure": "park",
        "name": "Chamundeshwari Park",
        "name:kn": "ಚಾಮುಂಡೇಶ್ವರಿ ಉದ್ಯಾನವನ"
      }
    },
    {
      "type": "way",
      "id": 38774082,
      "center": {
        "lat": 12.9337333,
        "lon": 77.6051298
      },
      "tags": {
        "amenity": "university",
        "name": "Christ University",
        "name:kn": "ಕ್ರಿಸ್ತ ವಿಶ್ವವಿದ್ಯಾಲಯ",
        "name:ta": "கிறிஸ்ட் பல்கலைக்கழகம்",
        "old_name": "Christ College",
        "start_date": "1969",
        "website": "https://christuniversity.in/",
        "wikidata": "Q5108941",
        "wikipedia": "en:Christ University"
      }
    },
    {
      "type": "way",
      "id": 128446267,
      "center": {
        "lat": 12.935134,
        "lon": 77.6193675
      },
      "tags": {
        "leisure": "park"
      }
    },
    {
      "type": "way",
      "id": 133179621,
      "center": {
        "lat": 12.9318731,
        "lon": 77.6076887
      },
      "tags": {
        "addr:street": "8th Cross",
        "amenity": "cinema",
        "building": "yes",
        "name": "Srinivasa Theatre, SG palaya",
        "name:kn": "ಶ್ರೀನಿವಾಸ"
      }
    },
    {
      "type": "way",
      "id": 133524186,
      "center": {
        "lat": 12.935516,
        "lon": 77.6070148
      },
      "tags": {
        "amenity": "college",
        "name": "Ghousia Polytechnic",
        "name:kn": "ಘೌಸಿಯ ಪಾಲಿಟೆಕ್ನಿಕ್"
      }
    },
    {
      "type": "way",
      "id": 134032583,
      "center": {
        "lat": 12.9305539,
        "lon": 77.6102858
      },
      "tags": {
        "amenity": "office",
        "building": "office",
        "name": "Oracle",
        "name:kn": "ಒರೇಕಲ್"
      }
    },
    {
      "type": "way",
      "id": 147129313,
      "center": {
        "lat": 12.9355264,
        "lon": 77.6097472
      },
      "tags": {
        "amenity": "community_centre",
        "name": "Sathya Sai Samskruti Sadana",
        "name:kn": "ಸತ್ಯ ಸಾಯಿ ಸಂಸ್ಕ್ರತಿ ಭಾವನ"
      }
    },
    {
      "type": "way",
      "id": 157837663,
      "center": {
        "lat": 12.9326684,
        "lon": 77.6049886
      },
      "tags": {
        "addr:city": "Bangalore",
        "addr:postcode": "560029",
        "addr:street": "Dharmaram Vidya Kshetram, Dairy Circle,Dharmarm College PO, Bangalore 560029, Hosur Rd, DVK Rd, Bhavani Nagar, S.G. Palya",
        "amenity": "library",
        "building": "yes",
        "name": "DVK Central Library"
      }
    },
    {
      "type": "way",
      "id": 157837709,
      "center": {
        "lat": 12.9357357,
        "lon": 77.6051611
      },
      "tags": {
        "leisure": "pitch",
        "sport": "soccer"
      }
    },
    {
      "type": "way",
      "id": 166733773,
      "center": {
        "lat": 12.9405031,
        "lon": 77.6172058
      },
      "tags": {
        "leisure": "park",
        "name": "B R Ambedkar Park",
        "name:etymology:wikidata": "Q231690",
        "name:kn": "ಅಂಬೇಡ್ಕರ್ ಉದ್ಯಾನವನ"
      }
    },
    {
      "type": "way",
      "id": 166746844,
      "center": {
        "lat": 12.9369003,
        "lon": 77.6168186
      },
      "tags": {
        "amenity": "place_of_worship",
        "building": "yes",
        "name": "Mangala Kalyana Mantapa",
        "name:kn": "ಮಂಗಲಾ ಕಲ್ಯಾಣ ಮಂಟಪ",
        "religion": "hindu"
      }
    },
    {
      "type": "way",
      "id": 166750577,
      "center": {
        "lat": 12.9432742,
        "lon": 77.6177477
      },
      "tags": {
        "amenity": "cinema",
        "name": "Shiva Theatre",
        "name:kn": "ಶಿವ"
      }
    },
    {
      "type": "way",
      "id": 197122161,
      "center": {
        "lat": 12.9338255,
        "lon": 77.6042365
      },
      "tags": {
        "amenity": "parking"
      }
    },
    {
      "type": "way",
      "id": 201068721,
      "center": {
        "lat": 12.937577,
        "lon": 77.6211789
      },
      "tags": {
        "alt_name": "Chellamma Park",
        "leisure": "park",
        "name": "Leena Park",
        "source:alt_name": "anonymous note"
      }
    },
    {
      "type": "way",
      "id": 201069173,
      "center": {
        "lat": 12.9367726,
        "lon": 77.617663
      },
      "tags": {
        "leisure": "park",
        "name": "Anuroopa Park",
        "name:kn": "ಅನುರೂಪ ಉದ್ಯಾನವನ"
      }
    },
    {
      "type": "way",
      "id": 201071753,
      "center": {
        "lat": 12.9345461,
        "lon": 77.6218521
      },
      "tags": {
        "leisure": "park",
        "name": "Akhila Park",
        "name:kn": "ಅಖೀಲ ಉದ್ಯಾನವನ"
      }
    },
    {
      "type": "way",
      "id": 250768276,
      "center": {
        "lat": 12.9283209,
        "lon": 77.6171796
      },
      "tags": {
        "leisure": "pitch"
      }
    },
    {
      "type": "way",
      "id": 313394090,
      "center": {
        "lat": 12.9366745,
        "lon": 77.6070683
      },
      "tags": {
        "building": "yes",
        "name": "Nandini Dream World",
        "shop": "dairy"
      }
    },
    {
      "type": "way",
      "id": 313395337,
      "center": {
        "lat": 12.9361507,
        "lon": 77.6179965
      },
      "tags": {
        "addr:city": "Bangalore",
        "addr:street": "KHB Colony, 5th Block Koramangala",
        "amenity": "place_of_worship",
        "barrier": "wall",
        "denomination": "hindu",
        "name": "Sri Prasanna Ganapathi Temple",
        "name:kn": "ಗಣೇಶ ದೇವಸ್ಥಾನ",
        "religion": "hindu",
        "website": "http://ganapathitemplekoramangala.org/index.html"
      }
    },
    {
      "type": "way",
      "id": 342013038,
      "center": {
        "lat": 12.9318751,
        "lon": 77.6181485
      },
      "tags": {
        "amenity": "parking",
        "name": "Faculty Car Parking, St.John's Hospital",
        "operator:type": "private"
      }
    },
    {
      "type": "way",
      "id": 342013495,
      "center": {
        "lat": 12.9285657,
        "lon": 77.6193124
      },
      "tags": {
        "amenity": "parking",
        "parking": "surface",
        "supervised": "yes"
      }
    },
    {
      "type": "way",
      "id": 345363762,
      "center": {
        "lat": 12.9331522,
        "lon": 77.6057992
      },
      "tags": {
        "leisure": "pitch",
        "sport": "soccer"
      }
    },
    {
      "type": "way",
      "id": 345363764,
      "center": {
        "lat": 12.9346675,
        "lon": 77.6063589
      },
      "tags": {
        "leisure": "pitch",
        "sport": "basketball"
      }
    },
    {
      "type": "way",
      "id": 347159335,
      "center": {
        "lat": 12.9404099,
        "lon": 77.6199261
      },
      "tags": {
        "brand": "Reliance Fresh",
        "brand:wikidata": "Q7311014",
        "building": "yes",
        "name": "Reliance Fresh",
        "name:kn": "ರಿಲಯನ್ಸ್ ಫ್ರೆಶ್",
        "shop": "supermarket"
      }
    },
    {
      "type": "way",
      "id": 347159867,
      "center": {
        "lat": 12.9383286,
        "lon": 77.6191479
      },
      "tags": {
        "amenity": "post_office",
        "building": "yes",
        "building:levels": "2",
        "name": "Koramangala Post Office",
        "name:kn": "ಕೋರಮಂಗಲ ಅಂಚೆ ಕಛೇರಿ",
        "operator": "India Post",
        "operator:wikidata": "Q3519720",
        "wheelchair": "limited"
      }
    },
    {
      "type": "way",
      "id": 347187533,
      "center": {
        "lat": 12.9299327,
        "lon": 77.6141788
      },
      "tags": {
        "amenity": "place_of_worship",
        "building": "church",
        "check_date": "2025-06-05",
        "name": "St Antonys Friary Church",
        "name:kn": "ಸಂತ ಆಂಟೊನಿ ದೇವಾಲಯ",
        "religion": "christian",
        "wheelchair": "yes"
      }
    },
    {
      "type": "way",
      "id": 347188098,
      "center": {
        "lat": 12.9334436,
        "lon": 77.6110208
      },
      "tags": {
        "brand": "Yamaha",
        "brand:wikidata": "Q158888",
        "brand:wikipedia": "en:Yamaha Motor Company",
        "building": "yes",
        "name": "Orion Motors",
        "operator": "Orion Motors",
        "shop": "motorcycle"
      }
    },
    {
      "type": "way",
      "id": 347188384,
      "center": {
        "lat": 12.9332194,
        "lon": 77.6114581
      },
      "tags": {
        "addr:housenumber": "150/1&2",
        "addr:street": "Dr. M H Marigowda Road",
        "brand": "Honda",
        "brand:wikidata": "Q9584",
        "brand:wikipedia": "en:Honda",
        "building": "yes",
        "name": "Raja Honda",
        "opening_hours": "Mo-Sa 09:00-18:00; Su 09:00-16:00",
        "phone": "9035015619",
        "shop": "motorcycle"
      }
    },
    {
      "type": "way",
      "id": 347188663,
      "center": {
        "lat": 12.9332863,
        "lon": 77.6147148
      },
      "tags": {
        "addr:city": "Bengaluru",
        "addr:housenumber": "70, Jyoti Nivas College Rd, Koramangala Industrial Layout, Koramangala, Bengaluru, Karnataka 560034",
        "addr:postcode": "560034",
        "addr:street": "Jyoti Nivas College Road",
        "amenity": "restaurant",
        "building": "restaurant",
        "name": "Gillys 104 Bar",
        "opening_hours": "Mo-Sa 09:30-21:00"
      }
    },
    {
      "type": "way",
      "id": 347447341,
      "center": {
        "lat": 12.9338342,
        "lon": 77.6211473
      },
      "tags": {
        "addr:city": "Bengaluru",
        "addr:housenumber": "131",
        "addr:postcode": "560095",
        "addr:street": "1st Cross Road",
        "amenity": "restaurant",
        "building": "yes",
        "cuisine": "Andhra",
        "delivery": "yes",
        "name": "Nagarjuna",
        "name:kn": "ನಾಗಾರ್ಜುನ",
        "opening_hours": "Mo-Su 11:00-16:00,19:00-23:00",
        "outdoor_seating": "no",
        "phone": "080 4099 6000",
        "smoking": "no"
      }
    },
    {
      "type": "way",
      "id": 389341670,
      "center": {
        "lat": 12.9288993,
        "lon": 77.6131406
      },
      "tags": {
        "leisure": "pitch"
      }
    },
    {
      "type": "way",
      "id": 389341672,
      "center": {
        "lat": 12.9306379,
        "lon": 77.6138852
      },
      "tags": {
        "amenity": "place_of_worship",
        "name": "St Antonys Friary Church",
        "name:kn": "ಸಂತ ಆಂಟೊನಿ ದೇವಾಲಯ",
        "religion": "christian"
      }
    },
    {
      "type": "way",
      "id": 389341676,
      "center": {
        "lat": 12.9305145,
        "lon": 77.6135148
      },
      "tags": {
        "amenity": "college",
        "building": "yes",
        "name": "Indian Institute of Psychology & Research",
        "short_name": "IIPR",
        "website": "https://iipr.in"
      }
    },
    {
      "type": "way",
      "id": 389344277,
      "center": {
        "lat": 12.9285869,
        "lon": 77.6167673
      },
      "tags": {
        "leisure": "pitch"
      }
    },
    {
      "type": "way",
      "id": 389344280,
      "center": {
        "lat": 12.9323974,
        "lon": 77.6168484
      },
      "tags": {
        "leisure": "park"
      }
    },
    {
      "type": "way",
      "id": 389344282,
      "center": {
        "lat": 12.9328093,
        "lon": 77.6167761
      },
      "tags": {
        "leisure": "pitch"
      }
    },
    {
      "type": "way",
      "id": 389344284,
      "center": {
        "lat": 12.9327729,
        "lon": 77.6169245
      },
      "tags": {
        "leisure": "pitch"
      }
    },
    {
      "type": "way",
      "id": 389344285,
      "center": {
        "lat": 12.9308787,
        "lon": 77.6185833
      },
      "tags": {
        "leisure": "garden"
      }
    },
    {
      "type": "way",
      "id": 389344289,
      "center": {
        "lat": 12.9277533,
        "lon": 77.6170906
      },
      "tags": {
        "leisure": "sports_centre",
        "name": "St. John's Grounds",
        "sport": "cricket"
      }
    },
    {
      "type": "way",
      "id": 487962213,
      "center": {
        "lat": 12.9363461,
        "lon": 77.6138786
      },
      "tags": {
        "amenity": "place_of_worship",
        "religion": "hindu"
      }
    },
    {
      "type": "way",
      "id": 515344856,
      "center": {
        "lat": 12.9358415,
        "lon": 77.6186465
      },
      "tags": {
        "leisure": "park",
        "name": "Amruth Park",
        "name:kn": "ಅಮೃತ ಉದ್ಯಾನವನ"
      }
    },
    {
      "type": "way",
      "id": 523040202,
      "center": {
        "lat": 12.9332325,
        "lon": 77.619509
      },
      "tags": {
        "leisure": "park"
      }
    },
    {
      "type": "way",
      "id": 577663662,
      "center": {
        "lat": 12.9387452,
        "lon": 77.6131581
      },
      "tags": {
        "leisure": "pitch"
      }
    },
    {
      "type": "way",
      "id": 577663676,
      "center": {
        "lat": 12.9360645,
        "lon": 77.6097257
      },
      "tags": {
        "access": "private",
        "leisure": "pitch"
      }
    },
    {
      "type": "way",
      "id": 638729638,
      "center": {
        "lat": 12.9337326,
        "lon": 77.6114986
      },
      "tags": {
        "addr:housenumber": "149/2",
        "amenity": "fuel",
        "brand": "Indian Oil",
        "brand:wikidata": "Q1289348",
        "brand:wikipedia": "en:Indian Oil Corporation",
        "compressed_air": "yes",
        "fuel:diesel": "yes",
        "fuel:unleaded": "yes",
        "name": "IOC Hamsa Service Station",
        "opening_hours": "Mo-Su 06:00-23:00",
        "operator": "Indian Oil"
      }
    },
    {
      "type": "way",
      "id": 779344669,
      "center": {
        "lat": 12.9300193,
        "lon": 77.6151126
      },
      "tags": {
        "addr:city": "Bengaluru",
        "amenity": "fuel",
        "brand": "Hindustan Petroleum",
        "brand:wikidata": "Q1619375",
        "brand:wikipedia": "en:Hindustan Petroleum",
        "compressed_air": "yes",
        "fuel:diesel": "yes",
        "fuel:engine_oil": "yes",
        "fuel:petrol": "yes",
        "name": "HP",
        "name:kn": "ಹಿಂದುಸ್ತಾನ್ ಪೆಟ್ರೋಲಿಯಂ",
        "official_name": "Hindustan Petroleum",
        "operator": "Favourite Auto Service",
        "self_service": "yes"
      }
    },
    {
      "type": "way",
      "id": 781192782,
      "center": {
        "lat": 12.9359713,
        "lon": 77.6100063
      },
      "tags": {
        "access": "private",
        "leisure": "swimming_pool"
      }
    },
    {
      "type": "way",
      "id": 1084382246,
      "center": {
        "lat": 12.9415666,
        "lon": 77.6087598
      },
      "tags": {
        "addr:city": "Bangalore",
        "addr:housenumber": "30",
        "addr:postcode": "560030",
        "addr:street": "Corporation Complex,1st Floor, Hosur-Lashkar Road, Near-Vijaya Bank, Adugodi",
        "amenity": "police",
        "name": "Adugodi Traffic Police Station",
        "name:kn": "ಅಡುಗೊಡಿ ಸಂಚಾರ ಪೋಲೀಸ್ ಠಾಣೆ",
        "phone": "080 2294 3119",
        "website": "NA"
      }
    },
    {
      "type": "way",
      "id": 1084382247,
      "center": {
        "lat": 12.9413694,
        "lon": 77.6088716
      },
      "tags": {
        "addr:city": "Bengaluru",
        "addr:housenumber": "29",
        "addr:postcode": "560030",
        "addr:street": "Hosur Rd, Audugodi Police Quarters, Adugodi",
        "amenity": "fast_food",
        "brand": "Indira Canteen",
        "brand:wikidata": "Q36164828",
        "building": "yes",
        "cuisine": "south_indian",
        "name": "Indira Canteen",
        "operator": "BBMP",
        "takeaway": "yes"
      }
    },
    {
      "type": "way",
      "id": 1084382251,
      "center": {
        "lat": 12.9392272,
        "lon": 77.6101711
      },
      "tags": {
        "amenity": "police",
        "name": "Adugodi Police Station",
        "name:kn": "ಅಡುಗೊಡಿ ಪೋಲೀಸ್ ಠಾಣೆ"
      }
    },
    {
      "type": "way",
      "id": 1099882755,
      "center": {
        "lat": 12.9410977,
        "lon": 77.6214106
      },
      "tags": {
        "amenity": "police",
        "name": "Koramangala Police Station",
        "name:kn": "ಕೋರಮಂಗಲ ಆರಕ್ಷಕ ಠಾಣೆ"
      }
    },
    {
      "type": "way",
      "id": 1148279217,
      "center": {
        "lat": 12.9328248,
        "lon": 77.6063946
      },
      "tags": {
        "leisure": "garden"
      }
    },
    {
      "type": "way",
      "id": 1148279219,
      "center": {
        "lat": 12.9321536,
        "lon": 77.6063926
      },
      "tags": {
        "leisure": "garden"
      }
    },
    {
      "type": "way",
      "id": 1155057714,
      "center": {
        "lat": 12.9378692,
        "lon": 77.621408
      },
      "tags": {
        "building": "yes",
        "leisure": "sports_hall"
      }
    },
    {
      "type": "way",
      "id": 1155059807,
      "center": {
        "lat": 12.9385674,
        "lon": 77.6192782
      },
      "tags": {
        "amenity": "library",
        "building": "yes"
      }
    },
    {
      "type": "way",
      "id": 1155059808,
      "center": {
        "lat": 12.9384745,
        "lon": 77.6194324
      },
      "tags": {
        "leisure": "fitness_station",
        "sport": "fitness"
      }
    },
    {
      "type": "way",
      "id": 1160859548,
      "center": {
        "lat": 12.9315791,
        "lon": 77.6117802
      },
      "tags": {
        "amenity": "monastery",
        "denomination": "catholic",
        "landuse": "religious",
        "name": "Augustine Nivas",
        "religion": "christian"
      }
    },
    {
      "type": "way",
      "id": 1160859551,
      "center": {
        "lat": 12.9314127,
        "lon": 77.6130167
      },
      "tags": {
        "leisure": "park",
        "name": "BBMP Park",
        "name:kn": "ಬೃ. ಬೆ. ಮ. ಪಾ. ಉದ್ಯಾನವನ",
        "operator": "ಬೃಹತ್ ಬೆಂಗಳೂರು ಮಹಾನಗರ ಪಾಲಿಕೆ",
        "operator:en": "Bruhat Bengaluru Mahanagara Palike",
        "operator:ka": "ಬೃಹತ್ ಬೆಂಗಳೂರು ಮಹಾನಗರ ಪಾಲಿಕೆ",
        "operator:short": "BBMP",
        "operator:type": "government",
        "operator:wikidata": "Q4978693"
      }
    },
    {
      "type": "way",
      "id": 1160859589,
      "center": {
        "lat": 12.934566,
        "lon": 77.6209387
      },
      "tags": {
        "leisure": "park"
      }
    },
    {
      "type": "way",
      "id": 1160859607,
      "center": {
        "lat": 12.9380664,
        "lon": 77.619152
      },
      "tags": {
        "addr:place": "Koramangala",
        "alt_name": "Padmanayaka Sangam",
        "amenity": "school",
        "isced:level": "3",
        "name": "PNS School",
        "name:kn": "ಪಿ.ಎನ್.ಎಸ್ ಶಾಲೆ, ಕೋರಮಂಗಲ",
        "operator": "Private Un-Aided",
        "school": "Higher Secondary"
      }
    },
    {
      "type": "way",
      "id": 1172708184,
      "center": {
        "lat": 12.9360393,
        "lon": 77.6068497
      },
      "tags": {
        "addr:city": "Bengaluru",
        "addr:postcode": "560029",
        "addr:street": "Hosur Main Road, Bhavani Nagar, S.G. Palya",
        "amenity": "place_of_worship",
        "landuse": "religious",
        "name": "Shri Gundlu Muneshwara Swamy Devasthana",
        "name:kn": "ಶ್ರೀ ಗುಂಡ್ಲು ಮುನೇಶ್ವರ ಸ್ವಾಮಿ ದೇವಾಲಯ",
        "religion": "hindu",
        "wheelchair": "no"
      }
    },
    {
      "type": "way",
      "id": 1195520755,
      "center": {
        "lat": 12.9346661,
        "lon": 77.6214805
      },
      "tags": {
        "leisure": "pitch",
        "sport": "basketball"
      }
    },
    {
      "type": "way",
      "id": 1195573208,
      "center": {
        "lat": 12.9343515,
        "lon": 77.6221955
      },
      "tags": {
        "leisure": "park"
      }
    },
    {
      "type": "way",
      "id": 1219030819,
      "center": {
        "lat": 12.9306937,
        "lon": 77.6107959
      },
      "tags": {
        "access": "private",
        "amenity": "parking"
      }
    },
    {
      "type": "way",
      "id": 1219030820,
      "center": {
        "lat": 12.9304258,
        "lon": 77.6109431
      },
      "tags": {
        "access": "private",
        "leisure": "park"
      }
    },
    {
      "type": "way",
      "id": 1219030821,
      "center": {
        "lat": 12.9305404,
        "lon": 77.6110871
      },
      "tags": {
        "access": "private",
        "amenity": "parking"
      }
    },
    {
      "type": "way",
      "id": 1219030822,
      "center": {
        "lat": 12.9300572,
        "lon": 77.6115421
      },
      "tags": {
        "access": "private",
        "amenity": "parking"
      }
    },
    {
      "type": "way",
      "id": 1219030823,
      "center": {
        "lat": 12.929951,
        "lon": 77.6107502
      },
      "tags": {
        "access": "private",
        "amenity": "parking"
      }
    },
    {
      "type": "way",
      "id": 1219030824,
      "center": {
        "lat": 12.9286314,
        "lon": 77.6114439
      },
      "tags": {
        "access": "private",
        "leisure": "pitch",
        "sport": "basketball"
      }
    },
    {
      "type": "way",
      "id": 1219030826,
      "center": {
        "lat": 12.929375,
        "lon": 77.6103938
      },
      "tags": {
        "leisure": "playground"
      }
    },
    {
      "type": "way",
      "id": 1219030827,
      "center": {
        "lat": 12.9297306,
        "lon": 77.6109174
      },
      "tags": {
        "access": "private",
        "leisure": "park"
      }
    },
    {
      "type": "way",
      "id": 1219030828,
      "center": {
        "lat": 12.9294989,
        "lon": 77.6110888
      },
      "tags": {
        "access": "private",
        "amenity": "parking",
        "parking": "surface"
      }
    },
    {
      "type": "way",
      "id": 1219030830,
      "center": {
        "lat": 12.9295685,
        "lon": 77.6112926
      },
      "tags": {
        "access": "no",
        "leisure": "swimming_pool"
      }
    },
    {
      "type": "way",
      "id": 1219030831,
      "center": {
        "lat": 12.9299776,
        "lon": 77.6102008
      },
      "tags": {
        "access": "private",
        "leisure": "pitch",
        "sport": "tennis"
      }
    },
    {
      "type": "way",
      "id": 1219030832,
      "center": {
        "lat": 12.9301428,
        "lon": 77.6100962
      },
      "tags": {
        "access": "private",
        "amenity": "parking",
        "name": "Visitor Parking",
        "name:kn": "ವಿಮಾನ ನಿಲ್ದಾಣ"
      }
    },
    {
      "type": "way",
      "id": 1242182543,
      "center": {
        "lat": 12.9316513,
        "lon": 77.6161842
      },
      "tags": {
        "leisure": "garden"
      }
    },
    {
      "type": "way",
      "id": 1242182544,
      "center": {
        "lat": 12.9318482,
        "lon": 77.6151736
      },
      "tags": {
        "leisure": "garden"
      }
    },
    {
      "type": "way",
      "id": 1242182559,
      "center": {
        "lat": 12.9311951,
        "lon": 77.6173557
      },
      "tags": {
        "access": "permissive",
        "amenity": "parking",
        "parking": "surface"
      }
    },
    {
      "type": "way",
      "id": 1242193156,
      "center": {
        "lat": 12.9359302,
        "lon": 77.6046626
      },
      "tags": {
        "leisure": "pitch",
        "sport": "basketball"
      }
    },
    {
      "type": "way",
      "id": 1242193157,
      "center": {
        "lat": 12.9356057,
        "lon": 77.6045994
      },
      "tags": {
        "leisure": "pitch",
        "sport": "basketball"
      }
    },
    {
      "type": "way",
      "id": 1242193158,
      "center": {
        "lat": 12.9354541,
        "lon": 77.6043675
      },
      "tags": {
        "leisure": "pitch",
        "sport": "basketball"
      }
    },
    {
      "type": "way",
      "id": 1242193159,
      "center": {
        "lat": 12.9357197,
        "lon": 77.6044212
      },
      "tags": {
        "leisure": "pitch",
        "sport": "basketball"
      }
    },
    {
      "type": "way",
      "id": 1242193160,
      "center": {
        "lat": 12.9359798,
        "lon": 77.6044711
      },
      "tags": {
        "leisure": "pitch",
        "sport": "basketball"
      }
    },
    {
      "type": "way",
      "id": 1259003509,
      "center": {
        "lat": 12.9319865,
        "lon": 77.6141624
      },
      "tags": {
        "amenity": "theatre",
        "name": "Amphitheatre",
        "theatre:type": "amphi"
      }
    },
    {
      "type": "way",
      "id": 1259003526,
      "center": {
        "lat": 12.9362533,
        "lon": 77.611806
      },
      "tags": {
        "leisure": "park"
      }
    },
    {
      "type": "way",
      "id": 1259003527,
      "center": {
        "lat": 12.936535,
        "lon": 77.6117228
      },
      "tags": {
        "leisure": "park"
      }
    },
    {
      "type": "way",
      "id": 1259003528,
      "center": {
        "lat": 12.9353285,
        "lon": 77.6106247
      },
      "tags": {
        "leisure": "park"
      }
    },
    {
      "type": "way",
      "id": 1297328834,
      "center": {
        "lat": 12.9377858,
        "lon": 77.6054398
      },
      "tags": {
        "access": "permissive",
        "amenity": "parking",
        "parking": "surface"
      }
    },
    {
      "type": "way",
      "id": 1297328835,
      "center": {
        "lat": 12.937746,
        "lon": 77.6059707
      },
      "tags": {
        "access": "permissive",
        "amenity": "parking",
        "parking": "surface"
      }
    },
    {
      "type": "way",
      "id": 1297328836,
      "center": {
        "lat": 12.9368065,
        "lon": 77.6054216
      },
      "tags": {
        "access": "permissive",
        "amenity": "parking",
        "parking": "surface"
      }
    },
    {
      "type": "way",
      "id": 1314296467,
      "center": {
        "lat": 12.9374385,
        "lon": 77.6185712
      },
      "tags": {
        "amenity": "toilets",
        "building": "yes",
        "building:colour": "red",
        "layer": "1"
      }
    },
    {
      "type": "way",
      "id": 1354222898,
      "center": {
        "lat": 12.9272388,
        "lon": 77.6145138
      },
      "tags": {
        "alt_name": "Society of the Sisters of the Holy Cross",
        "amenity": "monastery",
        "community:gender": "female",
        "name": "Medico Social Centre",
        "religion": "christian"
      }
    },
    {
      "type": "way",
      "id": 1409123687,
      "center": {
        "lat": 12.9319899,
        "lon": 77.6124959
      },
      "tags": {
        "amenity": "social_facility",
        "name": "Elizabeth Care home",
        "social_facility": "assisted_living",
        "social_facility:for": "senior"
      }
    },
    {
      "type": "way",
      "id": 1409123744,
      "center": {
        "lat": 12.9304883,
        "lon": 77.6135836
      },
      "tags": {
        "leisure": "garden"
      }
    },
    {
      "type": "way",
      "id": 1428302284,
      "center": {
        "lat": 12.934843,
        "lon": 77.6071452
      },
      "tags": {
        "access": "yes",
        "amenity": "toilets",
        "building": "yes",
        "name": "Community Toilet",
        "wheelchair": "limited"
      }
    },
    {
      "type": "way",
      "id": 1442146195,
      "center": {
        "lat": 12.9333727,
        "lon": 77.6095817
      },
      "tags": {
        "addr:place": "Lakkasandra",
        "amenity": "school",
        "isced:level": "3",
        "name": "Franciska N HS, Lakkasandra",
        "name:kn": "ಫ್ರಾನ್ಸಿಸ್ಕಾ ಎನ್ ಪ್ರೌಢಶಾಲೆ, ಲಕ್ಕಸಂದ್ರ",
        "operator": "Pvt. Unaided",
        "school": "Higher Secondary"
      }
    },
    {
      "type": "way",
      "id": 1444097610,
      "center": {
        "lat": 12.9366946,
        "lon": 77.6191352
      },
      "tags": {
        "leisure": "park",
        "name": "KHB Colony Park"
      }
    }
  ]
}