{
  "area_name": "Krishna Nagar",
  "osm_id": 4233041620,
  "osm_type": "node",
  "place_type": "neighbourhood",
  "amenity_count": 130,
  "amenities": [
    {
      "type": "node",
      "id": 1922035929,
      "lat": 12.8773766,
      "lon": 77.5806683,
      "tags": {
        "amenity": "post_office",
        "name": "JP Nagar 8th Phase 560076",
        "operator": "India Post",
        "source": "Bing, Local knowledge"
      }
    },
    {
      "type": "node",
      "id": 1923264401,
      "lat": 12.8832766,
      "lon": 77.5829876,
      "tags": {
        "amenity": "doctors",
        "healthcare": "doctor",
        "name": "Meenakshi ENT Speciality Centre",
        "note": "ENT - Otolaryngology"
      }
    },
    {
      "type": "node",
      "id": 1950848715,
      "lat": 12.8844534,
      "lon": 77.5825987,
      "tags": {
        "amenity": "bank",
        "atm": "yes",
        "brand": "HDFC Bank",
        "brand:wikidata": "Q631047",
        "brand:wikipedia": "en:HDFC Bank",
        "name": "HDFC Bank",
        "name:kn": "ಎಚ್ ಡಿ ಎಫ್ ಸಿ",
        "operator": "HDFC Bank",
        "short_name": "HDFC",
        "website": "https://www.hdfcbank.com"
      }
    },
    {
      "type": "node",
      "id": 1952902143,
      "lat": 12.8855512,
      "lon": 77.5823969,
      "tags": {
        "amenity": "dentist",
        "healthcare": "dentist",
        "name": "Narayana Hrudayalaya Dental Clinic",
        "name:kn": "ನಾರಾಯಣ ಹೃದಯಾಲಯ ದಂತ ಆಸ್ಪತ್ರೆ"
      }
    },
    {
      "type": "node",
      "id": 1952910418,
      "lat": 12.8823536,
      "lon": 77.5835185,
      "tags": {
        "amenity": "bank",
        "atm": "yes",
        "brand": "Corporation Bank",
        "brand:wikidata": "Q2003387",
        "brand:wikipedia": "en:Corporation Bank",
        "name": "Corporation Bank",
        "name:en": "Corporation Bank",
        "name:kn": "ಕಾರ್ಪರೇಷನ್ ಬ್ಯಾಂಕ್",
        "website": "https://corpbank.com/"
      }
    },
    {
      "type": "node",
      "id": 2002686385,
      "lat": 12.8807554,
      "lon": 77.5841671,
      "tags": {
        "addr:district": "Bengaluru Urban",
        "addr:full": "Kothanur Dinne Main Road,Sapthagiri Layout,OppositeFabricana Factory,J.P.Ngar,8Th Phase",
        "addr:postcode": "560078",
        "addr:state": "Karnataka",
        "amenity": "hospital",
        "name": "T.R.Hospital",
        "source": "OpenGovernmentData"
      }
    },
    {
      "type": "node",
      "id": 2002703954,
      "lat": 12.8849462,
      "lon": 77.5818317,
      "tags": {
        "amenity": "college",
        "name": "Capitol College of Nursing"
      }
    },
    {
      "type": "node",
      "id": 2012546405,
      "lat": 12.886025,
      "lon": 77.5856544,
      "tags": {
        "addr:place": "Kothanur",
        "amenity": "school",
        "isced:level": "3",
        "name": "Cambridge School Kothanur",
        "name:kn": "ಕೇಂಬ್ರಿಜ್ ಶಾಲೆ,ಕೊತ್ತನೂರ್",
        "operator": "Private Un-Aided",
        "school": "Higher Secondary"
      }
    },
    {
      "type": "node",
      "id": 2012618832,
      "lat": 12.8852909,
      "lon": 77.5876008,
      "tags": {
        "amenity": "place_of_worship",
        "name": "Sri Gowri Shankara Temple",
        "name:kn": "ಗೌರೀ ಶಂಕರ ದೇವಸ್ಥಾನ",
        "religion": "hindu"
      }
    },
    {
      "type": "node",
      "id": 2020107613,
      "lat": 12.8836176,
      "lon": 77.5821892,
      "tags": {
        "amenity": "kindergarten",
        "name": "Edify Kids"
      }
    },
    {
      "type": "node",
      "id": 2032027189,
      "lat": 12.8815935,
      "lon": 77.5835331,
      "tags": {
        "name": "Green Mart",
        "shop": "supermarket"
      }
    },
    {
      "type": "node",
      "id": 2032027880,
      "lat": 12.8850998,
      "lon": 77.5823163,
      "tags": {
        "amenity": "atm",
        "brand": "ICICI Bank",
        "brand:wikidata": "Q1653258",
        "name": "ICICI Bank",
        "operator": "ICICI Bank",
        "operator:wikidata": "Q1653258",
        "short_name": "ICICI"
      }
    },
    {
      "type": "node",
      "id": 2032034937,
      "lat": 12.8860743,
      "lon": 77.5821092,
      "tags": {
        "amenity": "atm",
        "brand": "Kotak Mahindra Bank",
        "brand:wikidata": "Q2040404",
        "name": "Kotak Mahindra Bank",
        "name:kn": "ಕೋಟಕ್ ಮಹಿಂದ್ರ ಬ್ಯಾಂಕ್",
        "operator": "Kotak Mahindra Bank",
        "operator:wikidata": "Q2040404"
      }
    },
    {
      "type": "node",
      "id": 2034338169,
      "lat": 12.8842357,
      "lon": 77.5826768,
      "tags": {
        "amenity": "bank",
        "atm": "yes",
        "brand": "Syndicate Bank",
        "brand:wikidata": "Q2004088",
        "name": "Syndicate Bank",
        "name:en": "Syndicate Bank",
        "name:kn": "ಸಿಂಡಿಕೇಟ್ ಬ್ಯಾಂಕ್",
        "website": "https://www.syndicatebank.in"
      }
    },
    {
      "type": "node",
      "id": 2066536098,
      "lat": 12.8835246,
      "lon": 77.5831316,
      "tags": {
        "amenity": "atm",
        "brand": "Indian Bank",
        "brand:wikidata": "Q2003789",
        "name": "Indian Bank",
        "operator": "Indian Bank",
        "operator:wikidata": "Q2003789"
      }
    },
    {
      "type": "node",
      "id": 2151943537,
      "lat": 12.8850121,
      "lon": 77.5863075,
      "tags": {
        "name": "Bosch Service",
        "operator": "Sri Sai Automotives",
        "shop": "car_repair"
      }
    },
    {
      "type": "node",
      "id": 2173392419,
      "lat": 12.8803576,
      "lon": 77.5796579,
      "tags": {
        "addr:housenumber": "#24-39",
        "addr:postcode": "560078",
        "addr:street": "7th Main Road",
        "amenity": "school",
        "email": "communications.oisjp@orchids.edu.in",
        "name": "Bangalore Scottish School",
        "name:en": "Orchids The International School, JP Nagar",
        "opening_hours": "Mo-Su 09:00-18:30",
        "operator": "Orchids International School",
        "phone": "9513731352",
        "source": "GPS",
        "website": "https://www.orchidsinternationalschool.com/bangalore-branches/jp-nagar/"
      }
    },
    {
      "type": "node",
      "id": 2621049955,
      "lat": 12.8861649,
      "lon": 77.5822896,
      "tags": {
        "amenity": "fast_food",
        "cuisine": "indian",
        "name": "Nandi Bidadi Thatte Idli"
      }
    },
    {
      "type": "node",
      "id": 2621204390,
      "lat": 12.8834083,
      "lon": 77.5831677,
      "tags": {
        "amenity": "post_box",
        "operator": "India Post",
        "operator:wikidata": "Q3519720"
      }
    },
    {
      "type": "node",
      "id": 2803277501,
      "lat": 12.8851987,
      "lon": 77.582368,
      "tags": {
        "name": "Mangalore Store",
        "shop": "bakery"
      }
    },
    {
      "type": "node",
      "id": 2852234189,
      "lat": 12.882713,
      "lon": 77.5864966,
      "tags": {
        "amenity": "place_of_worship",
        "name": "Sai Baba Temple",
        "name:kn": "ಸಾಯಿಬಾಬಾ ದೇವಸ್ಥಾನ"
      }
    },
    {
      "type": "node",
      "id": 2855634917,
      "lat": 12.8829285,
      "lon": 77.5833726,
      "tags": {
        "amenity": "pharmacy",
        "brand": "Apollo Pharmacy",
        "brand:wikidata": "Q62562612",
        "healthcare": "pharmacy",
        "name": "Apollo Pharmacy",
        "name:kn": "ಅಪೋಲೋ ಫಾರ್ಮಸಿ"
      }
    },
    {
      "type": "node",
      "id": 2857747050,
      "lat": 12.8832508,
      "lon": 77.5830061,
      "tags": {
        "name": "Bangalore Horticulture Fruits & Vegetable Center",
        "shop": "greengrocer"
      }
    },
    {
      "type": "node",
      "id": 2857747051,
      "lat": 12.883368,
      "lon": 77.5829816,
      "tags": {
        "amenity": "pharmacy",
        "dispensing": "yes",
        "healthcare": "pharmacy",
        "name": "Laxmi Medicals"
      }
    },
    {
      "type": "node",
      "id": 2857747052,
      "lat": 12.883362,
      "lon": 77.5831729,
      "tags": {
        "name": "Uth Fashions",
        "shop": "clothes"
      }
    },
    {
      "type": "node",
      "id": 2866032635,
      "lat": 12.8837154,
      "lon": 77.5830453,
      "tags": {
        "name": "Ganapathi Electronics",
        "shop": "radiotechnics"
      }
    },
    {
      "type": "node",
      "id": 2866032636,
      "lat": 12.8767642,
      "lon": 77.5840493,
      "tags": {
        "name": "Thirumala Flour Mill",
        "shop": "flour_mill"
      }
    },
    {
      "type": "node",
      "id": 2878070152,
      "lat": 12.8832467,
      "lon": 77.5832523,
      "tags": {
        "name": "Just Bake",
        "name:kn": "ಜಸ್ಟ್ ಬೇಕ್",
        "shop": "bakery",
        "source": "GPS"
      }
    },
    {
      "type": "node",
      "id": 2926296079,
      "lat": 12.8778945,
      "lon": 77.5836549,
      "tags": {
        "amenity": "place_of_worship",
        "name": "Ganesha Temple",
        "name:kn": "ಗಣೇಶ ದೇವಸ್ಥಾನ",
        "religion": "hindu"
      }
    },
    {
      "type": "node",
      "id": 2929308646,
      "lat": 12.8834858,
      "lon": 77.5831375,
      "tags": {
        "name": "Mukesh Food Corner",
        "shop": "grocery",
        "source": "survey"
      }
    },
    {
      "type": "node",
      "id": 2954412611,
      "lat": 12.8849403,
      "lon": 77.5826306,
      "tags": {
        "amenity": "parking",
        "name": "Ennar Diagnostics & Healthcare",
        "note": "Health diagnostic tests",
        "operator": "Myles"
      }
    },
    {
      "type": "node",
      "id": 2954412624,
      "lat": 12.8855103,
      "lon": 77.5824089,
      "tags": {
        "name": "PP Fashion",
        "shop": "clothes"
      }
    },
    {
      "type": "node",
      "id": 2954412625,
      "lat": 12.8857556,
      "lon": 77.5823701,
      "tags": {
        "amenity": "kindergarten",
        "name": "Podar Jumbo Kids"
      }
    },
    {
      "type": "node",
      "id": 2954412627,
      "lat": 12.8848337,
      "lon": 77.5826781,
      "tags": {
        "name": "Rally Helmet Palace",
        "note": "Shop selling helmets for motorbikes",
        "shop": "helmets"
      }
    },
    {
      "type": "node",
      "id": 2954412630,
      "lat": 12.8848113,
      "lon": 77.5826946,
      "tags": {
        "amenity": "fast_food",
        "cuisine": "biriyani",
        "name": "Star Biriyani Ambur"
      }
    },
    {
      "type": "node",
      "id": 2954417233,
      "lat": 12.8856427,
      "lon": 77.5821812,
      "tags": {
        "shop": "tyres"
      }
    },
    {
      "type": "node",
      "id": 2958334184,
      "lat": 12.8841397,
      "lon": 77.5827195,
      "tags": {
        "amenity": "kindergarten",
        "name": "Bachpan"
      }
    },
    {
      "type": "node",
      "id": 2958334185,
      "lat": 12.8846567,
      "lon": 77.5827576,
      "tags": {
        "name": "Excellent Mutton & Chicken Stall",
        "shop": "butcher"
      }
    },
    {
      "type": "node",
      "id": 2958334186,
      "lat": 12.8829195,
      "lon": 77.5831564,
      "tags": {
        "name": "Farm House Fruits & Vegetables",
        "shop": "greengrocer"
      }
    },
    {
      "type": "node",
      "id": 2958334189,
      "lat": 12.882941,
      "lon": 77.5831498,
      "tags": {
        "brand": "Titan",
        "name": "Time N Vision",
        "shop": "watches"
      }
    },
    {
      "type": "node",
      "id": 2958334191,
      "lat": 12.8830986,
      "lon": 77.5830924,
      "tags": {
        "name": "Varsha Enterprises Garden Shop",
        "shop": "garden_centre"
      }
    },
    {
      "type": "node",
      "id": 2958334192,
      "lat": 12.8831984,
      "lon": 77.5830283,
      "tags": {
        "amenity": "pharmacy",
        "dispensing": "yes",
        "healthcare": "pharmacy",
        "name": "Vinayaka Medical & General Stores"
      }
    },
    {
      "type": "node",
      "id": 2961509490,
      "lat": 12.8835046,
      "lon": 77.5829231,
      "tags": {
        "name": "Ashok Jewellers",
        "shop": "jewelry",
        "source": "survey"
      }
    },
    {
      "type": "node",
      "id": 2961509491,
      "lat": 12.883636,
      "lon": 77.5828813,
      "tags": {
        "name": "Hasana Iyengar's Bakery",
        "shop": "bakery",
        "source": "survey"
      }
    },
    {
      "type": "node",
      "id": 2961509492,
      "lat": 12.8835569,
      "lon": 77.5829075,
      "tags": {
        "name": "Jagadamba Home Appliances",
        "note": "Home Appliances",
        "shop": "electronics",
        "source": "survey"
      }
    },
    {
      "type": "node",
      "id": 2961509493,
      "lat": 12.88345,
      "lon": 77.5829414,
      "tags": {
        "name": "Krishna Stationery & Sports",
        "shop": "stationery",
        "source": "survey"
      }
    },
    {
      "type": "node",
      "id": 2961509494,
      "lat": 12.8833962,
      "lon": 77.5829675,
      "tags": {
        "name": "Laxmi Fashions",
        "shop": "clothes",
        "source": "survey"
      }
    },
    {
      "type": "node",
      "id": 2961509495,
      "lat": 12.883422,
      "lon": 77.5829527,
      "tags": {
        "name": "Sangeetha Electricals & Electronics",
        "shop": "radiotechnics",
        "source": "survey"
      }
    },
    {
      "type": "node",
      "id": 2961509496,
      "lat": 12.8836101,
      "lon": 77.5828978,
      "tags": {
        "name": "Sree Jadamba Fancy & Gift Gallery",
        "shop": "gift",
        "source": "survey"
      }
    },
    {
      "type": "node",
      "id": 3592694281,
      "lat": 12.882975,
      "lon": 77.5833574,
      "tags": {
        "name": "N V R Tyres",
        "shop": "tyres",
        "source": "GPS"
      }
    },
    {
      "type": "node",
      "id": 4186993789,
      "lat": 12.8833623,
      "lon": 77.5897411,
      "tags": {
        "amenity": "pharmacy",
        "brand": "Apollo Pharmacy",
        "brand:wikidata": "Q62562612",
        "healthcare": "pharmacy",
        "name": "Apollo Pharmacy",
        "name:kn": "ಅಪೋಲೋ ಫಾರ್ಮಸಿ"
      }
    },
    {
      "type": "node",
      "id": 4187001433,
      "lat": 12.8824167,
      "lon": 77.5839245,
      "tags": {
        "amenity": "atm",
        "brand": "State Bank of India",
        "brand:wikidata": "Q1340361",
        "name": "State Bank of India",
        "name:kn": "ಭಾರತೀಯ ಸ್ಟೇಟ್ ಬ್ಯಾಂಕ್",
        "operator": "State Bank of India",
        "operator:wikidata": "Q1340361",
        "short_name": "SBI"
      }
    },
    {
      "type": "node",
      "id": 4187001576,
      "lat": 12.8824311,
      "lon": 77.5838923,
      "tags": {
        "amenity": "bank",
        "brand": "State Bank of India",
        "brand:wikidata": "Q1340361",
        "brand:wikipedia": "en:State Bank of India",
        "name": "State Bank of India",
        "name:kn": "ಭಾರತೀಯ ಸ್ಟೇಟ್ ಬ್ಯಾಂಕ್",
        "short_name": "SBI"
      }
    },
    {
      "type": "node",
      "id": 4255628589,
      "lat": 12.8823914,
      "lon": 77.5834957,
      "tags": {
        "amenity": "atm",
        "brand": "Corporation Bank",
        "brand:wikidata": "Q2003387",
        "name": "Corporation Bank",
        "name:kn": "ಕಾರ್ಪರೇಷನ್ ಬ್ಯಾಂಕ್",
        "opening_hours": "24/7",
        "operator": "Corporation Bank",
        "operator:wikidata": "Q2003387"
      }
    },
    {
      "type": "node",
      "id": 4274757591,
      "lat": 12.8826056,
      "lon": 77.5834699,
      "tags": {
        "addr:street": "Kothnur Main Road",
        "amenity": "restaurant",
        "cuisine": "chinese;thai",
        "name": "Delicacy"
      }
    },
    {
      "type": "node",
      "id": 4279411690,
      "lat": 12.8827588,
      "lon": 77.5848287,
      "tags": {
        "amenity": "kindergarten",
        "name": "Parilok"
      }
    },
    {
      "type": "node",
      "id": 4279512290,
      "lat": 12.8862164,
      "lon": 77.5822787,
      "tags": {
        "name": "Fast Track",
        "shop": "car_parts"
      }
    },
    {
      "type": "node",
      "id": 4279512889,
      "lat": 12.8819897,
      "lon": 77.5825547,
      "tags": {
        "addr:postcode": "560078",
        "addr:street": "2nd Main Road",
        "amenity": "school",
        "name": "Little Aryans"
      }
    },
    {
      "type": "node",
      "id": 4333622801,
      "lat": 12.8766877,
      "lon": 77.584049,
      "tags": {
        "name": "Sri Basaveshwara Cycle Mart",
        "service:bicycle:pump": "yes",
        "service:bicycle:repair": "yes",
        "shop": "bicycle"
      }
    },
    {
      "type": "node",
      "id": 4489770254,
      "lat": 12.8834111,
      "lon": 77.5902344,
      "tags": {
        "addr:city": "bangalore",
        "addr:postcode": "560076",
        "addr:street": "Santhinikethan Layout, 80ft road, Opp. Mahindra Service Center, Arakere,, Bannergatta Road, Vysya Bank Colony, Shantiniketan Layout,",
        "leisure": "sports_centre",
        "name": "Mizpah Fitness",
        "opening_hours": "5:00-23:00",
        "phone": "9880312338",
        "sport": "gymnastics",
        "website": "mizpahfitness.com"
      }
    },
    {
      "type": "node",
      "id": 6348900704,
      "lat": 12.8764315,
      "lon": 77.5786186,
      "tags": {
        "addr:place": "Kothanur",
        "amenity": "school",
        "isced:level": "2",
        "name": "GHPS Kothanur",
        "name:kn": "ಸರ್ಕಾರಿ ಹಿರಿಯ ಪ್ರಾಥಮಿಕ ಶಾಲೆ ಕೊತ್ತನೂರ್",
        "operator": "Department of Education",
        "school": "primary"
      }
    },
    {
      "type": "node",
      "id": 6536353060,
      "lat": 12.8773193,
      "lon": 77.5834526,
      "tags": {
        "addr:place": "Kothanur",
        "amenity": "school",
        "isced:level": "3",
        "name": "The Little Angels School, Kothanur",
        "name:kn": "ಲಿಟಲ್ ಏಂಜಲ್ ಶಾಲೆ,ಕೊತ್ತನೂರು",
        "operator": "Private Un-Aided",
        "school": "Higher Secondary"
      }
    },
    {
      "type": "node",
      "id": 6536381254,
      "lat": 12.8755011,
      "lon": 77.5806222,
      "tags": {
        "addr:place": "Kothanur",
        "amenity": "school",
        "isced:level": "2",
        "name": "A E T School Sree Annapoornesh, Kothanur",
        "name:kn": "ಎ.ಇ.ಟಿ. ಶಾಲೆ ಶ್ರೀ ಅನ್ನಪೂರ್ಣೇಶ್,ಕೊತ್ತನೂರು",
        "operator": "Private Un-Aided",
        "school": "Higher primary"
      }
    },
    {
      "type": "node",
      "id": 6536386707,
      "lat": 12.8833878,
      "lon": 77.5837275,
      "tags": {
        "addr:place": "Kothanur",
        "amenity": "school",
        "isced:level": "3",
        "name": "Lady Wellington School, Kothanur",
        "name:kn": "ಲೇಡಿ ವೆಲ್ಲಿಂಗ್ಟನ್ ಶಾಲೆ, ಕೊತ್ತನೂರು",
        "operator": "Private Un-Aided",
        "school": "Higher Secondary"
      }
    },
    {
      "type": "node",
      "id": 6536406541,
      "lat": 12.8787866,
      "lon": 77.5777581,
      "tags": {
        "addr:place": "Kothanur",
        "amenity": "school",
        "isced:level": "3",
        "name": "Jnanavikas HPS, Kothanur",
        "name:kn": "ಜ್ಞಾನ ವಿಕಾಸ್ ಹಿರಿಯ ಪ್ರಾಥಮಿಕ ಶಾಲೆ, ಕೊತ್ತನೂರು",
        "operator": "Private Un-Aided",
        "school": "Higher Secondary"
      }
    },
    {
      "type": "node",
      "id": 6536421096,
      "lat": 12.8686079,
      "lon": 77.5841946,
      "tags": {
        "addr:place": "Kothanur",
        "amenity": "school",
        "isced:level": "2",
        "name": "Vidyakirana Public School, Kothanur",
        "name:kn": "ವಿದ್ಯಾಕಿರಣ ಪಬ್ಲಿಕ್ ಶಾಲೆ ಕೊತ್ತನೂರು",
        "operator": "Private Un-Aided",
        "school": "Higher primary"
      }
    },
    {
      "type": "node",
      "id": 6536612869,
      "lat": 12.8779934,
      "lon": 77.5846361,
      "tags": {
        "addr:place": "Kothanur",
        "amenity": "school",
        "isced:level": "2",
        "name": "Clever Land Kottanuru Dinne, Kothanur",
        "name:kn": "ಕ್ಲವೆರ್ ಲ್ಯಾಂಡ್ ದಿಣ್ಣೆ ಕೊತ್ತನೂರು",
        "operator": "Private Un-Aided",
        "school": "Higher Primary"
      }
    },
    {
      "type": "node",
      "id": 7633350176,
      "lat": 12.8856424,
      "lon": 77.5825719,
      "tags": {
        "name": "j.p.nagar pet shop",
        "opening_hours:covid19": "off",
        "operator:type": "private",
        "shop": "pet"
      }
    },
    {
      "type": "node",
      "id": 7633350177,
      "lat": 12.8856424,
      "lon": 77.5825349,
      "tags": {
        "name": "The Pets",
        "shop": "pet"
      }
    },
    {
      "type": "node",
      "id": 9810391517,
      "lat": 12.8833908,
      "lon": 77.589419,
      "tags": {
        "name": "Avni Milk Parlour - Nandini milk",
        "shop": "dairy",
        "survey:date": "2022-06-11"
      }
    },
    {
      "type": "node",
      "id": 11005961466,
      "lat": 12.8799104,
      "lon": 77.5840531,
      "tags": {
        "amenity": "fuel",
        "brand": "Bharat Petroleum",
        "name": "Cauvery Petro Services",
        "source": "GPS"
      }
    },
    {
      "type": "node",
      "id": 11178356426,
      "lat": 12.8735988,
      "lon": 77.5837422,
      "tags": {
        "check_date": "2023-09-09",
        "description": "Since 1959",
        "name": "Sri Jayalakshmi Bakery",
        "opening_hours": "07:30-21:30",
        "payment:mastercard": "yes",
        "payment:visa": "yes",
        "shop": "bakery",
        "wheelchair": "limited"
      }
    },
    {
      "type": "node",
      "id": 12050662770,
      "lat": 12.8834298,
      "lon": 77.5900572,
      "tags": {
        "name": "Shri Manjunatha Dry Cleaners",
        "opening_hours": "Mo-Su 09:00-21:00",
        "shop": "dry_cleaning"
      }
    },
    {
      "type": "node",
      "id": 12050662771,
      "lat": 12.8833534,
      "lon": 77.5895439,
      "tags": {
        "name": "Choose Fresh",
        "opening_hours": "Mo-Su 07:30-21:00",
        "shop": "greengrocer"
      }
    },
    {
      "type": "node",
      "id": 12050670369,
      "lat": 12.8834353,
      "lon": 77.5900912,
      "tags": {
        "check_date:opening_hours": "2025-08-11",
        "name": "Vinayaka Condiments",
        "opening_hours": "Mo-Su 08:00-21:00",
        "shop": "bakery"
      }
    },
    {
      "type": "node",
      "id": 12050672269,
      "lat": 12.8837447,
      "lon": 77.5910008,
      "tags": {
        "amenity": "atm",
        "opening_hours": "24/7",
        "operator": "Bank of Baroda"
      }
    },
    {
      "type": "node",
      "id": 12050688469,
      "lat": 12.8833809,
      "lon": 77.5893564,
      "tags": {
        "name": "Om3",
        "shop": "hairdresser"
      }
    },
    {
      "type": "node",
      "id": 12064909669,
      "lat": 12.8818035,
      "lon": 77.5835092,
      "tags": {
        "amenity": "pharmacy",
        "name": "Pradhan Mantri Jan Aushadhi Kendra",
        "opening_hours": "Mo-Sa 10:30-13:30, 17:30-20:30"
      }
    },
    {
      "type": "node",
      "id": 12068511169,
      "lat": 12.8828903,
      "lon": 77.5858366,
      "tags": {
        "amenity": "pharmacy",
        "name": "Madhura Medicals"
      }
    },
    {
      "type": "node",
      "id": 12069343369,
      "lat": 12.8770699,
      "lon": 77.5840137,
      "tags": {
        "amenity": "place_of_worship",
        "name": "Shanieshwara Temple",
        "name:kn": "ಶನೀಶ್ವರ ದೇವಸ್ಥಾನ"
      }
    },
    {
      "type": "node",
      "id": 12167408281,
      "lat": 12.870188,
      "lon": 77.5865428,
      "tags": {
        "access": "private",
        "amenity": "parking_entrance",
        "parking": "underground"
      }
    },
    {
      "type": "node",
      "id": 12167408286,
      "lat": 12.8705505,
      "lon": 77.5866919,
      "tags": {
        "access": "private",
        "amenity": "parking_entrance",
        "parking": "underground"
      }
    },
    {
      "type": "node",
      "id": 12941891201,
      "lat": 12.8803607,
      "lon": 77.5796688,
      "tags": {
        "addr:postcode": "560076",
        "amenity": "school",
        "name": "Orchids The International School"
      }
    },
    {
      "type": "node",
      "id": 12984936557,
      "lat": 12.8713439,
      "lon": 77.5831454,
      "tags": {
        "addr:city": "Bengaluru",
        "addr:district": "Bengaluru Urban",
        "addr:postcode": "560076",
        "addr:street": "1st floor, Kothanur Main Rd, next to Royal Public school, Nayak Layout, JP nagar 8th Phase",
        "leisure": "fitness_centre",
        "name": "Fitness hive",
        "opening_hours": "Mo-Sa 05:30-23:00, Mo-Su 06:00-23:00",
        "phone": "+91 9482306515",
        "sport": "fitness;yoga"
      }
    },
    {
      "type": "node",
      "id": 12984944734,
      "lat": 12.8713791,
      "lon": 77.583156,
      "tags": {
        "amenity": "bank",
        "atm": "yes",
        "brand": "Axis Bank",
        "brand:wikidata": "Q2003549",
        "drive_through": "no",
        "name": "Axis Bank",
        "opening_hours": "Mo-Fr 09:30-3:30"
      }
    },
    {
      "type": "node",
      "id": 13119166342,
      "lat": 12.8716311,
      "lon": 77.5834317,
      "tags": {
        "addr:city": "Bengaluru",
        "addr:district": "Bengaluru Urban",
        "addr:housenumber": "7",
        "addr:postcode": "560076",
        "addr:street": "Kothnur Main Road, Krishnanagar, Shreya Colony, Kothnur,  J. P. Nagar 8th Phase, Karnataka",
        "amenity": "bank",
        "atm": "yes",
        "brand": "State Bank of India",
        "brand:wikidata": "Q1340361",
        "drive_through": "no",
        "name": "State Bank of India",
        "opening_hours": "Mo-Sa 09:30-15:30",
        "operator": "SBI",
        "short_name": "SBI"
      }
    },
    {
      "type": "node",
      "id": 13259525668,
      "lat": 12.8764048,
      "lon": 77.5755103,
      "tags": {
        "name": "Indian Garage",
        "shop": "motorcycle_repair"
      }
    },
    {
      "type": "way",
      "id": 191101727,
      "center": {
        "lat": 12.8835032,
        "lon": 77.5838983
      },
      "tags": {
        "amenity": "school",
        "building": "yes",
        "name": "Lady Wellington High School"
      }
    },
    {
      "type": "way",
      "id": 347045814,
      "center": {
        "lat": 12.872481,
        "lon": 77.5885161
      },
      "tags": {
        "access": "private",
        "leisure": "pitch",
        "sport": "tennis"
      }
    },
    {
      "type": "way",
      "id": 366244494,
      "center": {
        "lat": 12.8708151,
        "lon": 77.5848582
      },
      "tags": {
        "landuse": "commercial",
        "leisure": "fitness_centre",
        "name": "Breakthrough"
      }
    },
    {
      "type": "way",
      "id": 627943197,
      "center": {
        "lat": 12.8797554,
        "lon": 77.5887342
      },
      "tags": {
        "leisure": "park"
      }
    },
    {
      "type": "way",
      "id": 627943198,
      "center": {
        "lat": 12.8797637,
        "lon": 77.5888246
      },
      "tags": {
        "leisure": "swimming_pool"
      }
    },
    {
      "type": "way",
      "id": 1082360481,
      "center": {
        "lat": 12.8729809,
        "lon": 77.5905601
      },
      "tags": {
        "amenity": "school",
        "name": "Holy Spirit PU College"
      }
    },
    {
      "type": "way",
      "id": 1082360489,
      "center": {
        "lat": 12.8680752,
        "lon": 77.5870384
      },
      "tags": {
        "amenity": "monastery",
        "landuse": "religious",
        "name": "Holy Trinity Ashram",
        "religion": "christian"
      }
    },
    {
      "type": "way",
      "id": 1082360490,
      "center": {
        "lat": 12.8688525,
        "lon": 77.5903201
      },
      "tags": {
        "amenity": "school",
        "name": "Mount St. Joseph",
        "name:kn": "ಮೌಂಟ್ ಸೆಂಟ್ ಜ್ಯೋಸೆಫ್"
      }
    },
    {
      "type": "way",
      "id": 1199401161,
      "center": {
        "lat": 12.8685754,
        "lon": 77.5872217
      },
      "tags": {
        "amenity": "monastery",
        "landuse": "religious",
        "name": "Maitreya",
        "religion": "christian"
      }
    },
    {
      "type": "way",
      "id": 1199401164,
      "center": {
        "lat": 12.8714885,
        "lon": 77.5907706
      },
      "tags": {
        "amenity": "social_facility",
        "name": "Holy Spirit Old Age Home",
        "social_facility": "assisted_living",
        "social_facility:for": "senior"
      }
    },
    {
      "type": "way",
      "id": 1242749610,
      "center": {
        "lat": 12.8781997,
        "lon": 77.5857334
      },
      "tags": {
        "amenity": "school",
        "name": "Skalvi International School",
        "opening_hours": "Mo-Sa 08:00-16:00"
      }
    },
    {
      "type": "way",
      "id": 1242749650,
      "center": {
        "lat": 12.8742468,
        "lon": 77.5885718
      },
      "tags": {
        "leisure": "park"
      }
    },
    {
      "type": "way",
      "id": 1328835858,
      "center": {
        "lat": 12.8737977,
        "lon": 77.5797985
      },
      "tags": {
        "leisure": "park"
      }
    },
    {
      "type": "way",
      "id": 1328835873,
      "center": {
        "lat": 12.8744868,
        "lon": 77.5754453
      },
      "tags": {
        "leisure": "park"
      }
    },
    {
      "type": "way",
      "id": 1328835909,
      "center": {
        "lat": 12.8727383,
        "lon": 77.5876724
      },
      "tags": {
        "access": "private",
        "covered": "no",
        "leisure": "swimming_pool",
        "name": "Classic Orchards Swimming Pool",
        "name:kn": "ಕ್ಲಾಸಿಕ್ ಓರ್ಚರ್ಡ‌ಸ್ ಈಜುಕೋಳ",
        "sport": "swimming"
      }
    },
    {
      "type": "way",
      "id": 1328835914,
      "center": {
        "lat": 12.8714215,
        "lon": 77.5834596
      },
      "tags": {
        "amenity": "fuel",
        "brand": "GAIL",
        "building": "yes",
        "fuel:cng": "yes"
      }
    },
    {
      "type": "way",
      "id": 1328835941,
      "center": {
        "lat": 12.8707059,
        "lon": 77.5858942
      },
      "tags": {
        "access": "private",
        "amenity": "parking",
        "parking": "street_side"
      }
    },
    {
      "type": "way",
      "id": 1328835942,
      "center": {
        "lat": 12.8706763,
        "lon": 77.5863966
      },
      "tags": {
        "access": "private",
        "leisure": "swimming_pool"
      }
    },
    {
      "type": "way",
      "id": 1328835948,
      "center": {
        "lat": 12.8712521,
        "lon": 77.5834651
      },
      "tags": {
        "amenity": "fuel",
        "brand": "Nayara",
        "brand:wikidata": "Q5399377",
        "fuel:diesel": "yes",
        "fuel:octane_80": "yes",
        "name": "Achyutha Fules - Nayara Petrol"
      }
    },
    {
      "type": "way",
      "id": 1391367665,
      "center": {
        "lat": 12.8704966,
        "lon": 77.5879444
      },
      "tags": {
        "leisure": "park"
      }
    },
    {
      "type": "way",
      "id": 1391367684,
      "center": {
        "lat": 12.8808818,
        "lon": 77.5901699
      },
      "tags": {
        "amenity": "social_facility",
        "name": "Snehasadan Orphanage",
        "social_facility": "shelter"
      }
    },
    {
      "type": "way",
      "id": 1391367685,
      "center": {
        "lat": 12.8804042,
        "lon": 77.5894824
      },
      "tags": {
        "amenity": "college",
        "name": "Universal College of Nursing"
      }
    },
    {
      "type": "way",
      "id": 1424925237,
      "center": {
        "lat": 12.8822826,
        "lon": 77.5866774
      },
      "tags": {
        "leisure": "park"
      }
    },
    {
      "type": "way",
      "id": 1424925238,
      "center": {
        "lat": 12.880314,
        "lon": 77.5862475
      },
      "tags": {
        "leisure": "park"
      }
    },
    {
      "type": "way",
      "id": 1424925240,
      "center": {
        "lat": 12.8817331,
        "lon": 77.5865771
      },
      "tags": {
        "leisure": "pitch",
        "sport": "tennis"
      }
    },
    {
      "type": "way",
      "id": 1424925243,
      "center": {
        "lat": 12.8809873,
        "lon": 77.587724
      },
      "tags": {
        "leisure": "garden"
      }
    },
    {
      "type": "way",
      "id": 1424925244,
      "center": {
        "lat": 12.8808157,
        "lon": 77.5872087
      },
      "tags": {
        "leisure": "park"
      }
    },
    {
      "type": "way",
      "id": 1424925245,
      "center": {
        "lat": 12.8797518,
        "lon": 77.5880366
      },
      "tags": {
        "leisure": "pitch",
        "sport": "tennis"
      }
    },
    {
      "type": "way",
      "id": 1432600214,
      "center": {
        "lat": 12.8747914,
        "lon": 77.5763354
      },
      "tags": {
        "amenity": "fuel",
        "brand": "Indian Oil",
        "brand:wikidata": "Q1289348",
        "fuel:diesel": "yes",
        "fuel:octane_80": "yes",
        "fuel:octane_95": "yes",
        "name": "Indian Oil",
        "self_service": "no"
      }
    },
    {
      "type": "way",
      "id": 1445695930,
      "center": {
        "lat": 12.8730007,
        "lon": 77.5888849
      },
      "tags": {
        "leisure": "park"
      }
    },
    {
      "type": "way",
      "id": 1445695931,
      "center": {
        "lat": 12.8742624,
        "lon": 77.5911983
      },
      "tags": {
        "leisure": "park"
      }
    },
    {
      "type": "way",
      "id": 1445695932,
      "center": {
        "lat": 12.8747738,
        "lon": 77.591988
      },
      "tags": {
        "leisure": "park"
      }
    },
    {
      "type": "way",
      "id": 1445695941,
      "center": {
        "lat": 12.8737839,
        "lon": 77.5866913
      },
      "tags": {
        "leisure": "park"
      }
    },
    {
      "type": "way",
      "id": 1445695943,
      "center": {
        "lat": 12.8743996,
        "lon": 77.5866756
      },
      "tags": {
        "access": "private",
        "leisure": "swimming_pool"
      }
    },
    {
      "type": "way",
      "id": 1445696329,
      "center": {
        "lat": 12.8725716,
        "lon": 77.5883364
      },
      "tags": {
        "access": "private",
        "leisure": "pitch"
      }
    },
    {
      "type": "way",
      "id": 1445696330,
      "center": {
        "lat": 12.8726426,
        "lon": 77.5880803
      },
      "tags": {
        "access": "private",
        "amenity": "theatre",
        "name": "Amphitheatre",
        "theatre:type": "amphi"
      }
    },
    {
      "type": "way",
      "id": 1445703460,
      "center": {
        "lat": 12.8706388,
        "lon": 77.586642
      },
      "tags": {
        "leisure": "playground"
      }
    },
    {
      "type": "way",
      "id": 1445703461,
      "center": {
        "lat": 12.8711695,
        "lon": 77.5861918
      },
      "tags": {
        "access": "private",
        "amenity": "parking",
        "parking": "street_side"
      }
    },
    {
      "type": "way",
      "id": 1445703462,
      "center": {
        "lat": 12.8711265,
        "lon": 77.5865443
      },
      "tags": {
        "access": "private",
        "amenity": "parking",
        "parking": "street_side"
      }
    },
    {
      "type": "way",
      "id": 1445703467,
      "center": {
        "lat": 12.8731326,
        "lon": 77.5893574
      },
      "tags": {
        "amenity": "place_of_worship",
        "landuse": "religious",
        "religion": "hindu"
      }
    },
    {
      "type": "way",
      "id": 1445730558,
      "center": {
        "lat": 12.8742939,
        "lon": 77.5895309
      },
      "tags": {
        "access": "private",
        "leisure": "swimming_pool"
      }
    },
    {
      "type": "way",
      "id": 1445730559,
      "center": {
        "lat": 12.8724507,
        "lon": 77.5892033
      },
      "tags": {
        "access": "private",
        "leisure": "swimming_pool"
      }
    },
    {
      "type": "way",
      "id": 1445730560,
      "center": {
        "lat": 12.8717163,
        "lon": 77.5890061
      },
      "tags": {
        "access": "private",
        "leisure": "swimming_pool"
      }
    }
  ]
}