{
  "area_name": "LRDE Layout",
  "osm_id": 12298364843,
  "osm_type": "node",
  "place_type": "neighbourhood",
  "amenity_count": 269,
  "amenities": [
    {
      "type": "node",
      "id": 983942385,
      "lat": 12.9622669,
      "lon": 77.7014635,
      "tags": {
        "addr:city": "Doddanekundi, Marathahalli",
        "addr:street": "Outer Ring Road",
        "amenity": "cafe",
        "cuisine": "coffee_shop",
        "name": "The Coffee Brewery"
      }
    },
    {
      "type": "node",
      "id": 1024500714,
      "lat": 12.9647425,
      "lon": 77.701796,
      "tags": {
        "addr:city": "Marathhalli, Bangalore",
        "addr:housenumber": "95/3",
        "addr:postcode": "560037",
        "addr:street": "Outer Ring Road",
        "email": "nayeemahmed@yahoo.com",
        "name": "Auto Sound",
        "phone": "+9-80-65838277",
        "service": "parts",
        "shop": "car"
      }
    },
    {
      "type": "node",
      "id": 1058729953,
      "lat": 12.9656267,
      "lon": 77.7018348,
      "tags": {
        "addr:city": "Doddanekundi, Bangalore",
        "addr:housename": "MR Kote Plaza",
        "addr:housenumber": "95/3",
        "addr:street": "Outer Ring Road",
        "amenity": "restaurant",
        "name": "Infusion Restaurant",
        "name:kn": "ಇನ್‌ಫ್ಯುಶನ್ ರೆಸ್ಟೋರೆಂಟ್"
      }
    },
    {
      "type": "node",
      "id": 1058729963,
      "lat": 12.9655927,
      "lon": 77.7018319,
      "tags": {
        "addr:city": "Doddanekundi, Bangalore",
        "addr:street": "Outer Ring Road",
        "check_date": "2024-10-20",
        "name": "Smart Point",
        "payment:cash": "yes",
        "payment:credit_cards": "yes",
        "payment:debit_cards": "yes",
        "shop": "supermarket"
      }
    },
    {
      "type": "node",
      "id": 1338100076,
      "lat": 12.9717515,
      "lon": 77.6935258,
      "tags": {
        "amenity": "place_of_worship",
        "check_date": "2024-04-01",
        "name": "Temple (Ram Temple)",
        "name:kn": "ದೇವಸ್ಥಾನ",
        "religion": "hindu"
      }
    },
    {
      "type": "node",
      "id": 1386045373,
      "lat": 12.9686771,
      "lon": 77.7010336,
      "tags": {
        "air_conditioning": "yes",
        "amenity": "cafe",
        "brand": "Cafe Coffee Day",
        "brand:wikidata": "Q5017235",
        "check_date:opening_hours": "2024-04-01",
        "cuisine": "coffee_shop",
        "diet:halal": "yes",
        "diet:vegan": "yes",
        "diet:vegetarian": "yes",
        "indoor_seating": "yes",
        "name": "Cafe Coffee Day",
        "name:kn": "ಕಫೆ ಕಾಫಿ ಡೇ",
        "opening_hours": "Mo-Su 08:00-24:00",
        "outdoor_seating": "yes",
        "smoking": "no",
        "takeaway": "yes",
        "wheelchair": "no"
      }
    },
    {
      "type": "node",
      "id": 1496447448,
      "lat": 12.967649,
      "lon": 77.7041355,
      "tags": {
        "amenity": "place_of_worship",
        "name": "Mariamma Temple",
        "name:kn": "ಮಾರಿಯಮ್ಮ ದೇವಸ್ಥಾನ",
        "religion": "hindu"
      }
    },
    {
      "type": "node",
      "id": 2319910824,
      "lat": 12.9626081,
      "lon": 77.7014948,
      "tags": {
        "air_conditioning": "yes",
        "amenity": "fast_food",
        "brand": "Domino's",
        "brand:ks": "ڈومینوز",
        "brand:pa": "ਡੋਮੀਨੋਜ਼",
        "brand:ur": "ڈومینوز",
        "brand:wikidata": "Q839466",
        "brand:wikipedia": "en:Domino's Pizza",
        "check_date": "2023-08-15",
        "cuisine": "pizza",
        "diet:vegetarian": "yes",
        "drive_through": "no",
        "highchair": "no",
        "indoor_seating": "yes",
        "name": "Domino's",
        "name:ks": "ڈومینوز",
        "name:pa": "ਡੋਮੀਨੋਜ਼",
        "name:ur": "ڈومینوز",
        "outdoor_seating": "no",
        "payment:mastercard": "yes",
        "payment:visa": "yes",
        "smoking": "no",
        "takeaway": "yes",
        "wheelchair": "limited"
      }
    },
    {
      "type": "node",
      "id": 2319910827,
      "lat": 12.9608453,
      "lon": 77.7012326,
      "tags": {
        "amenity": "bank",
        "atm": "yes",
        "brand": "IndusInd Bank",
        "brand:wikidata": "Q2040323",
        "brand:wikipedia": "en:IndusInd Bank",
        "check_date": "2025-04-04",
        "name": "IndusInd Bank",
        "name:en": "IndusInd Bank",
        "website": "https://www.indusind.com",
        "wheelchair": "no"
      }
    },
    {
      "type": "node",
      "id": 2319910832,
      "lat": 12.9621049,
      "lon": 77.7014185,
      "tags": {
        "check_date": "2025-04-09",
        "name": "Just Bake",
        "shop": "bakery"
      }
    },
    {
      "type": "node",
      "id": 2319910852,
      "lat": 12.9605015,
      "lon": 77.7016821,
      "tags": {
        "addr:floor": "3",
        "amenity": "restaurant",
        "check_date": "2023-07-08",
        "indoor_seating": "yes",
        "level": "3",
        "name": "Nizam's Biryani House",
        "outdoor_seating": "no",
        "source": "survey",
        "wheelchair": "no"
      }
    },
    {
      "type": "node",
      "id": 2319910855,
      "lat": 12.9611673,
      "lon": 77.7012927,
      "tags": {
        "name": "Reliance Mobile Store",
        "shop": "mobile_phone",
        "wheelchair": "no"
      }
    },
    {
      "type": "node",
      "id": 2319910858,
      "lat": 12.9651619,
      "lon": 77.7017201,
      "tags": {
        "amenity": "restaurant",
        "cuisine": "chinese",
        "name": "Shogun"
      }
    },
    {
      "type": "node",
      "id": 2319910861,
      "lat": 12.9609553,
      "lon": 77.7012529,
      "tags": {
        "amenity": "bank",
        "atm": "yes",
        "brand": "State Bank of India",
        "brand:wikidata": "Q1340361",
        "brand:wikipedia": "en:State Bank of India",
        "name": "State Bank of India",
        "name:kn": "ಭಾರತೀಯ ಸ್ಟೇಟ್ ಬ್ಯಾಂಕ್",
        "short_name": "SBI",
        "website": "https://www.sbi.co.in",
        "wheelchair": "no"
      }
    },
    {
      "type": "node",
      "id": 2319910865,
      "lat": 12.965205,
      "lon": 77.7017287,
      "tags": {
        "amenity": "restaurant",
        "check_date": "2022-10-15",
        "indoor_seating": "yes",
        "name": "ORR Dhaba",
        "outdoor_seating": "no",
        "wheelchair": "no"
      }
    },
    {
      "type": "node",
      "id": 2319910871,
      "lat": 12.9616519,
      "lon": 77.7019055,
      "tags": {
        "name": "iDeal Drapes N Decor",
        "shop": "furniture"
      }
    },
    {
      "type": "node",
      "id": 2319911059,
      "lat": 12.9604135,
      "lon": 77.701674,
      "tags": {
        "amenity": "bank",
        "atm": "yes",
        "brand": "Karnataka Bank",
        "brand:wikidata": "Q2042632",
        "name": "Karnataka Bank",
        "operator": "Karnataka Bank"
      }
    },
    {
      "type": "node",
      "id": 4350017198,
      "lat": 12.9608703,
      "lon": 77.7017044,
      "tags": {
        "amenity": "bank",
        "brand": "HDFC Bank",
        "brand:wikidata": "Q631047",
        "name": "HDFC Bank",
        "name:kn": "ಎಚ್ ಡಿ ಎಫ್ ಸಿ",
        "short_name": "HDFC",
        "wheelchair": "no"
      }
    },
    {
      "type": "node",
      "id": 4365896504,
      "lat": 12.971484,
      "lon": 77.6943016,
      "tags": {
        "amenity": "post_office",
        "brand": "Professional Couriers",
        "check_date": "2023-09-03",
        "internet_access": "no",
        "name": "Professional Couriers",
        "source": "survey"
      }
    },
    {
      "type": "node",
      "id": 4444224749,
      "lat": 12.9654302,
      "lon": 77.7018173,
      "tags": {
        "addr:city": "Bangalore",
        "addr:housenumber": "95/3",
        "addr:postcode": "560037",
        "addr:street": "Outer Ring Road",
        "air_conditioning": "yes",
        "amenity": "fast_food",
        "brand": "Burger King",
        "brand:wikidata": "Q177054",
        "check_date": "2025-02-26",
        "cuisine": "burger",
        "delivery": "yes",
        "diet:vegetarian": "yes",
        "indoor_seating": "yes",
        "name": "Burger King",
        "opening_hours": "08:00-01:00",
        "outdoor_seating": "no",
        "payment:cash": "yes",
        "payment:credit_cards": "yes",
        "payment:debit_cards": "yes",
        "smoking": "no",
        "source": "survey",
        "takeaway": "yes"
      }
    },
    {
      "type": "node",
      "id": 4447087023,
      "lat": 12.9617937,
      "lon": 77.7013456,
      "tags": {
        "addr:city": "Bengaluru",
        "addr:postcode": "560037",
        "addr:street": "Next to US Pizza, Ring Road,Marathahalli",
        "amenity": "restaurant",
        "cuisine": "regional",
        "delivery": "yes",
        "name": "Delhi Walle",
        "opening_hours": "11:00-23:00",
        "phone": "080 64539513",
        "smoking": "no",
        "takeaway": "yes"
      }
    },
    {
      "type": "node",
      "id": 4447173684,
      "lat": 12.9651193,
      "lon": 77.7017267,
      "tags": {
        "addr:city": "Marathhalli, Bangalore",
        "addr:housenumber": "3",
        "addr:postcode": "560037",
        "addr:street": "Marathahalli-Sarjapur Outer Ring Road, Marathahalli",
        "amenity": "restaurant",
        "check_date": "2022-10-15",
        "cuisine": "regional",
        "delivery": "yes",
        "name": "Malgudi Southern Cuisine",
        "opening_hours": "11:30-15:30, 19:00-23:30",
        "phone": "080 2540 1351",
        "smoking": "no",
        "takeaway": "yes",
        "wheelchair": "limited"
      }
    },
    {
      "type": "node",
      "id": 4487958120,
      "lat": 12.9612173,
      "lon": 77.7042426,
      "tags": {
        "addr:city": "Bangalore",
        "addr:housenumber": "280",
        "addr:postcode": "560037",
        "addr:street": "Chinnappanahalli Road",
        "name": "WheelSports",
        "phone": "088615 64439",
        "shop": "sports",
        "website": "http://wheelsports.in/"
      }
    },
    {
      "type": "node",
      "id": 4488069597,
      "lat": 12.9655735,
      "lon": 77.7018297,
      "tags": {
        "addr:city": "Marathhalli, Bangalore",
        "addr:postcode": "560037",
        "addr:street": "Outer Ring Road",
        "brand": "Reliance Fresh",
        "brand:wikidata": "Q7311014",
        "name": "Reliance Fresh",
        "name:kn": "ರಿಲಾಯನ್ಸ್ ಫ್ರೆಶ್",
        "opening_hours": "07:00-21:00",
        "phone": "(91)-22-40176400",
        "shop": "supermarket"
      }
    },
    {
      "type": "node",
      "id": 4488145602,
      "lat": 12.9729164,
      "lon": 77.7011884,
      "tags": {
        "addr:postcode": "560037",
        "check_date": "2024-11-24",
        "check_date:opening_hours": "2021-12-05",
        "name": "Gateway Super Bazaar",
        "opening_hours": "07:00-22:30",
        "payment:cash": "yes",
        "payment:credit_cards": "yes",
        "payment:debit_cards": "yes",
        "payment:upi": "yes",
        "shop": "supermarket",
        "wheelchair": "no"
      }
    },
    {
      "type": "node",
      "id": 4488488457,
      "lat": 12.9721261,
      "lon": 77.6987222,
      "tags": {
        "addr:city": "Bangalore",
        "addr:housenumber": "102/2",
        "addr:postcode": "560037",
        "addr:street": "Outer Ring Road  Narayana Reddy Building, Doddanekundi Extension",
        "name": "Plaza Supermarket",
        "opening_hours": "08:00-21:00",
        "phone": "(91)-80-25405115",
        "shop": "supermarket"
      }
    },
    {
      "type": "node",
      "id": 4489203242,
      "lat": 12.9650782,
      "lon": 77.7025083,
      "tags": {
        "addr:city": "Bangalore",
        "addr:postcode": "560037",
        "addr:street": "JCR Tower, 1st A Main Road, Aswath Nagar, Chinnapanna Halli, Anand Nagar, Aswath Nagar",
        "name": "Sports365.in",
        "opening_hours": "11:00-19:00",
        "phone": "080 6555 5956",
        "shop": "sports",
        "website": "https://sports365.in/"
      }
    },
    {
      "type": "node",
      "id": 4489895353,
      "lat": 12.9651102,
      "lon": 77.7017888,
      "tags": {
        "addr:city": "Bengaluru,",
        "addr:housenumber": "No. 95/3",
        "addr:postcode": "560037",
        "addr:street": ", Doddanakundi, Marathahalli Ring Road, Marathahalli, Sanjay Nagar,, Anand Nagar, Aswath Nagar, Chinnapanna Halli, Bengaluru, Karnataka",
        "leisure": "sports_centre",
        "name": "O2 Health Studio",
        "opening_hours": "5:00-22:00"
      }
    },
    {
      "type": "node",
      "id": 4489960099,
      "lat": 12.9731178,
      "lon": 77.7013024,
      "tags": {
        "addr:city": "Bangalore",
        "addr:housenumber": "14",
        "addr:postcode": "560037",
        "addr:street": "Outer Ring Road",
        "name": "Fashion Quotient Unisex Saloon And Spa",
        "opening_hours": "09:30-21:30",
        "phone": "080-28510719",
        "shop": "beauty",
        "wheelchair": "no"
      }
    },
    {
      "type": "node",
      "id": 5503164668,
      "lat": 12.9694372,
      "lon": 77.6937276,
      "tags": {
        "name": "Green Father, Vegitable Shop",
        "shop": "supermarket"
      }
    },
    {
      "type": "node",
      "id": 5503164669,
      "lat": 12.9694729,
      "lon": 77.6937382,
      "tags": {
        "name": "mobile recharge",
        "shop": "mobile_phone"
      }
    },
    {
      "type": "node",
      "id": 5503164671,
      "lat": 12.9691864,
      "lon": 77.693647,
      "tags": {
        "amenity": "pharmacy",
        "healthcare": "pharmacy",
        "name": "Mahadev Medical and General Store"
      }
    },
    {
      "type": "node",
      "id": 5503164672,
      "lat": 12.9699346,
      "lon": 77.6937681,
      "tags": {
        "name": "Cell fix Smart Solutions",
        "opening_hours": "Mo-Sa 10:00-22:00",
        "shop": "computer"
      }
    },
    {
      "type": "node",
      "id": 5503164674,
      "lat": 12.9702401,
      "lon": 77.6939474,
      "tags": {
        "amenity": "restaurant",
        "cuisine": "biriyani;chicken",
        "indoor_seating": "yes",
        "name": "Ambur Biriyani",
        "name:kn": "ಅಂಬುರ್ ಬಿರಿಯಾನಿ",
        "opening_hours": "10:00-22:00",
        "outdoor_seating": "no"
      }
    },
    {
      "type": "node",
      "id": 5503164675,
      "lat": 12.9702107,
      "lon": 77.6939409,
      "tags": {
        "name": "Shri Venkateshwara Tent House",
        "opening_hours": "Mo-Su 09:30-23:00",
        "shop": "Tent_House"
      }
    },
    {
      "type": "node",
      "id": 5503164676,
      "lat": 12.9691492,
      "lon": 77.6936356,
      "tags": {
        "amenity": "atm",
        "check_date": "2022-07-02",
        "currency:INR": "yes",
        "operator": "HDFC ATM"
      }
    },
    {
      "type": "node",
      "id": 5503164677,
      "lat": 12.9691135,
      "lon": 77.6936234,
      "tags": {
        "name": "Utensils and Private Cylender Shop",
        "shop": "convenience"
      }
    },
    {
      "type": "node",
      "id": 5503164678,
      "lat": 12.9694399,
      "lon": 77.6936418,
      "tags": {
        "name": "Utensils and Private Cylender Shop",
        "shop": "convenience"
      }
    },
    {
      "type": "node",
      "id": 5503164679,
      "lat": 12.9690246,
      "lon": 77.693603,
      "tags": {
        "name": "chicken shop",
        "shop": "butcher"
      }
    },
    {
      "type": "node",
      "id": 5503164680,
      "lat": 12.9689482,
      "lon": 77.6936044,
      "tags": {
        "name": "Iris Eye Care",
        "shop": "optician"
      }
    },
    {
      "type": "node",
      "id": 5503164681,
      "lat": 12.9687983,
      "lon": 77.693571,
      "tags": {
        "name": "Max Shoppee",
        "shop": "supermarket"
      }
    },
    {
      "type": "node",
      "id": 5503164682,
      "lat": 12.9687775,
      "lon": 77.6935639,
      "tags": {
        "amenity": "fast_food",
        "cuisine": "momo",
        "indoor_seating": "no",
        "name": "Momo Center",
        "outdoor_seating": "no",
        "takeaway": "only"
      }
    },
    {
      "type": "node",
      "id": 5503164683,
      "lat": 12.9690025,
      "lon": 77.6934988,
      "tags": {
        "amenity": "restaurant",
        "cuisine": "indian",
        "indoor_seating": "yes",
        "name": "Gopal Dhaba",
        "outdoor_seating": "no"
      }
    },
    {
      "type": "node",
      "id": 5503164684,
      "lat": 12.9687034,
      "lon": 77.6935455,
      "tags": {
        "amenity": "atm",
        "check_date": "2024-03-15",
        "currency:INR": "yes",
        "network": "State Bank Of India",
        "operator": "SBI Bank ATM"
      }
    },
    {
      "type": "node",
      "id": 5503164692,
      "lat": 12.9688212,
      "lon": 77.6934744,
      "tags": {
        "amenity": "fast_food",
        "indoor_seating": "no",
        "name": "Hot Chips",
        "outdoor_seating": "no",
        "takeaway": "only"
      }
    },
    {
      "type": "node",
      "id": 5503369887,
      "lat": 12.9702783,
      "lon": 77.6939453,
      "tags": {
        "addr:street": "1st Main, Doddanekundi",
        "name": "Chandan Electricals & Hardware",
        "opening_hours": "Mo-Su 10:00-21:00",
        "phone": "9845448540",
        "shop": "hardware"
      }
    },
    {
      "type": "node",
      "id": 5503379547,
      "lat": 12.9701642,
      "lon": 77.6939213,
      "tags": {
        "addr:street": "1st Main, Doddanekundi",
        "name": "Sri Venkateshwara Tent House",
        "shop": "department_store"
      }
    },
    {
      "type": "node",
      "id": 5503464385,
      "lat": 12.971547,
      "lon": 77.6943036,
      "tags": {
        "check_date": "2023-09-03",
        "indoor_seating": "no",
        "name": "Anil Bakery & Sweets",
        "outdoor_seating": "no",
        "shop": "bakery",
        "takeaway": "only"
      }
    },
    {
      "type": "node",
      "id": 6013565861,
      "lat": 12.966089,
      "lon": 77.7023894,
      "tags": {
        "addr:city": "Marathhalli, Bangalore",
        "addr:street": "Service Road",
        "check_date": "2024-09-18",
        "name": "Royal Enfield Exclusive Service Centre",
        "shop": "motorcycle_repair",
        "source": "survey"
      }
    },
    {
      "type": "node",
      "id": 6040742751,
      "lat": 12.9619887,
      "lon": 77.7014082,
      "tags": {
        "name": "Chai Mania",
        "shop": "coffee"
      }
    },
    {
      "type": "node",
      "id": 6040742827,
      "lat": 12.9618934,
      "lon": 77.7013316,
      "tags": {
        "amenity": "ice_cream",
        "brand": "Baskin-Robbins",
        "brand:wikidata": "Q584601",
        "cuisine": "ice_cream",
        "indoor_seating": "yes",
        "name": "Baskin-Robbins",
        "outdoor_seating": "no"
      }
    },
    {
      "type": "node",
      "id": 6040742828,
      "lat": 12.9620241,
      "lon": 77.7013733,
      "tags": {
        "amenity": "fast_food",
        "name": "Rolls on Wheels"
      }
    },
    {
      "type": "node",
      "id": 6201924576,
      "lat": 12.9712219,
      "lon": 77.6943085,
      "tags": {
        "air_conditioning": "no",
        "amenity": "restaurant",
        "diet:vegan": "yes",
        "diet:vegetarian": "yes",
        "indoor_seating": "yes",
        "name": "Marusa Food Family Restaurant",
        "opening_hours": "Mo-Sa 07:00-22:00",
        "outdoor_seating": "no",
        "smoking": "no"
      }
    },
    {
      "type": "node",
      "id": 6202591009,
      "lat": 12.9708386,
      "lon": 77.6941903,
      "tags": {
        "air_conditioning": "no",
        "amenity": "fast_food",
        "brand": "Five Star Chicken",
        "check_date": "2022-09-14",
        "cuisine": "chicken",
        "delivery": "yes",
        "diet:vegetarian": "yes",
        "indoor_seating": "yes",
        "name": "Five Star Chicken",
        "outdoor_seating": "no",
        "smoking": "no",
        "takeaway": "yes"
      }
    },
    {
      "type": "node",
      "id": 6202625760,
      "lat": 12.9710643,
      "lon": 77.6942355,
      "tags": {
        "amenity": "clinic",
        "healthcare": "clinic",
        "name": "Sri Radha Krishna Clinic",
        "opening_hours": "Mo-Su 09:30-17:00"
      }
    },
    {
      "type": "node",
      "id": 6389225430,
      "lat": 12.9655187,
      "lon": 77.7018296,
      "tags": {
        "branch": "showroom",
        "brand": "KTM",
        "brand:wikidata": "Q215657",
        "name": "KTM",
        "shop": "motorcycle_repair"
      }
    },
    {
      "type": "node",
      "id": 8935990995,
      "lat": 12.9611494,
      "lon": 77.704242,
      "tags": {
        "name": "Cycle Station",
        "shop": "bicycle"
      }
    },
    {
      "type": "node",
      "id": 9291056386,
      "lat": 12.9606981,
      "lon": 77.7012155,
      "tags": {
        "leisure": "fitness_centre",
        "name": "Day & Day Gym"
      }
    },
    {
      "type": "node",
      "id": 9312818686,
      "lat": 12.968592,
      "lon": 77.6935422,
      "tags": {
        "name": "Pet Supply Shop",
        "shop": "pet"
      }
    },
    {
      "type": "node",
      "id": 9312818687,
      "lat": 12.9690162,
      "lon": 77.6936245,
      "tags": {
        "amenity": "pharmacy",
        "dispensing": "yes",
        "drive_through": "no",
        "healthcare": "pharmacy",
        "name": "Maya Clinic Pharmacy"
      }
    },
    {
      "type": "node",
      "id": 9312818688,
      "lat": 12.9689946,
      "lon": 77.6936227,
      "tags": {
        "amenity": "clinic",
        "healthcare": "clinic",
        "healthcare:speciality": "gynaecology",
        "name": "Maya Clinic"
      }
    },
    {
      "type": "node",
      "id": 9332469928,
      "lat": 12.9696568,
      "lon": 77.6962157,
      "tags": {
        "name": "SLR Tailors",
        "shop": "tailor"
      }
    },
    {
      "type": "node",
      "id": 9332469929,
      "lat": 12.9696351,
      "lon": 77.697157,
      "tags": {
        "name": "Gopis Stores",
        "opening_hours": "Mo-Sa 09:00-21:30",
        "shop": "general"
      }
    },
    {
      "type": "node",
      "id": 9332469950,
      "lat": 12.9721915,
      "lon": 77.6976338,
      "tags": {
        "amenity": "bank",
        "brand": "State Bank of India",
        "brand:wikidata": "Q1340361",
        "brand:wikipedia": "en:State Bank of India",
        "name": "State Bank of India",
        "opening_hours": "Mo-Fr 09:30-18:00",
        "short_name": "SBI"
      }
    },
    {
      "type": "node",
      "id": 9332469951,
      "lat": 12.9721987,
      "lon": 77.6976091,
      "tags": {
        "amenity": "atm",
        "brand": "State Bank of India",
        "brand:wikidata": "Q1340361",
        "brand:wikipedia": "en:State Bank of India",
        "cash_in": "no",
        "name": "State Bank of India",
        "name:kn": "ಎಸ್ ಬಿ ಐ",
        "operator": "State Bank of India",
        "operator:wikidata": "Q1340361",
        "operator:wikipedia": "en:State Bank of India",
        "short_name": "SBI"
      }
    },
    {
      "type": "node",
      "id": 9332469952,
      "lat": 12.9721987,
      "lon": 77.6979077,
      "tags": {
        "amenity": "atm",
        "cash_in": "no",
        "indoor": "no",
        "operator": "Kotak Mahindra Bank ATM"
      }
    },
    {
      "type": "node",
      "id": 9332469957,
      "lat": 12.9733976,
      "lon": 77.6936603,
      "tags": {
        "amenity": "pharmacy",
        "brand": "MedPlus",
        "brand:wikidata": "Q65684234",
        "check_date": "2024-10-10",
        "dispensing": "yes",
        "drive_through": "no",
        "healthcare": "pharmacy",
        "name": "MedPlus",
        "name:en": "MedPlus",
        "payment:cash": "yes",
        "payment:credit_cards": "yes",
        "payment:debit_cards": "yes",
        "payment:upi": "yes",
        "source": "local knowledge",
        "wheelchair": "no"
      }
    },
    {
      "type": "node",
      "id": 9381352825,
      "lat": 12.9689173,
      "lon": 77.6934949,
      "tags": {
        "amenity": "fast_food",
        "cuisine": "juice;sandwich",
        "indoor_seating": "no",
        "name": "Lassi Shop",
        "outdoor_seating": "yes"
      }
    },
    {
      "type": "node",
      "id": 9381352832,
      "lat": 12.9715277,
      "lon": 77.6943109,
      "tags": {
        "check_date": "2023-09-03",
        "level": "1",
        "name": "VS Tailoring & Boutique",
        "shop": "tailor"
      }
    },
    {
      "type": "node",
      "id": 9381352833,
      "lat": 12.9715076,
      "lon": 77.6943046,
      "tags": {
        "amenity": "internet_cafe",
        "name": "Balaji Super Xerox"
      }
    },
    {
      "type": "node",
      "id": 9381352846,
      "lat": 12.9712747,
      "lon": 77.6919326,
      "tags": {
        "name": "Deli day Mart",
        "shop": "supermarket",
        "wheelchair": "no"
      }
    },
    {
      "type": "node",
      "id": 9782472322,
      "lat": 12.9627812,
      "lon": 77.7014411,
      "tags": {
        "brand": "Mahindra",
        "check_date": "2025-04-09",
        "name": "Mahindra",
        "shop": "car"
      }
    },
    {
      "type": "node",
      "id": 9841349418,
      "lat": 12.9748408,
      "lon": 77.6972081,
      "tags": {
        "amenity": "restaurant",
        "check_date": "2025-03-10",
        "indoor_seating": "yes",
        "name": "Sri Udupi Park",
        "outdoor_seating": "no"
      }
    },
    {
      "type": "node",
      "id": 9909036719,
      "lat": 12.969231,
      "lon": 77.7013535,
      "tags": {
        "check_date": "2024-09-04",
        "name": "Jodhpuri Furniture",
        "payment:credit_cards": "yes",
        "payment:debit_cards": "yes",
        "shop": "furniture",
        "website": "https://www.jodhpurifurniture.com/",
        "wheelchair": "no"
      }
    },
    {
      "type": "node",
      "id": 9909062519,
      "lat": 12.9698339,
      "lon": 77.700326,
      "tags": {
        "amenity": "bank",
        "atm": "yes",
        "branch": "Karthik Nagar",
        "brand": "Axis Bank",
        "brand:wikidata": "Q2003549",
        "brand:wikipedia": "en:Axis Bank",
        "check_date": "2025-02-04",
        "name": "Axis Bank",
        "name:kn": "ಆಕ್ಸಿಸ್ ಬ್ಯಾಂಕ್",
        "wheelchair": "no"
      }
    },
    {
      "type": "node",
      "id": 9909082517,
      "lat": 12.9609128,
      "lon": 77.7016259,
      "tags": {
        "check_date": "2022-07-23",
        "name": "Nandini Milk Parlour",
        "shop": "dairy"
      }
    },
    {
      "type": "node",
      "id": 9909083417,
      "lat": 12.969514,
      "lon": 77.7005134,
      "tags": {
        "amenity": "bank",
        "atm": "yes",
        "branch": "Karthik Nagar",
        "brand": "HDFC Bank",
        "brand:wikidata": "Q631047",
        "brand:wikipedia": "en:HDFC Bank",
        "check_date": "2025-02-04",
        "name": "HDFC Bank",
        "name:kn": "ಎಚ್ ಡಿ ಎಫ್ ಸಿ",
        "short_name": "HDFC",
        "wheelchair": "no"
      }
    },
    {
      "type": "node",
      "id": 9967069617,
      "lat": 12.9650736,
      "lon": 77.701674,
      "tags": {
        "amenity": "clinic",
        "name": "Iswarya Fertility"
      }
    },
    {
      "type": "node",
      "id": 9967070882,
      "lat": 12.9694108,
      "lon": 77.700554,
      "tags": {
        "addr:housenumber": "9",
        "addr:street": "Outer Ring Road",
        "addr:unit": "UB Elega",
        "air_conditioning": "yes",
        "amenity": "cafe",
        "bar": "no",
        "changing_table": "no",
        "check_date": "2025-09-11",
        "check_date:diet:halal": "2025-09-11",
        "check_date:opening_hours": "2025-09-11",
        "cuisine": "coffee_shop;sandwich;burger",
        "diet:halal": "yes",
        "diet:non-vegetarian": "yes",
        "diet:vegan": "yes",
        "diet:vegetarian": "yes",
        "email": "karthiknagar@thirdwavecoffee.in",
        "highchair": "yes",
        "indoor_seating": "yes",
        "internet_access": "wlan",
        "internet_access:fee": "no",
        "name": "Third Wave Coffee",
        "opening_hours": "08:00-01:00",
        "outdoor_seating": "no",
        "payment:cash": "yes",
        "payment:credit_cards": "yes",
        "payment:debit_cards": "yes",
        "payment:mastercard": "yes",
        "payment:upi": "yes",
        "payment:visa": "yes",
        "phone": "+91 80957 99577",
        "smoking": "no",
        "source": "survey",
        "takeaway": "yes",
        "website": "https://cafe.thirdwavecoffee.in/coffee-cafe-bengaluru-north-bengaluru-29973/home",
        "wheelchair": "no"
      }
    },
    {
      "type": "node",
      "id": 9978416918,
      "lat": 12.9689247,
      "lon": 77.7007968,
      "tags": {
        "check_date": "2025-04-04",
        "name": "Naturals",
        "shop": "hairdresser",
        "wheelchair": "no"
      }
    },
    {
      "type": "node",
      "id": 9978419617,
      "lat": 12.9701175,
      "lon": 77.7001617,
      "tags": {
        "check_date": "2022-08-21",
        "female": "yes",
        "male": "yes",
        "name": "Green Trends",
        "opening_hours": "Mo-Fr 10:00-21:00; Sa,Su 10:00-21:00",
        "shop": "hairdresser"
      }
    },
    {
      "type": "node",
      "id": 9978419618,
      "lat": 12.9754863,
      "lon": 77.6967198,
      "tags": {
        "amenity": "pharmacy",
        "check_date": "2024-10-20",
        "healthcare": "pharmacy",
        "name": "A-Z Pharma",
        "wheelchair": "no"
      }
    },
    {
      "type": "node",
      "id": 9978419717,
      "lat": 12.9714621,
      "lon": 77.6992279,
      "tags": {
        "amenity": "place_of_worship",
        "check_date": "2025-04-04",
        "name": "Sri Krishna Temple",
        "religion": "hindu"
      }
    },
    {
      "type": "node",
      "id": 9980237115,
      "lat": 12.9716395,
      "lon": 77.7078552,
      "tags": {
        "amenity": "parking_entrance",
        "parking": "underground"
      }
    },
    {
      "type": "node",
      "id": 9980275626,
      "lat": 12.9707731,
      "lon": 77.7084807,
      "tags": {
        "amenity": "parking_entrance",
        "parking": "underground"
      }
    },
    {
      "type": "node",
      "id": 9980275627,
      "lat": 12.9710322,
      "lon": 77.7086229,
      "tags": {
        "amenity": "parking_entrance",
        "parking": "underground"
      }
    },
    {
      "type": "node",
      "id": 10019847618,
      "lat": 12.9780136,
      "lon": 77.6987125,
      "tags": {
        "addr:street": "Ferns City Road",
        "air_conditioning": "yes",
        "check_date": "2024-10-20",
        "check_date:opening_hours": "2024-10-20",
        "internet_access": "no",
        "name": "Srinidhi Mart",
        "opening_hours": "Mo-Su 07:00-22:45",
        "organic": "yes",
        "payment:cash": "yes",
        "payment:credit_cards": "yes",
        "payment:debit_cards": "yes",
        "payment:upi": "yes",
        "phone": "+919513095454",
        "second_hand": "no",
        "shop": "convenience",
        "toilets": "no",
        "wheelchair": "yes"
      }
    },
    {
      "type": "node",
      "id": 10049459241,
      "lat": 12.9708452,
      "lon": 77.7078269,
      "tags": {
        "amenity": "fountain"
      }
    },
    {
      "type": "node",
      "id": 10049459248,
      "lat": 12.9715377,
      "lon": 77.7081105,
      "tags": {
        "amenity": "parking_entrance",
        "parking": "underground"
      }
    },
    {
      "type": "node",
      "id": 10067234338,
      "lat": 12.9616928,
      "lon": 77.7013123,
      "tags": {
        "brand": "Airtel",
        "brand:wikidata": "Q854867",
        "name": "Airtel",
        "shop": "mobile_phone"
      }
    },
    {
      "type": "node",
      "id": 10067234339,
      "lat": 12.9660089,
      "lon": 77.7018486,
      "tags": {
        "brand": "Bajaj",
        "brand:wikidata": "Q10910065",
        "name": "Bajaj",
        "name:kn": "ಬಜಾಜ್",
        "shop": "motorcycle",
        "wheelchair": "no"
      }
    },
    {
      "type": "node",
      "id": 10067234340,
      "lat": 12.965789,
      "lon": 77.7018296,
      "tags": {
        "brand": "KTM",
        "brand:wikidata": "Q215657",
        "check_date": "2025-04-09",
        "name": "KTM",
        "shop": "motorcycle"
      }
    },
    {
      "type": "node",
      "id": 10067234353,
      "lat": 12.9609687,
      "lon": 77.7017563,
      "tags": {
        "air_conditioning": "yes",
        "amenity": "restaurant",
        "cuisine": "chinese",
        "diet:vegetarian": "yes",
        "indoor_seating": "yes",
        "name": "Chinese Wok",
        "outdoor_seating": "no",
        "smoking": "no"
      }
    },
    {
      "type": "node",
      "id": 10067234358,
      "lat": 12.9611587,
      "lon": 77.7018185,
      "tags": {
        "check_date": "2025-04-05",
        "clothes": "women",
        "name": "Kalanikethan",
        "shop": "clothes"
      }
    },
    {
      "type": "node",
      "id": 10093104864,
      "lat": 12.9702593,
      "lon": 77.7075337,
      "tags": {
        "amenity": "parking_entrance",
        "parking": "underground"
      }
    },
    {
      "type": "node",
      "id": 10110415035,
      "lat": 12.9650534,
      "lon": 77.7017054,
      "tags": {
        "air_conditioning": "yes",
        "amenity": "restaurant",
        "bar": "no",
        "check_date": "2025-04-09",
        "cuisine": "regional",
        "delivery": "yes",
        "diet:non-vegetarian": "yes",
        "diet:vegetarian": "yes",
        "highchair": "no",
        "indoor_seating": "yes",
        "internet_access": "no",
        "name": "Paradise Biryani",
        "opening_hours": "11:00-23:00",
        "outdoor_seating": "no",
        "payment:cash": "yes",
        "payment:credit_cards": "yes",
        "payment:debit_cards": "yes",
        "payment:upi": "yes",
        "smoking": "no",
        "source": "survey",
        "takeaway": "yes",
        "wheelchair": "limited"
      }
    },
    {
      "type": "node",
      "id": 10542364542,
      "lat": 12.9756648,
      "lon": 77.697396,
      "tags": {
        "air_conditioning": "yes",
        "amenity": "fast_food",
        "brand": "McDonald's",
        "brand:wikidata": "Q38076",
        "check_date": "2024-04-03",
        "cuisine": "burger",
        "delivery": "yes",
        "diet:vegetarian": "yes",
        "drive_through": "no",
        "highchair": "yes",
        "indoor_seating": "yes",
        "name": "McDonald's",
        "opening_hours": "Mo-Su 11:00-23:00",
        "outdoor_seating": "no",
        "payment:mastercard": "yes",
        "payment:upi": "yes",
        "payment:visa": "yes",
        "phone": "+91 90476 13998",
        "smoking": "no",
        "source": "survey",
        "takeaway": "yes",
        "wheelchair": "limited"
      }
    },
    {
      "type": "node",
      "id": 10675551013,
      "lat": 12.9663948,
      "lon": 77.7080119,
      "tags": {
        "amenity": "place_of_worship",
        "name": "Kateriamma and Shiva Temple",
        "religion": "hindu"
      }
    },
    {
      "type": "node",
      "id": 10676221190,
      "lat": 12.9704711,
      "lon": 77.7069485,
      "tags": {
        "name": "Reddy Stores",
        "shop": "convenience"
      }
    },
    {
      "type": "node",
      "id": 10676221191,
      "lat": 12.9704418,
      "lon": 77.7069478,
      "tags": {
        "amenity": "fast_food",
        "cuisine": "juice",
        "name": "Sri Ganesh Fruit Juice Center"
      }
    },
    {
      "type": "node",
      "id": 10992680247,
      "lat": 12.9714847,
      "lon": 77.6941294,
      "tags": {
        "check_date": "2023-09-03",
        "indoor_seating": "no",
        "name": "Anil Bakery & Sweets",
        "outdoor_seating": "no",
        "shop": "bakery",
        "takeaway": "only"
      }
    },
    {
      "type": "node",
      "id": 10992684349,
      "lat": 12.9712879,
      "lon": 77.6941564,
      "tags": {
        "amenity": "pharmacy",
        "check_date": "2023-09-03",
        "drive_through": "no",
        "name": "Shri Veer Teja Medical And General Store",
        "phone": "+91 73535 12470; +91 97720 07279",
        "source": "survey"
      }
    },
    {
      "type": "node",
      "id": 11056993028,
      "lat": 12.9692353,
      "lon": 77.7006739,
      "tags": {
        "addr:housenumber": "92",
        "addr:street": "Outer Ring Road",
        "amenity": "college",
        "check_date": "2025-09-11",
        "email": "srushtidegreecollege@gmail.com",
        "name": "Srushti Degree College",
        "phone": "+91 99646 45111; +91 97409 56262",
        "source": "survey",
        "website": "https://srushtidegreecollege.com/"
      }
    },
    {
      "type": "node",
      "id": 11091793283,
      "lat": 12.9756215,
      "lon": 77.6974475,
      "tags": {
        "brand": "cult.fit",
        "brand:wikidata": "Q121289250",
        "check_date": "2025-08-16",
        "leisure": "fitness_centre",
        "level": "1",
        "name": "cult.fit",
        "opening_hours": "Mo-Su 06:00-22:00",
        "source": "survey",
        "wheelchair": "no"
      }
    },
    {
      "type": "node",
      "id": 11116490519,
      "lat": 12.9744148,
      "lon": 77.6973898,
      "tags": {
        "air_conditioning": "yes",
        "amenity": "restaurant",
        "check_date": "2023-08-15",
        "cuisine": "mediterranean",
        "email": "bm.bng1@flechazo.in",
        "indoor_seating": "yes",
        "level": "2",
        "name": "Flechazo",
        "outdoor_seating": "no",
        "payment:mastercard": "yes",
        "payment:visa": "yes",
        "phone": "+91 89512 64441",
        "website": "https://www.flechazo.in"
      }
    },
    {
      "type": "node",
      "id": 11116490520,
      "lat": 12.9775032,
      "lon": 77.6967106,
      "tags": {
        "amenity": "car_wash",
        "check_date": "2023-08-15",
        "name": "Car Armour",
        "opening_hours": "08:30-21:30",
        "phone": "+91 89714 26809; +91 96638 48547",
        "self_service": "no"
      }
    },
    {
      "type": "node",
      "id": 11116490521,
      "lat": 12.9774464,
      "lon": 77.6965554,
      "tags": {
        "air_conditioning": "no",
        "amenity": "restaurant",
        "check_date": "2023-08-15",
        "indoor_seating": "yes",
        "name": "Gowdru Rajanna Hotel",
        "outdoor_seating": "no"
      }
    },
    {
      "type": "node",
      "id": 11164759627,
      "lat": 12.9717447,
      "lon": 77.6941287,
      "tags": {
        "amenity": "place_of_worship",
        "check_date": "2023-09-03",
        "name": "Sri Vinayaka Sri Basavanna devalaya Sri Subramanyam",
        "religion": "hindu"
      }
    },
    {
      "type": "node",
      "id": 11164759628,
      "lat": 12.9714531,
      "lon": 77.6942959,
      "tags": {
        "addr:housenumber": "8",
        "addr:street": "Doddanekkundi Main Road",
        "addr:unit": "Munireddy Building",
        "air_conditioning": "no",
        "check_date": "2023-09-03",
        "email": "nanireddy9019@gmail.com",
        "internet_access": "no",
        "level": "1",
        "name": "Sri Balaji Photostudio & Video",
        "payment:cards": "no",
        "payment:cash": "yes",
        "payment:credit_cards": "no",
        "payment:debit_cards": "no",
        "phone": "+91 90190 60999; +91 99015 15358",
        "shop": "photo",
        "source": "survey",
        "stroller": "no",
        "toilets": "no",
        "wheelchair": "no"
      }
    },
    {
      "type": "node",
      "id": 11309756297,
      "lat": 12.9717655,
      "lon": 77.7072893,
      "tags": {
        "amenity": "fast_food",
        "check_date": "2023-11-03",
        "indoor_seating": "no",
        "name": "Kolkata Famous Rolls",
        "outdoor_seating": "no",
        "takeaway": "only"
      }
    },
    {
      "type": "node",
      "id": 11309756298,
      "lat": 12.9717812,
      "lon": 77.7072495,
      "tags": {
        "check_date": "2023-11-03",
        "name": "Chai Venue",
        "shop": "tea"
      }
    },
    {
      "type": "node",
      "id": 11472780668,
      "lat": 12.9736587,
      "lon": 77.6935433,
      "tags": {
        "amenity": "post_office",
        "brand": "Desk to Desk Courier & Cargo",
        "brand:short": "DTDC",
        "brand:wikidata": "Q55608802",
        "check_date": "2023-12-27",
        "operator": "Desk to Desk Courier & Cargo",
        "operator:short": "DTDC",
        "operator:wikidata": "Q55608802",
        "payment:cards": "no",
        "payment:cash": "yes",
        "payment:credit_cards": "no",
        "payment:debit_cards": "no",
        "source": "survey"
      }
    },
    {
      "type": "node",
      "id": 11488303737,
      "lat": 12.9708364,
      "lon": 77.708717,
      "tags": {
        "amenity": "smoking_area",
        "bench": "no",
        "bin": "yes",
        "shelter": "yes"
      }
    },
    {
      "type": "node",
      "id": 11509027861,
      "lat": 12.9750751,
      "lon": 77.6987885,
      "tags": {
        "access": "private",
        "amenity": "parking_entrance",
        "parking": "underground"
      }
    },
    {
      "type": "node",
      "id": 11509027862,
      "lat": 12.9750273,
      "lon": 77.6987639,
      "tags": {
        "access": "private",
        "amenity": "parking_entrance",
        "parking": "underground"
      }
    },
    {
      "type": "node",
      "id": 11509027896,
      "lat": 12.9766824,
      "lon": 77.7048093,
      "tags": {
        "access": "private",
        "amenity": "parking_entrance",
        "parking": "underground"
      }
    },
    {
      "type": "node",
      "id": 11519266332,
      "lat": 12.9715798,
      "lon": 77.7080737,
      "tags": {
        "amenity": "smoking_area",
        "bench": "yes",
        "bin": "yes",
        "shelter": "yes"
      }
    },
    {
      "type": "node",
      "id": 11519266333,
      "lat": 12.9720503,
      "lon": 77.7085578,
      "tags": {
        "amenity": "fast_food",
        "brand": "Domino's",
        "brand:wikidata": "Q839466",
        "cuisine": "pizza",
        "name": "Domino's",
        "name:kn": "ಡಾಮಿನೋಸ್",
        "note": "Not accessible to general public, only those with SEZ cards can visit it.",
        "takeaway": "yes"
      }
    },
    {
      "type": "node",
      "id": 11519266342,
      "lat": 12.9707518,
      "lon": 77.7077384,
      "tags": {
        "amenity": "cafe",
        "description": "Only accessible to people with SEZ access.",
        "name": "Chai Gully",
        "outdoor_seating": "yes"
      }
    },
    {
      "type": "node",
      "id": 11698082619,
      "lat": 12.9630388,
      "lon": 77.7025776,
      "tags": {
        "access": "private",
        "amenity": "parking_entrance",
        "parking": "underground"
      }
    },
    {
      "type": "node",
      "id": 11698082624,
      "lat": 12.964246,
      "lon": 77.7025456,
      "tags": {
        "access": "private",
        "amenity": "parking_entrance",
        "parking": "underground"
      }
    },
    {
      "type": "node",
      "id": 11871599802,
      "lat": 12.9708631,
      "lon": 77.7070089,
      "tags": {
        "air_conditioning": "yes",
        "amenity": "restaurant",
        "indoor_seating": "yes",
        "level": "0,1",
        "name": "Sri Udupi Swaad",
        "outdoor_seating": "no"
      }
    },
    {
      "type": "node",
      "id": 11891881942,
      "lat": 12.968751,
      "lon": 77.7072133,
      "tags": {
        "amenity": "smoking_area",
        "bench": "yes",
        "bin": "yes",
        "shelter": "no"
      }
    },
    {
      "type": "node",
      "id": 12046469614,
      "lat": 12.9729744,
      "lon": 77.6994417,
      "tags": {
        "amenity": "pharmacy",
        "brand": "Apollo Pharmacy",
        "brand:wikidata": "Q62562612",
        "check_date": "2024-07-10",
        "drive_through": "no",
        "healthcare": "pharmacy",
        "name": "Apollo Pharmacy",
        "payment:cash": "yes",
        "payment:credit_cards": "yes",
        "payment:debit_cards": "yes",
        "source": "survey",
        "wheelchair": "no"
      }
    },
    {
      "type": "node",
      "id": 12046469616,
      "lat": 12.9775379,
      "lon": 77.6968009,
      "tags": {
        "addr:housenumber": "24/4",
        "addr:street": "Ferns City Road",
        "air_conditioning": "no",
        "amenity": "restaurant",
        "bar": "no",
        "check_date": "2024-07-10",
        "diet:vegetarian": "yes",
        "highchair": "no",
        "indoor_seating": "yes",
        "name": "The Secret Garden",
        "outdoor_seating": "yes",
        "payment:cash": "yes",
        "payment:credit_cards": "yes",
        "payment:debit_cards": "yes",
        "source": "survey",
        "takeaway": "yes",
        "toilets": "yes",
        "wheelchair": "limited"
      }
    },
    {
      "type": "node",
      "id": 12046469617,
      "lat": 12.9727907,
      "lon": 77.7008275,
      "tags": {
        "amenity": "atm",
        "brand": "HDFC Bank",
        "brand:wikidata": "Q631047",
        "cash_in": "no",
        "check_date": "2024-07-10",
        "operator": "HDFC Bank",
        "operator:wikidata": "Q631047",
        "short_name": "HDFC"
      }
    },
    {
      "type": "node",
      "id": 12046469618,
      "lat": 12.9727903,
      "lon": 77.7014429,
      "tags": {
        "amenity": "atm",
        "brand": "Axis Bank",
        "brand:wikidata": "Q2003549",
        "check_date": "2024-07-10",
        "operator": "Axis Bank",
        "operator:wikidata": "Q2003549"
      }
    },
    {
      "type": "node",
      "id": 12046469619,
      "lat": 12.9728694,
      "lon": 77.701613,
      "tags": {
        "amenity": "pharmacy",
        "check_date": "2024-07-10",
        "drive_through": "no",
        "healthcare": "pharmacy",
        "name": "Sri Ganesh Medicals & General Stores",
        "phone": "+91 97423 97442",
        "source": "survey",
        "wheelchair": "no"
      }
    },
    {
      "type": "node",
      "id": 12048666409,
      "lat": 12.970242,
      "lon": 77.6999922,
      "tags": {
        "addr:floor": "G",
        "addr:housenumber": "82",
        "addr:street": "Outer Ring Road",
        "addr:unit": "Ground Floor, Kellan Heights",
        "air_conditioning": "yes",
        "amenity": "cafe",
        "branch": "Karthik Nagar",
        "brand": "Chai Point",
        "brand:wikidata": "Q28173415",
        "check_date": "2025-02-04",
        "check_date:diet:vegetarian": "2025-02-04",
        "cuisine": "coffee_shop",
        "diet:vegetarian": "yes",
        "indoor_seating": "yes",
        "internet_access": "wlan",
        "internet_access:fee": "customers",
        "level": "0",
        "name": "Chai Point",
        "opening_hours": "08:00-23:00",
        "outdoor_seating": "no",
        "payment:cash": "yes",
        "payment:credit_cards": "yes",
        "payment:debit_cards": "yes",
        "smoking": "no",
        "takeaway": "yes",
        "wheelchair": "no"
      }
    },
    {
      "type": "node",
      "id": 12161386683,
      "lat": 12.9706387,
      "lon": 77.7060326,
      "tags": {
        "access": "private",
        "amenity": "parking_entrance",
        "parking": "underground"
      }
    },
    {
      "type": "node",
      "id": 12164756014,
      "lat": 12.9725933,
      "lon": 77.7009999,
      "tags": {
        "amenity": "restaurant",
        "indoor_seating": "yes",
        "name": "Koikod",
        "outdoor_seating": "no"
      }
    },
    {
      "type": "node",
      "id": 12164756015,
      "lat": 12.9726116,
      "lon": 77.7010806,
      "tags": {
        "name": "Open Mart",
        "shop": "supermarket"
      }
    },
    {
      "type": "node",
      "id": 12164756016,
      "lat": 12.9725717,
      "lon": 77.7009191,
      "tags": {
        "name": "Gulmohar Botique",
        "shop": "clothes"
      }
    },
    {
      "type": "node",
      "id": 12164756017,
      "lat": 12.9726569,
      "lon": 77.7011724,
      "tags": {
        "name": "Parco",
        "shop": "bakery"
      }
    },
    {
      "type": "node",
      "id": 12164756040,
      "lat": 12.973695,
      "lon": 77.7062235,
      "tags": {
        "access": "private",
        "amenity": "parking_entrance",
        "parking": "underground"
      }
    },
    {
      "type": "node",
      "id": 12176946582,
      "lat": 12.9754341,
      "lon": 77.696718,
      "tags": {
        "addr:floor": "1",
        "amenity": "clinic",
        "level": "1",
        "name": "Partha Dental Clinic"
      }
    },
    {
      "type": "node",
      "id": 12209237276,
      "lat": 12.972399,
      "lon": 77.7004172,
      "tags": {
        "amenity": "car_wash"
      }
    },
    {
      "type": "node",
      "id": 12209237277,
      "lat": 12.9725127,
      "lon": 77.7006733,
      "tags": {
        "shop": "motorcycle_repair"
      }
    },
    {
      "type": "node",
      "id": 12211278636,
      "lat": 12.9723405,
      "lon": 77.7074025,
      "tags": {
        "leisure": "fitness_centre"
      }
    },
    {
      "type": "node",
      "id": 12270718858,
      "lat": 12.9651511,
      "lon": 77.7023679,
      "tags": {
        "amenity": "school",
        "check_date": "2024-10-20",
        "name": "Government Lower Primary School",
        "operator:type": "government"
      }
    },
    {
      "type": "node",
      "id": 12270718859,
      "lat": 12.9658546,
      "lon": 77.7025095,
      "tags": {
        "amenity": "pharmacy",
        "check_date": "2024-10-20",
        "healthcare": "pharmacy",
        "name": "Jeevika Pharmacy"
      }
    },
    {
      "type": "node",
      "id": 12318692112,
      "lat": 12.9721343,
      "lon": 77.6950757,
      "tags": {
        "brand": "Ration Shop",
        "brand:wikidata": "Q60901",
        "check_date": "2024-10-27",
        "name": "Ration Shop",
        "name:en": "Ration shop",
        "operator": "Public Distribution System",
        "operator:type": "public",
        "operator:wikidata": "Q60901",
        "shop": "convenience"
      }
    },
    {
      "type": "node",
      "id": 12500582183,
      "lat": 12.9714686,
      "lon": 77.706628,
      "tags": {
        "amenity": "ice_cream",
        "brand": "Baskin-Robbins",
        "brand:wikidata": "Q584601",
        "cuisine": "ice_cream",
        "name": "Baskin-Robbins"
      }
    },
    {
      "type": "node",
      "id": 12541403707,
      "lat": 12.966116,
      "lon": 77.701998,
      "tags": {
        "name": "Trijal TVS",
        "shop": "motorcycle"
      }
    },
    {
      "type": "node",
      "id": 12541998679,
      "lat": 12.9722492,
      "lon": 77.6982036,
      "tags": {
        "addr:city": "Bengaluru",
        "addr:postcode": "560037",
        "addr:street": "Kartik Layout, Doddanekundi",
        "name": "White Mart",
        "shop": "supermarket"
      }
    },
    {
      "type": "node",
      "id": 12580972673,
      "lat": 12.9608165,
      "lon": 77.7012261,
      "tags": {
        "amenity": "atm",
        "brand": "IndusInd Bank",
        "brand:wikidata": "Q2040323",
        "check_date": "2025-02-12",
        "opening_hours": "24/7",
        "operator": "IndusInd Bank",
        "operator:wikidata": "Q2040323",
        "source": "survey"
      }
    },
    {
      "type": "node",
      "id": 12886637754,
      "lat": 12.9673091,
      "lon": 77.7073923,
      "tags": {
        "amenity": "bench",
        "armrest": "no",
        "backrest": "yes",
        "material": "stone",
        "seats": "4"
      }
    },
    {
      "type": "node",
      "id": 12886637755,
      "lat": 12.9672526,
      "lon": 77.707424,
      "tags": {
        "amenity": "bench",
        "armrest": "no",
        "backrest": "yes",
        "material": "stone",
        "seats": "4"
      }
    },
    {
      "type": "node",
      "id": 12886637756,
      "lat": 12.967143,
      "lon": 77.7075125,
      "tags": {
        "amenity": "bench",
        "armrest": "no",
        "backrest": "no",
        "material": "stone",
        "seats": "4"
      }
    },
    {
      "type": "node",
      "id": 12886637757,
      "lat": 12.9669411,
      "lon": 77.7076136,
      "tags": {
        "amenity": "waste_basket",
        "colour": "green",
        "material": "plastic"
      }
    },
    {
      "type": "node",
      "id": 12886637758,
      "lat": 12.9669411,
      "lon": 77.7076136,
      "tags": {
        "amenity": "bench",
        "armrest": "no",
        "backrest": "yes",
        "material": "stone",
        "seats": "4"
      }
    },
    {
      "type": "node",
      "id": 12886637759,
      "lat": 12.9669411,
      "lon": 77.7076136,
      "tags": {
        "amenity": "bench",
        "armrest": "no",
        "backrest": "no",
        "material": "stone",
        "seats": "4"
      }
    },
    {
      "type": "node",
      "id": 12886637760,
      "lat": 12.9664881,
      "lon": 77.7077109,
      "tags": {
        "amenity": "bench",
        "armrest": "no",
        "backrest": "yes",
        "material": "stone",
        "seats": "4"
      }
    },
    {
      "type": "node",
      "id": 12886637761,
      "lat": 12.9662394,
      "lon": 77.707748,
      "tags": {
        "amenity": "bench",
        "armrest": "no",
        "backrest": "yes",
        "material": "stone",
        "seats": "4"
      }
    },
    {
      "type": "node",
      "id": 12886637762,
      "lat": 12.9660408,
      "lon": 77.7078226,
      "tags": {
        "amenity": "bench",
        "armrest": "no",
        "backrest": "yes",
        "material": "stone",
        "seats": "4"
      }
    },
    {
      "type": "node",
      "id": 12886637763,
      "lat": 12.9660408,
      "lon": 77.7078226,
      "tags": {
        "amenity": "waste_basket",
        "colour": "green",
        "material": "plastic"
      }
    },
    {
      "type": "node",
      "id": 12886637764,
      "lat": 12.965493,
      "lon": 77.7081374,
      "tags": {
        "amenity": "bench",
        "armrest": "no",
        "backrest": "yes",
        "material": "stone",
        "seats": "4"
      }
    },
    {
      "type": "node",
      "id": 12886637765,
      "lat": 12.9652881,
      "lon": 77.7081688,
      "tags": {
        "amenity": "bench",
        "armrest": "no",
        "backrest": "yes",
        "material": "stone",
        "seats": "4"
      }
    },
    {
      "type": "node",
      "id": 12977423652,
      "lat": 12.9688976,
      "lon": 77.7015009,
      "tags": {
        "amenity": "atm",
        "brand": "IDFC First Bank",
        "brand:wikidata": "Q22031467",
        "check_date": "2025-07-04",
        "opening_hours": "24/7",
        "operator": "IDFC First Bank",
        "operator:wikidata": "Q22031467",
        "wheelchair": "no"
      }
    },
    {
      "type": "node",
      "id": 12977423653,
      "lat": 12.9689452,
      "lon": 77.7014681,
      "tags": {
        "amenity": "bank",
        "brand": "IDFC First Bank",
        "brand:wikidata": "Q22031467",
        "check_date": "2025-07-04",
        "name": "IDFC First Bank",
        "wheelchair": "no"
      }
    },
    {
      "type": "node",
      "id": 13013588702,
      "lat": 12.9726668,
      "lon": 77.6999433,
      "tags": {
        "amenity": "restaurant",
        "name": "Tango"
      }
    },
    {
      "type": "node",
      "id": 13037172166,
      "lat": 12.9716615,
      "lon": 77.7055735,
      "tags": {
        "amenity": "cafe",
        "check_date": "2025-07-30",
        "name": "Mr Bakes Cafe"
      }
    },
    {
      "type": "node",
      "id": 13037172167,
      "lat": 12.9713945,
      "lon": 77.7063241,
      "tags": {
        "amenity": "cafe",
        "check_date": "2025-07-30",
        "name": "Teaday"
      }
    },
    {
      "type": "node",
      "id": 13116059773,
      "lat": 12.9685368,
      "lon": 77.6934867,
      "tags": {
        "addr:street": "1st A Cross Road",
        "name": "Bike garage",
        "payment:cash": "yes",
        "shop": "motorcycle_repair"
      }
    },
    {
      "type": "node",
      "id": 13116065415,
      "lat": 12.9683478,
      "lon": 77.6935051,
      "tags": {
        "addr:street": "1st A Cross Road",
        "shop": "motorcycle_repair"
      }
    },
    {
      "type": "node",
      "id": 13150832829,
      "lat": 12.9763652,
      "lon": 77.7046761,
      "tags": {
        "access": "private",
        "amenity": "parking_entrance",
        "parking": "underground"
      }
    },
    {
      "type": "node",
      "id": 13316084769,
      "lat": 12.9700537,
      "lon": 77.7069027,
      "tags": {
        "addr:floor": "G",
        "air_conditioning": "no",
        "amenity": "cafe",
        "check_date": "2025-11-20",
        "cuisine": "coffee_shop",
        "internet_access": "no",
        "level": "0",
        "name": "Coffee Nivas",
        "outdoor_seating": "no",
        "payment:cards": "no",
        "payment:cash": "yes",
        "payment:credit_cards": "no",
        "payment:debit_cards": "no",
        "wheelchair": "no"
      }
    },
    {
      "type": "node",
      "id": 13319110552,
      "lat": 12.9713657,
      "lon": 77.7061327,
      "tags": {
        "check_date": "2025-11-20",
        "name": "Bangalore Horticulture",
        "shop": "greengrocer"
      }
    },
    {
      "type": "node",
      "id": 13319110553,
      "lat": 12.9714555,
      "lon": 77.7065292,
      "tags": {
        "amenity": "pharmacy",
        "check_date": "2025-11-20",
        "healthcare": "pharmacy",
        "name": "P N Medicals"
      }
    },
    {
      "type": "node",
      "id": 13319110554,
      "lat": 12.9712977,
      "lon": 77.7062723,
      "tags": {
        "check_date": "2025-11-20",
        "name": "H2O",
        "shop": "hairdresser"
      }
    },
    {
      "type": "node",
      "id": 13319110555,
      "lat": 12.9713128,
      "lon": 77.7061831,
      "tags": {
        "access": "customers",
        "covered": "yes",
        "fee": "yes",
        "indoor": "yes",
        "leisure": "pitch",
        "level": "4",
        "lit": "yes",
        "name": "Sporthood Badminton Centre Doddanekundi",
        "sport": "badminton"
      }
    },
    {
      "type": "node",
      "id": 13319132767,
      "lat": 12.9714822,
      "lon": 77.7064388,
      "tags": {
        "check_date": "2025-11-20",
        "name": "Grace",
        "shop": "bakery"
      }
    },
    {
      "type": "node",
      "id": 13319132768,
      "lat": 12.9713995,
      "lon": 77.7068864,
      "tags": {
        "amenity": "cafe",
        "check_date": "2025-11-20",
        "cuisine": "bubble_tea",
        "name": "Hyderabad Special Irani Chai"
      }
    },
    {
      "type": "node",
      "id": 13319132769,
      "lat": 12.9714229,
      "lon": 77.7069059,
      "tags": {
        "addr:floor": "G",
        "amenity": "fast_food",
        "check_date": "2025-11-20",
        "level": "0",
        "name": "Ahaa Cafe"
      }
    },
    {
      "type": "node",
      "id": 13319132770,
      "lat": 12.9714822,
      "lon": 77.7064388,
      "tags": {
        "check_date": "2025-11-20",
        "name": "Grace",
        "shop": "bakery"
      }
    },
    {
      "type": "node",
      "id": 13319132771,
      "lat": 12.9713995,
      "lon": 77.7068864,
      "tags": {
        "amenity": "cafe",
        "check_date": "2025-11-20",
        "cuisine": "bubble_tea",
        "name": "Hyderabad Special Irani Chai"
      }
    },
    {
      "type": "node",
      "id": 13319132772,
      "lat": 12.9714229,
      "lon": 77.7069059,
      "tags": {
        "addr:floor": "G",
        "amenity": "fast_food",
        "check_date": "2025-11-20",
        "level": "0",
        "name": "Ahaa Cafe"
      }
    },
    {
      "type": "way",
      "id": 124373428,
      "center": {
        "lat": 12.9633055,
        "lon": 77.702895
      },
      "tags": {
        "addr:housename": "ezone sporting",
        "alt_name": "Torq03",
        "leisure": "sports_centre",
        "name": "Ezone sporting",
        "sport": "multi"
      }
    },
    {
      "type": "way",
      "id": 124538653,
      "center": {
        "lat": 12.9657747,
        "lon": 77.6932731
      },
      "tags": {
        "amenity": "college",
        "name": "HAL Management Academy"
      }
    },
    {
      "type": "way",
      "id": 223045588,
      "center": {
        "lat": 12.9644903,
        "lon": 77.7016268
      },
      "tags": {
        "amenity": "place_of_worship",
        "check_date": "2025-04-04",
        "name": "St. Baselios Orthodox Church",
        "religion": "christian"
      }
    },
    {
      "type": "way",
      "id": 223045590,
      "center": {
        "lat": 12.9621859,
        "lon": 77.7019858
      },
      "tags": {
        "brand": "Yamaha",
        "brand:wikidata": "Q158888",
        "check_date": "2025-02-09",
        "name": "Panache Enterprises",
        "name:kn": "ಯಮಹಾ",
        "opening_hours": "Mo-Sa 10:00-19:30",
        "service": "dealer",
        "shop": "motorcycle",
        "wheelchair": "yes"
      }
    },
    {
      "type": "way",
      "id": 346722362,
      "center": {
        "lat": 12.9718004,
        "lon": 77.6937713
      },
      "tags": {
        "addr:district": "Bangalore",
        "addr:full": "Vibhutipura Extension, Doddanekundi",
        "addr:postcode": "560037",
        "addr:state": "Karnataka",
        "addr:subdistrict": "Bangalore East",
        "amenity": "hospital",
        "building": "yes",
        "building:levels": "1",
        "check_date": "2024-04-01",
        "healthcare": "hospital",
        "name": "Government Primary Health Centre",
        "name:kn": "ಸರ್ಕಾರಿ ಪ್ರಾಥಮಿಕ ಆರೋಗ್ಯ ಕೇಂದ್ರ",
        "source": "OpenGovernmentData"
      }
    },
    {
      "type": "way",
      "id": 346722725,
      "center": {
        "lat": 12.9719191,
        "lon": 77.6935653
      },
      "tags": {
        "addr:postcode": "560037",
        "amenity": "place_of_worship",
        "building": "temple",
        "name": "Shri Kodandarama Swamy Temple",
        "name:kn": "ಶ್ರೀ ಕೋದಂಡರಾಮ ಸ್ವಾಮಿ ದೇವಸ್ಥಾನ",
        "religion": "hindu",
        "wheelchair": "no"
      }
    },
    {
      "type": "way",
      "id": 346795645,
      "center": {
        "lat": 12.9689089,
        "lon": 77.6971502
      },
      "tags": {
        "addr:city": "Bangalore",
        "addr:housenumber": "106",
        "addr:street": "5th Cross Road, Karthik Nagar",
        "amenity": "place_of_worship",
        "building": "yes",
        "check_date": "2024-03-16",
        "name": "Hosanna Church",
        "religion": "christian"
      }
    },
    {
      "type": "way",
      "id": 350158337,
      "center": {
        "lat": 12.9776301,
        "lon": 77.69794
      },
      "tags": {
        "access": "private",
        "leisure": "swimming_pool",
        "survey:date": "2022-06-19"
      }
    },
    {
      "type": "way",
      "id": 350158341,
      "center": {
        "lat": 12.9776769,
        "lon": 77.6978052
      },
      "tags": {
        "access": "private",
        "leisure": "swimming_pool",
        "survey:date": "2022-06-19"
      }
    },
    {
      "type": "way",
      "id": 350158344,
      "center": {
        "lat": 12.9745395,
        "lon": 77.7010478
      },
      "tags": {
        "leisure": "swimming_pool"
      }
    },
    {
      "type": "way",
      "id": 350158345,
      "center": {
        "lat": 12.9740539,
        "lon": 77.702322
      },
      "tags": {
        "leisure": "swimming_pool"
      }
    },
    {
      "type": "way",
      "id": 360347699,
      "center": {
        "lat": 12.9659074,
        "lon": 77.7025531
      },
      "tags": {
        "amenity": "hospital",
        "building": "yes",
        "check_date": "2025-05-31",
        "emergency": "yes",
        "name": "Jeevika Hospital",
        "name:kn": "ಜೀವಿಕ ಆಸ್ಪತ್ರೆ",
        "payment:cash": "yes",
        "payment:credit_cards": "yes",
        "payment:debit_cards": "yes",
        "source": "survey",
        "wheelchair": "yes"
      }
    },
    {
      "type": "way",
      "id": 402014656,
      "center": {
        "lat": 12.9688911,
        "lon": 77.7003939
      },
      "tags": {
        "leisure": "park"
      }
    },
    {
      "type": "way",
      "id": 402014659,
      "center": {
        "lat": 12.9680916,
        "lon": 77.695747
      },
      "tags": {
        "leisure": "common",
        "natural": "wood"
      }
    },
    {
      "type": "way",
      "id": 402014661,
      "center": {
        "lat": 12.9681256,
        "lon": 77.6983308
      },
      "tags": {
        "leisure": "sports_centre",
        "name": "U. R. Rao Sports Complex",
        "name:etymology:wikidata": "Q7877236",
        "sport": "basketball;soccer;cricket"
      }
    },
    {
      "type": "way",
      "id": 414837845,
      "center": {
        "lat": 12.9720228,
        "lon": 77.7009637
      },
      "tags": {
        "leisure": "sports_centre",
        "name": "Whitefield United Sports Arena"
      }
    },
    {
      "type": "way",
      "id": 464282944,
      "center": {
        "lat": 12.9685895,
        "lon": 77.7022979
      },
      "tags": {
        "leisure": "park",
        "name": "BBMP Park",
        "name:kn": "ಬೃ. ಬೆ. ಮ. ಪಾ. ಉದ್ಯಾನವನ",
        "operator": "ಬೃಹತ್ ಬೆಂಗಳೂರು ಮಹಾನಗರ ಪಾಲಿಕೆ",
        "operator:en": "Bruhat Bengaluru Mahanagara Palike",
        "operator:ka": "ಬೃಹತ್ ಬೆಂಗಳೂರು ಮಹಾನಗರ ಪಾಲಿಕೆ",
        "operator:short": "BBMP",
        "operator:type": "government",
        "operator:wikidata": "Q4978693"
      }
    },
    {
      "type": "way",
      "id": 464283854,
      "center": {
        "lat": 12.9704892,
        "lon": 77.6994861
      },
      "tags": {
        "leisure": "park",
        "name": "Children's play park"
      }
    },
    {
      "type": "way",
      "id": 525510061,
      "center": {
        "lat": 12.9607921,
        "lon": 77.6947793
      },
      "tags": {
        "amenity": "school",
        "name": "Vimanapura East Extension Primary School"
      }
    },
    {
      "type": "way",
      "id": 540755867,
      "center": {
        "lat": 12.9652273,
        "lon": 77.7084177
      },
      "tags": {
        "leisure": "playground",
        "name": "Chinnappanahalli Lake Park",
        "name:kn": "ಚಿನ್ನಪ್ಪನಹಳ್ಳಿ ಉದ್ಯಾನವನ",
        "service_times": "Su 06:00-18:00"
      }
    },
    {
      "type": "way",
      "id": 582562270,
      "center": {
        "lat": 12.9662303,
        "lon": 77.7071598
      },
      "tags": {
        "leisure": "park"
      }
    },
    {
      "type": "way",
      "id": 582562272,
      "center": {
        "lat": 12.975813,
        "lon": 77.7058163
      },
      "tags": {
        "leisure": "swimming_pool"
      }
    },
    {
      "type": "way",
      "id": 582562273,
      "center": {
        "lat": 12.9759599,
        "lon": 77.7055702
      },
      "tags": {
        "access": "private",
        "leisure": "park"
      }
    },
    {
      "type": "way",
      "id": 582562275,
      "center": {
        "lat": 12.9755365,
        "lon": 77.7065665
      },
      "tags": {
        "access": "private",
        "leisure": "park"
      }
    },
    {
      "type": "way",
      "id": 627693464,
      "center": {
        "lat": 12.9707171,
        "lon": 77.7055713
      },
      "tags": {
        "leisure": "swimming_pool"
      }
    },
    {
      "type": "way",
      "id": 632111019,
      "center": {
        "lat": 12.9753078,
        "lon": 77.697834
      },
      "tags": {
        "amenity": "hospital",
        "check_date": "2025-08-16",
        "emergency": "yes",
        "healthcare": "hospital",
        "name": "Rainbow Children's Hospital",
        "operator:type": "private",
        "payment:mastercard": "yes",
        "payment:visa": "yes",
        "wheelchair": "yes"
      }
    },
    {
      "type": "way",
      "id": 648492133,
      "center": {
        "lat": 12.964464,
        "lon": 77.7064481
      },
      "tags": {
        "leisure": "swimming_pool"
      }
    },
    {
      "type": "way",
      "id": 765250686,
      "center": {
        "lat": 12.9744782,
        "lon": 77.6922675
      },
      "tags": {
        "leisure": "sports_centre",
        "name": "Lake View Sports Arena"
      }
    },
    {
      "type": "way",
      "id": 765250688,
      "center": {
        "lat": 12.9741963,
        "lon": 77.6922527
      },
      "tags": {
        "leisure": "pitch",
        "lit": "yes",
        "name": "Lake View Sports Arena Tennis Court",
        "sport": "tennis",
        "surface": "ground"
      }
    },
    {
      "type": "way",
      "id": 765250689,
      "center": {
        "lat": 12.9744741,
        "lon": 77.6923104
      },
      "tags": {
        "leisure": "pitch",
        "lit": "yes",
        "name": "Lake View Sports Arena Badminton Court",
        "sport": "badminton"
      }
    },
    {
      "type": "way",
      "id": 810223895,
      "center": {
        "lat": 12.9717218,
        "lon": 77.6965573
      },
      "tags": {
        "branch": "Service Center",
        "brand": "KTM",
        "brand:wikidata": "Q215657",
        "brand:wikipedia": "en:KTM",
        "building": "yes",
        "name": "KTM",
        "operator": "Khivraj Motors",
        "shop": "motorcycle_repair"
      }
    },
    {
      "type": "way",
      "id": 810223896,
      "center": {
        "lat": 12.9717235,
        "lon": 77.6966498
      },
      "tags": {
        "building": "yes",
        "name": "Bajaj Service Center",
        "operator": "Khivraj Motors",
        "shop": "motorcycle_repair",
        "wikidata": "Q10910065",
        "wikipedia": "en:Bajaj Auto"
      }
    },
    {
      "type": "way",
      "id": 1005123297,
      "center": {
        "lat": 12.9679005,
        "lon": 77.6943154
      },
      "tags": {
        "amenity": "post_office",
        "building": "yes",
        "check_date": "2024-07-28",
        "internet_access": "no",
        "name": "Doddanekkundi Post Office",
        "name:kn": "ಅಂಚೆ ಕಛೇರಿ ದೊಡ್ದನೆಕ್ಕುಂದಿ",
        "opening_hours": "Mo-Fr 09:00-15:00; Sa 09:00-14:00; Su,PH off",
        "operator": "India Post",
        "operator:wikidata": "Q3519720",
        "operator:wikipedia": "en:India Post",
        "payment:cards": "no",
        "payment:cash": "yes",
        "payment:credit_cards": "no",
        "payment:debit_cards": "no",
        "source": "survey",
        "wheelchair": "yes"
      }
    },
    {
      "type": "way",
      "id": 1007105414,
      "center": {
        "lat": 12.971842,
        "lon": 77.6967963
      },
      "tags": {
        "building": "yes",
        "clothes": "wedding;women",
        "name": "House of Shylee",
        "shop": "clothes"
      }
    },
    {
      "type": "way",
      "id": 1065289736,
      "center": {
        "lat": 12.9718522,
        "lon": 77.7086894
      },
      "tags": {
        "leisure": "park"
      }
    },
    {
      "type": "way",
      "id": 1066371901,
      "center": {
        "lat": 12.9649545,
        "lon": 77.7064666
      },
      "tags": {
        "leisure": "swimming_pool"
      }
    },
    {
      "type": "way",
      "id": 1070002219,
      "center": {
        "lat": 12.9752275,
        "lon": 77.6969472
      },
      "tags": {
        "amenity": "fuel",
        "brand": "Hindustan Petroleum",
        "brand:wikidata": "Q1619375",
        "compressed_air": "yes",
        "fuel:diesel": "yes",
        "name": "HP",
        "name:kn": "ಹಿಂದುಸ್ತಾನ್ ಪೆಟ್ರೋಲಿಯಂ",
        "official_name": "Hindustan Petroleum",
        "operator": "Hindustan Petroleum"
      }
    },
    {
      "type": "way",
      "id": 1082259059,
      "center": {
        "lat": 12.9715033,
        "lon": 77.7040949
      },
      "tags": {
        "amenity": "school",
        "building": "school",
        "name": "Ekya School"
      }
    },
    {
      "type": "way",
      "id": 1084192094,
      "center": {
        "lat": 12.9730525,
        "lon": 77.7079393
      },
      "tags": {
        "addr:city": "Bengaluru",
        "addr:postcode": "560048",
        "addr:street": "Doddanakundi Industrial Area 2, Phase 1, Doddanekkundi",
        "amenity": "place_of_worship",
        "building": "yes",
        "name": "Shri Yedugaramma Devi Temple",
        "religion": "hindu"
      }
    },
    {
      "type": "way",
      "id": 1089516705,
      "center": {
        "lat": 12.9712421,
        "lon": 77.7075502
      },
      "tags": {
        "leisure": "garden"
      }
    },
    {
      "type": "way",
      "id": 1089516706,
      "center": {
        "lat": 12.9705398,
        "lon": 77.7073683
      },
      "tags": {
        "leisure": "garden"
      }
    },
    {
      "type": "way",
      "id": 1094660578,
      "center": {
        "lat": 12.9776308,
        "lon": 77.6973131
      },
      "tags": {
        "access": "private",
        "leisure": "swimming_pool"
      }
    },
    {
      "type": "way",
      "id": 1097534263,
      "center": {
        "lat": 12.9708483,
        "lon": 77.7075051
      },
      "tags": {
        "leisure": "garden"
      }
    },
    {
      "type": "way",
      "id": 1135851061,
      "center": {
        "lat": 12.9764238,
        "lon": 77.7045179
      },
      "tags": {
        "access": "private",
        "leisure": "pitch",
        "sport": "tennis"
      }
    },
    {
      "type": "way",
      "id": 1150511285,
      "center": {
        "lat": 12.9725414,
        "lon": 77.7078105
      },
      "tags": {
        "access": "customers",
        "amenity": "charging_station",
        "brand": "Shell",
        "capacity": "4",
        "fee": "no",
        "operator": "Shell",
        "operator:wikidata": "Q110716465"
      }
    },
    {
      "type": "way",
      "id": 1193332434,
      "center": {
        "lat": 12.9773237,
        "lon": 77.6967541
      },
      "tags": {
        "amenity": "restaurant",
        "indoor_seating": "yes",
        "name": "Le Jardin",
        "outdoor_seating": "yes"
      }
    },
    {
      "type": "way",
      "id": 1203990539,
      "center": {
        "lat": 12.9709011,
        "lon": 77.7074965
      },
      "tags": {
        "leisure": "garden"
      }
    },
    {
      "type": "way",
      "id": 1214864435,
      "center": {
        "lat": 12.9650565,
        "lon": 77.7073563
      },
      "tags": {
        "amenity": "parking"
      }
    },
    {
      "type": "way",
      "id": 1214864453,
      "center": {
        "lat": 12.9649827,
        "lon": 77.7069242
      },
      "tags": {
        "addr:postcode": "560037",
        "landuse": "commercial",
        "leisure": "resort",
        "name": "Ezone Lagoon Resort",
        "phone": "+91 99451 79112"
      }
    },
    {
      "type": "way",
      "id": 1234104569,
      "center": {
        "lat": 12.9647805,
        "lon": 77.6948815
      },
      "tags": {
        "leisure": "garden"
      }
    },
    {
      "type": "way",
      "id": 1234104570,
      "center": {
        "lat": 12.9657818,
        "lon": 77.6964364
      },
      "tags": {
        "leisure": "park"
      }
    },
    {
      "type": "way",
      "id": 1234104602,
      "center": {
        "lat": 12.9656827,
        "lon": 77.7001006
      },
      "tags": {
        "leisure": "garden"
      }
    },
    {
      "type": "way",
      "id": 1234104603,
      "center": {
        "lat": 12.9663762,
        "lon": 77.6990618
      },
      "tags": {
        "access": "permissive",
        "amenity": "parking",
        "parking": "surface"
      }
    },
    {
      "type": "way",
      "id": 1237037089,
      "center": {
        "lat": 12.9696805,
        "lon": 77.7088349
      },
      "tags": {
        "access": "private",
        "leisure": "pitch",
        "sport": "basketball;soccer;volleyball",
        "surface": "artificial_turf"
      }
    },
    {
      "type": "way",
      "id": 1237037092,
      "center": {
        "lat": 12.9715796,
        "lon": 77.7080695
      },
      "tags": {
        "amenity": "shelter",
        "bench": "yes",
        "building": "yes",
        "shelter_type": "picnic_shelter"
      }
    },
    {
      "type": "way",
      "id": 1237157996,
      "center": {
        "lat": 12.970999,
        "lon": 77.7075253
      },
      "tags": {
        "leisure": "garden"
      }
    },
    {
      "type": "way",
      "id": 1238901223,
      "center": {
        "lat": 12.9764179,
        "lon": 77.6989005
      },
      "tags": {
        "access": "private",
        "leisure": "pitch",
        "sport": "tennis"
      }
    },
    {
      "type": "way",
      "id": 1238901224,
      "center": {
        "lat": 12.9765106,
        "lon": 77.698815
      },
      "tags": {
        "access": "private",
        "amenity": "parking",
        "parking": "street_side"
      }
    },
    {
      "type": "way",
      "id": 1238901225,
      "center": {
        "lat": 12.9773128,
        "lon": 77.6979211
      },
      "tags": {
        "access": "private",
        "leisure": "pitch",
        "sport": "tennis"
      }
    },
    {
      "type": "way",
      "id": 1238901232,
      "center": {
        "lat": 12.9755181,
        "lon": 77.6987846
      },
      "tags": {
        "access": "private",
        "amenity": "parking",
        "parking": "street_side"
      }
    },
    {
      "type": "way",
      "id": 1238901236,
      "center": {
        "lat": 12.9742403,
        "lon": 77.6976295
      },
      "tags": {
        "amenity": "parking",
        "parking": "surface"
      }
    },
    {
      "type": "way",
      "id": 1241956511,
      "center": {
        "lat": 12.9708477,
        "lon": 77.7087308
      },
      "tags": {
        "leisure": "bleachers"
      }
    },
    {
      "type": "way",
      "id": 1257432368,
      "center": {
        "lat": 12.9636688,
        "lon": 77.7043515
      },
      "tags": {
        "access": "private",
        "leisure": "swimming_pool"
      }
    },
    {
      "type": "way",
      "id": 1296336694,
      "center": {
        "lat": 12.9624471,
        "lon": 77.7032494
      },
      "tags": {
        "amenity": "school"
      }
    },
    {
      "type": "way",
      "id": 1299038400,
      "center": {
        "lat": 12.9760856,
        "lon": 77.6948479
      },
      "tags": {
        "check_date": "2023-08-15",
        "fee": "yes",
        "leisure": "sports_centre",
        "name": "DJ Sports Arena",
        "operator:type": "private",
        "source": "survey"
      }
    },
    {
      "type": "way",
      "id": 1299038404,
      "center": {
        "lat": 12.9735959,
        "lon": 77.7026593
      },
      "tags": {
        "amenity": "fast_food",
        "brand": "Indira Canteen",
        "brand:wikidata": "Q36164828",
        "cuisine": "south_indian",
        "name": "Indira Canteen",
        "operator": "BBMP",
        "takeaway": "yes"
      }
    },
    {
      "type": "way",
      "id": 1305864569,
      "center": {
        "lat": 12.9706921,
        "lon": 77.6927459
      },
      "tags": {
        "leisure": "pitch",
        "sport": "volleyball"
      }
    },
    {
      "type": "way",
      "id": 1314299073,
      "center": {
        "lat": 12.9713471,
        "lon": 77.7052966
      },
      "tags": {
        "access": "private",
        "leisure": "pitch",
        "sport": "basketball"
      }
    },
    {
      "type": "way",
      "id": 1314299074,
      "center": {
        "lat": 12.9713936,
        "lon": 77.704972
      },
      "tags": {
        "leisure": "pitch"
      }
    },
    {
      "type": "way",
      "id": 1319021305,
      "center": {
        "lat": 12.9728853,
        "lon": 77.7008927
      },
      "tags": {
        "access": "private",
        "amenity": "parking",
        "parking": "surface"
      }
    },
    {
      "type": "way",
      "id": 1319021306,
      "center": {
        "lat": 12.9728498,
        "lon": 77.7006759
      },
      "tags": {
        "amenity": "place_of_worship",
        "building": "temple",
        "check_date": "2024-07-10",
        "religion": "hindu"
      }
    },
    {
      "type": "way",
      "id": 1319021307,
      "center": {
        "lat": 12.9742118,
        "lon": 77.7010601
      },
      "tags": {
        "access": "private",
        "leisure": "pitch",
        "sport": "tennis"
      }
    },
    {
      "type": "way",
      "id": 1319021308,
      "center": {
        "lat": 12.9742212,
        "lon": 77.7009191
      },
      "tags": {
        "access": "private",
        "leisure": "pitch",
        "sport": "basketball"
      }
    },
    {
      "type": "way",
      "id": 1319284244,
      "center": {
        "lat": 12.9743945,
        "lon": 77.7024991
      },
      "tags": {
        "building": "yes",
        "shop": "greengrocer"
      }
    },
    {
      "type": "way",
      "id": 1319284248,
      "center": {
        "lat": 12.9747907,
        "lon": 77.7021545
      },
      "tags": {
        "amenity": "parking",
        "parking": "surface"
      }
    },
    {
      "type": "way",
      "id": 1319284258,
      "center": {
        "lat": 12.9735803,
        "lon": 77.7029002
      },
      "tags": {
        "building": "yes",
        "shop": "water"
      }
    },
    {
      "type": "way",
      "id": 1319284272,
      "center": {
        "lat": 12.9747306,
        "lon": 77.7009633
      },
      "tags": {
        "garden:type": "landscaping",
        "leisure": "garden"
      }
    },
    {
      "type": "way",
      "id": 1319410577,
      "center": {
        "lat": 12.9748039,
        "lon": 77.7056783
      },
      "tags": {
        "brand": "Mercedes-Benz",
        "brand:wikidata": "Q36008",
        "name": "Sundaram Motors",
        "second_hand": "no",
        "shop": "car"
      }
    },
    {
      "type": "way",
      "id": 1319576360,
      "center": {
        "lat": 12.9714721,
        "lon": 77.7044284
      },
      "tags": {
        "amenity": "school"
      }
    },
    {
      "type": "way",
      "id": 1337428758,
      "center": {
        "lat": 12.9702991,
        "lon": 77.6966992
      },
      "tags": {
        "access": "private",
        "leisure": "swimming_pool"
      }
    },
    {
      "type": "way",
      "id": 1337428759,
      "center": {
        "lat": 12.9663329,
        "lon": 77.6938482
      },
      "tags": {
        "access": "private",
        "leisure": "swimming_pool"
      }
    },
    {
      "type": "way",
      "id": 1337428760,
      "center": {
        "lat": 12.9648854,
        "lon": 77.6932959
      },
      "tags": {
        "leisure": "park"
      }
    },
    {
      "type": "way",
      "id": 1409998534,
      "center": {
        "lat": 12.9640332,
        "lon": 77.7063615
      },
      "tags": {
        "leisure": "sports_centre",
        "name": "Machaxi Schooled Sports Centre"
      }
    },
    {
      "type": "way",
      "id": 1412115638,
      "center": {
        "lat": 12.964029,
        "lon": 77.7064702
      },
      "tags": {
        "access": "customers",
        "fee": "yes",
        "leisure": "pitch",
        "sport": "tennis"
      }
    },
    {
      "type": "way",
      "id": 1412115639,
      "center": {
        "lat": 12.9640478,
        "lon": 77.7066825
      },
      "tags": {
        "access": "customers",
        "fee": "yes",
        "leisure": "pitch",
        "sport": "futsal"
      }
    },
    {
      "type": "way",
      "id": 1412115641,
      "center": {
        "lat": 12.9640753,
        "lon": 77.7069191
      },
      "tags": {
        "access": "customers",
        "amenity": "parking",
        "parking": "surface"
      }
    },
    {
      "type": "way",
      "id": 1430662870,
      "center": {
        "lat": 12.9751152,
        "lon": 77.7046895
      },
      "tags": {
        "access": "private",
        "leisure": "playground"
      }
    },
    {
      "type": "way",
      "id": 1430662872,
      "center": {
        "lat": 12.9764805,
        "lon": 77.7043158
      },
      "tags": {
        "leisure": "pitch",
        "sport": "basketball"
      }
    },
    {
      "type": "way",
      "id": 1430662873,
      "center": {
        "lat": 12.9759911,
        "lon": 77.7054768
      },
      "tags": {
        "access": "private",
        "leisure": "playground"
      }
    },
    {
      "type": "way",
      "id": 1432192581,
      "center": {
        "lat": 12.9726124,
        "lon": 77.7068577
      },
      "tags": {
        "access": "private",
        "leisure": "swimming_pool"
      }
    },
    {
      "type": "way",
      "id": 1432192582,
      "center": {
        "lat": 12.97216,
        "lon": 77.7068838
      },
      "tags": {
        "access": "private",
        "leisure": "swimming_pool"
      }
    },
    {
      "type": "way",
      "id": 1432192591,
      "center": {
        "lat": 12.9708376,
        "lon": 77.7052489
      },
      "tags": {
        "access": "private",
        "leisure": "playground"
      }
    }
  ]
}