{
  "area_name": "Madeshwara Nagara",
  "osm_id": 10272690520,
  "osm_type": "node",
  "place_type": "neighbourhood",
  "amenity_count": 14,
  "amenities": [
    {
      "type": "node",
      "id": 4446730454,
      "lat": 12.9886463,
      "lon": 77.4880192,
      "tags": {
        "addr:city": "bangalore",
        "addr:housenumber": "87",
        "addr:postcode": "560075,",
        "addr:street": "BEML Main Rd, GM Palya, C V Raman Nagar",
        "amenity": "pharmacy",
        "name": "Sri Lakshmi Venkateshwara Medicals",
        "phone": "+919986468151"
      }
    },
    {
      "type": "node",
      "id": 4518518597,
      "lat": 12.9867684,
      "lon": 77.491253,
      "tags": {
        "addr:street": "Magadi Road",
        "amenity": "police",
        "name": "Byadarahalli Police Station",
        "name:en": "Byadrahalli police station",
        "name:kn": "ಬ್ಯಾಡರಹಳ್ಳಿ ಆರಕ್ಷಕ ಠಾಣೆ"
      }
    },
    {
      "type": "node",
      "id": 4519115596,
      "lat": 12.9858942,
      "lon": 77.4879367,
      "tags": {
        "addr:street": "Magadi Road",
        "amenity": "bank",
        "brand:wikidata": "Q2003387",
        "brand:wikipedia": "en:Corporation Bank",
        "name": "Corporation Bank",
        "name:en": "Corporation Bank",
        "name:kn": "ಕಾರ್ಪರೇಷನ್ ಬ್ಯಾಂಕ್",
        "website": "https://corpbank.com/"
      }
    },
    {
      "type": "way",
      "id": 348255127,
      "center": {
        "lat": 12.9851038,
        "lon": 77.4909029
      },
      "tags": {
        "leisure": "swimming_pool",
        "location": "outdoor",
        "swimming_pool": "outdoor"
      }
    },
    {
      "type": "way",
      "id": 363065446,
      "center": {
        "lat": 12.9950183,
        "lon": 77.4878637
      },
      "tags": {
        "leisure": "park",
        "name": "BBMP PARK",
        "name:kn": "ಬೃ. ಬೆ. ಮ. ಪಾ. ಉದ್ಯಾನವನ"
      }
    },
    {
      "type": "way",
      "id": 363065468,
      "center": {
        "lat": 12.9963038,
        "lon": 77.4879337
      },
      "tags": {
        "leisure": "park"
      }
    },
    {
      "type": "way",
      "id": 363065482,
      "center": {
        "lat": 12.9969187,
        "lon": 77.4864089
      },
      "tags": {
        "leisure": "park",
        "name": "BBMP Park",
        "name:kn": "ಬೃ. ಬೆ. ಮ. ಪಾ. ಉದ್ಯಾನವನ"
      }
    },
    {
      "type": "way",
      "id": 1122444429,
      "center": {
        "lat": 12.9898255,
        "lon": 77.5005412
      },
      "tags": {
        "amenity": "cinema",
        "name": "Miraj Cinemas"
      }
    },
    {
      "type": "way",
      "id": 1241552546,
      "center": {
        "lat": 12.9846673,
        "lon": 77.4889974
      },
      "tags": {
        "leisure": "park"
      }
    },
    {
      "type": "way",
      "id": 1353420080,
      "center": {
        "lat": 12.991143,
        "lon": 77.5025955
      },
      "tags": {
        "leisure": "park"
      }
    },
    {
      "type": "way",
      "id": 1353420081,
      "center": {
        "lat": 12.9903828,
        "lon": 77.5003622
      },
      "tags": {
        "leisure": "park"
      }
    },
    {
      "type": "way",
      "id": 1393102041,
      "center": {
        "lat": 12.9889597,
        "lon": 77.4972585
      },
      "tags": {
        "amenity": "fuel"
      }
    },
    {
      "type": "way",
      "id": 1393102042,
      "center": {
        "lat": 12.9892009,
        "lon": 77.497977
      },
      "tags": {
        "amenity": "college"
      }
    },
    {
      "type": "way",
      "id": 1393102043,
      "center": {
        "lat": 12.9918313,
        "lon": 77.4989305
      },
      "tags": {
        "amenity": "college"
      }
    }
  ]
}