{
  "area_name": "Madhuranagara",
  "osm_id": 2126383125,
  "osm_type": "node",
  "place_type": "neighbourhood",
  "amenity_count": 34,
  "amenities": [
    {
      "type": "node",
      "id": 12241368336,
      "lat": 12.9376668,
      "lon": 77.7511592,
      "tags": {
        "amenity": "waste_basket",
        "material": "plastic"
      }
    },
    {
      "type": "node",
      "id": 12578571817,
      "lat": 12.9373566,
      "lon": 77.7513927,
      "tags": {
        "amenity": "fountain",
        "drinking_water": "no",
        "fountain": "decorative",
        "lit": "no"
      }
    },
    {
      "type": "node",
      "id": 12587031197,
      "lat": 12.9389887,
      "lon": 77.7512479,
      "tags": {
        "check_date": "2025-02-14",
        "hairdresser": "barber",
        "male": "yes",
        "name": "Classic Men Hair",
        "shop": "hairdresser"
      }
    },
    {
      "type": "node",
      "id": 12588048611,
      "lat": 12.9435827,
      "lon": 77.7515382,
      "tags": {
        "amenity": "fast_food",
        "brand": "Domino's",
        "brand:wikidata": "Q839466",
        "check_date": "2025-08-28",
        "cuisine": "pizza",
        "name": "Domino's",
        "takeaway": "yes"
      }
    },
    {
      "type": "node",
      "id": 12588048612,
      "lat": 12.9455014,
      "lon": 77.7524932,
      "tags": {
        "amenity": "pharmacy",
        "check_date": "2025-02-14",
        "healthcare": "pharmacy",
        "name": "SLV Mecical"
      }
    },
    {
      "type": "node",
      "id": 12588048613,
      "lat": 12.9458019,
      "lon": 77.7533353,
      "tags": {
        "check_date": "2025-02-14",
        "name": "SL Bike Service Point",
        "shop": "motorcycle_repair"
      }
    },
    {
      "type": "node",
      "id": 12588048614,
      "lat": 12.9402115,
      "lon": 77.7616366,
      "tags": {
        "amenity": "restaurant",
        "check_date": "2025-02-14",
        "name": "Udupi Upahar"
      }
    },
    {
      "type": "node",
      "id": 12588048615,
      "lat": 12.9383314,
      "lon": 77.762738,
      "tags": {
        "check_date": "2025-02-14",
        "shop": "kiosk"
      }
    },
    {
      "type": "node",
      "id": 12588048616,
      "lat": 12.9340187,
      "lon": 77.7585135,
      "tags": {
        "check_date": "2025-02-14",
        "shop": "kiosk"
      }
    },
    {
      "type": "node",
      "id": 12588048617,
      "lat": 12.9338344,
      "lon": 77.7584618,
      "tags": {
        "check_date": "2025-02-14",
        "shop": "motorcycle_repair"
      }
    },
    {
      "type": "node",
      "id": 12588048618,
      "lat": 12.9330931,
      "lon": 77.7580425,
      "tags": {
        "check_date": "2025-02-14",
        "shop": "kiosk"
      }
    },
    {
      "type": "node",
      "id": 12740911903,
      "lat": 12.9373365,
      "lon": 77.7514601,
      "tags": {
        "addr:floor": "P",
        "amenity": "bench",
        "armrest": "yes",
        "backrest": "yes",
        "colour": "red",
        "direction": "324",
        "level": "0",
        "material": "concrete",
        "seats": "3",
        "survey:date": "2025-09-18"
      }
    },
    {
      "type": "node",
      "id": 12740911907,
      "lat": 12.9374343,
      "lon": 77.7513917,
      "tags": {
        "addr:floor": "P",
        "amenity": "bench",
        "armrest": "yes",
        "backrest": "yes",
        "colour": "grey",
        "level": "0",
        "material": "metal",
        "seats": "3"
      }
    },
    {
      "type": "node",
      "id": 12944870018,
      "lat": 12.9341533,
      "lon": 77.7552929,
      "tags": {
        "brand": "Maruti Suzuki",
        "brand:wikidata": "Q963718",
        "check_date": "2025-08-03",
        "name": "Maruti Suzuki",
        "shop": "car_repair"
      }
    },
    {
      "type": "node",
      "id": 12945180603,
      "lat": 12.9321862,
      "lon": 77.7579652,
      "tags": {
        "check_date": "2025-06-22",
        "name": "Sri Viniyaka Marble",
        "shop": "trade",
        "trade": "marble"
      }
    },
    {
      "type": "node",
      "id": 12945180604,
      "lat": 12.9342584,
      "lon": 77.7550364,
      "tags": {
        "check_date": "2025-08-03",
        "contact:phone": "+91 98865 04033",
        "name": "SK Tent House",
        "shop": "marquee_hire"
      }
    },
    {
      "type": "node",
      "id": 13045791854,
      "lat": 12.9343003,
      "lon": 77.7549139,
      "tags": {
        "check_date": "2025-08-03",
        "name": "SK Traders",
        "shop": "trade"
      }
    },
    {
      "type": "node",
      "id": 13103611807,
      "lat": 12.9433201,
      "lon": 77.7516316,
      "tags": {
        "check_date": "2025-08-28",
        "name": "Ganesh Jewellers",
        "shop": "jewelry"
      }
    },
    {
      "type": "node",
      "id": 13190169579,
      "lat": 12.9427508,
      "lon": 77.7554171,
      "tags": {
        "addr:city": "Bangalore",
        "addr:postcode": "560087",
        "addr:street": "Muthkur Road",
        "amenity": "place_of_worship",
        "check_date": "2025-01-23",
        "description": "Madarsa",
        "name": "Darul Uloom Sabeelul Ansar",
        "religion": "muslim"
      }
    },
    {
      "type": "way",
      "id": 240823217,
      "center": {
        "lat": 12.9310799,
        "lon": 77.7598897
      },
      "tags": {
        "amenity": "school",
        "branch": "varthur",
        "brand:website": "https://www.vvi.edu.in/",
        "check_date": "2025-09-03",
        "dress_code": "uniform",
        "education": "school",
        "grades": "1-10",
        "image": "https://www.vvsv.edu.in/wp-content/uploads/2018/10/new-slide1.jpg",
        "language:en": "yes",
        "name": "Vagdevi Vilas School",
        "name:kn": "ವಾಗ್ದೇವಿ ವಿಲಾಸ ಶಾಲೆ",
        "school:gender": "mixed",
        "website": "https://www.vvsv.edu.in/"
      }
    },
    {
      "type": "way",
      "id": 251666166,
      "center": {
        "lat": 12.9451039,
        "lon": 77.7533333
      },
      "tags": {
        "amenity": "school",
        "name": "Government School Sorahunase",
        "name:kn": "ಸರ್ಕಾರಿ ಶಾಲೆ ಸೋರಹುಣಸೆ"
      }
    },
    {
      "type": "way",
      "id": 1188244853,
      "center": {
        "lat": 12.9450985,
        "lon": 77.7538922
      },
      "tags": {
        "access": "private",
        "leisure": "pitch",
        "sport": "tennis"
      }
    },
    {
      "type": "way",
      "id": 1298279404,
      "center": {
        "lat": 12.9428483,
        "lon": 77.7655774
      },
      "tags": {
        "amenity": "events_venue",
        "landuse": "commercial"
      }
    },
    {
      "type": "way",
      "id": 1298279413,
      "center": {
        "lat": 12.9506619,
        "lon": 77.7581479
      },
      "tags": {
        "amenity": "school"
      }
    },
    {
      "type": "way",
      "id": 1320409150,
      "center": {
        "lat": 12.931687,
        "lon": 77.7600337
      },
      "tags": {
        "access": "private",
        "leisure": "pitch",
        "sport": "fitness;soccer;cricket",
        "surface": "sand"
      }
    },
    {
      "type": "way",
      "id": 1323088695,
      "center": {
        "lat": 12.9373081,
        "lon": 77.7513982
      },
      "tags": {
        "access": "private",
        "leisure": "playground",
        "lit": "yes",
        "surface": "sand"
      }
    },
    {
      "type": "way",
      "id": 1323088712,
      "center": {
        "lat": 12.9369736,
        "lon": 77.7510485
      },
      "tags": {
        "leisure": "pitch",
        "lit": "yes",
        "sport": "soccer",
        "surface": "artificial_turf"
      }
    },
    {
      "type": "way",
      "id": 1334532409,
      "center": {
        "lat": 12.9422627,
        "lon": 77.7525888
      },
      "tags": {
        "leisure": "swimming_pool"
      }
    },
    {
      "type": "way",
      "id": 1353889333,
      "center": {
        "lat": 12.9417307,
        "lon": 77.7548303
      },
      "tags": {
        "access": "customers",
        "building": "yes",
        "building:levels": "2",
        "check_date": "2025-08-01",
        "fee": "yes",
        "internet_access": "wlan",
        "leisure": "sports_hall",
        "name": "Krantiveer Gymnastics Academy",
        "sport": "gymnastics"
      }
    },
    {
      "type": "way",
      "id": 1359003855,
      "center": {
        "lat": 12.9373858,
        "lon": 77.7514405
      },
      "tags": {
        "access": "private",
        "leisure": "swimming_pool",
        "location": "outdoor"
      }
    },
    {
      "type": "way",
      "id": 1359003856,
      "center": {
        "lat": 12.9373568,
        "lon": 77.7513928
      },
      "tags": {
        "access": "private",
        "leisure": "swimming_pool",
        "location": "outdoor"
      }
    },
    {
      "type": "way",
      "id": 1359003876,
      "center": {
        "lat": 12.9371925,
        "lon": 77.7508744
      },
      "tags": {
        "access": "private",
        "leisure": "playground",
        "surface": "sand"
      }
    },
    {
      "type": "way",
      "id": 1359890590,
      "center": {
        "lat": 12.9446314,
        "lon": 77.7540756
      },
      "tags": {
        "leisure": "swimming_pool"
      }
    },
    {
      "type": "way",
      "id": 1375169167,
      "center": {
        "lat": 12.9490112,
        "lon": 77.7557957
      },
      "tags": {
        "access": "private",
        "leisure": "swimming_pool"
      }
    }
  ]
}