{
  "area_name": "Mahalakshmipuram",
  "osm_id": 19883367,
  "osm_type": "relation",
  "place_type": "administrative",
  "amenity_count": 14,
  "amenities": [
    {
      "type": "node",
      "id": 1026441558,
      "lat": 13.0120006,
      "lon": 77.5444168,
      "tags": {
        "leisure": "swimming_pool",
        "name": "MahaLakshmi Layout CorporationSwimming Pool",
        "name:kn": "ಮಹಾಲಕ್ಷ್ಮೀ ಲೇಔಟ್ ಕಾರ್ಪೋರೇಷನ್ ಈಜುಕೋಳ",
        "sport": "swimming"
      }
    },
    {
      "type": "node",
      "id": 1467501637,
      "lat": 13.0121864,
      "lon": 77.5448893,
      "tags": {
        "brand": "HOPCOMS",
        "brand:wikidata": "Q22908959",
        "name": "HOPCOMS",
        "name:kn": "ಹಾಪ್ ಕಾಮ್ಸ್",
        "shop": "greengrocer"
      }
    },
    {
      "type": "node",
      "id": 1471739653,
      "lat": 13.0087092,
      "lon": 77.5433895,
      "tags": {
        "amenity": "bank",
        "brand": "Corporation Bank",
        "brand:wikidata": "Q2003387",
        "brand:wikipedia": "en:Corporation Bank",
        "name": "Corporation Bank",
        "name:en": "Corporation Bank",
        "name:kn": "ಕಾರ್ಪರೇಷನ್ ಬ್ಯಾಂಕ್",
        "website": "https://corpbank.com/",
        "wheelchair": "no"
      }
    },
    {
      "type": "node",
      "id": 1471776615,
      "lat": 13.0086735,
      "lon": 77.5428733,
      "tags": {
        "amenity": "place_of_worship",
        "name": "Panchamukhi Ganesha Temple",
        "name:kn": "ಪಂಚಮುಖಿ ಗಣೇಶ ದೇವಸ್ಥಾನ",
        "religion": "hindu"
      }
    },
    {
      "type": "node",
      "id": 1471776616,
      "lat": 13.0085716,
      "lon": 77.5426802,
      "tags": {
        "amenity": "place_of_worship",
        "name": "Sri Dharmasastha Ayappa Temple",
        "name:kn": "ಅಯ್ಯಪ್ಪ ದೇವಸ್ಥಾನ",
        "religion": "hindu"
      }
    },
    {
      "type": "node",
      "id": 3391134555,
      "lat": 13.0086858,
      "lon": 77.5434159,
      "tags": {
        "amenity": "atm",
        "brand": "HDFC Bank",
        "brand:wikidata": "Q631047",
        "name": "HDFC Bank",
        "name:kn": "ಎಚ್ ಡಿ ಎಫ್ ಸಿ",
        "operator": "HDFC Bank",
        "operator:wikidata": "Q631047",
        "short_name": "HDFC"
      }
    },
    {
      "type": "node",
      "id": 3391835399,
      "lat": 13.0087585,
      "lon": 77.5432729,
      "tags": {
        "amenity": "pharmacy",
        "brand": "Apollo Pharmacy",
        "brand:wikidata": "Q62562612",
        "healthcare": "pharmacy",
        "name": "Apollo Pharmacy",
        "name:kn": "ಅಪೊಲೋ ಫಾರ್ಮಸಿ"
      }
    },
    {
      "type": "node",
      "id": 8510230820,
      "lat": 13.0083246,
      "lon": 77.5426038,
      "tags": {
        "addr:city": "Bengaluru",
        "addr:housenumber": "#36",
        "addr:postcode": "560096",
        "addr:street": "1st cross road",
        "brand": "TVS Motors",
        "name": "Global TVS",
        "opening_hours": "Mo-Su 09:00-19:00",
        "shop": "motorcycle"
      }
    },
    {
      "type": "node",
      "id": 8540417945,
      "lat": 13.0087341,
      "lon": 77.5417641,
      "tags": {
        "name": "TVS Motors Sevice Centre",
        "opening_hours": "Mo-Sa 09:00-17:00",
        "operator": "TVS Motors",
        "service:vehicle:body_repair": "yes",
        "service:vehicle:diagnostics": "yes",
        "service:vehicle:inspection": "yes",
        "service:vehicle:oil_change": "yes",
        "shop": "motorcycle_repair"
      }
    },
    {
      "type": "way",
      "id": 142344347,
      "center": {
        "lat": 13.0102309,
        "lon": 77.5435066
      },
      "tags": {
        "leisure": "park"
      }
    },
    {
      "type": "way",
      "id": 332071569,
      "center": {
        "lat": 13.0116917,
        "lon": 77.5438731
      },
      "tags": {
        "addr:district": "Bengaluru Urban",
        "addr:full": "#761, 7th Main, Last Bus Stop, Near Swimming pool, Mahalakshmi Layout",
        "addr:postcode": "560086",
        "addr:state": "Karnataka",
        "amenity": "hospital",
        "building": "yes",
        "healthcare": "hospital",
        "name": "Sanjeevani Hospital",
        "name:kn": "ಸಂಜೀವನಿ ಆಸ್ಪತ್ರೆ",
        "operator:type": "private",
        "source": "OpenGovernmentData",
        "website": "https://www.sanjeevinihospital.com/"
      }
    },
    {
      "type": "way",
      "id": 363067725,
      "center": {
        "lat": 13.0066962,
        "lon": 77.5380496
      },
      "tags": {
        "leisure": "park"
      }
    },
    {
      "type": "way",
      "id": 363069620,
      "center": {
        "lat": 13.0122138,
        "lon": 77.5473428
      },
      "tags": {
        "leisure": "park"
      }
    },
    {
      "type": "way",
      "id": 1119221394,
      "center": {
        "lat": 13.0146369,
        "lon": 77.5481384
      },
      "tags": {
        "amenity": "place_of_worship",
        "religion": "hindu"
      }
    }
  ]
}