{
  "area_name": "Maithri Layout",
  "osm_id": 1497326585,
  "osm_type": "node",
  "place_type": "neighbourhood",
  "amenity_count": 182,
  "amenities": [
    {
      "type": "node",
      "id": 1080536956,
      "lat": 12.9794141,
      "lon": 77.7513286,
      "tags": {
        "addr:city": "Bangalore",
        "addr:postcode": "560066",
        "addr:street": "Whitefield Main Road",
        "amenity": "cafe",
        "brand": "Cafe Coffee Day",
        "brand:wikidata": "Q5017235",
        "check_date": "2025-07-24",
        "cuisine": "coffee_shop",
        "level": "0",
        "name": "Cafe Coffee Day",
        "name:kn": "ಕಫೆ ಕಾಫಿ ಡೇ",
        "phone": "+91-80-41641300",
        "takeaway": "yes",
        "wheelchair": "limited"
      }
    },
    {
      "type": "node",
      "id": 1081506759,
      "lat": 12.9792064,
      "lon": 77.7513027,
      "tags": {
        "addr:city": "Bangalore",
        "addr:housenumber": "3/3",
        "addr:postcode": "560066",
        "addr:street": "Whitefield Main Road",
        "amenity": "restaurant",
        "check_date": "2025-07-24",
        "cuisine": "chinese",
        "name": "Chung WAH",
        "name:kn": "ಚಂಗ್ ವಾ",
        "phone": "+91-80-41641300"
      }
    },
    {
      "type": "node",
      "id": 1262057184,
      "lat": 12.9838028,
      "lon": 77.7489996,
      "tags": {
        "amenity": "kindergarten",
        "name": "Apple Kids"
      }
    },
    {
      "type": "node",
      "id": 1434224680,
      "lat": 12.9791395,
      "lon": 77.7512477,
      "tags": {
        "addr:city": "Bangalore",
        "addr:postcode": "560066",
        "addr:street": "Whitefield Main Road",
        "amenity": "restaurant",
        "check_date": "2025-05-24",
        "cuisine": "kebab",
        "name": "Khan Saheb",
        "name:kn": "ಖಾನ್ ಸಾಹೇಬ್",
        "phone": "+91-80-41641300",
        "wheelchair": "limited"
      }
    },
    {
      "type": "node",
      "id": 1435078367,
      "lat": 12.9792031,
      "lon": 77.7513013,
      "tags": {
        "addr:city": "Bangalore",
        "addr:postcode": "560066",
        "addr:street": "Whitefield Main Road",
        "check_date": "2025-07-24",
        "cuisine": "coffee_shop",
        "level": "0",
        "name": "Karthik Sweets and Chats",
        "phone": "+91-80-41641300",
        "shop": "confectionery"
      }
    },
    {
      "type": "node",
      "id": 2093480342,
      "lat": 12.9815191,
      "lon": 77.7520947,
      "tags": {
        "amenity": "bank",
        "atm": "yes",
        "brand": "ICICI Bank",
        "brand:wikidata": "Q1653258",
        "check_date": "2025-07-03",
        "name": "ICICI Bank",
        "name:en": "ICICI Bank",
        "name:kn": "ಐಸಿಐಸಿಐ ಬ್ಯಾಂಕು",
        "short_name": "ICICI",
        "website": "https://www.icicibank.com"
      }
    },
    {
      "type": "node",
      "id": 2473511283,
      "lat": 12.982522,
      "lon": 77.7605253,
      "tags": {
        "amenity": "place_of_worship",
        "name": "Vallasiddi Vinayaka Temple, Chansandra",
        "religion": "hindu"
      }
    },
    {
      "type": "node",
      "id": 2631448299,
      "lat": 12.9814669,
      "lon": 77.7523656,
      "tags": {
        "amenity": "clinic",
        "name": "Bhagwan Mahavir Jain Health Center"
      }
    },
    {
      "type": "node",
      "id": 2876319736,
      "lat": 12.9835135,
      "lon": 77.7520657,
      "tags": {
        "addr:city": "Bangalore",
        "addr:housename": "Arya Hub",
        "addr:postcode": "560068",
        "addr:street": "Whitefield Main Road",
        "air_conditioning": "yes",
        "alt_name": "A2B",
        "amenity": "restaurant",
        "brand": "Adyar Ananda Bhavan",
        "brand:wikidata": "Q15178238",
        "check_date": "2025-08-26",
        "cuisine": "regional",
        "diet:vegetarian": "only",
        "indoor_seating": "yes",
        "name": "Adyar Ananda Bhavan",
        "name:kn": "ಆದ್ಯಾರ್ ಆನಂದ ಭವನ",
        "operator": "Adyar Ananda Bhavan",
        "outdoor_seating": "no",
        "phone": "+91 44 42333333",
        "smoking": "no",
        "website": "https://aabsweets.com"
      }
    },
    {
      "type": "node",
      "id": 3179100221,
      "lat": 12.9825833,
      "lon": 77.7485219,
      "tags": {
        "amenity": "fast_food",
        "name": "Dosa Time"
      }
    },
    {
      "type": "node",
      "id": 3179100222,
      "lat": 12.9825936,
      "lon": 77.7484763,
      "tags": {
        "amenity": "fast_food",
        "name": "Abhiruchi"
      }
    },
    {
      "type": "node",
      "id": 3881381852,
      "lat": 12.9792637,
      "lon": 77.751316,
      "tags": {
        "amenity": "ice_cream",
        "brand": "Baskin-Robbins",
        "brand:wikidata": "Q584601",
        "check_date": "2025-07-24",
        "cuisine": "ice_cream",
        "name": "Baskin-Robbins",
        "wheelchair": "limited"
      }
    },
    {
      "type": "node",
      "id": 4445146526,
      "lat": 12.9828174,
      "lon": 77.7634471,
      "tags": {
        "addr:city": "Bangalore",
        "addr:postcode": "560037",
        "addr:street": "3G Homes Crimson Layout, Kadugodi, Bengaluru",
        "amenity": "restaurant",
        "cuisine": "regional",
        "delivery": "yes",
        "name": "Om Sai Punjabi Dhaba",
        "opening_hours": "11:00-22:00",
        "phone": "+91 9632689248",
        "smoking": "no",
        "takeaway": "yes"
      }
    },
    {
      "type": "node",
      "id": 4488617934,
      "lat": 12.9823096,
      "lon": 77.7571638,
      "tags": {
        "addr:city": "Bangalore",
        "addr:housenumber": "37No.",
        "addr:postcode": "560066",
        "addr:street": "Chennasandra Main Road Whitefield",
        "name": "Jeeshvi Supermarket",
        "phone": "(91)-80-33292905",
        "shop": "supermarket"
      }
    },
    {
      "type": "node",
      "id": 5165419321,
      "lat": 12.9795928,
      "lon": 77.7506994,
      "tags": {
        "addr:housenumber": "1A/1",
        "addr:postcode": "560066",
        "addr:street": "Whitefield Main Road",
        "amenity": "school",
        "name": "Footprints Preschool and Daycare",
        "opening_hours": "Mo-Fr 09:00-18:30",
        "operator": "Footprints",
        "phone": "9654999677",
        "website": "https://www.footprintseducation.in/"
      }
    },
    {
      "type": "node",
      "id": 6374356467,
      "lat": 12.9788227,
      "lon": 77.7512306,
      "tags": {
        "amenity": "bank",
        "brand": "Ujjivan Small Finance Bank",
        "brand:wikidata": "Q42529272",
        "check_date": "2025-09-08",
        "name": "Ujjivan Small Finance Bank"
      }
    },
    {
      "type": "node",
      "id": 6374356468,
      "lat": 12.9790422,
      "lon": 77.7516788,
      "tags": {
        "amenity": "bank",
        "brand": "Axis Bank",
        "brand:wikidata": "Q2003549",
        "brand:wikipedia": "en:Axis Bank",
        "check_date": "2025-07-03",
        "name": "Axis Bank",
        "name:en": "Axis Bank",
        "name:kn": "ಅಕ್ಸಿಸ್ ಬ್ಯಾಂಕ್",
        "website": "https://www.axisbank.com"
      }
    },
    {
      "type": "node",
      "id": 9928560844,
      "lat": 12.9824546,
      "lon": 77.7491971,
      "tags": {
        "name": "Barbershop",
        "shop": "hairdresser"
      }
    },
    {
      "type": "node",
      "id": 9965888792,
      "lat": 12.983415,
      "lon": 77.752032,
      "tags": {
        "addr:housename": "Arya Hub",
        "addr:street": "Whitefield Main Road",
        "check_date": "2025-08-02",
        "level": "0",
        "name": "Punlu Sports",
        "shop": "sports"
      }
    },
    {
      "type": "node",
      "id": 10003575471,
      "lat": 12.9761501,
      "lon": 77.7544594,
      "tags": {
        "access": "private",
        "amenity": "parking_entrance",
        "parking": "underground"
      }
    },
    {
      "type": "node",
      "id": 10221065256,
      "lat": 12.9828178,
      "lon": 77.7487144,
      "tags": {
        "amenity": "fast_food",
        "cuisine": "juice",
        "name": "Chai Venue"
      }
    },
    {
      "type": "node",
      "id": 10281069567,
      "lat": 12.9845957,
      "lon": 77.7491648,
      "tags": {
        "amenity": "restaurant",
        "check_date": "2025-07-25",
        "cuisine": "arab;indian",
        "indoor_seating": "yes",
        "level": "0",
        "name": "Orbis Restaurant",
        "operator": "Orbis",
        "outdoor_seating": "no",
        "takeaway": "yes",
        "wheelchair": "yes"
      }
    },
    {
      "type": "node",
      "id": 10281069570,
      "lat": 12.9843662,
      "lon": 77.7498873,
      "tags": {
        "addr:housename": "Pearl Grand Tower",
        "addr:street": "Whitefield Road",
        "amenity": "restaurant",
        "check_date": "2025-07-25",
        "cuisine": "indian",
        "indoor_seating": "yes",
        "internet_access": "no",
        "level": "0",
        "name": "Thalassery Restaurant",
        "outdoor_seating": "no",
        "takeaway": "yes",
        "toilets": "yes",
        "toilets:access": "permissive",
        "wheelchair": "limited"
      }
    },
    {
      "type": "node",
      "id": 10588172014,
      "lat": 12.9826494,
      "lon": 77.7483836,
      "tags": {
        "amenity": "restaurant",
        "name": "Leon's"
      }
    },
    {
      "type": "node",
      "id": 10588172015,
      "lat": 12.9825142,
      "lon": 77.7482292,
      "tags": {
        "name": "City Tasty Bakery",
        "shop": "bakery"
      }
    },
    {
      "type": "node",
      "id": 10695073022,
      "lat": 12.9843198,
      "lon": 77.7492539,
      "tags": {
        "amenity": "kindergarten",
        "name": "Ani Bee"
      }
    },
    {
      "type": "node",
      "id": 10695073023,
      "lat": 12.9841434,
      "lon": 77.7490802,
      "tags": {
        "amenity": "restaurant",
        "name": "Sri Balaji Restaurant"
      }
    },
    {
      "type": "node",
      "id": 10695073024,
      "lat": 12.9842256,
      "lon": 77.7491072,
      "tags": {
        "male": "yes",
        "name": "New Mirage Salon",
        "shop": "hairdresser"
      }
    },
    {
      "type": "node",
      "id": 11028341135,
      "lat": 12.9846095,
      "lon": 77.7490486,
      "tags": {
        "amenity": "veterinary",
        "check_date": "2025-07-25",
        "name": "Dr. Santa Animal Health Care"
      }
    },
    {
      "type": "node",
      "id": 11124646407,
      "lat": 12.9824941,
      "lon": 77.7593057,
      "tags": {
        "addr:city": "BANGALORE",
        "addr:housenumber": "1/352 A CHANNASANDRA MAIN ROAD",
        "addr:postcode": "560067",
        "addr:street": "BESIDE DSR APT",
        "name": "Raghuvanshi Home Mart",
        "phone": "8867070220",
        "shop": "hardware"
      }
    },
    {
      "type": "node",
      "id": 11197292313,
      "lat": 12.9846314,
      "lon": 77.7517785,
      "tags": {
        "amenity": "parking_entrance",
        "parking": "underground"
      }
    },
    {
      "type": "node",
      "id": 11375174501,
      "lat": 12.9803164,
      "lon": 77.7513407,
      "tags": {
        "brand": "Fabindia",
        "brand:wikidata": "Q5427779",
        "check_date": "2025-07-03",
        "name": "Fabindia",
        "shop": "clothes",
        "wheelchair": "limited"
      }
    },
    {
      "type": "node",
      "id": 11375174502,
      "lat": 12.9803856,
      "lon": 77.7507511,
      "tags": {
        "amenity": "ice_cream",
        "brand": "Corner House",
        "check_date": "2025-07-03",
        "delivery": "yes",
        "name": "Corner House",
        "takeaway": "yes"
      }
    },
    {
      "type": "node",
      "id": 11375280762,
      "lat": 12.9796424,
      "lon": 77.7514039,
      "tags": {
        "access": "private",
        "amenity": "parking_entrance"
      }
    },
    {
      "type": "node",
      "id": 11534769006,
      "lat": 12.9803766,
      "lon": 77.7510212,
      "tags": {
        "amenity": "restaurant",
        "check_date": "2024-01-21",
        "contact:instagram": "https://www.instagram.com/pocoapoco.bangalore",
        "name": "Poco A Poco"
      }
    },
    {
      "type": "node",
      "id": 11649596369,
      "lat": 12.976882,
      "lon": 77.753489,
      "tags": {
        "name": "Planet Sports (Yonex Dealership)",
        "shop": "sports"
      }
    },
    {
      "type": "node",
      "id": 12260570017,
      "lat": 12.9928925,
      "lon": 77.7530873,
      "tags": {
        "amenity": "restaurant",
        "cuisine": "seafood",
        "name": "Seven Seas Seafood Restaurant",
        "website": "https://sevenseasfood.in/"
      }
    },
    {
      "type": "node",
      "id": 12301096079,
      "lat": 12.9874403,
      "lon": 77.7477225,
      "tags": {
        "amenity": "bench",
        "armrest": "no",
        "backrest": "no",
        "material": "stone"
      }
    },
    {
      "type": "node",
      "id": 12301096080,
      "lat": 12.9874594,
      "lon": 77.7477234,
      "tags": {
        "amenity": "waste_basket"
      }
    },
    {
      "type": "node",
      "id": 12301096081,
      "lat": 12.987798,
      "lon": 77.7477915,
      "tags": {
        "amenity": "bench",
        "armrest": "no",
        "backrest": "yes",
        "material": "stone"
      }
    },
    {
      "type": "node",
      "id": 12301096082,
      "lat": 12.987826,
      "lon": 77.7477949,
      "tags": {
        "amenity": "waste_basket"
      }
    },
    {
      "type": "node",
      "id": 12301096083,
      "lat": 12.9884795,
      "lon": 77.7478656,
      "tags": {
        "amenity": "waste_basket"
      }
    },
    {
      "type": "node",
      "id": 12301096084,
      "lat": 12.9884957,
      "lon": 77.7478041,
      "tags": {
        "amenity": "bench",
        "armrest": "no",
        "backrest": "no",
        "material": "stone"
      }
    },
    {
      "type": "node",
      "id": 12301096085,
      "lat": 12.9884558,
      "lon": 77.7477927,
      "tags": {
        "amenity": "bench",
        "armrest": "no",
        "backrest": "yes",
        "material": "stone"
      }
    },
    {
      "type": "node",
      "id": 12301097801,
      "lat": 12.9859088,
      "lon": 77.7473989,
      "tags": {
        "amenity": "bench",
        "armrest": "no",
        "backrest": "no",
        "material": "stone"
      }
    },
    {
      "type": "node",
      "id": 12301097802,
      "lat": 12.9858849,
      "lon": 77.7474368,
      "tags": {
        "amenity": "waste_basket"
      }
    },
    {
      "type": "node",
      "id": 12301097803,
      "lat": 12.9862681,
      "lon": 77.7474595,
      "tags": {
        "amenity": "bench",
        "armrest": "no",
        "backrest": "yes",
        "material": "stone"
      }
    },
    {
      "type": "node",
      "id": 12301097804,
      "lat": 12.9863171,
      "lon": 77.7474767,
      "tags": {
        "amenity": "waste_basket"
      }
    },
    {
      "type": "node",
      "id": 12301097805,
      "lat": 12.9864289,
      "lon": 77.7475378,
      "tags": {
        "amenity": "bench",
        "armrest": "no",
        "backrest": "no",
        "material": "stone"
      }
    },
    {
      "type": "node",
      "id": 12301097806,
      "lat": 12.9864448,
      "lon": 77.7475372,
      "tags": {
        "amenity": "waste_basket"
      }
    },
    {
      "type": "node",
      "id": 12301097807,
      "lat": 12.9869524,
      "lon": 77.7476353,
      "tags": {
        "amenity": "waste_basket"
      }
    },
    {
      "type": "node",
      "id": 12301097808,
      "lat": 12.9869609,
      "lon": 77.7476,
      "tags": {
        "amenity": "bench",
        "armrest": "no",
        "backrest": "yes",
        "material": "stone"
      }
    },
    {
      "type": "node",
      "id": 12500852737,
      "lat": 12.9783709,
      "lon": 77.7578285,
      "tags": {
        "amenity": "parking_entrance",
        "parking": "underground"
      }
    },
    {
      "type": "node",
      "id": 12852812564,
      "lat": 12.9794216,
      "lon": 77.75129,
      "tags": {
        "brand": "cult.fit",
        "brand:wikidata": "Q121289250",
        "check_date": "2025-07-24",
        "leisure": "fitness_centre",
        "level": "1",
        "name": "Elite Gym"
      }
    },
    {
      "type": "node",
      "id": 12860399903,
      "lat": 12.9792296,
      "lon": 77.75125,
      "tags": {
        "beauty": "hair;spa",
        "brand": "Naturals",
        "brand:wikidata": "Q125728261",
        "check_date": "2025-07-24",
        "level": "1",
        "name": "Naturals",
        "shop": "beauty"
      }
    },
    {
      "type": "node",
      "id": 12860399907,
      "lat": 12.9793737,
      "lon": 77.7513277,
      "tags": {
        "check_date": "2025-05-24",
        "name": "Preferred Store",
        "shop": "clothes"
      }
    },
    {
      "type": "node",
      "id": 12860399908,
      "lat": 12.9793775,
      "lon": 77.7512839,
      "tags": {
        "amenity": "doctors",
        "check_date": "2025-05-24",
        "healthcare": "doctor",
        "healthcare:speciality": "otolaryngology"
      }
    },
    {
      "type": "node",
      "id": 12860399910,
      "lat": 12.9792318,
      "lon": 77.7513063,
      "tags": {
        "brand": "Airtel",
        "brand:wikidata": "Q854867",
        "check_date": "2025-07-01",
        "name": "Airtel",
        "shop": "telecommunication"
      }
    },
    {
      "type": "node",
      "id": 12872594925,
      "lat": 12.9834458,
      "lon": 77.7519909,
      "tags": {
        "addr:housename": "Arya Hub",
        "addr:street": "Whitefield Main Road",
        "amenity": "music_school",
        "check_date": "2025-08-02",
        "level": "1",
        "name": "Gems Music School"
      }
    },
    {
      "type": "node",
      "id": 12874807511,
      "lat": 12.9836015,
      "lon": 77.7516254,
      "tags": {
        "brand": "Vishal Mega Mart",
        "brand:wikidata": "Q126895037",
        "check_date": "2025-05-30",
        "name": "Vishal Mega Mart",
        "shop": "supermarket"
      }
    },
    {
      "type": "node",
      "id": 12874807513,
      "lat": 12.983665,
      "lon": 77.7520297,
      "tags": {
        "addr:street": "Whitefield Road",
        "amenity": "fast_food",
        "building": "kiosk",
        "building:levels": "1",
        "check_date": "2025-08-02",
        "cuisine": "roll",
        "drive_through": "no",
        "name": "FS Kati Roll Junction",
        "roof:levels": "0",
        "roof:shape": "flat"
      }
    },
    {
      "type": "node",
      "id": 12874807514,
      "lat": 12.9836112,
      "lon": 77.752016,
      "tags": {
        "addr:housename": "Arya Hub",
        "addr:street": "Whitefield Main Road",
        "check_date": "2025-08-26",
        "name": "Perimeter",
        "shop": "hairdresser"
      }
    },
    {
      "type": "node",
      "id": 12874807515,
      "lat": 12.9828866,
      "lon": 77.7518975,
      "tags": {
        "addr:housename": "HM Tech Park",
        "addr:street": "Whitefield Main Road",
        "amenity": "atm",
        "brand": "State Bank of India",
        "brand:wikidata": "Q1340361",
        "check_date": "2025-08-26",
        "operator": "State Bank of India",
        "operator:wikidata": "Q1340361",
        "short_name": "SBI"
      }
    },
    {
      "type": "node",
      "id": 12874807516,
      "lat": 12.9833204,
      "lon": 77.751986,
      "tags": {
        "addr:housename": "Arya Hub",
        "addr:street": "Whitefield Main Road",
        "check_date": "2025-06-02",
        "shop": "tattoo"
      }
    },
    {
      "type": "node",
      "id": 12880382708,
      "lat": 12.9838269,
      "lon": 77.7513513,
      "tags": {
        "check_date": "2025-06-02",
        "name": "Sofas And More",
        "shop": "furniture"
      }
    },
    {
      "type": "node",
      "id": 12880382709,
      "lat": 12.9830268,
      "lon": 77.7525114,
      "tags": {
        "addr:housename": "KNR Square",
        "addr:street": "Whitefield Main Road",
        "check_date": "2025-06-03",
        "level": "1",
        "name": "Shekhawati Furniture",
        "shop": "furniture"
      }
    },
    {
      "type": "node",
      "id": 12880382710,
      "lat": 12.9829988,
      "lon": 77.7525019,
      "tags": {
        "addr:housename": "KNR Square",
        "addr:street": "Whitefield Main Road",
        "check_date": "2025-06-03",
        "level": "0",
        "name": "Livspace",
        "shop": "interior_decoration"
      }
    },
    {
      "type": "node",
      "id": 12880382712,
      "lat": 12.9829517,
      "lon": 77.7525129,
      "tags": {
        "addr:housename": "KNR Square",
        "addr:street": "Whitefield Main Road",
        "amenity": "doctors",
        "check_date": "2025-06-03",
        "healthcare": "doctor",
        "healthcare:speciality": "dermatology",
        "level": "3",
        "name": "CosMediQ"
      }
    },
    {
      "type": "node",
      "id": 12927909817,
      "lat": 12.9854431,
      "lon": 77.7489022,
      "tags": {
        "addr:city": "Bengaluru",
        "addr:country": "IN",
        "amenity": "restaurant",
        "contact:instagram": "sinonnas",
        "cuisine": "pizza",
        "delivery": "yes",
        "name": "Si Nonna's",
        "reservation": "yes",
        "takeaway": "yes",
        "toilets": "yes",
        "website": "https://sinonnas.com/"
      }
    },
    {
      "type": "node",
      "id": 12963890401,
      "lat": 12.9848056,
      "lon": 77.7485569,
      "tags": {
        "check_date": "2025-06-30",
        "shop": "garden_centre"
      }
    },
    {
      "type": "node",
      "id": 12972911342,
      "lat": 12.9838519,
      "lon": 77.7514636,
      "tags": {
        "amenity": "restaurant",
        "check_date": "2025-07-03",
        "cuisine": "indian",
        "diet:vegetarian": "only",
        "indoor_seating": "yes",
        "name": "Sri Udupi Food Hub",
        "outdoor_seating": "no"
      }
    },
    {
      "type": "node",
      "id": 12972911343,
      "lat": 12.9839969,
      "lon": 77.7511159,
      "tags": {
        "brand": "TVS",
        "brand:wikidata": "Q3300084",
        "check_date": "2025-07-03",
        "name": "Trijal TVS",
        "shop": "motorcycle"
      }
    },
    {
      "type": "node",
      "id": 12972911344,
      "lat": 12.9838793,
      "lon": 77.7515475,
      "tags": {
        "check_date": "2025-07-03",
        "shop": "kiosk"
      }
    },
    {
      "type": "node",
      "id": 12972911345,
      "lat": 12.9836831,
      "lon": 77.7519769,
      "tags": {
        "amenity": "fast_food",
        "check_date": "2025-07-03",
        "name": "Swirl"
      }
    },
    {
      "type": "node",
      "id": 12972911346,
      "lat": 12.9836774,
      "lon": 77.7520031,
      "tags": {
        "amenity": "cafe",
        "check_date": "2025-07-03",
        "cuisine": "tea",
        "name": "Chai Makhani"
      }
    },
    {
      "type": "node",
      "id": 12972911347,
      "lat": 12.9834869,
      "lon": 77.7529026,
      "tags": {
        "amenity": "bar",
        "check_date": "2025-07-03",
        "name": "Bay Leaves"
      }
    },
    {
      "type": "node",
      "id": 12972911350,
      "lat": 12.9833252,
      "lon": 77.7520057,
      "tags": {
        "check_date": "2025-07-03",
        "name": "La Heaven",
        "shop": "pastry"
      }
    },
    {
      "type": "node",
      "id": 12972911351,
      "lat": 12.983139,
      "lon": 77.7519287,
      "tags": {
        "check_date": "2025-07-03",
        "clothes": "motorcycle",
        "name": "Rally Motorsports",
        "shop": "clothes"
      }
    },
    {
      "type": "node",
      "id": 12972935724,
      "lat": 12.9790784,
      "lon": 77.7516966,
      "tags": {
        "check_date": "2025-07-03",
        "name": "Tony And Guy",
        "shop": "hairdresser"
      }
    },
    {
      "type": "node",
      "id": 12979257770,
      "lat": 12.9833103,
      "lon": 77.7515625,
      "tags": {
        "check_date": "2025-07-05",
        "name": "Sheesham Homes",
        "shop": "furniture"
      }
    },
    {
      "type": "node",
      "id": 12979272521,
      "lat": 12.9841607,
      "lon": 77.7504265,
      "tags": {
        "brand": "Hyundai",
        "brand:wikidata": "Q55931",
        "check_date": "2025-07-05",
        "name": "Lakshmi Hyundai",
        "shop": "car"
      }
    },
    {
      "type": "node",
      "id": 12985113917,
      "lat": 12.9833772,
      "lon": 77.7519481,
      "tags": {
        "amenity": "clinic",
        "check_date": "2025-07-07",
        "healthcare": "clinic",
        "healthcare:speciality": "urology",
        "name": "Whitefield Clinic of Nephro-Urology"
      }
    },
    {
      "type": "node",
      "id": 12987060869,
      "lat": 12.9836787,
      "lon": 77.7523109,
      "tags": {
        "amenity": "place_of_worship",
        "check_date": "2025-07-08",
        "religion": "hindu"
      }
    },
    {
      "type": "node",
      "id": 12987086502,
      "lat": 12.9842611,
      "lon": 77.7502347,
      "tags": {
        "brand": "KTM",
        "brand:wikidata": "Q215657",
        "check_date": "2025-07-08",
        "name": "KTM",
        "shop": "motorcycle"
      }
    },
    {
      "type": "node",
      "id": 12997791809,
      "lat": 12.9830582,
      "lon": 77.7471656,
      "tags": {
        "amenity": "restaurant",
        "name": "Telugu Aromas"
      }
    },
    {
      "type": "node",
      "id": 12997791810,
      "lat": 12.9830726,
      "lon": 77.7471375,
      "tags": {
        "amenity": "fast_food",
        "cuisine": "pizza",
        "name": "La Pino's"
      }
    },
    {
      "type": "node",
      "id": 12999157278,
      "lat": 12.9836025,
      "lon": 77.7519245,
      "tags": {
        "brand": "cult.fit",
        "brand:wikidata": "Q121289250",
        "check_date": "2025-08-02",
        "leisure": "fitness_centre",
        "name": "cult.fit"
      }
    },
    {
      "type": "node",
      "id": 12999157293,
      "lat": 12.9868643,
      "lon": 77.7538517,
      "tags": {
        "access": "customers",
        "amenity": "motorcycle_parking",
        "capacity": "30",
        "fee": "yes",
        "operator": "BMRCL",
        "parking": "surface"
      }
    },
    {
      "type": "node",
      "id": 13001080192,
      "lat": 12.9853165,
      "lon": 77.7493239,
      "tags": {
        "amenity": "restaurant",
        "check_date": "2025-07-15",
        "name": "Whisk And Thyme"
      }
    },
    {
      "type": "node",
      "id": 13013588708,
      "lat": 12.9848898,
      "lon": 77.7506397,
      "tags": {
        "addr:city": "Bengaluru",
        "addr:country": "IN",
        "amenity": "restaurant",
        "cuisine": "pizza",
        "delivery": "yes",
        "name": "Mad Doh Sourdough Pizzeria",
        "reservation": "yes",
        "takeaway": "yes",
        "toilets": "yes"
      }
    },
    {
      "type": "node",
      "id": 13013588743,
      "lat": 12.9851759,
      "lon": 77.7497399,
      "tags": {
        "amenity": "cafe",
        "brand": "Blue Tokai",
        "cuisine": "coffee_shop",
        "delivery": "yes",
        "internet_access": "yes",
        "name": "Blue Tokai Coffee Roasters",
        "takeaway": "yes",
        "toilets": "yes"
      }
    },
    {
      "type": "node",
      "id": 13013792944,
      "lat": 12.9849929,
      "lon": 77.7503729,
      "tags": {
        "amenity": "fast_food",
        "name": "Harvest Salad Cafe"
      }
    },
    {
      "type": "node",
      "id": 13013792945,
      "lat": 12.9850883,
      "lon": 77.7500591,
      "tags": {
        "amenity": "fast_food",
        "cuisine": "mexican",
        "name": "Maiz Mexican Kitchen"
      }
    },
    {
      "type": "node",
      "id": 13018734717,
      "lat": 12.9846593,
      "lon": 77.7511117,
      "tags": {
        "amenity": "kindergarten",
        "check_date": "2025-07-23",
        "name": "Klay Preschool And Daycare"
      }
    },
    {
      "type": "node",
      "id": 13018734718,
      "lat": 12.9845946,
      "lon": 77.7512785,
      "tags": {
        "amenity": "fast_food",
        "check_date": "2025-07-23",
        "cuisine": "pizza",
        "name": "Si Nonna's Pizza"
      }
    },
    {
      "type": "node",
      "id": 13020318615,
      "lat": 12.9815214,
      "lon": 77.7518014,
      "tags": {
        "check_date": "2025-07-24",
        "shop": "furniture"
      }
    },
    {
      "type": "node",
      "id": 13020318616,
      "lat": 12.9815362,
      "lon": 77.7516283,
      "tags": {
        "check_date": "2025-07-24",
        "name": "Cocoon Day Spa",
        "shop": "massage"
      }
    },
    {
      "type": "node",
      "id": 13020318617,
      "lat": 12.9802776,
      "lon": 77.7514389,
      "tags": {
        "check_date": "2025-07-24",
        "name": "The Good Place",
        "shop": "furniture"
      }
    },
    {
      "type": "node",
      "id": 13020318619,
      "lat": 12.9793925,
      "lon": 77.7512601,
      "tags": {
        "check_date": "2025-07-24",
        "name": "Truww",
        "shop": "furniture"
      }
    },
    {
      "type": "node",
      "id": 13022417925,
      "lat": 12.9847476,
      "lon": 77.7489168,
      "tags": {
        "check_date": "2025-07-25",
        "name": "MS Flower Designs",
        "shop": "florist"
      }
    },
    {
      "type": "node",
      "id": 13022417926,
      "lat": 12.9843377,
      "lon": 77.7496869,
      "tags": {
        "check_date": "2025-07-25",
        "name": "Avyanna",
        "shop": "massage"
      }
    },
    {
      "type": "node",
      "id": 13022417927,
      "lat": 12.9843577,
      "lon": 77.7496932,
      "tags": {
        "check_date": "2025-07-25",
        "leisure": "fitness_centre",
        "name": "Ample Fit"
      }
    },
    {
      "type": "node",
      "id": 13022417928,
      "lat": 12.9843792,
      "lon": 77.749701,
      "tags": {
        "check_date": "2025-07-25",
        "shop": "vacant"
      }
    },
    {
      "type": "node",
      "id": 13022417929,
      "lat": 12.9844002,
      "lon": 77.7497076,
      "tags": {
        "check_date": "2025-07-25",
        "name": "Würfel",
        "shop": "furniture"
      }
    },
    {
      "type": "node",
      "id": 13022417930,
      "lat": 12.9844171,
      "lon": 77.7497141,
      "tags": {
        "amenity": "restaurant",
        "check_date": "2025-07-25",
        "name": "Family Kitchen"
      }
    },
    {
      "type": "node",
      "id": 13022417931,
      "lat": 12.9844058,
      "lon": 77.7495205,
      "tags": {
        "amenity": "prep_school",
        "check_date": "2025-07-25",
        "name": "Centum Academy"
      }
    },
    {
      "type": "node",
      "id": 13022417933,
      "lat": 12.9844548,
      "lon": 77.7495405,
      "tags": {
        "addr:floor": "2",
        "amenity": "fast_food",
        "check_date": "2025-07-25",
        "cuisine": "pizza",
        "name": "Pepe's Pizza"
      }
    },
    {
      "type": "node",
      "id": 13022417934,
      "lat": 12.9844717,
      "lon": 77.7495433,
      "tags": {
        "amenity": "restaurant",
        "check_date": "2025-07-25",
        "level": "1",
        "name": "Mani's Dum Biriyani"
      }
    },
    {
      "type": "node",
      "id": 13022417935,
      "lat": 12.9844913,
      "lon": 77.7495495,
      "tags": {
        "amenity": "bank",
        "brand": "Bank of Baroda",
        "brand:wikidata": "Q2003797",
        "check_date": "2025-07-25",
        "level": "0",
        "name": "Bank of Baroda",
        "operator": "Bank of Baroda",
        "operator:wikidata": "Q2003797"
      }
    },
    {
      "type": "node",
      "id": 13022417944,
      "lat": 12.9847043,
      "lon": 77.748794,
      "tags": {
        "amenity": "restaurant",
        "check_date": "2025-07-25",
        "name": "The Heaven Mandi"
      }
    },
    {
      "type": "node",
      "id": 13022417945,
      "lat": 12.984719,
      "lon": 77.7488832,
      "tags": {
        "amenity": "restaurant",
        "check_date": "2025-07-25",
        "name": "House Of Desserts"
      }
    },
    {
      "type": "node",
      "id": 13022417946,
      "lat": 12.9847782,
      "lon": 77.7488158,
      "tags": {
        "amenity": "restaurant",
        "check_date": "2025-07-25",
        "name": "Smoky Dock"
      }
    },
    {
      "type": "node",
      "id": 13022417947,
      "lat": 12.9844636,
      "lon": 77.7493771,
      "tags": {
        "addr:housename": "SDR Tower",
        "addr:street": "Whitefield Road",
        "check_date": "2025-07-25",
        "leisure": "fitness_centre",
        "level": "3",
        "name": "Rock's Gym"
      }
    },
    {
      "type": "node",
      "id": 13022417948,
      "lat": 12.9846806,
      "lon": 77.748896,
      "tags": {
        "amenity": "restaurant",
        "check_date": "2025-07-25",
        "name": "Donne Biriyani Palace"
      }
    },
    {
      "type": "node",
      "id": 13022417949,
      "lat": 12.9846441,
      "lon": 77.7489586,
      "tags": {
        "check_date": "2025-07-25",
        "name": "Kent Spa",
        "shop": "massage"
      }
    },
    {
      "type": "node",
      "id": 13022417950,
      "lat": 12.9845912,
      "lon": 77.748989,
      "tags": {
        "check_date": "2025-07-25",
        "name": "Aluma Salon",
        "shop": "hairdresser"
      }
    },
    {
      "type": "node",
      "id": 13022417951,
      "lat": 12.9846354,
      "lon": 77.7490087,
      "tags": {
        "amenity": "studio",
        "check_date": "2025-07-25",
        "name": "Studio II"
      }
    },
    {
      "type": "node",
      "id": 13022417952,
      "lat": 12.9846111,
      "lon": 77.7491282,
      "tags": {
        "amenity": "restaurant",
        "check_date": "2025-07-25",
        "name": "Laffah"
      }
    },
    {
      "type": "node",
      "id": 13022417953,
      "lat": 12.9845332,
      "lon": 77.7491765,
      "tags": {
        "check_date": "2025-07-25",
        "shop": "beauty"
      }
    },
    {
      "type": "node",
      "id": 13022417954,
      "lat": 12.9844954,
      "lon": 77.7496757,
      "tags": {
        "addr:street": "Whitefield Road",
        "amenity": "cafe",
        "building": "kiosk",
        "building:levels": "2",
        "building:material": "metal",
        "name": "Family Kitchen",
        "roof:levels": "0",
        "roof:shape": "flat"
      }
    },
    {
      "type": "node",
      "id": 13022417955,
      "lat": 12.9845057,
      "lon": 77.7493875,
      "tags": {
        "addr:housename": "SDR Tower",
        "addr:street": "Whitefield Road",
        "amenity": "restaurant",
        "check_date": "2025-07-25",
        "level": "1",
        "name": "Star Biriyani"
      }
    },
    {
      "type": "node",
      "id": 13022417956,
      "lat": 12.9845257,
      "lon": 77.7493918,
      "tags": {
        "addr:housename": "SDR Tower",
        "addr:street": "Whitefield Road",
        "amenity": "atm",
        "brand": "South Indian Bank",
        "brand:wikidata": "Q2044973",
        "check_date": "2025-07-25",
        "level": "0",
        "operator": "South Indian Bank",
        "operator:wikidata": "Q2044973"
      }
    },
    {
      "type": "node",
      "id": 13022417957,
      "lat": 12.9844842,
      "lon": 77.749381,
      "tags": {
        "addr:housename": "SDR Tower",
        "addr:street": "Whitefield Road",
        "amenity": "bank",
        "check_date": "2025-07-25",
        "level": "2",
        "name": "Tata Capital"
      }
    },
    {
      "type": "node",
      "id": 13022417958,
      "lat": 12.9844294,
      "lon": 77.74953,
      "tags": {
        "check_date": "2025-07-25",
        "leisure": "fitness_centre",
        "level": "3",
        "name": "Phoenix Fitness"
      }
    },
    {
      "type": "node",
      "id": 13172594354,
      "lat": 12.9829879,
      "lon": 77.7525021,
      "tags": {
        "addr:floor": "2",
        "check_date": "2025-09-26",
        "name": "Homes To Life",
        "shop": "interior_decoration"
      }
    },
    {
      "type": "node",
      "id": 13335147238,
      "lat": 12.9889452,
      "lon": 77.7579463,
      "tags": {
        "access": "permissive",
        "amenity": "parking_entrance",
        "parking": "underground"
      }
    },
    {
      "type": "node",
      "id": 13335147239,
      "lat": 12.9889944,
      "lon": 77.7579689,
      "tags": {
        "access": "permissive",
        "amenity": "parking_entrance",
        "parking": "underground"
      }
    },
    {
      "type": "way",
      "id": 147380607,
      "center": {
        "lat": 12.9800593,
        "lon": 77.7513938
      },
      "tags": {
        "addr:housenumber": "132",
        "addr:postcode": "560066",
        "addr:street": "Whitefield Main Road",
        "building": "yes",
        "building:colour": "grey",
        "building:levels": "1",
        "check_date": "2025-07-01",
        "name": "Royal Mart Supermarket",
        "roof:levels": "0",
        "roof:orientation": "along",
        "roof:shape": "gabled",
        "shop": "supermarket",
        "wheelchair": "no"
      }
    },
    {
      "type": "way",
      "id": 159031330,
      "center": {
        "lat": 12.9766724,
        "lon": 77.7495518
      },
      "tags": {
        "addr:street": "Whitefield Main Road",
        "amenity": "school",
        "check_date": "2025-05-24",
        "email": "sjcems2011@gmail.com",
        "name": "St. Joseph's Convent High School",
        "phone": "080-28457985",
        "religion": "christian",
        "website": "http:sjcemswhitefield"
      }
    },
    {
      "type": "way",
      "id": 168345821,
      "center": {
        "lat": 12.9790583,
        "lon": 77.7480207
      },
      "tags": {
        "addr:postcode": "560066",
        "amenity": "school",
        "name": "Holy Cross School & College",
        "website": "http://hcscwhitefield.com/"
      }
    },
    {
      "type": "way",
      "id": 181469517,
      "center": {
        "lat": 12.9849166,
        "lon": 77.7627604
      },
      "tags": {
        "addr:full": "Near ITPB, Whitefield Bangalore -560 067",
        "alt_name": "MVJ College of Engineering",
        "amenity": "college",
        "email": "contactmvjce@gmail.com",
        "name": "M V Jayaram College of Engineering",
        "phone": "+91 80 4299 1000",
        "website": "https://mvjce.edu.in/",
        "wikidata": "Q6719155",
        "wikimedia_commons": "Category:MVJ College of Engineering",
        "wikipedia": "en:MVJ College of Engineering"
      }
    },
    {
      "type": "way",
      "id": 346449367,
      "center": {
        "lat": 12.9829065,
        "lon": 77.7478025
      },
      "tags": {
        "amenity": "hospital",
        "building": "yes",
        "emergency": "no",
        "healthcare": "hospital",
        "name": "Amrik Hospital"
      }
    },
    {
      "type": "way",
      "id": 499256297,
      "center": {
        "lat": 12.9844591,
        "lon": 77.7557925
      },
      "tags": {
        "leisure": "park",
        "name": "Maithri Layout Park"
      }
    },
    {
      "type": "way",
      "id": 627116655,
      "center": {
        "lat": 12.9849083,
        "lon": 77.76443
      },
      "tags": {
        "leisure": "swimming_pool"
      }
    },
    {
      "type": "way",
      "id": 704633795,
      "center": {
        "lat": 12.9765846,
        "lon": 77.7605909
      },
      "tags": {
        "leisure": "sports_centre",
        "name": "Willow Sports Cricket academy",
        "sport": "cricket"
      }
    },
    {
      "type": "way",
      "id": 773145619,
      "center": {
        "lat": 12.9796526,
        "lon": 77.7481856
      },
      "tags": {
        "leisure": "park"
      }
    },
    {
      "type": "way",
      "id": 1009334204,
      "center": {
        "lat": 12.982202,
        "lon": 77.7517912
      },
      "tags": {
        "amenity": "fuel",
        "brand": "Shell",
        "brand:wikidata": "Q110716465",
        "check_date": "2025-08-26",
        "compressed_air": "yes",
        "fuel:diesel": "yes",
        "fuel:petrol": "yes",
        "landuse": "retail",
        "name": "Shell Petrol Pump Hope Farm",
        "operator": "Shell",
        "self_service": "no"
      }
    },
    {
      "type": "way",
      "id": 1083394762,
      "center": {
        "lat": 12.9838223,
        "lon": 77.7506996
      },
      "tags": {
        "access": "private",
        "layer": "10",
        "leisure": "swimming_pool",
        "location": "roof"
      }
    },
    {
      "type": "way",
      "id": 1087693700,
      "center": {
        "lat": 12.9767588,
        "lon": 77.7523738
      },
      "tags": {
        "access": "private",
        "leisure": "swimming_pool"
      }
    },
    {
      "type": "way",
      "id": 1125172752,
      "center": {
        "lat": 12.9823647,
        "lon": 77.7518309
      },
      "tags": {
        "addr:street": "Whitefield Main Road",
        "brand": "Shell Select",
        "brand:wikidata": "Q124359752",
        "building": "retail",
        "building:levels": "1",
        "building:material": "concrete",
        "building:material:concrete": "panels",
        "check_date": "2025-08-26",
        "name": "Shell Select",
        "roof:levels": "0",
        "roof:shape": "flat",
        "shop": "convenience"
      }
    },
    {
      "type": "way",
      "id": 1125367469,
      "center": {
        "lat": 12.9766812,
        "lon": 77.7534662
      },
      "tags": {
        "leisure": "pitch",
        "lit": "yes",
        "sport": "soccer",
        "surface": "artificial_turf"
      }
    },
    {
      "type": "way",
      "id": 1125367470,
      "center": {
        "lat": 12.976411,
        "lon": 77.7534269
      },
      "tags": {
        "leisure": "pitch",
        "sport": "badminton"
      }
    },
    {
      "type": "way",
      "id": 1135846628,
      "center": {
        "lat": 12.9835296,
        "lon": 77.7489362
      },
      "tags": {
        "leisure": "park"
      }
    },
    {
      "type": "way",
      "id": 1156196453,
      "center": {
        "lat": 12.9872159,
        "lon": 77.7460902
      },
      "tags": {
        "fee": "yes",
        "landuse": "forest",
        "leisure": "park",
        "name": "Kadugodi Reserved Forest",
        "name:kn": "ಕಾಡುಗೋಡಿ ಟ್ರೀ ಪಾರ್ಕ್",
        "opening_hours": "Mo-Su 06:00-21:00",
        "toilets:wheelchair": "yes",
        "wheelchair": "limited"
      }
    },
    {
      "type": "way",
      "id": 1187678803,
      "center": {
        "lat": 12.9844411,
        "lon": 77.7499129
      },
      "tags": {
        "access": "customers",
        "amenity": "parking",
        "fee": "no",
        "operator": "Thalassery Restaurant",
        "operator:type": "private",
        "parking": "surface",
        "surface": "paved"
      }
    },
    {
      "type": "way",
      "id": 1187679088,
      "center": {
        "lat": 12.984717,
        "lon": 77.7490274
      },
      "tags": {
        "access": "customers",
        "amenity": "parking",
        "parking": "surface",
        "surface": "paved"
      }
    },
    {
      "type": "way",
      "id": 1199395256,
      "center": {
        "lat": 12.982433,
        "lon": 77.7593136
      },
      "tags": {
        "addr:city": "BANGALORE",
        "addr:housenumber": "1/352 A CHANNASANDRA MAIN ROAD",
        "addr:postcode": "560067",
        "addr:street": "BESIDE DSR APT",
        "building": "yes",
        "name": "Raghuvanshi Home Mart",
        "phone": "8867070220",
        "shop": "hardware"
      }
    },
    {
      "type": "way",
      "id": 1208443502,
      "center": {
        "lat": 12.9845438,
        "lon": 77.7519226
      },
      "tags": {
        "access": "private",
        "leisure": "park"
      }
    },
    {
      "type": "way",
      "id": 1208446239,
      "center": {
        "lat": 12.9836161,
        "lon": 77.751234
      },
      "tags": {
        "access": "customers",
        "amenity": "parking",
        "parking": "surface"
      }
    },
    {
      "type": "way",
      "id": 1239792897,
      "center": {
        "lat": 12.9781949,
        "lon": 77.7597793
      },
      "tags": {
        "access": "private",
        "leisure": "swimming_pool"
      }
    },
    {
      "type": "way",
      "id": 1239792899,
      "center": {
        "lat": 12.9777479,
        "lon": 77.7590014
      },
      "tags": {
        "leisure": "park"
      }
    },
    {
      "type": "way",
      "id": 1239792900,
      "center": {
        "lat": 12.9790541,
        "lon": 77.7591216
      },
      "tags": {
        "leisure": "park"
      }
    },
    {
      "type": "way",
      "id": 1272039723,
      "center": {
        "lat": 12.9854465,
        "lon": 77.7518516
      },
      "tags": {
        "access": "private",
        "leisure": "swimming_pool"
      }
    },
    {
      "type": "way",
      "id": 1272039724,
      "center": {
        "lat": 12.9858744,
        "lon": 77.7515387
      },
      "tags": {
        "access": "private",
        "amenity": "parking",
        "parking": "surface"
      }
    },
    {
      "type": "way",
      "id": 1272039725,
      "center": {
        "lat": 12.9851216,
        "lon": 77.7512182
      },
      "tags": {
        "access": "private",
        "amenity": "parking",
        "parking": "surface"
      }
    },
    {
      "type": "way",
      "id": 1272039726,
      "center": {
        "lat": 12.985325,
        "lon": 77.7527094
      },
      "tags": {
        "access": "private",
        "leisure": "park"
      }
    },
    {
      "type": "way",
      "id": 1272039727,
      "center": {
        "lat": 12.9848243,
        "lon": 77.7523403
      },
      "tags": {
        "access": "private",
        "leisure": "park"
      }
    },
    {
      "type": "way",
      "id": 1272039731,
      "center": {
        "lat": 12.9855761,
        "lon": 77.7486035
      },
      "tags": {
        "access": "private",
        "leisure": "park"
      }
    },
    {
      "type": "way",
      "id": 1272039733,
      "center": {
        "lat": 12.9848316,
        "lon": 77.7498144
      },
      "tags": {
        "access": "private",
        "amenity": "parking",
        "parking": "surface"
      }
    },
    {
      "type": "way",
      "id": 1272039735,
      "center": {
        "lat": 12.9844261,
        "lon": 77.7509569
      },
      "tags": {
        "access": "private",
        "amenity": "parking",
        "parking": "surface"
      }
    },
    {
      "type": "way",
      "id": 1272039738,
      "center": {
        "lat": 12.9859901,
        "lon": 77.7503601
      },
      "tags": {
        "amenity": "place_of_worship",
        "building": "church",
        "denomination": "nazarene",
        "name": "Church of the Nazarene",
        "religion": "christian"
      }
    },
    {
      "type": "way",
      "id": 1306213262,
      "center": {
        "lat": 12.9933131,
        "lon": 77.7572503
      },
      "tags": {
        "access": "no",
        "garden:type": "landscaping",
        "leisure": "garden"
      }
    },
    {
      "type": "way",
      "id": 1314991483,
      "center": {
        "lat": 12.9775769,
        "lon": 77.7518152
      },
      "tags": {
        "addr:housenumber": "237",
        "amenity": "monastery",
        "check_date": "2025-07-03",
        "denomination": "catholic",
        "landuse": "religious",
        "name": "Maria Ashram",
        "religion": "christian"
      }
    },
    {
      "type": "way",
      "id": 1314991499,
      "center": {
        "lat": 12.9845931,
        "lon": 77.7538496
      },
      "tags": {
        "amenity": "school",
        "landuse": "education",
        "name": "Divine Light Trust For The Blind"
      }
    },
    {
      "type": "way",
      "id": 1338326412,
      "center": {
        "lat": 12.9786138,
        "lon": 77.7603651
      },
      "tags": {
        "leisure": "pitch",
        "sport": "tennis"
      }
    },
    {
      "type": "way",
      "id": 1338326413,
      "center": {
        "lat": 12.9788965,
        "lon": 77.7569
      },
      "tags": {
        "access": "private",
        "leisure": "swimming_pool"
      }
    },
    {
      "type": "way",
      "id": 1338326414,
      "center": {
        "lat": 12.9778612,
        "lon": 77.7582244
      },
      "tags": {
        "access": "private",
        "leisure": "swimming_pool"
      }
    },
    {
      "type": "way",
      "id": 1338326415,
      "center": {
        "lat": 12.9769801,
        "lon": 77.7584796
      },
      "tags": {
        "access": "private",
        "leisure": "swimming_pool"
      }
    },
    {
      "type": "way",
      "id": 1351211094,
      "center": {
        "lat": 12.9845647,
        "lon": 77.7600289
      },
      "tags": {
        "access": "private",
        "leisure": "pitch",
        "sport": "tennis"
      }
    },
    {
      "type": "way",
      "id": 1351211095,
      "center": {
        "lat": 12.9845979,
        "lon": 77.7607029
      },
      "tags": {
        "access": "private",
        "leisure": "swimming_pool"
      }
    },
    {
      "type": "way",
      "id": 1410852309,
      "center": {
        "lat": 12.9825173,
        "lon": 77.7522202
      },
      "tags": {
        "amenity": "shelter",
        "bench": "yes",
        "bin": "no",
        "building": "yes",
        "building:colour": "grey",
        "building:levels": "0",
        "bus": "yes",
        "departures_board": "no",
        "highway": "bus_stop",
        "lit": "no",
        "name": "Hope Farm (Towards Varthur)",
        "network": "BMTC",
        "network:wikidata": "Q3345039",
        "operator": "BMTC",
        "public_transport": "platform",
        "roof:levels": "1",
        "roof:shape": "flat",
        "shelter": "yes",
        "shelter_type": "public_transport"
      }
    },
    {
      "type": "way",
      "id": 1410852310,
      "center": {
        "lat": 12.9823752,
        "lon": 77.7521958
      },
      "tags": {
        "amenity": "shelter",
        "bench": "yes",
        "bin": "no",
        "building": "yes",
        "building:colour": "grey",
        "building:levels": "0",
        "bus": "yes",
        "departures_board": "no",
        "highway": "bus_stop",
        "lit": "no",
        "name": "Hope Farm (Towards Varthur)",
        "network": "BMTC",
        "network:wikidata": "Q3345039",
        "operator": "BMTC",
        "public_transport": "platform",
        "roof:levels": "1",
        "roof:shape": "flat",
        "shelter": "yes",
        "shelter_type": "public_transport",
        "tactile_paving": "no",
        "wheelchair": "no"
      }
    },
    {
      "type": "way",
      "id": 1410852334,
      "center": {
        "lat": 12.9830389,
        "lon": 77.7523874
      },
      "tags": {
        "access": "customers",
        "amenity": "parking",
        "fee": "no",
        "parking": "surface"
      }
    },
    {
      "type": "way",
      "id": 1454051713,
      "center": {
        "lat": 12.9912132,
        "lon": 77.7618205
      },
      "tags": {
        "amenity": "school"
      }
    },
    {
      "type": "way",
      "id": 1454051715,
      "center": {
        "lat": 12.9816253,
        "lon": 77.7569055
      },
      "tags": {
        "addr:city": "Whitefield, Bangalore",
        "addr:postcode": "560066",
        "addr:street": "Channasandra Main Road",
        "amenity": "school",
        "name": "Whitefield Global School"
      }
    },
    {
      "type": "way",
      "id": 1454051718,
      "center": {
        "lat": 12.9889638,
        "lon": 77.7566733
      },
      "tags": {
        "leisure": "garden"
      }
    },
    {
      "type": "way",
      "id": 1454051719,
      "center": {
        "lat": 12.9896501,
        "lon": 77.758125
      },
      "tags": {
        "leisure": "garden"
      }
    },
    {
      "type": "way",
      "id": 1454051726,
      "center": {
        "lat": 12.9888848,
        "lon": 77.7589183
      },
      "tags": {
        "leisure": "garden"
      }
    },
    {
      "type": "way",
      "id": 1454051736,
      "center": {
        "lat": 12.9905964,
        "lon": 77.7559237
      },
      "tags": {
        "amenity": "telephone",
        "landuse": "commercial",
        "operator": "BSNL",
        "operator:wikidata": "Q278834"
      }
    },
    {
      "type": "way",
      "id": 1454053846,
      "center": {
        "lat": 12.9805772,
        "lon": 77.7585201
      },
      "tags": {
        "amenity": "college",
        "name": "Government Polytechnic College"
      }
    },
    {
      "type": "way",
      "id": 1454095244,
      "center": {
        "lat": 12.9889457,
        "lon": 77.757696
      },
      "tags": {
        "leisure": "garden"
      }
    },
    {
      "type": "way",
      "id": 1454095245,
      "center": {
        "lat": 12.9885497,
        "lon": 77.7593787
      },
      "tags": {
        "leisure": "garden"
      }
    }
  ]
}