{
  "area_name": "Malagala",
  "osm_id": 1778944439,
  "osm_type": "node",
  "place_type": "neighbourhood",
  "amenity_count": 66,
  "amenities": [
    {
      "type": "node",
      "id": 1463507632,
      "lat": 12.9746134,
      "lon": 77.5129757,
      "tags": {
        "addr:district": "Bengaluru Urban",
        "addr:full": "No-5, 20 Th Cross, Malagala Under Pass Ring Road",
        "addr:postcode": "560091",
        "addr:state": "Karnataka",
        "addr:subdistrict": "Nagarbhavi",
        "amenity": "hospital",
        "name": "Vasan Eye Care Hospital, Nagarabhavi",
        "name:kn": "ವಿಜಯ ನೇತ್ರಾಲಯ",
        "operator:type": "private",
        "source": "OpenGovernmentData",
        "website": "http://www.vasaneye.in/"
      }
    },
    {
      "type": "node",
      "id": 1902558593,
      "lat": 12.9775284,
      "lon": 77.5175141,
      "tags": {
        "addr:housename": "DIVA Boutique",
        "addr:housenumber": "No. 96",
        "addr:postcode": "5600091",
        "addr:street": "9th Cross, Malagala, Pattegara Palya Main Road",
        "shop": "clothes"
      }
    },
    {
      "type": "node",
      "id": 4447127001,
      "lat": 12.9705987,
      "lon": 77.5153346,
      "tags": {
        "addr:city": "Bangalore",
        "addr:postcode": "560072",
        "addr:street": "6th cross Rd, Teachers Colony, Nagarbhavi",
        "amenity": "pharmacy",
        "name": "Careongo Pharmacy Teachers Colony",
        "phone": "+91 89998 08080"
      }
    },
    {
      "type": "node",
      "id": 4447142720,
      "lat": 12.9706209,
      "lon": 77.5151893,
      "tags": {
        "addr:city": "Bangalore",
        "addr:housenumber": "63",
        "addr:postcode": "560072",
        "addr:street": ", Byraveshwara Nagar, 2nd Main, Moodalapalya, Nagarabhavi Main Road, 2nd Block, Govindaraja Nagar Ward",
        "amenity": "hospital",
        "name": "Dhanush Hospital",
        "name:kn": "ಧನುಷ್ ಆಸ್ಪತ್ರೆ",
        "phone": "080 2318 5544"
      }
    },
    {
      "type": "node",
      "id": 6939257334,
      "lat": 12.974865,
      "lon": 77.5096312,
      "tags": {
        "addr:district": "Bengaluru Urban",
        "addr:full": "42, 7Th Block,Ii Stage,Nagarabhavi Ring Road,Near Bhojana Shale Hotel",
        "addr:postcode": "560072",
        "addr:state": "Karnataka",
        "amenity": "hospital",
        "name": "Essential Hospital",
        "source": "OpenGovernmentData"
      }
    },
    {
      "type": "node",
      "id": 6944525393,
      "lat": 12.9819768,
      "lon": 77.5108275,
      "tags": {
        "addr:district": "Bengaluru Urban",
        "addr:full": "No 193, So Feet Road, 2nd Block 2nd Stage",
        "addr:postcode": "560072",
        "addr:state": "Karnataka",
        "amenity": "hospital",
        "name": "Unity Lifline Hospital Pvt Ltd",
        "source": "OpenGovernmentData"
      }
    },
    {
      "type": "node",
      "id": 6948059664,
      "lat": 12.978053,
      "lon": 77.5115959,
      "tags": {
        "addr:district": "Bengaluru Urban",
        "addr:full": "No.4, 5Th Block,2nd Stage Nagarabhavi",
        "addr:postcode": "560072",
        "addr:state": "Karnataka",
        "amenity": "hospital",
        "name": "Brinda Hospital",
        "source": "OpenGovernmentData"
      }
    },
    {
      "type": "node",
      "id": 6948391975,
      "lat": 12.9705902,
      "lon": 77.5108503,
      "tags": {
        "addr:district": "Bengaluru Urban",
        "addr:full": "No. 86, 2nd Main,16Th D Cross,Malagala,Inner Ring Road,Underpass, Nagarabhavi 2nd Stag",
        "addr:postcode": "560072",
        "addr:state": "Karnataka",
        "amenity": "hospital",
        "name": "Deepashri Hospital",
        "source": "OpenGovernmentData"
      }
    },
    {
      "type": "node",
      "id": 7208502285,
      "lat": 12.9725821,
      "lon": 77.5117195,
      "tags": {
        "amenity": "pharmacy",
        "name": "Moulya Medicals"
      }
    },
    {
      "type": "node",
      "id": 7208502385,
      "lat": 12.9727456,
      "lon": 77.511896,
      "tags": {
        "amenity": "restaurant",
        "name": "By2coffee"
      }
    },
    {
      "type": "node",
      "id": 7572526703,
      "lat": 12.9780731,
      "lon": 77.5251934,
      "tags": {
        "addr:district": "Bengaluru Urban",
        "addr:full": "Govindaraja Nagar Ward, Pattegarhpalya, Vijayanagar, Bengaluru",
        "addr:postcode": "560079",
        "addr:state": "Karnataka",
        "amenity": "hospital",
        "name": "Government Hospital",
        "name:kn": "ಸರ್ಕಾರಿ ಆಸ್ಪತ್ರೆ",
        "source": "Local Knowledge"
      }
    },
    {
      "type": "node",
      "id": 7572526732,
      "lat": 12.97748,
      "lon": 77.511541,
      "tags": {
        "addr:district": "Bengaluru Urban",
        "addr:full": "Naagarabhaavi, Bengaluru",
        "addr:postcode": "560072",
        "addr:state": "Karnataka",
        "amenity": "clinic",
        "name": "Dr. Veena's Ayurvedalaya",
        "source": "Local Knowledge"
      }
    },
    {
      "type": "node",
      "id": 7572526761,
      "lat": 12.9695445,
      "lon": 77.5154183,
      "tags": {
        "addr:district": "Bengaluru Urban",
        "addr:full": "Shivananda Nagar, Govindaraja Nagar Ward, Bengaluru",
        "addr:postcode": "560072",
        "addr:state": "Karnataka",
        "amenity": "dentist",
        "name": "Murali dental clinic",
        "source": "Local Knowledge"
      }
    },
    {
      "type": "node",
      "id": 7572526766,
      "lat": 12.9745497,
      "lon": 77.5208943,
      "tags": {
        "addr:district": "Bengaluru Urban",
        "addr:full": "Govindaraja Nagar Ward, Panchasheel Nagar, Vijayanagar, Bengaluru",
        "addr:postcode": "560072",
        "addr:state": "Karnataka",
        "amenity": "hospital",
        "name": "Panchsheela Nagar Hospital",
        "source": "Local Knowledge"
      }
    },
    {
      "type": "node",
      "id": 7572526792,
      "lat": 12.976379,
      "lon": 77.524439,
      "tags": {
        "addr:district": "Bengaluru Urban",
        "addr:full": "Srinivasnagar, Amarajyothi Nagar, Vijayanagar, Bengaluru",
        "addr:postcode": "560072",
        "addr:state": "Karnataka",
        "amenity": "hospital",
        "name": "Sumati Hospital",
        "source": "Local Knowledge"
      }
    },
    {
      "type": "node",
      "id": 7572526795,
      "lat": 12.9766618,
      "lon": 77.5246346,
      "tags": {
        "addr:district": "Bengaluru Urban",
        "addr:full": "Patteghar Palya Main Road, Govindaraja Nagar Ward, Pattegarhpalya, Vijayanagar, Bengaluru",
        "addr:postcode": "560079",
        "addr:state": "Karnataka",
        "amenity": "clinic",
        "name": "Ranganatha Clinic",
        "source": "Local Knowledge"
      }
    },
    {
      "type": "node",
      "id": 7572526797,
      "lat": 12.9745782,
      "lon": 77.5130087,
      "tags": {
        "addr:district": "Bengaluru Urban",
        "addr:full": "Marilingappa Extension, Naagarabhaavi, Bengaluru",
        "addr:postcode": "560091",
        "addr:state": "Karnataka",
        "amenity": "clinic",
        "name": "Vijaya Netralaya",
        "source": "Local Knowledge"
      }
    },
    {
      "type": "node",
      "id": 7927569085,
      "lat": 12.9771352,
      "lon": 77.5075287,
      "tags": {
        "addr:postcode": "560091",
        "addr:street": "11th Cross Road 2nd Stage, RHCS Layout, Annapoorneshwari Nagar, Naagarabhaavi",
        "amenity": "school",
        "email": "communications.oisng@orchids.edu.in",
        "name": "Orchids The International School, Nagarbhavi",
        "opening_hours": "Mo-Su 09:00-18:30",
        "operator": "Orchids International School",
        "phone": "+919513922803",
        "website": "https://www.orchidsinternationalschool.com/bangalore-branches/nagarbhavi/"
      }
    },
    {
      "type": "node",
      "id": 8187959398,
      "lat": 12.9828242,
      "lon": 77.5107928,
      "tags": {
        "addr:full": "Nagarabhavi, Magadi Main Rd, Kandhaya Nagar, sumnahalli, Kottigepalya, Bengaluru, Karnataka",
        "addr:state": "Karnataka",
        "amenity": "bank",
        "brand": "Axis Bank",
        "brand:wikidata": "Q2003549",
        "name": "Axis Bank",
        "name:kn": "ಆಕ್ಸಿಸ್ ಬ್ಯಾಂಕ್"
      }
    },
    {
      "type": "node",
      "id": 8187963425,
      "lat": 12.9801316,
      "lon": 77.5106987,
      "tags": {
        "addr:full": "Old Outer Ring Rd, 2 Block, Naagarabhaavi, Bengaluru, Karnataka",
        "addr:state": "Karnataka",
        "amenity": "bank",
        "brand": "Canara Bank",
        "brand:en": "Canara Bank",
        "brand:hi": "केनरा बैंक",
        "brand:kn": "ಕೆನರಾ ಬ್ಯಾಂಕ್",
        "brand:pa": "ਕੇਨਰਾ ਬੈਂਕ",
        "brand:pnb": "کینرا بینک",
        "brand:ur": "کینرا بینک",
        "brand:wikidata": "Q2003777",
        "brand:wikipedia": "en:Canara Bank",
        "brand:wikipedia:pa": "ਕੇਨਰਾ ਬੈਂਕ",
        "name": "Canara Bank",
        "name:en": "Canara Bank",
        "name:hi": "केनरा बैंक",
        "name:kn": "ಕೆನರಾ ಬ್ಯಾಂಕ್",
        "name:pa": "ਕੇਨਰਾ ਬੈਂਕ",
        "name:pnb": "کینرا بینک",
        "name:ur": "کینرا بینک"
      }
    },
    {
      "type": "node",
      "id": 8187963493,
      "lat": 12.9737273,
      "lon": 77.5098419,
      "tags": {
        "addr:full": "1st Main Road 702 II nd MAIN II nd STAGE, 11th Block, Marilingappa Extension, Naagarabhaavi, Bengaluru, Karnataka",
        "addr:state": "Karnataka",
        "amenity": "bank",
        "brand": "Allahabad Bank",
        "brand:wikidata": "Q2018840",
        "name": "Allahabad Bank",
        "name:kn": "ಅಲ್ಲಹಾಬಾದ್ ಬ್ಯಾಂಕ್"
      }
    },
    {
      "type": "node",
      "id": 8196809374,
      "lat": 12.979487,
      "lon": 77.510375,
      "tags": {
        "addr:full": "23, Nagarbhavi Second Stage, BDA Layout, Naagarabhaavi, Bengaluru, Karnataka",
        "addr:state": "Karnataka",
        "amenity": "college",
        "name": "Bsv Pu College Malagala"
      }
    },
    {
      "type": "node",
      "id": 8240257731,
      "lat": 12.979175,
      "lon": 77.5151391,
      "tags": {
        "name": "Maruti Suzuki Nexa",
        "shop": "car"
      }
    },
    {
      "type": "node",
      "id": 8240257732,
      "lat": 12.9730288,
      "lon": 77.512752,
      "tags": {
        "name": "Track & Trail",
        "shop": "bicycle"
      }
    },
    {
      "type": "node",
      "id": 9654252379,
      "lat": 12.98113,
      "lon": 77.5111923,
      "tags": {
        "amenity": "bank",
        "atm": "yes",
        "brand": "HDFC Bank",
        "brand:wikidata": "Q631047",
        "name": "HDFC Bank",
        "name:kn": "ಎಚ್ ಡಿ ಎಫ್ ಸಿ",
        "operator": "HDFC Bank",
        "short_name": "HDFC"
      }
    },
    {
      "type": "node",
      "id": 9654252380,
      "lat": 12.9805027,
      "lon": 77.5107577,
      "tags": {
        "amenity": "fast_food",
        "brand": "Domino's",
        "brand:ks": "ڈومینوز",
        "brand:pa": "ਡੋਮੀਨੋਜ਼",
        "brand:ur": "ڈومینوز",
        "brand:wikidata": "Q839466",
        "brand:wikipedia": "en:Domino's Pizza",
        "cuisine": "pizza",
        "name": "Domino's",
        "name:ks": "ڈومینوز",
        "name:pa": "ਡੋਮੀਨੋਜ਼",
        "name:ur": "ڈومینوز",
        "takeaway": "yes"
      }
    },
    {
      "type": "node",
      "id": 9775574200,
      "lat": 12.9827335,
      "lon": 77.5189304,
      "tags": {
        "amenity": "bench"
      }
    },
    {
      "type": "node",
      "id": 9775574219,
      "lat": 12.9826171,
      "lon": 77.5189331,
      "tags": {
        "amenity": "fountain"
      }
    },
    {
      "type": "node",
      "id": 10738598990,
      "lat": 12.979439,
      "lon": 77.5134861,
      "tags": {
        "amenity": "fountain",
        "drinking_water": "no",
        "source": "survey"
      }
    },
    {
      "type": "node",
      "id": 11278749468,
      "lat": 12.9770095,
      "lon": 77.5147033,
      "tags": {
        "name": "Crazy Bean Bag",
        "shop": "furniture"
      }
    },
    {
      "type": "node",
      "id": 11278749493,
      "lat": 12.9794977,
      "lon": 77.5167002,
      "tags": {
        "amenity": "fast_food",
        "cuisine": "regional",
        "name": "Indira Canteen",
        "operator": "BBMP"
      }
    },
    {
      "type": "way",
      "id": 192051391,
      "center": {
        "lat": 12.9787896,
        "lon": 77.5111454
      },
      "tags": {
        "amenity": "school",
        "name": "KLE School"
      }
    },
    {
      "type": "way",
      "id": 192051395,
      "center": {
        "lat": 12.9787203,
        "lon": 77.5113743
      },
      "tags": {
        "leisure": "playground"
      }
    },
    {
      "type": "way",
      "id": 192051693,
      "center": {
        "lat": 12.9796599,
        "lon": 77.513564
      },
      "tags": {
        "alt_name": "Buddha Park",
        "leisure": "park",
        "name": "Buddha Shanti Kanive",
        "name:kn": "ಭುದ್ಧ ಶಾಂತಿ ಕಣಿವೆ",
        "wheelchair": "no"
      }
    },
    {
      "type": "way",
      "id": 192051695,
      "center": {
        "lat": 12.9769572,
        "lon": 77.5123
      },
      "tags": {
        "leisure": "park",
        "name": "Ramakrishna Hegde Park",
        "name:kn": "ರಾಮಕೃಷ್ಣ ಹೆಗ್ಗಡೆ ಉದ್ಯಾನವನ"
      }
    },
    {
      "type": "way",
      "id": 1050578227,
      "center": {
        "lat": 12.9834643,
        "lon": 77.5099921
      },
      "tags": {
        "amenity": "college",
        "name": "Kempegowda Institute of Management Studies and Research"
      }
    },
    {
      "type": "way",
      "id": 1050578228,
      "center": {
        "lat": 12.9736685,
        "lon": 77.5091585
      },
      "tags": {
        "amenity": "clinic",
        "name": "Kanva Diagnostics"
      }
    },
    {
      "type": "way",
      "id": 1064304010,
      "center": {
        "lat": 12.9823154,
        "lon": 77.5199722
      },
      "tags": {
        "access": "private",
        "leisure": "swimming_pool"
      }
    },
    {
      "type": "way",
      "id": 1064304011,
      "center": {
        "lat": 12.9822533,
        "lon": 77.5189366
      },
      "tags": {
        "access": "private",
        "amenity": "theatre",
        "theatre:type": "amphi"
      }
    },
    {
      "type": "way",
      "id": 1064304014,
      "center": {
        "lat": 12.9824282,
        "lon": 77.5196482
      },
      "tags": {
        "access": "private",
        "leisure": "playground"
      }
    },
    {
      "type": "way",
      "id": 1064408562,
      "center": {
        "lat": 12.9829168,
        "lon": 77.5190731
      },
      "tags": {
        "leisure": "playground"
      }
    },
    {
      "type": "way",
      "id": 1064408563,
      "center": {
        "lat": 12.9822114,
        "lon": 77.5187444
      },
      "tags": {
        "leisure": "garden"
      }
    },
    {
      "type": "way",
      "id": 1064408584,
      "center": {
        "lat": 12.983183,
        "lon": 77.5192422
      },
      "tags": {
        "access": "private",
        "leisure": "playground"
      }
    },
    {
      "type": "way",
      "id": 1064408585,
      "center": {
        "lat": 12.983129,
        "lon": 77.5194681
      },
      "tags": {
        "access": "private",
        "leisure": "pitch",
        "sport": "tennis"
      }
    },
    {
      "type": "way",
      "id": 1064408586,
      "center": {
        "lat": 12.9822354,
        "lon": 77.5202087
      },
      "tags": {
        "access": "private",
        "amenity": "parking",
        "parking": "surface"
      }
    },
    {
      "type": "way",
      "id": 1064408593,
      "center": {
        "lat": 12.9821523,
        "lon": 77.5203856
      },
      "tags": {
        "amenity": "community_centre",
        "building": "yes",
        "community_centre": "club_home",
        "name": "Clubhouse"
      }
    },
    {
      "type": "way",
      "id": 1064408594,
      "center": {
        "lat": 12.9826148,
        "lon": 77.5189265
      },
      "tags": {
        "leisure": "garden"
      }
    },
    {
      "type": "way",
      "id": 1064408601,
      "center": {
        "lat": 12.9826785,
        "lon": 77.5192301
      },
      "tags": {
        "leisure": "garden"
      }
    },
    {
      "type": "way",
      "id": 1064408610,
      "center": {
        "lat": 12.9843725,
        "lon": 77.5171635
      },
      "tags": {
        "alt_name": "Sumanahalli Society",
        "amenity": "social_facility",
        "full_name": "Sumanahalli Leprosy Rehabilitation Training Centre",
        "healthcare": "rehabilitation",
        "healthcare:speciality": "leprosy",
        "name": "Sumanahalli",
        "social_facility": "nursing_home",
        "website": "https://sumanahalli.org/"
      }
    },
    {
      "type": "way",
      "id": 1123272057,
      "center": {
        "lat": 12.9862801,
        "lon": 77.5112768
      },
      "tags": {
        "amenity": "school",
        "name": "Vokkaligara School",
        "name:kn": "ಒಕ್ಕಲಿಗರ ಶಾಲೆ"
      }
    },
    {
      "type": "way",
      "id": 1207060126,
      "center": {
        "lat": 12.9688314,
        "lon": 77.514486
      },
      "tags": {
        "leisure": "park",
        "name": "Nagarbavi 2nd Stage BDA Park",
        "name:en": "Mahatma Gandhi BDA Park",
        "opening_hours": "sunrise-sunset",
        "operator": "Park",
        "operator:type": "public"
      }
    },
    {
      "type": "way",
      "id": 1207060129,
      "center": {
        "lat": 12.9710574,
        "lon": 77.5160685
      },
      "tags": {
        "leisure": "park"
      }
    },
    {
      "type": "way",
      "id": 1207349998,
      "center": {
        "lat": 12.9795044,
        "lon": 77.50757
      },
      "tags": {
        "leisure": "park"
      }
    },
    {
      "type": "way",
      "id": 1207350011,
      "center": {
        "lat": 12.9764024,
        "lon": 77.5081935
      },
      "tags": {
        "leisure": "park"
      }
    },
    {
      "type": "way",
      "id": 1217243764,
      "center": {
        "lat": 12.9730589,
        "lon": 77.5123081
      },
      "tags": {
        "leisure": "park"
      }
    },
    {
      "type": "way",
      "id": 1217243765,
      "center": {
        "lat": 12.9755968,
        "lon": 77.5143144
      },
      "tags": {
        "amenity": "school"
      }
    },
    {
      "type": "way",
      "id": 1217243768,
      "center": {
        "lat": 12.979541,
        "lon": 77.5138122
      },
      "tags": {
        "amenity": "place_of_worship",
        "religion": "hindu"
      }
    },
    {
      "type": "way",
      "id": 1217243769,
      "center": {
        "lat": 12.9803675,
        "lon": 77.5179018
      },
      "tags": {
        "amenity": "training",
        "landuse": "education",
        "name": "Bosco Life Skill Training Center"
      }
    },
    {
      "type": "way",
      "id": 1217243770,
      "center": {
        "lat": 12.97968,
        "lon": 77.5180802
      },
      "tags": {
        "amenity": "school",
        "name": "St. Joseph's Convent High School"
      }
    },
    {
      "type": "way",
      "id": 1217247637,
      "center": {
        "lat": 12.971341,
        "lon": 77.5098726
      },
      "tags": {
        "leisure": "park"
      }
    },
    {
      "type": "way",
      "id": 1353420066,
      "center": {
        "lat": 12.9824858,
        "lon": 77.5128127
      },
      "tags": {
        "amenity": "place_of_worship",
        "denomination": "catholic",
        "name": "St. Joseph Vaz Catholic Church",
        "religion": "christian"
      }
    },
    {
      "type": "way",
      "id": 1390079380,
      "center": {
        "lat": 12.9837378,
        "lon": 77.5092114
      },
      "tags": {
        "amenity": "college",
        "name": "Vokkaligara Sangha Industrial Training Institute"
      }
    },
    {
      "type": "way",
      "id": 1390079382,
      "center": {
        "lat": 12.9832647,
        "lon": 77.5110293
      },
      "tags": {
        "leisure": "park"
      }
    },
    {
      "type": "way",
      "id": 1390079390,
      "center": {
        "lat": 12.9813946,
        "lon": 77.5165761
      },
      "tags": {
        "amenity": "social_facility",
        "name": "Sumanahalli Skill Development Center",
        "social_facility": "nursing_home",
        "website": "https://sumanahalli.org/"
      }
    },
    {
      "type": "way",
      "id": 1390079392,
      "center": {
        "lat": 12.9822558,
        "lon": 77.516831
      },
      "tags": {
        "amenity": "social_facility",
        "name": "Sumanahalli Anugraha",
        "social_facility": "nursing_home",
        "website": "https://sumanahalli.org/"
      }
    },
    {
      "type": "way",
      "id": 1390079395,
      "center": {
        "lat": 12.9814926,
        "lon": 77.5179695
      },
      "tags": {
        "amenity": "social_facility",
        "healthcare": "counselling",
        "name": "Sumanahalli Support Community Care Center"
      }
    }
  ]
}