{
  "area_name": "Mallathahalli",
  "osm_id": 19883503,
  "osm_type": "relation",
  "place_type": "administrative",
  "amenity_count": 24,
  "amenities": [
    {
      "type": "node",
      "id": 7572526685,
      "lat": 12.960863,
      "lon": 77.50189,
      "tags": {
        "addr:district": "Bengaluru Urban",
        "addr:full": "Malathalli Road, Kengunte, Annapurneshwari Nagar, Bengaluru",
        "addr:postcode": "560056",
        "addr:state": "Karnataka",
        "amenity": "dentist",
        "name": "Nanjundeshwara Dental Clinic",
        "source": "Local Knowledge"
      }
    },
    {
      "type": "node",
      "id": 7572526726,
      "lat": 12.9631842,
      "lon": 77.4958701,
      "tags": {
        "addr:district": "Bengaluru Urban",
        "addr:full": "Mallathahalli Lake Road, Mallathahalli, Bengaluru",
        "addr:postcode": "560091",
        "addr:state": "Karnataka",
        "amenity": "dentist",
        "name": "Manjunatha Dental clinic",
        "source": "Local Knowledge"
      }
    },
    {
      "type": "node",
      "id": 7572526727,
      "lat": 12.962759,
      "lon": 77.504309,
      "tags": {
        "addr:district": "Bengaluru Urban",
        "addr:full": "Kengunte, Annapurneshwari Nagar, Bengaluru",
        "addr:postcode": "560056",
        "addr:state": "Karnataka",
        "amenity": "clinic",
        "name": "Ideal Health Care Centre",
        "source": "Local Knowledge"
      }
    },
    {
      "type": "node",
      "id": 7572526764,
      "lat": 12.963967,
      "lon": 77.4973049,
      "tags": {
        "addr:district": "Bengaluru Urban",
        "addr:full": "Vishweshwaraiah Layout, Annapurneshwari Nagar, Bengaluru",
        "addr:postcode": "560056",
        "addr:state": "Karnataka",
        "amenity": "hospital",
        "name": "Abivrud Cancer Care & Research Centre",
        "source": "Local Knowledge"
      }
    },
    {
      "type": "node",
      "id": 7572526770,
      "lat": 12.9645966,
      "lon": 77.4999021,
      "tags": {
        "addr:district": "Bengaluru Urban",
        "addr:full": "ITI Layout, Kengunte, Naagarabhaavi, Bengaluru",
        "addr:postcode": "560056",
        "addr:state": "Karnataka",
        "amenity": "dentist",
        "name": "Noble Dental Care",
        "source": "Local Knowledge"
      }
    },
    {
      "type": "node",
      "id": 7572526785,
      "lat": 12.9679971,
      "lon": 77.5015759,
      "tags": {
        "addr:district": "Bengaluru Urban",
        "addr:full": "Radhakrishna Main Road, Mines &,Geology Layout, Mallathahalli, Bengaluru",
        "addr:postcode": "560056",
        "addr:state": "Karnataka",
        "amenity": "hospital",
        "name": "Revathi Hospital",
        "source": "Local Knowledge"
      }
    },
    {
      "type": "node",
      "id": 7572526803,
      "lat": 12.963884,
      "lon": 77.499943,
      "tags": {
        "addr:district": "Bengaluru Urban",
        "addr:full": "M P M Empyloyees Layout, Kengunte, Annapurneshwari Nagar, Bengaluru",
        "addr:postcode": "560056",
        "addr:state": "Karnataka",
        "amenity": "clinic",
        "name": "Dr. Mahesh Clinic",
        "source": "Local Knowledge"
      }
    },
    {
      "type": "node",
      "id": 7572526807,
      "lat": 12.9674542,
      "lon": 77.5027639,
      "tags": {
        "addr:district": "Bengaluru Urban",
        "addr:full": "Nagarbhavi, Bengaluru",
        "addr:postcode": "560072",
        "addr:state": "Karnataka",
        "amenity": "clinic",
        "name": "Disha Kids Clinic",
        "source": "Local Knowledge"
      }
    },
    {
      "type": "node",
      "id": 8187963554,
      "lat": 12.967716,
      "lon": 77.5054094,
      "tags": {
        "addr:full": "No.19/6, Ring Road, Papareddy Palya, Nagarabhavi 2Nd Stage, Annapurneshwari Nagar, Papareddipalya, Annapurneshwari Nagar, Bengaluru, Karnataka",
        "addr:state": "Karnataka",
        "amenity": "bank",
        "brand": "Andhra Bank",
        "brand:wikidata": "Q2003476",
        "name": "Andhra Bank",
        "name:kn": "ಆಂಧ್ರ ಬ್ಯಾಂಕ್"
      }
    },
    {
      "type": "node",
      "id": 9424636020,
      "lat": 12.9614543,
      "lon": 77.5045383,
      "tags": {
        "amenity": "atm",
        "brand": "Axis Bank",
        "brand:wikidata": "Q2003549",
        "name": "Axis Bank",
        "operator": "Axis Bank",
        "operator:wikidata": "Q2003549"
      }
    },
    {
      "type": "node",
      "id": 11108947155,
      "lat": 12.9677851,
      "lon": 77.5054415,
      "tags": {
        "addr:city": "bengaluru",
        "addr:district": "bengaluru urban",
        "addr:housenumber": "19/6",
        "addr:postcode": "560072",
        "addr:street": "Nagarabhavi 2nd Stage, Papareddipalya, Annapurneshwari Nagar",
        "amenity": "theatre",
        "name": "Chaplin Hut - Private Theater Nagarbhavi",
        "website": "https://www.chaplinhut.com/"
      }
    },
    {
      "type": "node",
      "id": 11187206116,
      "lat": 12.9784222,
      "lon": 77.4942005,
      "tags": {
        "amenity": "shelter",
        "shelter_type": "gazebo"
      }
    },
    {
      "type": "node",
      "id": 12553537501,
      "lat": 12.9777248,
      "lon": 77.5013931,
      "tags": {
        "name": "Mansi Silk Saree Store",
        "shop": "clothes"
      }
    },
    {
      "type": "node",
      "id": 12979669701,
      "lat": 12.9655089,
      "lon": 77.50184,
      "tags": {
        "leisure": "park",
        "name": "MPM Layout Park",
        "opening_hours": "Mo-Su 06:00-22:00"
      }
    },
    {
      "type": "way",
      "id": 192051393,
      "center": {
        "lat": 12.9711007,
        "lon": 77.4996838
      },
      "tags": {
        "leisure": "park"
      }
    },
    {
      "type": "way",
      "id": 675682288,
      "center": {
        "lat": 12.9790992,
        "lon": 77.4983418
      },
      "tags": {
        "leisure": "park"
      }
    },
    {
      "type": "way",
      "id": 675682290,
      "center": {
        "lat": 12.9778838,
        "lon": 77.5023531
      },
      "tags": {
        "leisure": "playground"
      }
    },
    {
      "type": "way",
      "id": 675682291,
      "center": {
        "lat": 12.9776381,
        "lon": 77.5031242
      },
      "tags": {
        "leisure": "park"
      }
    },
    {
      "type": "way",
      "id": 1207349989,
      "center": {
        "lat": 12.9783647,
        "lon": 77.4942105
      },
      "tags": {
        "leisure": "park"
      }
    },
    {
      "type": "way",
      "id": 1241556746,
      "center": {
        "lat": 12.9749768,
        "lon": 77.5037827
      },
      "tags": {
        "leisure": "park"
      }
    },
    {
      "type": "way",
      "id": 1241556749,
      "center": {
        "lat": 12.9654757,
        "lon": 77.4948624
      },
      "tags": {
        "leisure": "park",
        "name": "Malathhalli Lake Park"
      }
    },
    {
      "type": "way",
      "id": 1280602413,
      "center": {
        "lat": 12.9664434,
        "lon": 77.5047496
      },
      "tags": {
        "amenity": "fuel"
      }
    },
    {
      "type": "way",
      "id": 1413520202,
      "center": {
        "lat": 12.9629323,
        "lon": 77.5043618
      },
      "tags": {
        "amenity": "place_of_worship",
        "building": "yes",
        "religion": "hindu"
      }
    },
    {
      "type": "way",
      "id": 1413520212,
      "center": {
        "lat": 12.9658751,
        "lon": 77.5045692
      },
      "tags": {
        "amenity": "fuel"
      }
    }
  ]
}