{
  "area_name": "Malleshwaram",
  "osm_id": 19883296,
  "osm_type": "relation",
  "place_type": "administrative",
  "amenity_count": 452,
  "amenities": [
    {
      "type": "node",
      "id": 295766640,
      "lat": 13.0181973,
      "lon": 77.5581675,
      "tags": {
        "amenity": "police",
        "check_date": "2025-08-21",
        "name": "DCP Bangalore North Traffic Police",
        "wheelchair": "no"
      }
    },
    {
      "type": "node",
      "id": 428497519,
      "lat": 13.0037901,
      "lon": 77.5691874,
      "tags": {
        "addr:street": "Margosa Road",
        "check_date": "2024-05-12",
        "name": "Geojit Financial Services",
        "shop": "mobile_phone"
      }
    },
    {
      "type": "node",
      "id": 428549086,
      "lat": 13.0043466,
      "lon": 77.564775,
      "tags": {
        "leisure": "sports_centre",
        "name": "Canara Union, Prakash Courts",
        "sport": "badminton"
      }
    },
    {
      "type": "node",
      "id": 428549527,
      "lat": 13.0047512,
      "lon": 77.5650939,
      "tags": {
        "amenity": "atm",
        "branch": "Bank",
        "brand": "State Bank of India",
        "brand:wikidata": "Q1340361",
        "name": "State Bank of India",
        "name:kn": "ಭಾರತೀಯ ಸ್ಟೇಟ್ ಬ್ಯಾಂಕ್",
        "operator": "State Bank of India",
        "operator:wikidata": "Q1340361",
        "short_name": "SBI"
      }
    },
    {
      "type": "node",
      "id": 428549736,
      "lat": 13.0056248,
      "lon": 77.5622366,
      "tags": {
        "amenity": "atm",
        "brand": "Axis Bank",
        "brand:wikidata": "Q2003549",
        "name": "Axis Bank",
        "name:kn": "ಆಕ್ಸಿಸ್ ಬ್ಯಾಂಕ್",
        "operator": "Axis Bank",
        "operator:wikidata": "Q2003549"
      }
    },
    {
      "type": "node",
      "id": 428857415,
      "lat": 12.9985927,
      "lon": 77.5687751,
      "tags": {
        "amenity": "club",
        "name": "The Malleshwaram association"
      }
    },
    {
      "type": "node",
      "id": 525357113,
      "lat": 12.9990578,
      "lon": 77.5695202,
      "tags": {
        "addr:street": "Margosa Road",
        "amenity": "bank",
        "atm": "yes",
        "brand": "State Bank of India",
        "brand:wikidata": "Q1340361",
        "brand:wikipedia": "en:State Bank of India",
        "name": "State Bank of India",
        "name:kn": "ಭಾರತೀಯ ಸ್ಟೇಟ್ ಬ್ಯಾಂಕ್",
        "operator": "SBI",
        "short_name": "SBI"
      }
    },
    {
      "type": "node",
      "id": 571124363,
      "lat": 13.0045673,
      "lon": 77.5710992,
      "tags": {
        "addr:street": "Sampige Road",
        "amenity": "cafe",
        "brand": "Cafe Coffee Day",
        "brand:wikidata": "Q5017235",
        "brand:wikipedia": "en:Café Coffee Day",
        "cuisine": "coffee_shop",
        "name": "Cafe Coffee Day",
        "name:kn": "ಕಫೆ ಕಾಫಿ ಡೇ",
        "takeaway": "yes"
      }
    },
    {
      "type": "node",
      "id": 571124364,
      "lat": 13.0042882,
      "lon": 77.5710889,
      "tags": {
        "addr:street": "Sampige Road",
        "brand": "Reliance Fresh",
        "brand:wikidata": "Q7311014",
        "brand:wikipedia": "en:Reliance Fresh",
        "name": "Reliance Fresh",
        "name:kn": "ರಿಲಾಯನ್ಸ್ ಫ್ರೆಶ್",
        "shop": "supermarket"
      }
    },
    {
      "type": "node",
      "id": 574254132,
      "lat": 13.00559,
      "lon": 77.570496,
      "tags": {
        "name": "HOPCOMS",
        "name:kn": "ಹಾಪ್ ಕಾಮ್ಸ್",
        "operator": "milk store",
        "shop": "convenience"
      }
    },
    {
      "type": "node",
      "id": 574499845,
      "lat": 13.0061977,
      "lon": 77.5693737,
      "tags": {
        "branch": "Malleshwaram",
        "check_date": "2025-08-09",
        "name": "Reliance smart",
        "shop": "supermarket"
      }
    },
    {
      "type": "node",
      "id": 575556514,
      "lat": 13.0096888,
      "lon": 77.5624992,
      "tags": {
        "amenity": "fuel",
        "brand": "Bharat Petroleum",
        "brand:wikidata": "Q854826",
        "check_date": "2025-08-27",
        "compressed_air": "yes",
        "name": "Bharat Petroleum",
        "name:kn": "ಭಾರತ್ ಪೆಟ್ರೋಲಿಯಂ"
      }
    },
    {
      "type": "node",
      "id": 576105013,
      "lat": 12.996974,
      "lon": 77.5678633,
      "tags": {
        "addr:postcode": "560003",
        "addr:street": "local_knowledge",
        "amenity": "bank",
        "atm": "yes",
        "brand": "ICICI Bank",
        "brand:wikidata": "Q1653258",
        "name": "ICICI Bank",
        "name:kn": "ಐಸಿಐಸಿಐ ಬ್ಯಾಂಕು",
        "operator": "ICICI Bank",
        "operator:wikidata": "Q1653258",
        "short_name": "ICICI",
        "source": "local_knowledge"
      }
    },
    {
      "type": "node",
      "id": 576960339,
      "lat": 13.0045524,
      "lon": 77.5711963,
      "tags": {
        "addr:city": "bangalore",
        "addr:housenumber": "504",
        "addr:postcode": "560003",
        "addr:street": "Sampige Road",
        "amenity": "fast_food",
        "brand": "Papa John's",
        "brand:wikidata": "Q2759586",
        "brand:wikipedia": "en:Papa John's Pizza",
        "cuisine": "pizza",
        "delivery": "yes",
        "name": "Papa John's",
        "name:kn": "ಪಪ ಜಾನ್ಸ್",
        "opening_hours": "11:00 - 23:00",
        "phone": "080 41280614",
        "smoking": "no",
        "takeaway": "yes",
        "website": "https://www.papajohnspizza.in"
      }
    },
    {
      "type": "node",
      "id": 598211169,
      "lat": 13.0016893,
      "lon": 77.5694475,
      "tags": {
        "addr:street": "Margosa Road",
        "amenity": "bank",
        "atm": "yes",
        "brand": "Bank of India",
        "brand:wikidata": "Q2004439",
        "brand:wikipedia": "en:Bank of India",
        "check_date": "2024-05-12",
        "name": "Bank of India",
        "name:en": "Bank of India",
        "operator": "Bank of India",
        "short_name": "BoI",
        "website": "http://www.bankofindia.co.in"
      }
    },
    {
      "type": "node",
      "id": 598211204,
      "lat": 13.0016506,
      "lon": 77.5694522,
      "tags": {
        "addr:street": "Margosa Road",
        "amenity": "atm",
        "brand": "Bank of India",
        "brand:wikidata": "Q2004439",
        "name": "Bank of India",
        "operator": "Bank of India",
        "operator:wikidata": "Q2004439"
      }
    },
    {
      "type": "node",
      "id": 598212615,
      "lat": 13.0011737,
      "lon": 77.5683395,
      "tags": {
        "amenity": "school",
        "name": "B. P. Indian"
      }
    },
    {
      "type": "node",
      "id": 599205803,
      "lat": 13.0068052,
      "lon": 77.5645334,
      "tags": {
        "brand": "Reliance Fresh",
        "brand:wikidata": "Q7311014",
        "name": "Reliance Fresh",
        "name:kn": "ರಿಲಾಯನ್ಸ್ ಫ್ರೆಶ್",
        "shop": "supermarket"
      }
    },
    {
      "type": "node",
      "id": 599205811,
      "lat": 13.0030557,
      "lon": 77.5701724,
      "tags": {
        "amenity": "community_centre",
        "operator": "Boy Scouts"
      }
    },
    {
      "type": "node",
      "id": 605548779,
      "lat": 13.0085194,
      "lon": 77.5688573,
      "tags": {
        "addr:street": "Margosa Road",
        "amenity": "bank",
        "atm": "yes",
        "brand": "HDFC Bank",
        "brand:wikidata": "Q631047",
        "name": "HDFC Bank",
        "opening_hours": "Mo-Sa 10:30-20:30; Su 12:30-20:00",
        "operator": "HDFC",
        "short_name": "HDFC"
      }
    },
    {
      "type": "node",
      "id": 608492745,
      "lat": 13.0092653,
      "lon": 77.5621798,
      "tags": {
        "amenity": "school",
        "name": "Vani Vilas",
        "name:kn": "ವಾಣಿ ವಿಲಾಸ"
      }
    },
    {
      "type": "node",
      "id": 608493054,
      "lat": 13.0077753,
      "lon": 77.5637631,
      "tags": {
        "amenity": "place_of_worship",
        "name": "Ganesha",
        "name:kn": "ಗಣೇಶ ದೇವಸ್ಥಾನ",
        "religion": "hindu"
      }
    },
    {
      "type": "node",
      "id": 609322087,
      "lat": 13.0067269,
      "lon": 77.5640344,
      "tags": {
        "amenity": "fast_food",
        "cuisine": "indian",
        "name": "Sai Chats"
      }
    },
    {
      "type": "node",
      "id": 610677236,
      "lat": 13.0055316,
      "lon": 77.56985,
      "tags": {
        "amenity": "bank",
        "brand": "UCO Bank",
        "brand:wikidata": "Q2005310",
        "brand:wikipedia": "en:UCO Bank",
        "name": "UCO Bank",
        "name:en": "UCO Bank",
        "name:kn": "ಯೂಕೊ ಬ್ಯಾಂಕ್",
        "old_name": "United Commercial Bank",
        "website": "https://www.ucobank.com"
      }
    },
    {
      "type": "node",
      "id": 610677254,
      "lat": 13.0055316,
      "lon": 77.569732,
      "tags": {
        "amenity": "atm",
        "cost": "free",
        "operator": "UCO"
      }
    },
    {
      "type": "node",
      "id": 613012497,
      "lat": 13.0029248,
      "lon": 77.5663029,
      "tags": {
        "amenity": "place_of_worship",
        "name": "Ganesha",
        "name:kn": "ಗಣೇಶ ದೇವಸ್ಥಾನ",
        "religion": "hindu"
      }
    },
    {
      "type": "node",
      "id": 616321839,
      "lat": 13.0019378,
      "lon": 77.5665159,
      "tags": {
        "amenity": "bank",
        "atm": "yes",
        "check_date": "2025-07-11",
        "name": "SVC Bank",
        "operator": "Shamrao Vittal Cooperative"
      }
    },
    {
      "type": "node",
      "id": 617760063,
      "lat": 13.0006252,
      "lon": 77.5652425,
      "tags": {
        "addr:city": "Malleswaram, Bangalore",
        "addr:street": "8th Main",
        "amenity": "pharmacy",
        "name": "Pushyamee"
      }
    },
    {
      "type": "node",
      "id": 619348631,
      "lat": 13.0011328,
      "lon": 77.5691982,
      "tags": {
        "addr:street": "Margosa Road",
        "amenity": "bank",
        "brand": "Kotak Mahindra Bank",
        "brand:wikidata": "Q2040404",
        "name": "Kotak Mahindra Bank",
        "name:kn": "ಕೋಟಕ್ ಮಹಿಂದ್ರ ಬ್ಯಾಂಕ್"
      }
    },
    {
      "type": "node",
      "id": 619348715,
      "lat": 13.0010742,
      "lon": 77.569202,
      "tags": {
        "addr:street": "Margosa Road",
        "amenity": "atm",
        "brand": "Kotak Mahindra Bank",
        "brand:wikidata": "Q2040404",
        "operator": "Kotak Mahindra Bank",
        "operator:wikidata": "Q2040404"
      }
    },
    {
      "type": "node",
      "id": 621310418,
      "lat": 13.0002063,
      "lon": 77.5697663,
      "tags": {
        "name": "Baker's Hut",
        "name:kn": "ಬೇಕರ್ಸ್ ಹಟ್",
        "shop": "bakery"
      }
    },
    {
      "type": "node",
      "id": 622752297,
      "lat": 12.9998952,
      "lon": 77.5648773,
      "tags": {
        "amenity": "place_of_worship",
        "denomination": "anglican",
        "name": "Grace Church",
        "religion": "christian"
      }
    },
    {
      "type": "node",
      "id": 625856709,
      "lat": 13.0011275,
      "lon": 77.5639285,
      "tags": {
        "addr:city": "bangalore",
        "addr:district": "Bengaluru Urban",
        "addr:full": "71, 11Th Main Road, Opposite Malleshwaram Railway Station, Malleshwaram",
        "addr:housenumber": "71",
        "addr:postcode": "560003",
        "addr:state": "Karnataka",
        "addr:street": "11th Main Road, Opp Railway Station, Malleswaram",
        "amenity": "hospital",
        "name": "Manipal Northside Hospital",
        "phone": "080 2222 1111",
        "source": "OpenGovernmentData",
        "wheelchair": "yes"
      }
    },
    {
      "type": "node",
      "id": 625857657,
      "lat": 13.0009721,
      "lon": 77.5640265,
      "tags": {
        "amenity": "pharmacy",
        "name": "Manipal North Side Pharmacy",
        "wheelchair": "yes"
      }
    },
    {
      "type": "node",
      "id": 650629565,
      "lat": 12.9991783,
      "lon": 77.5707735,
      "tags": {
        "amenity": "toilets",
        "name": "BBMP",
        "name:kn": "ಬೃ. ಬೆಂ. ಮ. ಪಾ."
      }
    },
    {
      "type": "node",
      "id": 734864105,
      "lat": 13.0145591,
      "lon": 77.5608745,
      "tags": {
        "amenity": "college",
        "name": "Student Amenities Center",
        "short_name": "SAC"
      }
    },
    {
      "type": "node",
      "id": 1176722324,
      "lat": 13.0008128,
      "lon": 77.5701799,
      "tags": {
        "amenity": "school",
        "building": "yes",
        "name": "Ubhaya Vedanta Pravarthana Sabha",
        "name:kn": "ಉಭಯ ವೇದಾಂತ ಪ್ರವರ್ತನ ಸಭ"
      }
    },
    {
      "type": "node",
      "id": 1176722415,
      "lat": 13.0058358,
      "lon": 77.5701799,
      "tags": {
        "leisure": "sports_centre",
        "name": "Beagles Basketball Club",
        "sport": "basketball"
      }
    },
    {
      "type": "node",
      "id": 1176722420,
      "lat": 13.0016752,
      "lon": 77.570255,
      "tags": {
        "amenity": "place_of_worship",
        "name": "Krishna Temple",
        "name:kn": "ಕೃಷ್ಣ ದೇವಸ್ಥಾನ",
        "religion": "hindu"
      }
    },
    {
      "type": "node",
      "id": 1176722427,
      "lat": 13.000358,
      "lon": 77.5701424,
      "tags": {
        "amenity": "place_of_worship",
        "building": "yes",
        "name": "Mahaganapathi Temple",
        "name:kn": "ಮಹಾಗಣಪತಿ ದೇವಸ್ಥಾನ",
        "religion": "hindu"
      }
    },
    {
      "type": "node",
      "id": 1289831090,
      "lat": 13.0061761,
      "lon": 77.5647018,
      "tags": {
        "shop": "florist"
      }
    },
    {
      "type": "node",
      "id": 1289833985,
      "lat": 12.9982568,
      "lon": 77.5694946,
      "tags": {
        "alt_name": "CTR",
        "amenity": "restaurant",
        "cuisine": "regional",
        "diet:vegan": "yes",
        "diet:vegetarian": "only",
        "happycow:id": "82110",
        "name": "Shree Sagar CTR",
        "name:kn": "ಶ್ರೀ ಶಾರದ ಸಾಗರ್",
        "old_name": "Central Tiffin Room",
        "start_date": "1920",
        "wikidata": "Q5061916",
        "wikipedia": "en:Central Tiffin Room Bangalore"
      }
    },
    {
      "type": "node",
      "id": 1290073466,
      "lat": 13.0067267,
      "lon": 77.5641398,
      "tags": {
        "amenity": "ice_cream",
        "brand": "Naturals",
        "brand:wikidata": "Q24439154",
        "cuisine": "ice_cream",
        "name": "Naturals"
      }
    },
    {
      "type": "node",
      "id": 1290107583,
      "lat": 13.0044751,
      "lon": 77.5711942,
      "tags": {
        "name": "Olympic Sports",
        "shop": "sports"
      }
    },
    {
      "type": "node",
      "id": 1290107593,
      "lat": 13.0087998,
      "lon": 77.5634096,
      "tags": {
        "amenity": "fast_food",
        "diet:vegetarian": "only",
        "indoor_seating": "yes",
        "name": "Parota Point",
        "outdoor_seating": "yes"
      }
    },
    {
      "type": "node",
      "id": 1290107596,
      "lat": 13.0075028,
      "lon": 77.5635659,
      "tags": {
        "name": "Bun World",
        "shop": "bakery"
      }
    },
    {
      "type": "node",
      "id": 1290107600,
      "lat": 13.0077909,
      "lon": 77.564002,
      "tags": {
        "shop": "convenience"
      }
    },
    {
      "type": "node",
      "id": 1290107604,
      "lat": 13.0091036,
      "lon": 77.5627893,
      "tags": {
        "amenity": "post_office",
        "ref": "Malleshwaram West"
      }
    },
    {
      "type": "node",
      "id": 1290107605,
      "lat": 13.0077106,
      "lon": 77.5640402,
      "tags": {
        "addr:city": "Bangalore",
        "addr:postcode": "560055",
        "addr:street": "8th Main Road",
        "amenity": "pharmacy",
        "dispensing": "yes",
        "name": "Sri Ganesh Medicals"
      }
    },
    {
      "type": "node",
      "id": 1290107608,
      "lat": 13.0092904,
      "lon": 77.5614979,
      "tags": {
        "amenity": "school",
        "name": "Nirmala Rani High School",
        "name:kn": "ನಿರ್ಮಲ ರಾಣಿ ಪ್ರೌಢಶಾಲೆ"
      }
    },
    {
      "type": "node",
      "id": 1290107610,
      "lat": 13.0078203,
      "lon": 77.5639866,
      "tags": {
        "shop": "convenience"
      }
    },
    {
      "type": "node",
      "id": 1290125198,
      "lat": 13.0043642,
      "lon": 77.5652959,
      "tags": {
        "amenity": "hospital"
      }
    },
    {
      "type": "node",
      "id": 1290125200,
      "lat": 13.0069619,
      "lon": 77.5644724,
      "tags": {
        "shop": "convenience"
      }
    },
    {
      "type": "node",
      "id": 1290125205,
      "lat": 13.0067371,
      "lon": 77.5643678,
      "tags": {
        "shop": "clothes"
      }
    },
    {
      "type": "node",
      "id": 1290125219,
      "lat": 13.0067295,
      "lon": 77.5642274,
      "tags": {
        "amenity": "pharmacy",
        "brand": "MedPlus",
        "brand:wikidata": "Q65684234",
        "healthcare": "pharmacy",
        "name": "MedPlus",
        "name:kn": "ಮೆಡ್‍ಪ್ಲಸ್"
      }
    },
    {
      "type": "node",
      "id": 1290125220,
      "lat": 13.0043093,
      "lon": 77.5653307,
      "tags": {
        "name": "Homely Organic",
        "shop": "supermarket",
        "website": "https://homelysupermarket.com/"
      }
    },
    {
      "type": "node",
      "id": 1290125226,
      "lat": 13.0038729,
      "lon": 77.5653254,
      "tags": {
        "shop": "convenience"
      }
    },
    {
      "type": "node",
      "id": 1290152826,
      "lat": 12.9984695,
      "lon": 77.5692319,
      "tags": {
        "shop": "jewelry"
      }
    },
    {
      "type": "node",
      "id": 1290152828,
      "lat": 12.9989399,
      "lon": 77.569256,
      "tags": {
        "shop": "gift"
      }
    },
    {
      "type": "node",
      "id": 1290152830,
      "lat": 12.9986733,
      "lon": 77.5692346,
      "tags": {
        "shop": "convenience"
      }
    },
    {
      "type": "node",
      "id": 1290152832,
      "lat": 12.9987298,
      "lon": 77.5692354,
      "tags": {
        "check_date": "2024-05-12",
        "name": "Excel Dry Cleaners",
        "shop": "laundry"
      }
    },
    {
      "type": "node",
      "id": 1290152832,
      "lat": 12.9987298,
      "lon": 77.5692354,
      "tags": {
        "check_date": "2024-05-12",
        "name": "Excel Dry Cleaners",
        "shop": "laundry"
      }
    },
    {
      "type": "node",
      "id": 1290203319,
      "lat": 13.0009705,
      "lon": 77.5696315,
      "tags": {
        "shop": "jewelry"
      }
    },
    {
      "type": "node",
      "id": 1290203354,
      "lat": 13.0001186,
      "lon": 77.5706105,
      "tags": {
        "amenity": "post_office",
        "name": "Malleshwaram Post Office",
        "operator": "India Post",
        "operator:wikidata": "Q3519720",
        "ref": "Malleshwaram Post Office"
      }
    },
    {
      "type": "node",
      "id": 1299372796,
      "lat": 13.0018529,
      "lon": 77.5671939,
      "tags": {
        "amenity": "fast_food",
        "cuisine": "ice_cream",
        "name": "Amrut Ice-cream",
        "name:kn": "ಅಮೃತ್ ಐಸ್ ಕ್ರೀಮ್"
      }
    },
    {
      "type": "node",
      "id": 1448082496,
      "lat": 12.999295,
      "lon": 77.5680608,
      "tags": {
        "amenity": "restaurant",
        "cuisine": "indian",
        "delivery": "yes",
        "diet:vegetarian": "only",
        "name": "Sai Shakti",
        "name:kn": "ಸಾಯಿ ಶಕ್ತಿ",
        "outdoor_seating": "no",
        "takeaway": "yes"
      }
    },
    {
      "type": "node",
      "id": 1474819903,
      "lat": 13.0002224,
      "lon": 77.5688175,
      "tags": {
        "amenity": "pharmacy",
        "healthcare": "pharmacy",
        "name": "Religare Medicals"
      }
    },
    {
      "type": "node",
      "id": 1474819904,
      "lat": 13.0006563,
      "lon": 77.5683609,
      "tags": {
        "amenity": "place_of_worship",
        "name": "Chinmaya Mission",
        "name:kn": "ಚಿನ್ಮಯ ಮಿಷನ್"
      }
    },
    {
      "type": "node",
      "id": 1474820354,
      "lat": 12.9978128,
      "lon": 77.5712095,
      "tags": {
        "amenity": "fast_food",
        "name": "Kanti Sweets"
      }
    },
    {
      "type": "node",
      "id": 1813542942,
      "lat": 12.9991432,
      "lon": 77.5710944,
      "tags": {
        "amenity": "restaurant",
        "name": "Hotel Janatha",
        "name:kn": "ಜನತಾ",
        "wheelchair": "no"
      }
    },
    {
      "type": "node",
      "id": 1813565050,
      "lat": 13.0058689,
      "lon": 77.571081,
      "tags": {
        "amenity": "atm",
        "brand": "Axis Bank",
        "brand:wikidata": "Q2003549",
        "fee": "no",
        "name": "Axis Bank",
        "operator": "Axis Bank",
        "operator:wikidata": "Q2003549"
      }
    },
    {
      "type": "node",
      "id": 1823183433,
      "lat": 13.0037322,
      "lon": 77.5653317,
      "tags": {
        "amenity": "fast_food",
        "cuisine": "indian",
        "name": "Bajji",
        "name:kn": "ಬಜ್ಜಿ"
      }
    },
    {
      "type": "node",
      "id": 1863318898,
      "lat": 12.999291,
      "lon": 77.5671481,
      "tags": {
        "name": "Manjunatha Provisions",
        "shop": "convenience"
      }
    },
    {
      "type": "node",
      "id": 1863318899,
      "lat": 12.9992858,
      "lon": 77.5670032,
      "tags": {
        "name": "Ganesha Provisions",
        "shop": "convenience"
      }
    },
    {
      "type": "node",
      "id": 1863318900,
      "lat": 12.9991395,
      "lon": 77.5678347,
      "tags": {
        "name": "Safal",
        "shop": "supermarket"
      }
    },
    {
      "type": "node",
      "id": 1863318903,
      "lat": 12.9997824,
      "lon": 77.5681888,
      "tags": {
        "amenity": "pharmacy",
        "healthcare": "pharmacy",
        "name": "Apple Pharma"
      }
    },
    {
      "type": "node",
      "id": 2019362244,
      "lat": 13.0078742,
      "lon": 77.5625316,
      "tags": {
        "addr:city": "Bangalore",
        "addr:street": "11th Main Road,17th Cross",
        "amenity": "hospital",
        "dispensing": "yes",
        "name": "Cloud Nine Hospital",
        "note": "Only for pregnency",
        "phone": "9972999729"
      }
    },
    {
      "type": "node",
      "id": 2090041316,
      "lat": 13.0057078,
      "lon": 77.5668318,
      "tags": {
        "amenity": "dentist",
        "name": "Sowmya Dental Care"
      }
    },
    {
      "type": "node",
      "id": 2196133697,
      "lat": 13.0044109,
      "lon": 77.5668934,
      "tags": {
        "addr:street": "6th Main Road",
        "amenity": "bank",
        "atm": "yes",
        "name": "Sree Charan Bank",
        "name:kn": "ಶ್ರೀ ಚರಣ್ ಬ್ಯಾಂಕ್",
        "toilets:wheelchair": "no",
        "wheelchair": "no"
      }
    },
    {
      "type": "node",
      "id": 2196138330,
      "lat": 13.0037706,
      "lon": 77.5653221,
      "tags": {
        "amenity": "pharmacy",
        "dispensing": "yes",
        "name": "New Pushyamee"
      }
    },
    {
      "type": "node",
      "id": 2208579539,
      "lat": 13.0074205,
      "lon": 77.5642376,
      "tags": {
        "amenity": "ice_cream",
        "brand": "Baskin-Robbins",
        "brand:wikidata": "Q584601",
        "cuisine": "ice_cream",
        "name": "Baskin-Robbins",
        "name:kn": "ಬಸ್ಕಿನ್ ರಾಬಿನ್ಸ್"
      }
    },
    {
      "type": "node",
      "id": 2208582147,
      "lat": 13.0075165,
      "lon": 77.5641095,
      "tags": {
        "name": "Expert Dry Cleaning",
        "shop": "dry_cleaning"
      }
    },
    {
      "type": "node",
      "id": 2631196051,
      "lat": 13.0020277,
      "lon": 77.5707457,
      "tags": {
        "amenity": "restaurant",
        "cuisine": "indian",
        "name": "Maiyas",
        "website": "http://www.maiyas.in/"
      }
    },
    {
      "type": "node",
      "id": 2631196055,
      "lat": 13.0040275,
      "lon": 77.5712572,
      "tags": {
        "amenity": "place_of_worship",
        "name": "Sri Raghavendra Swamy Mutt",
        "name:kn": "ರಾಘವೇಂದ್ರ ಸ್ವಾಮಿ ಮಠ",
        "religion": "hindu"
      }
    },
    {
      "type": "node",
      "id": 3286300987,
      "lat": 13.0179754,
      "lon": 77.5579088,
      "tags": {
        "access": "yes",
        "amenity": "toilets",
        "check_date": "2024-02-15",
        "fee": "yes",
        "operator": "BBMP"
      }
    },
    {
      "type": "node",
      "id": 3400223539,
      "lat": 13.0002667,
      "lon": 77.5694894,
      "tags": {
        "addr:district": "Bengaluru Urban",
        "addr:full": "# 133, Margosa Road,10Th Cross, Malleshwaram",
        "addr:postcode": "560003",
        "addr:state": "Karnataka",
        "amenity": "hospital",
        "healthcare": "hospital",
        "name": "Leela Hospital and Diagnostic Center",
        "source": "OpenGovernmentData"
      }
    },
    {
      "type": "node",
      "id": 3400223636,
      "lat": 13.0003234,
      "lon": 77.5693738,
      "tags": {
        "amenity": "pharmacy",
        "healthcare": "pharmacy",
        "name": "Leela medicals"
      }
    },
    {
      "type": "node",
      "id": 3400223637,
      "lat": 12.999115,
      "lon": 77.5695329,
      "tags": {
        "check_date": "2023-07-01",
        "mapillary": "951984709466352",
        "name": "Kanchipuram Varamahalakshmi silks",
        "shop": "clothes"
      }
    },
    {
      "type": "node",
      "id": 3401990804,
      "lat": 13.0018587,
      "lon": 77.5711353,
      "tags": {
        "name": "Mohan Bhandar",
        "shop": "convenience"
      }
    },
    {
      "type": "node",
      "id": 3469264393,
      "lat": 13.0085167,
      "lon": 77.5686473,
      "tags": {
        "name": "Printo",
        "service:copy": "yes",
        "service:press": "yes",
        "service:print": "yes",
        "service:scan": "yes",
        "shop": "copyshop"
      }
    },
    {
      "type": "node",
      "id": 3646944064,
      "lat": 13.000058,
      "lon": 77.5696143,
      "tags": {
        "addr:district": "Bengaluru Urban",
        "addr:full": "Super Speciality Otology Centre, No.1, 9th Cross Malleshwaram",
        "addr:postcode": "560003",
        "addr:state": "Karnataka",
        "amenity": "clinic",
        "email": "vijayentblr@vsnl.net.in",
        "healthcare": "clinic",
        "name": "Vijaya Ent Care Centre",
        "operator:type": "private",
        "source": "OpenGovernmentData",
        "website": "http://www.drhvijayendra.com/"
      }
    },
    {
      "type": "node",
      "id": 3781792270,
      "lat": 12.997771,
      "lon": 77.571072,
      "tags": {
        "addr:city": "Bengaluru",
        "addr:postcode": "560003",
        "addr:street": "6th Cross Road",
        "amenity": "restaurant",
        "brand": "Adyar Ananda Bhavan",
        "brand:wikidata": "Q15178238",
        "cuisine": "regional",
        "name": "Adyar Ananda Bhavan",
        "name:kn": "ಆದ್ಯಾರ್ ಆನಂದ ಭವನ",
        "phone": "918041280909",
        "shop": "confectionery",
        "website": "https://aabsweets.com"
      }
    },
    {
      "type": "node",
      "id": 3781792271,
      "lat": 13.001457,
      "lon": 77.5692378,
      "tags": {
        "amenity": "clinic",
        "healthcare": "hospital;clinic",
        "mapillary": "597400932462180",
        "name": "Neuro Centre"
      }
    },
    {
      "type": "node",
      "id": 3781794357,
      "lat": 12.99825,
      "lon": 77.56978,
      "tags": {
        "access": "yes",
        "amenity": "toilets",
        "drinking_water": "no",
        "fee": "yes",
        "wheelchair": "no"
      }
    },
    {
      "type": "node",
      "id": 3933474857,
      "lat": 13.0055578,
      "lon": 77.5711662,
      "tags": {
        "amenity": "bank",
        "atm": "yes",
        "brand": "Karur Vysya Bank",
        "brand:wikidata": "Q6373724",
        "brand:wikipedia": "en:Karur Vysya Bank",
        "name": "Karur Vysya Bank",
        "name:en": "Karur Vysya Bank",
        "name:kn": "ಕರೂರ್ ವೈಶ್ಯ ಬ್ಯಾಂಕ್",
        "short_name": "KVB",
        "source:amenity": "survey",
        "toilets:wheelchair": "no",
        "website": "https://www.kvb.co.in",
        "wheelchair": "no"
      }
    },
    {
      "type": "node",
      "id": 3933475757,
      "lat": 13.0055552,
      "lon": 77.5708738,
      "tags": {
        "amenity": "bank",
        "atm": "yes",
        "brand": "South Indian Bank",
        "brand:wikidata": "Q2044973",
        "brand:wikipedia": "en:South Indian Bank",
        "name": "South Indian Bank",
        "name:kn": "ಸೌತ್ ಇಂಡಿಯನ್ ಬ್ಯಾಂಕ್",
        "wheelchair": "no"
      }
    },
    {
      "type": "node",
      "id": 3968174911,
      "lat": 13.0083625,
      "lon": 77.5604012,
      "tags": {
        "amenity": "car_rental",
        "name": "Bhakta Cabs"
      }
    },
    {
      "type": "node",
      "id": 4007518147,
      "lat": 12.9995198,
      "lon": 77.5711521,
      "tags": {
        "name": "Asha Sweets",
        "shop": "bakery"
      }
    },
    {
      "type": "node",
      "id": 4008848437,
      "lat": 13.0078224,
      "lon": 77.5645354,
      "tags": {
        "addr:city": "Bangalore",
        "addr:postcode": "560055",
        "addr:street": "17th cross",
        "name": "EarthWalk Pvt Ltd",
        "opening_hours": "09:00-19:00",
        "shop": "travel_agency",
        "website": "http://www.earthwalk.in/"
      }
    },
    {
      "type": "node",
      "id": 4008859835,
      "lat": 13.0076756,
      "lon": 77.5640516,
      "tags": {
        "addr:city": "Bangalore",
        "addr:postcode": "560055",
        "addr:street": "8th Main Road",
        "amenity": "restaurant",
        "capacity": "20",
        "cuisine": "indian",
        "delivery": "no",
        "name": "Shristi Sagar",
        "opening_hours": "06:00-10:00",
        "smoking": "no",
        "takeaway": "yes"
      }
    },
    {
      "type": "node",
      "id": 4008910182,
      "lat": 13.0077615,
      "lon": 77.5640174,
      "tags": {
        "shop": "radiotechnics"
      }
    },
    {
      "type": "node",
      "id": 4008910183,
      "lat": 13.007887,
      "lon": 77.5639611,
      "tags": {
        "addr:city": "Bangalore",
        "addr:street": "8th Main Road",
        "name": "Recharge Only",
        "shop": "mobile_phone"
      }
    },
    {
      "type": "node",
      "id": 4008910184,
      "lat": 13.0079066,
      "lon": 77.5639571,
      "tags": {
        "amenity": "atm",
        "brand": "Corporation Bank",
        "brand:wikidata": "Q2003387",
        "name": "Corporation Bank",
        "name:kn": "ಕಾರ್ಪರೇಷನ್ ಬ್ಯಾಂಕ್ ಎಟಿಎಂ",
        "operator": "Corporation Bank",
        "operator:wikidata": "Q2003387"
      }
    },
    {
      "type": "node",
      "id": 4008910194,
      "lat": 13.0083852,
      "lon": 77.5631417,
      "tags": {
        "shop": "medical_supply"
      }
    },
    {
      "type": "node",
      "id": 4008910195,
      "lat": 13.0084004,
      "lon": 77.5631918,
      "tags": {
        "amenity": "doctors"
      }
    },
    {
      "type": "node",
      "id": 4087938731,
      "lat": 12.9985096,
      "lon": 77.5700901,
      "tags": {
        "amenity": "bank",
        "brand": "State Bank of India",
        "brand:wikidata": "Q1340361",
        "brand:wikipedia": "en:State Bank of India",
        "name": "State Bank of India",
        "name:kn": "ಭಾರತೀಯ ಸ್ಟೇಟ್ ಬ್ಯಾಂಕ್",
        "short_name": "SBI",
        "website": "https://www.sbi.co.in"
      }
    },
    {
      "type": "node",
      "id": 4264037789,
      "lat": 13.0054082,
      "lon": 77.5691051,
      "tags": {
        "addr:housenumber": "33",
        "addr:postcode": "560003",
        "addr:street": "15th Cross Road",
        "amenity": "restaurant",
        "name": "Udupi Upachaar Veg",
        "name:kn": "ಉಡುಪಿ ಉಪಚಾರ ಭವನ"
      }
    },
    {
      "type": "node",
      "id": 4286285293,
      "lat": 13.0084103,
      "lon": 77.5636893,
      "tags": {
        "name": "Groceries",
        "shop": "department_store"
      }
    },
    {
      "type": "node",
      "id": 4286285432,
      "lat": 13.0084784,
      "lon": 77.5636911,
      "tags": {
        "name": "Cut 'N' style",
        "shop": "hairdresser"
      }
    },
    {
      "type": "node",
      "id": 4444142525,
      "lat": 13.00764,
      "lon": 77.5640167,
      "tags": {
        "addr:city": "Bangalore",
        "addr:housenumber": "food court,3rd floor,mantri square mall",
        "addr:postcode": "560055",
        "addr:street": "8th Main Road",
        "amenity": "restaurant",
        "cuisine": "indian",
        "name": "Srushti Coffee",
        "opening_hours": "11:00-23:00",
        "phone": "+91 98456 87778",
        "takeaway": "yes"
      }
    },
    {
      "type": "node",
      "id": 4444149087,
      "lat": 13.0067326,
      "lon": 77.5642658,
      "tags": {
        "addr:city": "Bangalore",
        "addr:housenumber": "35/2",
        "addr:postcode": "560003",
        "addr:street": "16th Cross Road",
        "amenity": "restaurant",
        "cuisine": "fast_food",
        "name": "Chetty's Corner",
        "opening_hours": "10:00-23:00",
        "phone": "098440 95576",
        "takeaway": "yes",
        "website": "https://www.chettyscorner.com/"
      }
    },
    {
      "type": "node",
      "id": 4444173276,
      "lat": 13.008246,
      "lon": 77.563189,
      "tags": {
        "addr:city": "Bangalore",
        "addr:housenumber": "133",
        "addr:street": "8th Main Road,Malleshwaram",
        "amenity": "restaurant",
        "cuisine": "regional",
        "name": "Brahmins Thatte Idli",
        "opening_hours": "07:00-22:30",
        "phone": "099006 44777",
        "takeaway": "yes",
        "website": "https://www.facebook.com/brahminsthatteidli"
      }
    },
    {
      "type": "node",
      "id": 4444989839,
      "lat": 13.0056571,
      "lon": 77.5690976,
      "tags": {
        "addr:city": "Malleshwaram,Bangalore",
        "addr:housenumber": "5, 4th Floor, Above GIRIAS",
        "addr:postcode": "560003",
        "addr:street": "15th Cross Road",
        "amenity": "restaurant",
        "cuisine": "indian",
        "name": "1947 Restaurant",
        "opening_hours": "12:30-22:30",
        "phone": "080 2679 1213",
        "takeaway": "yes"
      }
    },
    {
      "type": "node",
      "id": 4445451366,
      "lat": 13.0081894,
      "lon": 77.5638484,
      "tags": {
        "addr:city": "Bangalore",
        "addr:housenumber": "112",
        "addr:postcode": "560055",
        "addr:street": "8th Main, 18th Cross, H V Nanjundaiah Rd, Malleshwaram",
        "amenity": "pharmacy",
        "healthcare": "pharmacy",
        "name": "Sri Ganesh Medicals And Surgicals",
        "phone": "080 2331 2346"
      }
    },
    {
      "type": "node",
      "id": 4446632053,
      "lat": 12.9987069,
      "lon": 77.5699054,
      "tags": {
        "addr:city": "bangalore",
        "addr:housenumber": "4",
        "addr:postcode": "560003",
        "addr:street": "Near Devi Prasad Home Appliances, 7th & 8th Cross, West Park RD, Malleshwaram",
        "amenity": "restaurant",
        "cuisine": "regional",
        "name": "Iyer Mess",
        "opening_hours": "11:30-15:15,19:15-21:15",
        "phone": "080 23343418"
      }
    },
    {
      "type": "node",
      "id": 4446656257,
      "lat": 13.0078415,
      "lon": 77.5617719,
      "tags": {
        "addr:city": "Bangalore",
        "addr:housenumber": "112",
        "addr:postcode": "560055",
        "addr:street": "8th Main, 18th Cross, H V Nanjundaiah Rd",
        "amenity": "pharmacy",
        "name": "Sri Ganesh Medicals",
        "phone": "+91 80 2331 2346"
      }
    },
    {
      "type": "node",
      "id": 4446978239,
      "lat": 12.9982337,
      "lon": 77.570518,
      "tags": {
        "addr:city": "bangalore",
        "addr:postcode": "560003",
        "addr:street": "7th Cross, Sampige Road, Malleshwaram",
        "amenity": "restaurant",
        "cuisine": "regional",
        "name": "Antarastriya",
        "name:kn": "ಅಂತರಾಷ್ಟಿಯ",
        "opening_hours": "12:00-22:00",
        "phone": "+91 9741412613"
      }
    },
    {
      "type": "node",
      "id": 4446989687,
      "lat": 13.0071899,
      "lon": 77.5682268,
      "tags": {
        "addr:city": "Bangalore",
        "addr:postcode": "560003",
        "addr:street": "4th Main, 16th Cross, Malleshwaram",
        "amenity": "restaurant",
        "cuisine": "regional",
        "diet:vegetarian": "yes",
        "name": "Paakashala",
        "opening_hours": "07:30-22:00",
        "website": "https://paakashala.com/"
      }
    },
    {
      "type": "node",
      "id": 4446992387,
      "lat": 13.0050001,
      "lon": 77.5654236,
      "tags": {
        "addr:city": "Bangalore",
        "addr:housenumber": "139",
        "addr:postcode": "560003",
        "addr:street": "4th Floor, 8th Main, Above Nilgiris, Near Bumble Bee Studio, Malleshwaram",
        "amenity": "restaurant",
        "cuisine": "regional",
        "name": "Big Straw Boba Bistro",
        "opening_hours": "11:00-21:00",
        "phone": "+91 9945164425",
        "website": "bigstraw.in"
      }
    },
    {
      "type": "node",
      "id": 4446993180,
      "lat": 13.0007571,
      "lon": 77.563817,
      "tags": {
        "addr:city": "bangalore",
        "addr:postcode": "560003",
        "addr:street": "Opposite Manipal North Side Hospital, Near Malleshwaram Railway Station, Malleshwaram",
        "amenity": "restaurant",
        "cuisine": "regional",
        "delivery": "no",
        "name": "Sri Raghavendra Store",
        "opening_hours": "06:00-13:00,16:00-21:00",
        "outdoor_seating": "no",
        "phone": "080 23348477",
        "takeaway": "yes"
      }
    },
    {
      "type": "node",
      "id": 4447001196,
      "lat": 12.9985408,
      "lon": 77.5695317,
      "tags": {
        "addr:city": "bangalore",
        "addr:housenumber": "147",
        "addr:postcode": "560003",
        "addr:street": "7th Cross, Near Malleswaram Association, Below Axis Bank, Malleshwaram",
        "amenity": "restaurant",
        "check_date": "2023-07-01",
        "cuisine": "regional",
        "mapillary": "974297190378633",
        "name": "Satvik Grand"
      }
    },
    {
      "type": "node",
      "id": 4447006769,
      "lat": 13.0082375,
      "lon": 77.566471,
      "tags": {
        "addr:city": "Bangalore",
        "addr:housenumber": "5/3",
        "addr:postcode": "560003",
        "addr:street": "margosa 18th Cross, Malleswaram",
        "amenity": "clinic",
        "name": "Kottakkal Arya Vaidya Shala",
        "name:kn": "ಕೊಟ್ಟಕಲ್ ಆರ್ಯ ವೈದ್ಯಶಾಲ",
        "phone": "+91 80 2346 2358",
        "source": "www.justdial.com",
        "website": "https://www.aryavaidyasala.com/"
      }
    },
    {
      "type": "node",
      "id": 4447010696,
      "lat": 13.0081626,
      "lon": 77.5645162,
      "tags": {
        "addr:city": "Bangalore",
        "addr:housenumber": "83/87",
        "addr:postcode": "560003",
        "addr:street": ", Soundarya Apartment, 5, Malleshwaram",
        "amenity": "clinic",
        "name": "Mera Health Care Private Limited",
        "phone": "080 2331 7521"
      }
    },
    {
      "type": "node",
      "id": 4447193074,
      "lat": 13.006544,
      "lon": 77.5647739,
      "tags": {
        "addr:city": "Bangalore",
        "addr:housenumber": "136",
        "addr:postcode": "560003",
        "addr:street": "Near MES College, 8th Main, 15th Cross, Malleshwaram",
        "amenity": "restaurant",
        "cuisine": "regional",
        "name": "viking",
        "opening_hours": "Mo-Su 11:30-15:30,18:30-23:30",
        "phone": "080 23444411"
      }
    },
    {
      "type": "node",
      "id": 4448630864,
      "lat": 12.9977152,
      "lon": 77.5695405,
      "tags": {
        "addr:city": "bangalore",
        "addr:housenumber": "40",
        "addr:postcode": "560003",
        "addr:street": "Margosa Road",
        "check_date": "2023-07-01",
        "mapillary": "970079694184738",
        "name": "Lawrence and Mayo",
        "opening_hours": "week 9:30-18:30",
        "phone": "+(91)-80-23311392",
        "phone_1": "23310539",
        "shop": "optician",
        "website": "https://stores.lawrenceandmayo.co.in/"
      }
    },
    {
      "type": "node",
      "id": 4489727947,
      "lat": 13.0090075,
      "lon": 77.5633636,
      "tags": {
        "addr:city": "Bengaluru",
        "addr:postcode": "560055",
        "addr:street": "\" No 109, Rathna Complex, 18th Cross, 8th Main, Malleshwaram West, Bhadrappa Layout, Malleshwaram, , Karnataka",
        "leisure": "sports_centre",
        "name": "Cyber Gym & Health Club",
        "opening_hours": "5:00-22:00",
        "phone": "098805 03967"
      }
    },
    {
      "type": "node",
      "id": 4530000597,
      "lat": 13.0056414,
      "lon": 77.5689362,
      "tags": {
        "addr:street": "15th Cross Road",
        "amenity": "bank",
        "brand": "ICICI Bank",
        "brand:wikidata": "Q1653258",
        "check_date": "2025-10-27",
        "name": "ICICI Bank",
        "name:en": "ICICI Bank",
        "name:kn": "ಐಸಿಐಸಿಐ ಬ್ಯಾಂಕು",
        "short_name": "ICICI",
        "website": "https://www.icicibank.com"
      }
    },
    {
      "type": "node",
      "id": 4530031501,
      "lat": 13.0056405,
      "lon": 77.5691365,
      "tags": {
        "check_date": "2025-10-27",
        "name": "Girias",
        "name:en": "Girias",
        "name:kn": "ಗಿರಿಯಾಸ್",
        "shop": "electronics"
      }
    },
    {
      "type": "node",
      "id": 4530031502,
      "lat": 13.0056769,
      "lon": 77.5691145,
      "tags": {
        "addr:street": "Margosa Road",
        "amenity": "bank",
        "brand": "HDFC Bank",
        "brand:wikidata": "Q631047",
        "check_date": "2025-10-27",
        "name": "HDFC Bank",
        "name:en": "HDFC Bank",
        "name:kn": "ಎಚ್ ಡಿ ಎಫ್ ಸಿ ಬ್ಯಾಂಕ್",
        "short_name": "HDFC"
      }
    },
    {
      "type": "node",
      "id": 4530032204,
      "lat": 13.0056199,
      "lon": 77.568864,
      "tags": {
        "leisure": "fitness_centre",
        "name": "Gold Gym",
        "name:en": "Gold Gym"
      }
    },
    {
      "type": "node",
      "id": 4928125521,
      "lat": 13.0055374,
      "lon": 77.5711178,
      "tags": {
        "addr:street": "15th Cross Road",
        "amenity": "cafe",
        "name": "ಬಿಸ್ಕ",
        "name:en": "Biska",
        "name:kn": "ಬಿಸ್ಕ"
      }
    },
    {
      "type": "node",
      "id": 5002993742,
      "lat": 13.0053606,
      "lon": 77.568853,
      "tags": {
        "amenity": "theatre",
        "check_date": "2025-10-27",
        "name": "Shukra Auditorium",
        "name:en": "Shukra Auditorium",
        "name:kn": "ಶುಕ್ರ ಆಡಿಟೋರಿಯಂ"
      }
    },
    {
      "type": "node",
      "id": 5008973980,
      "lat": 13.0056696,
      "lon": 77.5692888,
      "tags": {
        "addr:street": "183, 15th Cross, Malleshwaram, Margosa Road, Malleshwaram West, Bengaluru, Karnataka 560003",
        "amenity": "fast_food",
        "check_date": "2025-10-27",
        "cuisine": "regional",
        "name": "Veena Stores",
        "opening_hours": "Mo-Sa 06:30-12:00, 15:30-21:00; Su 06:30-12:00",
        "phone": "080 2334 4838",
        "takeaway": "yes"
      }
    },
    {
      "type": "node",
      "id": 5109182061,
      "lat": 12.9982553,
      "lon": 77.5692914,
      "tags": {
        "check_date": "2024-05-12",
        "name": "Nandini Milk Parlour",
        "name:kn": "ನಂದಿನಿ ಹಾಲಿನ ಅಂಗಡಿ",
        "shop": "dairy"
      }
    },
    {
      "type": "node",
      "id": 5109182072,
      "lat": 13.0087266,
      "lon": 77.5640845,
      "tags": {
        "name": "Boston Cotton",
        "shop": "clothes"
      }
    },
    {
      "type": "node",
      "id": 5109214489,
      "lat": 13.0085363,
      "lon": 77.5690421,
      "tags": {
        "amenity": "bank",
        "atm": "yes",
        "brand": "Kotak Mahindra Bank",
        "brand:wikidata": "Q2040404",
        "name": "Kotak Mahindra Bank",
        "name:kn": "ಕೋಟಕ್ ಮಹಿಂದ್ರ ಬ್ಯಾಂಕ್"
      }
    },
    {
      "type": "node",
      "id": 5175027887,
      "lat": 12.9969169,
      "lon": 77.5685986,
      "tags": {
        "amenity": "toilets"
      }
    },
    {
      "type": "node",
      "id": 5402307931,
      "lat": 13.0053962,
      "lon": 77.5671027,
      "tags": {
        "brand": "Maruti Suzuki",
        "brand:wikidata": "Q963718",
        "name": "Maruti Suzuki Arena",
        "name:kn": "ಮಾರುತಿ ಸುಜುಕಿ",
        "shop": "car"
      }
    },
    {
      "type": "node",
      "id": 5611358758,
      "lat": 12.9979072,
      "lon": 77.5695359,
      "tags": {
        "amenity": "restaurant",
        "check_date": "2023-07-01",
        "cuisine": "regional",
        "mapillary": "1368363073742740",
        "name": "Aramane Donne Biriyani"
      }
    },
    {
      "type": "node",
      "id": 5685647407,
      "lat": 12.9999132,
      "lon": 77.571399,
      "tags": {
        "email": "rachoteshwarcommunication@gmail.com",
        "name": "Rachoteshwar Communication",
        "phone": "08041626111",
        "shop": "computer"
      }
    },
    {
      "type": "node",
      "id": 6108140990,
      "lat": 12.9975806,
      "lon": 77.5696166,
      "tags": {
        "access": "yes",
        "amenity": "toilets",
        "fee": "yes"
      }
    },
    {
      "type": "node",
      "id": 6419042636,
      "lat": 12.9988158,
      "lon": 77.5705059,
      "tags": {
        "addr:street": "8th cross, Malleshwaram",
        "amenity": "community_centre",
        "name": "Vasavi Mahal"
      }
    },
    {
      "type": "node",
      "id": 6578360278,
      "lat": 13.0175291,
      "lon": 77.5589477,
      "tags": {
        "amenity": "school",
        "name": "Government High School",
        "name:kn": "ಸರ್ಕಾರಿ ಪ್ರೌಢ ಶಾಲೆ"
      }
    },
    {
      "type": "node",
      "id": 6699734792,
      "lat": 13.0073672,
      "lon": 77.5659241,
      "tags": {
        "addr:city": "Bengaluru",
        "addr:country": "IN",
        "addr:housenumber": "37",
        "addr:postcode": "560003",
        "addr:street": "17th Cross Road",
        "amenity": "coworking_space",
        "email": "hello@jaaga.in",
        "name": "Jaaga DNA",
        "office": "coworking",
        "opening_hours": "9:00-18:30",
        "operator": "Jaaga",
        "website": "https://www.jaaga.in/"
      }
    },
    {
      "type": "node",
      "id": 6860307802,
      "lat": 12.9987692,
      "lon": 77.5695013,
      "tags": {
        "name": "Boots",
        "shop": "bag"
      }
    },
    {
      "type": "node",
      "id": 6937892396,
      "lat": 12.9981979,
      "lon": 77.568151,
      "tags": {
        "addr:district": "Bengaluru Urban",
        "addr:full": "53, 7Th Cross , 4Th Main Road, Malleswaram",
        "addr:postcode": "560003",
        "addr:state": "Karnataka",
        "amenity": "hospital",
        "name": "Dr. B. Venkatasubbarao Memorial Hospital",
        "source": "OpenGovernmentData"
      }
    },
    {
      "type": "node",
      "id": 6938414183,
      "lat": 12.9998457,
      "lon": 77.5663653,
      "tags": {
        "addr:district": "Bengaluru Urban",
        "addr:full": "28, 7Th Main 9Th Cross, Malleshwaram",
        "addr:postcode": "560003",
        "addr:state": "Karnataka",
        "amenity": "hospital",
        "name": "Jupiter Hospital And Institute Of Vascular Surgery",
        "source": "OpenGovernmentData"
      }
    },
    {
      "type": "node",
      "id": 6938690612,
      "lat": 13.0004311,
      "lon": 77.5663774,
      "tags": {
        "addr:district": "Bengaluru Urban",
        "addr:full": "25/1 Prajna 7Nth Main 9Th Cross Malleswaram",
        "addr:postcode": "560003",
        "addr:state": "Karnataka",
        "amenity": "clinic",
        "name": "Indira Eye Clinic",
        "source": "OpenGovernmentData"
      }
    },
    {
      "type": "node",
      "id": 6938690614,
      "lat": 13.0058226,
      "lon": 77.5694512,
      "tags": {
        "addr:district": "Bengaluru Urban",
        "addr:full": "No. 95 and 96, Margosa Road, 15Th Cross, Malleswaram",
        "addr:postcode": "560055",
        "addr:state": "Karnataka",
        "amenity": "hospital",
        "check_date": "2024-05-12",
        "name": "Lakshmi Maternity Home",
        "source": "OpenGovernmentData"
      }
    },
    {
      "type": "node",
      "id": 6938690620,
      "lat": 13.0079604,
      "lon": 77.5624908,
      "tags": {
        "addr:district": "Bengaluru Urban",
        "addr:full": "No 47, 17Th Cross Malleswaram",
        "addr:postcode": "560055",
        "addr:state": "Karnataka",
        "amenity": "clinic",
        "name": "Chhaya Nursing Home",
        "source": "OpenGovernmentData"
      }
    },
    {
      "type": "node",
      "id": 7698870387,
      "lat": 13.0033891,
      "lon": 77.5712054,
      "tags": {
        "name:ru": "фруктовый рынок",
        "shop": "greengrocer"
      }
    },
    {
      "type": "node",
      "id": 8187962405,
      "lat": 13.0001224,
      "lon": 77.5712818,
      "tags": {
        "addr:full": "No 24, Lalitha 2nd Cross, Sampige Rd, Yalappa Garden, Malleshwaram, Bengaluru, Karnataka",
        "addr:state": "Karnataka",
        "amenity": "bank",
        "brand": "State Bank of India",
        "brand:wikidata": "Q1340361",
        "brand:wikipedia": "en:State Bank of India",
        "name": "State Bank of India",
        "short_name": "SBI"
      }
    },
    {
      "type": "node",
      "id": 8187986357,
      "lat": 12.9982397,
      "lon": 77.5710706,
      "tags": {
        "addr:full": "7th Cross Road, Sampige Rd, Sangeetha Apts, Malleshwaram, Bengaluru, Karnataka",
        "addr:state": "Karnataka",
        "amenity": "clinic",
        "healthcare": "clinic",
        "name": "Namma Vaidyashaala Clinic"
      }
    },
    {
      "type": "node",
      "id": 8255020171,
      "lat": 13.0088221,
      "lon": 77.5684154,
      "tags": {
        "amenity": "toilets"
      }
    },
    {
      "type": "node",
      "id": 8255020378,
      "lat": 13.007644,
      "lon": 77.565718,
      "tags": {
        "addr:floor": "G",
        "addr:postcode": "560055",
        "amenity": "post_office",
        "brand": "India Post",
        "check_date": "2025-06-30",
        "level": "0",
        "name": "Malleswaram West",
        "opening_hours": "Mo-Sa 09:00-17:00",
        "wheelchair": "limited"
      }
    },
    {
      "type": "node",
      "id": 8899922692,
      "lat": 13.0035753,
      "lon": 77.5691035,
      "tags": {
        "check_date": "2025-08-09",
        "name": "Green Trends",
        "shop": "hairdresser"
      }
    },
    {
      "type": "node",
      "id": 9759859800,
      "lat": 12.997278,
      "lon": 77.5676474,
      "tags": {
        "amenity": "place_of_worship",
        "religion": "hindu"
      }
    },
    {
      "type": "node",
      "id": 9759859811,
      "lat": 13.0004128,
      "lon": 77.5692567,
      "tags": {
        "addr:city": "Bangalore",
        "addr:country": "IN",
        "addr:postcode": "560003",
        "addr:street": "Margosa Road",
        "addr:suburb": "Malleshwaram",
        "name": "C. Krishnaiah Chetty Jewellers",
        "shop": "jewelry",
        "website": "https://www.ckcjewellers.com/"
      }
    },
    {
      "type": "node",
      "id": 9759859812,
      "lat": 13.0020334,
      "lon": 77.5690756,
      "tags": {
        "amenity": "bank",
        "atm": "yes",
        "brand": "CSB Bank",
        "brand:wikidata": "Q5053244",
        "name": "CSB Bank",
        "official_name": "Catholic Syrian Bank",
        "operator": "Catholic Syrian Bank"
      }
    },
    {
      "type": "node",
      "id": 9759859813,
      "lat": 13.0029063,
      "lon": 77.5692096,
      "tags": {
        "brand": "Naturals",
        "brand:wikidata": "Q125728261",
        "check_date": "2024-05-12",
        "name": "Naturals",
        "shop": "beauty"
      }
    },
    {
      "type": "node",
      "id": 9759859814,
      "lat": 13.0028863,
      "lon": 77.5692106,
      "tags": {
        "amenity": "fast_food",
        "brand": "Domino's",
        "brand:wikidata": "Q839466",
        "check_date": "2024-05-12",
        "cuisine": "pizza",
        "delivery": "yes",
        "name": "Domino's",
        "name:kn": "ಡಾಮಿನೋಸ್",
        "operator": "Domino's",
        "takeaway": "yes"
      }
    },
    {
      "type": "node",
      "id": 9759859815,
      "lat": 13.0043983,
      "lon": 77.5706863,
      "tags": {
        "amenity": "ice_cream",
        "name": "Polar Bear"
      }
    },
    {
      "type": "node",
      "id": 9814346312,
      "lat": 13.0001946,
      "lon": 77.5679116,
      "tags": {
        "name": "Cut N Style",
        "shop": "hairdresser"
      }
    },
    {
      "type": "node",
      "id": 9881508838,
      "lat": 13.0008297,
      "lon": 77.5637937,
      "tags": {
        "amenity": "restaurant",
        "cuisine": "regional",
        "delivery": "no",
        "name": "Bhairaeshwara Idli Center",
        "takeaway": "yes"
      }
    },
    {
      "type": "node",
      "id": 9881508857,
      "lat": 13.0008532,
      "lon": 77.5639104,
      "tags": {
        "amenity": "restaurant",
        "cuisine": "regional",
        "delivery": "no",
        "name": "Sri Raghavendra Dosa Camp",
        "takeaway": "yes"
      }
    },
    {
      "type": "node",
      "id": 9935424298,
      "lat": 13.0061219,
      "lon": 77.5650872,
      "tags": {
        "amenity": "bank",
        "atm": "yes",
        "branch": "Malleshwaram 15th Cross",
        "brand": "Canara Bank",
        "brand:en": "Canara Bank",
        "brand:hi": "केनरा बैंक",
        "brand:kn": "ಕೆನರಾ ಬ್ಯಾಂಕ್",
        "brand:pa": "ਕੇਨਰਾ ਬੈਂਕ",
        "brand:pnb": "کینرا بینک",
        "brand:ur": "کینرا بینک",
        "brand:wikidata": "Q2003777",
        "check_date": "2025-08-21",
        "name": "Canara Bank",
        "name:en": "Canara Bank",
        "name:hi": "केनरा बैंक",
        "name:kn": "ಕೆನರಾ ಬ್ಯಾಂಕ್",
        "name:pa": "ਕੇਨਰਾ ਬੈਂਕ",
        "name:pnb": "کینرا بینک",
        "name:ur": "کینرا بینک",
        "operator": "Canara Bank"
      }
    },
    {
      "type": "node",
      "id": 9935424315,
      "lat": 13.0037803,
      "lon": 77.5686747,
      "tags": {
        "amenity": "place_of_worship",
        "religion": "hindu"
      }
    },
    {
      "type": "node",
      "id": 9935476924,
      "lat": 13.004069,
      "lon": 77.5690998,
      "tags": {
        "amenity": "bank",
        "atm": "yes",
        "brand": "City Union Bank",
        "brand:en": "City Union Bank",
        "brand:fa": "سیتی یونیون بنک",
        "brand:hi": "सिटी यूनियन बैंक",
        "brand:mr": "सिटी युनियन बँक",
        "brand:ta": "சிட்டி யூனியன் வங்கி",
        "brand:ur": "سٹی یونین بینک",
        "brand:website": "https://www.cityunionbank.com",
        "brand:wikidata": "Q2040264",
        "name": "City Union Bank",
        "name:en": "City Union Bank",
        "name:fa": "سیتی یونیون بنک",
        "name:hi": "सिटी यूनियन बैंक",
        "name:mr": "सिटी युनियन बँक",
        "name:ta": "சிட்டி யூனியன் வங்கி",
        "name:ur": "سٹی یونین بینک",
        "short_name": "CUB",
        "short_name:pa": "ਸੀ ਯੂ ਬੀ",
        "short_name:ur": "سی یو بی"
      }
    },
    {
      "type": "node",
      "id": 9935476931,
      "lat": 13.0070091,
      "lon": 77.5690261,
      "tags": {
        "amenity": "cafe",
        "name": "Third Wave Coffee",
        "operator": "Third Wave Coffee",
        "takeaway": "yes"
      }
    },
    {
      "type": "node",
      "id": 9935476939,
      "lat": 13.0058605,
      "lon": 77.5691193,
      "tags": {
        "brand": "cult.fit",
        "brand:wikidata": "Q121289250",
        "leisure": "fitness_centre",
        "name": "cult.fit"
      }
    },
    {
      "type": "node",
      "id": 10032974911,
      "lat": 13.0125109,
      "lon": 77.5583925,
      "tags": {
        "access": "yes",
        "amenity": "toilets",
        "fee": "yes",
        "operator": "BBMP"
      }
    },
    {
      "type": "node",
      "id": 10183518531,
      "lat": 12.9969382,
      "lon": 77.5682496,
      "tags": {
        "addr:housenumber": "76/6",
        "addr:street": "5th Cross, 4th Main,Malleshwaram",
        "check_date": "2024-05-12",
        "name": "Metro Cane Arts",
        "shop": "furniture"
      }
    },
    {
      "type": "node",
      "id": 10297733467,
      "lat": 13.00956,
      "lon": 77.5629873,
      "tags": {
        "amenity": "bar",
        "name": "Picnic Bar & Restaurant"
      }
    },
    {
      "type": "node",
      "id": 10680782993,
      "lat": 13.0085545,
      "lon": 77.5635455,
      "tags": {
        "addr:housenumber": "111",
        "addr:postcode": "560055",
        "addr:street": "8th Main Road",
        "amenity": "cafe",
        "bar": "no",
        "check_date": "2024-10-29",
        "contact:instagram": "https://www.instagram.com/harmakkicoffee",
        "cuisine": "coffee_shop",
        "delivery": "yes",
        "diet:vegan": "yes",
        "diet:vegetarian": "yes",
        "drive_through": "no",
        "internet_access": "wlan",
        "internet_access:fee": "customers",
        "name": "Harmakki Coffee Company",
        "opening_hours": "10:00-21:00",
        "outdoor_seating": "no",
        "payment:cash": "yes",
        "payment:mastercard": "yes",
        "payment:visa": "yes",
        "takeaway": "yes",
        "toilets": "yes"
      }
    },
    {
      "type": "node",
      "id": 10831664293,
      "lat": 12.9993688,
      "lon": 77.5715661,
      "tags": {
        "name": "Goldwinn Textile",
        "shop": "clothes"
      }
    },
    {
      "type": "node",
      "id": 10904117084,
      "lat": 13.0054337,
      "lon": 77.5622174,
      "tags": {
        "addr:street": "C/O RxDx SAMANVAY, 11th Main Rd, near axis atm, near Cluny Convent, Malleshwaram, Bengaluru, Karnataka 560003",
        "name": "RXDX Malleswaram swimming pool",
        "phone": "074066 37003",
        "shop": "swimming_pool",
        "website": "https://rxdx.in/"
      }
    },
    {
      "type": "node",
      "id": 10934276544,
      "lat": 12.9988356,
      "lon": 77.5715473,
      "tags": {
        "name": "Ramraj",
        "shop": "clothes"
      }
    },
    {
      "type": "node",
      "id": 10934276546,
      "lat": 12.998015,
      "lon": 77.5712094,
      "tags": {
        "name": "RR Gold Palace",
        "shop": "jewelry"
      }
    },
    {
      "type": "node",
      "id": 10934276547,
      "lat": 12.9968944,
      "lon": 77.5683957,
      "tags": {
        "amenity": "post_box",
        "operator": "India Post",
        "operator:wikidata": "Q3519720"
      }
    },
    {
      "type": "node",
      "id": 11072723349,
      "lat": 13.0159517,
      "lon": 77.5622687,
      "tags": {
        "amenity": "cafe",
        "brand": "Cafe Coffee Day",
        "brand:wikidata": "Q5017235",
        "cuisine": "coffee_shop",
        "name": "Cafe Coffee Day",
        "name:kn": "ಕಫೆ ಕಾಫಿ ಡೇ",
        "takeaway": "yes"
      }
    },
    {
      "type": "node",
      "id": 11096802259,
      "lat": 13.0061245,
      "lon": 77.5647023,
      "tags": {
        "amenity": "fast_food",
        "check_date": "2025-08-21",
        "cuisine": "pizza",
        "name": "La Pino'z Pizza"
      }
    },
    {
      "type": "node",
      "id": 11195725434,
      "lat": 13.0010865,
      "lon": 77.5712416,
      "tags": {
        "name": "Surya Book Stall",
        "shop": "books"
      }
    },
    {
      "type": "node",
      "id": 11195725435,
      "lat": 13.0011374,
      "lon": 77.5712315,
      "tags": {
        "name": "Essentials",
        "shop": "coffee"
      }
    },
    {
      "type": "node",
      "id": 11195725554,
      "lat": 13.0040253,
      "lon": 77.5711108,
      "tags": {
        "name": "Health & Glow",
        "shop": "beauty"
      }
    },
    {
      "type": "node",
      "id": 11195725555,
      "lat": 13.0038874,
      "lon": 77.5711121,
      "tags": {
        "name": "Raymond",
        "shop": "clothes"
      }
    },
    {
      "type": "node",
      "id": 11195725571,
      "lat": 13.0041527,
      "lon": 77.5711188,
      "tags": {
        "name": "Show Off",
        "shop": "clothes"
      }
    },
    {
      "type": "node",
      "id": 11195725580,
      "lat": 13.004757,
      "lon": 77.571092,
      "tags": {
        "name": "Kanti Sweets",
        "shop": "confectionery"
      }
    },
    {
      "type": "node",
      "id": 11195846197,
      "lat": 13.0056874,
      "lon": 77.5682864,
      "tags": {
        "amenity": "bank",
        "atm": "yes",
        "brand": "Karnataka Bank",
        "brand:wikidata": "Q2042632",
        "name": "Karnataka Bank",
        "name:kn": "ಕರ್ನಾಟಕ ಬ್ಯಾಂಕ್"
      }
    },
    {
      "type": "node",
      "id": 11195846198,
      "lat": 13.0057011,
      "lon": 77.5688323,
      "tags": {
        "clothes": "men",
        "name": "P. N. Rao Suites",
        "shop": "clothes"
      }
    },
    {
      "type": "node",
      "id": 11195846199,
      "lat": 13.0053392,
      "lon": 77.5706501,
      "tags": {
        "name": "Laptop World",
        "shop": "electronics"
      }
    },
    {
      "type": "node",
      "id": 11195846200,
      "lat": 13.0053463,
      "lon": 77.5707366,
      "tags": {
        "name": "Ravi's Stationary",
        "shop": "stationery"
      }
    },
    {
      "type": "node",
      "id": 11195846218,
      "lat": 13.0053548,
      "lon": 77.5708593,
      "tags": {
        "amenity": "toilets",
        "female": "yes",
        "male": "yes",
        "operator": "BBMP"
      }
    },
    {
      "type": "node",
      "id": 11212197325,
      "lat": 12.9983957,
      "lon": 77.5695335,
      "tags": {
        "amenity": "fast_food",
        "check_date": "2023-09-23",
        "cuisine": "indian",
        "diet:vegetarian": "only",
        "name": "By2Coffee"
      }
    },
    {
      "type": "node",
      "id": 11214904147,
      "lat": 13.0059847,
      "lon": 77.5608104,
      "tags": {
        "amenity": "place_of_worship",
        "religion": "hindu"
      }
    },
    {
      "type": "node",
      "id": 11214904152,
      "lat": 13.0084151,
      "lon": 77.5599897,
      "tags": {
        "amenity": "place_of_worship",
        "religion": "hindu"
      }
    },
    {
      "type": "node",
      "id": 11232933045,
      "lat": 13.0018461,
      "lon": 77.5705583,
      "tags": {
        "amenity": "post_box",
        "operator": "India Post",
        "operator:wikidata": "Q3519720"
      }
    },
    {
      "type": "node",
      "id": 11255385153,
      "lat": 13.0015838,
      "lon": 77.5694962,
      "tags": {
        "amenity": "dentist",
        "check_date": "2024-05-12",
        "healthcare": "dentist",
        "mapillary": "1605478259938700",
        "name": "ChanRe Dental Care",
        "opening_hours": "Mo-Sa 10:00-14:00; 17:00-20:30",
        "operator": "Dr. Dilip Bharadwaj"
      }
    },
    {
      "type": "node",
      "id": 11255385154,
      "lat": 13.0015536,
      "lon": 77.5695007,
      "tags": {
        "amenity": "college",
        "check_date": "2024-05-12",
        "mapillary": "1605478259938700",
        "mobile": "+91-91000-28364",
        "name": "Nagarathna Srikantaiah Paramedical College",
        "phone": "+91-080-40810638"
      }
    },
    {
      "type": "node",
      "id": 11255385170,
      "lat": 13.0013051,
      "lon": 77.5694432,
      "tags": {
        "amenity": "atm",
        "brand": "IndusInd Bank",
        "brand:wikidata": "Q2040323",
        "check_date": "2024-05-12",
        "operator": "IndusInd Bank",
        "operator:wikidata": "Q2040323"
      }
    },
    {
      "type": "node",
      "id": 11255385171,
      "lat": 13.0012692,
      "lon": 77.5694455,
      "tags": {
        "amenity": "bank",
        "brand": "IndusInd Bank",
        "brand:wikidata": "Q2040323",
        "check_date": "2024-05-12",
        "name": "IndusInd Bank"
      }
    },
    {
      "type": "node",
      "id": 11255385172,
      "lat": 13.000978,
      "lon": 77.5692398,
      "tags": {
        "amenity": "restaurant",
        "diet:vegetarian": "yes",
        "name": "Vijaya Lakshmi"
      }
    },
    {
      "type": "node",
      "id": 11255385173,
      "lat": 13.0008212,
      "lon": 77.5692186,
      "tags": {
        "name": "Caratlane",
        "shop": "jewelry"
      }
    },
    {
      "type": "node",
      "id": 11255385174,
      "lat": 13.0007294,
      "lon": 77.5692184,
      "tags": {
        "name": "amani sarees",
        "shop": "clothes"
      }
    },
    {
      "type": "node",
      "id": 11261004451,
      "lat": 13.0018028,
      "lon": 77.5712157,
      "tags": {
        "addr:street": "Sampige Road",
        "name": "Cottonking",
        "shop": "clothes"
      }
    },
    {
      "type": "node",
      "id": 11261004452,
      "lat": 13.0017858,
      "lon": 77.571206,
      "tags": {
        "name": "Plants Garments",
        "shop": "clothes"
      }
    },
    {
      "type": "node",
      "id": 11261004453,
      "lat": 13.0020977,
      "lon": 77.5712002,
      "tags": {
        "addr:street": "Sampige Road",
        "name": "Nandini Stall",
        "operator": "Nandini",
        "shop": "dairy"
      }
    },
    {
      "type": "node",
      "id": 11261004454,
      "lat": 13.0035312,
      "lon": 77.5711849,
      "tags": {
        "name": "Nandini Stall",
        "operator": "Nandini",
        "shop": "dairy"
      }
    },
    {
      "type": "node",
      "id": 11261004455,
      "lat": 13.0039938,
      "lon": 77.5711211,
      "tags": {
        "amenity": "bank",
        "brand": "Bandhan Bank",
        "brand:wikidata": "Q19882235",
        "name": "Bandhan Bank"
      }
    },
    {
      "type": "node",
      "id": 11281288551,
      "lat": 13.0020724,
      "lon": 77.5666429,
      "tags": {
        "amenity": "school",
        "check_date": "2025-07-11",
        "name": "Sri Vidya Mandir Education Society"
      }
    },
    {
      "type": "node",
      "id": 11281288552,
      "lat": 13.002484,
      "lon": 77.5669138,
      "tags": {
        "amenity": "kindergarten",
        "check_date": "2025-07-11",
        "name": "Jackfruit House"
      }
    },
    {
      "type": "node",
      "id": 11281288558,
      "lat": 13.0024043,
      "lon": 77.5661266,
      "tags": {
        "amenity": "kindergarten",
        "name": "Kidzee Malleshwaram"
      }
    },
    {
      "type": "node",
      "id": 11295836833,
      "lat": 12.9978343,
      "lon": 77.5695449,
      "tags": {
        "amenity": "bank",
        "check_date": "2023-07-01",
        "mapillary": "815192133160945",
        "name": "Utkarsh Small Finance Bank"
      }
    },
    {
      "type": "node",
      "id": 11295836834,
      "lat": 12.9978083,
      "lon": 77.569546,
      "tags": {
        "amenity": "atm",
        "check_date": "2023-07-01",
        "mapillary": "815192133160945",
        "operator": "Utkarsh Small Finance Bank"
      }
    },
    {
      "type": "node",
      "id": 11295836835,
      "lat": 12.9979918,
      "lon": 77.569533,
      "tags": {
        "brand": "Fabindia",
        "brand:wikidata": "Q5427779",
        "name": "Fabindia",
        "shop": "clothes"
      }
    },
    {
      "type": "node",
      "id": 11295836841,
      "lat": 12.9984229,
      "lon": 77.5694949,
      "tags": {
        "check_date": "2023-07-01",
        "mapillary": "1241399573235855",
        "name": "Sri Lankappa Provision Store",
        "shop": "convenience"
      }
    },
    {
      "type": "node",
      "id": 11295836842,
      "lat": 12.9984291,
      "lon": 77.5695374,
      "tags": {
        "amenity": "restaurant",
        "check_date": "2023-07-01",
        "mapillary": "1241399573235855",
        "name": "Temple Meals"
      }
    },
    {
      "type": "node",
      "id": 11295836843,
      "lat": 12.9984962,
      "lon": 77.5695151,
      "tags": {
        "check_date": "2023-07-01",
        "mapillary": "277443798165636",
        "name": "A.K. Hardware, Paints & Sanitary",
        "shop": "hardware"
      }
    },
    {
      "type": "node",
      "id": 11295836844,
      "lat": 12.9985146,
      "lon": 77.5695306,
      "tags": {
        "check_date": "2023-07-01",
        "clothes": "underwear",
        "mapillary": "277443798165636",
        "name": "Purple Olive",
        "shop": "clothes"
      }
    },
    {
      "type": "node",
      "id": 11295836845,
      "lat": 12.9985422,
      "lon": 77.569579,
      "tags": {
        "amenity": "bank",
        "brand": "Axis Bank",
        "brand:wikidata": "Q2003549",
        "check_date": "2023-07-01",
        "mapillary": "657312499176133",
        "name": "Axis Bank"
      }
    },
    {
      "type": "node",
      "id": 11295836846,
      "lat": 12.9985875,
      "lon": 77.5695254,
      "tags": {
        "amenity": "atm",
        "brand": "Axis Bank",
        "brand:wikidata": "Q2003549",
        "check_date": "2023-07-01",
        "mapillary": "657312499176133",
        "operator": "Axis Bank",
        "operator:wikidata": "Q2003549"
      }
    },
    {
      "type": "node",
      "id": 11295836848,
      "lat": 12.9986614,
      "lon": 77.5695304,
      "tags": {
        "check_date": "2023-07-01",
        "mapillary": "657312499176133",
        "name": "Inspirations Furnishings & Furniture",
        "shop": "furniture"
      }
    },
    {
      "type": "node",
      "id": 11295836849,
      "lat": 12.9986607,
      "lon": 77.5695881,
      "tags": {
        "check_date": "2023-07-01",
        "mapillary": "657312499176133",
        "name": "Fancy Enterprises",
        "shop": "clothes"
      }
    },
    {
      "type": "node",
      "id": 11295836861,
      "lat": 12.9989007,
      "lon": 77.5695034,
      "tags": {
        "check_date": "2023-07-01",
        "mapillary": "279376061252376",
        "name": "Kancheepuram VRK Silks",
        "shop": "clothes"
      }
    },
    {
      "type": "node",
      "id": 11295836862,
      "lat": 12.9989809,
      "lon": 77.5694952,
      "tags": {
        "check_date": "2023-07-01",
        "mapillary": "967912454426245",
        "name": "Sri Gayathri Mini Hall",
        "shop": "clothes"
      }
    },
    {
      "type": "node",
      "id": 11391167229,
      "lat": 13.0093093,
      "lon": 77.5631377,
      "tags": {
        "access": "yes",
        "amenity": "toilets",
        "check_date": "2023-12-03",
        "fee": "yes",
        "operator": "BBMP"
      }
    },
    {
      "type": "node",
      "id": 11391167230,
      "lat": 13.0090849,
      "lon": 77.5632841,
      "tags": {
        "check_date": "2024-03-02",
        "name": "Sri Srinivas Iyengar's Bakery",
        "shop": "bakery"
      }
    },
    {
      "type": "node",
      "id": 11391167231,
      "lat": 13.0089801,
      "lon": 77.563896,
      "tags": {
        "check_date": "2023-12-03",
        "name": "Purity Prayag",
        "organic": "only",
        "shop": "supermarket"
      }
    },
    {
      "type": "node",
      "id": 11391167232,
      "lat": 13.0084969,
      "lon": 77.5685026,
      "tags": {
        "amenity": "pharmacy",
        "check_date": "2023-12-03",
        "healthcare": "pharmacy",
        "name": "Narayana Pharma"
      }
    },
    {
      "type": "node",
      "id": 11428856980,
      "lat": 13.002035,
      "lon": 77.5695036,
      "tags": {
        "name": "Taneira",
        "operator": "Tata",
        "shop": "jewelry"
      }
    },
    {
      "type": "node",
      "id": 11428856981,
      "lat": 13.0019836,
      "lon": 77.5696866,
      "tags": {
        "amenity": "bank",
        "brand": "Union Bank of India",
        "brand:wikidata": "Q2004078",
        "name": "Union Bank of India",
        "name:kn": "ಯೂನಿಯನ್ ಬ್ಯಾಂಕ್"
      }
    },
    {
      "type": "node",
      "id": 11428856982,
      "lat": 13.0019846,
      "lon": 77.5697364,
      "tags": {
        "amenity": "atm",
        "brand": "Union Bank of India",
        "brand:wikidata": "Q2004078",
        "operator": "Union Bank of India",
        "operator:wikidata": "Q2004078"
      }
    },
    {
      "type": "node",
      "id": 11458986878,
      "lat": 13.0116858,
      "lon": 77.5618033,
      "tags": {
        "amenity": "place_of_worship",
        "check_date": "2023-12-27",
        "religion": "hindu"
      }
    },
    {
      "type": "node",
      "id": 11458986879,
      "lat": 13.0168163,
      "lon": 77.5584815,
      "tags": {
        "amenity": "place_of_worship",
        "check_date": "2023-12-27",
        "religion": "hindu"
      }
    },
    {
      "type": "node",
      "id": 11458986881,
      "lat": 13.0087326,
      "lon": 77.5686653,
      "tags": {
        "amenity": "toilets",
        "check_date": "2023-12-27"
      }
    },
    {
      "type": "node",
      "id": 11477672195,
      "lat": 13.0077605,
      "lon": 77.5635484,
      "tags": {
        "addr:city": "Bengaluru",
        "addr:postcode": "560055",
        "addr:street": "10th Main Road, Malleshwaram West",
        "amenity": "bank",
        "brand": "ICICI Bank",
        "brand:wikidata": "Q1653258",
        "name": "ICICI Bank",
        "short_name": "ICICI",
        "source": "GEPTIS"
      }
    },
    {
      "type": "node",
      "id": 11513101658,
      "lat": 13.0076528,
      "lon": 77.5609001,
      "tags": {
        "amenity": "ice_cream",
        "check_date": "2024-01-13",
        "name": "Frozen Coast"
      }
    },
    {
      "type": "node",
      "id": 11513101659,
      "lat": 13.0086659,
      "lon": 77.5674271,
      "tags": {
        "amenity": "post_box",
        "operator": "India Post",
        "operator:wikidata": "Q3519720"
      }
    },
    {
      "type": "node",
      "id": 11684876145,
      "lat": 13.0071319,
      "lon": 77.5643956,
      "tags": {
        "amenity": "atm",
        "brand": "IndusInd Bank",
        "brand:wikidata": "Q2040323",
        "check_date": "2024-03-02",
        "operator": "IndusInd Bank",
        "operator:wikidata": "Q2040323"
      }
    },
    {
      "type": "node",
      "id": 11684876146,
      "lat": 13.0092976,
      "lon": 77.5629038,
      "tags": {
        "amenity": "bank",
        "brand": "Punjab National Bank",
        "brand:wikidata": "Q2743499",
        "check_date": "2024-03-02",
        "name": "Punjab National Bank",
        "name:kn": "ಪಂಜಾಬ ರಾಷ್ಟ್ರೀಯ ಬ್ಯಾಂಕ್"
      }
    },
    {
      "type": "node",
      "id": 11690829186,
      "lat": 12.9984344,
      "lon": 77.5700587,
      "tags": {
        "name": "Adukale Malleshwaram Experience Store",
        "shop": "convenience"
      }
    },
    {
      "type": "node",
      "id": 11690829189,
      "lat": 12.9982456,
      "lon": 77.571023,
      "tags": {
        "amenity": "bank",
        "atm": "yes",
        "brand": "HDFC Bank",
        "brand:wikidata": "Q631047",
        "check_date": "2024-05-12",
        "drive_through": "no",
        "name": "HDFC Bank",
        "name:en": "HDFC Bank",
        "name:kn": "ಎಚ್ ಡಿ ಎಫ್ ಸಿ",
        "short_name": "HDFC"
      }
    },
    {
      "type": "node",
      "id": 11897819743,
      "lat": 12.9969005,
      "lon": 77.566286,
      "tags": {
        "amenity": "toilets",
        "check_date": "2024-05-12"
      }
    },
    {
      "type": "node",
      "id": 11897819745,
      "lat": 12.9969397,
      "lon": 77.5676584,
      "tags": {
        "amenity": "place_of_worship",
        "check_date": "2024-05-12",
        "name": "Sri Jambu Ganapathy Temple",
        "religion": "hindu"
      }
    },
    {
      "type": "node",
      "id": 11897853200,
      "lat": 13.005975,
      "lon": 77.5710918,
      "tags": {
        "addr:floor": "G",
        "amenity": "bank",
        "brand": "AU Small Finance Bank",
        "brand:wikidata": "Q48729722",
        "check_date": "2024-05-12",
        "level": "0",
        "name": "AU Small Finance Bank"
      }
    },
    {
      "type": "node",
      "id": 11897874533,
      "lat": 13.0063748,
      "lon": 77.5693297,
      "tags": {
        "amenity": "doctors",
        "check_date": "2024-05-12",
        "healthcare": "doctor",
        "healthcare:speciality": "dermatology",
        "name": "89, 16th Cross,Margosaroad, Pragyashree Clinic",
        "name:en": "Specialist In Paediatrics And Dermatology"
      }
    },
    {
      "type": "node",
      "id": 11897945043,
      "lat": 12.9976864,
      "lon": 77.5702494,
      "tags": {
        "amenity": "bank",
        "brand": "Punjab National Bank",
        "brand:wikidata": "Q2743499",
        "check_date": "2024-05-12",
        "name": "Punjab National Bank"
      }
    },
    {
      "type": "node",
      "id": 11897955146,
      "lat": 13.005804,
      "lon": 77.5711646,
      "tags": {
        "amenity": "atm",
        "brand": "Ujjivan Small Finance Bank",
        "brand:wikidata": "Q42529272",
        "check_date": "2024-05-12",
        "operator": "Ujjivan Small Finance Bank",
        "operator:wikidata": "Q42529272"
      }
    },
    {
      "type": "node",
      "id": 11897958367,
      "lat": 13.0040251,
      "lon": 77.569424,
      "tags": {
        "amenity": "clinic",
        "check_date": "2024-05-12",
        "healthcare": "clinic",
        "name": "Shastri Skin Clinic"
      }
    },
    {
      "type": "node",
      "id": 11897966591,
      "lat": 13.0070878,
      "lon": 77.5691125,
      "tags": {
        "amenity": "doctors",
        "check_date": "2024-05-12",
        "healthcare": "doctor",
        "healthcare:speciality": "paediatrics",
        "name": "Shishu Clinic"
      }
    },
    {
      "type": "node",
      "id": 11897966592,
      "lat": 13.0068461,
      "lon": 77.5691003,
      "tags": {
        "amenity": "fixme",
        "check_date": "2024-05-12",
        "fixme": "type",
        "fixme:type": "deliver service",
        "name": "The Professional Couriers"
      }
    },
    {
      "type": "node",
      "id": 11897968090,
      "lat": 13.0057703,
      "lon": 77.5711583,
      "tags": {
        "brand": "Thomas Cook",
        "brand:wikidata": "Q2141800",
        "check_date": "2024-05-12",
        "name": "Thomas Cook",
        "shop": "travel_agency"
      }
    },
    {
      "type": "node",
      "id": 11897968140,
      "lat": 13.0047292,
      "lon": 77.5711435,
      "tags": {
        "addr:floor": "1",
        "check_date": "2024-05-12",
        "level": "1",
        "name": "Prestige Xclusive",
        "shop": "appliance"
      }
    },
    {
      "type": "node",
      "id": 11897968142,
      "lat": 13.0022545,
      "lon": 77.5710872,
      "tags": {
        "amenity": "atm",
        "brand": "State Bank of India",
        "brand:wikidata": "Q1340361",
        "check_date": "2024-05-12",
        "operator": "State Bank of India",
        "operator:wikidata": "Q1340361",
        "short_name": "SBI"
      }
    },
    {
      "type": "node",
      "id": 11897968145,
      "lat": 13.0058272,
      "lon": 77.5691213,
      "tags": {
        "amenity": "clinic",
        "check_date": "2024-05-12",
        "healthcare": "clinic",
        "name": "Sugar.Fit Diabetes Reversal Centre"
      }
    },
    {
      "type": "node",
      "id": 11897968146,
      "lat": 13.005413,
      "lon": 77.5691733,
      "tags": {
        "check_date": "2024-05-12",
        "name": "Dott Holidays",
        "shop": "travel_agency"
      }
    },
    {
      "type": "node",
      "id": 11897968147,
      "lat": 13.0054039,
      "lon": 77.5691767,
      "tags": {
        "check_date": "2024-05-12",
        "name": "Shri Manjunath Jewellery Works",
        "shop": "jewelry"
      }
    },
    {
      "type": "node",
      "id": 11897968150,
      "lat": 13.0049878,
      "lon": 77.5691293,
      "tags": {
        "amenity": "language_school",
        "check_date": "2024-05-12",
        "name": "Deutsch Centre"
      }
    },
    {
      "type": "node",
      "id": 11897968151,
      "lat": 13.0045024,
      "lon": 77.5690522,
      "tags": {
        "check_date": "2024-05-12",
        "name": "Nakoda Payals",
        "shop": "jewelry"
      }
    },
    {
      "type": "node",
      "id": 11897971020,
      "lat": 12.9991576,
      "lon": 77.5695024,
      "tags": {
        "check_date": "2024-05-12",
        "name": "Royal Challenge Cotton Export",
        "shop": "clothes"
      }
    },
    {
      "type": "node",
      "id": 11897971020,
      "lat": 12.9991576,
      "lon": 77.5695024,
      "tags": {
        "check_date": "2024-05-12",
        "name": "Royal Challenge Cotton Export",
        "shop": "clothes"
      }
    },
    {
      "type": "node",
      "id": 11897971021,
      "lat": 12.9991513,
      "lon": 77.5695657,
      "tags": {
        "check_date": "2024-05-12",
        "name": "Women's Wear",
        "shop": "clothes"
      }
    },
    {
      "type": "node",
      "id": 11897971021,
      "lat": 12.9991513,
      "lon": 77.5695657,
      "tags": {
        "check_date": "2024-05-12",
        "name": "Women's Wear",
        "shop": "clothes"
      }
    },
    {
      "type": "node",
      "id": 11897971022,
      "lat": 12.9991553,
      "lon": 77.5696085,
      "tags": {
        "check_date": "2024-05-12",
        "name": "Kushal's",
        "shop": "jewelry"
      }
    },
    {
      "type": "node",
      "id": 11897971022,
      "lat": 12.9991553,
      "lon": 77.5696085,
      "tags": {
        "check_date": "2024-05-12",
        "name": "Kushal's",
        "shop": "jewelry"
      }
    },
    {
      "type": "node",
      "id": 11897971023,
      "lat": 12.9991513,
      "lon": 77.5696601,
      "tags": {
        "check_date": "2024-05-12",
        "name": "Arrow",
        "shop": "clothes"
      }
    },
    {
      "type": "node",
      "id": 11897971023,
      "lat": 12.9991513,
      "lon": 77.5696601,
      "tags": {
        "check_date": "2024-05-12",
        "name": "Arrow",
        "shop": "clothes"
      }
    },
    {
      "type": "node",
      "id": 11897971024,
      "lat": 12.9991596,
      "lon": 77.5698374,
      "tags": {
        "check_date": "2024-05-12",
        "name": "Kushi",
        "shop": "jewelry"
      }
    },
    {
      "type": "node",
      "id": 11897971024,
      "lat": 12.9991596,
      "lon": 77.5698374,
      "tags": {
        "check_date": "2024-05-12",
        "name": "Kushi",
        "shop": "jewelry"
      }
    },
    {
      "type": "node",
      "id": 11897972094,
      "lat": 13.0017778,
      "lon": 77.5711931,
      "tags": {
        "check_date": "2024-05-12",
        "name": "Sugar Cosmetics",
        "shop": "cosmetics"
      }
    },
    {
      "type": "node",
      "id": 11897974158,
      "lat": 13.0029345,
      "lon": 77.5692079,
      "tags": {
        "check_date": "2024-05-12",
        "name": "First Cry",
        "shop": "baby_goods"
      }
    },
    {
      "type": "node",
      "id": 11897978430,
      "lat": 13.0023213,
      "lon": 77.5710963,
      "tags": {
        "check_date": "2024-05-12",
        "name": "Nandini",
        "name:kn": "ನಂದಿನಿ",
        "shop": "dairy"
      }
    },
    {
      "type": "node",
      "id": 11897978431,
      "lat": 13.0024329,
      "lon": 77.5711746,
      "tags": {
        "amenity": "restaurant",
        "check_date": "2024-05-12",
        "cuisine": "indian",
        "name": "Sarvam Upahara"
      }
    },
    {
      "type": "node",
      "id": 11897978985,
      "lat": 13.005745,
      "lon": 77.5711624,
      "tags": {
        "amenity": "atm",
        "brand": "Karur Vysya Bank",
        "brand:wikidata": "Q6373724",
        "check_date": "2024-05-12",
        "operator": "Karur Vysya Bank",
        "operator:wikidata": "Q6373724"
      }
    },
    {
      "type": "node",
      "id": 11897981171,
      "lat": 13.0082672,
      "lon": 77.5690972,
      "tags": {
        "check_date": "2024-05-12",
        "name": "MRP Wines",
        "shop": "alcohol"
      }
    },
    {
      "type": "node",
      "id": 11897981172,
      "lat": 13.0081946,
      "lon": 77.569111,
      "tags": {
        "check_date": "2024-05-12",
        "name": "Asus Showroom",
        "shop": "computer"
      }
    },
    {
      "type": "node",
      "id": 11897981173,
      "lat": 13.0081262,
      "lon": 77.5691139,
      "tags": {
        "check_date": "2024-05-12",
        "name": "Lenovo Computers",
        "shop": "computer"
      }
    },
    {
      "type": "node",
      "id": 11897981174,
      "lat": 13.0081116,
      "lon": 77.569112,
      "tags": {
        "amenity": "clinic",
        "check_date": "2024-05-12",
        "healthcare": "clinic",
        "name": "Vaidyaratnam Oushadhasala Ayurvedic Clinic"
      }
    },
    {
      "type": "node",
      "id": 11897981176,
      "lat": 13.0075201,
      "lon": 77.5690989,
      "tags": {
        "check_date": "2024-05-12",
        "name": "Invogue Salon",
        "shop": "hairdresser"
      }
    },
    {
      "type": "node",
      "id": 11897981177,
      "lat": 13.0074876,
      "lon": 77.5691015,
      "tags": {
        "check_date": "2024-05-12",
        "name": "ESN World Laptop Service Centre",
        "shop": "computer"
      }
    },
    {
      "type": "node",
      "id": 11897981178,
      "lat": 13.0074522,
      "lon": 77.5690948,
      "tags": {
        "check_date": "2024-05-12",
        "fixme:type": "costume store",
        "name": "Golden Glam Costume Rental Company",
        "shop": "clothes"
      }
    },
    {
      "type": "node",
      "id": 11897985623,
      "lat": 13.003187,
      "lon": 77.5694263,
      "tags": {
        "brand": "Food Basics",
        "brand:wikidata": "Q5465300",
        "check_date": "2024-05-12",
        "name": "Giriram Foods ,Dairy Products And Edible Oil",
        "shop": "supermarket"
      }
    },
    {
      "type": "node",
      "id": 11897986764,
      "lat": 13.0056398,
      "lon": 77.5693183,
      "tags": {
        "check_date": "2024-05-12",
        "leisure": "indoor_play",
        "name": "Karnataka Chess Academy"
      }
    },
    {
      "type": "node",
      "id": 11897987650,
      "lat": 13.0026347,
      "lon": 77.5712549,
      "tags": {
        "amenity": "clinic",
        "check_date": "2024-05-12",
        "healthcare": "clinic",
        "healthcare:speciality": "homeopathy",
        "name": "Homeocare International"
      }
    },
    {
      "type": "node",
      "id": 11897987712,
      "lat": 13.0012957,
      "lon": 77.5711363,
      "tags": {
        "check_date": "2024-05-12",
        "name": "Coffee Day",
        "shop": "coffee"
      }
    },
    {
      "type": "node",
      "id": 11897990846,
      "lat": 13.0009491,
      "lon": 77.5694679,
      "tags": {
        "amenity": "bank",
        "check_date": "2024-05-12",
        "name": "Kadamba Souharda Sahakari Sangha Niyamita"
      }
    },
    {
      "type": "node",
      "id": 11897991817,
      "lat": 13.0035837,
      "lon": 77.5694263,
      "tags": {
        "amenity": "ice_cream",
        "brand": "Naturals",
        "brand:wikidata": "Q24439154",
        "check_date": "2024-05-12",
        "cuisine": "ice_cream",
        "name": "Naturals"
      }
    },
    {
      "type": "node",
      "id": 11897994285,
      "lat": 13.0016065,
      "lon": 77.5712127,
      "tags": {
        "addr:floor": "G",
        "check_date": "2024-05-12",
        "clothes": "underwear",
        "level": "0",
        "name": "Zivame",
        "name:en": "Zivame",
        "shop": "clothes"
      }
    },
    {
      "type": "node",
      "id": 11898001051,
      "lat": 13.0051977,
      "lon": 77.5693485,
      "tags": {
        "check_date": "2024-05-12",
        "name": "Excellent Dry Cleaners",
        "shop": "laundry"
      }
    },
    {
      "type": "node",
      "id": 11898001841,
      "lat": 13.0016136,
      "lon": 77.5711907,
      "tags": {
        "check_date": "2024-05-12",
        "name": "Good Colors",
        "shop": "clothes"
      }
    },
    {
      "type": "node",
      "id": 11898006733,
      "lat": 12.9997739,
      "lon": 77.5712448,
      "tags": {
        "check_date": "2024-05-12",
        "name": "Bhima",
        "shop": "jewelry"
      }
    },
    {
      "type": "node",
      "id": 11898006733,
      "lat": 12.9997739,
      "lon": 77.5712448,
      "tags": {
        "check_date": "2024-05-12",
        "name": "Bhima",
        "shop": "jewelry"
      }
    },
    {
      "type": "node",
      "id": 11898007114,
      "lat": 13.0047715,
      "lon": 77.5693819,
      "tags": {
        "check_date": "2024-05-12",
        "name": "Manyavar Mohey",
        "shop": "mall"
      }
    },
    {
      "type": "node",
      "id": 11898007115,
      "lat": 13.004675,
      "lon": 77.5693798,
      "tags": {
        "check_date": "2024-05-12",
        "name": "V. Gurunath Jewellers",
        "shop": "jewelry"
      }
    },
    {
      "type": "node",
      "id": 11898009848,
      "lat": 12.9995672,
      "lon": 77.5713156,
      "tags": {
        "check_date": "2024-05-12",
        "name": "Preethi Textiles",
        "shop": "clothes"
      }
    },
    {
      "type": "node",
      "id": 11898009848,
      "lat": 12.9995672,
      "lon": 77.5713156,
      "tags": {
        "check_date": "2024-05-12",
        "name": "Preethi Textiles",
        "shop": "clothes"
      }
    },
    {
      "type": "node",
      "id": 11898009849,
      "lat": 12.9989259,
      "lon": 77.5712772,
      "tags": {
        "check_date": "2024-05-12",
        "name": "Arunodaya Apparel",
        "shop": "clothes"
      }
    },
    {
      "type": "node",
      "id": 11898009850,
      "lat": 12.9982398,
      "lon": 77.571244,
      "tags": {
        "amenity": "bank",
        "brand": "Yes Bank",
        "brand:wikidata": "Q2040394",
        "check_date": "2024-05-12",
        "name": "Yes Bank"
      }
    },
    {
      "type": "node",
      "id": 11898009851,
      "lat": 12.9982004,
      "lon": 77.5715144,
      "tags": {
        "check_date": "2024-05-12",
        "name": "GKB Opticals",
        "shop": "optician"
      }
    },
    {
      "type": "node",
      "id": 11898009852,
      "lat": 12.9980774,
      "lon": 77.5714891,
      "tags": {
        "check_date": "2024-05-12",
        "name": "Poorvika",
        "shop": "mobile_phone"
      }
    },
    {
      "type": "node",
      "id": 11898014270,
      "lat": 13.0004899,
      "lon": 77.5711191,
      "tags": {
        "addr:floor": "1",
        "check_date": "2024-05-12",
        "level": "1",
        "name": "Jockey",
        "shop": "clothes"
      }
    },
    {
      "type": "node",
      "id": 11898019678,
      "lat": 12.9990923,
      "lon": 77.5692832,
      "tags": {
        "check_date": "2024-05-12",
        "name": "Yuvarani Design Studio",
        "shop": "tailor"
      }
    },
    {
      "type": "node",
      "id": 11898019680,
      "lat": 12.9989665,
      "lon": 77.5692985,
      "tags": {
        "check_date": "2024-05-12",
        "name": "Peps",
        "shop": "bed"
      }
    },
    {
      "type": "node",
      "id": 11898019681,
      "lat": 12.9986893,
      "lon": 77.5692501,
      "tags": {
        "check_date": "2024-05-12",
        "name": "Aditya Hearing Solutions",
        "shop": "hearing_aids"
      }
    },
    {
      "type": "node",
      "id": 11898019682,
      "lat": 12.9985488,
      "lon": 77.5692638,
      "tags": {
        "brand": "Duroflex",
        "check_date": "2024-05-12",
        "name": "Inspirations",
        "shop": "bed"
      }
    },
    {
      "type": "node",
      "id": 11898019683,
      "lat": 12.998455,
      "lon": 77.5692608,
      "tags": {
        "check_date": "2024-05-12",
        "name": "Computech",
        "shop": "computer"
      }
    },
    {
      "type": "node",
      "id": 11898021444,
      "lat": 12.9999201,
      "lon": 77.5712262,
      "tags": {
        "check_date": "2024-05-12",
        "name": "Sahasra Jewels",
        "shop": "jewelry"
      }
    },
    {
      "type": "node",
      "id": 11898022381,
      "lat": 13.0000396,
      "lon": 77.5714322,
      "tags": {
        "check_date": "2024-05-12",
        "name": "Varmilan",
        "shop": "clothes"
      }
    },
    {
      "type": "node",
      "id": 11898025535,
      "lat": 13.0025245,
      "lon": 77.5692029,
      "tags": {
        "check_date": "2024-05-12",
        "name": "Hearing Wellness Clinic Private Limited",
        "shop": "hearing_aids"
      }
    },
    {
      "type": "node",
      "id": 11898026449,
      "lat": 13.0006043,
      "lon": 77.5694526,
      "tags": {
        "check_date": "2024-05-12",
        "name": "Kamakshi Silk",
        "shop": "mall"
      }
    },
    {
      "type": "node",
      "id": 11898028014,
      "lat": 12.9993708,
      "lon": 77.5692875,
      "tags": {
        "check_date": "2024-05-12",
        "name": "Sudarshan Jewellers",
        "shop": "jewelry"
      }
    },
    {
      "type": "node",
      "id": 11898028015,
      "lat": 12.9995579,
      "lon": 77.5692846,
      "tags": {
        "check_date": "2024-05-12",
        "name": "Pai International",
        "shop": "electronics"
      }
    },
    {
      "type": "node",
      "id": 11898028016,
      "lat": 12.9997278,
      "lon": 77.569275,
      "tags": {
        "brand": "Lenskart",
        "brand:wikidata": "Q17068753",
        "check_date": "2024-05-12",
        "name": "Lenskart",
        "shop": "optician"
      }
    },
    {
      "type": "node",
      "id": 11898028017,
      "lat": 13.0002158,
      "lon": 77.5690233,
      "tags": {
        "check_date": "2024-05-12",
        "name": "Ratnadeep",
        "shop": "supermarket"
      }
    },
    {
      "type": "node",
      "id": 11898247219,
      "lat": 13.0077434,
      "lon": 77.5690736,
      "tags": {
        "amenity": "parking_entrance"
      }
    },
    {
      "type": "node",
      "id": 11898247222,
      "lat": 13.0076685,
      "lon": 77.5690766,
      "tags": {
        "amenity": "parking_entrance"
      }
    },
    {
      "type": "node",
      "id": 11898860811,
      "lat": 13.0021174,
      "lon": 77.5694554,
      "tags": {
        "name": "Titan World",
        "shop": "optician"
      }
    },
    {
      "type": "node",
      "id": 11898860812,
      "lat": 13.0023121,
      "lon": 77.5694635,
      "tags": {
        "amenity": "clinic",
        "healthcare": "clinic",
        "healthcare:speciality": "spine",
        "name": "QI Spine Clinic"
      }
    },
    {
      "type": "node",
      "id": 11898860823,
      "lat": 13.0043186,
      "lon": 77.569472,
      "tags": {
        "amenity": "kindergarten",
        "name": "Cambridge Montessori"
      }
    },
    {
      "type": "node",
      "id": 11898860824,
      "lat": 13.0049038,
      "lon": 77.5694286,
      "tags": {
        "amenity": "bank",
        "name": "DBS Bank India Limited"
      }
    },
    {
      "type": "node",
      "id": 11898860838,
      "lat": 13.0017911,
      "lon": 77.5695455,
      "tags": {
        "clothes": "women",
        "name": "Nalli Silks",
        "shop": "clothes"
      }
    },
    {
      "type": "node",
      "id": 11898860839,
      "lat": 13.0017523,
      "lon": 77.5694769,
      "tags": {
        "brand": "Kalyan Jewellers",
        "brand:wikidata": "Q6354854",
        "name": "Kalyan Jewellers",
        "shop": "jewelry"
      }
    },
    {
      "type": "node",
      "id": 11898860851,
      "lat": 12.9997198,
      "lon": 77.569202,
      "tags": {
        "addr:city": "Bengaluru",
        "addr:district": "Bengaluru Urban",
        "addr:street": "Margosa Road",
        "amenity": "bank",
        "atm": "no",
        "brand": "IDBI Bank",
        "brand:wikidata": "Q3633485",
        "drive_through": "no",
        "name": "IDBI Bank",
        "name:kn": "ಐಡಿಬಿಐ ಬ್ಯಾಂಕ್",
        "short_name": "IDBI"
      }
    },
    {
      "type": "node",
      "id": 11903081766,
      "lat": 13.000625,
      "lon": 77.5692648,
      "tags": {
        "check_date": "2024-05-12",
        "name": "Amani Sarees",
        "shop": "clothes"
      }
    },
    {
      "type": "node",
      "id": 12050929502,
      "lat": 12.9983044,
      "lon": 77.5671142,
      "tags": {
        "check_date": "2024-07-13",
        "name": "Kamath Thindi mane",
        "shop": "bakery"
      }
    },
    {
      "type": "node",
      "id": 12050929503,
      "lat": 12.9982921,
      "lon": 77.5671977,
      "tags": {
        "amenity": "fixme",
        "check_date": "2024-07-13",
        "fixme": "type",
        "fixme:type": "printing",
        "name": "Chandra Printer"
      }
    },
    {
      "type": "node",
      "id": 12135686524,
      "lat": 13.014829,
      "lon": 77.559742,
      "tags": {
        "access": "yes",
        "amenity": "toilets",
        "check_date": "2024-08-25",
        "fee": "yes"
      }
    },
    {
      "type": "node",
      "id": 12379171269,
      "lat": 12.9982481,
      "lon": 77.5706369,
      "tags": {
        "amenity": "bank",
        "brand": "HDFC Bank",
        "brand:wikidata": "Q631047",
        "name": "HDFC Bank",
        "short_name": "HDFC"
      }
    },
    {
      "type": "node",
      "id": 12379171272,
      "lat": 12.9985375,
      "lon": 77.5704879,
      "tags": {
        "amenity": "bank",
        "name": "The Malleshwaram Cooperative Bank"
      }
    },
    {
      "type": "node",
      "id": 12426224563,
      "lat": 13.0049602,
      "lon": 77.5654238,
      "tags": {
        "name": "GoHappy",
        "shop": "supermarket"
      }
    },
    {
      "type": "node",
      "id": 12426224585,
      "lat": 13.008566,
      "lon": 77.563258,
      "tags": {
        "amenity": "restaurant",
        "diet:vegetarian": "only",
        "name": "Hermitage"
      }
    },
    {
      "type": "node",
      "id": 12597548155,
      "lat": 13.0043996,
      "lon": 77.570632,
      "tags": {
        "amenity": "cafe",
        "name": "Clean Slate Cafe"
      }
    },
    {
      "type": "node",
      "id": 12597548185,
      "lat": 13.0043931,
      "lon": 77.5709921,
      "tags": {
        "amenity": "cafe",
        "contact:instagram": "silaathegardencafe",
        "name": "Silaa - The Garden Cafe"
      }
    },
    {
      "type": "node",
      "id": 12676261311,
      "lat": 13.0158864,
      "lon": 77.5590488,
      "tags": {
        "leisure": "fitness_station",
        "sport": "fitness"
      }
    },
    {
      "type": "node",
      "id": 12808851953,
      "lat": 13.008864,
      "lon": 77.5633509,
      "tags": {
        "amenity": "bench",
        "armrest": "no",
        "backrest": "no",
        "material": "stone",
        "seats": "6"
      }
    },
    {
      "type": "node",
      "id": 12808851954,
      "lat": 13.0087992,
      "lon": 77.5633527,
      "tags": {
        "amenity": "bench",
        "armrest": "no",
        "backrest": "no",
        "material": "stone",
        "seats": "3"
      }
    },
    {
      "type": "node",
      "id": 12808851956,
      "lat": 13.0088314,
      "lon": 77.5630956,
      "tags": {
        "check_date": "2025-05-04",
        "name": "Honda",
        "shop": "motorcycle_repair"
      }
    },
    {
      "type": "node",
      "id": 12808851957,
      "lat": 13.0090125,
      "lon": 77.5633382,
      "tags": {
        "check_date": "2025-05-04",
        "name": "Manasa Furniture",
        "shop": "furniture"
      }
    },
    {
      "type": "node",
      "id": 12808851958,
      "lat": 13.0090054,
      "lon": 77.5633923,
      "tags": {
        "check_date": "2025-05-04",
        "name": "Rahul Dry Cleaners",
        "shop": "dry_cleaning"
      }
    },
    {
      "type": "node",
      "id": 12809319211,
      "lat": 13.001649,
      "lon": 77.5633451,
      "tags": {
        "brand": "HOPCOMS",
        "brand:wikidata": "Q22908959",
        "name": "HOPCOMS",
        "shop": "greengrocer"
      }
    },
    {
      "type": "node",
      "id": 12809319212,
      "lat": 13.0015902,
      "lon": 77.5633746,
      "tags": {
        "brand": "Nandini",
        "brand:wikidata": "Q124374212",
        "name": "Nandini",
        "shop": "dairy"
      }
    },
    {
      "type": "node",
      "id": 12809319283,
      "lat": 13.0100733,
      "lon": 77.5677238,
      "tags": {
        "amenity": "bench"
      }
    },
    {
      "type": "node",
      "id": 12809319284,
      "lat": 13.0101269,
      "lon": 77.5676903,
      "tags": {
        "amenity": "bench"
      }
    },
    {
      "type": "node",
      "id": 12809319372,
      "lat": 13.0113169,
      "lon": 77.5668883,
      "tags": {
        "amenity": "fountain"
      }
    },
    {
      "type": "node",
      "id": 12927909819,
      "lat": 13.0009541,
      "lon": 77.5696999,
      "tags": {
        "amenity": "cafe",
        "cuisine": "coffee_shop",
        "name": "Benji Coffee"
      }
    },
    {
      "type": "node",
      "id": 12963719470,
      "lat": 13.0075446,
      "lon": 77.5656197,
      "tags": {
        "amenity": "post_box",
        "operator": "India Post"
      }
    },
    {
      "type": "node",
      "id": 12963719471,
      "lat": 13.008301,
      "lon": 77.5668108,
      "tags": {
        "check_date": "2025-06-30",
        "leisure": "fitness_centre",
        "name": "D5N Fitness"
      }
    },
    {
      "type": "node",
      "id": 12994477675,
      "lat": 13.0051433,
      "lon": 77.5665532,
      "tags": {
        "amenity": "school",
        "check_date": "2025-07-11",
        "name": "Sri Vidya Mandir"
      }
    },
    {
      "type": "node",
      "id": 12994477689,
      "lat": 13.0058647,
      "lon": 77.5635194,
      "tags": {
        "amenity": "bank",
        "brand": "Indian Overseas Bank",
        "brand:wikidata": "Q2003611",
        "check_date": "2025-07-11",
        "name": "Indian Overseas Bank"
      }
    },
    {
      "type": "node",
      "id": 13086475302,
      "lat": 13.0060466,
      "lon": 77.5650785,
      "tags": {
        "amenity": "dentist",
        "check_date": "2025-08-21",
        "healthcare": "dentist",
        "name": "Pure Smiles Dental Clinic"
      }
    },
    {
      "type": "node",
      "id": 13086475303,
      "lat": 13.0059814,
      "lon": 77.5651154,
      "tags": {
        "addr:floor": "G",
        "amenity": "clinic",
        "check_date": "2025-08-21",
        "healthcare": "clinic",
        "level": "0",
        "name": "Corner Clinic"
      }
    },
    {
      "type": "node",
      "id": 13086475304,
      "lat": 13.006008,
      "lon": 77.5650855,
      "tags": {
        "addr:floor": "G",
        "amenity": "doctors",
        "check_date": "2025-08-21",
        "healthcare": "doctor",
        "healthcare:speciality": "child_psychiatry",
        "level": "0",
        "name": "Center For Child Development & Disabilities"
      }
    },
    {
      "type": "node",
      "id": 13086475307,
      "lat": 13.0060873,
      "lon": 77.5650982,
      "tags": {
        "check_date": "2025-08-21",
        "level": "-1",
        "name": "Shanti Beauty Parlour",
        "shop": "beauty"
      }
    },
    {
      "type": "node",
      "id": 13086475308,
      "lat": 13.0061927,
      "lon": 77.564999,
      "tags": {
        "check_date": "2025-08-21",
        "level": "-1",
        "name": "Shreyas Department Stores",
        "shop": "department_store"
      }
    },
    {
      "type": "node",
      "id": 13086475309,
      "lat": 13.0062227,
      "lon": 77.5649772,
      "tags": {
        "check_date": "2025-08-21",
        "name": "Satyashila Electronics",
        "shop": "electronics"
      }
    },
    {
      "type": "node",
      "id": 13099784071,
      "lat": 13.0088366,
      "lon": 77.5634201,
      "tags": {
        "amenity": "fast_food",
        "check_date": "2025-08-27",
        "cuisine": "south_indian",
        "diet:vegetarian": "yes",
        "name": "Sri Rama Veg",
        "outdoor_seating": "yes",
        "takeaway": "yes"
      }
    },
    {
      "type": "way",
      "id": 26983364,
      "center": {
        "lat": 13.0158089,
        "lon": 77.5604886
      },
      "tags": {
        "access": "permit",
        "leisure": "pitch",
        "name": "Gymkhana hockey Ground",
        "sport": "field_hockey",
        "surface": "artificial_turf"
      }
    },
    {
      "type": "way",
      "id": 27286098,
      "center": {
        "lat": 13.0152706,
        "lon": 77.5615753
      },
      "tags": {
        "leisure": "pitch",
        "name": "Gymkhana Cricket Ground",
        "sport": "cricket",
        "surface": "artificial_turf"
      }
    },
    {
      "type": "way",
      "id": 37867734,
      "center": {
        "lat": 13.0113749,
        "lon": 77.5685918
      },
      "tags": {
        "amenity": "college",
        "name": "Maharani Lakhsmi Ammani",
        "name:etymology:wikidata": "Q111734437",
        "name:kn": "ಮಹಾರಾಣಿ ಲಕ್ಷ್ಮಿ ಅಮ್ಮಣ್ಣಿ ಕಾಲೇಜು"
      }
    },
    {
      "type": "way",
      "id": 38535519,
      "center": {
        "lat": 12.99722,
        "lon": 77.5666949
      },
      "tags": {
        "landuse": "recreation_ground",
        "leisure": "sports_centre",
        "name": "Hallada Grounds"
      }
    },
    {
      "type": "way",
      "id": 38832006,
      "center": {
        "lat": 13.0092841,
        "lon": 77.568501
      },
      "tags": {
        "addr:city": "Bangalore",
        "addr:postcode": "560055",
        "addr:street": "18th Cross",
        "amenity": "school",
        "brand": "Kendriya Vidyalaya",
        "brand:wikidata": "Q1156653",
        "name": "Kendriya Vidyalaya Malleswaram",
        "name:kn": "ಕೇಂದ್ರೀಯ ವಿದ್ಯಾಲಯ, ಮಲ್ಲೇಶ್ವರಂ",
        "operator:type": "government_non_profit"
      }
    },
    {
      "type": "way",
      "id": 45333229,
      "center": {
        "lat": 13.0031052,
        "lon": 77.5678141
      },
      "tags": {
        "amenity": "college",
        "name": "Government Ladies College",
        "name:kn": "ಸರ್ಕಾರಿ ಮಹಿಳಾ ಕಾಲೇಜು"
      }
    },
    {
      "type": "way",
      "id": 46950394,
      "center": {
        "lat": 13.0031612,
        "lon": 77.5708466
      },
      "tags": {
        "amenity": "marketplace",
        "flowers": "yes",
        "fruit": "yes",
        "name": "13th Cross Road",
        "name:kn": "೧೩ನೇ ಅಡ್ಡ ರಸ್ತೆ",
        "vegetable": "yes"
      }
    },
    {
      "type": "way",
      "id": 51140649,
      "center": {
        "lat": 13.0057609,
        "lon": 77.5701761
      },
      "tags": {
        "leisure": "sports_centre",
        "name": "Beagles Basketball Club",
        "sport": "basketball"
      }
    },
    {
      "type": "way",
      "id": 51140650,
      "center": {
        "lat": 13.0061815,
        "lon": 77.5701686
      },
      "tags": {
        "leisure": "park"
      }
    },
    {
      "type": "way",
      "id": 55135907,
      "center": {
        "lat": 13.0046155,
        "lon": 77.5618682
      },
      "tags": {
        "amenity": "school",
        "name": "Cluny Convent"
      }
    },
    {
      "type": "way",
      "id": 113775584,
      "center": {
        "lat": 12.9999613,
        "lon": 77.5703352
      },
      "tags": {
        "leisure": "park"
      }
    },
    {
      "type": "way",
      "id": 113775829,
      "center": {
        "lat": 13.0049784,
        "lon": 77.570229
      },
      "tags": {
        "amenity": "college",
        "name": "Malleshwaram Ladies Association",
        "toilets:wheelchair": "no",
        "wheelchair": "no"
      }
    },
    {
      "type": "way",
      "id": 113800231,
      "center": {
        "lat": 12.9990337,
        "lon": 77.5705388
      },
      "tags": {
        "amenity": "marketplace",
        "landuse": "retail",
        "name": "Malleshwaram 8th Cross Market",
        "name:kn": "೮ನೇ ಅಡ್ಡರಸ್ತೆ ಮಾರಕಟ್ಟೆ"
      }
    },
    {
      "type": "way",
      "id": 114786251,
      "center": {
        "lat": 13.0054003,
        "lon": 77.5635104
      },
      "tags": {
        "addr:street": "10th Main, 15th Cross",
        "amenity": "college",
        "name": "MES College of Arts and Science",
        "name:kn": "ಎಮ್‌ಇಎಸ್ ಕಲೆ ಮತ್ತು ವಿಜ್ಞಾನ ಕಾಲೇಜು",
        "wheelchair": "no"
      }
    },
    {
      "type": "way",
      "id": 114786334,
      "center": {
        "lat": 13.0047541,
        "lon": 77.5641887
      },
      "tags": {
        "addr:housename": "Brahmi",
        "addr:postcode": "560055",
        "addr:street": "10th Main",
        "amenity": "school",
        "landuse": "education",
        "name": "MES Kishore Kendra"
      }
    },
    {
      "type": "way",
      "id": 314075857,
      "center": {
        "lat": 13.0088483,
        "lon": 77.5688359
      },
      "tags": {
        "amenity": "bus_station",
        "bus": "yes",
        "highway": "platform",
        "name": "Malleswaram 18th Cross",
        "name:en": "Malleswaram 18th Cross",
        "name:kn": "ಬಸ್ ನಿಲ್ತಾಣ, ಮಲ್ಲೇಶ್ವರಂ",
        "network": "BMTC",
        "operator": "BMTC",
        "public_transport": "platform"
      }
    },
    {
      "type": "way",
      "id": 342018504,
      "center": {
        "lat": 13.0138563,
        "lon": 77.5648428
      },
      "tags": {
        "amenity": "parking"
      }
    },
    {
      "type": "way",
      "id": 346448117,
      "center": {
        "lat": 13.0077905,
        "lon": 77.5631383
      },
      "tags": {
        "addr:street": "17th cross,10th A Main",
        "amenity": "bank",
        "atm": "yes",
        "brand": "State Bank of India",
        "brand:wikidata": "Q1340361",
        "brand:wikipedia": "en:State Bank of India",
        "building": "yes",
        "name": "State Bank of India",
        "name:kn": "ಭಾರತೀಯ ಸ್ಟೇಟ್ ಬ್ಯಾಂಕ್",
        "short_name": "SBI",
        "website": "https://www.sbi.co.in"
      }
    },
    {
      "type": "way",
      "id": 346518846,
      "center": {
        "lat": 13.0042482,
        "lon": 77.5702486
      },
      "tags": {
        "addr:postcode": "56003",
        "addr:street": "14th Cross Road",
        "amenity": "community_centre",
        "landuse": "commercial",
        "name": "Seva Sadan",
        "name:kn": "ಸೇವಾ ಸದನ"
      }
    },
    {
      "type": "way",
      "id": 346876264,
      "center": {
        "lat": 13.0092188,
        "lon": 77.5616681
      },
      "tags": {
        "amenity": "school",
        "building": "yes",
        "name": "Nirmala Rani High School",
        "name:kn": "ನಿರ್ಮಲ ರಾಣಿ ಪ್ರೌಢಶಾಲೆ"
      }
    },
    {
      "type": "way",
      "id": 346876301,
      "center": {
        "lat": 13.0162891,
        "lon": 77.5613125
      },
      "tags": {
        "leisure": "pitch",
        "name": "Gymkhana Tennis Court",
        "name:kn": "ಟೆನ್ನಿಸ್ ಅಂಗಣ",
        "sport": "tennis"
      }
    },
    {
      "type": "way",
      "id": 347485414,
      "center": {
        "lat": 13.0028028,
        "lon": 77.567164
      },
      "tags": {
        "amenity": "school",
        "name": "Government Girls High School",
        "name:kn": "ಸರ್ಕಾರಿ ಬಾಲಕಿಯರ ಪ್ರೌಡಶಾಲೆ"
      }
    },
    {
      "type": "way",
      "id": 348223141,
      "center": {
        "lat": 12.9986059,
        "lon": 77.5685296
      },
      "tags": {
        "leisure": "pitch"
      }
    },
    {
      "type": "way",
      "id": 348243181,
      "center": {
        "lat": 13.0014668,
        "lon": 77.5710614
      },
      "tags": {
        "brand": "Cromā",
        "brand:wikidata": "Q5187683",
        "building": "retail",
        "name": "Cromā",
        "name:kn": "ಕ್ರೋಮ",
        "shop": "electronics"
      }
    },
    {
      "type": "way",
      "id": 348827303,
      "center": {
        "lat": 13.0079616,
        "lon": 77.5639934
      },
      "tags": {
        "addr:city": "Bangalore",
        "addr:street": "8th Main Road",
        "amenity": "restaurant",
        "building": "yes",
        "capacity": "40",
        "check_date": "2025-08-21",
        "cuisine": "indian;regional;south_indian",
        "diet:vegetarian": "only",
        "name": "Bhramins Thate Idly Shop",
        "takeaway": "yes"
      }
    },
    {
      "type": "way",
      "id": 348827364,
      "center": {
        "lat": 13.0084773,
        "lon": 77.5684217
      },
      "tags": {
        "addr:city": "Bengaluru",
        "addr:district": "Bengaluru Urban",
        "addr:full": "6/7/8, 4th Main, 18th Cross, Chitrashilpi Venkatappa Road, Malleshwaram",
        "addr:housenumber": "6,7,8",
        "addr:postcode": "560003",
        "addr:state": "Karnataka",
        "addr:street": "18th Cross Road",
        "addr:unit": "Chitrashilpi Venkatappa Road",
        "amenity": "hospital",
        "building": "hospital",
        "email": "info@vagushospital.com",
        "healthcare": "hospital",
        "healthcare:speciality": "multi speciality",
        "name": "Vagus Super Speciality Hospital",
        "operator:type": "private",
        "phone": "080-23569970",
        "source": "OpenGovernmentData",
        "website": "https://www.vagushospital.com/"
      }
    },
    {
      "type": "way",
      "id": 350524660,
      "center": {
        "lat": 13.0001288,
        "lon": 77.5710786
      },
      "tags": {
        "amenity": "library",
        "building": "yes",
        "name": "City Central Library",
        "name:kn": "ಕೇಂದ್ರಿಯ ಗ್ರಂಥಾಲಯ"
      }
    },
    {
      "type": "way",
      "id": 363071436,
      "center": {
        "lat": 13.0033337,
        "lon": 77.5702334
      },
      "tags": {
        "leisure": "park"
      }
    },
    {
      "type": "way",
      "id": 388813861,
      "center": {
        "lat": 12.9972978,
        "lon": 77.5706594
      },
      "tags": {
        "amenity": "school"
      }
    },
    {
      "type": "way",
      "id": 398113410,
      "center": {
        "lat": 13.0076935,
        "lon": 77.563806
      },
      "tags": {
        "building": "yes",
        "name": "Nandini Milk Parlour",
        "name:kn": "ನಂದಿನಿ ಹಾಲಿನ ಅಂಗಡಿ",
        "operator": "Nandhini",
        "shop": "dairy"
      }
    },
    {
      "type": "way",
      "id": 398113412,
      "center": {
        "lat": 13.0081737,
        "lon": 77.5634644
      },
      "tags": {
        "amenity": "hospital",
        "name": "The Fracture and Orthopaedic Clinic"
      }
    },
    {
      "type": "way",
      "id": 729134345,
      "center": {
        "lat": 13.017421,
        "lon": 77.5574517
      },
      "tags": {
        "access": "private",
        "leisure": "swimming_pool"
      }
    },
    {
      "type": "way",
      "id": 1062372957,
      "center": {
        "lat": 12.9972835,
        "lon": 77.569966
      },
      "tags": {
        "amenity": "school"
      }
    },
    {
      "type": "way",
      "id": 1062372958,
      "center": {
        "lat": 12.9985706,
        "lon": 77.5688816
      },
      "tags": {
        "amenity": "club",
        "club": "social",
        "name": "The Malleshwaram Association"
      }
    },
    {
      "type": "way",
      "id": 1065603922,
      "center": {
        "lat": 12.998087,
        "lon": 77.5690928
      },
      "tags": {
        "leisure": "pitch",
        "sport": "basketball"
      }
    },
    {
      "type": "way",
      "id": 1065603923,
      "center": {
        "lat": 12.9980845,
        "lon": 77.5687625
      },
      "tags": {
        "leisure": "pitch",
        "sport": "basketball"
      }
    },
    {
      "type": "way",
      "id": 1069218264,
      "center": {
        "lat": 12.9986798,
        "lon": 77.5689063
      },
      "tags": {
        "access": "permissive",
        "leisure": "swimming_pool"
      }
    },
    {
      "type": "way",
      "id": 1069218265,
      "center": {
        "lat": 12.9989866,
        "lon": 77.5686607
      },
      "tags": {
        "amenity": "school",
        "name": "Bangalore Education Society",
        "wikidata": "Q4855045",
        "wikipedia": "en:Bangalore Education Society, Malleswaram"
      }
    },
    {
      "type": "way",
      "id": 1077744674,
      "center": {
        "lat": 13.0136895,
        "lon": 77.5599338
      },
      "tags": {
        "amenity": "place_of_worship",
        "denomination": "catholic",
        "landuse": "religious",
        "name": "Christ The King",
        "name:kn": "ಕ್ರಿಸ್ತರಾಜ",
        "religion": "christian",
        "wheelchair": "limited"
      }
    },
    {
      "type": "way",
      "id": 1077744675,
      "center": {
        "lat": 13.0132073,
        "lon": 77.5590497
      },
      "tags": {
        "amenity": "language_school",
        "name": "Christ the King Public School",
        "name:kn": "ಕ್ರಿಸ್ತರಾಜ ಶಾಲೆ"
      }
    },
    {
      "type": "way",
      "id": 1077744676,
      "center": {
        "lat": 13.0096865,
        "lon": 77.560237
      },
      "tags": {
        "amenity": "monastery",
        "name": "Claretian Seminary"
      }
    },
    {
      "type": "way",
      "id": 1077744677,
      "center": {
        "lat": 13.0095662,
        "lon": 77.5616771
      },
      "tags": {
        "amenity": "school",
        "name": "Nirmala Rani High School",
        "name:kn": "ನಿರ್ಮಲ ರಾಣಿ ಪ್ರೌಢಶಾಲೆ"
      }
    },
    {
      "type": "way",
      "id": 1077744678,
      "center": {
        "lat": 13.0001302,
        "lon": 77.5641106
      },
      "tags": {
        "amenity": "place_of_worship",
        "religion": "hindu"
      }
    },
    {
      "type": "way",
      "id": 1077744679,
      "center": {
        "lat": 13.0007647,
        "lon": 77.5640469
      },
      "tags": {
        "amenity": "place_of_worship",
        "religion": "hindu"
      }
    },
    {
      "type": "way",
      "id": 1077744680,
      "center": {
        "lat": 13.0011093,
        "lon": 77.5639472
      },
      "tags": {
        "amenity": "hospital"
      }
    },
    {
      "type": "way",
      "id": 1084220444,
      "center": {
        "lat": 13.0064209,
        "lon": 77.5688037
      },
      "tags": {
        "amenity": "school",
        "name": "Hymamshu Jyoti Kala Peetha"
      }
    },
    {
      "type": "way",
      "id": 1084220447,
      "center": {
        "lat": 13.0058093,
        "lon": 77.5694388
      },
      "tags": {
        "amenity": "hospital",
        "check_date": "2024-05-12",
        "healthcare": "hospital"
      }
    },
    {
      "type": "way",
      "id": 1087700050,
      "center": {
        "lat": 13.0178863,
        "lon": 77.5584179
      },
      "tags": {
        "amenity": "police",
        "name": "Yeshwantpura Police Station",
        "name:kn": "ಆರಕ್ಷಕ ಠಾಣೆ"
      }
    },
    {
      "type": "way",
      "id": 1095561489,
      "center": {
        "lat": 13.0115155,
        "lon": 77.5620339
      },
      "tags": {
        "leisure": "park"
      }
    },
    {
      "type": "way",
      "id": 1095561499,
      "center": {
        "lat": 13.0145311,
        "lon": 77.5596563
      },
      "tags": {
        "amenity": "place_of_worship",
        "religion": "hindu"
      }
    },
    {
      "type": "way",
      "id": 1095561501,
      "center": {
        "lat": 13.0151199,
        "lon": 77.5600013
      },
      "tags": {
        "amenity": "hospital",
        "healthcare": "hospital",
        "name": "ESI Hospital Malleshwaram Branch",
        "operator": "Employees' State Insurance",
        "operator:short": "ESI",
        "operator:wikidata": "Q3595726"
      }
    },
    {
      "type": "way",
      "id": 1095561506,
      "center": {
        "lat": 13.0171567,
        "lon": 77.5574362
      },
      "tags": {
        "leisure": "park"
      }
    },
    {
      "type": "way",
      "id": 1095561513,
      "center": {
        "lat": 13.0079039,
        "lon": 77.5601513
      },
      "tags": {
        "amenity": "place_of_worship",
        "religion": "hindu"
      }
    },
    {
      "type": "way",
      "id": 1106402209,
      "center": {
        "lat": 13.0118146,
        "lon": 77.5686496
      },
      "tags": {
        "amenity": "fast_food",
        "brand": "Indira Canteen",
        "brand:wikidata": "Q36164828",
        "cuisine": "south_indian",
        "name": "Indira Canteen",
        "operator": "BBMP",
        "takeaway": "yes"
      }
    },
    {
      "type": "way",
      "id": 1192839115,
      "center": {
        "lat": 13.0145044,
        "lon": 77.5608492
      },
      "tags": {
        "amenity": "theatre",
        "name": "Raja Ramannah Students Activities Centre",
        "operator": "IISc",
        "theatre:type": "amphi"
      }
    },
    {
      "type": "way",
      "id": 1208264453,
      "center": {
        "lat": 13.0005419,
        "lon": 77.571376
      },
      "tags": {
        "amenity": "parking",
        "fee": "no",
        "parking": "street_side"
      }
    },
    {
      "type": "way",
      "id": 1208264460,
      "center": {
        "lat": 13.0013765,
        "lon": 77.5711772
      },
      "tags": {
        "building": "yes",
        "name": "Titan",
        "repair": "only",
        "shop": "watches"
      }
    },
    {
      "type": "way",
      "id": 1208264476,
      "center": {
        "lat": 13.0025117,
        "lon": 77.5711711
      },
      "tags": {
        "amenity": "place_of_worship",
        "building": "yes",
        "religion": "hindu"
      }
    },
    {
      "type": "way",
      "id": 1208264478,
      "center": {
        "lat": 13.0029887,
        "lon": 77.5712982
      },
      "tags": {
        "amenity": "motorcycle_parking",
        "fee": "no",
        "parking": "street_side",
        "surface": "paving_stones"
      }
    },
    {
      "type": "way",
      "id": 1208264483,
      "center": {
        "lat": 13.0035811,
        "lon": 77.5711054
      },
      "tags": {
        "addr:street": "Sampige Road",
        "building": "yes",
        "name": "Cauvery Opticals",
        "shop": "optician"
      }
    },
    {
      "type": "way",
      "id": 1208264484,
      "center": {
        "lat": 13.0036522,
        "lon": 77.5711012
      },
      "tags": {
        "addr:city": "Bengaluru",
        "addr:postcode": "560003",
        "addr:street": "13th Cross, Sampige Rd, next to Flower Market, Malleshwaram",
        "building": "yes",
        "name": "Dreamgirl Clothings",
        "shop": "clothes"
      }
    },
    {
      "type": "way",
      "id": 1208264493,
      "center": {
        "lat": 13.0055951,
        "lon": 77.5710599
      },
      "tags": {
        "addr:city": "Malleshwaram,Bangalore",
        "addr:district": "Bengaluru Urban",
        "addr:housenumber": "231",
        "addr:street": "Sampige Road",
        "amenity": "bank",
        "brand": "Karur Vysya Bank",
        "brand:wikidata": "Q6373724",
        "building": "yes",
        "name": "Karur Vysya Bank"
      }
    },
    {
      "type": "way",
      "id": 1208317245,
      "center": {
        "lat": 13.0104536,
        "lon": 77.568618
      },
      "tags": {
        "leisure": "garden"
      }
    },
    {
      "type": "way",
      "id": 1210469170,
      "center": {
        "lat": 13.0045159,
        "lon": 77.5612959
      },
      "tags": {
        "amenity": "place_of_worship",
        "religion": "hindu"
      }
    },
    {
      "type": "way",
      "id": 1210469171,
      "center": {
        "lat": 13.0073022,
        "lon": 77.5603216
      },
      "tags": {
        "amenity": "place_of_worship",
        "check_date": "2025-01-23",
        "name": "Sri Shakti Devi Karumari",
        "religion": "hindu"
      }
    },
    {
      "type": "way",
      "id": 1215422855,
      "center": {
        "lat": 12.9995077,
        "lon": 77.5712569
      },
      "tags": {
        "addr:city": "Bengaluru",
        "addr:district": "Bengaluru Urban",
        "addr:street": "Sampige Road",
        "building": "yes",
        "name": "Westend Watch Stores",
        "shop": "watches"
      }
    },
    {
      "type": "way",
      "id": 1252541716,
      "center": {
        "lat": 13.0053691,
        "lon": 77.5639618
      },
      "tags": {
        "building": "yes",
        "charge": "400 INR",
        "fee": "yes",
        "leisure": "sports_centre",
        "name": "Bangalore Boulder",
        "sport": "climbing"
      }
    },
    {
      "type": "way",
      "id": 1257456988,
      "center": {
        "lat": 13.0032716,
        "lon": 77.5704102
      },
      "tags": {
        "amenity": "place_of_worship",
        "religion": "hindu"
      }
    },
    {
      "type": "way",
      "id": 1257456989,
      "center": {
        "lat": 13.003468,
        "lon": 77.5701107
      },
      "tags": {
        "amenity": "place_of_worship",
        "religion": "hindu"
      }
    },
    {
      "type": "way",
      "id": 1257457034,
      "center": {
        "lat": 12.9995786,
        "lon": 77.5703401
      },
      "tags": {
        "amenity": "place_of_worship",
        "brand:wikidata": "Q110086323",
        "cuisine": "burger;chicken;seitan",
        "diet:vegan": "only",
        "name": "Temple of Seitan",
        "religion": "hindu",
        "takeaway": "yes"
      }
    },
    {
      "type": "way",
      "id": 1270680786,
      "center": {
        "lat": 12.9972378,
        "lon": 77.5665789
      },
      "tags": {
        "leisure": "pitch"
      }
    },
    {
      "type": "way",
      "id": 1270680787,
      "center": {
        "lat": 12.9973154,
        "lon": 77.5667432
      },
      "tags": {
        "leisure": "pitch"
      }
    },
    {
      "type": "way",
      "id": 1270680788,
      "center": {
        "lat": 12.9971604,
        "lon": 77.5667444
      },
      "tags": {
        "leisure": "pitch"
      }
    },
    {
      "type": "way",
      "id": 1270680789,
      "center": {
        "lat": 12.9972396,
        "lon": 77.566867
      },
      "tags": {
        "leisure": "pitch"
      }
    },
    {
      "type": "way",
      "id": 1270682775,
      "center": {
        "lat": 12.9986095,
        "lon": 77.5686576
      },
      "tags": {
        "leisure": "pitch"
      }
    },
    {
      "type": "way",
      "id": 1270682776,
      "center": {
        "lat": 12.9986137,
        "lon": 77.5685895
      },
      "tags": {
        "leisure": "sports_centre"
      }
    },
    {
      "type": "way",
      "id": 1293618933,
      "center": {
        "lat": 13.0169627,
        "lon": 77.5578419
      },
      "tags": {
        "access": "private",
        "leisure": "swimming_pool"
      }
    },
    {
      "type": "way",
      "id": 1293800652,
      "center": {
        "lat": 13.0100399,
        "lon": 77.5689607
      },
      "tags": {
        "leisure": "garden"
      }
    },
    {
      "type": "way",
      "id": 1319188521,
      "center": {
        "lat": 13.0158377,
        "lon": 77.5617679
      },
      "tags": {
        "leisure": "sports_centre",
        "name": "IISc Gymkhana"
      }
    },
    {
      "type": "way",
      "id": 1319188525,
      "center": {
        "lat": 13.016376,
        "lon": 77.5611316
      },
      "tags": {
        "leisure": "pitch",
        "name": "Gymkhana Tennis Court",
        "name:kn": "ಟೆನ್ನಿಸ್ ಅಂಗಣ",
        "sport": "tennis"
      }
    },
    {
      "type": "way",
      "id": 1319188526,
      "center": {
        "lat": 13.0163522,
        "lon": 77.5604443
      },
      "tags": {
        "access": "permit",
        "leisure": "pitch",
        "lit": "no",
        "name": "Gymkhana Football Ground",
        "sport": "football",
        "surface": "artificial_turf"
      }
    },
    {
      "type": "way",
      "id": 1328311559,
      "center": {
        "lat": 13.0073522,
        "lon": 77.5653411
      },
      "tags": {
        "access": "private",
        "leisure": "swimming_pool"
      }
    },
    {
      "type": "way",
      "id": 1338319141,
      "center": {
        "lat": 12.9990821,
        "lon": 77.570339
      },
      "tags": {
        "amenity": "place_of_worship",
        "name": "Kannika Parameshwari Temple",
        "name:kn": "ಕನ್ನಿಕಾ ಪರಮೇಶ್ವರಿ ದೇವಸ್ಥಾನ",
        "religion": "hindu"
      }
    },
    {
      "type": "way",
      "id": 1339264348,
      "center": {
        "lat": 13.0068528,
        "lon": 77.5628344
      },
      "tags": {
        "leisure": "park"
      }
    },
    {
      "type": "way",
      "id": 1342091638,
      "center": {
        "lat": 13.0110109,
        "lon": 77.5622197
      },
      "tags": {
        "access": "private",
        "leisure": "swimming_pool"
      }
    },
    {
      "type": "way",
      "id": 1343018999,
      "center": {
        "lat": 13.0021184,
        "lon": 77.5702907
      },
      "tags": {
        "amenity": "school",
        "building": "yes",
        "name": "Vidya Mandir School",
        "name:kn": "ವಿದ್ಯಾ ಮಂದಿರ ಶಾಲೆ"
      }
    },
    {
      "type": "way",
      "id": 1343019000,
      "center": {
        "lat": 13.0027264,
        "lon": 77.5701799
      },
      "tags": {
        "leisure": "park"
      }
    },
    {
      "type": "way",
      "id": 1356603110,
      "center": {
        "lat": 13.0104967,
        "lon": 77.5606469
      },
      "tags": {
        "leisure": "pitch"
      }
    },
    {
      "type": "way",
      "id": 1356603111,
      "center": {
        "lat": 13.0101014,
        "lon": 77.5610037
      },
      "tags": {
        "leisure": "pitch"
      }
    },
    {
      "type": "way",
      "id": 1383521657,
      "center": {
        "lat": 13.0020146,
        "lon": 77.5630513
      },
      "tags": {
        "leisure": "park",
        "name": "Jagadhguru Shankaracharya Udyanavana"
      }
    },
    {
      "type": "way",
      "id": 1383521662,
      "center": {
        "lat": 13.0067422,
        "lon": 77.5630244
      },
      "tags": {
        "leisure": "park"
      }
    },
    {
      "type": "way",
      "id": 1383521681,
      "center": {
        "lat": 13.0099593,
        "lon": 77.567575
      },
      "tags": {
        "leisure": "playground"
      }
    },
    {
      "type": "way",
      "id": 1383521688,
      "center": {
        "lat": 13.0099567,
        "lon": 77.5675904
      },
      "tags": {
        "leisure": "park"
      }
    },
    {
      "type": "way",
      "id": 1383521703,
      "center": {
        "lat": 13.0094323,
        "lon": 77.5640174
      },
      "tags": {
        "amenity": "place_of_worship",
        "landuse": "religious",
        "name": "Sri Kashi Matha",
        "religion": "hindu"
      }
    },
    {
      "type": "way",
      "id": 1385374288,
      "center": {
        "lat": 13.0092808,
        "lon": 77.5689433
      },
      "tags": {
        "access": "private",
        "leisure": "pitch",
        "sport": "basketball"
      }
    },
    {
      "type": "way",
      "id": 1427250491,
      "center": {
        "lat": 12.9970227,
        "lon": 77.56804
      },
      "tags": {
        "amenity": "events_venue",
        "building": "commercial",
        "name": "Srikanteshwara Bhavan"
      }
    },
    {
      "type": "way",
      "id": 1427256059,
      "center": {
        "lat": 12.996912,
        "lon": 77.5679495
      },
      "tags": {
        "access": "permissive",
        "amenity": "parking",
        "parking": "street_side"
      }
    }
  ]
}