{
  "area_name": "Mangammana Palya",
  "osm_id": 19883322,
  "osm_type": "relation",
  "place_type": "administrative",
  "amenity_count": 13,
  "amenities": [
    {
      "type": "node",
      "id": 4487976019,
      "lat": 12.8987251,
      "lon": 77.6393218,
      "tags": {
        "addr:city": "bangalore",
        "addr:postcode": "560063",
        "addr:street": "194/1, Muneshwara Nagar, Behind Mmn Complex, Kattigenahalli Gate, Muneshwara Nagar, Hosapalaya, Garvebhavi Palya",
        "amenity": "pharmacy",
        "healthcare": "pharmacy",
        "name": "Yeshakeerthi Chemicals",
        "phone": "080 2847 8345"
      }
    },
    {
      "type": "node",
      "id": 6349546960,
      "lat": 12.9042134,
      "lon": 77.6350512,
      "tags": {
        "addr:place": "Mangammana Palya",
        "amenity": "school",
        "isced:level": "2",
        "name": "GUHPS Mangammana Palya",
        "name:kn": "ಸರ್ಕಾರಿ ಉರ್ದು ಹಿರಿಯ ಪ್ರಾಥಮಿಕ ಶಾಲೆ ಮಂಗಮ್ಮನ ಪಾಳ್ಯ",
        "operator": "Department of Primary and Secondary Education",
        "operator:type": "government",
        "operator:wikidata": "Q111467381",
        "school": "primary"
      }
    },
    {
      "type": "node",
      "id": 6422577408,
      "lat": 12.9050686,
      "lon": 77.6351798,
      "tags": {
        "addr:place": "Bommanahalli",
        "amenity": "school",
        "isced:level": "3",
        "name": "Al Rahi Edu Sch Bommanahalli",
        "name:kn": "ಅಲ್ ರಹಿ ಎಜುಕೇಶನ್ ಶಾಲೆ,ಬೊಮ್ಮನಹಳ್ಳಿ",
        "operator": "Private Un-Aided",
        "school": "Higher Secondary"
      }
    },
    {
      "type": "node",
      "id": 6437780198,
      "lat": 12.9013007,
      "lon": 77.6363305,
      "tags": {
        "addr:place": "BommanaHalli Cmc",
        "amenity": "school",
        "isced:level": "2",
        "name": "Tilak English School, Bommana Halli Cmc",
        "name:kn": "ತಿಲಕ್ ಆಂಗ್ಲ ಶಾಲೆ, ಬೊಮ್ಮನಹಳ್ಳಿ ಸಿ.ಎಂ.ಸಿ",
        "operator": "Private Un-Aided",
        "school": "Higher Primary"
      }
    },
    {
      "type": "node",
      "id": 12281105101,
      "lat": 12.9003661,
      "lon": 77.6397981,
      "tags": {
        "amenity": "school",
        "name": "Kidzee Pre School",
        "phone": "07619438532"
      }
    },
    {
      "type": "node",
      "id": 12281159001,
      "lat": 12.8973137,
      "lon": 77.6420611,
      "tags": {
        "name": "Gayathri Prints, Ganesh Offset Printers Bangalore",
        "phone": "09741320095",
        "shop": "printing",
        "website": "https://www.gayathriprints.com/"
      }
    },
    {
      "type": "node",
      "id": 12475405096,
      "lat": 12.9008407,
      "lon": 77.6405262,
      "tags": {
        "amenity": "restaurant",
        "name": "Mumbai Canteen"
      }
    },
    {
      "type": "node",
      "id": 12475405097,
      "lat": 12.9009812,
      "lon": 77.6400573,
      "tags": {
        "amenity": "school",
        "name": "Shubhodhini English Medium High School"
      }
    },
    {
      "type": "node",
      "id": 12475430615,
      "lat": 12.9008242,
      "lon": 77.6399197,
      "tags": {
        "amenity": "cafe",
        "name": "Desi Tea Master"
      }
    },
    {
      "type": "node",
      "id": 12475439042,
      "lat": 12.9008369,
      "lon": 77.6406211,
      "tags": {
        "name": "Karibasaveshwara Fruits and Vegetables Shop",
        "shop": "greengrocer"
      }
    },
    {
      "type": "node",
      "id": 12482490294,
      "lat": 12.9057526,
      "lon": 77.6387843,
      "tags": {
        "name": "North East Store",
        "shop": "convenience"
      }
    },
    {
      "type": "way",
      "id": 1254749649,
      "center": {
        "lat": 12.902166,
        "lon": 77.6396091
      },
      "tags": {
        "leisure": "park"
      }
    },
    {
      "type": "way",
      "id": 1348689004,
      "center": {
        "lat": 12.9031061,
        "lon": 77.6369758
      },
      "tags": {
        "amenity": "school"
      }
    }
  ]
}