{
  "area_name": "Manorayanapalya",
  "osm_id": 19883260,
  "osm_type": "relation",
  "place_type": "administrative",
  "amenity_count": 40,
  "amenities": [
    {
      "type": "node",
      "id": 1370777379,
      "lat": 13.0303875,
      "lon": 77.6079607,
      "tags": {
        "brand": "Reliance Fresh",
        "brand:wikidata": "Q7311014",
        "name": "Reliance Fresh",
        "name:kn": "ರಿಲಾಯನ್ಸ್ ಫ್ರೆಶ್",
        "shop": "supermarket"
      }
    },
    {
      "type": "node",
      "id": 2125939660,
      "lat": 13.0318249,
      "lon": 77.6084004,
      "tags": {
        "amenity": "atm",
        "fee": "no",
        "operator": "ICICI Bank"
      }
    },
    {
      "type": "node",
      "id": 4386500118,
      "lat": 13.0274345,
      "lon": 77.6042708,
      "tags": {
        "name": "Shukrutha Chicken Center",
        "shop": "butcher"
      }
    },
    {
      "type": "node",
      "id": 4386500119,
      "lat": 13.0276254,
      "lon": 77.6043712,
      "tags": {
        "amenity": "school",
        "name": "Mona Nursery, Primary and High School"
      }
    },
    {
      "type": "node",
      "id": 4386500120,
      "lat": 13.0276582,
      "lon": 77.604326,
      "tags": {
        "name": "Prem Fancy Store",
        "shop": "convenience"
      }
    },
    {
      "type": "node",
      "id": 4386500121,
      "lat": 13.0276805,
      "lon": 77.6043445,
      "tags": {
        "name": "Sri Vinayaka Hot Chips",
        "shop": "convenience"
      }
    },
    {
      "type": "node",
      "id": 4386500122,
      "lat": 13.0278433,
      "lon": 77.6043961,
      "tags": {
        "name": "Raghavendra Jewellery Woris",
        "shop": "jewelry"
      }
    },
    {
      "type": "node",
      "id": 4386506506,
      "lat": 13.0275314,
      "lon": 77.6042985,
      "tags": {
        "name": "MHN Jewellers",
        "shop": "jewelry"
      }
    },
    {
      "type": "node",
      "id": 4386506507,
      "lat": 13.0275936,
      "lon": 77.6043528,
      "tags": {
        "amenity": "fast_food",
        "name": "Goli Vadapav No.1"
      }
    },
    {
      "type": "node",
      "id": 4386506508,
      "lat": 13.0276513,
      "lon": 77.6043712,
      "tags": {
        "name": "Shree Sai Appliances",
        "shop": "electronics"
      }
    },
    {
      "type": "node",
      "id": 4386506509,
      "lat": 13.0276765,
      "lon": 77.6043712,
      "tags": {
        "amenity": "restaurant",
        "name": "Chitra Darshini",
        "name:kn": "ಚಿತ್ರ ದರ್ಶಿನಿ"
      }
    },
    {
      "type": "node",
      "id": 4386506510,
      "lat": 13.0276316,
      "lon": 77.604326,
      "tags": {
        "name": "Shree Basaveswara Frame Works",
        "shop": "convenience"
      }
    },
    {
      "type": "node",
      "id": 4386506511,
      "lat": 13.027842,
      "lon": 77.6044191,
      "tags": {
        "name": "PN Tools Hardware",
        "shop": "hardware"
      }
    },
    {
      "type": "node",
      "id": 4386506512,
      "lat": 13.027778,
      "lon": 77.6043901,
      "tags": {
        "craft": "tailor",
        "name": "Sangam Ladies Tailor",
        "shop": "mobile_phone"
      }
    },
    {
      "type": "node",
      "id": 4386506602,
      "lat": 13.0275985,
      "lon": 77.6043248,
      "tags": {
        "name": "Khushi Beauty Parlour",
        "shop": "cosmetics"
      }
    },
    {
      "type": "node",
      "id": 4386506603,
      "lat": 13.0277189,
      "lon": 77.6044033,
      "tags": {
        "name": "Chaitra Pan",
        "shop": "convenience"
      }
    },
    {
      "type": "node",
      "id": 4386506604,
      "lat": 13.0277645,
      "lon": 77.604407,
      "tags": {
        "name": "KGN FootWear",
        "shop": "shoes"
      }
    },
    {
      "type": "node",
      "id": 4386506605,
      "lat": 13.0277965,
      "lon": 77.604407,
      "tags": {
        "name": "A1 Mobile Service Center",
        "shop": "mobile_phone"
      }
    },
    {
      "type": "node",
      "id": 4386506606,
      "lat": 13.0278097,
      "lon": 77.6043901,
      "tags": {
        "amenity": "atm",
        "operator": "Axis Bank"
      }
    },
    {
      "type": "node",
      "id": 4386506696,
      "lat": 13.0274651,
      "lon": 77.6042813,
      "tags": {
        "name": "Durga Pan Bhandar",
        "shop": "convenience"
      }
    },
    {
      "type": "node",
      "id": 4386506697,
      "lat": 13.0275697,
      "lon": 77.6043333,
      "tags": {
        "name": "Mummy Daddy Garments",
        "shop": "clothes"
      }
    },
    {
      "type": "node",
      "id": 4386506792,
      "lat": 13.0275104,
      "lon": 77.6043235,
      "tags": {
        "amenity": "clinic",
        "name": "Anagha Polyclinic"
      }
    },
    {
      "type": "node",
      "id": 4386506793,
      "lat": 13.0275425,
      "lon": 77.6043333,
      "tags": {
        "amenity": "pharmacy",
        "name": "Anagha Pharma"
      }
    },
    {
      "type": "node",
      "id": 4386506794,
      "lat": 13.027668,
      "lon": 77.6043446,
      "tags": {
        "name": "Sleep Good Matress",
        "shop": "convenience"
      }
    },
    {
      "type": "node",
      "id": 4386506902,
      "lat": 13.0275755,
      "lon": 77.6043124,
      "tags": {
        "amenity": "cafe",
        "name": "Cool Corner"
      }
    },
    {
      "type": "node",
      "id": 4386507098,
      "lat": 13.0274094,
      "lon": 77.6042695,
      "tags": {
        "name": "Mobile Hut",
        "shop": "mobile_phone"
      }
    },
    {
      "type": "node",
      "id": 4386507099,
      "lat": 13.0278285,
      "lon": 77.6044191,
      "tags": {
        "name": "DK Kova",
        "shop": "confectionery"
      }
    },
    {
      "type": "node",
      "id": 4386507391,
      "lat": 13.0274943,
      "lon": 77.6042931,
      "tags": {
        "name": "New Lovely Trends",
        "shop": "gift"
      }
    },
    {
      "type": "node",
      "id": 4445687662,
      "lat": 13.0314172,
      "lon": 77.6043283,
      "tags": {
        "addr:city": "Bangalore",
        "addr:housenumber": "#56/2",
        "addr:postcode": "560032",
        "addr:street": "Sulthanpalya Main Road, 1st Floor,R.T.Nagar Post",
        "amenity": "pharmacy",
        "name": "Shiva Homoeo Medicals",
        "phone": "+9199165 21079"
      }
    },
    {
      "type": "node",
      "id": 4445802548,
      "lat": 13.0292674,
      "lon": 77.6045683,
      "tags": {
        "addr:city": "Bangalore",
        "addr:housenumber": "#53",
        "addr:postcode": "560032",
        "addr:street": "Sulthanpalya Main Road, 12th Cross,Manorayana Palya,",
        "amenity": "clinic",
        "name": "Synergy Health Care",
        "phone": "080500 80120",
        "source": "http://www.bangalorehospital.co.in/"
      }
    },
    {
      "type": "node",
      "id": 4445886952,
      "lat": 13.0316481,
      "lon": 77.6023154,
      "tags": {
        "addr:city": "Bangalore",
        "addr:postcode": "560032",
        "addr:street": "Sultanpalya Main Road, Near-Bus Stand, R T Nagar",
        "amenity": "hospital",
        "name": "Sanjeevini Children & Women Clinic",
        "phone": "080 2292 4422"
      }
    },
    {
      "type": "node",
      "id": 6938547661,
      "lat": 13.0289685,
      "lon": 77.6045479,
      "tags": {
        "addr:district": "Bengaluru Urban",
        "addr:full": "# 125 1st Cross Bhuwaneshwarinagar Sultanpalya Main Road R T Nagar Post",
        "addr:postcode": "560032",
        "addr:state": "Karnataka",
        "amenity": "hospital",
        "name": "Ashirwad Hospital",
        "source": "OpenGovernmentData"
      }
    },
    {
      "type": "node",
      "id": 11119061418,
      "lat": 13.0324302,
      "lon": 77.6066728,
      "tags": {
        "amenity": "place_of_worship",
        "name": "St. Alphonsa Forane Church",
        "religion": "christian"
      }
    },
    {
      "type": "node",
      "id": 11119061439,
      "lat": 13.0304639,
      "lon": 77.6080348,
      "tags": {
        "name": "Kaveri Jewellers",
        "shop": "jewelry"
      }
    },
    {
      "type": "node",
      "id": 11119061495,
      "lat": 13.029036,
      "lon": 77.6071212,
      "tags": {
        "brand": "DMart",
        "brand:wikidata": "Q5203271",
        "name": "DMart",
        "shop": "supermarket"
      }
    },
    {
      "type": "node",
      "id": 12846322963,
      "lat": 13.0292958,
      "lon": 77.6013165,
      "tags": {
        "amenity": "place_of_worship",
        "religion": "hindu"
      }
    },
    {
      "type": "way",
      "id": 1198647091,
      "center": {
        "lat": 13.0293789,
        "lon": 77.60653
      },
      "tags": {
        "access": "private",
        "leisure": "swimming_pool"
      }
    },
    {
      "type": "way",
      "id": 1387155424,
      "center": {
        "lat": 13.0301395,
        "lon": 77.6079288
      },
      "tags": {
        "amenity": "fuel",
        "brand": "Bharat Petroleum",
        "brand:wikidata": "Q854826",
        "operator": "Bharat Petroleum"
      }
    },
    {
      "type": "way",
      "id": 1387946479,
      "center": {
        "lat": 13.0291677,
        "lon": 77.6066994
      },
      "tags": {
        "access": "private",
        "leisure": "garden"
      }
    },
    {
      "type": "way",
      "id": 1387957381,
      "center": {
        "lat": 13.0318083,
        "lon": 77.6030804
      },
      "tags": {
        "amenity": "place_of_worship",
        "landuse": "religious",
        "name": "Sri Lakshmi Narasimha Swamy Temple",
        "religion": "hindu"
      }
    }
  ]
}