{
  "area_name": "Marenahalli South",
  "osm_id": 19884547,
  "osm_type": "relation",
  "place_type": "administrative",
  "amenity_count": 89,
  "amenities": [
    {
      "type": "node",
      "id": 362539259,
      "lat": 12.9141893,
      "lon": 77.5933299,
      "tags": {
        "amenity": "place_of_worship",
        "name": "Ragigudda Temple",
        "name:kn": "ರಾಗಿಗುಡ್ಡ ದೇವಸ್ತಾನ",
        "religion": "hindu"
      }
    },
    {
      "type": "node",
      "id": 1463771564,
      "lat": 12.9170955,
      "lon": 77.5905046,
      "tags": {
        "amenity": "school"
      }
    },
    {
      "type": "node",
      "id": 1464921265,
      "lat": 12.9126298,
      "lon": 77.5913594,
      "tags": {
        "addr:district": "Bengaluru Urban",
        "addr:full": "1635,17Th Main ( Near To Woody `S Hotel) 2nd Phase J.P. Nagar, Banglore",
        "addr:postcode": "560078",
        "addr:state": "Karnataka",
        "addr:street": "17th Main Road",
        "amenity": "hospital",
        "healthcare": "hospital",
        "name": "Chirag Hospital and Maternity Center",
        "source": "OpenGovernmentData"
      }
    },
    {
      "type": "node",
      "id": 1465138598,
      "lat": 12.9144392,
      "lon": 77.5858525,
      "tags": {
        "amenity": "bank",
        "atm": "yes",
        "brand": "HDFC Bank",
        "brand:wikidata": "Q631047",
        "brand:wikipedia": "en:HDFC Bank",
        "name": "HDFC Bank",
        "name:kn": "ಎಚ್ ಡಿ ಎಫ್ ಸಿ",
        "short_name": "HDFC",
        "website": "https://www.hdfcbank.com"
      }
    },
    {
      "type": "node",
      "id": 1466692902,
      "lat": 12.9104428,
      "lon": 77.590838,
      "tags": {
        "addr:housenumber": "1756",
        "addr:postcode": "560078",
        "addr:street": "18th Main Road",
        "check_date": "2025-06-21",
        "name": "Vignesh Jewellary",
        "shop": "jewelry"
      }
    },
    {
      "type": "node",
      "id": 1474797135,
      "lat": 12.9143701,
      "lon": 77.5858719,
      "tags": {
        "name": "Taaza Mitai",
        "name:kn": "ತಾಜ ಮಿಟಾಯಿ",
        "shop": "confectionery"
      }
    },
    {
      "type": "node",
      "id": 1732931230,
      "lat": 12.9116079,
      "lon": 77.58708,
      "tags": {
        "addr:street": "22nd Main",
        "amenity": "theatre",
        "name": "Ranga Shankara",
        "name:kn": "ರಂಗ ಶಂಕರ",
        "website": "http://www.rangashankara.org/",
        "wikidata": "Q7292595",
        "wikipedia": "en:Ranga Shankara"
      }
    },
    {
      "type": "node",
      "id": 1732932721,
      "lat": 12.9118641,
      "lon": 77.5867606,
      "tags": {
        "amenity": "restaurant",
        "name": "Adithya",
        "name:kn": "ಅದಿತ್ಯ"
      }
    },
    {
      "type": "node",
      "id": 1927688270,
      "lat": 12.9171903,
      "lon": 77.585952,
      "tags": {
        "amenity": "atm",
        "brand": "Standard Chartered",
        "brand:wikidata": "Q548278",
        "name": "Standard Chartered",
        "operator": "Standard Chartered",
        "operator:wikidata": "Q548278"
      }
    },
    {
      "type": "node",
      "id": 2059571642,
      "lat": 12.9164567,
      "lon": 77.5859615,
      "tags": {
        "amenity": "bank",
        "brand": "State Bank of India",
        "brand:wikidata": "Q1340361",
        "brand:wikipedia": "en:State Bank of India",
        "name": "State Bank of India",
        "name:kn": "ಮೈಸೂರು ಬ್ಯಾಂಕ್‌",
        "short_name": "SBI",
        "website": "https://www.sbi.co.in"
      }
    },
    {
      "type": "node",
      "id": 2649089253,
      "lat": 12.9168277,
      "lon": 77.5864776,
      "tags": {
        "name": "Tork Motors",
        "shop": "motorcycle"
      }
    },
    {
      "type": "node",
      "id": 2712283239,
      "lat": 12.9122652,
      "lon": 77.5937771,
      "tags": {
        "amenity": "place_of_worship",
        "name:kn": "ಮಸೀದಿ",
        "religion": "muslim"
      }
    },
    {
      "type": "node",
      "id": 2893518450,
      "lat": 12.9104004,
      "lon": 77.5947964,
      "tags": {
        "amenity": "fuel",
        "brand": "Indian Oil",
        "brand:wikidata": "Q1289348",
        "brand:wikipedia": "en:Indian Oil Corporation",
        "name": "Indian Oil Corporation",
        "name:kn": "ಇಂಡಿಯನ್ ಆಯಿಲ್"
      }
    },
    {
      "type": "node",
      "id": 2934051705,
      "lat": 12.9133572,
      "lon": 77.5859308,
      "tags": {
        "name": "Cakewala",
        "shop": "bakery"
      }
    },
    {
      "type": "node",
      "id": 2934051707,
      "lat": 12.9136768,
      "lon": 77.5859029,
      "tags": {
        "amenity": "restaurant",
        "name": "Shanthi Sagar",
        "name:kn": "ಶಾಂತಿ ಸಾಗರ"
      }
    },
    {
      "type": "node",
      "id": 2934090869,
      "lat": 12.9147454,
      "lon": 77.5859258,
      "tags": {
        "name": "Foodworld",
        "name:kn": "ಫುಡ್ ವರ್ಲ್ಡ್",
        "shop": "department_store"
      }
    },
    {
      "type": "node",
      "id": 2934090871,
      "lat": 12.9156187,
      "lon": 77.5859244,
      "tags": {
        "amenity": "bank",
        "atm": "yes",
        "brand": "Indian Overseas Bank",
        "brand:wikidata": "Q2003611",
        "brand:wikipedia": "en:Indian Overseas Bank",
        "name": "Indian Overseas Bank",
        "name:en": "Indian Overseas Bank",
        "name:kn": "ಐ ಓ ಬಿ",
        "short_name": "IOB",
        "website": "https://www.iob.in"
      }
    },
    {
      "type": "node",
      "id": 2934090872,
      "lat": 12.9152396,
      "lon": 77.585919,
      "tags": {
        "alt_name": "Kentucky Fried Chicken",
        "alt_name:en": "Kentucky Fried Chicken",
        "alt_name:hi": "केंटुकी फ्राइड चिकन",
        "alt_name:pa": "ਕੈਂਟੁਕੀ ਫ੍ਰਾਈਡ ਚਿਕਨ",
        "alt_name:pnb": "کینٹکی فرائیڈ چکن",
        "alt_name:ur": "کینٹکی فرائیڈ چکن",
        "amenity": "fast_food",
        "brand": "KFC",
        "brand:en": "KFC",
        "brand:hi": "केएफसी",
        "brand:pa": "ਕੇਐਫਸੀ",
        "brand:pnb": "کے ایف سی",
        "brand:ur": "کے ایف سی",
        "brand:wikidata": "Q524757",
        "brand:wikipedia": "en:KFC",
        "brand:wikipedia:pa": "ਕੇਐਫਸੀ",
        "brand:wikipedia:ur": "کینٹکی فرائیڈ چکن",
        "cuisine": "chicken",
        "name": "KFC",
        "name:en": "KFC",
        "name:hi": "केएफसी",
        "name:kn": "ಕೆಎಫ್‌ಸಿ",
        "name:pa": "ਕੇਐਫਸੀ",
        "name:pnb": "کے ایف سی",
        "name:ur": "کے ایف سی",
        "takeaway": "yes"
      }
    },
    {
      "type": "node",
      "id": 2934090875,
      "lat": 12.9149792,
      "lon": 77.5859134,
      "tags": {
        "name": "Viveks",
        "shop": "electronics"
      }
    },
    {
      "type": "node",
      "id": 3016052470,
      "lat": 12.9104179,
      "lon": 77.5950737,
      "tags": {
        "amenity": "bank",
        "atm": "no",
        "brand": "State Bank of India",
        "brand:wikidata": "Q1340361",
        "brand:wikipedia": "en:State Bank of India",
        "name": "State Bank of India",
        "name:kn": "ಭಾರತೀಯ ಸ್ಟೇಟ್ ಬ್ಯಾಂಕ್",
        "operator": "State Bank of India",
        "short_name": "SBI"
      }
    },
    {
      "type": "node",
      "id": 3024967813,
      "lat": 12.9179404,
      "lon": 77.5860042,
      "tags": {
        "amenity": "bank",
        "brand": "State Bank of India",
        "brand:wikidata": "Q1340361",
        "brand:wikipedia": "en:State Bank of India",
        "name": "State Bank of India",
        "name:kn": "ಭಾರತೀಯ ಸ್ಟೇಟ್ ಬ್ಯಾಂಕ್",
        "short_name": "SBI",
        "source": "survey",
        "website": "https://www.sbi.co.in"
      }
    },
    {
      "type": "node",
      "id": 3509485608,
      "lat": 12.9173321,
      "lon": 77.5893024,
      "tags": {
        "amenity": "toilets",
        "name": "Public Toilets",
        "name:kn": "ಸಾರ್ವಜನಿಕ ಶೌಚಾಲಯ"
      }
    },
    {
      "type": "node",
      "id": 4320476590,
      "lat": 12.9171866,
      "lon": 77.586079,
      "tags": {
        "amenity": "atm",
        "brand": "Kotak Mahindra Bank",
        "brand:wikidata": "Q2040404",
        "operator": "Kotak Mahindra Bank",
        "operator:wikidata": "Q2040404"
      }
    },
    {
      "type": "node",
      "id": 4321212103,
      "lat": 12.9104062,
      "lon": 77.5951099,
      "tags": {
        "amenity": "atm",
        "brand": "State Bank of India",
        "brand:wikidata": "Q1340361",
        "check_date": "2024-12-28",
        "name": "State Bank of India",
        "operator": "State Bank of India",
        "operator:wikidata": "Q1340361",
        "short_name": "SBI"
      }
    },
    {
      "type": "node",
      "id": 4360077089,
      "lat": 12.9118329,
      "lon": 77.5859133,
      "tags": {
        "amenity": "restaurant",
        "name": "Namma Adda",
        "name:kn": "ನಮ್ಮ ಅಡ್ಡ"
      }
    },
    {
      "type": "node",
      "id": 4447353516,
      "lat": 12.91032,
      "lon": 77.5935628,
      "tags": {
        "addr:city": "Bangalore",
        "addr:housenumber": "213",
        "addr:postcode": "560078",
        "addr:street": "9th Cross Road",
        "amenity": "pharmacy",
        "check_date": "2025-06-21",
        "fixme": "the name doesn't sound very pharmacy like, also there are ambulances here",
        "healthcare": "pharmacy",
        "name": "Trinity Diagnostic And Imaging Research Centre",
        "phone": "080 2658 1757",
        "source": "justdial"
      }
    },
    {
      "type": "node",
      "id": 4487982290,
      "lat": 12.9167204,
      "lon": 77.5864519,
      "tags": {
        "addr:city": "Bangalore",
        "addr:housenumber": "664",
        "addr:postcode": "560041",
        "addr:street": "11th A Main Rd, 4th T Block East, Pattabhirama Nagar, Jayanagara Jaya Nagar",
        "name": "Hercules Sport International",
        "opening_hours": "Mo-Sa 09:00-17:00; Su off",
        "phone": "+919741095147",
        "shop": "sports"
      }
    },
    {
      "type": "node",
      "id": 4488103616,
      "lat": 12.9116408,
      "lon": 77.5860843,
      "tags": {
        "addr:city": "bangalore",
        "addr:housenumber": "1",
        "addr:postcode": "560078",
        "addr:street": "Sudarsanamma Arcade Opp R.V.Dental Collage J.P., Marenahalli, 2nd Phase, JP Nagar",
        "check_date": "2023-11-01",
        "name": "SportsBunke.in",
        "opening_hours": "10:30-21:00",
        "phone": "080 4123 3530",
        "shop": "sports",
        "wheelchair": "no"
      }
    },
    {
      "type": "node",
      "id": 4621580989,
      "lat": 12.9114527,
      "lon": 77.5870878,
      "tags": {
        "amenity": "cafe",
        "name": "Ranga Shankara Cafe",
        "name:en": "Ranga Shankara Cafe"
      }
    },
    {
      "type": "node",
      "id": 5265620513,
      "lat": 12.9168645,
      "lon": 77.5859473,
      "tags": {
        "amenity": "restaurant",
        "cuisine": "indian",
        "name": "Hyderabad Biryani"
      }
    },
    {
      "type": "node",
      "id": 6083081071,
      "lat": 12.9122707,
      "lon": 77.5860983,
      "tags": {
        "amenity": "restaurant",
        "name": "Chulha Chauki da Dhaba"
      }
    },
    {
      "type": "node",
      "id": 6083129849,
      "lat": 12.9121661,
      "lon": 77.586287,
      "tags": {
        "amenity": "ice_cream",
        "name": "Apsara IceCreams"
      }
    },
    {
      "type": "node",
      "id": 6349326162,
      "lat": 12.9179833,
      "lon": 77.5903119,
      "tags": {
        "addr:place": "Jayanagar",
        "amenity": "school",
        "isced:level": "2",
        "name": "Kumarans HPS Jayanagar",
        "name:kn": "ಕುಮಾರನ್ಸ್ ಹಿರಿಯ ಪ್ರಾಥಮಿಕ ಶಾಲೆ ಜಯನಗರ",
        "operator": "Pvt. Aided",
        "school": "primary"
      }
    },
    {
      "type": "node",
      "id": 6491957990,
      "lat": 12.9123405,
      "lon": 77.5913841,
      "tags": {
        "amenity": "cafe",
        "name": "Vidya Cafe"
      }
    },
    {
      "type": "node",
      "id": 10032026858,
      "lat": 12.9142714,
      "lon": 77.5859736,
      "tags": {
        "amenity": "restaurant",
        "name": "Terrace by House of Commons"
      }
    },
    {
      "type": "node",
      "id": 10728055706,
      "lat": 12.9143171,
      "lon": 77.5870237,
      "tags": {
        "amenity": "theatre",
        "contact:facebook": "artkhoj",
        "contact:instagram": "artkhoj",
        "contact:linkedin": "artkhoj",
        "name": "Artkhoj",
        "website": "https://linktr.ee/Artkhoj"
      }
    },
    {
      "type": "node",
      "id": 10763481568,
      "lat": 12.9105942,
      "lon": 77.5896147,
      "tags": {
        "amenity": "cafe",
        "contact:instagram": "thekind.india",
        "cuisine": "coffee_shop",
        "delivery": "yes",
        "email": "thekindindia@gmail.com",
        "name": "The Kind Roastery and Brewroom",
        "phone": "+91 08042112800",
        "takeaway": "yes",
        "website": "https://thekindindia.com/"
      }
    },
    {
      "type": "node",
      "id": 10792812732,
      "lat": 12.916836,
      "lon": 77.5861178,
      "tags": {
        "name": "Varam Jewels",
        "shop": "jewelry"
      }
    },
    {
      "type": "node",
      "id": 10792812733,
      "lat": 12.9168694,
      "lon": 77.5861828,
      "tags": {
        "name": "Kumaran Silk",
        "shop": "clothes"
      }
    },
    {
      "type": "node",
      "id": 10854298569,
      "lat": 12.9168184,
      "lon": 77.5866576,
      "tags": {
        "name": "YLG",
        "shop": "beauty"
      }
    },
    {
      "type": "node",
      "id": 10854298570,
      "lat": 12.9172445,
      "lon": 77.5859816,
      "tags": {
        "amenity": "fast_food",
        "name": "Bombay Kulfi and Rabdi"
      }
    },
    {
      "type": "node",
      "id": 11279857429,
      "lat": 12.9167942,
      "lon": 77.5869781,
      "tags": {
        "name": "The Ooty Chocolates",
        "shop": "chocolate"
      }
    },
    {
      "type": "node",
      "id": 11303765887,
      "lat": 12.9116875,
      "lon": 77.5859426,
      "tags": {
        "check_date": "2023-11-01",
        "clothes": "lingerie",
        "name": "Van Heusen Inner Wear",
        "shop": "clothes",
        "wheelchair": "no"
      }
    },
    {
      "type": "node",
      "id": 11303771924,
      "lat": 12.9105758,
      "lon": 77.5880187,
      "tags": {
        "amenity": "restaurant",
        "check_date": "2023-11-01",
        "name": "Baba Punjabi"
      }
    },
    {
      "type": "node",
      "id": 11309805463,
      "lat": 12.9168572,
      "lon": 77.5860216,
      "tags": {
        "check_date": "2023-11-03",
        "name": "Giri",
        "shop": "religion"
      }
    },
    {
      "type": "node",
      "id": 11394086046,
      "lat": 12.9171936,
      "lon": 77.586517,
      "tags": {
        "check_date": "2023-12-04",
        "name": "Atelier",
        "shop": "clothes"
      }
    },
    {
      "type": "node",
      "id": 11618125610,
      "lat": 12.9105694,
      "lon": 77.5892499,
      "tags": {
        "contact:instagram": "harleysfinebaking",
        "email": "care@harleys.in",
        "name": "Harley's Fine Baking",
        "shop": "pastry",
        "website": "https://www.harleys.in"
      }
    },
    {
      "type": "node",
      "id": 12067827169,
      "lat": 12.9136597,
      "lon": 77.5862704,
      "tags": {
        "amenity": "music_school",
        "name": "Shubham School of Performing Arts"
      }
    },
    {
      "type": "node",
      "id": 12461000331,
      "lat": 12.9119682,
      "lon": 77.5860142,
      "tags": {
        "amenity": "pub",
        "contact:instagram": "senditbob",
        "delivery": "yes",
        "name": "Bob's Bar",
        "takeaway": "yes",
        "toilets": "yes"
      }
    },
    {
      "type": "node",
      "id": 12609959246,
      "lat": 12.9104282,
      "lon": 77.5910714,
      "tags": {
        "amenity": "fast_food",
        "check_date": "2025-02-22",
        "name": "Trot - The Republic of Taste"
      }
    },
    {
      "type": "node",
      "id": 12941883828,
      "lat": 12.9103445,
      "lon": 77.5949151,
      "tags": {
        "building": "kiosk",
        "check_date": "2025-06-21",
        "contact:phone": "+91 98863 37871",
        "fixme": "unsure if this is the most appropriate tag",
        "name": "Puncture Star Services",
        "shop": "tyres"
      }
    },
    {
      "type": "node",
      "id": 12941883829,
      "lat": 12.9103658,
      "lon": 77.5946245,
      "tags": {
        "check_date": "2025-06-21",
        "name": "Big Bear Customs",
        "shop": "motorcycle_repair"
      }
    },
    {
      "type": "node",
      "id": 12941883830,
      "lat": 12.910312,
      "lon": 77.5939578,
      "tags": {
        "addr:floor": "0",
        "amenity": "school",
        "check_date": "2025-06-21",
        "level": "0",
        "name": "Community Learning Center"
      }
    },
    {
      "type": "node",
      "id": 12941883831,
      "lat": 12.9103115,
      "lon": 77.5937865,
      "tags": {
        "check_date": "2025-06-21",
        "shop": "butcher"
      }
    },
    {
      "type": "node",
      "id": 12941883832,
      "lat": 12.9103017,
      "lon": 77.5937162,
      "tags": {
        "check_date": "2025-06-21",
        "shop": "motorcycle_repair"
      }
    },
    {
      "type": "node",
      "id": 12941883835,
      "lat": 12.9103547,
      "lon": 77.5925251,
      "tags": {
        "amenity": "pub",
        "check_date": "2025-06-21",
        "name": "Isobar & Pub"
      }
    },
    {
      "type": "node",
      "id": 12941883836,
      "lat": 12.9103585,
      "lon": 77.5923714,
      "tags": {
        "amenity": "events_venue",
        "check_date": "2025-06-21",
        "description": "A/C party hall",
        "name": "JP Palace"
      }
    },
    {
      "type": "node",
      "id": 12941883838,
      "lat": 12.9104027,
      "lon": 77.5919875,
      "tags": {
        "check_date": "2025-06-21",
        "shop": "motorcycle_repair"
      }
    },
    {
      "type": "node",
      "id": 12941883840,
      "lat": 12.9104422,
      "lon": 77.5915328,
      "tags": {
        "brand": "cult.fit",
        "brand:wikidata": "Q121289250",
        "check_date": "2025-06-21",
        "leisure": "fitness_centre",
        "name": "cult.fit"
      }
    },
    {
      "type": "node",
      "id": 12941883841,
      "lat": 12.9104021,
      "lon": 77.5915317,
      "tags": {
        "check_date": "2025-06-21",
        "name": "100 Pipers",
        "shop": "alcohol"
      }
    },
    {
      "type": "node",
      "id": 12941883842,
      "lat": 12.9103984,
      "lon": 77.5914952,
      "tags": {
        "check_date": "2025-06-21",
        "shop": "laundry"
      }
    },
    {
      "type": "node",
      "id": 12941883843,
      "lat": 12.9105092,
      "lon": 77.5911399,
      "tags": {
        "amenity": "prep_school",
        "check_date": "2025-06-21"
      }
    },
    {
      "type": "node",
      "id": 12941883845,
      "lat": 12.9104408,
      "lon": 77.5905547,
      "tags": {
        "check_date": "2025-06-21",
        "name": "Mamta Super Bazar",
        "shop": "convenience"
      }
    },
    {
      "type": "node",
      "id": 12941883846,
      "lat": 12.9104467,
      "lon": 77.5904839,
      "tags": {
        "check_date": "2025-06-21",
        "name": "SRK Silks & Sarees",
        "shop": "clothes"
      }
    },
    {
      "type": "node",
      "id": 12941883847,
      "lat": 12.9104874,
      "lon": 77.5903305,
      "tags": {
        "check_date": "2025-06-21",
        "name": "Glow Dry Cleaners",
        "shop": "dry_cleaning"
      }
    },
    {
      "type": "node",
      "id": 12941883848,
      "lat": 12.9104811,
      "lon": 77.5903009,
      "tags": {
        "check_date": "2025-06-21",
        "name": "Premium Optical Studio",
        "shop": "optician"
      }
    },
    {
      "type": "node",
      "id": 12941883849,
      "lat": 12.9104754,
      "lon": 77.5902245,
      "tags": {
        "check_date": "2025-06-21",
        "name": "Sarah Home Decor",
        "shop": "interior_decoration"
      }
    },
    {
      "type": "node",
      "id": 13070296259,
      "lat": 12.9172779,
      "lon": 77.5885297,
      "tags": {
        "access": "yes",
        "amenity": "motorcycle_parking",
        "capacity": "220",
        "fee": "yes",
        "name": "Ragigudda Metro Parking",
        "operator": "BMRCL",
        "parking": "surface"
      }
    },
    {
      "type": "node",
      "id": 13156003426,
      "lat": 12.9125899,
      "lon": 77.5905613,
      "tags": {
        "addr:floor": "G",
        "check_date": "2025-09-19",
        "level": "0",
        "shop": "tailor"
      }
    },
    {
      "type": "node",
      "id": 13164727387,
      "lat": 12.9125899,
      "lon": 77.5905613,
      "tags": {
        "addr:floor": "G",
        "check_date": "2025-09-19",
        "level": "0",
        "shop": "tailor"
      }
    },
    {
      "type": "way",
      "id": 133134238,
      "center": {
        "lat": 12.9121793,
        "lon": 77.5908618
      },
      "tags": {
        "designation": "Senior Citizens Park",
        "leisure": "park",
        "name": "Senior Citizen Park",
        "name:kn": "ಹಿರಿಯ ನಾಗರಿಕರ ಉದ್ಯಾನ"
      }
    },
    {
      "type": "way",
      "id": 162258166,
      "center": {
        "lat": 12.9173272,
        "lon": 77.5891568
      },
      "tags": {
        "amenity": "bus_station",
        "building": "roof",
        "bus": "yes",
        "name": "Atal Bihari Vajpayee Bus Stand",
        "name:etymology:wikidata": "Q233289",
        "name:kn": "ಬಸ್ ನಿಲ್ದಾಣ",
        "public_transport": "station"
      }
    },
    {
      "type": "way",
      "id": 347177169,
      "center": {
        "lat": 12.9115629,
        "lon": 77.5874941
      },
      "tags": {
        "amenity": "place_of_worship",
        "building": "yes",
        "name": "Sai Gitanjali Seva Kshethra",
        "name:kn": "ಸಾಯಿ ಗೀತಾಂಜಲಿ ಸೇವಾ ಕ್ಷೇತ್ರ",
        "religion": "hindu"
      }
    },
    {
      "type": "way",
      "id": 347236620,
      "center": {
        "lat": 12.9118515,
        "lon": 77.5875409
      },
      "tags": {
        "amenity": "police",
        "building": "yes",
        "name": "JP Nagar Police Station",
        "name:kn": "ಜಯಪ್ರಕಾಶ ನಗರ ಆರಕ್ಷಕ ಟಾಣೆ"
      }
    },
    {
      "type": "way",
      "id": 348475515,
      "center": {
        "lat": 12.9127766,
        "lon": 77.5903657
      },
      "tags": {
        "addr:city": "Bengaluru",
        "addr:postcode": "560078",
        "addr:street": "4th Cross",
        "amenity": "place_of_worship",
        "building": "yes",
        "name": "Munneswara Temple",
        "name:kn": "ಮುನ್ನೇಶ್ವರ ದೇವಸ್ಥಾನ",
        "religion": "hindu"
      }
    },
    {
      "type": "way",
      "id": 348498473,
      "center": {
        "lat": 12.9147118,
        "lon": 77.59407
      },
      "tags": {
        "addr:place": "Gurappanapalya",
        "amenity": "school",
        "building": "yes",
        "isced:level": "2",
        "name": "Ragigudda Sri Prasanna Anjaneya Gurappanapalya",
        "name:kn": "ರಾಗಿಗುಡ್ಡ ಶ್ರೀಪ್ರಸನ್ನಆಂಜನೇಯ ಗುರಪ್ಪನಪಾಳ್ಯ",
        "operator": "Pvt. Aided",
        "school": "primary"
      }
    },
    {
      "type": "way",
      "id": 348498733,
      "center": {
        "lat": 12.9108238,
        "lon": 77.5859953
      },
      "tags": {
        "amenity": "place_of_worship",
        "building": "yes",
        "name": "Durga Parameshwari Temple",
        "name:kn": "ದುರ್ಗಾ ಪರಮೇಶ್ವರಿ ದೇವಸ್ತಾನ",
        "religion": "hindu"
      }
    },
    {
      "type": "way",
      "id": 350578129,
      "center": {
        "lat": 12.9118422,
        "lon": 77.5870665
      },
      "tags": {
        "addr:postcode": "560067",
        "amenity": "post_office",
        "building": "yes",
        "name": "JP Nagar Post Office",
        "name:kn": "ಅಂಚೆ ಕಛೇರಿ",
        "operator": "India Post",
        "operator:wikidata": "Q3519720"
      }
    },
    {
      "type": "way",
      "id": 544749518,
      "center": {
        "lat": 12.9130946,
        "lon": 77.59031
      },
      "tags": {
        "leisure": "playground",
        "name": "BBMP Park",
        "name:kn": "ಬೃ. ಬೆ. ಮ. ಪಾ. ಉದ್ಯಾನವನ"
      }
    },
    {
      "type": "way",
      "id": 1080541309,
      "center": {
        "lat": 12.9175596,
        "lon": 77.5896916
      },
      "tags": {
        "amenity": "place_of_worship",
        "religion": "hindu"
      }
    },
    {
      "type": "way",
      "id": 1157395073,
      "center": {
        "lat": 12.9129034,
        "lon": 77.5938603
      },
      "tags": {
        "leisure": "park"
      }
    },
    {
      "type": "way",
      "id": 1157395074,
      "center": {
        "lat": 12.9122543,
        "lon": 77.5928722
      },
      "tags": {
        "leisure": "park"
      }
    },
    {
      "type": "way",
      "id": 1157395075,
      "center": {
        "lat": 12.913857,
        "lon": 77.5925644
      },
      "tags": {
        "addr:city": "Bengaluru",
        "addr:district": "Bengaluru Urban",
        "addr:postcode": "560078",
        "addr:street": "16th A Main Road, KSRTC Layout, 2nd Phase, J. P. Nagar",
        "amenity": "place_of_worship",
        "landuse": "religious",
        "name": "Sri Lakshmi Narayana Temple",
        "religion": "hindu"
      }
    },
    {
      "type": "way",
      "id": 1217375996,
      "center": {
        "lat": 12.9157593,
        "lon": 77.5881093
      },
      "tags": {
        "leisure": "park"
      }
    },
    {
      "type": "way",
      "id": 1217375997,
      "center": {
        "lat": 12.9155936,
        "lon": 77.5878253
      },
      "tags": {
        "amenity": "place_of_worship",
        "religion": "hindu"
      }
    },
    {
      "type": "way",
      "id": 1217375998,
      "center": {
        "lat": 12.9162232,
        "lon": 77.5890151
      },
      "tags": {
        "addr:district": "Bengaluru Urban",
        "addr:full": "JP Nagar, Bengaluru",
        "addr:postcode": "560078",
        "addr:state": "Karnataka",
        "amenity": "hospital",
        "healthcare": "hospital",
        "name": "Jnana Sanjeevini",
        "name:kn": "ಜ್ಞಾನ ಸಂಜೀವಿನಿ",
        "source": "Local Knowledge"
      }
    },
    {
      "type": "way",
      "id": 1219837013,
      "center": {
        "lat": 12.9109677,
        "lon": 77.5873007
      },
      "tags": {
        "addr:full": "9th Cross, 2nd Phase, J.P.Nagar, Bangalore India 560078",
        "amenity": "school",
        "email": "office@innisfreehouseschool.com",
        "name": "Innisfree House School",
        "phone": "+91 80 2659 7110",
        "school:gender": "mixed",
        "website": "https://innisfreehouseschool.com/",
        "wikidata": "Q15228708",
        "wikipedia": "en:Innisfree House School"
      }
    },
    {
      "type": "way",
      "id": 1422508817,
      "center": {
        "lat": 12.9199075,
        "lon": 77.5893109
      },
      "tags": {
        "amenity": "place_of_worship",
        "building": "yes",
        "name": "Saibaba Temple",
        "name:kn": "ಸಾಯಿಬಾಬಾ ದೇವಸ್ಥಾನ",
        "religion": "hindu"
      }
    },
    {
      "type": "way",
      "id": 1422508818,
      "center": {
        "lat": 12.9197507,
        "lon": 77.5891587
      },
      "tags": {
        "amenity": "community_centre",
        "community_centre": "community_hall",
        "landuse": "commercial",
        "name": "GNR Kalyana Mantapa",
        "name:en": "GNR Kalyana Mantapa"
      }
    }
  ]
}