{
  "area_name": "Medahalli",
  "osm_id": 19883498,
  "osm_type": "relation",
  "place_type": "administrative",
  "amenity_count": 33,
  "amenities": [
    {
      "type": "node",
      "id": 1364096477,
      "lat": 13.0263921,
      "lon": 77.7213783,
      "tags": {
        "amenity": "fuel",
        "brand": "Bharat Petroleum",
        "brand:wikidata": "Q854826",
        "name": "Bharat Petroleum"
      }
    },
    {
      "type": "node",
      "id": 4239039512,
      "lat": 13.0153735,
      "lon": 77.709498,
      "tags": {
        "name": "New Luxury Furniture",
        "shop": "furniture"
      }
    },
    {
      "type": "node",
      "id": 4239061089,
      "lat": 13.0153898,
      "lon": 77.7093102,
      "tags": {
        "amenity": "atm",
        "brand": "State Bank of India",
        "brand:wikidata": "Q1340361",
        "name": "State Bank of India",
        "operator": "State Bank of India",
        "operator:wikidata": "Q1340361",
        "short_name": "SBI"
      }
    },
    {
      "type": "node",
      "id": 4239061289,
      "lat": 13.0152695,
      "lon": 77.7093221,
      "tags": {
        "amenity": "bank",
        "brand": "State Bank of India",
        "brand:wikidata": "Q1340361",
        "brand:wikipedia": "en:State Bank of India",
        "name": "State Bank of India",
        "name:kn": "ಭಾರತೀಯ ಸ್ಟೇಟ್ ಬ್ಯಾಂಕ್",
        "short_name": "SBI"
      }
    },
    {
      "type": "node",
      "id": 4422461693,
      "lat": 13.0176379,
      "lon": 77.7059323,
      "tags": {
        "addr:street": "Old Madras Road",
        "amenity": "fast_food",
        "brand": "Domino's",
        "brand:ks": "ڈومینوز",
        "brand:pa": "ਡੋਮੀਨੋਜ਼",
        "brand:ur": "ڈومینوز",
        "brand:wikidata": "Q839466",
        "brand:wikipedia": "en:Domino's Pizza",
        "cuisine": "pizza",
        "name": "Domino's",
        "name:ks": "ڈومینوز",
        "name:pa": "ਡੋਮੀਨੋਜ਼",
        "name:ur": "ڈومینوز",
        "takeaway": "yes"
      }
    },
    {
      "type": "node",
      "id": 4445183934,
      "lat": 13.0158543,
      "lon": 77.7033173,
      "tags": {
        "addr:city": "Bengaluru",
        "addr:housenumber": "53",
        "addr:postcode": "560049",
        "addr:street": "Near Sathya Sai Lake Side Hospital, 3rd Main, Vinayaka Layout, Old Madras Road, Battarahalli, K.R. Puram, Vidya Nagar, Krishnarajapuram",
        "amenity": "hospital",
        "name": "Thyrocare",
        "phone": "080 6568 0365"
      }
    },
    {
      "type": "node",
      "id": 4528688848,
      "lat": 13.0144549,
      "lon": 77.7010779,
      "tags": {
        "addr:city": "Bangalore",
        "addr:postcode": "560036",
        "amenity": "restaurant",
        "name": "K.R Hotel"
      }
    },
    {
      "type": "node",
      "id": 4689872196,
      "lat": 13.0215807,
      "lon": 77.7128053,
      "tags": {
        "addr:district": "Bengaluru Urban",
        "addr:full": "Road , Casross Opposite Tc Palya Bus Store Old Madars Road",
        "addr:postcode": "560049",
        "addr:state": "Karnataka",
        "amenity": "hospital",
        "name": "Sathya Sai Lake Side Ortho Hospital",
        "name:en": "Satya Sai",
        "source": "OpenGovernmentData"
      }
    },
    {
      "type": "node",
      "id": 6938868536,
      "lat": 13.0103817,
      "lon": 77.7064115,
      "tags": {
        "addr:district": "Bengaluru Urban",
        "addr:full": "01,17Th Cross, 2nd Stage, Near Gayathri Temple, Gayathri Layout, Basavanapura Main Pura Road, K.R. Pura",
        "addr:postcode": "560034",
        "addr:state": "Karnataka",
        "amenity": "clinic",
        "name": "Shankar Nursing Home and Diagnostic Labratory",
        "opening_hours": "PH,Mo-Su 07:00-22:00",
        "source": "OpenGovernmentData"
      }
    },
    {
      "type": "node",
      "id": 7202935809,
      "lat": 13.0164321,
      "lon": 77.7169887,
      "tags": {
        "addr:district": "Bangalore",
        "addr:full": "Seegehalli, Virgonagara Post",
        "addr:postcode": "560049",
        "addr:state": "Karnataka",
        "addr:subdistrict": "Bangalore East",
        "amenity": "hospital",
        "name": "Seegehalli Government Hospital",
        "name:kn": "ಸೀಗೇಹಳ್ಳಿ ಸರ್ಕಾರಿ ಆಸ್ಪತ್ರೆ",
        "source": "OpenGovernmentData"
      }
    },
    {
      "type": "node",
      "id": 7572131853,
      "lat": 13.0134827,
      "lon": 77.7090081,
      "tags": {
        "addr:district": "Bengaluru Urban",
        "addr:full": "Gayathri Layout, Krishnarajapura, Bengaluru",
        "addr:postcode": "560036",
        "addr:state": "Karnataka",
        "amenity": "dentist",
        "name": "Indira Sai Dental Care",
        "source": "Local Knowledge"
      }
    },
    {
      "type": "node",
      "id": 7572131856,
      "lat": 13.010207,
      "lon": 77.707804,
      "tags": {
        "addr:district": "Bengaluru Urban",
        "addr:full": "Basavanapura Main Road, Krishnarajapura, Bengaluru",
        "addr:postcode": "560036",
        "addr:state": "Karnataka",
        "amenity": "clinic",
        "name": "Tirumala Newborn Kids and Ortho Clinic",
        "source": "Local Knowledge"
      }
    },
    {
      "type": "node",
      "id": 7572131896,
      "lat": 13.0112993,
      "lon": 77.7058751,
      "tags": {
        "addr:district": "Bengaluru Urban",
        "addr:full": "Chikkabasavanapura, Krishnarajapura, Bengaluru",
        "addr:postcode": "560036",
        "addr:state": "Karnataka",
        "amenity": "clinic",
        "name": "Dr. Mohan Babu's Clinic",
        "source": "Local Knowledge"
      }
    },
    {
      "type": "node",
      "id": 13062869379,
      "lat": 13.0155071,
      "lon": 77.702372,
      "tags": {
        "brand": "Cromā",
        "brand:wikidata": "Q5187683",
        "name": "Cromā",
        "shop": "electronics"
      }
    },
    {
      "type": "node",
      "id": 13062869380,
      "lat": 13.0153771,
      "lon": 77.7021292,
      "tags": {
        "amenity": "cafe",
        "brand": "Chai Point",
        "brand:wikidata": "Q28173415",
        "cuisine": "coffee_shop",
        "name": "Chai Point",
        "takeaway": "yes"
      }
    },
    {
      "type": "node",
      "id": 13062869381,
      "lat": 13.0152255,
      "lon": 77.7018342,
      "tags": {
        "addr:city": "Bengaluru",
        "addr:country": "IN",
        "amenity": "cafe",
        "brand": "Starbucks",
        "brand:wikidata": "Q37158",
        "cuisine": "coffee_shop",
        "name": "Starbucks",
        "official_name": "Starbucks Coffee",
        "takeaway": "yes"
      }
    },
    {
      "type": "node",
      "id": 13183384729,
      "lat": 13.0180222,
      "lon": 77.7091335,
      "tags": {
        "access": "private",
        "amenity": "parking_entrance"
      }
    },
    {
      "type": "node",
      "id": 13183384731,
      "lat": 13.0179505,
      "lon": 77.7091465,
      "tags": {
        "access": "private",
        "amenity": "parking_entrance"
      }
    },
    {
      "type": "node",
      "id": 13183384735,
      "lat": 13.0189286,
      "lon": 77.7088958,
      "tags": {
        "access": "private",
        "amenity": "parking_entrance"
      }
    },
    {
      "type": "node",
      "id": 13183384737,
      "lat": 13.0188653,
      "lon": 77.7089194,
      "tags": {
        "access": "private",
        "amenity": "parking_entrance"
      }
    },
    {
      "type": "way",
      "id": 252087030,
      "center": {
        "lat": 13.0110681,
        "lon": 77.7048023
      },
      "tags": {
        "addr:city": "K R Puram, Bangalore",
        "amenity": "school",
        "name": "Cambridge School",
        "name:kn": "ಕೇಂಬ್ರಿಜ್ ಶಾಲೆ"
      }
    },
    {
      "type": "way",
      "id": 346506903,
      "center": {
        "lat": 13.0105307,
        "lon": 77.7046644
      },
      "tags": {
        "amenity": "pharmacy",
        "building": "yes",
        "healthcare": "pharmacy",
        "name": "Apollo Pharmaceuticals",
        "name:kn": "ಅಪೊಲೋ ಫಾರ್ಮಸಿ"
      }
    },
    {
      "type": "way",
      "id": 347029097,
      "center": {
        "lat": 13.0198187,
        "lon": 77.7097234
      },
      "tags": {
        "amenity": "restaurant",
        "brand": "Adyar Ananda Bhavan",
        "brand:wikidata": "Q15178238",
        "building": "yes",
        "name": "Adyar Ananda Bhavan",
        "name:kn": "ಆದ್ಯಾರ್ ಆನಂದ ಭವನ",
        "shop": "confectionery"
      }
    },
    {
      "type": "way",
      "id": 456608491,
      "center": {
        "lat": 13.0111621,
        "lon": 77.7016114
      },
      "tags": {
        "addr:city": "Bangalore",
        "addr:postcode": "560036",
        "amenity": "college",
        "name": "Silicon City College",
        "smoking": "no"
      }
    },
    {
      "type": "way",
      "id": 1241563220,
      "center": {
        "lat": 13.020169,
        "lon": 77.7155508
      },
      "tags": {
        "amenity": "school",
        "name": "Blossom International School"
      }
    },
    {
      "type": "way",
      "id": 1251508618,
      "center": {
        "lat": 13.013204,
        "lon": 77.716054
      },
      "tags": {
        "amenity": "place_of_worship",
        "name": "Our Lady of Lourdes",
        "religion": "christian"
      }
    },
    {
      "type": "way",
      "id": 1408201370,
      "center": {
        "lat": 13.0175958,
        "lon": 77.7092081
      },
      "tags": {
        "amenity": "place_of_worship",
        "building": "yes"
      }
    },
    {
      "type": "way",
      "id": 1410389588,
      "center": {
        "lat": 13.0130342,
        "lon": 77.7049303
      },
      "tags": {
        "amenity": "college",
        "name": "Garden City College"
      }
    },
    {
      "type": "way",
      "id": 1410389591,
      "center": {
        "lat": 13.0125259,
        "lon": 77.7044568
      },
      "tags": {
        "addr:city": "K R Puram, Bangalore",
        "addr:postcode": "560 036",
        "amenity": "college",
        "email": "principal@cambridgeinstitutions.ac.in",
        "fax": "+91 80 25618789",
        "name": "Cambridge Institute of Technolgy",
        "phone": "+91 80 25618799;+91 80 25618789;+91 80 25618789",
        "website": "http://www.citech.in/"
      }
    },
    {
      "type": "way",
      "id": 1410389593,
      "center": {
        "lat": 13.0132622,
        "lon": 77.7005361
      },
      "tags": {
        "amenity": "community_centre",
        "landuse": "commercial"
      }
    },
    {
      "type": "way",
      "id": 1429161295,
      "center": {
        "lat": 13.0142468,
        "lon": 77.7098662
      },
      "tags": {
        "amenity": "fuel"
      }
    },
    {
      "type": "way",
      "id": 1429161318,
      "center": {
        "lat": 13.0135438,
        "lon": 77.7123955
      },
      "tags": {
        "amenity": "place_of_worship",
        "building": "yes",
        "religion": "hindu"
      }
    },
    {
      "type": "way",
      "id": 1433581994,
      "center": {
        "lat": 13.0222082,
        "lon": 77.7142207
      },
      "tags": {
        "amenity": "fuel"
      }
    }
  ]
}