{
  "area_name": "MEI Layout",
  "osm_id": 7339673040,
  "osm_type": "node",
  "place_type": "neighbourhood",
  "amenity_count": 60,
  "amenities": [
    {
      "type": "node",
      "id": 1053320350,
      "lat": 13.0553995,
      "lon": 77.5072996,
      "tags": {
        "addr:street": "Hesaraghetta Main Road",
        "amenity": "fuel",
        "brand": "Indian Oil",
        "brand:wikidata": "Q1289348",
        "name": "Indian Oil"
      }
    },
    {
      "type": "node",
      "id": 2144537433,
      "lat": 13.0599618,
      "lon": 77.5063468,
      "tags": {
        "amenity": "atm",
        "operator": "UCO bank"
      }
    },
    {
      "type": "node",
      "id": 2146589608,
      "lat": 13.0608156,
      "lon": 77.5062519,
      "tags": {
        "amenity": "cafe",
        "name": "Nandini Milk Parlour"
      }
    },
    {
      "type": "node",
      "id": 2154336074,
      "lat": 13.0564626,
      "lon": 77.5068874,
      "tags": {
        "amenity": "atm",
        "fee": "no",
        "operator": "HDFC"
      }
    },
    {
      "type": "node",
      "id": 2154336697,
      "lat": 13.0602756,
      "lon": 77.5051478,
      "tags": {
        "amenity": "atm",
        "fee": "no",
        "operator": "Canara bank"
      }
    },
    {
      "type": "node",
      "id": 3838936857,
      "lat": 13.066893,
      "lon": 77.5028392,
      "tags": {
        "amenity": "restaurant"
      }
    },
    {
      "type": "node",
      "id": 5329712305,
      "lat": 13.0607188,
      "lon": 77.5065146,
      "tags": {
        "amenity": "fountain"
      }
    },
    {
      "type": "node",
      "id": 5329712306,
      "lat": 13.0603677,
      "lon": 77.506498,
      "tags": {
        "amenity": "fountain"
      }
    },
    {
      "type": "node",
      "id": 6808085050,
      "lat": 13.0669831,
      "lon": 77.5011166,
      "tags": {
        "amenity": "place_of_worship",
        "name": "ICRM City Church"
      }
    },
    {
      "type": "node",
      "id": 6809765553,
      "lat": 13.0682855,
      "lon": 77.5044244,
      "tags": {
        "amenity": "college",
        "name": "Academic Block Sapthagiri College"
      }
    },
    {
      "type": "node",
      "id": 7339701207,
      "lat": 13.0610952,
      "lon": 77.5065467,
      "tags": {
        "amenity": "fountain"
      }
    },
    {
      "type": "node",
      "id": 7346626226,
      "lat": 13.064719,
      "lon": 77.4963174,
      "tags": {
        "addr:city": "Bengaluru",
        "addr:postcode": "560073",
        "leisure": "park",
        "name": "Siddeshwara layout park",
        "opening_hours": "24/7",
        "operator": "BBMP"
      }
    },
    {
      "type": "node",
      "id": 8188038495,
      "lat": 13.0650144,
      "lon": 77.5041964,
      "tags": {
        "addr:full": "Bus Stop, Bus Stop, Bonemill, Hesarghatta Main Rd, Soundarya Layout, Bengaluru, Karnataka",
        "addr:state": "Karnataka",
        "amenity": "hospital",
        "healthcare": "hospital",
        "name": "Kruthika Hospital"
      }
    },
    {
      "type": "node",
      "id": 8276770962,
      "lat": 13.0651157,
      "lon": 77.503928,
      "tags": {
        "addr:city": "bangalore",
        "addr:postcode": "560073",
        "addr:street": "Hesaraghatta Main Road",
        "amenity": "restaurant",
        "diet:vegetarian": "yes",
        "name": "Himadri Veg",
        "name:kn": "ಹಿಮಾದ್ರಿ ವೆಜ್",
        "name:ml": "ഹിമാദ്രി വെജ്",
        "opening_hours": "Mo-Su 07:00-22:45",
        "phone": "+919606669222"
      }
    },
    {
      "type": "node",
      "id": 10763537811,
      "lat": 13.0688885,
      "lon": 77.4994742,
      "tags": {
        "amenity": "place_of_worship",
        "name": "Gowri Siddivinayaka Temple",
        "religion": "hindu"
      }
    },
    {
      "type": "node",
      "id": 12155141142,
      "lat": 13.0621629,
      "lon": 77.5085926,
      "tags": {
        "amenity": "parking_entrance"
      }
    },
    {
      "type": "node",
      "id": 12155141143,
      "lat": 13.0615179,
      "lon": 77.5075102,
      "tags": {
        "amenity": "parking_entrance"
      }
    },
    {
      "type": "node",
      "id": 12245693286,
      "lat": 13.0607346,
      "lon": 77.5070422,
      "tags": {
        "amenity": "shelter",
        "shelter_type": "gazebo"
      }
    },
    {
      "type": "node",
      "id": 12509153047,
      "lat": 13.0650701,
      "lon": 77.5046875,
      "tags": {
        "amenity": "veterinary",
        "name": "Br Pet Animal Clinic And Shop"
      }
    },
    {
      "type": "node",
      "id": 12518055367,
      "lat": 13.0668948,
      "lon": 77.5012273,
      "tags": {
        "addr:city": "Bengaluru",
        "addr:housenumber": "243",
        "addr:postcode": "560073",
        "addr:street": "3rd Main Rd, Kirloskar Layout, Siddeshwar Layout, Soundarya Layout,Sidedahalli",
        "amenity": "clinic",
        "healthcare": "clinic",
        "name": "Da Lives's Clinic"
      }
    },
    {
      "type": "node",
      "id": 12520110470,
      "lat": 13.0635614,
      "lon": 77.5057653,
      "tags": {
        "addr:city": "Bengaluru",
        "addr:housenumber": "No:14/3",
        "addr:postcode": "560073",
        "addr:street": "Arunachalam Building, Near Bonemill Bus Stop, Hosaraghatta Main road, Nagasandra Post",
        "name": "Dhanu Telecom",
        "shop": "mobile_phone"
      }
    },
    {
      "type": "node",
      "id": 12520338213,
      "lat": 13.0538641,
      "lon": 77.5074615,
      "tags": {
        "addr:city": "Bengaluru",
        "addr:postcode": "560073",
        "addr:street": "Hesarghatta Rd, Defence Colony, Bagalakunte",
        "amenity": "fast_food",
        "brand": "Domino's",
        "brand:wikidata": "Q839466",
        "cuisine": "pizza",
        "name": "Domino's",
        "takeaway": "yes"
      }
    },
    {
      "type": "node",
      "id": 12520582393,
      "lat": 13.0554969,
      "lon": 77.5072616,
      "tags": {
        "amenity": "vehicle_inspection",
        "name": "Emission Test"
      }
    },
    {
      "type": "node",
      "id": 12525379125,
      "lat": 13.0633964,
      "lon": 77.5057075,
      "tags": {
        "addr:city": "Bengaluru",
        "addr:postcode": "560073",
        "addr:street": "Hosaraghatta Main road, Nagasandra Post",
        "amenity": "clinic",
        "healthcare": "clinic",
        "name": "Sangeevini Clinic"
      }
    },
    {
      "type": "way",
      "id": 37238703,
      "center": {
        "lat": 13.0563934,
        "lon": 77.5134138
      },
      "tags": {
        "alt_name": "Mallasandra Fort Park",
        "disused:landuse": "quarry",
        "historic": "fort",
        "historic:name": "Mallasandra Fort",
        "leisure": "park",
        "loc_name": "Mallsandra Gudde",
        "name": "Naadaprabhu Kempegowda Park, Mallasandra",
        "old_name": "Jalahalli Quarry",
        "old_name:kn": "ಜಾಲಹಳ್ಳಿ ಕಲ್ಲುಗಣಿ"
      }
    },
    {
      "type": "way",
      "id": 155817460,
      "center": {
        "lat": 13.0606365,
        "lon": 77.5064898
      },
      "tags": {
        "leisure": "park",
        "name": "MEI Layout Park"
      }
    },
    {
      "type": "way",
      "id": 204266538,
      "center": {
        "lat": 13.058534,
        "lon": 77.5052589
      },
      "tags": {
        "leisure": "park"
      }
    },
    {
      "type": "way",
      "id": 204437503,
      "center": {
        "lat": 13.059863,
        "lon": 77.5063966
      },
      "tags": {
        "amenity": "bank",
        "atm": "yes",
        "brand:wikidata": "Q2005310",
        "brand:wikipedia": "en:UCO Bank",
        "name": "UCO Bank",
        "name:en": "UCO Bank",
        "name:kn": "ಯೂಕೊ ಬ್ಯಾಂಕ್",
        "old_name": "United Commercial Bank",
        "website": "https://www.ucobank.com"
      }
    },
    {
      "type": "way",
      "id": 726125235,
      "center": {
        "lat": 13.0548347,
        "lon": 77.5071044
      },
      "tags": {
        "addr:street": "Hesaraghetta Main Road",
        "amenity": "school",
        "name": "Triveni School",
        "name:kn": "ತ್ರಿವೇಣಿ ಶಾಲೆ"
      }
    },
    {
      "type": "way",
      "id": 726125644,
      "center": {
        "lat": 13.0555122,
        "lon": 77.5077907
      },
      "tags": {
        "amenity": "fuel",
        "name": "Petrol Bunk"
      }
    },
    {
      "type": "way",
      "id": 726126846,
      "center": {
        "lat": 13.0540453,
        "lon": 77.5074759
      },
      "tags": {
        "amenity": "restaurant",
        "building": "yes",
        "name": "Donne Biriyani",
        "name:kn": "ದೊನ್ನೆ ಬಿರಿಯಾನಿ"
      }
    },
    {
      "type": "way",
      "id": 726158201,
      "center": {
        "lat": 13.0661209,
        "lon": 77.5040642
      },
      "tags": {
        "amenity": "restaurant",
        "building:part": "yes",
        "diet:vegetarian": "yes",
        "level": "1",
        "name": "Gayathri Grand",
        "opening_hours": "Mo-Su 06:30-22:30"
      }
    },
    {
      "type": "way",
      "id": 726174388,
      "center": {
        "lat": 13.059074,
        "lon": 77.5076931
      },
      "tags": {
        "addr:street": "Hesaraghatta Main Road",
        "amenity": "bus_station",
        "bus": "yes",
        "name": "Mallasandra Bus Station",
        "name:kn": "ಮಲ್ಲಸಂದ್ರ",
        "operator": "BMTC",
        "public_transport": "station"
      }
    },
    {
      "type": "way",
      "id": 726175245,
      "center": {
        "lat": 13.0588898,
        "lon": 77.5081641
      },
      "tags": {
        "addr:city": "Bengaluru",
        "addr:district": "Bengaluru Urban",
        "addr:housenumber": "5052",
        "addr:postcode": "560015",
        "addr:street": "Pipeline Rd, Rangappa Layout, Mallasandra, Jalahalli West",
        "amenity": "fast_food",
        "brand": "Indira Canteen",
        "brand:wikidata": "Q36164828",
        "building": "commercial",
        "cuisine": "south_indian",
        "name": "Indira Canteen",
        "operator": "BBMP",
        "takeaway": "yes"
      }
    },
    {
      "type": "way",
      "id": 726181610,
      "center": {
        "lat": 13.0587384,
        "lon": 77.5066743
      },
      "tags": {
        "addr:city": "Bengaluru",
        "addr:district": "Bengaluru Urban",
        "addr:postcode": "560073",
        "addr:street": "Hesarghatta Rd, behind Giriyappa Kalayana Mantap, Bagalgunte, MEI Employees Housing Colony",
        "amenity": "bank",
        "brand": "State Bank of India",
        "brand:wikidata": "Q1340361",
        "building": "commercial",
        "building:levels": "1",
        "name": "State Bank of India",
        "short_name": "SBI"
      }
    },
    {
      "type": "way",
      "id": 726190880,
      "center": {
        "lat": 13.057066,
        "lon": 77.508511
      },
      "tags": {
        "addr:district": "Bengaluru Urban",
        "addr:full": "#18-23, Maliasandra Main Road,4Th & 5Th Cross, Bagalagunte,Hesaraghatta Road",
        "addr:postcode": "560057",
        "addr:state": "Karnataka",
        "amenity": "hospital",
        "building": "commercial",
        "name": "Arunodaya Hospitals",
        "name:kn": "ಅರುಣೋದಯ ಆಸ್ಪತ್ರೆ",
        "source": "OpenGovernmentData"
      }
    },
    {
      "type": "way",
      "id": 726199025,
      "center": {
        "lat": 13.0533732,
        "lon": 77.5085188
      },
      "tags": {
        "brand": "Volkswagen",
        "brand:wikidata": "Q246",
        "building": "commercial",
        "name": "Volkswagen",
        "shop": "car_repair"
      }
    },
    {
      "type": "way",
      "id": 726202316,
      "center": {
        "lat": 13.0527227,
        "lon": 77.5074038
      },
      "tags": {
        "addr:city": "Banglore",
        "addr:housenumber": "27/1 Survey No 41/3",
        "addr:postcode": "560073",
        "addr:street": "Bagalagunta Hesaregatta Main Road, Widia School Bus Stop Rd, Nagasandra",
        "brand": "Maruti Suzuki",
        "brand:wikidata": "Q963718",
        "building": "commercial",
        "name": "Varun motors",
        "shop": "car_repair"
      }
    },
    {
      "type": "way",
      "id": 726508308,
      "center": {
        "lat": 13.0656133,
        "lon": 77.5043298
      },
      "tags": {
        "amenity": "pub",
        "building": "yes",
        "name": "Anubhav Pub and Bar"
      }
    },
    {
      "type": "way",
      "id": 784992170,
      "center": {
        "lat": 13.0625547,
        "lon": 77.5010855
      },
      "tags": {
        "addr:city": "Bangalore",
        "addr:postcode": "560073",
        "addr:street": "Kuduregere Main Road",
        "leisure": "park",
        "name": "MEI Layout Triangular Park",
        "opening_hours": "Mo-Su 07:00-22:00",
        "operator": "BBMP"
      }
    },
    {
      "type": "way",
      "id": 785271575,
      "center": {
        "lat": 13.0581619,
        "lon": 77.5066767
      },
      "tags": {
        "leisure": "garden"
      }
    },
    {
      "type": "way",
      "id": 785271579,
      "center": {
        "lat": 13.0600344,
        "lon": 77.5072697
      },
      "tags": {
        "brand": "DMart",
        "brand:wikidata": "Q5203271",
        "landuse": "retail",
        "name": "DMart",
        "shop": "supermarket"
      }
    },
    {
      "type": "way",
      "id": 889197991,
      "center": {
        "lat": 13.0615932,
        "lon": 77.5077456
      },
      "tags": {
        "leisure": "swimming_pool"
      }
    },
    {
      "type": "way",
      "id": 890520514,
      "center": {
        "lat": 13.0661209,
        "lon": 77.5040642
      },
      "tags": {
        "amenity": "restaurant",
        "building:part": "yes",
        "cuisine": "regional;andhra",
        "diet:non-vegetarian": "yes",
        "diet:vegetarian": "yes",
        "level": "2",
        "name": "Sarangi",
        "name:kn": "ಸಾರಂಗಿ"
      }
    },
    {
      "type": "way",
      "id": 1150425633,
      "center": {
        "lat": 13.0658352,
        "lon": 77.4959218
      },
      "tags": {
        "leisure": "park"
      }
    },
    {
      "type": "way",
      "id": 1150947118,
      "center": {
        "lat": 13.0553008,
        "lon": 77.5104917
      },
      "tags": {
        "leisure": "park",
        "name": "Pipeline Park",
        "operator": "ಬೃಹತ್ ಬೆಂಗಳೂರು ಮಹಾನಗರ ಪಾಲಿಕೆ",
        "operator:en": "Bruhat Bengaluru Mahanagara Palike",
        "operator:ka": "ಬೃಹತ್ ಬೆಂಗಳೂರು ಮಹಾನಗರ ಪಾಲಿಕೆ",
        "operator:short": "BBMP",
        "operator:type": "government",
        "operator:wikidata": "Q4978693"
      }
    },
    {
      "type": "way",
      "id": 1253120652,
      "center": {
        "lat": 13.0629715,
        "lon": 77.5042486
      },
      "tags": {
        "access": "permissive",
        "leisure": "swimming_pool"
      }
    },
    {
      "type": "way",
      "id": 1253120653,
      "center": {
        "lat": 13.0624539,
        "lon": 77.5038746
      },
      "tags": {
        "leisure": "pitch",
        "sport": "basketball"
      }
    },
    {
      "type": "way",
      "id": 1253120657,
      "center": {
        "lat": 13.0626841,
        "lon": 77.5045082
      },
      "tags": {
        "amenity": "school",
        "name": "Nurture International School"
      }
    },
    {
      "type": "way",
      "id": 1253120662,
      "center": {
        "lat": 13.0661035,
        "lon": 77.5006597
      },
      "tags": {
        "leisure": "park"
      }
    },
    {
      "type": "way",
      "id": 1253120663,
      "center": {
        "lat": 13.0656937,
        "lon": 77.502016
      },
      "tags": {
        "leisure": "park"
      }
    },
    {
      "type": "way",
      "id": 1253120679,
      "center": {
        "lat": 13.0701164,
        "lon": 77.5028464
      },
      "tags": {
        "access": "permissive",
        "amenity": "parking",
        "parking": "surface"
      }
    },
    {
      "type": "way",
      "id": 1263454559,
      "center": {
        "lat": 13.0602407,
        "lon": 77.5074115
      },
      "tags": {
        "leisure": "park"
      }
    },
    {
      "type": "way",
      "id": 1322942203,
      "center": {
        "lat": 13.068571,
        "lon": 77.5012479
      },
      "tags": {
        "leisure": "park"
      }
    },
    {
      "type": "way",
      "id": 1322942204,
      "center": {
        "lat": 13.0683215,
        "lon": 77.5017878
      },
      "tags": {
        "leisure": "park"
      }
    },
    {
      "type": "way",
      "id": 1322942426,
      "center": {
        "lat": 13.0642031,
        "lon": 77.4985444
      },
      "tags": {
        "leisure": "park"
      }
    },
    {
      "type": "way",
      "id": 1323345392,
      "center": {
        "lat": 13.0604824,
        "lon": 77.5081292
      },
      "tags": {
        "access": "private",
        "leisure": "swimming_pool"
      }
    },
    {
      "type": "way",
      "id": 1323345393,
      "center": {
        "lat": 13.0601804,
        "lon": 77.5077543
      },
      "tags": {
        "leisure": "park"
      }
    },
    {
      "type": "way",
      "id": 1351975948,
      "center": {
        "lat": 13.0553872,
        "lon": 77.5071726
      },
      "tags": {
        "amenity": "fuel",
        "brand": "Indian Oil",
        "brand:wikidata": "Q1289348",
        "name": "Indian Oil"
      }
    },
    {
      "type": "way",
      "id": 1443414771,
      "center": {
        "lat": 13.0597237,
        "lon": 77.50738
      },
      "tags": {
        "addr:street": "Hesaraghetta Main Road",
        "amenity": "school",
        "name": "Vijayashree International Public School"
      }
    }
  ]
}