{
  "area_name": "MLA Layout",
  "osm_id": 11837312647,
  "osm_type": "node",
  "place_type": "neighbourhood",
  "amenity_count": 146,
  "amenities": [
    {
      "type": "node",
      "id": 582591613,
      "lat": 13.0216684,
      "lon": 77.5928265,
      "tags": {
        "amenity": "post_office",
        "name": "Rabindranath Tagore Nagar",
        "name:kn": "ರವೀಂದ್ರನಾಥ ಠಾಗೋರ್ ನಗರ"
      }
    },
    {
      "type": "node",
      "id": 665871314,
      "lat": 13.0143993,
      "lon": 77.5835124,
      "tags": {
        "amenity": "atm",
        "brand": "Standard Chartered",
        "brand:wikidata": "Q548278",
        "name": "Standard Chartered",
        "operator": "Standard Chartered",
        "operator:wikidata": "Q548278"
      }
    },
    {
      "type": "node",
      "id": 850751623,
      "lat": 13.0249229,
      "lon": 77.5928698,
      "tags": {
        "amenity": "atm",
        "brand": "UCO Bank",
        "brand:wikidata": "Q2005310",
        "name": "UCO Bank",
        "operator": "UCO Bank",
        "operator:wikidata": "Q2005310"
      }
    },
    {
      "type": "node",
      "id": 850751634,
      "lat": 13.0256109,
      "lon": 77.5931302,
      "tags": {
        "brand": "Levi's",
        "brand:wikidata": "Q127962",
        "clothes": "denim;men;women",
        "name": "Levi's",
        "name:kn": "ಲೆವಿಸ್",
        "shop": "clothes"
      }
    },
    {
      "type": "node",
      "id": 850751635,
      "lat": 13.0259675,
      "lon": 77.5932154,
      "tags": {
        "amenity": "library",
        "name": "RT Nagar Public Library"
      }
    },
    {
      "type": "node",
      "id": 850751637,
      "lat": 13.0248113,
      "lon": 77.5934442,
      "tags": {
        "amenity": "atm",
        "name": "Vijaya Bank",
        "name:kn": "ವಿಜಯ ಬ್ಯಾಂಕು"
      }
    },
    {
      "type": "node",
      "id": 850751641,
      "lat": 13.0254978,
      "lon": 77.5931058,
      "tags": {
        "amenity": "bank",
        "brand": "Andhra Bank",
        "brand:wikidata": "Q2003476",
        "brand:wikipedia": "en:Andhra Bank",
        "name": "Andhra Bank",
        "name:en": "Andhra Bank",
        "name:kn": "ಆಂಧ್ರ ಬ್ಯಾಂಕ್",
        "website": "https://www.andhrabank.in"
      }
    },
    {
      "type": "node",
      "id": 850751657,
      "lat": 13.0260757,
      "lon": 77.5932346,
      "tags": {
        "brand": "Reebok",
        "brand:wikidata": "Q466183",
        "name": "Reebok",
        "name:kn": "ರೀಬಾಕ್",
        "shop": "clothes"
      }
    },
    {
      "type": "node",
      "id": 850751693,
      "lat": 13.0249491,
      "lon": 77.5926439,
      "tags": {
        "amenity": "atm",
        "brand": "Citibank",
        "brand:wikidata": "Q857063",
        "name": "Citibank",
        "name:kn": "ಸಿಟಿಬ್ಯಾಂಕ್",
        "operator": "Citibank",
        "operator:wikidata": "Q857063",
        "short_name": "Citi"
      }
    },
    {
      "type": "node",
      "id": 1415907177,
      "lat": 13.0236679,
      "lon": 77.592064,
      "tags": {
        "brand": "Nilgiri's",
        "brand:wikidata": "Q17079567",
        "name": "Nilgiri's",
        "name:kn": "ನೀಲ್ಗಿರೀಸ್",
        "shop": "supermarket"
      }
    },
    {
      "type": "node",
      "id": 1474819109,
      "lat": 13.0256971,
      "lon": 77.5931352,
      "tags": {
        "amenity": "restaurant",
        "name": "Punjabi Rasoi",
        "name:kn": "ಪಂಜಾಬಿ ರಸೋಯಿ"
      }
    },
    {
      "type": "node",
      "id": 1474819110,
      "lat": 13.0263622,
      "lon": 77.5930491,
      "tags": {
        "amenity": "bank",
        "brand": "Andhra Bank",
        "brand:wikidata": "Q2003476",
        "brand:wikipedia": "en:Andhra Bank",
        "name": "Andhra Bank",
        "name:en": "Andhra Bank",
        "name:kn": "ಆಂಧ್ರ ಬ್ಯಾಂಕ್",
        "website": "https://www.andhrabank.in"
      }
    },
    {
      "type": "node",
      "id": 1474819111,
      "lat": 13.0264438,
      "lon": 77.5933686,
      "tags": {
        "amenity": "hospital",
        "name": "TSR heart care"
      }
    },
    {
      "type": "node",
      "id": 1474819115,
      "lat": 13.0249236,
      "lon": 77.5927811,
      "tags": {
        "amenity": "restaurant",
        "name": "Tiffin Centre",
        "name:kn": "ಟಿಫಿನ್ ಸೆಂಟೆರ್"
      }
    },
    {
      "type": "node",
      "id": 1474819152,
      "lat": 13.0254514,
      "lon": 77.593103,
      "tags": {
        "name": "Emporium",
        "shop": "clothes"
      }
    },
    {
      "type": "node",
      "id": 1474819153,
      "lat": 13.0261152,
      "lon": 77.5887524,
      "tags": {
        "name": "Amma Pastries",
        "shop": "bakery"
      }
    },
    {
      "type": "node",
      "id": 1474819154,
      "lat": 13.0253678,
      "lon": 77.593103,
      "tags": {
        "name": "Nokia Care",
        "shop": "kiosk"
      }
    },
    {
      "type": "node",
      "id": 1474819328,
      "lat": 13.023831,
      "lon": 77.5929101,
      "tags": {
        "name": "UniverCell Store",
        "shop": "convenience"
      }
    },
    {
      "type": "node",
      "id": 1474819329,
      "lat": 13.0238887,
      "lon": 77.5926095,
      "tags": {
        "name": "Titan Show room",
        "shop": "convenience"
      }
    },
    {
      "type": "node",
      "id": 1474819330,
      "lat": 13.0233034,
      "lon": 77.5928133,
      "tags": {
        "amenity": "restaurant",
        "diet:vegetarian": "only",
        "name": "New Shanti Sagar",
        "name:kn": "ನ್ಯೂ ಶಾಂತಿ ಸಾಗರ್"
      }
    },
    {
      "type": "node",
      "id": 2458999135,
      "lat": 13.0229372,
      "lon": 77.5848295,
      "tags": {
        "addr:city": "Bangalore",
        "addr:postcode": "560032",
        "addr:street": "Bellary Road",
        "alt_name": "A2B",
        "amenity": "restaurant",
        "brand": "Adyar Ananda Bhavan",
        "brand:wikidata": "Q15178238",
        "cuisine": "regional",
        "diet:vegetarian": "only",
        "email": "info@aabsweets.com",
        "name": "Adyar Ananda Bhavan",
        "name:kn": "ಆದ್ಯಾರ್ ಆನಂದ ಭವನ",
        "operator": "Adyar Ananda Bhavan",
        "phone": "+91 80 4151 5454",
        "smoking": "no",
        "website": "https://aabsweets.com",
        "wheelchair": "no"
      }
    },
    {
      "type": "node",
      "id": 2821271866,
      "lat": 13.0144365,
      "lon": 77.5831503,
      "tags": {
        "addr:full": "Achaiah Chetty Arcade, No.19,1st Cross, Achaiah Chetty Lay out, RMV Extension, Sadashiva Nagar, Mekhri Circle Junction, Karnataka 560080 Bengaluru",
        "addr:street": "CV Raman Road",
        "brand": "KTM",
        "brand:wikidata": "Q215657",
        "check_date": "2025-08-08",
        "contact:email": "mekhricircle_mgr@ktmindia.com",
        "contact:phone": "+91802361474",
        "name": "Mekhri Circle KTM",
        "shop": "motorcycle"
      }
    },
    {
      "type": "node",
      "id": 2821271870,
      "lat": 13.014439,
      "lon": 77.5829545,
      "tags": {
        "addr:street": "CV Raman Road",
        "name": "Classic Automotives",
        "shop": "car"
      }
    },
    {
      "type": "node",
      "id": 2911691002,
      "lat": 13.0169921,
      "lon": 77.5914678,
      "tags": {
        "amenity": "restaurant",
        "name": "Empire Hotel",
        "name:kn": "ಎಂಪೈರ್"
      }
    },
    {
      "type": "node",
      "id": 2911691005,
      "lat": 13.0174262,
      "lon": 77.5916716,
      "tags": {
        "amenity": "restaurant",
        "cuisine": "indian",
        "name": "Kudla"
      }
    },
    {
      "type": "node",
      "id": 2911691006,
      "lat": 13.0168458,
      "lon": 77.591398,
      "tags": {
        "amenity": "restaurant",
        "diet:vegetarian": "yes",
        "name": "Adiga's",
        "name:kn": "ಅಡಿಗಾಸ್"
      }
    },
    {
      "type": "node",
      "id": 3337863242,
      "lat": 13.0230972,
      "lon": 77.5848995,
      "tags": {
        "amenity": "bank",
        "atm": "yes",
        "brand": "Corporation Bank",
        "brand:wikidata": "Q2003387",
        "brand:wikipedia": "en:Corporation Bank",
        "check_date": "2024-02-15",
        "name": "Union Bank of India",
        "name:en": "Union Bank of India",
        "wheelchair": "no"
      }
    },
    {
      "type": "node",
      "id": 3363186002,
      "lat": 13.0199268,
      "lon": 77.5951979,
      "tags": {
        "amenity": "atm"
      }
    },
    {
      "type": "node",
      "id": 3591576155,
      "lat": 13.0207677,
      "lon": 77.5929009,
      "tags": {
        "amenity": "cafe",
        "brand": "Cafe Coffee Day",
        "brand:wikidata": "Q5017235",
        "cuisine": "coffee_shop",
        "name": "Cafe Coffee Day",
        "name:kn": "ಕಫೆ ಕಾಫಿ ಡೇ",
        "takeaway": "yes"
      }
    },
    {
      "type": "node",
      "id": 3591577007,
      "lat": 13.0207547,
      "lon": 77.5929974,
      "tags": {
        "name": "Namdhari Fresh",
        "shop": "supermarket"
      }
    },
    {
      "type": "node",
      "id": 3591592755,
      "lat": 13.0207547,
      "lon": 77.5930859,
      "tags": {
        "amenity": "bank",
        "atm": "yes",
        "brand": "Andhra Bank",
        "brand:wikidata": "Q2003476",
        "brand:wikipedia": "en:Andhra Bank",
        "name": "Andhra Bank",
        "name:en": "Andhra Bank",
        "name:kn": "ಆಂಧ್ರ ಬ್ಯಾಂಕ್",
        "website": "https://www.andhrabank.in"
      }
    },
    {
      "type": "node",
      "id": 3591611473,
      "lat": 13.022371,
      "lon": 77.5942251,
      "tags": {
        "shop": "greengrocer"
      }
    },
    {
      "type": "node",
      "id": 3591611743,
      "lat": 13.0218513,
      "lon": 77.5962159,
      "tags": {
        "name": "Everyday Needs",
        "shop": "yes"
      }
    },
    {
      "type": "node",
      "id": 4422272111,
      "lat": 13.0222579,
      "lon": 77.5922587,
      "tags": {
        "amenity": "bar",
        "name": "Ujwal Bar and Restaurant"
      }
    },
    {
      "type": "node",
      "id": 4422272112,
      "lat": 13.022359,
      "lon": 77.5927417,
      "tags": {
        "amenity": "restaurant",
        "name": "Al Bek"
      }
    },
    {
      "type": "node",
      "id": 4422272113,
      "lat": 13.0214967,
      "lon": 77.5924037,
      "tags": {
        "name": "Food World",
        "shop": "supermarket"
      }
    },
    {
      "type": "node",
      "id": 4446306864,
      "lat": 13.02454,
      "lon": 77.5950447,
      "tags": {
        "addr:city": "Bangalore",
        "addr:housenumber": "#1",
        "addr:postcode": "560032",
        "addr:street": "Dinnur Main Road,  Dinnur Main Road, Ex Servicemen Colony,RT Nagar",
        "amenity": "pharmacy",
        "name": "Popular Medical And General",
        "phone": "08023338662",
        "source": "bangalorehospital.co.in"
      }
    },
    {
      "type": "node",
      "id": 4446312739,
      "lat": 13.0237176,
      "lon": 77.5928768,
      "tags": {
        "addr:city": "Bangalore",
        "addr:housenumber": "#3",
        "addr:postcode": "560032",
        "addr:street": "RT Nagar Main Road,  80 Feet Main Road, P&T Colony",
        "amenity": "pharmacy",
        "name": "Trust Chemists Druggists",
        "phone": "080 4128 4949",
        "source": "http://www.bangalorehospital.co.in/"
      }
    },
    {
      "type": "node",
      "id": 4446970715,
      "lat": 13.0192775,
      "lon": 77.5968129,
      "tags": {
        "addr:city": "bangalore",
        "addr:housenumber": "76",
        "addr:postcode": "560032",
        "addr:street": "14th Cross Rd, Thimaiah Garden, Devara Jeevanahalli",
        "amenity": "pharmacy",
        "name": "Rajkumar Diagnostics",
        "phone": "+919538244420",
        "source": "www.justdial.com"
      }
    },
    {
      "type": "node",
      "id": 4446992566,
      "lat": 13.0216774,
      "lon": 77.5927881,
      "tags": {
        "addr:city": "bangalore",
        "addr:housenumber": "16",
        "addr:postcode": "560032,",
        "addr:street": "RT Nagar Main Road",
        "amenity": "pharmacy",
        "name": "Sri Srinivasa Medicals",
        "phone": "+91 80 2353 5499",
        "source": "www.justdial.com"
      }
    },
    {
      "type": "node",
      "id": 4488023121,
      "lat": 13.0227583,
      "lon": 77.5848341,
      "tags": {
        "addr:city": "Bangalore",
        "addr:housenumber": "37, 1stFloor",
        "addr:postcode": "560032",
        "addr:street": "Bellary Road, Naveen Complex Bellary, 1st Main Road, Ganganagar",
        "name": "Kadamba Sports & Fitness",
        "opening_hours": "10:00-21:00",
        "phone": "080 2333 4422",
        "shop": "sports"
      }
    },
    {
      "type": "node",
      "id": 4489095061,
      "lat": 13.0168374,
      "lon": 77.5952157,
      "tags": {
        "addr:city": "bangalore",
        "addr:housenumber": "1/5",
        "addr:postcode": "560032",
        "addr:street": "B/H Nilgiris Next Copn Scholl, Opposite Anjeya Temple, 1st Main, 1st Cross, R T Nagar, R T Nagar, Bhadrappa Layout, RT Nagar",
        "name": "Vinayaka Sports World",
        "opening_hours": "10:00-21:00",
        "phone": "098453 58652",
        "shop": "sports"
      }
    },
    {
      "type": "node",
      "id": 4489722790,
      "lat": 13.0241827,
      "lon": 77.5929161,
      "tags": {
        "addr:city": "Bangalore",
        "addr:housenumber": "#11/12",
        "addr:postcode": "560032",
        "addr:street": ",Unique Center, 1st Floor, Above Unilet Electronics, 80 Feet Rd,, , RT Nagar, Bhadrappa Layout, P&T Colony, RT Nagar, Bengaluru, Karnataka 560032",
        "leisure": "sports_centre",
        "name": "Group Ex Fitness Revolution",
        "opening_hours": "6:00-21:00",
        "phone": "\"090190 31031",
        "website": "https://groupex.co.in/"
      }
    },
    {
      "type": "node",
      "id": 4489730800,
      "lat": 13.0241022,
      "lon": 77.5972276,
      "tags": {
        "addr:city": "bangalore",
        "addr:postcode": "560032",
        "addr:street": "3rd Floor, Dinnur Main Road, R T Nagar",
        "leisure": "sports_centre",
        "name": "Power Cuts And Curves Gym And Fitness Centre",
        "opening_hours": "06:00-12:30",
        "phone": "(91)-9731420000",
        "sport": "gymnastics",
        "website": "www.powercutsncurves.com"
      }
    },
    {
      "type": "node",
      "id": 4489826333,
      "lat": 13.0218675,
      "lon": 77.597868,
      "tags": {
        "addr:city": "Bengaluru",
        "addr:housenumber": "551",
        "addr:postcode": "560032",
        "addr:street": ", 2nd Floor, 2nd Cross, 2nd Block, R.T Nagar, Bhadrappa Layout, RT Nagar, , Karnataka",
        "leisure": "sports_centre",
        "name": "Reach Roots Fitness",
        "opening_hours": "5:30-22:00",
        "phone": "080 4128 9578",
        "website": "rootsfitness.co.in"
      }
    },
    {
      "type": "node",
      "id": 4489850392,
      "lat": 13.0242132,
      "lon": 77.5929468,
      "tags": {
        "addr:city": "Bangalore",
        "addr:housenumber": "5, 2nd Floor",
        "addr:postcode": "560032",
        "addr:street": ", Above-Vivek Show Room, Next To-R T Nagar Police Station, R T Nagar, P&T Colony, RT Nagar, Bengaluru, Karnataka",
        "leisure": "sports_centre",
        "name": "Cuts and Curves",
        "opening_hours": "6:00-22:00",
        "phone": "080 2343 5320",
        "website": "https://agarwalpacking.in/"
      }
    },
    {
      "type": "node",
      "id": 4697843992,
      "lat": 13.0169007,
      "lon": 77.5907711,
      "tags": {
        "addr:housenumber": "6",
        "addr:postcode": "560032",
        "addr:street": "6th Main Krishnappa Block",
        "name": "Agiledge process solutions Pvt Ltd",
        "name:en": "Agiledge process solutions Pvt Ltd",
        "opening_hours": "Mo-Fr 09:00-18:00",
        "phone": "080-23432343",
        "shop": "computer",
        "website": "https://www.agiledgesolutions.com/"
      }
    },
    {
      "type": "node",
      "id": 4783350859,
      "lat": 13.0169075,
      "lon": 77.5844663,
      "tags": {
        "amenity": "toilets"
      }
    },
    {
      "type": "node",
      "id": 4973060956,
      "lat": 13.0224361,
      "lon": 77.5847518,
      "tags": {
        "amenity": "restaurant",
        "name": "Hotel Emirates"
      }
    },
    {
      "type": "node",
      "id": 4973098283,
      "lat": 13.0217462,
      "lon": 77.584538,
      "tags": {
        "amenity": "community_centre",
        "name": "Karnataka Kalyana Mantapa"
      }
    },
    {
      "type": "node",
      "id": 5174700154,
      "lat": 13.0144068,
      "lon": 77.5834035,
      "tags": {
        "brand": "Honda",
        "brand:wikidata": "Q9584",
        "name": "Honda",
        "name:kn": "ಹೊಂಡಾ",
        "shop": "motorcycle"
      }
    },
    {
      "type": "node",
      "id": 5295212549,
      "lat": 13.0219792,
      "lon": 77.5846105,
      "tags": {
        "name": "TVS",
        "shop": "motorcycle"
      }
    },
    {
      "type": "node",
      "id": 5295212551,
      "lat": 13.0225676,
      "lon": 77.5847474,
      "tags": {
        "name": "SM Silks",
        "shop": "clothes"
      }
    },
    {
      "type": "node",
      "id": 5862563585,
      "lat": 13.0099448,
      "lon": 77.5907516,
      "tags": {
        "amenity": "bench"
      }
    },
    {
      "type": "node",
      "id": 6126093263,
      "lat": 13.0238647,
      "lon": 77.5851211,
      "tags": {
        "name": "Track & Trail",
        "shop": "bicycle"
      }
    },
    {
      "type": "node",
      "id": 6886594823,
      "lat": 13.0228765,
      "lon": 77.5848772,
      "tags": {
        "addr:city": "Bengaluru",
        "addr:district": "BENGALURU URBAN",
        "addr:full": "2, 10th Cross, Ganganagar, Bengaluru",
        "addr:postcode": "560032",
        "addr:state": "Karnataka",
        "amenity": "blood_bank",
        "contact:mobile": "9740330720",
        "contact:phone": "8023431233",
        "name": "Grace Blood Bank and Laboratory",
        "opening_hours": "24/7",
        "operator:type": "private",
        "source": "OpenGovernmentData"
      }
    },
    {
      "type": "node",
      "id": 6937890455,
      "lat": 13.0237316,
      "lon": 77.5941463,
      "tags": {
        "addr:district": "Bengaluru Urban",
        "addr:full": "No 80, P&T Colony R T Nagar",
        "addr:postcode": "560032",
        "addr:state": "Karnataka",
        "amenity": "hospital",
        "name": "Chaitanya Hospital",
        "name:kn": "ಚೈತನ್ಯ ಆಸ್ಪತ್ರೆ",
        "source": "OpenGovernmentData"
      }
    },
    {
      "type": "node",
      "id": 6938653696,
      "lat": 13.0263529,
      "lon": 77.5933929,
      "tags": {
        "addr:district": "Bengaluru Urban",
        "addr:full": "# 9 80 Fet Road H M T Layout R T Nagar",
        "addr:postcode": "560032",
        "addr:state": "Karnataka",
        "amenity": "hospital",
        "name": "Asha Kiran Children & Women Health Care Centre",
        "source": "OpenGovernmentData"
      }
    },
    {
      "type": "node",
      "id": 6938864296,
      "lat": 13.0228314,
      "lon": 77.5863478,
      "tags": {
        "addr:district": "Bengaluru Urban",
        "addr:full": "CGHS Dispensary No.9, Gangenahalli 256, 1stCross, II Main Ganganagar, Layout",
        "addr:state": "Karnataka",
        "amenity": "clinic",
        "health_facility:type": "dispensary",
        "healthcare": "centre",
        "name": "CGHS Dispensary No.9",
        "operator:type": "government",
        "source": "OpenGovernmentData",
        "website": "http://nb.bsf.gov.in/CGHS%20DIspenseries.pdf"
      }
    },
    {
      "type": "node",
      "id": 6938948962,
      "lat": 13.024837,
      "lon": 77.592089,
      "tags": {
        "addr:district": "Bengaluru Urban",
        "addr:full": "402, 2nd Cross Judges Colony Ganganagar",
        "addr:postcode": "560032",
        "addr:state": "Karnataka",
        "amenity": "hospital",
        "name": "Lakshmi Hospital, Ganganagar",
        "source": "OpenGovernmentData"
      }
    },
    {
      "type": "node",
      "id": 6938988776,
      "lat": 13.0250141,
      "lon": 77.5856289,
      "tags": {
        "addr:district": "Bengaluru Urban",
        "addr:full": "1st Main Road, 7th Cross, Ganganagar",
        "addr:postcode": "560032",
        "addr:state": "Karnataka",
        "addr:subdistrict": "Ganganagar",
        "amenity": "hospital",
        "healthcare:speciality": "Piles; fistula; fissure",
        "name": "Dr. T.V.Ramesh Piles Hospital",
        "operator:type": "private",
        "source": "OpenGovernmentData",
        "website": "https://www.pilesramesh.com/"
      }
    },
    {
      "type": "node",
      "id": 6944105329,
      "lat": 13.0251833,
      "lon": 77.5920609,
      "tags": {
        "addr:district": "Bengaluru Urban",
        "addr:full": "No.533, 108 Bus Stop, Ganganagar",
        "addr:postcode": "560032",
        "addr:state": "Karnataka",
        "addr:subdistrict": "R.T.Nagar",
        "amenity": "hospital",
        "name": "Vasan Eye Care Hospital, R.T.Nagar",
        "operator:type": "private",
        "source": "OpenGovernmentData",
        "website": "http://www.vasaneye.in/"
      }
    },
    {
      "type": "node",
      "id": 6945075435,
      "lat": 13.015884,
      "lon": 77.5973475,
      "tags": {
        "addr:district": "Bengaluru Urban",
        "addr:full": "No 29, 9Th Cross Adi Kabir Ashram Road,H.D Devegowda Road",
        "addr:postcode": "560037",
        "addr:state": "Karnataka",
        "amenity": "hospital",
        "name": "V Care Hospital",
        "source": "OpenGovernmentData"
      }
    },
    {
      "type": "node",
      "id": 6948590938,
      "lat": 13.0241863,
      "lon": 77.5960574,
      "tags": {
        "addr:district": "Bengaluru Urban",
        "addr:full": "No.2, Ex-Servicemen Colony, 5Th Cross, Dinnur Main Road, R.T.Nagar",
        "addr:postcode": "560032",
        "addr:state": "Karnataka",
        "amenity": "hospital",
        "name": "Premier Hospital",
        "source": "OpenGovernmentData"
      }
    },
    {
      "type": "node",
      "id": 7223109295,
      "lat": 13.024189,
      "lon": 77.5851756,
      "tags": {
        "amenity": "bank",
        "atm": "yes",
        "branch": "Gangenahalli",
        "brand": "State Bank of India",
        "brand:wikidata": "Q1340361",
        "check_date": "2025-09-19",
        "name": "State Bank of India",
        "operator": "State Bank of India",
        "short_name": "SBI"
      }
    },
    {
      "type": "node",
      "id": 7223109296,
      "lat": 13.0252747,
      "lon": 77.5854385,
      "tags": {
        "amenity": "bank",
        "atm": "yes",
        "brand": "Axis Bank",
        "brand:wikidata": "Q2003549",
        "name": "Axis Bank",
        "name:kn": "ಆಕ್ಸಿಸ್ ಬ್ಯಾಂಕ್",
        "operator": "Axis Bank"
      }
    },
    {
      "type": "node",
      "id": 7257189835,
      "lat": 13.0174156,
      "lon": 77.5840574,
      "tags": {
        "amenity": "bench",
        "backrest": "yes",
        "seats": "3"
      }
    },
    {
      "type": "node",
      "id": 7257189847,
      "lat": 13.0228696,
      "lon": 77.5848321,
      "tags": {
        "leisure": "fitness_centre",
        "name": "Eon Fitness"
      }
    },
    {
      "type": "node",
      "id": 7257189855,
      "lat": 13.0237231,
      "lon": 77.5850442,
      "tags": {
        "name": "R R Cycle",
        "shop": "bicycle"
      }
    },
    {
      "type": "node",
      "id": 8187962208,
      "lat": 13.024748,
      "lon": 77.5917987,
      "tags": {
        "addr:full": "No. 20, 108B Bus Stand, 1st Main Road, Papanna Block, AK Colony, RT Nagar, Bengaluru, Karnataka",
        "addr:state": "Karnataka",
        "amenity": "bank",
        "brand": "Federal Bank",
        "brand:wikidata": "Q2044983",
        "name": "Federal Bank",
        "name:kn": "ಫೆಡೆರಲ್ ಬ್ಯಾಂಕ್"
      }
    },
    {
      "type": "node",
      "id": 8187962263,
      "lat": 13.0176903,
      "lon": 77.5899085,
      "tags": {
        "addr:full": "No. 13, 5TH MAIN, GANGANAGAR, RT NAGAR, MLA Layout, Krishnappa Block, RT Nagar, Bengaluru, Karnataka",
        "addr:state": "Karnataka",
        "amenity": "bank",
        "name": "Dena Bank",
        "name:kn": "ದೇನ ಬ್ಯಾಂಕ್"
      }
    },
    {
      "type": "node",
      "id": 8188057276,
      "lat": 13.0203034,
      "lon": 77.5923603,
      "tags": {
        "addr:full": "335, Ravindra Tagore Nagar Main Rd, Rahmath Nagar, RT Nagar, Bengaluru, Karnataka",
        "addr:state": "Karnataka",
        "amenity": "restaurant",
        "diet:vegetarian": "only",
        "name": "Vishnu Garden Vegetarian Restaurant"
      }
    },
    {
      "type": "node",
      "id": 8442191506,
      "lat": 13.0151954,
      "lon": 77.58375,
      "tags": {
        "amenity": "bench",
        "backrest": "yes"
      }
    },
    {
      "type": "node",
      "id": 8534917998,
      "lat": 13.026494,
      "lon": 77.5933758,
      "tags": {
        "amenity": "veterinary",
        "name": "CUPA Small Animals Hospital"
      }
    },
    {
      "type": "node",
      "id": 8540221706,
      "lat": 13.0264238,
      "lon": 77.5926546,
      "tags": {
        "amenity": "toilets",
        "name": "Public Toilet",
        "name:kn": "ಸಾರ್ವಜನಿಕ ಶೌಚಾಲಯ"
      }
    },
    {
      "type": "node",
      "id": 8910937692,
      "lat": 13.0166985,
      "lon": 77.5916282,
      "tags": {
        "shop": "camera"
      }
    },
    {
      "type": "node",
      "id": 8911008862,
      "lat": 13.010028,
      "lon": 77.5906928,
      "tags": {
        "shop": "camera"
      }
    },
    {
      "type": "node",
      "id": 9739831279,
      "lat": 13.0221154,
      "lon": 77.5847036,
      "tags": {
        "amenity": "restaurant",
        "cuisine": "regional",
        "name": "Punjabi Rasoi"
      }
    },
    {
      "type": "node",
      "id": 9826431267,
      "lat": 13.0222937,
      "lon": 77.5847256,
      "tags": {
        "amenity": "restaurant",
        "name": "The Punjabi Rasoi"
      }
    },
    {
      "type": "node",
      "id": 10242924686,
      "lat": 13.0242809,
      "lon": 77.5866545,
      "tags": {
        "amenity": "recycling",
        "name": "BBMP Dry Waste Collection Center",
        "name:kn": "ಒಣ ತ್ಯಾಜ್ಯ ನಿರ್ವಹಣೆಗೆ ಸ್ಥಳ",
        "recycling_type": "centre"
      }
    },
    {
      "type": "node",
      "id": 10293921742,
      "lat": 13.0264468,
      "lon": 77.5918691,
      "tags": {
        "amenity": "college",
        "club": "music",
        "name": "The Bangalore School of Music"
      }
    },
    {
      "type": "node",
      "id": 10293921743,
      "lat": 13.0264454,
      "lon": 77.5915888,
      "tags": {
        "amenity": "place_of_worship",
        "building": "church",
        "denomination": "catholic",
        "name": "Shrine of St. Jude Thaddeaus",
        "religion": "christian"
      }
    },
    {
      "type": "node",
      "id": 10293921744,
      "lat": 13.0244058,
      "lon": 77.5941852,
      "tags": {
        "diet:vegetarian": "only",
        "name": "Simpli Namdhari's",
        "organic": "only",
        "shop": "supermarket",
        "website": "https://www.simplinamdharis.com/"
      }
    },
    {
      "type": "node",
      "id": 10296638734,
      "lat": 13.0191702,
      "lon": 77.5852802,
      "tags": {
        "addr:city": "Bangalore",
        "addr:country": "IN",
        "addr:hamlet": "Ganganagar",
        "addr:housenumber": "8",
        "addr:postcode": "560032",
        "addr:street": "Bellary Road",
        "amenity": "bar",
        "contact:facebook": "CopitasBengaluru",
        "contact:instagram": "copitasbengaluru",
        "email": "copitas.bng@fourseasons.com",
        "level": "21",
        "name": "Copitas",
        "opening_hours": "Tu-Su 17:00-01:00",
        "phone": "96456 69697",
        "website": "https://www.fourseasons.com/bengaluru/dining/lounges/copitas/"
      }
    },
    {
      "type": "node",
      "id": 10302703777,
      "lat": 13.0239133,
      "lon": 77.5926268,
      "tags": {
        "amenity": "fast_food",
        "brand": "Popeyes",
        "brand:wikidata": "Q1330910",
        "brand:wikipedia": "en:Popeyes",
        "cuisine": "chicken",
        "delivery": "yes",
        "name": "Popeyes",
        "official_name": "Popeyes Louisiana Kitchen",
        "takeaway": "yes",
        "website": "https://www.popeyes.in/"
      }
    },
    {
      "type": "node",
      "id": 11626785030,
      "lat": 13.0192846,
      "lon": 77.5851267,
      "tags": {
        "amenity": "pub",
        "check_date": "2024-02-15",
        "name": "Hopshaus"
      }
    },
    {
      "type": "node",
      "id": 12135686523,
      "lat": 13.0188924,
      "lon": 77.5840565,
      "tags": {
        "amenity": "bench",
        "backrest": "yes",
        "material": "stone",
        "seats": "2"
      }
    },
    {
      "type": "node",
      "id": 12260570014,
      "lat": 13.0177761,
      "lon": 77.5917014,
      "tags": {
        "amenity": "restaurant",
        "name": "Neravi"
      }
    },
    {
      "type": "node",
      "id": 12450996660,
      "lat": 13.0206082,
      "lon": 77.5837838,
      "tags": {
        "amenity": "bench",
        "backrest": "yes"
      }
    },
    {
      "type": "node",
      "id": 12628597303,
      "lat": 13.0131163,
      "lon": 77.5837035,
      "tags": {
        "brand": "Bajaj",
        "brand:wikidata": "Q10910065",
        "check_date": "2025-08-08",
        "name": "Bajaj",
        "shop": "motorcycle"
      }
    },
    {
      "type": "node",
      "id": 12628597304,
      "lat": 13.0132839,
      "lon": 77.5836479,
      "tags": {
        "brand": "Honda",
        "brand:wikidata": "Q9584",
        "check_date": "2025-08-08",
        "name": "Honda",
        "shop": "car"
      }
    },
    {
      "type": "node",
      "id": 12862846469,
      "lat": 13.0169602,
      "lon": 77.5914291,
      "tags": {
        "amenity": "fast_food",
        "cuisine": "burger",
        "delivery": "yes",
        "name": "Easy Bites by Empire",
        "takeaway": "yes"
      }
    },
    {
      "type": "node",
      "id": 13013978946,
      "lat": 13.0174696,
      "lon": 77.591572,
      "tags": {
        "amenity": "bar",
        "name": "Jalssa"
      }
    },
    {
      "type": "node",
      "id": 13033883599,
      "lat": 13.015249,
      "lon": 77.583746,
      "tags": {
        "amenity": "place_of_worship",
        "religion": "hindu"
      }
    },
    {
      "type": "node",
      "id": 13057916465,
      "lat": 13.0136244,
      "lon": 77.583658,
      "tags": {
        "check_date": "2025-08-08",
        "name": "Tata Motors",
        "shop": "car"
      }
    },
    {
      "type": "node",
      "id": 13062869382,
      "lat": 13.0207254,
      "lon": 77.593135,
      "tags": {
        "addr:city": "Bengaluru",
        "addr:country": "IN",
        "amenity": "cafe",
        "brand": "Starbucks",
        "brand:wikidata": "Q37158",
        "cuisine": "coffee_shop",
        "name": "Starbucks",
        "official_name": "Starbucks Coffee",
        "takeaway": "yes"
      }
    },
    {
      "type": "node",
      "id": 13155774218,
      "lat": 13.0252499,
      "lon": 77.5855296,
      "tags": {
        "brand": "Suzuki",
        "brand:wikidata": "Q181642",
        "check_date": "2025-09-19",
        "name": "Suzuki",
        "operator": "Meghanath",
        "shop": "motorcycle"
      }
    },
    {
      "type": "node",
      "id": 13155774219,
      "lat": 13.0249358,
      "lon": 77.5854217,
      "tags": {
        "amenity": "bank",
        "brand": "Indian Bank",
        "brand:wikidata": "Q2003789",
        "check_date": "2025-09-19",
        "name": "Indian Bank"
      }
    },
    {
      "type": "node",
      "id": 13155774220,
      "lat": 13.0236639,
      "lon": 77.5851074,
      "tags": {
        "check_date": "2025-09-19",
        "name": "OLA",
        "shop": "motorcycle"
      }
    },
    {
      "type": "node",
      "id": 13155774221,
      "lat": 13.0226528,
      "lon": 77.5848532,
      "tags": {
        "brand": "Vespa",
        "brand:wikidata": "Q217673",
        "check_date": "2025-09-19",
        "name": "Vespa",
        "shop": "motorcycle"
      }
    },
    {
      "type": "node",
      "id": 13155774222,
      "lat": 13.0225276,
      "lon": 77.5848255,
      "tags": {
        "brand": "Triumph",
        "brand:wikidata": "Q1140383",
        "check_date": "2025-09-19",
        "shop": "motorcycle"
      }
    },
    {
      "type": "node",
      "id": 13155774223,
      "lat": 13.0207668,
      "lon": 77.584449,
      "tags": {
        "check_date": "2025-09-19",
        "name": "Jawa",
        "shop": "motorcycle"
      }
    },
    {
      "type": "node",
      "id": 13155774224,
      "lat": 13.0203057,
      "lon": 77.5842015,
      "tags": {
        "check_date": "2025-09-19",
        "shop": "florist"
      }
    },
    {
      "type": "way",
      "id": 38858198,
      "center": {
        "lat": 13.0121051,
        "lon": 77.5828364
      },
      "tags": {
        "leisure": "park",
        "name": "Ramana Maharshi Park",
        "name:etymology:wikidata": "Q288441",
        "name:kn": "ರಮಣ ಮಹರ್ಷಿ ಉದ್ಯಾನವನ"
      }
    },
    {
      "type": "way",
      "id": 38858222,
      "center": {
        "lat": 13.0130745,
        "lon": 77.5811095
      },
      "tags": {
        "amenity": "college",
        "name": "Raman Research Institute",
        "name:etymology:wikidata": "Q60429",
        "short_name": "RRI",
        "start_date": "1948",
        "website": "https://rri.res.in",
        "wikidata": "Q1259644",
        "wikipedia": "en:Raman Research Institute"
      }
    },
    {
      "type": "way",
      "id": 45739922,
      "center": {
        "lat": 13.0184494,
        "lon": 77.595658
      },
      "tags": {
        "amenity": "school"
      }
    },
    {
      "type": "way",
      "id": 45740308,
      "center": {
        "lat": 13.0194919,
        "lon": 77.5962353
      },
      "tags": {
        "leisure": "park"
      }
    },
    {
      "type": "way",
      "id": 45740314,
      "center": {
        "lat": 13.0218574,
        "lon": 77.5935145
      },
      "tags": {
        "leisure": "park"
      }
    },
    {
      "type": "way",
      "id": 45740327,
      "center": {
        "lat": 13.0213685,
        "lon": 77.5970546
      },
      "tags": {
        "leisure": "park"
      }
    },
    {
      "type": "way",
      "id": 45740328,
      "center": {
        "lat": 13.0209333,
        "lon": 77.5984875
      },
      "tags": {
        "landuse": "commercial",
        "leisure": "resort",
        "name": "Patel's Inn Resort"
      }
    },
    {
      "type": "way",
      "id": 133488225,
      "center": {
        "lat": 13.0131503,
        "lon": 77.5937948
      },
      "tags": {
        "amenity": "cinema",
        "name": "Radhakrishna Theatre",
        "name:kn": "ರಾಧಾಕೃಷ್ಣ ಚಿತ್ರಮಂದಿರ"
      }
    },
    {
      "type": "way",
      "id": 175278312,
      "center": {
        "lat": 13.0202739,
        "lon": 77.595591
      },
      "tags": {
        "amenity": "public_building",
        "building": "yes"
      }
    },
    {
      "type": "way",
      "id": 175278313,
      "center": {
        "lat": 13.0205158,
        "lon": 77.5947013
      },
      "tags": {
        "amenity": "public_building",
        "building": "yes"
      }
    },
    {
      "type": "way",
      "id": 278457027,
      "center": {
        "lat": 13.0223671,
        "lon": 77.5954429
      },
      "tags": {
        "leisure": "park",
        "name": "Park at RT Nagar"
      }
    },
    {
      "type": "way",
      "id": 344351449,
      "center": {
        "lat": 13.0119717,
        "lon": 77.588618
      },
      "tags": {
        "leisure": "pitch",
        "sport": "tennis"
      }
    },
    {
      "type": "way",
      "id": 344351451,
      "center": {
        "lat": 13.0114593,
        "lon": 77.5882881
      },
      "tags": {
        "leisure": "pitch",
        "sport": "tennis"
      }
    },
    {
      "type": "way",
      "id": 353374337,
      "center": {
        "lat": 13.0220269,
        "lon": 77.5928761
      },
      "tags": {
        "amenity": "school",
        "name": "Florence School"
      }
    },
    {
      "type": "way",
      "id": 353378505,
      "center": {
        "lat": 13.0232026,
        "lon": 77.5959511
      },
      "tags": {
        "leisure": "park"
      }
    },
    {
      "type": "way",
      "id": 775184932,
      "center": {
        "lat": 13.019624,
        "lon": 77.5856561
      },
      "tags": {
        "leisure": "garden"
      }
    },
    {
      "type": "way",
      "id": 775184933,
      "center": {
        "lat": 13.0204442,
        "lon": 77.5858046
      },
      "tags": {
        "access": "private",
        "leisure": "swimming_pool"
      }
    },
    {
      "type": "way",
      "id": 775184934,
      "center": {
        "lat": 13.0196648,
        "lon": 77.5855236
      },
      "tags": {
        "access": "customers",
        "leisure": "swimming_pool"
      }
    },
    {
      "type": "way",
      "id": 775184937,
      "center": {
        "lat": 13.0206624,
        "lon": 77.5857778
      },
      "tags": {
        "leisure": "garden"
      }
    },
    {
      "type": "way",
      "id": 775186841,
      "center": {
        "lat": 13.0201187,
        "lon": 77.5815427
      },
      "tags": {
        "access": "no",
        "leisure": "pitch",
        "sport": "cricket"
      }
    },
    {
      "type": "way",
      "id": 775186842,
      "center": {
        "lat": 13.021008,
        "lon": 77.5821548
      },
      "tags": {
        "access": "no",
        "leisure": "swimming_pool",
        "sport": "swimming"
      }
    },
    {
      "type": "way",
      "id": 775186843,
      "center": {
        "lat": 13.0191431,
        "lon": 77.5820683
      },
      "tags": {
        "access": "no",
        "leisure": "pitch",
        "sport": "tennis"
      }
    },
    {
      "type": "way",
      "id": 796374051,
      "center": {
        "lat": 13.0099309,
        "lon": 77.5941222
      },
      "tags": {
        "addr:district": "Bengaluru",
        "addr:full": "Munireddypalya, J.C.Nagar, Bengaluru",
        "addr:postcode": "560006",
        "addr:state": "Karnataka",
        "amenity": "hospital",
        "name": "JC Nagar Municipal Hospital",
        "source": "OpenGovernmentData"
      }
    },
    {
      "type": "way",
      "id": 839044763,
      "center": {
        "lat": 13.0194822,
        "lon": 77.5946407
      },
      "tags": {
        "leisure": "park"
      }
    },
    {
      "type": "way",
      "id": 963352882,
      "center": {
        "lat": 13.0248754,
        "lon": 77.5830666
      },
      "tags": {
        "addr:city": "Bengaluru",
        "addr:postcode": "560024",
        "addr:street": "Hebbal, Sanjaynagar, Karnataka",
        "amenity": "college",
        "fixme": "polygon boundaries",
        "landuse": "education",
        "name": "ICAR - Indian Veterinary Research Institute, Hebbal",
        "name:kn": "ಕೃಷಿ ವಿಶ್ವವಿದ್ಯಾಲಯ",
        "phone": "080 2341 0729",
        "website": "ivri.nic.in"
      }
    },
    {
      "type": "way",
      "id": 1023657480,
      "center": {
        "lat": 13.0141331,
        "lon": 77.5938747
      },
      "tags": {
        "amenity": "place_of_worship",
        "religion": "hindu"
      }
    },
    {
      "type": "way",
      "id": 1023657481,
      "center": {
        "lat": 13.0123443,
        "lon": 77.5946694
      },
      "tags": {
        "amenity": "school"
      }
    },
    {
      "type": "way",
      "id": 1119921717,
      "center": {
        "lat": 13.0241141,
        "lon": 77.5866881
      },
      "tags": {
        "leisure": "playground"
      }
    },
    {
      "type": "way",
      "id": 1119921718,
      "center": {
        "lat": 13.024187,
        "lon": 77.5863339
      },
      "tags": {
        "leisure": "park"
      }
    },
    {
      "type": "way",
      "id": 1125698046,
      "center": {
        "lat": 13.0258289,
        "lon": 77.5947264
      },
      "tags": {
        "amenity": "school"
      }
    },
    {
      "type": "way",
      "id": 1311549277,
      "center": {
        "lat": 13.0247211,
        "lon": 77.5852977
      },
      "tags": {
        "amenity": "fuel",
        "brand": "Hindustan Petroleum",
        "brand:wikidata": "Q1619375",
        "name": "Hindustan Petroleum",
        "name:kn": "ಹಿಂದುಸ್ತಾನ್ ಪೆಟ್ರೋಲಿಯಂ",
        "official_name": "Hindustan Petroleum",
        "wheelchair": "limited"
      }
    },
    {
      "type": "way",
      "id": 1338154676,
      "center": {
        "lat": 13.0113226,
        "lon": 77.5880668
      },
      "tags": {
        "amenity": "events_venue",
        "name": "The Gardenia"
      }
    },
    {
      "type": "way",
      "id": 1338154677,
      "center": {
        "lat": 13.0105561,
        "lon": 77.588105
      },
      "tags": {
        "addr:place": "Palace Grounds",
        "amenity": "events_venue",
        "name": "The Banquet Hall"
      }
    },
    {
      "type": "way",
      "id": 1338239585,
      "center": {
        "lat": 13.0108293,
        "lon": 77.5884256
      },
      "tags": {
        "addr:place": "Palace Grounds",
        "amenity": "events_venue",
        "full_name": "Tripua Vasini White Petals",
        "name": "White Petals"
      }
    },
    {
      "type": "way",
      "id": 1338239598,
      "center": {
        "lat": 13.0114205,
        "lon": 77.5888633
      },
      "tags": {
        "access": "private",
        "amenity": "parking",
        "parking": "surface"
      }
    },
    {
      "type": "way",
      "id": 1338239599,
      "center": {
        "lat": 13.0106499,
        "lon": 77.5890105
      },
      "tags": {
        "access": "private",
        "amenity": "parking",
        "parking": "surface"
      }
    },
    {
      "type": "way",
      "id": 1338239604,
      "center": {
        "lat": 13.0102567,
        "lon": 77.5866441
      },
      "tags": {
        "access": "private",
        "leisure": "pitch",
        "sport": "tennis"
      }
    },
    {
      "type": "way",
      "id": 1338260833,
      "center": {
        "lat": 13.0090543,
        "lon": 77.5860711
      },
      "tags": {
        "addr:place": "Palace Grounds",
        "amenity": "events_venue",
        "name": "Gayatri Vihar"
      }
    },
    {
      "type": "way",
      "id": 1338260834,
      "center": {
        "lat": 13.0107933,
        "lon": 77.5844434
      },
      "tags": {
        "access": "private",
        "amenity": "parking",
        "parking": "surface"
      }
    },
    {
      "type": "way",
      "id": 1343349411,
      "center": {
        "lat": 13.0211878,
        "lon": 77.5844051
      },
      "tags": {
        "amenity": "fuel",
        "brand": "Shell",
        "brand:wikidata": "Q110716465",
        "compressed_air": "yes",
        "name": "Shell",
        "opening_hours": "Mo-Su 06:00-23:00",
        "operator": "Shell",
        "wheelchair": "limited"
      }
    },
    {
      "type": "way",
      "id": 1385609285,
      "center": {
        "lat": 13.0244119,
        "lon": 77.585337
      },
      "tags": {
        "amenity": "place_of_worship",
        "religion": "hindu"
      }
    },
    {
      "type": "way",
      "id": 1386042651,
      "center": {
        "lat": 13.0246853,
        "lon": 77.5931961
      },
      "tags": {
        "amenity": "police",
        "name": "RT Nagar Police Station",
        "name:kn": "ಆರ್ ಟಿ ನಗರ ಪೊಲೀಸ್ ಠಾಣೆ"
      }
    },
    {
      "type": "way",
      "id": 1386469070,
      "center": {
        "lat": 13.0185914,
        "lon": 77.5919576
      },
      "tags": {
        "amenity": "fuel",
        "operator": "BP"
      }
    }
  ]
}