{
  "area_name": "Mohan Kumar Nagar",
  "osm_id": 598947872,
  "osm_type": "node",
  "place_type": "neighbourhood",
  "amenity_count": 245,
  "amenities": [
    {
      "type": "node",
      "id": 638917146,
      "lat": 13.0369962,
      "lon": 77.5573938,
      "tags": {
        "amenity": "place_of_worship",
        "name": "Mathikere Masjid",
        "name:kn": "ಮತ್ತಿಕೆರೆ ಮಸೀದಿ",
        "religion": "muslim",
        "toilets:wheelchair": "no",
        "wheelchair": "limited"
      }
    },
    {
      "type": "node",
      "id": 638988095,
      "lat": 13.0326654,
      "lon": 77.5537972,
      "tags": {
        "amenity": "post_office",
        "name": "Shree Chowdeshwari Post Office",
        "wheelchair": "no"
      }
    },
    {
      "type": "node",
      "id": 638989415,
      "lat": 13.0352764,
      "lon": 77.5536076,
      "tags": {
        "amenity": "toilets",
        "wheelchair": "no"
      }
    },
    {
      "type": "node",
      "id": 1096875581,
      "lat": 13.0357887,
      "lon": 77.554688,
      "tags": {
        "shop": "hairdresser"
      }
    },
    {
      "type": "node",
      "id": 1462340034,
      "lat": 13.0325342,
      "lon": 77.5587342,
      "tags": {
        "amenity": "bank",
        "atm": "yes",
        "brand": "State Bank of India",
        "brand:wikidata": "Q1340361",
        "brand:wikipedia": "en:State Bank of India",
        "name": "State Bank of India",
        "name:kn": "ಭಾರತೀಯ ಸ್ಟೇಟ್ ಬ್ಯಾಂಕ್",
        "short_name": "SBI",
        "website": "https://www.sbi.co.in",
        "wheelchair": "no"
      }
    },
    {
      "type": "node",
      "id": 1465454653,
      "lat": 13.0325996,
      "lon": 77.5589529,
      "tags": {
        "amenity": "pharmacy",
        "dispensing": "yes",
        "name": "Dr Shah Clinic",
        "wheelchair": "limited"
      }
    },
    {
      "type": "node",
      "id": 1472732143,
      "lat": 13.0340331,
      "lon": 77.5563802,
      "tags": {
        "amenity": "atm",
        "fee": "yes",
        "operator": "ICICI ATM"
      }
    },
    {
      "type": "node",
      "id": 1473004837,
      "lat": 13.0238021,
      "lon": 77.5494737,
      "tags": {
        "amenity": "fuel"
      }
    },
    {
      "type": "node",
      "id": 1473014762,
      "lat": 13.0271417,
      "lon": 77.5438625,
      "tags": {
        "amenity": "restaurant",
        "name": "Hotel Prabha International",
        "name:kn": "ಹೋಟೆಲ್ ಪ್ರಭಾ ಇಂಟರ್‌ನ್ಯಾಶನಲ್"
      }
    },
    {
      "type": "node",
      "id": 1572644025,
      "lat": 13.0235615,
      "lon": 77.5507008,
      "tags": {
        "amenity": "parking",
        "name": "Yeswantapur Station Parking"
      }
    },
    {
      "type": "node",
      "id": 1580632674,
      "lat": 13.0225825,
      "lon": 77.551512,
      "tags": {
        "amenity": "toilets",
        "fee": "yes",
        "wheelchair": "no"
      }
    },
    {
      "type": "node",
      "id": 1580635076,
      "lat": 13.0233826,
      "lon": 77.5508348,
      "tags": {
        "amenity": "atm",
        "brand": "Canara Bank",
        "brand:en": "Canara Bank",
        "brand:hi": "केनरा बैंक",
        "brand:kn": "ಕೆನರಾ ಬ್ಯಾಂಕ್",
        "brand:pa": "ਕੇਨਰਾ ਬੈਂਕ",
        "brand:pnb": "کینرا بینک",
        "brand:ur": "کینرا بینک",
        "brand:wikidata": "Q2003777",
        "brand:wikipedia": "en:Canara Bank",
        "brand:wikipedia:pa": "ਕੇਨਰਾ ਬੈਂਕ",
        "name": "Canara Bank",
        "name:en": "Canara Bank",
        "name:hi": "केनरा बैंक",
        "name:kn": "ಕೆನರಾ ಬ್ಯಾಂಕ್",
        "name:pa": "ਕੇਨਰਾ ਬੈਂਕ",
        "name:pnb": "کینرا بینک",
        "name:ur": "کینرا بینک",
        "operator": "Canara Bank",
        "operator:wikidata": "Q2003777"
      }
    },
    {
      "type": "node",
      "id": 1580635077,
      "lat": 13.0234202,
      "lon": 77.5508174,
      "tags": {
        "amenity": "atm",
        "brand": "State Bank of India",
        "brand:wikidata": "Q1340361",
        "name": "State Bank of India",
        "name:kn": "ಭಾರತೀಯ ಸ್ಟೇಟ್ ಬ್ಯಾಂಕ್",
        "operator": "State Bank of India",
        "operator:wikidata": "Q1340361",
        "short_name": "SBI"
      }
    },
    {
      "type": "node",
      "id": 1580635078,
      "lat": 13.0233507,
      "lon": 77.550854,
      "tags": {
        "amenity": "atm",
        "name": "Union Bank",
        "name:kn": "ಯೂನಿಯನ್ ಬ್ಯಾಂಕ್",
        "operator": "Union Bank"
      }
    },
    {
      "type": "node",
      "id": 1580635863,
      "lat": 13.0241157,
      "lon": 77.5504265,
      "tags": {
        "access": "customers",
        "amenity": "parking_space",
        "covered": "yes",
        "fee": "yes",
        "lit": "yes",
        "name": "2-Wheeler Parking",
        "opening_hours": "24/7",
        "parking": "surface",
        "supervised": "yes",
        "surface": "paved"
      }
    },
    {
      "type": "node",
      "id": 1581346714,
      "lat": 13.030076,
      "lon": 77.5593983,
      "tags": {
        "amenity": "restaurant",
        "cuisine": "indian",
        "name": "New Sagar",
        "name:kn": "ನ್ಯೂ ಸಾಗರ್"
      }
    },
    {
      "type": "node",
      "id": 2027760047,
      "lat": 13.0250549,
      "lon": 77.546176,
      "tags": {
        "amenity": "bank",
        "atm": "yes",
        "brand": "Andhra Bank",
        "brand:wikidata": "Q2003476",
        "brand:wikipedia": "en:Andhra Bank",
        "name": "Andhra Bank",
        "name:en": "Andhra Bank",
        "name:kn": "ಆಂಧ್ರ ಬ್ಯಾಂಕ್",
        "website": "https://www.andhrabank.in"
      }
    },
    {
      "type": "node",
      "id": 2027760048,
      "lat": 13.024952,
      "lon": 77.5463641,
      "tags": {
        "amenity": "bank",
        "atm": "yes",
        "brand": "Axis Bank",
        "brand:wikidata": "Q2003549",
        "brand:wikipedia": "en:Axis Bank",
        "name": "Axis Bank",
        "name:en": "Axis Bank",
        "name:kn": "ಆಕ್ಸಿಸ್ ಬ್ಯಾಂಕ್",
        "website": "https://www.axisbank.com"
      }
    },
    {
      "type": "node",
      "id": 2027760049,
      "lat": 13.0240517,
      "lon": 77.5479481,
      "tags": {
        "amenity": "bank",
        "atm": "yes",
        "brand": "Bank of Baroda",
        "brand:wikidata": "Q2003797",
        "brand:wikipedia": "en:Bank of Baroda",
        "name": "Bank of Baroda",
        "name:en": "Bank of Baroda",
        "name:kn": "ಬ್ಯಾಂಕ್ ಆಫ್ ಬರೋಡ",
        "short_name": "BoB",
        "website": "http://www.bankofbaroda.com"
      }
    },
    {
      "type": "node",
      "id": 2027760050,
      "lat": 13.0250934,
      "lon": 77.5461198,
      "tags": {
        "amenity": "bank",
        "atm": "yes",
        "brand": "Canara Bank",
        "brand:en": "Canara Bank",
        "brand:hi": "केनरा बैंक",
        "brand:kn": "ಕೆನರಾ ಬ್ಯಾಂಕ್",
        "brand:pa": "ਕੇਨਰਾ ਬੈਂਕ",
        "brand:pnb": "کینرا بینک",
        "brand:ur": "کینرا بینک",
        "brand:wikidata": "Q2003777",
        "brand:wikipedia": "en:Canara Bank",
        "brand:wikipedia:pa": "ਕੇਨਰਾ ਬੈਂਕ",
        "name": "Canara Bank",
        "name:en": "Canara Bank",
        "name:hi": "केनरा बैंक",
        "name:kn": "ಕೆನರಾ ಬ್ಯಾಂಕ್",
        "name:pa": "ਕੇਨਰਾ ਬੈਂਕ",
        "name:pnb": "کینرا بینک",
        "name:ur": "کینرا بینک",
        "website": "https://www.canarabank.com/"
      }
    },
    {
      "type": "node",
      "id": 2027760051,
      "lat": 13.023952,
      "lon": 77.5481032,
      "tags": {
        "amenity": "bank",
        "atm": "yes",
        "brand": "Corporation Bank",
        "brand:wikidata": "Q2003387",
        "brand:wikipedia": "en:Corporation Bank",
        "name": "Corporation Bank",
        "name:en": "Corporation Bank",
        "name:kn": "ಕಾರ್ಪರೇಷನ್ ಬ್ಯಾಂಕ್",
        "website": "https://corpbank.com/"
      }
    },
    {
      "type": "node",
      "id": 2027760052,
      "lat": 13.0248684,
      "lon": 77.5465159,
      "tags": {
        "amenity": "bank",
        "atm": "yes",
        "brand": "ICICI Bank",
        "brand:wikidata": "Q1653258",
        "name": "ICICI Bank",
        "name:en": "ICICI Bank",
        "name:kn": "ಐಸಿಐಸಿಐ ಬ್ಯಾಂಕು",
        "short_name": "ICICI",
        "website": "https://www.icicibank.com"
      }
    },
    {
      "type": "node",
      "id": 2027760053,
      "lat": 13.0251231,
      "lon": 77.5460394,
      "tags": {
        "addr:city": "Bangalore",
        "addr:postcode": "560022",
        "addr:street": "Tumkur Road",
        "amenity": "bank",
        "atm": "no",
        "name": "LIC (61U/CB-20)"
      }
    },
    {
      "type": "node",
      "id": 2027760054,
      "lat": 13.0237386,
      "lon": 77.5481786,
      "tags": {
        "amenity": "bank",
        "atm": "yes",
        "brand": "State Bank of India",
        "brand:wikidata": "Q1340361",
        "brand:wikipedia": "en:State Bank of India",
        "name": "State Bank of India",
        "name:kn": "ಭಾರತೀಯ ಸ್ಟೇಟ್ ಬ್ಯಾಂಕ್",
        "short_name": "SBI",
        "website": "https://www.sbi.co.in"
      }
    },
    {
      "type": "node",
      "id": 2027760055,
      "lat": 13.024923,
      "lon": 77.5464169,
      "tags": {
        "amenity": "bank",
        "atm": "yes",
        "name": "Union Bank",
        "name:kn": "ಯೂನಿಯನ್ ಬ್ಯಾಂಕ್"
      }
    },
    {
      "type": "node",
      "id": 2353259160,
      "lat": 13.0361493,
      "lon": 77.557739,
      "tags": {
        "amenity": "toilets"
      }
    },
    {
      "type": "node",
      "id": 3400223742,
      "lat": 13.0244173,
      "lon": 77.5489753,
      "tags": {
        "alt_name": "Kentucky Fried Chicken",
        "alt_name:en": "Kentucky Fried Chicken",
        "alt_name:hi": "केंटुकी फ्राइड चिकन",
        "alt_name:pa": "ਕੈਂਟੁਕੀ ਫ੍ਰਾਈਡ ਚਿਕਨ",
        "alt_name:pnb": "کینٹکی فرائیڈ چکن",
        "alt_name:ur": "کینٹکی فرائیڈ چکن",
        "amenity": "fast_food",
        "brand": "KFC",
        "brand:en": "KFC",
        "brand:hi": "केएफसी",
        "brand:pa": "ਕੇਐਫਸੀ",
        "brand:pnb": "کے ایف سی",
        "brand:ur": "کے ایف سی",
        "brand:wikidata": "Q524757",
        "brand:wikipedia": "en:KFC",
        "brand:wikipedia:pa": "ਕੇਐਫਸੀ",
        "brand:wikipedia:ur": "کینٹکی فرائیڈ چکن",
        "cuisine": "chicken",
        "indoor_seating": "yes",
        "name": "KFC",
        "name:en": "KFC",
        "name:hi": "केएफसी",
        "name:kn": "ಕೆಎಫ್‍ಸಿ",
        "name:pa": "ਕੇਐਫਸੀ",
        "name:pnb": "کے ایف سی",
        "name:ur": "کے ایف سی",
        "outdoor_seating": "no",
        "takeaway": "yes"
      }
    },
    {
      "type": "node",
      "id": 3555393844,
      "lat": 13.0294181,
      "lon": 77.5593857,
      "tags": {
        "addr:district": "Bengaluru Urban",
        "addr:full": "No. 19/A, Opposite Lic , Mathikere Main Road",
        "addr:postcode": "560021",
        "addr:state": "Karnataka",
        "amenity": "hospital",
        "healthcare": "hospital",
        "healthcare:speciality": "general",
        "name": "Sri Sai Krupa Hospital, Bengaluru Urban",
        "name:kn": "ಸಾಯಿ ಕೃಪ ಆಸ್ಪತ್ರೆ",
        "source": "OpenGovernmentData"
      }
    },
    {
      "type": "node",
      "id": 4027308246,
      "lat": 13.0247172,
      "lon": 77.5483657,
      "tags": {
        "brand": "More",
        "brand:wikidata": "Q6910891",
        "name": "More",
        "name:kn": "ಮೋರ್",
        "shop": "supermarket"
      }
    },
    {
      "type": "node",
      "id": 4446306863,
      "lat": 13.0291434,
      "lon": 77.5579617,
      "tags": {
        "addr:city": "bangalore",
        "addr:housenumber": "375/A",
        "addr:postcode": "560054",
        "addr:street": "6th Cross, 8th Cross, 13th Main Rd, Mathikere, HMT Layout, Yeshwanthpur, Karnataka",
        "amenity": "pharmacy",
        "name": "OM Shakthi Medicals & General Stores",
        "phone": "+9190351 57235"
      }
    },
    {
      "type": "node",
      "id": 4446502570,
      "lat": 13.0325717,
      "lon": 77.5582602,
      "tags": {
        "addr:city": "bangalore",
        "addr:district": "Bengaluru Urban",
        "addr:postcode": "560054",
        "addr:state": "Karnataka",
        "addr:street": "#426/12, 2 Cross,Mathikere Layout,Behind Canara Bank",
        "amenity": "hospital",
        "name": "Sumathi Nursing and Maternity Home",
        "phone": "+9180 2337 2762"
      }
    },
    {
      "type": "node",
      "id": 4447101670,
      "lat": 13.0238592,
      "lon": 77.5564245,
      "tags": {
        "addr:city": "bangalore",
        "addr:housenumber": "4/3",
        "addr:postcode": "560022",
        "addr:street": "Nanjappa Reddy Colony, 1st Main Rd, K. N. Extension, Kamla Nehru. Extension, Yeshwanthpur",
        "amenity": "pharmacy",
        "name": "Suprith Diagnostic Centre",
        "phone": "+9198442 96756",
        "source": "www.justdial.com"
      }
    },
    {
      "type": "node",
      "id": 4488026117,
      "lat": 13.0352764,
      "lon": 77.5536076,
      "tags": {
        "addr:city": "Bangalore",
        "addr:housenumber": "12",
        "addr:postcode": "560054",
        "addr:street": "SBM Colony, Tank Bund Road, Gokula Extension,",
        "name": "More For You",
        "phone": "(91)-9845794196",
        "shop": "supermarket",
        "website": "http://www.morestore.com/"
      }
    },
    {
      "type": "node",
      "id": 4488602509,
      "lat": 13.039288,
      "lon": 77.5537006,
      "tags": {
        "addr:city": "Bengaluru",
        "addr:housenumber": "10",
        "addr:postcode": "560054",
        "addr:street": "Muthyalamma Nagar 1st Main Road",
        "name": "I Mart",
        "phone": "(91)-80-39629225",
        "shop": "supermarket"
      }
    },
    {
      "type": "node",
      "id": 4489288521,
      "lat": 13.0309835,
      "lon": 77.560217,
      "tags": {
        "addr:city": "Bangalore",
        "addr:postcode": "560054",
        "addr:street": "No. 25-4, Basement, Opp Agarwal Bhavan, HMT Main Road, Mathikere, Bhadrappa Layout, Mathikere Extension",
        "name": "Rr Cycles",
        "opening_hours": "10:00-21:30",
        "phone": "080 4128 3293",
        "shop": "sports",
        "website": "https://www.trackandtrail.in/"
      }
    },
    {
      "type": "node",
      "id": 5535767588,
      "lat": 13.0292967,
      "lon": 77.559646,
      "tags": {
        "amenity": "place_of_worship",
        "denomination": "hindu",
        "name": "Panchamukha Ganesh Temple",
        "name:kn": "ಪಂಚಮುಖ ಗಣೇಶ",
        "religion": "hindu"
      }
    },
    {
      "type": "node",
      "id": 5535769505,
      "lat": 13.0307262,
      "lon": 77.5582323,
      "tags": {
        "amenity": "place_of_worship",
        "name": "Raghavendra Temple",
        "name:kn": "ರಾಘವೇಂದ್ರ ದೇವಸ್ಥಾನ",
        "religion": "hindu"
      }
    },
    {
      "type": "node",
      "id": 5535770505,
      "lat": 13.0297077,
      "lon": 77.5584857,
      "tags": {
        "amenity": "place_of_worship",
        "name": "Subramanya Swami Temple",
        "name:kn": "ಸುಬ್ರಮಣ್ಯ ಸ್ವಾಮಿ",
        "religion": "hindu"
      }
    },
    {
      "type": "node",
      "id": 5535771206,
      "lat": 13.0294516,
      "lon": 77.5586948,
      "tags": {
        "amenity": "post_office",
        "name": "Mathikere Post office",
        "name:kn": "ಮತಿಕೆರೆ ಅಂಚೆ ಕಛೇರಿ"
      }
    },
    {
      "type": "node",
      "id": 5535772369,
      "lat": 13.0297633,
      "lon": 77.5583147,
      "tags": {
        "amenity": "place_of_worship",
        "name": "Ganesha Temple",
        "name:kn": "ಗಣೇಶ ದೇವಸ್ಥಾನ",
        "religion": "hindu"
      }
    },
    {
      "type": "node",
      "id": 5535777989,
      "lat": 13.0306296,
      "lon": 77.5594066,
      "tags": {
        "amenity": "place_of_worship",
        "religion": "christian"
      }
    },
    {
      "type": "node",
      "id": 5536066532,
      "lat": 13.0284739,
      "lon": 77.5588351,
      "tags": {
        "name": "Raghu Medicals",
        "shop": "chemist"
      }
    },
    {
      "type": "node",
      "id": 5714418132,
      "lat": 13.0248469,
      "lon": 77.5484619,
      "tags": {
        "amenity": "cinema",
        "brand": "PVR Cinemas",
        "brand:wikidata": "Q3359908",
        "cinema:3D": "yes",
        "name": "PVR Cinemas",
        "phone": "080-28078100",
        "screen": "6",
        "short_name": "PVR"
      }
    },
    {
      "type": "node",
      "id": 5714418133,
      "lat": 13.0245352,
      "lon": 77.5487375,
      "tags": {
        "name": "Unlimited",
        "shop": "clothes"
      }
    },
    {
      "type": "node",
      "id": 6285710086,
      "lat": 13.0231091,
      "lon": 77.5506642,
      "tags": {
        "amenity": "toilets",
        "opening_hours": "24/7"
      }
    },
    {
      "type": "node",
      "id": 6285723685,
      "lat": 13.0240498,
      "lon": 77.5506756,
      "tags": {
        "amenity": "fast_food",
        "indoor_seating": "no",
        "name": "Kadamba Fast Food",
        "outdoor_seating": "no",
        "takeaway": "only"
      }
    },
    {
      "type": "node",
      "id": 6285734402,
      "lat": 13.0234299,
      "lon": 77.5509897,
      "tags": {
        "amenity": "restaurant",
        "indoor_seating": "yes",
        "name": "Dakshen Veg Restaurant",
        "outdoor_seating": "no"
      }
    },
    {
      "type": "node",
      "id": 6404125090,
      "lat": 13.0322915,
      "lon": 77.5587286,
      "tags": {
        "name": "Sri Gurudarshan Sweet's",
        "shop": "bakery"
      }
    },
    {
      "type": "node",
      "id": 6654524745,
      "lat": 13.0288117,
      "lon": 77.5436617,
      "tags": {
        "leisure": "fitness_station"
      }
    },
    {
      "type": "node",
      "id": 6654524746,
      "lat": 13.0286575,
      "lon": 77.543415,
      "tags": {
        "amenity": "library"
      }
    },
    {
      "type": "node",
      "id": 6654524747,
      "lat": 13.0289162,
      "lon": 77.5435142,
      "tags": {
        "shop": "convenience"
      }
    },
    {
      "type": "node",
      "id": 6654524748,
      "lat": 13.0286581,
      "lon": 77.5436007,
      "tags": {
        "amenity": "restaurant"
      }
    },
    {
      "type": "node",
      "id": 6938860232,
      "lat": 13.0333056,
      "lon": 77.5558276,
      "tags": {
        "addr:district": "Bengaluru Urban",
        "addr:full": "818/819 16Th 'A' Main, 2nd Cross Gokul Extension, Mathikere",
        "addr:postcode": "560056",
        "addr:state": "Karnataka",
        "amenity": "clinic",
        "name": "Mathrushree Nethralaya",
        "name:kn": "ಮಾತೃಶ್ರೀ ನಿಲಯ",
        "source": "OpenGovernmentData"
      }
    },
    {
      "type": "node",
      "id": 6944226349,
      "lat": 13.0323629,
      "lon": 77.5592642,
      "tags": {
        "addr:district": "Bengaluru Urban",
        "addr:full": "#67, 9Th Main, Next To Dr.Shah`S Diagnostic Centre, Hmt Main Road, Mathikere",
        "addr:postcode": "560054",
        "addr:state": "Karnataka",
        "amenity": "clinic",
        "name": "Aradhana Netra Mandira",
        "source": "OpenGovernmentData"
      }
    },
    {
      "type": "node",
      "id": 7228148553,
      "lat": 13.0307807,
      "lon": 77.5603692,
      "tags": {
        "name": "Just Bake",
        "name:kn": "ಜಸ್ಟ್ ಬೇಕ್",
        "shop": "bakery"
      }
    },
    {
      "type": "node",
      "id": 7228148554,
      "lat": 13.0307271,
      "lon": 77.5599951,
      "tags": {
        "amenity": "atm",
        "brand": "Karanataka Bank"
      }
    },
    {
      "type": "node",
      "id": 7228148555,
      "lat": 13.0313098,
      "lon": 77.559531,
      "tags": {
        "brand": "Bata",
        "brand:wikidata": "Q688082",
        "name": "Bata",
        "name:kn": "ಬಾಟಾ",
        "shop": "shoes"
      }
    },
    {
      "type": "node",
      "id": 7228148556,
      "lat": 13.032069,
      "lon": 77.5593775,
      "tags": {
        "amenity": "bank",
        "atm": "yes",
        "brand": "Karnataka Bank",
        "brand:wikidata": "Q2042632",
        "name": "Karnataka Bank",
        "name:kn": "ಕರ್ನಾಟಕ ಬ್ಯಾಂಕ್",
        "operator": "Karnataka Bank"
      }
    },
    {
      "type": "node",
      "id": 7228148557,
      "lat": 13.0334853,
      "lon": 77.5579613,
      "tags": {
        "name": "Boots",
        "shop": "shoes"
      }
    },
    {
      "type": "node",
      "id": 7228148558,
      "lat": 13.0336721,
      "lon": 77.5578305,
      "tags": {
        "amenity": "fast_food",
        "name": "Mirchi"
      }
    },
    {
      "type": "node",
      "id": 7228148570,
      "lat": 13.0347696,
      "lon": 77.5576937,
      "tags": {
        "amenity": "pharmacy",
        "name": "Sri Ganesh Medical"
      }
    },
    {
      "type": "node",
      "id": 7296694721,
      "lat": 13.0245835,
      "lon": 77.5466913,
      "tags": {
        "brand": "Kia",
        "brand:wikidata": "Q35349",
        "name": "Kia",
        "operator": "Kia",
        "shop": "car"
      }
    },
    {
      "type": "node",
      "id": 8148761741,
      "lat": 13.0286524,
      "lon": 77.5588569,
      "tags": {
        "name": "Mathaji book center",
        "shop": "stationery"
      }
    },
    {
      "type": "node",
      "id": 8148770393,
      "lat": 13.0262907,
      "lon": 77.5578304,
      "tags": {
        "brand": "Bombay Dyeing",
        "shop": "clothes"
      }
    },
    {
      "type": "node",
      "id": 8151014160,
      "lat": 13.0316873,
      "lon": 77.5592885,
      "tags": {
        "name": "Fish stall",
        "shop": "butcher"
      }
    },
    {
      "type": "node",
      "id": 8151032698,
      "lat": 13.0309821,
      "lon": 77.5602586,
      "tags": {
        "amenity": "dentist",
        "brand": "Clove :)"
      }
    },
    {
      "type": "node",
      "id": 8151039291,
      "lat": 13.0309414,
      "lon": 77.5602591,
      "tags": {
        "amenity": "fast_food",
        "brand": "Domino's",
        "brand:wikidata": "Q839466",
        "cuisine": "pizza",
        "name": "Domino's",
        "name:kn": "ಡಾಮಿನೋಸ್",
        "takeaway": "yes"
      }
    },
    {
      "type": "node",
      "id": 8151044496,
      "lat": 13.0321385,
      "lon": 77.5589552,
      "tags": {
        "description": "wholesale condiments",
        "name": "Sree Ayappa foods",
        "shop": "spices"
      }
    },
    {
      "type": "node",
      "id": 8151052080,
      "lat": 13.030564,
      "lon": 77.5601296,
      "tags": {
        "amenity": "bank",
        "brand": "South Indian Bank",
        "brand:wikidata": "Q2044973",
        "name": "South Indian Bank",
        "name:kn": "ಸೌತ್ ಇಂಡಿಯನ್ ಬ್ಯಾಂಕ್"
      }
    },
    {
      "type": "node",
      "id": 8188057258,
      "lat": 13.022342,
      "lon": 77.5528657,
      "tags": {
        "addr:full": "Ground Floor, No. 4, Railway Parallel Rd, Dr.Ambedkar Nagar, Yeswanthpur, Bengaluru, Karnataka",
        "addr:state": "Karnataka",
        "amenity": "restaurant",
        "name": "Annapurna Restaurant",
        "name:kn": "ಅಣ್ಣಪೂರ್ಣ"
      }
    },
    {
      "type": "node",
      "id": 8254999682,
      "lat": 13.0249126,
      "lon": 77.5575755,
      "tags": {
        "access": "yes",
        "amenity": "toilets",
        "fee": "yes"
      }
    },
    {
      "type": "node",
      "id": 8255021025,
      "lat": 13.0291064,
      "lon": 77.5588449,
      "tags": {
        "brand": "Jockey",
        "shop": "clothes"
      }
    },
    {
      "type": "node",
      "id": 8255026055,
      "lat": 13.0234095,
      "lon": 77.555958,
      "tags": {
        "amenity": "pharmacy",
        "name": "Medicine Point"
      }
    },
    {
      "type": "node",
      "id": 8255026538,
      "lat": 13.0250155,
      "lon": 77.5576232,
      "tags": {
        "name": "Prakash Jewelry",
        "shop": "jewelry"
      }
    },
    {
      "type": "node",
      "id": 8364333709,
      "lat": 13.0331581,
      "lon": 77.5547661,
      "tags": {
        "name": "A-1 chicken center",
        "shop": "butcher"
      }
    },
    {
      "type": "node",
      "id": 8364343832,
      "lat": 13.0278875,
      "lon": 77.5559789,
      "tags": {
        "name": "Tawakkaltu Mutton and chicken",
        "shop": "butcher"
      }
    },
    {
      "type": "node",
      "id": 8364344267,
      "lat": 13.0341676,
      "lon": 77.5578722,
      "tags": {
        "name": "Daily Fresh Fruits and vegetables",
        "shop": "greengrocer"
      }
    },
    {
      "type": "node",
      "id": 8364348296,
      "lat": 13.0332219,
      "lon": 77.5549236,
      "tags": {
        "amenity": "hospital",
        "name": "Sun Orthopaedic center"
      }
    },
    {
      "type": "node",
      "id": 8364351022,
      "lat": 13.0338742,
      "lon": 77.5539838,
      "tags": {
        "brand": "More",
        "brand:wikidata": "Q6910891",
        "name": "More",
        "shop": "supermarket"
      }
    },
    {
      "type": "node",
      "id": 8364357469,
      "lat": 13.0278944,
      "lon": 77.5553769,
      "tags": {
        "name": "Yarabh mutton stall",
        "shop": "butcher"
      }
    },
    {
      "type": "node",
      "id": 8364361959,
      "lat": 13.0336742,
      "lon": 77.5540036,
      "tags": {
        "name": "New Varier cake time",
        "shop": "bakery"
      }
    },
    {
      "type": "node",
      "id": 8364362122,
      "lat": 13.0344221,
      "lon": 77.5573196,
      "tags": {
        "name": "Star Chicken Stall",
        "shop": "butcher"
      }
    },
    {
      "type": "node",
      "id": 8364366885,
      "lat": 13.03363,
      "lon": 77.5578782,
      "tags": {
        "brand": "Prestige",
        "shop": "appliance"
      }
    },
    {
      "type": "node",
      "id": 8364368007,
      "lat": 13.0290405,
      "lon": 77.5534527,
      "tags": {
        "name": "B.M. Chicken stall",
        "shop": "butcher"
      }
    },
    {
      "type": "node",
      "id": 8364369224,
      "lat": 13.0336253,
      "lon": 77.557897,
      "tags": {
        "name": "The county meat",
        "shop": "butcher"
      }
    },
    {
      "type": "node",
      "id": 8364370218,
      "lat": 13.0334391,
      "lon": 77.5557171,
      "tags": {
        "name": "Nandi Automobiles",
        "shop": "car"
      }
    },
    {
      "type": "node",
      "id": 8364370519,
      "lat": 13.0344427,
      "lon": 77.5578665,
      "tags": {
        "amenity": "pharmacy",
        "name": "Ramdev Medical"
      }
    },
    {
      "type": "node",
      "id": 8364370641,
      "lat": 13.0333661,
      "lon": 77.5541308,
      "tags": {
        "name": "Food Supermarket",
        "shop": "supermarket"
      }
    },
    {
      "type": "node",
      "id": 8427329628,
      "lat": 13.0352127,
      "lon": 77.5516758,
      "tags": {
        "amenity": "shelter"
      }
    },
    {
      "type": "node",
      "id": 8427345116,
      "lat": 13.035149,
      "lon": 77.551521,
      "tags": {
        "amenity": "bench"
      }
    },
    {
      "type": "node",
      "id": 8427345703,
      "lat": 13.0344526,
      "lon": 77.5507974,
      "tags": {
        "amenity": "shelter"
      }
    },
    {
      "type": "node",
      "id": 8427350030,
      "lat": 13.0360573,
      "lon": 77.5530606,
      "tags": {
        "leisure": "playground",
        "name": "Childrens play area"
      }
    },
    {
      "type": "node",
      "id": 8427351025,
      "lat": 13.0353351,
      "lon": 77.5522161,
      "tags": {
        "amenity": "bench"
      }
    },
    {
      "type": "node",
      "id": 8427351188,
      "lat": 13.0349208,
      "lon": 77.5514821,
      "tags": {
        "amenity": "bench"
      }
    },
    {
      "type": "node",
      "id": 8427351535,
      "lat": 13.0318689,
      "lon": 77.5544426,
      "tags": {
        "name": "Maamsa Adda",
        "shop": "butcher"
      }
    },
    {
      "type": "node",
      "id": 8427352488,
      "lat": 13.0352837,
      "lon": 77.5520765,
      "tags": {
        "amenity": "bench"
      }
    },
    {
      "type": "node",
      "id": 8427354831,
      "lat": 13.0347025,
      "lon": 77.5513895,
      "tags": {
        "amenity": "bench"
      }
    },
    {
      "type": "node",
      "id": 8427355017,
      "lat": 13.0376774,
      "lon": 77.5535627,
      "tags": {
        "amenity": "pharmacy",
        "name": "Raghu Medicals"
      }
    },
    {
      "type": "node",
      "id": 8463192155,
      "lat": 13.0327048,
      "lon": 77.5549556,
      "tags": {
        "amenity": "place_of_worship",
        "religion": "hindu"
      }
    },
    {
      "type": "node",
      "id": 8463198337,
      "lat": 13.0323599,
      "lon": 77.5536575,
      "tags": {
        "amenity": "toilets",
        "fee": "yes"
      }
    },
    {
      "type": "node",
      "id": 8463212018,
      "lat": 13.0345082,
      "lon": 77.5550823,
      "tags": {
        "amenity": "place_of_worship",
        "religion": "christian"
      }
    },
    {
      "type": "node",
      "id": 8518507322,
      "lat": 13.0263466,
      "lon": 77.5579099,
      "tags": {
        "name": "New Karnataka mutton and chicken point",
        "shop": "butcher"
      }
    },
    {
      "type": "node",
      "id": 8518513243,
      "lat": 13.0278362,
      "lon": 77.5562995,
      "tags": {
        "amenity": "school",
        "name": "L.C.R. English School"
      }
    },
    {
      "type": "node",
      "id": 8518524396,
      "lat": 13.0278653,
      "lon": 77.5564664,
      "tags": {
        "amenity": "water_point"
      }
    },
    {
      "type": "node",
      "id": 8534495400,
      "lat": 13.0326988,
      "lon": 77.5544078,
      "tags": {
        "brand": "Nandini",
        "name": "Nandini",
        "shop": "diary"
      }
    },
    {
      "type": "node",
      "id": 8534528586,
      "lat": 13.0322562,
      "lon": 77.553745,
      "tags": {
        "name": "Meat bazzar",
        "shop": "butcher"
      }
    },
    {
      "type": "node",
      "id": 8534532914,
      "lat": 13.0238172,
      "lon": 77.5543788,
      "tags": {
        "leisure": "park"
      }
    },
    {
      "type": "node",
      "id": 8544017587,
      "lat": 13.0298326,
      "lon": 77.5534828,
      "tags": {
        "amenity": "atm",
        "brand": "HDFC Bank",
        "brand:wikidata": "Q631047",
        "name": "HDFC Bank",
        "operator": "HDFC Bank",
        "operator:wikidata": "Q631047",
        "short_name": "HDFC"
      }
    },
    {
      "type": "node",
      "id": 8544073652,
      "lat": 13.0308544,
      "lon": 77.5534958,
      "tags": {
        "name": "Fish Land Aquarium",
        "shop": "pet"
      }
    },
    {
      "type": "node",
      "id": 8544079274,
      "lat": 13.0292972,
      "lon": 77.555177,
      "tags": {
        "name": "SKN chicken and mutton center",
        "shop": "butcher"
      }
    },
    {
      "type": "node",
      "id": 8544082326,
      "lat": 13.0299023,
      "lon": 77.5534768,
      "tags": {
        "amenity": "pharmacy",
        "name": "Nandini Medicals"
      }
    },
    {
      "type": "node",
      "id": 8544083789,
      "lat": 13.0308986,
      "lon": 77.5542479,
      "tags": {
        "name": "Nexgen supermarket",
        "shop": "supermarket"
      }
    },
    {
      "type": "node",
      "id": 8544085413,
      "lat": 13.0292949,
      "lon": 77.5549852,
      "tags": {
        "name": "Shivananda Provision store",
        "shop": "yes"
      }
    },
    {
      "type": "node",
      "id": 8544086856,
      "lat": 13.0342713,
      "lon": 77.5574207,
      "tags": {
        "name": "Sri Ayappa Bakery anf Sweets",
        "shop": "bakery"
      }
    },
    {
      "type": "node",
      "id": 8544087806,
      "lat": 13.0297929,
      "lon": 77.5536843,
      "tags": {
        "name": "Star collections",
        "shop": "clothes"
      }
    },
    {
      "type": "node",
      "id": 8544093297,
      "lat": 13.0297527,
      "lon": 77.5552304,
      "tags": {
        "name": "Afreshstore",
        "shop": "greengrocer"
      }
    },
    {
      "type": "node",
      "id": 8544095247,
      "lat": 13.0301868,
      "lon": 77.5536757,
      "tags": {
        "name": "Chetan Electrical",
        "shop": "electrical"
      }
    },
    {
      "type": "node",
      "id": 8873798250,
      "lat": 13.0246131,
      "lon": 77.5571729,
      "tags": {
        "amenity": "post_office",
        "name": "The Professional courier"
      }
    },
    {
      "type": "node",
      "id": 8873811558,
      "lat": 13.0351408,
      "lon": 77.5576786,
      "tags": {
        "amenity": "toilets",
        "name": "Sulabh Toilet and bath complex"
      }
    },
    {
      "type": "node",
      "id": 8873812715,
      "lat": 13.0278171,
      "lon": 77.5572395,
      "tags": {
        "amenity": "internet_cafe",
        "name": "Ajanta Networld"
      }
    },
    {
      "type": "node",
      "id": 8873818151,
      "lat": 13.0290638,
      "lon": 77.5582198,
      "tags": {
        "name": "Yeshwanth hair style",
        "shop": "hairdresser"
      }
    },
    {
      "type": "node",
      "id": 8873822225,
      "lat": 13.0336182,
      "lon": 77.5581913,
      "tags": {
        "description": "Also sells cooking gas",
        "name": "Sun Home Appliances",
        "shop": "appliance"
      }
    },
    {
      "type": "node",
      "id": 9249613356,
      "lat": 13.0258435,
      "lon": 77.5579387,
      "tags": {
        "amenity": "bicycle_repair_station"
      }
    },
    {
      "type": "node",
      "id": 9249652794,
      "lat": 13.0279634,
      "lon": 77.5588286,
      "tags": {
        "name": "R&M clothing",
        "shop": "clothes"
      }
    },
    {
      "type": "node",
      "id": 9249655400,
      "lat": 13.0254048,
      "lon": 77.5575363,
      "tags": {
        "amenity": "pharmacy",
        "name": "Raghu Pharma"
      }
    },
    {
      "type": "node",
      "id": 9249673893,
      "lat": 13.0257426,
      "lon": 77.5580434,
      "tags": {
        "name": "Elahi chicken and mutton",
        "shop": "butcher"
      }
    },
    {
      "type": "node",
      "id": 9249675886,
      "lat": 13.0280696,
      "lon": 77.5585824,
      "tags": {
        "name": "Power TV",
        "shop": "newsagent"
      }
    },
    {
      "type": "node",
      "id": 9538902718,
      "lat": 13.0312117,
      "lon": 77.5596191,
      "tags": {
        "amenity": "bank",
        "branch": "Mattikere",
        "brand": "HDFC Bank",
        "brand:wikidata": "Q631047",
        "name": "HDFC Bank",
        "short_name": "HDFC"
      }
    },
    {
      "type": "node",
      "id": 9538931895,
      "lat": 13.02952,
      "lon": 77.5583544,
      "tags": {
        "amenity": "drinking_water"
      }
    },
    {
      "type": "node",
      "id": 9909726555,
      "lat": 13.0333345,
      "lon": 77.5562606,
      "tags": {
        "addr:city": "Bengaluru",
        "addr:housenumber": "773",
        "addr:postcode": "560054",
        "addr:street": "15th B Main road",
        "amenity": "bank",
        "name": "The Mathikere Credit Co-operative Society Ltd."
      }
    },
    {
      "type": "node",
      "id": 9942510003,
      "lat": 13.0220475,
      "lon": 77.5514003,
      "tags": {
        "amenity": "bus_station",
        "name": "KSRTC Pickup Point",
        "website": "ksrtc.in"
      }
    },
    {
      "type": "node",
      "id": 9996494411,
      "lat": 13.0289157,
      "lon": 77.5592582,
      "tags": {
        "name": "Crown mutton and chicken center",
        "shop": "butcher"
      }
    },
    {
      "type": "node",
      "id": 10105851144,
      "lat": 13.0286206,
      "lon": 77.5437151,
      "tags": {
        "amenity": "drinking_water"
      }
    },
    {
      "type": "node",
      "id": 10105851150,
      "lat": 13.0282211,
      "lon": 77.5437053,
      "tags": {
        "amenity": "parking_entrance",
        "parking": "underground"
      }
    },
    {
      "type": "node",
      "id": 10105851161,
      "lat": 13.0291141,
      "lon": 77.5433251,
      "tags": {
        "amenity": "bench",
        "backrest": "yes",
        "material": "steel",
        "seats": "3"
      }
    },
    {
      "type": "node",
      "id": 10105851162,
      "lat": 13.0291037,
      "lon": 77.5433654,
      "tags": {
        "amenity": "bench",
        "backrest": "yes",
        "material": "steel",
        "seats": "3"
      }
    },
    {
      "type": "node",
      "id": 10105851163,
      "lat": 13.0291344,
      "lon": 77.5433747,
      "tags": {
        "amenity": "bench",
        "backrest": "yes",
        "material": "steel",
        "seats": "3"
      }
    },
    {
      "type": "node",
      "id": 10105851164,
      "lat": 13.0291449,
      "lon": 77.5433338,
      "tags": {
        "amenity": "bench",
        "backrest": "yes",
        "material": "steel",
        "seats": "3"
      }
    },
    {
      "type": "node",
      "id": 10105851165,
      "lat": 13.0291645,
      "lon": 77.5432326,
      "tags": {
        "amenity": "shelter",
        "shelter_type": "gazebo"
      }
    },
    {
      "type": "node",
      "id": 10216203915,
      "lat": 13.0247023,
      "lon": 77.5487874,
      "tags": {
        "amenity": "pub",
        "microbrewery": "yes",
        "name": "Byg Brewski"
      }
    },
    {
      "type": "node",
      "id": 11034537981,
      "lat": 13.0294891,
      "lon": 77.543653,
      "tags": {
        "access": "private",
        "amenity": "parking_entrance",
        "parking": "underground"
      }
    },
    {
      "type": "node",
      "id": 11496155843,
      "lat": 13.034187,
      "lon": 77.55755,
      "tags": {
        "amenity": "atm",
        "brand": "IDFC First Bank",
        "brand:wikidata": "Q22031467",
        "check_date": "2024-01-07",
        "operator": "IDFC First Bank",
        "operator:wikidata": "Q22031467"
      }
    },
    {
      "type": "node",
      "id": 11496155844,
      "lat": 13.0341321,
      "lon": 77.5575695,
      "tags": {
        "amenity": "atm",
        "brand": "HDFC Bank",
        "brand:wikidata": "Q631047",
        "check_date": "2024-01-07",
        "operator": "HDFC Bank",
        "operator:wikidata": "Q631047",
        "short_name": "HDFC"
      }
    },
    {
      "type": "node",
      "id": 11496155845,
      "lat": 13.0343801,
      "lon": 77.5573308,
      "tags": {
        "check_date": "2024-01-07",
        "name": "A-One Mutton Stall",
        "shop": "butcher"
      }
    },
    {
      "type": "node",
      "id": 11496155846,
      "lat": 13.0344713,
      "lon": 77.5572896,
      "tags": {
        "check_date": "2024-01-07",
        "name": "Balaji Wines",
        "shop": "alcohol"
      }
    },
    {
      "type": "node",
      "id": 11496155847,
      "lat": 13.0355885,
      "lon": 77.5573862,
      "tags": {
        "amenity": "clinic",
        "check_date": "2024-01-07",
        "healthcare": "clinic",
        "name": "Sri Shakthi Clinic"
      }
    },
    {
      "type": "node",
      "id": 11684876150,
      "lat": 13.0225594,
      "lon": 77.5529217,
      "tags": {
        "amenity": "atm",
        "brand": "IndusInd Bank",
        "brand:wikidata": "Q2040323",
        "check_date": "2024-03-02",
        "operator": "IndusInd Bank",
        "operator:wikidata": "Q2040323"
      }
    },
    {
      "type": "node",
      "id": 11684876151,
      "lat": 13.0226134,
      "lon": 77.552896,
      "tags": {
        "check_date": "2024-03-02",
        "name": "Mobile World",
        "shop": "mobile_phone"
      }
    },
    {
      "type": "node",
      "id": 11684876153,
      "lat": 13.0224798,
      "lon": 77.5527726,
      "tags": {
        "amenity": "fast_food",
        "check_date": "2024-03-02",
        "name": "SLV Canteen"
      }
    },
    {
      "type": "node",
      "id": 11998178511,
      "lat": 13.0221896,
      "lon": 77.5509196,
      "tags": {
        "amenity": "restaurant",
        "check_date": "2024-06-21",
        "name": "Konkan Express"
      }
    },
    {
      "type": "node",
      "id": 12017326334,
      "lat": 13.0266801,
      "lon": 77.5448613,
      "tags": {
        "amenity": "cafe",
        "brand": "Starbucks",
        "brand:wikidata": "Q37158",
        "check_date": "2024-06-28",
        "cuisine": "coffee_shop",
        "name": "Starbucks",
        "official_name": "Starbucks Coffee",
        "takeaway": "yes"
      }
    },
    {
      "type": "node",
      "id": 12054463594,
      "lat": 13.0272542,
      "lon": 77.545829,
      "tags": {
        "access": "private",
        "amenity": "parking_entrance",
        "parking": "underground"
      }
    },
    {
      "type": "node",
      "id": 12193936415,
      "lat": 13.0268613,
      "lon": 77.5471885,
      "tags": {
        "amenity": "parking_entrance"
      }
    },
    {
      "type": "node",
      "id": 12193936421,
      "lat": 13.0264905,
      "lon": 77.5467425,
      "tags": {
        "amenity": "parking_entrance"
      }
    },
    {
      "type": "node",
      "id": 12193936425,
      "lat": 13.0270095,
      "lon": 77.5472402,
      "tags": {
        "amenity": "parking_entrance"
      }
    },
    {
      "type": "node",
      "id": 12193936429,
      "lat": 13.0269132,
      "lon": 77.5460427,
      "tags": {
        "amenity": "parking_entrance"
      }
    },
    {
      "type": "node",
      "id": 12193941187,
      "lat": 13.0250919,
      "lon": 77.5487295,
      "tags": {
        "amenity": "parking_entrance"
      }
    },
    {
      "type": "node",
      "id": 12193941189,
      "lat": 13.0247062,
      "lon": 77.5497556,
      "tags": {
        "amenity": "parking_entrance"
      }
    },
    {
      "type": "node",
      "id": 12518207463,
      "lat": 13.026743,
      "lon": 77.5446928,
      "tags": {
        "addr:floor": "G",
        "brand": "Cromā",
        "brand:wikidata": "Q5187683",
        "check_date": "2025-01-20",
        "level": "0",
        "name": "Cromā",
        "shop": "electronics"
      }
    },
    {
      "type": "node",
      "id": 12529183011,
      "lat": 13.0318548,
      "lon": 77.5594657,
      "tags": {
        "addr:city": "Bengaluru",
        "addr:district": "Bengaluru Urban",
        "addr:housenumber": "17",
        "addr:postcode": "560054",
        "addr:street": "HMT Main Road, Gokula 1st Stage, Mathikere Extension, Mathikere",
        "name": "Poorvika",
        "shop": "mobile_phone"
      }
    },
    {
      "type": "node",
      "id": 12676261377,
      "lat": 13.0246433,
      "lon": 77.557273,
      "tags": {
        "check_date": "2025-03-18",
        "name": "Kailash Silks",
        "shop": "clothes"
      }
    },
    {
      "type": "node",
      "id": 12676261380,
      "lat": 13.0255048,
      "lon": 77.5576872,
      "tags": {
        "amenity": "bench",
        "armrest": "yes",
        "backrest": "yes"
      }
    },
    {
      "type": "node",
      "id": 12676261381,
      "lat": 13.0265793,
      "lon": 77.5579761,
      "tags": {
        "amenity": "bank",
        "brand": "IDBI Bank",
        "brand:wikidata": "Q3633485",
        "check_date": "2025-03-18",
        "name": "IDBI Bank",
        "short_name": "IDBI"
      }
    },
    {
      "type": "node",
      "id": 12676261382,
      "lat": 13.0265607,
      "lon": 77.5581534,
      "tags": {
        "check_date": "2025-03-18",
        "name": "Rajat Opticals",
        "shop": "optician"
      }
    },
    {
      "type": "node",
      "id": 12676261383,
      "lat": 13.02691,
      "lon": 77.5580938,
      "tags": {
        "amenity": "atm",
        "brand": "Axis Bank",
        "brand:wikidata": "Q2003549",
        "check_date": "2025-03-18",
        "operator": "Axis Bank",
        "operator:wikidata": "Q2003549"
      }
    },
    {
      "type": "node",
      "id": 12676261388,
      "lat": 13.0289168,
      "lon": 77.559199,
      "tags": {
        "amenity": "restaurant",
        "check_date": "2025-03-18",
        "name": "Sangam Bar & Restaurant"
      }
    },
    {
      "type": "node",
      "id": 12676261389,
      "lat": 13.0296108,
      "lon": 77.559213,
      "tags": {
        "brand": "More",
        "brand:wikidata": "Q6910891",
        "check_date": "2025-03-18",
        "name": "More",
        "shop": "supermarket"
      }
    },
    {
      "type": "node",
      "id": 12676261390,
      "lat": 13.030241,
      "lon": 77.5594912,
      "tags": {
        "amenity": "bank",
        "brand": "Ujjivan Small Finance Bank",
        "brand:wikidata": "Q42529272",
        "check_date": "2025-03-18",
        "name": "Ujjivan Small Finance Bank"
      }
    },
    {
      "type": "node",
      "id": 12676261391,
      "lat": 13.0306563,
      "lon": 77.5597156,
      "tags": {
        "brand": "Just Bake",
        "brand:wikidata": "Q124374121",
        "check_date": "2025-03-18",
        "delivery": "yes",
        "name": "Just Bake",
        "shop": "pastry",
        "takeaway": "yes"
      }
    },
    {
      "type": "node",
      "id": 12676261392,
      "lat": 13.0307751,
      "lon": 77.5597481,
      "tags": {
        "amenity": "restaurant",
        "check_date": "2025-03-18",
        "name": "Chandan Bar & Restaurant"
      }
    },
    {
      "type": "node",
      "id": 12676261394,
      "lat": 13.0329235,
      "lon": 77.558371,
      "tags": {
        "brand": "TVS",
        "brand:wikidata": "Q3300084",
        "check_date": "2025-03-18",
        "name": "TVS",
        "shop": "motorcycle"
      }
    },
    {
      "type": "node",
      "id": 12676261395,
      "lat": 13.0332305,
      "lon": 77.5581139,
      "tags": {
        "amenity": "restaurant",
        "brand": "Pizza Hut",
        "brand:wikidata": "Q191615",
        "check_date": "2025-03-18",
        "cuisine": "pizza",
        "name": "Pizza Hut"
      }
    },
    {
      "type": "node",
      "id": 12676261396,
      "lat": 13.0335698,
      "lon": 77.5582584,
      "tags": {
        "check_date": "2025-03-18",
        "name": "Life Line's Tender Chicken",
        "shop": "butcher"
      }
    },
    {
      "type": "node",
      "id": 12676261398,
      "lat": 13.0342387,
      "lon": 77.5577532,
      "tags": {
        "brand": "Nandini",
        "brand:wikidata": "Q124374212",
        "check_date": "2025-03-18",
        "name": "Nandini",
        "shop": "dairy"
      }
    },
    {
      "type": "node",
      "id": 12676261399,
      "lat": 13.0339182,
      "lon": 77.5577027,
      "tags": {
        "amenity": "fast_food",
        "check_date": "2025-03-18",
        "name": "Ambur Hot Dum Biryani"
      }
    },
    {
      "type": "node",
      "id": 12676265201,
      "lat": 13.0344587,
      "lon": 77.5576863,
      "tags": {
        "check_date": "2025-03-18",
        "name": "Mom and Me",
        "shop": "clothes"
      }
    },
    {
      "type": "node",
      "id": 12676265229,
      "lat": 13.031887,
      "lon": 77.5594936,
      "tags": {
        "check_date": "2025-03-18",
        "name": "GK Vale",
        "shop": "photo"
      }
    },
    {
      "type": "node",
      "id": 12676265230,
      "lat": 13.0309242,
      "lon": 77.5601519,
      "tags": {
        "check_date": "2025-03-18",
        "name": "Giva",
        "shop": "jewelry"
      }
    },
    {
      "type": "node",
      "id": 12676265231,
      "lat": 13.0305663,
      "lon": 77.5596963,
      "tags": {
        "amenity": "ice_cream",
        "check_date": "2025-03-18",
        "name": "Sanjana Ice Creams"
      }
    },
    {
      "type": "node",
      "id": 12676265232,
      "lat": 13.0301341,
      "lon": 77.5594504,
      "tags": {
        "amenity": "fast_food",
        "check_date": "2025-03-18",
        "name": "Malgudi's Donne Biryani"
      }
    },
    {
      "type": "node",
      "id": 12676265233,
      "lat": 13.0291844,
      "lon": 77.5590389,
      "tags": {
        "check_date": "2025-03-18",
        "name": "Pai",
        "shop": "electronics"
      }
    },
    {
      "type": "node",
      "id": 12676265234,
      "lat": 13.0284,
      "lon": 77.5586943,
      "tags": {
        "check_date": "2025-03-18",
        "name": "Kulfi Shulfi",
        "shop": "confectionery"
      }
    },
    {
      "type": "node",
      "id": 12676265235,
      "lat": 13.0277421,
      "lon": 77.5584595,
      "tags": {
        "check_date": "2025-03-18",
        "name": "The Kanchipuram Silks",
        "shop": "clothes"
      }
    },
    {
      "type": "node",
      "id": 12676265236,
      "lat": 13.0273848,
      "lon": 77.5583197,
      "tags": {
        "check_date": "2025-03-18",
        "name": "Iyengar's Cake House",
        "shop": "bakery"
      }
    },
    {
      "type": "node",
      "id": 12676265237,
      "lat": 13.0263832,
      "lon": 77.5578954,
      "tags": {
        "check_date": "2025-03-18",
        "shop": "greengrocer"
      }
    },
    {
      "type": "node",
      "id": 12676265238,
      "lat": 13.0254939,
      "lon": 77.5575302,
      "tags": {
        "amenity": "restaurant",
        "check_date": "2025-03-18",
        "name": "Trupti Bar & Restaurant"
      }
    },
    {
      "type": "node",
      "id": 13253782361,
      "lat": 13.0332125,
      "lon": 77.5575383,
      "tags": {
        "amenity": "kindergarten",
        "check_date": "2025-10-24",
        "name": "Srinidhi Vidyaniketan School"
      }
    },
    {
      "type": "node",
      "id": 13277046524,
      "lat": 13.0235213,
      "lon": 77.5497316,
      "tags": {
        "amenity": "charging_station",
        "capacity": "12",
        "charging_station:battery_swapping": "yes",
        "fee": "yes",
        "level": "0",
        "motorcar": "no",
        "motorcycle": "yes",
        "name": "Honda e:swap",
        "operator": "Honda e:swap"
      }
    },
    {
      "type": "node",
      "id": 13277046525,
      "lat": 13.0235317,
      "lon": 77.5497115,
      "tags": {
        "amenity": "charging_station",
        "capacity": "12",
        "charging_station:battery_swapping": "yes",
        "fee": "yes",
        "level": "0",
        "motorcar": "no",
        "motorcycle": "yes",
        "name": "Honda e:swap",
        "operator": "Honda e:swap"
      }
    },
    {
      "type": "way",
      "id": 37107047,
      "center": {
        "lat": 13.0348402,
        "lon": 77.5507145
      },
      "tags": {
        "leisure": "park",
        "name": "Jayaprakash Narayan Park",
        "name:etymology:wikidata": "Q734509",
        "name:kn": "ಜಯಪ್ರಕಾಶ ನಾರಾಯಣ ಉದ್ಯಾನ"
      }
    },
    {
      "type": "way",
      "id": 37838218,
      "center": {
        "lat": 13.0217758,
        "lon": 77.5478499
      },
      "tags": {
        "alt_name": "Yeshwanthpur APMC Yard",
        "amenity": "marketplace",
        "fixme": "Should landuse be industrial or marketplace?",
        "name": "Yeshwantpur RMC Yard"
      }
    },
    {
      "type": "way",
      "id": 46918812,
      "center": {
        "lat": 13.0300022,
        "lon": 77.5587277
      },
      "tags": {
        "amenity": "school"
      }
    },
    {
      "type": "way",
      "id": 236577270,
      "center": {
        "lat": 13.0375171,
        "lon": 77.5522746
      },
      "tags": {
        "leisure": "swimming_pool",
        "sport": "swimming",
        "wheelchair": "limited"
      }
    },
    {
      "type": "way",
      "id": 245016872,
      "center": {
        "lat": 13.0303122,
        "lon": 77.5444258
      },
      "tags": {
        "addr:city": "Bengaluru",
        "addr:street": "Raghavendra Rao Road",
        "addr:suburb": "Yeshwantpura",
        "amenity": "school",
        "name": "National Public School Yeshwantpur",
        "name:kn": "ರಾಷ್ಟ್ರೀಯ ಸಾರ್ವಜನಿಕ ಶಾಲೆ",
        "operator": "National Public School"
      }
    },
    {
      "type": "way",
      "id": 255666698,
      "center": {
        "lat": 13.0244812,
        "lon": 77.5502761
      },
      "tags": {
        "amenity": "parking",
        "name": "Yeswantapur Station Parking"
      }
    },
    {
      "type": "way",
      "id": 287724333,
      "center": {
        "lat": 13.0328303,
        "lon": 77.5540115
      },
      "tags": {
        "amenity": "bus_station",
        "name": "Choudeshwari Bus Stand",
        "name:kn": "ಚೌಡೇಶ್ವರಿ ಬಸ್‌ ನಿಲ್ದಾಣ (ಮತ್ತಿಕೆರೆ)",
        "wheelchair": "no"
      }
    },
    {
      "type": "way",
      "id": 307145007,
      "center": {
        "lat": 13.034804,
        "lon": 77.5594879
      },
      "tags": {
        "addr:postcode": "560054",
        "addr:street": "1st D Cross, Mathikere",
        "amenity": "place_of_worship",
        "building": "yes",
        "name": "St. Joseph’s Malankara Syriac Catholic Church",
        "religion": "christian"
      }
    },
    {
      "type": "way",
      "id": 307146077,
      "center": {
        "lat": 13.0351357,
        "lon": 77.5570461
      },
      "tags": {
        "addr:city": "Mathikere",
        "addr:postcode": "560054",
        "addr:street": "MS Ramaiah Road",
        "amenity": "school",
        "name": "Iyer High School",
        "name:kn": "ಅಯ್ಯರ್ ಪ್ರೌಡಶಾಲೆ",
        "wheelchair": "limited"
      }
    },
    {
      "type": "way",
      "id": 312367174,
      "center": {
        "lat": 13.0317557,
        "lon": 77.559631
      },
      "tags": {
        "addr:city": "Mathikere",
        "addr:postcode": "560054",
        "addr:street": "MS Ramaiah Road",
        "amenity": "cafe",
        "brand": "Cafe Coffee Day",
        "brand:wikidata": "Q5017235",
        "building": "yes",
        "cuisine": "coffee_shop",
        "internet_access": "wlan",
        "name": "Cafe Coffee Day",
        "name:kn": "ಕಫೆ ಕಾಫಿ ಡೇ",
        "takeaway": "yes"
      }
    },
    {
      "type": "way",
      "id": 312368470,
      "center": {
        "lat": 13.0316113,
        "lon": 77.5593212
      },
      "tags": {
        "addr:city": "Mathikere",
        "addr:postcode": "560054",
        "addr:street": "MS Ramaiah Road",
        "amenity": "restaurant",
        "building": "yes",
        "cuisine": "regional",
        "name": "Kanthi Sweets",
        "shop": "confectionery"
      }
    },
    {
      "type": "way",
      "id": 346459984,
      "center": {
        "lat": 13.0384448,
        "lon": 77.5524873
      },
      "tags": {
        "amenity": "cinema",
        "building": "yes",
        "name": "Swagath Murali Cinema"
      }
    },
    {
      "type": "way",
      "id": 346503502,
      "center": {
        "lat": 13.0288615,
        "lon": 77.5425755
      },
      "tags": {
        "amenity": "place_of_worship",
        "building": "yes",
        "name": "RNS Ganesh Temple",
        "name:kn": "RNS ಗಣೇಶ ದೇವಸ್ಥಾನ",
        "religion": "hindu"
      }
    },
    {
      "type": "way",
      "id": 346503525,
      "center": {
        "lat": 13.0246252,
        "lon": 77.5487524
      },
      "tags": {
        "addr:city": "Bangalore",
        "addr:country": "IN",
        "addr:housenumber": "9/36",
        "addr:place": "Yeshwanthpur",
        "addr:postcode": "560022",
        "addr:street": "Tumkur Road",
        "building": "yes",
        "email": "info@sapphirecentre.com",
        "name": "Vaishnavi Sapphire Centre",
        "opening_hours": "09:00-23:00",
        "phone": "080-29724422",
        "shop": "mall",
        "toilets": "yes",
        "website": "https://www.sapphirecentre.com"
      }
    },
    {
      "type": "way",
      "id": 346812356,
      "center": {
        "lat": 13.0340019,
        "lon": 77.5576024
      },
      "tags": {
        "amenity": "place_of_worship",
        "building": "yes",
        "religion": "hindu"
      }
    },
    {
      "type": "way",
      "id": 347071790,
      "center": {
        "lat": 13.0285228,
        "lon": 77.5587301
      },
      "tags": {
        "amenity": "hospital",
        "healthcare": "hospital",
        "name": "Medicare Diagnostics"
      }
    },
    {
      "type": "way",
      "id": 408938058,
      "center": {
        "lat": 13.0252331,
        "lon": 77.5474851
      },
      "tags": {
        "amenity": "fuel",
        "brand": "Shell",
        "brand:wikidata": "Q110716465",
        "compressed_air": "yes",
        "name": "Shell",
        "name:kn": "ಶೆಲ್",
        "operator": "Shell"
      }
    },
    {
      "type": "way",
      "id": 583442700,
      "center": {
        "lat": 13.0286029,
        "lon": 77.5600798
      },
      "tags": {
        "access": "private",
        "landuse": "grass",
        "leisure": "garden"
      }
    },
    {
      "type": "way",
      "id": 665234772,
      "center": {
        "lat": 13.028452,
        "lon": 77.5421946
      },
      "tags": {
        "leisure": "garden"
      }
    },
    {
      "type": "way",
      "id": 665234779,
      "center": {
        "lat": 13.030208,
        "lon": 77.5445991
      },
      "tags": {
        "landuse": "recreation_ground",
        "leisure": "playground"
      }
    },
    {
      "type": "way",
      "id": 674362377,
      "center": {
        "lat": 13.0277509,
        "lon": 77.5429924
      },
      "tags": {
        "addr:city": "Bengaluru",
        "addr:postcode": "560022",
        "addr:street": "Tumkur Road",
        "amenity": "hospital",
        "name": "Sparsh Hospital",
        "name:kn": "ಸ್ಪರ್ಶ್ ಆಸ್ಪತ್ರೆ",
        "phone": "00919019108108",
        "website": "https://www.sparshhospital.com/"
      }
    },
    {
      "type": "way",
      "id": 674362392,
      "center": {
        "lat": 13.0331759,
        "lon": 77.5531194
      },
      "tags": {
        "leisure": "pitch",
        "name": "JP Ground"
      }
    },
    {
      "type": "way",
      "id": 708190893,
      "center": {
        "lat": 13.0286568,
        "lon": 77.5429644
      },
      "tags": {
        "leisure": "playground"
      }
    },
    {
      "type": "way",
      "id": 708190895,
      "center": {
        "lat": 13.0287451,
        "lon": 77.5432306
      },
      "tags": {
        "leisure": "swimming_pool"
      }
    },
    {
      "type": "way",
      "id": 1081463157,
      "center": {
        "lat": 13.0271679,
        "lon": 77.5443832
      },
      "tags": {
        "landuse": "commercial",
        "leisure": "sports_centre",
        "name": "Sports Habitat"
      }
    },
    {
      "type": "way",
      "id": 1081463159,
      "center": {
        "lat": 13.0233372,
        "lon": 77.5486181
      },
      "tags": {
        "amenity": "community_centre",
        "community_centre": "community_hall",
        "landuse": "commercial",
        "name": "Raitha Bhavan",
        "name:kn": "ರೈತ ಭವನ"
      }
    },
    {
      "type": "way",
      "id": 1087820282,
      "center": {
        "lat": 13.0273983,
        "lon": 77.5517047
      },
      "tags": {
        "amenity": "school",
        "brand": "Kendriya Vidyalaya",
        "brand:wikidata": "Q1156653",
        "name": "Kendriya Vidyalaya",
        "name:kn": "ಕೇಂದ್ರಿಯ ವಿದ್ಯಾಲಯ",
        "operator:type": "government_non_profit"
      }
    },
    {
      "type": "way",
      "id": 1087820285,
      "center": {
        "lat": 13.027364,
        "lon": 77.5465062
      },
      "tags": {
        "leisure": "park"
      }
    },
    {
      "type": "way",
      "id": 1087820286,
      "center": {
        "lat": 13.0269028,
        "lon": 77.5473937
      },
      "tags": {
        "leisure": "park"
      }
    },
    {
      "type": "way",
      "id": 1095188787,
      "center": {
        "lat": 13.0230672,
        "lon": 77.5508264
      },
      "tags": {
        "amenity": "parking"
      }
    },
    {
      "type": "way",
      "id": 1104353538,
      "center": {
        "lat": 13.0284806,
        "lon": 77.5436325
      },
      "tags": {
        "leisure": "pitch",
        "sport": "badminton"
      }
    },
    {
      "type": "way",
      "id": 1104353540,
      "center": {
        "lat": 13.0282683,
        "lon": 77.5430161
      },
      "tags": {
        "leisure": "pitch",
        "sport": "tennis"
      }
    },
    {
      "type": "way",
      "id": 1104353541,
      "center": {
        "lat": 13.0282099,
        "lon": 77.542552
      },
      "tags": {
        "landuse": "commercial",
        "name": "RNS Motors",
        "shop": "car"
      }
    },
    {
      "type": "way",
      "id": 1134831513,
      "center": {
        "lat": 13.0226214,
        "lon": 77.5499132
      },
      "tags": {
        "amenity": "fire_station",
        "name": "Fire Station",
        "name:kn": "ಅಗ್ನಿಶಾಮಕ ಠಾಣೆ"
      }
    },
    {
      "type": "way",
      "id": 1188328500,
      "center": {
        "lat": 13.0296654,
        "lon": 77.5435844
      },
      "tags": {
        "leisure": "pitch",
        "sport": "basketball"
      }
    },
    {
      "type": "way",
      "id": 1188328502,
      "center": {
        "lat": 13.0295289,
        "lon": 77.5441985
      },
      "tags": {
        "access": "private",
        "leisure": "swimming_pool"
      }
    },
    {
      "type": "way",
      "id": 1293792961,
      "center": {
        "lat": 13.0234697,
        "lon": 77.5504813
      },
      "tags": {
        "leisure": "garden"
      }
    },
    {
      "type": "way",
      "id": 1293792962,
      "center": {
        "lat": 13.0236888,
        "lon": 77.5501044
      },
      "tags": {
        "leisure": "garden"
      }
    },
    {
      "type": "way",
      "id": 1294790822,
      "center": {
        "lat": 13.0272712,
        "lon": 77.5434423
      },
      "tags": {
        "amenity": "fuel",
        "brand": "Hindustan Petroleum",
        "brand:wikidata": "Q1619375",
        "compressed_air": "yes",
        "landuse": "commercial",
        "name": "Hindustan Petroleum",
        "name:kn": "ಹಿಂದುಸ್ತಾನ್ ಪೆಟ್ರೋಲಿಯಂ",
        "official_name": "Hindustan Petroleum"
      }
    },
    {
      "type": "way",
      "id": 1294790827,
      "center": {
        "lat": 13.0260208,
        "lon": 77.5442652
      },
      "tags": {
        "amenity": "fuel",
        "brand": "Indian Oil",
        "brand:wikidata": "Q1289348",
        "brand:wikipedia": "en:Indian Oil Corporation",
        "compressed_air": "yes",
        "name": "Indian Oil",
        "name:kn": "ಇಂಡಿಯನ್ ಆಯಿಲ್"
      }
    },
    {
      "type": "way",
      "id": 1294790838,
      "center": {
        "lat": 13.0243052,
        "lon": 77.5468919
      },
      "tags": {
        "amenity": "marketplace",
        "fixme": "Should landuse be industrial or marketplace?",
        "landuse": "commercial",
        "name": "Hotel Leroy Grand",
        "tourism": "hotel"
      }
    },
    {
      "type": "way",
      "id": 1294790841,
      "center": {
        "lat": 13.0240773,
        "lon": 77.5473789
      },
      "tags": {
        "amenity": "fuel",
        "brand": "Shell",
        "brand:wikidata": "Q110716465",
        "landuse": "commercial",
        "name": "Shell",
        "name:kn": "ಶೆಲ್"
      }
    },
    {
      "type": "way",
      "id": 1301433609,
      "center": {
        "lat": 13.0269302,
        "lon": 77.5479705
      },
      "tags": {
        "access": "private",
        "leisure": "swimming_pool"
      }
    },
    {
      "type": "way",
      "id": 1301433610,
      "center": {
        "lat": 13.0267978,
        "lon": 77.5473626
      },
      "tags": {
        "access": "permissive",
        "amenity": "parking",
        "parking": "surface"
      }
    },
    {
      "type": "way",
      "id": 1301433611,
      "center": {
        "lat": 13.0269315,
        "lon": 77.5476254
      },
      "tags": {
        "access": "permissive",
        "amenity": "parking",
        "parking": "surface"
      }
    },
    {
      "type": "way",
      "id": 1308403450,
      "center": {
        "lat": 13.0268662,
        "lon": 77.5579948
      },
      "tags": {
        "amenity": "fuel"
      }
    },
    {
      "type": "way",
      "id": 1326186062,
      "center": {
        "lat": 13.0273062,
        "lon": 77.545148
      },
      "tags": {
        "access": "private",
        "amenity": "parking",
        "parking": "street_side"
      }
    },
    {
      "type": "way",
      "id": 1326186063,
      "center": {
        "lat": 13.0263338,
        "lon": 77.5449993
      },
      "tags": {
        "leisure": "garden"
      }
    },
    {
      "type": "way",
      "id": 1326186064,
      "center": {
        "lat": 13.0265775,
        "lon": 77.5446015
      },
      "tags": {
        "garden:type": "landscaping",
        "leisure": "garden"
      }
    },
    {
      "type": "way",
      "id": 1326186065,
      "center": {
        "lat": 13.0266243,
        "lon": 77.5446832
      },
      "tags": {
        "access": "private",
        "amenity": "parking",
        "parking": "street_side"
      }
    },
    {
      "type": "way",
      "id": 1352492184,
      "center": {
        "lat": 13.0303345,
        "lon": 77.5445914
      },
      "tags": {
        "access": "private",
        "leisure": "pitch"
      }
    },
    {
      "type": "way",
      "id": 1352492185,
      "center": {
        "lat": 13.0301571,
        "lon": 77.5445322
      },
      "tags": {
        "access": "private",
        "leisure": "pitch",
        "sport": "basketball"
      }
    },
    {
      "type": "way",
      "id": 1352492186,
      "center": {
        "lat": 13.030434,
        "lon": 77.542289
      },
      "tags": {
        "leisure": "garden"
      }
    },
    {
      "type": "way",
      "id": 1361492556,
      "center": {
        "lat": 13.0266683,
        "lon": 77.5466615
      },
      "tags": {
        "access": "private",
        "amenity": "parking",
        "orientation": "perpendicular",
        "parking": "street_side"
      }
    },
    {
      "type": "way",
      "id": 1370050088,
      "center": {
        "lat": 13.0326879,
        "lon": 77.5585076
      },
      "tags": {
        "leisure": "garden"
      }
    },
    {
      "type": "way",
      "id": 1455732017,
      "center": {
        "lat": 13.0299617,
        "lon": 77.543211
      },
      "tags": {
        "leisure": "pitch"
      }
    }
  ]
}