{
  "area_name": "Mount Joy",
  "osm_id": 10573135961,
  "osm_type": "node",
  "place_type": "neighbourhood",
  "amenity_count": 287,
  "amenities": [
    {
      "type": "node",
      "id": 951470704,
      "lat": 12.9387161,
      "lon": 77.5534116,
      "tags": {
        "addr:street": "80 Feet Road",
        "amenity": "restaurant",
        "cuisine": "regional",
        "name": "Udupi Upahar",
        "name:kn": "ಉಡುಪಿ ಉಪಹಾರ"
      }
    },
    {
      "type": "node",
      "id": 954610622,
      "lat": 12.9444378,
      "lon": 77.5546637,
      "tags": {
        "amenity": "bus_station",
        "building": "public",
        "name": "Srinagar Bus Station",
        "name:kn": "ಶ್ರೀನಗರ ಬಸ್ ನಿಲ್ದಾಣ"
      }
    },
    {
      "type": "node",
      "id": 954620605,
      "lat": 12.9437007,
      "lon": 77.5649097,
      "tags": {
        "amenity": "restaurant",
        "name": "Ganesh Bhavan",
        "name:kn": "ಗಣೇಶ ಭವನ",
        "wheelchair": "no"
      }
    },
    {
      "type": "node",
      "id": 1080729956,
      "lat": 12.9443745,
      "lon": 77.5695112,
      "tags": {
        "addr:street": "Bugle Rock Road",
        "amenity": "place_of_worship",
        "name": "Karanji Anjaneya Temple",
        "name:kn": "ಕಾರಂಜಿ ಅಂಜನೇಯ ದೇವಸ್ತಾನ",
        "religion": "hindu",
        "wheelchair": "no"
      }
    },
    {
      "type": "node",
      "id": 1085578890,
      "lat": 12.9318576,
      "lon": 77.5648659,
      "tags": {
        "amenity": "place_of_worship",
        "name": "Muneshwara Temple",
        "name:kn": "ಮುನೇಶ್ವರ ದೇವಸ್ಥಾನ",
        "religion": "hindu"
      }
    },
    {
      "type": "node",
      "id": 1464749398,
      "lat": 12.9432335,
      "lon": 77.5700564,
      "tags": {
        "amenity": "fountain"
      }
    },
    {
      "type": "node",
      "id": 1464751687,
      "lat": 12.9409932,
      "lon": 77.5671094,
      "tags": {
        "amenity": "place_of_worship",
        "name": "Puttige Mutt",
        "name:kn": "ಪುತ್ತಿಗೆ ಮಠ",
        "religion": "hindu"
      }
    },
    {
      "type": "node",
      "id": 1464752453,
      "lat": 12.9395396,
      "lon": 77.5667848,
      "tags": {
        "addr:street": "Bull Temple Road",
        "amenity": "social_centre",
        "name": "Gokhale Institute of Public Affairs",
        "website": "http://gipa-bng.org/"
      }
    },
    {
      "type": "node",
      "id": 1464999434,
      "lat": 12.9414203,
      "lon": 77.553445,
      "tags": {
        "addr:postcode": "560050",
        "amenity": "restaurant",
        "name": "Dragons",
        "name:kn": "ಡ್ರಾಗನ್ಸ್"
      }
    },
    {
      "type": "node",
      "id": 1465007911,
      "lat": 12.9328395,
      "lon": 77.5638317,
      "tags": {
        "addr:postcode": "560085",
        "amenity": "school",
        "name": "SSM Public School",
        "operator": "PES Group"
      }
    },
    {
      "type": "node",
      "id": 1465008909,
      "lat": 12.9378526,
      "lon": 77.5581352,
      "tags": {
        "leisure": "sports_centre"
      }
    },
    {
      "type": "node",
      "id": 1466328820,
      "lat": 12.9372141,
      "lon": 77.568841,
      "tags": {
        "addr:street": "N.R. Colony, 1st Main Road",
        "amenity": "bank",
        "atm": "yes",
        "brand": "Syndicate Bank",
        "brand:wikidata": "Q2004088",
        "name": "Syndicate Bank",
        "name:en": "Syndicate Bank",
        "name:kn": "ಸಿಂಡಿಕೇಟ್ ಬ್ಯಾಂಕ್",
        "website": "https://www.syndicatebank.in"
      }
    },
    {
      "type": "node",
      "id": 1466328827,
      "lat": 12.9370677,
      "lon": 77.568849,
      "tags": {
        "amenity": "atm",
        "brand": "Syndicate Bank",
        "brand:wikidata": "Q2004088",
        "name": "Syndicate Bank",
        "name:kn": "ಸಿಂಡಿಕೇಟ್ ಬ್ಯಾಂಕ್",
        "operator": "Syndicate Bank",
        "operator:wikidata": "Q2004088"
      }
    },
    {
      "type": "node",
      "id": 1466380358,
      "lat": 12.9370493,
      "lon": 77.5686801,
      "tags": {
        "amenity": "pharmacy",
        "healthcare": "pharmacy",
        "name": "Sagar Pharmacy"
      }
    },
    {
      "type": "node",
      "id": 1466450010,
      "lat": 12.9365631,
      "lon": 77.567363,
      "tags": {
        "amenity": "atm",
        "operator": "HDFC ATM"
      }
    },
    {
      "type": "node",
      "id": 1466724441,
      "lat": 12.9417187,
      "lon": 77.5601963,
      "tags": {
        "name": "Kaggi's Bakery",
        "shop": "bakery"
      }
    },
    {
      "type": "node",
      "id": 1467750614,
      "lat": 12.9364316,
      "lon": 77.5673584,
      "tags": {
        "amenity": "clinic",
        "emergency": "yes",
        "name": "Karuna Clinic"
      }
    },
    {
      "type": "node",
      "id": 1467778589,
      "lat": 12.9339482,
      "lon": 77.5664867,
      "tags": {
        "amenity": "school",
        "designation": "Kamala Nehru Patashala",
        "name": "Kamala Nehru Patashala (Emmanual English School)"
      }
    },
    {
      "type": "node",
      "id": 1467778590,
      "lat": 12.9333966,
      "lon": 77.5660039,
      "tags": {
        "addr:housename": "'Omkara Nilaya'",
        "addr:housenumber": "161",
        "addr:postcode": "560028",
        "addr:street": "3rd Block, T. R. Nagar, 6th Cross, 6th Main",
        "name": "Sri Lakshmi Venkateshwara Provision Stores",
        "shop": "convenience"
      }
    },
    {
      "type": "node",
      "id": 1467778591,
      "lat": 12.9336501,
      "lon": 77.5660602,
      "tags": {
        "amenity": "hospital",
        "emergency": "yes",
        "name": "Kangila Clinic"
      }
    },
    {
      "type": "node",
      "id": 1467778592,
      "lat": 12.9336091,
      "lon": 77.5661398,
      "tags": {
        "addr:postcode": "560028",
        "addr:street": "6th Main",
        "amenity": "pharmacy",
        "dispensing": "yes",
        "name": "Rakesh Medicals"
      }
    },
    {
      "type": "node",
      "id": 1467794454,
      "lat": 12.9334734,
      "lon": 77.5661076,
      "tags": {
        "addr:postcode": "560028",
        "addr:street": "6th Cross, 6th Main",
        "amenity": "pharmacy",
        "dispensing": "yes",
        "name": "Subramanya Medicals"
      }
    },
    {
      "type": "node",
      "id": 1467794468,
      "lat": 12.9321898,
      "lon": 77.5656194,
      "tags": {
        "amenity": "place_of_worship",
        "name": "Sharadamba Temple",
        "name:kn": "ಶಾರದಾಂಬ ದೇವಸ್ಥಾನ",
        "religion": "hindu"
      }
    },
    {
      "type": "node",
      "id": 1467794469,
      "lat": 12.9343751,
      "lon": 77.565952,
      "tags": {
        "amenity": "place_of_worship",
        "denomination": "Dattatreya",
        "name": "Dattatreya Temple",
        "name:kn": "ದತ್ತಾತ್ರೇಯ ದೇವಸ್ಥಾನ",
        "religion": "hindu"
      }
    },
    {
      "type": "node",
      "id": 1467794476,
      "lat": 12.9327754,
      "lon": 77.5660244,
      "tags": {
        "amenity": "place_of_worship",
        "name": "Abhaya Lakshmi Narasimha Temple",
        "name:kn": "ಅಭಯ ಲಕ್ಷ್ಮಿ ನರಸಿಂಹ",
        "religion": "hindu"
      }
    },
    {
      "type": "node",
      "id": 1467794482,
      "lat": 12.9332872,
      "lon": 77.5679132,
      "tags": {
        "amenity": "place_of_worship",
        "name": "Plague Ammana Temple",
        "religion": "hindu"
      }
    },
    {
      "type": "node",
      "id": 1467794483,
      "lat": 12.9343123,
      "lon": 77.5663329,
      "tags": {
        "amenity": "bench"
      }
    },
    {
      "type": "node",
      "id": 1467794484,
      "lat": 12.9341451,
      "lon": 77.566062,
      "tags": {
        "addr:postcode": "560028",
        "addr:street": "6th Main, T. R. Nagar",
        "shop": "motorcycle"
      }
    },
    {
      "type": "node",
      "id": 1467794487,
      "lat": 12.9342938,
      "lon": 77.5660221,
      "tags": {
        "amenity": "place_of_worship",
        "denomination": "Ganesha, Shiva",
        "name": "Balamuri Ganapathi Temple",
        "name:kn": "ಬಲಮುರಿ ಗಣಪತಿ ದೇವಸ್ಥಾನ",
        "religion": "hindu"
      }
    },
    {
      "type": "node",
      "id": 1470553269,
      "lat": 12.9369341,
      "lon": 77.5691786,
      "tags": {
        "name": "Samipa Bakery",
        "shop": "bakery"
      }
    },
    {
      "type": "node",
      "id": 1470553336,
      "lat": 12.9383716,
      "lon": 77.5700155,
      "tags": {
        "amenity": "fast_food",
        "cuisine": "indian",
        "name": "Srinivasa Cool Corner"
      }
    },
    {
      "type": "node",
      "id": 1470715777,
      "lat": 12.9435227,
      "lon": 77.5590375,
      "tags": {
        "name": "Ritu's designer sarees",
        "shop": "clothes"
      }
    },
    {
      "type": "node",
      "id": 1472981138,
      "lat": 12.9373897,
      "lon": 77.56002,
      "tags": {
        "amenity": "school",
        "name": "Holy Child Convent School"
      }
    },
    {
      "type": "node",
      "id": 1472981151,
      "lat": 12.9363435,
      "lon": 77.5615008,
      "tags": {
        "amenity": "police",
        "name": "Police Station",
        "name:kn": "ಆರಕ್ಷಕ ಠಾಣೆ",
        "operator": "Karnataka Police Department"
      }
    },
    {
      "type": "node",
      "id": 1472981411,
      "lat": 12.9348901,
      "lon": 77.560782,
      "tags": {
        "name": "SLV Bakery",
        "shop": "bakery"
      }
    },
    {
      "type": "node",
      "id": 1473887315,
      "lat": 12.942427,
      "lon": 77.5671829,
      "tags": {
        "amenity": "place_of_worship",
        "check_date": "2023-09-19",
        "name": "Sri Raghavendra Swami Mutt",
        "name:kn": "ರಾಘವೇಂದ್ರ ಸ್ವಾಮಿ ಮಠ",
        "religion": "hindu"
      }
    },
    {
      "type": "node",
      "id": 1473887316,
      "lat": 12.940068,
      "lon": 77.5686776,
      "tags": {
        "leisure": "pitch",
        "name": "APS Playground"
      }
    },
    {
      "type": "node",
      "id": 1473896401,
      "lat": 12.9453673,
      "lon": 77.5672085,
      "tags": {
        "amenity": "school",
        "name": "Nevaditha school"
      }
    },
    {
      "type": "node",
      "id": 1473897177,
      "lat": 12.9444263,
      "lon": 77.5651593,
      "tags": {
        "amenity": "school",
        "name": "SSVM GP Branch",
        "wheelchair": "no"
      }
    },
    {
      "type": "node",
      "id": 1473902946,
      "lat": 12.940021,
      "lon": 77.5651693,
      "tags": {
        "amenity": "bank",
        "brand": "Allahabad Bank",
        "brand:wikidata": "Q2018840",
        "brand:wikipedia": "en:Allahabad Bank",
        "name": "Allahabad Bank",
        "name:en": "Allahabad Bank",
        "name:kn": "ಅಲ್ಲಹಾಬಾದ್ ಬ್ಯಾಂಕ್",
        "website": "https://www.allahabadbank.in"
      }
    },
    {
      "type": "node",
      "id": 1473902949,
      "lat": 12.9387311,
      "lon": 77.563322,
      "tags": {
        "amenity": "place_of_worship",
        "name": "Sri Rama Temple",
        "name:kn": "ಶ್ರೀ ರಾಮ ದೇವಸ್ಥಾನ",
        "religion": "hindu"
      }
    },
    {
      "type": "node",
      "id": 1473902953,
      "lat": 12.9403137,
      "lon": 77.5645095,
      "tags": {
        "amenity": "restaurant",
        "name": "Mini Punjabi Dhaba",
        "name:kn": "ಮಿನಿ ಪಂಜಾಬಿ ಢಾಬ"
      }
    },
    {
      "type": "node",
      "id": 1473902955,
      "lat": 12.9393831,
      "lon": 77.5641393,
      "tags": {
        "amenity": "restaurant",
        "name": "Ganesh FruitJuice Centre",
        "name:kn": "ಗಣೇಶ್ ಫ್ರುಟ್‌ಜ್ಯುಸ್ ಸೆಂಟರ್"
      }
    },
    {
      "type": "node",
      "id": 1473921774,
      "lat": 12.9458714,
      "lon": 77.5675192,
      "tags": {
        "addr:district": "Bengaluru Urban",
        "addr:full": "No.81,Bulltemple Road,Near Ramakrishna Ashram",
        "addr:postcode": "560019",
        "addr:state": "Karnataka",
        "addr:street": "Shyamaraja Iyengar Road",
        "amenity": "hospital",
        "emergency": "no",
        "name": "Shekar Hospital",
        "name:en": "Shekhar Hospital",
        "name:hi": "शेखर हॉस्पिटल",
        "name:kn": "ಶೇಖರ್ ಹಾಸ್ಪಿಟಲ್",
        "source": "OpenGovernmentData"
      }
    },
    {
      "type": "node",
      "id": 1473921785,
      "lat": 12.9455787,
      "lon": 77.5679644,
      "tags": {
        "amenity": "school",
        "name": "BASE"
      }
    },
    {
      "type": "node",
      "id": 1473921794,
      "lat": 12.9462008,
      "lon": 77.5679859,
      "tags": {
        "amenity": "fuel",
        "brand": "Indian Oil",
        "brand:wikidata": "Q1289348",
        "name": "Bull Temple Filling Station"
      }
    },
    {
      "type": "node",
      "id": 1473921798,
      "lat": 12.9449194,
      "lon": 77.5680581,
      "tags": {
        "addr:street": "Bull Temple Road",
        "amenity": "restaurant",
        "name": "Cane-o-La",
        "name:kn": "ಕೆನ್-ಒ-ಲಾ",
        "wheelchair": "no"
      }
    },
    {
      "type": "node",
      "id": 1473921812,
      "lat": 12.9446167,
      "lon": 77.5677552,
      "tags": {
        "amenity": "atm",
        "brand": "State Bank of India",
        "brand:wikidata": "Q1340361",
        "fee": "no",
        "name": "State Bank of India",
        "operator": "State Bank of India",
        "operator:wikidata": "Q1340361",
        "short_name": "SBI"
      }
    },
    {
      "type": "node",
      "id": 1566824494,
      "lat": 12.9391021,
      "lon": 77.5556301,
      "tags": {
        "amenity": "place_of_worship",
        "name": "Gondavalekar Sadgur"
      }
    },
    {
      "type": "node",
      "id": 1741246216,
      "lat": 12.935471,
      "lon": 77.5608687,
      "tags": {
        "amenity": "atm",
        "brand": "ICICI Bank",
        "brand:wikidata": "Q1653258",
        "name": "ICICI Bank",
        "name:kn": "ಐಸಿಐಸಿಐ ಬ್ಯಾಂಕು",
        "operator": "ICICI Bank",
        "operator:wikidata": "Q1653258",
        "short_name": "ICICI"
      }
    },
    {
      "type": "node",
      "id": 1741456815,
      "lat": 12.931931,
      "lon": 77.5640576,
      "tags": {
        "amenity": "atm",
        "operator": "HDFC Bank"
      }
    },
    {
      "type": "node",
      "id": 1741466668,
      "lat": 12.9371253,
      "lon": 77.5585054,
      "tags": {
        "amenity": "bank",
        "atm": "yes",
        "brand": "Corporation Bank",
        "brand:wikidata": "Q2003387",
        "brand:wikipedia": "en:Corporation Bank",
        "name": "Corporation Bank",
        "name:en": "Corporation Bank",
        "name:kn": "ಕಾರ್ಪೋರೇಶನ್ ಬ್ಯಾಂಕ್",
        "website": "https://corpbank.com/"
      }
    },
    {
      "type": "node",
      "id": 1741564945,
      "lat": 12.9389525,
      "lon": 77.5566263,
      "tags": {
        "amenity": "library",
        "name": "Public Library",
        "name:kn": "ಸಾರ್ವಜನಿಕ ಗ್ರಂಥಾಲಯ"
      }
    },
    {
      "type": "node",
      "id": 1741794881,
      "lat": 12.933396,
      "lon": 77.5626216,
      "tags": {
        "amenity": "pharmacy"
      }
    },
    {
      "type": "node",
      "id": 1741797182,
      "lat": 12.9352471,
      "lon": 77.5607927,
      "tags": {
        "amenity": "pharmacy"
      }
    },
    {
      "type": "node",
      "id": 1741799823,
      "lat": 12.9357213,
      "lon": 77.5609969,
      "tags": {
        "amenity": "bank",
        "atm": "yes",
        "brand": "Andhra Bank",
        "brand:wikidata": "Q2003476",
        "brand:wikipedia": "en:Andhra Bank",
        "name": "Andhra Bank",
        "name:en": "Andhra Bank",
        "name:kn": "ಆಂಧ್ರ ಬ್ಯಾಂಕ್",
        "website": "https://www.andhrabank.in"
      }
    },
    {
      "type": "node",
      "id": 1741809315,
      "lat": 12.9340245,
      "lon": 77.5619702,
      "tags": {
        "amenity": "fast_food",
        "cuisine": "indian",
        "name": "Kabab and Biriyani"
      }
    },
    {
      "type": "node",
      "id": 1741809464,
      "lat": 12.9340167,
      "lon": 77.5623395,
      "tags": {
        "shop": "hairdresser"
      }
    },
    {
      "type": "node",
      "id": 1741810626,
      "lat": 12.9321266,
      "lon": 77.5641271,
      "tags": {
        "shop": "toys"
      }
    },
    {
      "type": "node",
      "id": 1741824534,
      "lat": 12.93577,
      "lon": 77.5613294,
      "tags": {
        "amenity": "fast_food",
        "diet:vegetarian": "only",
        "name": "SLV Fast Food"
      }
    },
    {
      "type": "node",
      "id": 1741832246,
      "lat": 12.941632,
      "lon": 77.5641945,
      "tags": {
        "addr:city": "Bengaluru",
        "addr:postcode": "560019",
        "amenity": "fuel",
        "brand": "Hindustan Petroleum",
        "brand:wikidata": "Q1619375",
        "fuel:diesel": "yes",
        "fuel:petrol": "yes",
        "name": "Sri Vishvesha Agencies",
        "official_name": "Hindustan Petroleum",
        "phone": "+919164009930",
        "self_service": "no"
      }
    },
    {
      "type": "node",
      "id": 1741832550,
      "lat": 12.9416578,
      "lon": 77.5644359,
      "tags": {
        "amenity": "bank",
        "atm": "yes",
        "brand": "Canara Bank",
        "brand:en": "Canara Bank",
        "brand:hi": "केनरा बैंक",
        "brand:kn": "ಕೆನರಾ ಬ್ಯಾಂಕ್",
        "brand:pa": "ਕੇਨਰਾ ਬੈਂਕ",
        "brand:pnb": "کینرا بینک",
        "brand:ur": "کینرا بینک",
        "brand:wikidata": "Q2003777",
        "brand:wikipedia": "en:Canara Bank",
        "brand:wikipedia:pa": "ਕੇਨਰਾ ਬੈਂਕ",
        "name": "Canara Bank",
        "name:en": "Canara Bank",
        "name:hi": "केनरा बैंक",
        "name:kn": "ಕೆನರಾ ಬ್ಯಾಂಕ್",
        "name:pa": "ਕੇਨਰਾ ਬੈਂਕ",
        "name:pnb": "کینرا بینک",
        "name:ur": "کینرا بینک",
        "website": "https://www.canarabank.com/"
      }
    },
    {
      "type": "node",
      "id": 1787239474,
      "lat": 12.9451935,
      "lon": 77.5625997,
      "tags": {
        "amenity": "townhall",
        "designation": "Marriage Hall",
        "name": "Maradi Subbiah Trust Kalyana Mantapa"
      }
    },
    {
      "type": "node",
      "id": 1787242875,
      "lat": 12.9450916,
      "lon": 77.5620794,
      "tags": {
        "building": "public",
        "leisure": "sports_centre",
        "name": "Maradi Subbaiah Yoga Center"
      }
    },
    {
      "type": "node",
      "id": 1792009394,
      "lat": 12.9437044,
      "lon": 77.5603994,
      "tags": {
        "amenity": "fast_food",
        "diet:vegetarian": "only",
        "name": "Hotel Mangala"
      }
    },
    {
      "type": "node",
      "id": 1792012371,
      "lat": 12.9432666,
      "lon": 77.5585119,
      "tags": {
        "amenity": "place_of_worship",
        "religion": "hindu"
      }
    },
    {
      "type": "node",
      "id": 1792027188,
      "lat": 12.9418539,
      "lon": 77.555564,
      "tags": {
        "amenity": "atm",
        "brand": "Indian Bank",
        "brand:wikidata": "Q2003789",
        "name": "Indian Bank",
        "operator": "Indian Bank",
        "operator:wikidata": "Q2003789"
      }
    },
    {
      "type": "node",
      "id": 1792041769,
      "lat": 12.9412355,
      "lon": 77.5578065,
      "tags": {
        "amenity": "post_box",
        "operator": "India Post",
        "operator:wikidata": "Q3519720"
      }
    },
    {
      "type": "node",
      "id": 1792044189,
      "lat": 12.9398411,
      "lon": 77.553976,
      "tags": {
        "amenity": "atm",
        "brand": "HDFC Bank",
        "brand:wikidata": "Q631047",
        "fee": "no",
        "name": "HDFC Bank",
        "operator": "HDFC Bank",
        "operator:wikidata": "Q631047",
        "short_name": "HDFC"
      }
    },
    {
      "type": "node",
      "id": 1792046973,
      "lat": 12.9396697,
      "lon": 77.5546603,
      "tags": {
        "amenity": "atm",
        "operator": "Ratnakar Bank"
      }
    },
    {
      "type": "node",
      "id": 1792716217,
      "lat": 12.9434331,
      "lon": 77.5663121,
      "tags": {
        "amenity": "atm",
        "brand": "ICICI Bank",
        "brand:wikidata": "Q1653258",
        "fee": "no",
        "name": "ICICI Bank",
        "name:kn": "ಐಸಿಐಸಿಐ ಬ್ಯಾಂಕು",
        "operator": "ICICI Bank",
        "operator:wikidata": "Q1653258",
        "short_name": "ICICI"
      }
    },
    {
      "type": "node",
      "id": 1792719335,
      "lat": 12.9416816,
      "lon": 77.5555618,
      "tags": {
        "addr:street": "Hanumantha Nagar Main Road",
        "amenity": "bank",
        "atm": "no",
        "name": "Mahila Co-operative Bank"
      }
    },
    {
      "type": "node",
      "id": 1792719635,
      "lat": 12.9418698,
      "lon": 77.5563504,
      "tags": {
        "amenity": "atm",
        "brand": "ICICI Bank",
        "brand:wikidata": "Q1653258",
        "fee": "no",
        "name": "ICICI Bank",
        "operator": "ICICI Bank",
        "operator:wikidata": "Q1653258",
        "short_name": "ICICI"
      }
    },
    {
      "type": "node",
      "id": 1796628970,
      "lat": 12.9439251,
      "lon": 77.5643566,
      "tags": {
        "amenity": "atm",
        "brand": "HDFC Bank",
        "brand:wikidata": "Q631047",
        "fee": "no",
        "name": "HDFC Bank",
        "operator": "HDFC Bank",
        "operator:wikidata": "Q631047",
        "short_name": "HDFC"
      }
    },
    {
      "type": "node",
      "id": 1796630507,
      "lat": 12.9437743,
      "lon": 77.5643702,
      "tags": {
        "amenity": "atm",
        "brand": "ICICI Bank",
        "brand:wikidata": "Q1653258",
        "fee": "no",
        "name": "ICICI Bank",
        "operator": "ICICI Bank",
        "operator:wikidata": "Q1653258",
        "short_name": "ICICI"
      }
    },
    {
      "type": "node",
      "id": 1796633495,
      "lat": 12.9450945,
      "lon": 77.5679803,
      "tags": {
        "amenity": "fast_food",
        "brand": "Domino's",
        "brand:ks": "ڈومینوز",
        "brand:pa": "ਡੋਮੀਨੋਜ਼",
        "brand:ur": "ڈومینوز",
        "brand:wikidata": "Q839466",
        "brand:wikipedia": "en:Domino's Pizza",
        "cuisine": "pizza",
        "name": "Domino's",
        "name:ks": "ڈومینوز",
        "name:pa": "ਡੋਮੀਨੋਜ਼",
        "name:ur": "ڈومینوز",
        "takeaway": "yes"
      }
    },
    {
      "type": "node",
      "id": 1796670301,
      "lat": 12.9402637,
      "lon": 77.5577692,
      "tags": {
        "amenity": "atm",
        "brand": "HDFC Bank",
        "brand:wikidata": "Q631047",
        "fee": "no",
        "name": "HDFC Bank",
        "operator": "HDFC Bank",
        "operator:wikidata": "Q631047",
        "short_name": "HDFC"
      }
    },
    {
      "type": "node",
      "id": 1796708919,
      "lat": 12.9402254,
      "lon": 77.5535523,
      "tags": {
        "name": "Cake Palace",
        "shop": "bakery"
      }
    },
    {
      "type": "node",
      "id": 1801375379,
      "lat": 12.9469992,
      "lon": 77.5641506,
      "tags": {
        "amenity": "bank",
        "atm": "yes",
        "brand": "Syndicate Bank",
        "brand:wikidata": "Q2004088",
        "name": "Syndicate Bank",
        "name:en": "Syndicate Bank",
        "name:kn": "ಸಿಂಡಿಕೇಟ್ ಬ್ಯಾಂಕ್",
        "website": "https://www.syndicatebank.in"
      }
    },
    {
      "type": "node",
      "id": 1802684091,
      "lat": 12.9436748,
      "lon": 77.5641934,
      "tags": {
        "amenity": "atm",
        "brand": "Corporation Bank",
        "brand:wikidata": "Q2003387",
        "fee": "no",
        "name": "Corporation Bank",
        "operator": "Corporation Bank",
        "operator:wikidata": "Q2003387"
      }
    },
    {
      "type": "node",
      "id": 2331415122,
      "lat": 12.9373332,
      "lon": 77.5582484,
      "tags": {
        "amenity": "atm",
        "brand": "Canara Bank",
        "brand:en": "Canara Bank",
        "brand:hi": "केनरा बैंक",
        "brand:kn": "ಕೆನರಾ ಬ್ಯಾಂಕ್",
        "brand:pa": "ਕੇਨਰਾ ਬੈਂਕ",
        "brand:pnb": "کینرا بینک",
        "brand:ur": "کینرا بینک",
        "brand:wikidata": "Q2003777",
        "brand:wikipedia": "en:Canara Bank",
        "brand:wikipedia:pa": "ਕੇਨਰਾ ਬੈਂਕ",
        "name": "Canara Bank",
        "name:en": "Canara Bank",
        "name:hi": "केनरा बैंक",
        "name:kn": "ಕೆನರಾ ಬ್ಯಾಂಕ್",
        "name:pa": "ਕੇਨਰਾ ਬੈਂਕ",
        "name:pnb": "کینرا بینک",
        "name:ur": "کینرا بینک",
        "operator": "Canara Bank",
        "operator:wikidata": "Q2003777"
      }
    },
    {
      "type": "node",
      "id": 2331429506,
      "lat": 12.9381919,
      "lon": 77.556125,
      "tags": {
        "name": "Relience Fresh",
        "operator": "Relience",
        "shop": "supermarket"
      }
    },
    {
      "type": "node",
      "id": 2331429507,
      "lat": 12.9348094,
      "lon": 77.5556281,
      "tags": {
        "amenity": "atm",
        "brand": "HDFC Bank",
        "brand:wikidata": "Q631047",
        "name": "HDFC Bank",
        "name:kn": "ಎಚ್ ಡಿ ಎಫ್ ಸಿ",
        "operator": "HDFC Bank",
        "operator:wikidata": "Q631047",
        "short_name": "HDFC"
      }
    },
    {
      "type": "node",
      "id": 2331429508,
      "lat": 12.9347536,
      "lon": 77.5556142,
      "tags": {
        "amenity": "atm",
        "brand": "State Bank of India",
        "brand:wikidata": "Q1340361",
        "name": "State Bank of India",
        "name:kn": "ಭಾರತೀಯ ಸ್ಟೇಟ್ ಬ್ಯಾಂಕ್",
        "operator": "State Bank of India",
        "operator:wikidata": "Q1340361",
        "short_name": "SBI"
      }
    },
    {
      "type": "node",
      "id": 2331429509,
      "lat": 12.9381111,
      "lon": 77.5565458,
      "tags": {
        "amenity": "atm",
        "brand": "Bank of Baroda",
        "brand:wikidata": "Q2003797",
        "name": "Bank of Baroda",
        "name:kn": "ಬ್ಯಾಂಕ್ ಆಫ್ ಬರೊಡಾ",
        "operator": "Bank of Baroda",
        "operator:wikidata": "Q2003797"
      }
    },
    {
      "type": "node",
      "id": 2332679567,
      "lat": 12.9369041,
      "lon": 77.5577545,
      "tags": {
        "addr:city": "Bangalore",
        "addr:housename": "Vinayaka Vidya Samsthe",
        "addr:postcode": "560050",
        "addr:street": "1st Main Road, Srinivasa Nagar",
        "amenity": "school",
        "name": "Vinayaka Vidya Samsthe",
        "name:kn": "ವಿನಾಯಕ ವಿದ್ಯಾ ಸಂಸ್ಥೆ"
      }
    },
    {
      "type": "node",
      "id": 3118754073,
      "lat": 12.9416718,
      "lon": 77.5605078,
      "tags": {
        "amenity": "fast_food",
        "cuisine": "indian",
        "name": "Shiva's Chats"
      }
    },
    {
      "type": "node",
      "id": 3946293404,
      "lat": 12.940566,
      "lon": 77.5708321,
      "tags": {
        "addr:housenumber": "32",
        "addr:street": "32, Mallikarjuna Temple Road",
        "name": "Veena Works",
        "phone": "9845744693",
        "shop": "musical_instrument"
      }
    },
    {
      "type": "node",
      "id": 4246843765,
      "lat": 12.9392188,
      "lon": 77.5600997,
      "tags": {
        "amenity": "cafe",
        "cuisine": "ice_cream",
        "name": "Prasad Icecream Parlour"
      }
    },
    {
      "type": "node",
      "id": 4278117690,
      "lat": 12.9382756,
      "lon": 77.5572939,
      "tags": {
        "addr:housenumber": "1706",
        "addr:postcode": "560050",
        "addr:street": "10th Main Road",
        "email": "akshaymeda@gmail.com",
        "internet_access": "wlan",
        "name": "Gaayathri coffee",
        "opening_hours": "Mo-Su 09:30-21:30",
        "phone": "9986552253",
        "shop": "beverages"
      }
    },
    {
      "type": "node",
      "id": 4443345110,
      "lat": 12.9435256,
      "lon": 77.5655166,
      "tags": {
        "addr:city": "Bangalore",
        "addr:housenumber": "3",
        "addr:postcode": "560004",
        "addr:street": "Bull Temple Road, 5th Main Road",
        "amenity": "restaurant",
        "delivery": "yes",
        "name": "Halli Thindi",
        "opening_hours": "07:00-22:00",
        "phone": "080 2661 9777",
        "smoking": "no"
      }
    },
    {
      "type": "node",
      "id": 4443420825,
      "lat": 12.9326403,
      "lon": 77.5656287,
      "tags": {
        "addr:city": "Bangalore",
        "addr:housenumber": "147/1",
        "addr:postcode": "560004",
        "addr:street": "Basavangudi",
        "amenity": "restaurant",
        "cuisine": "regional",
        "delivery": "yes",
        "name": "Koli Mane",
        "name:kn": "ಕೋಳಿಮನೆ",
        "phone": "080 2676 5670",
        "smoking": "no"
      }
    },
    {
      "type": "node",
      "id": 4444989840,
      "lat": 12.9390944,
      "lon": 77.5619057,
      "tags": {
        "addr:city": "bangalore",
        "addr:housenumber": "11/2",
        "addr:postcode": "560079",
        "addr:street": "Magadi Main Road",
        "amenity": "hospital",
        "name": "Sarvodaya Hospital",
        "name:kn": "ಸರ್ವೋದಯ ಆಸ್ಪತ್ರೆ",
        "phone": "098440 74946"
      }
    },
    {
      "type": "node",
      "id": 4445208559,
      "lat": 12.9402569,
      "lon": 77.5533988,
      "tags": {
        "addr:city": "Banashankari,Bangalore",
        "addr:housenumber": "89",
        "addr:postcode": "560070",
        "addr:street": "22nd Main Road",
        "amenity": "restaurant",
        "cuisine": "indian",
        "name": "Hotel New Karavali",
        "opening_hours": "11:00-23:00",
        "phone": "+91 8971171462",
        "takeaway": "yes"
      }
    },
    {
      "type": "node",
      "id": 4445209596,
      "lat": 12.9406714,
      "lon": 77.5703714,
      "tags": {
        "addr:city": "Bangalore",
        "addr:postcode": "560004",
        "addr:street": "Mallikarjuna Temple St",
        "amenity": "restaurant",
        "cuisine": "regional",
        "delivery": "yes",
        "name": "Puliyogare Point",
        "opening_hours": "07:00-21:30",
        "phone": "+91 99869 53484",
        "smoking": "no",
        "takeaway": "yes"
      }
    },
    {
      "type": "node",
      "id": 4445678275,
      "lat": 12.9391651,
      "lon": 77.5637852,
      "tags": {
        "addr:city": "Bangalore",
        "addr:postcode": "560004",
        "addr:street": "3rd Cross Rd, Basavanagudi",
        "amenity": "restaurant",
        "cuisine": "regional",
        "delivery": "yes",
        "name": "Rolls Corner",
        "smoking": "no",
        "takeaway": "yes"
      }
    },
    {
      "type": "node",
      "id": 4445727000,
      "lat": 12.9385441,
      "lon": 77.5699295,
      "tags": {
        "addr:city": "Bangalore",
        "addr:postcode": "560004",
        "addr:street": "E Anjaneya Temple St, NR Colony, Basavanagudi",
        "amenity": "restaurant",
        "cuisine": "regional",
        "delivery": "yes",
        "name": "Harshi Super Sandwich",
        "opening_hours": "10:00-21:30",
        "phone": "095357 36455",
        "smoking": "no",
        "takeaway": "yes",
        "website": "https://sites.google.com/site/harshisupersandwich/"
      }
    },
    {
      "type": "node",
      "id": 4445782638,
      "lat": 12.9363723,
      "lon": 77.5682018,
      "tags": {
        "addr:city": "Bangalore",
        "addr:housenumber": "115/121",
        "addr:postcode": "560004",
        "addr:street": "4th Main Road, 4th Stage,Thyagaraja Nagar",
        "amenity": "restaurant",
        "cuisine": "regional",
        "delivery": "yes",
        "name": "Amandé Patisserie",
        "opening_hours": "09:00-18:00",
        "phone": "080 2676 1080",
        "smoking": "no",
        "takeaway": "yes",
        "website": "https://amande.co.in/"
      }
    },
    {
      "type": "node",
      "id": 4446411830,
      "lat": 12.9416198,
      "lon": 77.5573584,
      "tags": {
        "addr:city": "Banashankari,Bangalore",
        "addr:housenumber": "544/14",
        "addr:postcode": "560050",
        "addr:street": "Hanumantha Nagar Main Road / 50 Feet Road",
        "amenity": "restaurant",
        "cuisine": "regional",
        "name": "New Sri Banashankari Donne Biriyani Corner",
        "opening_hours": "12:30-16:00,19:00-22:00",
        "phone": "+91 99455 50255",
        "takeaway": "yes"
      }
    },
    {
      "type": "node",
      "id": 4446439565,
      "lat": 12.9415734,
      "lon": 77.5578002,
      "tags": {
        "addr:city": "Banashankari,Bangalore",
        "addr:postcode": "560050",
        "addr:street": "10th Main Road,",
        "amenity": "restaurant",
        "cuisine": "fast_food",
        "name": "Coffee Bytes",
        "opening_hours": "07:00-12:00,16:00-20:30",
        "phone": "+91 88846 80081",
        "takeaway": "yes"
      }
    },
    {
      "type": "node",
      "id": 4446881168,
      "lat": 12.9378359,
      "lon": 77.5573329,
      "tags": {
        "addr:city": "Bangalore",
        "addr:housenumber": "5",
        "addr:postcode": "560050",
        "addr:street": "80 Feet Road, 1st Stage, Srinivasa Nagar, Banashankari",
        "amenity": "hospital",
        "name": "\" NRS Medical & Dental Specialists Centre\"",
        "phone": "080-26696054"
      }
    },
    {
      "type": "node",
      "id": 4446897063,
      "lat": 12.9420715,
      "lon": 77.553698,
      "tags": {
        "addr:city": "Bengaluru",
        "addr:housenumber": "979/A",
        "addr:postcode": "560085",
        "addr:street": "50 Feet Road",
        "amenity": "hospital",
        "name": "Meenakshi Hospital",
        "name:kn": "ಮೀನಾಕ್ಷಿ ಆಸ್ಪತ್ರೆ",
        "phone": "+918026755800"
      }
    },
    {
      "type": "node",
      "id": 4446899253,
      "lat": 12.9408667,
      "lon": 77.5603657,
      "tags": {
        "addr:city": "bangalore",
        "addr:district": "Bengaluru Urban",
        "addr:full": "#795/1, 9Th Main ,Bsk 1st, Stage,2nd Block,Hanumantha Nagar",
        "addr:housenumber": "795/1",
        "addr:postcode": "560050",
        "addr:state": "Karnataka",
        "addr:street": "9th Main, 2nd Block, Hanumantha Nagar, Near-Shaneshwara Temple Road, Banashankari 1st Stage",
        "amenity": "hospital",
        "name": "Medi-Tech Multi Speciality Hospital",
        "phone": "080 2660 2910",
        "source": "OpenGovernmentData"
      }
    },
    {
      "type": "node",
      "id": 4446905394,
      "lat": 12.943838,
      "lon": 77.5537472,
      "tags": {
        "addr:city": "bangalore",
        "addr:district": "Bengaluru Urban",
        "addr:full": "No-22/2, 13Th Main, Banashankari,1st Stage, 3Road block, Shrinagar",
        "addr:housenumber": "22/2",
        "addr:postcode": "560050",
        "addr:state": "Karnataka",
        "addr:street": "13th Main Srinagar, Banashankari",
        "amenity": "clinic",
        "name": "Trinetraalaya Eye Care and Surgical Centre",
        "phone": "080 2599 0004",
        "source": "OpenGovernmentData"
      }
    },
    {
      "type": "node",
      "id": 4446915143,
      "lat": 12.9383428,
      "lon": 77.5598834,
      "tags": {
        "addr:city": "bangalore",
        "addr:housenumber": "786",
        "addr:postcode": "560050",
        "addr:street": "10th Main, BSK 1st Stage, Banashankari Stage 1, Banashankari,",
        "amenity": "pharmacy",
        "name": "Shakti Medicals & Generals",
        "phone": "080 2667 4045",
        "source": "just dial"
      }
    },
    {
      "type": "node",
      "id": 4446915945,
      "lat": 12.93599,
      "lon": 77.5534094,
      "tags": {
        "addr:city": "bangalore",
        "addr:housenumber": "84/1",
        "addr:postcode": "560050",
        "addr:street": "9th Main, Dr. Raj Road, Srinivasnagar, Banashankari",
        "name": "Mathrushree Medicals",
        "phone": "+9188847 85707",
        "shop": "medical_supply",
        "source": "justdial"
      }
    },
    {
      "type": "node",
      "id": 4446919819,
      "lat": 12.9385917,
      "lon": 77.5545138,
      "tags": {
        "addr:city": "Bangalore",
        "addr:housenumber": "203",
        "addr:postcode": "560050",
        "addr:street": "BSK 1st Stage, Bank Colony, 80 Feet Rd, Srinivasnagar, Banashankari",
        "name": "Bhagyalakshmi Medicals",
        "phone": "080 2669 7488",
        "shop": "medical_supply",
        "source": "just dial"
      }
    },
    {
      "type": "node",
      "id": 4446923444,
      "lat": 12.9383175,
      "lon": 77.5549076,
      "tags": {
        "addr:city": "Bangalore",
        "addr:housenumber": "207",
        "addr:postcode": "560050",
        "addr:street": "7th Main, Near Panchami Chats, 80 Feet Rd, Banashankari Stage I, Srinivasnagar, Banashankari",
        "amenity": "pharmacy",
        "brand": "Apollo Pharmacy",
        "brand:wikidata": "Q62562612",
        "healthcare": "pharmacy",
        "name": "Apollo Pharmacy",
        "name:kn": "ಅಪೋಲೋ ಫಾರ್ಮಸಿ",
        "phone": "080 2295 7428",
        "source": "justdial",
        "website": "https://apollopharmacy.in/"
      }
    },
    {
      "type": "node",
      "id": 4446978212,
      "lat": 12.9360789,
      "lon": 77.5601504,
      "tags": {
        "addr:city": "bangalore",
        "addr:housenumber": "47/1",
        "addr:postcode": "560050",
        "addr:street": "11th Cross, Ashok Nagar, Near-Vidya Peeta Circle, Banashankari 1st Stage",
        "amenity": "pharmacy",
        "name": "Mahaveer medicals",
        "phone": "+91 80 2242 7245",
        "source": "www.justdial.com"
      }
    },
    {
      "type": "node",
      "id": 4446983586,
      "lat": 12.94167,
      "lon": 77.5564774,
      "tags": {
        "addr:city": "Banashankari,Bangalore",
        "addr:housenumber": "Subhashree Complex",
        "addr:postcode": "560050",
        "addr:street": "Hanumantha Nagar Main Road / 50 Feet Road",
        "amenity": "restaurant",
        "cuisine": "indian",
        "name": "Matru Sagar",
        "opening_hours": "07:00-22:00",
        "phone": "+91 7411860439",
        "takeaway": "yes"
      }
    },
    {
      "type": "node",
      "id": 4446992064,
      "lat": 12.9385698,
      "lon": 77.5531314,
      "tags": {
        "addr:city": "Bangalore",
        "addr:housenumber": "415/A",
        "addr:postcode": "560050",
        "addr:street": "12th Main Road, Bank Colony Circle, Beside NIIT, BSK 1st Stage, 80 Feet Rd, Banashankari",
        "amenity": "pharmacy",
        "name": "Sri Swaraj Medicals",
        "phone": "+9198864 58232",
        "shop": "medical_supply",
        "source": "justdial"
      }
    },
    {
      "type": "node",
      "id": 4446999694,
      "lat": 12.9384167,
      "lon": 77.5572651,
      "tags": {
        "addr:city": "Bangalore",
        "addr:housenumber": "281/B",
        "addr:postcode": "560050",
        "addr:street": "1st Floor, 10th Main, 2nd Block, Srinivas Nagar, Near Ayyappaswamy Temple, Banashankari Stage I, Banashankari",
        "amenity": "clinic",
        "name": "Malathi Polyclinic",
        "phone": "080 2660 3366",
        "source": "justdial",
        "website": "malathipolyclinic.com"
      }
    },
    {
      "type": "node",
      "id": 4447082895,
      "lat": 12.9396288,
      "lon": 77.5667866,
      "tags": {
        "addr:city": "Bangalore",
        "addr:postcode": "560004",
        "addr:street": "Bull Temple Road",
        "amenity": "restaurant",
        "cuisine": "regional",
        "delivery": "yes",
        "name": "Kamath Bugle Rock",
        "opening_hours": "07:00-22:30",
        "phone": "080 4124 1112",
        "smoking": "no",
        "takeaway": "yes"
      }
    },
    {
      "type": "node",
      "id": 4447120631,
      "lat": 12.9401607,
      "lon": 77.5643716,
      "tags": {
        "addr:city": "Bangalore",
        "addr:housenumber": "8",
        "addr:postcode": "560004",
        "addr:street": "Second Floor, 1st Main, Arush Trapeze, Mount Joy Road, Behind BMS College of Engineering",
        "amenity": "restaurant",
        "cuisine": "regional",
        "name": "Szechuan Dragon Chinese Restaurant",
        "opening_hours": "12-16:00, 19:00-23:00",
        "phone": "096635 67711",
        "smoking": "no",
        "takeaway": "yes"
      }
    },
    {
      "type": "node",
      "id": 4447124200,
      "lat": 12.9376671,
      "lon": 77.5676462,
      "tags": {
        "addr:city": "Bangalore",
        "addr:postcode": "560004",
        "addr:street": "7th Cross Road, NR Colony, Basavangudi,",
        "amenity": "restaurant",
        "cuisine": "regional",
        "delivery": "no",
        "name": "Hotel Dwarka",
        "opening_hours": "We-Su 07:00-20:30",
        "phone": "080 2590 5217",
        "smoking": "no",
        "takeaway": "yes"
      }
    },
    {
      "type": "node",
      "id": 4487985719,
      "lat": 12.9417055,
      "lon": 77.5560577,
      "tags": {
        "addr:city": "Banashankari,Bangalore",
        "addr:housenumber": "173/A",
        "addr:postcode": "560050",
        "addr:street": "Hanumantha Nagar Main Road / 50 Feet Road",
        "name": "Yemkay Supermarket",
        "phone": "(91)-80-33518340",
        "shop": "supermarket"
      }
    },
    {
      "type": "node",
      "id": 4488106563,
      "lat": 12.9378082,
      "lon": 77.5579522,
      "tags": {
        "addr:city": "Bangalore",
        "addr:housenumber": "648",
        "addr:postcode": "560050",
        "addr:street": "10th Main Road, 5th Cross, 2nd Block, Near-Post Office Road, Banashankari 1st Stage",
        "name": "Arjuna Sports",
        "opening_hours": "10:00-22:00",
        "phone": "080 2691 4346",
        "shop": "sports"
      }
    },
    {
      "type": "node",
      "id": 4488117260,
      "lat": 12.9406795,
      "lon": 77.5534344,
      "tags": {
        "addr:city": "Banashankari,Bangalore",
        "addr:housenumber": "#1262",
        "addr:postcode": "560085",
        "addr:street": "80 Feet Road, 100 feet Road, BSK 3st Stage, Hosakerehalli",
        "name": "World Sports & Fitness",
        "opening_hours": "09:00-21:00",
        "phone": "9342869647",
        "shop": "sports"
      }
    },
    {
      "type": "node",
      "id": 4488404862,
      "lat": 12.9402812,
      "lon": 77.5643832,
      "tags": {
        "addr:city": "Bangalore",
        "addr:housenumber": "No.38/A",
        "addr:postcode": "560004",
        "addr:street": "3rd Main Road",
        "name": "My Style Family Beauty Parlour Saloon Spa",
        "opening_hours": "10:00-19:00",
        "phone": "097400 07553",
        "shop": "beauty"
      }
    },
    {
      "type": "node",
      "id": 4489407129,
      "lat": 12.9379298,
      "lon": 77.5570137,
      "tags": {
        "addr:city": "Bengaluru",
        "addr:housenumber": "7",
        "addr:postcode": "560050",
        "addr:street": "80 Feet Rd, Srinivasnagar, Banashankari",
        "name": "Winners Sports And Mementos",
        "opening_hours": "08:00-22:00",
        "phone": "+919738110190",
        "shop": "sports"
      }
    },
    {
      "type": "node",
      "id": 4489849370,
      "lat": 12.9428729,
      "lon": 77.5653972,
      "tags": {
        "addr:city": "Bangalore",
        "addr:postcode": "560019",
        "addr:street": "Mount Joy Road, Hanumanth Nagar, Gavipuram Extn, Basavanagudi, Bengalur",
        "name": "Karthik Cycle Store",
        "phone": "099805 02929",
        "shop": "sports"
      }
    },
    {
      "type": "node",
      "id": 4489855033,
      "lat": 12.9373987,
      "lon": 77.5582675,
      "tags": {
        "addr:city": "Bangalore",
        "addr:postcode": "560050",
        "addr:street": "80 Feet Rd, Srinivasnagar, Banashankari,",
        "name": "Cycle City",
        "phone": "094481 93498",
        "shop": "sports"
      }
    },
    {
      "type": "node",
      "id": 4703397594,
      "lat": 12.9459968,
      "lon": 77.5670655,
      "tags": {
        "addr:postcode": "560019",
        "addr:street": "Shyamaraja Iyengar Road",
        "amenity": "fast_food",
        "cuisine": "indian",
        "diet:vegetarian": "yes",
        "name": "Balaji Chat Corner",
        "name:en": "Balaji Chat Corner",
        "name:hi": "बालाजी चाट कार्नर",
        "opening_hours": "Mo-Su 10:00-22:00"
      }
    },
    {
      "type": "node",
      "id": 4703448590,
      "lat": 12.9449149,
      "lon": 77.5677557,
      "tags": {
        "name": "3M Car Care",
        "name:en": "3M Car Care",
        "shop": "car_parts"
      }
    },
    {
      "type": "node",
      "id": 4763212765,
      "lat": 12.9435344,
      "lon": 77.5654837,
      "tags": {
        "amenity": "atm",
        "brand": "Kotak Mahindra Bank",
        "brand:wikidata": "Q2040404",
        "name": "Kotak Mahindra Bank",
        "name:kn": "ಕೋಟಕ್ ಮಹಿಂದ್ರ ಬ್ಯಾಂಕ್",
        "operator": "Kotak Mahindra Bank",
        "operator:wikidata": "Q2040404"
      }
    },
    {
      "type": "node",
      "id": 4763212865,
      "lat": 12.9434351,
      "lon": 77.5655011,
      "tags": {
        "shop": "stationery"
      }
    },
    {
      "type": "node",
      "id": 4884891000,
      "lat": 12.9377734,
      "lon": 77.5690046,
      "tags": {
        "amenity": "place_of_worship",
        "name": "Ambabavani Temple",
        "name:kn": "ಅಂಬಭವಾನಿ",
        "religion": "hindu"
      }
    },
    {
      "type": "node",
      "id": 5234779662,
      "lat": 12.9417109,
      "lon": 77.5562111,
      "tags": {
        "name": "Medplus",
        "name:kn": "ಮೆಡ್‍ಪ್ಲಸ್",
        "shop": "medical_supply"
      }
    },
    {
      "type": "node",
      "id": 5234799278,
      "lat": 12.9416358,
      "lon": 77.562546,
      "tags": {
        "description": "Amaron Batteries",
        "name": "Tara Automobiles",
        "shop": "car_parts"
      }
    },
    {
      "type": "node",
      "id": 5249129421,
      "lat": 12.9334146,
      "lon": 77.5626612,
      "tags": {
        "amenity": "pharmacy",
        "name": "ಬಾಲಾಜಿ ಮೆಡಿಕಲ್ಸ್"
      }
    },
    {
      "type": "node",
      "id": 5304601964,
      "lat": 12.9386785,
      "lon": 77.5525989,
      "tags": {
        "name": "T.N.T. Jewellery Works",
        "shop": "jewelry"
      }
    },
    {
      "type": "node",
      "id": 5304601965,
      "lat": 12.9386733,
      "lon": 77.5526257,
      "tags": {
        "amenity": "pharmacy",
        "name": "Jaganni Medicals and General Stores"
      }
    },
    {
      "type": "node",
      "id": 5304601966,
      "lat": 12.9386132,
      "lon": 77.5527256,
      "tags": {
        "amenity": "clinic",
        "level": "2",
        "name": "Basava Natural Healing Center"
      }
    },
    {
      "type": "node",
      "id": 5304601968,
      "lat": 12.938623,
      "lon": 77.5527886,
      "tags": {
        "name": "Sri Lalitha Photoframe Works",
        "shop": "frame"
      }
    },
    {
      "type": "node",
      "id": 5304601969,
      "lat": 12.9386602,
      "lon": 77.5526706,
      "tags": {
        "name": "Inder Jewels",
        "shop": "jewelry"
      }
    },
    {
      "type": "node",
      "id": 5304601970,
      "lat": 12.9386504,
      "lon": 77.5527357,
      "tags": {
        "name": "Babusingh Thakur Pedha",
        "shop": "confectionery"
      }
    },
    {
      "type": "node",
      "id": 5304601971,
      "lat": 12.9386426,
      "lon": 77.5527913,
      "tags": {
        "name": "Mahalakshmi Jewellers",
        "shop": "jewelry"
      }
    },
    {
      "type": "node",
      "id": 5304601972,
      "lat": 12.9385864,
      "lon": 77.5528838,
      "tags": {
        "name": "Sri Gowri Ganesha Travel Links",
        "shop": "travel_agency"
      }
    },
    {
      "type": "node",
      "id": 5304601973,
      "lat": 12.9385877,
      "lon": 77.5528631,
      "tags": {
        "name": "Sri Gowri Ganesha Jewellery Works",
        "shop": "jewelry"
      }
    },
    {
      "type": "node",
      "id": 5304601974,
      "lat": 12.9385824,
      "lon": 77.5529046,
      "tags": {
        "name": "Sri Sharada Enterprises",
        "shop": "convenience"
      }
    },
    {
      "type": "node",
      "id": 5304601975,
      "lat": 12.9385785,
      "lon": 77.5529442,
      "tags": {
        "name": "Sushreema Xerox, DTP",
        "shop": "copyshop"
      }
    },
    {
      "type": "node",
      "id": 5304601976,
      "lat": 12.9386125,
      "lon": 77.5528785,
      "tags": {
        "name": "Pushpa Fancy and Bangle Stores",
        "shop": "convenience"
      }
    },
    {
      "type": "node",
      "id": 5304601977,
      "lat": 12.9386079,
      "lon": 77.552908,
      "tags": {
        "name": "Maruthi Textile Showroom",
        "shop": "clothes"
      }
    },
    {
      "type": "node",
      "id": 5304601978,
      "lat": 12.9386047,
      "lon": 77.5529496,
      "tags": {
        "name": "Meenakshi Textiles",
        "shop": "clothes"
      }
    },
    {
      "type": "node",
      "id": 5304601979,
      "lat": 12.9386001,
      "lon": 77.5529777,
      "tags": {
        "name": "Kasthuri Garments",
        "shop": "clothes"
      }
    },
    {
      "type": "node",
      "id": 5304601980,
      "lat": 12.9385922,
      "lon": 77.553024,
      "tags": {
        "name": "Sri Krishna Wholesale Point",
        "shop": "snacks"
      }
    },
    {
      "type": "node",
      "id": 5304601981,
      "lat": 12.9385903,
      "lon": 77.5530441,
      "tags": {
        "description:kn": "ಗ್ರಂಥಿಗೆ ಅಂಗಡಿ",
        "name": "Meenatshi",
        "shop": "convenience"
      }
    },
    {
      "type": "node",
      "id": 5304601982,
      "lat": 12.938587,
      "lon": 77.5530642,
      "tags": {
        "name": "Sri Mahalakshmi Ghee Center",
        "shop": "convenience"
      }
    },
    {
      "type": "node",
      "id": 5304601984,
      "lat": 12.9387765,
      "lon": 77.5531259,
      "tags": {
        "name": "Sri Sangameshwara Power Tools and Services",
        "shop": "hardware"
      }
    },
    {
      "type": "node",
      "id": 5304601985,
      "lat": 12.9387354,
      "lon": 77.5532091,
      "tags": {
        "name": "Shoe Planet",
        "shop": "shoes"
      }
    },
    {
      "type": "node",
      "id": 5304601986,
      "lat": 12.9387478,
      "lon": 77.5531514,
      "tags": {
        "name": "Mahaveer Electricals",
        "shop": "electrical"
      }
    },
    {
      "type": "node",
      "id": 5304601987,
      "lat": 12.9387517,
      "lon": 77.5531299,
      "tags": {
        "name": "Sri Kalikamba Jyotishyalaya",
        "shop": "yes"
      }
    },
    {
      "type": "node",
      "id": 5304601988,
      "lat": 12.938755,
      "lon": 77.5531071,
      "tags": {
        "level": "0",
        "name": "Rajaram Fancy and Gift Center",
        "shop": "gift"
      }
    },
    {
      "type": "node",
      "id": 5304601989,
      "lat": 12.9387596,
      "lon": 77.5530776,
      "tags": {
        "level": "0",
        "name": "Praveen Kumar Textiles",
        "shop": "clothes"
      }
    },
    {
      "type": "node",
      "id": 5304601990,
      "lat": 12.9387648,
      "lon": 77.5530495,
      "tags": {
        "amenity": "pharmacy",
        "level": "0",
        "name": "Suraksha Medicals"
      }
    },
    {
      "type": "node",
      "id": 5304601991,
      "lat": 12.938804,
      "lon": 77.5529925,
      "tags": {
        "name": "Dhanalakshmi Departmental Stores",
        "shop": "supermarket"
      }
    },
    {
      "type": "node",
      "id": 5304601992,
      "lat": 12.9388112,
      "lon": 77.5529268,
      "tags": {
        "name": "Ambika Jewellers",
        "shop": "jewelry"
      }
    },
    {
      "type": "node",
      "id": 5304601993,
      "lat": 12.9388177,
      "lon": 77.5528852,
      "tags": {
        "amenity": "pharmacy",
        "brand": "MedPlus",
        "brand:wikidata": "Q65684234",
        "healthcare": "pharmacy",
        "name": "MedPlus",
        "name:kn": "ಮೆಡ್‍ಪ್ಲಸ್"
      }
    },
    {
      "type": "node",
      "id": 5304601994,
      "lat": 12.9388491,
      "lon": 77.5527685,
      "tags": {
        "name": "J.K. Traders",
        "shop": "supermarket"
      }
    },
    {
      "type": "node",
      "id": 5304601995,
      "lat": 12.9388733,
      "lon": 77.5526901,
      "tags": {
        "name": "L.J. Iyengar's Bakery",
        "shop": "bakery"
      }
    },
    {
      "type": "node",
      "id": 5304601996,
      "lat": 12.9389288,
      "lon": 77.5525844,
      "tags": {
        "name": "Susri Autoparts",
        "shop": "car_parts"
      }
    },
    {
      "type": "node",
      "id": 5304601997,
      "lat": 12.9389249,
      "lon": 77.5526136,
      "tags": {
        "level": "1",
        "name": "Travel Point",
        "shop": "travel_agency"
      }
    },
    {
      "type": "node",
      "id": 5304601998,
      "lat": 12.9389229,
      "lon": 77.5526364,
      "tags": {
        "amenity": "dentist",
        "level": "1",
        "name": "Namratha Dental Clinic"
      }
    },
    {
      "type": "node",
      "id": 5304601999,
      "lat": 12.9389216,
      "lon": 77.5526545,
      "tags": {
        "level": "1",
        "name": "Belwaki Beauty Parlor",
        "shop": "beauty"
      }
    },
    {
      "type": "node",
      "id": 5304602000,
      "lat": 12.938902,
      "lon": 77.5526518,
      "tags": {
        "level": "0",
        "name": "Rank Opticians",
        "shop": "optician"
      }
    },
    {
      "type": "node",
      "id": 5304602001,
      "lat": 12.9389092,
      "lon": 77.5526096,
      "tags": {
        "level": "0",
        "name": "Saanvi Creations",
        "shop": "boutique"
      }
    },
    {
      "type": "node",
      "id": 5304602002,
      "lat": 12.9389135,
      "lon": 77.5525787,
      "tags": {
        "amenity": "pharmacy",
        "level": "0"
      }
    },
    {
      "type": "node",
      "id": 5304602003,
      "lat": 12.9389125,
      "lon": 77.5525077,
      "tags": {
        "amenity": "bar",
        "name": "Millenium Bar and Restaurant"
      }
    },
    {
      "type": "node",
      "id": 5306017407,
      "lat": 12.9434982,
      "lon": 77.5658798,
      "tags": {
        "brand": "HOPCOMS",
        "brand:wikidata": "Q22908959",
        "name": "HOPCOMS",
        "name:kn": "ಹಾಪ್ ಕಾಮ್ಸ್",
        "shop": "greengrocer"
      }
    },
    {
      "type": "node",
      "id": 5306017408,
      "lat": 12.9435035,
      "lon": 77.5657752,
      "tags": {
        "amenity": "toilets"
      }
    },
    {
      "type": "node",
      "id": 5306017409,
      "lat": 12.9435244,
      "lon": 77.5656706,
      "tags": {
        "amenity": "post_office"
      }
    },
    {
      "type": "node",
      "id": 5306017410,
      "lat": 12.9437583,
      "lon": 77.5665638,
      "tags": {
        "amenity": "restaurant",
        "name": "Dakshin Kitchen"
      }
    },
    {
      "type": "node",
      "id": 5306017411,
      "lat": 12.9437988,
      "lon": 77.5665812,
      "tags": {
        "amenity": "restaurant",
        "name": "Chinese Kitchen"
      }
    },
    {
      "type": "node",
      "id": 5530812454,
      "lat": 12.9397956,
      "lon": 77.5631777,
      "tags": {
        "shop": "supermarket"
      }
    },
    {
      "type": "node",
      "id": 6937814427,
      "lat": 12.9376087,
      "lon": 77.5666429,
      "tags": {
        "addr:district": "Bengaluru Urban",
        "addr:full": "#118, 5 Th Main , 7Th Cross, N R Colony , Bull Temple Road",
        "addr:postcode": "560019",
        "addr:state": "Karnataka",
        "amenity": "hospital",
        "name": "Balaji Hospital and Gastroenterology Center",
        "source": "OpenGovernmentData"
      }
    },
    {
      "type": "node",
      "id": 6938466198,
      "lat": 12.9377943,
      "lon": 77.5650564,
      "tags": {
        "addr:city": "Bengaluru",
        "addr:district": "Bengaluru Urban",
        "addr:full": "89, 7th cross, N R Colony, Near Bull temple",
        "addr:postcode": "560050",
        "addr:state": "Karnataka",
        "amenity": "clinic",
        "email": "info@karthiknetralaya.com",
        "healthcare": "hospital",
        "healthcare:speciality": "ophthalmology",
        "name": "Karthik Nethralaya",
        "operator:type": "private",
        "source": "OpenGovernmentData",
        "website": "https://www.karthiknetralaya.com/"
      }
    },
    {
      "type": "node",
      "id": 6938775854,
      "lat": 12.9406698,
      "lon": 77.5644596,
      "tags": {
        "addr:district": "Bengaluru Urban",
        "addr:full": "No.10/4 & 10/5, 3Road Main Road, Hanumanthanagar",
        "addr:postcode": "560019",
        "addr:state": "Karnataka",
        "amenity": "hospital",
        "name": "Vishwabharathi Hospital Pvt. Ltd",
        "source": "OpenGovernmentData"
      }
    },
    {
      "type": "node",
      "id": 6938775855,
      "lat": 12.9404548,
      "lon": 77.5578493,
      "tags": {
        "addr:district": "Bengaluru Urban",
        "addr:full": "No 519/34, 2nd Cross 10Th Main, Bsk 1st Stage Banashankari",
        "addr:postcode": "560050",
        "addr:state": "Karnataka",
        "amenity": "hospital",
        "name": "Sunetra Eye Hospital, Bengaluru Urban",
        "source": "OpenGovernmentData"
      }
    },
    {
      "type": "node",
      "id": 6939200255,
      "lat": 12.9450536,
      "lon": 77.5586486,
      "tags": {
        "addr:district": "Bengaluru Urban",
        "addr:full": "1077, 14Th Main Road, Hanumanthnagar",
        "addr:postcode": "560019",
        "addr:state": "Karnataka",
        "amenity": "clinic",
        "name": "Kamala Nursing Home, Bengaluru Urban",
        "source": "OpenGovernmentData"
      }
    },
    {
      "type": "node",
      "id": 6944234456,
      "lat": 12.9443766,
      "lon": 77.5551899,
      "tags": {
        "addr:district": "Bengaluru Urban",
        "addr:full": "No. 855/856, Ramanjaneya Main Road, Near Bus Stand Sreenagar",
        "addr:postcode": "560050",
        "addr:state": "Karnataka",
        "amenity": "clinic",
        "name": "Sreenagar Nursing Home",
        "source": "OpenGovernmentData"
      }
    },
    {
      "type": "node",
      "id": 6947701108,
      "lat": 12.9421036,
      "lon": 77.5584649,
      "tags": {
        "addr:district": "Bengaluru Urban",
        "addr:full": "26, 13Th `A` Main, 50 Feet Road, (Near A.P.S.R.T.C. Booking Counter) Hanumanthanagar",
        "addr:postcode": "560019",
        "addr:state": "Karnataka",
        "amenity": "clinic",
        "name": "Vignesha Ayurvedic Clinic",
        "source": "OpenGovernmentData"
      }
    },
    {
      "type": "node",
      "id": 6948627241,
      "lat": 12.9403953,
      "lon": 77.558544,
      "tags": {
        "addr:district": "Bengaluru Urban",
        "addr:full": "# 513, 8Th Main, 2nd Cross, Dsk 1st Stage, 2nd Block",
        "addr:postcode": "560050",
        "addr:state": "Karnataka",
        "amenity": "clinic",
        "name": "Varna Nursing Home",
        "source": "OpenGovernmentData"
      }
    },
    {
      "type": "node",
      "id": 7016691457,
      "lat": 12.9415972,
      "lon": 77.5643731,
      "tags": {
        "amenity": "atm",
        "brand": "Canara Bank",
        "brand:en": "Canara Bank",
        "brand:hi": "केनरा बैंक",
        "brand:kn": "ಕೆನರಾ ಬ್ಯಾಂಕ್",
        "brand:pa": "ਕੇਨਰਾ ਬੈਂਕ",
        "brand:pnb": "کینرا بینک",
        "brand:ur": "کینرا بینک",
        "brand:wikidata": "Q2003777",
        "cash_in": "no",
        "drive_through": "no",
        "name": "Canara Bank",
        "name:en": "Canara Bank",
        "name:hi": "केनरा बैंक",
        "name:kn": "ಕೆನರಾ ಬ್ಯಾಂಕ್",
        "name:pa": "ਕੇਨਰਾ ਬੈਂਕ",
        "name:pnb": "کینرا بینک",
        "name:ur": "کینرا بینک",
        "operator": "Canara Bank",
        "operator:wikidata": "Q2003777"
      }
    },
    {
      "type": "node",
      "id": 7018761629,
      "lat": 12.9379662,
      "lon": 77.568428,
      "tags": {
        "addr:city": "Bengaluru",
        "addr:street": "Subbrama Chetty Road",
        "amenity": "pharmacy",
        "brand": "Apollo Pharmacy",
        "brand:wikidata": "Q62562612",
        "dispensing": "yes",
        "drive_through": "no",
        "healthcare": "pharmacy",
        "name": "Apollo Pharmacy",
        "name:kn": "ಅಪೋಲೋ ಫಾರ್ಮಸಿ",
        "operator": "Apollo Pharmacy"
      }
    },
    {
      "type": "node",
      "id": 7044834775,
      "lat": 12.9422487,
      "lon": 77.568503,
      "tags": {
        "leisure": "fitness_station"
      }
    },
    {
      "type": "node",
      "id": 7281512285,
      "lat": 12.9417567,
      "lon": 77.5687277,
      "tags": {
        "amenity": "place_of_worship",
        "name": "Bull Temple",
        "religion": "hindu"
      }
    },
    {
      "type": "node",
      "id": 7576958022,
      "lat": 12.9432518,
      "lon": 77.5560648,
      "tags": {
        "addr:district": "Bengaluru Urban",
        "addr:full": "Dasarhalli, Banashankari, Bengaluru",
        "addr:state": "Karnataka",
        "amenity": "doctors",
        "name": "Dr. Srivatsa",
        "source": "Local Knowledge"
      }
    },
    {
      "type": "node",
      "id": 7576958039,
      "lat": 12.9417439,
      "lon": 77.5601782,
      "tags": {
        "addr:district": "Bengaluru Urban",
        "addr:full": "50 Feet Road, Basavanagadi, Banashankari, Bengaluru",
        "addr:postcode": "560019",
        "addr:state": "Karnataka",
        "amenity": "hospital",
        "name": "Sumanjara Hospital",
        "source": "Local Knowledge"
      }
    },
    {
      "type": "node",
      "id": 7576958040,
      "lat": 12.9440703,
      "lon": 77.5545986,
      "tags": {
        "addr:district": "Bengaluru Urban",
        "addr:full": "Dasarhalli, Banashankari, Bengaluru",
        "addr:state": "Karnataka",
        "amenity": "dentist",
        "name": "S J Dental Square",
        "source": "Local Knowledge"
      }
    },
    {
      "type": "node",
      "id": 7576958048,
      "lat": 12.942076,
      "lon": 77.553598,
      "tags": {
        "addr:district": "Bengaluru Urban",
        "addr:full": "Dasarhalli, Srinagar, Banashankari, Bengaluru",
        "addr:state": "Karnataka",
        "amenity": "hospital",
        "name": "People Tree Hospitals",
        "source": "Local Knowledge"
      }
    },
    {
      "type": "node",
      "id": 7576958060,
      "lat": 12.940404,
      "lon": 77.5580361,
      "tags": {
        "addr:district": "Bengaluru Urban",
        "addr:full": "SBM Colony, Banashankari, Bengaluru",
        "addr:postcode": "560050",
        "addr:state": "Karnataka",
        "amenity": "hospital",
        "name": "Verna Hospital",
        "source": "Local Knowledge"
      }
    },
    {
      "type": "node",
      "id": 7576958065,
      "lat": 12.945944,
      "lon": 77.567404,
      "tags": {
        "addr:district": "Bengaluru Urban",
        "addr:full": "Bull Temple Road, Hanumanthnagar, Bengaluru",
        "addr:postcode": "560019",
        "addr:state": "Karnataka",
        "amenity": "hospital",
        "name": "Shekhar Hospital",
        "source": "Local Knowledge"
      }
    },
    {
      "type": "node",
      "id": 7576958068,
      "lat": 12.9415883,
      "lon": 77.5641917,
      "tags": {
        "addr:district": "Bengaluru Urban",
        "addr:full": "Hanumanthnagar, Banashankari, Bengaluru",
        "addr:postcode": "560019",
        "addr:state": "Karnataka",
        "amenity": "hospital",
        "name": "Jeevini Sarvodaya Hospital",
        "source": "Local Knowledge"
      }
    },
    {
      "type": "node",
      "id": 7576958069,
      "lat": 12.9450794,
      "lon": 77.5680498,
      "tags": {
        "addr:district": "Bengaluru Urban",
        "addr:full": "Gandhi Bazaar, Basavanagudi, Bengaluru",
        "addr:state": "Karnataka",
        "amenity": "clinic",
        "healthcare": "clinic",
        "name": "ENT Care Centre",
        "source": "Local Knowledge"
      }
    },
    {
      "type": "node",
      "id": 7576958071,
      "lat": 12.938787,
      "lon": 77.554296,
      "tags": {
        "addr:district": "Bengaluru Urban",
        "addr:full": "Banashankari, Bengaluru",
        "addr:state": "Karnataka",
        "amenity": "hospital",
        "name": "Raghavendra Hospital",
        "source": "Local Knowledge"
      }
    },
    {
      "type": "node",
      "id": 7576958072,
      "lat": 12.944704,
      "lon": 77.56797,
      "tags": {
        "addr:district": "Bengaluru Urban",
        "addr:full": "Gandhi Bazaar, Basavanagudi, Bengaluru",
        "addr:postcode": "560004",
        "addr:state": "Karnataka",
        "amenity": "clinic",
        "healthcare": "clinic",
        "name": "Kshema Childrens Surgical Clinic",
        "source": "Local Knowledge"
      }
    },
    {
      "type": "node",
      "id": 7576958073,
      "lat": 12.94256,
      "lon": 77.561875,
      "tags": {
        "addr:district": "Bengaluru Urban",
        "addr:full": "Banashankari, Bengaluru",
        "addr:postcode": "560019",
        "addr:state": "Karnataka",
        "amenity": "clinic",
        "name": "Raghu Homeopathy",
        "source": "Local Knowledge"
      }
    },
    {
      "type": "node",
      "id": 7576958079,
      "lat": 12.9366813,
      "lon": 77.5539425,
      "tags": {
        "addr:district": "Bengaluru Urban",
        "addr:full": "Mysore Bank Colony, Srinivasnagar, Banashankari, Bengaluru",
        "addr:postcode": "560050",
        "addr:state": "Karnataka",
        "amenity": "clinic",
        "name": "Ganesha Clinic",
        "source": "Local Knowledge"
      }
    },
    {
      "type": "node",
      "id": 7576958087,
      "lat": 12.940859,
      "lon": 77.570214,
      "tags": {
        "addr:district": "Bengaluru Urban",
        "addr:full": "Basavanagudi, Bengaluru",
        "addr:postcode": "560004",
        "addr:state": "Karnataka",
        "amenity": "clinic",
        "name": "Jubilee Nursing Home",
        "source": "Local Knowledge"
      }
    },
    {
      "type": "node",
      "id": 7576958097,
      "lat": 12.9386485,
      "lon": 77.5545065,
      "tags": {
        "addr:district": "Bengaluru Urban",
        "addr:full": "SBM Colony, Banashankari Stage I, Banashankari, Bengaluru",
        "addr:state": "Karnataka",
        "amenity": "clinic",
        "name": "Novel Hearing Care Centre",
        "source": "Local Knowledge"
      }
    },
    {
      "type": "node",
      "id": 7576958109,
      "lat": 12.9416358,
      "lon": 77.5629853,
      "tags": {
        "addr:district": "Bengaluru Urban",
        "addr:full": "Mount Joy Extension, Hanumanthnagar, Banashankari, Bengaluru",
        "addr:postcode": "560019",
        "addr:state": "Karnataka",
        "amenity": "clinic",
        "name": "Vijaya Nethralaya",
        "source": "Local Knowledge"
      }
    },
    {
      "type": "node",
      "id": 7576958119,
      "lat": 12.939257,
      "lon": 77.555911,
      "tags": {
        "addr:district": "Bengaluru Urban",
        "addr:full": "Banashankari, Banglore",
        "addr:postcode": "560050",
        "addr:state": "Karnataka",
        "amenity": "clinic",
        "name": "Parimala Childrens Nursing Home",
        "source": "Local Knowledge"
      }
    },
    {
      "type": "node",
      "id": 7579924732,
      "lat": 12.9334096,
      "lon": 77.5622345,
      "tags": {
        "addr:district": "Bengaluru Urban",
        "addr:full": "Vidyapeeta Layout, Basavanagudi, Bengaluru",
        "addr:postcode": "560050",
        "addr:state": "Karnataka",
        "amenity": "hospital",
        "name": "Bharathi Hospitals",
        "source": "Local Knowledge"
      }
    },
    {
      "type": "node",
      "id": 8408521644,
      "lat": 12.9378288,
      "lon": 77.5692035,
      "tags": {
        "name": "Nandini Milk Booth",
        "name:kn": "ನಂದಿನಿ ಹಾಲಿನ ಅಂಗಡಿ",
        "shop": "dairy"
      }
    },
    {
      "type": "node",
      "id": 8727014188,
      "lat": 12.9337223,
      "lon": 77.5623383,
      "tags": {
        "addr:city": "Bengaluru",
        "addr:housenumber": "408",
        "addr:postcode": "560028",
        "addr:street": "2nd main Vidya Peetha Layout",
        "amenity": "place_of_worship",
        "name": "Sri SIdhi Subrahmanya Temple",
        "religion": "hindu",
        "service_times": "Subrahmanya Temple"
      }
    },
    {
      "type": "node",
      "id": 8727014189,
      "lat": 12.9322882,
      "lon": 77.5641817,
      "tags": {
        "addr:city": "Bengaluru",
        "addr:postcode": "560085",
        "addr:street": "CHENNAMMANAKERE main road",
        "amenity": "bank",
        "atm": "yes",
        "brand": "State Bank of India",
        "brand:wikidata": "Q1340361",
        "name": "State Bank of India",
        "name:kn": "ಎಸ್ ಬಿ ಐ",
        "opening_hours": "Mo-Su 06:00-22:00",
        "short_name": "SBI"
      }
    },
    {
      "type": "node",
      "id": 8727018101,
      "lat": 12.9357431,
      "lon": 77.5613135,
      "tags": {
        "amenity": "atm",
        "brand": "State Bank of India",
        "brand:wikidata": "Q1340361",
        "currency:INR": "yes",
        "name": "State Bank of India",
        "name:kn": "ಎಸ್ ಬಿ ಐ",
        "network": "State Bank of India",
        "opening_hours": "Mo-Su 06:00-22:00",
        "operator": "State Bank of India",
        "operator:wikidata": "Q1340361",
        "short_name": "SBI"
      }
    },
    {
      "type": "node",
      "id": 8727018102,
      "lat": 12.9356558,
      "lon": 77.5609792,
      "tags": {
        "amenity": "atm",
        "currency:INR": "yes",
        "network": "Andhra Bank",
        "operator": "Andhra Bank ATM"
      }
    },
    {
      "type": "node",
      "id": 8727018103,
      "lat": 12.9363701,
      "lon": 77.561999,
      "tags": {
        "amenity": "place_of_worship",
        "name": "Narasimha Swamy Temple",
        "opening_hours:covid19": "closed",
        "religion": "hindu"
      }
    },
    {
      "type": "node",
      "id": 9134314453,
      "lat": 12.9398699,
      "lon": 77.5624828,
      "tags": {
        "amenity": "place_of_worship",
        "name": "Kumaraswami temple"
      }
    },
    {
      "type": "node",
      "id": 9709504787,
      "lat": 12.9421932,
      "lon": 77.5703658,
      "tags": {
        "name": "Nandini Milk Parlour",
        "shop": "dairy"
      }
    },
    {
      "type": "node",
      "id": 9709504794,
      "lat": 12.9423069,
      "lon": 77.5705221,
      "tags": {
        "amenity": "fast_food",
        "cuisine": "regional",
        "name": "by2coffee",
        "takeaway": "yes"
      }
    },
    {
      "type": "node",
      "id": 9709504795,
      "lat": 12.942301,
      "lon": 77.570453,
      "tags": {
        "amenity": "fast_food",
        "cuisine": "regional",
        "name": "Bombay and Kolkata Chats"
      }
    },
    {
      "type": "node",
      "id": 10840493105,
      "lat": 12.9352842,
      "lon": 77.567491,
      "tags": {
        "addr:postcode": "560028",
        "addr:street": "4th Main Road",
        "name": "Kumar Medical Store",
        "opening_hours": "Mo-Su 10:00-13:00, 16:00-21:00",
        "shop": "chemist"
      }
    },
    {
      "type": "node",
      "id": 11201313858,
      "lat": 12.9425184,
      "lon": 77.5674319,
      "tags": {
        "amenity": "place_of_worship",
        "check_date": "2023-09-19",
        "name": "Venkateshwara Swamy Temple",
        "religion": "hindu"
      }
    },
    {
      "type": "node",
      "id": 11215379266,
      "lat": 12.9450542,
      "lon": 77.5679702,
      "tags": {
        "amenity": "music_school",
        "check_date": "2023-09-24",
        "name": "RB Academy",
        "phone": "+91 70222 33334"
      }
    },
    {
      "type": "node",
      "id": 11215379267,
      "lat": 12.9448759,
      "lon": 77.5680072,
      "tags": {
        "amenity": "bank",
        "brand": "Indian Overseas Bank",
        "brand:wikidata": "Q2003611",
        "check_date": "2023-09-24",
        "name": "Indian Overseas Bank"
      }
    },
    {
      "type": "node",
      "id": 11215379268,
      "lat": 12.9440476,
      "lon": 77.5680376,
      "tags": {
        "check_date": "2023-09-24",
        "name": "Desire Naturals",
        "shop": "confectionery"
      }
    },
    {
      "type": "node",
      "id": 11215814226,
      "lat": 12.9444805,
      "lon": 77.5680289,
      "tags": {
        "name": "Cake Yard",
        "shop": "bakery"
      }
    },
    {
      "type": "node",
      "id": 11215814229,
      "lat": 12.9445203,
      "lon": 77.5680128,
      "tags": {
        "name": "Sri Sai Flowers",
        "shop": "florist"
      }
    },
    {
      "type": "node",
      "id": 11215814230,
      "lat": 12.9445615,
      "lon": 77.5680082,
      "tags": {
        "amenity": "fast_food",
        "cuisine": "juice",
        "name": "Oye Lassi"
      }
    },
    {
      "type": "node",
      "id": 11215814231,
      "lat": 12.944634,
      "lon": 77.5680511,
      "tags": {
        "amenity": "restaurant",
        "cuisine": "south_indian",
        "name": "Iyengars Inn"
      }
    },
    {
      "type": "node",
      "id": 11215839940,
      "lat": 12.944719,
      "lon": 77.5680591,
      "tags": {
        "amenity": "fast_food",
        "brand": "Subway",
        "brand:wikidata": "Q244457",
        "cuisine": "sandwich",
        "name": "Subway",
        "takeaway": "yes"
      }
    },
    {
      "type": "node",
      "id": 11215840056,
      "lat": 12.9435636,
      "lon": 77.5677399,
      "tags": {
        "check_date": "2025-01-01",
        "name": "Veggo Farms",
        "shop": "dairy"
      }
    },
    {
      "type": "node",
      "id": 11215840059,
      "lat": 12.9433205,
      "lon": 77.5677668,
      "tags": {
        "amenity": "cafe",
        "name": "Juice Junction"
      }
    },
    {
      "type": "node",
      "id": 11215840060,
      "lat": 12.9433499,
      "lon": 77.5677507,
      "tags": {
        "name": "The Charisma Bridal Makeover",
        "shop": "beauty"
      }
    },
    {
      "type": "node",
      "id": 12466442938,
      "lat": 12.9451436,
      "lon": 77.5680133,
      "tags": {
        "amenity": "restaurant",
        "check_date": "2025-01-01",
        "diet:vegetarian": "yes",
        "name": "Vijayalakshmi"
      }
    },
    {
      "type": "node",
      "id": 12466442939,
      "lat": 12.9439818,
      "lon": 77.5680418,
      "tags": {
        "check_date": "2025-01-01",
        "name": "Parshwantha Traders",
        "shop": "rice"
      }
    },
    {
      "type": "node",
      "id": 12466444176,
      "lat": 12.9434263,
      "lon": 77.5677477,
      "tags": {
        "check_date": "2025-01-01",
        "name": "Sreenivasa Brahmins Bakery",
        "shop": "bakery"
      }
    },
    {
      "type": "node",
      "id": 12466444177,
      "lat": 12.9433441,
      "lon": 77.5677341,
      "tags": {
        "check_date": "2025-01-01",
        "name": "Hara Tattooz",
        "shop": "tattoo"
      }
    },
    {
      "type": "node",
      "id": 12546212501,
      "lat": 12.9380412,
      "lon": 77.5692291,
      "tags": {
        "amenity": "restaurant",
        "name": "Uttara Karnatakada Gama Gama"
      }
    },
    {
      "type": "node",
      "id": 12944464149,
      "lat": 12.9401894,
      "lon": 77.5656135,
      "tags": {
        "amenity": "fixme",
        "check_date": "2025-06-22",
        "fixme": "type",
        "fixme:type": "auditorium",
        "internet_access": "no",
        "name": "BMS Hostel Auditorium",
        "payment:cards": "no",
        "payment:cash": "yes",
        "payment:credit_cards": "no",
        "payment:debit_cards": "no",
        "wheelchair": "no"
      }
    },
    {
      "type": "node",
      "id": 12944464150,
      "lat": 12.9399801,
      "lon": 77.5654125,
      "tags": {
        "amenity": "fixme",
        "check_date": "2025-06-22",
        "fixme": "type",
        "fixme:type": "hostel mess",
        "name": "BMS Hostel Mess"
      }
    },
    {
      "type": "node",
      "id": 13092386549,
      "lat": 12.9447229,
      "lon": 77.560222,
      "tags": {
        "amenity": "fast_food",
        "check_date": "2025-08-23",
        "cuisine": "regional;indian",
        "diet:vegetarian": "yes",
        "drive_through": "yes",
        "internet_access": "no",
        "name": "Holide mane",
        "payment:cards": "no",
        "payment:cash": "yes",
        "payment:credit_cards": "no",
        "payment:debit_cards": "no",
        "wheelchair": "no"
      }
    },
    {
      "type": "way",
      "id": 133117440,
      "center": {
        "lat": 12.9423054,
        "lon": 77.5666933
      },
      "tags": {
        "amenity": "library",
        "building": "yes",
        "check_date": "2025-06-22",
        "name": "BMS College Of Architecture",
        "name:kn": "ಬಿ ಎಂ ಎಸ್ ವಾಸ್ತುಶಿಲ್ಪ ಕಾಲೇಜು",
        "operator:type": "private"
      }
    },
    {
      "type": "way",
      "id": 133144337,
      "center": {
        "lat": 12.9374012,
        "lon": 77.5594608
      },
      "tags": {
        "leisure": "stadium",
        "name": "Donkana Field",
        "name:kn": "ಕೊಂಕಣ ಮೈದಾನ",
        "sport": "kabbadi,Cricket;tennis;volleyball"
      }
    },
    {
      "type": "way",
      "id": 162259161,
      "center": {
        "lat": 12.9310077,
        "lon": 77.5630314
      },
      "tags": {
        "leisure": "track",
        "name": "Roller Skating Track"
      }
    },
    {
      "type": "way",
      "id": 162259366,
      "center": {
        "lat": 12.9315108,
        "lon": 77.5636909
      },
      "tags": {
        "addr:city": "Bangalore",
        "addr:postcode": "560085",
        "addr:street": "Chennammanakere main road",
        "leisure": "park",
        "name": "SSM park (Chennammanakere park)",
        "name:kn": "ಚನ್ನಮ್ಮನಕೆರೆ ಅಚ್ಚುಕಟ್ಟು",
        "opening_hours": "sunrise-sunset",
        "opening_hours:covid19": "Park mainly for walking, but small portion also has play equipments for kids to play",
        "operator": "SSM School"
      }
    },
    {
      "type": "way",
      "id": 162389318,
      "center": {
        "lat": 12.9413073,
        "lon": 77.5664897
      },
      "tags": {
        "access": "customers",
        "amenity": "parking",
        "fee": "no",
        "name": "BMS College Parking",
        "parking": "surface"
      }
    },
    {
      "type": "way",
      "id": 162389319,
      "center": {
        "lat": 12.9411519,
        "lon": 77.5665825
      },
      "tags": {
        "leisure": "park"
      }
    },
    {
      "type": "way",
      "id": 162871259,
      "center": {
        "lat": 12.941891,
        "lon": 77.5665178
      },
      "tags": {
        "leisure": "park"
      }
    },
    {
      "type": "way",
      "id": 172845845,
      "center": {
        "lat": 12.9415239,
        "lon": 77.5659049
      },
      "tags": {
        "amenity": "college",
        "name": "BMS College of Engineering",
        "name:kn": "ಬಿಎಂಎಸ್ ತಾಂತ್ರಿಕ ಮಹಾವಿದ್ಯಾಲಯ",
        "wikidata": "Q4833841",
        "wikimedia_commons": "Category:B. M. Sreenivasaiah College of Engineering",
        "wikipedia": "en:B.M.S. College of Engineering"
      }
    },
    {
      "type": "way",
      "id": 172845875,
      "center": {
        "lat": 12.9402185,
        "lon": 77.5623647
      },
      "tags": {
        "amenity": "place_of_worship",
        "landuse": "religious",
        "religion": "hindu"
      }
    },
    {
      "type": "way",
      "id": 172845880,
      "center": {
        "lat": 12.9378089,
        "lon": 77.5583328
      },
      "tags": {
        "amenity": "college"
      }
    },
    {
      "type": "way",
      "id": 224321403,
      "center": {
        "lat": 12.937686,
        "lon": 77.5589287
      },
      "tags": {
        "leisure": "park",
        "name": "Hanumanthanagar Park",
        "name:kn": "ಹನುಮಂತನಗರ ಉದ್ಯಾನವನ"
      }
    },
    {
      "type": "way",
      "id": 224445485,
      "center": {
        "lat": 12.9372234,
        "lon": 77.5588279
      },
      "tags": {
        "amenity": "library",
        "building": "yes",
        "name": "E-Library",
        "operator": "BBMP"
      }
    },
    {
      "type": "way",
      "id": 299877333,
      "center": {
        "lat": 12.9421433,
        "lon": 77.5692538
      },
      "tags": {
        "fixme": "borders",
        "leisure": "park",
        "name": "Bugle Rock Park",
        "name:kn": "ಕಹಳೆಬಂಡೆ ಉದ್ಯಾನವನ",
        "wikidata": "Q4986214",
        "wikimedia_commons": "Category:Bugle Rock",
        "wikipedia": "en:Bugle Rock"
      }
    },
    {
      "type": "way",
      "id": 299877334,
      "center": {
        "lat": 12.9418582,
        "lon": 77.5679447
      },
      "tags": {
        "addr:street": "Bull Temple Road",
        "alt_name": "Basava Temple",
        "amenity": "place_of_worship",
        "building": "temple",
        "name": "Shri Doddabasavanna Temple",
        "name:kn": "ಶ್ರೀ ದೊಡ್ಡಬಸವಣ್ಣ ದೇವಸ್ಥಾನ",
        "religion": "hindu"
      }
    },
    {
      "type": "way",
      "id": 299877335,
      "center": {
        "lat": 12.942878,
        "lon": 77.5682145
      },
      "tags": {
        "addr:street": "Bull Temple Road",
        "amenity": "place_of_worship",
        "building": "temple",
        "name": "Dodda Ganesha Temple",
        "name:kn": "ದೊಡ್ಡ ಗಣೇಶ ಗುಡಿ",
        "religion": "hindu",
        "wikipedia": "en:Dodda Basavana Gudi"
      }
    },
    {
      "type": "way",
      "id": 327061225,
      "center": {
        "lat": 12.9400303,
        "lon": 77.5687111
      },
      "tags": {
        "leisure": "pitch"
      }
    },
    {
      "type": "way",
      "id": 335739977,
      "center": {
        "lat": 12.9399725,
        "lon": 77.5622203
      },
      "tags": {
        "amenity": "place_of_worship",
        "building": "yes",
        "man_made": "reservoir_covered",
        "religion": "hindu"
      }
    },
    {
      "type": "way",
      "id": 346703555,
      "center": {
        "lat": 12.9451773,
        "lon": 77.5675211
      },
      "tags": {
        "amenity": "community_centre",
        "building": "yes",
        "building:levels": "3",
        "name": "SBN Hall",
        "name:kn": "ಎಸ್.ಬಿ.ಎನ್ ಕಲ್ಯಾಣ ಮಂಟಪ"
      }
    },
    {
      "type": "way",
      "id": 346744101,
      "center": {
        "lat": 12.9461969,
        "lon": 77.5674238
      },
      "tags": {
        "addr:postcode": "560019",
        "addr:street": "Bull Temple Road",
        "amenity": "community_centre",
        "building": "yes",
        "name": "Ganjam Mantap",
        "wheelchair": "no"
      }
    },
    {
      "type": "way",
      "id": 347079448,
      "center": {
        "lat": 12.9337875,
        "lon": 77.5609759
      },
      "tags": {
        "addr:city": "Bengaluru",
        "addr:district": "Bengaluru Urban",
        "addr:housenumber": "440",
        "addr:postcode": "560050",
        "addr:street": "2nd Cross Rd, Vidyapeeta Layout, Banashankari",
        "amenity": "place_of_worship",
        "building": "yes",
        "name": "Udupi Krishna Raghavendra temple, Vidyapeeta",
        "note": "Shri Madhwacharya & Shri Raghavendra Swamy on either sides of Shree Krishna idol. Also houses the office to register all the services (sevas).",
        "religion": "hindu"
      }
    },
    {
      "type": "way",
      "id": 347229435,
      "center": {
        "lat": 12.9416356,
        "lon": 77.5619028
      },
      "tags": {
        "building": "yes",
        "name": "Cauvery Furniture",
        "shop": "furniture"
      }
    },
    {
      "type": "way",
      "id": 347437479,
      "center": {
        "lat": 12.9433275,
        "lon": 77.5682752
      },
      "tags": {
        "addr:street": "Bull Temple Road",
        "amenity": "townhall",
        "building": "yes",
        "name": "Sri Dharmasthala Manjunathaswamy Kalyana Mantapa",
        "name:kn": "ಶ್ರೀ ಮಂಜುನಾಥಸ್ವಾಮಿ ಕಲ್ಯಾಣ ಮಂಟಪ"
      }
    },
    {
      "type": "way",
      "id": 347564363,
      "center": {
        "lat": 12.9380404,
        "lon": 77.5686782
      },
      "tags": {
        "addr:city": "Bengaluru",
        "addr:street": "Subbrama Chetty Road",
        "amenity": "restaurant",
        "building": "yes",
        "cuisine": "regional",
        "delivery": "no",
        "description": "Onion and Garlic not used in food preparation; Sambar not provided; Chutney only",
        "name": "South Kitchen",
        "name:kn": "ಸೌತ್ ಕಿಚನ್",
        "opening_hours": "06:00-12:00,16:00-21:00",
        "smoking": "no",
        "takeaway": "yes"
      }
    },
    {
      "type": "way",
      "id": 348459952,
      "center": {
        "lat": 12.9415238,
        "lon": 77.5543245
      },
      "tags": {
        "amenity": "college",
        "name:en": "PES Pre-University College",
        "phone": "+918026600648"
      }
    },
    {
      "type": "way",
      "id": 348459990,
      "center": {
        "lat": 12.9410637,
        "lon": 77.5543987
      },
      "tags": {
        "amenity": "school",
        "name:en": "Vivekananda School",
        "name:kn": "ವಿವೇಕಾನಂದ ಶಾಲೆ"
      }
    },
    {
      "type": "way",
      "id": 349819116,
      "center": {
        "lat": 12.9411519,
        "lon": 77.5605776
      },
      "tags": {
        "amenity": "place_of_worship",
        "building": "yes",
        "name": "Shanimahatma Temple",
        "name:kn": "ಶನಿ ಮಹಾತ್ಮ ದೇವಸ್ಥಾನ",
        "religion": "hindu"
      }
    },
    {
      "type": "way",
      "id": 350555620,
      "center": {
        "lat": 12.93464,
        "lon": 77.5554274
      },
      "tags": {
        "amenity": "place_of_worship",
        "building": "yes",
        "name": "Renuka Yellamma Temple",
        "name:kn": "ರೇಣುಕಾ ಯಲ್ಲಮ್ಮ ದೇವಸ್ಥಾನ",
        "religion": "hindu"
      }
    },
    {
      "type": "way",
      "id": 350572306,
      "center": {
        "lat": 12.9378721,
        "lon": 77.5674301
      },
      "tags": {
        "amenity": "restaurant",
        "building": "yes",
        "name": "Kumara Bhavana",
        "name:kn": "ಕುಮಾರ ಭವನ"
      }
    },
    {
      "type": "way",
      "id": 351135758,
      "center": {
        "lat": 12.9355631,
        "lon": 77.5617033
      },
      "tags": {
        "addr:city": "Bengaluru",
        "amenity": "cinema",
        "building": "yes",
        "name": "Chandrodaya Theatre",
        "name:kn": "ಚಂದ್ರೋದಯ ಚಿತ್ರಮಂದಿರ",
        "screen": "1"
      }
    },
    {
      "type": "way",
      "id": 351163480,
      "center": {
        "lat": 12.9430447,
        "lon": 77.567454
      },
      "tags": {
        "amenity": "events_venue",
        "building": "yes",
        "name": "Sri Nijaguna Kshetra"
      }
    },
    {
      "type": "way",
      "id": 352455939,
      "center": {
        "lat": 12.937797,
        "lon": 77.5704139
      },
      "tags": {
        "amenity": "place_of_worship",
        "building": "yes",
        "denomination": "hindu",
        "name": "Raghavendra Swamy Temple",
        "name:kn": "ರಾಘವೇಂದ್ರ ಸ್ವಾಮಿ ದೇವಸ್ಥಾನ",
        "religion": "hindu"
      }
    },
    {
      "type": "way",
      "id": 362907458,
      "center": {
        "lat": 12.9375529,
        "lon": 77.5690154
      },
      "tags": {
        "designation": "BBMP Park",
        "leisure": "park"
      }
    },
    {
      "type": "way",
      "id": 362909552,
      "center": {
        "lat": 12.947441,
        "lon": 77.5634781
      },
      "tags": {
        "leisure": "park",
        "name": "Hanumanth Nagar Park",
        "name:kn": "ಹನುಮಂತನಗರ ಉದ್ಯಾನವನ"
      }
    },
    {
      "type": "way",
      "id": 363138580,
      "center": {
        "lat": 12.9474929,
        "lon": 77.5579107
      },
      "tags": {
        "amenity": "place_of_worship",
        "landuse": "religious",
        "name": "Sri Pralayakalada Veerabhadraswami Gudi",
        "religion": "hindu"
      }
    },
    {
      "type": "way",
      "id": 411052968,
      "center": {
        "lat": 12.9478182,
        "lon": 77.5654024
      },
      "tags": {
        "amenity": "school"
      }
    },
    {
      "type": "way",
      "id": 490824219,
      "center": {
        "lat": 12.9380703,
        "lon": 77.569026
      },
      "tags": {
        "addr:city": "Bengaluru",
        "addr:street": "Subbrama Chetty Road",
        "amenity": "bus_station",
        "building": "yes",
        "bus": "yes",
        "internet_access": "no",
        "name": "N. R. Colony Bus Station",
        "name:kn": "ಎನ್.  ಆರ್.  ಕಾಲೋನಿ ಬಸ್ ನಿಲ್ದಾಣ",
        "operator": "BMTC",
        "public_transport": "station"
      }
    },
    {
      "type": "way",
      "id": 496821816,
      "center": {
        "lat": 12.9377267,
        "lon": 77.5697859
      },
      "tags": {
        "amenity": "hospital",
        "building": "yes",
        "healthcare": "hospital",
        "name": "Government Maternity Hospital",
        "name:kn": "ಸರಕಾರಿ ಹೆರಿಗೆ ಆಸ್ಪತ್ರೆ"
      }
    },
    {
      "type": "way",
      "id": 525505250,
      "center": {
        "lat": 12.9377938,
        "lon": 77.5706994
      },
      "tags": {
        "addr:city": "Bangalore",
        "amenity": "place_of_worship",
        "building": "yes",
        "denomination": "hindu",
        "name": "Sri Rama Temple",
        "name:kn": "ಶ್ರೀ ರಾಮ ದೇವಸ್ಥಾನ",
        "religion": "hindu"
      }
    },
    {
      "type": "way",
      "id": 525506839,
      "center": {
        "lat": 12.9408006,
        "lon": 77.5689519
      },
      "tags": {
        "addr:city": "Bengaluru",
        "addr:postcode": "560004",
        "addr:street": "Mallikarjuna Temple St, Basavanagudi",
        "amenity": "place_of_worship",
        "building": "yes",
        "name": "Shri Mallikarjuna Swamy Devasthana",
        "religion": "hindu"
      }
    },
    {
      "type": "way",
      "id": 687319732,
      "center": {
        "lat": 12.9413364,
        "lon": 77.5674679
      },
      "tags": {
        "addr:district": "Bengaluru Urban",
        "addr:full": "618, Sri Mallikarjuna Swamy Temple St, N.R. Colony",
        "addr:postcode": "560019",
        "addr:state": "Karnataka",
        "amenity": "hospital",
        "name": "BMS Hospital",
        "source": "OpenGovernmentData"
      }
    },
    {
      "type": "way",
      "id": 687319737,
      "center": {
        "lat": 12.9400098,
        "lon": 77.5677654
      },
      "tags": {
        "addr:street": "Bull Temple Road",
        "amenity": "school",
        "name": "APS Public School",
        "name:kn": "ಎಪಿಎಸ್ ಪಬ್ಲಿಕ್ ಶಾಲೆ"
      }
    },
    {
      "type": "way",
      "id": 750407962,
      "center": {
        "lat": 12.9377356,
        "lon": 77.5646429
      },
      "tags": {
        "amenity": "post_office",
        "building": "yes",
        "name": "Ashokanagara Post Office",
        "name:kn": "ಅಶೋಕನಗರ ಅಂಚೆ ಕಛೇರಿ",
        "operator": "India Post",
        "operator:wikidata": "Q3519720"
      }
    },
    {
      "type": "way",
      "id": 1134091914,
      "center": {
        "lat": 12.9399324,
        "lon": 77.5624801
      },
      "tags": {
        "amenity": "place_of_worship",
        "religion": "hindu"
      }
    },
    {
      "type": "way",
      "id": 1163783145,
      "center": {
        "lat": 12.9371459,
        "lon": 77.5691968
      },
      "tags": {
        "amenity": "marketplace"
      }
    },
    {
      "type": "way",
      "id": 1163783146,
      "center": {
        "lat": 12.9376192,
        "lon": 77.569067
      },
      "tags": {
        "leisure": "playground"
      }
    },
    {
      "type": "way",
      "id": 1203069046,
      "center": {
        "lat": 12.9447456,
        "lon": 77.5631118
      },
      "tags": {
        "amenity": "place_of_worship",
        "name": "Rama Anjaneya temple",
        "name:kn": "ರಾಮ ಅಂಜನೇಯ ದೇವಸ್ಥಾನ",
        "religion": "hindu",
        "wheelchair": "no"
      }
    },
    {
      "type": "way",
      "id": 1203069048,
      "center": {
        "lat": 12.9454574,
        "lon": 77.5648934
      },
      "tags": {
        "leisure": "park"
      }
    },
    {
      "type": "way",
      "id": 1203069049,
      "center": {
        "lat": 12.9449712,
        "lon": 77.5666634
      },
      "tags": {
        "amenity": "school"
      }
    },
    {
      "type": "way",
      "id": 1210572427,
      "center": {
        "lat": 12.9433231,
        "lon": 77.5674959
      },
      "tags": {
        "amenity": "school",
        "name": "NET School"
      }
    },
    {
      "type": "way",
      "id": 1210572433,
      "center": {
        "lat": 12.9441556,
        "lon": 77.567633
      },
      "tags": {
        "leisure": "park"
      }
    },
    {
      "type": "way",
      "id": 1263807443,
      "center": {
        "lat": 12.9314129,
        "lon": 77.5631508
      },
      "tags": {
        "addr:city": "Bangalore",
        "addr:postcode": "560085",
        "addr:street": "Vidya Peetha Layout Main Road",
        "leisure": "pitch",
        "name": "Channammana Kere Grounds",
        "name:kn": "ಚನ್ನಮ್ಮನ ಕೆರೆ",
        "operator": "SSM School",
        "source": "GPS"
      }
    },
    {
      "type": "way",
      "id": 1307949932,
      "center": {
        "lat": 12.9482335,
        "lon": 77.5630041
      },
      "tags": {
        "alt_name": "Gavi Gangadhareshwara Temple",
        "amenity": "place_of_worship",
        "building": "yes",
        "denomination": "shaivism",
        "heritage": "2",
        "heritage:operator": "nmma",
        "heritage:website": "https://nmma.nic.in/nmma/exploreBuiltState.do?state=29",
        "loc_name": "Sri Gangaadhareshwara",
        "name": "Sri Gavigangadhareshwara Swamy Temple",
        "name:en": "Sri Gavigangadhareshwara Swamy Temple",
        "old_name": "Gavipura Cave Temple",
        "opening_hours": "Mo-Su 07:00-12:30, 17:00-20:30",
        "ref:nmma": "KR20010666",
        "religion": "hindu",
        "wheelchair": "no",
        "wikidata": "Q5528052",
        "wikipedia": "en:Gavi Gangadhareshwara Temple"
      }
    },
    {
      "type": "way",
      "id": 1348696306,
      "center": {
        "lat": 12.9488812,
        "lon": 77.5614482
      },
      "tags": {
        "amenity": "place_of_worship",
        "name": "Shri Jalakanteswara Swamy Devasthana",
        "religion": "hindu"
      }
    }
  ]
}