{
  "area_name": "Mulluru",
  "osm_id": 833667753,
  "osm_type": "node",
  "place_type": "suburb",
  "amenity_count": 12,
  "amenities": [
    {
      "type": "node",
      "id": 5261480849,
      "lat": 12.8963067,
      "lon": 77.7235963,
      "tags": {
        "amenity": "animal_shelter",
        "animal_shelter": "dog",
        "name": "Maruthy Dog Shelter"
      }
    },
    {
      "type": "node",
      "id": 5261480850,
      "lat": 12.8967228,
      "lon": 77.7234751,
      "tags": {
        "amenity": "school",
        "name": "Lakshya Public School"
      }
    },
    {
      "type": "node",
      "id": 5261482214,
      "lat": 12.8975698,
      "lon": 77.7237775,
      "tags": {
        "name": "Guru Home Interior Decorator",
        "shop": "interior_decoration"
      }
    },
    {
      "type": "way",
      "id": 90982797,
      "center": {
        "lat": 12.9036754,
        "lon": 77.7318037
      },
      "tags": {
        "addr:housenumber": "28",
        "addr:postcode": "560087",
        "addr:street": "Varthur Hobli",
        "alt_name": "SSRVM",
        "amenity": "school",
        "email": "info@ssrvm.org",
        "name": "Sri Sri Ravishankar Vidya Mandir",
        "name:kn": "ಶ್ರೀ ಶ್ರೀ ರವಿಶಂಕರ್ ವಿದ್ಯ ಮಂದಿರ",
        "phone": "+91-80-26494155;+91-80-26494156;+91-80-26494157",
        "website": "https://ssrvm.org/"
      }
    },
    {
      "type": "way",
      "id": 130630869,
      "center": {
        "lat": 12.9143275,
        "lon": 77.7238616
      },
      "tags": {
        "amenity": "college",
        "name": "Krupanidhi Institutions",
        "name:kn": "ಕೃಪಾನಿಧಿ ಕಾಲೇಜು"
      }
    },
    {
      "type": "way",
      "id": 318030809,
      "center": {
        "lat": 12.9073227,
        "lon": 77.716133
      },
      "tags": {
        "amenity": "school",
        "full_name": "National Public School Sarjapur",
        "name": "NPS Sarjapur"
      }
    },
    {
      "type": "way",
      "id": 1178505990,
      "center": {
        "lat": 12.9023933,
        "lon": 77.7166361
      },
      "tags": {
        "amenity": "clinic",
        "name": "Camillian Pastoral Health Centre"
      }
    },
    {
      "type": "way",
      "id": 1178505991,
      "center": {
        "lat": 12.9018855,
        "lon": 77.7171336
      },
      "tags": {
        "amenity": "community_centre",
        "community_centre:for": "child",
        "name": "Swanthana Orphanage"
      }
    },
    {
      "type": "way",
      "id": 1178505994,
      "center": {
        "lat": 12.9017283,
        "lon": 77.7155216
      },
      "tags": {
        "amenity": "hospital",
        "healthcare": "clinic",
        "name": "Snehadaan Hospital"
      }
    },
    {
      "type": "way",
      "id": 1353654969,
      "center": {
        "lat": 12.9083569,
        "lon": 77.7307163
      },
      "tags": {
        "amenity": "school"
      }
    },
    {
      "type": "way",
      "id": 1353887853,
      "center": {
        "lat": 12.9042829,
        "lon": 77.721047
      },
      "tags": {
        "leisure": "dog_park",
        "name": "Wille's Pet Paradise",
        "website": "https://willespetparadise.com/"
      }
    },
    {
      "type": "way",
      "id": 1421748842,
      "center": {
        "lat": 12.8987075,
        "lon": 77.7204064
      },
      "tags": {
        "amenity": "school",
        "name": "New Baldwin International School"
      }
    }
  ]
}