{
  "area_name": "Muniswamappa Layout",
  "osm_id": 12273251696,
  "osm_type": "node",
  "place_type": "neighbourhood",
  "amenity_count": 19,
  "amenities": [
    {
      "type": "node",
      "id": 8187932046,
      "lat": 13.0505946,
      "lon": 77.4865551,
      "tags": {
        "addr:full": "Shani Temple Rd, Teachers Colony, Chikkabidarakallu, Bengaluru, Karnataka",
        "addr:state": "Karnataka",
        "amenity": "atm",
        "name": "Axis Bank ATM",
        "name:kn": "ಆಕ್ಸಿಸ್ ಬ್ಯಾಂಕ್ ಎಟಿಎಂ"
      }
    },
    {
      "type": "node",
      "id": 12743805130,
      "lat": 13.0463318,
      "lon": 77.4990643,
      "tags": {
        "access": "yes",
        "amenity": "drinking_water",
        "operator": "BBMP"
      }
    },
    {
      "type": "node",
      "id": 12745127574,
      "lat": 13.0462611,
      "lon": 77.4989131,
      "tags": {
        "shop": "kiosk"
      }
    },
    {
      "type": "way",
      "id": 350768115,
      "center": {
        "lat": 13.0444199,
        "lon": 77.4992379
      },
      "tags": {
        "leisure": "pitch",
        "name": "Volleyball",
        "name:kn": "ವಾಲಿಬಾಲ್ ಅಂಗಣ",
        "sport": "volleyball"
      }
    },
    {
      "type": "way",
      "id": 350768156,
      "center": {
        "lat": 13.0444245,
        "lon": 77.4994158
      },
      "tags": {
        "leisure": "pitch",
        "name": "Basketball Court",
        "name:kn": "ಬಾಸ್ಕೆಟ್ ಬಾಲ್ ಅಂಕಣ",
        "sport": "basketball",
        "surface": "concrete"
      }
    },
    {
      "type": "way",
      "id": 398905977,
      "center": {
        "lat": 13.044459,
        "lon": 77.4990546
      },
      "tags": {
        "leisure": "pitch",
        "name": "Cricket Pitch",
        "name:kn": "ಕ್ರಿಕೆಟ್ ಆಟದ ಮೈದಾನ",
        "sport": "cricket",
        "surface": "ground"
      }
    },
    {
      "type": "way",
      "id": 398905978,
      "center": {
        "lat": 13.0443989,
        "lon": 77.4995507
      },
      "tags": {
        "leisure": "playground",
        "name": "Children's Play Area"
      }
    },
    {
      "type": "way",
      "id": 785273427,
      "center": {
        "lat": 13.0514158,
        "lon": 77.4844909
      },
      "tags": {
        "leisure": "garden"
      }
    },
    {
      "type": "way",
      "id": 785273431,
      "center": {
        "lat": 13.0507482,
        "lon": 77.4832827
      },
      "tags": {
        "addr:district": "Bengaluru Urban",
        "addr:full": "Jindal Nagar Tumkur Road",
        "addr:postcode": "560073",
        "addr:state": "Karnataka",
        "amenity": "hospital",
        "fixme": "Boundaries and Size of polygon",
        "name": "Jindal Naturecure Institute hospital",
        "source": "OpenGovernmentData"
      }
    },
    {
      "type": "way",
      "id": 1073981859,
      "center": {
        "lat": 13.0527716,
        "lon": 77.4889502
      },
      "tags": {
        "leisure": "park"
      }
    },
    {
      "type": "way",
      "id": 1073981862,
      "center": {
        "lat": 13.0528918,
        "lon": 77.4880809
      },
      "tags": {
        "amenity": "school",
        "name": "Inventure Academy @ Jindal City",
        "website": "https://www.inventureacademy.com/inventure-academy-jindalcampus/"
      }
    },
    {
      "type": "way",
      "id": 1087826087,
      "center": {
        "lat": 13.0476421,
        "lon": 77.4897225
      },
      "tags": {
        "leisure": "park"
      }
    },
    {
      "type": "way",
      "id": 1281214404,
      "center": {
        "lat": 13.0516667,
        "lon": 77.4906328
      },
      "tags": {
        "amenity": "fuel"
      }
    },
    {
      "type": "way",
      "id": 1326487962,
      "center": {
        "lat": 13.0466181,
        "lon": 77.4895888
      },
      "tags": {
        "leisure": "pitch",
        "sport": "tennis"
      }
    },
    {
      "type": "way",
      "id": 1326487983,
      "center": {
        "lat": 13.0514406,
        "lon": 77.4883439
      },
      "tags": {
        "amenity": "fuel"
      }
    },
    {
      "type": "way",
      "id": 1331512480,
      "center": {
        "lat": 13.0512916,
        "lon": 77.4876968
      },
      "tags": {
        "amenity": "school"
      }
    },
    {
      "type": "way",
      "id": 1354340390,
      "center": {
        "lat": 13.0454115,
        "lon": 77.4997713
      },
      "tags": {
        "leisure": "park"
      }
    },
    {
      "type": "way",
      "id": 1376522585,
      "center": {
        "lat": 13.0462742,
        "lon": 77.4906022
      },
      "tags": {
        "amenity": "school"
      }
    },
    {
      "type": "way",
      "id": 1383280161,
      "center": {
        "lat": 13.0399847,
        "lon": 77.4972233
      },
      "tags": {
        "amenity": "school",
        "name": "Sri Chaitanya Techno School"
      }
    }
  ]
}