{
  "area_name": "Munniswamy Garden",
  "osm_id": 10729766608,
  "osm_type": "node",
  "place_type": "neighbourhood",
  "amenity_count": 411,
  "amenities": [
    {
      "type": "node",
      "id": 662761071,
      "lat": 12.946945,
      "lon": 77.6175314,
      "tags": {
        "amenity": "school",
        "name": "St. Sara's School"
      }
    },
    {
      "type": "node",
      "id": 662874260,
      "lat": 12.9451797,
      "lon": 77.6213677,
      "tags": {
        "amenity": "place_of_worship",
        "name": "Annamma Temple",
        "name:kn": "ಅಣ್ಣಮ್ಮ ದೇವಸ್ಥಾನ",
        "religion": "hindu",
        "ups_other": "temple"
      }
    },
    {
      "type": "node",
      "id": 662874261,
      "lat": 12.9479784,
      "lon": 77.6189413,
      "tags": {
        "amenity": "place_of_worship",
        "religion": "christian",
        "ups_other": "church"
      }
    },
    {
      "type": "node",
      "id": 662894703,
      "lat": 12.949455,
      "lon": 77.6171956,
      "tags": {
        "shop": "General store",
        "ups_shop": "shop"
      }
    },
    {
      "type": "node",
      "id": 662894707,
      "lat": 12.9497687,
      "lon": 77.6175899,
      "tags": {
        "shop": "General store",
        "ups_shop": "shop"
      }
    },
    {
      "type": "node",
      "id": 662894709,
      "lat": 12.9494393,
      "lon": 77.6174022,
      "tags": {
        "amenity": "toilets",
        "name": "Public Toilet",
        "name:kn": "ಶೌಚಾಲಯ"
      }
    },
    {
      "type": "node",
      "id": 662894713,
      "lat": 12.9501905,
      "lon": 77.6177916,
      "tags": {
        "shop": "electrical"
      }
    },
    {
      "type": "node",
      "id": 663604709,
      "lat": 12.9496275,
      "lon": 77.6139658,
      "tags": {
        "amenity": "school",
        "name": "Government School",
        "name:kn": "ಸರ್ಕಾರಿ ಶಾಲೆ",
        "ups_school": "school"
      }
    },
    {
      "type": "node",
      "id": 663604710,
      "lat": 12.9497624,
      "lon": 77.6143357,
      "tags": {
        "amenity": "school",
        "name": "Methodist church school",
        "ups_school": "school"
      }
    },
    {
      "type": "node",
      "id": 663604711,
      "lat": 12.9498927,
      "lon": 77.6147223,
      "tags": {
        "amenity": "community_centre",
        "name": "JDS Office",
        "ups_community": "community_centre"
      }
    },
    {
      "type": "node",
      "id": 663604712,
      "lat": 12.9500392,
      "lon": 77.6139324,
      "tags": {
        "amenity": "community_centre",
        "name": "Bus staf&Reds",
        "ups_community": "community_centre"
      }
    },
    {
      "type": "node",
      "id": 663604713,
      "lat": 12.9500555,
      "lon": 77.6148988,
      "tags": {
        "amenity": "place_of_worship",
        "religion": "christian",
        "ups_other": "Church"
      }
    },
    {
      "type": "node",
      "id": 663604714,
      "lat": 12.9499206,
      "lon": 77.6151518,
      "tags": {
        "amenity": "school",
        "name": "Adithya public school",
        "ups_school": "school"
      }
    },
    {
      "type": "node",
      "id": 663604715,
      "lat": 12.9494647,
      "lon": 77.6154126,
      "tags": {
        "amenity": "place_of_worship",
        "name": "Church statue",
        "religion": "christian",
        "ups_other": "statue"
      }
    },
    {
      "type": "node",
      "id": 663604716,
      "lat": 12.9499624,
      "lon": 77.6154381,
      "tags": {
        "amenity": "toilets",
        "name": "Pubilc Toilet",
        "name:kn": "ಶೌಚಾಲಯ",
        "ups_other": "toilet"
      }
    },
    {
      "type": "node",
      "id": 663604717,
      "lat": 12.9499142,
      "lon": 77.616417,
      "tags": {
        "name": "Jewellery shops",
        "shop": "jewelry",
        "ups_shop": "shop"
      }
    },
    {
      "type": "node",
      "id": 663604719,
      "lat": 12.9503659,
      "lon": 77.6151518,
      "tags": {
        "amenity": "community_centre",
        "name": "Government training centre",
        "ups_community": "community_centre"
      }
    },
    {
      "type": "node",
      "id": 663604720,
      "lat": 12.9503648,
      "lon": 77.6156719,
      "tags": {
        "amenity": "place_of_worship",
        "religion": "christian",
        "ups_other": "Church"
      }
    },
    {
      "type": "node",
      "id": 663604721,
      "lat": 12.9503747,
      "lon": 77.6159015,
      "tags": {
        "amenity": "place_of_worship",
        "name": "temple",
        "religion": "hindu",
        "ups_other": "temple"
      }
    },
    {
      "type": "node",
      "id": 663604722,
      "lat": 12.9505235,
      "lon": 77.6162762,
      "tags": {
        "amenity": "place_of_worship",
        "name": "St merry statue",
        "religion": "christian",
        "ups_other": "statue"
      }
    },
    {
      "type": "node",
      "id": 663604723,
      "lat": 12.9503234,
      "lon": 77.6162619,
      "tags": {
        "amenity": "hospital",
        "healthcare": "hospital",
        "name": "Government Primary Health Centre",
        "name:kn": "ಸರ್ಕಾರಿ ಪ್ರಾಥಮಿಕ ಆರೋಗ್ಯ ಕೇಂದ್ರ",
        "ups_hospital": "hospital"
      }
    },
    {
      "type": "node",
      "id": 663604724,
      "lat": 12.9502096,
      "lon": 77.6166557,
      "tags": {
        "amenity": "place_of_worship",
        "name": "Church statue",
        "religion": "christian",
        "ups_other": "statue"
      }
    },
    {
      "type": "node",
      "id": 669245460,
      "lat": 12.9476788,
      "lon": 77.6244575,
      "tags": {
        "amenity": "recycling",
        "name": "Ravi Chandra's Shop"
      }
    },
    {
      "type": "node",
      "id": 671960254,
      "lat": 12.952612,
      "lon": 77.6145588,
      "tags": {
        "amenity": "recycling",
        "name": "Nazeer Aahamad"
      }
    },
    {
      "type": "node",
      "id": 671960262,
      "lat": 12.9528804,
      "lon": 77.6152377,
      "tags": {
        "amenity": "recycling",
        "name": "Chinni Raju"
      }
    },
    {
      "type": "node",
      "id": 672011674,
      "lat": 12.9515185,
      "lon": 77.6142644,
      "tags": {
        "amenity": "recycling",
        "description": "dumpsite"
      }
    },
    {
      "type": "node",
      "id": 672011694,
      "lat": 12.9511406,
      "lon": 77.6174732,
      "tags": {
        "amenity": "recycling",
        "name": "Kumar"
      }
    },
    {
      "type": "node",
      "id": 672011697,
      "lat": 12.95132,
      "lon": 77.6171638,
      "tags": {
        "amenity": "recycling",
        "description": "dumpsite"
      }
    },
    {
      "type": "node",
      "id": 672011699,
      "lat": 12.9518495,
      "lon": 77.6179311,
      "tags": {
        "amenity": "recycling",
        "description": "dumpsite"
      }
    },
    {
      "type": "node",
      "id": 672011700,
      "lat": 12.9527732,
      "lon": 77.6173961,
      "tags": {
        "amenity": "recycling",
        "description": "dumpsite"
      }
    },
    {
      "type": "node",
      "id": 672011704,
      "lat": 12.9530481,
      "lon": 77.6159168,
      "tags": {
        "amenity": "recycling",
        "name": "Sapha"
      }
    },
    {
      "type": "node",
      "id": 672011707,
      "lat": 12.9537341,
      "lon": 77.6168951,
      "tags": {
        "amenity": "recycling",
        "name": "Palani"
      }
    },
    {
      "type": "node",
      "id": 672011711,
      "lat": 12.9529841,
      "lon": 77.6175394,
      "tags": {
        "amenity": "recycling",
        "name": "Muniswamy"
      }
    },
    {
      "type": "node",
      "id": 672055796,
      "lat": 12.9495725,
      "lon": 77.6176442,
      "tags": {
        "amenity": "recycling",
        "name": "Baba shop"
      }
    },
    {
      "type": "node",
      "id": 672055799,
      "lat": 12.9519474,
      "lon": 77.6196686,
      "tags": {
        "amenity": "recycling",
        "name": "Vinayakai"
      }
    },
    {
      "type": "node",
      "id": 672055806,
      "lat": 12.9492855,
      "lon": 77.617491,
      "tags": {
        "amenity": "recycling",
        "name": "sagai"
      }
    },
    {
      "type": "node",
      "id": 672060567,
      "lat": 12.9490485,
      "lon": 77.6174494,
      "tags": {
        "amenity": "recycling",
        "name": "dumping site"
      }
    },
    {
      "type": "node",
      "id": 672071448,
      "lat": 12.94905,
      "lon": 77.617456,
      "tags": {
        "amenity": "recycling",
        "description": "dumpsite"
      }
    },
    {
      "type": "node",
      "id": 672579825,
      "lat": 12.9433716,
      "lon": 77.6180879,
      "tags": {
        "amenity": "recycling",
        "name": "Elumalai"
      }
    },
    {
      "type": "node",
      "id": 672579826,
      "lat": 12.9419692,
      "lon": 77.6193404,
      "tags": {
        "amenity": "recycling",
        "name": "Mukesh"
      }
    },
    {
      "type": "node",
      "id": 672579834,
      "lat": 12.9430309,
      "lon": 77.6193113,
      "tags": {
        "amenity": "recycling",
        "name": "Gajendra",
        "name:kn": "ಗಜೇಂದ್ರ"
      }
    },
    {
      "type": "node",
      "id": 672579841,
      "lat": 12.9433546,
      "lon": 77.6187346,
      "tags": {
        "amenity": "recycling",
        "description": "dumpsite"
      }
    },
    {
      "type": "node",
      "id": 1465741141,
      "lat": 12.941685,
      "lon": 77.621969,
      "tags": {
        "amenity": "place_of_worship",
        "denomination": "all",
        "designation": "ganapathy aanjaneya and raghavendra",
        "name": "Ganapathy, Anjaneya, Raghavendra Swamy temple",
        "religion": "hindu"
      }
    },
    {
      "type": "node",
      "id": 1466628075,
      "lat": 12.9449911,
      "lon": 77.618272,
      "tags": {
        "amenity": "bar",
        "name": "Mookambika Bar& Resturant"
      }
    },
    {
      "type": "node",
      "id": 1466631787,
      "lat": 12.9429573,
      "lon": 77.6174085,
      "tags": {
        "addr:district": "Bengaluru Urban",
        "addr:full": "No.3&4, 7Nth Main 1st Block OppositeB.T.S Kalyana Mantapa Koramangala",
        "addr:postcode": "560034",
        "addr:state": "Karnataka",
        "amenity": "clinic",
        "name": "Sharadha Nursing Home",
        "source": "OpenGovernmentData"
      }
    },
    {
      "type": "node",
      "id": 1470523384,
      "lat": 12.9416947,
      "lon": 77.621508,
      "tags": {
        "amenity": "restaurant",
        "cuisine": "international",
        "name": "Boca Grande",
        "name:kn": "ಬೊಕ ಗ್ರಾಂಡೆ"
      }
    },
    {
      "type": "node",
      "id": 1470523385,
      "lat": 12.9420162,
      "lon": 77.6219426,
      "tags": {
        "amenity": "bank",
        "atm": "yes",
        "brand": "Federal Bank",
        "brand:wikidata": "Q2044983",
        "brand:wikipedia": "en:Federal Bank",
        "name": "Federal Bank",
        "name:en": "Federal Bank",
        "website": "https://www.federalbank.co.in"
      }
    },
    {
      "type": "node",
      "id": 1470523395,
      "lat": 12.9420816,
      "lon": 77.6220418,
      "tags": {
        "designation": "Dealers in Piano",
        "name": "Theme Piano World",
        "shop": "music"
      }
    },
    {
      "type": "node",
      "id": 1473330353,
      "lat": 12.9447798,
      "lon": 77.6191001,
      "tags": {
        "amenity": "place_of_worship",
        "denomination": "vaishnavism",
        "name": "Sri Srinivasa temple",
        "name:kn": "ಶ್ರೀನಿವಾಸ ದೇವಸ್ಥಾನ",
        "religion": "hindu"
      }
    },
    {
      "type": "node",
      "id": 1473330384,
      "lat": 12.9426306,
      "lon": 77.6223732,
      "tags": {
        "female": "yes",
        "male": "yes",
        "name": "Kolourrs Unisex salon",
        "shop": "hairdresser"
      }
    },
    {
      "type": "node",
      "id": 1684631607,
      "lat": 12.9501262,
      "lon": 77.6186016,
      "tags": {
        "amenity": "place_of_worship",
        "name": "Anaga Parmeshwari temple",
        "religion": "hindu"
      }
    },
    {
      "type": "node",
      "id": 1684702809,
      "lat": 12.9510012,
      "lon": 77.6188616,
      "tags": {
        "amenity": "place_of_worship",
        "name:kn": "ಮಸೀದಿ",
        "religion": "muslim"
      }
    },
    {
      "type": "node",
      "id": 1781959088,
      "lat": 12.943062,
      "lon": 77.6175679,
      "tags": {
        "amenity": "fast_food",
        "cuisine": "indian",
        "name": "Manasa Veg"
      }
    },
    {
      "type": "node",
      "id": 1781959094,
      "lat": 12.9417545,
      "lon": 77.6215457,
      "tags": {
        "amenity": "restaurant",
        "cuisine": "indian",
        "name": "Sagar Fast Food",
        "name:kn": "ಸಾಗರ್ ಫಾಸ್ಟ್ ಫುಡ್"
      }
    },
    {
      "type": "node",
      "id": 1781959102,
      "lat": 12.943452,
      "lon": 77.6178697,
      "tags": {
        "amenity": "atm",
        "brand": "HDFC Bank",
        "brand:wikidata": "Q631047",
        "name": "HDFC Bank",
        "operator": "HDFC Bank",
        "operator:wikidata": "Q631047",
        "short_name": "HDFC"
      }
    },
    {
      "type": "node",
      "id": 1781959104,
      "lat": 12.9434676,
      "lon": 77.6178331,
      "tags": {
        "amenity": "atm",
        "brand": "ICICI Bank",
        "brand:wikidata": "Q1653258",
        "name": "ICICI Bank",
        "operator": "ICICI Bank",
        "operator:wikidata": "Q1653258",
        "short_name": "ICICI"
      }
    },
    {
      "type": "node",
      "id": 2387041069,
      "lat": 12.9437857,
      "lon": 77.6236824,
      "tags": {
        "amenity": "atm",
        "brand": "Canara Bank",
        "brand:en": "Canara Bank",
        "brand:hi": "केनरा बैंक",
        "brand:kn": "ಕೆನರಾ ಬ್ಯಾಂಕ್",
        "brand:pa": "ਕੇਨਰਾ ਬੈਂਕ",
        "brand:pnb": "کینرا بینک",
        "brand:ur": "کینرا بینک",
        "brand:wikidata": "Q2003777",
        "name": "Canara Bank",
        "name:en": "Canara Bank",
        "name:hi": "केनरा बैंक",
        "name:kn": "ಕೆನರಾ ಬ್ಯಾಂಕ್",
        "name:pa": "ਕੇਨਰਾ ਬੈਂਕ",
        "name:pnb": "کینرا بینک",
        "name:ur": "کینرا بینک",
        "operator": "Canara Bank",
        "operator:wikidata": "Q2003777"
      }
    },
    {
      "type": "node",
      "id": 2387041347,
      "lat": 12.9422696,
      "lon": 77.6253883,
      "tags": {
        "amenity": "atm",
        "brand": "State Bank of India",
        "brand:wikidata": "Q1340361",
        "name": "State Bank of India",
        "operator": "State Bank of India",
        "operator:wikidata": "Q1340361",
        "short_name": "SBI"
      }
    },
    {
      "type": "node",
      "id": 3389796914,
      "lat": 12.9466123,
      "lon": 77.6218766,
      "tags": {
        "amenity": "atm",
        "brand": "Syndicate Bank",
        "brand:wikidata": "Q2004088",
        "name": "Syndicate Bank",
        "name:kn": "ಸಿಂಡಿಕೇಟ್ ಬ್ಯಾಂಕ್",
        "operator": "Syndicate Bank",
        "operator:wikidata": "Q2004088"
      }
    },
    {
      "type": "node",
      "id": 3389796915,
      "lat": 12.9460379,
      "lon": 77.6221481,
      "tags": {
        "name": "Nandini Milk Parlour",
        "name:kn": "ನಂದಿನಿ ಹಾಲಿನ ಅಂಗಡಿ",
        "shop": "dairy"
      }
    },
    {
      "type": "node",
      "id": 3389796916,
      "lat": 12.9440649,
      "lon": 77.624007,
      "tags": {
        "name": "Nandini Milk Parlour",
        "name:kn": "ನಂದಿನಿ ಹಾಲಿನ ಅಂಗಡಿ",
        "shop": "dairy"
      }
    },
    {
      "type": "node",
      "id": 3450179286,
      "lat": 12.9449588,
      "lon": 77.6246107,
      "tags": {
        "amenity": "bench"
      }
    },
    {
      "type": "node",
      "id": 3450179288,
      "lat": 12.9455895,
      "lon": 77.623801,
      "tags": {
        "leisure": "playground"
      }
    },
    {
      "type": "node",
      "id": 3450179289,
      "lat": 12.9450044,
      "lon": 77.6244659,
      "tags": {
        "leisure": "playground"
      }
    },
    {
      "type": "node",
      "id": 3450179290,
      "lat": 12.9452269,
      "lon": 77.6245846,
      "tags": {
        "amenity": "bench"
      }
    },
    {
      "type": "node",
      "id": 3450179292,
      "lat": 12.9447767,
      "lon": 77.624409,
      "tags": {
        "amenity": "bench"
      }
    },
    {
      "type": "node",
      "id": 3450233794,
      "lat": 12.9451192,
      "lon": 77.6245441,
      "tags": {
        "amenity": "bench"
      }
    },
    {
      "type": "node",
      "id": 3450233796,
      "lat": 12.9436693,
      "lon": 77.62521,
      "tags": {
        "shop": "convenience"
      }
    },
    {
      "type": "node",
      "id": 3450233797,
      "lat": 12.9460107,
      "lon": 77.6236793,
      "tags": {
        "amenity": "bench"
      }
    },
    {
      "type": "node",
      "id": 3450233799,
      "lat": 12.9450495,
      "lon": 77.6246043,
      "tags": {
        "amenity": "bench"
      }
    },
    {
      "type": "node",
      "id": 3450233800,
      "lat": 12.9440787,
      "lon": 77.6247551,
      "tags": {
        "name": "Nami Designer",
        "shop": "clothes"
      }
    },
    {
      "type": "node",
      "id": 3450233801,
      "lat": 12.945912,
      "lon": 77.6235334,
      "tags": {
        "amenity": "bench"
      }
    },
    {
      "type": "node",
      "id": 3450233804,
      "lat": 12.9440393,
      "lon": 77.6257271,
      "tags": {
        "name": "The Bangalore A1",
        "shop": "dry_cleaning"
      }
    },
    {
      "type": "node",
      "id": 3450233805,
      "lat": 12.9446683,
      "lon": 77.6245223,
      "tags": {
        "amenity": "bench"
      }
    },
    {
      "type": "node",
      "id": 3450276060,
      "lat": 12.9440468,
      "lon": 77.6253568,
      "tags": {
        "amenity": "bench"
      }
    },
    {
      "type": "node",
      "id": 3450276061,
      "lat": 12.9447492,
      "lon": 77.6244929,
      "tags": {
        "name": "Sri Adhi Lakshmi",
        "shop": "general"
      }
    },
    {
      "type": "node",
      "id": 3450276065,
      "lat": 12.943929,
      "lon": 77.6254021,
      "tags": {
        "amenity": "bench"
      }
    },
    {
      "type": "node",
      "id": 3450276070,
      "lat": 12.9440208,
      "lon": 77.6254787,
      "tags": {
        "amenity": "bench"
      }
    },
    {
      "type": "node",
      "id": 3450276072,
      "lat": 12.9450817,
      "lon": 77.6242547,
      "tags": {
        "name": "Sri Adhi Lakshmi",
        "shop": "stationery"
      }
    },
    {
      "type": "node",
      "id": 3450276077,
      "lat": 12.9441697,
      "lon": 77.6253844,
      "tags": {
        "amenity": "bench"
      }
    },
    {
      "type": "node",
      "id": 3450276078,
      "lat": 12.9451326,
      "lon": 77.6242163,
      "tags": {
        "name": "Bhunaa's",
        "shop": "beauty"
      }
    },
    {
      "type": "node",
      "id": 3450276080,
      "lat": 12.9423718,
      "lon": 77.6251542,
      "tags": {
        "amenity": "atm",
        "brand": "State Bank of India",
        "brand:wikidata": "Q1340361",
        "name": "State Bank of India",
        "operator": "State Bank of India",
        "operator:wikidata": "Q1340361",
        "short_name": "SBI"
      }
    },
    {
      "type": "node",
      "id": 3450286671,
      "lat": 12.9453933,
      "lon": 77.6229542,
      "tags": {
        "amenity": "bench"
      }
    },
    {
      "type": "node",
      "id": 3450286672,
      "lat": 12.9449444,
      "lon": 77.6232623,
      "tags": {
        "amenity": "bench"
      }
    },
    {
      "type": "node",
      "id": 3450286673,
      "lat": 12.944377,
      "lon": 77.6237053,
      "tags": {
        "amenity": "bench"
      }
    },
    {
      "type": "node",
      "id": 3450286674,
      "lat": 12.9480125,
      "lon": 77.621251,
      "tags": {
        "amenity": "bench"
      }
    },
    {
      "type": "node",
      "id": 3450286675,
      "lat": 12.9474183,
      "lon": 77.6216118,
      "tags": {
        "amenity": "bench"
      }
    },
    {
      "type": "node",
      "id": 3450286676,
      "lat": 12.9468063,
      "lon": 77.622023,
      "tags": {
        "amenity": "bench"
      }
    },
    {
      "type": "node",
      "id": 3450286677,
      "lat": 12.9464615,
      "lon": 77.6222478,
      "tags": {
        "amenity": "bench"
      }
    },
    {
      "type": "node",
      "id": 3450286681,
      "lat": 12.947312,
      "lon": 77.6216728,
      "tags": {
        "amenity": "bench"
      }
    },
    {
      "type": "node",
      "id": 3450286682,
      "lat": 12.9467687,
      "lon": 77.6220638,
      "tags": {
        "amenity": "bench"
      }
    },
    {
      "type": "node",
      "id": 3450286684,
      "lat": 12.9464124,
      "lon": 77.6223041,
      "tags": {
        "amenity": "bench"
      }
    },
    {
      "type": "node",
      "id": 3450286686,
      "lat": 12.9447953,
      "lon": 77.6233916,
      "tags": {
        "amenity": "bench"
      }
    },
    {
      "type": "node",
      "id": 3450286687,
      "lat": 12.9477655,
      "lon": 77.6213842,
      "tags": {
        "amenity": "bench"
      }
    },
    {
      "type": "node",
      "id": 3450286688,
      "lat": 12.9471143,
      "lon": 77.6218054,
      "tags": {
        "amenity": "bench"
      }
    },
    {
      "type": "node",
      "id": 3450286689,
      "lat": 12.9463692,
      "lon": 77.6223473,
      "tags": {
        "amenity": "bench"
      }
    },
    {
      "type": "node",
      "id": 3450286690,
      "lat": 12.945852,
      "lon": 77.6226364,
      "tags": {
        "amenity": "bench"
      }
    },
    {
      "type": "node",
      "id": 3450286691,
      "lat": 12.945289,
      "lon": 77.6230595,
      "tags": {
        "amenity": "bench"
      }
    },
    {
      "type": "node",
      "id": 3450286692,
      "lat": 12.9476818,
      "lon": 77.6214516,
      "tags": {
        "amenity": "bench"
      }
    },
    {
      "type": "node",
      "id": 3450287293,
      "lat": 12.9467225,
      "lon": 77.6220925,
      "tags": {
        "amenity": "bench"
      }
    },
    {
      "type": "node",
      "id": 3450287294,
      "lat": 12.9464949,
      "lon": 77.622215,
      "tags": {
        "amenity": "bench"
      }
    },
    {
      "type": "node",
      "id": 3450287295,
      "lat": 12.9461799,
      "lon": 77.6224732,
      "tags": {
        "amenity": "bench"
      }
    },
    {
      "type": "node",
      "id": 3450287296,
      "lat": 12.9457608,
      "lon": 77.6226909,
      "tags": {
        "amenity": "bench"
      }
    },
    {
      "type": "node",
      "id": 3450287297,
      "lat": 12.9445205,
      "lon": 77.6236082,
      "tags": {
        "amenity": "bench"
      }
    },
    {
      "type": "node",
      "id": 3450287298,
      "lat": 12.9481111,
      "lon": 77.6211966,
      "tags": {
        "amenity": "bench"
      }
    },
    {
      "type": "node",
      "id": 3450287299,
      "lat": 12.9470767,
      "lon": 77.6218374,
      "tags": {
        "amenity": "bench"
      }
    },
    {
      "type": "node",
      "id": 3450287300,
      "lat": 12.9466763,
      "lon": 77.6221421,
      "tags": {
        "amenity": "bench"
      }
    },
    {
      "type": "node",
      "id": 3450287301,
      "lat": 12.9460638,
      "lon": 77.6225918,
      "tags": {
        "amenity": "bench"
      }
    },
    {
      "type": "node",
      "id": 3450290054,
      "lat": 12.9465594,
      "lon": 77.6219261,
      "tags": {
        "amenity": "bench"
      }
    },
    {
      "type": "node",
      "id": 3450290055,
      "lat": 12.9477895,
      "lon": 77.6211508,
      "tags": {
        "amenity": "bench"
      }
    },
    {
      "type": "node",
      "id": 3450290056,
      "lat": 12.9462885,
      "lon": 77.6221055,
      "tags": {
        "amenity": "bench"
      }
    },
    {
      "type": "node",
      "id": 3450290058,
      "lat": 12.9475234,
      "lon": 77.6212831,
      "tags": {
        "amenity": "bench"
      }
    },
    {
      "type": "node",
      "id": 3450290059,
      "lat": 12.9478548,
      "lon": 77.6211068,
      "tags": {
        "amenity": "bench"
      }
    },
    {
      "type": "node",
      "id": 3450290060,
      "lat": 12.9463265,
      "lon": 77.6220929,
      "tags": {
        "amenity": "bench"
      }
    },
    {
      "type": "node",
      "id": 3450290061,
      "lat": 12.9464862,
      "lon": 77.621982,
      "tags": {
        "amenity": "bench"
      }
    },
    {
      "type": "node",
      "id": 3450290062,
      "lat": 12.9465885,
      "lon": 77.6219053,
      "tags": {
        "amenity": "bench"
      }
    },
    {
      "type": "node",
      "id": 3450290063,
      "lat": 12.9475731,
      "lon": 77.621237,
      "tags": {
        "amenity": "bench"
      }
    },
    {
      "type": "node",
      "id": 3450290064,
      "lat": 12.946356,
      "lon": 77.622072,
      "tags": {
        "amenity": "bench"
      }
    },
    {
      "type": "node",
      "id": 3450290066,
      "lat": 12.9479321,
      "lon": 77.6209283,
      "tags": {
        "leisure": "playground"
      }
    },
    {
      "type": "node",
      "id": 3450290067,
      "lat": 12.9462373,
      "lon": 77.6221382,
      "tags": {
        "amenity": "bench"
      }
    },
    {
      "type": "node",
      "id": 3450290068,
      "lat": 12.9465119,
      "lon": 77.6219601,
      "tags": {
        "amenity": "bench"
      }
    },
    {
      "type": "node",
      "id": 3450290071,
      "lat": 12.9463859,
      "lon": 77.6220465,
      "tags": {
        "amenity": "bench"
      }
    },
    {
      "type": "node",
      "id": 3450296713,
      "lat": 12.9450983,
      "lon": 77.6227822,
      "tags": {
        "leisure": "playground"
      }
    },
    {
      "type": "node",
      "id": 3463769188,
      "lat": 12.9419581,
      "lon": 77.6227858,
      "tags": {
        "amenity": "school",
        "name": "Eye Level Learning Center"
      }
    },
    {
      "type": "node",
      "id": 3463769192,
      "lat": 12.9420247,
      "lon": 77.6227252,
      "tags": {
        "amenity": "dentist",
        "healthcare": "dentist",
        "name": "Sculptura Aesthetic Centre"
      }
    },
    {
      "type": "node",
      "id": 3473325936,
      "lat": 12.9482932,
      "lon": 77.6213652,
      "tags": {
        "addr:city": "Bangalore",
        "addr:housenumber": "Ganga Block",
        "addr:postcode": "560047",
        "addr:street": "National Games Village",
        "name": "SLV Stores",
        "shop": "supermarket"
      }
    },
    {
      "type": "node",
      "id": 3510015824,
      "lat": 12.9417768,
      "lon": 77.6215095,
      "tags": {
        "addr:city": "Koramangala",
        "addr:housenumber": "Ganapathi Temple Rd",
        "addr:postcode": "560095",
        "addr:street": "Koramangala 8th Block, Nanjappa Reddy Layout,",
        "amenity": "cafe",
        "cuisine": "coffee_shop",
        "internet_access": "yes",
        "name": "Juice Maker",
        "opening_hours": "08:00-23:00",
        "smoking": "outside"
      }
    },
    {
      "type": "node",
      "id": 4023499153,
      "lat": 12.9477974,
      "lon": 77.6259438,
      "tags": {
        "addr:housenumber": "6",
        "addr:street": "13th cross, R.A. Road, Ejipura",
        "amenity": "studio",
        "description": "Studio",
        "name": "Musical Cubicle",
        "opening_hours": "Tu-Su 10:00-22:00",
        "phone": "+919900701921"
      }
    },
    {
      "type": "node",
      "id": 4061141085,
      "lat": 12.9449935,
      "lon": 77.6288015,
      "tags": {
        "amenity": "place_of_worship",
        "denomination": "vaishnavism",
        "name": "Sriram Temple",
        "name:kn": "ಶ್ರೀರಾಮ್ ದೇಚಸ್ಥಾನ",
        "religion": "hindu"
      }
    },
    {
      "type": "node",
      "id": 4062937541,
      "lat": 12.9448035,
      "lon": 77.6289262,
      "tags": {
        "name": "Manju Electricals",
        "name:kn": "ಮಂಜು ಎಲ್ಕಟ್ರಿಕಲ್ಸ್",
        "opening_hours": "09:30-13:30,14:30-21:00",
        "shop": "electronics",
        "wheelchair": "no"
      }
    },
    {
      "type": "node",
      "id": 4062937542,
      "lat": 12.9446297,
      "lon": 77.6289275,
      "tags": {
        "amenity": "atm",
        "brand": "Axis Bank",
        "brand:wikidata": "Q2003549",
        "name": "Axis Bank",
        "opening_hours": "24/7",
        "operator": "Axis Bank",
        "operator:wikidata": "Q2003549",
        "wheelchair": "no"
      }
    },
    {
      "type": "node",
      "id": 4062937543,
      "lat": 12.9446671,
      "lon": 77.6289233,
      "tags": {
        "opening_hours": "09:30-13:30,14:30-21:00",
        "recharge": "yes",
        "shop": "mobile_phone",
        "wheelchair": "no"
      }
    },
    {
      "type": "node",
      "id": 4062937544,
      "lat": 12.9447067,
      "lon": 77.6289232,
      "tags": {
        "opening_hours": "09:30-13:30,14:30-21:00",
        "shop": "jewelry"
      }
    },
    {
      "type": "node",
      "id": 4062937545,
      "lat": 12.9447632,
      "lon": 77.6289263,
      "tags": {
        "amenity": "dentist",
        "wheelchair": "no"
      }
    },
    {
      "type": "node",
      "id": 4062937546,
      "lat": 12.9448343,
      "lon": 77.6289279,
      "tags": {
        "opening_hours": "09:30-13:30,14:30-21:00",
        "shop": "clothes",
        "wheelchair": "no"
      }
    },
    {
      "type": "node",
      "id": 4062942991,
      "lat": 12.9444948,
      "lon": 77.6297409,
      "tags": {
        "amenity": "waste_disposal"
      }
    },
    {
      "type": "node",
      "id": 4062957400,
      "lat": 12.9460942,
      "lon": 77.6290815,
      "tags": {
        "name": "Femina Wear",
        "name:kn": "ಫೆಮಿನಾ ವೇರ್",
        "opening_hours": "09:30-13:30,14:30-21:00",
        "shop": "tailor",
        "wheelchair": "no"
      }
    },
    {
      "type": "node",
      "id": 4062957401,
      "lat": 12.9460314,
      "lon": 77.629121,
      "tags": {
        "motorcycle:repair": "yes",
        "name": "Om Sri Vinayaka Garriage",
        "name:kn": "ಓಂ ಶ್ರೀ ವಿನಾಯಕ ಗ್ಯಾರೇಜ್",
        "shop": "motorcycle"
      }
    },
    {
      "type": "node",
      "id": 4062957410,
      "lat": 12.9456961,
      "lon": 77.6293342,
      "tags": {
        "shop": "trade",
        "trade": "timber"
      }
    },
    {
      "type": "node",
      "id": 4062971147,
      "lat": 12.9461707,
      "lon": 77.6289442,
      "tags": {
        "name": "Balaji Xerox Shop",
        "name:kn": "ಬಾಲಾಜಿ ಜೆರಾಕ್ಸ",
        "opening_hours": "09:30-13:30,14:30-21:00",
        "shop": "copyshop",
        "wheelchair": "no"
      }
    },
    {
      "type": "node",
      "id": 4062971148,
      "lat": 12.9462204,
      "lon": 77.6289455,
      "tags": {
        "name": "JJ Footwear",
        "name:kn": "ಜೆ ಜೆ ಫುಟ್‌ವೇರ್",
        "opening_hours": "09:30-13:30,14:30-21:00",
        "second_hand": "no",
        "shop": "shoes",
        "wheelchair": "no"
      }
    },
    {
      "type": "node",
      "id": 4062971149,
      "lat": 12.9461899,
      "lon": 77.6289433,
      "tags": {
        "name": "Jai Maa Provision Store",
        "name:kn": "ಜೈ ಮಾ ಪ್ರಾವಿಜನ್ ಅಂಗಡಿ",
        "opening_hours": "09:30-13:30,14:30-21:00",
        "shop": "variety_store",
        "wheelchair": "no"
      }
    },
    {
      "type": "node",
      "id": 4062971150,
      "lat": 12.9462863,
      "lon": 77.6289431,
      "tags": {
        "name": "Soundarya Tailor Shop",
        "name:kn": "ಸೌಂದರ್ಯ ಟೇಲರ್ಸ್",
        "opening_hours": "09:30-13:30,14:30-21:00",
        "shop": "tailor",
        "wheelchair": "no"
      }
    },
    {
      "type": "node",
      "id": 4062971151,
      "lat": 12.9462056,
      "lon": 77.6289433,
      "tags": {
        "opening_hours": "09:30-13:30,14:30-21:00",
        "shop": "greengrocer",
        "wheelchair": "no"
      }
    },
    {
      "type": "node",
      "id": 4062971152,
      "lat": 12.9462353,
      "lon": 77.6289433,
      "tags": {
        "opening_hours": "09:30-13:30,14:30-21:00",
        "shop": "boutique",
        "wheelchair": "no"
      }
    },
    {
      "type": "node",
      "id": 4062971153,
      "lat": 12.9462475,
      "lon": 77.6289419,
      "tags": {
        "shop": "flour_mill"
      }
    },
    {
      "type": "node",
      "id": 4062971154,
      "lat": 12.946264,
      "lon": 77.6289449,
      "tags": {
        "opening_hours": "09:30-13:30,14:30-21:00",
        "shop": "greengrocer",
        "wheelchair": "no"
      }
    },
    {
      "type": "node",
      "id": 4063552235,
      "lat": 12.9460433,
      "lon": 77.6289502,
      "tags": {
        "name": "Chippu's Juice and Bakery",
        "name:kn": "ಚಿಪ್ಪುಸ್ ಜ್ಯೂಸ್ ಮತ್ತು ಬೇಕರಿ",
        "opening_hours": "09:30-13:30,14:30-21:00",
        "shop": "beverages",
        "wheelchair": "no"
      }
    },
    {
      "type": "node",
      "id": 4063552236,
      "lat": 12.9459822,
      "lon": 77.6289502,
      "tags": {
        "amenity": "fast_food",
        "name": "Royal Fast Food",
        "name:kn": "ರಾಯಲ್ ಫಾಸ್ಟ್ ಫುಡ್"
      }
    },
    {
      "type": "node",
      "id": 4063552238,
      "lat": 12.9461467,
      "lon": 77.6289446,
      "tags": {
        "opening_hours": "09:30-13:30,14:30-21:00",
        "shop": "convenience",
        "wheelchair": "no"
      }
    },
    {
      "type": "node",
      "id": 4063559074,
      "lat": 12.945821,
      "lon": 77.6289508,
      "tags": {
        "name": "Ashok Textiles",
        "name:kn": "ಅಶೋಕ್ ಬಟ್ಟೆ ಅಂಗಡಿ",
        "opening_hours": "09:30-13:30,14:30-21:00",
        "second_hand": "no",
        "shop": "clothes",
        "wheelchair": "no"
      }
    },
    {
      "type": "node",
      "id": 4063559075,
      "lat": 12.9453451,
      "lon": 77.6289362,
      "tags": {
        "name": "Balaji Electricals",
        "name:kn": "ಬಾಲಾಜಿ ಎಲಕ್ಟ್ರಿಕಲ್ಸ್",
        "opening_hours": "09:30-13:30,14:30-21:00",
        "shop": "electronics",
        "wheelchair": "no"
      }
    },
    {
      "type": "node",
      "id": 4063559076,
      "lat": 12.9453821,
      "lon": 77.6289419,
      "tags": {
        "amenity": "fast_food",
        "cuisine": "chinese",
        "internet_access": "no",
        "name": "Bob's Chinese Fast Food",
        "name:kn": "ಬಾಬ್ಸ್ ಚೈನೀಸ್ ಸೆಂಟರ್",
        "opening_hours": "09:30-13:30,14:30-21:00",
        "takeaway": "yes",
        "wheelchair": "no"
      }
    },
    {
      "type": "node",
      "id": 4063559077,
      "lat": 12.9457828,
      "lon": 77.6289521,
      "tags": {
        "name": "Hari Jewelers",
        "name:kn": "ಹರಿ ಚಿನ್ನದಂಗಡಿ",
        "shop": "jewelry"
      }
    },
    {
      "type": "node",
      "id": 4063559078,
      "lat": 12.9452772,
      "lon": 77.6289318,
      "tags": {
        "name": "Kanthi Enterprises",
        "name:kn": "ಕಾಂತಿ ಎಂಟರ್‌ಪ್ರೈಸಸ್",
        "operator": "Hathway Internet",
        "shop": "yes",
        "type": "Internet Service Provider"
      }
    },
    {
      "type": "node",
      "id": 4063559079,
      "lat": 12.9455056,
      "lon": 77.6289457,
      "tags": {
        "name": "M Srinivas Electricals",
        "name:kn": "ಎಂ ಶ್ರೀನಿವಾಸ ಎಲಕ್ಟ್ರಿಕಲ್ಸ್",
        "opening_hours": "09:30-13:30,14:30-21:00",
        "shop": "electronics",
        "wheelchair": "no"
      }
    },
    {
      "type": "node",
      "id": 4063559080,
      "lat": 12.9455852,
      "lon": 77.6289464,
      "tags": {
        "name": "Sapna Mobiles",
        "name:kn": "ಸಪ್ನ ಮೊಬೈಲ್ಸ್",
        "opening_hours": "09:30-13:30,14:30-21:00",
        "recharge": "yes",
        "shop": "mobile_phone",
        "wheelchair": "no"
      }
    },
    {
      "type": "node",
      "id": 4063559081,
      "lat": 12.9454537,
      "lon": 77.6289432,
      "tags": {
        "name": "Sri Venkataeshwara Saloon",
        "name:kn": "ಶ್ರೀ ವೆಂಕಟೇಶ್ವರ ಸಲೂನ್",
        "opening_hours": "09:30-13:30,14:30-21:00",
        "shop": "hairdresser",
        "wheelchair": "no"
      }
    },
    {
      "type": "node",
      "id": 4063559082,
      "lat": 12.9456667,
      "lon": 77.6289508,
      "tags": {
        "name": "Style Hairdresses",
        "name:kn": "ಸ್ಟೈಲ್ ಹೇರ್ ಡ್ರೆಸಸ್",
        "opening_hours": "09:30-13:30,14:30-21:00",
        "shop": "hairdresser",
        "wheelchair": "no"
      }
    },
    {
      "type": "node",
      "id": 4063559083,
      "lat": 12.9455457,
      "lon": 77.6289451,
      "tags": {
        "name": "TMS Provision Stores",
        "name:kn": "ಟಿಎಂಎಸ್ ಕಿರಾಣಿ ಅಂಗಡಿ",
        "opening_hours": "09:30-13:30,14:30-21:00",
        "shop": "convenience",
        "wheelchair": "no"
      }
    },
    {
      "type": "node",
      "id": 4063559086,
      "lat": 12.945892,
      "lon": 77.6289533,
      "tags": {
        "shop": "medical_supply",
        "wheelchair": "no"
      }
    },
    {
      "type": "node",
      "id": 4063568039,
      "lat": 12.945121,
      "lon": 77.6289356,
      "tags": {
        "name": "Fashion Point Cloth Store",
        "name:kn": "ಫ್ಯಾಷನ್ ಪಾಯಿಂಟ್ ಬಟ್ಟೆ ಅಂಗಡಿ",
        "opening_hours": "09:30-13:30,14:30-21:00",
        "second_hand": "no",
        "shop": "clothes",
        "wheelchair": "no"
      }
    },
    {
      "type": "node",
      "id": 4063568040,
      "lat": 12.9450827,
      "lon": 77.6289375,
      "tags": {
        "name": "Fresh Bakery Cake",
        "name:kn": "ಫ್ರೆಷ್ ಬೇಕರಿ ಕೇಕ್",
        "opening_hours": "09:30-13:30,14:30-21:00",
        "shop": "bakery",
        "wheelchair": "no"
      }
    },
    {
      "type": "node",
      "id": 4063568041,
      "lat": 12.9449308,
      "lon": 77.6289299,
      "tags": {
        "name": "Karnataka Stores",
        "name:kn": "ಕರ್ನಾಟಕ ಸ್ಟೋರ್ಸ್",
        "opening_hours": "09:30-13:30,14:30-21:00",
        "shop": "greengrocer",
        "wheelchair": "no"
      }
    },
    {
      "type": "node",
      "id": 4063568042,
      "lat": 12.9451981,
      "lon": 77.6289343,
      "tags": {
        "name": "New Hindustan Furnitures",
        "name:kn": "ನ್ಊ ಹಿಂದೂಸ್ಥಾನ್ ಫರ್ನಿಚರ್ಸ್",
        "opening_hours": "09:30-13:30,14:30-21:00",
        "shop": "furniture",
        "wheelchair": "no"
      }
    },
    {
      "type": "node",
      "id": 4063568043,
      "lat": 12.9451555,
      "lon": 77.6289394,
      "tags": {
        "name": "Public Distribution Shop",
        "name:kn": "ನ್ಯಾಯ ಬೆಲೆ ಅಂಗಡಿ",
        "opening_hours": "Mo-Fr 08:30-20:00; Sa,Su 08:00-15:00; PH off",
        "shop": "convenience",
        "wheelchair": "no"
      }
    },
    {
      "type": "node",
      "id": 4063568044,
      "lat": 12.944858,
      "lon": 77.6289267,
      "tags": {
        "name": "SMR Star Garriage",
        "name:kn": "ಎಸ್ಎಂಆರ್ ಸ್ಟಾರ್ ಗ್ಯಾರೇಜ್",
        "shop": "motorcycle_repair"
      }
    },
    {
      "type": "node",
      "id": 4063568045,
      "lat": 12.9452383,
      "lon": 77.6289337,
      "tags": {
        "name": "Sairam Xerox",
        "name:kn": "ಸಾಯಿರಾಮ್ ಜೆರಾಕ್ಸ್",
        "opening_hours": "09:30-13:30,14:30-21:00",
        "shop": "copyshop",
        "wheelchair": "no"
      }
    },
    {
      "type": "node",
      "id": 4063568046,
      "lat": 12.9449987,
      "lon": 77.6289375,
      "tags": {
        "name": "Santosh Paan Shop",
        "name:kn": "ಸಂತೋಷ್ ಪಾನ್ ಅಂಗಡಿ",
        "opening_hours": "09:30-13:30,14:30-21:00",
        "shop": "confectionery",
        "wheelchair": "no"
      }
    },
    {
      "type": "node",
      "id": 4063568047,
      "lat": 12.9449012,
      "lon": 77.6289255,
      "tags": {
        "name": "Tea Shop",
        "name:kn": "ಟೀ ಅಂಗಡಿ",
        "opening_hours": "09:30-13:30,14:30-21:00",
        "shop": "beverages",
        "wheelchair": "no"
      }
    },
    {
      "type": "node",
      "id": 4063568048,
      "lat": 12.9449679,
      "lon": 77.628935,
      "tags": {
        "amenity": "recycling",
        "recycling:paper": "yes",
        "recycling_type": "centre"
      }
    },
    {
      "type": "node",
      "id": 4063568050,
      "lat": 12.9450345,
      "lon": 77.6289388,
      "tags": {
        "amenity": "atm",
        "brand": "Karur Vysya Bank",
        "brand:wikidata": "Q6373724",
        "name": "Karur Vysya Bank",
        "name:kn": "ಕರೂರು ವೈಶ್ಯ ಬ್ಯಾಂಕ್",
        "opening_hours": "24/7",
        "operator": "Karur Vysya Bank",
        "operator:wikidata": "Q6373724",
        "wheelchair": "no"
      }
    },
    {
      "type": "node",
      "id": 4446872947,
      "lat": 12.9422807,
      "lon": 77.6208282,
      "tags": {
        "addr:city": "bangalore",
        "addr:housenumber": "727",
        "addr:postcode": "560095",
        "addr:street": ", 8th Block, 1st Main, Opposite Shiva Theater, 2nd C Cross Rd, Koramangala 8th Block, Koramangala",
        "amenity": "clinic",
        "healthcare": "clinic",
        "name": "Shradha Nursing Home",
        "phone": "080 2290 3660"
      }
    },
    {
      "type": "node",
      "id": 4447082865,
      "lat": 12.9495697,
      "lon": 77.6182599,
      "tags": {
        "addr:city": "bangalore",
        "addr:housenumber": "999",
        "addr:postcode": "560034",
        "addr:street": "80 Feet Road, Koramangala 1st Block, HSR Layout",
        "amenity": "pharmacy",
        "name": "Sri Balaji Medicals",
        "phone": "+9180 2552 9317",
        "source": "justdial"
      }
    },
    {
      "type": "node",
      "id": 4466385493,
      "lat": 12.9438501,
      "lon": 77.6189683,
      "tags": {
        "addr:housenumber": "67",
        "addr:postcode": "560095",
        "addr:street": "2 D Main",
        "amenity": "post_office",
        "email": "shintojoseph55@gmail.com",
        "internet_access": "wlan",
        "name": "Koramangala",
        "name:hi": "Koramangala",
        "name:kn": "ಕೋರಮಂಗಲ",
        "opening_hours": "24/7",
        "operator": "Herbalife products",
        "phone": "9663727834"
      }
    },
    {
      "type": "node",
      "id": 4487961417,
      "lat": 12.9452356,
      "lon": 77.6184676,
      "tags": {
        "addr:city": "bangalore",
        "addr:postcode": "560068",
        "addr:street": "ICICI Lombard General Insurance Madivala Bangalore, 2nd Floor, S V R Complex 89, Hosur Main Road,, Madiwala, 1st Stage, Koramangala",
        "brand": "Puma",
        "brand:wikidata": "Q157064",
        "name": "Puma",
        "phone": "+9194003 77812",
        "shop": "clothes"
      }
    },
    {
      "type": "node",
      "id": 4489711219,
      "lat": 12.9540446,
      "lon": 77.617207,
      "tags": {
        "addr:city": "Bangalore",
        "addr:housenumber": "No.639, 100 Feet Road",
        "addr:postcode": "560095",
        "addr:street": "Koramangala",
        "name": "Aurora Thai",
        "opening_hours": "09:30-22:00",
        "phone": "9632201133",
        "shop": "beauty",
        "website": "www.aurorathai.com"
      }
    },
    {
      "type": "node",
      "id": 4489788239,
      "lat": 12.9418541,
      "lon": 77.6256581,
      "tags": {
        "addr:street": "Builders Ngv Club, Koramangala 6th block, 6th Block, Koramangala,",
        "leisure": "sports_centre",
        "name": "Fitness Cafe",
        "opening_hours": "5:00-22:00",
        "phone": "9611578950",
        "sport": "gymnasium",
        "website": "https://www.fitnesscafe.in/"
      }
    },
    {
      "type": "node",
      "id": 4548857590,
      "lat": 12.9563091,
      "lon": 77.6208965,
      "tags": {
        "amenity": "place_of_worship",
        "name": "Ranganathar Andal Temple",
        "name:en": "Ranganathar Andal Temple",
        "religion": "hindu"
      }
    },
    {
      "type": "node",
      "id": 4548858192,
      "lat": 12.9568231,
      "lon": 77.6188771,
      "tags": {
        "amenity": "place_of_worship",
        "historic": "yes",
        "name": "Sri Kasi Vishwanathar Temple",
        "name:en": "Sri Kasi Vishwanathar Temple",
        "religion": "hindu",
        "start_date": "1887"
      }
    },
    {
      "type": "node",
      "id": 4548885790,
      "lat": 12.9564486,
      "lon": 77.6207504,
      "tags": {
        "amenity": "place_of_worship",
        "name": "Karumariamman Temple",
        "name:en": "Karumariamman Temple",
        "name:kn": "ಕರುಮರಿಯಮ್ಮನ್ ದೇವಸ್ಥಾನ",
        "religion": "hindu"
      }
    },
    {
      "type": "node",
      "id": 4548888989,
      "lat": 12.9564566,
      "lon": 77.6209088,
      "tags": {
        "amenity": "place_of_worship",
        "name": "Murugan Temple",
        "name:en": "Murugan Temple",
        "name:kn": "ಮುರುಗನ್ ದೇವಸ್ಥಾನ",
        "religion": "hindu"
      }
    },
    {
      "type": "node",
      "id": 4719908532,
      "lat": 12.9446893,
      "lon": 77.6236964,
      "tags": {
        "leisure": "park"
      }
    },
    {
      "type": "node",
      "id": 5273078605,
      "lat": 12.9409559,
      "lon": 77.6241477,
      "tags": {
        "amenity": "pub",
        "name": "Jimi's Beer Cafe"
      }
    },
    {
      "type": "node",
      "id": 5803867127,
      "lat": 12.9499659,
      "lon": 77.6209707,
      "tags": {
        "amenity": "bench",
        "backrest": "yes"
      }
    },
    {
      "type": "node",
      "id": 5803867128,
      "lat": 12.9491329,
      "lon": 77.6213403,
      "tags": {
        "amenity": "bench",
        "backrest": "yes"
      }
    },
    {
      "type": "node",
      "id": 5803867141,
      "lat": 12.9492812,
      "lon": 77.621791,
      "tags": {
        "amenity": "bench"
      }
    },
    {
      "type": "node",
      "id": 5915195097,
      "lat": 12.9418151,
      "lon": 77.6222238,
      "tags": {
        "amenity": "place_of_worship",
        "name": "Sai Sparshan",
        "religion": "hindu"
      }
    },
    {
      "type": "node",
      "id": 6347074655,
      "lat": 12.9552253,
      "lon": 77.6210383,
      "tags": {
        "addr:place": "Vivekangara",
        "amenity": "school",
        "isced:level": "2",
        "name": "GKHPS Vivekangara",
        "name:kn": "ಸರ್ಕಾರಿ ಹಿರಿಯ ಕನ್ನಡ ಪ್ರಾಥಮಿಕ ಶಾಲೆ ವಿವೇಕನಗರ",
        "operator": "Department of Education",
        "school": "primary"
      }
    },
    {
      "type": "node",
      "id": 6347080518,
      "lat": 12.9551126,
      "lon": 77.6210785,
      "tags": {
        "addr:place": "Vivekanagara",
        "amenity": "school",
        "isced:level": "2",
        "name": "GTELPS Vivekanagara",
        "name:kn": "ಸರ್ಕಾರಿ ತೆಲುಗು ಪ್ರಾಥಮಿಕ ಶಾಲೆ ವಿವೇಕನಗರ",
        "operator": "Department of Education",
        "school": "primary"
      }
    },
    {
      "type": "node",
      "id": 6348847356,
      "lat": 12.9475264,
      "lon": 77.6171647,
      "tags": {
        "addr:place": "Rajendranagar",
        "amenity": "school",
        "isced:level": "2",
        "name": "GUHPS Rajendranagar",
        "name:kn": "ಸರ್ಕಾರಿ ಉರ್ದು ಹಿರಿಯ ಪ್ರಾಥಮಿಕ ಶಾಲೆ ರಾಜೇಂದ್ರನಗರ",
        "operator": "Department of Primary and Secondary Education",
        "operator:type": "government",
        "operator:wikidata": "Q111467381",
        "school": "primary"
      }
    },
    {
      "type": "node",
      "id": 6348868701,
      "lat": 12.94766,
      "lon": 77.6182798,
      "tags": {
        "addr:place": "Koramangala",
        "amenity": "school",
        "isced:level": "2",
        "name": "Koramangala K&T HPS",
        "name:kn": "ಕೋರಮಂಗಲ ಕೆ.ಟಿ ಹಿರಿಯ ಪ್ರಾಥಮಿಕ ಶಾಲೆ",
        "operator": "Department of Primary and Secondary Education",
        "operator:type": "government",
        "operator:wikidata": "Q111467381",
        "school": "primary"
      }
    },
    {
      "type": "node",
      "id": 6348880655,
      "lat": 12.9436634,
      "lon": 77.6189383,
      "tags": {
        "addr:place": "Koramangala",
        "amenity": "school",
        "isced:level": "2",
        "name": "GMPS Koramangala",
        "name:kn": "ಸರ್ಕಾರಿ ಮಾದರಿ ಪ್ರಾಥಮಿಕ ಶಾಲೆ ಕೋರಮಂಗಲ",
        "operator": "Department of Primary and Secondary Education",
        "operator:type": "government",
        "operator:wikidata": "Q111467381",
        "school": "primary"
      }
    },
    {
      "type": "node",
      "id": 6348899089,
      "lat": 12.94917,
      "lon": 77.6188547,
      "tags": {
        "addr:place": "Koramangala",
        "amenity": "school",
        "isced:level": "2",
        "name": "Shivaganga HPS Koramangala",
        "name:kn": "ಶಿವಗಂಗಾ ಹಿರಿಯ ಪ್ರಾಥಮಿಕ ಶಾಲೆ ಕೋರಮಂಗಲ",
        "operator": "Department of Primary and Secondary Education",
        "operator:type": "government",
        "operator:wikidata": "Q111467381",
        "school": "primary"
      }
    },
    {
      "type": "node",
      "id": 6349003902,
      "lat": 12.9447434,
      "lon": 77.6296536,
      "tags": {
        "addr:place": "Eegipura",
        "amenity": "school",
        "isced:level": "2",
        "name": "GHPS Eegipura",
        "name:kn": "ಸರ್ಕಾರಿ ಹಿರಿಯ ಪ್ರಾಥಮಿಕ ಶಾಲೆ ಈಜಿಪುರ",
        "operator": "Department of Primary and Secondary Education",
        "operator:type": "government",
        "operator:wikidata": "Q111467381",
        "school": "primary"
      }
    },
    {
      "type": "node",
      "id": 6408995812,
      "lat": 12.9541946,
      "lon": 77.6185446,
      "tags": {
        "addr:place": "Viveka, Austin Town",
        "amenity": "school",
        "isced:level": "2",
        "name": "Bala Aesu Vidyalaya HPS Viveka, Austin Town W No 71",
        "name:kn": "ಬಾಲಾ ಏಸು ವಿದ್ಯಾಲಯ ಹಿರಿಯ ಪ್ರಾಥಮಿಕ ಶಾಲೆ ವಿವೇಕನಗರ,ಆಸ್ಟಿನ್‌ಟೌನ್‌",
        "operator": "Private Un-Aided",
        "school": "Higher Primary"
      }
    },
    {
      "type": "node",
      "id": 6420770985,
      "lat": 12.9531262,
      "lon": 77.6204588,
      "tags": {
        "addr:place": "Austin Town",
        "amenity": "school",
        "isced:level": "3",
        "name": "Shanthinikethan HPS Vivekanag, Austin Town W No 71",
        "name:kn": "ಶಾಂತಿನಿಕೇತನ ಹಿರಿಯ ಪ್ರಾಥಮಿಕ ಶಾಲೆ ವಿವೇಕನಗರ, ಆಸ್ಟಿನ್‌ಟೌನ್‌",
        "operator": "Private Un-Aided",
        "school": "Higher Secondary"
      }
    },
    {
      "type": "node",
      "id": 6536283049,
      "lat": 12.9505983,
      "lon": 77.6153935,
      "tags": {
        "addr:place": "Koramangala",
        "amenity": "school",
        "isced:level": "1",
        "name": "Gk&TLPS L R Nagara, Koramangala",
        "name:kn": "ಜಿ.ಕೆ. ತೆಲುಗು ಕಿರಿಯ ಪ್ರಾಥಮಿಕ ಶಾಲೆ ಎಲ್.ಆರ್.ನಗರ, ಕೋರಮಂಗಲ",
        "operator": "Department of Primary and Secondary Education",
        "operator:type": "government",
        "operator:wikidata": "Q111467381",
        "school": "primary"
      }
    },
    {
      "type": "node",
      "id": 6536296262,
      "lat": 12.9448595,
      "lon": 77.6170535,
      "tags": {
        "addr:place": "Koramangala",
        "amenity": "school",
        "isced:level": "1",
        "name": "GLPS Rajendranagar, Koramangala",
        "name:kn": "ಸರ್ಕಾರಿ ಕಿರಿಯ ಪ್ರಾಥಮಿಕ ಶಾಲೆ ರಾಜೇಂದ್ರನಗರ,ಕೋರಮಂಗಲ",
        "operator": "Department of Primary and Secondary Education",
        "operator:type": "government",
        "operator:wikidata": "Q111467381",
        "school": "primary"
      }
    },
    {
      "type": "node",
      "id": 6536319890,
      "lat": 12.9515543,
      "lon": 77.6190638,
      "tags": {
        "addr:place": "Koramangala",
        "amenity": "school",
        "isced:level": "3",
        "name": "Sunshine HPS Lr Nagar, Koramangala",
        "name:kn": "ಸನ್ಶೈನ್ ಹಿರಿಯ ಪ್ರಾಥಮಿಕ ಶಾಲೆ ಎಲ್.ಆರ್.ನಗರ, ಕೋರಮಂಗಲ",
        "operator": "Private Un-Aided",
        "school": "Higher Secondary"
      }
    },
    {
      "type": "node",
      "id": 6536327169,
      "lat": 12.9447944,
      "lon": 77.6172545,
      "tags": {
        "addr:place": "Koramangala",
        "amenity": "school",
        "name": "Cephas Memorial Sch Rajendranagra, Koramangala",
        "name:kn": "ಸೆಫಾಸ್ ಸ್ಮಾರಕ ಶಾಲೆ ರಾಜೇಂದ್ರನಗರ, ಕೋರಮಂಗಲ"
      }
    },
    {
      "type": "node",
      "id": 6536955399,
      "lat": 12.9462573,
      "lon": 77.6173121,
      "tags": {
        "addr:place": "Madivala",
        "amenity": "school",
        "isced:level": "2",
        "name": "St. Sara Eng School Madiwala",
        "name:kn": "ಸೆಂಟ್ ಸಾರಾ ಆಂಗ್ಲ ಮಡಿವಾಳ",
        "operator": "Private Un-Aided",
        "school": "Higher Primary"
      }
    },
    {
      "type": "node",
      "id": 6702845916,
      "lat": 12.9568937,
      "lon": 77.6178658,
      "tags": {
        "addr:place": "Eegipura",
        "amenity": "school",
        "isced:level": "3",
        "name": "Holy Christ HPS Eegipura",
        "name:kn": "ಹೋಲಿ ಕ್ರೈಸ್ಟ್ ಹಿರಿಯ ಪ್ರಾಥಮಿಕ ಶಾಲೆ ಈಜಿಪುರ",
        "operator": "Private Un-Aided",
        "school": "Higher Secondary"
      }
    },
    {
      "type": "node",
      "id": 6734571279,
      "lat": 12.9447783,
      "lon": 77.6288038,
      "tags": {
        "addr:place": "Eegipura",
        "amenity": "school",
        "isced:level": "3",
        "name": "GHS Ejipura",
        "name:kn": "ಸರ್ಕಾರಿ ಹಿರಿಯ ಪ್ರಾಥಮಿಕ ಶಾಲೆ ಈಜಿಪುರ",
        "operator": "Department of Primary and Secondary Education",
        "operator:type": "government",
        "operator:wikidata": "Q111467381",
        "school": "Higher Secondary"
      }
    },
    {
      "type": "node",
      "id": 6734902089,
      "lat": 12.9500615,
      "lon": 77.624214,
      "tags": {
        "addr:place": "Eegipura",
        "amenity": "school",
        "isced:level": "3",
        "name": "Sathya Bama Gopal Eng HS",
        "name:kn": "ಸತ್ಯಭಾಮ ಗೋಪಾಲ್ ಆಂಗ್ಲ ಪ್ರೌಢಶಾಲೆ ಈಜಿಪುರ",
        "operator": "Private Un-Aided",
        "school": "Higher Secondary"
      }
    },
    {
      "type": "node",
      "id": 6745269432,
      "lat": 12.9499617,
      "lon": 77.6182698,
      "tags": {
        "addr:place": "Neelasandra",
        "amenity": "school",
        "isced:level": "3",
        "name": "Shanthinikethan HPS",
        "name:kn": "ಶಾಂತಿನಿಕೇತನ್ ಹಿರಿಯ ಪ್ರಾಥಮಿಕ ಶಾಲೆ ನೀಲಸಂದ್ರ",
        "operator": "Private Un-Aided",
        "school": "Higher Secondary"
      }
    },
    {
      "type": "node",
      "id": 6939253041,
      "lat": 12.9412109,
      "lon": 77.6238987,
      "tags": {
        "addr:district": "Bengaluru Urban",
        "addr:full": "#434, 18Th Main 80 Ft Road, 6Th Block, Opp Koramangala Bus Depot",
        "addr:housenumber": "434",
        "addr:postcode": "560095",
        "addr:state": "Karnataka",
        "addr:street": "18th Main Road",
        "amenity": "hospital",
        "check_date": "2024-01-10",
        "email": "care@devieyehospital.in",
        "full_name": "Devi Super Speciality Eye Hospital Pvt Ltd",
        "healthcare": "hospital",
        "healthcare:speciality": "multi speciality",
        "name": "Devi Eye Hospital",
        "operator:type": "private",
        "source": "OpenGovernmentData",
        "website": "http://www.devieyehospital.in/"
      }
    },
    {
      "type": "node",
      "id": 6947674447,
      "lat": 12.9543777,
      "lon": 77.6209764,
      "tags": {
        "addr:district": "Bengaluru Urban",
        "addr:full": "No.162, 4Th Main, Opposite Post Office, Viveknagar, 20Yds, Viveknagar Bus Stand",
        "addr:postcode": "560047",
        "addr:state": "Karnataka",
        "amenity": "hospital",
        "name": "Sri Ram Speciality Hospital",
        "source": "OpenGovernmentData"
      }
    },
    {
      "type": "node",
      "id": 6947701126,
      "lat": 12.9425676,
      "lon": 77.6224349,
      "tags": {
        "addr:district": "Bengaluru Urban",
        "addr:full": "Koramangala",
        "addr:postcode": "560095",
        "addr:state": "Karnataka",
        "amenity": "hospital",
        "healthcare": "hospital",
        "name": "Well Spring hospital",
        "source": "OpenGovernmentData"
      }
    },
    {
      "type": "node",
      "id": 6948552667,
      "lat": 12.9526616,
      "lon": 77.61503,
      "tags": {
        "addr:district": "Bengaluru Urban",
        "addr:full": "#20, 7Th Cross Rosegarden, Neelasandra",
        "addr:postcode": "560047",
        "addr:state": "Karnataka",
        "amenity": "hospital",
        "name": "Get Well Hospital",
        "source": "OpenGovernmentData"
      }
    },
    {
      "type": "node",
      "id": 9310793280,
      "lat": 12.9506267,
      "lon": 77.6237605,
      "tags": {
        "name": "Shine Bakery",
        "shop": "bakery"
      }
    },
    {
      "type": "node",
      "id": 9310793281,
      "lat": 12.9508998,
      "lon": 77.6234253,
      "tags": {
        "shop": "butcher"
      }
    },
    {
      "type": "node",
      "id": 9310793282,
      "lat": 12.9507267,
      "lon": 77.6234214,
      "tags": {
        "shop": "greengrocer"
      }
    },
    {
      "type": "node",
      "id": 9310793306,
      "lat": 12.9507407,
      "lon": 77.6233681,
      "tags": {
        "name": "Seven Sisters Northeast Shop",
        "shop": "convenience"
      }
    },
    {
      "type": "node",
      "id": 9310793307,
      "lat": 12.9507013,
      "lon": 77.6235404,
      "tags": {
        "amenity": "restaurant",
        "delivery": "yes",
        "name": "Maven Kitchen",
        "takeaway": "yes"
      }
    },
    {
      "type": "node",
      "id": 9933650417,
      "lat": 12.9434734,
      "lon": 77.6212956,
      "tags": {
        "check_date": "2023-09-09",
        "name": "Cherry Pick Furniture",
        "shop": "furniture"
      }
    },
    {
      "type": "node",
      "id": 9951289022,
      "lat": 12.9487106,
      "lon": 77.619815,
      "tags": {
        "amenity": "place_of_worship",
        "name": "Salvation Prayer Church",
        "religion": "christian"
      }
    },
    {
      "type": "node",
      "id": 9951289023,
      "lat": 12.950313,
      "lon": 77.6212433,
      "tags": {
        "amenity": "fast_food",
        "brand": "Indira Canteen",
        "brand:wikidata": "Q36164828",
        "cuisine": "south_indian",
        "name": "Indira Canteen",
        "operator": "BBMP",
        "takeaway": "yes"
      }
    },
    {
      "type": "node",
      "id": 9951289027,
      "lat": 12.9512174,
      "lon": 77.6214015,
      "tags": {
        "brand": "Nandini Dairy",
        "name": "Nandini",
        "shop": "dairy"
      }
    },
    {
      "type": "node",
      "id": 10036557117,
      "lat": 12.9449962,
      "lon": 77.6194713,
      "tags": {
        "name": "Akshara Motors",
        "shop": "car"
      }
    },
    {
      "type": "node",
      "id": 10036557217,
      "lat": 12.9448081,
      "lon": 77.6197397,
      "tags": {
        "name": "Advaith Hyundai",
        "name:kn": "ಅದ್ವೈತ ಹ್ಯುಂಡೈ",
        "shop": "car"
      }
    },
    {
      "type": "node",
      "id": 10036561217,
      "lat": 12.9449334,
      "lon": 77.6196372,
      "tags": {
        "amenity": "clinic",
        "name": "IVF Access - Fertility Clinic"
      }
    },
    {
      "type": "node",
      "id": 10036567521,
      "lat": 12.9451177,
      "lon": 77.6200265,
      "tags": {
        "amenity": "fast_food",
        "brand": "McDonald's",
        "brand:wikidata": "Q38076",
        "cuisine": "burger",
        "name": "McDonald's",
        "takeaway": "yes"
      }
    },
    {
      "type": "node",
      "id": 10036568019,
      "lat": 12.9436787,
      "lon": 77.6211534,
      "tags": {
        "amenity": "restaurant",
        "name": "Coasta"
      }
    },
    {
      "type": "node",
      "id": 10036568120,
      "lat": 12.9433532,
      "lon": 77.6215421,
      "tags": {
        "name": "Liquor Mart",
        "shop": "alcohol"
      }
    },
    {
      "type": "node",
      "id": 10036568121,
      "lat": 12.943275,
      "lon": 77.6216701,
      "tags": {
        "name": "Manu Pit Stop",
        "shop": "car_repair"
      }
    },
    {
      "type": "node",
      "id": 10036602717,
      "lat": 12.9450064,
      "lon": 77.620248,
      "tags": {
        "addr:city": "Bengaluru",
        "addr:street": "80 Feet Road",
        "air_conditioning": "yes",
        "brand": "Zudio",
        "brand:wikidata": "Q123375926",
        "clothes": "women;men;underwear;children;denim",
        "name": "Zudio",
        "opening_hours": "Mo-Su 11:00-21:00",
        "payment:cash": "yes",
        "payment:contactless": "yes",
        "payment:credit_cards": "yes",
        "payment:debit_cards": "yes",
        "payment:mastercard": "yes",
        "payment:visa": "yes",
        "shop": "clothes",
        "website": "https://www.zudio.com/"
      }
    },
    {
      "type": "node",
      "id": 10036648017,
      "lat": 12.942727,
      "lon": 77.6222852,
      "tags": {
        "name": "My Tech World",
        "shop": "computer"
      }
    },
    {
      "type": "node",
      "id": 10036648018,
      "lat": 12.9423709,
      "lon": 77.6226909,
      "tags": {
        "name": "Just Dogs",
        "shop": "pet"
      }
    },
    {
      "type": "node",
      "id": 10036648022,
      "lat": 12.941012,
      "lon": 77.6241505,
      "tags": {
        "amenity": "restaurant",
        "name": "The Coorg Food Company"
      }
    },
    {
      "type": "node",
      "id": 10036648023,
      "lat": 12.9408608,
      "lon": 77.6243138,
      "tags": {
        "amenity": "restaurant",
        "check_date": "2023-11-30",
        "name": "Biriyani Depot"
      }
    },
    {
      "type": "node",
      "id": 10036648117,
      "lat": 12.9423282,
      "lon": 77.6226526,
      "tags": {
        "amenity": "bank",
        "name": "HDFC Home Loans"
      }
    },
    {
      "type": "node",
      "id": 10036648118,
      "lat": 12.9425012,
      "lon": 77.6229374,
      "tags": {
        "name": "H.K.G.N Bike Mechanic",
        "shop": "motorcycle_repair"
      }
    },
    {
      "type": "node",
      "id": 10036648119,
      "lat": 12.9417161,
      "lon": 77.6233404,
      "tags": {
        "amenity": "bank",
        "atm": "yes",
        "brand": "Ujjivan Small Finance Bank",
        "brand:wikidata": "Q42529272",
        "name": "Ujjivan Small Finance Bank"
      }
    },
    {
      "type": "node",
      "id": 10036648121,
      "lat": 12.940938,
      "lon": 77.6241703,
      "tags": {
        "amenity": "pharmacy",
        "healthcare": "pharmacy",
        "name": "Vitamin Galaxy"
      }
    },
    {
      "type": "node",
      "id": 10036648122,
      "lat": 12.9409106,
      "lon": 77.6242697,
      "tags": {
        "amenity": "cafe",
        "name": "Tea Coffee House"
      }
    },
    {
      "type": "node",
      "id": 10036648217,
      "lat": 12.9422163,
      "lon": 77.6228522,
      "tags": {
        "amenity": "bank",
        "brand": "RBL Bank",
        "brand:wikidata": "Q13120398",
        "name": "RBL Bank"
      }
    },
    {
      "type": "node",
      "id": 10036648218,
      "lat": 12.9419888,
      "lon": 77.6230815,
      "tags": {
        "amenity": "restaurant",
        "name": "Madurai Restaurant"
      }
    },
    {
      "type": "node",
      "id": 10036648219,
      "lat": 12.9414494,
      "lon": 77.6236346,
      "tags": {
        "amenity": "cafe",
        "check_date": "2023-11-30",
        "name": "Cafe Five Guys"
      }
    },
    {
      "type": "node",
      "id": 10036648317,
      "lat": 12.942267,
      "lon": 77.6228332,
      "tags": {
        "amenity": "atm",
        "brand": "RBL Bank",
        "brand:wikidata": "Q13120398",
        "operator": "RBL Bank",
        "operator:wikidata": "Q13120398"
      }
    },
    {
      "type": "node",
      "id": 10036648318,
      "lat": 12.9420181,
      "lon": 77.6229498,
      "tags": {
        "amenity": "bank",
        "brand": "HDFC Bank",
        "brand:wikidata": "Q631047",
        "name": "HDFC Bank",
        "short_name": "HDFC"
      }
    },
    {
      "type": "node",
      "id": 10036648417,
      "lat": 12.9420232,
      "lon": 77.6230093,
      "tags": {
        "amenity": "atm",
        "brand": "HDFC Bank",
        "brand:wikidata": "Q631047",
        "operator": "HDFC Bank",
        "operator:wikidata": "Q631047",
        "short_name": "HDFC"
      }
    },
    {
      "type": "node",
      "id": 10036648517,
      "lat": 12.9415824,
      "lon": 77.6235081,
      "tags": {
        "amenity": "dentist",
        "name": "Sabka Dentist"
      }
    },
    {
      "type": "node",
      "id": 10036648518,
      "lat": 12.9413673,
      "lon": 77.6240803,
      "tags": {
        "name": "Puncture Shop",
        "shop": "motorcycle"
      }
    },
    {
      "type": "node",
      "id": 10036648617,
      "lat": 12.9408618,
      "lon": 77.6242481,
      "tags": {
        "name": "Retreat Spa & Salon",
        "shop": "massage"
      }
    },
    {
      "type": "node",
      "id": 10047367417,
      "lat": 12.9551097,
      "lon": 77.6207198,
      "tags": {
        "name": "Epson Service Centre",
        "shop": "computer"
      }
    },
    {
      "type": "node",
      "id": 10095556617,
      "lat": 12.9438945,
      "lon": 77.6284681,
      "tags": {
        "name": "Mathrusree Bakery",
        "shop": "bakery"
      }
    },
    {
      "type": "node",
      "id": 10095556618,
      "lat": 12.9434986,
      "lon": 77.6284529,
      "tags": {
        "name": "SAS Vision Optics",
        "shop": "optician"
      }
    },
    {
      "type": "node",
      "id": 10095556717,
      "lat": 12.9436376,
      "lon": 77.6284598,
      "tags": {
        "name": "Sasta Mandi",
        "shop": "greengrocer"
      }
    },
    {
      "type": "node",
      "id": 10095556817,
      "lat": 12.9435297,
      "lon": 77.628548,
      "tags": {
        "amenity": "fast_food",
        "name": "C.Kosila Kitchen"
      }
    },
    {
      "type": "node",
      "id": 10095556917,
      "lat": 12.9436474,
      "lon": 77.62853,
      "tags": {
        "name": "KK Store",
        "shop": "convenience"
      }
    },
    {
      "type": "node",
      "id": 10095557017,
      "lat": 12.9434116,
      "lon": 77.6284322,
      "tags": {
        "amenity": "dentist",
        "name": "Devi Dental Clinic"
      }
    },
    {
      "type": "node",
      "id": 10098185417,
      "lat": 12.9512726,
      "lon": 77.6222965,
      "tags": {
        "name": "Deepa Condiments",
        "shop": "convenience"
      }
    },
    {
      "type": "node",
      "id": 10098185418,
      "lat": 12.9512117,
      "lon": 77.6224293,
      "tags": {
        "name": "Manjunatha Liquor",
        "shop": "alcohol"
      }
    },
    {
      "type": "node",
      "id": 10098185419,
      "lat": 12.9510939,
      "lon": 77.6225922,
      "tags": {
        "amenity": "bank",
        "name": "Sangha Mitra Credit Co-Operative Society"
      }
    },
    {
      "type": "node",
      "id": 10098185420,
      "lat": 12.9511094,
      "lon": 77.6226696,
      "tags": {
        "amenity": "fast_food",
        "name": "Bilal Biryani House"
      }
    },
    {
      "type": "node",
      "id": 10098185517,
      "lat": 12.9512393,
      "lon": 77.6223758,
      "tags": {
        "amenity": "fast_food",
        "name": "Sree Durga Donne Biryani"
      }
    },
    {
      "type": "node",
      "id": 10098185518,
      "lat": 12.9511568,
      "lon": 77.622471,
      "tags": {
        "name": "M.R.P Liquor Shop",
        "shop": "alcohol"
      }
    },
    {
      "type": "node",
      "id": 10098185520,
      "lat": 12.9513766,
      "lon": 77.6225836,
      "tags": {
        "name": "Hyper Bazaar",
        "shop": "department_store"
      }
    },
    {
      "type": "node",
      "id": 10098185617,
      "lat": 12.9511615,
      "lon": 77.6225552,
      "tags": {
        "amenity": "clinic",
        "name": "Sanjith Clinic"
      }
    },
    {
      "type": "node",
      "id": 10098185618,
      "lat": 12.9510923,
      "lon": 77.6227055,
      "tags": {
        "name": "Brite’s Fresh Chicken",
        "shop": "butcher"
      }
    },
    {
      "type": "node",
      "id": 10098185717,
      "lat": 12.9511416,
      "lon": 77.6225971,
      "tags": {
        "name": "Shree Durga Bakery",
        "shop": "bakery"
      }
    },
    {
      "type": "node",
      "id": 10098185718,
      "lat": 12.9510408,
      "lon": 77.6228088,
      "tags": {
        "name": "Good Will Motors",
        "shop": "motorcycle"
      }
    },
    {
      "type": "node",
      "id": 10101174017,
      "lat": 12.9509802,
      "lon": 77.6228981,
      "tags": {
        "name": "Nandini Milk Products",
        "shop": "farm"
      }
    },
    {
      "type": "node",
      "id": 10101174018,
      "lat": 12.9509127,
      "lon": 77.6230621,
      "tags": {
        "amenity": "pharmacy",
        "healthcare": "pharmacy",
        "name": "United Medicals"
      }
    },
    {
      "type": "node",
      "id": 10101174019,
      "lat": 12.9509055,
      "lon": 77.6231072,
      "tags": {
        "amenity": "bar",
        "name": "Madhura Bar and Restaurant"
      }
    },
    {
      "type": "node",
      "id": 10101174117,
      "lat": 12.9508521,
      "lon": 77.6228252,
      "tags": {
        "name": "Pork Shop",
        "shop": "butcher"
      }
    },
    {
      "type": "node",
      "id": 10101174118,
      "lat": 12.9509475,
      "lon": 77.6229392,
      "tags": {
        "name": "Sri Murugan Stores",
        "shop": "grocery"
      }
    },
    {
      "type": "node",
      "id": 10101174119,
      "lat": 12.9509346,
      "lon": 77.6230113,
      "tags": {
        "name": "Sun Jyothi Bakery",
        "shop": "bakery"
      }
    },
    {
      "type": "node",
      "id": 10101174120,
      "lat": 12.9509274,
      "lon": 77.6230416,
      "tags": {
        "name": "Asian Enterprises",
        "shop": "hardware"
      }
    },
    {
      "type": "node",
      "id": 10101174121,
      "lat": 12.9509774,
      "lon": 77.6230906,
      "tags": {
        "name": "Fruit Stall",
        "shop": "greengrocer"
      }
    },
    {
      "type": "node",
      "id": 10101174122,
      "lat": 12.9509673,
      "lon": 77.623189,
      "tags": {
        "amenity": "pharmacy",
        "healthcare": "pharmacy",
        "name": "Bright Medicals"
      }
    },
    {
      "type": "node",
      "id": 10101174123,
      "lat": 12.9509965,
      "lon": 77.6231889,
      "tags": {
        "name": "Dean Laundry",
        "shop": "laundry"
      }
    },
    {
      "type": "node",
      "id": 10101174417,
      "lat": 12.9509598,
      "lon": 77.6231109,
      "tags": {
        "amenity": "fast_food",
        "name": "Bajji Stall"
      }
    },
    {
      "type": "node",
      "id": 10101174617,
      "lat": 12.9509357,
      "lon": 77.6231929,
      "tags": {
        "name": "X Longe",
        "shop": "clothes"
      }
    },
    {
      "type": "node",
      "id": 10105887517,
      "lat": 12.94215,
      "lon": 77.6279445,
      "tags": {
        "name": "Sri Venkateshwara Vegetables and Fruits",
        "shop": "greengrocer"
      }
    },
    {
      "type": "node",
      "id": 10106533117,
      "lat": 12.9513201,
      "lon": 77.622873,
      "tags": {
        "name": "Yuvaratna Appu Salon Shop",
        "shop": "hairdresser"
      }
    },
    {
      "type": "node",
      "id": 10106533217,
      "lat": 12.9513036,
      "lon": 77.6229768,
      "tags": {
        "amenity": "restaurant",
        "name": "Brindavan Andhra Style"
      }
    },
    {
      "type": "node",
      "id": 10106533218,
      "lat": 12.9513411,
      "lon": 77.6230341,
      "tags": {
        "amenity": "kindergarten",
        "name": "A.V.Kids Kindergarten"
      }
    },
    {
      "type": "node",
      "id": 10106533317,
      "lat": 12.9512846,
      "lon": 77.6230246,
      "tags": {
        "amenity": "bank",
        "name": "Muthoottu Mini Financiers"
      }
    },
    {
      "type": "node",
      "id": 10106533318,
      "lat": 12.9512774,
      "lon": 77.6231042,
      "tags": {
        "name": "Sri Murugan Hyper Mart",
        "shop": "department_store"
      }
    },
    {
      "type": "node",
      "id": 10116658722,
      "lat": 12.9508407,
      "lon": 77.6235723,
      "tags": {
        "name": "Magic Bags and Footwear",
        "shop": "shoes"
      }
    },
    {
      "type": "node",
      "id": 10116658723,
      "lat": 12.9506947,
      "lon": 77.6235728,
      "tags": {
        "amenity": "fast_food",
        "cuisine": "juice",
        "name": "Juice Shop"
      }
    },
    {
      "type": "node",
      "id": 10116658724,
      "lat": 12.9506787,
      "lon": 77.6236538,
      "tags": {
        "amenity": "fast_food",
        "name": "Icy Spicy"
      }
    },
    {
      "type": "node",
      "id": 10116658725,
      "lat": 12.9508146,
      "lon": 77.6237047,
      "tags": {
        "name": "S.R.V Vegetable and Fruits",
        "shop": "greengrocer"
      }
    },
    {
      "type": "node",
      "id": 10116658726,
      "lat": 12.9508202,
      "lon": 77.6236716,
      "tags": {
        "name": "Grocer",
        "shop": "convenience"
      }
    },
    {
      "type": "node",
      "id": 10116658727,
      "lat": 12.9508248,
      "lon": 77.6236033,
      "tags": {
        "name": "Magic",
        "shop": "mobile_phone"
      }
    },
    {
      "type": "node",
      "id": 10116658728,
      "lat": 12.9509047,
      "lon": 77.6236201,
      "tags": {
        "name": "Happy Land",
        "shop": "toys"
      }
    },
    {
      "type": "node",
      "id": 10116658729,
      "lat": 12.9507135,
      "lon": 77.6234929,
      "tags": {
        "amenity": "bar",
        "name": "V.S.Garden"
      }
    },
    {
      "type": "node",
      "id": 10116667433,
      "lat": 12.9505737,
      "lon": 77.6240593,
      "tags": {
        "name": "Alba Suit Specialists",
        "shop": "clothes"
      }
    },
    {
      "type": "node",
      "id": 10116667435,
      "lat": 12.9505916,
      "lon": 77.6239594,
      "tags": {
        "amenity": "bar",
        "name": "Lakshmi Bar and Restaurant"
      }
    },
    {
      "type": "node",
      "id": 10116667436,
      "lat": 12.9506075,
      "lon": 77.6239137,
      "tags": {
        "amenity": "fast_food",
        "name": "Kentaky Restaurant"
      }
    },
    {
      "type": "node",
      "id": 10116667437,
      "lat": 12.9505809,
      "lon": 77.6240278,
      "tags": {
        "name": "Bharath Trading Corporation",
        "shop": "mobile_phone"
      }
    },
    {
      "type": "node",
      "id": 10118710999,
      "lat": 12.95079,
      "lon": 77.6237562,
      "tags": {
        "name": "Patel Electricals",
        "shop": "electrical"
      }
    },
    {
      "type": "node",
      "id": 10118711000,
      "lat": 12.9507764,
      "lon": 77.6238164,
      "tags": {
        "name": "Mobile Shop",
        "shop": "mobile_phone"
      }
    },
    {
      "type": "node",
      "id": 10118711001,
      "lat": 12.9507714,
      "lon": 77.6238421,
      "tags": {
        "amenity": "pharmacy",
        "healthcare": "pharmacy"
      }
    },
    {
      "type": "node",
      "id": 10118711002,
      "lat": 12.9507957,
      "lon": 77.6237907,
      "tags": {
        "name": "Lovely Fancy and Gifts",
        "shop": "toys"
      }
    },
    {
      "type": "node",
      "id": 10118722285,
      "lat": 12.9505253,
      "lon": 77.6243086,
      "tags": {
        "name": "Aaboos",
        "shop": "clothes"
      }
    },
    {
      "type": "node",
      "id": 10118722286,
      "lat": 12.9504745,
      "lon": 77.624194,
      "tags": {
        "name": "St.Mary’s Auto Garage",
        "shop": "car_repair"
      }
    },
    {
      "type": "node",
      "id": 10118722287,
      "lat": 12.950745,
      "lon": 77.623974,
      "tags": {
        "name": "Sri Marudhar",
        "shop": "jewelry"
      }
    },
    {
      "type": "node",
      "id": 10118722288,
      "lat": 12.950735,
      "lon": 77.6240042,
      "tags": {
        "name": "Tasty Bakes",
        "shop": "bakery"
      }
    },
    {
      "type": "node",
      "id": 10118769915,
      "lat": 12.9507942,
      "lon": 77.6239057,
      "tags": {
        "name": "Shakthi Studio",
        "shop": "photo"
      }
    },
    {
      "type": "node",
      "id": 10118769916,
      "lat": 12.9507634,
      "lon": 77.6239329,
      "tags": {
        "name": "Tea City",
        "shop": "tea"
      }
    },
    {
      "type": "node",
      "id": 10118796372,
      "lat": 12.9499075,
      "lon": 77.6264294,
      "tags": {
        "name": "Fair Lands",
        "shop": "clothes"
      }
    },
    {
      "type": "node",
      "id": 10118807317,
      "lat": 12.9507606,
      "lon": 77.6238917,
      "tags": {
        "name": "Mahalakshmi Enterprises",
        "shop": "mobile_phone"
      }
    },
    {
      "type": "node",
      "id": 10159375313,
      "lat": 12.9506146,
      "lon": 77.6238474,
      "tags": {
        "name": "Cigarette and Bag Shop",
        "shop": "convenience"
      }
    },
    {
      "type": "node",
      "id": 10159375314,
      "lat": 12.9506216,
      "lon": 77.623825,
      "tags": {
        "amenity": "fast_food",
        "name": "The Shawarma Makers"
      }
    },
    {
      "type": "node",
      "id": 10159375315,
      "lat": 12.9506296,
      "lon": 77.6238015,
      "tags": {
        "name": "Selvam Hardware and Paints",
        "shop": "paint"
      }
    },
    {
      "type": "node",
      "id": 10159376490,
      "lat": 12.9506988,
      "lon": 77.6241602,
      "tags": {
        "name": "M.G.Enterprises",
        "shop": "mobile_phone"
      }
    },
    {
      "type": "node",
      "id": 10159376491,
      "lat": 12.9508367,
      "lon": 77.6243426,
      "tags": {
        "name": "Mayur Jewels",
        "shop": "jewelry"
      }
    },
    {
      "type": "node",
      "id": 10159376494,
      "lat": 12.9506886,
      "lon": 77.6242057,
      "tags": {
        "name": "Moti Textile",
        "shop": "clothes"
      }
    },
    {
      "type": "node",
      "id": 10159395929,
      "lat": 12.9506644,
      "lon": 77.6242582,
      "tags": {
        "amenity": "fast_food",
        "name": "Bajji Shop"
      }
    },
    {
      "type": "node",
      "id": 10159395930,
      "lat": 12.9505124,
      "lon": 77.6243668,
      "tags": {
        "amenity": "pharmacy",
        "healthcare": "pharmacy",
        "name": "Ambica Medical"
      }
    },
    {
      "type": "node",
      "id": 10159395931,
      "lat": 12.950483,
      "lon": 77.6243878,
      "tags": {
        "amenity": "dentist",
        "healthcare": "dentist",
        "name": "Dental Clinic"
      }
    },
    {
      "type": "node",
      "id": 10159395932,
      "lat": 12.950654,
      "lon": 77.624314,
      "tags": {
        "name": "Sola Men’s Saloon",
        "shop": "hairdresser"
      }
    },
    {
      "type": "node",
      "id": 10159395933,
      "lat": 12.9506565,
      "lon": 77.6242952,
      "tags": {
        "amenity": "fast_food",
        "name": "Bajji Shop"
      }
    },
    {
      "type": "node",
      "id": 10159395934,
      "lat": 12.9504856,
      "lon": 77.6243625,
      "tags": {
        "beauty": "nails",
        "name": "S.S.Beauty Saloon and Training Institute",
        "shop": "beauty"
      }
    },
    {
      "type": "node",
      "id": 10159395935,
      "lat": 12.9505044,
      "lon": 77.6243923,
      "tags": {
        "name": "Raj Communication",
        "shop": "mobile_phone"
      }
    },
    {
      "type": "node",
      "id": 10159395936,
      "lat": 12.9505168,
      "lon": 77.6243361,
      "tags": {
        "name": "K S R T C Travel House",
        "shop": "travel_agency"
      }
    },
    {
      "type": "node",
      "id": 10314122714,
      "lat": 12.9523754,
      "lon": 77.618828,
      "tags": {
        "amenity": "place_of_worship",
        "religion": "hindu"
      }
    },
    {
      "type": "node",
      "id": 10314122715,
      "lat": 12.9524002,
      "lon": 77.6190586,
      "tags": {
        "amenity": "community_centre",
        "name": "Samata Sainik Dal",
        "name:kn": "ಸಮತ ಸೈನಿಕ ದಳ",
        "ups_community": "community_centre",
        "website": "https://ssdindia.org/"
      }
    },
    {
      "type": "node",
      "id": 10760556145,
      "lat": 12.9443883,
      "lon": 77.6285671,
      "tags": {
        "amenity": "place_of_worship",
        "religion": "hindu"
      }
    },
    {
      "type": "node",
      "id": 10760556146,
      "lat": 12.9432852,
      "lon": 77.628734,
      "tags": {
        "amenity": "place_of_worship",
        "religion": "hindu"
      }
    },
    {
      "type": "node",
      "id": 10760556147,
      "lat": 12.9460064,
      "lon": 77.6268022,
      "tags": {
        "amenity": "place_of_worship",
        "name": "Jehovah Jireh AG Church",
        "religion": "christian"
      }
    },
    {
      "type": "node",
      "id": 10760556155,
      "lat": 12.9454823,
      "lon": 77.6227011,
      "tags": {
        "amenity": "post_box",
        "operator": "India Post",
        "operator:wikidata": "Q3519720"
      }
    },
    {
      "type": "node",
      "id": 10873245739,
      "lat": 12.9423062,
      "lon": 77.6227822,
      "tags": {
        "name": "Aubree",
        "shop": "chocolate",
        "website": "https://shop.aubree.in"
      }
    },
    {
      "type": "node",
      "id": 10873245745,
      "lat": 12.9560395,
      "lon": 77.6210998,
      "tags": {
        "amenity": "bank",
        "atm": "yes",
        "brand": "Canara Bank",
        "brand:en": "Canara Bank",
        "brand:hi": "केनरा बैंक",
        "brand:kn": "ಕೆನರಾ ಬ್ಯಾಂಕ್",
        "brand:pa": "ਕੇਨਰਾ ਬੈਂਕ",
        "brand:pnb": "کینرا بینک",
        "brand:ur": "کینرا بینک",
        "brand:wikidata": "Q2003777",
        "name": "Canara Bank",
        "name:en": "Canara Bank",
        "name:hi": "केनरा बैंक",
        "name:kn": "ಕೆನರಾ ಬ್ಯಾಂಕ್",
        "name:pa": "ਕੇਨਰਾ ਬੈਂਕ",
        "name:pnb": "کینرا بینک",
        "name:ur": "کینرا بینک",
        "operator": "Canara Bank"
      }
    },
    {
      "type": "node",
      "id": 10873245757,
      "lat": 12.9485446,
      "lon": 77.6197252,
      "tags": {
        "amenity": "place_of_worship",
        "religion": "hindu"
      }
    },
    {
      "type": "node",
      "id": 11385562464,
      "lat": 12.9491111,
      "lon": 77.6201679,
      "tags": {
        "amenity": "bench",
        "backrest": "yes",
        "material": "stone",
        "seats": "2"
      }
    },
    {
      "type": "node",
      "id": 11385562465,
      "lat": 12.9475564,
      "lon": 77.6192527,
      "tags": {
        "amenity": "bench",
        "backrest": "yes",
        "material": "stone",
        "seats": "2"
      }
    },
    {
      "type": "node",
      "id": 11385562466,
      "lat": 12.947529,
      "lon": 77.6192363,
      "tags": {
        "amenity": "bench",
        "backrest": "yes",
        "material": "stone",
        "seats": "2"
      }
    },
    {
      "type": "node",
      "id": 11385580174,
      "lat": 12.9440443,
      "lon": 77.6207612,
      "tags": {
        "amenity": "fast_food",
        "check_date": "2023-11-30",
        "name": "Khana Junction"
      }
    },
    {
      "type": "node",
      "id": 11385580184,
      "lat": 12.9491259,
      "lon": 77.6201795,
      "tags": {
        "amenity": "bench",
        "backrest": "yes",
        "material": "stone",
        "seats": "2"
      }
    },
    {
      "type": "node",
      "id": 11385580185,
      "lat": 12.9408888,
      "lon": 77.6242864,
      "tags": {
        "amenity": "restaurant",
        "check_date": "2023-11-30",
        "name": "The Coorg Food Company"
      }
    },
    {
      "type": "node",
      "id": 11385580186,
      "lat": 12.9418935,
      "lon": 77.6231805,
      "tags": {
        "check_date": "2023-11-30",
        "name": "Satvik Aahar",
        "shop": "supermarket"
      }
    },
    {
      "type": "node",
      "id": 11385580187,
      "lat": 12.9425114,
      "lon": 77.6225024,
      "tags": {
        "check_date": "2023-11-30",
        "name": "Dell",
        "shop": "computer"
      }
    },
    {
      "type": "node",
      "id": 11385580188,
      "lat": 12.9431166,
      "lon": 77.6218102,
      "tags": {
        "brand": "Bajaj",
        "brand:wikidata": "Q10910065",
        "check_date": "2023-11-30",
        "name": "Bajaj",
        "name:kn": "ಬಜಾಜ್",
        "shop": "motorcycle"
      }
    },
    {
      "type": "node",
      "id": 11385580189,
      "lat": 12.9438577,
      "lon": 77.6209994,
      "tags": {
        "amenity": "fast_food",
        "check_date": "2023-11-30",
        "name": "Sri Udupi Utsav"
      }
    },
    {
      "type": "node",
      "id": 11385580190,
      "lat": 12.9452528,
      "lon": 77.6198347,
      "tags": {
        "brand": "Toni & Guy",
        "brand:wikidata": "Q324784",
        "check_date": "2023-11-30",
        "name": "Toni & Guy",
        "shop": "hairdresser"
      }
    },
    {
      "type": "node",
      "id": 11505756828,
      "lat": 12.9466331,
      "lon": 77.6186349,
      "tags": {
        "check_date": "2024-01-10",
        "name": "Classic Men's Salon",
        "shop": "hairdresser"
      }
    },
    {
      "type": "node",
      "id": 11505756829,
      "lat": 12.9477206,
      "lon": 77.6192277,
      "tags": {
        "amenity": "place_of_worship",
        "check_date": "2024-01-10",
        "religion": "hindu"
      }
    },
    {
      "type": "node",
      "id": 11505830446,
      "lat": 12.9537213,
      "lon": 77.6203916,
      "tags": {
        "access": "yes",
        "amenity": "drinking_water",
        "fee": "yes"
      }
    },
    {
      "type": "node",
      "id": 11505830447,
      "lat": 12.9552768,
      "lon": 77.6207566,
      "tags": {
        "amenity": "pharmacy",
        "check_date": "2024-01-10",
        "healthcare": "pharmacy",
        "name": "Sundeep Pharma"
      }
    },
    {
      "type": "node",
      "id": 11505830448,
      "lat": 12.9560508,
      "lon": 77.6208156,
      "tags": {
        "amenity": "fast_food",
        "check_date": "2024-01-10",
        "name": "Sri Annapoorneshwari Hotel"
      }
    },
    {
      "type": "node",
      "id": 12260570041,
      "lat": 12.9421337,
      "lon": 77.6219393,
      "tags": {
        "amenity": "restaurant",
        "name": "Yara Cafe"
      }
    },
    {
      "type": "node",
      "id": 12468378369,
      "lat": 12.9453987,
      "lon": 77.6196691,
      "tags": {
        "amenity": "restaurant",
        "brand": "Dave & Buster's",
        "brand:wikidata": "Q5228205",
        "cuisine": "american",
        "leisure": "amusement_arcade",
        "name": "Dave & Buster's"
      }
    },
    {
      "type": "node",
      "id": 12526065875,
      "lat": 12.9434791,
      "lon": 77.628423,
      "tags": {
        "addr:city": "Bengaluru",
        "addr:housenumber": "65",
        "addr:postcode": "560047",
        "addr:street": "Sri Rama Termple Road, Ejipura",
        "amenity": "bank",
        "brand": "ICICI Bank",
        "brand:wikidata": "Q1653258",
        "name": "ICICI Bank",
        "short_name": "ICICI"
      }
    },
    {
      "type": "node",
      "id": 13084285574,
      "lat": 12.940859,
      "lon": 77.6234175,
      "tags": {
        "amenity": "cafe",
        "check_date": "2025-08-20",
        "contact:instagram": "https://www.instagram.com/cafe.de.verde",
        "name": "Cafe de Verde"
      }
    },
    {
      "type": "way",
      "id": 32291138,
      "center": {
        "lat": 12.9406352,
        "lon": 77.6209531
      },
      "tags": {
        "amenity": "school",
        "name": "Bethany High School",
        "name:kn": "ಬೆತಾನಿ ಪ್ರೌಡಶಾಲೆ"
      }
    },
    {
      "type": "way",
      "id": 112580278,
      "center": {
        "lat": 12.9536356,
        "lon": 77.6188074
      },
      "tags": {
        "amenity": "place_of_worship",
        "name": "Infant Jesus Church",
        "religion": "christian",
        "wikidata": "Q15378772",
        "wikimedia_commons": "Category:Infant Jesus Church, Bangalore",
        "wikipedia": "en:Infant Jesus Church, Bangalore"
      }
    },
    {
      "type": "way",
      "id": 122415848,
      "center": {
        "lat": 12.940967,
        "lon": 77.625052
      },
      "tags": {
        "amenity": "bus_station",
        "bus": "yes",
        "name": "Koramangala TTMC",
        "name:kn": "ಕೋರಮಂಗಲ",
        "operator": "BMTC",
        "public_transport": "station"
      }
    },
    {
      "type": "way",
      "id": 166750577,
      "center": {
        "lat": 12.9432742,
        "lon": 77.6177477
      },
      "tags": {
        "amenity": "cinema",
        "name": "Shiva Theatre",
        "name:kn": "ಶಿವ"
      }
    },
    {
      "type": "way",
      "id": 172883350,
      "center": {
        "lat": 12.9446538,
        "lon": 77.6238972
      },
      "tags": {
        "full_name": "National Games Village Park",
        "leisure": "park",
        "name": "NGV Park"
      }
    },
    {
      "type": "way",
      "id": 302838145,
      "center": {
        "lat": 12.9441475,
        "lon": 77.6234179
      },
      "tags": {
        "amenity": "bank",
        "brand": "Syndicate Bank",
        "brand:wikidata": "Q2004088",
        "building": "yes",
        "name": "Syndicate Bank",
        "name:kn": "ಸಿಂಡಿಕೇಟ್ ಬ್ಯಾಂಕ್"
      }
    },
    {
      "type": "way",
      "id": 326201186,
      "center": {
        "lat": 12.9543449,
        "lon": 77.6226955
      },
      "tags": {
        "amenity": "bus_station",
        "name": "Viveknagar Bus Station",
        "name:kn": "ವಿವೇಕನಗರ ಬಸ್ ನಿಲ್ದಾಣ",
        "wheelchair": "no"
      }
    },
    {
      "type": "way",
      "id": 326201187,
      "center": {
        "lat": 12.9519353,
        "lon": 77.6229445
      },
      "tags": {
        "landuse": "recreation_ground",
        "leisure": "playground",
        "name": "Viveknagar Ground"
      }
    },
    {
      "type": "way",
      "id": 326201188,
      "center": {
        "lat": 12.9523032,
        "lon": 77.6242867
      },
      "tags": {
        "leisure": "park"
      }
    },
    {
      "type": "way",
      "id": 331885717,
      "center": {
        "lat": 12.945884,
        "lon": 77.6236517
      },
      "tags": {
        "hoops": "2",
        "leisure": "pitch",
        "sport": "basketball",
        "surface": "concrete"
      }
    },
    {
      "type": "way",
      "id": 331885718,
      "center": {
        "lat": 12.9457611,
        "lon": 77.6237397
      },
      "tags": {
        "hoops": "2",
        "leisure": "pitch",
        "sport": "basketball",
        "surface": "concrete"
      }
    },
    {
      "type": "way",
      "id": 345917371,
      "center": {
        "lat": 12.9447386,
        "lon": 77.6288254
      },
      "tags": {
        "addr:city": "Ejipura",
        "addr:postcode": "560047",
        "addr:street": "Sri Rama Temple Road",
        "addr:suburb": "Ejipura",
        "alt_name": "GHS Ejipura",
        "amenity": "school",
        "building": "school",
        "building:levels": "4",
        "capacity": "120",
        "max_age": "16",
        "min_age": "13",
        "name": "Government High School",
        "name:kn": "ಸರ್ಕಾರಿ ಪ್ರೌಢಶಾಲೆ",
        "operator": "Government",
        "wheelchair": "yes"
      }
    },
    {
      "type": "way",
      "id": 346708710,
      "center": {
        "lat": 12.9478859,
        "lon": 77.6246231
      },
      "tags": {
        "amenity": "place_of_worship",
        "building": "chapel",
        "name": "Velankanni Chapel",
        "religion": "christian"
      }
    },
    {
      "type": "way",
      "id": 346779092,
      "center": {
        "lat": 12.9439197,
        "lon": 77.6272854
      },
      "tags": {
        "addr:city": "Ejipura, Bangaluru",
        "addr:postcode": "560095",
        "addr:street": "Pipeline Road",
        "amenity": "place_of_worship",
        "building": "yes",
        "name": "St. Chavara Church",
        "religion": "christian",
        "service_times": "Mo-Su 08:00-18:00"
      }
    },
    {
      "type": "way",
      "id": 346821156,
      "center": {
        "lat": 12.9544178,
        "lon": 77.6237098
      },
      "tags": {
        "addr:district": "Bangalore",
        "addr:postcode": "560047",
        "amenity": "place_of_worship",
        "building": "yes",
        "denomination": "sunni",
        "name": "Masjid E Mairaj",
        "name:kn": "ಮಸ್ಜಿದ್ ಇ ಮೈರಾಜ್",
        "religion": "muslim"
      }
    },
    {
      "type": "way",
      "id": 347126522,
      "center": {
        "lat": 12.9422662,
        "lon": 77.6281151
      },
      "tags": {
        "addr:city": "Bengaluru",
        "addr:postcode": "560047",
        "addr:street": "Sri Rama Temple Road",
        "air_conditioning": "yes",
        "building": "yes",
        "clothes": "men",
        "name": "Trends Collection",
        "opening_hours": "Mo-Su 09:00-22:00",
        "payment:cash": "yes",
        "payment:debit_cards": "yes",
        "shop": "clothes"
      }
    },
    {
      "type": "way",
      "id": 351627455,
      "center": {
        "lat": 12.9410831,
        "lon": 77.623777
      },
      "tags": {
        "amenity": "dentist",
        "building": "yes",
        "healthcare": "dentist"
      }
    },
    {
      "type": "way",
      "id": 366254060,
      "center": {
        "lat": 12.9412874,
        "lon": 77.622297
      },
      "tags": {
        "amenity": "kindergarten",
        "name": "Bachpan Play School"
      }
    },
    {
      "type": "way",
      "id": 370388046,
      "center": {
        "lat": 12.9454671,
        "lon": 77.6186752
      },
      "tags": {
        "amenity": "fuel",
        "brand": "Indian Oil",
        "brand:wikidata": "Q1289348",
        "compressed_air": "yes",
        "fuel:diesel": "yes",
        "fuel:lpg": "yes",
        "fuel:petrol": "yes",
        "name": "Kaveri Petrol"
      }
    },
    {
      "type": "way",
      "id": 393815407,
      "center": {
        "lat": 12.9435056,
        "lon": 77.6228002
      },
      "tags": {
        "alt_name": "National Games Village Stadium",
        "leisure": "stadium",
        "name": "Koramangala Indoor Stadium",
        "name:kn": "ಕೋರಮಂಗಲ ಒಳಾಂಗಣ ಕ್ರೀಡಾಂಗಣ"
      }
    },
    {
      "type": "way",
      "id": 393815411,
      "center": {
        "lat": 12.9423733,
        "lon": 77.6239743
      },
      "tags": {
        "amenity": "animal_shelter",
        "name": "Akhila Karnataka Prani Daya",
        "name:kn": "ಅಖಿಲ ಕರ್ನಾಟಕ ಪ್ರಾಣಿ ದಯ"
      }
    },
    {
      "type": "way",
      "id": 401993917,
      "center": {
        "lat": 12.9490229,
        "lon": 77.6199247
      },
      "tags": {
        "amenity": "hospital",
        "name": "Government Hospital",
        "name:kn": "ಸರ್ಕಾರಿ ಆಸ್ಪತ್ರೆ",
        "ups_hospital": "general hospital"
      }
    },
    {
      "type": "way",
      "id": 402869173,
      "center": {
        "lat": 12.9447993,
        "lon": 77.6296947
      },
      "tags": {
        "addr:city": "Bengaluru",
        "addr:street": "Ejipura Main Road",
        "addr:suburb": "Ejipura",
        "alt_name": "GHPS Ejipura",
        "amenity": "school",
        "max_age": "13",
        "min_age": "6",
        "name": "Government Higher Primary School",
        "name:kn": "ಸರ್ಕಾರಿ ಹಿರಿಯ ಪ್ರಾಥಮಿಕ ಶಾಲೆ",
        "operator": "Government",
        "wheelchair": "yes"
      }
    },
    {
      "type": "way",
      "id": 411057597,
      "center": {
        "lat": 12.9548113,
        "lon": 77.6164088
      },
      "tags": {
        "leisure": "park"
      }
    },
    {
      "type": "way",
      "id": 411057599,
      "center": {
        "lat": 12.95618,
        "lon": 77.6164388
      },
      "tags": {
        "leisure": "park"
      }
    },
    {
      "type": "way",
      "id": 411057600,
      "center": {
        "lat": 12.9535915,
        "lon": 77.6174661
      },
      "tags": {
        "amenity": "parking"
      }
    },
    {
      "type": "way",
      "id": 411057602,
      "center": {
        "lat": 12.9552973,
        "lon": 77.6162142
      },
      "tags": {
        "leisure": "park"
      }
    },
    {
      "type": "way",
      "id": 411057604,
      "center": {
        "lat": 12.9537758,
        "lon": 77.6188132
      },
      "tags": {
        "amenity": "place_of_worship",
        "building": "church",
        "name": "Infant Jesus Church",
        "religion": "christian"
      }
    },
    {
      "type": "way",
      "id": 429123140,
      "center": {
        "lat": 12.9420615,
        "lon": 77.6256944
      },
      "tags": {
        "leisure": "park"
      }
    },
    {
      "type": "way",
      "id": 429123141,
      "center": {
        "lat": 12.9424872,
        "lon": 77.6255954
      },
      "tags": {
        "leisure": "pitch"
      }
    },
    {
      "type": "way",
      "id": 429123142,
      "center": {
        "lat": 12.9420031,
        "lon": 77.6256203
      },
      "tags": {
        "leisure": "sports_centre",
        "name": "NGV Sports Club"
      }
    },
    {
      "type": "way",
      "id": 441572865,
      "center": {
        "lat": 12.9492755,
        "lon": 77.6212439
      },
      "tags": {
        "amenity": "school",
        "email": "info@npskrm.com",
        "isced:level": "3",
        "landuse": "education",
        "name": "National Public School Kormangala",
        "name:kn": "ನ್ಯಾಷನಲ್ ಪಬ್ಲಿಕ್ ಶಾಲೆ ಕೋರಮಂಗಲ, ಈಜಿಪುರ",
        "operator": "Private Un-Aided",
        "phone": "+91 80 2570 5171",
        "religion": "none",
        "school": "Higher Secondary",
        "school:gender": "mixed",
        "website": "https://npskrm.com",
        "wikidata": "Q6975123",
        "wikipedia": "en:National Public School, Koramangala"
      }
    },
    {
      "type": "way",
      "id": 609270066,
      "center": {
        "lat": 12.9491547,
        "lon": 77.6217817
      },
      "tags": {
        "access": "customers",
        "hoops": "2",
        "leisure": "pitch",
        "lit": "no",
        "name": "Cement Court",
        "sport": "basketball",
        "surface": "cement"
      }
    },
    {
      "type": "way",
      "id": 613381965,
      "center": {
        "lat": 12.9496067,
        "lon": 77.6208798
      },
      "tags": {
        "amenity": "fuel",
        "brand": "Indian Oil",
        "brand:wikidata": "Q1289348",
        "brand:wikipedia": "en:Indian Oil Corporation",
        "fuel:diesel": "yes",
        "fuel:petrol": "yes",
        "name": "Indian Oil",
        "name:kn": "ಇಂಡಿಯನ್ ಆಯಿಲ್"
      }
    },
    {
      "type": "way",
      "id": 613381973,
      "center": {
        "lat": 12.9493319,
        "lon": 77.6206167
      },
      "tags": {
        "access": "customers",
        "hoops": "1",
        "leisure": "pitch",
        "lit": "no",
        "name": "Back court",
        "sport": "basketball",
        "surface": "sand"
      }
    },
    {
      "type": "way",
      "id": 613381978,
      "center": {
        "lat": 12.9490048,
        "lon": 77.6206238
      },
      "tags": {
        "access": "customers",
        "leisure": "playground",
        "max_age": "6",
        "min_age": "3",
        "name": "KG Playground",
        "surface": "sand"
      }
    },
    {
      "type": "way",
      "id": 635317788,
      "center": {
        "lat": 12.9452499,
        "lon": 77.6189892
      },
      "tags": {
        "amenity": "fuel",
        "brand": "Indian Oil",
        "brand:wikidata": "Q1289348",
        "brand:wikipedia": "en:Indian Oil Corporation",
        "compressed_air": "yes",
        "fuel:cng": "yes",
        "name": "Indian Oil",
        "name:kn": "ಇಂಡಿಯನ್ ಆಯಿಲ್"
      }
    },
    {
      "type": "way",
      "id": 781192788,
      "center": {
        "lat": 12.9514387,
        "lon": 77.6250349
      },
      "tags": {
        "leisure": "park"
      }
    },
    {
      "type": "way",
      "id": 1067951549,
      "center": {
        "lat": 12.9553325,
        "lon": 77.621075
      },
      "tags": {
        "amenity": "school",
        "name": "Seva Bhat Telugu High School"
      }
    },
    {
      "type": "way",
      "id": 1086044094,
      "center": {
        "lat": 12.9508087,
        "lon": 77.6215833
      },
      "tags": {
        "amenity": "recycling",
        "name": "BBMP",
        "name:kn": "ಬೃ. ಬೆಂ. ಮ. ಪಾ.",
        "office": "government",
        "recycling_type": "centre"
      }
    },
    {
      "type": "way",
      "id": 1099882755,
      "center": {
        "lat": 12.9410977,
        "lon": 77.6214106
      },
      "tags": {
        "amenity": "police",
        "name": "Koramangala Police Station",
        "name:kn": "ಕೋರಮಂಗಲ ಆರಕ್ಷಕ ಠಾಣೆ"
      }
    },
    {
      "type": "way",
      "id": 1153736759,
      "center": {
        "lat": 12.9546763,
        "lon": 77.620947
      },
      "tags": {
        "amenity": "post_office",
        "name": "India Post",
        "name:kn": "ಅಂಚೆ ಕಛೇರಿ",
        "operator": "India Post",
        "operator:wikidata": "Q3519720",
        "wheelchair": "no"
      }
    },
    {
      "type": "way",
      "id": 1153736760,
      "center": {
        "lat": 12.9501568,
        "lon": 77.6182109
      },
      "tags": {
        "amenity": "clinic",
        "fee": "yes",
        "healthcare": "clinic",
        "name": "UPHC, Koramangala",
        "name:kn": "ಗ್ರಾಮಾಂತರ ಪ್ರಾಥಮಿಕ ಆರೋಗ್ಯ ಕೇಂದ್ರ",
        "operator": "BBMP"
      }
    },
    {
      "type": "way",
      "id": 1153736761,
      "center": {
        "lat": 12.9515077,
        "lon": 77.6252401
      },
      "tags": {
        "alt_name": "UPHC, Austin Town",
        "amenity": "clinic",
        "name": "UPHC, Viveknagar",
        "name:kn": "ಗ್ರಾಮಾಂತರ ಪ್ರಾಥಮಿಕ ಆರೋಗ್ಯ ಕೇಂದ್ರ",
        "operator": "BBMP"
      }
    },
    {
      "type": "way",
      "id": 1153736762,
      "center": {
        "lat": 12.952795,
        "lon": 77.6251835
      },
      "tags": {
        "leisure": "playground"
      }
    },
    {
      "type": "way",
      "id": 1153736764,
      "center": {
        "lat": 12.9518683,
        "lon": 77.622351
      },
      "tags": {
        "amenity": "police",
        "name": "Viveknagar Police Station",
        "name:kn": "ವಿವೇಕನಗರ ಆರಕ್ಷಕ ಠಾಣೆ"
      }
    },
    {
      "type": "way",
      "id": 1153736765,
      "center": {
        "lat": 12.9512681,
        "lon": 77.622113
      },
      "tags": {
        "amenity": "cinema",
        "name": "Ravi Cinemas"
      }
    },
    {
      "type": "way",
      "id": 1153736766,
      "center": {
        "lat": 12.9511632,
        "lon": 77.6228231
      },
      "tags": {
        "leisure": "park"
      }
    },
    {
      "type": "way",
      "id": 1157119897,
      "center": {
        "lat": 12.9450046,
        "lon": 77.6287162
      },
      "tags": {
        "amenity": "place_of_worship",
        "religion": "hindu"
      }
    },
    {
      "type": "way",
      "id": 1157119903,
      "center": {
        "lat": 12.9472834,
        "lon": 77.6334983
      },
      "tags": {
        "leisure": "pitch",
        "name": "ASC Polo Ground",
        "operator": "ASC",
        "sport": "equestrian"
      }
    },
    {
      "type": "way",
      "id": 1157161753,
      "center": {
        "lat": 12.9569422,
        "lon": 77.6195084
      },
      "tags": {
        "amenity": "cinema",
        "landuse": "commercial",
        "name": "Sri Balaji",
        "name:en": "Sri Balaji"
      }
    },
    {
      "type": "way",
      "id": 1169301033,
      "center": {
        "lat": 12.956232,
        "lon": 77.6207994
      },
      "tags": {
        "amenity": "clinic",
        "healthcare": "clinic",
        "name": "Namma Clinic"
      }
    },
    {
      "type": "way",
      "id": 1218033510,
      "center": {
        "lat": 12.954134,
        "lon": 77.623748
      },
      "tags": {
        "addr:city": "Bengaluru",
        "addr:postcode": "560047",
        "addr:street": "4th Main Rd, Viveka Nagar",
        "branch": "Milk Parlour",
        "brand": "Nandini",
        "brand:wikidata": "Q124374212",
        "building": "yes",
        "name": "Nandini Shoppe",
        "name:kn": "ನಂದಿನಿ ಹಾಲಿನ ಅಂಗಡಿ",
        "shop": "dairy"
      }
    },
    {
      "type": "way",
      "id": 1284405954,
      "center": {
        "lat": 12.955476,
        "lon": 77.6274623
      },
      "tags": {
        "access": "private",
        "leisure": "pitch",
        "sport": "basketball"
      }
    },
    {
      "type": "way",
      "id": 1284406111,
      "center": {
        "lat": 12.9562826,
        "lon": 77.6272986
      },
      "tags": {
        "access": "private",
        "leisure": "pitch",
        "sport": "soccer"
      }
    },
    {
      "type": "way",
      "id": 1284414364,
      "center": {
        "lat": 12.9554988,
        "lon": 77.6282868
      },
      "tags": {
        "access": "private",
        "leisure": "pitch",
        "sport": "basketball"
      }
    },
    {
      "type": "way",
      "id": 1284425775,
      "center": {
        "lat": 12.9558342,
        "lon": 77.6283476
      },
      "tags": {
        "access": "private",
        "leisure": "pitch",
        "sport": "tennis"
      }
    },
    {
      "type": "way",
      "id": 1305606100,
      "center": {
        "lat": 12.956049,
        "lon": 77.6247013
      },
      "tags": {
        "access": "private",
        "leisure": "track",
        "sport": "athletics"
      }
    },
    {
      "type": "way",
      "id": 1305606101,
      "center": {
        "lat": 12.956348,
        "lon": 77.6260777
      },
      "tags": {
        "access": "private",
        "leisure": "swimming_pool"
      }
    },
    {
      "type": "way",
      "id": 1305606102,
      "center": {
        "lat": 12.956095,
        "lon": 77.6285109
      },
      "tags": {
        "access": "private",
        "leisure": "pitch",
        "sport": "tennis"
      }
    },
    {
      "type": "way",
      "id": 1305717091,
      "center": {
        "lat": 12.9552958,
        "lon": 77.6281038
      },
      "tags": {
        "access": "private",
        "leisure": "pitch",
        "sport": "tennis"
      }
    },
    {
      "type": "way",
      "id": 1328147336,
      "center": {
        "lat": 12.9552168,
        "lon": 77.6169635
      },
      "tags": {
        "leisure": "park"
      }
    },
    {
      "type": "way",
      "id": 1328147337,
      "center": {
        "lat": 12.9556536,
        "lon": 77.6166956
      },
      "tags": {
        "leisure": "park"
      }
    }
  ]
}