{
  "area_name": "N.R Colony",
  "osm_id": 19883390,
  "osm_type": "relation",
  "place_type": "administrative",
  "amenity_count": 93,
  "amenities": [
    {
      "type": "node",
      "id": 1464749398,
      "lat": 12.9432335,
      "lon": 77.5700564,
      "tags": {
        "amenity": "fountain"
      }
    },
    {
      "type": "node",
      "id": 1464751687,
      "lat": 12.9409932,
      "lon": 77.5671094,
      "tags": {
        "amenity": "place_of_worship",
        "name": "Puttige Mutt",
        "name:kn": "ಪುತ್ತಿಗೆ ಮಠ",
        "religion": "hindu"
      }
    },
    {
      "type": "node",
      "id": 1464752453,
      "lat": 12.9395396,
      "lon": 77.5667848,
      "tags": {
        "addr:street": "Bull Temple Road",
        "amenity": "social_centre",
        "name": "Gokhale Institute of Public Affairs",
        "website": "http://gipa-bng.org/"
      }
    },
    {
      "type": "node",
      "id": 1465007911,
      "lat": 12.9328395,
      "lon": 77.5638317,
      "tags": {
        "addr:postcode": "560085",
        "amenity": "school",
        "name": "SSM Public School",
        "operator": "PES Group"
      }
    },
    {
      "type": "node",
      "id": 1466328820,
      "lat": 12.9372141,
      "lon": 77.568841,
      "tags": {
        "addr:street": "N.R. Colony, 1st Main Road",
        "amenity": "bank",
        "atm": "yes",
        "brand": "Syndicate Bank",
        "brand:wikidata": "Q2004088",
        "name": "Syndicate Bank",
        "name:en": "Syndicate Bank",
        "name:kn": "ಸಿಂಡಿಕೇಟ್ ಬ್ಯಾಂಕ್",
        "website": "https://www.syndicatebank.in"
      }
    },
    {
      "type": "node",
      "id": 1466328827,
      "lat": 12.9370677,
      "lon": 77.568849,
      "tags": {
        "amenity": "atm",
        "brand": "Syndicate Bank",
        "brand:wikidata": "Q2004088",
        "name": "Syndicate Bank",
        "name:kn": "ಸಿಂಡಿಕೇಟ್ ಬ್ಯಾಂಕ್",
        "operator": "Syndicate Bank",
        "operator:wikidata": "Q2004088"
      }
    },
    {
      "type": "node",
      "id": 1466380358,
      "lat": 12.9370493,
      "lon": 77.5686801,
      "tags": {
        "amenity": "pharmacy",
        "healthcare": "pharmacy",
        "name": "Sagar Pharmacy"
      }
    },
    {
      "type": "node",
      "id": 1466450010,
      "lat": 12.9365631,
      "lon": 77.567363,
      "tags": {
        "amenity": "atm",
        "operator": "HDFC ATM"
      }
    },
    {
      "type": "node",
      "id": 1466735001,
      "lat": 12.9393809,
      "lon": 77.5712615,
      "tags": {
        "alt_name": "Bhavani Kangans",
        "name": "Bhavani Bangles",
        "shop": "jewelry"
      }
    },
    {
      "type": "node",
      "id": 1467750614,
      "lat": 12.9364316,
      "lon": 77.5673584,
      "tags": {
        "amenity": "clinic",
        "emergency": "yes",
        "name": "Karuna Clinic"
      }
    },
    {
      "type": "node",
      "id": 1467778589,
      "lat": 12.9339482,
      "lon": 77.5664867,
      "tags": {
        "amenity": "school",
        "designation": "Kamala Nehru Patashala",
        "name": "Kamala Nehru Patashala (Emmanual English School)"
      }
    },
    {
      "type": "node",
      "id": 1467778591,
      "lat": 12.9336501,
      "lon": 77.5660602,
      "tags": {
        "amenity": "hospital",
        "emergency": "yes",
        "name": "Kangila Clinic"
      }
    },
    {
      "type": "node",
      "id": 1467778592,
      "lat": 12.9336091,
      "lon": 77.5661398,
      "tags": {
        "addr:postcode": "560028",
        "addr:street": "6th Main",
        "amenity": "pharmacy",
        "dispensing": "yes",
        "name": "Rakesh Medicals"
      }
    },
    {
      "type": "node",
      "id": 1467794454,
      "lat": 12.9334734,
      "lon": 77.5661076,
      "tags": {
        "addr:postcode": "560028",
        "addr:street": "6th Cross, 6th Main",
        "amenity": "pharmacy",
        "dispensing": "yes",
        "name": "Subramanya Medicals"
      }
    },
    {
      "type": "node",
      "id": 1467794469,
      "lat": 12.9343751,
      "lon": 77.565952,
      "tags": {
        "amenity": "place_of_worship",
        "denomination": "Dattatreya",
        "name": "Dattatreya Temple",
        "name:kn": "ದತ್ತಾತ್ರೇಯ ದೇವಸ್ಥಾನ",
        "religion": "hindu"
      }
    },
    {
      "type": "node",
      "id": 1467794483,
      "lat": 12.9343123,
      "lon": 77.5663329,
      "tags": {
        "amenity": "bench"
      }
    },
    {
      "type": "node",
      "id": 1467794484,
      "lat": 12.9341451,
      "lon": 77.566062,
      "tags": {
        "addr:postcode": "560028",
        "addr:street": "6th Main, T. R. Nagar",
        "shop": "motorcycle"
      }
    },
    {
      "type": "node",
      "id": 1467794487,
      "lat": 12.9342938,
      "lon": 77.5660221,
      "tags": {
        "amenity": "place_of_worship",
        "denomination": "Ganesha, Shiva",
        "name": "Balamuri Ganapathi Temple",
        "name:kn": "ಬಲಮುರಿ ಗಣಪತಿ ದೇವಸ್ಥಾನ",
        "religion": "hindu"
      }
    },
    {
      "type": "node",
      "id": 1470553269,
      "lat": 12.9369341,
      "lon": 77.5691786,
      "tags": {
        "name": "Samipa Bakery",
        "shop": "bakery"
      }
    },
    {
      "type": "node",
      "id": 1470553313,
      "lat": 12.935381,
      "lon": 77.570171,
      "tags": {
        "amenity": "place_of_worship",
        "name": "Sai Baba Temple",
        "name:kn": "ಸಾಯಿಬಾಬಾ ದೇವಸ್ಥಾನ",
        "religion": "hindu"
      }
    },
    {
      "type": "node",
      "id": 1470553332,
      "lat": 12.9356689,
      "lon": 77.5699296,
      "tags": {
        "alt_name": "Samaja Seva Mandali Kannada Primary School",
        "amenity": "school",
        "name": "SSM Primary School"
      }
    },
    {
      "type": "node",
      "id": 1470553336,
      "lat": 12.9383716,
      "lon": 77.5700155,
      "tags": {
        "amenity": "fast_food",
        "cuisine": "indian",
        "name": "Srinivasa Cool Corner"
      }
    },
    {
      "type": "node",
      "id": 1473887316,
      "lat": 12.940068,
      "lon": 77.5686776,
      "tags": {
        "leisure": "pitch",
        "name": "APS Playground"
      }
    },
    {
      "type": "node",
      "id": 1473898703,
      "lat": 12.9423037,
      "lon": 77.5713284,
      "tags": {
        "name": "Rama Rao & sons",
        "shop": "jewelry"
      }
    },
    {
      "type": "node",
      "id": 1473899970,
      "lat": 12.9408398,
      "lon": 77.5732596,
      "tags": {
        "amenity": "library",
        "name:kn": "ಗ್ರಂಥಾಲಯ"
      }
    },
    {
      "type": "node",
      "id": 1741794881,
      "lat": 12.933396,
      "lon": 77.5626216,
      "tags": {
        "amenity": "pharmacy"
      }
    },
    {
      "type": "node",
      "id": 1741809464,
      "lat": 12.9340167,
      "lon": 77.5623395,
      "tags": {
        "shop": "hairdresser"
      }
    },
    {
      "type": "node",
      "id": 3656275411,
      "lat": 12.9369639,
      "lon": 77.5721872,
      "tags": {
        "addr:city": "Bangalore",
        "addr:postcode": "560004",
        "addr:street": "South End Road",
        "name": "Nandini Milk Parlour",
        "name:kn": "ನಂದಿನಿ ಹಾಲಿನ ಅಂಗಡಿ",
        "opening_hours": "06:00-22:30",
        "operator": "Karnataka Milk Federation",
        "shop": "dairy"
      }
    },
    {
      "type": "node",
      "id": 3946293404,
      "lat": 12.940566,
      "lon": 77.5708321,
      "tags": {
        "addr:housenumber": "32",
        "addr:street": "32, Mallikarjuna Temple Road",
        "name": "Veena Works",
        "phone": "9845744693",
        "shop": "musical_instrument"
      }
    },
    {
      "type": "node",
      "id": 3946296441,
      "lat": 12.9394431,
      "lon": 77.5714279,
      "tags": {
        "addr:street": "DVG Road",
        "name": "Mane Holige",
        "opening_hours": "Mo-Su 10:00-21:30",
        "phone": "+919886584789 9742672871",
        "shop": "confectionery"
      }
    },
    {
      "type": "node",
      "id": 4443323771,
      "lat": 12.9371526,
      "lon": 77.5728792,
      "tags": {
        "addr:city": "Bangalore",
        "addr:housenumber": "49",
        "addr:postcode": "560004",
        "addr:street": "S Kariyappa Road",
        "amenity": "restaurant",
        "cuisine": "regional",
        "delivery": "yes",
        "name": "Presto",
        "name:kn": "ಪ್ರೆಸ್ಟೋ",
        "opening_hours": "08:00-23:00",
        "phone": "080 2662 2058",
        "smoking": "no"
      }
    },
    {
      "type": "node",
      "id": 4445197030,
      "lat": 12.9418834,
      "lon": 77.5707551,
      "tags": {
        "addr:city": "Bangalore",
        "addr:housenumber": "26",
        "addr:postcode": "560004",
        "addr:street": "DVG Road, Basavanagudi",
        "amenity": "restaurant",
        "cuisine": "regional",
        "delivery": "yes",
        "name": "Nisarga Garden Restaurant",
        "phone": "+91 94482 61574",
        "smoking": "no",
        "takeaway": "yes"
      }
    },
    {
      "type": "node",
      "id": 4445209596,
      "lat": 12.9406714,
      "lon": 77.5703714,
      "tags": {
        "addr:city": "Bangalore",
        "addr:postcode": "560004",
        "addr:street": "Mallikarjuna Temple St",
        "amenity": "restaurant",
        "cuisine": "regional",
        "delivery": "yes",
        "name": "Puliyogare Point",
        "opening_hours": "07:00-21:30",
        "phone": "+91 99869 53484",
        "smoking": "no",
        "takeaway": "yes"
      }
    },
    {
      "type": "node",
      "id": 4445727000,
      "lat": 12.9385441,
      "lon": 77.5699295,
      "tags": {
        "addr:city": "Bangalore",
        "addr:postcode": "560004",
        "addr:street": "E Anjaneya Temple St, NR Colony, Basavanagudi",
        "amenity": "restaurant",
        "cuisine": "regional",
        "delivery": "yes",
        "name": "Harshi Super Sandwich",
        "opening_hours": "10:00-21:30",
        "phone": "095357 36455",
        "smoking": "no",
        "takeaway": "yes",
        "website": "https://sites.google.com/site/harshisupersandwich/"
      }
    },
    {
      "type": "node",
      "id": 4445782638,
      "lat": 12.9363723,
      "lon": 77.5682018,
      "tags": {
        "addr:city": "Bangalore",
        "addr:housenumber": "115/121",
        "addr:postcode": "560004",
        "addr:street": "4th Main Road, 4th Stage,Thyagaraja Nagar",
        "amenity": "restaurant",
        "cuisine": "regional",
        "delivery": "yes",
        "name": "Amandé Patisserie",
        "opening_hours": "09:00-18:00",
        "phone": "080 2676 1080",
        "smoking": "no",
        "takeaway": "yes",
        "website": "https://amande.co.in/"
      }
    },
    {
      "type": "node",
      "id": 4447082895,
      "lat": 12.9396288,
      "lon": 77.5667866,
      "tags": {
        "addr:city": "Bangalore",
        "addr:postcode": "560004",
        "addr:street": "Bull Temple Road",
        "amenity": "restaurant",
        "cuisine": "regional",
        "delivery": "yes",
        "name": "Kamath Bugle Rock",
        "opening_hours": "07:00-22:30",
        "phone": "080 4124 1112",
        "smoking": "no",
        "takeaway": "yes"
      }
    },
    {
      "type": "node",
      "id": 4447124200,
      "lat": 12.9376671,
      "lon": 77.5676462,
      "tags": {
        "addr:city": "Bangalore",
        "addr:postcode": "560004",
        "addr:street": "7th Cross Road, NR Colony, Basavangudi,",
        "amenity": "restaurant",
        "cuisine": "regional",
        "delivery": "no",
        "name": "Hotel Dwarka",
        "opening_hours": "We-Su 07:00-20:30",
        "phone": "080 2590 5217",
        "smoking": "no",
        "takeaway": "yes"
      }
    },
    {
      "type": "node",
      "id": 4489878612,
      "lat": 12.940781,
      "lon": 77.5730429,
      "tags": {
        "addr:city": "Bangalore",
        "addr:postcode": "560004",
        "addr:street": "Netta Kalappa Circle",
        "leisure": "sports_centre",
        "name": "Fitness 24/7",
        "opening_hours": "05:00-23:00",
        "phone": "080 4097 0718"
      }
    },
    {
      "type": "node",
      "id": 4506524892,
      "lat": 12.9399994,
      "lon": 77.5719477,
      "tags": {
        "addr:postcode": "560004",
        "addr:street": "Puttana Road",
        "amenity": "theatre",
        "name": "ಅಂತರಂಗ",
        "name:en": "Antharanga",
        "name:kn": "ಅಂತರಂಗ",
        "phone": "98866 24687",
        "website": "http://www.antharanga.in"
      }
    },
    {
      "type": "node",
      "id": 4655064781,
      "lat": 12.9427251,
      "lon": 77.5712748,
      "tags": {
        "addr:city": "Bangalore",
        "addr:housenumber": "121",
        "addr:postcode": "560004",
        "addr:street": "D V Gundappa Road",
        "amenity": "bank",
        "brand": "Allahabad Bank",
        "brand:wikidata": "Q2018840",
        "brand:wikipedia": "en:Allahabad Bank",
        "fax": "080-26625632",
        "name": "Allahabad Bank",
        "name:en": "Allahabad Bank",
        "name:kn": "ಅಲ್ಲಹಾಬಾದ್ ಬ್ಯಾಂಕ್",
        "phone": "080-26679442",
        "phone_1": "080-26625632",
        "website": "https://www.allahabadbank.in"
      }
    },
    {
      "type": "node",
      "id": 4884891000,
      "lat": 12.9377734,
      "lon": 77.5690046,
      "tags": {
        "amenity": "place_of_worship",
        "name": "Ambabavani Temple",
        "name:kn": "ಅಂಬಭವಾನಿ",
        "religion": "hindu"
      }
    },
    {
      "type": "node",
      "id": 5234740176,
      "lat": 12.9403707,
      "lon": 77.5730845,
      "tags": {
        "amenity": "toilets",
        "unisex": "yes"
      }
    },
    {
      "type": "node",
      "id": 5234742318,
      "lat": 12.942235,
      "lon": 77.5713091,
      "tags": {
        "amenity": "motorcycle_parking"
      }
    },
    {
      "type": "node",
      "id": 5249129421,
      "lat": 12.9334146,
      "lon": 77.5626612,
      "tags": {
        "amenity": "pharmacy",
        "name": "ಬಾಲಾಜಿ ಮೆಡಿಕಲ್ಸ್"
      }
    },
    {
      "type": "node",
      "id": 5530812455,
      "lat": 12.9400337,
      "lon": 77.5730676,
      "tags": {
        "addr:city": "Bangalore",
        "addr:postcode": "560004",
        "addr:street": "Netta Kalappa Circle",
        "amenity": "place_of_worship",
        "name": "Ganesha Temple",
        "name:kn": "ಗಣೇಶ ದೇವಸ್ಥಾನ",
        "religion": "hindu"
      }
    },
    {
      "type": "node",
      "id": 6937814427,
      "lat": 12.9376087,
      "lon": 77.5666429,
      "tags": {
        "addr:district": "Bengaluru Urban",
        "addr:full": "#118, 5 Th Main , 7Th Cross, N R Colony , Bull Temple Road",
        "addr:postcode": "560019",
        "addr:state": "Karnataka",
        "amenity": "hospital",
        "name": "Balaji Hospital and Gastroenterology Center",
        "source": "OpenGovernmentData"
      }
    },
    {
      "type": "node",
      "id": 6938466198,
      "lat": 12.9377943,
      "lon": 77.5650564,
      "tags": {
        "addr:city": "Bengaluru",
        "addr:district": "Bengaluru Urban",
        "addr:full": "89, 7th cross, N R Colony, Near Bull temple",
        "addr:postcode": "560050",
        "addr:state": "Karnataka",
        "amenity": "clinic",
        "email": "info@karthiknetralaya.com",
        "healthcare": "hospital",
        "healthcare:speciality": "ophthalmology",
        "name": "Karthik Nethralaya",
        "operator:type": "private",
        "source": "OpenGovernmentData",
        "website": "https://www.karthiknetralaya.com/"
      }
    },
    {
      "type": "node",
      "id": 7018761629,
      "lat": 12.9379662,
      "lon": 77.568428,
      "tags": {
        "addr:city": "Bengaluru",
        "addr:street": "Subbrama Chetty Road",
        "amenity": "pharmacy",
        "brand": "Apollo Pharmacy",
        "brand:wikidata": "Q62562612",
        "dispensing": "yes",
        "drive_through": "no",
        "healthcare": "pharmacy",
        "name": "Apollo Pharmacy",
        "name:kn": "ಅಪೋಲೋ ಫಾರ್ಮಸಿ",
        "operator": "Apollo Pharmacy"
      }
    },
    {
      "type": "node",
      "id": 7044834775,
      "lat": 12.9422487,
      "lon": 77.568503,
      "tags": {
        "leisure": "fitness_station"
      }
    },
    {
      "type": "node",
      "id": 7281512285,
      "lat": 12.9417567,
      "lon": 77.5687277,
      "tags": {
        "amenity": "place_of_worship",
        "name": "Bull Temple",
        "religion": "hindu"
      }
    },
    {
      "type": "node",
      "id": 7576958058,
      "lat": 12.9407834,
      "lon": 77.5713263,
      "tags": {
        "addr:district": "Bengaluru Urban",
        "addr:full": "DVG Road, Basavanagudi, Bengaluru",
        "addr:postcode": "560004",
        "addr:state": "Karnataka",
        "amenity": "clinic",
        "name": "Shubha Clinic",
        "source": "Local Knowledge"
      }
    },
    {
      "type": "node",
      "id": 7576958087,
      "lat": 12.940859,
      "lon": 77.570214,
      "tags": {
        "addr:district": "Bengaluru Urban",
        "addr:full": "Basavanagudi, Bengaluru",
        "addr:postcode": "560004",
        "addr:state": "Karnataka",
        "amenity": "clinic",
        "name": "Jubilee Nursing Home",
        "source": "Local Knowledge"
      }
    },
    {
      "type": "node",
      "id": 7576958098,
      "lat": 12.94269,
      "lon": 77.571261,
      "tags": {
        "addr:district": "Bengaluru Urban",
        "addr:full": "DVG Road, Basavanagudi, Bengaluru",
        "addr:postcode": "560004",
        "addr:state": "Karnataka",
        "amenity": "clinic",
        "name": "Happy Clinics - Multispeciality",
        "source": "Local Knowledge"
      }
    },
    {
      "type": "node",
      "id": 7579924732,
      "lat": 12.9334096,
      "lon": 77.5622345,
      "tags": {
        "addr:district": "Bengaluru Urban",
        "addr:full": "Vidyapeeta Layout, Basavanagudi, Bengaluru",
        "addr:postcode": "560050",
        "addr:state": "Karnataka",
        "amenity": "hospital",
        "name": "Bharathi Hospitals",
        "source": "Local Knowledge"
      }
    },
    {
      "type": "node",
      "id": 8408521644,
      "lat": 12.9378288,
      "lon": 77.5692035,
      "tags": {
        "name": "Nandini Milk Booth",
        "name:kn": "ನಂದಿನಿ ಹಾಲಿನ ಅಂಗಡಿ",
        "shop": "dairy"
      }
    },
    {
      "type": "node",
      "id": 8727014188,
      "lat": 12.9337223,
      "lon": 77.5623383,
      "tags": {
        "addr:city": "Bengaluru",
        "addr:housenumber": "408",
        "addr:postcode": "560028",
        "addr:street": "2nd main Vidya Peetha Layout",
        "amenity": "place_of_worship",
        "name": "Sri SIdhi Subrahmanya Temple",
        "religion": "hindu",
        "service_times": "Subrahmanya Temple"
      }
    },
    {
      "type": "node",
      "id": 9709504787,
      "lat": 12.9421932,
      "lon": 77.5703658,
      "tags": {
        "name": "Nandini Milk Parlour",
        "shop": "dairy"
      }
    },
    {
      "type": "node",
      "id": 9709504794,
      "lat": 12.9423069,
      "lon": 77.5705221,
      "tags": {
        "amenity": "fast_food",
        "cuisine": "regional",
        "name": "by2coffee",
        "takeaway": "yes"
      }
    },
    {
      "type": "node",
      "id": 9709504795,
      "lat": 12.942301,
      "lon": 77.570453,
      "tags": {
        "amenity": "fast_food",
        "cuisine": "regional",
        "name": "Bombay and Kolkata Chats"
      }
    },
    {
      "type": "node",
      "id": 9709504796,
      "lat": 12.9422931,
      "lon": 77.5717552,
      "tags": {
        "name": "Sri Krishna Sweets",
        "shop": "confectionery"
      }
    },
    {
      "type": "node",
      "id": 10823514250,
      "lat": 12.9376767,
      "lon": 77.5717354,
      "tags": {
        "amenity": "drinking_water"
      }
    },
    {
      "type": "node",
      "id": 10840493105,
      "lat": 12.9352842,
      "lon": 77.567491,
      "tags": {
        "addr:postcode": "560028",
        "addr:street": "4th Main Road",
        "name": "Kumar Medical Store",
        "opening_hours": "Mo-Su 10:00-13:00, 16:00-21:00",
        "shop": "chemist"
      }
    },
    {
      "type": "node",
      "id": 11314428137,
      "lat": 12.9404688,
      "lon": 77.5713638,
      "tags": {
        "amenity": "cafe",
        "cafe": "board_game",
        "contact:instagram": "board4bored_official",
        "name": "Board 4 Bored"
      }
    },
    {
      "type": "node",
      "id": 11693735533,
      "lat": 12.9419235,
      "lon": 77.5712377,
      "tags": {
        "addr:city": "Bangaluru",
        "addr:district": "Bengaluru",
        "addr:postcode": "560004",
        "addr:street": "No 16, DVG Gundappa Rd, opp. to Krishna Sweets, Diagonally, Basavanagudi",
        "name": "Hema Jewellers, DVG Road",
        "phone": "8448448741",
        "shop": "jewelry"
      }
    },
    {
      "type": "node",
      "id": 12208448686,
      "lat": 12.9370597,
      "lon": 77.5731459,
      "tags": {
        "amenity": "cafe",
        "contact:instagram": "brewinguntoldstories",
        "cuisine": "coffee_shop",
        "name": "Brewing Untold Stories"
      }
    },
    {
      "type": "node",
      "id": 12546212501,
      "lat": 12.9380412,
      "lon": 77.5692291,
      "tags": {
        "amenity": "restaurant",
        "name": "Uttara Karnatakada Gama Gama"
      }
    },
    {
      "type": "way",
      "id": 172845845,
      "center": {
        "lat": 12.9415239,
        "lon": 77.5659049
      },
      "tags": {
        "amenity": "college",
        "name": "BMS College of Engineering",
        "name:kn": "ಬಿಎಂಎಸ್ ತಾಂತ್ರಿಕ ಮಹಾವಿದ್ಯಾಲಯ",
        "wikidata": "Q4833841",
        "wikimedia_commons": "Category:B. M. Sreenivasaiah College of Engineering",
        "wikipedia": "en:B.M.S. College of Engineering"
      }
    },
    {
      "type": "way",
      "id": 188433928,
      "center": {
        "lat": 12.9409007,
        "lon": 77.5734925
      },
      "tags": {
        "amenity": "community_centre",
        "building": "yes",
        "name": "Dwarakanath Bhavan",
        "name:kn": "ದ್ವಾರಕನಾಥ ಭವನ"
      }
    },
    {
      "type": "way",
      "id": 299877333,
      "center": {
        "lat": 12.9421433,
        "lon": 77.5692538
      },
      "tags": {
        "fixme": "borders",
        "leisure": "park",
        "name": "Bugle Rock Park",
        "name:kn": "ಕಹಳೆಬಂಡೆ ಉದ್ಯಾನವನ",
        "wikidata": "Q4986214",
        "wikimedia_commons": "Category:Bugle Rock",
        "wikipedia": "en:Bugle Rock"
      }
    },
    {
      "type": "way",
      "id": 299877334,
      "center": {
        "lat": 12.9418582,
        "lon": 77.5679447
      },
      "tags": {
        "addr:street": "Bull Temple Road",
        "alt_name": "Basava Temple",
        "amenity": "place_of_worship",
        "building": "temple",
        "name": "Shri Doddabasavanna Temple",
        "name:kn": "ಶ್ರೀ ದೊಡ್ಡಬಸವಣ್ಣ ದೇವಸ್ಥಾನ",
        "religion": "hindu"
      }
    },
    {
      "type": "way",
      "id": 299877335,
      "center": {
        "lat": 12.942878,
        "lon": 77.5682145
      },
      "tags": {
        "addr:street": "Bull Temple Road",
        "amenity": "place_of_worship",
        "building": "temple",
        "name": "Dodda Ganesha Temple",
        "name:kn": "ದೊಡ್ಡ ಗಣೇಶ ಗುಡಿ",
        "religion": "hindu",
        "wikipedia": "en:Dodda Basavana Gudi"
      }
    },
    {
      "type": "way",
      "id": 327061225,
      "center": {
        "lat": 12.9400303,
        "lon": 77.5687111
      },
      "tags": {
        "leisure": "pitch"
      }
    },
    {
      "type": "way",
      "id": 347437479,
      "center": {
        "lat": 12.9433275,
        "lon": 77.5682752
      },
      "tags": {
        "addr:street": "Bull Temple Road",
        "amenity": "townhall",
        "building": "yes",
        "name": "Sri Dharmasthala Manjunathaswamy Kalyana Mantapa",
        "name:kn": "ಶ್ರೀ ಮಂಜುನಾಥಸ್ವಾಮಿ ಕಲ್ಯಾಣ ಮಂಟಪ"
      }
    },
    {
      "type": "way",
      "id": 347564363,
      "center": {
        "lat": 12.9380404,
        "lon": 77.5686782
      },
      "tags": {
        "addr:city": "Bengaluru",
        "addr:street": "Subbrama Chetty Road",
        "amenity": "restaurant",
        "building": "yes",
        "cuisine": "regional",
        "delivery": "no",
        "description": "Onion and Garlic not used in food preparation; Sambar not provided; Chutney only",
        "name": "South Kitchen",
        "name:kn": "ಸೌತ್ ಕಿಚನ್",
        "opening_hours": "06:00-12:00,16:00-21:00",
        "smoking": "no",
        "takeaway": "yes"
      }
    },
    {
      "type": "way",
      "id": 347564483,
      "center": {
        "lat": 12.9428531,
        "lon": 77.5730351
      },
      "tags": {
        "amenity": "community_centre",
        "building": "yes",
        "name": "Dwaraka Samsthana Hall",
        "name:kn": "ದ್ವಾರಕ ಸಂಸ್ಥಾನ ಹಾಲ್"
      }
    },
    {
      "type": "way",
      "id": 348284790,
      "center": {
        "lat": 12.9392713,
        "lon": 77.5722594
      },
      "tags": {
        "addr:city": "Bangalore",
        "addr:housenumber": "167/B",
        "addr:postcode": "560004",
        "addr:street": "Subbarama ChettyRoad,Basavanagudi",
        "amenity": "bank",
        "brand": "Union Bank of India",
        "brand:wikidata": "Q2004078",
        "building": "yes",
        "building:levels": "2",
        "name": "Union Bank of India",
        "name:kn": "ಕಾರ್ಪೋರೇಶನ್ ಬ್ಯಾಂಕ್"
      }
    },
    {
      "type": "way",
      "id": 350572306,
      "center": {
        "lat": 12.9378721,
        "lon": 77.5674301
      },
      "tags": {
        "amenity": "restaurant",
        "building": "yes",
        "name": "Kumara Bhavana",
        "name:kn": "ಕುಮಾರ ಭವನ"
      }
    },
    {
      "type": "way",
      "id": 352455939,
      "center": {
        "lat": 12.937797,
        "lon": 77.5704139
      },
      "tags": {
        "amenity": "place_of_worship",
        "building": "yes",
        "denomination": "hindu",
        "name": "Raghavendra Swamy Temple",
        "name:kn": "ರಾಘವೇಂದ್ರ ಸ್ವಾಮಿ ದೇವಸ್ಥಾನ",
        "religion": "hindu"
      }
    },
    {
      "type": "way",
      "id": 361108347,
      "center": {
        "lat": 12.9400755,
        "lon": 77.5730879
      },
      "tags": {
        "addr:city": "Bengaluru",
        "addr:postcode": "560004",
        "addr:street": "Nettakallappa Cir, Basavanagudi",
        "amenity": "place_of_worship",
        "building": "yes",
        "name": "Shri Varasiddhi Vinayaka Temple",
        "religion": "hindu"
      }
    },
    {
      "type": "way",
      "id": 361108397,
      "center": {
        "lat": 12.9400943,
        "lon": 77.5732639
      },
      "tags": {
        "leisure": "pitch",
        "lit": "yes",
        "sport": "volleyball",
        "surface": "dirt"
      }
    },
    {
      "type": "way",
      "id": 362907458,
      "center": {
        "lat": 12.9375529,
        "lon": 77.5690154
      },
      "tags": {
        "designation": "BBMP Park",
        "leisure": "park"
      }
    },
    {
      "type": "way",
      "id": 362907846,
      "center": {
        "lat": 12.9378191,
        "lon": 77.5714966
      },
      "tags": {
        "leisure": "park",
        "name": "Shamanna Park",
        "name:kn": "ಶಾಮಣ್ಣ ಉದ್ಯಾನವನ"
      }
    },
    {
      "type": "way",
      "id": 490824219,
      "center": {
        "lat": 12.9380703,
        "lon": 77.569026
      },
      "tags": {
        "addr:city": "Bengaluru",
        "addr:street": "Subbrama Chetty Road",
        "amenity": "bus_station",
        "building": "yes",
        "bus": "yes",
        "internet_access": "no",
        "name": "N. R. Colony Bus Station",
        "name:kn": "ಎನ್.  ಆರ್.  ಕಾಲೋನಿ ಬಸ್ ನಿಲ್ದಾಣ",
        "operator": "BMTC",
        "public_transport": "station"
      }
    },
    {
      "type": "way",
      "id": 496821816,
      "center": {
        "lat": 12.9377267,
        "lon": 77.5697859
      },
      "tags": {
        "amenity": "hospital",
        "building": "yes",
        "healthcare": "hospital",
        "name": "Government Maternity Hospital",
        "name:kn": "ಸರಕಾರಿ ಹೆರಿಗೆ ಆಸ್ಪತ್ರೆ"
      }
    },
    {
      "type": "way",
      "id": 525505250,
      "center": {
        "lat": 12.9377938,
        "lon": 77.5706994
      },
      "tags": {
        "addr:city": "Bangalore",
        "amenity": "place_of_worship",
        "building": "yes",
        "denomination": "hindu",
        "name": "Sri Rama Temple",
        "name:kn": "ಶ್ರೀ ರಾಮ ದೇವಸ್ಥಾನ",
        "religion": "hindu"
      }
    },
    {
      "type": "way",
      "id": 525506839,
      "center": {
        "lat": 12.9408006,
        "lon": 77.5689519
      },
      "tags": {
        "addr:city": "Bengaluru",
        "addr:postcode": "560004",
        "addr:street": "Mallikarjuna Temple St, Basavanagudi",
        "amenity": "place_of_worship",
        "building": "yes",
        "name": "Shri Mallikarjuna Swamy Devasthana",
        "religion": "hindu"
      }
    },
    {
      "type": "way",
      "id": 687319732,
      "center": {
        "lat": 12.9413364,
        "lon": 77.5674679
      },
      "tags": {
        "addr:district": "Bengaluru Urban",
        "addr:full": "618, Sri Mallikarjuna Swamy Temple St, N.R. Colony",
        "addr:postcode": "560019",
        "addr:state": "Karnataka",
        "amenity": "hospital",
        "name": "BMS Hospital",
        "source": "OpenGovernmentData"
      }
    },
    {
      "type": "way",
      "id": 687319737,
      "center": {
        "lat": 12.9400098,
        "lon": 77.5677654
      },
      "tags": {
        "addr:street": "Bull Temple Road",
        "amenity": "school",
        "name": "APS Public School",
        "name:kn": "ಎಪಿಎಸ್ ಪಬ್ಲಿಕ್ ಶಾಲೆ"
      }
    },
    {
      "type": "way",
      "id": 750407962,
      "center": {
        "lat": 12.9377356,
        "lon": 77.5646429
      },
      "tags": {
        "amenity": "post_office",
        "building": "yes",
        "name": "Ashokanagara Post Office",
        "name:kn": "ಅಶೋಕನಗರ ಅಂಚೆ ಕಛೇರಿ",
        "operator": "India Post",
        "operator:wikidata": "Q3519720"
      }
    },
    {
      "type": "way",
      "id": 1163783145,
      "center": {
        "lat": 12.9371459,
        "lon": 77.5691968
      },
      "tags": {
        "amenity": "marketplace"
      }
    },
    {
      "type": "way",
      "id": 1163783146,
      "center": {
        "lat": 12.9376192,
        "lon": 77.569067
      },
      "tags": {
        "leisure": "playground"
      }
    },
    {
      "type": "way",
      "id": 1163783152,
      "center": {
        "lat": 12.9378158,
        "lon": 77.5716137
      },
      "tags": {
        "leisure": "playground"
      }
    },
    {
      "type": "way",
      "id": 1330344691,
      "center": {
        "lat": 12.9399296,
        "lon": 77.5736937
      },
      "tags": {
        "leisure": "park"
      }
    }
  ]
}