{
  "area_name": "Narasipura Layout",
  "osm_id": 12805665230,
  "osm_type": "node",
  "place_type": "neighbourhood",
  "amenity_count": 140,
  "amenities": [
    {
      "type": "node",
      "id": 1463622765,
      "lat": 13.0797232,
      "lon": 77.5622908,
      "tags": {
        "amenity": "place_of_worship",
        "name": "Durga Devi Temple",
        "name:kn": "ದುರ್ಗದೇವಿ ದೇವಸ್ಥಾನ",
        "religion": "hindu"
      }
    },
    {
      "type": "node",
      "id": 1463623742,
      "lat": 13.0813561,
      "lon": 77.5597829,
      "tags": {
        "amenity": "atm",
        "brand": "ICICI Bank",
        "brand:wikidata": "Q1653258",
        "name": "ICICI Bank",
        "operator": "ICICI Bank",
        "operator:wikidata": "Q1653258",
        "short_name": "ICICI"
      }
    },
    {
      "type": "node",
      "id": 1463624305,
      "lat": 13.0803293,
      "lon": 77.5591419,
      "tags": {
        "brand": "Reliance Fresh",
        "brand:wikidata": "Q7311014",
        "name": "Reliance Fresh",
        "name:kn": "ರಿಲಾಯನ್ಸ್ ಫ್ರೆಶ್",
        "shop": "supermarket"
      }
    },
    {
      "type": "node",
      "id": 1463640923,
      "lat": 13.0797112,
      "lon": 77.5591265,
      "tags": {
        "addr:city": "Bangalore",
        "addr:postcode": "560097",
        "addr:street": "Vidyaranyapura Road",
        "alt_name": "A2B",
        "amenity": "restaurant",
        "brand": "Adyar Ananda Bhavan",
        "brand:wikidata": "Q15178238",
        "cuisine": "regional",
        "diet:vegetarian": "only",
        "name": "Adyar Ananda Bhavan",
        "name:kn": "ಆದ್ಯಾರ್ ಆನಂದ ಭವನ",
        "operator": "Adyar Ananda Bhavan",
        "phone": "+91 99029 90811",
        "smoking": "no",
        "website": "https://aabsweets.com"
      }
    },
    {
      "type": "node",
      "id": 1463641277,
      "lat": 13.0790883,
      "lon": 77.5588656,
      "tags": {
        "name": "Food World",
        "shop": "supermarket"
      }
    },
    {
      "type": "node",
      "id": 1463642683,
      "lat": 13.0775498,
      "lon": 77.5587667,
      "tags": {
        "amenity": "restaurant",
        "name": "Sri Krishna Upahar",
        "name:kn": "ಶ್ರೀ ಕೃಷ್ಣ ಉಪಹಾರ"
      }
    },
    {
      "type": "node",
      "id": 1463643684,
      "lat": 13.0767862,
      "lon": 77.558223,
      "tags": {
        "amenity": "bank",
        "atm": "yes",
        "brand:wikidata": "Q1340361",
        "brand:wikipedia": "en:State Bank of India",
        "name": "State Bank of India",
        "name:kn": "ಭಾರತೀಯ ಸ್ಟೇಟ್ ಬ್ಯಾಂಕ್",
        "short_name": "SBI",
        "website": "https://www.sbi.co.in"
      }
    },
    {
      "type": "node",
      "id": 1463643963,
      "lat": 13.0769096,
      "lon": 77.558535,
      "tags": {
        "name": "Mythri Bazaar",
        "shop": "convenience"
      }
    },
    {
      "type": "node",
      "id": 1463644516,
      "lat": 13.0757912,
      "lon": 77.5577739,
      "tags": {
        "amenity": "post_office",
        "name": "Vidyaranyapura",
        "name:kn": "ವಿದ್ಯಾರಣ್ಯಪುರ"
      }
    },
    {
      "type": "node",
      "id": 1463645024,
      "lat": 13.0757025,
      "lon": 77.558427,
      "tags": {
        "amenity": "bank",
        "atm": "yes",
        "brand": "Syndicate Bank",
        "brand:wikidata": "Q2004088",
        "name": "Syndicate Bank",
        "name:en": "Syndicate Bank",
        "name:kn": "ಸಿಂಡಿಕೇಟ್ ಬ್ಯಾಂಕ್",
        "website": "https://www.syndicatebank.in",
        "wikimedia_commons": "Category:Syndicate Bank"
      }
    },
    {
      "type": "node",
      "id": 1463645518,
      "lat": 13.0753105,
      "lon": 77.5579778,
      "tags": {
        "amenity": "cafe",
        "name": "Cafe Coffee Day",
        "name:kn": "ಕಫೆ ಕಾಫಿ ಡೇ"
      }
    },
    {
      "type": "node",
      "id": 2335452268,
      "lat": 13.0763182,
      "lon": 77.5569872,
      "tags": {
        "amenity": "school",
        "name": "Little Lilly's chool"
      }
    },
    {
      "type": "node",
      "id": 2337745749,
      "lat": 13.0841934,
      "lon": 77.5604445,
      "tags": {
        "amenity": "atm",
        "brand": "Axis Bank",
        "brand:wikidata": "Q2003549",
        "name": "Axis Bank",
        "name:kn": "ಆಕ್ಸಿಸ್ ಬ್ಯಾಂಕ್ ಎಟಿಎಂ",
        "operator": "Axis Bank",
        "operator:wikidata": "Q2003549"
      }
    },
    {
      "type": "node",
      "id": 2337745750,
      "lat": 13.0839191,
      "lon": 77.5609033,
      "tags": {
        "amenity": "bank",
        "brand": "State Bank of India",
        "brand:wikidata": "Q1340361",
        "brand:wikipedia": "en:State Bank of India",
        "name": "State Bank of India",
        "name:kn": "ಭಾರತೀಯ ಸ್ಟೇಟ್ ಬ್ಯಾಂಕ್",
        "short_name": "SBI",
        "website": "https://www.sbi.co.in"
      }
    },
    {
      "type": "node",
      "id": 2342910389,
      "lat": 13.0753507,
      "lon": 77.5580493,
      "tags": {
        "amenity": "fast_food",
        "brand": "Beijing Bites",
        "brand:wikidata": "Q124374289",
        "cuisine": "chinese",
        "delivery": "yes",
        "name": "Beijing Bites",
        "name:kn": "ಬೀಜಿಂಗ್ ಬೈಟ್ಸ್",
        "takeaway": "yes"
      }
    },
    {
      "type": "node",
      "id": 2343099977,
      "lat": 13.0774744,
      "lon": 77.5587548,
      "tags": {
        "addr:district": "Bengaluru Urban",
        "addr:full": "17, Nti Layout, Vidyaranyapura",
        "addr:postcode": "560097",
        "addr:state": "Karnataka",
        "amenity": "hospital",
        "healthcare": "hospital",
        "name": "Soukya Hospital",
        "source": "OpenGovernmentData"
      }
    },
    {
      "type": "node",
      "id": 2343099978,
      "lat": 13.0770166,
      "lon": 77.5585772,
      "tags": {
        "amenity": "bank",
        "atm": "yes",
        "brand": "HDFC Bank",
        "brand:wikidata": "Q631047",
        "brand:wikipedia": "en:HDFC Bank",
        "name": "HDFC Bank",
        "name:kn": "ಎಚ್ ಡಿ ಎಫ್ ಸಿ",
        "short_name": "HDFC",
        "website": "https://www.hdfcbank.com"
      }
    },
    {
      "type": "node",
      "id": 2344090204,
      "lat": 13.0862742,
      "lon": 77.5554523,
      "tags": {
        "amenity": "bar",
        "name": "Raksha Bar and Restaurant"
      }
    },
    {
      "type": "node",
      "id": 2344097516,
      "lat": 13.0814716,
      "lon": 77.559567,
      "tags": {
        "name": "Easy Day",
        "shop": "supermarket"
      }
    },
    {
      "type": "node",
      "id": 2349466963,
      "lat": 13.0754182,
      "lon": 77.5577982,
      "tags": {
        "amenity": "atm",
        "name": "ING Bank"
      }
    },
    {
      "type": "node",
      "id": 2351851714,
      "lat": 13.0795306,
      "lon": 77.5590352,
      "tags": {
        "amenity": "bank",
        "atm": "yes",
        "brand": "Karnataka Bank",
        "brand:wikidata": "Q2042632",
        "name": "Karnataka Bank",
        "name:kn": "ಕರ್ನಾಟಕ ಬ್ಯಾಂಕ್"
      }
    },
    {
      "type": "node",
      "id": 2351851719,
      "lat": 13.0782069,
      "lon": 77.558981,
      "tags": {
        "amenity": "atm",
        "name": "DCB Bank"
      }
    },
    {
      "type": "node",
      "id": 2351851722,
      "lat": 13.0785089,
      "lon": 77.5590898,
      "tags": {
        "amenity": "bank",
        "atm": "yes",
        "brand:wikidata": "Q2003611",
        "brand:wikipedia": "en:Indian Overseas Bank",
        "name": "Indian Overseas Bank",
        "name:en": "Indian Overseas Bank",
        "short_name": "IOB",
        "website": "https://www.iob.in"
      }
    },
    {
      "type": "node",
      "id": 2351851726,
      "lat": 13.0789222,
      "lon": 77.5592094,
      "tags": {
        "amenity": "library",
        "name": "Just Books CLC"
      }
    },
    {
      "type": "node",
      "id": 2351851729,
      "lat": 13.0788692,
      "lon": 77.5591795,
      "tags": {
        "amenity": "fast_food",
        "brand": "Domino's",
        "brand:ks": "ڈومینوز",
        "brand:pa": "ਡੋਮੀਨੋਜ਼",
        "brand:ur": "ڈومینوز",
        "brand:wikidata": "Q839466",
        "brand:wikipedia": "en:Domino's Pizza",
        "cuisine": "pizza",
        "name": "Domino's",
        "name:kn": "ಡಾಮಿನೋಸ್",
        "name:ks": "ڈومینوز",
        "name:pa": "ਡੋਮੀਨੋਜ਼",
        "name:ur": "ڈومینوز"
      }
    },
    {
      "type": "node",
      "id": 2351894384,
      "lat": 13.0812236,
      "lon": 77.5594805,
      "tags": {
        "amenity": "bank",
        "atm": "no",
        "brand": "Corporation Bank",
        "brand:wikidata": "Q2003387",
        "brand:wikipedia": "en:Corporation Bank",
        "name": "Corporation Bank",
        "name:en": "Corporation Bank",
        "name:kn": "ಕಾರ್ಪರೇಷನ್ ಬ್ಯಾಂಕ್",
        "website": "https://corpbank.com/"
      }
    },
    {
      "type": "node",
      "id": 2353259146,
      "lat": 13.0802741,
      "lon": 77.5594981,
      "tags": {
        "amenity": "library",
        "name": "City Central Library",
        "name:kn": "ಕೇಂದ್ರಿಯ ಗ್ರಂಥಾಲಯ"
      }
    },
    {
      "type": "node",
      "id": 2353259148,
      "lat": 13.0841288,
      "lon": 77.5601764,
      "tags": {
        "amenity": "place_of_worship",
        "name": "Sri Raghavendraswamy Temple",
        "name:kn": "ರಾಘವೇಂದ್ರಸ್ವಾಮಿ ದೇವಸ್ಥಾನ",
        "religion": "hindu"
      }
    },
    {
      "type": "node",
      "id": 4469903721,
      "lat": 13.0788541,
      "lon": 77.5591782,
      "tags": {
        "addr:city": "Bangalore",
        "addr:postcode": "560097",
        "addr:street": "Vidyaranyapura Road",
        "amenity": "cafe",
        "cuisine": "pastry",
        "internet_access": "no",
        "name": "Amma's Pastry"
      }
    },
    {
      "type": "node",
      "id": 4469903726,
      "lat": 13.0856906,
      "lon": 77.555749,
      "tags": {
        "amenity": "bank"
      }
    },
    {
      "type": "node",
      "id": 7227496271,
      "lat": 13.0845049,
      "lon": 77.5527571,
      "tags": {
        "amenity": "bank",
        "atm": "yes",
        "brand": "State Bank of India",
        "brand:wikidata": "Q1340361",
        "name": "State Bank of India",
        "name:kn": "ಭಾರತೀಯ ಸ್ಟೇಟ್ ಬ್ಯಾಂಕ್",
        "operator": "State Bank of India",
        "short_name": "SBI"
      }
    },
    {
      "type": "node",
      "id": 7227496273,
      "lat": 13.0852599,
      "lon": 77.5541224,
      "tags": {
        "brand": "Toyota",
        "name": "Toyota",
        "shop": "car"
      }
    },
    {
      "type": "node",
      "id": 7227496277,
      "lat": 13.0864617,
      "lon": 77.5557974,
      "tags": {
        "amenity": "place_of_worship",
        "religion": "hindu"
      }
    },
    {
      "type": "node",
      "id": 7577248183,
      "lat": 13.083354,
      "lon": 77.553461,
      "tags": {
        "addr:district": "Bengaluru Urban",
        "addr:full": "Vidyaranyapura, Bengaluru",
        "addr:postcode": "560097",
        "addr:state": "Karnataka",
        "amenity": "clinic",
        "name": "Shama Charitable Clinic",
        "source": "Local Knowledge"
      }
    },
    {
      "type": "node",
      "id": 7577248187,
      "lat": 13.0754731,
      "lon": 77.5581028,
      "tags": {
        "addr:district": "Bengaluru Urban",
        "addr:full": "Vidyaranyapura, Bengaluru",
        "addr:postcode": "560097",
        "addr:state": "Karnataka",
        "amenity": "clinic",
        "name": "Anugraha Children's Clinic",
        "source": "Local Knowledge"
      }
    },
    {
      "type": "node",
      "id": 7577248191,
      "lat": 13.0825795,
      "lon": 77.5546587,
      "tags": {
        "addr:district": "Bengaluru Urban",
        "addr:full": "Raghavendra Colony, Vidyaranyapura, Bengaluru",
        "addr:postcode": "560097",
        "addr:state": "Karnataka",
        "amenity": "clinic",
        "name": "Rishi Acupuncture Clinic",
        "source": "Local Knowledge"
      }
    },
    {
      "type": "node",
      "id": 7577248201,
      "lat": 13.0769985,
      "lon": 77.5581801,
      "tags": {
        "addr:district": "Bengaluru Urban",
        "addr:full": "Vidyaranyapura, Bengaluru",
        "addr:postcode": "560097",
        "addr:state": "Karnataka",
        "amenity": "clinic",
        "name": "Bangalore Healthcare Centre",
        "source": "Local Knowledge"
      }
    },
    {
      "type": "node",
      "id": 7577248205,
      "lat": 13.0882301,
      "lon": 77.5560431,
      "tags": {
        "addr:district": "Bengaluru Urban",
        "addr:full": "AMS Layout, Vidyaranyapura, Bengaluru",
        "addr:postcode": "560097",
        "addr:state": "Karnataka",
        "amenity": "dentist",
        "name": "Sonal Dental Care",
        "source": "Local Knowledge"
      }
    },
    {
      "type": "node",
      "id": 7577248206,
      "lat": 13.0810569,
      "lon": 77.5597552,
      "tags": {
        "addr:district": "Bengaluru Urban",
        "addr:full": "Vidyaranyapura, Bengaluru",
        "addr:postcode": "560097",
        "addr:state": "Karnataka",
        "amenity": "dentist",
        "name": "Partha Dental Clinic",
        "source": "Local Knowledge"
      }
    },
    {
      "type": "node",
      "id": 7577248215,
      "lat": 13.079901,
      "lon": 77.554396,
      "tags": {
        "addr:district": "Bengaluru Urban",
        "addr:full": "Balaji Layout, Vidyaranyapura, Bengaluru",
        "addr:postcode": "560097",
        "addr:state": "Karnataka",
        "amenity": "clinic",
        "name": "Oskas Clinic",
        "source": "Local Knowledge"
      }
    },
    {
      "type": "node",
      "id": 7577248217,
      "lat": 13.0780746,
      "lon": 77.5626239,
      "tags": {
        "addr:district": "Bengaluru Urban",
        "addr:full": "Durgaparameshwari Layout, Vidyaranyapura, Bengaluru",
        "addr:postcode": "560097",
        "addr:state": "Karnataka",
        "amenity": "clinic",
        "healthcare": "clinic",
        "name": "Yashaswini ENT Clinic",
        "source": "Local Knowledge"
      }
    },
    {
      "type": "node",
      "id": 7577248220,
      "lat": 13.0847291,
      "lon": 77.5522358,
      "tags": {
        "addr:district": "Bengaluru Urban",
        "addr:full": "Chikkabettahalli, Adityanagar, Vidyaranyapura, Bengaluru",
        "addr:postcode": "560097",
        "addr:state": "Karnataka",
        "amenity": "clinic",
        "name": "Sarwari Poly Clinic",
        "source": "Local Knowledge"
      }
    },
    {
      "type": "node",
      "id": 7577248229,
      "lat": 13.0779282,
      "lon": 77.559589,
      "tags": {
        "addr:district": "Bengaluru Urban",
        "addr:full": "Vidyaranyapura, Bengaluru",
        "addr:postcode": "560097",
        "addr:state": "Karnataka",
        "amenity": "clinic",
        "healthcare": "clinic",
        "name": "Ortho Care Clinic",
        "source": "Local Knowledge"
      }
    },
    {
      "type": "node",
      "id": 7577248237,
      "lat": 13.0799891,
      "lon": 77.5595232,
      "tags": {
        "addr:district": "Bengaluru Urban",
        "addr:full": "Vidyaranyapura, Bengaluru",
        "addr:postcode": "560097",
        "addr:state": "Karnataka",
        "amenity": "dentist",
        "name": "SDM Dental clinic",
        "source": "Local Knowledge"
      }
    },
    {
      "type": "node",
      "id": 7577248238,
      "lat": 13.084278,
      "lon": 77.560395,
      "tags": {
        "addr:district": "Bengaluru Urban",
        "addr:full": "Vidyaranyapura, Bengaluru",
        "addr:postcode": "560097",
        "addr:state": "Karnataka",
        "amenity": "dentist",
        "name": "Nanda Dental Clinic",
        "source": "Local Knowledge"
      }
    },
    {
      "type": "node",
      "id": 7577248239,
      "lat": 13.0866852,
      "lon": 77.5535728,
      "tags": {
        "addr:district": "Bengaluru Urban",
        "addr:full": "Abbasia Colony, Adityanagar, Vidyaranyapura, Bengaluru",
        "addr:postcode": "560097",
        "addr:state": "Karnataka",
        "amenity": "hospital",
        "name": "Santhamma Hospital",
        "source": "Local Knowledge"
      }
    },
    {
      "type": "node",
      "id": 7577248249,
      "lat": 13.07827,
      "lon": 77.5605008,
      "tags": {
        "addr:district": "Bengaluru Urban",
        "addr:full": "HMT Layout, Vidyaranyapura, Bengaluru",
        "addr:postcode": "560097",
        "addr:state": "Karnataka",
        "amenity": "clinic",
        "healthcare": "clinic",
        "name": "Mangala Gowri Clinic",
        "source": "Local Knowledge"
      }
    },
    {
      "type": "node",
      "id": 7577248270,
      "lat": 13.0752791,
      "lon": 77.5595187,
      "tags": {
        "addr:district": "Bengaluru Urban",
        "addr:full": "Vidyaranyapura, Bengaluru",
        "addr:postcode": "560097",
        "addr:state": "Karnataka",
        "amenity": "clinic",
        "healthcare": "clinic",
        "name": "Swarnarani Clinic",
        "source": "Local Knowledge"
      }
    },
    {
      "type": "node",
      "id": 7577248273,
      "lat": 13.075606,
      "lon": 77.55955,
      "tags": {
        "addr:district": "Bengaluru Urban",
        "addr:full": "BEL Layout, Vidyaranyapura, Bengaluru",
        "addr:postcode": "560097",
        "addr:state": "Karnataka",
        "amenity": "clinic",
        "healthcare": "clinic",
        "name": "Kanive Clinic",
        "source": "Local Knowledge"
      }
    },
    {
      "type": "node",
      "id": 7577248276,
      "lat": 13.0755182,
      "lon": 77.5585689,
      "tags": {
        "addr:district": "Bengaluru Urban",
        "addr:full": "BEL Layout, Vidyaranyapura, Bengaluru",
        "addr:postcode": "560097",
        "addr:state": "Karnataka",
        "amenity": "clinic",
        "healthcare": "clinic",
        "name": "Sree Rajeshwari Homeo Clinic",
        "source": "Local Knowledge"
      }
    },
    {
      "type": "node",
      "id": 8188038457,
      "lat": 13.0803204,
      "lon": 77.5535057,
      "tags": {
        "addr:full": "Jamia Masjid Rd, Mohammed Sab Palya, Vidyaranyapura, Bengaluru, Karnataka",
        "addr:state": "Karnataka",
        "amenity": "hospital",
        "name": "Government Hospital",
        "name:kn": "ಸರ್ಕಾರಿ ಆಸ್ಪತ್ರೆ"
      }
    },
    {
      "type": "node",
      "id": 8188038463,
      "lat": 13.0770012,
      "lon": 77.5581038,
      "tags": {
        "addr:full": "OPP HDFC BANK,VIDYARANYAPURA Main Road, Opposite HDFC Bank, Vidyaranyapura Main Road Near NTI Ground, NTI Layout, Vidyaranyapura, Bengaluru, Karnataka",
        "addr:state": "Karnataka",
        "amenity": "hospital",
        "name": "Bangalore Healthcare Center Pranav Ayurveda Hospital"
      }
    },
    {
      "type": "node",
      "id": 8188056969,
      "lat": 13.0845693,
      "lon": 77.551989,
      "tags": {
        "addr:full": "9, Yelahanka Rd, Eshwari Layout C.B Halli, Mohammed Sab Palya, Vidyaranyapura, Bengaluru, Karnataka",
        "addr:state": "Karnataka",
        "amenity": "restaurant",
        "name": "Bismillah Hotel",
        "name:kn": "ಬಿಸ್ಮಿಲ್ಲಾ"
      }
    },
    {
      "type": "node",
      "id": 8324005246,
      "lat": 13.0813664,
      "lon": 77.5598113,
      "tags": {
        "name": "Sangeetha Mobile Pvt. Ltd.",
        "opening_hours": "10:00-22:00",
        "shop": "mobile_phone"
      }
    },
    {
      "type": "node",
      "id": 11438615446,
      "lat": 13.0831673,
      "lon": 77.5631078,
      "tags": {
        "amenity": "shelter",
        "shelter_type": "gazebo"
      }
    },
    {
      "type": "node",
      "id": 11445466246,
      "lat": 13.0752074,
      "lon": 77.5576357,
      "tags": {
        "brand": "Vishal Mega Mart",
        "brand:wikidata": "Q124374377",
        "check_date": "2025-08-09",
        "name": "Vishal Mega Mart",
        "shop": "supermarket"
      }
    },
    {
      "type": "node",
      "id": 11445466250,
      "lat": 13.0770798,
      "lon": 77.558288,
      "tags": {
        "amenity": "fast_food",
        "check_date": "2023-12-23",
        "name": "Annapoorna Refreshments and Sweets"
      }
    },
    {
      "type": "node",
      "id": 11445466251,
      "lat": 13.078783,
      "lon": 77.5588275,
      "tags": {
        "check_date": "2023-12-23",
        "name": "Dharuvesh Honda",
        "shop": "motorcycle"
      }
    },
    {
      "type": "node",
      "id": 11445466254,
      "lat": 13.0816847,
      "lon": 77.5596415,
      "tags": {
        "check_date": "2023-12-23",
        "name": "Sri Murugan Vegetables and Fruits Mandi",
        "shop": "greengrocer"
      }
    },
    {
      "type": "node",
      "id": 11445466258,
      "lat": 13.0894389,
      "lon": 77.5560759,
      "tags": {
        "check_date": "2023-12-23",
        "name": "Woodstock",
        "shop": "furniture"
      }
    },
    {
      "type": "node",
      "id": 11496159208,
      "lat": 13.0838936,
      "lon": 77.5602156,
      "tags": {
        "check_date": "2024-01-07",
        "name": "Sree Ayappa Bakery and Sweets",
        "shop": "bakery"
      }
    },
    {
      "type": "node",
      "id": 11496176804,
      "lat": 13.0860793,
      "lon": 77.5556803,
      "tags": {
        "check_date": "2024-01-07",
        "name": "LJ Iyengar's Bakery and Sweets",
        "shop": "bakery"
      }
    },
    {
      "type": "node",
      "id": 11655480377,
      "lat": 13.0758637,
      "lon": 77.5594245,
      "tags": {
        "access": "private",
        "amenity": "parking",
        "layer": "-1",
        "parking": "underground"
      }
    },
    {
      "type": "node",
      "id": 11655480380,
      "lat": 13.0760544,
      "lon": 77.558943,
      "tags": {
        "access": "private",
        "amenity": "parking",
        "layer": "-1",
        "parking": "underground"
      }
    },
    {
      "type": "node",
      "id": 11655480381,
      "lat": 13.0770119,
      "lon": 77.5603692,
      "tags": {
        "access": "private",
        "amenity": "parking",
        "layer": "-1",
        "parking": "underground"
      }
    },
    {
      "type": "node",
      "id": 11750333399,
      "lat": 13.0834779,
      "lon": 77.5572231,
      "tags": {
        "amenity": "shelter",
        "shelter_type": "gazebo"
      }
    },
    {
      "type": "node",
      "id": 11932321160,
      "lat": 13.0841518,
      "lon": 77.5600968,
      "tags": {
        "amenity": "fast_food",
        "check_date": "2024-05-25",
        "name": "Chamundi Tiffins"
      }
    },
    {
      "type": "node",
      "id": 11932321166,
      "lat": 13.0775559,
      "lon": 77.5584635,
      "tags": {
        "check_date": "2024-05-25",
        "name": "Reliance Trends",
        "shop": "clothes"
      }
    },
    {
      "type": "node",
      "id": 11932321167,
      "lat": 13.077362,
      "lon": 77.5584342,
      "tags": {
        "check_date": "2024-05-25",
        "name": "Fast Fashion",
        "shop": "clothes"
      }
    },
    {
      "type": "node",
      "id": 11932321168,
      "lat": 13.0788455,
      "lon": 77.5588573,
      "tags": {
        "amenity": "fast_food",
        "check_date": "2024-05-25",
        "name": "Majaa Thindi"
      }
    },
    {
      "type": "node",
      "id": 11932360069,
      "lat": 13.0793863,
      "lon": 77.5589985,
      "tags": {
        "amenity": "ice_cream",
        "check_date": "2024-05-25",
        "name": "ibaco"
      }
    },
    {
      "type": "node",
      "id": 11932360070,
      "lat": 13.0794214,
      "lon": 77.5590078,
      "tags": {
        "amenity": "bank",
        "brand": "IDFC First Bank",
        "brand:wikidata": "Q22031467",
        "check_date": "2024-05-25",
        "name": "IDFC First Bank"
      }
    },
    {
      "type": "node",
      "id": 11932360071,
      "lat": 13.0802878,
      "lon": 77.5592291,
      "tags": {
        "check_date": "2024-05-25",
        "name": "iPlanet",
        "shop": "electronics"
      }
    },
    {
      "type": "node",
      "id": 11932360072,
      "lat": 13.0803434,
      "lon": 77.5592571,
      "tags": {
        "check_date": "2024-05-25",
        "name": "Soch",
        "shop": "clothes"
      }
    },
    {
      "type": "node",
      "id": 11932360073,
      "lat": 13.0813906,
      "lon": 77.5594806,
      "tags": {
        "check_date": "2024-05-25",
        "name": "Khadim",
        "shop": "clothes"
      }
    },
    {
      "type": "node",
      "id": 11932360074,
      "lat": 13.0821039,
      "lon": 77.5597423,
      "tags": {
        "check_date": "2024-05-25",
        "name": "Nandu's",
        "shop": "butcher"
      }
    },
    {
      "type": "node",
      "id": 11932360075,
      "lat": 13.0835905,
      "lon": 77.5601301,
      "tags": {
        "check_date": "2024-05-25",
        "name": "Tupperware",
        "shop": "stationery"
      }
    },
    {
      "type": "node",
      "id": 11932360078,
      "lat": 13.0854755,
      "lon": 77.5564887,
      "tags": {
        "check_date": "2024-05-25",
        "shop": "greengrocer"
      }
    },
    {
      "type": "node",
      "id": 11932360082,
      "lat": 13.0893231,
      "lon": 77.5560025,
      "tags": {
        "amenity": "pharmacy",
        "check_date": "2024-05-25",
        "healthcare": "pharmacy"
      }
    },
    {
      "type": "node",
      "id": 12032711265,
      "lat": 13.080117,
      "lon": 77.5595202,
      "tags": {
        "name": "Pai Electronics",
        "shop": "appliance"
      }
    },
    {
      "type": "node",
      "id": 12760135032,
      "lat": 13.0757131,
      "lon": 77.5581831,
      "tags": {
        "check_date": "2025-04-24",
        "name": "Specs Maart",
        "shop": "optician"
      }
    },
    {
      "type": "node",
      "id": 12760135033,
      "lat": 13.0743981,
      "lon": 77.5627906,
      "tags": {
        "check_date": "2025-04-16",
        "hairdresser": "barber",
        "shop": "hairdresser"
      }
    },
    {
      "type": "node",
      "id": 12790987432,
      "lat": 13.0734872,
      "lon": 77.5595071,
      "tags": {
        "amenity": "bench",
        "armrest": "yes",
        "backrest": "yes",
        "note": "scary one",
        "seats": "3"
      }
    },
    {
      "type": "node",
      "id": 12791013874,
      "lat": 13.0736508,
      "lon": 77.55891,
      "tags": {
        "amenity": "bench",
        "armrest": "yes",
        "backrest": "yes",
        "seats": "3"
      }
    },
    {
      "type": "node",
      "id": 12794021966,
      "lat": 13.0740871,
      "lon": 77.5574456,
      "tags": {
        "amenity": "bench",
        "backrest": "yes",
        "material": "stone"
      }
    },
    {
      "type": "node",
      "id": 12801596787,
      "lat": 13.0842726,
      "lon": 77.5602567,
      "tags": {
        "amenity": "bank",
        "brand": "IDBI Bank",
        "brand:wikidata": "Q3633485",
        "check_date": "2025-05-01",
        "name": "IDBI Bank",
        "short_name": "IDBI"
      }
    },
    {
      "type": "node",
      "id": 12801596788,
      "lat": 13.0846426,
      "lon": 77.559319,
      "tags": {
        "amenity": "fast_food",
        "check_date": "2025-05-01",
        "name": "Sri Durga Tiffin"
      }
    },
    {
      "type": "node",
      "id": 12801596789,
      "lat": 13.0846766,
      "lon": 77.5595449,
      "tags": {
        "check_date": "2025-05-01",
        "name": "Pooja Fancy Store",
        "shop": "stationery"
      }
    },
    {
      "type": "node",
      "id": 12801596790,
      "lat": 13.0847183,
      "lon": 77.5594839,
      "tags": {
        "check_date": "2025-05-01",
        "name": "Pooja Provision Store",
        "shop": "kiosk"
      }
    },
    {
      "type": "node",
      "id": 12801596791,
      "lat": 13.0846273,
      "lon": 77.5596326,
      "tags": {
        "check_date": "2025-05-01",
        "name": "Mr. Chai",
        "shop": "tea"
      }
    },
    {
      "type": "node",
      "id": 12801690512,
      "lat": 13.0854157,
      "lon": 77.5586362,
      "tags": {
        "amenity": "bench",
        "armrest": "yes",
        "backrest": "yes",
        "material": "stone"
      }
    },
    {
      "type": "node",
      "id": 12801929992,
      "lat": 13.0864514,
      "lon": 77.5598448,
      "tags": {
        "amenity": "bench",
        "armrest": "yes",
        "backrest": "yes",
        "material": "stone"
      }
    },
    {
      "type": "node",
      "id": 12805665434,
      "lat": 13.08368,
      "lon": 77.5601426,
      "tags": {
        "amenity": "fast_food",
        "name": "Sri Basaveshwara Khanavali"
      }
    },
    {
      "type": "node",
      "id": 13093871380,
      "lat": 13.0838114,
      "lon": 77.5601832,
      "tags": {
        "amenity": "cafe",
        "cuisine": "tea",
        "description": "Good for Lemon Tea, and Chai",
        "name": "Murugan tea stall",
        "outdoor_seating": "no"
      }
    },
    {
      "type": "way",
      "id": 225008786,
      "center": {
        "lat": 13.083976,
        "lon": 77.5615787
      },
      "tags": {
        "leisure": "park",
        "name": "7th Block Park"
      }
    },
    {
      "type": "way",
      "id": 225194405,
      "center": {
        "lat": 13.0814687,
        "lon": 77.5580647
      },
      "tags": {
        "amenity": "school",
        "name": "Sri Sri Ravishankar Vidya Mandir"
      }
    },
    {
      "type": "way",
      "id": 225194406,
      "center": {
        "lat": 13.0802475,
        "lon": 77.5565485
      },
      "tags": {
        "leisure": "park"
      }
    },
    {
      "type": "way",
      "id": 225519655,
      "center": {
        "lat": 13.0760072,
        "lon": 77.558426
      },
      "tags": {
        "description": "Playground Containing Flagpole",
        "leisure": "playground",
        "name": "BBMP Playground"
      }
    },
    {
      "type": "way",
      "id": 225648955,
      "center": {
        "lat": 13.0857283,
        "lon": 77.5576518
      },
      "tags": {
        "amenity": "school",
        "landuse": "education",
        "name": "The Regency Public School"
      }
    },
    {
      "type": "way",
      "id": 225648956,
      "center": {
        "lat": 13.08364,
        "lon": 77.5575438
      },
      "tags": {
        "leisure": "park"
      }
    },
    {
      "type": "way",
      "id": 225648957,
      "center": {
        "lat": 13.0839628,
        "lon": 77.55714
      },
      "tags": {
        "amenity": "school",
        "landuse": "education",
        "name": "Deva Matha Central School"
      }
    },
    {
      "type": "way",
      "id": 400455142,
      "center": {
        "lat": 13.0835244,
        "lon": 77.5608039
      },
      "tags": {
        "amenity": "bus_station",
        "name": "Vidyaranyapura Bus Terminus",
        "name:kn": "ವಿದ್ಯಾರಣ್ಯಪುರ ಬಸ್ ನಿಲ್ದಾಣ"
      }
    },
    {
      "type": "way",
      "id": 469890908,
      "center": {
        "lat": 13.0759988,
        "lon": 77.5560553
      },
      "tags": {
        "amenity": "place_of_worship",
        "landuse": "religious",
        "name": "Sri Vidya Ganapati Temple",
        "name:kn": "ವಿದ್ಯ ಗಣಪತಿ ದೇವಸ್ಥಾನ",
        "religion": "hindu"
      }
    },
    {
      "type": "way",
      "id": 469892595,
      "center": {
        "lat": 13.0753062,
        "lon": 77.5556869
      },
      "tags": {
        "check_date": "2025-04-24",
        "landuse": "recreation_ground",
        "leisure": "sports_centre",
        "name": "Vidyaranyapura BBMP Sports Complex"
      }
    },
    {
      "type": "way",
      "id": 594563628,
      "center": {
        "lat": 13.0827104,
        "lon": 77.5622565
      },
      "tags": {
        "leisure": "park",
        "name": "Ananda Shetty Park",
        "name:kn": "ಆನಂದ ಶೆಟ್ಟಿ ಉದ್ಯಾನವನ"
      }
    },
    {
      "type": "way",
      "id": 594563629,
      "center": {
        "lat": 13.078531,
        "lon": 77.5555057
      },
      "tags": {
        "leisure": "park",
        "name": "NTI Park"
      }
    },
    {
      "type": "way",
      "id": 594566318,
      "center": {
        "lat": 13.0781781,
        "lon": 77.559992
      },
      "tags": {
        "leisure": "park"
      }
    },
    {
      "type": "way",
      "id": 594566322,
      "center": {
        "lat": 13.0778903,
        "lon": 77.5599071
      },
      "tags": {
        "amenity": "place_of_worship",
        "building": "yes",
        "name": "Veeranjaneyaswamy temple",
        "name:kn": "ವೀರಾಂಜನೇಯ ಸ್ವಾಮಿ ದೇವಸ್ಥಾನ",
        "religion": "hindu"
      }
    },
    {
      "type": "way",
      "id": 675649186,
      "center": {
        "lat": 13.0745418,
        "lon": 77.5661145
      },
      "tags": {
        "amenity": "school",
        "name": "Government Higher Primary School",
        "name:kn": "ಸರ್ಕಾರಿ ಹಿರಿಯ ಪ್ರಾಥಮಿಕ ಶಾಲೆ"
      }
    },
    {
      "type": "way",
      "id": 1218027507,
      "center": {
        "lat": 13.0806092,
        "lon": 77.5528965
      },
      "tags": {
        "addr:city": "Bangalore",
        "addr:district": "Bengaluru Urban",
        "addr:postcode": "560097",
        "addr:street": "Jamia Masjid Rd",
        "amenity": "place_of_worship",
        "building": "yes",
        "denomination": "sunni",
        "name": "Jama Masjid MS Palya",
        "name:kn": "ಜಮ ಮಸ್ಜಿದ್",
        "religion": "muslim"
      }
    },
    {
      "type": "way",
      "id": 1232959694,
      "center": {
        "lat": 13.0766519,
        "lon": 77.5593588
      },
      "tags": {
        "access": "private",
        "leisure": "swimming_pool"
      }
    },
    {
      "type": "way",
      "id": 1232959725,
      "center": {
        "lat": 13.0752659,
        "lon": 77.5556347
      },
      "tags": {
        "access": "permissive",
        "leisure": "pitch",
        "sport": "tennis"
      }
    },
    {
      "type": "way",
      "id": 1232959726,
      "center": {
        "lat": 13.0749507,
        "lon": 77.555464
      },
      "tags": {
        "access": "permissive",
        "leisure": "pitch",
        "sport": "basketball"
      }
    },
    {
      "type": "way",
      "id": 1232959727,
      "center": {
        "lat": 13.0749639,
        "lon": 77.5558036
      },
      "tags": {
        "access": "permissive",
        "leisure": "swimming_pool"
      }
    },
    {
      "type": "way",
      "id": 1232959768,
      "center": {
        "lat": 13.0830615,
        "lon": 77.5630896
      },
      "tags": {
        "leisure": "park"
      }
    },
    {
      "type": "way",
      "id": 1232959772,
      "center": {
        "lat": 13.0804436,
        "lon": 77.5608721
      },
      "tags": {
        "amenity": "school"
      }
    },
    {
      "type": "way",
      "id": 1232959796,
      "center": {
        "lat": 13.0742623,
        "lon": 77.5641811
      },
      "tags": {
        "amenity": "school"
      }
    },
    {
      "type": "way",
      "id": 1253845473,
      "center": {
        "lat": 13.0770636,
        "lon": 77.5595094
      },
      "tags": {
        "leisure": "park"
      }
    },
    {
      "type": "way",
      "id": 1253845481,
      "center": {
        "lat": 13.0776069,
        "lon": 77.559411
      },
      "tags": {
        "access": "private",
        "leisure": "pitch",
        "sport": "basketball"
      }
    },
    {
      "type": "way",
      "id": 1264795218,
      "center": {
        "lat": 13.0906356,
        "lon": 77.5579641
      },
      "tags": {
        "amenity": "place_of_worship",
        "building": "yes",
        "name": "Tawheed Masjid",
        "religion": "muslim"
      }
    },
    {
      "type": "way",
      "id": 1264795485,
      "center": {
        "lat": 13.0832261,
        "lon": 77.5616372
      },
      "tags": {
        "leisure": "park"
      }
    },
    {
      "type": "way",
      "id": 1264795486,
      "center": {
        "lat": 13.0840125,
        "lon": 77.5579649
      },
      "tags": {
        "leisure": "playground"
      }
    },
    {
      "type": "way",
      "id": 1264881419,
      "center": {
        "lat": 13.0827298,
        "lon": 77.5634531
      },
      "tags": {
        "leisure": "park"
      }
    },
    {
      "type": "way",
      "id": 1265439019,
      "center": {
        "lat": 13.0736929,
        "lon": 77.5592718
      },
      "tags": {
        "amenity": "place_of_worship",
        "check_date": "2025-04-27",
        "landuse": "religious",
        "religion": "hindu"
      }
    },
    {
      "type": "way",
      "id": 1266072938,
      "center": {
        "lat": 13.0761798,
        "lon": 77.5620087
      },
      "tags": {
        "amenity": "school"
      }
    },
    {
      "type": "way",
      "id": 1283712422,
      "center": {
        "lat": 13.0893182,
        "lon": 77.5569728
      },
      "tags": {
        "amenity": "college",
        "name": "Adhyayana PU College"
      }
    },
    {
      "type": "way",
      "id": 1283712581,
      "center": {
        "lat": 13.0859255,
        "lon": 77.5569202
      },
      "tags": {
        "amenity": "school",
        "landuse": "education",
        "name": "Oriental English High School"
      }
    },
    {
      "type": "way",
      "id": 1284165012,
      "center": {
        "lat": 13.0863318,
        "lon": 77.5544798
      },
      "tags": {
        "leisure": "sports_centre"
      }
    },
    {
      "type": "way",
      "id": 1304376984,
      "center": {
        "lat": 13.088207,
        "lon": 77.5579572
      },
      "tags": {
        "amenity": "place_of_worship",
        "denomination": "catholic",
        "landuse": "religious",
        "name": "Nativity Church",
        "religion": "christian"
      }
    },
    {
      "type": "way",
      "id": 1326085064,
      "center": {
        "lat": 13.0885801,
        "lon": 77.555551
      },
      "tags": {
        "amenity": "place_of_worship",
        "building": "yes",
        "name": "Jamia Masjid Chikkabettahalli",
        "religion": "muslim"
      }
    },
    {
      "type": "way",
      "id": 1346885375,
      "center": {
        "lat": 13.0762221,
        "lon": 77.5587515
      },
      "tags": {
        "access": "private",
        "leisure": "pitch",
        "sport": "basketball"
      }
    },
    {
      "type": "way",
      "id": 1381888157,
      "center": {
        "lat": 13.0745208,
        "lon": 77.5568706
      },
      "tags": {
        "access": "private",
        "leisure": "swimming_pool"
      }
    },
    {
      "type": "way",
      "id": 1383201474,
      "center": {
        "lat": 13.0887512,
        "lon": 77.5573107
      },
      "tags": {
        "amenity": "school",
        "name": "Holy Faith Public School"
      }
    },
    {
      "type": "way",
      "id": 1383201514,
      "center": {
        "lat": 13.0842107,
        "lon": 77.5595598
      },
      "tags": {
        "amenity": "place_of_worship",
        "check_date": "2024-05-25",
        "landuse": "religious",
        "name": "Sri Shakti Ganapathy Temple",
        "religion": "hindu"
      }
    },
    {
      "type": "way",
      "id": 1383201558,
      "center": {
        "lat": 13.0847527,
        "lon": 77.5532305
      },
      "tags": {
        "amenity": "fuel",
        "brand": "Hindustan Petroleum",
        "name": "Hindustan Petroleum",
        "operator": "Hindustan Petroleum"
      }
    },
    {
      "type": "way",
      "id": 1383201559,
      "center": {
        "lat": 13.0849784,
        "lon": 77.553489
      },
      "tags": {
        "amenity": "fuel"
      }
    },
    {
      "type": "way",
      "id": 1383284326,
      "center": {
        "lat": 13.0787531,
        "lon": 77.557502
      },
      "tags": {
        "leisure": "pitch",
        "sport": "basketball"
      }
    },
    {
      "type": "way",
      "id": 1383284329,
      "center": {
        "lat": 13.0750695,
        "lon": 77.5552039
      },
      "tags": {
        "leisure": "pitch"
      }
    },
    {
      "type": "way",
      "id": 1383284354,
      "center": {
        "lat": 13.0731165,
        "lon": 77.5600615
      },
      "tags": {
        "leisure": "playground"
      }
    },
    {
      "type": "way",
      "id": 1428214383,
      "center": {
        "lat": 13.0900784,
        "lon": 77.5568458
      },
      "tags": {
        "amenity": "place_of_worship",
        "name": "Dargah Hazrat Madar Shah Vali",
        "religion": "muslim"
      }
    }
  ]
}