{
  "area_name": "Nayanda Halli",
  "osm_id": 19884521,
  "osm_type": "relation",
  "place_type": "administrative",
  "amenity_count": 33,
  "amenities": [
    {
      "type": "node",
      "id": 5168531379,
      "lat": 12.9395744,
      "lon": 77.5230527,
      "tags": {
        "name": "Harsha Store",
        "shop": "electronics",
        "wheelchair": "no"
      }
    },
    {
      "type": "node",
      "id": 5168531380,
      "lat": 12.9432849,
      "lon": 77.5258977,
      "tags": {
        "name": "Shree Vinayaka Garments",
        "shop": "tailor"
      }
    },
    {
      "type": "node",
      "id": 5279332263,
      "lat": 12.9446342,
      "lon": 77.527299,
      "tags": {
        "access": "yes",
        "amenity": "toilets",
        "note": "under flyover",
        "operator": "BBMP"
      }
    },
    {
      "type": "node",
      "id": 6216470853,
      "lat": 12.9441674,
      "lon": 77.5266203,
      "tags": {
        "amenity": "clinic",
        "healthcare": "clinic",
        "name": "Sri Manikanta Polyclinic"
      }
    },
    {
      "type": "node",
      "id": 6621696655,
      "lat": 12.9369107,
      "lon": 77.5180426,
      "tags": {
        "name": "CEAT Tyre Showroom",
        "shop": "tyres"
      }
    },
    {
      "type": "node",
      "id": 6952164901,
      "lat": 12.9373734,
      "lon": 77.5205532,
      "tags": {
        "brand": "Suzuki",
        "brand:wikidata": "Q181642",
        "name": "Suzuki Service Center",
        "shop": "motorcycle"
      }
    },
    {
      "type": "node",
      "id": 6952164902,
      "lat": 12.9366532,
      "lon": 77.5186864,
      "tags": {
        "name": "R. R. Lotus Motors",
        "shop": "car_parts"
      }
    },
    {
      "type": "node",
      "id": 7124635750,
      "lat": 12.9441073,
      "lon": 77.5265184,
      "tags": {
        "amenity": "fast_food",
        "name": "Gurushree Grand"
      }
    },
    {
      "type": "node",
      "id": 7124635751,
      "lat": 12.9434316,
      "lon": 77.5260074,
      "tags": {
        "amenity": "pharmacy",
        "name": "Sri Manikanta Medical"
      }
    },
    {
      "type": "node",
      "id": 7124635752,
      "lat": 12.9425833,
      "lon": 77.5254053,
      "tags": {
        "amenity": "place_of_worship",
        "religion": "hindu"
      }
    },
    {
      "type": "node",
      "id": 7124635753,
      "lat": 12.9410881,
      "lon": 77.5244316,
      "tags": {
        "amenity": "place_of_worship",
        "religion": "hindu"
      }
    },
    {
      "type": "node",
      "id": 7195132656,
      "lat": 12.9390151,
      "lon": 77.5190243,
      "tags": {
        "access": "permissive",
        "amenity": "parking"
      }
    },
    {
      "type": "node",
      "id": 11187080732,
      "lat": 12.9489589,
      "lon": 77.5209475,
      "tags": {
        "amenity": "shelter",
        "shelter_type": "gazebo"
      }
    },
    {
      "type": "node",
      "id": 11757261839,
      "lat": 12.9380017,
      "lon": 77.5184114,
      "tags": {
        "amenity": "shelter",
        "shelter_type": "gazebo"
      }
    },
    {
      "type": "node",
      "id": 12921300704,
      "lat": 12.9474741,
      "lon": 77.5207211,
      "tags": {
        "access": "yes",
        "leisure": "playground",
        "surface": "ground"
      }
    },
    {
      "type": "node",
      "id": 12921300705,
      "lat": 12.9469329,
      "lon": 77.5238422,
      "tags": {
        "addr:floor": "G",
        "amenity": "place_of_worship",
        "check_date": "2025-06-17",
        "internet_access": "no",
        "level": "0",
        "name": "Patalamma Temple",
        "name:kn": "ಪಟಾಲಮ್ಮ ದೇವಸ್ಥಾನ",
        "payment:cards": "no",
        "payment:cash": "yes",
        "payment:credit_cards": "no",
        "payment:debit_cards": "no",
        "religion": "hindu",
        "wheelchair": "no"
      }
    },
    {
      "type": "way",
      "id": 148485590,
      "center": {
        "lat": 12.9465949,
        "lon": 77.5253412
      },
      "tags": {
        "barrier": "wall",
        "leisure": "park"
      }
    },
    {
      "type": "way",
      "id": 148485597,
      "center": {
        "lat": 12.9462834,
        "lon": 77.5260867
      },
      "tags": {
        "leisure": "park"
      }
    },
    {
      "type": "way",
      "id": 244503172,
      "center": {
        "lat": 12.9489369,
        "lon": 77.5209385
      },
      "tags": {
        "leisure": "park"
      }
    },
    {
      "type": "way",
      "id": 349057929,
      "center": {
        "lat": 12.9369884,
        "lon": 77.5194068
      },
      "tags": {
        "building": "yes",
        "name": "Silicon Honda",
        "shop": "car"
      }
    },
    {
      "type": "way",
      "id": 742634558,
      "center": {
        "lat": 12.9414292,
        "lon": 77.5226387
      },
      "tags": {
        "amenity": "hospital",
        "name": "Puneeth Rajkumar Multispeciality Hospital",
        "name:etymology:wikidata": "Q3351697",
        "operator": "BBMP"
      }
    },
    {
      "type": "way",
      "id": 770853487,
      "center": {
        "lat": 12.9397046,
        "lon": 77.5195815
      },
      "tags": {
        "leisure": "playground"
      }
    },
    {
      "type": "way",
      "id": 770853488,
      "center": {
        "lat": 12.939842,
        "lon": 77.5193748
      },
      "tags": {
        "access": "private",
        "leisure": "swimming_pool"
      }
    },
    {
      "type": "way",
      "id": 770853489,
      "center": {
        "lat": 12.9391304,
        "lon": 77.5189861
      },
      "tags": {
        "leisure": "garden"
      }
    },
    {
      "type": "way",
      "id": 770853494,
      "center": {
        "lat": 12.9398869,
        "lon": 77.5190706
      },
      "tags": {
        "leisure": "pitch",
        "sport": "tennis"
      }
    },
    {
      "type": "way",
      "id": 774947265,
      "center": {
        "lat": 12.9427199,
        "lon": 77.525514
      },
      "tags": {
        "amenity": "hospital",
        "name": "Natus Woman and Children Hospital"
      }
    },
    {
      "type": "way",
      "id": 1219767933,
      "center": {
        "lat": 12.9414955,
        "lon": 77.5207244
      },
      "tags": {
        "amenity": "shelter",
        "building": "yes",
        "shelter_type": "public_transport"
      }
    },
    {
      "type": "way",
      "id": 1219767934,
      "center": {
        "lat": 12.9413862,
        "lon": 77.5208335
      },
      "tags": {
        "amenity": "shelter",
        "building": "yes",
        "shelter_type": "public_transport"
      }
    },
    {
      "type": "way",
      "id": 1219767935,
      "center": {
        "lat": 12.941544,
        "lon": 77.5211723
      },
      "tags": {
        "amenity": "shelter",
        "building": "yes",
        "shelter_type": "public_transport"
      }
    },
    {
      "type": "way",
      "id": 1219767936,
      "center": {
        "lat": 12.9412118,
        "lon": 77.5208062
      },
      "tags": {
        "amenity": "shelter",
        "building": "yes",
        "shelter_type": "public_transport"
      }
    },
    {
      "type": "way",
      "id": 1265721075,
      "center": {
        "lat": 12.9396787,
        "lon": 77.5214591
      },
      "tags": {
        "leisure": "park",
        "name": "Nayandahalli Park",
        "name:etymology:wikidata": "Q127105221"
      }
    },
    {
      "type": "way",
      "id": 1265721209,
      "center": {
        "lat": 12.9380802,
        "lon": 77.5184413
      },
      "tags": {
        "leisure": "park"
      }
    },
    {
      "type": "way",
      "id": 1265721216,
      "center": {
        "lat": 12.9383556,
        "lon": 77.5213719
      },
      "tags": {
        "amenity": "fuel",
        "brand": "Indian Oil",
        "brand:wikidata": "Q1289348",
        "brand:wikipedia": "en:Indian Oil Corporation",
        "check_date:compressed_air": "2022-11-29",
        "compressed_air": "yes",
        "name": "Indian Oil"
      }
    }
  ]
}