{
  "area_name": "Nellurupuram",
  "osm_id": 2937449083,
  "osm_type": "node",
  "place_type": "neighbourhood",
  "amenity_count": 142,
  "amenities": [
    {
      "type": "node",
      "id": 1336840466,
      "lat": 12.9716449,
      "lon": 77.6574777,
      "tags": {
        "amenity": "atm",
        "fee": "OBC"
      }
    },
    {
      "type": "node",
      "id": 1336840478,
      "lat": 12.9713312,
      "lon": 77.6573918,
      "tags": {
        "amenity": "atm",
        "fee": "SBI"
      }
    },
    {
      "type": "node",
      "id": 1462141134,
      "lat": 12.9607274,
      "lon": 77.6662316,
      "tags": {
        "access": "yes",
        "amenity": "parking",
        "fee": "no",
        "parking": "surface"
      }
    },
    {
      "type": "node",
      "id": 1465162315,
      "lat": 12.9608216,
      "lon": 77.666002,
      "tags": {
        "amenity": "fast_food",
        "cuisine": "juice",
        "name": "Niha Juice Center"
      }
    },
    {
      "type": "node",
      "id": 1466482752,
      "lat": 12.9659306,
      "lon": 77.6616713,
      "tags": {
        "amenity": "college",
        "name": "Sacred Heart College"
      }
    },
    {
      "type": "node",
      "id": 1500601533,
      "lat": 12.967409,
      "lon": 77.6559012,
      "tags": {
        "amenity": "police",
        "name": "Indiranagar Traffic Police Station",
        "name:kn": "ಇಂದಿರಾನಗರ ಸಂಚಾರ ಪೊಲೀಸ್ ಠಾಣೆ"
      }
    },
    {
      "type": "node",
      "id": 1522929660,
      "lat": 12.9646622,
      "lon": 77.6573486,
      "tags": {
        "addr:postcode": "560075",
        "addr:street": "Jeevan Bhima Nagar Main road",
        "amenity": "fast_food",
        "diet:vegetarian": "only",
        "name": "Kasturi Darshan Fast Food"
      }
    },
    {
      "type": "node",
      "id": 3513207640,
      "lat": 12.9589736,
      "lon": 77.6628578,
      "tags": {
        "amenity": "cafe",
        "name": "Sathkar Cafe"
      }
    },
    {
      "type": "node",
      "id": 3722417685,
      "lat": 12.9756859,
      "lon": 77.6671061,
      "tags": {
        "addr:city": "Bangalore",
        "addr:postcode": "560075",
        "addr:street": "GM Palya Main Road",
        "name": "Kaveri Departmental Store",
        "opening_hours": "08:00-22:00",
        "operator": "Private",
        "shop": "supermarket"
      }
    },
    {
      "type": "node",
      "id": 3742854798,
      "lat": 12.9655896,
      "lon": 77.658372,
      "tags": {
        "amenity": "toilets"
      }
    },
    {
      "type": "node",
      "id": 3804495707,
      "lat": 12.9588794,
      "lon": 77.6676407,
      "tags": {
        "amenity": "bank",
        "brand": "Punjab National Bank",
        "brand:wikidata": "Q2743499",
        "level": "0",
        "name": "Punjab National Bank",
        "name:en": "Punjab National Bank",
        "name:kn": "ಪಂಜಾಬ ರಾಷ್ಟ್ರೀಯ ಬ್ಯಾಂಕ್",
        "short_name": "PNB",
        "website": "https://www.pnbindia.in"
      }
    },
    {
      "type": "node",
      "id": 3804522072,
      "lat": 12.9590472,
      "lon": 77.6620821,
      "tags": {
        "level": "0,1,2",
        "name": "Regal India Tours & Travels Pvt Ltd.",
        "shop": "travel_agency"
      }
    },
    {
      "type": "node",
      "id": 3806451154,
      "lat": 12.9591054,
      "lon": 77.6612287,
      "tags": {
        "amenity": "pub",
        "indoor_seating": "yes",
        "level": "0",
        "name": "Shri Sarathi Restaurant and Bar",
        "outdoor_seating": "no"
      }
    },
    {
      "type": "node",
      "id": 3806453016,
      "lat": 12.9591124,
      "lon": 77.6611987,
      "tags": {
        "name": "Aiswarya Store",
        "shop": "grocery"
      }
    },
    {
      "type": "node",
      "id": 3853992011,
      "lat": 12.9591233,
      "lon": 77.661584,
      "tags": {
        "amenity": "clinic",
        "healthcare": "optometrist",
        "name": "APM Optics"
      }
    },
    {
      "type": "node",
      "id": 3853992012,
      "lat": 12.9591233,
      "lon": 77.6615546,
      "tags": {
        "indoor_seating": "no",
        "name": "Radhas",
        "outdoor_seating": "no",
        "shop": "bakery",
        "shop_1": "confectionery",
        "takeaway": "only"
      }
    },
    {
      "type": "node",
      "id": 4199209705,
      "lat": 12.9649652,
      "lon": 77.6660577,
      "tags": {
        "amenity": "place_of_worship",
        "religion": "hindu"
      }
    },
    {
      "type": "node",
      "id": 4208561016,
      "lat": 12.9683842,
      "lon": 77.6701118,
      "tags": {
        "name": "Thilags Market",
        "shop": "supermarket"
      }
    },
    {
      "type": "node",
      "id": 4281970789,
      "lat": 12.9717991,
      "lon": 77.658012,
      "tags": {
        "amenity": "bank",
        "branch": "BEML Gate Branch",
        "brand": "HDFC Bank",
        "brand:wikidata": "Q631047",
        "name": "HDFC Bank",
        "short_name": "HDFC"
      }
    },
    {
      "type": "node",
      "id": 4310360791,
      "lat": 12.9688819,
      "lon": 77.6730004,
      "tags": {
        "indoor_seating": "no",
        "name": "Aiwas",
        "outdoor_seating": "no",
        "shop": "bakery",
        "takeaway": "only"
      }
    },
    {
      "type": "node",
      "id": 4446473853,
      "lat": 12.9643196,
      "lon": 77.657532,
      "tags": {
        "addr:city": "bangalore",
        "addr:housenumber": "5",
        "addr:postcode": "560075",
        "addr:street": "Shivalingaiah Shopping Complex, BDA Main Rd, Murugesh Pallya, Ananda Puram, Jeevanbheemanagar",
        "amenity": "pharmacy",
        "name": "Sai Aruna Medicals",
        "phone": "+91 90601 33007"
      }
    },
    {
      "type": "node",
      "id": 4446479133,
      "lat": 12.9633821,
      "lon": 77.6568672,
      "tags": {
        "addr:city": "bangalore",
        "addr:housenumber": "114/B",
        "addr:postcode": "560075",
        "addr:street": "Shivanna Colony,Hal 3rd Stage,BDA Main Road,Opposite Kemp Fort,Murugesh Palya, Hal Road, Kodihalli, Ananda Puram, Jeevanbheemanagar,",
        "amenity": "pharmacy",
        "phone": "+9199642 32476"
      }
    },
    {
      "type": "node",
      "id": 4446485823,
      "lat": 12.9650762,
      "lon": 77.6574876,
      "tags": {
        "addr:city": "bangalore",
        "addr:postcode": "560075",
        "addr:street": "NR Colony Main Rd, Jeevanbheemanagar",
        "amenity": "pharmacy",
        "name": "Sri Sai Ram Medicals",
        "phone": "+9198450 76596"
      }
    },
    {
      "type": "node",
      "id": 4446495371,
      "lat": 12.9661551,
      "lon": 77.656368,
      "tags": {
        "addr:city": "bangalore",
        "addr:postcode": "560075",
        "addr:street": "DOS Colony, Jeevanbheemanagar",
        "amenity": "pharmacy",
        "name": "ISRO Dispensary",
        "phone": "080 2508 3800",
        "website": "isac.gov.in"
      }
    },
    {
      "type": "node",
      "id": 4446497275,
      "lat": 12.964938,
      "lon": 77.6572798,
      "tags": {
        "addr:city": "bangalore",
        "addr:housenumber": "16",
        "addr:postcode": "560075",
        "addr:street": "Near To J. B. Nagar Bus Stand, NR Colony Main Rd, J. B. Nagar, Jeevanbheemanagar",
        "amenity": "pharmacy",
        "name": "Devi Medical",
        "phone": "080 2521 0038"
      }
    },
    {
      "type": "node",
      "id": 4447398385,
      "lat": 12.9583981,
      "lon": 77.667597,
      "tags": {
        "addr:city": "Bengalore",
        "addr:housenumber": "D-14/T",
        "addr:postcode": "560017",
        "addr:street": "HAL Employees Quarters,Old Airport Road, Near HAL Post Office,Reddypalya",
        "amenity": "police",
        "name": "HAL Traffic Police Station",
        "phone": "080 2294 3115",
        "website": "NA"
      }
    },
    {
      "type": "node",
      "id": 4488617089,
      "lat": 12.9677841,
      "lon": 77.6634104,
      "tags": {
        "addr:city": "Bangalore",
        "addr:housenumber": "21",
        "addr:postcode": "560075",
        "addr:street": "Tippasandra",
        "name": "Maataji Privision Store",
        "shop": "supermarket"
      }
    },
    {
      "type": "node",
      "id": 4602971701,
      "lat": 12.9612841,
      "lon": 77.6672062,
      "tags": {
        "amenity": "atm",
        "brand": "State Bank of India",
        "brand:wikidata": "Q1340361",
        "check_date": "2022-06-11",
        "name": "State Bank of India",
        "name:kn": "ಎಸ್ ಬಿ ಐ",
        "operator": "State Bank of India",
        "operator:wikidata": "Q1340361",
        "short_name": "SBI"
      }
    },
    {
      "type": "node",
      "id": 4646644516,
      "lat": 12.9680901,
      "lon": 77.6700742,
      "tags": {
        "name": "Mayura Bakery and Sweets",
        "shop": "bakery"
      }
    },
    {
      "type": "node",
      "id": 4646644517,
      "lat": 12.9678261,
      "lon": 77.6700421,
      "tags": {
        "name": "Day to Day",
        "shop": "supermarket"
      }
    },
    {
      "type": "node",
      "id": 4782928923,
      "lat": 12.9632131,
      "lon": 77.6567816,
      "tags": {
        "shop": "dry_cleaning"
      }
    },
    {
      "type": "node",
      "id": 4782947621,
      "lat": 12.963322,
      "lon": 77.6568552,
      "tags": {
        "amenity": "recycling",
        "name": "Paper Mart",
        "name:en": "Paper Mart"
      }
    },
    {
      "type": "node",
      "id": 4782947721,
      "lat": 12.96335,
      "lon": 77.656863,
      "tags": {
        "name": "Sri Lakshmi Provisions",
        "name:en": "Sri Lakshmi Provisions",
        "shop": "convenience"
      }
    },
    {
      "type": "node",
      "id": 4782947722,
      "lat": 12.9634327,
      "lon": 77.6569049,
      "tags": {
        "name": "Siri Beauty Parlour",
        "name:en": "Siri Beauty Parlour",
        "shop": "cosmetics"
      }
    },
    {
      "type": "node",
      "id": 4782957522,
      "lat": 12.9632582,
      "lon": 77.6568168,
      "tags": {
        "name": "Fresh n Fresh",
        "name:en": "Fresh n Fresh",
        "shop": "greengrocer"
      }
    },
    {
      "type": "node",
      "id": 4782962124,
      "lat": 12.9635642,
      "lon": 77.6569879,
      "tags": {
        "name": "Pro Furniture Sofa Maker",
        "name:en": "Pro Furniture Sofa Maker",
        "shop": "furniture"
      }
    },
    {
      "type": "node",
      "id": 4782967322,
      "lat": 12.9648064,
      "lon": 77.6572365,
      "tags": {
        "name": "Swagath Bar",
        "name:en": "Swagath Bar",
        "shop": "alcohol"
      }
    },
    {
      "type": "node",
      "id": 4782967622,
      "lat": 12.964503,
      "lon": 77.6573159,
      "tags": {
        "addr:housenumber": "3",
        "addr:street": "Shivalingaiah Colony",
        "name": "Sri Mahadeshwara Home Furnishings",
        "name:en": "Sri Mahadeshwara Home Furnishings",
        "phone": "9986421067",
        "shop": "furniture"
      }
    },
    {
      "type": "node",
      "id": 4782984022,
      "lat": 12.9645913,
      "lon": 77.6574153,
      "tags": {
        "addr:housenumber": "409",
        "addr:street": "6th Main Road",
        "name": "Laxmi Home Appliances",
        "name:en": "Laxmi Home Appliances",
        "phone": "08025201121",
        "shop": "department_store"
      }
    },
    {
      "type": "node",
      "id": 4899556155,
      "lat": 12.9675399,
      "lon": 77.6703009,
      "tags": {
        "name": "Hassan Iyangar's Bakery",
        "shop": "bakery"
      }
    },
    {
      "type": "node",
      "id": 4899556156,
      "lat": 12.9680705,
      "lon": 77.6702137,
      "tags": {
        "amenity": "dentist",
        "name": "VHC International"
      }
    },
    {
      "type": "node",
      "id": 5301679623,
      "lat": 12.9585353,
      "lon": 77.6620772,
      "tags": {
        "amenity": "place_of_worship"
      }
    },
    {
      "type": "node",
      "id": 5301703521,
      "lat": 12.9588011,
      "lon": 77.6615705,
      "tags": {
        "name": "Surana Pawn Broker",
        "shop": "jewelry"
      }
    },
    {
      "type": "node",
      "id": 5338858122,
      "lat": 12.962269,
      "lon": 77.6610281,
      "tags": {
        "amenity": "community_centre",
        "name": "Dalit Youth Welfare Association"
      }
    },
    {
      "type": "node",
      "id": 5338923722,
      "lat": 12.9630358,
      "lon": 77.6613188,
      "tags": {
        "amenity": "place_of_worship",
        "religion": "hindu"
      }
    },
    {
      "type": "node",
      "id": 5338939122,
      "lat": 12.9643423,
      "lon": 77.6609603,
      "tags": {
        "amenity": "place_of_worship",
        "religion": "hindu"
      }
    },
    {
      "type": "node",
      "id": 5338939123,
      "lat": 12.9644427,
      "lon": 77.6597533,
      "tags": {
        "amenity": "community_centre",
        "name": "Sir M Vishveswaraya Welfare Association"
      }
    },
    {
      "type": "node",
      "id": 5338939224,
      "lat": 12.9644112,
      "lon": 77.6618554,
      "tags": {
        "amenity": "place_of_worship",
        "name": "Sri Angala Parameshwari Temple",
        "religion": "hindu"
      }
    },
    {
      "type": "node",
      "id": 5338939225,
      "lat": 12.9646322,
      "lon": 77.661955,
      "tags": {
        "amenity": "place_of_worship",
        "name": "St Thomas Church",
        "name:kn": "ಸೇಂಟ್ ಥೋಮಸ್ ಚರ್ಚ್",
        "religion": "christian"
      }
    },
    {
      "type": "node",
      "id": 5338940621,
      "lat": 12.9641627,
      "lon": 77.6616683,
      "tags": {
        "amenity": "place_of_worship",
        "name": "St Mary’s Chapel",
        "religion": "christian"
      }
    },
    {
      "type": "node",
      "id": 5338944624,
      "lat": 12.9628641,
      "lon": 77.6604996,
      "tags": {
        "amenity": "place_of_worship",
        "religion": "hindu"
      }
    },
    {
      "type": "node",
      "id": 5338949321,
      "lat": 12.9646524,
      "lon": 77.6602981,
      "tags": {
        "amenity": "place_of_worship",
        "name": "Church of Christ",
        "religion": "christian"
      }
    },
    {
      "type": "node",
      "id": 5521704924,
      "lat": 12.9664528,
      "lon": 77.6575588,
      "tags": {
        "amenity": "fast_food",
        "brand": "Indira Canteen",
        "brand:wikidata": "Q36164828",
        "cuisine": "south_indian",
        "name": "Indira Canteen",
        "operator": "BBMP",
        "takeaway": "yes"
      }
    },
    {
      "type": "node",
      "id": 5521704925,
      "lat": 12.9672957,
      "lon": 77.6565745,
      "tags": {
        "name": "Safal Daily Fresh",
        "shop": "supermarket"
      }
    },
    {
      "type": "node",
      "id": 6771722354,
      "lat": 12.9716726,
      "lon": 77.6573587,
      "tags": {
        "amenity": "restaurant",
        "cuisine": "indian",
        "name": "Dal Baati Corner"
      }
    },
    {
      "type": "node",
      "id": 6771722355,
      "lat": 12.9714814,
      "lon": 77.6571747,
      "tags": {
        "alt_name": "Goli Vada Pav No.1",
        "amenity": "fast_food",
        "brand": "Goli Vada Pav",
        "brand:wikidata": "Q5580697",
        "cuisine": "indian",
        "name": "Goli Vada Pav",
        "takeaway": "yes"
      }
    },
    {
      "type": "node",
      "id": 6771722356,
      "lat": 12.9714909,
      "lon": 77.6572328,
      "tags": {
        "name": "Mount Stationery",
        "shop": "stationery"
      }
    },
    {
      "type": "node",
      "id": 6886594755,
      "lat": 12.9627474,
      "lon": 77.6655856,
      "tags": {
        "addr:city": "Bengaluru",
        "addr:district": "BENGALURU URBAN",
        "addr:full": "Suranjandas Road, Near HAL Airport, Vimanapura",
        "addr:postcode": "560017",
        "addr:state": "Karnataka",
        "amenity": "blood_bank",
        "contact:mobile": "9845347978",
        "contact:phone": "8022314632",
        "name": "Hindustan Aeronautics Limited - HAL Hospital Blood Bank",
        "opening_hours": "24/7",
        "operator:type": "government",
        "source": "OpenGovernmentData",
        "website": "http://www.hal-india.com"
      }
    },
    {
      "type": "node",
      "id": 6944578925,
      "lat": 12.9675989,
      "lon": 77.6565533,
      "tags": {
        "addr:district": "Bengaluru Urban",
        "addr:full": "Ist Floor, Lic Colony Main Road, Jeevan Bhima Nagar",
        "addr:postcode": "560032",
        "addr:state": "Karnataka",
        "amenity": "hospital",
        "name": "Dr Chaitanyas Dental Care & Implant Centre",
        "source": "OpenGovernmentData"
      }
    },
    {
      "type": "node",
      "id": 7178894209,
      "lat": 12.9756865,
      "lon": 77.6669815,
      "tags": {
        "amenity": "post_office",
        "brand": "Desk to Desk Courier & Cargo",
        "brand:short": "DTDC",
        "brand:wikidata": "Q55608802",
        "name": "DTDC Courier",
        "operator": "Desk to Desk Courier & Cargo",
        "operator:short": "DTDC",
        "operator:wikidata": "Q55608802"
      }
    },
    {
      "type": "node",
      "id": 7572131857,
      "lat": 12.975622,
      "lon": 77.666082,
      "tags": {
        "addr:district": "Bengaluru Urban",
        "addr:full": "GM Palya, C V Raman Nagar, Bengaluru",
        "addr:postcode": "560075",
        "addr:state": "Karnataka",
        "amenity": "clinic",
        "name": "Rapha Polyclinic & Lab",
        "source": "Local Knowledge"
      }
    },
    {
      "type": "node",
      "id": 7572131881,
      "lat": 12.9750951,
      "lon": 77.6660888,
      "tags": {
        "addr:district": "Bengaluru Urban",
        "addr:full": "GM Palya, C V Raman Nagar, Bengaluru",
        "addr:postcode": "560017",
        "addr:state": "Karnataka",
        "amenity": "clinic",
        "name": "Netrajyoti Eye Centre",
        "source": "Local Knowledge",
        "wheelchair": "no"
      }
    },
    {
      "type": "node",
      "id": 7572131883,
      "lat": 12.9753191,
      "lon": 77.6660778,
      "tags": {
        "addr:district": "Bengaluru Urban",
        "addr:full": "Cauveri Colony, GM Palya, C V Raman Nagar, Bengaluru",
        "addr:postcode": "560093",
        "addr:state": "Karnataka",
        "amenity": "dentist",
        "name": "Dr. Ranganath Jingade Dental Hospital",
        "source": "Local Knowledge"
      }
    },
    {
      "type": "node",
      "id": 7572526699,
      "lat": 12.9635299,
      "lon": 77.6662889,
      "tags": {
        "addr:district": "Bengaluru Urban",
        "addr:full": "Jyothi Nagar, Bengaluru",
        "addr:postcode": "560017",
        "addr:state": "Karnataka",
        "amenity": "hospital",
        "name": "Jhon's Medical Hospital",
        "source": "Local Knowledge"
      }
    },
    {
      "type": "node",
      "id": 7572526704,
      "lat": 12.9625212,
      "lon": 77.6709431,
      "tags": {
        "addr:district": "Bengaluru Urban",
        "addr:full": "Krishna Nagar, Vimanapura, Bengaluru",
        "addr:postcode": "560017",
        "addr:state": "Karnataka",
        "amenity": "clinic",
        "name": "Raju Health Centre",
        "source": "Local Knowledge"
      }
    },
    {
      "type": "node",
      "id": 7572526705,
      "lat": 12.9648095,
      "lon": 77.6725587,
      "tags": {
        "addr:district": "Bengaluru Urban",
        "addr:full": "Islampur, Vimanapura, Bengaluru",
        "addr:postcode": "560017",
        "addr:state": "Karnataka",
        "amenity": "dentist",
        "name": "SRK Dental Clinic",
        "source": "Local Knowledge"
      }
    },
    {
      "type": "node",
      "id": 7572526714,
      "lat": 12.9674869,
      "lon": 77.6701879,
      "tags": {
        "addr:district": "Bengaluru Urban",
        "addr:full": "LBS Nagar, Kaggadasapura, Bengaluru",
        "addr:postcode": "560017",
        "addr:state": "Karnataka",
        "amenity": "clinic",
        "name": "Nms Sanjivini Health Center",
        "source": "Local Knowledge"
      }
    },
    {
      "type": "node",
      "id": 7572526716,
      "lat": 12.9644469,
      "lon": 77.6719687,
      "tags": {
        "addr:district": "Bengaluru Urban",
        "addr:full": "Annasandrapalya Extension, Islampur, Vibhutipura, Bengaluru",
        "addr:postcode": "560017",
        "addr:state": "Karnataka",
        "amenity": "clinic",
        "name": "Dr. Harish Tyagi Clinic",
        "source": "Local Knowledge"
      }
    },
    {
      "type": "node",
      "id": 7572526737,
      "lat": 12.9676391,
      "lon": 77.6728616,
      "tags": {
        "addr:district": "Bengaluru Urban",
        "addr:full": "LBS Nagar, Kaggadasapura, Bengaluru",
        "addr:postcode": "560017",
        "addr:state": "Karnataka",
        "amenity": "clinic",
        "name": "Samruddhi Health Care Centre",
        "source": "Local Knowledge"
      }
    },
    {
      "type": "node",
      "id": 7572526743,
      "lat": 12.9705317,
      "lon": 77.6657706,
      "tags": {
        "addr:district": "Bengaluru Urban",
        "addr:full": "Jagadish Nagar, Kaggadasapura, Bengaluru",
        "addr:postcode": "560075",
        "addr:state": "Karnataka",
        "amenity": "clinic",
        "name": "Sri Balaji Clinic",
        "source": "Local Knowledge"
      }
    },
    {
      "type": "node",
      "id": 7572526771,
      "lat": 12.964036,
      "lon": 77.672902,
      "tags": {
        "addr:district": "Bengaluru Urban",
        "addr:full": "Vinayaka Nagar, Vimanapura, Bengaluru",
        "addr:postcode": "560017",
        "addr:state": "Karnataka",
        "amenity": "dentist",
        "name": "Arya Dental Care",
        "source": "Local Knowledge"
      }
    },
    {
      "type": "node",
      "id": 7572526794,
      "lat": 12.9640923,
      "lon": 77.6716941,
      "tags": {
        "addr:district": "Bengaluru Urban",
        "addr:full": "Annasandrapalya Extension, Vimanapura, Bengaluru",
        "addr:postcode": "560017",
        "addr:state": "Karnataka",
        "amenity": "clinic",
        "name": "SNP Homoeopathy Clinic",
        "source": "Local Knowledge"
      }
    },
    {
      "type": "node",
      "id": 12204996493,
      "lat": 12.9751626,
      "lon": 77.6653229,
      "tags": {
        "amenity": "parking_entrance"
      }
    },
    {
      "type": "node",
      "id": 12367521749,
      "lat": 12.9701128,
      "lon": 77.6564543,
      "tags": {
        "amenity": "drinking_water"
      }
    },
    {
      "type": "node",
      "id": 13013978945,
      "lat": 12.9589691,
      "lon": 77.6613128,
      "tags": {
        "amenity": "restaurant",
        "name": "Tommy's"
      }
    },
    {
      "type": "way",
      "id": 35312034,
      "center": {
        "lat": 12.9592727,
        "lon": 77.6634483
      },
      "tags": {
        "leisure": "park",
        "name": "Dr. Ambedkar Park",
        "name:etymology:wikidata": "Q231690",
        "name:kn": "ಡಾ ಅಂಬೇಡ್ಕರ್ ಉದ್ಯಾನವನ"
      }
    },
    {
      "type": "way",
      "id": 41725061,
      "center": {
        "lat": 12.95715,
        "lon": 77.6640427
      },
      "tags": {
        "addr:street": "HAL Airport Road",
        "amenity": "college",
        "name": "Institute of Aerospace Medicine - IAM",
        "operator": "Indian Air Force",
        "wheelchair": "limited"
      }
    },
    {
      "type": "way",
      "id": 131219780,
      "center": {
        "lat": 12.9657586,
        "lon": 77.6580829
      },
      "tags": {
        "amenity": "bus_station",
        "landuse": "garages",
        "name": "Jeevan Bhima Nagar Bus Depot",
        "name:kn": "ಜೀವನಭೀಮ ನಗರ ಬಸ್ ಡೀಪೋ"
      }
    },
    {
      "type": "way",
      "id": 133736399,
      "center": {
        "lat": 12.9618405,
        "lon": 77.6595612
      },
      "tags": {
        "leisure": "park"
      }
    },
    {
      "type": "way",
      "id": 135265530,
      "center": {
        "lat": 12.9598418,
        "lon": 77.6702101
      },
      "tags": {
        "barrier": "wall",
        "leisure": "sports_centre",
        "name": "HAL Sports Complex"
      }
    },
    {
      "type": "way",
      "id": 144989739,
      "center": {
        "lat": 12.9607453,
        "lon": 77.66696
      },
      "tags": {
        "amenity": "marketplace",
        "name": "HAL Market"
      }
    },
    {
      "type": "way",
      "id": 144989752,
      "center": {
        "lat": 12.9640092,
        "lon": 77.6637028
      },
      "tags": {
        "leisure": "park"
      }
    },
    {
      "type": "way",
      "id": 144989754,
      "center": {
        "lat": 12.9673805,
        "lon": 77.6614527
      },
      "tags": {
        "leisure": "park"
      }
    },
    {
      "type": "way",
      "id": 146203912,
      "center": {
        "lat": 12.9589315,
        "lon": 77.6609802
      },
      "tags": {
        "amenity": "cinema",
        "building": "yes",
        "name": "Rajeshwari Theatre",
        "name:kn": "ರಾಜೇಶ್ವರಿ"
      }
    },
    {
      "type": "way",
      "id": 146204781,
      "center": {
        "lat": 12.966082,
        "lon": 77.656317
      },
      "tags": {
        "amenity": "hospital",
        "name": "ISRO Employees Hospital",
        "name:kn": "ಇಸ್ರೋ ಆಸ್ಪತ್ರೆ"
      }
    },
    {
      "type": "way",
      "id": 174662561,
      "center": {
        "lat": 12.9595493,
        "lon": 77.6699985
      },
      "tags": {
        "access": "private",
        "leisure": "pitch",
        "sport": "soccer"
      }
    },
    {
      "type": "way",
      "id": 290187542,
      "center": {
        "lat": 12.9623685,
        "lon": 77.6664034
      },
      "tags": {
        "alt_name": "Hindustan Aeronautics Limited Hospital",
        "amenity": "hospital",
        "emergency": "yes",
        "name": "HAL Hospital",
        "name:kn": "ಎಚ್ಎಎಲ್ ಆಸ್ಪತ್ರೆ",
        "wheelchair": "yes"
      }
    },
    {
      "type": "way",
      "id": 302944313,
      "center": {
        "lat": 12.9602403,
        "lon": 77.6627642
      },
      "tags": {
        "addr:city": "Bengaluru",
        "addr:housenumber": "G 276",
        "addr:postcode": "560017",
        "addr:street": "Old Township HAL Colony, Sudhama Nagar",
        "amenity": "place_of_worship",
        "building": "yes",
        "denomination": "sunni",
        "name": "Shahi Masjid",
        "religion": "muslim"
      }
    },
    {
      "type": "way",
      "id": 302944330,
      "center": {
        "lat": 12.9603232,
        "lon": 77.6638436
      },
      "tags": {
        "addr:city": "Bengaluru, Karnataka",
        "addr:postcode": "560017",
        "addr:street": "Sree Ayyappa Bhajana Sangham, Ayyappan Temple, C/o, HAL Township, P.O, Vimanapura",
        "amenity": "place_of_worship",
        "building": "yes",
        "name": "HAL Ayyappan Temple",
        "religion": "hindu"
      }
    },
    {
      "type": "way",
      "id": 323036039,
      "center": {
        "lat": 12.9626992,
        "lon": 77.6597472
      },
      "tags": {
        "leisure": "park"
      }
    },
    {
      "type": "way",
      "id": 323037303,
      "center": {
        "lat": 12.9730342,
        "lon": 77.6690277
      },
      "tags": {
        "amenity": "school",
        "name": "Shishya BEML Public School"
      }
    },
    {
      "type": "way",
      "id": 323037305,
      "center": {
        "lat": 12.9736002,
        "lon": 77.6685704
      },
      "tags": {
        "amenity": "theatre",
        "name": "BEML Kala Mandir"
      }
    },
    {
      "type": "way",
      "id": 323037941,
      "center": {
        "lat": 12.974433,
        "lon": 77.6694265
      },
      "tags": {
        "leisure": "park",
        "name": "BEML Playground"
      }
    },
    {
      "type": "way",
      "id": 332519019,
      "center": {
        "lat": 12.9664555,
        "lon": 77.6588756
      },
      "tags": {
        "leisure": "park"
      }
    },
    {
      "type": "way",
      "id": 340255765,
      "center": {
        "lat": 12.9656802,
        "lon": 77.655443
      },
      "tags": {
        "amenity": "school",
        "brand": "Kendriya Vidyalaya",
        "brand:wikidata": "Q1156653",
        "name": "Kendriya Vidyalaya NAL",
        "name:kn": "ಕೇಂದ್ರಿಯ ವಿದ್ಯಾಲಯ",
        "operator:type": "government_non_profit"
      }
    },
    {
      "type": "way",
      "id": 348134936,
      "center": {
        "lat": 12.9587756,
        "lon": 77.6614664
      },
      "tags": {
        "amenity": "school",
        "building": "yes",
        "name": "Government School",
        "name:kn": "ಸರ್ಕಾರಿ ಶಾಲೆ"
      }
    },
    {
      "type": "way",
      "id": 365255370,
      "center": {
        "lat": 12.9684221,
        "lon": 77.6570302
      },
      "tags": {
        "amenity": "school"
      }
    },
    {
      "type": "way",
      "id": 371381437,
      "center": {
        "lat": 12.9697188,
        "lon": 77.6562258
      },
      "tags": {
        "leisure": "park",
        "name": "Diagonal Park",
        "official_name": "Hanuman Nagar BDA Park"
      }
    },
    {
      "type": "way",
      "id": 371381439,
      "center": {
        "lat": 12.9677858,
        "lon": 77.6559777
      },
      "tags": {
        "amenity": "fuel",
        "brand": "Bharat Petroleum",
        "brand:wikidata": "Q854826",
        "brand:wikipedia": "en:Bharat Petroleum",
        "compressed_air": "yes",
        "name": "Bharat Petroleum",
        "name:kn": "ಭಾರತ್ ಪೆಟ್ರೋಲಿಯಂ"
      }
    },
    {
      "type": "way",
      "id": 374706731,
      "center": {
        "lat": 12.9594675,
        "lon": 77.6610429
      },
      "tags": {
        "amenity": "toilets",
        "building": "yes",
        "fee": "yes",
        "name": "BBMP Toilets",
        "name:kn": "ಶೌಚಾಲಯ",
        "operator": "ಬೃಹತ್ ಬೆಂಗಳೂರು ಮಹಾನಗರ ಪಾಲಿಕೆ",
        "operator:en": "Bruhat Bengaluru Mahanagara Palike",
        "operator:ka": "ಬೃಹತ್ ಬೆಂಗಳೂರು ಮಹಾನಗರ ಪಾಲಿಕೆ",
        "operator:short": "BBMP",
        "operator:wikidata": "Q4978693",
        "wheelchair": "no"
      }
    },
    {
      "type": "way",
      "id": 405463527,
      "center": {
        "lat": 12.9586128,
        "lon": 77.6615198
      },
      "tags": {
        "amenity": "place_of_worship",
        "building": "temple",
        "name": "Venugopalaswamy Temple",
        "name:kn": "ವೇಣುಗೋಪಾಲ ಸ್ವಾಮಿ ದೇವಸ್ಥಾನ",
        "religion": "hindu",
        "wheelchair": "limited"
      }
    },
    {
      "type": "way",
      "id": 415116796,
      "center": {
        "lat": 12.9722456,
        "lon": 77.6683221
      },
      "tags": {
        "leisure": "common"
      }
    },
    {
      "type": "way",
      "id": 415116797,
      "center": {
        "lat": 12.972982,
        "lon": 77.6696754
      },
      "tags": {
        "leisure": "park"
      }
    },
    {
      "type": "way",
      "id": 415116798,
      "center": {
        "lat": 12.9725574,
        "lon": 77.6686068
      },
      "tags": {
        "leisure": "sports_centre"
      }
    },
    {
      "type": "way",
      "id": 415116799,
      "center": {
        "lat": 12.9745137,
        "lon": 77.6703174
      },
      "tags": {
        "leisure": "park"
      }
    },
    {
      "type": "way",
      "id": 553065507,
      "center": {
        "lat": 12.9652111,
        "lon": 77.6620234
      },
      "tags": {
        "amenity": "school",
        "name": "Sacred Heart Girls High School"
      }
    },
    {
      "type": "way",
      "id": 553065508,
      "center": {
        "lat": 12.9627301,
        "lon": 77.6630042
      },
      "tags": {
        "amenity": "parking"
      }
    },
    {
      "type": "way",
      "id": 553065511,
      "center": {
        "lat": 12.9589872,
        "lon": 77.6645788
      },
      "tags": {
        "leisure": "park",
        "name": "Dr. Ambedkar Park",
        "name:etymology:wikidata": "Q231690",
        "name:kn": "ಡಾ ಅಂಬೇಡ್ಕರ್ ಉದ್ಯಾನವನ"
      }
    },
    {
      "type": "way",
      "id": 553065516,
      "center": {
        "lat": 12.960591,
        "lon": 77.6647037
      },
      "tags": {
        "amenity": "school",
        "name": "HAL West Primary School"
      }
    },
    {
      "type": "way",
      "id": 553065523,
      "center": {
        "lat": 12.9645727,
        "lon": 77.6614009
      },
      "tags": {
        "amenity": "college",
        "name": "Sacred Heart Degree College"
      }
    },
    {
      "type": "way",
      "id": 553068987,
      "center": {
        "lat": 12.9635752,
        "lon": 77.662935
      },
      "tags": {
        "leisure": "playground"
      }
    },
    {
      "type": "way",
      "id": 553068988,
      "center": {
        "lat": 12.9619833,
        "lon": 77.6629423
      },
      "tags": {
        "landuse": "recreation_ground",
        "leisure": "common"
      }
    },
    {
      "type": "way",
      "id": 553068989,
      "center": {
        "lat": 12.961201,
        "lon": 77.6628645
      },
      "tags": {
        "landuse": "recreation_ground",
        "leisure": "common"
      }
    },
    {
      "type": "way",
      "id": 574696674,
      "center": {
        "lat": 12.9728591,
        "lon": 77.668856
      },
      "tags": {
        "leisure": "playground"
      }
    },
    {
      "type": "way",
      "id": 583915625,
      "center": {
        "lat": 12.9651959,
        "lon": 77.66924
      },
      "tags": {
        "leisure": "park"
      }
    },
    {
      "type": "way",
      "id": 790392175,
      "center": {
        "lat": 12.9591298,
        "lon": 77.6666853
      },
      "tags": {
        "access": "yes",
        "amenity": "parking",
        "fee": "no",
        "parking": "surface"
      }
    },
    {
      "type": "way",
      "id": 1213188974,
      "center": {
        "lat": 12.9694677,
        "lon": 77.6681406
      },
      "tags": {
        "addr:full": "Khata no:152, CV Raman Nagar, Survey no 136/3B, 7th Cross Road,, Vibhutipura Village, Jagadish Nagar, New Tippasandra, Bengaluru, Karnataka 560075",
        "amenity": "school",
        "email": "communications.oiscvr@orchids.edu.in",
        "name": "Orchids The International School - C V Raman Nagar",
        "opening_hours": "Mo-Su 09:00-18:30",
        "operator": "Orchids International School",
        "phone": "9513922803",
        "website": "https://www.orchidsinternationalschool.com/bangalore-branches/cv-raman-nagar/"
      }
    },
    {
      "type": "way",
      "id": 1213188978,
      "center": {
        "lat": 12.9693692,
        "lon": 77.6685547
      },
      "tags": {
        "leisure": "pitch",
        "sport": "soccer"
      }
    },
    {
      "type": "way",
      "id": 1213188980,
      "center": {
        "lat": 12.9694793,
        "lon": 77.6677153
      },
      "tags": {
        "leisure": "pitch"
      }
    },
    {
      "type": "way",
      "id": 1213188983,
      "center": {
        "lat": 12.9596268,
        "lon": 77.6690663
      },
      "tags": {
        "leisure": "pitch"
      }
    },
    {
      "type": "way",
      "id": 1303541156,
      "center": {
        "lat": 12.9592033,
        "lon": 77.6640065
      },
      "tags": {
        "leisure": "park",
        "name": "Dr. Ambedkar Park",
        "name:etymology:wikidata": "Q231690",
        "name:kn": "ಡಾ ಅಂಬೇಡ್ಕರ್ ಉದ್ಯಾನವನ"
      }
    },
    {
      "type": "way",
      "id": 1303541161,
      "center": {
        "lat": 12.9637092,
        "lon": 77.6674464
      },
      "tags": {
        "leisure": "playground"
      }
    },
    {
      "type": "way",
      "id": 1303541182,
      "center": {
        "lat": 12.9587718,
        "lon": 77.6682977
      },
      "tags": {
        "access": "permissive",
        "amenity": "parking",
        "name": "HAL Parking",
        "parking": "surface"
      }
    },
    {
      "type": "way",
      "id": 1320013842,
      "center": {
        "lat": 12.9748041,
        "lon": 77.6648258
      },
      "tags": {
        "amenity": "place_of_worship",
        "landuse": "religious",
        "name": "Shri Viranjaneya Temple",
        "name:kn": "ಶ್ರೀ ವೀರಾಂಜನೇಯ",
        "religion": "hindu"
      }
    },
    {
      "type": "way",
      "id": 1320013891,
      "center": {
        "lat": 12.971172,
        "lon": 77.6651791
      },
      "tags": {
        "amenity": "hospital",
        "name": "BEML Hospital"
      }
    },
    {
      "type": "way",
      "id": 1320013898,
      "center": {
        "lat": 12.9709309,
        "lon": 77.6700324
      },
      "tags": {
        "amenity": "place_of_worship",
        "landuse": "religious",
        "name": "Ayappa Temple",
        "religion": "hindu"
      }
    },
    {
      "type": "way",
      "id": 1429354942,
      "center": {
        "lat": 12.9694885,
        "lon": 77.6717057
      },
      "tags": {
        "access": "private",
        "leisure": "swimming_pool"
      }
    },
    {
      "type": "way",
      "id": 1442752415,
      "center": {
        "lat": 12.9664089,
        "lon": 77.659273
      },
      "tags": {
        "leisure": "playground"
      }
    },
    {
      "type": "way",
      "id": 1442765455,
      "center": {
        "lat": 12.9646268,
        "lon": 77.6580854
      },
      "tags": {
        "amenity": "school",
        "name": "Government Tamil Higher Primary School"
      }
    },
    {
      "type": "way",
      "id": 1442772360,
      "center": {
        "lat": 12.9665282,
        "lon": 77.6571182
      },
      "tags": {
        "amenity": "school"
      }
    },
    {
      "type": "way",
      "id": 1447515030,
      "center": {
        "lat": 12.9710241,
        "lon": 77.6670774
      },
      "tags": {
        "access": "private",
        "leisure": "park"
      }
    },
    {
      "type": "way",
      "id": 1447685563,
      "center": {
        "lat": 12.9702664,
        "lon": 77.6711596
      },
      "tags": {
        "access": "private",
        "leisure": "swimming_pool"
      }
    },
    {
      "type": "way",
      "id": 1447685569,
      "center": {
        "lat": 12.969985,
        "lon": 77.6690582
      },
      "tags": {
        "access": "private",
        "leisure": "swimming_pool"
      }
    },
    {
      "type": "way",
      "id": 1447686030,
      "center": {
        "lat": 12.9705805,
        "lon": 77.6671334
      },
      "tags": {
        "access": "private",
        "leisure": "swimming_pool"
      }
    },
    {
      "type": "way",
      "id": 1447686031,
      "center": {
        "lat": 12.9706273,
        "lon": 77.6672605
      },
      "tags": {
        "access": "private",
        "leisure": "pitch",
        "sport": "basketball"
      }
    },
    {
      "type": "way",
      "id": 1447903282,
      "center": {
        "lat": 12.9648647,
        "lon": 77.6708772
      },
      "tags": {
        "amenity": "place_of_worship",
        "landuse": "religious",
        "name": "Yallamma Devasthana",
        "name:kn": "ಯಲ್ಲಮ್ಮ ದೇವಸ್ಥಾನ",
        "religion": "hindu"
      }
    },
    {
      "type": "way",
      "id": 1447954496,
      "center": {
        "lat": 12.9644941,
        "lon": 77.6722226
      },
      "tags": {
        "amenity": "place_of_worship",
        "denomination": "hindu",
        "landuse": "religious",
        "name": "Sri Ram Mandir",
        "religion": "hindu"
      }
    },
    {
      "type": "way",
      "id": 1448548594,
      "center": {
        "lat": 12.9706513,
        "lon": 77.6692983
      },
      "tags": {
        "leisure": "pitch",
        "sport": "tennis"
      }
    },
    {
      "type": "way",
      "id": 1448548595,
      "center": {
        "lat": 12.9708669,
        "lon": 77.669343
      },
      "tags": {
        "leisure": "pitch",
        "sport": "tennis"
      }
    },
    {
      "type": "way",
      "id": 1448550990,
      "center": {
        "lat": 12.967369,
        "lon": 77.6682712
      },
      "tags": {
        "access": "private",
        "leisure": "playground"
      }
    },
    {
      "type": "way",
      "id": 1449319752,
      "center": {
        "lat": 12.9643867,
        "lon": 77.6701798
      },
      "tags": {
        "access": "private",
        "leisure": "playground"
      }
    },
    {
      "type": "way",
      "id": 1449319756,
      "center": {
        "lat": 12.9619024,
        "lon": 77.6699727
      },
      "tags": {
        "amenity": "place_of_worship",
        "landuse": "religious",
        "religion": "muslim"
      }
    }
  ]
}