{
  "area_name": "Nobo Nagar",
  "osm_id": 8711415096,
  "osm_type": "node",
  "place_type": "neighbourhood",
  "amenity_count": 146,
  "amenities": [
    {
      "type": "node",
      "id": 1466638846,
      "lat": 12.872045,
      "lon": 77.5931718,
      "tags": {
        "amenity": "bank",
        "atm": "no",
        "brand": "South Indian Bank",
        "brand:wikidata": "Q2044973",
        "name": "South Indian Bank"
      }
    },
    {
      "type": "node",
      "id": 2322673154,
      "lat": 12.8766254,
      "lon": 77.5958823,
      "tags": {
        "amenity": "fast_food",
        "brand": "Domino's",
        "brand:ks": "ڈومینوز",
        "brand:pa": "ਡੋਮੀਨੋਜ਼",
        "brand:ur": "ڈومینوز",
        "brand:wikidata": "Q839466",
        "brand:wikipedia": "en:Domino's Pizza",
        "cuisine": "pizza",
        "name": "Domino's",
        "name:ks": "ڈومینوز",
        "name:pa": "ਡੋਮੀਨੋਜ਼",
        "name:ur": "ڈومینوز",
        "phone": "+918068886888",
        "takeaway": "yes"
      }
    },
    {
      "type": "node",
      "id": 2322728637,
      "lat": 12.8761229,
      "lon": 77.5961005,
      "tags": {
        "amenity": "food_court",
        "name": "Aharam - The Food Court",
        "website": "http://royalmeenakshimall.com/"
      }
    },
    {
      "type": "node",
      "id": 2322728638,
      "lat": 12.8755826,
      "lon": 77.5952263,
      "tags": {
        "amenity": "cinema",
        "brand": "Cinepolis",
        "brand:wikidata": "Q5686673",
        "name": "Cinepolis",
        "website": "http://www.cinepolisindia.com/",
        "wheelchair": "limited"
      }
    },
    {
      "type": "node",
      "id": 2322728639,
      "lat": 12.8761976,
      "lon": 77.5954434,
      "tags": {
        "brand": "Cromā",
        "brand:wikidata": "Q5187683",
        "name": "Cromā",
        "shop": "electronics",
        "website": "http://www.cromaretail.com/"
      }
    },
    {
      "type": "node",
      "id": 2322728640,
      "lat": 12.876118,
      "lon": 77.5953397,
      "tags": {
        "name": "HyperCITY",
        "shop": "supermarket",
        "website": "http://www.hypercityindia.com/",
        "wheelchair": "no"
      }
    },
    {
      "type": "node",
      "id": 2322728641,
      "lat": 12.875838,
      "lon": 77.5952566,
      "tags": {
        "alt_name": "Kentucky Fried Chicken",
        "alt_name:en": "Kentucky Fried Chicken",
        "alt_name:hi": "केंटुकी फ्राइड चिकन",
        "alt_name:pa": "ਕੈਂਟੁਕੀ ਫ੍ਰਾਈਡ ਚਿਕਨ",
        "alt_name:pnb": "کینٹکی فرائیڈ چکن",
        "alt_name:ur": "کینٹکی فرائیڈ چکن",
        "amenity": "fast_food",
        "brand": "KFC",
        "brand:en": "KFC",
        "brand:hi": "केएफसी",
        "brand:pa": "ਕੇਐਫਸੀ",
        "brand:pnb": "کے ایف سی",
        "brand:ur": "کے ایف سی",
        "brand:wikidata": "Q524757",
        "brand:wikipedia": "en:KFC",
        "brand:wikipedia:pa": "ਕੇਐਫਸੀ",
        "brand:wikipedia:ur": "کینٹکی فرائیڈ چکن",
        "cuisine": "chicken",
        "name": "KFC",
        "name:en": "KFC",
        "name:hi": "केएफसी",
        "name:kn": "ಕೆಎಫ್‌ಸಿ",
        "name:pa": "ਕੇਐਫਸੀ",
        "name:pnb": "کے ایف سی",
        "name:ur": "کے ایف سی",
        "takeaway": "yes",
        "website": "http://www.kfc.co.in/"
      }
    },
    {
      "type": "node",
      "id": 2322728642,
      "lat": 12.8757152,
      "lon": 77.595244,
      "tags": {
        "amenity": "cafe",
        "cuisine": "coffee_shop",
        "name": "Kalmane Koffees",
        "name:kn": "ಕಲ್ಮನೆ ಕಾಫೀಸ್",
        "smoking": "no",
        "website": "http://kalmanekoffee.com/"
      }
    },
    {
      "type": "node",
      "id": 2322728643,
      "lat": 12.8759805,
      "lon": 77.5952792,
      "tags": {
        "amenity": "fast_food",
        "brand": "McDonald's",
        "brand:pa": "ਮੈਕਡੋਨਲਡ’ਜ਼",
        "brand:ur": "مکڈونلڈز",
        "brand:wikidata": "Q38076",
        "brand:wikipedia": "en:McDonald's",
        "brand:wikipedia:pa": "ਮੈਕਡੋਨਲਡ’ਜ਼",
        "brand:wikipedia:ur": "مکڈونلڈز",
        "cuisine": "burger",
        "name": "McDonald's",
        "name:kn": "ಮ್ಯಾಕ್‌ಡೊನಾಲ್ಡ್ಸ್",
        "name:pa": "ਮੈਕਡੋਨਲਡ’ਜ਼",
        "name:ur": "مکڈونلڈز",
        "phone": "+918066000666",
        "takeaway": "yes",
        "website": "https://www.mcdonaldsindia.com/"
      }
    },
    {
      "type": "node",
      "id": 2322728644,
      "lat": 12.8762432,
      "lon": 77.5957831,
      "tags": {
        "amenity": "restaurant",
        "cuisine": "indian",
        "name": "Oye Amritsar",
        "phone": "+918066490324"
      }
    },
    {
      "type": "node",
      "id": 2322728645,
      "lat": 12.8759927,
      "lon": 77.5960602,
      "tags": {
        "amenity": "restaurant",
        "cuisine": "indian",
        "name": "Rajdhani Thali",
        "name:kn": "ರಾಜಧಾನಿ ಥಾಲಿ",
        "website": "https://www.rajdhani.co.in/"
      }
    },
    {
      "type": "node",
      "id": 2322728647,
      "lat": 12.8762457,
      "lon": 77.5955916,
      "tags": {
        "amenity": "restaurant",
        "name": "TGIF",
        "operator": "international",
        "website": "https://tgifindia.com/"
      }
    },
    {
      "type": "node",
      "id": 2322728648,
      "lat": 12.876231,
      "lon": 77.5959821,
      "tags": {
        "amenity": "pub",
        "name": "The Pint Room"
      }
    },
    {
      "type": "node",
      "id": 2939032225,
      "lat": 12.8766662,
      "lon": 77.5982619,
      "tags": {
        "leisure": "playground"
      }
    },
    {
      "type": "node",
      "id": 3702253640,
      "lat": 12.8741518,
      "lon": 77.5948911,
      "tags": {
        "amenity": "place_of_worship",
        "name": "Islamia Institue Masjid",
        "religion": "muslim"
      }
    },
    {
      "type": "node",
      "id": 4440769883,
      "lat": 12.8615976,
      "lon": 77.5999324,
      "tags": {
        "amenity": "hospital",
        "name": "Myo Medex - Ace Speciality Clinic"
      }
    },
    {
      "type": "node",
      "id": 4440823097,
      "lat": 12.8655685,
      "lon": 77.6001278,
      "tags": {
        "amenity": "atm",
        "brand": "Bank of Baroda",
        "brand:wikidata": "Q2003797",
        "currency:INR": "yes",
        "drive_through": "no",
        "name": "Bank of Baroda",
        "operator": "Bank of Baroda",
        "operator:wikidata": "Q2003797"
      }
    },
    {
      "type": "node",
      "id": 4440825591,
      "lat": 12.8616662,
      "lon": 77.5998009,
      "tags": {
        "name": "Medplu",
        "operator": "Medplus",
        "shop": "medical_supply"
      }
    },
    {
      "type": "node",
      "id": 4440825592,
      "lat": 12.8616489,
      "lon": 77.599633,
      "tags": {
        "name": "Thirumala Medical Store",
        "operator": "Thirumala Medical Store",
        "shop": "medical_supply"
      }
    },
    {
      "type": "node",
      "id": 4440863088,
      "lat": 12.8617817,
      "lon": 77.5996423,
      "tags": {
        "amenity": "restaurant",
        "name": "Sri Sai Sagar"
      }
    },
    {
      "type": "node",
      "id": 4440987271,
      "lat": 12.8750879,
      "lon": 77.5950098,
      "tags": {
        "amenity": "hospital",
        "description": "Eye Hospital",
        "healthcare": "hospital",
        "name": "Narayana Nethralaya",
        "name:kn": "ನಾರಾಯಣ ನೇತ್ರಾಲಯ"
      }
    },
    {
      "type": "node",
      "id": 4445406542,
      "lat": 12.875504,
      "lon": 77.5953765,
      "tags": {
        "addr:city": "Bangalore",
        "addr:housenumber": "Balmuri Main Road, Hulimavu",
        "addr:postcode": "560076",
        "addr:street": "Bannerghatta Road",
        "brand": "Nike",
        "brand:wikidata": "Q483915",
        "level": "0",
        "name": "Nike",
        "name:kn": "ನೈಕ್",
        "opening_hours": "11:00-21:30",
        "phone": "+918067080241",
        "shop": "clothes",
        "website": "https://www.nike.ssiplgroup.com"
      }
    },
    {
      "type": "node",
      "id": 4445423271,
      "lat": 12.8756086,
      "lon": 77.5953765,
      "tags": {
        "addr:city": "Bangalore",
        "addr:housenumber": "Balmuri Main Road, Hulimavu",
        "addr:postcode": "560076",
        "addr:street": "Bannerghatta Road",
        "level": "1",
        "name": "wild craft",
        "opening_hours": "11:00-21:30",
        "phone": "080 67080255",
        "shop": "bag",
        "website": "https://www.wildcraft.in/"
      }
    },
    {
      "type": "node",
      "id": 4445435686,
      "lat": 12.8757393,
      "lon": 77.5953738,
      "tags": {
        "addr:city": "Bangalore",
        "addr:housenumber": "Balmuri Main Road, Hulimavu",
        "addr:postcode": "560076",
        "addr:street": "Bannerghatta Road",
        "amenity": "cafe",
        "brand": "Cafe Coffee Day",
        "brand:wikidata": "Q5017235",
        "cuisine": "coffee_shop",
        "internet_access": "wlan",
        "level": "0",
        "name": "Cafe Coffee Day",
        "name:kn": "ಕಫೆ ಕಾಫಿ ಡೇ",
        "opening_hours": "11:00-21:30",
        "phone": "9343003325",
        "smoking": "no",
        "takeaway": "yes",
        "website": "https://www.cafecoffeeday.com/"
      }
    },
    {
      "type": "node",
      "id": 4445479312,
      "lat": 12.8759903,
      "lon": 77.5954284,
      "tags": {
        "addr:city": "Bangalore",
        "addr:housenumber": "Balmuri Main Road, Hulimavu",
        "addr:postcode": "560076",
        "addr:street": "Bannerghatta Road",
        "brand": "Metro",
        "brand:wikidata": "Q16938284",
        "level": "1",
        "name": "Metro",
        "name:kn": "ಮೆಟ್ರೋ",
        "opening_hours": "11:00-21:30",
        "phone": "+918025125120",
        "shop": "shoes",
        "website": "https://www.metroshoes.net/"
      }
    },
    {
      "type": "node",
      "id": 4445846940,
      "lat": 12.8760834,
      "lon": 77.5954874,
      "tags": {
        "addr:city": "Bangalore",
        "addr:housenumber": "Balmuri Main Road, Hulimavu",
        "addr:postcode": "560076",
        "addr:street": "Bannerghatta Road",
        "brand": "Woodland",
        "brand:wikidata": "Q123068491",
        "level": "1",
        "name": "Woodland",
        "opening_hours": "10:00-21:30",
        "phone": "08067080220",
        "shop": "shoes",
        "website": "https://www.woodlandworldwide.com/"
      }
    },
    {
      "type": "node",
      "id": 4445853881,
      "lat": 12.8761671,
      "lon": 77.5955652,
      "tags": {
        "addr:city": "Bangalore",
        "addr:housenumber": "Balmuri Main Road, Hulimavu,",
        "addr:postcode": "560076",
        "addr:street": "Bannerghatta Road",
        "brand": "Samsung",
        "brand:wikidata": "Q20718",
        "level": "0",
        "name": "Samsung",
        "name:kn": "ಸ್ಯಾಮ್‌ಸಂಗ್",
        "opening_hours": "10:00-21:30",
        "phone": "+918067080229",
        "shop": "electronics",
        "website": "https://www.samsung.com/"
      }
    },
    {
      "type": "node",
      "id": 4445862197,
      "lat": 12.8762142,
      "lon": 77.5956644,
      "tags": {
        "addr:city": "Bangalore",
        "addr:housenumber": "Balmuri Main Road, Hulimavu",
        "addr:postcode": "560076",
        "addr:street": "Bannerghatta Road",
        "level": "2",
        "name": "Sangeetha",
        "name:kn": "ಸಂಗೀತ",
        "opening_hours": "10:00-21:30",
        "phone": "+917847888283",
        "shop": "electronics",
        "website": "https://www.sangeethamobiles.com/"
      }
    },
    {
      "type": "node",
      "id": 4445869470,
      "lat": 12.8762037,
      "lon": 77.5957797,
      "tags": {
        "addr:city": "Bangalore",
        "addr:housenumber": "Balmuri Main Road, Hulimavu",
        "addr:postcode": "560076",
        "addr:street": "Bannerghatta Road",
        "name": "Allen Solly",
        "name:kn": "ಅಲೆನ್ ಸೊಲಿ",
        "opening_hours": "10:00-21:30",
        "phone": "+918067080182",
        "shop": "clothes",
        "website": "https://www.allensolly.com/"
      }
    },
    {
      "type": "node",
      "id": 4445878781,
      "lat": 12.8761932,
      "lon": 77.595879,
      "tags": {
        "addr:city": "Bangalore",
        "addr:housenumber": "Balmuri Main Road, Hulimavu",
        "addr:postcode": "560076",
        "addr:street": "Bannerghatta Road",
        "level": "2",
        "name": "Fab India",
        "opening_hours": "10:00-21:30",
        "phone": "+918025125012",
        "shop": "clothes",
        "website": "https://www.fabindia.com/"
      }
    },
    {
      "type": "node",
      "id": 4447351331,
      "lat": 12.8762429,
      "lon": 77.5953023,
      "tags": {
        "addr:city": "Bangalore",
        "addr:housenumber": "Balmuri Main Road, Hulimavu",
        "addr:postcode": "560076",
        "addr:street": "Bannerghatta Road",
        "level": "1",
        "name": "hanes",
        "opening_hours": "11:00-21:30",
        "phone": "080670 80230",
        "shop": "clothes",
        "website": "https://www.hanes.com/"
      }
    },
    {
      "type": "node",
      "id": 4447372958,
      "lat": 12.8761932,
      "lon": 77.5959662,
      "tags": {
        "addr:city": "Bangalore",
        "addr:housenumber": "Balmuri Main Road, Hulimavu",
        "addr:postcode": "560076",
        "addr:street": "Bannerghatta Road",
        "name": "jockey",
        "opening_hours": "10:00-21:30",
        "phone": "8067080225",
        "shop": "clothes",
        "website": "https://www.jockeyindia.com/"
      }
    },
    {
      "type": "node",
      "id": 4447377449,
      "lat": 12.8762903,
      "lon": 77.5960641,
      "tags": {
        "addr:city": "Bangalore",
        "addr:housenumber": "Balmuri Main Road, Hulimavu",
        "addr:postcode": "560076",
        "addr:street": "Bannerghatta Road",
        "level": "1",
        "name": "Lee",
        "opening_hours": "10:00-21:30",
        "phone": "080 2512 5016",
        "shop": "clothes",
        "website": "https://lee.in/"
      }
    },
    {
      "type": "node",
      "id": 4447380144,
      "lat": 12.8761282,
      "lon": 77.595946,
      "tags": {
        "addr:city": "Bangalore",
        "addr:housenumber": "Balmuri Main Road, Hulimavu",
        "addr:postcode": "560076",
        "addr:street": "Bannerghatta Road",
        "brand": "Levi's",
        "brand:wikidata": "Q127962",
        "clothes": "denim;men;women",
        "name": "Levi's",
        "name:kn": "ಲೆವಿಸ್",
        "opening_hours": "10:00-21:30",
        "phone": "9916592936",
        "shop": "clothes",
        "website": "https://www.levi.in/"
      }
    },
    {
      "type": "node",
      "id": 4447381891,
      "lat": 12.8761125,
      "lon": 77.5960185,
      "tags": {
        "addr:city": "Bangalore",
        "addr:housenumber": "Balmuri Main Road, Hulimavu",
        "addr:postcode": "560076",
        "addr:street": "Bannerghatta Road",
        "level": "2",
        "name": "liberty silks",
        "opening_hours": "10:00-21:30",
        "phone": "8067080286",
        "shop": "clothes"
      }
    },
    {
      "type": "node",
      "id": 4447384389,
      "lat": 12.8760994,
      "lon": 77.5956161,
      "tags": {
        "addr:city": "Bangalore",
        "addr:housenumber": "Balmuri Main Road, Hulimavu,",
        "addr:postcode": "560076",
        "addr:street": "Bannerghatta Road",
        "level": "0",
        "name": "Louis Phillipe",
        "opening_hours": "10:00-21:30",
        "phone": "08067080183",
        "shop": "clothes",
        "website": "https://www.louisphilippe.com"
      }
    },
    {
      "type": "node",
      "id": 4447395895,
      "lat": 12.8761282,
      "lon": 77.5956939,
      "tags": {
        "addr:city": "Bangalore",
        "addr:housenumber": "Balmuri Main Road, Hulimavu,",
        "addr:postcode": "560076",
        "addr:street": "Bannerghatta Road",
        "name": "Mother Earth",
        "opening_hours": "10:00-21:30",
        "phone": "080 6539 3999",
        "shop": "clothes",
        "website": "www.motherearth.co.in"
      }
    },
    {
      "type": "node",
      "id": 4447395896,
      "lat": 12.8760524,
      "lon": 77.5955732,
      "tags": {
        "addr:city": "Bangalore",
        "addr:housenumber": "Balmuri Main Road, Hulimavu,",
        "addr:postcode": "560076",
        "addr:street": "Bannerghatta Road",
        "level": "0",
        "name": "Mother Earth",
        "opening_hours": "10:00-21:30",
        "phone": "080 6539 3999",
        "shop": "clothes",
        "website": "www.motherearth.co.in"
      }
    },
    {
      "type": "node",
      "id": 4447397235,
      "lat": 12.8760001,
      "lon": 77.5955142,
      "tags": {
        "addr:city": "Bangalore",
        "addr:housenumber": "Balmuri Main Road, Hulimavu",
        "addr:postcode": "560076",
        "addr:street": "Bannerghatta Road",
        "level": "1",
        "name": "Peter England",
        "name:kn": "ಪೀಟರ್ ಇಂಗ್ಲೆಂಡ್",
        "opening_hours": "10:00-21:30",
        "phone": "080-67080161",
        "shop": "clothes",
        "website": "https://www.peterengland.com"
      }
    },
    {
      "type": "node",
      "id": 4447398762,
      "lat": 12.8761308,
      "lon": 77.5958361,
      "tags": {
        "addr:city": "Bangalore",
        "addr:housenumber": "Balmuri Main Road, Hulimavu",
        "addr:postcode": "560076",
        "addr:street": "Bannerghatta Road",
        "level": "1",
        "name": "UCB",
        "opening_hours": "10:00-21:30",
        "phone": "9986011137",
        "shop": "clothes",
        "website": "https://world.benetton.com"
      }
    },
    {
      "type": "node",
      "id": 4447402860,
      "lat": 12.8761073,
      "lon": 77.5961821,
      "tags": {
        "addr:city": "Bangalore",
        "addr:housenumber": "Balmuri Main Road, Hulimavu",
        "addr:postcode": "560076",
        "addr:street": "Bannerghatta Road",
        "level": "2",
        "name": "show off",
        "opening_hours": "10:00-21:30",
        "phone": "8067080222",
        "shop": "clothes"
      }
    },
    {
      "type": "node",
      "id": 4447422127,
      "lat": 12.8760888,
      "lon": 77.5961161,
      "tags": {
        "addr:city": "Bangalore",
        "addr:housenumber": "Balmuri Main Road, Hulimavu",
        "addr:postcode": "560076",
        "addr:street": "Bannerghatta Road",
        "name": "Van Huesen",
        "opening_hours": "10:00-21:30",
        "phone": "8067080181",
        "shop": "clothes",
        "website": "https://www.vanheusenindia.com/"
      }
    },
    {
      "type": "node",
      "id": 4447439589,
      "lat": 12.8759384,
      "lon": 77.5960999,
      "tags": {
        "addr:city": "Bangalore",
        "addr:housenumber": "Balmuri Main Road, Hulimavu,",
        "addr:postcode": "560076",
        "addr:street": "Bannerghatta Road",
        "level": "2",
        "name": "w",
        "opening_hours": "10:00-21:30",
        "phone": "8067080227",
        "shop": "clothes",
        "website": "https://www.wforwoman.com/"
      }
    },
    {
      "type": "node",
      "id": 4447514124,
      "lat": 12.8759894,
      "lon": 77.5955735,
      "tags": {
        "addr:city": "Bangalore",
        "addr:housenumber": "Balmuri Main Road, Hulimavu",
        "addr:postcode": "560076",
        "addr:street": "Bannerghatta Road",
        "level": "1",
        "name": "Wrangler",
        "name:kn": "ರಾಂಗ್ಲರ್",
        "opening_hours": "10:00-21:30",
        "phone": "080670 80257",
        "shop": "clothes",
        "website": "https://www.wrangler.com/"
      }
    },
    {
      "type": "node",
      "id": 4447519985,
      "lat": 12.8759398,
      "lon": 77.5955547,
      "tags": {
        "addr:city": "Bangalore",
        "addr:housenumber": "Balmuri Main Road, Hulimavu",
        "addr:postcode": "560076",
        "addr:street": "Bannerghatta Road",
        "brand": "U.S. Polo Assn.",
        "brand:wikidata": "Q7863282",
        "level": "1",
        "name": "U.S. Polo Assn.",
        "opening_hours": "10:00-21:30",
        "phone": "8067080121",
        "shop": "clothes",
        "website": "https://www.uspolo.org"
      }
    },
    {
      "type": "node",
      "id": 4447574885,
      "lat": 12.8760612,
      "lon": 77.5958575,
      "tags": {
        "addr:city": "Bangalore",
        "addr:housenumber": "Balmuri Main Road, Hulimavu",
        "addr:postcode": "560076",
        "addr:street": "Bannerghatta Road",
        "level": "1",
        "name": "VIP lounge",
        "opening_hours": "10:00-21:30",
        "phone": "8067080264",
        "shop": "bag",
        "website": "https://www.vipbags.com/"
      }
    },
    {
      "type": "node",
      "id": 4447581393,
      "lat": 12.8760769,
      "lon": 77.5959487,
      "tags": {
        "addr:city": "Bangalore",
        "addr:housenumber": "Balmuri Main Road, Hulimavu",
        "addr:postcode": "560076",
        "addr:street": "Bannerghatta Road",
        "brand": "Biba",
        "brand:wikidata": "Q4902942",
        "level": "2",
        "name": "Biba",
        "opening_hours": "10:00-21:30",
        "phone": "080670 80020",
        "shop": "clothes",
        "website": "https://www.biba.in/"
      }
    },
    {
      "type": "node",
      "id": 4447586738,
      "lat": 12.8761109,
      "lon": 77.5958548,
      "tags": {
        "addr:city": "Bangalore",
        "addr:housenumber": "Balmuri Main Road, Hulimavu",
        "addr:postcode": "560076",
        "addr:street": "Bannerghatta Road",
        "level": "0",
        "name": "shopper stop",
        "opening_hours": "10:00-21:30",
        "phone": "8046658301",
        "shop": "clothes",
        "website": "https://www.shoppersstop.com"
      }
    },
    {
      "type": "node",
      "id": 4448660601,
      "lat": 12.8755356,
      "lon": 77.5954471,
      "tags": {
        "addr:city": "Bangalore",
        "addr:housenumber": "Balmuri Main Road",
        "addr:postcode": "560076",
        "addr:street": "Bannerghatta Road",
        "level": "1",
        "name": "eye sense",
        "opening_hours": "10:00-21:30",
        "phone": "098445 01111",
        "shop": "optician",
        "website": "https://www.eyesense.in/"
      }
    },
    {
      "type": "node",
      "id": 4448660620,
      "lat": 12.8755644,
      "lon": 77.5956483,
      "tags": {
        "addr:city": "Bangalore",
        "addr:housenumber": "Balmuri Main Road",
        "addr:postcode": "560076",
        "addr:street": "Bannerghatta Road",
        "level": "3",
        "name": "travel vacation",
        "opening_hours": "10:00-21:30",
        "phone": "080670 80100",
        "shop": "travel_agency"
      }
    },
    {
      "type": "node",
      "id": 4448661878,
      "lat": 12.8756821,
      "lon": 77.5954793,
      "tags": {
        "addr:city": "Bangalore",
        "addr:housenumber": "Balmuri Main Road",
        "addr:postcode": "560076",
        "addr:street": "Bannerghatta Road",
        "level": "1",
        "name": "Swagger",
        "opening_hours": "10:00-21:30",
        "phone": "8025125099",
        "shop": "clothes"
      }
    },
    {
      "type": "node",
      "id": 4448670452,
      "lat": 12.8756925,
      "lon": 77.5958039,
      "tags": {
        "addr:city": "Bangalore",
        "addr:housenumber": "Balmuri Main Road",
        "addr:postcode": "560076",
        "addr:street": "Bannerghatta Road",
        "brand": "Max",
        "brand:wikidata": "Q24939079",
        "level": "1",
        "name": "Max",
        "opening_hours": "10:00-21:30",
        "phone": "8067080000",
        "shop": "clothes",
        "website": "http://www.maxfashionindia.com/"
      }
    },
    {
      "type": "node",
      "id": 4448671062,
      "lat": 12.8757945,
      "lon": 77.595879,
      "tags": {
        "addr:city": "Bangalore",
        "addr:housenumber": "Balmuri Main Road",
        "addr:postcode": "560076",
        "addr:street": "Bannerghatta Road",
        "brand": "Reliance Trends",
        "level": "1",
        "name": "Reliance trends",
        "opening_hours": "10:00-21:30",
        "phone": "8067080235",
        "shop": "clothes",
        "website": "https://www.reliancetrends.com/"
      }
    },
    {
      "type": "node",
      "id": 4448671579,
      "lat": 12.8758886,
      "lon": 77.5959889,
      "tags": {
        "addr:city": "Bangalore",
        "addr:housenumber": "Balmuri Main Road",
        "addr:postcode": "560076",
        "addr:street": "Bannerghatta Road",
        "level": "2",
        "name": "affinity salon",
        "opening_hours": "10:00-21:30",
        "phone": "8067080199",
        "shop": "beauty",
        "website": "https://affinitysalon.com/"
      }
    },
    {
      "type": "node",
      "id": 4448672308,
      "lat": 12.8759645,
      "lon": 77.5957985,
      "tags": {
        "addr:city": "Bangalore",
        "addr:housenumber": "Balmuri Main Road",
        "addr:postcode": "560076",
        "addr:street": "Bannerghatta Road",
        "level": "1",
        "name": "Body Shop",
        "opening_hours": "10:00-21:30",
        "phone": "8067080261",
        "shop": "beauty",
        "website": "https://www.thebodyshop.in/"
      }
    },
    {
      "type": "node",
      "id": 4448673212,
      "lat": 12.8757997,
      "lon": 77.595769,
      "tags": {
        "addr:city": "Bangalore",
        "addr:housenumber": "Balmuri Main Road,",
        "addr:postcode": "560076",
        "addr:street": "Bannerghatta Road",
        "level": "2",
        "name": "Health And Glow",
        "opening_hours": "10:00-21:30",
        "phone": "080670 80100",
        "shop": "cosmetics",
        "website": "www.healthandglow.in"
      }
    },
    {
      "type": "node",
      "id": 4448675649,
      "lat": 12.8757788,
      "lon": 77.5956322,
      "tags": {
        "addr:city": "Bangalore",
        "addr:housenumber": "Balmuri Main Road",
        "addr:postcode": "560076",
        "addr:street": "Bannerghatta Road",
        "level": "0",
        "name": "new U",
        "opening_hours": "10:00-21:30",
        "phone": "O8067080100",
        "shop": "cosmetics",
        "website": "https://www.newu.in/"
      }
    },
    {
      "type": "node",
      "id": 4448676192,
      "lat": 12.8757108,
      "lon": 77.5956993,
      "tags": {
        "addr:city": "Bangalore",
        "addr:housenumber": "Balmuri Main Road",
        "addr:postcode": "560076",
        "addr:street": "Bannerghatta Road",
        "level": "2",
        "name": "home stop",
        "opening_hours": "10:00-21:30",
        "phone": "0804340 1500",
        "shop": "clothes",
        "website": "https://www.shoppersstop.com/"
      }
    },
    {
      "type": "node",
      "id": 4487971422,
      "lat": 12.8758755,
      "lon": 77.5958084,
      "tags": {
        "addr:city": "Bangalore",
        "addr:postcode": "560076",
        "addr:street": "Bannerghatta Road",
        "name": "Hypercity Retail India Pvt Ltd",
        "phone": "18002097172",
        "shop": "supermarket"
      }
    },
    {
      "type": "node",
      "id": 4488543982,
      "lat": 12.8766502,
      "lon": 77.5957349,
      "tags": {
        "addr:city": "Bangalore",
        "addr:housenumber": "Pai Layout, Hulimavu,",
        "addr:postcode": "560076",
        "addr:street": "Hulimavu",
        "leisure": "sports_centre",
        "name": "Pain & Gain Fitness",
        "opening_hours": "5:30-22:00",
        "phone": "918049652413",
        "sport": "gymnastics"
      }
    },
    {
      "type": "node",
      "id": 4489711538,
      "lat": 12.8632654,
      "lon": 77.6016888,
      "tags": {
        "addr:city": "Bangalore",
        "addr:postcode": "560100",
        "addr:street": "Neeladri Rd, Electronics City Phase 1, Electronic City, Doddathoguru",
        "leisure": "sports_centre",
        "name": "Action Sports",
        "phone": "088610 01975"
      }
    },
    {
      "type": "node",
      "id": 4615699489,
      "lat": 12.8698557,
      "lon": 77.597124,
      "tags": {
        "name": "Galaxy mart",
        "name:en": "Galaxy mart",
        "shop": "supermarket"
      }
    },
    {
      "type": "node",
      "id": 4615699490,
      "lat": 12.8671553,
      "lon": 77.59804,
      "tags": {
        "name": "Patanjali Store",
        "name:en": "patanjali store",
        "shop": "department_store"
      }
    },
    {
      "type": "node",
      "id": 4615699491,
      "lat": 12.8698577,
      "lon": 77.5970827,
      "tags": {
        "name": "Galaxy mart",
        "name:en": "Galaxy mart",
        "shop": "supermarket"
      }
    },
    {
      "type": "node",
      "id": 4615699589,
      "lat": 12.8671576,
      "lon": 77.5979433,
      "tags": {
        "amenity": "pharmacy",
        "name": "Ramdev medicals",
        "name:en": "Ramdev medicals"
      }
    },
    {
      "type": "node",
      "id": 4615699689,
      "lat": 12.8663845,
      "lon": 77.59779,
      "tags": {
        "amenity": "bank",
        "brand": "Canara Bank",
        "brand:en": "Canara Bank",
        "brand:hi": "केनरा बैंक",
        "brand:kn": "ಕೆನರಾ ಬ್ಯಾಂಕ್",
        "brand:pa": "ਕੇਨਰਾ ਬੈਂਕ",
        "brand:pnb": "کینرا بینک",
        "brand:ur": "کینرا بینک",
        "brand:wikidata": "Q2003777",
        "brand:wikipedia": "en:Canara Bank",
        "brand:wikipedia:pa": "ਕੇਨਰਾ ਬੈਂਕ",
        "name": "Canara Bank",
        "name:en": "Canara Bank",
        "name:hi": "केनरा बैंक",
        "name:kn": "ಕೆನರಾ ಬ್ಯಾಂಕ್",
        "name:pa": "ਕੇਨਰਾ ਬੈਂਕ",
        "name:pnb": "کینرا بینک",
        "name:ur": "کینرا بینک",
        "website": "https://www.canarabank.com/"
      }
    },
    {
      "type": "node",
      "id": 4615699690,
      "lat": 12.8654816,
      "lon": 77.5983391,
      "tags": {
        "amenity": "pharmacy",
        "name": "krishna medicals",
        "name:en": "krishna medicals"
      }
    },
    {
      "type": "node",
      "id": 4615699789,
      "lat": 12.8663259,
      "lon": 77.5979475,
      "tags": {
        "amenity": "atm"
      }
    },
    {
      "type": "node",
      "id": 4702654089,
      "lat": 12.875302,
      "lon": 77.5943821,
      "tags": {
        "amenity": "community_centre",
        "name": "Meenaakshi Convention Center",
        "name:en": "Meenaakshi Convention Center"
      }
    },
    {
      "type": "node",
      "id": 5402224045,
      "lat": 12.8651422,
      "lon": 77.5982894,
      "tags": {
        "shop": "hairdresser"
      }
    },
    {
      "type": "node",
      "id": 5402302831,
      "lat": 12.8696154,
      "lon": 77.5969714,
      "tags": {
        "amenity": "restaurant"
      }
    },
    {
      "type": "node",
      "id": 5402307942,
      "lat": 12.8669831,
      "lon": 77.5978101,
      "tags": {
        "amenity": "cafe"
      }
    },
    {
      "type": "node",
      "id": 5402308133,
      "lat": 12.8616608,
      "lon": 77.6014989,
      "tags": {
        "shop": "hairdresser"
      }
    },
    {
      "type": "node",
      "id": 5402312924,
      "lat": 12.8615906,
      "lon": 77.6001468,
      "tags": {
        "amenity": "cafe"
      }
    },
    {
      "type": "node",
      "id": 5402312925,
      "lat": 12.867905,
      "lon": 77.5978285,
      "tags": {
        "amenity": "pharmacy"
      }
    },
    {
      "type": "node",
      "id": 6348719364,
      "lat": 12.8722269,
      "lon": 77.5995362,
      "tags": {
        "addr:place": "Venugopal Nagar",
        "amenity": "school",
        "isced:level": "2",
        "name": "GHPS Venugopal Nagar",
        "name:kn": "ಸರ್ಕಾರಿ ಹಿರಿಯ ಪ್ರಾಥಮಿಕ ಶಾಲೆ ವೇಣುಗೋಪಾಲ್ ನಗರ",
        "operator": "Department of Education",
        "school": "primary"
      }
    },
    {
      "type": "node",
      "id": 9159810899,
      "lat": 12.8710628,
      "lon": 77.5937507,
      "tags": {
        "addr:street": "Bannerghata Road",
        "name": "Sai Motors - Chevrolet Service Center",
        "shop": "car_repair"
      }
    },
    {
      "type": "node",
      "id": 11302031532,
      "lat": 12.8767868,
      "lon": 77.5953714,
      "tags": {
        "amenity": "bar",
        "name": "Barrel House"
      }
    },
    {
      "type": "node",
      "id": 11644229938,
      "lat": 12.8643426,
      "lon": 77.5892945,
      "tags": {
        "amenity": "restaurant",
        "check_date": "2024-02-20",
        "contact:instagram": "https://www.instagram.com/grasshopperbangalore",
        "delivery": "no",
        "name": "Grasshopper",
        "phone": "+91 80501 65130",
        "reservation": "recommended"
      }
    },
    {
      "type": "node",
      "id": 11939125780,
      "lat": 12.8664619,
      "lon": 77.5918193,
      "tags": {
        "amenity": "pharmacy",
        "name": "Medplus"
      }
    },
    {
      "type": "node",
      "id": 12167811116,
      "lat": 12.8711217,
      "lon": 77.5958129,
      "tags": {
        "access": "private",
        "amenity": "parking_entrance",
        "parking": "underground"
      }
    },
    {
      "type": "node",
      "id": 12260569981,
      "lat": 12.8630573,
      "lon": 77.5910135,
      "tags": {
        "amenity": "restaurant",
        "name": "Soofi Mandi"
      }
    },
    {
      "type": "way",
      "id": 23001013,
      "center": {
        "lat": 12.8657518,
        "lon": 77.6013598
      },
      "tags": {
        "amenity": "college",
        "name": "Maaruti Dental College Campus",
        "name:kn": "ಮಾರುತಿ ದಂತ ವೈದ್ಯಕೀಯ ಕಾಲೇಜು"
      }
    },
    {
      "type": "way",
      "id": 121005469,
      "center": {
        "lat": 12.8748358,
        "lon": 77.5942525
      },
      "tags": {
        "amenity": "place_of_worship",
        "building": "yes",
        "name": "Shree Meenakshi Sundareshwara Temple",
        "name:kn": "ಮೀನಾಕ್ಷಿ ದೇವಸ್ಥಾನ",
        "religion": "hindu"
      }
    },
    {
      "type": "way",
      "id": 133243133,
      "center": {
        "lat": 12.8694537,
        "lon": 77.5924812
      },
      "tags": {
        "amenity": "college",
        "name": "Loyola Industrial Training Centre"
      }
    },
    {
      "type": "way",
      "id": 133243134,
      "center": {
        "lat": 12.8697859,
        "lon": 77.5925525
      },
      "tags": {
        "name": "Bimal Motors",
        "shop": "car"
      }
    },
    {
      "type": "way",
      "id": 227098103,
      "center": {
        "lat": 12.8625201,
        "lon": 77.5996559
      },
      "tags": {
        "amenity": "place_of_worship",
        "name": "Maramma Temple",
        "name:kn": "ಮಾರಮ್ಮ ದೇವಸ್ಥಾನ",
        "religion": "hindu"
      }
    },
    {
      "type": "way",
      "id": 290364531,
      "center": {
        "lat": 12.877533,
        "lon": 77.5997011
      },
      "tags": {
        "alt_name": "BGS NPS",
        "amenity": "school",
        "name": "BGS National Public School"
      }
    },
    {
      "type": "way",
      "id": 347045814,
      "center": {
        "lat": 12.872481,
        "lon": 77.5885161
      },
      "tags": {
        "access": "private",
        "leisure": "pitch",
        "sport": "tennis"
      }
    },
    {
      "type": "way",
      "id": 347117181,
      "center": {
        "lat": 12.8641013,
        "lon": 77.5992231
      },
      "tags": {
        "building": "yes",
        "name": "Easy Shopping Mart",
        "shop": "supermarket"
      }
    },
    {
      "type": "way",
      "id": 347137534,
      "center": {
        "lat": 12.8706161,
        "lon": 77.5927787
      },
      "tags": {
        "amenity": "school",
        "building": "yes",
        "name": "Loyola Primary School",
        "name:kn": "ಲೋಯಲ ಪ್ರಾಥಮಿಕ ಪಾಠ ಶಾಲೆ"
      }
    },
    {
      "type": "way",
      "id": 362882070,
      "center": {
        "lat": 12.8656488,
        "lon": 77.5943914
      },
      "tags": {
        "leisure": "playground",
        "name": "Play Area"
      }
    },
    {
      "type": "way",
      "id": 362885059,
      "center": {
        "lat": 12.8647821,
        "lon": 77.6040901
      },
      "tags": {
        "leisure": "park"
      }
    },
    {
      "type": "way",
      "id": 362885223,
      "center": {
        "lat": 12.866897,
        "lon": 77.5994114
      },
      "tags": {
        "leisure": "park"
      }
    },
    {
      "type": "way",
      "id": 668612930,
      "center": {
        "lat": 12.8758758,
        "lon": 77.5957621
      },
      "tags": {
        "building": "yes",
        "name": "Royal Meenakshi Mall",
        "name:en": "Royal Meenakshi Mall",
        "shop": "mall",
        "wheelchair": "yes"
      }
    },
    {
      "type": "way",
      "id": 668612959,
      "center": {
        "lat": 12.8728096,
        "lon": 77.5975747
      },
      "tags": {
        "amenity": "school",
        "name": "SOS Children's Village"
      }
    },
    {
      "type": "way",
      "id": 1082360480,
      "center": {
        "lat": 12.8719667,
        "lon": 77.5931317
      },
      "tags": {
        "amenity": "school",
        "name": "Holy Spirit School ICSE"
      }
    },
    {
      "type": "way",
      "id": 1082360481,
      "center": {
        "lat": 12.8729809,
        "lon": 77.5905601
      },
      "tags": {
        "amenity": "school",
        "name": "Holy Spirit PU College"
      }
    },
    {
      "type": "way",
      "id": 1082360489,
      "center": {
        "lat": 12.8680752,
        "lon": 77.5870384
      },
      "tags": {
        "amenity": "monastery",
        "landuse": "religious",
        "name": "Holy Trinity Ashram",
        "religion": "christian"
      }
    },
    {
      "type": "way",
      "id": 1082360490,
      "center": {
        "lat": 12.8688525,
        "lon": 77.5903201
      },
      "tags": {
        "amenity": "school",
        "name": "Mount St. Joseph",
        "name:kn": "ಮೌಂಟ್ ಸೆಂಟ್ ಜ್ಯೋಸೆಫ್"
      }
    },
    {
      "type": "way",
      "id": 1134831508,
      "center": {
        "lat": 12.8723517,
        "lon": 77.5988148
      },
      "tags": {
        "amenity": "fire_station",
        "name": "Hulimavu Fire Station",
        "name:kn": "ಹುಳಿಮಾವು ಅಗ್ನಿಶಾಮಕ ಠಾಣೆ"
      }
    },
    {
      "type": "way",
      "id": 1149959392,
      "center": {
        "lat": 12.8638347,
        "lon": 77.5905032
      },
      "tags": {
        "addr:city": "Bangalore",
        "addr:housenumber": "# 1st",
        "addr:postcode": "560083",
        "addr:street": "Raj Alkaa Park, Kalena Agrahara, Bannerghatta Main Road, Himagiri Meadows",
        "brand": "Decathlon",
        "brand:wikidata": "Q509349",
        "name": "Decathlon",
        "name:kn": "ಡೆಕಾತ್ಲಾನ್",
        "opening_hours": "09:00-22:00",
        "phone": "08095556217",
        "shop": "sports",
        "website": "https://decathlon.in/"
      }
    },
    {
      "type": "way",
      "id": 1149959393,
      "center": {
        "lat": 12.8625211,
        "lon": 77.5895943
      },
      "tags": {
        "amenity": "school",
        "name": "Carmel Academy"
      }
    },
    {
      "type": "way",
      "id": 1199401120,
      "center": {
        "lat": 12.8736599,
        "lon": 77.5989796
      },
      "tags": {
        "amenity": "college"
      }
    },
    {
      "type": "way",
      "id": 1199401153,
      "center": {
        "lat": 12.8745052,
        "lon": 77.5966313
      },
      "tags": {
        "amenity": "college",
        "landuse": "education",
        "name": "Islamia Institute of Technology"
      }
    },
    {
      "type": "way",
      "id": 1199401156,
      "center": {
        "lat": 12.8748756,
        "lon": 77.5972704
      },
      "tags": {
        "leisure": "pitch",
        "sport": "cricket"
      }
    },
    {
      "type": "way",
      "id": 1199401157,
      "center": {
        "lat": 12.8756351,
        "lon": 77.5977392
      },
      "tags": {
        "leisure": "pitch",
        "sport": "tennis"
      }
    },
    {
      "type": "way",
      "id": 1199401161,
      "center": {
        "lat": 12.8685754,
        "lon": 77.5872217
      },
      "tags": {
        "amenity": "monastery",
        "landuse": "religious",
        "name": "Maitreya",
        "religion": "christian"
      }
    },
    {
      "type": "way",
      "id": 1199401164,
      "center": {
        "lat": 12.8714885,
        "lon": 77.5907706
      },
      "tags": {
        "amenity": "social_facility",
        "name": "Holy Spirit Old Age Home",
        "social_facility": "assisted_living",
        "social_facility:for": "senior"
      }
    },
    {
      "type": "way",
      "id": 1199401166,
      "center": {
        "lat": 12.8686492,
        "lon": 77.5908886
      },
      "tags": {
        "leisure": "park"
      }
    },
    {
      "type": "way",
      "id": 1199401167,
      "center": {
        "lat": 12.8682221,
        "lon": 77.5907831
      },
      "tags": {
        "leisure": "park"
      }
    },
    {
      "type": "way",
      "id": 1326186252,
      "center": {
        "lat": 12.8758209,
        "lon": 77.5974954
      },
      "tags": {
        "garden:type": "landscaping",
        "leisure": "garden"
      }
    },
    {
      "type": "way",
      "id": 1326186253,
      "center": {
        "lat": 12.8759226,
        "lon": 77.5973223
      },
      "tags": {
        "access": "private",
        "amenity": "parking",
        "parking": "street_side"
      }
    },
    {
      "type": "way",
      "id": 1353883393,
      "center": {
        "lat": 12.8669346,
        "lon": 77.5912825
      },
      "tags": {
        "addr:city": "Bengaluru",
        "addr:postcode": "560076",
        "addr:street": "Bannerghatta Road, Kalena Agrahara, Kothnur",
        "amenity": "college",
        "name": "Nirmala Jyothi Technical Institute Salesian Sisters"
      }
    },
    {
      "type": "way",
      "id": 1356597042,
      "center": {
        "lat": 12.864519,
        "lon": 77.5864983
      },
      "tags": {
        "amenity": "school",
        "name": "Sri Ramakrishna Samagra Shikshana Kendra"
      }
    },
    {
      "type": "way",
      "id": 1356597050,
      "center": {
        "lat": 12.8721491,
        "lon": 77.6017182
      },
      "tags": {
        "amenity": "place_of_worship",
        "name": "Saadh Sangat Gurudwara",
        "religion": "sikh"
      }
    },
    {
      "type": "way",
      "id": 1356597055,
      "center": {
        "lat": 12.861861,
        "lon": 77.5914237
      },
      "tags": {
        "amenity": "school"
      }
    },
    {
      "type": "way",
      "id": 1356597061,
      "center": {
        "lat": 12.8602658,
        "lon": 77.6007124
      },
      "tags": {
        "leisure": "pitch",
        "sport": "tennis"
      }
    },
    {
      "type": "way",
      "id": 1356597108,
      "center": {
        "lat": 12.8648153,
        "lon": 77.603706
      },
      "tags": {
        "amenity": "place_of_worship",
        "landuse": "religious",
        "religion": "hindu"
      }
    },
    {
      "type": "way",
      "id": 1356597110,
      "center": {
        "lat": 12.8660552,
        "lon": 77.5971711
      },
      "tags": {
        "amenity": "school"
      }
    },
    {
      "type": "way",
      "id": 1356597115,
      "center": {
        "lat": 12.8718682,
        "lon": 77.5955846
      },
      "tags": {
        "access": "private",
        "leisure": "swimming_pool"
      }
    },
    {
      "type": "way",
      "id": 1356597116,
      "center": {
        "lat": 12.870442,
        "lon": 77.5947789
      },
      "tags": {
        "access": "private",
        "leisure": "swimming_pool"
      }
    },
    {
      "type": "way",
      "id": 1356597117,
      "center": {
        "lat": 12.8699019,
        "lon": 77.5959665
      },
      "tags": {
        "access": "private",
        "leisure": "swimming_pool"
      }
    },
    {
      "type": "way",
      "id": 1356597118,
      "center": {
        "lat": 12.870512,
        "lon": 77.5960136
      },
      "tags": {
        "access": "private",
        "leisure": "swimming_pool"
      }
    },
    {
      "type": "way",
      "id": 1356597136,
      "center": {
        "lat": 12.8661113,
        "lon": 77.5907667
      },
      "tags": {
        "alt_name": "Immaculate Heart of Mary Church",
        "amenity": "place_of_worship",
        "name": "Immaculate Conception Church",
        "religion": "christian"
      }
    },
    {
      "type": "way",
      "id": 1391339680,
      "center": {
        "lat": 12.8652327,
        "lon": 77.5937956
      },
      "tags": {
        "access": "private",
        "leisure": "pitch",
        "name": "Purva Panorama Tennis Court",
        "sport": "tennis"
      }
    },
    {
      "type": "way",
      "id": 1391339681,
      "center": {
        "lat": 12.864941,
        "lon": 77.5936866
      },
      "tags": {
        "access": "private",
        "leisure": "park"
      }
    },
    {
      "type": "way",
      "id": 1391367665,
      "center": {
        "lat": 12.8704966,
        "lon": 77.5879444
      },
      "tags": {
        "leisure": "park"
      }
    },
    {
      "type": "way",
      "id": 1391388042,
      "center": {
        "lat": 12.8658569,
        "lon": 77.5940169
      },
      "tags": {
        "leisure": "swimming_pool"
      }
    },
    {
      "type": "way",
      "id": 1392516525,
      "center": {
        "lat": 12.8664725,
        "lon": 77.5930839
      },
      "tags": {
        "amenity": "theatre",
        "theatre:type": "amphi"
      }
    },
    {
      "type": "way",
      "id": 1424059159,
      "center": {
        "lat": 12.8668364,
        "lon": 77.5953037
      },
      "tags": {
        "access": "private",
        "leisure": "swimming_pool"
      }
    },
    {
      "type": "way",
      "id": 1424059167,
      "center": {
        "lat": 12.8731061,
        "lon": 77.5937809
      },
      "tags": {
        "access": "private",
        "leisure": "swimming_pool"
      }
    },
    {
      "type": "way",
      "id": 1424059174,
      "center": {
        "lat": 12.8713113,
        "lon": 77.5950956
      },
      "tags": {
        "access": "private",
        "leisure": "pitch",
        "sport": "tennis"
      }
    },
    {
      "type": "way",
      "id": 1424059177,
      "center": {
        "lat": 12.871831,
        "lon": 77.5943725
      },
      "tags": {
        "access": "private",
        "leisure": "swimming_pool"
      }
    },
    {
      "type": "way",
      "id": 1424063525,
      "center": {
        "lat": 12.8607452,
        "lon": 77.5914777
      },
      "tags": {
        "leisure": "pitch",
        "sport": "basketball"
      }
    },
    {
      "type": "way",
      "id": 1424063526,
      "center": {
        "lat": 12.8606623,
        "lon": 77.5916065
      },
      "tags": {
        "leisure": "pitch",
        "sport": "tennis"
      }
    },
    {
      "type": "way",
      "id": 1424063535,
      "center": {
        "lat": 12.8632531,
        "lon": 77.5911378
      },
      "tags": {
        "amenity": "fuel"
      }
    },
    {
      "type": "way",
      "id": 1428276575,
      "center": {
        "lat": 12.8609402,
        "lon": 77.5988516
      },
      "tags": {
        "access": "private",
        "leisure": "swimming_pool"
      }
    },
    {
      "type": "way",
      "id": 1428276576,
      "center": {
        "lat": 12.8606954,
        "lon": 77.5989096
      },
      "tags": {
        "leisure": "pitch",
        "sport": "tennis"
      }
    },
    {
      "type": "way",
      "id": 1445695930,
      "center": {
        "lat": 12.8730007,
        "lon": 77.5888849
      },
      "tags": {
        "leisure": "park"
      }
    },
    {
      "type": "way",
      "id": 1445695931,
      "center": {
        "lat": 12.8742624,
        "lon": 77.5911983
      },
      "tags": {
        "leisure": "park"
      }
    },
    {
      "type": "way",
      "id": 1445695932,
      "center": {
        "lat": 12.8747738,
        "lon": 77.591988
      },
      "tags": {
        "leisure": "park"
      }
    },
    {
      "type": "way",
      "id": 1445696329,
      "center": {
        "lat": 12.8725716,
        "lon": 77.5883364
      },
      "tags": {
        "access": "private",
        "leisure": "pitch"
      }
    },
    {
      "type": "way",
      "id": 1445703467,
      "center": {
        "lat": 12.8731326,
        "lon": 77.5893574
      },
      "tags": {
        "amenity": "place_of_worship",
        "landuse": "religious",
        "religion": "hindu"
      }
    },
    {
      "type": "way",
      "id": 1445730559,
      "center": {
        "lat": 12.8724507,
        "lon": 77.5892033
      },
      "tags": {
        "access": "private",
        "leisure": "swimming_pool"
      }
    },
    {
      "type": "way",
      "id": 1445730560,
      "center": {
        "lat": 12.8717163,
        "lon": 77.5890061
      },
      "tags": {
        "access": "private",
        "leisure": "swimming_pool"
      }
    }
  ]
}