{
  "area_name": "Nrupatunga Nagar",
  "osm_id": 9690178283,
  "osm_type": "node",
  "place_type": "neighbourhood",
  "amenity_count": 102,
  "amenities": [
    {
      "type": "node",
      "id": 1463510108,
      "lat": 12.9582352,
      "lon": 77.517911,
      "tags": {
        "amenity": "school",
        "name": "Bangalore Blaze Girls High School"
      }
    },
    {
      "type": "node",
      "id": 1463512600,
      "lat": 12.9527146,
      "lon": 77.5138394,
      "tags": {
        "amenity": "post_office",
        "name": "Post Office",
        "name:kn": "ಅಂಚೆ ಕಛೇರಿ"
      }
    },
    {
      "type": "node",
      "id": 1463800553,
      "lat": 12.9565002,
      "lon": 77.5183806,
      "tags": {
        "name": "Speed Top TVS",
        "shop": "motorcycle"
      }
    },
    {
      "type": "node",
      "id": 1581348944,
      "lat": 12.9607559,
      "lon": 77.5070056,
      "tags": {
        "addr:city": "Bangalore",
        "addr:postcode": "560072",
        "addr:street": "Mallathahalli Road",
        "name": "MK Ahmed Super Market",
        "organic": "yes",
        "shop": "supermarket",
        "website": "https://www.mkretail.com/"
      }
    },
    {
      "type": "node",
      "id": 1581434245,
      "lat": 12.9606694,
      "lon": 77.5122249,
      "tags": {
        "addr:street": "Nagarbhavi 80 Feet Road",
        "name": "Shoprite",
        "shop": "supermarket"
      }
    },
    {
      "type": "node",
      "id": 1778854605,
      "lat": 12.9603129,
      "lon": 77.513258,
      "tags": {
        "amenity": "restaurant",
        "cuisine": "indian",
        "name": "Ron-Inn Bar & Restaurant",
        "name:kn": "ರೊ-ಇನ್ ಬಾರ್ & ರೆಸ್ಟೋರೆಂಟ್"
      }
    },
    {
      "type": "node",
      "id": 1778854609,
      "lat": 12.9606716,
      "lon": 77.5125104,
      "tags": {
        "alt_name": "Nammoora Thindi",
        "amenity": "fast_food",
        "cuisine": "regional",
        "designation": "Darshini",
        "diet:vegetarian": "only",
        "name": "Nammura Tindi"
      }
    },
    {
      "type": "node",
      "id": 1778854659,
      "lat": 12.9608906,
      "lon": 77.5106429,
      "tags": {
        "amenity": "fuel",
        "brand": "BP",
        "name": "Petro / Gas  Station"
      }
    },
    {
      "type": "node",
      "id": 1778854791,
      "lat": 12.9570377,
      "lon": 77.5026901,
      "tags": {
        "amenity": "fuel",
        "brand": "HP",
        "name": "Petrol Station"
      }
    },
    {
      "type": "node",
      "id": 2212451363,
      "lat": 12.9608966,
      "lon": 77.5075094,
      "tags": {
        "amenity": "restaurant",
        "name": "Swathi Restaurant"
      }
    },
    {
      "type": "node",
      "id": 2212459207,
      "lat": 12.9613237,
      "lon": 77.511726,
      "tags": {
        "addr:district": "Bengaluru Urban",
        "addr:full": "# 611 /612, Nagarabhavi Main Road",
        "addr:postcode": "560072",
        "addr:state": "Karnataka",
        "addr:subdistrict": "Nagarbhavi",
        "amenity": "hospital",
        "name": "Panacea Hospital, Nagarabhavi",
        "operator:type": "private",
        "source": "OpenGovernmentData",
        "website": "http://www.panaceahospital.com/"
      }
    },
    {
      "type": "node",
      "id": 4447155158,
      "lat": 12.957572,
      "lon": 77.5184436,
      "tags": {
        "addr:city": "Bangalore",
        "addr:district": "Bengaluru Urban",
        "addr:full": "No3 Ist Cross Janabharathi Road Nagarabhvi Circle",
        "addr:postcode": "560072",
        "addr:state": "Karnataka",
        "addr:street": "Nagarabhavi Road",
        "amenity": "hospital",
        "name": "S K Hospital, Bengaluru Urban",
        "phone": "080 2321 3699",
        "source": "OpenGovernmentData"
      }
    },
    {
      "type": "node",
      "id": 4488421295,
      "lat": 12.9611063,
      "lon": 77.5089279,
      "tags": {
        "addr:city": "Bangalore",
        "addr:housenumber": "#626",
        "addr:postcode": "560072",
        "addr:street": "Mallathahalli Road",
        "name": "Greens Unisex Salon And Spa Professionals",
        "opening_hours": "08:30-20:30",
        "phone": "+91-80-33566078",
        "shop": "beauty"
      }
    },
    {
      "type": "node",
      "id": 4489855607,
      "lat": 12.9576641,
      "lon": 77.518908,
      "tags": {
        "addr:city": "Bengaluru",
        "addr:housenumber": "28,",
        "addr:postcode": "560072",
        "addr:street": "Second floor, Ganesha complex, Gnana bharathi main road, nagarbavi circle, above Axis bank, Teachers Colony, Chandra Layout, , Karnataka",
        "leisure": "sports_centre",
        "name": "Eagle Fitness",
        "opening_hours": "5:00-22:00",
        "phone": "084531 00009",
        "sport": "gymnasium"
      }
    },
    {
      "type": "node",
      "id": 4490281981,
      "lat": 12.9626119,
      "lon": 77.5083845,
      "tags": {
        "addr:city": "Bangalore",
        "addr:housenumber": "No 690,",
        "addr:postcode": "560072",
        "addr:street": "1st Floor, 80 Feet Road,Vinayaka Layout, Nagarbhavi,",
        "name": "Green Trends Unisex Salon and Spa",
        "opening_hours": "09:30-21:00",
        "phone": "91)-80-33700880",
        "shop": "beauty",
        "website": "https://www.mygreentrends.in/"
      }
    },
    {
      "type": "node",
      "id": 6355866004,
      "lat": 12.9552984,
      "lon": 77.5171196,
      "tags": {
        "amenity": "restaurant",
        "name": "Canteen NLSIU"
      }
    },
    {
      "type": "node",
      "id": 6938679850,
      "lat": 12.9575968,
      "lon": 77.5189881,
      "tags": {
        "addr:district": "Bengaluru Urban",
        "addr:full": "227/A, Vidyagiri Layout, Next To Axis Bank, Nagarabhavi Circle",
        "addr:postcode": "560072",
        "addr:state": "Karnataka",
        "amenity": "clinic",
        "name": "Akshaya Nethralaya, Nagarabhavi Circle",
        "operator:type": "private",
        "source": "OpenGovernmentData",
        "website": "http://dpal.kar.nic.in/Kanunu%20padakosha%20PDF%20Files/Recognised%20Hospitals.pdf"
      }
    },
    {
      "type": "node",
      "id": 6938695149,
      "lat": 12.9579894,
      "lon": 77.5114394,
      "tags": {
        "addr:district": "Bengaluru Urban",
        "addr:full": "54, 4th cross,4th main, NGEF Layout, Nrupathunganagar, Nagarabhavi, Bengaluru, Karnataka 560072",
        "addr:postcode": "560072",
        "addr:state": "Karnataka",
        "amenity": "hospital",
        "name": "Chandana Hospital",
        "source": "OpenGovernmentData"
      }
    },
    {
      "type": "node",
      "id": 7572526685,
      "lat": 12.960863,
      "lon": 77.50189,
      "tags": {
        "addr:district": "Bengaluru Urban",
        "addr:full": "Malathalli Road, Kengunte, Annapurneshwari Nagar, Bengaluru",
        "addr:postcode": "560056",
        "addr:state": "Karnataka",
        "amenity": "dentist",
        "name": "Nanjundeshwara Dental Clinic",
        "source": "Local Knowledge"
      }
    },
    {
      "type": "node",
      "id": 7572526727,
      "lat": 12.962759,
      "lon": 77.504309,
      "tags": {
        "addr:district": "Bengaluru Urban",
        "addr:full": "Kengunte, Annapurneshwari Nagar, Bengaluru",
        "addr:postcode": "560056",
        "addr:state": "Karnataka",
        "amenity": "clinic",
        "name": "Ideal Health Care Centre",
        "source": "Local Knowledge"
      }
    },
    {
      "type": "node",
      "id": 7572526744,
      "lat": 12.9623461,
      "lon": 77.5109494,
      "tags": {
        "addr:district": "Bengaluru Urban",
        "addr:full": "Naagarabhaavi, Bengaluru",
        "addr:postcode": "560056",
        "addr:state": "Karnataka",
        "amenity": "clinic",
        "name": "Cosmic Health Centre",
        "source": "Local Knowledge"
      }
    },
    {
      "type": "node",
      "id": 7572526759,
      "lat": 12.9595267,
      "lon": 77.5066914,
      "tags": {
        "addr:district": "Bengaluru Urban",
        "addr:full": "Marilingappa Extension, Bengaluru",
        "addr:postcode": "560072",
        "addr:state": "Karnataka",
        "amenity": "clinic",
        "name": "Dr. Reddy ENT Care Centre",
        "source": "Local Knowledge"
      }
    },
    {
      "type": "node",
      "id": 8187963620,
      "lat": 12.9605743,
      "lon": 77.5127492,
      "tags": {
        "addr:full": "607, 80 Feet Main Rd, NGEF Layout, 2nd Stage, Naagarabhaavi, Bengaluru, Karnataka",
        "addr:state": "Karnataka",
        "amenity": "bank",
        "brand": "State Bank of India",
        "brand:wikidata": "Q1340361",
        "name": "State Bank of India",
        "short_name": "SBI"
      }
    },
    {
      "type": "node",
      "id": 8240257734,
      "lat": 12.963427,
      "lon": 77.5120881,
      "tags": {
        "name": "Car Way",
        "shop": "car_repair"
      }
    },
    {
      "type": "node",
      "id": 8240257735,
      "lat": 12.9593847,
      "lon": 77.5156742,
      "tags": {
        "name": "Hafele Appliances",
        "shop": "hardware"
      }
    },
    {
      "type": "node",
      "id": 8240257740,
      "lat": 12.9584933,
      "lon": 77.5173345,
      "tags": {
        "amenity": "fuel",
        "brand": "Indian Oil",
        "brand:wikidata": "Q1289348",
        "brand:wikipedia": "en:Indian Oil Corporation",
        "name": "Indian Oil",
        "operator": "Indian Oil"
      }
    },
    {
      "type": "node",
      "id": 8240257741,
      "lat": 12.9581431,
      "lon": 77.5184168,
      "tags": {
        "amenity": "fast_food",
        "name": "SLV Grand"
      }
    },
    {
      "type": "node",
      "id": 8240257743,
      "lat": 12.9575196,
      "lon": 77.518622,
      "tags": {
        "name": "Baker's Bay",
        "shop": "bakery"
      }
    },
    {
      "type": "node",
      "id": 8240257744,
      "lat": 12.9571916,
      "lon": 77.518563,
      "tags": {
        "amenity": "fast_food",
        "cuisine": "pizza",
        "name": "Oyalo Pizza"
      }
    },
    {
      "type": "node",
      "id": 8240257745,
      "lat": 12.9567538,
      "lon": 77.5184812,
      "tags": {
        "amenity": "fast_food",
        "brand": "Five Star Chicken",
        "cuisine": "chicken",
        "delivery": "yes",
        "name": "Five Star Chicken",
        "takeaway": "yes"
      }
    },
    {
      "type": "node",
      "id": 8240257746,
      "lat": 12.9560558,
      "lon": 77.5184074,
      "tags": {
        "amenity": "fast_food",
        "name": "Utsav Donne Biryani Mane"
      }
    },
    {
      "type": "node",
      "id": 8240257747,
      "lat": 12.9557788,
      "lon": 77.5182766,
      "tags": {
        "amenity": "bank",
        "atm": "yes",
        "brand": "Union Bank of India",
        "brand:wikidata": "Q2004078",
        "name": "Union Bank of India",
        "name:kn": "ಯೂನಿಯನ್ ಬ್ಯಾಂಕ್"
      }
    },
    {
      "type": "node",
      "id": 9424636020,
      "lat": 12.9614543,
      "lon": 77.5045383,
      "tags": {
        "amenity": "atm",
        "brand": "Axis Bank",
        "brand:wikidata": "Q2003549",
        "name": "Axis Bank",
        "operator": "Axis Bank",
        "operator:wikidata": "Q2003549"
      }
    },
    {
      "type": "node",
      "id": 9688306968,
      "lat": 12.9557239,
      "lon": 77.5177181,
      "tags": {
        "amenity": "clinic",
        "name": "NLSIU Health Center"
      }
    },
    {
      "type": "node",
      "id": 9688311022,
      "lat": 12.9529243,
      "lon": 77.5162442,
      "tags": {
        "amenity": "cafe",
        "name": "Air Cafe"
      }
    },
    {
      "type": "node",
      "id": 9690149040,
      "lat": 12.9585992,
      "lon": 77.5123107,
      "tags": {
        "amenity": "shelter",
        "shelter_type": "gazebo"
      }
    },
    {
      "type": "node",
      "id": 9690149065,
      "lat": 12.9595232,
      "lon": 77.5141722,
      "tags": {
        "amenity": "shelter",
        "shelter_type": "gazebo"
      }
    },
    {
      "type": "node",
      "id": 11187076218,
      "lat": 12.9560242,
      "lon": 77.5121337,
      "tags": {
        "amenity": "shelter",
        "shelter_type": "gazebo"
      }
    },
    {
      "type": "node",
      "id": 11278785734,
      "lat": 12.9641288,
      "lon": 77.5090183,
      "tags": {
        "amenity": "shelter",
        "shelter_type": "gazebo"
      }
    },
    {
      "type": "node",
      "id": 11385217932,
      "lat": 12.9596032,
      "lon": 77.5112481,
      "tags": {
        "addr:district": "Bengaluru Urban",
        "addr:full": "No 23, 80 Feet Road, Gurukrupa Layout",
        "addr:postcode": "560072",
        "addr:state": "Karnataka",
        "addr:subdistrict": "Nagarbhavi",
        "amenity": "hospital",
        "healthcare": "hospital",
        "healthcare:speciality": "multi speciality",
        "name": "Fortis Hospital, Nagarbhavi",
        "name:kn": "ಫೋರ್ಟಿಸ್ ಆಸ್ಪತ್ರೆ",
        "operator:type": "private",
        "source": "OpenGovernmentData",
        "website": "https://www.fortishealthcare.com/"
      }
    },
    {
      "type": "node",
      "id": 11881863386,
      "lat": 12.9524277,
      "lon": 77.5153725,
      "tags": {
        "amenity": "cafe",
        "internet_access": "yes",
        "internet_access:fee": "no",
        "name": "Sunrise Cafe",
        "opening_hours": "Mo-Su 09:00-21:00",
        "outdoor_seating": "yes"
      }
    },
    {
      "type": "node",
      "id": 11881863398,
      "lat": 12.9536556,
      "lon": 77.5160491,
      "tags": {
        "amenity": "food_court",
        "name": "Mess A"
      }
    },
    {
      "type": "node",
      "id": 12862846455,
      "lat": 12.9608144,
      "lon": 77.5119092,
      "tags": {
        "amenity": "fast_food",
        "cuisine": "burger;wings;chicken",
        "delivery": "yes",
        "name": "Big Guys: Wings & More",
        "takeaway": "yes"
      }
    },
    {
      "type": "node",
      "id": 12990000217,
      "lat": 12.9637093,
      "lon": 77.5064206,
      "tags": {
        "amenity": "college",
        "name": "AIT Information Science"
      }
    },
    {
      "type": "node",
      "id": 12990000218,
      "lat": 12.963759,
      "lon": 77.5057876,
      "tags": {
        "amenity": "theatre",
        "name": "AIT Amphithatre",
        "theatre:type": "amphi"
      }
    },
    {
      "type": "node",
      "id": 12990000219,
      "lat": 12.963542,
      "lon": 77.505565,
      "tags": {
        "amenity": "college",
        "name": "AIT Medical Electronics"
      }
    },
    {
      "type": "node",
      "id": 12990000220,
      "lat": 12.9640334,
      "lon": 77.5065815,
      "tags": {
        "amenity": "college",
        "name": "AIT Mechanical Engineering"
      }
    },
    {
      "type": "node",
      "id": 12990000221,
      "lat": 12.9647601,
      "lon": 77.5068685,
      "tags": {
        "amenity": "college",
        "name": "AIT Civil Engineering"
      }
    },
    {
      "type": "node",
      "id": 12990000222,
      "lat": 12.9645993,
      "lon": 77.5052176,
      "tags": {
        "amenity": "fast_food",
        "name": "AIT Canteen"
      }
    },
    {
      "type": "node",
      "id": 12990000223,
      "lat": 12.9646529,
      "lon": 77.5056025,
      "tags": {
        "amenity": "library",
        "name": "AIT Library"
      }
    },
    {
      "type": "way",
      "id": 113384298,
      "center": {
        "lat": 12.9646119,
        "lon": 77.5066686
      },
      "tags": {
        "alt_name": "AIT",
        "amenity": "college",
        "barrier": "wall",
        "landuse": "college",
        "material": "concrete",
        "name": "Dr. Ambedkar Institute of Technology",
        "name:etymology:wikidata": "Q231690",
        "name:kn": "ಡಾ. ಅಂಬೇಡ್ಕರ್ ಇನ್ಸ್ಟಿಟ್ಯೂಟ್ ಆಫ್ ಟೆಕ್ನಾಲಜಿ",
        "wikidata": "Q5303957"
      }
    },
    {
      "type": "way",
      "id": 113391316,
      "center": {
        "lat": 12.9617018,
        "lon": 77.5054207
      },
      "tags": {
        "amenity": "college",
        "name": "Indian Institute of Plantation Management",
        "short_name": "IIPM",
        "website": "https://iimpb.edu.in"
      }
    },
    {
      "type": "way",
      "id": 315329959,
      "center": {
        "lat": 12.965594,
        "lon": 77.5063641
      },
      "tags": {
        "leisure": "stadium",
        "name": "Dr. AIT College Ground",
        "sport": "multi"
      }
    },
    {
      "type": "way",
      "id": 329465077,
      "center": {
        "lat": 12.9563325,
        "lon": 77.5059592
      },
      "tags": {
        "amenity": "theatre",
        "name": "Kalagrama Open Auditorium"
      }
    },
    {
      "type": "way",
      "id": 345854758,
      "center": {
        "lat": 12.9528585,
        "lon": 77.5158172
      },
      "tags": {
        "access": "permissive",
        "amenity": "library",
        "building": "university",
        "level": "0;1;2;3",
        "name": "Shri Narayan Rao National Law Library"
      }
    },
    {
      "type": "way",
      "id": 345858756,
      "center": {
        "lat": 12.9518907,
        "lon": 77.5145626
      },
      "tags": {
        "amenity": "food_court",
        "building": "university",
        "name": "Mess B"
      }
    },
    {
      "type": "way",
      "id": 345906113,
      "center": {
        "lat": 12.9579223,
        "lon": 77.5185445
      },
      "tags": {
        "amenity": "restaurant",
        "building": "yes",
        "check_date": "2024-11-23",
        "name": "Palate Restaurant"
      }
    },
    {
      "type": "way",
      "id": 345947957,
      "center": {
        "lat": 12.9632056,
        "lon": 77.5144389
      },
      "tags": {
        "amenity": "place_of_worship",
        "religion": "hindu"
      }
    },
    {
      "type": "way",
      "id": 348169755,
      "center": {
        "lat": 12.9571952,
        "lon": 77.5051856
      },
      "tags": {
        "amenity": "theatre",
        "building": "yes",
        "name": "Kalagrama Auditorium"
      }
    },
    {
      "type": "way",
      "id": 482598733,
      "center": {
        "lat": 12.963609,
        "lon": 77.5062218
      },
      "tags": {
        "leisure": "garden"
      }
    },
    {
      "type": "way",
      "id": 482598734,
      "center": {
        "lat": 12.9632229,
        "lon": 77.5060963
      },
      "tags": {
        "leisure": "garden"
      }
    },
    {
      "type": "way",
      "id": 772183062,
      "center": {
        "lat": 12.9509599,
        "lon": 77.5141937
      },
      "tags": {
        "leisure": "pitch",
        "name": "National Law College Ground",
        "sport": "athletics"
      }
    },
    {
      "type": "way",
      "id": 1050578229,
      "center": {
        "lat": 12.9566063,
        "lon": 77.5057463
      },
      "tags": {
        "amenity": "college",
        "name": "National School of Drama, Bengaluru",
        "short_name": "NSD Bengaluru"
      }
    },
    {
      "type": "way",
      "id": 1054241399,
      "center": {
        "lat": 12.9533833,
        "lon": 77.5138572
      },
      "tags": {
        "amenity": "college",
        "name": "Institute for Social and Economic Change",
        "start_date": "1972",
        "website": "https://www.isec.ac.in/",
        "wikidata": "Q6039639",
        "wikipedia": "en:Institute for Social and Economic Change"
      }
    },
    {
      "type": "way",
      "id": 1054241400,
      "center": {
        "lat": 12.9526644,
        "lon": 77.5160362
      },
      "tags": {
        "leisure": "park"
      }
    },
    {
      "type": "way",
      "id": 1054241405,
      "center": {
        "lat": 12.9509887,
        "lon": 77.5138484
      },
      "tags": {
        "amenity": "theatre"
      }
    },
    {
      "type": "way",
      "id": 1054241426,
      "center": {
        "lat": 12.9551799,
        "lon": 77.5173569
      },
      "tags": {
        "leisure": "park"
      }
    },
    {
      "type": "way",
      "id": 1054241429,
      "center": {
        "lat": 12.9556832,
        "lon": 77.5172886
      },
      "tags": {
        "leisure": "pitch",
        "sport": "volleyball"
      }
    },
    {
      "type": "way",
      "id": 1054241430,
      "center": {
        "lat": 12.9556924,
        "lon": 77.5174411
      },
      "tags": {
        "leisure": "pitch",
        "sport": "basketball"
      }
    },
    {
      "type": "way",
      "id": 1054241431,
      "center": {
        "lat": 12.9554399,
        "lon": 77.5179907
      },
      "tags": {
        "leisure": "pitch",
        "sport": "tennis",
        "surface": "clay"
      }
    },
    {
      "type": "way",
      "id": 1054241433,
      "center": {
        "lat": 12.9529327,
        "lon": 77.5159691
      },
      "tags": {
        "alt_name": "National Law School",
        "amenity": "university",
        "barrier": "wall",
        "email": "contactus@nls.ac.in",
        "fixme": "Accurate boundary",
        "name": "National Law School of India University",
        "name:kn": "ರಾಷ್ಟ್ರೀಯ ಕಾನೂನು ವಿಶ್ವವಿದ್ಯಾಲಯ",
        "short_name": "NLSIU",
        "start_date": "1986",
        "website": "https://www.nls.ac.in/",
        "wikidata": "Q3067635",
        "wikipedia": "en:National Law School of India University"
      }
    },
    {
      "type": "way",
      "id": 1054488994,
      "center": {
        "lat": 12.962044,
        "lon": 77.5137625
      },
      "tags": {
        "leisure": "park"
      }
    },
    {
      "type": "way",
      "id": 1054488995,
      "center": {
        "lat": 12.9583598,
        "lon": 77.5122123
      },
      "tags": {
        "leisure": "park"
      }
    },
    {
      "type": "way",
      "id": 1054488996,
      "center": {
        "lat": 12.959739,
        "lon": 77.5121956
      },
      "tags": {
        "leisure": "park"
      }
    },
    {
      "type": "way",
      "id": 1054489000,
      "center": {
        "lat": 12.9594493,
        "lon": 77.5142171
      },
      "tags": {
        "leisure": "park"
      }
    },
    {
      "type": "way",
      "id": 1054489018,
      "center": {
        "lat": 12.9543196,
        "lon": 77.5171339
      },
      "tags": {
        "access": "permissive",
        "amenity": "parking",
        "fee": "no",
        "operator": "NLSIU",
        "parking": "surface"
      }
    },
    {
      "type": "way",
      "id": 1054489019,
      "center": {
        "lat": 12.951586,
        "lon": 77.5151076
      },
      "tags": {
        "leisure": "pitch",
        "sport": "tennis"
      }
    },
    {
      "type": "way",
      "id": 1207060119,
      "center": {
        "lat": 12.9658122,
        "lon": 77.508785
      },
      "tags": {
        "leisure": "park"
      }
    },
    {
      "type": "way",
      "id": 1207060120,
      "center": {
        "lat": 12.9659167,
        "lon": 77.5098632
      },
      "tags": {
        "amenity": "school"
      }
    },
    {
      "type": "way",
      "id": 1207060121,
      "center": {
        "lat": 12.9641393,
        "lon": 77.5090572
      },
      "tags": {
        "leisure": "park"
      }
    },
    {
      "type": "way",
      "id": 1207060123,
      "center": {
        "lat": 12.9599414,
        "lon": 77.5160068
      },
      "tags": {
        "leisure": "park"
      }
    },
    {
      "type": "way",
      "id": 1207060124,
      "center": {
        "lat": 12.9629474,
        "lon": 77.5143455
      },
      "tags": {
        "amenity": "place_of_worship",
        "name": "Hanumagiri Temple",
        "religion": "hindu"
      }
    },
    {
      "type": "way",
      "id": 1207332830,
      "center": {
        "lat": 12.9585917,
        "lon": 77.5108265
      },
      "tags": {
        "leisure": "park"
      }
    },
    {
      "type": "way",
      "id": 1207332831,
      "center": {
        "lat": 12.9583018,
        "lon": 77.5062463
      },
      "tags": {
        "leisure": "park"
      }
    },
    {
      "type": "way",
      "id": 1207332837,
      "center": {
        "lat": 12.9560716,
        "lon": 77.5121463
      },
      "tags": {
        "leisure": "park"
      }
    },
    {
      "type": "way",
      "id": 1217247604,
      "center": {
        "lat": 12.959927,
        "lon": 77.5164926
      },
      "tags": {
        "amenity": "school",
        "name": "Jindal Government School",
        "name:kn": "ಜಿಂದಾಲ್ ಸರ್ಕಾರಿ ಶಾಲೆ"
      }
    },
    {
      "type": "way",
      "id": 1217247618,
      "center": {
        "lat": 12.9640191,
        "lon": 77.5111413
      },
      "tags": {
        "amenity": "community_centre",
        "landuse": "commercial",
        "name": "Terige Bhavana"
      }
    },
    {
      "type": "way",
      "id": 1217247623,
      "center": {
        "lat": 12.9659239,
        "lon": 77.5119186
      },
      "tags": {
        "amenity": "place_of_worship",
        "religion": "hindu"
      }
    },
    {
      "type": "way",
      "id": 1217247632,
      "center": {
        "lat": 12.9644062,
        "lon": 77.5092819
      },
      "tags": {
        "name": "Dhobi Ghat",
        "name:kn": "ಧೋಬಿ ಘಾಟ್",
        "shop": "laundry"
      }
    },
    {
      "type": "way",
      "id": 1217247634,
      "center": {
        "lat": 12.9654109,
        "lon": 77.5100015
      },
      "tags": {
        "amenity": "police"
      }
    },
    {
      "type": "way",
      "id": 1280602500,
      "center": {
        "lat": 12.9628618,
        "lon": 77.5079085
      },
      "tags": {
        "amenity": "language_school"
      }
    },
    {
      "type": "way",
      "id": 1370235854,
      "center": {
        "lat": 12.9589364,
        "lon": 77.504513
      },
      "tags": {
        "amenity": "arts_centre",
        "name": "Indira Gandhi National Center for Arts",
        "name:etymology:wikidata": "Q1149"
      }
    },
    {
      "type": "way",
      "id": 1370235929,
      "center": {
        "lat": 12.959916,
        "lon": 77.5061497
      },
      "tags": {
        "leisure": "park"
      }
    },
    {
      "type": "way",
      "id": 1370235930,
      "center": {
        "lat": 12.9589141,
        "lon": 77.5097478
      },
      "tags": {
        "amenity": "place_of_worship",
        "religion": "hindu"
      }
    },
    {
      "type": "way",
      "id": 1370235945,
      "center": {
        "lat": 12.9570354,
        "lon": 77.5078334
      },
      "tags": {
        "leisure": "sports_centre"
      }
    },
    {
      "type": "way",
      "id": 1413520202,
      "center": {
        "lat": 12.9629323,
        "lon": 77.5043618
      },
      "tags": {
        "amenity": "place_of_worship",
        "building": "yes",
        "religion": "hindu"
      }
    },
    {
      "type": "way",
      "id": 1413520219,
      "center": {
        "lat": 12.9638786,
        "lon": 77.5056961
      },
      "tags": {
        "leisure": "garden"
      }
    },
    {
      "type": "way",
      "id": 1413520243,
      "center": {
        "lat": 12.9632805,
        "lon": 77.5065117
      },
      "tags": {
        "access": "private",
        "amenity": "parking",
        "parking": "surface"
      }
    },
    {
      "type": "way",
      "id": 1413520245,
      "center": {
        "lat": 12.9631615,
        "lon": 77.5054283
      },
      "tags": {
        "amenity": "shelter",
        "shelter_type": "gazebo"
      }
    },
    {
      "type": "way",
      "id": 1413520246,
      "center": {
        "lat": 12.963083,
        "lon": 77.5053155
      },
      "tags": {
        "leisure": "garden"
      }
    },
    {
      "type": "way",
      "id": 1413520248,
      "center": {
        "lat": 12.9649791,
        "lon": 77.5060482
      },
      "tags": {
        "leisure": "sports_centre",
        "name": "Dr. AIT Indoor Stadium",
        "sport": "basketball"
      }
    },
    {
      "type": "way",
      "id": 1419894208,
      "center": {
        "lat": 12.9634263,
        "lon": 77.5120864
      },
      "tags": {
        "amenity": "bus_station"
      }
    }
  ]
}