{
  "area_name": "NTY Layout",
  "osm_id": 7276562007,
  "osm_type": "node",
  "place_type": "neighbourhood",
  "amenity_count": 69,
  "amenities": [
    {
      "type": "node",
      "id": 951468562,
      "lat": 12.9410374,
      "lon": 77.542039,
      "tags": {
        "addr:street": "80 Feet Road Girinagar",
        "name": "Nilgiris Store",
        "shop": "convenience"
      }
    },
    {
      "type": "node",
      "id": 1474854794,
      "lat": 12.9519559,
      "lon": 77.5368963,
      "tags": {
        "amenity": "place_of_worship",
        "name": "Shaneshwara Temple",
        "name:kn": "ಶನೇಶ್ವರ ದೇವಸ್ಥಾನ",
        "religion": "hindu"
      }
    },
    {
      "type": "node",
      "id": 1789736226,
      "lat": 12.9534085,
      "lon": 77.5435706,
      "tags": {
        "amenity": "bus_station",
        "check_date": "2024-04-05",
        "name": "Mysore Road Bus Station",
        "name:kn": "ಮೈಸೂರು ರಸ್ತೆ ಬಸ್ ನಿಲ್ದಾಣ"
      }
    },
    {
      "type": "node",
      "id": 1789739261,
      "lat": 12.9525197,
      "lon": 77.5409488,
      "tags": {
        "amenity": "place_of_worship",
        "check_date": "2022-11-25",
        "name": "Gaali Anjaneya Temple",
        "name:kn": "ಗಾಳಿ ಅಂಜನೇಯ ದೇವಸ್ಥಾನ",
        "religion": "hindu"
      }
    },
    {
      "type": "node",
      "id": 2234361363,
      "lat": 12.9438068,
      "lon": 77.542,
      "tags": {
        "addr:city": "Bangalore",
        "addr:housename": "Near BDA PArk",
        "addr:housenumber": "56",
        "addr:postcode": "560085",
        "addr:street": "6th Main Road",
        "amenity": "school",
        "cmt": "Genauigkeit: 35.0m",
        "ele": "784.9001029906099",
        "hdop": "8.75",
        "name": "Jnana Deepthi English Primary and High School",
        "sat": "7",
        "time": "2013-02-26T10:03:51Z"
      }
    },
    {
      "type": "node",
      "id": 2484900084,
      "lat": 12.9436624,
      "lon": 77.5419997,
      "tags": {
        "addr:city": "Bangalore",
        "addr:housename": "Near BDA Park",
        "addr:housenumber": "63",
        "addr:postcode": "560085",
        "addr:street": "6th Main Road",
        "amenity": "hospital",
        "name": "Shalini Nursing & MAternity Home"
      }
    },
    {
      "type": "node",
      "id": 4101094994,
      "lat": 12.9574368,
      "lon": 77.5418657,
      "tags": {
        "addr:street": "Mysore Road",
        "amenity": "place_of_worship",
        "building": "mosque",
        "name": "Masjid e Hira",
        "name:kn": "ಮಸ್ಜಿದ್-ಎ-ಹೀರ",
        "religion": "muslim"
      }
    },
    {
      "type": "node",
      "id": 4101097391,
      "lat": 12.9572135,
      "lon": 77.5429632,
      "tags": {
        "addr:street": "Mysore Road",
        "amenity": "cinema",
        "name": "shobha talkies"
      }
    },
    {
      "type": "node",
      "id": 4445386697,
      "lat": 12.9431647,
      "lon": 77.5415743,
      "tags": {
        "addr:city": "Banashankari,Bangalore",
        "addr:housenumber": "476,2nd floor",
        "addr:postcode": "560085",
        "addr:street": "10th Cross Road",
        "amenity": "restaurant",
        "cuisine": "regional",
        "name": "The Biryani Cafe",
        "opening_hours": "18:30-22:30",
        "phone": "088618 37788",
        "takeaway": "yes"
      }
    },
    {
      "type": "node",
      "id": 4542486736,
      "lat": 12.9537484,
      "lon": 77.543639,
      "tags": {
        "addr:city": "Bangalore",
        "addr:postcode": "560026",
        "addr:street": "Mysore Road",
        "alt_name": "A2B",
        "amenity": "restaurant",
        "brand": "Adyar Ananda Bhavan",
        "brand:wikidata": "Q15178238",
        "cuisine": "South_Indian",
        "diet:vegetarian": "only",
        "email": "info@aabsweets.com",
        "name": "Adyar Ananda Bhavan",
        "name:kn": "ಆದ್ಯಾರ್ ಆನಂದ ಭವನ",
        "opening_hours": "7:00-22:30",
        "operator": "Adyar Ananda Bhavan",
        "phone": "+91 80 2674 6999",
        "smoking": "no",
        "website": "https://aabsweets.com"
      }
    },
    {
      "type": "node",
      "id": 4542490906,
      "lat": 12.9543065,
      "lon": 77.5444531,
      "tags": {
        "amenity": "post_office",
        "check_date": "2022-11-25",
        "name": "India Post"
      }
    },
    {
      "type": "node",
      "id": 4542494317,
      "lat": 12.9556017,
      "lon": 77.5459806,
      "tags": {
        "addr:city": "Bangalore",
        "addr:postcode": "560026",
        "addr:street": "Mysore Road",
        "name": "Deco Design",
        "operator": "Deco Design",
        "shop": "furniture",
        "wheelchair": "no"
      }
    },
    {
      "type": "node",
      "id": 4761559321,
      "lat": 12.9455741,
      "lon": 77.5384918,
      "tags": {
        "addr:postcode": "560085",
        "addr:street": "Hoskerehalli Road",
        "name": "Sri Gururaghavendra traders",
        "name:en": "Sri Gururaghavendra traders",
        "opening_hours": "Mo-Su 09:30-21:30",
        "shop": "department_store"
      }
    },
    {
      "type": "node",
      "id": 4815911828,
      "lat": 12.9459315,
      "lon": 77.5385939,
      "tags": {
        "addr:postcode": "560085",
        "addr:street": "Hoskerehalli Road",
        "amenity": "place_of_worship",
        "name": "Sri Vaibhava Ganapathi",
        "name:en": "Sri Vaibhava Ganapathi",
        "name:kn": "ಶ್ರೀ ವೈಭವ ಗಣಪತಿ",
        "opening_hours": "Mo-Su 08:00-21:00",
        "religion": "hindu"
      }
    },
    {
      "type": "node",
      "id": 5103586722,
      "lat": 12.9536888,
      "lon": 77.543512,
      "tags": {
        "addr:street": "Mysore Road",
        "amenity": "restaurant",
        "check_date": "2022-11-25",
        "name": "Imperial Restaurant",
        "source": "survey"
      }
    },
    {
      "type": "node",
      "id": 5303068060,
      "lat": 12.9433956,
      "lon": 77.5424957,
      "tags": {
        "amenity": "post_office",
        "level": "1",
        "operator": "India Post",
        "operator:wikidata": "Q3519720"
      }
    },
    {
      "type": "node",
      "id": 6464656301,
      "lat": 12.9528,
      "lon": 77.536684,
      "tags": {
        "amenity": "pharmacy",
        "name": "Surya Pharmaceuticals"
      }
    },
    {
      "type": "node",
      "id": 6464656302,
      "lat": 12.9517689,
      "lon": 77.5369579,
      "tags": {
        "male": "yes",
        "name": "Shirdi Gents Beauty Parlour",
        "shop": "hairdresser"
      }
    },
    {
      "type": "node",
      "id": 6944256036,
      "lat": 12.9424801,
      "lon": 77.5473283,
      "tags": {
        "addr:district": "Bengaluru Urban",
        "addr:full": "5/81, 50 Feet Road, 20Th Main Road, Muneshwara Block, Girinagar",
        "addr:postcode": "560085",
        "addr:state": "Karnataka",
        "amenity": "hospital",
        "name": "The Pulse Multi Speciality Hospital",
        "source": "OpenGovernmentData"
      }
    },
    {
      "type": "node",
      "id": 6944464994,
      "lat": 12.9559644,
      "lon": 77.5485635,
      "tags": {
        "addr:district": "Bengaluru Urban",
        "addr:full": "Kasturabanagar, Mysore Road , South",
        "addr:postcode": "560026",
        "addr:state": "Karnataka",
        "amenity": "hospital",
        "name": "Azad Nagar Maternity Home",
        "source": "OpenGovernmentData"
      }
    },
    {
      "type": "node",
      "id": 6947268976,
      "lat": 12.9561944,
      "lon": 77.5460348,
      "tags": {
        "addr:district": "Bengaluru Urban",
        "addr:full": "1/1,1/2,1/3, New Guddadahalli, Mysore Road",
        "addr:postcode": "560026",
        "addr:state": "Karnataka",
        "amenity": "clinic",
        "name": "Balaji Nursing Home",
        "source": "OpenGovernmentData"
      }
    },
    {
      "type": "node",
      "id": 7139631476,
      "lat": 12.9525597,
      "lon": 77.5367215,
      "tags": {
        "access": "yes",
        "amenity": "motorcycle_parking",
        "name": "Metro Parking",
        "parking": "surface"
      }
    },
    {
      "type": "node",
      "id": 7156536840,
      "lat": 12.9527335,
      "lon": 77.5367001,
      "tags": {
        "amenity": "pharmacy",
        "name": "Kiran Diagnostics"
      }
    },
    {
      "type": "node",
      "id": 7156536841,
      "lat": 12.9518775,
      "lon": 77.5369187,
      "tags": {
        "name": "Mohan Fashions",
        "shop": "clothes"
      }
    },
    {
      "type": "node",
      "id": 7156536842,
      "lat": 12.9518186,
      "lon": 77.5369361,
      "tags": {
        "amenity": "juice_bar",
        "cuisine": "juice",
        "name": "Gajanana Juice Centre"
      }
    },
    {
      "type": "node",
      "id": 7156536844,
      "lat": 12.9508515,
      "lon": 77.5372955,
      "tags": {
        "access": "yes",
        "amenity": "toilets",
        "fee": "yes"
      }
    },
    {
      "type": "node",
      "id": 7156536845,
      "lat": 12.9505875,
      "lon": 77.5372794,
      "tags": {
        "name": "Venkateshwara Tea Stall",
        "shop": "kiosk"
      }
    },
    {
      "type": "node",
      "id": 7156536850,
      "lat": 12.9477068,
      "lon": 77.5346079,
      "tags": {
        "brand": "Honda",
        "brand:wikidata": "Q9584",
        "name": "Mahindra",
        "shop": "motorcycle"
      }
    },
    {
      "type": "node",
      "id": 7164440800,
      "lat": 12.9530877,
      "lon": 77.5365485,
      "tags": {
        "amenity": "clinic",
        "name": "Shree Clinic"
      }
    },
    {
      "type": "node",
      "id": 7164440807,
      "lat": 12.9486204,
      "lon": 77.5348721,
      "tags": {
        "amenity": "bank",
        "atm": "yes",
        "brand": "Punjab National Bank",
        "brand:wikidata": "Q2743499",
        "name": "Punjab National Bank",
        "operator": "Punjab National Bank"
      }
    },
    {
      "type": "node",
      "id": 7576958075,
      "lat": 12.945848,
      "lon": 77.548621,
      "tags": {
        "addr:district": "Bengaluru Urban",
        "addr:full": "Muneshwara Block, Banashankari, Bengaluru",
        "addr:state": "Karnataka",
        "amenity": "doctors",
        "name": "BBMP Arogya Kendra",
        "source": "Local Knowledge"
      }
    },
    {
      "type": "node",
      "id": 7576958085,
      "lat": 12.9428346,
      "lon": 77.5458567,
      "tags": {
        "addr:district": "Bengaluru Urban",
        "addr:full": "Vinobha Colony, Muneshwara Block, Banashankari, Bengaluru",
        "addr:state": "Karnataka",
        "amenity": "dentist",
        "name": "Shree Dental Specialities",
        "source": "Local Knowledge"
      }
    },
    {
      "type": "node",
      "id": 9933966690,
      "lat": 12.9429386,
      "lon": 77.5460608,
      "tags": {
        "addr:city": "Bangalore",
        "addr:housenumber": "9,",
        "addr:postcode": "560026",
        "addr:street": "50 Feet Road, Muneshwara Block , Girinagar",
        "amenity": "dentist",
        "healthcare": "dentist",
        "healthcare:speciality": "dentist;consultant_periosontist_&_implantologist",
        "name": "My Dentist-Centre For Complete Dental & Implant Care",
        "operator": "Dr Katta R Venkatesh"
      }
    },
    {
      "type": "node",
      "id": 9934012104,
      "lat": 12.9429852,
      "lon": 77.5460604,
      "tags": {
        "amenity": "hospital",
        "healthcare": "hospital",
        "healthcare:speciality": "dentist",
        "name": "My Dentist",
        "operator": "Dr Katta R Venkatesh",
        "operator:type": "public"
      }
    },
    {
      "type": "node",
      "id": 10218102646,
      "lat": 12.9545702,
      "lon": 77.5447288,
      "tags": {
        "amenity": "atm",
        "brand": "ICICI Bank",
        "brand:wikidata": "Q1653258",
        "cash_in": "no",
        "check_date": "2022-11-25",
        "name": "ICICI Bank",
        "operator": "ICICI Bank",
        "operator:wikidata": "Q1653258",
        "short_name": "ICICI",
        "source": "survey"
      }
    },
    {
      "type": "node",
      "id": 10218102647,
      "lat": 12.9533862,
      "lon": 77.5424568,
      "tags": {
        "amenity": "place_of_worship",
        "check_date": "2022-11-25",
        "name:en": "Roshan Mosque",
        "religion": "muslim",
        "source": "survey"
      }
    },
    {
      "type": "node",
      "id": 10571038248,
      "lat": 12.9546654,
      "lon": 77.5448794,
      "tags": {
        "addr:city": "Bengaluru",
        "addr:housenumber": "No 2",
        "addr:postcode": "560026",
        "addr:street": "Timberyard Layout Feather Lite Compound, Mysore Road",
        "branch": "Big Wing Service Topline",
        "brand": "Honda",
        "name": "Honda Big Wing Service Topline",
        "not:brand:wikidata": "Q9584",
        "opening_hours": "Mo-Su 09:30-18:30",
        "phone": "09844564832",
        "shop": "motorcycle_repair"
      }
    },
    {
      "type": "node",
      "id": 11323076631,
      "lat": 12.9523737,
      "lon": 77.5438444,
      "tags": {
        "amenity": "restaurant",
        "check_date": "2024-04-05",
        "name": "Kadamba Classic Hotel"
      }
    },
    {
      "type": "node",
      "id": 11323095020,
      "lat": 12.9525544,
      "lon": 77.5434542,
      "tags": {
        "amenity": "toilets",
        "check_date": "2024-04-05",
        "fee": "yes",
        "wheelchair": "yes"
      }
    },
    {
      "type": "node",
      "id": 11323095021,
      "lat": 12.9523656,
      "lon": 77.544301,
      "tags": {
        "amenity": "toilets",
        "fee": "yes",
        "female": "yes",
        "male": "yes"
      }
    },
    {
      "type": "node",
      "id": 11676244704,
      "lat": 12.9435944,
      "lon": 77.5375921,
      "tags": {
        "shop": "candles"
      }
    },
    {
      "type": "node",
      "id": 11919761711,
      "lat": 12.9546587,
      "lon": 77.5348029,
      "tags": {
        "amenity": "fixme",
        "check_date": "2024-05-20",
        "fixme": "type",
        "fixme:type": "courier",
        "name": "Courier"
      }
    },
    {
      "type": "node",
      "id": 12128957168,
      "lat": 12.9555351,
      "lon": 77.544152,
      "tags": {
        "amenity": "place_of_worship",
        "denomination": "catholic",
        "name": "St. Anthony's Church",
        "religion": "christian"
      }
    },
    {
      "type": "node",
      "id": 12734621153,
      "lat": 12.9562108,
      "lon": 77.5476429,
      "tags": {
        "check_date": "2025-04-07",
        "clothes": "men;women;wedding;underwear;traditional;babies;denim;children;maternity;socks;fashion;accessories",
        "name": "Pothys",
        "name:en": "Pothys",
        "payment:cash": "yes",
        "payment:credit_cards": "yes",
        "payment:debit_cards": "yes",
        "payment:upi": "yes",
        "shop": "clothes",
        "wheelchair": "limited"
      }
    },
    {
      "type": "node",
      "id": 12895444268,
      "lat": 12.9434518,
      "lon": 77.5382765,
      "tags": {
        "brand": "Nandini",
        "brand:wikidata": "Q124374212",
        "name": "Nandini",
        "shop": "dairy"
      }
    },
    {
      "type": "node",
      "id": 13153345186,
      "lat": 12.9478428,
      "lon": 77.5367591,
      "tags": {
        "access": "private",
        "amenity": "parking_entrance",
        "parking": "underground"
      }
    },
    {
      "type": "node",
      "id": 13153345192,
      "lat": 12.9471311,
      "lon": 77.536344,
      "tags": {
        "access": "private",
        "amenity": "parking_entrance",
        "parking": "underground"
      }
    },
    {
      "type": "way",
      "id": 54147974,
      "center": {
        "lat": 12.9568726,
        "lon": 77.5366726
      },
      "tags": {
        "leisure": "park"
      }
    },
    {
      "type": "way",
      "id": 213799479,
      "center": {
        "lat": 12.942856,
        "lon": 77.5430107
      },
      "tags": {
        "alt_name": "BDA Park",
        "leisure": "park",
        "name": "B.D.A. Park",
        "name:en": "Avalahalli BDA Park",
        "source": "Local_Signs"
      }
    },
    {
      "type": "way",
      "id": 362892978,
      "center": {
        "lat": 12.9439233,
        "lon": 77.5383902
      },
      "tags": {
        "leisure": "park",
        "name": "New BDA Layout Park"
      }
    },
    {
      "type": "way",
      "id": 362893181,
      "center": {
        "lat": 12.9442292,
        "lon": 77.5431919
      },
      "tags": {
        "leisure": "park"
      }
    },
    {
      "type": "way",
      "id": 362893293,
      "center": {
        "lat": 12.9497423,
        "lon": 77.5484953
      },
      "tags": {
        "leisure": "park"
      }
    },
    {
      "type": "way",
      "id": 404195623,
      "center": {
        "lat": 12.9530952,
        "lon": 77.5408987
      },
      "tags": {
        "addr:city": "Bengaluru",
        "addr:postcode": "560104",
        "addr:street": "Mysore Rd, Kavika Lay Out, Bapuji Nagar",
        "amenity": "place_of_worship",
        "building": "temple",
        "name": "Shri Beereshwara Temple",
        "religion": "hindu"
      }
    },
    {
      "type": "way",
      "id": 548963957,
      "center": {
        "lat": 12.9428045,
        "lon": 77.5424856
      },
      "tags": {
        "leisure": "playground",
        "name": "Sri Varasiddhi Vinayaka Children's Park",
        "operator": "BBMP"
      }
    },
    {
      "type": "way",
      "id": 548963966,
      "center": {
        "lat": 12.9432705,
        "lon": 77.5425134
      },
      "tags": {
        "amenity": "toilets",
        "name": "Nirmala Shouchalaya",
        "name:kn": "ನಿರ್ಮಲ ಶೌಚಾಲಯ"
      }
    },
    {
      "type": "way",
      "id": 548963967,
      "center": {
        "lat": 12.9432721,
        "lon": 77.5423974
      },
      "tags": {
        "name": "HOPCOMS",
        "name:kn": "ಹಾಪ್ ಕಾಮ್ಸ್",
        "shop": "greengrocer"
      }
    },
    {
      "type": "way",
      "id": 687319749,
      "center": {
        "lat": 12.951407,
        "lon": 77.5501031
      },
      "tags": {
        "leisure": "park"
      }
    },
    {
      "type": "way",
      "id": 687319753,
      "center": {
        "lat": 12.9526538,
        "lon": 77.5396451
      },
      "tags": {
        "leisure": "park"
      }
    },
    {
      "type": "way",
      "id": 768703816,
      "center": {
        "lat": 12.9478868,
        "lon": 77.5360381
      },
      "tags": {
        "leisure": "garden"
      }
    },
    {
      "type": "way",
      "id": 768703817,
      "center": {
        "lat": 12.9477444,
        "lon": 77.5359025
      },
      "tags": {
        "access": "private",
        "leisure": "swimming_pool",
        "location": "outdoor",
        "name": "Pride Enchanta Swimming Pool",
        "swimming_pool": "outdoor"
      }
    },
    {
      "type": "way",
      "id": 1227284662,
      "center": {
        "lat": 12.9553668,
        "lon": 77.5402629
      },
      "tags": {
        "addr:housenumber": "2A",
        "addr:street": "2nd Main Road",
        "addr:unit": "2",
        "building": "residential",
        "building:levels": "1",
        "check_date": "2025-01-18",
        "name": "Sri Sai Enterprises",
        "shop": "copyshop"
      }
    },
    {
      "type": "way",
      "id": 1227284856,
      "center": {
        "lat": 12.9551125,
        "lon": 77.5403067
      },
      "tags": {
        "amenity": "place_of_worship",
        "building": "yes",
        "name": "Ganesha Ayyappa Swamy Temple",
        "name:kn": "ಗಣೇಶ ಅಯ್ಯಪ್ಪ ಸ್ವಾಮಿ ದೇವಸ್ಥಾನ",
        "religion": "hindu"
      }
    },
    {
      "type": "way",
      "id": 1238821118,
      "center": {
        "lat": 12.9532043,
        "lon": 77.5437227
      },
      "tags": {
        "amenity": "bus_station",
        "check_date": "2024-04-05",
        "name": "KSRTC Mysore Road Satellite Bus Station",
        "name:kn": "ಕ. ರಾ. ರ. ಸಾ. ನಿ. ಬಸ್ ನಿಲ್ದಾಣ, ಮೈಸೂರು ರಸ್ತೆ"
      }
    },
    {
      "type": "way",
      "id": 1257194263,
      "center": {
        "lat": 12.9544671,
        "lon": 77.5437395
      },
      "tags": {
        "amenity": "fuel",
        "check_date": "2023-10-08"
      }
    },
    {
      "type": "way",
      "id": 1257194266,
      "center": {
        "lat": 12.9564423,
        "lon": 77.5487311
      },
      "tags": {
        "amenity": "fuel",
        "brand": "Indian Oil",
        "brand:wikidata": "Q1289348",
        "compressed_air": "yes",
        "name": "Indian Oil",
        "wheelchair": "yes"
      }
    },
    {
      "type": "way",
      "id": 1309995712,
      "center": {
        "lat": 12.9536909,
        "lon": 77.542113
      },
      "tags": {
        "amenity": "fuel",
        "check_date": "2023-10-08"
      }
    },
    {
      "type": "way",
      "id": 1393102826,
      "center": {
        "lat": 12.9436858,
        "lon": 77.5388157
      },
      "tags": {
        "amenity": "fuel",
        "brand": "Nayara",
        "brand:wikidata": "Q5399377",
        "name": "Nayara"
      }
    },
    {
      "type": "way",
      "id": 1430943442,
      "center": {
        "lat": 12.9474967,
        "lon": 77.5362887
      },
      "tags": {
        "access": "private",
        "leisure": "playground"
      }
    },
    {
      "type": "way",
      "id": 1430943443,
      "center": {
        "lat": 12.9479496,
        "lon": 77.5358321
      },
      "tags": {
        "access": "private",
        "hoops": "1",
        "leisure": "pitch",
        "sport": "basketball"
      }
    }
  ]
}