{
  "area_name": "Old Guddadahalli",
  "osm_id": 19883312,
  "osm_type": "relation",
  "place_type": "administrative",
  "amenity_count": 18,
  "amenities": [
    {
      "type": "node",
      "id": 4101060393,
      "lat": 12.9607245,
      "lon": 77.5464821,
      "tags": {
        "addr:street": "Pipeline Road",
        "amenity": "place_of_worship",
        "building": "mosque",
        "name:kn": "ಮಸೀದಿ",
        "religion": "muslim"
      }
    },
    {
      "type": "node",
      "id": 4101066892,
      "lat": 12.9609456,
      "lon": 77.5506364,
      "tags": {
        "addr:street": "vinayaka nagar",
        "name": "puncher shop",
        "shop": "tyres"
      }
    },
    {
      "type": "node",
      "id": 4101067193,
      "lat": 12.9609798,
      "lon": 77.5499693,
      "tags": {
        "addr:street": "vinayaka nagar old gudahalli",
        "amenity": "place_of_worship",
        "building": "mosque",
        "name": "Masjid e Alquba",
        "religion": "muslim"
      }
    },
    {
      "type": "node",
      "id": 4101097189,
      "lat": 12.9626268,
      "lon": 77.5485405,
      "tags": {
        "addr:housenumber": "11th cross padarayana pura",
        "addr:street": "Hosahalli Main Road",
        "amenity": "place_of_worship",
        "building": "mosque",
        "name": "Masjid e Towheed",
        "name:kn": "ಮಸ್ಜಿದ್-ಎ-ತೌಹೀದ್",
        "opening_hours": "24/7",
        "religion": "muslim"
      }
    },
    {
      "type": "node",
      "id": 4130913192,
      "lat": 12.9609208,
      "lon": 77.5490696,
      "tags": {
        "amenity": "clinic"
      }
    },
    {
      "type": "node",
      "id": 4130913291,
      "lat": 12.9633542,
      "lon": 77.5487215,
      "tags": {
        "addr:street": "Hosahalli Main Road",
        "amenity": "pharmacy",
        "healthcare": "pharmacy",
        "name": "Kashif Medical"
      }
    },
    {
      "type": "node",
      "id": 4130929490,
      "lat": 12.964313,
      "lon": 77.5489284,
      "tags": {
        "addr:street": "Hosahalli Main Road",
        "amenity": "doctors",
        "healthcare": "doctor",
        "name": "Mustafa Doctor"
      }
    },
    {
      "type": "node",
      "id": 4130929493,
      "lat": 12.9621886,
      "lon": 77.5493658,
      "tags": {
        "amenity": "clinic",
        "healthcare": "clinic",
        "name": "Shahid Doctor"
      }
    },
    {
      "type": "node",
      "id": 4130934095,
      "lat": 12.9635067,
      "lon": 77.5487362,
      "tags": {
        "name": "ladies dress dulhan ",
        "shop": "clothes"
      }
    },
    {
      "type": "node",
      "id": 4130960196,
      "lat": 12.9614166,
      "lon": 77.5486757,
      "tags": {
        "amenity": "theatre",
        "name": "a.m function hall"
      }
    },
    {
      "type": "node",
      "id": 4130960197,
      "lat": 12.9609197,
      "lon": 77.5483084,
      "tags": {
        "amenity": "clinic",
        "name": "saty doctor"
      }
    },
    {
      "type": "node",
      "id": 4130960389,
      "lat": 12.9626651,
      "lon": 77.5482596,
      "tags": {
        "addr:housenumber": "12th cross",
        "addr:street": "Hosahalli Main Road",
        "amenity": "pharmacy",
        "name": "Unity Hospital"
      }
    },
    {
      "type": "node",
      "id": 4130960394,
      "lat": 12.9616399,
      "lon": 77.5484171,
      "tags": {
        "amenity": "clinic"
      }
    },
    {
      "type": "node",
      "id": 4130960396,
      "lat": 12.9615054,
      "lon": 77.5504015,
      "tags": {
        "amenity": "cafe",
        "name": "Bismillah Tea Hotel"
      }
    },
    {
      "type": "node",
      "id": 4130960489,
      "lat": 12.9642578,
      "lon": 77.5489199,
      "tags": {
        "addr:street": "Hosahalli Main Road",
        "amenity": "pharmacy",
        "healthcare": "pharmacy",
        "name": "Shifa Medical"
      }
    },
    {
      "type": "node",
      "id": 4130960490,
      "lat": 12.9621356,
      "lon": 77.5493894,
      "tags": {
        "amenity": "pharmacy",
        "healthcare": "pharmacy"
      }
    },
    {
      "type": "node",
      "id": 4130960992,
      "lat": 12.961869,
      "lon": 77.5471629,
      "tags": {
        "amenity": "cinema",
        "name": "Sujatha Talkies",
        "name:kn": "ಸುಜಾತ ಚಿತ್ರಮಂದಿರ"
      }
    },
    {
      "type": "node",
      "id": 5259390023,
      "lat": 12.9610936,
      "lon": 77.5468666,
      "tags": {
        "amenity": "school",
        "name": "Kinto High School"
      }
    }
  ]
}