{
  "area_name": "Paakegowdanapalya",
  "osm_id": 12797203925,
  "osm_type": "node",
  "place_type": "neighbourhood",
  "amenity_count": 7,
  "amenities": [
    {
      "type": "way",
      "id": 1308088702,
      "center": {
        "lat": 13.1070127,
        "lon": 77.5141591
      },
      "tags": {
        "amenity": "college",
        "name": "Lakshya Career Academy PU College"
      }
    },
    {
      "type": "way",
      "id": 1382219431,
      "center": {
        "lat": 13.1152739,
        "lon": 77.5171535
      },
      "tags": {
        "amenity": "events_venue",
        "landuse": "commercial",
        "name": "JD Events and Leisure"
      }
    },
    {
      "type": "way",
      "id": 1382219432,
      "center": {
        "lat": 13.1194893,
        "lon": 77.51818
      },
      "tags": {
        "landuse": "commercial",
        "leisure": "resort",
        "name": "La Vida Leisure"
      }
    },
    {
      "type": "way",
      "id": 1409400937,
      "center": {
        "lat": 13.1135659,
        "lon": 77.5195741
      },
      "tags": {
        "amenity": "place_of_worship",
        "landuse": "religious",
        "religion": "hindu"
      }
    },
    {
      "type": "way",
      "id": 1409400940,
      "center": {
        "lat": 13.1103853,
        "lon": 77.5151177
      },
      "tags": {
        "amenity": "place_of_worship",
        "landuse": "religious",
        "religion": "hindu"
      }
    },
    {
      "type": "way",
      "id": 1409400944,
      "center": {
        "lat": 13.1088481,
        "lon": 77.5160647
      },
      "tags": {
        "amenity": "social_facility",
        "building": "yes",
        "name": "Elizabeth Mane Aksahaparavakal",
        "social_facility": "assisted_living"
      }
    },
    {
      "type": "way",
      "id": 1409400946,
      "center": {
        "lat": 13.1089999,
        "lon": 77.5157689
      },
      "tags": {
        "amenity": "place_of_worship",
        "landuse": "religious",
        "name": "St. Mary's Church, Bylakere",
        "religion": "christian"
      }
    }
  ]
}