{
  "area_name": "Padmanabhanagara",
  "osm_id": 19884508,
  "osm_type": "relation",
  "place_type": "administrative",
  "amenity_count": 35,
  "amenities": [
    {
      "type": "node",
      "id": 1331946753,
      "lat": 12.9134732,
      "lon": 77.5590565,
      "tags": {
        "amenity": "fuel",
        "name": "Kadirenahalli Petrol Pump"
      }
    },
    {
      "type": "node",
      "id": 1331946766,
      "lat": 12.9119447,
      "lon": 77.5581363,
      "tags": {
        "amenity": "school",
        "name": "Prarthana School",
        "name:kn": "ಪ್ರಾರ್ಥನಾ ಶಾಲೆ"
      }
    },
    {
      "type": "node",
      "id": 1471928745,
      "lat": 12.9118067,
      "lon": 77.5518439,
      "tags": {
        "amenity": "place_of_worship",
        "name": "Shanimahatma Temple",
        "name:kn": "ಶನಿ ಮಹಾತ್ಮ ದೇವಸ್ಥಾನ",
        "religion": "hindu"
      }
    },
    {
      "type": "node",
      "id": 1809622951,
      "lat": 12.9185562,
      "lon": 77.5553293,
      "tags": {
        "name": "Royal Mart",
        "shop": "supermarket"
      }
    },
    {
      "type": "node",
      "id": 1812653243,
      "lat": 12.9181694,
      "lon": 77.5547822,
      "tags": {
        "amenity": "atm",
        "operator": "SBI ATM",
        "source": "Survey"
      }
    },
    {
      "type": "node",
      "id": 1812668247,
      "lat": 12.9180303,
      "lon": 77.5571707,
      "tags": {
        "amenity": "fast_food",
        "cuisine": "indian",
        "name": "Ice Cafe"
      }
    },
    {
      "type": "node",
      "id": 1812668672,
      "lat": 12.917953,
      "lon": 77.5571384,
      "tags": {
        "amenity": "atm",
        "operator": "Corporation Bank"
      }
    },
    {
      "type": "node",
      "id": 2123541909,
      "lat": 12.9180956,
      "lon": 77.557202,
      "tags": {
        "amenity": "fast_food",
        "cuisine": "indian",
        "name": "SLV"
      }
    },
    {
      "type": "node",
      "id": 2123563497,
      "lat": 12.9165327,
      "lon": 77.55716,
      "tags": {
        "amenity": "place_of_worship",
        "name": "Anjaneya Temple",
        "name:kn": "ಆಂಜನೇಯ ದೇವಸ್ಥಾನ",
        "religion": "hindu"
      }
    },
    {
      "type": "node",
      "id": 2123564200,
      "lat": 12.915903,
      "lon": 77.5550223,
      "tags": {
        "addr:district": "Bengaluru Urban",
        "addr:full": "15Th Main, 17Th Cross Padmanabhanagar",
        "addr:postcode": "560070",
        "addr:state": "Karnataka",
        "amenity": "hospital",
        "emergency": "yes",
        "name": "Maharaja Agrasen Hospital, Bengaluru Urban",
        "source": "OpenGovernmentData"
      }
    },
    {
      "type": "node",
      "id": 2123629154,
      "lat": 12.9151671,
      "lon": 77.552159,
      "tags": {
        "amenity": "bus_station",
        "name": "Chikkalasandra Bus Stop",
        "name:kn": "ಚಿಕ್ಕಲಸಂದ್ರ"
      }
    },
    {
      "type": "node",
      "id": 2124813862,
      "lat": 12.9179548,
      "lon": 77.555816,
      "tags": {
        "amenity": "hospital",
        "name": "Bangalore Kidney Foundation - NU Hospital"
      }
    },
    {
      "type": "node",
      "id": 2124814947,
      "lat": 12.9178136,
      "lon": 77.5561808,
      "tags": {
        "shop": "convenience"
      }
    },
    {
      "type": "node",
      "id": 2124814950,
      "lat": 12.9178868,
      "lon": 77.5561969,
      "tags": {
        "amenity": "pharmacy"
      }
    },
    {
      "type": "node",
      "id": 2984295033,
      "lat": 12.9184617,
      "lon": 77.5555842,
      "tags": {
        "addr:district": "Bengaluru Urban",
        "addr:full": "Thimmaiah Road, Padmanabhanagar, Bengaluru",
        "addr:postcode": "560070",
        "addr:state": "Karnataka",
        "amenity": "hospital",
        "name": "Shraddha Eye Care",
        "source": "Local Knowledge"
      }
    },
    {
      "type": "node",
      "id": 3603919193,
      "lat": 12.9123254,
      "lon": 77.555545,
      "tags": {
        "access": "permissive",
        "addr:city": "Bangalore",
        "addr:postcode": "560061",
        "addr:street": "Dr. Vishnuvardhan Road",
        "leisure": "swimming_pool",
        "name": "Netkallappa Aquatic Center",
        "phone": "080 4097 6591"
      }
    },
    {
      "type": "node",
      "id": 4545898295,
      "lat": 12.9118512,
      "lon": 77.5525391,
      "tags": {
        "addr:postcode": "560061",
        "addr:street": "Dr. Vishnuvardhan Road",
        "name": "Wine World",
        "name:en": "Wine World",
        "shop": "wine"
      }
    },
    {
      "type": "node",
      "id": 4545906789,
      "lat": 12.9135341,
      "lon": 77.5588078,
      "tags": {
        "addr:street": "Dr. Vishnuvardhan Road",
        "amenity": "restaurant",
        "cuisine": "regional;local;chinese;noodles;fish_and_chips;chicken;indian",
        "diet:vegetarian": "yes",
        "name": "Vanani Bar and Restaurant",
        "name:en": "Vanani Bar and Restaurant"
      }
    },
    {
      "type": "node",
      "id": 5626258373,
      "lat": 12.9227174,
      "lon": 77.5563021,
      "tags": {
        "addr:city": "Bengaluru",
        "addr:postcode": "560085",
        "addr:street": "Outer Ring Road",
        "amenity": "fast_food",
        "cuisine": "south_indian;north_indian",
        "drive_through": "no",
        "name": "Mane Thindi",
        "name:kn": "ಮನೆ ತಿಂಡಿ",
        "outdoor_seating": "no",
        "smoking": "no",
        "takeaway": "yes"
      }
    },
    {
      "type": "node",
      "id": 5626258374,
      "lat": 12.9227144,
      "lon": 77.556339,
      "tags": {
        "addr:city": "Bengaluru",
        "addr:postcode": "560085",
        "addr:street": "Outer Ring Road",
        "name": "Cake of the Day",
        "operator": "Cake of the Day",
        "payment:cards": "yes",
        "payment:cash": "yes",
        "payment:paytm": "yes",
        "shop": "pastry"
      }
    },
    {
      "type": "node",
      "id": 6936794825,
      "lat": 12.9179183,
      "lon": 77.5567127,
      "tags": {
        "addr:city": "Bengaluru",
        "addr:postcode": "560070",
        "addr:street": "C J Venkatesa Das Road",
        "name": "Iyengar Bakery",
        "name:kn": "ಐಯ್ಯಂಗಾರ್ ಬೇಕರಿ",
        "payment:cash": "yes",
        "shop": "bakery"
      }
    },
    {
      "type": "node",
      "id": 6938772336,
      "lat": 12.9118831,
      "lon": 77.5528805,
      "tags": {
        "addr:district": "Bengaluru Urban",
        "addr:full": "Dr.Gurappa Naidu Complex, Opposite Komarla Brigade Residency. Uttarahalli Main Road, Chikkalasandra",
        "addr:postcode": "560063",
        "addr:state": "Karnataka",
        "amenity": "hospital",
        "healthcare": "hospital",
        "name": "C.S. Hospital",
        "source": "OpenGovernmentData"
      }
    },
    {
      "type": "node",
      "id": 6938777945,
      "lat": 12.9176216,
      "lon": 77.5550705,
      "tags": {
        "addr:district": "Bengaluru Urban",
        "addr:full": "Bkf Chand , Nephro- Urology Centre, Ca - 6,15Th, Main Street, 11Th Cross, Padmanabhanagar",
        "addr:postcode": "560070",
        "addr:state": "Karnataka",
        "amenity": "hospital",
        "name": "Nu Trust",
        "source": "OpenGovernmentData"
      }
    },
    {
      "type": "node",
      "id": 7234723849,
      "lat": 12.9134949,
      "lon": 77.5565779,
      "tags": {
        "amenity": "place_of_worship",
        "name": "Muneshwara Temple",
        "name:kn": "ಮುನೇಶ್ವರ"
      }
    },
    {
      "type": "node",
      "id": 11279634288,
      "lat": 12.9198739,
      "lon": 77.5578868,
      "tags": {
        "amenity": "shelter",
        "shelter_type": "gazebo"
      }
    },
    {
      "type": "node",
      "id": 12522217327,
      "lat": 12.9225556,
      "lon": 77.5568479,
      "tags": {
        "addr:city": "Bengaluru",
        "addr:district": "Bengaluru Urban",
        "addr:housenumber": "No. 299, B-No. 7",
        "addr:postcode": "560085",
        "addr:street": "100 Feet Ring Road, near Indian Bank, Banashankari 3rd Stage",
        "amenity": "bank",
        "brand": "Federal Bank",
        "brand:wikidata": "Q2044983",
        "name": "Federal Bank"
      }
    },
    {
      "type": "way",
      "id": 133142991,
      "center": {
        "lat": 12.9125019,
        "lon": 77.5574602
      },
      "tags": {
        "amenity": "college",
        "name": "Sri Kumarans College",
        "name:kn": "ಕುಮಾರನ್ ಕಾಲೇಜು"
      }
    },
    {
      "type": "way",
      "id": 334651226,
      "center": {
        "lat": 12.9179562,
        "lon": 77.5553876
      },
      "tags": {
        "landuse": "commercial",
        "name": "Padmanabhanagara BSNL Office",
        "name:kn": "ಪದ್ಮನಾಭನಗರ ಬಿಎಸ್ಎನ್ಎಲ್ ಕಛೇರಿ",
        "shop": "telecommunication"
      }
    },
    {
      "type": "way",
      "id": 556950053,
      "center": {
        "lat": 12.9180877,
        "lon": 77.5576506
      },
      "tags": {
        "description": "A public park with Gazebo to rest and have the natural freshness. Also called as Senior Citizen Park.",
        "leisure": "park",
        "name": "Padmanabhanagar Park",
        "name:kn": "ಪದ್ಮನಭನಗರ ಉದ್ಯಾನವನ"
      }
    },
    {
      "type": "way",
      "id": 579494263,
      "center": {
        "lat": 12.9149354,
        "lon": 77.5570101
      },
      "tags": {
        "leisure": "park",
        "name": "RK Layout park"
      }
    },
    {
      "type": "way",
      "id": 1033609968,
      "center": {
        "lat": 12.9125755,
        "lon": 77.5549599
      },
      "tags": {
        "access": "private",
        "leisure": "playground",
        "playground:theme": "playground",
        "surface": "dirt"
      }
    },
    {
      "type": "way",
      "id": 1033609969,
      "center": {
        "lat": 12.9125456,
        "lon": 77.5556204
      },
      "tags": {
        "access": "private",
        "leisure": "swimming_pool",
        "location": "outdoor",
        "swimming_pool": "outdoor"
      }
    },
    {
      "type": "way",
      "id": 1033609970,
      "center": {
        "lat": 12.9123905,
        "lon": 77.5558965
      },
      "tags": {
        "access": "private",
        "leisure": "swimming_pool",
        "location": "outdoor",
        "swimming_pool": "outdoor"
      }
    },
    {
      "type": "way",
      "id": 1337111980,
      "center": {
        "lat": 12.9134204,
        "lon": 77.553895
      },
      "tags": {
        "amenity": "school",
        "name": "Deccan International School"
      }
    },
    {
      "type": "way",
      "id": 1352846823,
      "center": {
        "lat": 12.9208102,
        "lon": 77.5581159
      },
      "tags": {
        "addr:city": "Bengaluru",
        "addr:district": "Bengaluru Urban",
        "addr:postcode": "560070",
        "addr:street": "13th Main Road",
        "leisure": "park",
        "name": "Gururaghavendra Layout Park",
        "opening_hours": "Mo-Sa 05:00-20:00",
        "operator": "ಬೃಹತ್ ಬೆಂಗಳೂರು ಮಹಾನಗರ ಪಾಲಿಕೆ",
        "operator:en": "Bruhat Bengaluru Mahanagara Palike",
        "operator:ka": "ಬೃಹತ್ ಬೆಂಗಳೂರು ಮಹಾನಗರ ಪಾಲಿಕೆ",
        "operator:short": "BBMP",
        "operator:type": "government",
        "operator:wikidata": "Q4978693"
      }
    }
  ]
}