{
  "area_name": "Palm Grove",
  "osm_id": 3481707802,
  "osm_type": "node",
  "place_type": "neighbourhood",
  "amenity_count": 408,
  "amenities": [
    {
      "type": "node",
      "id": 344370976,
      "lat": 13.0316253,
      "lon": 77.6357141,
      "tags": {
        "brand": "Reliance Fresh",
        "brand:wikidata": "Q7311014",
        "name": "Reliance Fresh",
        "operator": "Reliance Fresh",
        "shop": "supermarket"
      }
    },
    {
      "type": "node",
      "id": 357719533,
      "lat": 13.0306094,
      "lon": 77.6349359,
      "tags": {
        "name": "Shoba",
        "shop": "supermarket"
      }
    },
    {
      "type": "node",
      "id": 357719545,
      "lat": 13.0298925,
      "lon": 77.6347682,
      "tags": {
        "created_by": "Potlatch 0.10f",
        "name": "Smart",
        "shop": "supermarket"
      }
    },
    {
      "type": "node",
      "id": 417894271,
      "lat": 13.0384174,
      "lon": 77.6387738,
      "tags": {
        "amenity": "school",
        "name": "United Public School",
        "name:kn": "ಯುನೈಟೆಡ್ ಪಬ್ಲಿಕ್ ಸ್ಕೂಲ್"
      }
    },
    {
      "type": "node",
      "id": 443612463,
      "lat": 13.0371728,
      "lon": 77.6409543,
      "tags": {
        "amenity": "hospital",
        "name": "Sri Vijayalakshmi Pragathi Hospital",
        "name:kn": "ಶ್ರೀ ವಿಜಯಲಕ್ಷ್ಮೀ ಪ್ರಗತಿ ಆಸ್ಪತ್ರೆ"
      }
    },
    {
      "type": "node",
      "id": 443612468,
      "lat": 13.0375654,
      "lon": 77.6396626,
      "tags": {
        "amenity": "place_of_worship",
        "religion": "hindu"
      }
    },
    {
      "type": "node",
      "id": 443615520,
      "lat": 13.032254,
      "lon": 77.6438151,
      "tags": {
        "amenity": "place_of_worship",
        "name": "Rays of Peace",
        "religion": "christian"
      }
    },
    {
      "type": "node",
      "id": 443615521,
      "lat": 13.0317498,
      "lon": 77.6437784,
      "tags": {
        "amenity": "school",
        "name": "Sinclairs High School",
        "name:kn": "ಸಿಂಕ್ಲೇರ್ಸ್ ಪ್ರೌಡಶಾಲೆ"
      }
    },
    {
      "type": "node",
      "id": 443616778,
      "lat": 13.0248848,
      "lon": 77.6458889,
      "tags": {
        "amenity": "place_of_worship",
        "name": "Peniel Presbyterian Church",
        "religion": "christian",
        "wheelchair": "limited"
      }
    },
    {
      "type": "node",
      "id": 443636563,
      "lat": 13.0254302,
      "lon": 77.6417703,
      "tags": {
        "amenity": "atm",
        "brand": "State Bank of India",
        "brand:wikidata": "Q1340361",
        "name": "State Bank of India",
        "operator": "State Bank of India",
        "operator:wikidata": "Q1340361",
        "short_name": "SBI"
      }
    },
    {
      "type": "node",
      "id": 443636917,
      "lat": 13.0250166,
      "lon": 77.6435019,
      "tags": {
        "amenity": "kindergarten",
        "name": "Vinus Play Home and Day Care",
        "wheelchair": "limited"
      }
    },
    {
      "type": "node",
      "id": 443646019,
      "lat": 13.0259923,
      "lon": 77.6405519,
      "tags": {
        "addr:city": "Kalyan Nagar, Bangalore",
        "addr:housename": "Sri Shankar Reddy Building",
        "addr:housenumber": "122/4",
        "addr:postcode": "560043",
        "addr:street": "Outer Ring Road",
        "amenity": "restaurant",
        "name": "Ginger Greens",
        "name:kn": "ಜಿಂಜರ್ ಗ್ರೀನ್ಸ್",
        "opening_hours": "Mo-Su 11:00-23:00",
        "phone": "+91-80-25434744"
      }
    },
    {
      "type": "node",
      "id": 454081212,
      "lat": 13.0310427,
      "lon": 77.6353019,
      "tags": {
        "amenity": "pharmacy",
        "brand": "MedPlus",
        "brand:wikidata": "Q65684234",
        "dispensing": "yes",
        "healthcare": "pharmacy",
        "name": "MedPlus",
        "name:kn": "ಮೆಡ್‍ಪ್ಲಸ್"
      }
    },
    {
      "type": "node",
      "id": 454081214,
      "lat": 13.0313492,
      "lon": 77.6355039,
      "tags": {
        "amenity": "bank",
        "brand": "Canara Bank",
        "brand:en": "Canara Bank",
        "brand:hi": "केनरा बैंक",
        "brand:kn": "ಕೆನರಾ ಬ್ಯಾಂಕ್",
        "brand:pa": "ਕੇਨਰਾ ਬੈਂਕ",
        "brand:pnb": "کینرا بینک",
        "brand:ur": "کینرا بینک",
        "brand:wikidata": "Q2003777",
        "brand:wikipedia": "en:Canara Bank",
        "brand:wikipedia:pa": "ਕੇਨਰਾ ਬੈਂਕ",
        "name": "Canara Bank",
        "name:en": "Canara Bank",
        "name:hi": "केनरा बैंक",
        "name:kn": "ಕೆನರಾ ಬ್ಯಾಂಕ್",
        "name:pa": "ਕੇਨਰਾ ਬੈਂਕ",
        "name:pnb": "کینرا بینک",
        "name:ur": "کینرا بینک",
        "website": "https://www.canarabank.com/"
      }
    },
    {
      "type": "node",
      "id": 454081942,
      "lat": 13.0325981,
      "lon": 77.6393271,
      "tags": {
        "amenity": "place_of_worship",
        "name": "Temple",
        "name:kn": "ದೇವಸ್ಥಾನ",
        "religion": "hindu"
      }
    },
    {
      "type": "node",
      "id": 454082775,
      "lat": 13.0263233,
      "lon": 77.6319846,
      "tags": {
        "name": "Fresh Supermarket",
        "shop": "supermarket"
      }
    },
    {
      "type": "node",
      "id": 454089104,
      "lat": 13.0237239,
      "lon": 77.6364982,
      "tags": {
        "name": "Ruksana's Beauty Salon",
        "shop": "beauty"
      }
    },
    {
      "type": "node",
      "id": 454089105,
      "lat": 13.0232081,
      "lon": 77.6362938,
      "tags": {
        "amenity": "cafe",
        "brand": "Cafe Coffee Day",
        "brand:wikidata": "Q5017235",
        "cuisine": "coffee_shop",
        "name": "Cafe Coffee Day",
        "name:kn": "ಕಫೆ ಕಾಫಿ ಡೇ",
        "takeaway": "yes"
      }
    },
    {
      "type": "node",
      "id": 454089106,
      "lat": 13.0233653,
      "lon": 77.636232,
      "tags": {
        "amenity": "kindergarten",
        "name": "Orkids"
      }
    },
    {
      "type": "node",
      "id": 454089602,
      "lat": 13.0238997,
      "lon": 77.6349809,
      "tags": {
        "amenity": "kindergarten",
        "name": "Little Elly",
        "url": "http://www.littleelly.com/"
      }
    },
    {
      "type": "node",
      "id": 454089863,
      "lat": 13.0242154,
      "lon": 77.6356384,
      "tags": {
        "amenity": "kindergarten",
        "name": "Smiley Kids"
      }
    },
    {
      "type": "node",
      "id": 454090309,
      "lat": 13.0268228,
      "lon": 77.6329007,
      "tags": {
        "amenity": "college",
        "name": "Florida College of Management and Computer Science"
      }
    },
    {
      "type": "node",
      "id": 454090311,
      "lat": 13.0269256,
      "lon": 77.6329391,
      "tags": {
        "amenity": "college",
        "name": "Florida College of Education"
      }
    },
    {
      "type": "node",
      "id": 454090312,
      "lat": 13.0271338,
      "lon": 77.6330115,
      "tags": {
        "amenity": "college",
        "name": "Florence College of Physiotherapy"
      }
    },
    {
      "type": "node",
      "id": 454091339,
      "lat": 13.0261391,
      "lon": 77.6362268,
      "tags": {
        "amenity": "restaurant",
        "brand": "Pizza Hut",
        "brand:wikidata": "Q191615",
        "brand:wikipedia": "en:Pizza Hut",
        "cuisine": "pizza",
        "name": "Pizza Hut",
        "name:kn": "ಪಿಜ್ಜಾ ಹಟ್"
      }
    },
    {
      "type": "node",
      "id": 454091808,
      "lat": 13.0245569,
      "lon": 77.6369992,
      "tags": {
        "name": "Foodworld Supermarket",
        "shop": "supermarket"
      }
    },
    {
      "type": "node",
      "id": 454091809,
      "lat": 13.0247406,
      "lon": 77.6369933,
      "tags": {
        "amenity": "bank",
        "atm": "no",
        "brand": "ICICI Bank",
        "brand:wikidata": "Q1653258",
        "name": "ICICI Bank",
        "name:en": "ICICI Bank",
        "name:kn": "ಐಸಿಐಸಿಐ ಬ್ಯಾಂಕು",
        "short_name": "ICICI",
        "website": "https://www.icicibank.com"
      }
    },
    {
      "type": "node",
      "id": 454091810,
      "lat": 13.0248088,
      "lon": 77.6369908,
      "tags": {
        "name": "Style Spa",
        "shop": "furniture"
      }
    },
    {
      "type": "node",
      "id": 454135246,
      "lat": 13.0217371,
      "lon": 77.6370282,
      "tags": {
        "amenity": "atm",
        "brand": "Syndicate Bank",
        "brand:wikidata": "Q2004088",
        "name": "Syndicate Bank",
        "operator": "Syndicate Bank",
        "operator:wikidata": "Q2004088"
      }
    },
    {
      "type": "node",
      "id": 454160725,
      "lat": 13.0227216,
      "lon": 77.633722,
      "tags": {
        "name": "Sip n Bite",
        "shop": "grocery"
      }
    },
    {
      "type": "node",
      "id": 454163741,
      "lat": 13.028839,
      "lon": 77.6349071,
      "tags": {
        "amenity": "cafe",
        "name": "Cafe Moksh"
      }
    },
    {
      "type": "node",
      "id": 454163744,
      "lat": 13.0288296,
      "lon": 77.6349444,
      "tags": {
        "name": "Jn Style",
        "shop": "beauty"
      }
    },
    {
      "type": "node",
      "id": 506051175,
      "lat": 13.0287412,
      "lon": 77.6336899,
      "tags": {
        "name": "Foto Park",
        "shop": "photo"
      }
    },
    {
      "type": "node",
      "id": 577461651,
      "lat": 13.0281528,
      "lon": 77.6315502,
      "tags": {
        "amenity": "place_of_worship",
        "name": "Masjid-e-Yusuf",
        "name:kn": "ಮಸ್ಜಿದ್ ಎ ಯುಸುಫ್",
        "religion": "muslim"
      }
    },
    {
      "type": "node",
      "id": 595688363,
      "lat": 13.037202,
      "lon": 77.6411602,
      "tags": {
        "name": "Aishwarya Bakery",
        "shop": "bakery"
      }
    },
    {
      "type": "node",
      "id": 595688376,
      "lat": 13.0372529,
      "lon": 77.6421063,
      "tags": {
        "amenity": "place_of_worship",
        "name": "St Marys Syrian Knanaya Church",
        "religion": "christian"
      }
    },
    {
      "type": "node",
      "id": 762086731,
      "lat": 13.0210003,
      "lon": 77.6401088,
      "tags": {
        "amenity": "place_of_worship",
        "denomination": "brethren",
        "name": "Bethel Brethren Assembly",
        "religion": "christian"
      }
    },
    {
      "type": "node",
      "id": 1283697980,
      "lat": 13.0215955,
      "lon": 77.6393557,
      "tags": {
        "addr:street": "5th Main",
        "amenity": "fast_food",
        "brand": "Domino's",
        "brand:ks": "ڈومینوز",
        "brand:pa": "ਡੋਮੀਨੋਜ਼",
        "brand:ur": "ڈومینوز",
        "brand:wikidata": "Q839466",
        "brand:wikipedia": "en:Domino's Pizza",
        "cuisine": "pizza",
        "name": "Domino's",
        "name:kn": "ಡಾಮಿನೋಸ್",
        "name:ks": "ڈومینوز",
        "name:pa": "ਡੋਮੀਨੋਜ਼",
        "name:ur": "ڈومینوز",
        "takeaway": "yes"
      }
    },
    {
      "type": "node",
      "id": 1711479622,
      "lat": 13.0238756,
      "lon": 77.6373573,
      "tags": {
        "amenity": "bank",
        "atm": "yes",
        "brand": "HDFC Bank",
        "brand:wikidata": "Q631047",
        "brand:wikipedia": "en:HDFC Bank",
        "name": "HDFC Bank",
        "short_name": "HDFC",
        "website": "https://www.hdfcbank.com"
      }
    },
    {
      "type": "node",
      "id": 1711482236,
      "lat": 13.0231175,
      "lon": 77.637041,
      "tags": {
        "alt_name": "Kentucky Fried Chicken",
        "alt_name:en": "Kentucky Fried Chicken",
        "alt_name:hi": "केंटुकी फ्राइड चिकन",
        "alt_name:pa": "ਕੈਂਟੁਕੀ ਫ੍ਰਾਈਡ ਚਿਕਨ",
        "alt_name:pnb": "کینٹکی فرائیڈ چکن",
        "alt_name:ur": "کینٹکی فرائیڈ چکن",
        "amenity": "fast_food",
        "brand": "KFC",
        "brand:en": "KFC",
        "brand:hi": "केएफसी",
        "brand:pa": "ਕੇਐਫਸੀ",
        "brand:pnb": "کے ایف سی",
        "brand:ur": "کے ایف سی",
        "brand:wikidata": "Q524757",
        "brand:wikipedia": "en:KFC",
        "brand:wikipedia:pa": "ਕੇਐਫਸੀ",
        "brand:wikipedia:ur": "کینٹکی فرائیڈ چکن",
        "cuisine": "chicken",
        "name": "KFC",
        "name:en": "KFC",
        "name:hi": "केएफसी",
        "name:kn": "ಕೆಎಫ್‌ಸಿ",
        "name:pa": "ਕੇਐਫਸੀ",
        "name:pnb": "کے ایف سی",
        "name:ur": "کے ایف سی",
        "takeaway": "yes"
      }
    },
    {
      "type": "node",
      "id": 1742671873,
      "lat": 13.0256651,
      "lon": 77.6369016,
      "tags": {
        "amenity": "fast_food",
        "brand": "McDonald's",
        "brand:pa": "ਮੈਕਡੋਨਲਡ’ਜ਼",
        "brand:ur": "مکڈونلڈز",
        "brand:wikidata": "Q38076",
        "brand:wikipedia": "en:McDonald's",
        "brand:wikipedia:pa": "ਮੈਕਡੋਨਲਡ’ਜ਼",
        "brand:wikipedia:ur": "مکڈونلڈز",
        "cuisine": "burger",
        "name": "McDonald's",
        "name:kn": "ಮ್ಯಾಕ್‌ಡೊನಾಲ್ಡ್ಸ್",
        "name:pa": "ਮੈਕਡੋਨਲਡ’ਜ਼",
        "name:ur": "مکڈونلڈز",
        "takeaway": "yes"
      }
    },
    {
      "type": "node",
      "id": 1808847105,
      "lat": 13.0221658,
      "lon": 77.6401765,
      "tags": {
        "alt_name": "Lenovo Store",
        "name": "Syscom",
        "shop": "hifi"
      }
    },
    {
      "type": "node",
      "id": 1808847109,
      "lat": 13.0228142,
      "lon": 77.6373977,
      "tags": {
        "amenity": "pharmacy"
      }
    },
    {
      "type": "node",
      "id": 1808847124,
      "lat": 13.0219361,
      "lon": 77.6392168,
      "tags": {
        "amenity": "cafe",
        "brand": "Barista",
        "brand:wikidata": "Q644735",
        "cuisine": "coffee_shop",
        "name": "Barista",
        "name:kn": "ಬರಿಸ್ಟಾ",
        "takeaway": "yes"
      }
    },
    {
      "type": "node",
      "id": 1808847127,
      "lat": 13.0219568,
      "lon": 77.6398654,
      "tags": {
        "amenity": "ice_cream",
        "brand": "Baskin-Robbins",
        "brand:wikidata": "Q584601",
        "cuisine": "ice_cream",
        "name": "Baskin-Robbins",
        "name:kn": "ಬಸ್ಕಿನ್ ರಾಬಿನ್ಸ್"
      }
    },
    {
      "type": "node",
      "id": 1884945635,
      "lat": 13.0347257,
      "lon": 77.6344642,
      "tags": {
        "amenity": "school",
        "name": "Hennur Government School",
        "name:kn": "ಹೆಣ್ಣೂರು ಸರ್ಕಾರಿ ಶಾಲೆ"
      }
    },
    {
      "type": "node",
      "id": 1896502028,
      "lat": 13.0259123,
      "lon": 77.6368545,
      "tags": {
        "brand": "Tanishq",
        "brand:en": "Tanishq",
        "brand:wikidata": "Q13117711",
        "name": "Tanishq",
        "name:en": "Tanishq",
        "shop": "jewelry"
      }
    },
    {
      "type": "node",
      "id": 2013325720,
      "lat": 13.0239856,
      "lon": 77.6431902,
      "tags": {
        "brand": "Gold's Gym",
        "brand:wikidata": "Q1536234",
        "leisure": "fitness_centre",
        "name": "Gold's Gym"
      }
    },
    {
      "type": "node",
      "id": 2404638854,
      "lat": 13.0314943,
      "lon": 77.6421926,
      "tags": {
        "amenity": "school",
        "name": "St Paul"
      }
    },
    {
      "type": "node",
      "id": 3344229736,
      "lat": 13.0256788,
      "lon": 77.6303209,
      "tags": {
        "amenity": "atm",
        "brand": "ICICI Bank",
        "brand:wikidata": "Q1653258",
        "name": "ICICI Bank",
        "operator": "ICICI Bank",
        "operator:wikidata": "Q1653258",
        "short_name": "ICICI"
      }
    },
    {
      "type": "node",
      "id": 4443463419,
      "lat": 13.0245213,
      "lon": 77.6350534,
      "tags": {
        "addr:city": "Bangalore",
        "addr:housenumber": "407",
        "addr:postcode": "560043",
        "addr:street": "Kammanahalli Main Rd",
        "amenity": "restaurant",
        "cuisine": "regional",
        "delivery": "yes",
        "name": "Beijing Bites",
        "name:kn": "ಬೀಜಿಂಗ್ ಬೈಟ್ಸ್",
        "opening_hours": "12:00-16:00 ,19:00-23:00",
        "phone": "080 4090 4288",
        "smoking": "no",
        "website": "https://beijingbites.com/"
      }
    },
    {
      "type": "node",
      "id": 4443525945,
      "lat": 13.0255437,
      "lon": 77.6371608,
      "tags": {
        "addr:city": "bangalore",
        "addr:housenumber": "430",
        "addr:postcode": "560043",
        "addr:street": "Kalyan Nagar",
        "amenity": "restaurant",
        "cuisine": "regional",
        "name": "Sigree Global Grill",
        "opening_hours": "12:30-15:30,19:00-23:00",
        "phone": "080 2545 1318",
        "website": "https://www.speciality.co.in/global_grill/index.html"
      }
    },
    {
      "type": "node",
      "id": 4443559999,
      "lat": 13.0230441,
      "lon": 77.6398714,
      "tags": {
        "addr:city": "Bangalore",
        "addr:housenumber": "418",
        "addr:postcode": "560043",
        "addr:street": "5th Main Road",
        "amenity": "restaurant",
        "cuisine": "chinese",
        "delivery": "yes",
        "name": "Chung Wah",
        "name:kn": "ಚುಂಗ್ ವಾ",
        "opening_hours": "12:00-15:30,19:00-23:00",
        "phone": "098454 94499",
        "smoking": "no",
        "takeaway": "yes"
      }
    },
    {
      "type": "node",
      "id": 4443583791,
      "lat": 13.0278559,
      "lon": 77.6397264,
      "tags": {
        "addr:city": "bangalore",
        "addr:housenumber": "8",
        "addr:postcode": "560043",
        "addr:street": "Chelekere Main Road",
        "addr:suburb": "Kalyan Nagar",
        "amenity": "restaurant",
        "cuisine": "regional",
        "delivery": "yes",
        "name": "Fragrant Kitchen",
        "opening_hours": "10:30-23:00",
        "phone": "+91 96633 33004",
        "smoking": "no",
        "takeaway": "yes",
        "website": "http://www.fragrantkitchen.in/"
      }
    },
    {
      "type": "node",
      "id": 4443594010,
      "lat": 13.0214839,
      "lon": 77.6408994,
      "tags": {
        "addr:city": "Bangalore",
        "addr:housenumber": "507",
        "addr:postcode": "560043",
        "addr:street": "CMR Road",
        "amenity": "restaurant",
        "cuisine": "korean",
        "name": "Thran",
        "opening_hours": "12:00-15:00,18:00-22:00",
        "phone": "080 4205 0685",
        "takeaway": "yes"
      }
    },
    {
      "type": "node",
      "id": 4443610206,
      "lat": 13.0250222,
      "lon": 77.6372087,
      "tags": {
        "addr:housenumber": "7",
        "addr:street": "5th main road",
        "amenity": "restaurant",
        "cuisine": "mediterranean",
        "delivery": "yes",
        "name": "Aioli BBQ & Grill Smoke House",
        "opening_hours": "11:45-23:30",
        "phone": "080 6999 0174",
        "takeaway": "yes"
      }
    },
    {
      "type": "node",
      "id": 4443620086,
      "lat": 13.0260656,
      "lon": 77.6370378,
      "tags": {
        "addr:city": "bangalore",
        "addr:housenumber": "436",
        "addr:postcode": "560043",
        "addr:street": "5th A Cross",
        "amenity": "restaurant",
        "cuisine": "seafood",
        "name": "Unwined",
        "opening_hours": "11:30-23:30",
        "phone": "080 4167 8999"
      }
    },
    {
      "type": "node",
      "id": 4445169666,
      "lat": 13.0241409,
      "lon": 77.637316,
      "tags": {
        "addr:city": "Bangalore",
        "addr:housenumber": "#4BM-403",
        "addr:postcode": "560043",
        "addr:street": "Kammanahalli Main Road, HRBR Layout 2nd Block",
        "amenity": "clinic",
        "name": "Divine Medical Centre",
        "phone": "080 2545 1143",
        "website": "https://divinemedicalcentre.in/"
      }
    },
    {
      "type": "node",
      "id": 4446954987,
      "lat": 13.0259923,
      "lon": 77.6405519,
      "tags": {
        "addr:city": "bangalore",
        "addr:housenumber": "G 28",
        "addr:postcode": "560043",
        "addr:street": "Chelikere Ring Road, Near-23rd Bmtc Bus Depot, Kalyan Nagar,",
        "amenity": "restaurant",
        "cuisine": "regional",
        "delivery": "yes",
        "name": "Matru Sagar",
        "opening_hours": "11:00-23:00",
        "smoking": "no",
        "takeaway": "yes"
      }
    },
    {
      "type": "node",
      "id": 4446961587,
      "lat": 13.0217392,
      "lon": 77.6397872,
      "tags": {
        "addr:city": "Bangalore",
        "addr:housenumber": "11th/ 14th cross rd",
        "addr:postcode": "560043",
        "addr:street": "HRBR Lay out, Near Axis bank",
        "amenity": "restaurant",
        "cuisine": "regional",
        "delivery": "yes",
        "name": "Food Magic Restaurant",
        "opening_hours": "08:00-00:00",
        "smoking": "no",
        "takeaway": "yes"
      }
    },
    {
      "type": "node",
      "id": 4446969359,
      "lat": 13.0313957,
      "lon": 77.6359521,
      "tags": {
        "addr:city": "bangalore",
        "addr:housenumber": "22/267",
        "addr:postcode": "560043",
        "addr:street": "Hennur Bagalur Rd, HBR Layout 4th Block, Kalyan Nagar",
        "amenity": "restaurant",
        "cuisine": "regional",
        "delivery": "yes",
        "name": "Udupi Park Deluxe",
        "opening_hours": "06:00-22:30",
        "smoking": "no",
        "takeaway": "yes"
      }
    },
    {
      "type": "node",
      "id": 4446972680,
      "lat": 13.0226589,
      "lon": 77.6395368,
      "tags": {
        "addr:city": "bangalore",
        "addr:housenumber": "406",
        "addr:postcode": "560043",
        "addr:street": "5th Main Rd, HRBR Layout, Kalyan Nagar",
        "amenity": "restaurant",
        "cuisine": "regional",
        "delivery": "yes",
        "name": "Gawa",
        "opening_hours": "NA",
        "smoking": "no",
        "takeaway": "yes"
      }
    },
    {
      "type": "node",
      "id": 4446975139,
      "lat": 13.0222694,
      "lon": 77.6397678,
      "tags": {
        "addr:city": "Bangalore",
        "addr:housenumber": "406",
        "addr:postcode": "560043",
        "addr:street": "5th A Cross Road, HRBR Layout 2nd Block, HRBR Layout, Kalyan Nagar",
        "amenity": "restaurant",
        "cuisine": "regional",
        "delivery": "yes",
        "name": "Faasos",
        "opening_hours": "09:00-23:00",
        "smoking": "no",
        "takeaway": "yes"
      }
    },
    {
      "type": "node",
      "id": 4446983972,
      "lat": 13.0257816,
      "lon": 77.6378902,
      "tags": {
        "addr:city": "Bangalore",
        "addr:housenumber": "#410",
        "addr:postcode": "560043",
        "addr:street": "1st Floor, 5th A cross LL Block, HRBR layout, Kalyan nagar",
        "amenity": "restaurant",
        "cuisine": "regional",
        "delivery": "yes",
        "name": "Kera Cafe",
        "opening_hours": "11:00-23:00",
        "smoking": "no",
        "takeaway": "yes"
      }
    },
    {
      "type": "node",
      "id": 4446999237,
      "lat": 13.0225104,
      "lon": 77.6395484,
      "tags": {
        "addr:city": "bangalore",
        "addr:housenumber": "1/2",
        "addr:postcode": "560043",
        "addr:street": "First Avenue, 5th Main, 2nd Block, HRBR Layout, Kalyan Nagar",
        "amenity": "restaurant",
        "cuisine": "regional",
        "delivery": "yes",
        "name": "BYLI - Bet You Love It!",
        "opening_hours": "09:00-23:00",
        "smoking": "no"
      }
    },
    {
      "type": "node",
      "id": 4447001525,
      "lat": 13.023783,
      "lon": 77.6399492,
      "tags": {
        "addr:city": "Bangalore",
        "addr:housenumber": "444",
        "addr:postcode": "560043",
        "addr:street": "5th Main Rd, HRBR Block-2, Kalyannagar,",
        "amenity": "restaurant",
        "cuisine": "regional",
        "delivery": "yes",
        "name": "Bullet Biryani",
        "opening_hours": "12:00-15:00,19:00-22:00",
        "phone": "080954 81470",
        "smoking": "no",
        "takeaway": "yes"
      }
    },
    {
      "type": "node",
      "id": 4447006252,
      "lat": 13.0222385,
      "lon": 77.6399929,
      "tags": {
        "addr:city": "bangalore",
        "addr:postcode": "560043",
        "addr:street": "5th A Main Road, 2nd Block, HRBR Layout, Kalyan Nagar",
        "amenity": "restaurant",
        "cuisine": "regional",
        "delivery": "yes",
        "name": "Cake House",
        "smoking": "no",
        "takeaway": "yes"
      }
    },
    {
      "type": "node",
      "id": 4447009029,
      "lat": 13.0230092,
      "lon": 77.6370539,
      "tags": {
        "addr:city": "Bangalore",
        "addr:housenumber": "3826",
        "addr:postcode": "560043",
        "addr:street": "Mariappa Circle, Kammanahali Rd, HRBR Layout 3rd Block, Kalyan Nagar",
        "amenity": "restaurant",
        "cuisine": "regional",
        "delivery": "yes",
        "name": "Regency Park",
        "opening_hours": "11:30-23:00",
        "phone": "080 2544 1410",
        "smoking": "no",
        "takeaway": "yes",
        "website": "regencypark.co.in"
      }
    },
    {
      "type": "node",
      "id": 4447012034,
      "lat": 13.0207053,
      "lon": 77.6367655,
      "tags": {
        "addr:city": "Bangalore",
        "addr:housenumber": "86",
        "addr:postcode": "560043",
        "addr:street": "Kammanahalli Main Road, Near-Jal Vayu Vihar, Kalyan Nagar",
        "amenity": "restaurant",
        "cuisine": "regional",
        "delivery": "yes",
        "name": "Sukh Sagar",
        "opening_hours": "07:30-22:30",
        "phone": "080 4126 4476",
        "smoking": "no",
        "takeaway": "yes",
        "website": "sukhsagar.com"
      }
    },
    {
      "type": "node",
      "id": 4447013600,
      "lat": 13.022023,
      "lon": 77.6389206,
      "tags": {
        "addr:city": "Bangalore",
        "addr:housenumber": "420",
        "addr:postcode": "560043",
        "addr:street": "CMR Rd, HRBR Layout 2nd Block, Kalyan Nagar",
        "amenity": "fast_food",
        "cuisine": "regional",
        "delivery": "yes",
        "drive_through": "yes",
        "name": "Majlis Restaurant",
        "opening_hours": "12:00-23:00",
        "phone": "080 4123 1221",
        "smoking": "no",
        "takeaway": "yes"
      }
    },
    {
      "type": "node",
      "id": 4447017910,
      "lat": 13.0259481,
      "lon": 77.6372048,
      "tags": {
        "addr:city": "Bangalore",
        "addr:housenumber": "5 AC/402",
        "addr:postcode": "560043",
        "addr:street": "Service Rd, HRBR Layout 2nd Block, Kalyan Nagar",
        "amenity": "restaurant",
        "cuisine": "regional",
        "delivery": "yes",
        "name": "Pars Restaurant",
        "opening_hours": "14:30-23:00",
        "smoking": "no",
        "takeaway": "yes"
      }
    },
    {
      "type": "node",
      "id": 4447228633,
      "lat": 13.0236936,
      "lon": 77.6431324,
      "tags": {
        "addr:city": "bangalore",
        "addr:housenumber": "415",
        "addr:postcode": "560043",
        "addr:street": "7th Main Rd, HRBR Layout 1st Block, Vijaya Bank Colony Extension, Kalyan Nagar",
        "amenity": "restaurant"
      }
    },
    {
      "type": "node",
      "id": 4447235887,
      "lat": 13.0249093,
      "lon": 77.6317491,
      "tags": {
        "addr:city": "Bangalore",
        "addr:postcode": "560043",
        "addr:street": "1M, Masand Esquire,Hennur Main Road, HRBR Layout 3rd Block, Opp Teachers Academy, Near Hennur Bus Depot",
        "amenity": "restaurant",
        "cuisine": "regional",
        "name": "Chulha Chowki Da Dhaba",
        "opening_hours": "12:00-15:30,19:00-22:30",
        "phone": "080 3232 9977",
        "smoking": "no",
        "takeaway": "yes",
        "website": "http://www.chulhachaukidadhaba.com/ContactUs.php",
        "wheelchair": "no"
      }
    },
    {
      "type": "node",
      "id": 4447243242,
      "lat": 13.028492,
      "lon": 77.6347149,
      "tags": {
        "addr:city": "bangalore",
        "addr:housenumber": "100",
        "addr:postcode": "560043",
        "addr:street": "Hennur Bagalur Rd, Kalyan Nagar",
        "amenity": "restaurant",
        "cuisine": "regional",
        "delivery": "yes",
        "name": "Paradox Resto-Cafe",
        "opening_hours": "10:30-22:30",
        "phone": "080 4110 8043",
        "smoking": "no",
        "takeaway": "yes",
        "website": "https://www.zomato.com/bangalore/paradox-rest-o-cafe-kalyan-nagar"
      }
    },
    {
      "type": "node",
      "id": 4447263066,
      "lat": 13.0239866,
      "lon": 77.6329956,
      "tags": {
        "addr:city": "Bangalore",
        "addr:housenumber": "204",
        "addr:postcode": "560043",
        "addr:street": "CMR Rd, HRBR Layout 3rd Block, Kalyan Nagar",
        "amenity": "restaurant",
        "cuisine": "regional;punjabi",
        "delivery": "yes",
        "name": "Tashan The Punjabi Cuisine",
        "opening_hours": "19:00-23:00",
        "phone": "080 4112 5127",
        "smoking": "no",
        "takeaway": "yes"
      }
    },
    {
      "type": "node",
      "id": 4447268977,
      "lat": 13.021689,
      "lon": 77.639838,
      "tags": {
        "addr:city": "Bangalore",
        "addr:postcode": "560043",
        "addr:street": "CMR Rd, HRBR Layout, Kalyan Nagar",
        "amenity": "restaurant",
        "cuisine": "regional",
        "delivery": "yes",
        "name": "Paranthas and Dosas",
        "opening_hours": "09:00-22:30",
        "phone": "080 3271 3131",
        "smoking": "no"
      }
    },
    {
      "type": "node",
      "id": 4447271702,
      "lat": 13.0263547,
      "lon": 77.6405892,
      "tags": {
        "addr:city": "bangalore",
        "addr:postcode": "560043",
        "addr:street": "1st Floor, L.G.R. Complex, Outer Ring Rd, Chelekare",
        "amenity": "restaurant",
        "cuisine": "regional",
        "delivery": "yes",
        "name": "Delicacy Restaurant",
        "opening_hours": "11:00-23:00",
        "phone": "080 2544 9944",
        "smoking": "no",
        "takeaway": "yes",
        "website": "http://ww2.delicacyrestaurant.com/?folio=7POYGN0G2"
      }
    },
    {
      "type": "node",
      "id": 4447291372,
      "lat": 13.0221892,
      "lon": 77.6397816,
      "tags": {
        "addr:city": "Bangalore",
        "addr:housenumber": "401",
        "addr:postcode": "560043",
        "addr:street": "2nd Block, Kalyan Nagar, 5th A Main, HRBR Layout",
        "amenity": "restaurant",
        "cuisine": "regional",
        "delivery": "yes",
        "name": "Chung's Chinese Corner",
        "opening_hours": "12:00-15:30,19:00-23:00",
        "phone": "080 2542 8677",
        "smoking": "no"
      }
    },
    {
      "type": "node",
      "id": 4447307112,
      "lat": 13.0250736,
      "lon": 77.6401906,
      "tags": {
        "addr:city": "bangalore",
        "addr:postcode": "560043",
        "addr:street": "5th Main Cross Road, HRBR Layout Kalyan Nagar 2 Block",
        "amenity": "restaurant",
        "cuisine": "regional",
        "delivery": "yes",
        "name": "La Casa",
        "opening_hours": "11:00-23:00",
        "phone": "080 4208 4201",
        "smoking": "no",
        "takeaway": "yes"
      }
    },
    {
      "type": "node",
      "id": 4447308906,
      "lat": 13.0232051,
      "lon": 77.639886,
      "tags": {
        "addr:city": "Bangalore",
        "addr:housenumber": "420",
        "addr:postcode": "560043",
        "addr:street": "5th Cross Rd, HRBR Layout 3rd Block, HRBR Layout, Kalyan Nagar",
        "amenity": "restaurant",
        "cuisine": "regional",
        "delivery": "yes",
        "name": "7 Plates",
        "opening_hours": "12:30-23:30",
        "phone": "078297 79997",
        "smoking": "no",
        "takeaway": "yes"
      }
    },
    {
      "type": "node",
      "id": 4447315290,
      "lat": 13.0219932,
      "lon": 77.6405659,
      "tags": {
        "addr:city": "Bangalore",
        "addr:postcode": "560043",
        "addr:street": "First Floor, CMR Road, HRBR Layout,2nd Block, Kalyan Nagar",
        "amenity": "restaurant",
        "cuisine": "regional",
        "delivery": "yes",
        "name": "Mast Kalandar",
        "name:kn": "ಮಸ್ತ್ ಕಲಂದರ್",
        "opening_hours": "12:00-23:00",
        "phone": "080 4161 0777",
        "smoking": "no",
        "takeaway": "yes",
        "website": "http://mkdabbawala.com/"
      }
    },
    {
      "type": "node",
      "id": 4447320093,
      "lat": 13.0254536,
      "lon": 77.6397912,
      "tags": {
        "addr:city": "bangalore",
        "addr:housenumber": "436",
        "addr:postcode": "560043",
        "addr:street": "5th Main Road, HRBR Layout,2nd Block, Kalyan Nagar",
        "amenity": "restaurant",
        "cuisine": "regional",
        "delivery": "yes",
        "name": "Unwined",
        "opening_hours": "11:30-23:30",
        "phone": "080 4167 8999",
        "smoking": "no",
        "takeaway": "yes"
      }
    },
    {
      "type": "node",
      "id": 4447327735,
      "lat": 13.0232481,
      "lon": 77.6394478,
      "tags": {
        "addr:city": "bangalore",
        "addr:postcode": "560043",
        "addr:street": "5th Main Rd, HRBR Layout 2nd Block, Kalyan Nagar",
        "amenity": "restaurant",
        "cuisine": "regional",
        "delivery": "yes",
        "name": "Aioli BBQ & Grill Smoke House",
        "opening_hours": "11:45-23:30",
        "phone": "080 6999 0174",
        "smoking": "no",
        "takeaway": "yes"
      }
    },
    {
      "type": "node",
      "id": 4447331157,
      "lat": 13.0240994,
      "lon": 77.6340746,
      "tags": {
        "addr:city": "Bangalore",
        "addr:housenumber": "507",
        "addr:postcode": "560043",
        "addr:street": "Ground Floor, 4th A Cross Road, HRBR Layout 3rd Block, Kalyan Nagar, Bangalore Urban",
        "amenity": "restaurant",
        "cuisine": "regional",
        "delivery": "yes",
        "name": "Thran",
        "opening_hours": "12:00-15:00,18:00-10:00",
        "phone": "080 4205 0685",
        "smoking": "no",
        "takeaway": "yes"
      }
    },
    {
      "type": "node",
      "id": 4447350026,
      "lat": 13.0256069,
      "lon": 77.6384078,
      "tags": {
        "addr:city": "Bangalore",
        "addr:housenumber": "2nd & 3rd Floor, 430",
        "addr:postcode": "560043",
        "addr:street": "Service Rd, HRBR Layout 2nd Block, Kalyan Nagar",
        "amenity": "restaurant",
        "check_date": "2025-06-21",
        "cuisine": "regional",
        "delivery": "yes",
        "name": "Mani's Dum Biryani",
        "opening_hours": "12:30-15:30,19:00-23:00",
        "phone": "080 2545 1318",
        "smoking": "no",
        "takeaway": "yes",
        "website": "https://www.speciality.co.in/global_grill/index.html"
      }
    },
    {
      "type": "node",
      "id": 4447355796,
      "lat": 13.0255101,
      "lon": 77.6383709,
      "tags": {
        "addr:city": "Bangalore",
        "addr:housenumber": "430",
        "addr:postcode": "560043",
        "addr:street": "5th A Cross Road, HRBR Layout 2nd Block, Kalyan Nagar",
        "amenity": "restaurant",
        "cuisine": "regional",
        "delivery": "yes",
        "name": "Mainland China",
        "opening_hours": "12:00-15:30,19:00-23:30",
        "phone": "080 2545 1358",
        "smoking": "no",
        "takeaway": "yes",
        "website": "https://www.speciality.co.in/mainland_china/index.html"
      }
    },
    {
      "type": "node",
      "id": 4447363016,
      "lat": 13.0215823,
      "lon": 77.6403247,
      "tags": {
        "addr:city": "Bangalore",
        "addr:housenumber": "No. 30,",
        "addr:postcode": "560043",
        "addr:street": "B.R.Plaza, 3rd Floor, 4th Cross, CMR Road, Hrbr Layout, Kalyan Nagar, Kalyan Naga",
        "amenity": "restaurant",
        "cuisine": "regional",
        "delivery": "yes",
        "name": "Barbeque Nation",
        "opening_hours": "12:30-22:30",
        "phone": "080 6060 0000",
        "smoking": "no",
        "takeaway": "yes",
        "website": "https://www.barbequenation.com/"
      }
    },
    {
      "type": "node",
      "id": 4447373687,
      "lat": 13.0245897,
      "lon": 77.637388,
      "tags": {
        "addr:city": "Bangalore",
        "addr:housenumber": "407",
        "addr:postcode": "560043",
        "addr:street": "Kammanahalli Main Rd, HRBR Layout 2nd Block, Kalyan Nagar",
        "amenity": "restaurant",
        "cuisine": "regional",
        "delivery": "yes",
        "name": "Beijing Bites",
        "name:kn": "ಬೀಜಿಂಗ್ ಬೈಟ್ಸ್",
        "opening_hours": "12:00-16:00 ,19:00-23:00",
        "phone": "080 4090 4288",
        "smoking": "no",
        "takeaway": "yes",
        "website": "https://beijingbites.com/"
      }
    },
    {
      "type": "node",
      "id": 4488838434,
      "lat": 13.0220604,
      "lon": 77.638771,
      "tags": {
        "addr:city": "Bangalore",
        "addr:postcode": "560043",
        "addr:street": "CMR Road, Beside Aravind Life Style, HRBR Layout 2nd Block, Kalyan Nagar",
        "name": "The Sport Mall",
        "phone": "080 3927 5511",
        "shop": "sports",
        "website": "thesportmall.in"
      }
    },
    {
      "type": "node",
      "id": 4488962870,
      "lat": 13.0220316,
      "lon": 77.6389717,
      "tags": {
        "addr:city": "Bangalore",
        "addr:postcode": "560043",
        "addr:street": "CMR Road, Beside Aravind Life Style, HRBR Layout 2nd Block, Kalyan Nagar, Bhadrappa Layout, Kalyan Nagar,",
        "name": "The Sport Mall",
        "opening_hours": "10:30-21:30",
        "phone": "08039275511",
        "shop": "sports",
        "website": "thesportmall.in"
      }
    },
    {
      "type": "node",
      "id": 4489731990,
      "lat": 13.0217674,
      "lon": 77.6369247,
      "tags": {
        "addr:city": "Bangalore",
        "addr:housenumber": "4",
        "addr:postcode": "560084",
        "addr:street": "3rd Floor, Kammanahalli Main Road, Kammanahall",
        "leisure": "sports_centre",
        "name": "Cubo Fitness",
        "opening_hours": "05:00-10:00",
        "phone": "(91)-80-33761116",
        "sport": "gymnastics",
        "website": "https://www.cubofitness.com/"
      }
    },
    {
      "type": "node",
      "id": 4489756860,
      "lat": 13.0258854,
      "lon": 77.6372631,
      "tags": {
        "addr:city": "Bangalore",
        "addr:postcode": "560043",
        "addr:street": "Lamcy Plaza, 5AC/402, 2nd Floor, 2nd Block, HRBR Layout, Kalyannagar, Bhadrappa Layout, HRBR Layout 2nd Block, HRBR Layout, Kalyan Nagar,",
        "leisure": "sports_centre",
        "name": "Snap Fitness",
        "phone": "9008048888",
        "sport": "gymnasium",
        "website": "snapfitnessindia.com"
      }
    },
    {
      "type": "node",
      "id": 4489865196,
      "lat": 13.0245883,
      "lon": 77.6371856,
      "tags": {
        "addr:city": "Bangalore",
        "addr:housenumber": "412",
        "addr:postcode": "560043",
        "addr:street": "HRBR layout",
        "name": "Lakme Salon",
        "opening_hours": "09:00-21:30",
        "phone": "080 2545 1385",
        "shop": "beauty",
        "website": "https://lakmeindia.com/"
      }
    },
    {
      "type": "node",
      "id": 4489872855,
      "lat": 13.0217349,
      "lon": 77.6371117,
      "tags": {
        "addr:city": "Bangalore",
        "addr:housenumber": "10",
        "addr:postcode": "560043",
        "addr:street": "Kammanahalli Main Road",
        "name": "Impress Cuts Family Salon",
        "opening_hours": "09:00-21:30",
        "phone": "80-33094638",
        "shop": "beauty"
      }
    },
    {
      "type": "node",
      "id": 4489890908,
      "lat": 13.021842,
      "lon": 77.6372078,
      "tags": {
        "addr:city": "Bangalore",
        "addr:housenumber": "10",
        "addr:postcode": "560084",
        "addr:street": "Kammanahalli Main Road",
        "name": "Impress Cuts",
        "opening_hours": "09:00-21:30",
        "phone": "8041106017",
        "shop": "beauty"
      }
    },
    {
      "type": "node",
      "id": 4490504246,
      "lat": 13.0216799,
      "lon": 77.6372975,
      "tags": {
        "addr:city": "Bangalore",
        "addr:housenumber": "4/1",
        "addr:postcode": "560084",
        "addr:street": "4/1, Kammanalli Main Road, Opp. Jal Vayu Vihar, Bhadrappa Layout, Sena Vihar, Kammanahalli, Bengaluru,",
        "leisure": "sports_centre",
        "name": "Cubo Fitness",
        "opening_hours": "5:30-21:30",
        "phone": "9880079611",
        "sport": "gymnasium",
        "website": "https://cubofitness.com/"
      }
    },
    {
      "type": "node",
      "id": 4535189245,
      "lat": 13.021608,
      "lon": 77.6416377,
      "tags": {
        "addr:postcode": "5600043",
        "amenity": "restaurant",
        "name": "Fusion",
        "name:en": "fusion"
      }
    },
    {
      "type": "node",
      "id": 4711683691,
      "lat": 13.0250215,
      "lon": 77.6312294,
      "tags": {
        "addr:street": "Hennur Main Road",
        "shop": "department_store"
      }
    },
    {
      "type": "node",
      "id": 4756003621,
      "lat": 13.0265963,
      "lon": 77.6310211,
      "tags": {
        "addr:housenumber": "2324",
        "addr:postcode": "560043",
        "addr:street": "80 feet main road",
        "name": "Windshield weld, kamals glass shoppe",
        "name:en": "Windshield weld, kamals glass shoppe",
        "phone": "180030000140",
        "shop": "car_repair"
      }
    },
    {
      "type": "node",
      "id": 4798061775,
      "lat": 13.0216594,
      "lon": 77.6396888,
      "tags": {
        "addr:city": "Bangalore",
        "addr:housenumber": "421",
        "addr:postcode": "560043",
        "addr:street": "CMR Rd, HRBR Layout 2nd Block, Kalyan Nagar",
        "alt_name": "A2B",
        "amenity": "restaurant",
        "brand": "Adyar Ananda Bhavan",
        "brand:wikidata": "Q15178238",
        "cuisine": "regional",
        "delivery": "yes",
        "diet:vegetarian": "only",
        "name": "Adyar Ananda Bhavan",
        "name:kn": "ಆದ್ಯಾರ್ ಆನಂದ ಭವನ",
        "opening_hours": "06:30-22:30",
        "operator": "Adyar Ananda Bhavan",
        "phone": "+91 80 4205 8999;+91 80 4206 1999",
        "smoking": "no",
        "takeaway": "yes",
        "website": "https://aabsweets.com"
      }
    },
    {
      "type": "node",
      "id": 4905066223,
      "lat": 13.022258,
      "lon": 77.6433948,
      "tags": {
        "amenity": "bank",
        "brand": "State Bank of India",
        "brand:wikidata": "Q1340361",
        "name": "State Bank of India",
        "name:en": "SBI RACPC",
        "short_name": "SBI"
      }
    },
    {
      "type": "node",
      "id": 4973060957,
      "lat": 13.0284576,
      "lon": 77.633619,
      "tags": {
        "amenity": "pharmacy",
        "name": "V R Pharmacy"
      }
    },
    {
      "type": "node",
      "id": 4973060958,
      "lat": 13.0293004,
      "lon": 77.6342802,
      "tags": {
        "name": "Banu Chicken and Fish Traders",
        "shop": "seafood"
      }
    },
    {
      "type": "node",
      "id": 4973060960,
      "lat": 13.0297542,
      "lon": 77.6341274,
      "tags": {
        "amenity": "bank",
        "brand": "Axis Bank",
        "brand:wikidata": "Q2003549",
        "name": "Axis Bank",
        "name:kn": "ಆಕ್ಸಿಸ್ ಬ್ಯಾಂಕ್"
      }
    },
    {
      "type": "node",
      "id": 4973060961,
      "lat": 13.0298189,
      "lon": 77.6342395,
      "tags": {
        "name": "Teak and Walnut",
        "shop": "furniture"
      }
    },
    {
      "type": "node",
      "id": 4973060962,
      "lat": 13.0299258,
      "lon": 77.6343634,
      "tags": {
        "amenity": "restaurant",
        "name": "Hotel New Karavali"
      }
    },
    {
      "type": "node",
      "id": 4973060963,
      "lat": 13.0303712,
      "lon": 77.6347459,
      "tags": {
        "amenity": "fast_food",
        "name": "Just A 1 Biryani Point"
      }
    },
    {
      "type": "node",
      "id": 4973099939,
      "lat": 13.0316945,
      "lon": 77.6357607,
      "tags": {
        "amenity": "bank",
        "brand": "HDFC Bank",
        "brand:wikidata": "Q631047",
        "name": "HDFC Bank",
        "name:kn": "ಎಚ್ ಡಿ ಎಫ್ ಸಿ",
        "short_name": "HDFC"
      }
    },
    {
      "type": "node",
      "id": 4973099940,
      "lat": 13.0313483,
      "lon": 77.6359163,
      "tags": {
        "amenity": "restaurant",
        "name": "Ambur Hot Dum Biryani"
      }
    },
    {
      "type": "node",
      "id": 4973099941,
      "lat": 13.0312934,
      "lon": 77.6359028,
      "tags": {
        "name": "Cross Blade",
        "shop": "hairdresser"
      }
    },
    {
      "type": "node",
      "id": 4973099942,
      "lat": 13.0312594,
      "lon": 77.6358425,
      "tags": {
        "name": "Vision Point",
        "shop": "optician"
      }
    },
    {
      "type": "node",
      "id": 4973416109,
      "lat": 13.0312285,
      "lon": 77.635814,
      "tags": {
        "amenity": "bank",
        "brand": "Muthoot Finance",
        "brand:wikidata": "Q6943861",
        "name": "Muthoot Finance",
        "name:kn": "ಮುತೂಟ್ ಫೈನಾನ್ಸ್",
        "office": "financial"
      }
    },
    {
      "type": "node",
      "id": 4973416114,
      "lat": 13.0309274,
      "lon": 77.6356152,
      "tags": {
        "amenity": "dentist",
        "name": "Kripa Dental Clinic"
      }
    },
    {
      "type": "node",
      "id": 4973416115,
      "lat": 13.030808,
      "lon": 77.635518,
      "tags": {
        "amenity": "fast_food",
        "name": "Five Star"
      }
    },
    {
      "type": "node",
      "id": 4973416116,
      "lat": 13.0308563,
      "lon": 77.6355484,
      "tags": {
        "amenity": "pharmacy",
        "brand": "Apollo Pharmacy",
        "brand:wikidata": "Q62562612",
        "healthcare": "pharmacy",
        "name": "Apollo Pharmacy",
        "name:kn": "ಅಪೊಲೋ ಫಾರ್ಮಸಿ"
      }
    },
    {
      "type": "node",
      "id": 4973416117,
      "lat": 13.0307866,
      "lon": 77.6354955,
      "tags": {
        "name": "Just Bake",
        "name:kn": "ಜಸ್ಟ್ ಬೇಕ್",
        "shop": "bakery"
      }
    },
    {
      "type": "node",
      "id": 4973416118,
      "lat": 13.0311741,
      "lon": 77.6353899,
      "tags": {
        "name": "G.A.V Fish and Chicken Stall",
        "shop": "seafood"
      }
    },
    {
      "type": "node",
      "id": 4973416119,
      "lat": 13.0311332,
      "lon": 77.635348,
      "tags": {
        "name": "Bicycle Planet",
        "shop": "bicycle"
      }
    },
    {
      "type": "node",
      "id": 4973416120,
      "lat": 13.031112,
      "lon": 77.6353355,
      "tags": {
        "shop": "dry_cleaning"
      }
    },
    {
      "type": "node",
      "id": 4987609421,
      "lat": 13.03269,
      "lon": 77.6305228,
      "tags": {
        "amenity": "college",
        "name": "Vbr pu college",
        "name:en": "Vbr pu college"
      }
    },
    {
      "type": "node",
      "id": 5292780512,
      "lat": 13.0232316,
      "lon": 77.6370445,
      "tags": {
        "name": "GRT Jewellers",
        "shop": "jewelry"
      }
    },
    {
      "type": "node",
      "id": 5292780513,
      "lat": 13.0233511,
      "lon": 77.637035,
      "tags": {
        "amenity": "bank",
        "atm": "yes",
        "brand": "Dhanlaxmi Bank",
        "brand:wikidata": "Q2040440",
        "name": "Dhanlaxmi Bank",
        "name:kn": "ಧನಲಕ್ಷ್ಮಿ ಬ್ಯಾಂಕ್"
      }
    },
    {
      "type": "node",
      "id": 5292780514,
      "lat": 13.023331,
      "lon": 77.6370384,
      "tags": {
        "amenity": "restaurant",
        "name": "Hyderabad Biryaani House"
      }
    },
    {
      "type": "node",
      "id": 5292780515,
      "lat": 13.0234803,
      "lon": 77.6370308,
      "tags": {
        "brand": "Allen Solly",
        "brand:wikidata": "Q110036995",
        "name": "Allen Solly",
        "name:kn": "ಅಲೆನ್ ಸೊಲಿ",
        "shop": "clothes"
      }
    },
    {
      "type": "node",
      "id": 5292780516,
      "lat": 13.0236396,
      "lon": 77.6370323,
      "tags": {
        "name": "Angrez",
        "shop": "clothes"
      }
    },
    {
      "type": "node",
      "id": 5292780518,
      "lat": 13.0237861,
      "lon": 77.6373078,
      "tags": {
        "amenity": "dentist",
        "healthcare": "dentist",
        "name": "Oral Care"
      }
    },
    {
      "type": "node",
      "id": 5292780519,
      "lat": 13.0238651,
      "lon": 77.6370524,
      "tags": {
        "name": "Reliance footprints",
        "shop": "shoes"
      }
    },
    {
      "type": "node",
      "id": 5292780520,
      "lat": 13.0240502,
      "lon": 77.6373045,
      "tags": {
        "name": "Titan",
        "shop": "watches"
      }
    },
    {
      "type": "node",
      "id": 5292782621,
      "lat": 13.0249618,
      "lon": 77.6369885,
      "tags": {
        "name": "Unlimited",
        "shop": "clothes"
      }
    },
    {
      "type": "node",
      "id": 5292782622,
      "lat": 13.0252646,
      "lon": 77.6369384,
      "tags": {
        "brand": "Bata",
        "brand:wikidata": "Q688082",
        "name": "Bata",
        "name:kn": "ಬಾಟಾ",
        "shop": "shoes"
      }
    },
    {
      "type": "node",
      "id": 5292782623,
      "lat": 13.0254074,
      "lon": 77.6369322,
      "tags": {
        "name": "Arrow",
        "name:kn": "ಅರ್ರೊ",
        "shop": "clothes"
      }
    },
    {
      "type": "node",
      "id": 5294975542,
      "lat": 13.027842,
      "lon": 77.632007,
      "tags": {
        "amenity": "fast_food",
        "name": "Mazeedar Chicken Taste"
      }
    },
    {
      "type": "node",
      "id": 5294975543,
      "lat": 13.0296533,
      "lon": 77.6340958,
      "tags": {
        "amenity": "fast_food",
        "brand": "Domino's",
        "brand:ks": "ڈومینوز",
        "brand:pa": "ਡੋਮੀਨੋਜ਼",
        "brand:ur": "ڈومینوز",
        "brand:wikidata": "Q839466",
        "brand:wikipedia": "en:Domino's Pizza",
        "cuisine": "pizza",
        "name": "Domino's",
        "name:ks": "ڈومینوز",
        "name:pa": "ਡੋਮੀਨੋਜ਼",
        "name:ur": "ڈومینوز",
        "takeaway": "yes"
      }
    },
    {
      "type": "node",
      "id": 5402307948,
      "lat": 13.0256698,
      "lon": 77.6413199,
      "tags": {
        "amenity": "place_of_worship",
        "religion": "hindu"
      }
    },
    {
      "type": "node",
      "id": 5486846121,
      "lat": 13.0224106,
      "lon": 77.6397927,
      "tags": {
        "addr:postcode": "560043",
        "addr:street": "5th Main Road",
        "amenity": "restaurant",
        "check_date": "2025-03-31",
        "cuisine": "burger;breakfast",
        "name": "Truffles",
        "name:en": "Truffles",
        "name:hi": "टृफ्फलस"
      }
    },
    {
      "type": "node",
      "id": 5964486007,
      "lat": 13.0240792,
      "lon": 77.6370348,
      "tags": {
        "amenity": "restaurant",
        "cuisine": "barbecue",
        "name": "Churrascaria Brazil"
      }
    },
    {
      "type": "node",
      "id": 6175812290,
      "lat": 13.0278016,
      "lon": 77.6310134,
      "tags": {
        "amenity": "restaurant",
        "cuisine": "Kerala",
        "delivery": "no",
        "name": "Kerala Mess",
        "opening_hours": "08:00-22:30",
        "outdoor_seating": "no",
        "smoking": "no",
        "takeaway": "yes"
      }
    },
    {
      "type": "node",
      "id": 6175815458,
      "lat": 13.0280598,
      "lon": 77.6305509,
      "tags": {
        "name": "Family Store",
        "shop": "convenience"
      }
    },
    {
      "type": "node",
      "id": 6175816263,
      "lat": 13.0282133,
      "lon": 77.6306485,
      "tags": {
        "amenity": "college",
        "name": "Teacher's Academy Degree College"
      }
    },
    {
      "type": "node",
      "id": 6175818519,
      "lat": 13.0280091,
      "lon": 77.6307136,
      "tags": {
        "name": "Men's Salon",
        "shop": "hairdresser"
      }
    },
    {
      "type": "node",
      "id": 6175819234,
      "lat": 13.0280434,
      "lon": 77.6306076,
      "tags": {
        "name": "Beauty Parlour",
        "shop": "beauty"
      }
    },
    {
      "type": "node",
      "id": 6175824245,
      "lat": 13.0279504,
      "lon": 77.6305051,
      "tags": {
        "amenity": "cafe",
        "name": "Local Cafe"
      }
    },
    {
      "type": "node",
      "id": 6175831016,
      "lat": 13.0273505,
      "lon": 77.6317814,
      "tags": {
        "name": "Bramahlingeshwara Tea & Bakery",
        "shop": "tea"
      }
    },
    {
      "type": "node",
      "id": 6175841448,
      "lat": 13.0274391,
      "lon": 77.6315682,
      "tags": {
        "name": "Men's Salon",
        "shop": "hairdresser"
      }
    },
    {
      "type": "node",
      "id": 6175841449,
      "lat": 13.027668,
      "lon": 77.6317352,
      "tags": {
        "name": "Women's Beauty Parlour",
        "shop": "beauty"
      }
    },
    {
      "type": "node",
      "id": 6176696740,
      "lat": 13.0289017,
      "lon": 77.6309524,
      "tags": {
        "amenity": "place_of_worship",
        "denomination": "assemblies_of_god",
        "name": "Springfield A.G. Church",
        "religion": "christian"
      }
    },
    {
      "type": "node",
      "id": 6176696741,
      "lat": 13.0274673,
      "lon": 77.6319806,
      "tags": {
        "amenity": "place_of_worship",
        "denomination": "catholic",
        "name": "St. Mary’s Malankara Catholic Church",
        "religion": "christian"
      }
    },
    {
      "type": "node",
      "id": 6939311791,
      "lat": 13.0373572,
      "lon": 77.6409059,
      "tags": {
        "addr:district": "Bengaluru Urban",
        "addr:full": "#3/666, Hennur Bande,Hennur Main Road, Kalayan Nagar Post,International Link Road",
        "addr:postcode": "560043",
        "addr:state": "Karnataka",
        "amenity": "hospital",
        "name": "Shree Vijayalakshmi Hospital and Trauma Centre",
        "source": "OpenGovernmentData"
      }
    },
    {
      "type": "node",
      "id": 6939528387,
      "lat": 13.0278278,
      "lon": 77.629825,
      "tags": {
        "addr:district": "Bengaluru Urban",
        "addr:full": "No. 1753, Shivaramaiah Layout, 6Th Cross, Kalyan Nagar",
        "addr:postcode": "560043",
        "addr:state": "Karnataka",
        "amenity": "clinic",
        "name": "Faran Health Care Centre",
        "source": "OpenGovernmentData"
      }
    },
    {
      "type": "node",
      "id": 6944095845,
      "lat": 13.0241341,
      "lon": 77.6335546,
      "tags": {
        "addr:district": "Bengaluru Urban",
        "addr:full": "#205-4c, 4th Cross, 3 Road Block",
        "addr:postcode": "560043",
        "addr:state": "Karnataka",
        "addr:subdistrict": "Banaswadi",
        "amenity": "hospital",
        "name": "Vasan Eye Care Hospital, Banaswadi",
        "operator:type": "private",
        "source": "OpenGovernmentData",
        "website": "http://www.vasaneye.in/"
      }
    },
    {
      "type": "node",
      "id": 6944392376,
      "lat": 13.0221036,
      "lon": 77.6387729,
      "tags": {
        "addr:district": "Bengaluru Urban",
        "addr:full": "#4 Ac-426,4Thcross,2nd Block, Oop.Kalyana Nagar,Telephone Exchange",
        "addr:postcode": "560043",
        "addr:state": "Karnataka",
        "amenity": "hospital",
        "name": "Bangalore Eye Hospital And Retina Centre",
        "source": "OpenGovernmentData"
      }
    },
    {
      "type": "node",
      "id": 6947499708,
      "lat": 13.0328036,
      "lon": 77.633289,
      "tags": {
        "addr:district": "Bengaluru Urban",
        "addr:full": "#1,9 Cross 9 Main Hennur Cross, Kalyan Nagar Post",
        "addr:postcode": "560043",
        "addr:state": "Karnataka",
        "amenity": "hospital",
        "name": "Good Shepherd Hospital",
        "source": "OpenGovernmentData"
      }
    },
    {
      "type": "node",
      "id": 6947540185,
      "lat": 13.0207335,
      "lon": 77.636475,
      "tags": {
        "addr:housenumber": "141",
        "addr:postcode": "560084",
        "addr:street": "3rd Cross Road",
        "amenity": "community_centre",
        "name": "ಟ್ರಿನಿಟಿ ಪಾರ್ಟಿ ಹಾಲ್",
        "name:en": "Trinity Party Hall",
        "name:hi": "Trinity Party Hall",
        "phone": "+919535491991"
      }
    },
    {
      "type": "node",
      "id": 6956584485,
      "lat": 13.021546,
      "lon": 77.6372002,
      "tags": {
        "amenity": "bureau_de_change",
        "name": "Currency Exchange, Western Union"
      }
    },
    {
      "type": "node",
      "id": 6956587195,
      "lat": 13.0213499,
      "lon": 77.6371042,
      "tags": {
        "amenity": "dentist",
        "name": "Care Dental Clinic",
        "note": "“Care” Dental Clinic"
      }
    },
    {
      "type": "node",
      "id": 6960201789,
      "lat": 13.0207823,
      "lon": 77.636101,
      "tags": {
        "amenity": "bureau_de_change",
        "name": "Currency Exchange, Western Union"
      }
    },
    {
      "type": "node",
      "id": 7164731974,
      "lat": 13.0228,
      "lon": 77.6398442,
      "tags": {
        "amenity": "restaurant",
        "cuisine": "arabic",
        "name": "Maraheb Restaurant - Mandi & Madfoon"
      }
    },
    {
      "type": "node",
      "id": 7164771196,
      "lat": 13.0239905,
      "lon": 77.6430942,
      "tags": {
        "amenity": "restaurant",
        "cuisine": "indian;arab",
        "name": "Imperio"
      }
    },
    {
      "type": "node",
      "id": 7206004834,
      "lat": 13.024534,
      "lon": 77.6418448,
      "tags": {
        "amenity": "restaurant",
        "cuisine": "regional",
        "name": "Royal Andhra Spice"
      }
    },
    {
      "type": "node",
      "id": 7206004835,
      "lat": 13.0238518,
      "lon": 77.6431395,
      "tags": {
        "amenity": "restaurant",
        "check_date": "2024-02-14",
        "diet:vegetarian": "yes",
        "name": "White Garden"
      }
    },
    {
      "type": "node",
      "id": 7206004836,
      "lat": 13.0228092,
      "lon": 77.643102,
      "tags": {
        "addr:city": "Bangalore",
        "addr:country": "IN",
        "addr:hamlet": "HRBR Layout",
        "addr:housenumber": "415",
        "addr:postcode": "560043",
        "addr:street": "7th Main Road",
        "addr:suburb": "Kalyan Nagar",
        "name": "O2 Spa",
        "shop": "massage",
        "website": "https://www.o2spa.org/"
      }
    },
    {
      "type": "node",
      "id": 7206004849,
      "lat": 13.0225688,
      "lon": 77.6435164,
      "tags": {
        "addr:city": "Bangalore",
        "addr:country": "IN",
        "addr:hamlet": "HRBR Layout",
        "addr:postcode": "560043",
        "addr:street": "7th Main Road",
        "addr:suburb": "Kalyan Nagar",
        "amenity": "pub",
        "indoor_seating": "yes",
        "name": "Float Brewery",
        "outdoor_seating": "no"
      }
    },
    {
      "type": "node",
      "id": 7206360782,
      "lat": 13.0258627,
      "lon": 77.6376128,
      "tags": {
        "name": "FBB",
        "shop": "clothes",
        "website": "https://www.fbbindia.in"
      }
    },
    {
      "type": "node",
      "id": 7208904028,
      "lat": 13.030763,
      "lon": 77.6350379,
      "tags": {
        "brand": "Bata",
        "brand:wikidata": "Q688082",
        "name": "Bata",
        "name:kn": "ಬಾಟಾ",
        "shop": "shoes"
      }
    },
    {
      "type": "node",
      "id": 7208904029,
      "lat": 13.0309192,
      "lon": 77.635178,
      "tags": {
        "name": "Sri Kanhiya Sweets",
        "shop": "confectionery"
      }
    },
    {
      "type": "node",
      "id": 7208904030,
      "lat": 13.0314444,
      "lon": 77.6355824,
      "tags": {
        "name": "YLG",
        "shop": "beauty"
      }
    },
    {
      "type": "node",
      "id": 7208904031,
      "lat": 13.0314059,
      "lon": 77.6355596,
      "tags": {
        "amenity": "bank",
        "atm": "yes",
        "brand": "State Bank of India",
        "brand:wikidata": "Q1340361",
        "name": "State Bank of India",
        "name:kn": "ಭಾರತೀಯ ಸ್ಟೇಟ್ ಬ್ಯಾಂಕ್",
        "operator": "State Bank of India",
        "short_name": "SBI"
      }
    },
    {
      "type": "node",
      "id": 7208904034,
      "lat": 13.0334461,
      "lon": 77.6374519,
      "tags": {
        "addr:city": "Bangalore",
        "addr:postcode": "560043",
        "addr:street": "Hennuru - Bagaluru Road",
        "brand": "DMart",
        "brand:wikidata": "Q5203271",
        "check_date": "2025-07-03",
        "name": "DMart",
        "opening_hours": "08:00-22:00",
        "organic": "yes",
        "payment:cash": "yes",
        "payment:credit_cards": "yes",
        "payment:debit_cards": "yes",
        "payment:upi": "yes",
        "shop": "supermarket",
        "website": "https://www.spencers.in/"
      }
    },
    {
      "type": "node",
      "id": 7208904131,
      "lat": 13.0371998,
      "lon": 77.6414484,
      "tags": {
        "amenity": "place_of_worship",
        "religion": "hindu"
      }
    },
    {
      "type": "node",
      "id": 7216399004,
      "lat": 13.0334957,
      "lon": 77.6297419,
      "tags": {
        "name": "Ajfan Dates and Nuts",
        "shop": "convenience"
      }
    },
    {
      "type": "node",
      "id": 7216399005,
      "lat": 13.0324642,
      "lon": 77.6295514,
      "tags": {
        "amenity": "bench",
        "backrest": "yes"
      }
    },
    {
      "type": "node",
      "id": 7216399006,
      "lat": 13.0326713,
      "lon": 77.6294374,
      "tags": {
        "amenity": "bench",
        "backrest": "yes"
      }
    },
    {
      "type": "node",
      "id": 7216399022,
      "lat": 13.0299406,
      "lon": 77.630851,
      "tags": {
        "amenity": "fast_food",
        "name": "Malabar Food Court"
      }
    },
    {
      "type": "node",
      "id": 7256979593,
      "lat": 13.0282093,
      "lon": 77.6330852,
      "tags": {
        "access": "yes",
        "amenity": "toilets"
      }
    },
    {
      "type": "node",
      "id": 7256979594,
      "lat": 13.0291984,
      "lon": 77.6342265,
      "tags": {
        "amenity": "cafe",
        "name": "Juice n Cream"
      }
    },
    {
      "type": "node",
      "id": 7256979595,
      "lat": 13.0313347,
      "lon": 77.6354054,
      "tags": {
        "name": "PP Hardware",
        "shop": "houseware"
      }
    },
    {
      "type": "node",
      "id": 7256979614,
      "lat": 13.0318573,
      "lon": 77.6356454,
      "tags": {
        "name": "Optic Nest",
        "shop": "optician"
      }
    },
    {
      "type": "node",
      "id": 7256979615,
      "lat": 13.0319383,
      "lon": 77.636371,
      "tags": {
        "amenity": "place_of_worship",
        "religion": "hindu"
      }
    },
    {
      "type": "node",
      "id": 7256979616,
      "lat": 13.0327967,
      "lon": 77.6366258,
      "tags": {
        "amenity": "atm",
        "brand": "Andhra Bank",
        "brand:wikidata": "Q2003476",
        "name": "Andhra Bank",
        "name:kn": "ಆಂಧ್ರ ಬ್ಯಾಂಕ್",
        "operator": "Andhra Bank",
        "operator:wikidata": "Q2003476"
      }
    },
    {
      "type": "node",
      "id": 7256979617,
      "lat": 13.0321291,
      "lon": 77.6366056,
      "tags": {
        "amenity": "bank",
        "atm": "yes",
        "brand": "ICICI Bank",
        "brand:wikidata": "Q1653258",
        "name": "ICICI Bank",
        "name:kn": "ಐಸಿಐಸಿಐ ಬ್ಯಾಂಕು",
        "operator": "ICICI Bank",
        "short_name": "ICICI"
      }
    },
    {
      "type": "node",
      "id": 7256979618,
      "lat": 13.0335702,
      "lon": 77.6378757,
      "tags": {
        "amenity": "dentist",
        "name": "Sri Maatha Dental Care"
      }
    },
    {
      "type": "node",
      "id": 7256979619,
      "lat": 13.0336982,
      "lon": 77.6385516,
      "tags": {
        "amenity": "bank",
        "atm": "yes",
        "brand": "IndusInd Bank",
        "brand:wikidata": "Q2040323",
        "name": "IndusInd Bank",
        "operator": "IndusInd Bank"
      }
    },
    {
      "type": "node",
      "id": 7256979620,
      "lat": 13.0337897,
      "lon": 77.6387407,
      "tags": {
        "name": "Adishwar",
        "name:kn": "ಅದಿಶ್ವರ್",
        "shop": "electronics"
      }
    },
    {
      "type": "node",
      "id": 7256979621,
      "lat": 13.0339164,
      "lon": 77.638852,
      "tags": {
        "name": "Jockey",
        "name:kn": "ಜಾಕೀ",
        "shop": "clothes"
      }
    },
    {
      "type": "node",
      "id": 7256979625,
      "lat": 13.036817,
      "lon": 77.6411768,
      "tags": {
        "access": "yes",
        "amenity": "toilets"
      }
    },
    {
      "type": "node",
      "id": 7256979626,
      "lat": 13.0376649,
      "lon": 77.6415691,
      "tags": {
        "name": "Yofee Beauty Salon",
        "shop": "beauty"
      }
    },
    {
      "type": "node",
      "id": 7256985360,
      "lat": 13.0313707,
      "lon": 77.6307517,
      "tags": {
        "brand": "Mahindra",
        "name": "Mahindra",
        "name:kn": "ಮಹಿಂದ್ರ",
        "shop": "motorcycle"
      }
    },
    {
      "type": "node",
      "id": 7577248227,
      "lat": 13.0283463,
      "lon": 77.6298629,
      "tags": {
        "addr:district": "Bengaluru Urban",
        "addr:full": "HBR Layout, Bengaluru",
        "addr:postcode": "560043",
        "addr:state": "Karnataka",
        "amenity": "hospital",
        "name": "Medicure Hospital",
        "source": "Local Knowledge"
      }
    },
    {
      "type": "node",
      "id": 7577248233,
      "lat": 13.0242614,
      "lon": 77.6331389,
      "tags": {
        "addr:district": "Bengaluru Urban",
        "addr:full": "HRBR Layout, Subbaiyapalya, Banaswadi, Bengaluru",
        "addr:postcode": "560043",
        "addr:state": "Karnataka",
        "amenity": "clinic",
        "name": "Vasan Eye Care",
        "source": "Local Knowledge"
      }
    },
    {
      "type": "node",
      "id": 7577248234,
      "lat": 13.0225994,
      "lon": 77.6398654,
      "tags": {
        "addr:district": "Bengaluru Urban",
        "addr:full": "HRBR Layout, Kalyan Nagar, Bengaluru",
        "addr:postcode": "560043",
        "addr:state": "Karnataka",
        "amenity": "clinic",
        "name": "Trinity Gastroenterology & Diagnostics",
        "source": "Local Knowledge"
      }
    },
    {
      "type": "node",
      "id": 7577248246,
      "lat": 13.0263661,
      "lon": 77.6302142,
      "tags": {
        "addr:district": "Bengaluru Urban",
        "addr:full": "HBR Layout, Kalyan Nagar, Bengaluru",
        "addr:postcode": "560043",
        "addr:state": "Karnataka",
        "amenity": "hospital",
        "name": "Feran Hospital",
        "source": "Local Knowledge"
      }
    },
    {
      "type": "node",
      "id": 7577248253,
      "lat": 13.023088,
      "lon": 77.637015,
      "tags": {
        "addr:district": "Bengaluru Urban",
        "addr:full": "Kalyan Nagar, Bengaluru",
        "addr:postcode": "560043",
        "addr:state": "Karnataka",
        "amenity": "clinic",
        "name": "Contura Clinic",
        "source": "Local Knowledge"
      }
    },
    {
      "type": "node",
      "id": 7577248256,
      "lat": 13.0244866,
      "lon": 77.6396472,
      "tags": {
        "addr:district": "Bengaluru Urban",
        "addr:full": "HRBR Layout, Kalyan Nagar, Bengaluru",
        "addr:postcode": "560043",
        "addr:state": "Karnataka",
        "amenity": "clinic",
        "name": "Dr. Harsha's physiotherapy Clinic",
        "source": "Local Knowledge"
      }
    },
    {
      "type": "node",
      "id": 7577248257,
      "lat": 13.0227961,
      "lon": 77.6425472,
      "tags": {
        "addr:district": "Bengaluru Urban",
        "addr:full": "HRBR Layout, Kalyan Nagar, Bengaluru",
        "addr:postcode": "560043",
        "addr:state": "Karnataka",
        "amenity": "clinic",
        "name": "Kalyan Eye Clinic",
        "source": "Local Knowledge"
      }
    },
    {
      "type": "node",
      "id": 7577248267,
      "lat": 13.0239222,
      "lon": 77.6333307,
      "tags": {
        "addr:district": "Bengaluru Urban",
        "addr:full": "Kalyan Nagar, Bengaluru",
        "addr:postcode": "560043",
        "addr:state": "Karnataka",
        "amenity": "clinic",
        "name": "Bangalore Spine Specialist Clinic",
        "source": "Local Knowledge"
      }
    },
    {
      "type": "node",
      "id": 7577248272,
      "lat": 13.029482,
      "lon": 77.630649,
      "tags": {
        "addr:district": "Bengaluru Urban",
        "addr:full": "HBR Layout, Bengaluru",
        "addr:postcode": "560043",
        "addr:state": "Karnataka",
        "amenity": "clinic",
        "name": "Reachh Homeopathy Clinic",
        "source": "Local Knowledge"
      }
    },
    {
      "type": "node",
      "id": 7577248282,
      "lat": 13.0242926,
      "lon": 77.634427,
      "tags": {
        "addr:district": "Bengaluru Urban",
        "addr:full": "Kalyan Nagar, Bengaluru",
        "addr:postcode": "560043",
        "addr:state": "Karnataka",
        "amenity": "clinic",
        "name": "Synovium Physiotherapy Clinic",
        "source": "Local Knowledge"
      }
    },
    {
      "type": "node",
      "id": 7577248284,
      "lat": 13.0241668,
      "lon": 77.6369165,
      "tags": {
        "addr:district": "Bengaluru Urban",
        "addr:full": "HRBR Layout, Kalyan Nagar, Bengaluru",
        "addr:postcode": "560043",
        "addr:state": "Karnataka",
        "amenity": "clinic",
        "name": "Cloudnine Fertility",
        "source": "Local Knowledge"
      }
    },
    {
      "type": "node",
      "id": 7577248285,
      "lat": 13.0227998,
      "lon": 77.6374429,
      "tags": {
        "addr:district": "Bengaluru Urban",
        "addr:full": "Kammanahalli, Bengaluru",
        "addr:postcode": "560043",
        "addr:state": "Karnataka",
        "amenity": "clinic",
        "name": "V Care Best Fertility IVF URO Kidney Centre",
        "source": "Local Knowledge"
      }
    },
    {
      "type": "node",
      "id": 9527967719,
      "lat": 13.0232822,
      "lon": 77.6396339,
      "tags": {
        "amenity": "restaurant",
        "cuisine": "regional",
        "name": "Sharief Bhai"
      }
    },
    {
      "type": "node",
      "id": 9527967797,
      "lat": 13.0332592,
      "lon": 77.6297969,
      "tags": {
        "name": "Furniture Store",
        "shop": "furniture"
      }
    },
    {
      "type": "node",
      "id": 9527967818,
      "lat": 13.0300261,
      "lon": 77.6344451,
      "tags": {
        "amenity": "restaurant",
        "name": "Dilawar"
      }
    },
    {
      "type": "node",
      "id": 9527967819,
      "lat": 13.0318704,
      "lon": 77.6359083,
      "tags": {
        "name": "Ayurcentral",
        "shop": "general"
      }
    },
    {
      "type": "node",
      "id": 9527967824,
      "lat": 13.0327588,
      "lon": 77.6369637,
      "tags": {
        "shop": "greengrocer"
      }
    },
    {
      "type": "node",
      "id": 9527967825,
      "lat": 13.0369228,
      "lon": 77.6408207,
      "tags": {
        "amenity": "fast_food",
        "cuisine": "chinese",
        "name": "Chinese Bowl"
      }
    },
    {
      "type": "node",
      "id": 9912823298,
      "lat": 13.0339809,
      "lon": 77.6389007,
      "tags": {
        "name": "Skechers",
        "shop": "shoes"
      }
    },
    {
      "type": "node",
      "id": 10302703781,
      "lat": 13.0216515,
      "lon": 77.6416723,
      "tags": {
        "amenity": "fast_food",
        "brand": "Popeyes",
        "brand:wikidata": "Q1330910",
        "brand:wikipedia": "en:Popeyes",
        "cuisine": "chicken",
        "delivery": "yes",
        "name": "Popeyes",
        "official_name": "Popeyes Louisiana Kitchen",
        "takeaway": "yes",
        "website": "https://www.popeyes.in/",
        "wikipedia": "en:Popeyes Louisiana Kitchen"
      }
    },
    {
      "type": "node",
      "id": 10303904024,
      "lat": 13.0249984,
      "lon": 77.6407176,
      "tags": {
        "amenity": "bank",
        "atm": "yes",
        "brand": "IDFC First Bank",
        "brand:wikidata": "Q22031467",
        "check_date": "2023-01-04",
        "name": "IDFC First Bank",
        "source": "survey"
      }
    },
    {
      "type": "node",
      "id": 10571097431,
      "lat": 13.0253198,
      "lon": 77.6375964,
      "tags": {
        "addr:city": "Bengaluru",
        "addr:housenumber": "5C, 402/C",
        "addr:postcode": "560043",
        "addr:street": "HRBR Layout 2nd Block, Kalyan Nagar",
        "name": "Rynox Showroom HRBR Layout",
        "opening_hours": "Mo-Su 11:00-20:00",
        "phone": "09742944234",
        "shop": "motorcycle"
      }
    },
    {
      "type": "node",
      "id": 10574709767,
      "lat": 13.0302149,
      "lon": 77.6313257,
      "tags": {
        "brand": "Hyundai",
        "shop": "car"
      }
    },
    {
      "type": "node",
      "id": 10687892756,
      "lat": 13.0305597,
      "lon": 77.6391018,
      "tags": {
        "name": "Kwality Super Bazar",
        "shop": "convenience"
      }
    },
    {
      "type": "node",
      "id": 10731175098,
      "lat": 13.0253034,
      "lon": 77.6398209,
      "tags": {
        "name": "Splashy Fin",
        "shop": "pet"
      }
    },
    {
      "type": "node",
      "id": 10731175104,
      "lat": 13.0249501,
      "lon": 77.6400286,
      "tags": {
        "amenity": "fast_food",
        "cuisine": "pizza",
        "name": "Pizzaa Chef"
      }
    },
    {
      "type": "node",
      "id": 10731175603,
      "lat": 13.0234488,
      "lon": 77.6442434,
      "tags": {
        "amenity": "bar",
        "name": "House of Commons"
      }
    },
    {
      "type": "node",
      "id": 10731190951,
      "lat": 13.0241762,
      "lon": 77.6397077,
      "tags": {
        "amenity": "restaurant",
        "name": "Kailash Parabat"
      }
    },
    {
      "type": "node",
      "id": 10731190952,
      "lat": 13.0239384,
      "lon": 77.6399604,
      "tags": {
        "amenity": "restaurant",
        "name": "Food Heaven"
      }
    },
    {
      "type": "node",
      "id": 10731190994,
      "lat": 13.0223543,
      "lon": 77.6395327,
      "tags": {
        "name": "Karachi Bakery",
        "shop": "bakery"
      }
    },
    {
      "type": "node",
      "id": 10731190995,
      "lat": 13.0222216,
      "lon": 77.6394955,
      "tags": {
        "amenity": "ice_cream",
        "brand": "Naturals",
        "brand:wikidata": "Q24439154",
        "cuisine": "ice_cream",
        "name": "Naturals"
      }
    },
    {
      "type": "node",
      "id": 10731190996,
      "lat": 13.0221636,
      "lon": 77.6395019,
      "tags": {
        "name": "Lenzkare",
        "shop": "optician"
      }
    },
    {
      "type": "node",
      "id": 10731190997,
      "lat": 13.0218548,
      "lon": 77.6396997,
      "tags": {
        "amenity": "cafe",
        "brand": "Chaayos",
        "brand:wikidata": "Q117235235",
        "cuisine": "tea",
        "name": "Chaayos",
        "takeaway": "yes"
      }
    },
    {
      "type": "node",
      "id": 10731190998,
      "lat": 13.0218029,
      "lon": 77.639821,
      "tags": {
        "amenity": "cafe",
        "cuisine": "coffee_shop",
        "name": "Third Wave Coffee"
      }
    },
    {
      "type": "node",
      "id": 10731191003,
      "lat": 13.0229947,
      "lon": 77.639568,
      "tags": {
        "amenity": "pub",
        "name": "Sherlocks"
      }
    },
    {
      "type": "node",
      "id": 10731191004,
      "lat": 13.0230512,
      "lon": 77.6394769,
      "tags": {
        "amenity": "restaurant",
        "cuisine": "pizza",
        "name": "The Pizza Bakery"
      }
    },
    {
      "type": "node",
      "id": 10731191005,
      "lat": 13.0229883,
      "lon": 77.6394968,
      "tags": {
        "amenity": "restaurant",
        "name": "Bamboos"
      }
    },
    {
      "type": "node",
      "id": 10731191010,
      "lat": 13.0228447,
      "lon": 77.6393593,
      "tags": {
        "amenity": "cafe",
        "name": "The Coffee Room"
      }
    },
    {
      "type": "node",
      "id": 10770523198,
      "lat": 13.0227055,
      "lon": 77.6435679,
      "tags": {
        "amenity": "cafe",
        "delivery": "yes",
        "name": "Glen's Bakehouse",
        "takeaway": "yes"
      }
    },
    {
      "type": "node",
      "id": 10892555782,
      "lat": 13.0241171,
      "lon": 77.6332609,
      "tags": {
        "name": "yamaha music square",
        "shop": "musical_instrument"
      }
    },
    {
      "type": "node",
      "id": 10892603777,
      "lat": 13.024185,
      "lon": 77.6334554,
      "tags": {
        "amenity": "fast_food",
        "name": "SLV Food Joint"
      }
    },
    {
      "type": "node",
      "id": 11117270550,
      "lat": 13.0223754,
      "lon": 77.643519,
      "tags": {
        "amenity": "cafe",
        "name": "Glen's Bakehouse",
        "shop": "bakery"
      }
    },
    {
      "type": "node",
      "id": 11348674809,
      "lat": 13.025011,
      "lon": 77.640714,
      "tags": {
        "amenity": "atm",
        "name": "IDFC bank ATM"
      }
    },
    {
      "type": "node",
      "id": 11348726232,
      "lat": 13.0319607,
      "lon": 77.6435697,
      "tags": {
        "amenity": "atm",
        "name": "HDFC bank ATM"
      }
    },
    {
      "type": "node",
      "id": 11622375962,
      "lat": 13.0268329,
      "lon": 77.6369701,
      "tags": {
        "amenity": "cafe",
        "brand": "Cafe Coffee Day",
        "brand:wikidata": "Q5017235",
        "check_date": "2024-02-14",
        "cuisine": "coffee_shop",
        "name": "Cafe Coffee Day",
        "name:kn": "ಕಫೆ ಕಾಫಿ ಡೇ",
        "takeaway": "yes"
      }
    },
    {
      "type": "node",
      "id": 11653355869,
      "lat": 13.02084,
      "lon": 77.63612,
      "tags": {
        "amenity": "atm"
      }
    },
    {
      "type": "node",
      "id": 11917222410,
      "lat": 13.0245442,
      "lon": 77.6310853,
      "tags": {
        "amenity": "place_of_worship",
        "check_date": "2024-05-19",
        "religion": "hindu"
      }
    },
    {
      "type": "node",
      "id": 11917222411,
      "lat": 13.0255533,
      "lon": 77.6313982,
      "tags": {
        "amenity": "bank",
        "brand": "State Bank of India",
        "brand:wikidata": "Q1340361",
        "check_date": "2024-05-19",
        "name": "State Bank of India",
        "short_name": "SBI"
      }
    },
    {
      "type": "node",
      "id": 12045522269,
      "lat": 13.0313936,
      "lon": 77.6355645,
      "tags": {
        "addr:district": "Bengaluru",
        "addr:housenumber": "404A",
        "addr:street": "Hennuru - Bagaluru Road",
        "amenity": "doctors",
        "name": "TridENT Cares ENT Super Speciality Centre"
      }
    },
    {
      "type": "node",
      "id": 12129014446,
      "lat": 13.0247795,
      "lon": 77.639721,
      "tags": {
        "amenity": "cafe",
        "name": "Roastea",
        "takeaway": "yes",
        "toilets:access": "customers",
        "website": "https://roastea.in/"
      }
    },
    {
      "type": "node",
      "id": 12383609118,
      "lat": 13.0238135,
      "lon": 77.6396648,
      "tags": {
        "addr:housenumber": "66",
        "addr:street": "5th Main Road",
        "check_date": "2024-11-29",
        "contact:instagram": "https://www.instagram.com/bombaygourmetblr",
        "name": "Bombay Gourmet Market",
        "shop": "supermarket",
        "website": "https://bombaygourmetmarket.com"
      }
    },
    {
      "type": "node",
      "id": 12450999453,
      "lat": 13.0328536,
      "lon": 77.6300149,
      "tags": {
        "brand": "Nissan",
        "brand:wikidata": "Q20165",
        "check_date": "2024-12-25",
        "name": "Nissan",
        "shop": "car"
      }
    },
    {
      "type": "node",
      "id": 12450999454,
      "lat": 13.028729,
      "lon": 77.6320864,
      "tags": {
        "amenity": "restaurant",
        "check_date": "2024-12-25",
        "name": "Central Flavors"
      }
    },
    {
      "type": "node",
      "id": 12450999455,
      "lat": 13.0298092,
      "lon": 77.6341452,
      "tags": {
        "amenity": "fast_food",
        "brand": "Subway",
        "brand:wikidata": "Q244457",
        "check_date": "2024-12-25",
        "cuisine": "sandwich",
        "name": "Subway",
        "takeaway": "yes"
      }
    },
    {
      "type": "node",
      "id": 12450999456,
      "lat": 13.0308263,
      "lon": 77.63508,
      "tags": {
        "check_date": "2024-12-25",
        "shop": "greengrocer"
      }
    },
    {
      "type": "node",
      "id": 12450999457,
      "lat": 13.0340054,
      "lon": 77.6383349,
      "tags": {
        "amenity": "cafe",
        "check_date": "2024-12-25",
        "name": "Coffee Mechanics"
      }
    },
    {
      "type": "node",
      "id": 12450999458,
      "lat": 13.0368673,
      "lon": 77.6405129,
      "tags": {
        "amenity": "place_of_worship",
        "check_date": "2024-12-25",
        "religion": "hindu"
      }
    },
    {
      "type": "node",
      "id": 12632035873,
      "lat": 13.0225479,
      "lon": 77.6375417,
      "tags": {
        "amenity": "restaurant",
        "name": "Sree Godavari Ruchulu"
      }
    },
    {
      "type": "node",
      "id": 12632074305,
      "lat": 13.0222643,
      "lon": 77.6383156,
      "tags": {
        "amenity": "cafe",
        "brand": "Chai Point",
        "brand:wikidata": "Q28173415",
        "cuisine": "coffee_shop",
        "name": "Chai Point",
        "takeaway": "yes"
      }
    },
    {
      "type": "node",
      "id": 12632074306,
      "lat": 13.022525,
      "lon": 77.6374982,
      "tags": {
        "amenity": "cafe",
        "name": "The Dome Cafe"
      }
    },
    {
      "type": "node",
      "id": 12632074307,
      "lat": 13.0223666,
      "lon": 77.6380289,
      "tags": {
        "amenity": "restaurant",
        "name": "The King of Taste"
      }
    },
    {
      "type": "node",
      "id": 12632074308,
      "lat": 13.0223907,
      "lon": 77.6379343,
      "tags": {
        "amenity": "restaurant",
        "name": "Zamindar"
      }
    },
    {
      "type": "node",
      "id": 12632074313,
      "lat": 13.0227138,
      "lon": 77.6379354,
      "tags": {
        "amenity": "cafe",
        "name": "The Rustic Roots"
      }
    },
    {
      "type": "node",
      "id": 12632074314,
      "lat": 13.0229627,
      "lon": 77.6374453,
      "tags": {
        "amenity": "fast_food",
        "brand": "Burger King",
        "brand:wikidata": "Q177054",
        "check_date": "2025-06-21",
        "cuisine": "burger",
        "name": "Burger King",
        "takeaway": "yes"
      }
    },
    {
      "type": "node",
      "id": 12632074315,
      "lat": 13.0229725,
      "lon": 77.6368725,
      "tags": {
        "amenity": "fast_food",
        "name": "Chickpet Donne Biryani House"
      }
    },
    {
      "type": "node",
      "id": 12657078828,
      "lat": 13.0260169,
      "lon": 77.6354154,
      "tags": {
        "brand": "Nandini",
        "brand:wikidata": "Q124374212",
        "name": "Nandini",
        "shop": "dairy"
      }
    },
    {
      "type": "node",
      "id": 12696683333,
      "lat": 13.0219716,
      "lon": 77.6399584,
      "tags": {
        "amenity": "fast_food",
        "name": "The Thai Chef Restaurant"
      }
    },
    {
      "type": "node",
      "id": 12696683334,
      "lat": 13.0223009,
      "lon": 77.6395172,
      "tags": {
        "amenity": "fast_food",
        "name": "Gopizza"
      }
    },
    {
      "type": "node",
      "id": 12696683343,
      "lat": 13.0222774,
      "lon": 77.6382465,
      "tags": {
        "brand": "Lenskart",
        "brand:wikidata": "Q17068753",
        "name": "Lenskart",
        "shop": "optician"
      }
    },
    {
      "type": "node",
      "id": 12696683344,
      "lat": 13.0222447,
      "lon": 77.638384,
      "tags": {
        "amenity": "fast_food",
        "brand": "Subway",
        "brand:wikidata": "Q244457",
        "cuisine": "sandwich",
        "name": "Subway",
        "takeaway": "yes"
      }
    },
    {
      "type": "node",
      "id": 12696683352,
      "lat": 13.0224995,
      "lon": 77.6384758,
      "tags": {
        "name": "Shoba Central",
        "shop": "supermarket"
      }
    },
    {
      "type": "node",
      "id": 12696683353,
      "lat": 13.0225165,
      "lon": 77.6383665,
      "tags": {
        "amenity": "fast_food",
        "name": "Khambu Momo's"
      }
    },
    {
      "type": "node",
      "id": 12696683354,
      "lat": 13.0226968,
      "lon": 77.6380762,
      "tags": {
        "name": "Lavie",
        "shop": "bag"
      }
    },
    {
      "type": "node",
      "id": 12696683360,
      "lat": 13.0227628,
      "lon": 77.6377691,
      "tags": {
        "name": "Max",
        "shop": "clothes"
      }
    },
    {
      "type": "node",
      "id": 12715063630,
      "lat": 13.0212414,
      "lon": 77.6415983,
      "tags": {
        "amenity": "pub",
        "check_date": "2025-03-31",
        "name": "The Local"
      }
    },
    {
      "type": "node",
      "id": 12715063631,
      "lat": 13.0215052,
      "lon": 77.640534,
      "tags": {
        "air_conditioning": "yes",
        "amenity": "restaurant",
        "bar": "yes",
        "check_date": "2025-03-31",
        "contact:instagram": "https://www.instagram.com/ilabengaluru",
        "name": "Ila Bengaluru",
        "start_date": "2025-03-30",
        "toilets": "yes"
      }
    },
    {
      "type": "node",
      "id": 12722075584,
      "lat": 13.022113,
      "lon": 77.6388793,
      "tags": {
        "addr:city": "Bangalore",
        "addr:district": "Bengaluru Urban",
        "addr:housenumber": "426",
        "addr:postcode": "560043",
        "addr:street": "CMR Main Rd, 3rd Cross, 2nd Block HRBR Layout, Kalyan nagar",
        "amenity": "clinic",
        "healthcare": "clinic",
        "name": "BOSH Physiotherapy",
        "operator": "Novosalus Technology",
        "operator:type": "private"
      }
    },
    {
      "type": "node",
      "id": 12734401875,
      "lat": 13.0247149,
      "lon": 77.6400121,
      "tags": {
        "amenity": "cafe",
        "cuisine": "coffee_shop",
        "name": "Blue Tokai"
      }
    },
    {
      "type": "node",
      "id": 12734401876,
      "lat": 13.0236402,
      "lon": 77.6396392,
      "tags": {
        "amenity": "fast_food",
        "name": "IDC Kitchen"
      }
    },
    {
      "type": "node",
      "id": 12734401877,
      "lat": 13.0235435,
      "lon": 77.6399329,
      "tags": {
        "amenity": "cafe",
        "name": "Got Tea"
      }
    },
    {
      "type": "node",
      "id": 12734401878,
      "lat": 13.022932,
      "lon": 77.6398592,
      "tags": {
        "amenity": "restaurant",
        "name": "Plan B"
      }
    },
    {
      "type": "node",
      "id": 12734401879,
      "lat": 13.0224355,
      "lon": 77.6395306,
      "tags": {
        "amenity": "restaurant",
        "name": "Koreyaki"
      }
    },
    {
      "type": "node",
      "id": 12734401880,
      "lat": 13.022493,
      "lon": 77.6398122,
      "tags": {
        "amenity": "ice_cream",
        "brand": "Polar Bear",
        "brand:wikidata": "Q124374249",
        "delivery": "yes",
        "name": "Polar Bear",
        "takeaway": "yes"
      }
    },
    {
      "type": "node",
      "id": 12774297319,
      "lat": 13.024283,
      "lon": 77.6332341,
      "tags": {
        "name": "Printo",
        "shop": "copyshop"
      }
    },
    {
      "type": "node",
      "id": 12774297320,
      "lat": 13.0236036,
      "lon": 77.6352605,
      "tags": {
        "amenity": "cafe",
        "cuisine": "coffee_shop",
        "name": "Cafe Azzure"
      }
    },
    {
      "type": "node",
      "id": 12774297321,
      "lat": 13.023827,
      "lon": 77.6362254,
      "tags": {
        "name": "The Sports Point",
        "shop": "sports"
      }
    },
    {
      "type": "node",
      "id": 12774297322,
      "lat": 13.0238741,
      "lon": 77.6362241,
      "tags": {
        "amenity": "cafe",
        "cuisine": "coffee_shop",
        "name": "Store Coffee"
      }
    },
    {
      "type": "node",
      "id": 12809397083,
      "lat": 13.0235762,
      "lon": 77.6396372,
      "tags": {
        "addr:housenumber": "9",
        "addr:street": "5th Main Road",
        "addr:suburb": "Kalyan Nagar",
        "amenity": "restaurant",
        "contact:instagram": "fervorblr",
        "name": "Fervor",
        "website": "https://fervor.in"
      }
    },
    {
      "type": "node",
      "id": 12850106076,
      "lat": 13.0362532,
      "lon": 77.6414745,
      "tags": {
        "amenity": "place_of_worship",
        "religion": "hindu"
      }
    },
    {
      "type": "node",
      "id": 12862846437,
      "lat": 13.0294122,
      "lon": 77.6355935,
      "tags": {
        "amenity": "fast_food",
        "cuisine": "burger",
        "delivery": "yes",
        "name": "Jethro's",
        "takeaway": "yes"
      }
    },
    {
      "type": "node",
      "id": 12862846441,
      "lat": 13.0216922,
      "lon": 77.6400017,
      "tags": {
        "amenity": "fast_food",
        "cuisine": "burger",
        "delivery": "yes",
        "name": "Original Burger Co.",
        "takeaway": "yes"
      }
    },
    {
      "type": "node",
      "id": 12862846456,
      "lat": 13.021995,
      "lon": 77.6399347,
      "tags": {
        "amenity": "fast_food",
        "cuisine": "burger;wings;chicken",
        "delivery": "yes",
        "name": "Big Guys: Wings & More",
        "takeaway": "yes"
      }
    },
    {
      "type": "node",
      "id": 12862846477,
      "lat": 13.0220312,
      "lon": 77.6384962,
      "tags": {
        "amenity": "fast_food",
        "contact:instagram": "goodflippin",
        "cuisine": "burger",
        "delivery": "yes",
        "name": "Good Flippin' Burgers",
        "takeaway": "yes",
        "website": "https://goodflippin.com/"
      }
    },
    {
      "type": "node",
      "id": 12915151600,
      "lat": 13.0311175,
      "lon": 77.6301995,
      "tags": {
        "amenity": "fuel",
        "check_date": "2025-06-14",
        "name": "Gail Gas"
      }
    },
    {
      "type": "node",
      "id": 12927909823,
      "lat": 13.021972,
      "lon": 77.6378266,
      "tags": {
        "addr:city": "Bengaluru",
        "addr:housenumber": "11",
        "addr:postcode": "560043",
        "addr:street": "3rd A Cross Road",
        "addr:suburb": "Kalyan Nagar",
        "amenity": "cafe",
        "contact:instagram": "fuku.coffee.commune",
        "cuisine": "coffee_shop",
        "name": "Fuku Coffee Commune"
      }
    },
    {
      "type": "node",
      "id": 12941784936,
      "lat": 13.0233844,
      "lon": 77.6374387,
      "tags": {
        "brand": "Malabar Gold and Diamonds",
        "brand:wikidata": "Q60748883",
        "check_date": "2025-06-21",
        "name": "Malabar Gold and Diamonds",
        "shop": "jewelry"
      }
    },
    {
      "type": "node",
      "id": 12941784937,
      "lat": 13.0232534,
      "lon": 77.6374358,
      "tags": {
        "brand": "Westside",
        "brand:wikidata": "Q123376384",
        "check_date": "2025-06-21",
        "name": "Westside",
        "shop": "clothes"
      }
    },
    {
      "type": "node",
      "id": 12941834002,
      "lat": 13.0261482,
      "lon": 77.6354229,
      "tags": {
        "amenity": "bench",
        "armrest": "yes",
        "backrest": "yes",
        "material": "stone",
        "seats": "3"
      }
    },
    {
      "type": "node",
      "id": 12941834013,
      "lat": 13.0261251,
      "lon": 77.6354179,
      "tags": {
        "amenity": "bench",
        "armrest": "yes",
        "backrest": "yes",
        "material": "stone",
        "seats": "3"
      }
    },
    {
      "type": "node",
      "id": 12941834015,
      "lat": 13.0262207,
      "lon": 77.6354398,
      "tags": {
        "amenity": "bench",
        "armrest": "yes",
        "backrest": "yes",
        "material": "stone",
        "seats": "3"
      }
    },
    {
      "type": "node",
      "id": 12941834016,
      "lat": 13.0262448,
      "lon": 77.6354468,
      "tags": {
        "amenity": "bench",
        "armrest": "yes",
        "backrest": "yes",
        "material": "stone",
        "seats": "3"
      }
    },
    {
      "type": "node",
      "id": 12941834017,
      "lat": 13.0262688,
      "lon": 77.6354553,
      "tags": {
        "amenity": "bench",
        "armrest": "yes",
        "backrest": "yes",
        "material": "stone",
        "seats": "3"
      }
    },
    {
      "type": "node",
      "id": 12941834018,
      "lat": 13.0262949,
      "lon": 77.6354627,
      "tags": {
        "amenity": "bench",
        "armrest": "yes",
        "backrest": "yes",
        "material": "stone",
        "seats": "3"
      }
    },
    {
      "type": "node",
      "id": 12941834019,
      "lat": 13.026358,
      "lon": 77.6354942,
      "tags": {
        "amenity": "bench",
        "armrest": "yes",
        "backrest": "yes",
        "material": "stone",
        "seats": "3"
      }
    },
    {
      "type": "node",
      "id": 12941834020,
      "lat": 13.0263481,
      "lon": 77.6355251,
      "tags": {
        "amenity": "bench",
        "armrest": "yes",
        "backrest": "yes",
        "material": "stone",
        "seats": "3"
      }
    },
    {
      "type": "node",
      "id": 12941834021,
      "lat": 13.0263358,
      "lon": 77.6355887,
      "tags": {
        "amenity": "bench",
        "armrest": "yes",
        "backrest": "yes",
        "material": "stone",
        "seats": "3"
      }
    },
    {
      "type": "node",
      "id": 12941834022,
      "lat": 13.0263428,
      "lon": 77.635558,
      "tags": {
        "amenity": "waste_basket"
      }
    },
    {
      "type": "node",
      "id": 12941834023,
      "lat": 13.0263298,
      "lon": 77.6356089,
      "tags": {
        "amenity": "bench",
        "armrest": "yes",
        "backrest": "yes",
        "material": "stone",
        "seats": "3"
      }
    },
    {
      "type": "node",
      "id": 12941834024,
      "lat": 13.0261808,
      "lon": 77.6355983,
      "tags": {
        "amenity": "waste_basket"
      }
    },
    {
      "type": "node",
      "id": 12941834025,
      "lat": 13.0262475,
      "lon": 77.6356112,
      "tags": {
        "amenity": "bench",
        "armrest": "yes",
        "backrest": "yes",
        "material": "stone",
        "seats": "3"
      }
    },
    {
      "type": "node",
      "id": 12941834026,
      "lat": 13.0262021,
      "lon": 77.6356027,
      "tags": {
        "amenity": "bench",
        "armrest": "yes",
        "backrest": "yes",
        "material": "stone",
        "seats": "3"
      }
    },
    {
      "type": "node",
      "id": 12941834027,
      "lat": 13.0262621,
      "lon": 77.6356144,
      "tags": {
        "amenity": "waste_basket"
      }
    },
    {
      "type": "node",
      "id": 12941834028,
      "lat": 13.0262587,
      "lon": 77.6354522,
      "tags": {
        "amenity": "waste_basket"
      }
    },
    {
      "type": "node",
      "id": 12941834036,
      "lat": 13.026296,
      "lon": 77.6356189,
      "tags": {
        "amenity": "bench",
        "armrest": "yes",
        "backrest": "yes",
        "material": "stone",
        "seats": "3"
      }
    },
    {
      "type": "node",
      "id": 12941834037,
      "lat": 13.0261724,
      "lon": 77.6354593,
      "tags": {
        "amenity": "waste_basket"
      }
    },
    {
      "type": "node",
      "id": 12941839945,
      "lat": 13.0260584,
      "lon": 77.635549,
      "tags": {
        "leisure": "fitness_station",
        "sport": "fitness"
      }
    },
    {
      "type": "node",
      "id": 12941864577,
      "lat": 13.0258942,
      "lon": 77.6352808,
      "tags": {
        "addr:housenumber": "304",
        "addr:street": "5th A Cross",
        "check_date": "2025-06-21",
        "name": "Gifting Mania",
        "phone": "+91 90197 35125",
        "shop": "gift",
        "wheelchair": "no"
      }
    },
    {
      "type": "node",
      "id": 12941892971,
      "lat": 13.0262527,
      "lon": 77.6357052,
      "tags": {
        "check_date": "2025-06-21",
        "name": "Floating Walls",
        "shop": "furniture"
      }
    },
    {
      "type": "node",
      "id": 12941892972,
      "lat": 13.0261947,
      "lon": 77.6359666,
      "tags": {
        "brand": "Manyavar",
        "brand:wikidata": "Q24906783",
        "check_date": "2025-06-21",
        "name": "Manyavar",
        "shop": "clothes"
      }
    },
    {
      "type": "node",
      "id": 12941892973,
      "lat": 13.0260516,
      "lon": 77.6367126,
      "tags": {
        "brand": "Joyalukkas",
        "brand:wikidata": "Q6297357",
        "check_date": "2025-06-21",
        "name": "Joyalukkas",
        "shop": "jewelry"
      }
    },
    {
      "type": "node",
      "id": 12941892977,
      "lat": 13.0259644,
      "lon": 77.6372059,
      "tags": {
        "brand": "Levi's",
        "brand:wikidata": "Q127962",
        "check_date": "2025-06-21",
        "clothes": "denim;men;women",
        "name": "Levi's",
        "shop": "clothes"
      }
    },
    {
      "type": "node",
      "id": 12941892978,
      "lat": 13.0261052,
      "lon": 77.6374404,
      "tags": {
        "amenity": "drinking_water"
      }
    },
    {
      "type": "node",
      "id": 12941892979,
      "lat": 13.0256146,
      "lon": 77.6386989,
      "tags": {
        "check_date": "2025-06-21",
        "name": "Girias",
        "shop": "electronics"
      }
    },
    {
      "type": "node",
      "id": 12941892980,
      "lat": 13.0255229,
      "lon": 77.6391637,
      "tags": {
        "amenity": "restaurant",
        "check_date": "2025-06-21",
        "name": "Mainland China"
      }
    },
    {
      "type": "node",
      "id": 12941892981,
      "lat": 13.0252988,
      "lon": 77.6400749,
      "tags": {
        "amenity": "fuel",
        "check_date": "2025-06-21",
        "name": "Premier"
      }
    },
    {
      "type": "node",
      "id": 12941892985,
      "lat": 13.0250159,
      "lon": 77.6406472,
      "tags": {
        "check_date": "2025-06-21",
        "name": "Neelkanth",
        "shop": "jewelry"
      }
    },
    {
      "type": "node",
      "id": 12941892986,
      "lat": 13.0248546,
      "lon": 77.6410368,
      "tags": {
        "amenity": "kindergarten",
        "check_date": "2025-06-21",
        "name": "Klay"
      }
    },
    {
      "type": "node",
      "id": 12941892988,
      "lat": 13.0246407,
      "lon": 77.6415589,
      "tags": {
        "brand": "LG",
        "brand:wikidata": "Q162345",
        "check_date": "2025-06-21",
        "name": "LG",
        "shop": "electronics"
      }
    },
    {
      "type": "node",
      "id": 12941901724,
      "lat": 13.0231144,
      "lon": 77.6370424,
      "tags": {
        "addr:floor": "2",
        "check_date": "2025-06-21",
        "level": "1",
        "name": "Straight Salon",
        "shop": "beauty"
      }
    },
    {
      "type": "node",
      "id": 12941906042,
      "lat": 13.026273,
      "lon": 77.6339392,
      "tags": {
        "amenity": "kindergarten",
        "check_date": "2025-06-21",
        "name": "White Petals",
        "operator:type": "private",
        "phone": "+91 72046 87940",
        "preschool": "yes",
        "website": "https://hrbr.whitepetalspreschool.com"
      }
    },
    {
      "type": "node",
      "id": 12941906043,
      "lat": 13.0261611,
      "lon": 77.6342712,
      "tags": {
        "amenity": "studio",
        "check_date": "2025-06-21",
        "name": "Keystone Studio"
      }
    },
    {
      "type": "node",
      "id": 12941906045,
      "lat": 13.0256878,
      "lon": 77.6356886,
      "tags": {
        "addr:floor": "1",
        "addr:housenumber": "312",
        "addr:street": "5th A Cross",
        "check_date": "2025-06-21",
        "email": "starmarketingwholesale@gmail.com",
        "level": "0",
        "name": "SSL Events & Electronics Rental Company",
        "phone": "+91 70258 43909",
        "shop": "rental"
      }
    },
    {
      "type": "node",
      "id": 12941915906,
      "lat": 13.0234346,
      "lon": 77.6374345,
      "tags": {
        "addr:floor": "1",
        "check_date": "2025-06-21",
        "clothes": "women",
        "level": "0",
        "name": "Go Colors!",
        "operator": "Go Colors!",
        "shop": "clothes",
        "wheelchair": "no"
      }
    },
    {
      "type": "node",
      "id": 12941915907,
      "lat": 13.023254,
      "lon": 77.6373861,
      "tags": {
        "amenity": "waste_basket"
      }
    },
    {
      "type": "node",
      "id": 12941915908,
      "lat": 13.0232155,
      "lon": 77.6373909,
      "tags": {
        "amenity": "bench",
        "armrest": "no",
        "backrest": "no",
        "material": "marble",
        "seats": "3"
      }
    },
    {
      "type": "node",
      "id": 12941915909,
      "lat": 13.0233107,
      "lon": 77.6373863,
      "tags": {
        "amenity": "bench",
        "armrest": "no",
        "backrest": "no",
        "material": "marble",
        "seats": "3"
      }
    },
    {
      "type": "node",
      "id": 12941915910,
      "lat": 13.0234006,
      "lon": 77.6370441,
      "tags": {
        "amenity": "fast_food",
        "brand": "Taco Bell",
        "brand:wikidata": "Q752941",
        "check_date": "2025-06-21",
        "cuisine": "tex-mex",
        "name": "Taco Bell",
        "takeaway": "yes"
      }
    },
    {
      "type": "node",
      "id": 12941915911,
      "lat": 13.0233794,
      "lon": 77.6373831,
      "tags": {
        "amenity": "bench",
        "armrest": "no",
        "backrest": "no",
        "material": "marble",
        "seats": "3"
      }
    },
    {
      "type": "node",
      "id": 12941915912,
      "lat": 13.0234461,
      "lon": 77.6373852,
      "tags": {
        "amenity": "waste_basket"
      }
    },
    {
      "type": "node",
      "id": 12941937814,
      "lat": 13.0228354,
      "lon": 77.6367613,
      "tags": {
        "brand": "Nandini",
        "brand:wikidata": "Q124374212",
        "check_date": "2025-06-21",
        "name": "Nandini",
        "shop": "dairy"
      }
    },
    {
      "type": "node",
      "id": 12952263254,
      "lat": 13.0255328,
      "lon": 77.6391048,
      "tags": {
        "brand": "Decathlon",
        "brand:wikidata": "Q509349",
        "name": "Decathlon",
        "shop": "sports"
      }
    },
    {
      "type": "node",
      "id": 12952263259,
      "lat": 13.0259163,
      "lon": 77.6374163,
      "tags": {
        "name": "Kalamandir",
        "shop": "clothes"
      }
    },
    {
      "type": "node",
      "id": 12972768545,
      "lat": 13.0331755,
      "lon": 77.6379657,
      "tags": {
        "addr:city": "Bangalore",
        "addr:housenumber": "487/31/1",
        "addr:postcode": "560043",
        "addr:street": "1st Floor, Balaji Complex",
        "amenity": "bank",
        "atm": "no",
        "branch": "Kalyan nagar",
        "brand": "HDFC Bank",
        "brand:wikidata": "Q631047",
        "check_date": "2025-07-03",
        "name": "HDFC Bank",
        "opening_hours": "Mo-Sa 10:00-16:00; Sa[2,4] off",
        "operator": "HDFC Bank",
        "service": "Home Loan",
        "short_name": "HDFC",
        "source:link": "https://near-me.hdfcbank.com/branch-atm-locator/hdfc-bank-home-loan-branch-bengaluru-kalyan-nagar-kalyan-nagar-loan-agency-kalyan-nagar-bengaluru-377374/Home"
      }
    },
    {
      "type": "node",
      "id": 12972768546,
      "lat": 13.0331137,
      "lon": 77.6378901,
      "tags": {
        "check_date": "2025-07-03",
        "name": "Duroflex",
        "shop": "bed"
      }
    },
    {
      "type": "node",
      "id": 13013584288,
      "lat": 13.0292834,
      "lon": 77.6328787,
      "tags": {
        "amenity": "cafe",
        "name": "Vida Brazilian Cafe"
      }
    },
    {
      "type": "node",
      "id": 13013584298,
      "lat": 13.0220219,
      "lon": 77.6399329,
      "tags": {
        "amenity": "restaurant",
        "name": "Venn"
      }
    },
    {
      "type": "node",
      "id": 13013588744,
      "lat": 13.0233978,
      "lon": 77.6431482,
      "tags": {
        "addr:city": "Bengaluru",
        "addr:country": "IN",
        "addr:hamlet": "HRBR Layout 2nd Stage",
        "addr:postcode": "560043",
        "addr:street": "7th Main Road",
        "addr:suburb": "Kalyan Nagar",
        "amenity": "restaurant",
        "contact:instagram": "sinonnas",
        "cuisine": "pizza",
        "delivery": "yes",
        "name": "Si Nonna's",
        "reservation": "yes",
        "takeaway": "yes",
        "toilets": "yes",
        "website": "https://sinonnas.com/"
      }
    },
    {
      "type": "node",
      "id": 13013792934,
      "lat": 13.0298014,
      "lon": 77.634702,
      "tags": {
        "amenity": "fast_food",
        "cuisine": "mexican",
        "name": "Maiz Mexican Kitchen"
      }
    },
    {
      "type": "node",
      "id": 13013792943,
      "lat": 13.0298262,
      "lon": 77.6347261,
      "tags": {
        "amenity": "fast_food",
        "name": "Harvest Salad Co"
      }
    },
    {
      "type": "node",
      "id": 13013958064,
      "lat": 13.0255067,
      "lon": 77.6392248,
      "tags": {
        "amenity": "restaurant",
        "cuisine": "barbecue",
        "name": "ASF - Ancient Stone Flames"
      }
    },
    {
      "type": "node",
      "id": 13030841318,
      "lat": 13.0226898,
      "lon": 77.6393218,
      "tags": {
        "amenity": "cafe",
        "check_date": "2025-07-28",
        "contact:instagram": "https://www.instagram.com/brewlapaix",
        "name": "Brew La Paix",
        "website": "https://brewlapaix.com"
      }
    },
    {
      "type": "node",
      "id": 13164592436,
      "lat": 13.0219385,
      "lon": 77.6385853,
      "tags": {
        "addr:city": "Bangalore",
        "addr:district": "Bengaluru Urban",
        "addr:housenumber": "426",
        "addr:postcode": "560043",
        "addr:street": "CMR Main Rd, 3rd Cross,2nd Block HRBR Layout, Kalyan nagar",
        "amenity": "hospital",
        "healthcare": "hospital",
        "name": "Bangalore Orthopeadic And Surgical Hospital",
        "operator": "Novosalus Technology",
        "operator:type": "private"
      }
    },
    {
      "type": "node",
      "id": 13288585234,
      "lat": 13.0214589,
      "lon": 77.6406815,
      "tags": {
        "name": "Harley's Ivory Lougne",
        "shop": "pastry"
      }
    },
    {
      "type": "way",
      "id": 35703028,
      "center": {
        "lat": 13.0389095,
        "lon": 77.6402952
      },
      "tags": {
        "amenity": "college",
        "name": "Sadupadesa College",
        "name:kn": "ಸದುಪದೇಶ ಕಾಲೇಜು"
      }
    },
    {
      "type": "way",
      "id": 35703030,
      "center": {
        "lat": 13.0364055,
        "lon": 77.6388752
      },
      "tags": {
        "amenity": "college",
        "name": "Asanath College",
        "name:kn": "ಹಸನಾಥ್ ಕಾಲೆಜು"
      }
    },
    {
      "type": "way",
      "id": 37827777,
      "center": {
        "lat": 13.0258374,
        "lon": 77.6438717
      },
      "tags": {
        "leisure": "pitch",
        "sport": "basketball"
      }
    },
    {
      "type": "way",
      "id": 37827925,
      "center": {
        "lat": 13.0253767,
        "lon": 77.6425302
      },
      "tags": {
        "addr:city": "Kalyan Nagar, Bangalore",
        "addr:postcode": "560043",
        "addr:street": "6th B Main (HRBR Layout)",
        "amenity": "school",
        "check_date": "2025-11-16",
        "email": "info@rcis.in",
        "name": "Royale Concorde International School",
        "phone": "+91 80 2543 5455",
        "school:gender": "mixed",
        "website": "https://www.rcis.in/"
      }
    },
    {
      "type": "way",
      "id": 37828583,
      "center": {
        "lat": 13.0278651,
        "lon": 77.6406464
      },
      "tags": {
        "amenity": "school",
        "check_date": "2025-11-16",
        "name": "Royale Concorde High School"
      }
    },
    {
      "type": "way",
      "id": 37828595,
      "center": {
        "lat": 13.0284669,
        "lon": 77.6397006
      },
      "tags": {
        "amenity": "college",
        "name": "Bangalore City College",
        "name:kn": "ನಗರ ಕಾಲೇಜು"
      }
    },
    {
      "type": "way",
      "id": 37828662,
      "center": {
        "lat": 13.0266869,
        "lon": 77.6401929
      },
      "tags": {
        "amenity": "college",
        "building": "yes",
        "name": "Indo Asian Academy of Management Studies"
      }
    },
    {
      "type": "way",
      "id": 37828776,
      "center": {
        "lat": 13.0270228,
        "lon": 77.6394042
      },
      "tags": {
        "amenity": "doctors",
        "name": "Susruta Nursing Home"
      }
    },
    {
      "type": "way",
      "id": 37828884,
      "center": {
        "lat": 13.0260401,
        "lon": 77.6410045
      },
      "tags": {
        "addr:city": "Kalyan Nagar, Bangalore",
        "addr:housename": "S S Manor",
        "addr:postcode": "560043",
        "addr:street": "Basbusabpalaya Service Road",
        "brand": "Cromā",
        "brand:wikidata": "Q5187683",
        "building": "yes",
        "landuse": "retail",
        "name": "Cromā",
        "name:kn": "ಕ್ರೋಮ",
        "opening_hours": "Mo-Su 10:30-21:30",
        "phone": "+91-80-67127288",
        "shop": "electronics"
      }
    },
    {
      "type": "way",
      "id": 38416322,
      "center": {
        "lat": 13.0266727,
        "lon": 77.6326104
      },
      "tags": {
        "amenity": "school",
        "landuse": "education",
        "name": "L.M. English School"
      }
    },
    {
      "type": "way",
      "id": 169722382,
      "center": {
        "lat": 13.0228301,
        "lon": 77.633095
      },
      "tags": {
        "alt_name": "National Junior School",
        "amenity": "school",
        "landuse": "education",
        "name": "CMR National Public School",
        "short_name": "CMR NPS"
      }
    },
    {
      "type": "way",
      "id": 183863407,
      "center": {
        "lat": 13.0270303,
        "lon": 77.6362369
      },
      "tags": {
        "amenity": "college",
        "building": "yes",
        "name": "Chris Canadian Institutions"
      }
    },
    {
      "type": "way",
      "id": 188030764,
      "center": {
        "lat": 13.032747,
        "lon": 77.6293274
      },
      "tags": {
        "leisure": "park",
        "name": "BDA Park"
      }
    },
    {
      "type": "way",
      "id": 340956581,
      "center": {
        "lat": 13.0302973,
        "lon": 77.6385689
      },
      "tags": {
        "leisure": "pitch",
        "sport": "soccer"
      }
    },
    {
      "type": "way",
      "id": 346136743,
      "center": {
        "lat": 13.0279136,
        "lon": 77.6394093
      },
      "tags": {
        "building": "yes",
        "name": "Family Point",
        "shop": "convenience"
      }
    },
    {
      "type": "way",
      "id": 346425569,
      "center": {
        "lat": 13.0278009,
        "lon": 77.6310139
      },
      "tags": {
        "amenity": "restaurant",
        "building": "yes",
        "cuisine": "Kerala",
        "delivery": "no",
        "name": "Kerala Mess",
        "opening_hours": "08:00-22:30",
        "outdoor_seating": "no",
        "smoking": "no",
        "takeaway": "yes"
      }
    },
    {
      "type": "way",
      "id": 346506657,
      "center": {
        "lat": 13.0236925,
        "lon": 77.6370146
      },
      "tags": {
        "addr:city": "Bangalore",
        "addr:district": "Bengaluru Urban",
        "addr:housenumber": "218",
        "addr:postcode": "560043",
        "addr:street": "Kammanahalli Main Rd, HRBR Layout 3rd Block",
        "amenity": "clinic",
        "building": "aesthetic_clinic",
        "building:levels": "1",
        "healthcare": "clinic",
        "healthcare:speciality": "dermatology",
        "name": "Facelit Skin Hair & Wellness"
      }
    },
    {
      "type": "way",
      "id": 346864066,
      "center": {
        "lat": 13.0312596,
        "lon": 77.6308321
      },
      "tags": {
        "addr:city": "Bengaluru",
        "addr:housenumber": "1015",
        "addr:postcode": "560043",
        "addr:street": "6th Cross Road, 4th Block, 1st Stage, HBR Layout",
        "building": "yes",
        "building:levels": "2",
        "check_date": "2025-06-15",
        "name": "Bhima Jewellers",
        "shop": "jewelry"
      }
    },
    {
      "type": "way",
      "id": 530861581,
      "center": {
        "lat": 13.0279653,
        "lon": 77.6338225
      },
      "tags": {
        "addr:city": "Bangalore",
        "addr:housenumber": "36/2",
        "addr:postcode": "560043",
        "addr:street": "Hennur Flyover",
        "amenity": "college",
        "contact:facebook": "https://www.facebook.com/rcmsbangalore",
        "ele": "5",
        "internet_access": "yes",
        "internet_access:fee": "customers",
        "name": "Royal College of Management Studies",
        "website": "https://www.rcms.co.in/"
      }
    },
    {
      "type": "way",
      "id": 530861582,
      "center": {
        "lat": 13.0280972,
        "lon": 77.6335813
      },
      "tags": {
        "leisure": "pitch",
        "lit": "yes",
        "name": "Bangalore Football Turf",
        "sport": "soccer",
        "surface": "grass"
      }
    },
    {
      "type": "way",
      "id": 552372245,
      "center": {
        "lat": 13.0229987,
        "lon": 77.6414813
      },
      "tags": {
        "alt_name": "BDA Kalyan Nagar Park",
        "leisure": "park",
        "name": "Dr. Puneeth Rajkumar Park",
        "name:etymology:wikidata": "Q3351697"
      }
    },
    {
      "type": "way",
      "id": 687173199,
      "center": {
        "lat": 13.0265644,
        "lon": 77.6383427
      },
      "tags": {
        "amenity": "bus_station",
        "name": "Kalyan Nagar BMTC Depot"
      }
    },
    {
      "type": "way",
      "id": 687173212,
      "center": {
        "lat": 13.0288442,
        "lon": 77.6370308
      },
      "tags": {
        "amenity": "social_facility",
        "landuse": "residential",
        "name": "Little Sisters of Poor",
        "social_facility": "assisted_living",
        "social_facility:for": "senior"
      }
    },
    {
      "type": "way",
      "id": 687173217,
      "center": {
        "lat": 13.0282997,
        "lon": 77.637756
      },
      "tags": {
        "amenity": "place_of_worship",
        "building": "church",
        "check_date": "2024-05-27",
        "name": "Saint Rocks Church",
        "religion": "christian"
      }
    },
    {
      "type": "way",
      "id": 687173234,
      "center": {
        "lat": 13.0286442,
        "lon": 77.637889
      },
      "tags": {
        "leisure": "pitch"
      }
    },
    {
      "type": "way",
      "id": 687173287,
      "center": {
        "lat": 13.0297477,
        "lon": 77.6415271
      },
      "tags": {
        "amenity": "college",
        "landuse": "college",
        "name": "St Vincent Pallotti College"
      }
    },
    {
      "type": "way",
      "id": 771923571,
      "center": {
        "lat": 13.0308225,
        "lon": 77.642713
      },
      "tags": {
        "amenity": "parking"
      }
    },
    {
      "type": "way",
      "id": 771923576,
      "center": {
        "lat": 13.0269511,
        "lon": 77.6379541
      },
      "tags": {
        "leisure": "pitch",
        "sport": "basketball"
      }
    },
    {
      "type": "way",
      "id": 771923577,
      "center": {
        "lat": 13.0269406,
        "lon": 77.6381818
      },
      "tags": {
        "leisure": "pitch",
        "sport": "tennis"
      }
    },
    {
      "type": "way",
      "id": 771923579,
      "center": {
        "lat": 13.027528,
        "lon": 77.6382344
      },
      "tags": {
        "access": "private",
        "leisure": "swimming_pool"
      }
    },
    {
      "type": "way",
      "id": 772203194,
      "center": {
        "lat": 13.0302427,
        "lon": 77.6355917
      },
      "tags": {
        "addr:city": "Bangalore",
        "addr:country": "IN",
        "addr:postcode": "560043",
        "addr:street": "Hennur Main Road",
        "addr:suburb": "Kalyan Nagar",
        "amenity": "college",
        "email": "info@indianacademy.edu.in",
        "name": "Indian Academy Group of Institutions",
        "phone": "+91 8067 458900",
        "website": "https://www.indianacademy.edu.in"
      }
    },
    {
      "type": "way",
      "id": 772203209,
      "center": {
        "lat": 13.028489,
        "lon": 77.6325562
      },
      "tags": {
        "addr:city": "Bangalore",
        "addr:country": "IN",
        "addr:hamlet": "Grace Town",
        "addr:housenumber": "1",
        "addr:postcode": "560043",
        "addr:street": "Hennur Main Road",
        "addr:suburb": "Kalyan Nagar",
        "alt_name": "People Tree Hospitals@chris",
        "amenity": "hospital",
        "building": "hospital",
        "email": "info@chrishospital.com",
        "healthcare": "hospital",
        "name": "HOSMAT Hospital, Kalyan Nagar",
        "old_name": "Hosmat Hospital",
        "website": "https://hosmathospitals.com",
        "wheelchair": "yes"
      }
    },
    {
      "type": "way",
      "id": 772203217,
      "center": {
        "lat": 13.0348944,
        "lon": 77.6385423
      },
      "tags": {
        "access": "private",
        "leisure": "swimming_pool"
      }
    },
    {
      "type": "way",
      "id": 777618532,
      "center": {
        "lat": 13.0323295,
        "lon": 77.6295156
      },
      "tags": {
        "access": "yes",
        "leisure": "playground"
      }
    },
    {
      "type": "way",
      "id": 1153860352,
      "center": {
        "lat": 13.0256351,
        "lon": 77.6372769
      },
      "tags": {
        "amenity": "fuel",
        "brand": "Indian Oil",
        "brand:wikidata": "Q1289348",
        "brand:wikipedia": "en:Indian Oil Corporation",
        "compressed_air": "yes",
        "name": "Indian Oil",
        "name:kn": "ಇಂಡಿಯನ್ ಆಯಿಲ್",
        "opening_hours": "24/7",
        "operator": "Indian Oil"
      }
    },
    {
      "type": "way",
      "id": 1153861853,
      "center": {
        "lat": 13.0231745,
        "lon": 77.6454262
      },
      "tags": {
        "leisure": "park"
      }
    },
    {
      "type": "way",
      "id": 1273452287,
      "center": {
        "lat": 13.0325874,
        "lon": 77.6310675
      },
      "tags": {
        "access": "private",
        "amenity": "parking",
        "parking": "surface"
      }
    },
    {
      "type": "way",
      "id": 1273452295,
      "center": {
        "lat": 13.0320661,
        "lon": 77.6305706
      },
      "tags": {
        "access": "private",
        "amenity": "parking",
        "parking": "surface"
      }
    },
    {
      "type": "way",
      "id": 1273452296,
      "center": {
        "lat": 13.0322544,
        "lon": 77.6307657
      },
      "tags": {
        "access": "private",
        "amenity": "parking",
        "parking": "surface"
      }
    },
    {
      "type": "way",
      "id": 1316119405,
      "center": {
        "lat": 13.0217498,
        "lon": 77.6425277
      },
      "tags": {
        "access": "permissive",
        "leisure": "pitch",
        "sport": "tennis"
      }
    },
    {
      "type": "way",
      "id": 1316384538,
      "center": {
        "lat": 13.0245581,
        "lon": 77.6381191
      },
      "tags": {
        "leisure": "park",
        "name": "Kittur Rani Chenamma Park"
      }
    },
    {
      "type": "way",
      "id": 1317621995,
      "center": {
        "lat": 13.0262815,
        "lon": 77.6351164
      },
      "tags": {
        "amenity": "fuel",
        "brand": "Bharat Petroleum",
        "brand:wikidata": "Q854826",
        "check_date": "2025-06-21",
        "compressed_air": "yes",
        "fuel:diesel": "yes",
        "fuel:petrol": "yes",
        "landuse": "commercial",
        "name": "Bharat Petroleum",
        "name:kn": "ಭಾರತ್ ಪೆಟ್ರೋಲಿಯಂ",
        "operator": "Bharat Petroleum",
        "self_service": "no",
        "source": "survey"
      }
    },
    {
      "type": "way",
      "id": 1347467890,
      "center": {
        "lat": 13.0299492,
        "lon": 77.6406743
      },
      "tags": {
        "leisure": "pitch"
      }
    },
    {
      "type": "way",
      "id": 1347916197,
      "center": {
        "lat": 13.0340297,
        "lon": 77.6365832
      },
      "tags": {
        "access": "private",
        "leisure": "swimming_pool"
      }
    },
    {
      "type": "way",
      "id": 1363504984,
      "center": {
        "lat": 13.020339,
        "lon": 77.6355461
      },
      "tags": {
        "amenity": "monastery",
        "community:gender": "female",
        "denomination": "catholic",
        "landuse": "religious",
        "name": "Sisters of St. Joseph of Tarbes",
        "religion": "christian"
      }
    },
    {
      "type": "way",
      "id": 1363623349,
      "center": {
        "lat": 13.0233426,
        "lon": 77.6380822
      },
      "tags": {
        "access": "private",
        "leisure": "swimming_pool"
      }
    },
    {
      "type": "way",
      "id": 1363777220,
      "center": {
        "lat": 13.0269906,
        "lon": 77.6328477
      },
      "tags": {
        "amenity": "college",
        "landuse": "education"
      }
    },
    {
      "type": "way",
      "id": 1363777221,
      "center": {
        "lat": 13.0256981,
        "lon": 77.6303283
      },
      "tags": {
        "amenity": "fuel",
        "brand": "Hindustan Petroleum",
        "brand:wikidata": "Q1619375",
        "check_date": "2024-10-13",
        "landuse": "commercial",
        "name": "HP Petrol Pump",
        "name:kn": "ಹಿಂದುಸ್ತಾನ್ ಪೆಟ್ರೋಲಿಯಂ",
        "official_name": "Hindustan Petroleum"
      }
    },
    {
      "type": "way",
      "id": 1363777265,
      "center": {
        "lat": 13.023746,
        "lon": 77.6308557
      },
      "tags": {
        "access": "private",
        "leisure": "swimming_pool"
      }
    },
    {
      "type": "way",
      "id": 1363777349,
      "center": {
        "lat": 13.0247525,
        "lon": 77.6326313
      },
      "tags": {
        "access": "private",
        "leisure": "swimming_pool"
      }
    },
    {
      "type": "way",
      "id": 1364170754,
      "center": {
        "lat": 13.0223512,
        "lon": 77.6390348
      },
      "tags": {
        "amenity": "place_of_worship",
        "landuse": "religious",
        "name": "Masjid-E-Jafar",
        "religion": "muslim"
      }
    },
    {
      "type": "way",
      "id": 1366625033,
      "center": {
        "lat": 13.0229019,
        "lon": 77.6323041
      },
      "tags": {
        "amenity": "school",
        "landuse": "education",
        "name": "Ekya School"
      }
    },
    {
      "type": "way",
      "id": 1366625049,
      "center": {
        "lat": 13.0245163,
        "lon": 77.6384886
      },
      "tags": {
        "amenity": "school",
        "landuse": "education",
        "name": "The Princeton School"
      }
    },
    {
      "type": "way",
      "id": 1366656563,
      "center": {
        "lat": 13.0266048,
        "lon": 77.6431271
      },
      "tags": {
        "amenity": "school",
        "name": "Narayana e-Techno School"
      }
    },
    {
      "type": "way",
      "id": 1366656632,
      "center": {
        "lat": 13.0262445,
        "lon": 77.6355264
      },
      "tags": {
        "leisure": "playground"
      }
    },
    {
      "type": "way",
      "id": 1366656634,
      "center": {
        "lat": 13.026207,
        "lon": 77.6355179
      },
      "tags": {
        "leisure": "park",
        "name": "Kalyan Nagar Park"
      }
    },
    {
      "type": "way",
      "id": 1370883599,
      "center": {
        "lat": 13.0224975,
        "lon": 77.6387404
      },
      "tags": {
        "access": "customers",
        "amenity": "parking",
        "parking": "surface"
      }
    },
    {
      "type": "way",
      "id": 1373258945,
      "center": {
        "lat": 13.0319474,
        "lon": 77.6317793
      },
      "tags": {
        "leisure": "park"
      }
    },
    {
      "type": "way",
      "id": 1373341020,
      "center": {
        "lat": 13.0341555,
        "lon": 77.6327771
      },
      "tags": {
        "amenity": "school"
      }
    },
    {
      "type": "way",
      "id": 1373341028,
      "center": {
        "lat": 13.032992,
        "lon": 77.6343596
      },
      "tags": {
        "amenity": "school",
        "name": "HMR International School",
        "name:en": "HMR International School"
      }
    },
    {
      "type": "way",
      "id": 1373341035,
      "center": {
        "lat": 13.0328568,
        "lon": 77.6306636
      },
      "tags": {
        "amenity": "school",
        "name": "Heritage International School"
      }
    },
    {
      "type": "way",
      "id": 1373341073,
      "center": {
        "lat": 13.0322731,
        "lon": 77.6347837
      },
      "tags": {
        "amenity": "college",
        "name": "Indian Academy PUC"
      }
    },
    {
      "type": "way",
      "id": 1382088997,
      "center": {
        "lat": 13.0255314,
        "lon": 77.6400662
      },
      "tags": {
        "access": "yes",
        "amenity": "toilets",
        "building": "yes",
        "fee": "yes",
        "female": "yes",
        "male": "yes"
      }
    },
    {
      "type": "way",
      "id": 1388143631,
      "center": {
        "lat": 13.0342574,
        "lon": 77.639575
      },
      "tags": {
        "access": "private",
        "leisure": "swimming_pool"
      }
    },
    {
      "type": "way",
      "id": 1388143634,
      "center": {
        "lat": 13.0342908,
        "lon": 77.6435324
      },
      "tags": {
        "amenity": "school",
        "name": "Sri Chaitanya Techno School, Kalyan Nagar"
      }
    },
    {
      "type": "way",
      "id": 1388143636,
      "center": {
        "lat": 13.0368987,
        "lon": 77.6426707
      },
      "tags": {
        "leisure": "sports_centre",
        "name": "Vision India"
      }
    },
    {
      "type": "way",
      "id": 1409539450,
      "center": {
        "lat": 13.0271904,
        "lon": 77.636099
      },
      "tags": {
        "amenity": "college"
      }
    },
    {
      "type": "way",
      "id": 1409539462,
      "center": {
        "lat": 13.0238349,
        "lon": 77.6450462
      },
      "tags": {
        "leisure": "park"
      }
    }
  ]
}