{
  "area_name": "Pattegar Palya",
  "osm_id": 19883417,
  "osm_type": "relation",
  "place_type": "administrative",
  "amenity_count": 6,
  "amenities": [
    {
      "type": "node",
      "id": 6947716888,
      "lat": 12.9761802,
      "lon": 77.5261763,
      "tags": {
        "addr:district": "Bengaluru Urban",
        "addr:full": "No. 8, 60Ft. Road, Pattegara Palya, Vijayanagar",
        "addr:postcode": "560079",
        "addr:state": "Karnataka",
        "amenity": "hospital",
        "name": "Sandhyashree Hospital",
        "name:kn": "ಸಂಧ್ಯಾಶ್ರೀ ಆಸ್ಪತ್ರೆ",
        "source": "OpenGovernmentData"
      }
    },
    {
      "type": "node",
      "id": 7572526703,
      "lat": 12.9780731,
      "lon": 77.5251934,
      "tags": {
        "addr:district": "Bengaluru Urban",
        "addr:full": "Govindaraja Nagar Ward, Pattegarhpalya, Vijayanagar, Bengaluru",
        "addr:postcode": "560079",
        "addr:state": "Karnataka",
        "amenity": "hospital",
        "name": "Government Hospital",
        "name:kn": "ಸರ್ಕಾರಿ ಆಸ್ಪತ್ರೆ",
        "source": "Local Knowledge"
      }
    },
    {
      "type": "node",
      "id": 7572526766,
      "lat": 12.9745497,
      "lon": 77.5208943,
      "tags": {
        "addr:district": "Bengaluru Urban",
        "addr:full": "Govindaraja Nagar Ward, Panchasheel Nagar, Vijayanagar, Bengaluru",
        "addr:postcode": "560072",
        "addr:state": "Karnataka",
        "amenity": "hospital",
        "name": "Panchsheela Nagar Hospital",
        "source": "Local Knowledge"
      }
    },
    {
      "type": "node",
      "id": 7572526795,
      "lat": 12.9766618,
      "lon": 77.5246346,
      "tags": {
        "addr:district": "Bengaluru Urban",
        "addr:full": "Patteghar Palya Main Road, Govindaraja Nagar Ward, Pattegarhpalya, Vijayanagar, Bengaluru",
        "addr:postcode": "560079",
        "addr:state": "Karnataka",
        "amenity": "clinic",
        "name": "Ranganatha Clinic",
        "source": "Local Knowledge"
      }
    },
    {
      "type": "way",
      "id": 138449004,
      "center": {
        "lat": 12.9782911,
        "lon": 77.5278275
      },
      "tags": {
        "leisure": "park",
        "name": "Balalayanna Kere Park",
        "name:kn": "ಬಾಳಯ್ಯನ ಕೆರೆ ಉದ್ಯಾನ"
      }
    },
    {
      "type": "way",
      "id": 1054822216,
      "center": {
        "lat": 12.9786839,
        "lon": 77.5278579
      },
      "tags": {
        "amenity": "shelter",
        "shelter_type": "gazebo"
      }
    }
  ]
}