{
  "area_name": "PNB Layout",
  "osm_id": 10931529975,
  "osm_type": "node",
  "place_type": "neighbourhood",
  "amenity_count": 121,
  "amenities": [
    {
      "type": "node",
      "id": 1336687503,
      "lat": 12.8830441,
      "lon": 77.565967,
      "tags": {
        "addr:floor": "0",
        "brand": "Reliance Fresh",
        "brand:wikidata": "Q7311014",
        "check_date": "2023-11-22",
        "name": "Reliance Smart Point",
        "name:kn": "ರಿಲೈಯನ್ಸ್ ಫ್ರೆಶ್",
        "shop": "supermarket"
      }
    },
    {
      "type": "node",
      "id": 2122595759,
      "lat": 12.8845448,
      "lon": 77.5701276,
      "tags": {
        "addr:district": "Bengaluru Rural",
        "addr:full": "#3, 6 th Cross, Old Bank Colony, Konanakunte",
        "addr:postcode": "560062",
        "addr:state": "Karnataka",
        "amenity": "hospital",
        "healthcare": "hospital",
        "name": "Rajnandani Hospital, Bangalore",
        "source": "OpenGovernmentData"
      }
    },
    {
      "type": "node",
      "id": 2181320618,
      "lat": 12.8828036,
      "lon": 77.5704042,
      "tags": {
        "amenity": "school",
        "name": "Srinidhi Public School",
        "source": "GPS"
      }
    },
    {
      "type": "node",
      "id": 2181320624,
      "lat": 12.8835009,
      "lon": 77.5698955,
      "tags": {
        "amenity": "atm",
        "brand": "Axis Bank",
        "brand:wikidata": "Q2003549",
        "operator": "Axis Bank",
        "operator:wikidata": "Q2003549",
        "source": "GPS"
      }
    },
    {
      "type": "node",
      "id": 3100475907,
      "lat": 12.8840897,
      "lon": 77.5664029,
      "tags": {
        "addr:district": "Bangalore",
        "addr:full": "PARK, NEAR PARK",
        "addr:postcode": "560062",
        "addr:state": "Karnataka",
        "addr:subdistrict": "Bangalore South",
        "amenity": "hospital",
        "contact:phone": "8026323311",
        "healthcare": "hospital",
        "name": "Konanakunte Government Hospital",
        "source": "OpenGovernmentData"
      }
    },
    {
      "type": "node",
      "id": 4445144989,
      "lat": 12.8867987,
      "lon": 77.5675026,
      "tags": {
        "addr:postcode": "560062",
        "addr:street": "Konanakunte-Uttarahalli Road",
        "amenity": "school",
        "name": "Hani Foundation Montessori",
        "name:en": "Hani Foundation Montessori"
      }
    },
    {
      "type": "node",
      "id": 4447345728,
      "lat": 12.8725257,
      "lon": 77.5667017,
      "tags": {
        "addr:city": "bangalore",
        "addr:housenumber": "3",
        "addr:postcode": "560062",
        "addr:street": ",shop No 3,sun Complex, Circle, Anjanapura post,&nbsp;J P, Avalahalii, JP Nagar 9th Phase, JP Nagar",
        "name": "Sri Nidhi Medicals",
        "phone": "+9198459 87349",
        "shop": "medical_supply",
        "source": "justdial"
      }
    },
    {
      "type": "node",
      "id": 4449043093,
      "lat": 12.8827967,
      "lon": 77.5693891,
      "tags": {
        "amenity": "atm",
        "brand": "Indian Overseas Bank",
        "brand:wikidata": "Q2003611",
        "operator": "Indian Overseas Bank",
        "operator:wikidata": "Q2003611"
      }
    },
    {
      "type": "node",
      "id": 4454837890,
      "lat": 12.8824999,
      "lon": 77.5660055,
      "tags": {
        "amenity": "pharmacy",
        "healthcare": "pharmacy",
        "name": "Arpitha Medicals",
        "name:en": "Arpitha Medicals"
      }
    },
    {
      "type": "node",
      "id": 4454873789,
      "lat": 12.8792546,
      "lon": 77.5672683,
      "tags": {
        "amenity": "bank",
        "brand": "Corporation Bank",
        "brand:wikidata": "Q2003387",
        "brand:wikipedia": "en:Corporation Bank",
        "name": "Corporation Bank",
        "name:en": "Corporation Bank",
        "name:kn": "ಕಾರ್ಪೋರೇಶನ್ ಬ್ಯಾಂಕ್",
        "website": "https://corpbank.com/"
      }
    },
    {
      "type": "node",
      "id": 4454874189,
      "lat": 12.8799338,
      "lon": 77.567328,
      "tags": {
        "amenity": "bank",
        "brand": "State Bank of India",
        "brand:wikidata": "Q1340361",
        "brand:wikipedia": "en:State Bank of India",
        "name": "State Bank of India",
        "name:en": "State Bank of India",
        "name:kn": "ಭಾರತೀಯ ಸ್ಟೇಟ್ ಬ್ಯಾಂಕ್",
        "short_name": "SBI"
      }
    },
    {
      "type": "node",
      "id": 4454874289,
      "lat": 12.8831848,
      "lon": 77.566088,
      "tags": {
        "amenity": "atm",
        "brand": "Bank of Baroda",
        "brand:wikidata": "Q2003797",
        "check_date": "2023-11-22",
        "operator": "Bank of Baroda",
        "operator:wikidata": "Q2003797"
      }
    },
    {
      "type": "node",
      "id": 4456269594,
      "lat": 12.8830444,
      "lon": 77.5696076,
      "tags": {
        "addr:postcode": "560062",
        "addr:street": "Chunchagatta Main Raod",
        "name": "Bhuvaneshwari Traders",
        "name:en": "Bhuvaneshwari Traders",
        "shop": "department_store"
      }
    },
    {
      "type": "node",
      "id": 4456317690,
      "lat": 12.8852815,
      "lon": 77.5669092,
      "tags": {
        "amenity": "fast_food",
        "name": "Surabhi Veg",
        "name:en": "Surabhi Veg"
      }
    },
    {
      "type": "node",
      "id": 4456317691,
      "lat": 12.8844038,
      "lon": 77.5666691,
      "tags": {
        "addr:street": "Amruth Nagar Main Road",
        "amenity": "pharmacy",
        "healthcare": "pharmacy",
        "name": "Shyamala Medicals",
        "name:en": "Shyamala Medicals"
      }
    },
    {
      "type": "node",
      "id": 4456317692,
      "lat": 12.8844123,
      "lon": 77.5665775,
      "tags": {
        "amenity": "atm",
        "brand": "State Bank of India",
        "brand:wikidata": "Q1340361",
        "opening_hours": "24/7",
        "operator": "State Bank of India",
        "operator:wikidata": "Q1340361",
        "short_name": "SBI"
      }
    },
    {
      "type": "node",
      "id": 4456336991,
      "lat": 12.8854655,
      "lon": 77.5668774,
      "tags": {
        "addr:street": "Amruth Nagar Main Road",
        "amenity": "fast_food",
        "name": "Thindi Potha",
        "name:en": "Thindi Potha"
      }
    },
    {
      "type": "node",
      "id": 4456367790,
      "lat": 12.8845235,
      "lon": 77.5667067,
      "tags": {
        "addr:street": "Amruth Nagar Main Road",
        "indoor_seating": "yes",
        "name": "Kaggi's",
        "name:en": "Kaggi's",
        "outdoor_seating": "no",
        "shop": "bakery"
      }
    },
    {
      "type": "node",
      "id": 4456678391,
      "lat": 12.8835026,
      "lon": 77.5714748,
      "tags": {
        "name": "Mahalakshmi Provision Store",
        "name:en": "Mahalakshmi Provision Store",
        "shop": "department_store"
      }
    },
    {
      "type": "node",
      "id": 4456683292,
      "lat": 12.8824032,
      "lon": 77.5701098,
      "tags": {
        "leisure": "pitch"
      }
    },
    {
      "type": "node",
      "id": 4456700791,
      "lat": 12.8814024,
      "lon": 77.568751,
      "tags": {
        "addr:street": "Chunchagatta Main Raod",
        "shop": "greengrocer"
      }
    },
    {
      "type": "node",
      "id": 4456706991,
      "lat": 12.883369,
      "lon": 77.569783,
      "tags": {
        "addr:street": "Chunchagatta Main Raod",
        "shop": "greengrocer"
      }
    },
    {
      "type": "node",
      "id": 4456744391,
      "lat": 12.8839233,
      "lon": 77.5699167,
      "tags": {
        "addr:street": "Chunchagatta Main Raod",
        "shop": "greengrocer"
      }
    },
    {
      "type": "node",
      "id": 4456766989,
      "lat": 12.8826852,
      "lon": 77.5661555,
      "tags": {
        "amenity": "community_centre",
        "name": "Soudhamini Kalyana Mantapa",
        "name:en": "Soudhamini Kalyana Mantapa"
      }
    },
    {
      "type": "node",
      "id": 4463038191,
      "lat": 12.8825322,
      "lon": 77.5660077,
      "tags": {
        "addr:street": "Amruth Nagar Main Road",
        "amenity": "dentist",
        "healthcare": "dentist",
        "name": "Specialist's Dental Clinic",
        "name:en": "Specialist's Dental Clinic"
      }
    },
    {
      "type": "node",
      "id": 4463038192,
      "lat": 12.8830421,
      "lon": 77.569638,
      "tags": {
        "addr:street": "3rd Main Road",
        "leisure": "fitness_centre",
        "name": "Gym Way",
        "name:en": "Gym Way"
      }
    },
    {
      "type": "node",
      "id": 4463113489,
      "lat": 12.8801126,
      "lon": 77.5681771,
      "tags": {
        "amenity": "atm",
        "brand": "Canara Bank",
        "brand:en": "Canara Bank",
        "brand:hi": "केनरा बैंक",
        "brand:kn": "ಕೆನರಾ ಬ್ಯಾಂಕ್",
        "brand:pa": "ਕੇਨਰਾ ਬੈਂਕ",
        "brand:pnb": "کینرا بینک",
        "brand:ur": "کینرا بینک",
        "brand:wikidata": "Q2003777",
        "name:en": "Canara Bank",
        "name:hi": "केनरा बैंक",
        "name:kn": "ಕೆನರಾ ಬ್ಯಾಂಕ್",
        "name:pa": "ਕੇਨਰਾ ਬੈਂਕ",
        "name:pnb": "کینرا بینک",
        "name:ur": "کینرا بینک",
        "opening_hours": "24/7",
        "operator": "Canara Bank",
        "operator:wikidata": "Q2003777"
      }
    },
    {
      "type": "node",
      "id": 4472324191,
      "lat": 12.8797355,
      "lon": 77.5678057,
      "tags": {
        "amenity": "atm",
        "opening_hours": "24/7",
        "operator": "State Bank"
      }
    },
    {
      "type": "node",
      "id": 4486708997,
      "lat": 12.8850398,
      "lon": 77.5703422,
      "tags": {
        "amenity": "atm",
        "brand": "HDFC Bank",
        "brand:wikidata": "Q631047",
        "opening_hours": "24/7",
        "operator": "HDFC Bank",
        "operator:wikidata": "Q631047",
        "short_name": "HDFC"
      }
    },
    {
      "type": "node",
      "id": 6349580757,
      "lat": 12.8773044,
      "lon": 77.5701079,
      "tags": {
        "addr:place": "Hari Nagar",
        "amenity": "school",
        "isced:level": "2",
        "name": "GKHPS Hari Nagar",
        "name:kn": "ಸರ್ಕಾರಿ ಕನ್ನಡ ಹಿರಿಯ ಪ್ರಾಥಮಿಕ ಶಾಲೆ ಹರಿನಗರ",
        "operator": "Department of Primary and Secondary Education",
        "operator:type": "government",
        "operator:wikidata": "Q111467381",
        "school": "primary"
      }
    },
    {
      "type": "node",
      "id": 6349585531,
      "lat": 12.8779168,
      "lon": 77.5704224,
      "tags": {
        "addr:place": "Hari Nagar",
        "amenity": "school",
        "isced:level": "2",
        "name": "GULPS Hari Nagar",
        "name:kn": "ಸರ್ಕಾರಿ ಉರ್ದು ಪ್ರಾಥಮಿಕ ಶಾಲೆ ಹರಿನಗರ",
        "operator": "Department of Education",
        "school": "primary"
      }
    },
    {
      "type": "node",
      "id": 6536364433,
      "lat": 12.8767474,
      "lon": 77.5725941,
      "tags": {
        "addr:place": "Kothanur",
        "amenity": "school",
        "isced:level": "3",
        "name": "Ennar School Aadithya Nagar, Kothanur",
        "name:kn": "ಎನ್ನಾರ್ ಶಾಲೆ ಆದಿತ್ಯ ನಗರ, ಕೊತ್ತನೂರು",
        "operator": "Private Un-Aided",
        "school": "Higher Secondary"
      }
    },
    {
      "type": "node",
      "id": 7106702479,
      "lat": 12.8864483,
      "lon": 77.5661623,
      "tags": {
        "addr:postcode": "560062",
        "addr:street": "Amruth Nagar Main Road",
        "amenity": "restaurant",
        "cuisine": "indian;ice_cream",
        "name": "Kakkal Kai Ruchi"
      }
    },
    {
      "type": "node",
      "id": 7580048827,
      "lat": 12.882734,
      "lon": 77.5694669,
      "tags": {
        "name": "Nandhini milk parlour",
        "shop": "dairy"
      }
    },
    {
      "type": "node",
      "id": 7580048828,
      "lat": 12.8829484,
      "lon": 77.5695688,
      "tags": {
        "name": "SLV Photo studio",
        "shop": "photo"
      }
    },
    {
      "type": "node",
      "id": 7580048829,
      "lat": 12.8828935,
      "lon": 77.569542,
      "tags": {
        "name": "Kitchen ware & Gas",
        "shop": "houseware"
      }
    },
    {
      "type": "node",
      "id": 7580048830,
      "lat": 12.8826817,
      "lon": 77.5694079,
      "tags": {
        "amenity": "bicycle_repair_station",
        "operator": "Krishna cycle repair shop"
      }
    },
    {
      "type": "node",
      "id": 9159687671,
      "lat": 12.8812943,
      "lon": 77.569696,
      "tags": {
        "leisure": "swimming_area",
        "name": "Swimming Pool"
      }
    },
    {
      "type": "node",
      "id": 9568556292,
      "lat": 12.8730816,
      "lon": 77.5666726,
      "tags": {
        "addr:city": "Bangalore",
        "addr:postcode": "560062",
        "addr:street": "Amruth Nagar Main Road",
        "name": "Reliance SMART Point",
        "operator": "Reliance",
        "payment:cash": "yes",
        "payment:credit_cards": "yes",
        "payment:debit_cards": "yes",
        "payment:upi": "yes",
        "shop": "supermarket"
      }
    },
    {
      "type": "node",
      "id": 9568586470,
      "lat": 12.873081,
      "lon": 77.5666966,
      "tags": {
        "addr:city": "Bangalore",
        "addr:postcode": "560062",
        "addr:street": "Amruth Nagar Main Road",
        "amenity": "pharmacy",
        "dispensing": "yes",
        "drive_through": "no",
        "healthcare": "pharmacy",
        "name": "Netmeds",
        "operator": "Reliance",
        "website": "https://www.netmeds.com/"
      }
    },
    {
      "type": "node",
      "id": 9568589340,
      "lat": 12.8758414,
      "lon": 77.5684744,
      "tags": {
        "amenity": "fuel",
        "brand": "Indian Oil",
        "brand:wikidata": "Q1289348",
        "compressed_air": "yes",
        "name": "Indian Oil Fuel Station"
      }
    },
    {
      "type": "node",
      "id": 9568597065,
      "lat": 12.8731205,
      "lon": 77.5666746,
      "tags": {
        "addr:city": "Bangalore",
        "addr:postcode": "560062",
        "addr:street": "Amruth Nagar Main Road",
        "amenity": "fast_food",
        "brand": "Domino's",
        "brand:wikidata": "Q839466",
        "brand:wikipedia": "en:Domino's Pizza",
        "cuisine": "pizza",
        "drive_through": "no",
        "name": "Domino's",
        "name:kn": "ಡಾಮಿನೋಸ್",
        "takeaway": "yes",
        "website": "https://pizzaonline.dominos.co.in/"
      }
    },
    {
      "type": "node",
      "id": 9568796528,
      "lat": 12.8726746,
      "lon": 77.5663573,
      "tags": {
        "addr:city": "Bangalore",
        "addr:postcode": "560062",
        "addr:street": "Anjanapura 60 Feet Road",
        "amenity": "pharmacy",
        "dispensing": "yes",
        "drive_through": "no",
        "healthcare": "pharmacy",
        "name": "Best Medical and General Store"
      }
    },
    {
      "type": "node",
      "id": 9577551017,
      "lat": 12.8741353,
      "lon": 77.570379,
      "tags": {
        "amenity": "fuel",
        "compressed_air": "yes",
        "name": "MRPL Fuel Station"
      }
    },
    {
      "type": "node",
      "id": 9887427429,
      "lat": 12.876303,
      "lon": 77.5670186,
      "tags": {
        "addr:city": "Bengaluru",
        "addr:postcode": "560062",
        "addr:street": "Amruth Nagar Main Road",
        "name": "Kolar Farm Fresh",
        "payment:cash": "yes",
        "payment:debit_cards": "yes",
        "payment:upi": "yes",
        "shop": "greengrocer"
      }
    },
    {
      "type": "node",
      "id": 10154383769,
      "lat": 12.8832665,
      "lon": 77.5663985,
      "tags": {
        "addr:city": "Bangalore",
        "addr:postcode": "560062",
        "addr:street": "Amrutnagar Main Road, Konanakunte",
        "amenity": "bank",
        "atm": "yes",
        "brand": "HDFC Bank",
        "brand:wikidata": "Q631047",
        "check_date": "2023-11-22",
        "drive_through": "no",
        "name": "HDFC Bank",
        "short_name": "HDFC"
      }
    },
    {
      "type": "node",
      "id": 10235855716,
      "lat": 12.8876086,
      "lon": 77.5622642,
      "tags": {
        "leisure": "amusement_arcade",
        "name": "Tridom"
      }
    },
    {
      "type": "node",
      "id": 10292728635,
      "lat": 12.8835554,
      "lon": 77.5666248,
      "tags": {
        "name": "Prasanna Digital Studio",
        "shop": "photo_studio"
      }
    },
    {
      "type": "node",
      "id": 10763481567,
      "lat": 12.8877982,
      "lon": 77.5627778,
      "tags": {
        "addr:city": "Bengaluru",
        "addr:country": "IN",
        "addr:street": "Kanakapura Road",
        "addr:suburb": "Konanakunte",
        "amenity": "restaurant",
        "level": "3",
        "name": "Rasotsav"
      }
    },
    {
      "type": "node",
      "id": 10931530093,
      "lat": 12.8845024,
      "lon": 77.5668655,
      "tags": {
        "shop": "greengrocer"
      }
    },
    {
      "type": "node",
      "id": 10931530094,
      "lat": 12.8845979,
      "lon": 77.5669701,
      "tags": {
        "access": "yes",
        "amenity": "toilets",
        "fee": "yes",
        "operator": "BBMP"
      }
    },
    {
      "type": "node",
      "id": 10982294159,
      "lat": 12.8879146,
      "lon": 77.563042,
      "tags": {
        "brand": "Birkenstock",
        "brand:wikidata": "Q648458",
        "name": "Birkenstock",
        "shop": "shoes"
      }
    },
    {
      "type": "node",
      "id": 10990040065,
      "lat": 12.8874779,
      "lon": 77.5624412,
      "tags": {
        "name": "Shaya",
        "shop": "jewelry"
      }
    },
    {
      "type": "node",
      "id": 11368773021,
      "lat": 12.8826955,
      "lon": 77.5659769,
      "tags": {
        "check_date": "2023-11-22",
        "name": "Adishwar",
        "shop": "electronics"
      }
    },
    {
      "type": "node",
      "id": 11368773022,
      "lat": 12.8824549,
      "lon": 77.5659603,
      "tags": {
        "addr:floor": "2",
        "check_date": "2023-11-22",
        "leisure": "fitness_centre",
        "name": "New U Fitness"
      }
    },
    {
      "type": "node",
      "id": 11368773023,
      "lat": 12.882822,
      "lon": 77.5659984,
      "tags": {
        "amenity": "bank",
        "atm": "yes",
        "brand": "Karnataka Bank",
        "brand:wikidata": "Q2042632",
        "check_date": "2023-11-22",
        "description": "Konankunte Branch",
        "name": "Karnataka Bank",
        "name:kn": "ಕರ್ನಾಟಕ ಬ್ಯಾಂಕ್"
      }
    },
    {
      "type": "node",
      "id": 11368773024,
      "lat": 12.8828555,
      "lon": 77.5660366,
      "tags": {
        "amenity": "pharmacy",
        "brand": "Apollo Pharmacy",
        "brand:wikidata": "Q62562612",
        "check_date": "2023-11-22",
        "healthcare": "pharmacy",
        "name": "Apollo Pharmacy"
      }
    },
    {
      "type": "node",
      "id": 11368773025,
      "lat": 12.8829862,
      "lon": 77.5659892,
      "tags": {
        "addr:floor": "1",
        "amenity": "community_centre",
        "check_date": "2023-11-22",
        "name": "Sri Annapoorneshwari Kalyana Mantapa"
      }
    },
    {
      "type": "node",
      "id": 11368773026,
      "lat": 12.8829214,
      "lon": 77.5662397,
      "tags": {
        "amenity": "pharmacy",
        "check_date": "2023-11-22",
        "healthcare": "pharmacy",
        "name": "S. S. Medicals"
      }
    },
    {
      "type": "node",
      "id": 11368773027,
      "lat": 12.8832791,
      "lon": 77.5661346,
      "tags": {
        "addr:floor": "0",
        "brand": "Lenskart",
        "brand:wikidata": "Q17068753",
        "check_date": "2023-11-22",
        "name": "Lenskart",
        "shop": "optician"
      }
    },
    {
      "type": "node",
      "id": 11368773028,
      "lat": 12.8832486,
      "lon": 77.5661246,
      "tags": {
        "addr:floor": "1",
        "check_date": "2023-11-22",
        "name": "Green Trends",
        "shop": "hairdresser"
      }
    },
    {
      "type": "node",
      "id": 11368773029,
      "lat": 12.8833703,
      "lon": 77.5661797,
      "tags": {
        "check_date": "2023-11-22",
        "name": "Sangeetha",
        "shop": "mobile_phone"
      }
    },
    {
      "type": "node",
      "id": 11368773030,
      "lat": 12.88336,
      "lon": 77.5664513,
      "tags": {
        "amenity": "fast_food",
        "check_date": "2023-11-22",
        "cuisine": "indian",
        "name": "Udupi Upahar"
      }
    },
    {
      "type": "node",
      "id": 11368839281,
      "lat": 12.8820232,
      "lon": 77.5659843,
      "tags": {
        "check_date": "2023-11-22",
        "name": "Jai Sukhi Electronics & Computer",
        "shop": "computer"
      }
    },
    {
      "type": "node",
      "id": 11368839282,
      "lat": 12.8819647,
      "lon": 77.5660279,
      "tags": {
        "amenity": "pharmacy",
        "check_date": "2023-11-22",
        "healthcare": "pharmacy",
        "name": "Sri Sai Prathyusha Medicals"
      }
    },
    {
      "type": "node",
      "id": 11368839283,
      "lat": 12.882298,
      "lon": 77.5659479,
      "tags": {
        "check_date": "2023-11-22",
        "name": "Sri Vinutha Bar & Restaurant",
        "shop": "alcohol"
      }
    },
    {
      "type": "node",
      "id": 11542230570,
      "lat": 12.8878061,
      "lon": 77.5624901,
      "tags": {
        "amenity": "restaurant",
        "contact:instagram": "unitedtelugu_kitchens",
        "name": "United Telugu Kitchens",
        "website": "https://unitedtelugukitchens.com"
      }
    },
    {
      "type": "node",
      "id": 11921216772,
      "lat": 12.8876535,
      "lon": 77.5626484,
      "tags": {
        "addr:city": "Bangalore",
        "addr:country": "IN",
        "addr:street": "Kanakapura Road",
        "addr:suburb": "Konanakunte",
        "amenity": "restaurant",
        "contact:instagram": "luckychan.official",
        "cuisine": "sushi",
        "delivery": "yes",
        "name": "Lucky Chan",
        "takeaway": "yes",
        "website": "https://luckychan.dotpe.in/"
      }
    },
    {
      "type": "node",
      "id": 12207077475,
      "lat": 12.887406,
      "lon": 77.5625392,
      "tags": {
        "addr:floor": "G, 1",
        "check_date": "2024-09-28",
        "name": "H&M",
        "payment:cash": "yes",
        "payment:credit_cards": "yes",
        "payment:debit_cards": "yes",
        "payment:google_pay": "yes",
        "payment:upi": "yes",
        "shop": "clothes",
        "wheelchair": "yes"
      }
    },
    {
      "type": "node",
      "id": 12395928080,
      "lat": 12.8873851,
      "lon": 77.5620496,
      "tags": {
        "air_conditioning": "yes",
        "amenity": "pub",
        "contact:instagram": "ironhill_kanakapuraroad",
        "craft": "brewery",
        "indoor_seating": "yes",
        "microbrewery": "yes",
        "name": "Iron Hill Bengaluru",
        "opening_hours": "Mo-Su 12:00-01:00",
        "payment:credit_cards": "yes",
        "payment:debit_cards": "yes",
        "smoking": "separated",
        "toilets": "yes",
        "wheelchair": "limited"
      }
    },
    {
      "type": "node",
      "id": 12422650848,
      "lat": 12.8872468,
      "lon": 77.5623226,
      "tags": {
        "air_conditioning": "yes",
        "amenity": "restaurant",
        "check_date": "2024-12-14",
        "cuisine": "regional;indian",
        "diet:vegan": "yes",
        "diet:vegetarian": "yes",
        "name": "Street Storyss",
        "toilets": "yes"
      }
    },
    {
      "type": "node",
      "id": 12550871276,
      "lat": 12.8875145,
      "lon": 77.562739,
      "tags": {
        "amenity": "restaurant",
        "cuisine": "turkish",
        "name": "Kebapci"
      }
    },
    {
      "type": "node",
      "id": 12992403981,
      "lat": 12.8756037,
      "lon": 77.5688495,
      "tags": {
        "amenity": "restaurant",
        "name": "Sri Vasavi Cafe"
      }
    },
    {
      "type": "way",
      "id": 133243116,
      "center": {
        "lat": 12.8810703,
        "lon": 77.568899
      },
      "tags": {
        "amenity": "school",
        "name": "Silicon City Public School"
      }
    },
    {
      "type": "way",
      "id": 362882629,
      "center": {
        "lat": 12.8783453,
        "lon": 77.5563216
      },
      "tags": {
        "leisure": "park"
      }
    },
    {
      "type": "way",
      "id": 362882630,
      "center": {
        "lat": 12.8790983,
        "lon": 77.5579758
      },
      "tags": {
        "leisure": "park"
      }
    },
    {
      "type": "way",
      "id": 710637794,
      "center": {
        "lat": 12.8739355,
        "lon": 77.5595153
      },
      "tags": {
        "amenity": "school",
        "email": "info@mutha.edu.in",
        "name": "The Mutha School",
        "operator": "Mutha Foundation",
        "operator:type": "private",
        "phone": "+91 99450 27007",
        "school:gender": "mixed",
        "website": "https://mutha.edu.in"
      }
    },
    {
      "type": "way",
      "id": 775660950,
      "center": {
        "lat": 12.8864076,
        "lon": 77.5614211
      },
      "tags": {
        "leisure": "garden"
      }
    },
    {
      "type": "way",
      "id": 775660951,
      "center": {
        "lat": 12.8864946,
        "lon": 77.5610012
      },
      "tags": {
        "leisure": "garden"
      }
    },
    {
      "type": "way",
      "id": 775660952,
      "center": {
        "lat": 12.886917,
        "lon": 77.561549
      },
      "tags": {
        "leisure": "garden"
      }
    },
    {
      "type": "way",
      "id": 775660953,
      "center": {
        "lat": 12.8862624,
        "lon": 77.5619268
      },
      "tags": {
        "leisure": "garden"
      }
    },
    {
      "type": "way",
      "id": 775660954,
      "center": {
        "lat": 12.8859631,
        "lon": 77.5610453
      },
      "tags": {
        "leisure": "garden"
      }
    },
    {
      "type": "way",
      "id": 775660961,
      "center": {
        "lat": 12.88687,
        "lon": 77.5611779
      },
      "tags": {
        "leisure": "playground"
      }
    },
    {
      "type": "way",
      "id": 775660968,
      "center": {
        "lat": 12.8865726,
        "lon": 77.5616251
      },
      "tags": {
        "leisure": "sports_centre"
      }
    },
    {
      "type": "way",
      "id": 775660969,
      "center": {
        "lat": 12.886215,
        "lon": 77.5615524
      },
      "tags": {
        "leisure": "park"
      }
    },
    {
      "type": "way",
      "id": 775660970,
      "center": {
        "lat": 12.886384,
        "lon": 77.5615993
      },
      "tags": {
        "access": "private",
        "leisure": "swimming_pool"
      }
    },
    {
      "type": "way",
      "id": 775660975,
      "center": {
        "lat": 12.8853869,
        "lon": 77.5630045
      },
      "tags": {
        "leisure": "garden"
      }
    },
    {
      "type": "way",
      "id": 775660976,
      "center": {
        "lat": 12.8833467,
        "lon": 77.560624
      },
      "tags": {
        "addr:city": "Bengaluru",
        "addr:country": "IN",
        "addr:housenumber": "28/4",
        "addr:postcode": "560062",
        "addr:street": "Kanakapura Road",
        "addr:suburb": "Doddakalasandra",
        "amenity": "school",
        "email": "cbsedks@kumarans.org",
        "name": "Sri Kumaran Children's Academy",
        "phone": "+91 80 2632 1077",
        "school:gender": "mixed",
        "website": "https://cbse-dks.kumarans.org/"
      }
    },
    {
      "type": "way",
      "id": 775660977,
      "center": {
        "lat": 12.8860523,
        "lon": 77.5621844
      },
      "tags": {
        "leisure": "pitch",
        "sport": "tennis"
      }
    },
    {
      "type": "way",
      "id": 775660978,
      "center": {
        "lat": 12.8848802,
        "lon": 77.5642115
      },
      "tags": {
        "leisure": "pitch",
        "sport": "basketball"
      }
    },
    {
      "type": "way",
      "id": 775660979,
      "center": {
        "lat": 12.885589,
        "lon": 77.5635214
      },
      "tags": {
        "access": "private",
        "leisure": "swimming_pool"
      }
    },
    {
      "type": "way",
      "id": 775660980,
      "center": {
        "lat": 12.8856451,
        "lon": 77.5625834
      },
      "tags": {
        "leisure": "garden"
      }
    },
    {
      "type": "way",
      "id": 775660983,
      "center": {
        "lat": 12.8856156,
        "lon": 77.5633554
      },
      "tags": {
        "access": "private",
        "leisure": "swimming_pool"
      }
    },
    {
      "type": "way",
      "id": 775660997,
      "center": {
        "lat": 12.8881564,
        "lon": 77.5629073
      },
      "tags": {
        "addr:city": "Bengaluru",
        "addr:postcode": "560062",
        "addr:street": "Kanakapura Road",
        "alt_name": "Forum Kanakapura",
        "landuse": "retail",
        "name": "Prestige Forum Falcon City Mall",
        "name:ta": "ப்ரிஸ்டீஜ் ஃபோரம் ஃபால்கான் சிட்டி மால்",
        "shop": "mall"
      }
    },
    {
      "type": "way",
      "id": 946132190,
      "center": {
        "lat": 12.8857418,
        "lon": 77.5647171
      },
      "tags": {
        "leisure": "pitch",
        "sport": "tennis"
      }
    },
    {
      "type": "way",
      "id": 946132227,
      "center": {
        "lat": 12.8731231,
        "lon": 77.5636683
      },
      "tags": {
        "leisure": "park"
      }
    },
    {
      "type": "way",
      "id": 1038754353,
      "center": {
        "lat": 12.8784238,
        "lon": 77.5671712
      },
      "tags": {
        "addr:city": "Bangalore",
        "addr:street": "Amruth Nagar Main Road",
        "amenity": "fuel",
        "brand": "Hindustan Petroleum",
        "brand:wikidata": "Q1619375",
        "brand:wikipedia": "en:Hindustan Petroleum",
        "compressed_air": "yes",
        "fuel:diesel": "yes",
        "fuel:petrol": "yes",
        "name": "HP Fuel Station",
        "official_name": "Hindustan Petroleum",
        "operator": "Hindustan Petroleum",
        "payment:cash": "yes",
        "payment:credit_cards": "yes",
        "payment:debit_cards": "yes",
        "self_service": "no"
      }
    },
    {
      "type": "way",
      "id": 1039075120,
      "center": {
        "lat": 12.8727119,
        "lon": 77.5658939
      },
      "tags": {
        "addr:city": "Bangalore",
        "addr:postcode": "560062",
        "addr:street": "Anjanapura 60 Feet Road",
        "amenity": "community_centre",
        "building": "yes",
        "name": "TS Convention Hall"
      }
    },
    {
      "type": "way",
      "id": 1119196151,
      "center": {
        "lat": 12.8879087,
        "lon": 77.5638058
      },
      "tags": {
        "alt_name": "Prestige Khoday Auditorium",
        "amenity": "theatre",
        "architect": "Venkataramanan Associates",
        "building": "yes",
        "check_date": "2024-01-07",
        "name": "Prestige Srihari Khoday Centre for Performing Arts",
        "website": "https://pkcpa.org/"
      }
    },
    {
      "type": "way",
      "id": 1149374502,
      "center": {
        "lat": 12.8845924,
        "lon": 77.5627856
      },
      "tags": {
        "amenity": "fountain",
        "drinking_water": "no"
      }
    },
    {
      "type": "way",
      "id": 1176579511,
      "center": {
        "lat": 12.8747508,
        "lon": 77.5609211
      },
      "tags": {
        "amenity": "place_of_worship",
        "name": "Avalahalli Masjid",
        "name:kn": "ಅವಲಹಳ್ಳಿ ಮಸ್ಜಿದ್",
        "religion": "muslim"
      }
    },
    {
      "type": "way",
      "id": 1176579513,
      "center": {
        "lat": 12.8758843,
        "lon": 77.5615653
      },
      "tags": {
        "amenity": "school",
        "name": "Doddakalasandra Government High School"
      }
    },
    {
      "type": "way",
      "id": 1176579517,
      "center": {
        "lat": 12.8786008,
        "lon": 77.5555302
      },
      "tags": {
        "amenity": "place_of_worship",
        "religion": "hindu"
      }
    },
    {
      "type": "way",
      "id": 1176579522,
      "center": {
        "lat": 12.8787667,
        "lon": 77.5597161
      },
      "tags": {
        "leisure": "park"
      }
    },
    {
      "type": "way",
      "id": 1176579523,
      "center": {
        "lat": 12.8838351,
        "lon": 77.5663627
      },
      "tags": {
        "amenity": "police",
        "name": "Konanakunte Police Station",
        "name:kn": "ಕೋಣನಕುಂಟೆ ಆರಕ್ಷಕ ಠಾಣೆ"
      }
    },
    {
      "type": "way",
      "id": 1176579524,
      "center": {
        "lat": 12.8775146,
        "lon": 77.5686277
      },
      "tags": {
        "amenity": "school",
        "name": "DPS Bengaluru South, Junior School"
      }
    },
    {
      "type": "way",
      "id": 1176579529,
      "center": {
        "lat": 12.8840452,
        "lon": 77.5670415
      },
      "tags": {
        "leisure": "park"
      }
    },
    {
      "type": "way",
      "id": 1183470408,
      "center": {
        "lat": 12.8873478,
        "lon": 77.5630005
      },
      "tags": {
        "leisure": "park"
      }
    },
    {
      "type": "way",
      "id": 1238059508,
      "center": {
        "lat": 12.884562,
        "lon": 77.5627726
      },
      "tags": {
        "leisure": "park"
      }
    },
    {
      "type": "way",
      "id": 1238059509,
      "center": {
        "lat": 12.8854319,
        "lon": 77.5637401
      },
      "tags": {
        "access": "private",
        "leisure": "swimming_pool"
      }
    },
    {
      "type": "way",
      "id": 1238059510,
      "center": {
        "lat": 12.886537,
        "lon": 77.563214
      },
      "tags": {
        "leisure": "park"
      }
    },
    {
      "type": "way",
      "id": 1242574024,
      "center": {
        "lat": 12.8804372,
        "lon": 77.5552609
      },
      "tags": {
        "leisure": "park"
      }
    },
    {
      "type": "way",
      "id": 1266420066,
      "center": {
        "lat": 12.8856111,
        "lon": 77.5643027
      },
      "tags": {
        "leisure": "garden"
      }
    },
    {
      "type": "way",
      "id": 1307304768,
      "center": {
        "lat": 12.8849611,
        "lon": 77.5640955
      },
      "tags": {
        "access": "private",
        "amenity": "parking",
        "parking": "surface"
      }
    },
    {
      "type": "way",
      "id": 1307304769,
      "center": {
        "lat": 12.8862635,
        "lon": 77.5623688
      },
      "tags": {
        "access": "private",
        "amenity": "parking",
        "parking": "surface"
      }
    },
    {
      "type": "way",
      "id": 1307304771,
      "center": {
        "lat": 12.8862882,
        "lon": 77.5638072
      },
      "tags": {
        "access": "private",
        "amenity": "parking",
        "parking": "surface"
      }
    },
    {
      "type": "way",
      "id": 1307304772,
      "center": {
        "lat": 12.8862008,
        "lon": 77.5644171
      },
      "tags": {
        "access": "private",
        "amenity": "parking",
        "parking": "surface"
      }
    },
    {
      "type": "way",
      "id": 1369160305,
      "center": {
        "lat": 12.8738534,
        "lon": 77.5645733
      },
      "tags": {
        "access": "private",
        "amenity": "parking",
        "parking": "surface"
      }
    },
    {
      "type": "way",
      "id": 1432600215,
      "center": {
        "lat": 12.8750716,
        "lon": 77.5701896
      },
      "tags": {
        "amenity": "cinema",
        "building": "yes",
        "name": "Vinayaka Theater",
        "payment:cash": "yes",
        "payment:upi": "yes",
        "screen": "1"
      }
    },
    {
      "type": "way",
      "id": 1432600216,
      "center": {
        "lat": 12.8748536,
        "lon": 77.5703085
      },
      "tags": {
        "amenity": "restaurant",
        "building": "yes",
        "cuisine": "regional",
        "diet:vegetarian": "yes",
        "name": "Brundavan Delicacy",
        "phone": "+91-9900364985"
      }
    },
    {
      "type": "way",
      "id": 1432600217,
      "center": {
        "lat": 12.8754255,
        "lon": 77.5703725
      },
      "tags": {
        "amenity": "events_venue",
        "building": "yes",
        "name": "Sri Lakshmi Narasimha Sabangana (Girija Kalyana Mantapa)"
      }
    }
  ]
}