{
  "area_name": "Pottery Town",
  "osm_id": 7448029534,
  "osm_type": "node",
  "place_type": "neighbourhood",
  "amenity_count": 348,
  "amenities": [
    {
      "type": "node",
      "id": 665871294,
      "lat": 12.9965785,
      "lon": 77.6045552,
      "tags": {
        "addr:street": "Benson Cross Road",
        "amenity": "pharmacy",
        "healthcare": "pharmacy",
        "name": "S. S. Pharma"
      }
    },
    {
      "type": "node",
      "id": 665871295,
      "lat": 12.9965348,
      "lon": 77.6045413,
      "tags": {
        "addr:street": "Benson Cross Road",
        "amenity": "dentist",
        "name": "Glitz Dental Care and Health Centre"
      }
    },
    {
      "type": "node",
      "id": 665871296,
      "lat": 12.9967968,
      "lon": 77.6045046,
      "tags": {
        "addr:street": "Benson Cross Road",
        "name": "Family Super Market",
        "phone": "+91-80-23634305;+91-80-23430462",
        "shop": "supermarket"
      }
    },
    {
      "type": "node",
      "id": 665871301,
      "lat": 12.9993627,
      "lon": 77.6008367,
      "tags": {
        "addr:street": "Benson Cross Road",
        "amenity": "bank",
        "atm": "yes",
        "brand": "Indian Bank",
        "brand:wikidata": "Q2003789",
        "brand:wikipedia": "en:Indian Bank",
        "name": "Indian Bank",
        "name:en": "Indian Bank",
        "name:kn": "ಇಂಡಿಯನ್ ಬ್ಯಾಂಕ್",
        "website": "https://www.indianbank.in/"
      }
    },
    {
      "type": "node",
      "id": 665871303,
      "lat": 12.9995673,
      "lon": 77.599394,
      "tags": {
        "addr:street": "Nandi Durg Road",
        "amenity": "ice_cream",
        "name": "Hangyo Icecream"
      }
    },
    {
      "type": "node",
      "id": 665871310,
      "lat": 12.9998077,
      "lon": 77.5996733,
      "tags": {
        "addr:street": "Nandi Durg Road",
        "brand": "More",
        "brand:wikidata": "Q6910891",
        "name": "More",
        "name:kn": "ಮೋರ್",
        "shop": "supermarket"
      }
    },
    {
      "type": "node",
      "id": 665871311,
      "lat": 12.9969644,
      "lon": 77.6041292,
      "tags": {
        "addr:street": "Benson Cross Road",
        "name": "Arafa Stores",
        "shop": "supermarket"
      }
    },
    {
      "type": "node",
      "id": 665871312,
      "lat": 12.9973171,
      "lon": 77.6037642,
      "tags": {
        "addr:street": "Benson Cross Road",
        "amenity": "dentist",
        "name": "Dr. Afrose Parveen Dental Clinic"
      }
    },
    {
      "type": "node",
      "id": 665871313,
      "lat": 12.9979339,
      "lon": 77.6031017,
      "tags": {
        "addr:street": "Benson Cross Road",
        "name": "Benson Auto Garage",
        "shop": "car_repair"
      }
    },
    {
      "type": "node",
      "id": 667751121,
      "lat": 13.0009809,
      "lon": 77.6138953,
      "tags": {
        "addr:city": "Bangalore",
        "addr:postcode": "560005",
        "addr:street": "Madhavaraya Mudaliar Road",
        "name": "Namdhari Fresh, Frazer Town",
        "name:kn": "ನಾಮಧಾರಿ ಫ್ರೆಶ್",
        "operator": "Namdhari Fresh",
        "organic": "yes",
        "shop": "supermarket",
        "website": "https://www.namdharifresh.com/"
      }
    },
    {
      "type": "node",
      "id": 859809191,
      "lat": 13.0016772,
      "lon": 77.6138117,
      "tags": {
        "amenity": "school",
        "name": "Naasih Montessori Public School"
      }
    },
    {
      "type": "node",
      "id": 1067181192,
      "lat": 13.0038999,
      "lon": 77.6039313,
      "tags": {
        "addr:district": "Bengaluru Urban",
        "addr:full": "110,6Th Main Iti Layout Benson Town Post",
        "addr:postcode": "560046",
        "addr:state": "Karnataka",
        "amenity": "hospital",
        "name": "Devine Hospital",
        "name:kn": "ಡಿವೈನ್ ಆಸ್ಪತ್ರೆ",
        "source": "OpenGovernmentData"
      }
    },
    {
      "type": "node",
      "id": 1067181200,
      "lat": 13.0044271,
      "lon": 77.6037741,
      "tags": {
        "amenity": "pharmacy",
        "healthcare": "pharmacy",
        "name": "Vijay Medicals",
        "name:kn": "ವಿಜಯ್ ಮೆಡಿಕಲ್ಸ್"
      }
    },
    {
      "type": "node",
      "id": 1067192719,
      "lat": 12.9994929,
      "lon": 77.5989568,
      "tags": {
        "addr:street": "Nandi Durg Road",
        "amenity": "atm",
        "brand": "ICICI Bank",
        "brand:wikidata": "Q1653258",
        "name": "ICICI Bank",
        "operator": "ICICI Bank",
        "operator:wikidata": "Q1653258",
        "short_name": "ICICI"
      }
    },
    {
      "type": "node",
      "id": 1067205123,
      "lat": 13.001892,
      "lon": 77.5992036,
      "tags": {
        "addr:street": "Nandi Durg Road",
        "amenity": "telephone",
        "name": "Airtel Office",
        "name:kn": "ಏರ್ಟೆಲ್"
      }
    },
    {
      "type": "node",
      "id": 1067206582,
      "lat": 13.0015628,
      "lon": 77.5993592,
      "tags": {
        "addr:street": "Nandi Durg Road",
        "amenity": "restaurant",
        "name": "Elements",
        "name:kn": "ಎಲಿಮೆಂಟ್ಸ್"
      }
    },
    {
      "type": "node",
      "id": 1290044474,
      "lat": 12.9955696,
      "lon": 77.6017708,
      "tags": {
        "amenity": "atm",
        "opening_hours": "24/7"
      }
    },
    {
      "type": "node",
      "id": 1469181813,
      "lat": 12.995625,
      "lon": 77.6113272,
      "tags": {
        "addr:city": "Bengaluru",
        "addr:country": "IN",
        "addr:hamlet": "Frazer Town",
        "addr:postcode": "560005",
        "addr:street": "Saunders Road",
        "amenity": "hospital",
        "name": "Seventh Day Adventist Hospital",
        "name:kn": "ಸೆವೆಂತ್ ಡೇ ಅಡ್ವೆನ್ಟಿಸ್ಟ್ ಆಸ್ಪತ್ರೆ"
      }
    },
    {
      "type": "node",
      "id": 1469183215,
      "lat": 12.9930687,
      "lon": 77.609477,
      "tags": {
        "amenity": "toilets"
      }
    },
    {
      "type": "node",
      "id": 1469190367,
      "lat": 12.9968818,
      "lon": 77.6109656,
      "tags": {
        "amenity": "school",
        "name": "Fathima's Girls High School",
        "name:kn": "ಫಾತೀಮಾಸ್ ಹೆಣ್ಣು ಮಕ್ಕಳ ಪ್ರೌಡ ಶಾಲೆ"
      }
    },
    {
      "type": "node",
      "id": 1469190369,
      "lat": 12.9961919,
      "lon": 77.6115235,
      "tags": {
        "addr:city": "Bangalore",
        "addr:district": "Bengaluru Urban",
        "addr:housenumber": "86/1",
        "addr:postcode": "560005",
        "addr:street": "Saunders Road",
        "email": "dreamworldindia@yahoo.com",
        "mobile": "+91 41 25 22 58",
        "name": "Dream World",
        "name:kn": "ಡ್ರೀಮ್ ವರ್ಲ್ಡ್",
        "name:pa": "ਡ੍ਰੀਮ ਵਰਲਡ",
        "name:ur": "ڈریم ورلڈ",
        "payment:cash": "yes",
        "payment:credit_cards": "yes",
        "payment:debit_cards": "yes",
        "payment:mastercard": "yes",
        "payment:visa": "yes",
        "phone": "+91 80 6564 6060",
        "shop": "gift",
        "website": "https://dreamworldindia.in/"
      }
    },
    {
      "type": "node",
      "id": 1469190371,
      "lat": 12.9961239,
      "lon": 77.6132737,
      "tags": {
        "amenity": "cafe",
        "brand": "Third Wave Coffee Roasters",
        "brand:wikidata": "Q7785004",
        "cuisine": "coffee_shop",
        "delivery": "yes",
        "internet_access": "yes",
        "internet_access:fee": "no",
        "name": "Third Wave Coffee Roasters",
        "payment:credit_cards": "yes",
        "payment:debit_cards": "yes",
        "takeaway": "yes",
        "website": "https://www.thirdwavecoffeeroasters.com/"
      }
    },
    {
      "type": "node",
      "id": 1469190372,
      "lat": 12.9959044,
      "lon": 77.6130336,
      "tags": {
        "amenity": "restaurant",
        "cuisine": "indian",
        "diet:vegetarian": "yes",
        "name": "Nandini Restaurant",
        "name:kn": "ನಂದಿನಿ ಉಪಾಹಾರ ಗೃಹ"
      }
    },
    {
      "type": "node",
      "id": 1469190376,
      "lat": 12.9958364,
      "lon": 77.6131543,
      "tags": {
        "amenity": "restaurant",
        "check_date": "2024-04-27",
        "cuisine": "indian",
        "diet:vegetarian": "yes",
        "name": "Udupi Shanthi Sagar",
        "name:kn": "ಶಾಂತಿ ಸಾಗರ"
      }
    },
    {
      "type": "node",
      "id": 1469190377,
      "lat": 12.9973354,
      "lon": 77.6106956,
      "tags": {
        "amenity": "fast_food",
        "brand": "Domino's",
        "brand:ks": "ڈومینوز",
        "brand:pa": "ਡੋਮੀਨੋਜ਼",
        "brand:ur": "ڈومینوز",
        "brand:wikidata": "Q839466",
        "brand:wikipedia": "en:Domino's Pizza",
        "cuisine": "pizza",
        "name": "Domino's",
        "name:kn": "ಡಾಮಿನೋಸ್",
        "name:ks": "ڈومینوز",
        "name:pa": "ਡੋਮੀਨੋਜ਼",
        "name:ur": "ڈومینوز",
        "takeaway": "yes"
      }
    },
    {
      "type": "node",
      "id": 1469190378,
      "lat": 12.9961448,
      "lon": 77.6112526,
      "tags": {
        "amenity": "restaurant",
        "name": "Ponnuswamy Restaurant",
        "name:kn": "ಪೋನ್ನುಸ್ವಾಮಿ ರೆಸ್ಟೊರೆಂಟ್"
      }
    },
    {
      "type": "node",
      "id": 1469190382,
      "lat": 12.9961891,
      "lon": 77.613053,
      "tags": {
        "addr:city": "Bangalore",
        "addr:district": "Bengaluru Urban",
        "addr:postcode": "560005",
        "addr:street": "Coles Road",
        "name": "Lakme",
        "name:kn": "ಲಾಕ್ಮೆ",
        "shop": "hairdresser"
      }
    },
    {
      "type": "node",
      "id": 1469190383,
      "lat": 12.9970256,
      "lon": 77.611258,
      "tags": {
        "brand": "Reliance Fresh",
        "brand:wikidata": "Q7311014",
        "name": "Reliance Fresh",
        "name:kn": "ರಿಲಾಯನ್ಸ್ ಫ್ರೆಶ್",
        "shop": "supermarket"
      }
    },
    {
      "type": "node",
      "id": 1469196551,
      "lat": 12.9931105,
      "lon": 77.6089191,
      "tags": {
        "addr:street": "Saint John's Church Road",
        "amenity": "restaurant",
        "name": "Al-Siddique Kabab Center",
        "name:kn": "ಅಲ್-ಸಿದ್ದಿಕಿ ಕಬಾಬ್ ಸೆಂಟರ್"
      }
    },
    {
      "type": "node",
      "id": 1469196554,
      "lat": 12.993662,
      "lon": 77.6086321,
      "tags": {
        "name": "Tyre Shop",
        "shop": "car_repair"
      }
    },
    {
      "type": "node",
      "id": 1469196557,
      "lat": 12.9933614,
      "lon": 77.6080259,
      "tags": {
        "addr:street": "Saint John's Church Road",
        "amenity": "clinic",
        "name": "Santosh Diagnostic & Scan Center"
      }
    },
    {
      "type": "node",
      "id": 1469196561,
      "lat": 12.9934162,
      "lon": 77.608356,
      "tags": {
        "addr:street": "Saint John's Church Road",
        "amenity": "restaurant",
        "name": "Siddique Kabab Center",
        "name:kn": "ಸಿದ್ದಿಕಿ ಕಬಾಬ್ ಸೆಂಟರ್"
      }
    },
    {
      "type": "node",
      "id": 1469196563,
      "lat": 12.9936045,
      "lon": 77.6078087,
      "tags": {
        "amenity": "vending_machine",
        "name": "Citibank ATM",
        "name:kn": "ಸಿಟಿಬ್ಯಾಂಕ್"
      }
    },
    {
      "type": "node",
      "id": 1469196568,
      "lat": 12.9936175,
      "lon": 77.6083773,
      "tags": {
        "addr:street": "Saint John's Church Road",
        "name": "Mutton Shop",
        "shop": "butcher"
      }
    },
    {
      "type": "node",
      "id": 1469196571,
      "lat": 12.9936149,
      "lon": 77.6084336,
      "tags": {
        "name": "Chicken Shop",
        "shop": "butcher"
      }
    },
    {
      "type": "node",
      "id": 1469196573,
      "lat": 12.9935915,
      "lon": 77.6086664,
      "tags": {
        "addr:street": "Saint John's Church Road",
        "amenity": "clinic",
        "name": "Park View Clinic",
        "name:kn": "ಪಾರ್ಕ್ ವೀವ್ ಕ್ಲಿನಿಕ್"
      }
    },
    {
      "type": "node",
      "id": 1474170030,
      "lat": 12.9954523,
      "lon": 77.6138486,
      "tags": {
        "addr:city": "Bengaluru",
        "addr:housenumber": "66/1",
        "addr:postcode": "560005",
        "addr:street": "Coles Road",
        "addr:suburb": "Fraser Town",
        "amenity": "restaurant",
        "branch": "Coles Road",
        "brand": "Pizza Hut",
        "brand:wikidata": "Q191615",
        "check_date": "2024-06-15",
        "cuisine": "pizza",
        "name": "Pizza Hut",
        "name:kn": "ಪಿಜ್ಜಾ ಹಟ್",
        "website": "https://www.pizzahut.co.in/"
      }
    },
    {
      "type": "node",
      "id": 1474195314,
      "lat": 12.9978917,
      "lon": 77.6147471,
      "tags": {
        "addr:housenumber": "16",
        "addr:postcode": "560005",
        "addr:street": "Mosque Road",
        "alt_name": "Kentucky Fried Chicken",
        "alt_name:en": "Kentucky Fried Chicken",
        "alt_name:hi": "केंटुकी फ्राइड चिकन",
        "alt_name:pa": "ਕੈਂਟੁਕੀ ਫ੍ਰਾਈਡ ਚਿਕਨ",
        "alt_name:pnb": "کینٹکی فرائیڈ چکن",
        "alt_name:ur": "کینٹکی فرائیڈ چکن",
        "amenity": "fast_food",
        "brand": "KFC",
        "brand:en": "KFC",
        "brand:hi": "केएफसी",
        "brand:pa": "ਕੇਐਫਸੀ",
        "brand:pnb": "کے ایف سی",
        "brand:ur": "کے ایف سی",
        "brand:wikidata": "Q524757",
        "brand:wikipedia": "en:KFC",
        "brand:wikipedia:pa": "ਕੇਐਫਸੀ",
        "brand:wikipedia:ur": "کینٹکی فرائیڈ چکن",
        "cuisine": "chicken",
        "name": "KFC",
        "name:en": "KFC",
        "name:hi": "केएफसी",
        "name:kn": "ಕೆಎಫ್‍ಸಿ",
        "name:pa": "ਕੇਐਫਸੀ",
        "name:pnb": "کے ایف سی",
        "name:ur": "کے ایف سی",
        "takeaway": "yes"
      }
    },
    {
      "type": "node",
      "id": 1474195320,
      "lat": 12.9973063,
      "lon": 77.6138674,
      "tags": {
        "addr:housenumber": "11",
        "addr:postcode": "560005",
        "addr:street": "Mosque Road",
        "amenity": "restaurant",
        "cuisine": "chinese",
        "name": "Beijing Bites",
        "name:kn": "ಬೀಜಿಂಗ್ ಬೈಟ್ಸ್"
      }
    },
    {
      "type": "node",
      "id": 1474195332,
      "lat": 12.9968718,
      "lon": 77.6143631,
      "tags": {
        "addr:housenumber": "93/2",
        "addr:postcode": "560005",
        "addr:street": "Mosque Road",
        "brand": "Sweet Chariot",
        "check_date": "2024-04-27",
        "delivery": "yes",
        "name": "Sweet Chariot",
        "name:kn": "ಸ್ವೀಟ್ ಚಾರಿಯಟ್",
        "shop": "pastry",
        "takeaway": "yes"
      }
    },
    {
      "type": "node",
      "id": 1474195346,
      "lat": 12.9954036,
      "lon": 77.6139103,
      "tags": {
        "amenity": "fast_food",
        "name": "Ganesha Fruit Juice Center",
        "name:kn": "ಗಣೇಶ ಫ್ರೂಟ್ ಜ್ಯೂಸ್ ಸೆಂಟರ್"
      }
    },
    {
      "type": "node",
      "id": 1474195348,
      "lat": 12.9966022,
      "lon": 77.614216,
      "tags": {
        "addr:housenumber": "93",
        "addr:postcode": "560005",
        "addr:street": "Mosque Road",
        "name": "Albert Bakery",
        "name:kn": "ಆಲ್ಬರ್ಟ್ ಬೇಕರಿ",
        "name:pa": "ਐਲਬਰਟ ਬੇਕਰੀ",
        "name:ur": "البرٹ بیکری",
        "shop": "bakery"
      }
    },
    {
      "type": "node",
      "id": 1474200449,
      "lat": 12.9999459,
      "lon": 77.6158737,
      "tags": {
        "addr:postcode": "560005",
        "addr:street": "Mosque Road",
        "alt_name": "Hotel Empire",
        "amenity": "restaurant",
        "brand": "Empire",
        "check_date": "2024-04-27",
        "cuisine": "indian",
        "delivery": "yes",
        "diet:halal": "yes",
        "name": "Empire",
        "name:kn": "ಎಂಪೈರ್ ರೆಸ್ಟೋರೆಂಟ್",
        "takeaway": "yes"
      }
    },
    {
      "type": "node",
      "id": 1866331129,
      "lat": 13.0039638,
      "lon": 77.6155248,
      "tags": {
        "name": "Mysore Mini Shopee",
        "shop": "convenience"
      }
    },
    {
      "type": "node",
      "id": 2013821580,
      "lat": 13.0005858,
      "lon": 77.6148025,
      "tags": {
        "addr:housenumber": "No.69,1st floor,",
        "addr:postcode": "560005",
        "addr:street": "M.M Road, Frazer Town, Bangalore",
        "amenity": "restaurant",
        "cuisine": "persian;arabic;bhatkali",
        "name": "Alibaba Cafe & Restaurant"
      }
    },
    {
      "type": "node",
      "id": 2247465811,
      "lat": 12.9945651,
      "lon": 77.6077839,
      "tags": {
        "amenity": "fast_food",
        "name": "Nandi Bakery",
        "name:kn": "ನಂದಿ",
        "shop": "kiosk"
      }
    },
    {
      "type": "node",
      "id": 2247465952,
      "lat": 12.9955047,
      "lon": 77.6081944,
      "tags": {
        "amenity": "restaurant",
        "name": "Best of Bengal"
      }
    },
    {
      "type": "node",
      "id": 2533566686,
      "lat": 13.0007683,
      "lon": 77.6132902,
      "tags": {
        "amenity": "hospital",
        "name": "United Medical lab",
        "name:kn": "ಯುನೈಟೆಡ್ ಮೆಡಿಕಲ್ ಲ್ಯಾಬ್"
      }
    },
    {
      "type": "node",
      "id": 3342048294,
      "lat": 12.9976504,
      "lon": 77.6095995,
      "tags": {
        "amenity": "bank",
        "brand": "Bank of Baroda",
        "brand:wikidata": "Q2003797",
        "brand:wikipedia": "en:Bank of Baroda",
        "name": "Bank of Baroda",
        "name:en": "Bank of Baroda",
        "name:kn": "ಬ್ಯಾಂಕ್ ಆಫ್ ಬರೋಡ",
        "short_name": "BoB",
        "website": "http://www.bankofbaroda.com"
      }
    },
    {
      "type": "node",
      "id": 3342048735,
      "lat": 12.9978263,
      "lon": 77.6097252,
      "tags": {
        "amenity": "atm",
        "brand": "Axis Bank",
        "brand:wikidata": "Q2003549",
        "name": "Axis Bank",
        "name:kn": "ಆಕ್ಸಿಸ್ ಬ್ಯಾಂಕ್",
        "operator": "Axis Bank",
        "operator:wikidata": "Q2003549"
      }
    },
    {
      "type": "node",
      "id": 3342051067,
      "lat": 12.997797,
      "lon": 77.6096526,
      "tags": {
        "amenity": "atm",
        "brand": "Bank of Baroda",
        "brand:wikidata": "Q2003797",
        "name": "Bank of Baroda",
        "name:kn": "ಬ್ಯಾಂಕ್ ಆಫ್ ಬರೋಡ",
        "operator": "Bank of Baroda",
        "operator:wikidata": "Q2003797"
      }
    },
    {
      "type": "node",
      "id": 3342184333,
      "lat": 12.9974931,
      "lon": 77.6103558,
      "tags": {
        "amenity": "bank",
        "brand": "Axis Bank",
        "brand:wikidata": "Q2003549",
        "brand:wikipedia": "en:Axis Bank",
        "name": "Axis Bank",
        "name:en": "Axis Bank",
        "name:kn": "ಆಕ್ಸಿಸ್ ಬ್ಯಾಂಕ್",
        "website": "https://www.axisbank.com"
      }
    },
    {
      "type": "node",
      "id": 3342186004,
      "lat": 12.9974461,
      "lon": 77.6100447,
      "tags": {
        "amenity": "atm",
        "name": "Kotak Bank ATM",
        "name:kn": "ಕೋಟಕ್ ಮಹಿಂದ್ರ ಬ್ಯಾಂಕ್"
      }
    },
    {
      "type": "node",
      "id": 3342192953,
      "lat": 12.9982941,
      "lon": 77.608715,
      "tags": {
        "amenity": "bank",
        "brand": "Union Bank of India",
        "brand:wikidata": "Q2004078",
        "brand:wikipedia": "en:Corporation Bank",
        "check_date": "2024-05-19",
        "name": "Union Bank of India",
        "name:en": "Union Bank of India",
        "website": "https://corpbank.com/"
      }
    },
    {
      "type": "node",
      "id": 3342200596,
      "lat": 12.9999995,
      "lon": 77.6107662,
      "tags": {
        "name": "GK Vale",
        "name:kn": "ಜಿಕೆ ವೇಲ್",
        "shop": "photo"
      }
    },
    {
      "type": "node",
      "id": 3342201618,
      "lat": 12.9999864,
      "lon": 77.6110398,
      "tags": {
        "name": "Dilpasand Tea Canter",
        "shop": "tea"
      }
    },
    {
      "type": "node",
      "id": 3342217126,
      "lat": 13.0001615,
      "lon": 77.6111363,
      "tags": {
        "name": "Savera Tea House",
        "shop": "tea"
      }
    },
    {
      "type": "node",
      "id": 3342219225,
      "lat": 12.999644,
      "lon": 77.611418,
      "tags": {
        "amenity": "atm",
        "brand": "Bank of Baroda",
        "brand:wikidata": "Q2003797",
        "name": "Bank of Baroda",
        "operator": "Bank of Baroda",
        "operator:wikidata": "Q2003797"
      }
    },
    {
      "type": "node",
      "id": 3342219791,
      "lat": 13.0002582,
      "lon": 77.6112114,
      "tags": {
        "amenity": "bank",
        "atm": "yes",
        "brand": "State Bank of India",
        "brand:wikidata": "Q1340361",
        "brand:wikipedia": "en:State Bank of India",
        "name": "State Bank of India",
        "name:kn": "ಭಾರತೀಯ ಸ್ಟೇಟ್ ಬ್ಯಾಂಕ್",
        "short_name": "SBI",
        "website": "https://www.sbi.co.in"
      }
    },
    {
      "type": "node",
      "id": 3342219979,
      "lat": 13.000752,
      "lon": 77.6131248,
      "tags": {
        "amenity": "restaurant",
        "name": "Richies Rahhams Families International"
      }
    },
    {
      "type": "node",
      "id": 3342223440,
      "lat": 13.0007619,
      "lon": 77.6131533,
      "tags": {
        "amenity": "atm",
        "brand": "Axis Bank",
        "brand:wikidata": "Q2003549",
        "name": "Axis Bank",
        "name:kn": "ಆಕ್ಸಿಸ್ ಬ್ಯಾಂಕ್",
        "operator": "Axis Bank",
        "operator:wikidata": "Q2003549"
      }
    },
    {
      "type": "node",
      "id": 3344232700,
      "lat": 12.9952969,
      "lon": 77.6144743,
      "tags": {
        "amenity": "atm",
        "brand": "HDFC Bank",
        "brand:wikidata": "Q631047",
        "name": "HDFC Bank",
        "name:kn": "ಎಚ್. ಡಿ. ಎಫ್. ಸಿ.",
        "operator": "HDFC Bank",
        "operator:wikidata": "Q631047",
        "short_name": "HDFC"
      }
    },
    {
      "type": "node",
      "id": 3526180139,
      "lat": 13.0035234,
      "lon": 77.6166155,
      "tags": {
        "amenity": "bank",
        "atm": "yes",
        "brand": "ICICI Bank",
        "brand:wikidata": "Q1653258",
        "brand:wikipedia": "en:ICICI Bank",
        "name": "ICICI Bank",
        "name:en": "ICICI Bank",
        "name:kn": "ಐಸಿಐಸಿಐ ಬ್ಯಾಂಕ್",
        "short_name": "ICICI",
        "website": "https://www.icicibank.com",
        "wheelchair": "no"
      }
    },
    {
      "type": "node",
      "id": 3526180140,
      "lat": 13.0036378,
      "lon": 77.6166655,
      "tags": {
        "amenity": "cafe",
        "cuisine": "indian",
        "name": "Indiradarshini",
        "name:en": "Indira Darshini",
        "name:hi": "इंदिरा दर्शिनी",
        "name:kn": "ಇಂದಿರಾ ದರ್ಶಿನಿ",
        "opening_hours": "Mo-Su 07:00-21:00",
        "wheelchair": "no"
      }
    },
    {
      "type": "node",
      "id": 3537449249,
      "lat": 13.0033101,
      "lon": 77.607122,
      "tags": {
        "amenity": "place_of_worship"
      }
    },
    {
      "type": "node",
      "id": 4254493136,
      "lat": 12.9991564,
      "lon": 77.6157298,
      "tags": {
        "name": "Hides Inc",
        "shop": "shoes"
      }
    },
    {
      "type": "node",
      "id": 4371078994,
      "lat": 13.0018629,
      "lon": 77.5988299,
      "tags": {
        "amenity": "bank",
        "atm": "yes",
        "brand": "HDFC Bank",
        "brand:wikidata": "Q631047",
        "brand:wikipedia": "en:HDFC Bank",
        "name": "HDFC Bank",
        "name:kn": "ಎಚ್ ಡಿ ಎಫ್ ಸಿ",
        "short_name": "HDFC",
        "website": "https://www.hdfcbank.com"
      }
    },
    {
      "type": "node",
      "id": 4446300155,
      "lat": 12.9959413,
      "lon": 77.6082575,
      "tags": {
        "addr:city": "bangalore",
        "addr:district": "Bengaluru Urban",
        "addr:full": "No. 6 / 1, Promenade Road, Behind Coles Park, Near Goodwill School",
        "addr:housenumber": "6/1",
        "addr:postcode": "560005",
        "addr:state": "Karnataka",
        "addr:street": "Promenade Road, Near Coles Park, Frazer Town",
        "amenity": "hospital",
        "check_date": "2024-12-29",
        "name": "Santosh Hospital",
        "name:kn": "ಸಂತೋಷ ಆಸ್ಪತ್ರೆ",
        "phone": "080 2536 7706",
        "source": "OpenGovernmentData",
        "website": "https://santoshhealthcare.com/"
      }
    },
    {
      "type": "node",
      "id": 4447003711,
      "lat": 12.9946163,
      "lon": 77.6023871,
      "tags": {
        "addr:city": "bangalore",
        "addr:housenumber": "62",
        "addr:street": "Millers Rd, Cantonment Railway Quarters",
        "amenity": "hospital",
        "name": "Ayushman Ayurvedic therapy centre",
        "phone": "+91 95356 68668",
        "source": "www.justdial.com",
        "website": "ayushmanayurvedic.com"
      }
    },
    {
      "type": "node",
      "id": 4488025973,
      "lat": 12.9948336,
      "lon": 77.6107384,
      "tags": {
        "addr:city": "Bangalore",
        "addr:housenumber": "11",
        "addr:postcode": "560005",
        "addr:street": "Saunders Road",
        "name": "Madeena Supermarket",
        "phone": "(91)-80-33619929",
        "shop": "supermarket"
      }
    },
    {
      "type": "node",
      "id": 4488175593,
      "lat": 13.004258,
      "lon": 77.6135288,
      "tags": {
        "addr:city": "Bangalore",
        "addr:housenumber": "14",
        "addr:postcode": "560005",
        "addr:street": "Viviani Road  Near-Imarn Men's Wear, Frazer Town, Richards Town",
        "name": "Food Mart Super Market",
        "phone": "080509 15836",
        "shop": "supermarket"
      }
    },
    {
      "type": "node",
      "id": 4489946141,
      "lat": 12.9973067,
      "lon": 77.6139222,
      "tags": {
        "addr:city": "Bengaluru",
        "addr:housenumber": "#101, Ground Floor, Robertson Road",
        "addr:postcode": "560005",
        "addr:street": "Frazer Town, Pulikeshi Nagar",
        "name": "Celebrate Life",
        "opening_hours": "07:00-20:00",
        "phone": "098861 53453",
        "shop": "beauty",
        "website": "celebratelifewellness.com"
      }
    },
    {
      "type": "node",
      "id": 4490335805,
      "lat": 12.9981117,
      "lon": 77.6153053,
      "tags": {
        "addr:city": "Bengaluru",
        "addr:housenumber": "83",
        "addr:postcode": "560005",
        "addr:street": "Mosque Rd, Bhadrappa Layout, Pulikeshi Nagar, Bengaluru,",
        "leisure": "sports_centre",
        "name": "Snap Fitness",
        "opening_hours": "5:00-23:00",
        "phone": "8065651050",
        "sport": "gymnasium",
        "website": "snapfitnessindia.com"
      }
    },
    {
      "type": "node",
      "id": 4586355540,
      "lat": 12.9964446,
      "lon": 77.6125758,
      "tags": {
        "addr:city": "Bangalore",
        "addr:postcode": "560005",
        "addr:street": "Coles Road",
        "amenity": "ice_cream",
        "cuisine": "dessert;cake",
        "name": "Ibaco",
        "name:kn": "ಐಬಾಕೊ",
        "opening_hours": "11:00 - 23:00",
        "outdoor_seating": "no",
        "phone": "+91 9739591993"
      }
    },
    {
      "type": "node",
      "id": 4757433421,
      "lat": 13.0054971,
      "lon": 77.6161129,
      "tags": {
        "amenity": "pharmacy",
        "healthcare": "pharmacy",
        "name": "Primecare Pharmacy",
        "name:en": "Primecare Pharmacy",
        "name:kn": "ಪ್ರೈಮ ಕೇರ್",
        "source": "survey",
        "website": "https://primecare.in/"
      }
    },
    {
      "type": "node",
      "id": 4849618972,
      "lat": 12.9999504,
      "lon": 77.610637,
      "tags": {
        "name": "The Camera Store",
        "shop": "photo"
      }
    },
    {
      "type": "node",
      "id": 4851692302,
      "lat": 13.0007498,
      "lon": 77.6134894,
      "tags": {
        "amenity": "restaurant",
        "name": "New Taj Biryani Center"
      }
    },
    {
      "type": "node",
      "id": 4851692304,
      "lat": 13.000759,
      "lon": 77.6134424,
      "tags": {
        "amenity": "restaurant",
        "name": "Pista House"
      }
    },
    {
      "type": "node",
      "id": 5174704944,
      "lat": 13.0018586,
      "lon": 77.5988817,
      "tags": {
        "amenity": "atm",
        "brand": "HDFC Bank",
        "brand:wikidata": "Q631047",
        "name": "HDFC Bank",
        "name:kn": "ಎಚ್ ಡಿ ಎಫ್ ಸಿ",
        "operator": "HDFC Bank",
        "operator:wikidata": "Q631047",
        "short_name": "HDFC"
      }
    },
    {
      "type": "node",
      "id": 5174892806,
      "lat": 12.9958589,
      "lon": 77.6082728,
      "tags": {
        "amenity": "pharmacy",
        "check_date": "2024-12-29",
        "healthcare": "pharmacy",
        "name": "Santosh Pharma",
        "wheelchair": "no"
      }
    },
    {
      "type": "node",
      "id": 5174892807,
      "lat": 12.9942834,
      "lon": 77.607881,
      "tags": {
        "name": "f1rstep shoes",
        "shop": "shoes"
      }
    },
    {
      "type": "node",
      "id": 5174892808,
      "lat": 12.9941863,
      "lon": 77.6078319,
      "tags": {
        "name": "Farheen Tours and Travels",
        "shop": "travel_agency"
      }
    },
    {
      "type": "node",
      "id": 5174892809,
      "lat": 12.9941962,
      "lon": 77.6076009,
      "tags": {
        "amenity": "pharmacy",
        "healthcare": "pharmacy",
        "name": "Mustafai Unani Pharmacy"
      }
    },
    {
      "type": "node",
      "id": 5174892810,
      "lat": 12.9939627,
      "lon": 77.6077395,
      "tags": {
        "name": "Royal Sports",
        "shop": "sports"
      }
    },
    {
      "type": "node",
      "id": 5273606323,
      "lat": 12.9956522,
      "lon": 77.6015774,
      "tags": {
        "amenity": "bank",
        "brand": "Canara Bank",
        "brand:en": "Canara Bank",
        "brand:hi": "केनरा बैंक",
        "brand:kn": "ಕೆನರಾ ಬ್ಯಾಂಕ್",
        "brand:pa": "ਕੇਨਰਾ ਬੈਂਕ",
        "brand:pnb": "کینرا بینک",
        "brand:ur": "کینرا بینک",
        "brand:wikidata": "Q2003777",
        "brand:wikipedia": "en:Canara Bank",
        "brand:wikipedia:pa": "ਕੇਨਰਾ ਬੈਂਕ",
        "name": "Canara Bank",
        "name:en": "Canara Bank",
        "name:hi": "केनरा बैंक",
        "name:kn": "ಕೆನರಾ ಬ್ಯಾಂಕ್",
        "name:pa": "ਕੇਨਰਾ ਬੈਂਕ",
        "name:pnb": "کینرا بینک",
        "name:ur": "کینرا بینک"
      }
    },
    {
      "type": "node",
      "id": 5862563587,
      "lat": 12.9926078,
      "lon": 77.6093643,
      "tags": {
        "amenity": "place_of_worship",
        "name": "Masjid-ur-Rahmah",
        "religion": "muslim"
      }
    },
    {
      "type": "node",
      "id": 6938799261,
      "lat": 12.9995426,
      "lon": 77.6107599,
      "tags": {
        "addr:district": "Bengaluru Urban",
        "addr:full": "43-B,Robertson Road,Haines Main Road, Opposite G.K.Vale, Frazer Town",
        "addr:postcode": "560005",
        "addr:state": "Karnataka",
        "amenity": "clinic",
        "name": "F.M. Eye Clinic and Surgical Centre",
        "source": "OpenGovernmentData"
      }
    },
    {
      "type": "node",
      "id": 6944231454,
      "lat": 12.9994472,
      "lon": 77.6162584,
      "tags": {
        "addr:district": "Bengaluru Urban",
        "addr:full": "Pillana Garden",
        "addr:postcode": "560045",
        "addr:state": "Karnataka",
        "amenity": "hospital",
        "name": "Mediscope Hospital Private Limited",
        "operator:type": "private",
        "source": "OpenGovernmentData",
        "website": "http://dpal.kar.nic.in/Kanunu%20padakosha%20PDF%20Files/Recognised%20Hospitals.pdf"
      }
    },
    {
      "type": "node",
      "id": 6947499710,
      "lat": 12.9967984,
      "lon": 77.6112893,
      "tags": {
        "addr:district": "Bengaluru Urban",
        "addr:full": "64 Spencer Road Near Coles Park Frazer Town",
        "addr:postcode": "560005",
        "addr:state": "Karnataka",
        "amenity": "clinic",
        "name": "Cantonment Poly Clinic And Nursing Home",
        "source": "OpenGovernmentData"
      }
    },
    {
      "type": "node",
      "id": 6947499711,
      "lat": 12.9960196,
      "lon": 77.6128413,
      "tags": {
        "addr:district": "Bengaluru Urban",
        "addr:full": "No.33, Coles Road,Frazer Town",
        "addr:postcode": "560005",
        "addr:state": "Karnataka",
        "amenity": "hospital",
        "name": "Dr.Agarwal Eye Hospital, Frazer Town, Bangalore",
        "source": "OpenGovernmentData"
      }
    },
    {
      "type": "node",
      "id": 7087593362,
      "lat": 12.9936948,
      "lon": 77.607556,
      "tags": {
        "name": "The French Loaf",
        "shop": "bakery"
      }
    },
    {
      "type": "node",
      "id": 7087593363,
      "lat": 12.9942345,
      "lon": 77.6078604,
      "tags": {
        "amenity": "bank",
        "atm": "yes",
        "brand": "ICICI Bank",
        "brand:wikidata": "Q1653258",
        "name": "ICICI Bank",
        "short_name": "ICICI",
        "wheelchair": "no"
      }
    },
    {
      "type": "node",
      "id": 7087593367,
      "lat": 12.9941666,
      "lon": 77.6103415,
      "tags": {
        "amenity": "restaurant",
        "name": "Raidan Restaurant"
      }
    },
    {
      "type": "node",
      "id": 7234539608,
      "lat": 12.9978333,
      "lon": 77.6075801,
      "tags": {
        "amenity": "community_centre",
        "name": "Adam's Golden Heritage"
      }
    },
    {
      "type": "node",
      "id": 7255929421,
      "lat": 12.9959111,
      "lon": 77.615154,
      "tags": {
        "access": "permissive",
        "amenity": "parking",
        "parking": "underground"
      }
    },
    {
      "type": "node",
      "id": 7255929437,
      "lat": 12.9964978,
      "lon": 77.6148905,
      "tags": {
        "amenity": "place_of_worship",
        "religion": "hindu"
      }
    },
    {
      "type": "node",
      "id": 7255929439,
      "lat": 12.9974439,
      "lon": 77.6144452,
      "tags": {
        "brand": "cult.fit",
        "brand:wikidata": "Q121289250",
        "leisure": "fitness_centre",
        "name": "cult.fit"
      }
    },
    {
      "type": "node",
      "id": 7255929444,
      "lat": 12.998522,
      "lon": 77.6157112,
      "tags": {
        "amenity": "school",
        "name": "Bethesda Academy"
      }
    },
    {
      "type": "node",
      "id": 7255929445,
      "lat": 12.9995034,
      "lon": 77.6161296,
      "tags": {
        "amenity": "cafe",
        "name": "Cafe Arabica"
      }
    },
    {
      "type": "node",
      "id": 7255929448,
      "lat": 13.000439,
      "lon": 77.6156254,
      "tags": {
        "check_date": "2024-04-27",
        "name": "Carry Fresh",
        "shop": "supermarket",
        "wheelchair": "yes"
      }
    },
    {
      "type": "node",
      "id": 7255929449,
      "lat": 13.000456,
      "lon": 77.6153719,
      "tags": {
        "amenity": "restaurant",
        "name": "Royal Pavilion"
      }
    },
    {
      "type": "node",
      "id": 7255929462,
      "lat": 13.0009355,
      "lon": 77.6142669,
      "tags": {
        "amenity": "restaurant",
        "cuisine": "chinese",
        "name": "King Kong"
      }
    },
    {
      "type": "node",
      "id": 7255929463,
      "lat": 13.0011143,
      "lon": 77.6123797,
      "tags": {
        "amenity": "atm",
        "brand": "State Bank of India",
        "brand:wikidata": "Q1340361",
        "name": "State Bank of India",
        "operator": "State Bank of India",
        "operator:wikidata": "Q1340361",
        "short_name": "SBI"
      }
    },
    {
      "type": "node",
      "id": 7255929466,
      "lat": 13.001321,
      "lon": 77.6118569,
      "tags": {
        "amenity": "place_of_worship",
        "name": "St Anthony's Church",
        "religion": "christian"
      }
    },
    {
      "type": "node",
      "id": 7255929467,
      "lat": 13.0011328,
      "lon": 77.6116423,
      "tags": {
        "amenity": "place_of_worship",
        "religion": "hindu"
      }
    },
    {
      "type": "node",
      "id": 7301335844,
      "lat": 12.9963502,
      "lon": 77.6058018,
      "tags": {
        "amenity": "place_of_worship",
        "name": "Sisters of Mary Immaculate of Bishop Morrow",
        "religion": "christian"
      }
    },
    {
      "type": "node",
      "id": 7817577922,
      "lat": 13.0038285,
      "lon": 77.6154682,
      "tags": {
        "amenity": "pharmacy",
        "brand": "Apollo Pharmacy",
        "brand:wikidata": "Q62562612",
        "dispensing": "yes",
        "healthcare": "pharmacy",
        "name": "Apollo Pharmacy",
        "name:kn": "ಅಪೊಲೋ ಫಾರ್ಮಸಿ"
      }
    },
    {
      "type": "node",
      "id": 7843600999,
      "lat": 13.0010985,
      "lon": 77.6123761,
      "tags": {
        "name": "Puncture Shop",
        "shop": "motorcycle_repair"
      }
    },
    {
      "type": "node",
      "id": 7881335487,
      "lat": 13.0053201,
      "lon": 77.6162395,
      "tags": {
        "drink:juice": "yes",
        "name": "Sugarcane Juice",
        "shop": "kiosk"
      }
    },
    {
      "type": "node",
      "id": 7941607043,
      "lat": 13.0039944,
      "lon": 77.6155412,
      "tags": {
        "amenity": "pharmacy",
        "brand": "MedPlus",
        "brand:wikidata": "Q65684234",
        "brand:wikipedia": "en:MedPlus",
        "dispensing": "yes",
        "healthcare": "pharmacy",
        "name": "MedPlus"
      }
    },
    {
      "type": "node",
      "id": 7941607044,
      "lat": 13.003937,
      "lon": 77.6155107,
      "tags": {
        "amenity": "atm",
        "brand": "State Bank of India",
        "brand:wikidata": "Q1340361",
        "name": "State Bank of India",
        "operator": "State Bank of India",
        "operator:wikidata": "Q1340361",
        "short_name": "SBI"
      }
    },
    {
      "type": "node",
      "id": 8188038706,
      "lat": 12.9981064,
      "lon": 77.6008126,
      "tags": {
        "addr:full": "79/10, Nandi Durga Rd, Byadarahalli, Benson Town, Bengaluru, Karnataka",
        "addr:state": "Karnataka",
        "amenity": "hospital",
        "name": "Appllo Diagnostic"
      }
    },
    {
      "type": "node",
      "id": 8240810686,
      "lat": 13.0005017,
      "lon": 77.599504,
      "tags": {
        "amenity": "fast_food",
        "name": "Lassi Shop"
      }
    },
    {
      "type": "node",
      "id": 8240810687,
      "lat": 13.0009956,
      "lon": 77.599335,
      "tags": {
        "amenity": "bank",
        "atm": "yes",
        "brand": "Kotak Mahindra Bank",
        "brand:wikidata": "Q2040404",
        "name": "Kotak Mahindra Bank"
      }
    },
    {
      "type": "node",
      "id": 8240810688,
      "lat": 12.9972714,
      "lon": 77.6013547,
      "tags": {
        "amenity": "place_of_worship",
        "name": "Annunciation Church",
        "religion": "christian"
      }
    },
    {
      "type": "node",
      "id": 8240810689,
      "lat": 12.9953917,
      "lon": 77.6027682,
      "tags": {
        "name": "Prestige Supermarket",
        "shop": "supermarket"
      }
    },
    {
      "type": "node",
      "id": 8240810708,
      "lat": 12.9966808,
      "lon": 77.6114532,
      "tags": {
        "addr:city": "Bangalore",
        "addr:district": "Bengaluru Urban",
        "addr:postcode": "560005",
        "addr:street": "Coles Road",
        "amenity": "bank",
        "atm": "yes",
        "brand": "Bank of Baroda",
        "brand:wikidata": "Q2003797",
        "name": "Bank of Baroda",
        "name:kn": "ಬ್ಯಾಂಕ್ ಆಫ್ ಬರೋಡ"
      }
    },
    {
      "type": "node",
      "id": 8240858025,
      "lat": 12.9957125,
      "lon": 77.6109356,
      "tags": {
        "amenity": "bank",
        "atm": "yes",
        "brand": "Syndicate Bank",
        "brand:wikidata": "Q2004088",
        "name": "Syndicate Bank",
        "name:kn": "ಸಿಂಡಿಕೇಟ್ ಬ್ಯಾಂಕ್"
      }
    },
    {
      "type": "node",
      "id": 8899492816,
      "lat": 13.0013412,
      "lon": 77.6149976,
      "tags": {
        "amenity": "car_rental",
        "name": "Self drive car rental @ Hi5 karZ",
        "opening_hours": "Mo-Fr 10:30-13:15,14:00-20:15; Sa 09:00-17:00; PH closed"
      }
    },
    {
      "type": "node",
      "id": 8911005359,
      "lat": 13.0027162,
      "lon": 77.6089174,
      "tags": {
        "shop": "camera"
      }
    },
    {
      "type": "node",
      "id": 9230690428,
      "lat": 12.9992268,
      "lon": 77.6160355,
      "tags": {
        "amenity": "cafe",
        "name": "Taj Tea House"
      }
    },
    {
      "type": "node",
      "id": 9230690429,
      "lat": 12.9994524,
      "lon": 77.6157635,
      "tags": {
        "amenity": "restaurant",
        "check_date": "2024-04-27",
        "cuisine": "regional",
        "diet:halal": "yes",
        "name": "Savoury"
      }
    },
    {
      "type": "node",
      "id": 9230690434,
      "lat": 12.9954616,
      "lon": 77.614226,
      "tags": {
        "amenity": "fast_food",
        "name": "Kunafa World"
      }
    },
    {
      "type": "node",
      "id": 9534308004,
      "lat": 12.9982475,
      "lon": 77.6153594,
      "tags": {
        "name": "Theobroma Patisserie",
        "shop": "bakery",
        "website": "https://theobroma.in/"
      }
    },
    {
      "type": "node",
      "id": 9667558148,
      "lat": 12.9961346,
      "lon": 77.6043695,
      "tags": {
        "name": "Happy Belly Bakes",
        "name:kn": "ಹ್ಯಾಪಿ ಬೆಲ್ಲಿ",
        "shop": "bakery"
      }
    },
    {
      "type": "node",
      "id": 9786123495,
      "lat": 12.9997243,
      "lon": 77.6161519,
      "tags": {
        "amenity": "restaurant",
        "name": "Karama"
      }
    },
    {
      "type": "node",
      "id": 9786123496,
      "lat": 13.003654,
      "lon": 77.6166234,
      "tags": {
        "amenity": "bank",
        "atm": "yes",
        "brand": "CSB Bank",
        "brand:wikidata": "Q5053244",
        "name": "CSB Bank",
        "official_name": "Catholic Syrian Bank",
        "operator": "Catholic Syrian Bank"
      }
    },
    {
      "type": "node",
      "id": 10796893035,
      "lat": 12.9948618,
      "lon": 77.6035354,
      "tags": {
        "amenity": "post_office",
        "name": "India Post",
        "operator": "India Post",
        "operator:wikidata": "Q3519720"
      }
    },
    {
      "type": "node",
      "id": 11096914869,
      "lat": 12.9965965,
      "lon": 77.6091016,
      "tags": {
        "brand": "Nandini",
        "name": "Nandini",
        "shop": "dairy"
      }
    },
    {
      "type": "node",
      "id": 11096914870,
      "lat": 12.997653,
      "lon": 77.6100907,
      "tags": {
        "name": "Fipola",
        "shop": "butcher"
      }
    },
    {
      "type": "node",
      "id": 11096914871,
      "lat": 12.9967853,
      "lon": 77.6113339,
      "tags": {
        "air_conditioning": "yes",
        "amenity": "ice_cream",
        "indoor_seating": "yes",
        "name": "Cream Chemistry",
        "outdoor_seating": "no",
        "smoking": "no",
        "wheelchair": "no"
      }
    },
    {
      "type": "node",
      "id": 11096914872,
      "lat": 12.9967644,
      "lon": 77.6113781,
      "tags": {
        "brand": "Kanti Sweets",
        "name": "Kanti Sweets",
        "name:kn": "ಕಾಂತಿ ಸ್ವೀಟ್ಸ್",
        "shop": "confectionery"
      }
    },
    {
      "type": "node",
      "id": 11096914873,
      "lat": 12.9963894,
      "lon": 77.612109,
      "tags": {
        "amenity": "bank",
        "atm": "yes",
        "brand": "Canara Bank",
        "brand:en": "Canara Bank",
        "brand:hi": "केनरा बैंक",
        "brand:kn": "ಕೆನರಾ ಬ್ಯಾಂಕ್",
        "brand:pa": "ਕੇਨਰਾ ਬੈਂਕ",
        "brand:pnb": "کینرا بینک",
        "brand:ur": "کینرا بینک",
        "brand:wikidata": "Q2003777",
        "name": "Canara Bank",
        "name:en": "Canara Bank",
        "name:hi": "केनरा बैंक",
        "name:kn": "ಕೆನರಾ ಬ್ಯಾಂಕ್",
        "name:pa": "ਕੇਨਰਾ ਬੈਂਕ",
        "name:pnb": "کینرا بینک",
        "name:ur": "کینرا بینک",
        "operator": "Canara Bank"
      }
    },
    {
      "type": "node",
      "id": 11096914874,
      "lat": 12.9963149,
      "lon": 77.6122217,
      "tags": {
        "name": "Punjab Stores",
        "shop": "supermarket"
      }
    },
    {
      "type": "node",
      "id": 11096914877,
      "lat": 12.995212,
      "lon": 77.6141958,
      "tags": {
        "amenity": "fast_food",
        "cuisine": "burger;wings;chicken",
        "delivery": "yes",
        "name": "Big Guys: Wings & More",
        "takeaway": "yes"
      }
    },
    {
      "type": "node",
      "id": 11282630636,
      "lat": 12.9953603,
      "lon": 77.6143876,
      "tags": {
        "amenity": "fast_food",
        "name": "The Real Grill"
      }
    },
    {
      "type": "node",
      "id": 11282630637,
      "lat": 12.9955651,
      "lon": 77.6140778,
      "tags": {
        "amenity": "fast_food",
        "check_date": "2024-08-11",
        "name": "Pooja Veg"
      }
    },
    {
      "type": "node",
      "id": 11282630647,
      "lat": 12.9961725,
      "lon": 77.6131645,
      "tags": {
        "amenity": "pharmacy",
        "name": "Balaji Medicals"
      }
    },
    {
      "type": "node",
      "id": 11282630648,
      "lat": 12.9959934,
      "lon": 77.6128949,
      "tags": {
        "brand": "Bata",
        "brand:wikidata": "Q688082",
        "name": "Bata",
        "name:kn": "ಬಾಟಾ",
        "shop": "shoes"
      }
    },
    {
      "type": "node",
      "id": 11282630666,
      "lat": 12.9972832,
      "lon": 77.6108692,
      "tags": {
        "name": "FirstCry",
        "shop": "baby_goods"
      }
    },
    {
      "type": "node",
      "id": 11282630667,
      "lat": 12.997668,
      "lon": 77.6100726,
      "tags": {
        "addr:city": "Bangalore",
        "addr:district": "Bengaluru Urban",
        "addr:postcode": "560005",
        "addr:street": "Coles Road",
        "amenity": "fast_food",
        "cuisine": "pizza",
        "drive_through": "no",
        "name": "La Pino'z Pizza",
        "phone": "+91 82 3888 9300",
        "website": "https://lapinozpizza.in/order/frazer-town-bangalore"
      }
    },
    {
      "type": "node",
      "id": 11472852214,
      "lat": 13.0003903,
      "lon": 77.6169515,
      "tags": {
        "check_date": "2023-12-31",
        "shop": "greengrocer"
      }
    },
    {
      "type": "node",
      "id": 11472852215,
      "lat": 13.0003625,
      "lon": 77.6169853,
      "tags": {
        "amenity": "pharmacy",
        "check_date": "2023-12-31",
        "healthcare": "pharmacy",
        "name": "Topmost Medicals"
      }
    },
    {
      "type": "node",
      "id": 11472852238,
      "lat": 13.0003724,
      "lon": 77.6167827,
      "tags": {
        "amenity": "restaurant",
        "check_date": "2023-12-31",
        "cuisine": "indian;kebab;persian",
        "name": "Sheesh Kebab"
      }
    },
    {
      "type": "node",
      "id": 11842856985,
      "lat": 12.9995987,
      "lon": 77.6133294,
      "tags": {
        "amenity": "place_of_worship",
        "religion": "hindu"
      }
    },
    {
      "type": "node",
      "id": 11842856986,
      "lat": 12.9994916,
      "lon": 77.6132369,
      "tags": {
        "amenity": "place_of_worship",
        "religion": "hindu"
      }
    },
    {
      "type": "node",
      "id": 11853263736,
      "lat": 12.999875,
      "lon": 77.6158562,
      "tags": {
        "check_date": "2024-04-27",
        "name": "Empire Tobacco Shop",
        "shop": "tobacco"
      }
    },
    {
      "type": "node",
      "id": 11853263737,
      "lat": 12.9998135,
      "lon": 77.6158643,
      "tags": {
        "check_date": "2024-04-27",
        "name": "Lalitha Wines",
        "shop": "alcohol"
      }
    },
    {
      "type": "node",
      "id": 11853263738,
      "lat": 12.9997738,
      "lon": 77.6158458,
      "tags": {
        "amenity": "dentist",
        "check_date": "2024-04-27",
        "healthcare": "dentist",
        "name": "Lakshmi Dental Clinic",
        "phone": "+91 98451 30949"
      }
    },
    {
      "type": "node",
      "id": 11853263739,
      "lat": 12.9997489,
      "lon": 77.6158472,
      "tags": {
        "check_date": "2024-04-27",
        "shop": "tailor"
      }
    },
    {
      "type": "node",
      "id": 11853263740,
      "lat": 12.9996997,
      "lon": 77.6158458,
      "tags": {
        "amenity": "fast_food",
        "check_date": "2024-04-27",
        "cuisine": "juice",
        "name": "Om Ganesh Fruit Juice Centre"
      }
    },
    {
      "type": "node",
      "id": 11853263741,
      "lat": 12.9996636,
      "lon": 77.6158292,
      "tags": {
        "check_date": "2024-04-27",
        "name": "Lusitania Foods",
        "shop": "butcher"
      }
    },
    {
      "type": "node",
      "id": 11853269023,
      "lat": 13.0001531,
      "lon": 77.615953,
      "tags": {
        "check_date": "2024-04-27",
        "name": "Heera Jewellers",
        "shop": "jewelry"
      }
    },
    {
      "type": "node",
      "id": 11853270212,
      "lat": 12.9990282,
      "lon": 77.6158396,
      "tags": {
        "check_date": "2024-04-27",
        "name": "Ajwa Travels Foreign Exchange",
        "shop": "travel_agency"
      }
    },
    {
      "type": "node",
      "id": 11853270504,
      "lat": 12.9989912,
      "lon": 77.6158195,
      "tags": {
        "check_date": "2024-04-27",
        "name": "Hira Perfumes",
        "shop": "perfumery"
      }
    },
    {
      "type": "node",
      "id": 11853272067,
      "lat": 12.9993902,
      "lon": 77.6160619,
      "tags": {
        "check_date": "2024-04-27",
        "name": "Casio Home Needs",
        "shop": "supermarket"
      }
    },
    {
      "type": "node",
      "id": 11853275100,
      "lat": 12.9975849,
      "lon": 77.6148555,
      "tags": {
        "check_date": "2024-04-27",
        "name": "Jio Digital Life",
        "shop": "telecommunication"
      }
    },
    {
      "type": "node",
      "id": 11853276286,
      "lat": 12.9993695,
      "lon": 77.6160179,
      "tags": {
        "amenity": "restaurant",
        "check_date": "2024-04-27",
        "name": "Dharmik Veg"
      }
    },
    {
      "type": "node",
      "id": 11853276288,
      "lat": 12.9961374,
      "lon": 77.6138297,
      "tags": {
        "amenity": "bank",
        "brand": "Punjab National Bank",
        "brand:wikidata": "Q2743499",
        "check_date": "2024-04-27",
        "name": "Punjab National Bank"
      }
    },
    {
      "type": "node",
      "id": 11853277441,
      "lat": 12.9973285,
      "lon": 77.6146366,
      "tags": {
        "amenity": "motorcycle_parking",
        "covered": "no"
      }
    },
    {
      "type": "node",
      "id": 11853284861,
      "lat": 12.9999237,
      "lon": 77.6160969,
      "tags": {
        "amenity": "fast_food",
        "check_date": "2024-04-27",
        "name": "Dow Tow"
      }
    },
    {
      "type": "node",
      "id": 11853290254,
      "lat": 12.9976632,
      "lon": 77.6149012,
      "tags": {
        "check_date": "2024-04-27",
        "name": "Bakers Day",
        "shop": "bakery"
      }
    },
    {
      "type": "node",
      "id": 11853294535,
      "lat": 13.0012487,
      "lon": 77.6162988,
      "tags": {
        "amenity": "community_centre",
        "check_date": "2024-04-27",
        "name": "CMA Mahal"
      }
    },
    {
      "type": "node",
      "id": 11853294536,
      "lat": 13.0010474,
      "lon": 77.6162616,
      "tags": {
        "check_date": "2024-04-27",
        "name": "The Lassi Park",
        "shop": "beverages"
      }
    },
    {
      "type": "node",
      "id": 11853297551,
      "lat": 12.9998715,
      "lon": 77.6160916,
      "tags": {
        "check_date": "2024-04-27",
        "name": "Lassi Shop",
        "shop": "beverages"
      }
    },
    {
      "type": "node",
      "id": 11853313539,
      "lat": 13.0007216,
      "lon": 77.6165254,
      "tags": {
        "amenity": "post_office",
        "check_date": "2024-04-27",
        "name": "Fraser Town Sub Office",
        "operator": "India Post",
        "operator:wikidata": "Q3519720",
        "wheelchair": "yes"
      }
    },
    {
      "type": "node",
      "id": 11853313541,
      "lat": 13.0006904,
      "lon": 77.6167013,
      "tags": {
        "check_date": "2024-04-27",
        "name": "Namdhari's Fresh",
        "shop": "supermarket"
      }
    },
    {
      "type": "node",
      "id": 11853318458,
      "lat": 12.9976729,
      "lon": 77.6149084,
      "tags": {
        "check_date": "2024-04-27",
        "name": "Amma's Pastries",
        "shop": "pastry"
      }
    },
    {
      "type": "node",
      "id": 11853318903,
      "lat": 12.9998555,
      "lon": 77.6160901,
      "tags": {
        "check_date": "2024-04-27",
        "name": "Prince Unique Collection",
        "shop": "clothes"
      }
    },
    {
      "type": "node",
      "id": 11853321328,
      "lat": 12.9971683,
      "lon": 77.6145878,
      "tags": {
        "amenity": "hospital",
        "check_date": "2024-04-27",
        "healthcare": "hospital",
        "name": "Aspire Hospital"
      }
    },
    {
      "type": "node",
      "id": 11853323336,
      "lat": 12.997606,
      "lon": 77.6148607,
      "tags": {
        "check_date": "2024-04-27",
        "name": "Chandra Murali Shop",
        "shop": "department_store"
      }
    },
    {
      "type": "node",
      "id": 11853327826,
      "lat": 12.9979023,
      "lon": 77.6147242,
      "tags": {
        "check_date": "2024-04-27",
        "name": "The Glam House",
        "shop": "hairdresser"
      }
    },
    {
      "type": "node",
      "id": 11853327827,
      "lat": 12.9975893,
      "lon": 77.6145955,
      "tags": {
        "check_date": "2024-04-27",
        "name": "Muthoot Finance",
        "name:kn": "ಮುತೂಟ್ ಫೈನಾನ್ಸ್",
        "shop": "money_lender"
      }
    },
    {
      "type": "node",
      "id": 11853327828,
      "lat": 12.9974892,
      "lon": 77.6143806,
      "tags": {
        "amenity": "restaurant",
        "check_date": "2024-04-27",
        "cuisine": "regional",
        "diet:halal": "yes",
        "name": "Raidan Restuarant"
      }
    },
    {
      "type": "node",
      "id": 11853327829,
      "lat": 12.9973941,
      "lon": 77.6144064,
      "tags": {
        "check_date": "2024-04-27",
        "name": "Cashify",
        "note": "Repair shop also",
        "shop": "mobile_phone"
      }
    },
    {
      "type": "node",
      "id": 11853327830,
      "lat": 12.9973681,
      "lon": 77.6143843,
      "tags": {
        "check_date": "2024-04-27",
        "name": "Standard Tea",
        "shop": "tea"
      }
    },
    {
      "type": "node",
      "id": 11853327831,
      "lat": 12.9972835,
      "lon": 77.6143209,
      "tags": {
        "check_date": "2024-04-27",
        "name": "The Global Access",
        "shop": "mobile_phone"
      }
    },
    {
      "type": "node",
      "id": 11853327832,
      "lat": 12.9970665,
      "lon": 77.6141612,
      "tags": {
        "check_date": "2024-04-27",
        "name": "Ajmal",
        "shop": "perfumery"
      }
    },
    {
      "type": "node",
      "id": 11853327833,
      "lat": 12.9970164,
      "lon": 77.6141416,
      "tags": {
        "amenity": "pharmacy",
        "brand": "Apollo Pharmacy",
        "brand:wikidata": "Q62562612",
        "check_date": "2024-04-27",
        "healthcare": "pharmacy",
        "name": "Apollo Pharmacy"
      }
    },
    {
      "type": "node",
      "id": 11853327834,
      "lat": 12.9969695,
      "lon": 77.6140469,
      "tags": {
        "check_date": "2024-04-27",
        "name": "Pai International",
        "shop": "electronics"
      }
    },
    {
      "type": "node",
      "id": 11853327835,
      "lat": 12.9969083,
      "lon": 77.6139947,
      "tags": {
        "amenity": "restaurant",
        "check_date": "2024-04-27",
        "cuisine": "indian",
        "diet:halal": "yes",
        "name": "Sharief Bhai"
      }
    },
    {
      "type": "node",
      "id": 11853327836,
      "lat": 12.9968033,
      "lon": 77.6139269,
      "tags": {
        "check_date": "2024-04-27",
        "leisure": "fitness_centre",
        "name": "Viv's Gym"
      }
    },
    {
      "type": "node",
      "id": 11853327837,
      "lat": 12.9967381,
      "lon": 77.6138331,
      "tags": {
        "check_date": "2024-04-27",
        "leisure": "fitness_centre",
        "name": "Filled Fitness",
        "wheelchair": "no"
      }
    },
    {
      "type": "node",
      "id": 11853327838,
      "lat": 12.9967365,
      "lon": 77.6138478,
      "tags": {
        "check_date": "2024-04-27",
        "name": "Afjan Dates And Nuts",
        "shop": "nuts"
      }
    },
    {
      "type": "node",
      "id": 11853327839,
      "lat": 12.9965586,
      "lon": 77.6136291,
      "tags": {
        "check_date": "2024-04-27",
        "leisure": "fitness_centre",
        "name": "Realm Fitness Fight Club"
      }
    },
    {
      "type": "node",
      "id": 11853327840,
      "lat": 12.9965326,
      "lon": 77.6136496,
      "tags": {
        "amenity": "bank",
        "atm": "yes",
        "brand": "Axis Bank",
        "brand:wikidata": "Q2003549",
        "check_date": "2024-04-27",
        "name": "Axis Bank",
        "name:kn": "ಆಕ್ಸಿಸ್ ಬ್ಯಾಂಕ್"
      }
    },
    {
      "type": "node",
      "id": 11853327841,
      "lat": 12.9963845,
      "lon": 77.6135655,
      "tags": {
        "brand": "Airtel",
        "check_date": "2024-04-27",
        "name": "Airtel",
        "name:kn": "ಏರ್ಟೆಲ್",
        "opening_hours": "10:30-20:00",
        "shop": "mobile_phone"
      }
    },
    {
      "type": "node",
      "id": 11853327842,
      "lat": 12.9963825,
      "lon": 77.6134764,
      "tags": {
        "check_date": "2024-04-27",
        "name": "Samsung",
        "name:kn": "ಸ್ಯಾಮ್‌ಸಂಗ್",
        "shop": "mobile_phone"
      }
    },
    {
      "type": "node",
      "id": 11853328088,
      "lat": 12.9988722,
      "lon": 77.6157851,
      "tags": {
        "check_date": "2024-04-27",
        "name": "Soch",
        "shop": "clothes"
      }
    },
    {
      "type": "node",
      "id": 11853328089,
      "lat": 12.9971938,
      "lon": 77.6146067,
      "tags": {
        "amenity": "fast_food",
        "brand": "Subway",
        "brand:wikidata": "Q244457",
        "check_date": "2024-04-27",
        "cuisine": "sandwich",
        "name": "Subway",
        "takeaway": "yes"
      }
    },
    {
      "type": "node",
      "id": 11853329076,
      "lat": 12.9993193,
      "lon": 77.6157833,
      "tags": {
        "amenity": "fast_food",
        "check_date": "2024-04-27",
        "cuisine": "juice",
        "name": "Om Ganesh Fruit Juice Centre"
      }
    },
    {
      "type": "node",
      "id": 11853329077,
      "lat": 12.9992932,
      "lon": 77.6157895,
      "tags": {
        "amenity": "restaurant",
        "check_date": "2024-04-27",
        "name": "Iftar Restaurant"
      }
    },
    {
      "type": "node",
      "id": 11853329078,
      "lat": 12.9992638,
      "lon": 77.6157778,
      "tags": {
        "check_date": "2024-04-27",
        "name": "Sangeetha",
        "name:kn": "ಸಂಗೀತ",
        "shop": "mobile_phone"
      }
    },
    {
      "type": "node",
      "id": 11853329079,
      "lat": 12.9992524,
      "lon": 77.6157573,
      "tags": {
        "check_date": "2024-04-27",
        "name": "Go Kite Travel Agency",
        "shop": "travel_agency"
      }
    },
    {
      "type": "node",
      "id": 11853329193,
      "lat": 12.9997803,
      "lon": 77.6160852,
      "tags": {
        "check_date": "2024-04-27",
        "name": "Fancy Hair Dressers",
        "shop": "hairdresser"
      }
    },
    {
      "type": "node",
      "id": 11853329194,
      "lat": 12.9990827,
      "lon": 77.6158796,
      "tags": {
        "check_date": "2024-04-27",
        "name": "Casio Gift Palace",
        "shop": "gift"
      }
    },
    {
      "type": "node",
      "id": 11853333667,
      "lat": 12.9967359,
      "lon": 77.6142917,
      "tags": {
        "check_date": "2024-04-27",
        "name": "Apollo Pharmacy",
        "shop": "chemist"
      }
    },
    {
      "type": "node",
      "id": 11853335919,
      "lat": 12.9982239,
      "lon": 77.6153159,
      "tags": {
        "addr:floor": "1",
        "beauty": "nails",
        "check_date": "2024-04-27",
        "name": "Lueur London",
        "shop": "beauty"
      }
    },
    {
      "type": "node",
      "id": 11853338971,
      "lat": 12.9976512,
      "lon": 77.6148873,
      "tags": {
        "amenity": "restaurant",
        "check_date": "2024-04-27",
        "name": "Oh! Perch"
      }
    },
    {
      "type": "node",
      "id": 11853338972,
      "lat": 12.9970869,
      "lon": 77.6145693,
      "tags": {
        "brand": "More",
        "brand:wikidata": "Q6910891",
        "check_date": "2024-04-27",
        "name": "More",
        "shop": "supermarket"
      }
    },
    {
      "type": "node",
      "id": 11853339111,
      "lat": 12.9982239,
      "lon": 77.6153159,
      "tags": {
        "check_date": "2024-04-27",
        "name": "Sreeraj Lassi Bar",
        "shop": "beverages"
      }
    },
    {
      "type": "node",
      "id": 11853406314,
      "lat": 12.9965111,
      "lon": 77.6141117,
      "tags": {
        "check_date": "2024-04-27",
        "name": "Naturals Salon",
        "shop": "hairdresser"
      }
    },
    {
      "type": "node",
      "id": 11853467255,
      "lat": 12.9965111,
      "lon": 77.6141117,
      "tags": {
        "check_date": "2024-04-27",
        "name": "Poorvika Mobiles",
        "shop": "mobile_phone"
      }
    },
    {
      "type": "node",
      "id": 11853467357,
      "lat": 12.9963012,
      "lon": 77.6135088,
      "tags": {
        "check_date": "2024-04-27",
        "name": "sri vinyaka hot chips",
        "shop": "snack"
      }
    },
    {
      "type": "node",
      "id": 11853467358,
      "lat": 12.9962239,
      "lon": 77.6134456,
      "tags": {
        "check_date": "2024-04-27",
        "name": "Dry Fruit Specials",
        "shop": "nuts"
      }
    },
    {
      "type": "node",
      "id": 11853467359,
      "lat": 12.9961086,
      "lon": 77.6133755,
      "tags": {
        "amenity": "fast_food",
        "check_date": "2024-04-27",
        "name": "Aroma Of Asia"
      }
    },
    {
      "type": "node",
      "id": 11853467360,
      "lat": 12.9961153,
      "lon": 77.6132466,
      "tags": {
        "check_date": "2024-04-27",
        "name": "YLG salon",
        "shop": "hairdresser"
      }
    },
    {
      "type": "node",
      "id": 11853518205,
      "lat": 12.9960048,
      "lon": 77.6136796,
      "tags": {
        "addr:floor": "UG",
        "check_date": "2024-04-27",
        "name": "Sairam Mobile And Accessories",
        "shop": "mobile_phone"
      }
    },
    {
      "type": "node",
      "id": 11853518215,
      "lat": 13.0006814,
      "lon": 77.6166833,
      "tags": {
        "amenity": "clinic",
        "check_date": "2024-04-27",
        "healthcare": "clinic",
        "name": "Cardoza Clinic"
      }
    },
    {
      "type": "node",
      "id": 11853523988,
      "lat": 12.9960891,
      "lon": 77.6137089,
      "tags": {
        "check_date": "2024-04-27",
        "name": "Ola EV Bike Store",
        "shop": "motorcycle"
      }
    },
    {
      "type": "node",
      "id": 11853525651,
      "lat": 12.9969265,
      "lon": 77.6144435,
      "tags": {
        "amenity": "ice_cream",
        "brand": "Baskin-Robbins",
        "brand:wikidata": "Q584601",
        "check_date": "2024-04-27",
        "cuisine": "ice_cream",
        "name": "Baskin-Robbins"
      }
    },
    {
      "type": "node",
      "id": 11853574273,
      "lat": 12.9959778,
      "lon": 77.6136865,
      "tags": {
        "addr:floor": "2",
        "amenity": "prep_school",
        "check_date": "2024-04-27",
        "name": "Samruddhi Career Academy"
      }
    },
    {
      "type": "node",
      "id": 11853576126,
      "lat": 12.9959985,
      "lon": 77.6136694,
      "tags": {
        "amenity": "bank",
        "brand": "HDFC Bank",
        "brand:wikidata": "Q631047",
        "check_date": "2024-04-27",
        "name": "HDFC Bank",
        "short_name": "HDFC"
      }
    },
    {
      "type": "node",
      "id": 11868569763,
      "lat": 12.9964946,
      "lon": 77.6124188,
      "tags": {
        "addr:city": "Bangalore",
        "addr:district": "Bengaluru Urban",
        "addr:street": "Coles Road",
        "name": "Health & Glow",
        "payment:cash": "yes",
        "payment:contactless": "yes",
        "payment:credit_cards": "yes",
        "payment:debit_cards": "yes",
        "payment:google_pay": "yes",
        "payment:mastercard": "yes",
        "payment:visa": "yes",
        "shop": "cosmetics",
        "website": "https://healthandglow.com/"
      }
    },
    {
      "type": "node",
      "id": 11868569764,
      "lat": 12.9971467,
      "lon": 77.6124529,
      "tags": {
        "addr:city": "Bangalore",
        "addr:district": "Bengaluru Urban",
        "addr:postcode": "560005",
        "name": "SN Stores and Condiments",
        "shop": "general"
      }
    },
    {
      "type": "node",
      "id": 11868569767,
      "lat": 12.9963707,
      "lon": 77.6116201,
      "tags": {
        "addr:city": "Bangalore",
        "addr:district": "Bengaluru Urban",
        "addr:postcode": "560005",
        "addr:street": "Saunders Road",
        "branch": "Dream World",
        "email": "dreamworldindia@yahoo.com",
        "name": "Dream World for Home",
        "operator": "Dream World",
        "phone": "+91 80 6564 6060",
        "shop": "houseware",
        "website": "https://dreamworldindia.in/"
      }
    },
    {
      "type": "node",
      "id": 11917162000,
      "lat": 12.9974102,
      "lon": 77.6105888,
      "tags": {
        "check_date": "2024-05-19",
        "name": "Lawrence & Mayo",
        "shop": "optician"
      }
    },
    {
      "type": "node",
      "id": 11982693072,
      "lat": 12.9966446,
      "lon": 77.6116049,
      "tags": {
        "amenity": "pharmacy",
        "check_date": "2024-06-15",
        "healthcare": "pharmacy",
        "name": "Health Green Pharma"
      }
    },
    {
      "type": "node",
      "id": 11982693073,
      "lat": 12.9970062,
      "lon": 77.6095198,
      "tags": {
        "amenity": "dentist",
        "check_date": "2024-06-15",
        "healthcare": "dentist",
        "name": "Dr. Elizabeth Alexander"
      }
    },
    {
      "type": "node",
      "id": 12103825751,
      "lat": 12.996129,
      "lon": 77.6132115,
      "tags": {
        "check_date": "2024-08-11",
        "name": "Eye Looks Optics",
        "shop": "optician"
      }
    },
    {
      "type": "node",
      "id": 12103825752,
      "lat": 12.9961879,
      "lon": 77.6071906,
      "tags": {
        "check_date": "2024-08-11",
        "name": "Peekay Supermarket",
        "shop": "supermarket"
      }
    },
    {
      "type": "node",
      "id": 12103968902,
      "lat": 12.9961243,
      "lon": 77.6127006,
      "tags": {
        "check_date": "2024-08-11",
        "name": "Sugar",
        "shop": "cosmetics"
      }
    },
    {
      "type": "node",
      "id": 12103968916,
      "lat": 12.9951282,
      "lon": 77.6143536,
      "tags": {
        "amenity": "cafe",
        "check_date": "2024-08-11",
        "name": "Belgian Waffle Factory"
      }
    },
    {
      "type": "node",
      "id": 12103968918,
      "lat": 12.9964488,
      "lon": 77.6119706,
      "tags": {
        "check_date": "2024-08-11",
        "name": "Lenskart",
        "shop": "optician"
      }
    },
    {
      "type": "node",
      "id": 12103968919,
      "lat": 12.9964794,
      "lon": 77.6114889,
      "tags": {
        "check_date": "2024-08-11",
        "name": "Ilahi Creations",
        "shop": "clothes"
      }
    },
    {
      "type": "node",
      "id": 12103968920,
      "lat": 12.9973646,
      "lon": 77.6100249,
      "tags": {
        "amenity": "fast_food",
        "check_date": "2024-08-11",
        "name": "Udupi Grand Veg"
      }
    },
    {
      "type": "node",
      "id": 12103968921,
      "lat": 12.9952654,
      "lon": 77.6081268,
      "tags": {
        "amenity": "clinic",
        "check_date": "2024-08-11",
        "healthcare": "clinic",
        "name": "Dr. Farzana"
      }
    },
    {
      "type": "node",
      "id": 12103968922,
      "lat": 12.9946281,
      "lon": 77.6078315,
      "tags": {
        "check_date": "2024-08-11",
        "shop": "butcher"
      }
    },
    {
      "type": "node",
      "id": 12103968923,
      "lat": 12.9944409,
      "lon": 77.607752,
      "tags": {
        "amenity": "clinic",
        "check_date": "2024-08-11",
        "healthcare": "clinic",
        "name": "Dr. Markiyar Abdul Razack"
      }
    },
    {
      "type": "node",
      "id": 12103968924,
      "lat": 12.9943943,
      "lon": 77.6077375,
      "tags": {
        "amenity": "dentist",
        "check_date": "2024-08-11",
        "healthcare": "dentist",
        "name": "Confident Dental Care"
      }
    },
    {
      "type": "node",
      "id": 12103968926,
      "lat": 12.9934495,
      "lon": 77.6070426,
      "tags": {
        "check_date": "2024-08-11",
        "name": "ARK Tyres",
        "shop": "tyres"
      }
    },
    {
      "type": "node",
      "id": 12265548260,
      "lat": 13.0025681,
      "lon": 77.6120094,
      "tags": {
        "amenity": "restaurant",
        "name": "Bismillah Hotel"
      }
    },
    {
      "type": "node",
      "id": 12404912802,
      "lat": 12.9996817,
      "lon": 77.6000976,
      "tags": {
        "addr:floor": "G",
        "air_conditioning": "yes",
        "amenity": "cafe",
        "check_date": "2024-12-08",
        "level": "0",
        "name": "Velvet Bakes",
        "outdoor_seating": "no",
        "toilets": "no"
      }
    },
    {
      "type": "node",
      "id": 12460939644,
      "lat": 12.9962739,
      "lon": 77.6075693,
      "tags": {
        "amenity": "hospital",
        "check_date": "2024-12-29",
        "healthcare": "hospital",
        "name": "Gawai Hospital",
        "wheelchair": "yes"
      }
    },
    {
      "type": "node",
      "id": 12470693542,
      "lat": 13.0016412,
      "lon": 77.601576,
      "tags": {
        "amenity": "fast_food",
        "brand": "Indira Canteen",
        "brand:wikidata": "Q36164828",
        "cuisine": "south_indian",
        "name": "Indira Canteen",
        "operator": "BBMP",
        "takeaway": "yes"
      }
    },
    {
      "type": "node",
      "id": 12470693552,
      "lat": 13.001798,
      "lon": 77.6023847,
      "tags": {
        "amenity": "place_of_worship",
        "religion": "hindu"
      }
    },
    {
      "type": "node",
      "id": 12531311324,
      "lat": 12.9945955,
      "lon": 77.6086694,
      "tags": {
        "amenity": "fountain"
      }
    },
    {
      "type": "node",
      "id": 12531316734,
      "lat": 12.9946468,
      "lon": 77.6092321,
      "tags": {
        "amenity": "fountain"
      }
    },
    {
      "type": "node",
      "id": 12531340567,
      "lat": 12.9937251,
      "lon": 77.6096151,
      "tags": {
        "amenity": "fountain"
      }
    },
    {
      "type": "node",
      "id": 12531352609,
      "lat": 12.9947536,
      "lon": 77.6090732,
      "tags": {
        "amenity": "childcare",
        "name": "Pre Nursery Creche"
      }
    },
    {
      "type": "node",
      "id": 12531352630,
      "lat": 12.9949815,
      "lon": 77.6088645,
      "tags": {
        "amenity": "place_of_worship",
        "religion": "hindu"
      }
    },
    {
      "type": "node",
      "id": 12630531173,
      "lat": 12.9961032,
      "lon": 77.6127286,
      "tags": {
        "amenity": "fast_food",
        "name": "Baklavachi"
      }
    },
    {
      "type": "node",
      "id": 12630531174,
      "lat": 12.9955295,
      "lon": 77.6141489,
      "tags": {
        "amenity": "fast_food",
        "name": "The Churros Corner"
      }
    },
    {
      "type": "node",
      "id": 12862846432,
      "lat": 12.9969004,
      "lon": 77.6110877,
      "tags": {
        "amenity": "restaurant",
        "cuisine": "burger",
        "delivery": "yes",
        "name": "Mr. Philly's American Cheeseburgers",
        "takeaway": "yes"
      }
    },
    {
      "type": "node",
      "id": 12862846468,
      "lat": 12.9996589,
      "lon": 77.6161495,
      "tags": {
        "amenity": "fast_food",
        "cuisine": "burger",
        "delivery": "yes",
        "name": "Easy Bites by Empire",
        "takeaway": "yes"
      }
    },
    {
      "type": "node",
      "id": 12942390264,
      "lat": 12.9956247,
      "lon": 77.6082206,
      "tags": {
        "amenity": "fast_food",
        "check_date": "2025-06-21",
        "cuisine": "juice",
        "name": "Lassi Cream"
      }
    },
    {
      "type": "node",
      "id": 12952280430,
      "lat": 12.995902,
      "lon": 77.6061679,
      "tags": {
        "name": "Home Needs",
        "shop": "supermarket"
      }
    },
    {
      "type": "node",
      "id": 12952280449,
      "lat": 12.9945449,
      "lon": 77.6084153,
      "tags": {
        "amenity": "bench"
      }
    },
    {
      "type": "node",
      "id": 12952280450,
      "lat": 12.9945436,
      "lon": 77.6085202,
      "tags": {
        "amenity": "bench"
      }
    },
    {
      "type": "node",
      "id": 12952280451,
      "lat": 12.9946001,
      "lon": 77.6086044,
      "tags": {
        "amenity": "bench"
      }
    },
    {
      "type": "node",
      "id": 12952280452,
      "lat": 12.9947154,
      "lon": 77.608659,
      "tags": {
        "amenity": "bench"
      }
    },
    {
      "type": "node",
      "id": 12952280453,
      "lat": 12.9947971,
      "lon": 77.6086523,
      "tags": {
        "amenity": "bench"
      }
    },
    {
      "type": "node",
      "id": 12952280454,
      "lat": 12.9948817,
      "lon": 77.6086084,
      "tags": {
        "amenity": "bench"
      }
    },
    {
      "type": "node",
      "id": 12952280455,
      "lat": 12.9949467,
      "lon": 77.6084968,
      "tags": {
        "amenity": "bench"
      }
    },
    {
      "type": "node",
      "id": 12952280456,
      "lat": 12.9949183,
      "lon": 77.6083419,
      "tags": {
        "amenity": "bench"
      }
    },
    {
      "type": "node",
      "id": 12952280457,
      "lat": 12.9948481,
      "lon": 77.6082762,
      "tags": {
        "amenity": "bench"
      }
    },
    {
      "type": "node",
      "id": 12952280458,
      "lat": 12.994771,
      "lon": 77.608246,
      "tags": {
        "amenity": "bench"
      }
    },
    {
      "type": "node",
      "id": 12952280459,
      "lat": 12.9946867,
      "lon": 77.6082493,
      "tags": {
        "amenity": "bench"
      }
    },
    {
      "type": "node",
      "id": 12952280460,
      "lat": 12.9945932,
      "lon": 77.6083083,
      "tags": {
        "amenity": "bench"
      }
    },
    {
      "type": "node",
      "id": 12952280463,
      "lat": 12.9931055,
      "lon": 77.6094188,
      "tags": {
        "brand": "Nandini",
        "brand:wikidata": "Q124374212",
        "name": "Nandini",
        "shop": "dairy"
      }
    },
    {
      "type": "way",
      "id": 33725070,
      "center": {
        "lat": 13.0040986,
        "lon": 77.6169728
      },
      "tags": {
        "barrier": "fence",
        "leisure": "park",
        "name": "Richards Park",
        "name:kn": "ರಿಚರ್ಡ್ಸ್ ಉದ್ಯಾನವನ"
      }
    },
    {
      "type": "way",
      "id": 133182891,
      "center": {
        "lat": 12.9941564,
        "lon": 77.6090213
      },
      "tags": {
        "alt_name": "Freedom Fighters Park",
        "leisure": "park",
        "name": "Coles Park",
        "name:etymology:wikidata": "Q24254979",
        "name:kn": "ಸ್ವತಂತ್ರ ಹೋರಾಟಗಾರರ ಉದ್ಯಾನವನ"
      }
    },
    {
      "type": "way",
      "id": 133486236,
      "center": {
        "lat": 12.9951709,
        "lon": 77.6099445
      },
      "tags": {
        "addr:city": "Bengaluru",
        "addr:country": "IN",
        "addr:hamlet": "Frazer Town",
        "addr:housenumber": "11",
        "addr:postcode": "560005",
        "addr:street": "Promenade Road",
        "amenity": "arts_centre",
        "email": "info@rotary-bc.org",
        "name": "Rotary House of Learning",
        "phone": "(+91) 80-6560 0250",
        "website": "https://www.rotary-bc.org/"
      }
    },
    {
      "type": "way",
      "id": 133486238,
      "center": {
        "lat": 12.9931976,
        "lon": 77.6105474
      },
      "tags": {
        "amenity": "school",
        "name": "St. Germain's High School",
        "name:kn": "ಸಂತ ಜೆರ್ಮೇನ್ಸ್ ಪ್ರೌಡ ಶಾಲೆ",
        "wikidata": "Q7588249",
        "wikipedia": "en:St. Germain High School"
      }
    },
    {
      "type": "way",
      "id": 133486623,
      "center": {
        "lat": 12.9946715,
        "lon": 77.6106566
      },
      "tags": {
        "name": "Home Shoppee",
        "opening_hours": "11:00-23:00",
        "shop": "supermarket"
      }
    },
    {
      "type": "way",
      "id": 133486625,
      "center": {
        "lat": 12.9951326,
        "lon": 77.6106222
      },
      "tags": {
        "name": "New Delight Shop",
        "shop": "stationery"
      }
    },
    {
      "type": "way",
      "id": 172952766,
      "center": {
        "lat": 13.0028911,
        "lon": 77.6158013
      },
      "tags": {
        "addr:city": "Bangalore",
        "addr:postcode": "560005",
        "addr:street": "Pottery Road",
        "amenity": "school",
        "name": "Clarence High School",
        "old_name": "Fraser Town European Day School",
        "phone": "+91 80 25470868",
        "start_date": "1914",
        "website": "http://www.clarencehighschool.net/",
        "wikipedia": "en:Clarence High School (Bangalore, India)"
      }
    },
    {
      "type": "way",
      "id": 172952785,
      "center": {
        "lat": 13.0005849,
        "lon": 77.610907
      },
      "tags": {
        "leisure": "park"
      }
    },
    {
      "type": "way",
      "id": 173039120,
      "center": {
        "lat": 13.0063203,
        "lon": 77.6148812
      },
      "tags": {
        "amenity": "school"
      }
    },
    {
      "type": "way",
      "id": 328384111,
      "center": {
        "lat": 13.0009847,
        "lon": 77.6154873
      },
      "tags": {
        "amenity": "place_of_worship",
        "denomination": "sunni",
        "name": "Haji Sir Ismail Sait Masjid",
        "name:etymology:wikidata": "Q6084847",
        "religion": "muslim"
      }
    },
    {
      "type": "way",
      "id": 328384112,
      "center": {
        "lat": 13.0009577,
        "lon": 77.6156117
      },
      "tags": {
        "amenity": "place_of_worship",
        "building": "mosque",
        "denomination": "sunni",
        "religion": "muslim"
      }
    },
    {
      "type": "way",
      "id": 345954862,
      "center": {
        "lat": 12.9999803,
        "lon": 77.6144986
      },
      "tags": {
        "addr:district": "Bengaluru Urban",
        "addr:full": "No 1 Moore Market Square, Bourdillon Road, Fraser Town",
        "addr:postcode": "560005",
        "addr:state": "Karnataka",
        "amenity": "hospital",
        "building": "yes",
        "name": "Annasawmy Mudaliar General Hospital",
        "name:kn": "ಅಣ್ಣಸ್ವಾಮಿ ಮೊದಲಿಯಾರ್",
        "source": "OpenGovernmentData"
      }
    },
    {
      "type": "way",
      "id": 346134477,
      "center": {
        "lat": 12.9964857,
        "lon": 77.6058568
      },
      "tags": {
        "addr:street": "Benson Cross Road",
        "amenity": "monastery",
        "building": "yes",
        "denomination": "catholic",
        "name": "Sisters of Mary Immaculate of Bishop Morrow",
        "religion": "christian"
      }
    },
    {
      "type": "way",
      "id": 346427859,
      "center": {
        "lat": 12.9929344,
        "lon": 77.6091095
      },
      "tags": {
        "amenity": "fuel"
      }
    },
    {
      "type": "way",
      "id": 346450599,
      "center": {
        "lat": 12.9945492,
        "lon": 77.6023222
      },
      "tags": {
        "amenity": "place_of_worship",
        "building": "yes",
        "denomination": "sunni",
        "religion": "muslim"
      }
    },
    {
      "type": "way",
      "id": 346768012,
      "center": {
        "lat": 13.004242,
        "lon": 77.6081559
      },
      "tags": {
        "amenity": "place_of_worship",
        "building": "mosque",
        "name": "Masjid I Taqwa",
        "religion": "muslim"
      }
    },
    {
      "type": "way",
      "id": 349774525,
      "center": {
        "lat": 12.993169,
        "lon": 77.6070167
      },
      "tags": {
        "amenity": "library",
        "building": "yes",
        "name": "City Center Library",
        "name:kn": "ನಗರ ಕೇಂದ್ರಿಯ ಗ್ರಂಥಾಲಯ"
      }
    },
    {
      "type": "way",
      "id": 362940504,
      "center": {
        "lat": 13.0051069,
        "lon": 77.604059
      },
      "tags": {
        "leisure": "park"
      }
    },
    {
      "type": "way",
      "id": 363458703,
      "center": {
        "lat": 12.9932061,
        "lon": 77.6139127
      },
      "tags": {
        "amenity": "school",
        "landuse": "education"
      }
    },
    {
      "type": "way",
      "id": 365234334,
      "center": {
        "lat": 13.0042468,
        "lon": 77.6159177
      },
      "tags": {
        "addr:housenumber": "7",
        "addr:street": "Hall Road",
        "amenity": "community_centre",
        "building": "yes",
        "building:levels": "1",
        "name": "Bungalow 7",
        "name:kn": "ಬಂಗ್ಲಾ ೭",
        "roof:colour": "white"
      }
    },
    {
      "type": "way",
      "id": 411052123,
      "center": {
        "lat": 12.9991231,
        "lon": 77.614012
      },
      "tags": {
        "leisure": "pitch"
      }
    },
    {
      "type": "way",
      "id": 411052127,
      "center": {
        "lat": 12.9989467,
        "lon": 77.6143957
      },
      "tags": {
        "amenity": "school",
        "name": "Annaswamy Mudaliar High School",
        "name:kn": "ಅಣ್ಣಾಸ್ವಾಮಿ ಮುದಲಿಯಾರ್ ಪ್ರೌಢಶಾಲೆ"
      }
    },
    {
      "type": "way",
      "id": 438495213,
      "center": {
        "lat": 12.9948049,
        "lon": 77.602327
      },
      "tags": {
        "addr:street": "Millers Road",
        "amenity": "place_of_worship",
        "denomination": "sunni",
        "name": "Masjid-E-Khadria",
        "name:kn": "ಮಸ್ಜೀದ್-ಇ-ಖಾದ್ರಿಯ",
        "religion": "muslim",
        "wikimedia_commons": "Category:Masjid E Khadria"
      }
    },
    {
      "type": "way",
      "id": 438495777,
      "center": {
        "lat": 12.9947334,
        "lon": 77.6012563
      },
      "tags": {
        "addr:street": "Millers Road",
        "landuse": "religious",
        "leisure": "common",
        "name": "Quddus Sahib Eidgah",
        "religion": "muslim"
      }
    },
    {
      "type": "way",
      "id": 673959400,
      "center": {
        "lat": 13.0099785,
        "lon": 77.610202
      },
      "tags": {
        "amenity": "cinema",
        "name": "Anand Theater",
        "name:kn": "ಆನಂದ"
      }
    },
    {
      "type": "way",
      "id": 673959402,
      "center": {
        "lat": 13.0096266,
        "lon": 77.6115425
      },
      "tags": {
        "leisure": "pitch",
        "name": "Periyar Nagar Football Club",
        "sport": "soccer"
      }
    },
    {
      "type": "way",
      "id": 775444096,
      "center": {
        "lat": 12.9943727,
        "lon": 77.6136842
      },
      "tags": {
        "leisure": "pitch"
      }
    },
    {
      "type": "way",
      "id": 775444098,
      "center": {
        "lat": 12.9944058,
        "lon": 77.6121676
      },
      "tags": {
        "addr:housename": "Seventh Day Adventist High School",
        "addr:housenumber": "98",
        "addr:postcode": "560005",
        "addr:street": "Spencer Road, Fraser Town, Bangalore",
        "amenity": "school",
        "name": "Seventh Day Adventist School",
        "name:kn": "ಸೆವೆಂತ್ ಡೇ ಅಡ್ವೆನ್ಟಿಸ್ಟ್ ಪ್ರೌಡ ಶಾಲೆ"
      }
    },
    {
      "type": "way",
      "id": 775444121,
      "center": {
        "lat": 12.9955179,
        "lon": 77.6075387
      },
      "tags": {
        "access": "private",
        "leisure": "swimming_pool"
      }
    },
    {
      "type": "way",
      "id": 775448744,
      "center": {
        "lat": 12.9945753,
        "lon": 77.6094851
      },
      "tags": {
        "leisure": "pitch",
        "name": "Roller Skating Rink",
        "sport": "skateboard"
      }
    },
    {
      "type": "way",
      "id": 775448746,
      "center": {
        "lat": 12.9947733,
        "lon": 77.6084642
      },
      "tags": {
        "amenity": "shelter",
        "bench": "yes",
        "building": "yes",
        "shelter_type": "gazebo"
      }
    },
    {
      "type": "way",
      "id": 776784257,
      "center": {
        "lat": 12.9953128,
        "lon": 77.6102914
      },
      "tags": {
        "access": "private",
        "leisure": "swimming_pool"
      }
    },
    {
      "type": "way",
      "id": 782014045,
      "center": {
        "lat": 12.9980222,
        "lon": 77.6056114
      },
      "tags": {
        "amenity": "place_of_worship",
        "landuse": "religious",
        "religion": "hindu"
      }
    },
    {
      "type": "way",
      "id": 796374104,
      "center": {
        "lat": 13.0003677,
        "lon": 77.6076022
      },
      "tags": {
        "leisure": "park"
      }
    },
    {
      "type": "way",
      "id": 796374105,
      "center": {
        "lat": 13.0015611,
        "lon": 77.6073478
      },
      "tags": {
        "leisure": "park"
      }
    },
    {
      "type": "way",
      "id": 796374106,
      "center": {
        "lat": 13.0063435,
        "lon": 77.611474
      },
      "tags": {
        "amenity": "place_of_worship",
        "name": "Eidgah-e-Jadeed",
        "religion": "muslim"
      }
    },
    {
      "type": "way",
      "id": 837561053,
      "center": {
        "lat": 13.0040301,
        "lon": 77.6167034
      },
      "tags": {
        "access": "yes",
        "leisure": "playground",
        "source": "survey"
      }
    },
    {
      "type": "way",
      "id": 853107526,
      "center": {
        "lat": 13.0026129,
        "lon": 77.6166965
      },
      "tags": {
        "addr:city": "Bangalore",
        "addr:housenumber": "10",
        "addr:postcode": "560005",
        "addr:street": "Pottery Road",
        "amenity": "place_of_worship",
        "building": "church",
        "name": "Mizpah Telugu Church",
        "religion": "christian",
        "roof:colour": "#c66e4e",
        "service_times": "Su 09:30 - 12:00"
      }
    },
    {
      "type": "way",
      "id": 886246933,
      "center": {
        "lat": 12.9957846,
        "lon": 77.6091173
      },
      "tags": {
        "addr:housenumber": "10",
        "addr:street": "Promenade Road",
        "amenity": "school",
        "check_date": "2024-12-29",
        "email": "goodwillpucollege@yahoo.in",
        "name": "Goodwill Girls’ High School & Composite Pre-university College",
        "name:kn": "ಗುಡ್ ವಿಲ್ಸ್ ಕನ್ಯಾ ಪ್ರೌಡ ಶಾಲೆ",
        "phone": "+91 80 4371 8738",
        "start_date": "1821",
        "website": "https://csigghspuc.edu.in/",
        "wikidata": "Q19891605",
        "wikipedia": "en:Goodwill's Girls' School, Bengaluru"
      }
    },
    {
      "type": "way",
      "id": 1051886127,
      "center": {
        "lat": 12.9932494,
        "lon": 77.6074537
      },
      "tags": {
        "amenity": "events_venue",
        "name": "AKS Convention Centre"
      }
    },
    {
      "type": "way",
      "id": 1051886136,
      "center": {
        "lat": 12.993118,
        "lon": 77.6115447
      },
      "tags": {
        "access": "permissive",
        "amenity": "parking",
        "fee": "no",
        "parking": "surface"
      }
    },
    {
      "type": "way",
      "id": 1051886139,
      "center": {
        "lat": 12.9947955,
        "lon": 77.6102729
      },
      "tags": {
        "amenity": "place_of_worship",
        "name": "Wesley English Church",
        "name:kn": "ವೆಸ್ಲೀ ಇಂಗ್ಲಿಶ್ ಚರ್ಚ್",
        "religion": "christian"
      }
    },
    {
      "type": "way",
      "id": 1101219233,
      "center": {
        "lat": 12.9978927,
        "lon": 77.607601
      },
      "tags": {
        "amenity": "community_centre",
        "landuse": "commercial",
        "name": "Adam's Golden Heritage"
      }
    },
    {
      "type": "way",
      "id": 1101219234,
      "center": {
        "lat": 12.9966726,
        "lon": 77.6062242
      },
      "tags": {
        "amenity": "animal_shelter",
        "animal_shelter": "mammal",
        "name": "Bangalore Gaurakhan Shala"
      }
    },
    {
      "type": "way",
      "id": 1101219240,
      "center": {
        "lat": 12.9969519,
        "lon": 77.6065676
      },
      "tags": {
        "amenity": "college",
        "name": "MQI College"
      }
    },
    {
      "type": "way",
      "id": 1107016496,
      "center": {
        "lat": 13.000253,
        "lon": 77.6163044
      },
      "tags": {
        "amenity": "school",
        "name": "Haji Sir Ismail Sait Government Urdu and English Higher Primary School",
        "name:etymology:wikidata": "Q6084847"
      }
    },
    {
      "type": "way",
      "id": 1107016498,
      "center": {
        "lat": 13.0005054,
        "lon": 77.6139735
      },
      "tags": {
        "amenity": "clinic",
        "name": "Government Primary Health Center",
        "name:kn": "ಸರ್ಕಾರಿ ಪ್ರಾಥಮಿಕ ಆರೋಗ್ಯ ಕೇಂದ್ರ",
        "old_name": "Rao Bahadur BP Annaswamy Mudaliar Dispensary",
        "start_date": "1909"
      }
    },
    {
      "type": "way",
      "id": 1119315456,
      "center": {
        "lat": 13.0079264,
        "lon": 77.6140449
      },
      "tags": {
        "amenity": "school"
      }
    },
    {
      "type": "way",
      "id": 1160844600,
      "center": {
        "lat": 12.9948958,
        "lon": 77.6027041
      },
      "tags": {
        "amenity": "community_centre",
        "landuse": "commercial",
        "name": "Mukhtar Manzil Convention Hall"
      }
    },
    {
      "type": "way",
      "id": 1160844601,
      "center": {
        "lat": 12.9950301,
        "lon": 77.6023904
      },
      "tags": {
        "amenity": "community_centre",
        "landuse": "commercial",
        "name": "Taj Palace"
      }
    },
    {
      "type": "way",
      "id": 1160844624,
      "center": {
        "lat": 12.997306,
        "lon": 77.6000075
      },
      "tags": {
        "leisure": "park"
      }
    },
    {
      "type": "way",
      "id": 1160844629,
      "center": {
        "lat": 12.9974896,
        "lon": 77.6054075
      },
      "tags": {
        "amenity": "community_centre",
        "name": "Indian Social Institute"
      }
    },
    {
      "type": "way",
      "id": 1160844637,
      "center": {
        "lat": 12.9948922,
        "lon": 77.6054903
      },
      "tags": {
        "amenity": "community_centre",
        "name": "Family YMCA"
      }
    },
    {
      "type": "way",
      "id": 1202577040,
      "center": {
        "lat": 13.0025954,
        "lon": 77.6153961
      },
      "tags": {
        "access": "private",
        "leisure": "pitch",
        "sport": "basketball"
      }
    },
    {
      "type": "way",
      "id": 1275460866,
      "center": {
        "lat": 12.999737,
        "lon": 77.612371
      },
      "tags": {
        "amenity": "school",
        "landuse": "education",
        "name": "Government School",
        "name:kn": "ಸರ್ಕಾರಿ ಶಾಲೆ"
      }
    },
    {
      "type": "way",
      "id": 1278163550,
      "center": {
        "lat": 12.9965003,
        "lon": 77.6117967
      },
      "tags": {
        "amenity": "fuel",
        "brand": "Hindustan Petroleum",
        "brand:wikidata": "Q1619375",
        "compressed_air": "yes",
        "name": "HP Petrol Pump",
        "name:kn": "ಹಿಂದುಸ್ತಾನ್ ಪೆಟ್ರೋಲಿಯಂ",
        "official_name": "Hindustan Petroleum"
      }
    },
    {
      "type": "way",
      "id": 1278668472,
      "center": {
        "lat": 12.9934686,
        "lon": 77.6123451
      },
      "tags": {
        "amenity": "monastery",
        "community:gender": "female",
        "denomination": "catholic",
        "landuse": "religious",
        "name": "Tarbes Nivas",
        "religion": "christian"
      }
    },
    {
      "type": "way",
      "id": 1305182789,
      "center": {
        "lat": 12.9995073,
        "lon": 77.6012527
      },
      "tags": {
        "access": "private",
        "leisure": "swimming_pool"
      }
    },
    {
      "type": "way",
      "id": 1308476316,
      "center": {
        "lat": 12.9991068,
        "lon": 77.6005921
      },
      "tags": {
        "access": "private",
        "leisure": "swimming_pool"
      }
    },
    {
      "type": "way",
      "id": 1311425976,
      "center": {
        "lat": 12.9933819,
        "lon": 77.6091028
      },
      "tags": {
        "amenity": "parking",
        "parking": "surface"
      }
    },
    {
      "type": "way",
      "id": 1311425977,
      "center": {
        "lat": 12.9929322,
        "lon": 77.6108023
      },
      "tags": {
        "leisure": "pitch",
        "sport": "basketball"
      }
    },
    {
      "type": "way",
      "id": 1348168076,
      "center": {
        "lat": 12.9969365,
        "lon": 77.6032101
      },
      "tags": {
        "leisure": "garden"
      }
    },
    {
      "type": "way",
      "id": 1348168078,
      "center": {
        "lat": 12.995022,
        "lon": 77.6042931
      },
      "tags": {
        "amenity": "social_facility",
        "name": "Wesley Old Age Home",
        "social_facility": "assisted_living",
        "social_facility:for": "senior"
      }
    },
    {
      "type": "way",
      "id": 1348168098,
      "center": {
        "lat": 12.9990228,
        "lon": 77.6033757
      },
      "tags": {
        "access": "private",
        "leisure": "swimming_pool"
      }
    },
    {
      "type": "way",
      "id": 1348168112,
      "center": {
        "lat": 13.0014902,
        "lon": 77.5988482
      },
      "tags": {
        "amenity": "school",
        "name": "Gulabi School"
      }
    },
    {
      "type": "way",
      "id": 1348168138,
      "center": {
        "lat": 13.0028438,
        "lon": 77.60042
      },
      "tags": {
        "amenity": "college"
      }
    },
    {
      "type": "way",
      "id": 1348168195,
      "center": {
        "lat": 13.0016986,
        "lon": 77.6013148
      },
      "tags": {
        "leisure": "park"
      }
    },
    {
      "type": "way",
      "id": 1354135987,
      "center": {
        "lat": 12.9950956,
        "lon": 77.608345
      },
      "tags": {
        "leisure": "garden"
      }
    },
    {
      "type": "way",
      "id": 1354135993,
      "center": {
        "lat": 12.9951733,
        "lon": 77.6086379
      },
      "tags": {
        "leisure": "garden"
      }
    },
    {
      "type": "way",
      "id": 1354135998,
      "center": {
        "lat": 12.9942385,
        "lon": 77.6082814
      },
      "tags": {
        "amenity": "toilets",
        "building": "yes",
        "changing_table": "yes",
        "name": "Pay And Use Toilet"
      }
    },
    {
      "type": "way",
      "id": 1354135999,
      "center": {
        "lat": 12.9945203,
        "lon": 77.6081861
      },
      "tags": {
        "access": "no",
        "leisure": "garden"
      }
    },
    {
      "type": "way",
      "id": 1354136000,
      "center": {
        "lat": 12.9945114,
        "lon": 77.6085953
      },
      "tags": {
        "leisure": "garden"
      }
    },
    {
      "type": "way",
      "id": 1354136001,
      "center": {
        "lat": 12.9940378,
        "lon": 77.6088079
      },
      "tags": {
        "leisure": "garden",
        "name": "Ladies Exercise Area And Garden"
      }
    },
    {
      "type": "way",
      "id": 1354136002,
      "center": {
        "lat": 12.9939459,
        "lon": 77.6091707
      },
      "tags": {
        "leisure": "fitness_station",
        "name": "Ladies Outdoor Gym",
        "sport": "fitness"
      }
    },
    {
      "type": "way",
      "id": 1354136005,
      "center": {
        "lat": 12.9947063,
        "lon": 77.6081639
      },
      "tags": {
        "access": "no",
        "leisure": "garden"
      }
    },
    {
      "type": "way",
      "id": 1354136006,
      "center": {
        "lat": 12.9941276,
        "lon": 77.6092491
      },
      "tags": {
        "leisure": "pitch"
      }
    },
    {
      "type": "way",
      "id": 1354136011,
      "center": {
        "lat": 12.9942216,
        "lon": 77.6098013
      },
      "tags": {
        "leisure": "fitness_station",
        "name": "Outdoor Gym",
        "sport": "fitness"
      }
    },
    {
      "type": "way",
      "id": 1354137049,
      "center": {
        "lat": 12.9944381,
        "lon": 77.609755
      },
      "tags": {
        "leisure": "playground",
        "name": "Childrens Playground"
      }
    },
    {
      "type": "way",
      "id": 1354138781,
      "center": {
        "lat": 12.9938224,
        "lon": 77.609674
      },
      "tags": {
        "leisure": "pitch"
      }
    },
    {
      "type": "way",
      "id": 1354138794,
      "center": {
        "lat": 12.9934915,
        "lon": 77.6092589
      },
      "tags": {
        "leisure": "pitch"
      }
    },
    {
      "type": "way",
      "id": 1354140723,
      "center": {
        "lat": 12.9946856,
        "lon": 77.6090554
      },
      "tags": {
        "leisure": "garden"
      }
    },
    {
      "type": "way",
      "id": 1354141151,
      "center": {
        "lat": 12.9951035,
        "lon": 77.6085667
      },
      "tags": {
        "leisure": "garden"
      }
    },
    {
      "type": "way",
      "id": 1354141152,
      "center": {
        "lat": 12.9946598,
        "lon": 77.6087745
      },
      "tags": {
        "leisure": "garden"
      }
    },
    {
      "type": "way",
      "id": 1354141153,
      "center": {
        "lat": 12.9947356,
        "lon": 77.6084553
      },
      "tags": {
        "leisure": "garden"
      }
    },
    {
      "type": "way",
      "id": 1364046472,
      "center": {
        "lat": 12.9960002,
        "lon": 77.6115462
      },
      "tags": {
        "amenity": "place_of_worship",
        "denomination": "seventh_day_adventist",
        "name": "Seventh Day Adventist Central Tamil Church",
        "religion": "christian"
      }
    },
    {
      "type": "way",
      "id": 1364046490,
      "center": {
        "lat": 12.9956793,
        "lon": 77.611742
      },
      "tags": {
        "amenity": "school",
        "name": "Seventh Day Adventist Higher Secondary School"
      }
    },
    {
      "type": "way",
      "id": 1364046498,
      "center": {
        "lat": 12.9960151,
        "lon": 77.6108308
      },
      "tags": {
        "amenity": "clinic",
        "name": "Medical Mission Secular Institute"
      }
    },
    {
      "type": "way",
      "id": 1364046523,
      "center": {
        "lat": 12.9950655,
        "lon": 77.6098557
      },
      "tags": {
        "amenity": "college",
        "name": "Goodwill College for Women"
      }
    }
  ]
}