{
  "area_name": "Prakruthi Nagar",
  "osm_id": 11880637076,
  "osm_type": "node",
  "place_type": "neighbourhood",
  "amenity_count": 20,
  "amenities": [
    {
      "type": "node",
      "id": 11880636896,
      "lat": 13.0897842,
      "lon": 77.6142615,
      "tags": {
        "amenity": "place_of_worship",
        "religion": "hindu"
      }
    },
    {
      "type": "node",
      "id": 12265556061,
      "lat": 13.1036592,
      "lon": 77.6228102,
      "tags": {
        "amenity": "pharmacy",
        "check_date": "2024-10-19",
        "healthcare": "pharmacy",
        "name": "Ramdev Medical"
      }
    },
    {
      "type": "node",
      "id": 12265567755,
      "lat": 13.1042386,
      "lon": 77.6195773,
      "tags": {
        "check_date": "2024-10-19",
        "name": "IOC",
        "shop": "fuel"
      }
    },
    {
      "type": "node",
      "id": 12265567757,
      "lat": 13.1036172,
      "lon": 77.6162882,
      "tags": {
        "check_date": "2024-10-19",
        "name": "SLV bakery",
        "shop": "bakery"
      }
    },
    {
      "type": "node",
      "id": 12265574591,
      "lat": 13.1039619,
      "lon": 77.6145301,
      "tags": {
        "amenity": "fast_food",
        "check_date": "2024-10-19",
        "cuisine": "juice",
        "name": "Om Ganesh Fruit And Juice Center"
      }
    },
    {
      "type": "node",
      "id": 12342928518,
      "lat": 13.1035676,
      "lon": 77.6156677,
      "tags": {
        "amenity": "atm",
        "cash_in": "yes",
        "check_date": "2024-11-12",
        "covered": "yes",
        "currency:INR": "yes",
        "drive_through": "no",
        "indoor": "yes",
        "lit": "yes",
        "operator": "ICICI"
      }
    },
    {
      "type": "way",
      "id": 1182951693,
      "center": {
        "lat": 13.09442,
        "lon": 77.6087187
      },
      "tags": {
        "leisure": "pitch",
        "sport": "basketball"
      }
    },
    {
      "type": "way",
      "id": 1279826109,
      "center": {
        "lat": 13.1038013,
        "lon": 77.6230739
      },
      "tags": {
        "amenity": "place_of_worship",
        "landuse": "religious",
        "religion": "hindu"
      }
    },
    {
      "type": "way",
      "id": 1279826113,
      "center": {
        "lat": 13.1028982,
        "lon": 77.6236634
      },
      "tags": {
        "amenity": "college",
        "name": "Presidency PU College, Kogilu"
      }
    },
    {
      "type": "way",
      "id": 1279826119,
      "center": {
        "lat": 13.1031266,
        "lon": 77.6195133
      },
      "tags": {
        "amenity": "school",
        "name": "National Public School, North",
        "name:kn": "ರಾಷ್ಟ್ರೀಯ ಸಾರ್ವಜನಿಕ ಶಾಲೆ"
      }
    },
    {
      "type": "way",
      "id": 1279826126,
      "center": {
        "lat": 13.1021953,
        "lon": 77.6146249
      },
      "tags": {
        "leisure": "pitch",
        "sport": "tennis"
      }
    },
    {
      "type": "way",
      "id": 1279826182,
      "center": {
        "lat": 13.0988756,
        "lon": 77.6114055
      },
      "tags": {
        "amenity": "events_venue",
        "landuse": "commercial",
        "name": "VK Palace"
      }
    },
    {
      "type": "way",
      "id": 1303031384,
      "center": {
        "lat": 13.0962364,
        "lon": 77.6181453
      },
      "tags": {
        "leisure": "pitch",
        "sport": "soccer"
      }
    },
    {
      "type": "way",
      "id": 1347351891,
      "center": {
        "lat": 13.1042565,
        "lon": 77.6198807
      },
      "tags": {
        "amenity": "fuel"
      }
    },
    {
      "type": "way",
      "id": 1347351892,
      "center": {
        "lat": 13.1052106,
        "lon": 77.6203759
      },
      "tags": {
        "amenity": "school",
        "check_date": "2024-10-19",
        "name": "Millenium World School"
      }
    },
    {
      "type": "way",
      "id": 1347351947,
      "center": {
        "lat": 13.1031357,
        "lon": 77.6195414
      },
      "tags": {
        "leisure": "pitch"
      }
    },
    {
      "type": "way",
      "id": 1347351988,
      "center": {
        "lat": 13.0993308,
        "lon": 77.6213988
      },
      "tags": {
        "amenity": "school",
        "name": "Navkis Educational Centre, Kogilu"
      }
    },
    {
      "type": "way",
      "id": 1393740069,
      "center": {
        "lat": 13.097702,
        "lon": 77.6242843
      },
      "tags": {
        "leisure": "park"
      }
    },
    {
      "type": "way",
      "id": 1424743343,
      "center": {
        "lat": 13.1043409,
        "lon": 77.6106994
      },
      "tags": {
        "amenity": "fuel"
      }
    },
    {
      "type": "way",
      "id": 1426588947,
      "center": {
        "lat": 13.0940289,
        "lon": 77.6202609
      },
      "tags": {
        "access": "private",
        "leisure": "swimming_pool"
      }
    }
  ]
}