{
  "area_name": "Prem Nagar",
  "osm_id": 11218370411,
  "osm_type": "node",
  "place_type": "neighbourhood",
  "amenity_count": 23,
  "amenities": [
    {
      "type": "node",
      "id": 3455398720,
      "lat": 13.0008775,
      "lon": 77.5173607,
      "tags": {
        "amenity": "place_of_worship",
        "name": "Veera Brahmendra temple",
        "name:kn": "ವೀರ ಬ್ರಹ್ಮೇಂದ್ರ",
        "religion": "hindu"
      }
    },
    {
      "type": "node",
      "id": 4209389014,
      "lat": 12.9929929,
      "lon": 77.5292643,
      "tags": {
        "addr:postcode": "560079",
        "addr:street": "BEML Layout, Kamala Nagar, Bengaluru, Karnataka",
        "amenity": "theatre",
        "name": "Veerabhadreshwara Theatre",
        "name:kn": "ವೀರಭದ್ರೇಶ್ವರ ಚಿತ್ರಮಂದಿರ",
        "opening_hours": "Mo-Su 10:00-23:00",
        "phone": "080-23230923"
      }
    },
    {
      "type": "node",
      "id": 4221615261,
      "lat": 12.9928196,
      "lon": 77.5306777,
      "tags": {
        "amenity": "atm",
        "opening_hours": "24/7",
        "operator": "Canara bank ATM"
      }
    },
    {
      "type": "node",
      "id": 8240244514,
      "lat": 12.9990055,
      "lon": 77.5251143,
      "tags": {
        "amenity": "pharmacy"
      }
    },
    {
      "type": "node",
      "id": 8240257724,
      "lat": 12.9961764,
      "lon": 77.5224254,
      "tags": {
        "name": "Royal Oak",
        "shop": "furniture"
      }
    },
    {
      "type": "node",
      "id": 8240257727,
      "lat": 12.9951873,
      "lon": 77.5219448,
      "tags": {
        "amenity": "fuel",
        "brand": "Bharat Petroleum",
        "brand:wikidata": "Q854826",
        "check_date": "2023-03-16",
        "fuel:diesel": "yes",
        "fuel:petrol": "yes",
        "name": "Bharat Petroleum",
        "name:kn": "ಭಾರತ್ ಪೆಟ್ರೋಲಿಯಂ",
        "operator": "Bharat Petroleum",
        "self_service": "no"
      }
    },
    {
      "type": "node",
      "id": 8240881807,
      "lat": 12.9997124,
      "lon": 77.529906,
      "tags": {
        "name": "Mangalore Fish Center",
        "shop": "seafood"
      }
    },
    {
      "type": "node",
      "id": 8442476343,
      "lat": 12.9993269,
      "lon": 77.5251746,
      "tags": {
        "name": "Family Provision Store",
        "shop": "convenience"
      }
    },
    {
      "type": "node",
      "id": 8754940344,
      "lat": 13.0011186,
      "lon": 77.5255326,
      "tags": {
        "name": "Vagmi Pet products",
        "shop": "wholesale"
      }
    },
    {
      "type": "node",
      "id": 9654252350,
      "lat": 12.9958863,
      "lon": 77.5228518,
      "tags": {
        "amenity": "bank",
        "atm": "yes",
        "brand": "Canara Bank",
        "brand:en": "Canara Bank",
        "brand:hi": "केनरा बैंक",
        "brand:kn": "ಕೆನರಾ ಬ್ಯಾಂಕ್",
        "brand:pa": "ਕੇਨਰਾ ਬੈਂਕ",
        "brand:pnb": "کینرا بینک",
        "brand:ur": "کینرا بینک",
        "brand:wikidata": "Q2003777",
        "name": "Canara Bank",
        "name:en": "Canara Bank",
        "name:hi": "केनरा बैंक",
        "name:kn": "ಕೆನರಾ ಬ್ಯಾಂಕ್",
        "name:pa": "ਕੇਨਰਾ ਬੈਂਕ",
        "name:pnb": "کینرا بینک",
        "name:ur": "کینرا بینک",
        "operator": "Canara Bank"
      }
    },
    {
      "type": "node",
      "id": 10738598991,
      "lat": 12.9946331,
      "lon": 77.5225363,
      "tags": {
        "amenity": "fuel",
        "brand": "Indian Oil",
        "brand:wikidata": "Q1289348",
        "check_date": "2023-03-16",
        "name": "Indian Oil"
      }
    },
    {
      "type": "way",
      "id": 133952210,
      "center": {
        "lat": 12.9999013,
        "lon": 77.5313317
      },
      "tags": {
        "leisure": "park"
      }
    },
    {
      "type": "way",
      "id": 141508066,
      "center": {
        "lat": 12.9921312,
        "lon": 77.5294014
      },
      "tags": {
        "leisure": "park"
      }
    },
    {
      "type": "way",
      "id": 143731427,
      "center": {
        "lat": 12.9909868,
        "lon": 77.513684
      },
      "tags": {
        "amenity": "college",
        "name": "National Institute of Unani Medicine"
      }
    },
    {
      "type": "way",
      "id": 222278954,
      "center": {
        "lat": 12.9940136,
        "lon": 77.5319539
      },
      "tags": {
        "amenity": "school",
        "name": "Max Muller School",
        "name:kn": "ಮಾಕ್ಸ್ ಮುಲ್ಲರ್ ಶಾಲೆ"
      }
    },
    {
      "type": "way",
      "id": 252711787,
      "center": {
        "lat": 12.9934335,
        "lon": 77.5292704
      },
      "tags": {
        "amenity": "place_of_worship",
        "building": "yes",
        "name": "Om Shakti Temple",
        "name:kn": "ಓಂ ಶಕ್ತಿ ದೇವಸ್ಥಾನ",
        "religion": "hindu"
      }
    },
    {
      "type": "way",
      "id": 412935364,
      "center": {
        "lat": 12.9988695,
        "lon": 77.5267772
      },
      "tags": {
        "leisure": "park"
      }
    },
    {
      "type": "way",
      "id": 412935376,
      "center": {
        "lat": 12.9994536,
        "lon": 77.5294902
      },
      "tags": {
        "leisure": "park"
      }
    },
    {
      "type": "way",
      "id": 886184252,
      "center": {
        "lat": 12.9961678,
        "lon": 77.5213994
      },
      "tags": {
        "shop": "laundry"
      }
    },
    {
      "type": "way",
      "id": 1120737746,
      "center": {
        "lat": 12.9961474,
        "lon": 77.5194088
      },
      "tags": {
        "amenity": "fuel",
        "brand": "GAIL",
        "fuel:cng": "yes",
        "name": "GAIL",
        "operator": "GAIL"
      }
    },
    {
      "type": "way",
      "id": 1247976105,
      "center": {
        "lat": 12.9916237,
        "lon": 77.5198011
      },
      "tags": {
        "amenity": "theatre",
        "name": "Babu Jagjivanram Auditorium & Training Centre",
        "start_date": "2024"
      }
    },
    {
      "type": "way",
      "id": 1247976109,
      "center": {
        "lat": 12.9914713,
        "lon": 77.520289
      },
      "tags": {
        "leisure": "park"
      }
    },
    {
      "type": "way",
      "id": 1247976122,
      "center": {
        "lat": 12.9910315,
        "lon": 77.5170909
      },
      "tags": {
        "leisure": "park"
      }
    }
  ]
}