{
  "area_name": "Pudupadacheri",
  "osm_id": 12161142138,
  "osm_type": "node",
  "place_type": "neighbourhood",
  "amenity_count": 450,
  "amenities": [
    {
      "type": "node",
      "id": 577393706,
      "lat": 12.9547341,
      "lon": 77.593073,
      "tags": {
        "amenity": "taxi",
        "auto_rickshaw": "yes",
        "fee": "yes"
      }
    },
    {
      "type": "node",
      "id": 644420166,
      "lat": 12.9600242,
      "lon": 77.6015444,
      "tags": {
        "amenity": "restaurant",
        "name": "Sandhya Sagar",
        "name:kn": "ಸಂಧ್ಯಾ ಸಾಗರ್"
      }
    },
    {
      "type": "node",
      "id": 646739373,
      "lat": 12.9601639,
      "lon": 77.5945806,
      "tags": {
        "addr:street": "Shanti Road",
        "amenity": "restaurant",
        "name": "Utsav",
        "name:kn": "ಉತ್ಸವ್"
      }
    },
    {
      "type": "node",
      "id": 1061343614,
      "lat": 12.9657768,
      "lon": 77.6054478,
      "tags": {
        "addr:street": "Richmond Road",
        "amenity": "place_of_worship",
        "name": "Richmond Town Mosque",
        "religion": "muslim",
        "wheelchair": "no"
      }
    },
    {
      "type": "node",
      "id": 1121420612,
      "lat": 12.9578638,
      "lon": 77.5932147,
      "tags": {
        "amenity": "restaurant",
        "name": "Foody's",
        "name:kn": "ಫುಡೀಸ್"
      }
    },
    {
      "type": "node",
      "id": 1446122916,
      "lat": 12.9683152,
      "lon": 77.6004368,
      "tags": {
        "addr:city": "Bangalore",
        "addr:full": "St. Marks Road, Opp Bishop Cotton Boys School, Srinivas Nagar, Shanthala Nagar, Ashok Nagar, Bengaluru",
        "addr:housenumber": "74/5",
        "addr:postcode": "560001",
        "addr:street": "Saint Mark's Road",
        "amenity": "pharmacy",
        "dispensing": "yes",
        "name": "The Cash Pharmacy",
        "phone": "080 3361 8456"
      }
    },
    {
      "type": "node",
      "id": 1448814112,
      "lat": 12.9645047,
      "lon": 77.6065319,
      "tags": {
        "amenity": "fast_food",
        "cuisine": "kebab",
        "name": "Hotel Fanoos"
      }
    },
    {
      "type": "node",
      "id": 1449018888,
      "lat": 12.9668907,
      "lon": 77.5986274,
      "tags": {
        "amenity": "pharmacy",
        "name": "Residency Pharmacy"
      }
    },
    {
      "type": "node",
      "id": 1474007534,
      "lat": 12.9649944,
      "lon": 77.5958779,
      "tags": {
        "name": "Kirtilals",
        "shop": "jewelry"
      }
    },
    {
      "type": "node",
      "id": 1666861677,
      "lat": 12.9668886,
      "lon": 77.5993311,
      "tags": {
        "amenity": "bank",
        "brand": "Bank of Baroda",
        "brand:wikidata": "Q2003797",
        "level": "1",
        "name": "Bank of Baroda"
      }
    },
    {
      "type": "node",
      "id": 1851614806,
      "lat": 12.960466,
      "lon": 77.6017789,
      "tags": {
        "name": "Reliance Smartpoint",
        "shop": "supermarket"
      }
    },
    {
      "type": "node",
      "id": 1851614956,
      "lat": 12.9596191,
      "lon": 77.6026157,
      "tags": {
        "name": "Namdharis",
        "shop": "supermarket"
      }
    },
    {
      "type": "node",
      "id": 1851615411,
      "lat": 12.9622638,
      "lon": 77.6040957,
      "tags": {
        "name": "Richmond Supermarket",
        "shop": "supermarket"
      }
    },
    {
      "type": "node",
      "id": 1851615731,
      "lat": 12.958286,
      "lon": 77.605196,
      "tags": {
        "amenity": "restaurant",
        "cuisine": "international",
        "name": "Y! Cafe"
      }
    },
    {
      "type": "node",
      "id": 1851618527,
      "lat": 12.9616161,
      "lon": 77.5986353,
      "tags": {
        "amenity": "bank",
        "atm": "yes",
        "brand": "IDFC First Bank",
        "brand:wikidata": "Q22031467",
        "brand:wikipedia": "en:IDFC First Bank",
        "drive_through": "no",
        "name": "IDFC First Bank",
        "not:brand:wikidata": "Q1653258",
        "operator": "IDFC First Bank"
      }
    },
    {
      "type": "node",
      "id": 1851675230,
      "lat": 12.9656404,
      "lon": 77.6017608,
      "tags": {
        "name": "Print Express",
        "shop": "copyshop",
        "wheelchair": "no"
      }
    },
    {
      "type": "node",
      "id": 1851682041,
      "lat": 12.9624402,
      "lon": 77.5990359,
      "tags": {
        "amenity": "restaurant",
        "brand": "Pizza Hut",
        "brand:wikidata": "Q191615",
        "check_date": "2024-12-29",
        "cuisine": "pizza",
        "name": "Pizza Hut",
        "name:kn": "ಪಿಟ್ಸ ಹಟ್"
      }
    },
    {
      "type": "node",
      "id": 1851685727,
      "lat": 12.9676211,
      "lon": 77.6001785,
      "tags": {
        "amenity": "restaurant",
        "cuisine": "japanese",
        "delivery": "yes",
        "level": "4",
        "name": "Harima",
        "reservation": "recommended",
        "takeaway": "yes"
      }
    },
    {
      "type": "node",
      "id": 1851688340,
      "lat": 12.9602214,
      "lon": 77.6017286,
      "tags": {
        "shop": "alcohol"
      }
    },
    {
      "type": "node",
      "id": 1851701176,
      "lat": 12.9597386,
      "lon": 77.6018505,
      "tags": {
        "shop": "laundry"
      }
    },
    {
      "type": "node",
      "id": 1851701311,
      "lat": 12.9596942,
      "lon": 77.6018371,
      "tags": {
        "shop": "greengrocer"
      }
    },
    {
      "type": "node",
      "id": 1851701331,
      "lat": 12.9583088,
      "lon": 77.6022126,
      "tags": {
        "name": "Neelam Stores",
        "shop": "convenience"
      }
    },
    {
      "type": "node",
      "id": 1851707242,
      "lat": 12.9655446,
      "lon": 77.601164,
      "tags": {
        "addr:city": "Bengaluru",
        "addr:district": "Bengaluru Urban",
        "addr:housenumber": "8/24",
        "addr:postcode": "560025",
        "addr:street": "Richmond Road",
        "amenity": "bank",
        "atm": "yes",
        "brand": "HDFC Bank",
        "brand:wikidata": "Q631047",
        "brand:wikipedia": "en:HDFC Bank",
        "name": "HDFC Bank",
        "name:kn": "ಎಚ್ ಡಿ ಎಫ್ ಸಿ",
        "short_name": "HDFC",
        "website": "https://www.hdfcbank.com"
      }
    },
    {
      "type": "node",
      "id": 1851709530,
      "lat": 12.9638299,
      "lon": 77.6009468,
      "tags": {
        "amenity": "place_of_worship",
        "religion": "hindu"
      }
    },
    {
      "type": "node",
      "id": 2322736999,
      "lat": 12.9684869,
      "lon": 77.6008019,
      "tags": {
        "amenity": "cafe",
        "brand": "Sweet Chariot",
        "delivery": "yes",
        "level": "0",
        "name": "Sweet Chariot",
        "shop": "pastry",
        "takeaway": "yes"
      }
    },
    {
      "type": "node",
      "id": 2577055910,
      "lat": 12.9655171,
      "lon": 77.5949458,
      "tags": {
        "amenity": "restaurant",
        "diet:vegetarian": "only",
        "name": "Woody's",
        "name:kn": "ವುಡಿಸ್"
      }
    },
    {
      "type": "node",
      "id": 2577231853,
      "lat": 12.9632542,
      "lon": 77.5920638,
      "tags": {
        "addr:city": "Bangalore",
        "addr:housenumber": "16",
        "addr:postcode": "560027",
        "addr:street": "Mission Road (Kalinga Rao Road)",
        "amenity": "police",
        "name": "Sampangi Rama Nagar Police Station",
        "name:bn": "সম্পাঙ্গী রাম নগর থানা"
      }
    },
    {
      "type": "node",
      "id": 2760193388,
      "lat": 12.9656224,
      "lon": 77.5954265,
      "tags": {
        "addr:city": "Bangalore",
        "addr:postcode": "560025",
        "addr:street": "Rajaram Mohan Roy Road",
        "name": "Harish Wines - MRP Outlet",
        "opening_hours": "10:00-22:00",
        "shop": "alcohol"
      }
    },
    {
      "type": "node",
      "id": 2774680147,
      "lat": 12.9652714,
      "lon": 77.5985205,
      "tags": {
        "addr:housename": "Ittiam",
        "addr:street": "Richmond Road",
        "amenity": "bank",
        "atm": "yes",
        "brand": "HDFC Bank",
        "brand:wikidata": "Q631047",
        "brand:wikipedia": "en:HDFC Bank",
        "name": "HDFC Bank",
        "name:kn": "ಎಚ್ ಡಿ ಎಫ್ ಸಿ",
        "short_name": "HDFC",
        "source": "www.hdfcbank.com",
        "website": "https://www.hdfcbank.com"
      }
    },
    {
      "type": "node",
      "id": 2774686318,
      "lat": 12.965985,
      "lon": 77.6036918,
      "tags": {
        "amenity": "atm",
        "operator": "Citi Bank India",
        "source": "www.citibank.co.in"
      }
    },
    {
      "type": "node",
      "id": 2872067825,
      "lat": 12.9659396,
      "lon": 77.5949764,
      "tags": {
        "amenity": "fast_food",
        "cuisine": "regional",
        "name": "Ramanna's Fast Food"
      }
    },
    {
      "type": "node",
      "id": 2875597594,
      "lat": 12.9644187,
      "lon": 77.6062299,
      "tags": {
        "name": "Karnataka Supermarket",
        "shop": "supermarket"
      }
    },
    {
      "type": "node",
      "id": 3019588216,
      "lat": 12.962382,
      "lon": 77.5939054,
      "tags": {
        "amenity": "fast_food",
        "name": "Darshini",
        "name:kn": "ದರ್ಶಿನಿ"
      }
    },
    {
      "type": "node",
      "id": 3019593147,
      "lat": 12.9624238,
      "lon": 77.5942112,
      "tags": {
        "name": "Surya Bakery",
        "name:kn": "ಸೂರ್ಯ ಬೇಕರಿ",
        "shop": "bakery"
      }
    },
    {
      "type": "node",
      "id": 3019595557,
      "lat": 12.9658715,
      "lon": 77.5943909,
      "tags": {
        "addr:city": "Bangalore",
        "addr:postcode": "560027",
        "addr:street": "Sri Ram Mandir Road",
        "amenity": "place_of_worship",
        "name": "Sri Rama Mandira",
        "name:kn": "ಶ್ರೀ ರಾಮ ಮಂದಿರ",
        "religion": "hindu"
      }
    },
    {
      "type": "node",
      "id": 3458335906,
      "lat": 12.9680185,
      "lon": 77.6019458,
      "tags": {
        "addr:city": "Bengaluru",
        "addr:street": "FM Cariappa Road (Residency Road)",
        "amenity": "pub",
        "contact:facebook": "bangalorebrewworks",
        "contact:instagram": "bangalorebrewworks",
        "microbrewery": "yes",
        "name": "Bangalore Brew Works",
        "phone": "+91 97422 11446"
      }
    },
    {
      "type": "node",
      "id": 3773028057,
      "lat": 12.9603157,
      "lon": 77.5930493,
      "tags": {
        "addr:city": "Bengaluru",
        "addr:district": "Bengaluru Urban",
        "addr:full": "44-45/2, 2nd Cross Raja Rammohan Roy Extn Off Lalbagh Double Road",
        "addr:postcode": "560027",
        "addr:state": "Karnataka",
        "amenity": "hospital",
        "building": "hospital",
        "name": "HCG Cancer Hospital",
        "source": "OpenGovernmentData",
        "website": "https://www.hcgoncology.com/"
      }
    },
    {
      "type": "node",
      "id": 3862084057,
      "lat": 12.9647167,
      "lon": 77.5965668,
      "tags": {
        "name": "Nikhaar",
        "shop": "jewelry"
      }
    },
    {
      "type": "node",
      "id": 3862107357,
      "lat": 12.9677866,
      "lon": 77.6002508,
      "tags": {
        "amenity": "bank",
        "atm": "yes",
        "brand": "ICICI Bank",
        "brand:wikidata": "Q1653258",
        "name": "ICICI Bank",
        "short_name": "ICICI"
      }
    },
    {
      "type": "node",
      "id": 3862107358,
      "lat": 12.9677649,
      "lon": 77.6002064,
      "tags": {
        "check_date": "2023-06-11",
        "level": "0",
        "name": "Arya Bhangy Hand Carved Doors",
        "phone": "+91 80 2227 3362",
        "shop": "furniture",
        "source": "survey",
        "wheelchair": "no"
      }
    },
    {
      "type": "node",
      "id": 3862107363,
      "lat": 12.9676928,
      "lon": 77.6001299,
      "tags": {
        "level": "1",
        "name": "Riya Holidays",
        "shop": "travel_agency"
      }
    },
    {
      "type": "node",
      "id": 3862107364,
      "lat": 12.9676687,
      "lon": 77.6001003,
      "tags": {
        "level": "0",
        "name": "Rugs and Riches",
        "shop": "carpet"
      }
    },
    {
      "type": "node",
      "id": 3862116511,
      "lat": 12.9676326,
      "lon": 77.6000558,
      "tags": {
        "level": "0",
        "name": "SR Gopal Rao",
        "shop": "optician"
      }
    },
    {
      "type": "node",
      "id": 3862118052,
      "lat": 12.9675244,
      "lon": 77.5998954,
      "tags": {
        "ele": "0",
        "name": "Vijaya Diamonds & Jewels",
        "shop": "jewelry"
      }
    },
    {
      "type": "node",
      "id": 3862118053,
      "lat": 12.9675076,
      "lon": 77.5998707,
      "tags": {
        "level": "1",
        "name": "Riya",
        "shop": "travel_agency"
      }
    },
    {
      "type": "node",
      "id": 3862121003,
      "lat": 12.9675773,
      "lon": 77.5999645,
      "tags": {
        "brand": "5àsec",
        "brand:wikidata": "Q2817899",
        "level": "0",
        "name": "5àsec",
        "shop": "dry_cleaning"
      }
    },
    {
      "type": "node",
      "id": 3862121004,
      "lat": 12.9675509,
      "lon": 77.59993,
      "tags": {
        "level": "0",
        "name": "Rajatha Jewellers",
        "shop": "jewelry"
      }
    },
    {
      "type": "node",
      "id": 3862132130,
      "lat": 12.9674835,
      "lon": 77.5998288,
      "tags": {
        "level": "0",
        "name": "Rajarathnam's Jewels",
        "shop": "jewelry"
      }
    },
    {
      "type": "node",
      "id": 3862132131,
      "lat": 12.9674571,
      "lon": 77.5997967,
      "tags": {
        "amenity": "fast_food",
        "cuisine": "rolls",
        "name": "Faasos's"
      }
    },
    {
      "type": "node",
      "id": 3862137594,
      "lat": 12.9674907,
      "lon": 77.5998658,
      "tags": {
        "amenity": "clinic",
        "level": "1",
        "name": "National Medical Center"
      }
    },
    {
      "type": "node",
      "id": 3862550427,
      "lat": 12.9647402,
      "lon": 77.5963093,
      "tags": {
        "level": "0,1,2",
        "name": "Pratibha",
        "name:kn": "ಪ್ರತಿಭಾ",
        "shop": "jewelry",
        "wheelchair": "limited"
      }
    },
    {
      "type": "node",
      "id": 3862550432,
      "lat": 12.9647271,
      "lon": 77.5964702,
      "tags": {
        "amenity": "clinic",
        "level": "2",
        "name": "Dr. Patel's Homeopathy Clinic"
      }
    },
    {
      "type": "node",
      "id": 3862560847,
      "lat": 12.9651732,
      "lon": 77.5956922,
      "tags": {
        "level": "0,1,2",
        "name": "Entice",
        "operator": "KGK",
        "shop": "jewelry"
      }
    },
    {
      "type": "node",
      "id": 3862560848,
      "lat": 12.9653277,
      "lon": 77.5956147,
      "tags": {
        "ele": "0",
        "name": "OTS Officetech Systems Pvt Ltd",
        "shop": "furniture"
      }
    },
    {
      "type": "node",
      "id": 3862560849,
      "lat": 12.9653864,
      "lon": 77.5955802,
      "tags": {
        "name": "Glowing Lights",
        "shop": "lighting"
      }
    },
    {
      "type": "node",
      "id": 3862561358,
      "lat": 12.9652579,
      "lon": 77.5956452,
      "tags": {
        "name": "The Crown Cricketer",
        "shop": "sports"
      }
    },
    {
      "type": "node",
      "id": 3862569635,
      "lat": 12.9668801,
      "lon": 77.599278,
      "tags": {
        "amenity": "bank",
        "atm": "yes",
        "brand": "Indian Overseas Bank",
        "brand:wikidata": "Q2003611",
        "brand:wikipedia": "en:Indian Overseas Bank",
        "level": "0",
        "name": "Indian Overseas Bank",
        "name:en": "Indian Overseas Bank",
        "name:kn": "ಐ ಓ ಬಿ",
        "short_name": "IOB",
        "website": "https://www.iob.in"
      }
    },
    {
      "type": "node",
      "id": 3862572029,
      "lat": 12.9674186,
      "lon": 77.5997528,
      "tags": {
        "amenity": "pharmacy",
        "healthcare": "pharmacy",
        "level": "0",
        "name": "Balaji Pharma"
      }
    },
    {
      "type": "node",
      "id": 3862572030,
      "lat": 12.9674081,
      "lon": 77.5997206,
      "tags": {
        "level": "0",
        "name": "Acme Fitness",
        "shop": "sports"
      }
    },
    {
      "type": "node",
      "id": 3862572657,
      "lat": 12.9678054,
      "lon": 77.6002865,
      "tags": {
        "amenity": "pharmacy",
        "level": "-1",
        "name": "Chetak Pharmacy"
      }
    },
    {
      "type": "node",
      "id": 3862573257,
      "lat": 12.9681818,
      "lon": 77.6010952,
      "tags": {
        "brand": "Herman Miller",
        "brand:wikidata": "Q489469",
        "level": "0-2",
        "name": "Herman Miller",
        "shop": "furniture"
      }
    },
    {
      "type": "node",
      "id": 3922280181,
      "lat": 12.9584755,
      "lon": 77.5919279,
      "tags": {
        "amenity": "hospital",
        "name": "Health Care Global"
      }
    },
    {
      "type": "node",
      "id": 4080860480,
      "lat": 12.9631001,
      "lon": 77.6057848,
      "tags": {
        "amenity": "fast_food",
        "name": "Siddiqu Kabab Center"
      }
    },
    {
      "type": "node",
      "id": 4151360961,
      "lat": 12.9653807,
      "lon": 77.5941925,
      "tags": {
        "amenity": "pharmacy"
      }
    },
    {
      "type": "node",
      "id": 4151360962,
      "lat": 12.9664471,
      "lon": 77.5945707,
      "tags": {
        "amenity": "atm",
        "drive_through": "no",
        "name": "State Bank ATM",
        "operator": "State Bank Group"
      }
    },
    {
      "type": "node",
      "id": 4172563290,
      "lat": 12.9636036,
      "lon": 77.5940552,
      "tags": {
        "addr:housenumber": "1 Main Road",
        "addr:street": "Sri Ram Mandir Road",
        "email": "rk@orinova.org",
        "internet_access": "wlan",
        "name": "Kasseva",
        "opening_hours": "Mo-Sa 10:30-17:45",
        "phone": "9379796333",
        "shop": "chemist",
        "website": "www.kasseva.com"
      }
    },
    {
      "type": "node",
      "id": 4172591489,
      "lat": 12.9627136,
      "lon": 77.5949225,
      "tags": {
        "addr:housenumber": "1 Main Road ",
        "addr:street": "Sampangi Ram Nagar ",
        "email": "rk@orinova.org",
        "internet_access": "wlan",
        "name": "Origo Cosmeceuticals Private Limited",
        "opening_hours": "24/7",
        "phone": "+918022241789",
        "shop": "chemist",
        "website": "https://www.origopharma.com/"
      }
    },
    {
      "type": "node",
      "id": 4307611570,
      "lat": 12.965537,
      "lon": 77.6027487,
      "tags": {
        "branch": "Beauty Zone",
        "brand": "Avon",
        "brand:wikidata": "Q791285",
        "name": "Avon",
        "shop": "cosmetics"
      }
    },
    {
      "type": "node",
      "id": 4307625972,
      "lat": 12.9655392,
      "lon": 77.6028344,
      "tags": {
        "amenity": "bank",
        "brand": "State Bank of India",
        "brand:wikidata": "Q1340361",
        "brand:wikipedia": "en:State Bank of India",
        "name": "State Bank of India",
        "name:kn": "ಭಾರತೀಯ ಸ್ಟೇಟ್ ಬ್ಯಾಂಕ್",
        "short_name": "SBI",
        "website": "https://www.sbi.co.in"
      }
    },
    {
      "type": "node",
      "id": 4307626008,
      "lat": 12.9655401,
      "lon": 77.6028098,
      "tags": {
        "name": "Lakme Salon",
        "shop": "beauty"
      }
    },
    {
      "type": "node",
      "id": 4307640439,
      "lat": 12.9655881,
      "lon": 77.6036377,
      "tags": {
        "amenity": "college",
        "name": "Presidency University",
        "office": "educational_institution"
      }
    },
    {
      "type": "node",
      "id": 4307663670,
      "lat": 12.965985,
      "lon": 77.6043811,
      "tags": {
        "amenity": "bank",
        "brand": "State Bank of India",
        "brand:wikidata": "Q1340361",
        "brand:wikipedia": "en:State Bank of India",
        "name": "State Bank of India",
        "name:kn": "ಭಾರತೀಯ ಸ್ಟೇಟ್ ಬ್ಯಾಂಕ್",
        "short_name": "SBI"
      }
    },
    {
      "type": "node",
      "id": 4314392991,
      "lat": 12.9663431,
      "lon": 77.6065158,
      "tags": {
        "name": "Akbar Travels",
        "shop": "travel_agency"
      }
    },
    {
      "type": "node",
      "id": 4368864093,
      "lat": 12.9665145,
      "lon": 77.6065215,
      "tags": {
        "amenity": "cafe",
        "name": "Fruit xtracts"
      }
    },
    {
      "type": "node",
      "id": 4381065701,
      "lat": 12.9669581,
      "lon": 77.5975092,
      "tags": {
        "amenity": "fountain"
      }
    },
    {
      "type": "node",
      "id": 4395689916,
      "lat": 12.9650035,
      "lon": 77.6001039,
      "tags": {
        "amenity": "theatre",
        "name": "Montgomery Hall",
        "name:en": "Montgomery Hall"
      }
    },
    {
      "type": "node",
      "id": 4446442047,
      "lat": 12.9658632,
      "lon": 77.5998808,
      "tags": {
        "addr:city": "Bengaluru",
        "addr:housenumber": "5/1",
        "addr:postcode": "560025",
        "addr:street": "2nd Floor, Rich Homes, Richmond Road, Shanthala Nagar, Ashok Nagar, Shanthala Nagar, Ashok Nagar",
        "amenity": "pharmacy",
        "name": "Bangalore Fetal Medicine Centre",
        "phone": "080 2221 0540",
        "website": "bangalorefetalmedicine.com"
      }
    },
    {
      "type": "node",
      "id": 4446962739,
      "lat": 12.9644242,
      "lon": 77.5968789,
      "tags": {
        "addr:city": "Bangalore",
        "addr:postcode": "560025",
        "addr:street": "Lalbagh Road",
        "amenity": "pharmacy",
        "healthcare": "pharmacy",
        "name": "Central Lab",
        "phone": "+9180 222 37370"
      }
    },
    {
      "type": "node",
      "id": 4488473860,
      "lat": 12.9604211,
      "lon": 77.5937215,
      "tags": {
        "addr:city": "Bangalore",
        "addr:housenumber": "No. 126",
        "addr:postcode": "560027",
        "addr:street": "Chabria Square, KH Road, Bhadrappa Layout, Srinivas Colony, Sudhama Nagar,",
        "leisure": "sports_centre",
        "name": "i-fitness",
        "opening_hours": "5:30-22:00",
        "phone": "080 4151 8000",
        "sport": "gymnastics",
        "website": "https://i-fitness.in/"
      }
    },
    {
      "type": "node",
      "id": 4489351702,
      "lat": 12.9632753,
      "lon": 77.595633,
      "tags": {
        "addr:city": "Bangalore",
        "addr:postcode": "560027",
        "addr:street": "Ranka Park, Near Richmond Circle, Richmond Road, Richmond Road,",
        "check_date": "2024-08-10",
        "name": "Sports Shoppee",
        "opening_hours": "10:00-19:00",
        "phone": "08022227223",
        "shop": "sports",
        "website": "https://www.zelexfitness.com/",
        "wheelchair": "no"
      }
    },
    {
      "type": "node",
      "id": 4489717014,
      "lat": 12.9665378,
      "lon": 77.6037676,
      "tags": {
        "addr:city": "Bangalore",
        "addr:housenumber": "No 2",
        "addr:postcode": "560025",
        "addr:street": "Mirza House, Convent Road, Richmond Town, Bhadrappa Layout, Shanthala Nagar, Ashok Nagar, Bengaluru, Karnataka",
        "brand": "Gold's Gym",
        "brand:wikidata": "Q1536234",
        "leisure": "fitness_centre",
        "name": "Gold's Gym",
        "name:kn": "ಗೊಲ್ಡ್ಸ್ ಜಿಮ್",
        "opening_hours": "06:00 -22:00",
        "phone": "8041477626",
        "sport": "gymnasium"
      }
    },
    {
      "type": "node",
      "id": 4489763600,
      "lat": 12.9669341,
      "lon": 77.5994254,
      "tags": {
        "addr:housenumber": "Ground Floor",
        "addr:street": "The Residency , 133/1, Residency Road, Opposite Bipshop Cotton High School, Bhadrappa Layout, Shanthala Nagar, Ashok Nagar, Bengaluru,",
        "leisure": "sports_centre",
        "name": "Zela Luxury Health Club",
        "opening_hours": "06:00-22:00",
        "phone": "8043347000",
        "sport": "gymnasium",
        "website": "zelalife.com"
      }
    },
    {
      "type": "node",
      "id": 4489891089,
      "lat": 12.9677311,
      "lon": 77.60164,
      "tags": {
        "addr:city": "Bangalore",
        "addr:housenumber": "99",
        "addr:postcode": "560025",
        "addr:street": "Residency Rd, Bhadrappa Layout, Srinivas Nagar, Shanthala Nagar, Ashok Nagar,",
        "leisure": "sports_centre",
        "name": "The Ritz-Carlton",
        "opening_hours": "06:00-22:00",
        "phone": "8049148000",
        "sport": "gymnastics",
        "website": "https://www.ritzcarlton.com/"
      }
    },
    {
      "type": "node",
      "id": 4527833925,
      "lat": 12.9660378,
      "lon": 77.6023232,
      "tags": {
        "amenity": "cafe"
      }
    },
    {
      "type": "node",
      "id": 4527833926,
      "lat": 12.9572546,
      "lon": 77.6074721,
      "tags": {
        "amenity": "cafe"
      }
    },
    {
      "type": "node",
      "id": 4542473044,
      "lat": 12.9656927,
      "lon": 77.6001774,
      "tags": {
        "addr:city": "Bengaluru",
        "addr:country": "IN",
        "addr:housenumber": "PH1, 6th Floor, Rich Homes, 5/1",
        "addr:postcode": "560025",
        "addr:street": "Richmond Road",
        "amenity": "coworking_space",
        "email": "hello@jaaga.in",
        "name": "Jaaga Startup, Study and Labs",
        "office": "coworking",
        "opening_hours": "9:00-18:30",
        "operator": "Jaaga",
        "website": "https://www.jaaga.in/"
      }
    },
    {
      "type": "node",
      "id": 4843099625,
      "lat": 12.956397,
      "lon": 77.5921935,
      "tags": {
        "amenity": "restaurant",
        "name": "Ambur Dum Biryani",
        "name:en": "Ambur dum biryani"
      }
    },
    {
      "type": "node",
      "id": 4843099626,
      "lat": 12.957338,
      "lon": 77.5925388,
      "tags": {
        "name": "Sri Srinivas Silk House",
        "name:en": "Sri Srinivas silk house",
        "shop": "clothes"
      }
    },
    {
      "type": "node",
      "id": 4843099627,
      "lat": 12.9594205,
      "lon": 77.5937772,
      "tags": {
        "amenity": "restaurant",
        "name": "Sea Pearl",
        "name:en": "Sea Pearl"
      }
    },
    {
      "type": "node",
      "id": 4843099628,
      "lat": 12.9614843,
      "lon": 77.5940764,
      "tags": {
        "leisure": "fitness_centre",
        "name": "Pure Life Gym",
        "name:en": "Pure life gym"
      }
    },
    {
      "type": "node",
      "id": 4843100123,
      "lat": 12.9593325,
      "lon": 77.5932644,
      "tags": {
        "name": "Furniture Forum",
        "name:en": "Furniture Forum",
        "shop": "furniture"
      }
    },
    {
      "type": "node",
      "id": 4843100425,
      "lat": 12.9588237,
      "lon": 77.5936181,
      "tags": {
        "amenity": "school",
        "name": "Cambridge School",
        "name:en": "Cambridge School",
        "name:kn": "ಕೇಂಬ್ರಿಜ್ ಶಾಲೆ"
      }
    },
    {
      "type": "node",
      "id": 4843100426,
      "lat": 12.9667854,
      "lon": 77.5985305,
      "tags": {
        "name": "Jewels Garden",
        "name:en": "Jewels Garden",
        "shop": "jewelry"
      }
    },
    {
      "type": "node",
      "id": 4843105721,
      "lat": 12.9580965,
      "lon": 77.593251,
      "tags": {
        "amenity": "restaurant",
        "name": "Rahhams",
        "name:en": "Rahhams"
      }
    },
    {
      "type": "node",
      "id": 4843105722,
      "lat": 12.9586318,
      "lon": 77.5934793,
      "tags": {
        "name": "Prince dry cleaners",
        "name:en": "Prince dry cleaners",
        "shop": "dry_cleaning"
      }
    },
    {
      "type": "node",
      "id": 4843116021,
      "lat": 12.9578168,
      "lon": 77.593057,
      "tags": {
        "amenity": "bank",
        "brand": "Bank of Baroda",
        "brand:wikidata": "Q2003797",
        "brand:wikipedia": "en:Bank of Baroda",
        "name": "Bank of Baroda",
        "name:en": "Bank of Baroda",
        "name:kn": "ಬ್ಯಾಂಕ್ ಆಫ್ ಬರೋಡ",
        "short_name": "BoB",
        "website": "http://www.bankofbaroda.com"
      }
    },
    {
      "type": "node",
      "id": 4843123822,
      "lat": 12.9584406,
      "lon": 77.593372,
      "tags": {
        "amenity": "bank",
        "brand": "Union Bank of India",
        "brand:wikidata": "Q2004078",
        "brand:wikipedia": "en:Union Bank of India",
        "name": "Union Bank of India",
        "name:en": "Union Bank of India",
        "name:kn": "ಯೂನಿಯನ್ ಬ್ಯಾಂಕ್",
        "website": "https://www.unionbankofindia.co.in/"
      }
    },
    {
      "type": "node",
      "id": 4843123823,
      "lat": 12.9584582,
      "lon": 77.5934393,
      "tags": {
        "amenity": "cafe",
        "name": "Samsung smartcafe",
        "name:en": "Samsung smartcafe"
      }
    },
    {
      "type": "node",
      "id": 4843123824,
      "lat": 12.9589729,
      "lon": 77.593575,
      "tags": {
        "name": "Cox and Kings",
        "name:en": "Cox and Kings",
        "shop": "travel_agency"
      }
    },
    {
      "type": "node",
      "id": 4843123825,
      "lat": 12.9643183,
      "lon": 77.5969261,
      "tags": {
        "amenity": "prep_school",
        "level": "2",
        "name": "Logic Option",
        "name:en": "Logic option"
      }
    },
    {
      "type": "node",
      "id": 4843125821,
      "lat": 12.9575014,
      "lon": 77.5930278,
      "tags": {
        "name": "Butterfly",
        "name:en": "Butterfly",
        "shop": "electronics"
      }
    },
    {
      "type": "node",
      "id": 4843125822,
      "lat": 12.9593625,
      "lon": 77.5937351,
      "tags": {
        "amenity": "restaurant",
        "name": "Parijatha",
        "name:en": "Parijatha"
      }
    },
    {
      "type": "node",
      "id": 4843125823,
      "lat": 12.9679992,
      "lon": 77.6007868,
      "tags": {
        "amenity": "atm",
        "brand": "Corporation Bank",
        "brand:wikidata": "Q2003387",
        "name": "Corporation Bank",
        "operator": "Corporation Bank",
        "operator:wikidata": "Q2003387"
      }
    },
    {
      "type": "node",
      "id": 4843126221,
      "lat": 12.9597445,
      "lon": 77.5939951,
      "tags": {
        "name": "Tulasi",
        "name:en": "Tulasi",
        "name:kn": "ತುಲಸಿ",
        "shop": "beverages"
      }
    },
    {
      "type": "node",
      "id": 4843126321,
      "lat": 12.9604187,
      "lon": 77.5941492,
      "tags": {
        "amenity": "bank",
        "brand": "Axis Bank",
        "brand:wikidata": "Q2003549",
        "brand:wikipedia": "en:Axis Bank",
        "name": "Axis Bank",
        "name:en": "Axis Bank",
        "name:kn": "ಆಕ್ಸಿಸ್ ಬ್ಯಾಂಕ್",
        "website": "https://www.axisbank.com",
        "wheelchair": "no"
      }
    },
    {
      "type": "node",
      "id": 4846787922,
      "lat": 12.9615604,
      "lon": 77.5941029,
      "tags": {
        "name": "Olympic toys and sport wears",
        "name:en": "Olympic toys and sport wears",
        "shop": "sports"
      }
    },
    {
      "type": "node",
      "id": 4847287230,
      "lat": 12.9664015,
      "lon": 77.6037829,
      "tags": {
        "amenity": "clinic",
        "name": "Ancient China",
        "name:en": "Ancient China"
      }
    },
    {
      "type": "node",
      "id": 4847294837,
      "lat": 12.9686496,
      "lon": 77.6002531,
      "tags": {
        "amenity": "atm",
        "operator": "Union bank"
      }
    },
    {
      "type": "node",
      "id": 4847294839,
      "lat": 12.9656547,
      "lon": 77.6018918,
      "tags": {
        "amenity": "bank",
        "atm": "yes",
        "brand": "Axis Bank",
        "brand:wikidata": "Q2003549",
        "brand:wikipedia": "en:Axis Bank",
        "name": "Axis Bank",
        "name:en": "Axis Bank",
        "name:kn": "ಆಕ್ಸಿಸ್ ಬ್ಯಾಂಕ್",
        "website": "https://www.axisbank.com"
      }
    },
    {
      "type": "node",
      "id": 4847294840,
      "lat": 12.9622636,
      "lon": 77.5951894,
      "tags": {
        "check_date": "2024-08-10",
        "name": "Kawasaki",
        "name:en": "Kawasaki",
        "name:kn": "ಕವಸಕಿ",
        "shop": "motorcycle"
      }
    },
    {
      "type": "node",
      "id": 4847294841,
      "lat": 12.9598633,
      "lon": 77.593474,
      "tags": {
        "amenity": "restaurant",
        "name": "Tiffany's",
        "name:en": "Tiffany's"
      }
    },
    {
      "type": "node",
      "id": 4847294842,
      "lat": 12.9580518,
      "lon": 77.5928392,
      "tags": {
        "amenity": "bank",
        "brand": "HDFC Bank",
        "brand:wikidata": "Q631047",
        "name": "HDFC Bank",
        "name:en": "HDFC Bank",
        "name:kn": "ಎಚ್ ಡಿ ಎಫ್ ಸಿ",
        "short_name": "HDFC"
      }
    },
    {
      "type": "node",
      "id": 4847296033,
      "lat": 12.9654387,
      "lon": 77.599506,
      "tags": {
        "name": "Neelkanth",
        "name:en": "Neelkanth",
        "shop": "jewelry"
      }
    },
    {
      "type": "node",
      "id": 4847297822,
      "lat": 12.9683717,
      "lon": 77.6016294,
      "tags": {
        "alt_name": "RBL Bank Limited",
        "amenity": "bank",
        "brand": "RBL Bank",
        "brand:wikidata": "Q13120398",
        "brand:wikipedia": "en:RBL Bank",
        "name": "RBL Bank",
        "name:en": "RBL Bank",
        "old_name": "Ratnakar Bank Limited",
        "short_name": "RBL",
        "website": "https://www.rblbank.com"
      }
    },
    {
      "type": "node",
      "id": 4847827721,
      "lat": 12.9560009,
      "lon": 77.5920884,
      "tags": {
        "amenity": "restaurant",
        "name": "Hotel Revoli",
        "name:en": "Hotel Revoli"
      }
    },
    {
      "type": "node",
      "id": 4988321488,
      "lat": 12.9631272,
      "lon": 77.594174,
      "tags": {
        "addr:city": "Bengaluru",
        "addr:housenumber": "18/7",
        "addr:postcode": "560027",
        "addr:street": "1st Main Road",
        "amenity": "place_of_worship",
        "denomination": "sunni",
        "name": "Masjid-e-Rahimia",
        "name:bn": "মসজিদ-ই-রহিমিয়া",
        "name:kn": "ಮಸ್ಜಿದ್ ಎ ರಹೀಮ",
        "religion": "muslim"
      }
    },
    {
      "type": "node",
      "id": 5168658567,
      "lat": 12.9570709,
      "lon": 77.6057127,
      "tags": {
        "name": "Hercules Sports International",
        "shop": "sports"
      }
    },
    {
      "type": "node",
      "id": 5168658571,
      "lat": 12.9638723,
      "lon": 77.6065817,
      "tags": {
        "name": "Nandini Milk Parlour",
        "name:kn": "ನಂದಿನಿ ಹಾಲಿನ ಅಂಗಡಿ",
        "shop": "dairy"
      }
    },
    {
      "type": "node",
      "id": 5168658572,
      "lat": 12.9647139,
      "lon": 77.6056671,
      "tags": {
        "amenity": "atm",
        "brand": "Axis Bank",
        "brand:wikidata": "Q2003549",
        "name": "Axis Bank",
        "name:kn": "ಆಕ್ಸಿಸ್ ಬ್ಯಾಂಕ್",
        "operator": "Axis Bank",
        "operator:wikidata": "Q2003549"
      }
    },
    {
      "type": "node",
      "id": 5168658573,
      "lat": 12.9657964,
      "lon": 77.6051237,
      "tags": {
        "amenity": "clinic",
        "healthcare": "clinic",
        "name": "Renew Medical Center"
      }
    },
    {
      "type": "node",
      "id": 5200633856,
      "lat": 12.9654654,
      "lon": 77.5989089,
      "tags": {
        "addr:city": "Bengaluru",
        "amenity": "bar",
        "level": "3",
        "name": "Sanctum Pub",
        "operator": "Elixir Hospitality",
        "smoking": "separated"
      }
    },
    {
      "type": "node",
      "id": 5229454408,
      "lat": 12.9646209,
      "lon": 77.5970636,
      "tags": {
        "check_date": "2023-12-09",
        "name": "Studio Young Designs",
        "shop": "furniture"
      }
    },
    {
      "type": "node",
      "id": 5229454410,
      "lat": 12.9650621,
      "lon": 77.5998831,
      "tags": {
        "name": "Style Spa",
        "shop": "interior_decoration"
      }
    },
    {
      "type": "node",
      "id": 5402224035,
      "lat": 12.9653573,
      "lon": 77.5964137,
      "tags": {
        "brand": "Lexus",
        "brand:wikidata": "Q35919",
        "name": "Lexus",
        "shop": "car"
      }
    },
    {
      "type": "node",
      "id": 5402224036,
      "lat": 12.9635407,
      "lon": 77.597756,
      "tags": {
        "amenity": "dentist"
      }
    },
    {
      "type": "node",
      "id": 5402302827,
      "lat": 12.9584526,
      "lon": 77.6046732,
      "tags": {
        "shop": "furniture"
      }
    },
    {
      "type": "node",
      "id": 5402307927,
      "lat": 12.9606269,
      "lon": 77.6008095,
      "tags": {
        "amenity": "place_of_worship"
      }
    },
    {
      "type": "node",
      "id": 5402307928,
      "lat": 12.9618944,
      "lon": 77.5977432,
      "tags": {
        "amenity": "place_of_worship"
      }
    },
    {
      "type": "node",
      "id": 5402307929,
      "lat": 12.962196,
      "lon": 77.5950696,
      "tags": {
        "brand": "KTM",
        "brand:wikidata": "Q215657",
        "name": "KTM",
        "shop": "motorcycle"
      }
    },
    {
      "type": "node",
      "id": 5402308121,
      "lat": 12.964262,
      "lon": 77.5967957,
      "tags": {
        "amenity": "restaurant",
        "name": "New Udupi Upahar"
      }
    },
    {
      "type": "node",
      "id": 5402308124,
      "lat": 12.9622025,
      "lon": 77.5950041,
      "tags": {
        "branch": "Tyre Center",
        "brand": "Pirelli",
        "brand:wikidata": "Q207770",
        "name": "Pirelli",
        "shop": "tyres"
      }
    },
    {
      "type": "node",
      "id": 5426006754,
      "lat": 12.9656864,
      "lon": 77.5962047,
      "tags": {
        "amenity": "parking",
        "operator": "Slot 001",
        "parking": "underground"
      }
    },
    {
      "type": "node",
      "id": 5426006755,
      "lat": 12.965702,
      "lon": 77.5962731,
      "tags": {
        "amenity": "parking",
        "operator": "Slot 002",
        "parking": "underground"
      }
    },
    {
      "type": "node",
      "id": 5426006756,
      "lat": 12.9657249,
      "lon": 77.5963449,
      "tags": {
        "amenity": "parking",
        "operator": "Slot 003",
        "parking": "underground"
      }
    },
    {
      "type": "node",
      "id": 5426006757,
      "lat": 12.9657419,
      "lon": 77.5964045,
      "tags": {
        "amenity": "parking",
        "operator": "Slot 004",
        "parking": "underground"
      }
    },
    {
      "type": "node",
      "id": 5765878302,
      "lat": 12.9649744,
      "lon": 77.5993954,
      "tags": {
        "name": "M. P. Swarna Mahal",
        "shop": "jewelry"
      }
    },
    {
      "type": "node",
      "id": 5765878304,
      "lat": 12.9649875,
      "lon": 77.5996327,
      "tags": {
        "amenity": "bank",
        "atm": "yes",
        "brand": "Punjab National Bank",
        "brand:wikidata": "Q2743499",
        "name": "Punjab National Bank"
      }
    },
    {
      "type": "node",
      "id": 5964506929,
      "lat": 12.959495,
      "lon": 77.5933412,
      "tags": {
        "amenity": "bank",
        "brand": "Karnataka Bank",
        "brand:wikidata": "Q2042632",
        "name": "Karnataka Bank",
        "name:kn": "ಕರ್ನಾಟಕ ಬ್ಯಾಂಕ್"
      }
    },
    {
      "type": "node",
      "id": 6348761817,
      "lat": 12.96555,
      "lon": 77.6061116,
      "tags": {
        "amenity": "school",
        "isced:level": "2",
        "name": "GUPHS Arblen",
        "name:kn": "ಸರ್ಕಾರಿ ಉರ್ದು ಹಿರಿಯ ಪ್ರಾಥಮಿಕ ಶಾಲೆ ಅಬ್ಲೇನ್",
        "operator": "Department of Education",
        "school": "primary"
      }
    },
    {
      "type": "node",
      "id": 6349031908,
      "lat": 12.9539725,
      "lon": 77.6004211,
      "tags": {
        "addr:place": "Shanthinagar",
        "amenity": "school",
        "isced:level": "2",
        "name": "GHPS Ksrtc Shanthinagar",
        "name:kn": "ಸರ್ಕಾರಿ ಹಿರಿಯ ಪ್ರಾಥಮಿಕ ಶಾಲೆ ಕೆ.ಎಸ್‌.ಆರ್‌.ಟಿ.ಸಿ ಶಾಂತಿನಗರ",
        "operator": "Department of Education",
        "school": "primary"
      }
    },
    {
      "type": "node",
      "id": 6349040951,
      "lat": 12.9533162,
      "lon": 77.6005694,
      "tags": {
        "amenity": "school",
        "isced:level": "2",
        "name": "Shanthi KHPS Vinayakanagar",
        "name:kn": "ಶಾಂತಿ ಕನ್ನಡ ಹಿರಿಯ ಪ್ರಾಥಮಿಕ ಶಾಲೆ ವಿನಾಯಕನಗರ",
        "operator": "Department of Education",
        "school": "primary"
      }
    },
    {
      "type": "node",
      "id": 6349074612,
      "lat": 12.9555605,
      "lon": 77.5978653,
      "tags": {
        "addr:place": "Shanthinagar",
        "amenity": "school",
        "isced:level": "2",
        "name": "St Michael LPS Shanthinagar",
        "name:kn": "ಸೆಂಟ್‌ ಮೈಕಲ್ ಕಿರಿಯ ಪ್ರಾಥಮಿಕ ಶಾಲೆ ಶಾಂತಿನಗರ",
        "operator": "Department of Education",
        "school": "primary"
      }
    },
    {
      "type": "node",
      "id": 6349571364,
      "lat": 12.9675192,
      "lon": 77.603794,
      "tags": {
        "alt_name": "St. Euphrasia's Higher Primary School",
        "amenity": "school",
        "isced:level": "2",
        "name": "St. Mary's Euphrasia School",
        "operator": "Pvt. Aided",
        "school": "primary"
      }
    },
    {
      "type": "node",
      "id": 6552306254,
      "lat": 12.9636997,
      "lon": 77.5923663,
      "tags": {
        "addr:city": "Bengaluru",
        "addr:postcode": "560027",
        "addr:street": "Chidananda Maharashi Ashram Road",
        "amenity": "restaurant",
        "cuisine": "regional",
        "name": "Devi Upahara",
        "name:kn": "ದೇವಿ ಉಪಹಾರ"
      }
    },
    {
      "type": "node",
      "id": 6681215529,
      "lat": 12.9659363,
      "lon": 77.6035702,
      "tags": {
        "addr:floor": "G",
        "amenity": "cafe",
        "check_date": "2024-12-29",
        "level": "0",
        "name": "Cafe Mor'ish",
        "opening_hours": "08:30-22:00",
        "outdoor_seating": "no",
        "wheelchair": "limited"
      }
    },
    {
      "type": "node",
      "id": 6681215531,
      "lat": 12.9661166,
      "lon": 77.6051702,
      "tags": {
        "amenity": "bank",
        "atm": "yes",
        "brand": "Bank of India",
        "brand:wikidata": "Q2004439",
        "name": "Bank of India"
      }
    },
    {
      "type": "node",
      "id": 6745867506,
      "lat": 12.9515296,
      "lon": 77.6017794,
      "tags": {
        "addr:place": "Shanthinagar",
        "amenity": "school",
        "isced:level": "2",
        "name": "LPS Vinayakanagar,Shanthinagar",
        "name:kn": "ಕಿರಿಯ ಪ್ರಾಥಮಿಕ ಶಾಲೆ ವಿನಾಯಕನಗರ ಶಾಂತಿನಗರ",
        "operator": "Private Un-Aided",
        "school": "Higher primary"
      }
    },
    {
      "type": "node",
      "id": 6745868123,
      "lat": 12.9592835,
      "lon": 77.5945482,
      "tags": {
        "addr:place": "Shanthinagar",
        "amenity": "school",
        "isced:level": "1",
        "name": "Morning Glory LPS",
        "name:kn": "ಮಾರ್ನಿಂಗ್ ಗ್ಲೋರಿ ಕಿರಿಯ ಪ್ರಾಥಮಿಕ ಶಾಲೆ ಶಾಂತಿನಗರ",
        "operator": "Private Un-Aided",
        "school": "primary"
      }
    },
    {
      "type": "node",
      "id": 6819880190,
      "lat": 12.9683503,
      "lon": 77.6027151,
      "tags": {
        "addr:city": "Bengaluru",
        "addr:housenumber": "15",
        "addr:postcode": "560025",
        "addr:street": "Convent Road",
        "addr:suburb": "Indiranagar",
        "amenity": "restaurant",
        "contact:facebook": "greentheory",
        "contact:instagram": "greentheory",
        "cuisine": "international",
        "delivery": "yes",
        "diet:vegan": "yes",
        "diet:vegetarian": "only",
        "email": "info@greentheory.in",
        "name": "Green Theory",
        "phone": "+91 8861435956",
        "takeaway": "yes",
        "website": "https://www.greentheory.in/"
      }
    },
    {
      "type": "node",
      "id": 6939048258,
      "lat": 12.9605309,
      "lon": 77.592659,
      "tags": {
        "addr:district": "Bengaluru Urban",
        "addr:full": "No 44-45/2, 2nd Cross, Raja Rammohan Roy Extension, Opposite Double Road",
        "addr:postcode": "560027",
        "addr:state": "Karnataka",
        "amenity": "hospital",
        "name": "HCG",
        "source": "OpenGovernmentData"
      }
    },
    {
      "type": "node",
      "id": 6947504038,
      "lat": 12.964162,
      "lon": 77.5982255,
      "tags": {
        "addr:district": "Bengaluru Urban",
        "addr:full": "No. 5, Langford Gardens, Near Richmond Circle",
        "addr:postcode": "560025",
        "addr:state": "Karnataka",
        "amenity": "hospital",
        "name": "Republic Hospital",
        "source": "OpenGovernmentData"
      }
    },
    {
      "type": "node",
      "id": 7043991985,
      "lat": 12.962044,
      "lon": 77.5933871,
      "tags": {
        "amenity": "bank",
        "brand": "IDBI Bank",
        "brand:wikidata": "Q3633485",
        "name": "IDBI Bank",
        "name:kn": "ಐಡಿಬಿಐ ಬ್ಯಾಂಕ್",
        "short_name": "IDBI"
      }
    },
    {
      "type": "node",
      "id": 7043992185,
      "lat": 12.9620164,
      "lon": 77.5978486,
      "tags": {
        "amenity": "restaurant",
        "name": "Peace Restaurant"
      }
    },
    {
      "type": "node",
      "id": 7043992186,
      "lat": 12.9583199,
      "lon": 77.6049603,
      "tags": {
        "name": "Hafele Appliances",
        "opening_hours": "Mo-Sa 10:00-17:00",
        "shop": "electronics"
      }
    },
    {
      "type": "node",
      "id": 7176651785,
      "lat": 12.9611765,
      "lon": 77.604694,
      "tags": {
        "addr:city": "Bengaluru",
        "addr:country": "IN",
        "addr:hamlet": "Richmond Town",
        "addr:housenumber": "11/1",
        "addr:postcode": "560025",
        "addr:street": "Alfred Street",
        "amenity": "restaurant",
        "cuisine": "japanese",
        "name": "Azuki Japan Travel Bistro & Sake",
        "note": "Opened in the middle of February 2020",
        "opening_hours": "11:00 - 23:00"
      }
    },
    {
      "type": "node",
      "id": 7287822686,
      "lat": 12.9672282,
      "lon": 77.5991731,
      "tags": {
        "amenity": "bicycle_rental",
        "bicycle_rental": "dropoff_point",
        "capacity": "Unlimited",
        "name": "Recidency Road Bicycle Parking",
        "network": "Bengaluru PBS",
        "operator": "Yulu"
      }
    },
    {
      "type": "node",
      "id": 7293708139,
      "lat": 12.9581548,
      "lon": 77.60537,
      "tags": {
        "amenity": "bank",
        "atm": "yes",
        "brand": "State Bank of India",
        "brand:wikidata": "Q1340361",
        "name": "State Bank of India",
        "name:kn": "ಭಾರತೀಯ ಸ್ಟೇಟ್ ಬ್ಯಾಂಕ್",
        "operator": "State Bank of India",
        "short_name": "SBI"
      }
    },
    {
      "type": "node",
      "id": 7293708149,
      "lat": 12.9630375,
      "lon": 77.6049435,
      "tags": {
        "amenity": "bank",
        "atm": "yes",
        "brand": "Union Bank of India",
        "brand:wikidata": "Q2004078",
        "name": "Union Bank of India",
        "name:kn": "ಯೂನಿಯನ್ ಬ್ಯಾಂಕ್",
        "operator": "Union Bank of India"
      }
    },
    {
      "type": "node",
      "id": 7293708177,
      "lat": 12.9596604,
      "lon": 77.6017229,
      "tags": {
        "amenity": "fast_food",
        "name": "Sudha Chats"
      }
    },
    {
      "type": "node",
      "id": 7293708178,
      "lat": 12.9597434,
      "lon": 77.6019703,
      "tags": {
        "name": "Family Mart",
        "shop": "supermarket"
      }
    },
    {
      "type": "node",
      "id": 7293708179,
      "lat": 12.9599937,
      "lon": 77.6019797,
      "tags": {
        "name": "Fazal Time Center",
        "shop": "watches"
      }
    },
    {
      "type": "node",
      "id": 7293708181,
      "lat": 12.9600786,
      "lon": 77.601863,
      "tags": {
        "name": "Naturals",
        "shop": "beauty"
      }
    },
    {
      "type": "node",
      "id": 7293719385,
      "lat": 12.9601322,
      "lon": 77.6017597,
      "tags": {
        "amenity": "restaurant",
        "name": "Malabar Cafe"
      }
    },
    {
      "type": "node",
      "id": 7293719386,
      "lat": 12.9624298,
      "lon": 77.6020977,
      "tags": {
        "access": "permissive",
        "amenity": "parking",
        "parking": "surface"
      }
    },
    {
      "type": "node",
      "id": 7293719387,
      "lat": 12.9627422,
      "lon": 77.6019931,
      "tags": {
        "access": "private",
        "amenity": "parking",
        "parking": "underground"
      }
    },
    {
      "type": "node",
      "id": 7293719393,
      "lat": 12.9626272,
      "lon": 77.6016913,
      "tags": {
        "leisure": "fitness_station"
      }
    },
    {
      "type": "node",
      "id": 7293719436,
      "lat": 12.9651051,
      "lon": 77.5976117,
      "tags": {
        "amenity": "kindergarten",
        "name": "Ipsaa Day Care"
      }
    },
    {
      "type": "node",
      "id": 7293719482,
      "lat": 12.9622109,
      "lon": 77.5954049,
      "tags": {
        "addr:floor": "G",
        "check_date": "2024-08-10",
        "level": "0",
        "name": "Ashoka Tyres And Service",
        "name:hi": "Ashoka Tyres And Service",
        "shop": "tyres",
        "wheelchair": "no"
      }
    },
    {
      "type": "node",
      "id": 7293719483,
      "lat": 12.9620404,
      "lon": 77.5937144,
      "tags": {
        "amenity": "bank",
        "atm": "yes",
        "brand": "State Bank of India",
        "brand:wikidata": "Q1340361",
        "name": "State Bank of India",
        "name:kn": "ಭಾರತೀಯ ಸ್ಟೇಟ್ ಬ್ಯಾಂಕ್",
        "operator": "State Bank of India",
        "short_name": "SBI"
      }
    },
    {
      "type": "node",
      "id": 7576958055,
      "lat": 12.9626783,
      "lon": 77.5949614,
      "tags": {
        "addr:district": "Bengaluru Urban",
        "addr:full": "Sampangi Rama Nagar, Bengaluru",
        "addr:postcode": "560027",
        "addr:state": "Karnataka",
        "amenity": "clinic",
        "name": "Dr. Shankar Desai Clinic",
        "source": "Local Knowledge"
      }
    },
    {
      "type": "node",
      "id": 7576958063,
      "lat": 12.961178,
      "lon": 77.593184,
      "tags": {
        "addr:district": "Bengaluru Urban",
        "addr:full": "Srinivas Colony, Sudhama Nagar, Bengaluru",
        "addr:postcode": "560027",
        "addr:state": "Karnataka",
        "amenity": "clinic",
        "name": "Ashwini Medical Specialist Centre",
        "source": "Local Knowledge"
      }
    },
    {
      "type": "node",
      "id": 7576958088,
      "lat": 12.9648335,
      "lon": 77.5944973,
      "tags": {
        "addr:district": "Bengaluru Urban",
        "addr:full": "Sampangi Rama Nagar, Bengaluru",
        "addr:postcode": "560027",
        "addr:state": "Karnataka",
        "amenity": "clinic",
        "name": "Woodlands Clinic",
        "source": "Local Knowledge"
      }
    },
    {
      "type": "node",
      "id": 7576958090,
      "lat": 12.963216,
      "lon": 77.5982891,
      "tags": {
        "addr:district": "Bengaluru Urban",
        "addr:full": "Langford Gardens, Bengaluru",
        "addr:postcode": "560025",
        "addr:state": "Karnataka",
        "amenity": "clinic",
        "name": "Orthodontic Maxillofacial Clinic",
        "source": "Local Knowledge"
      }
    },
    {
      "type": "node",
      "id": 7576958094,
      "lat": 12.9638998,
      "lon": 77.5983282,
      "tags": {
        "addr:district": "Bengaluru Urban",
        "addr:full": "Langford Gardens, Bengaluru",
        "addr:postcode": "560025",
        "addr:state": "Karnataka",
        "amenity": "clinic",
        "name": "Daksh Eye Care Centre",
        "source": "Local Knowledge"
      }
    },
    {
      "type": "node",
      "id": 7576958103,
      "lat": 12.9593021,
      "lon": 77.5927413,
      "tags": {
        "addr:district": "Bengaluru Urban",
        "addr:full": "Srinivas Colony, Sudhama Nagar, Bengaluru",
        "addr:postcode": "560027",
        "addr:state": "Karnataka",
        "amenity": "clinic",
        "name": "Yeshaswi Clinics",
        "source": "Local Knowledge"
      }
    },
    {
      "type": "node",
      "id": 7576958106,
      "lat": 12.9654497,
      "lon": 77.5999044,
      "tags": {
        "addr:district": "Bengaluru Urban",
        "addr:full": "Richmond Road, Shanthala Nagar, Ashok Nagar, Bengaluru",
        "addr:postcode": "560025",
        "addr:state": "Karnataka",
        "amenity": "hospital",
        "name": "Gleneagles Global Hospitals",
        "source": "Local Knowledge"
      }
    },
    {
      "type": "node",
      "id": 7576958120,
      "lat": 12.9650303,
      "lon": 77.5954946,
      "tags": {
        "addr:district": "Bengaluru Urban",
        "addr:full": "Sampangi Rama Nagara, Bengaluru",
        "addr:postcode": "560027",
        "addr:state": "Karnataka",
        "amenity": "hospital",
        "name": "Dr. Rudrappa's Hospital",
        "source": "Local Knowledge"
      }
    },
    {
      "type": "node",
      "id": 8205055155,
      "lat": 12.9659973,
      "lon": 77.594522,
      "tags": {
        "addr:city": "Bengaluru",
        "addr:postcode": "560027",
        "addr:street": "Sri Ram Mandir Road",
        "amenity": "restaurant",
        "cuisine": "regional",
        "diet:vegetarian": "yes",
        "name": "IDC Idli Dosa Coffee Central Kitchen",
        "opening_hours": "Mo-Su 08:00-20:00",
        "website": "https://idckitchen.com"
      }
    },
    {
      "type": "node",
      "id": 8292562199,
      "lat": 12.9605614,
      "lon": 77.5948658,
      "tags": {
        "addr:city": "Bengaluru",
        "addr:country": "IN",
        "addr:housenumber": "1",
        "addr:postcode": "560027",
        "addr:street": "Shanthi Road",
        "addr:suburb": "Shanthinagar",
        "amenity": "arts_centre",
        "name": "1Shanthiroad Studio/Gallery",
        "website": "http://1shanthiroad.com/"
      }
    },
    {
      "type": "node",
      "id": 9140200221,
      "lat": 12.9640386,
      "lon": 77.6066011,
      "tags": {
        "amenity": "waste_basket"
      }
    },
    {
      "type": "node",
      "id": 9140200231,
      "lat": 12.9639276,
      "lon": 77.6064804,
      "tags": {
        "amenity": "cafe",
        "name": "Makkah Cafe",
        "takeaway": "yes"
      }
    },
    {
      "type": "node",
      "id": 9140200239,
      "lat": 12.9601375,
      "lon": 77.595942,
      "tags": {
        "addr:floor": "G",
        "air_conditioning": "no",
        "alt_name": "YDH Canteen",
        "amenity": "fast_food",
        "check_date": "2024-08-11",
        "cuisine": "regional",
        "delivery": "no",
        "diet:vegetarian": "yes",
        "drive_through": "no",
        "level": "0",
        "name": "Yelamma Dasappa Canteen",
        "takeaway": "yes"
      }
    },
    {
      "type": "node",
      "id": 9179389770,
      "lat": 12.9583652,
      "lon": 77.604285,
      "tags": {
        "amenity": "cafe",
        "cuisine": "persian",
        "level": "3",
        "name": "The Cafe @ Saanchi",
        "outdoor_seating": "yes"
      }
    },
    {
      "type": "node",
      "id": 9179389771,
      "lat": 12.9583509,
      "lon": 77.6044124,
      "tags": {
        "level": "2",
        "name": "Kanakavalli",
        "shop": "fabric"
      }
    },
    {
      "type": "node",
      "id": 9296258308,
      "lat": 12.9590684,
      "lon": 77.5930989,
      "tags": {
        "brand": "Suzuki",
        "name": "Suzuki",
        "shop": "car"
      }
    },
    {
      "type": "node",
      "id": 9296258309,
      "lat": 12.9592631,
      "lon": 77.5931659,
      "tags": {
        "amenity": "clinic",
        "name": "Magnum Onco Care"
      }
    },
    {
      "type": "node",
      "id": 9296258312,
      "lat": 12.9596526,
      "lon": 77.5938318,
      "tags": {
        "amenity": "bank",
        "atm": "yes",
        "brand": "Canara Bank",
        "brand:en": "Canara Bank",
        "brand:hi": "केनरा बैंक",
        "brand:kn": "ಕೆನರಾ ಬ್ಯಾಂಕ್",
        "brand:pa": "ਕੇਨਰਾ ਬੈਂਕ",
        "brand:pnb": "کینرا بینک",
        "brand:ur": "کینرا بینک",
        "brand:wikidata": "Q2003777",
        "brand:wikipedia": "en:Canara Bank",
        "brand:wikipedia:pa": "ਕੇਨਰਾ ਬੈਂਕ",
        "name": "Canara Bank",
        "name:en": "Canara Bank",
        "name:hi": "केनरा बैंक",
        "name:kn": "ಕೆನರಾ ಬ್ಯಾಂಕ್",
        "name:pa": "ਕੇਨਰਾ ਬੈਂਕ",
        "name:pnb": "کینرا بینک",
        "name:ur": "کینرا بینک"
      }
    },
    {
      "type": "node",
      "id": 9296258313,
      "lat": 12.959039,
      "lon": 77.5936943,
      "tags": {
        "name": "Prasiddhi Stores",
        "shop": "fabric"
      }
    },
    {
      "type": "node",
      "id": 9296258314,
      "lat": 12.9590854,
      "lon": 77.5936373,
      "tags": {
        "amenity": "bank",
        "atm": "yes",
        "brand": "Karnataka Bank",
        "brand:wikidata": "Q2042632",
        "name": "Karnataka Bank",
        "name:kn": "ಕರ್ನಾಟಕ ಬ್ಯಾಂಕ್"
      }
    },
    {
      "type": "node",
      "id": 9296258316,
      "lat": 12.958609,
      "lon": 77.5934523,
      "tags": {
        "name": "Kaff",
        "shop": "kitchen"
      }
    },
    {
      "type": "node",
      "id": 9502502842,
      "lat": 12.9654005,
      "lon": 77.6048081,
      "tags": {
        "name": "Koshy's Bakery",
        "shop": "bakery"
      }
    },
    {
      "type": "node",
      "id": 9507141939,
      "lat": 12.959883,
      "lon": 77.5978925,
      "tags": {
        "amenity": "cafe",
        "cuisine": "juice",
        "internet_access": "no",
        "name": "Sreeraj Lassi Bar",
        "outdoor_seating": "no"
      }
    },
    {
      "type": "node",
      "id": 9507141940,
      "lat": 12.9599213,
      "lon": 77.5979464,
      "tags": {
        "amenity": "fast_food",
        "cuisine": "sandwich",
        "name": "Hari Super Sandwich"
      }
    },
    {
      "type": "node",
      "id": 9507166593,
      "lat": 12.9611473,
      "lon": 77.5982936,
      "tags": {
        "amenity": "cafe",
        "cuisine": "tea_shop",
        "name": "Karak Chai",
        "outdoor_seating": "no"
      }
    },
    {
      "type": "node",
      "id": 9611232066,
      "lat": 12.9582924,
      "lon": 77.6043893,
      "tags": {
        "level": "0;1",
        "name": "Saanchi Antiques",
        "shop": "antiques"
      }
    },
    {
      "type": "node",
      "id": 9633893498,
      "lat": 12.9660722,
      "lon": 77.5956982,
      "tags": {
        "addr:city": "Bengaluru",
        "addr:country": "IN",
        "addr:hamlet": "Shanthala Nagar",
        "addr:housenumber": "93",
        "addr:postcode": "560025",
        "addr:street": "Rajaram Mohan Roy Road",
        "addr:suburb": "Ashok Nagar",
        "amenity": "coworking_space",
        "fee": "yes",
        "name": "Smartworks",
        "office": "coworking",
        "operator": "smartworks",
        "website": "https://www.smartworksoffice.com/"
      }
    },
    {
      "type": "node",
      "id": 9738943447,
      "lat": 12.968292,
      "lon": 77.6027535,
      "tags": {
        "amenity": "cafe",
        "name": "Ground Up Coffee",
        "shop": "coffee"
      }
    },
    {
      "type": "node",
      "id": 9787431809,
      "lat": 12.9684121,
      "lon": 77.6004743,
      "tags": {
        "addr:city": "Bengaluru",
        "addr:housenumber": "prestige delta",
        "addr:postcode": "560001",
        "addr:street": "Saint Mark's Road",
        "brand": "brooks",
        "description": "Brooks designs and markets running-specific performance footwear, apparel, and accessories in more than 60 countries worldwide. The number is increasing step by step with the latest technology and comfort with which the shoes are crafted. Brooks’ mission",
        "email": "bangalore@brooksrunningindia.com",
        "name": "Brooks Running",
        "opening_hours": "Mo-Su 09:00-21:00",
        "operator": "siddhi ventures",
        "payment:american_express": "yes",
        "payment:cash": "yes",
        "payment:contactless": "yes",
        "payment:credit_cards": "yes",
        "payment:debit_cards": "yes",
        "payment:diners_club": "yes",
        "payment:maestro": "yes",
        "payment:mastercard": "yes",
        "payment:visa": "yes",
        "payment:visa_debit": "yes",
        "phone": "+919845875026",
        "shop": "sports",
        "sport": "running;fitness",
        "website": "https://brooksrunningindia.com/",
        "wheelchair": "yes"
      }
    },
    {
      "type": "node",
      "id": 9870745005,
      "lat": 12.965541,
      "lon": 77.5963825,
      "tags": {
        "level": "2",
        "name": "The LIXIL Studio",
        "shop": "houseware",
        "website": "https://www.lixil.com/"
      }
    },
    {
      "type": "node",
      "id": 9870745012,
      "lat": 12.9658096,
      "lon": 77.6021506,
      "tags": {
        "name": "Pathi Silks",
        "shop": "boutique"
      }
    },
    {
      "type": "node",
      "id": 9870745014,
      "lat": 12.9662364,
      "lon": 77.6056902,
      "tags": {
        "brand": "Volkswagen",
        "brand:wikidata": "Q246",
        "name": "Volkswagen",
        "shop": "car"
      }
    },
    {
      "type": "node",
      "id": 9870882731,
      "lat": 12.968722,
      "lon": 77.6012354,
      "tags": {
        "amenity": "fast_food",
        "cuisine": "regional",
        "delivery": "yes",
        "name": "IDC",
        "takeaway": "yes"
      }
    },
    {
      "type": "node",
      "id": 9870882732,
      "lat": 12.9686873,
      "lon": 77.601055,
      "tags": {
        "brand": "Triumph",
        "brand:wikidata": "Q1140383",
        "name": "Triumph",
        "shop": "motorcycle"
      }
    },
    {
      "type": "node",
      "id": 9870882737,
      "lat": 12.9676052,
      "lon": 77.5996495,
      "tags": {
        "amenity": "vending_machine",
        "name": "Parking Meter",
        "vending": "parking_tickets"
      }
    },
    {
      "type": "node",
      "id": 9910066822,
      "lat": 12.9677352,
      "lon": 77.6001927,
      "tags": {
        "check_date": "2023-06-11",
        "level": "0",
        "name": "Mahadwaara",
        "name:kn": "ಮಹಾದ್ವಾರ",
        "office": "company",
        "shop": "furniture",
        "source": "survey",
        "wheelchair": "no"
      }
    },
    {
      "type": "node",
      "id": 9910066823,
      "lat": 12.9677111,
      "lon": 77.6001692,
      "tags": {
        "name": "Smeg",
        "shop": "kitchen"
      }
    },
    {
      "type": "node",
      "id": 9922810975,
      "lat": 12.9643079,
      "lon": 77.5942938,
      "tags": {
        "shop": "car_repair"
      }
    },
    {
      "type": "node",
      "id": 9924452289,
      "lat": 12.9584471,
      "lon": 77.5927218,
      "tags": {
        "amenity": "toilets"
      }
    },
    {
      "type": "node",
      "id": 9924452290,
      "lat": 12.9585493,
      "lon": 77.5927576,
      "tags": {
        "amenity": "toilets"
      }
    },
    {
      "type": "node",
      "id": 9924452291,
      "lat": 12.9584054,
      "lon": 77.5928903,
      "tags": {
        "addr:city": "Bengaluru",
        "addr:housenumber": "105",
        "addr:postcode": "560027",
        "addr:street": "Kengal Hanumanthaiah Road",
        "addr:suburb": "Shantinagar",
        "amenity": "restaurant",
        "capacity": "20",
        "check_date": "2024-05-11",
        "contact:instagram": "eatnaru",
        "contact:twitter": "eatnaru",
        "cuisine": "ramen",
        "delivery": "no",
        "email": "info@narunoodlebar.com",
        "name": "Naru Noodle Bar",
        "opening_hours": "Tu 18:30-20:30; We-Su 12:30-14:30,18:30-20:30",
        "outdoor_seating": "yes",
        "phone": "+91 98867 91733",
        "reservation": "only",
        "takeaway": "no",
        "toilets": "yes",
        "toilets:access": "customers",
        "website": "https://www.narunoodlebar.com/"
      }
    },
    {
      "type": "node",
      "id": 9924452292,
      "lat": 12.9584446,
      "lon": 77.5929034,
      "tags": {
        "amenity": "events_venue",
        "name": "The Conservatory"
      }
    },
    {
      "type": "node",
      "id": 10032117247,
      "lat": 12.9567642,
      "lon": 77.5926107,
      "tags": {
        "access": "yes",
        "amenity": "bicycle_rental",
        "brand": "Yulu",
        "brand:wikidata": "Q104871276",
        "capacity": "10",
        "fee": "no",
        "network": "Yulu",
        "network:wikidata": "Q104871276",
        "operator": "Yulu"
      }
    },
    {
      "type": "node",
      "id": 10032117278,
      "lat": 12.9548574,
      "lon": 77.6052768,
      "tags": {
        "access": "yes",
        "amenity": "toilets",
        "fee": "yes",
        "operator": "BBMP"
      }
    },
    {
      "type": "node",
      "id": 10032117279,
      "lat": 12.9548528,
      "lon": 77.6052969,
      "tags": {
        "access": "yes",
        "amenity": "toilets",
        "fee": "yes",
        "operator": "BBMP"
      }
    },
    {
      "type": "node",
      "id": 10032117280,
      "lat": 12.9558724,
      "lon": 77.6035687,
      "tags": {
        "amenity": "shelter",
        "shelter_type": "gazebo"
      }
    },
    {
      "type": "node",
      "id": 10032174054,
      "lat": 12.9641889,
      "lon": 77.6055336,
      "tags": {
        "amenity": "fast_food",
        "cuisine": "regional",
        "name": "Khazana Food Paradise"
      }
    },
    {
      "type": "node",
      "id": 10236025485,
      "lat": 12.9664891,
      "lon": 77.5965187,
      "tags": {
        "amenity": "waste_basket"
      }
    },
    {
      "type": "node",
      "id": 10236025497,
      "lat": 12.9662539,
      "lon": 77.5965831,
      "tags": {
        "amenity": "waste_basket"
      }
    },
    {
      "type": "node",
      "id": 10236025498,
      "lat": 12.9659245,
      "lon": 77.596575,
      "tags": {
        "amenity": "waste_basket"
      }
    },
    {
      "type": "node",
      "id": 10236025499,
      "lat": 12.9657625,
      "lon": 77.5964496,
      "tags": {
        "amenity": "parking_entrance",
        "parking": "underground"
      }
    },
    {
      "type": "node",
      "id": 10236025506,
      "lat": 12.9656527,
      "lon": 77.5966528,
      "tags": {
        "amenity": "waste_basket"
      }
    },
    {
      "type": "node",
      "id": 10236025507,
      "lat": 12.965343,
      "lon": 77.5963108,
      "tags": {
        "alt_name": "Kaze",
        "amenity": "restaurant",
        "cuisine": "asian",
        "level": "21",
        "name": "Kazé",
        "website": "https://www.kaze.co.in/"
      }
    },
    {
      "type": "node",
      "id": 10236025508,
      "lat": 12.9655913,
      "lon": 77.5962532,
      "tags": {
        "addr:city": "Bengaluru",
        "addr:country": "IN",
        "addr:housename": "Skav 909",
        "addr:postcode": "560025",
        "addr:street": "Lavelle Road",
        "amenity": "coworking_space",
        "brand": "Awfis",
        "brand:wikidata": "Q60747757",
        "fee": "yes",
        "level": "14",
        "name": "Awfis",
        "office": "coworking"
      }
    },
    {
      "type": "node",
      "id": 10236050017,
      "lat": 12.9652658,
      "lon": 77.5966421,
      "tags": {
        "amenity": "waste_basket"
      }
    },
    {
      "type": "node",
      "id": 10279727350,
      "lat": 12.9658984,
      "lon": 77.5985652,
      "tags": {
        "amenity": "pub",
        "level": "10",
        "microbrewery": "yes",
        "name": "Alchemy"
      }
    },
    {
      "type": "node",
      "id": 10286307780,
      "lat": 12.9673295,
      "lon": 77.5975661,
      "tags": {
        "access": "permissive",
        "amenity": "library",
        "name": "Bangalore Club Library"
      }
    },
    {
      "type": "node",
      "id": 10289145777,
      "lat": 12.9555473,
      "lon": 77.5925404,
      "tags": {
        "amenity": "bench",
        "backrest": "no",
        "material": "stone"
      }
    },
    {
      "type": "node",
      "id": 10289145794,
      "lat": 12.9554494,
      "lon": 77.5926661,
      "tags": {
        "amenity": "bench",
        "backrest": "no",
        "material": "stone"
      }
    },
    {
      "type": "node",
      "id": 10312509564,
      "lat": 12.9637962,
      "lon": 77.6036581,
      "tags": {
        "addr:city": "Bangalore",
        "addr:housenumber": "9",
        "addr:postcode": "560025",
        "addr:street": "Myrtle Lane",
        "addr:suburb": "Richmond Town",
        "male": "yes",
        "name": "BarberCo",
        "shop": "hairdresser"
      }
    },
    {
      "type": "node",
      "id": 10570995688,
      "lat": 12.9652265,
      "lon": 77.6011778,
      "tags": {
        "addr:city": "Bengaluru",
        "addr:housenumber": "89",
        "addr:postcode": "560025",
        "addr:street": "Richmond Road",
        "name": "Benelli | Keeway Showroom",
        "opening_hours": "Mo-Su 09:30-21:00",
        "phone": "08886635067",
        "shop": "motorcycle"
      }
    },
    {
      "type": "node",
      "id": 10695273912,
      "lat": 12.9658405,
      "lon": 77.6028092,
      "tags": {
        "addr:city": "Bangalore",
        "addr:country": "IN",
        "addr:hamlet": "Shanthala Nagar",
        "addr:housename": "Richmond Towers",
        "addr:postcode": "560025",
        "addr:street": "Richmond Road",
        "air_conditioning": "yes",
        "amenity": "restaurant",
        "cuisine": "parsi",
        "indoor_seating": "yes",
        "level": "0",
        "name": "Fia's Lounge",
        "opening_hours": "11:00-23:00",
        "outdoor_seating": "no",
        "takeaway": "yes"
      }
    },
    {
      "type": "node",
      "id": 10753340308,
      "lat": 12.9630258,
      "lon": 77.602156,
      "tags": {
        "shop": "greengrocer"
      }
    },
    {
      "type": "node",
      "id": 10753340309,
      "lat": 12.9630715,
      "lon": 77.6021218,
      "tags": {
        "name": "Nandini Milk Parlour",
        "shop": "dairy"
      }
    },
    {
      "type": "node",
      "id": 10753340320,
      "lat": 12.9655743,
      "lon": 77.6032289,
      "tags": {
        "name": "Kolorkode",
        "shop": "copyshop"
      }
    },
    {
      "type": "node",
      "id": 10833870881,
      "lat": 12.9667061,
      "lon": 77.594735,
      "tags": {
        "addr:city": "Bengaluru",
        "addr:country": "IN",
        "addr:housenumber": "21",
        "addr:street": "Rajaram Mohan Roy Road",
        "addr:suburb": "Sampangi Ram Nagar",
        "email": "brillicalights@gmail.com",
        "name": "Brillica",
        "shop": "lighting",
        "website": "https://www.brillicalights.com/"
      }
    },
    {
      "type": "node",
      "id": 10895966356,
      "lat": 12.9578594,
      "lon": 77.5926986,
      "tags": {
        "amenity": "bank",
        "atm": "yes",
        "brand": "ICICI Bank",
        "brand:wikidata": "Q1653258",
        "name": "ICICI Bank",
        "name:kn": "ಐಸಿಐಸಿಐ ಬ್ಯಾಂಕು",
        "operator": "ICICI Bank",
        "short_name": "ICICI"
      }
    },
    {
      "type": "node",
      "id": 11167710685,
      "lat": 12.9582865,
      "lon": 77.6011607,
      "tags": {
        "brand": "Ration Shop",
        "brand:wikidata": "Q60901",
        "name": "Ration Shop",
        "operator": "Public Distribution System",
        "operator:type": "public",
        "operator:wikidata": "Q60901",
        "shop": "convenience"
      }
    },
    {
      "type": "node",
      "id": 11171324534,
      "lat": 12.9597011,
      "lon": 77.6015633,
      "tags": {
        "amenity": "pharmacy",
        "healthcare": "pharmacy",
        "name": "Hafiz Pharma"
      }
    },
    {
      "type": "node",
      "id": 11171324535,
      "lat": 12.9600253,
      "lon": 77.6016276,
      "tags": {
        "amenity": "pharmacy",
        "healthcare": "pharmacy",
        "name": "HKGN Medicals"
      }
    },
    {
      "type": "node",
      "id": 11171324536,
      "lat": 12.9600684,
      "lon": 77.601953,
      "tags": {
        "shop": "hairdresser"
      }
    },
    {
      "type": "node",
      "id": 11171328737,
      "lat": 12.958252,
      "lon": 77.6011466,
      "tags": {
        "shop": "stationery"
      }
    },
    {
      "type": "node",
      "id": 11171328738,
      "lat": 12.9580872,
      "lon": 77.6010965,
      "tags": {
        "shop": "bakery"
      }
    },
    {
      "type": "node",
      "id": 11171328739,
      "lat": 12.9576687,
      "lon": 77.6009775,
      "tags": {
        "name": "Nandini Diary Parlor",
        "shop": "dairy"
      }
    },
    {
      "type": "node",
      "id": 11295814509,
      "lat": 12.9566336,
      "lon": 77.5922681,
      "tags": {
        "alt_name": "Kentucky Fried Chicken",
        "alt_name:en": "Kentucky Fried Chicken",
        "alt_name:hi": "केंटुकी फ्राइड चिकन",
        "alt_name:pa": "ਕੈਂਟੁਕੀ ਫ੍ਰਾਈਡ ਚਿਕਨ",
        "alt_name:pnb": "کینٹکی فرائیڈ چکن",
        "alt_name:ur": "کینٹکی فرائیڈ چکن",
        "amenity": "fast_food",
        "brand": "KFC",
        "brand:en": "KFC",
        "brand:hi": "केएफसी",
        "brand:pa": "ਕੇਐਫਸੀ",
        "brand:pnb": "کے ایف سی",
        "brand:ur": "کے ایف سی",
        "brand:wikidata": "Q524757",
        "cuisine": "chicken",
        "level": "0",
        "name": "KFC",
        "name:en": "KFC",
        "name:hi": "केएफसी",
        "name:pa": "ਕੇਐਫਸੀ",
        "name:pnb": "کے ایف سی",
        "name:ur": "کے ایف سی",
        "takeaway": "yes"
      }
    },
    {
      "type": "node",
      "id": 11295826656,
      "lat": 12.9547541,
      "lon": 77.5929871,
      "tags": {
        "amenity": "atm",
        "brand": "Karnataka Bank",
        "brand:wikidata": "Q2042632",
        "cash_in": "no",
        "level": "0",
        "operator": "Karnataka Bank",
        "operator:wikidata": "Q2042632"
      }
    },
    {
      "type": "node",
      "id": 11295833796,
      "lat": 12.9551335,
      "lon": 77.592631,
      "tags": {
        "amenity": "waste_basket",
        "waste": "trash"
      }
    },
    {
      "type": "node",
      "id": 11298111559,
      "lat": 12.9683988,
      "lon": 77.6004065,
      "tags": {
        "description": "Guitar and ukelele store",
        "level": "0",
        "name": "Kadence Experience",
        "shop": "musical_instrument",
        "wheelchair": "no"
      }
    },
    {
      "type": "node",
      "id": 11400959258,
      "lat": 12.9575721,
      "lon": 77.6001983,
      "tags": {
        "addr:city": "Bengaluru",
        "addr:housenumber": "Pride Apartment 182",
        "addr:postcode": "560076",
        "addr:street": "Bannerghatta Main Road Phase 4 Bilekahalli",
        "becknified": "true",
        "image": "https:\\/\\/cdn.shopify.com\\/s\\/files\\/1\\/0647\\/3662\\/4854\\/files\\/logo_2_1_fc405c5b-4db5-419a-8ec3-380144685e90.svg?v=1669615619",
        "logo": "https:\\/\\/cdn.shopify.com\\/s\\/files\\/1\\/0647\\/3662\\/4854\\/files\\/logo_2_1_fc405c5b-4db5-419a-8ec3-380144685e90.svg?v=1669615619",
        "name": "Wiggles shopify store",
        "name:en": "Wiggles shopify store",
        "operator": "BOC Shopify",
        "payment:cash": "yes",
        "payment:credit_cards": "yes",
        "payment:debit_cards": "yes",
        "providerId": "bocshopify.humbhionline.in",
        "shop": "supermarket"
      }
    },
    {
      "type": "node",
      "id": 11472722081,
      "lat": 12.966939,
      "lon": 77.5992826,
      "tags": {
        "amenity": "atm",
        "brand": "Bank of Baroda",
        "brand:wikidata": "Q2003797",
        "operator": "Bank of Baroda",
        "operator:wikidata": "Q2003797"
      }
    },
    {
      "type": "node",
      "id": 11476370291,
      "lat": 12.9653142,
      "lon": 77.5953153,
      "tags": {
        "amenity": "bank",
        "atm": "yes",
        "brand": "Yes Bank",
        "brand:wikidata": "Q2040394",
        "name": "Yes Bank",
        "name:kn": "ಯಸ್ ಬ್ಯಾಂಕ್"
      }
    },
    {
      "type": "node",
      "id": 11476370293,
      "lat": 12.9657039,
      "lon": 77.5953613,
      "tags": {
        "amenity": "restaurant",
        "name": "New Mohan Restaurant & Bar"
      }
    },
    {
      "type": "node",
      "id": 11476455947,
      "lat": 12.965067,
      "lon": 77.5972536,
      "tags": {
        "name": "Big Boy Toyz",
        "second_hand": "only",
        "shop": "car"
      }
    },
    {
      "type": "node",
      "id": 11524109257,
      "lat": 12.9576565,
      "lon": 77.6011948,
      "tags": {
        "addr:city": "Bengaluru",
        "addr:district": "Bannerghatta Main Road Phase 4 Bilekahalli",
        "addr:postcode": "560076",
        "addr:street": "P Street",
        "becknified": "true",
        "images": "https://ws1.humbhionline.in/resources/web_manifest/512x512.png?v=1.0",
        "logo": "https://ws1.humbhionline.in/resources/web_manifest/512x512.png?v=1.0",
        "name": "Vegetables Bhi Online",
        "operator": "HumBhi Online",
        "payment:cash": "yes",
        "payment:credit_cards": "yes",
        "payment:debit_cards": "yes",
        "providerId": "ws1.humbhionline.in",
        "shop": "supermarket"
      }
    },
    {
      "type": "node",
      "id": 11557028551,
      "lat": 12.9584724,
      "lon": 77.5929147,
      "tags": {
        "addr:floor": "G",
        "addr:housenumber": "105",
        "addr:street": "Kengal Hanumanthaiah Road",
        "amenity": "bar",
        "check_date": "2024-01-29",
        "contact:instagram": "https://www.instagram.com/wineinprogressblr",
        "level": "0",
        "name": "Wine In Progress",
        "opening_hours": "17:00-23:00",
        "start_date": "2024-01-31",
        "website": "https://wip.thecourtyard.in/"
      }
    },
    {
      "type": "node",
      "id": 11602938154,
      "lat": 12.9569478,
      "lon": 77.6015303,
      "tags": {
        "amenity": "school",
        "name": "BBMP High School"
      }
    },
    {
      "type": "node",
      "id": 11665637081,
      "lat": 12.9643591,
      "lon": 77.5968522,
      "tags": {
        "amenity": "bank",
        "atm": "yes",
        "brand": "Indian Bank",
        "brand:wikidata": "Q2003789",
        "name": "Indian Bank",
        "name:kn": "ಇಂಡಿಯನ್ ಬ್ಯಾಂಕ್"
      }
    },
    {
      "type": "node",
      "id": 11665637082,
      "lat": 12.9646924,
      "lon": 77.5972974,
      "tags": {
        "level": "1",
        "name": "Leather Lounge",
        "shop": "furniture"
      }
    },
    {
      "type": "node",
      "id": 11665637083,
      "lat": 12.9646453,
      "lon": 77.5972867,
      "tags": {
        "addr:city": "Bangalore",
        "addr:district": "Bengaluru Urban",
        "addr:housenumber": "105, Globe House",
        "addr:postcode": "560025",
        "addr:street": "Richmond Road",
        "amenity": "bank",
        "level": "2",
        "name": "IDBI Capital"
      }
    },
    {
      "type": "node",
      "id": 11665637084,
      "lat": 12.9646715,
      "lon": 77.5971083,
      "tags": {
        "level": "-1",
        "name": "Globe Express Travels Pvt Ltd",
        "shop": "travel_agency"
      }
    },
    {
      "type": "node",
      "id": 11665637085,
      "lat": 12.9647629,
      "lon": 77.5978057,
      "tags": {
        "check_date": "2024-08-10",
        "name": "Maison D'luxe",
        "shop": "perfumery"
      }
    },
    {
      "type": "node",
      "id": 11665637086,
      "lat": 12.9647224,
      "lon": 77.5977413,
      "tags": {
        "name": "Mehak Luxury Watches Service Center",
        "shop": "watches"
      }
    },
    {
      "type": "node",
      "id": 11665637087,
      "lat": 12.9647956,
      "lon": 77.59774,
      "tags": {
        "level": "1",
        "name": "Star Tours",
        "shop": "travel_agency"
      }
    },
    {
      "type": "node",
      "id": 11665637089,
      "lat": 12.9647773,
      "lon": 77.5986103,
      "tags": {
        "amenity": "restaurant",
        "cuisine": "indian;pizza",
        "diet:vegetarian": "yes",
        "level": "4",
        "name": "LifeTree Cafe"
      }
    },
    {
      "type": "node",
      "id": 11687235830,
      "lat": 12.9625546,
      "lon": 77.5922966,
      "tags": {
        "check_date": "2024-03-03",
        "name": "Nandini",
        "shop": "dairy"
      }
    },
    {
      "type": "node",
      "id": 11687235832,
      "lat": 12.9605359,
      "lon": 77.6011912,
      "tags": {
        "access": "yes",
        "amenity": "toilets",
        "check_date": "2025-08-24",
        "fee": "yes",
        "operator": "BBMP"
      }
    },
    {
      "type": "node",
      "id": 11975333361,
      "lat": 12.9659664,
      "lon": 77.5987275,
      "tags": {
        "amenity": "cafe",
        "name": "Ithaca"
      }
    },
    {
      "type": "node",
      "id": 12051506508,
      "lat": 12.9674667,
      "lon": 77.5999201,
      "tags": {
        "addr:street": "Residency Road",
        "amenity": "cafe",
        "name": "Ramji Chaiwale"
      }
    },
    {
      "type": "node",
      "id": 12101135616,
      "lat": 12.9611555,
      "lon": 77.5996538,
      "tags": {
        "amenity": "fast_food",
        "check_date": "2024-08-09",
        "cuisine": "indian",
        "diet:vegetarian": "yes",
        "name": "Sri Udupi Grand Veg"
      }
    },
    {
      "type": "node",
      "id": 12101659684,
      "lat": 12.9618739,
      "lon": 77.5946931,
      "tags": {
        "check_date": "2024-08-10",
        "name": "Designer Light Gallery",
        "shop": "lighting"
      }
    },
    {
      "type": "node",
      "id": 12101659685,
      "lat": 12.9615765,
      "lon": 77.5946056,
      "tags": {
        "addr:floor": "G",
        "amenity": "cafe",
        "check_date": "2024-08-10",
        "level": "0",
        "name": "The Bangalore Cafe"
      }
    },
    {
      "type": "node",
      "id": 12101659686,
      "lat": 12.9614801,
      "lon": 77.5945241,
      "tags": {
        "addr:floor": "G",
        "check_date": "2024-08-10",
        "level": "0",
        "name": "Crava",
        "shop": "flooring"
      }
    },
    {
      "type": "node",
      "id": 12101659687,
      "lat": 12.9613636,
      "lon": 77.5944811,
      "tags": {
        "amenity": "bank",
        "atm": "yes",
        "brand": "Indian Overseas Bank",
        "brand:wikidata": "Q2003611",
        "check_date": "2024-08-10",
        "name": "Indian Overseas Bank",
        "wheelchair": "limited"
      }
    },
    {
      "type": "node",
      "id": 12101692396,
      "lat": 12.9629837,
      "lon": 77.60368,
      "tags": {
        "amenity": "place_of_worship",
        "check_date": "2024-08-10",
        "name": "Masjid E Rasheediya",
        "religion": "muslim"
      }
    },
    {
      "type": "node",
      "id": 12101704807,
      "lat": 12.9634592,
      "lon": 77.6016559,
      "tags": {
        "amenity": "bench",
        "backrest": "yes",
        "material": "granite",
        "seats": "4"
      }
    },
    {
      "type": "node",
      "id": 12101709437,
      "lat": 12.9653896,
      "lon": 77.6023226,
      "tags": {
        "amenity": "bank",
        "brand": "ICICI Bank",
        "brand:wikidata": "Q1653258",
        "check_date": "2024-08-10",
        "name": "ICICI Bank",
        "short_name": "ICICI"
      }
    },
    {
      "type": "node",
      "id": 12101709439,
      "lat": 12.9654724,
      "lon": 77.6027445,
      "tags": {
        "amenity": "clinic",
        "check_date": "2024-08-10",
        "healthcare": "clinic",
        "name": "dermalogica"
      }
    },
    {
      "type": "node",
      "id": 12101709440,
      "lat": 12.9654191,
      "lon": 77.6027516,
      "tags": {
        "amenity": "restaurant",
        "check_date": "2024-08-10",
        "name": "In Wok"
      }
    },
    {
      "type": "node",
      "id": 12101712423,
      "lat": 12.9631578,
      "lon": 77.5955227,
      "tags": {
        "check_date": "2024-08-10",
        "clothes": "suits",
        "name": "Jatin Bhandari",
        "shop": "clothes"
      }
    },
    {
      "type": "node",
      "id": 12101714004,
      "lat": 12.963641,
      "lon": 77.6012528,
      "tags": {
        "amenity": "drinking_water"
      }
    },
    {
      "type": "node",
      "id": 12101717532,
      "lat": 12.9647276,
      "lon": 77.6046226,
      "tags": {
        "amenity": "post_box",
        "operator": "India Post"
      }
    },
    {
      "type": "node",
      "id": 12101731495,
      "lat": 12.9640052,
      "lon": 77.5966865,
      "tags": {
        "addr:floor": "G",
        "check_date": "2024-08-10",
        "level": "0",
        "name": "Boss's Cabin",
        "shop": "furniture"
      }
    },
    {
      "type": "node",
      "id": 12101731496,
      "lat": 12.9638344,
      "lon": 77.5966323,
      "tags": {
        "addr:floor": "G",
        "check_date": "2024-08-10",
        "level": "0",
        "name": "Cerraglobe",
        "shop": "houseware"
      }
    },
    {
      "type": "node",
      "id": 12101731497,
      "lat": 12.963649,
      "lon": 77.5960156,
      "tags": {
        "addr:floor": "G",
        "amenity": "dentist",
        "check_date": "2024-08-10",
        "healthcare": "dentist",
        "level": "0",
        "name": "Dental Clinic"
      }
    },
    {
      "type": "node",
      "id": 12101733049,
      "lat": 12.9654399,
      "lon": 77.6006949,
      "tags": {
        "check_date": "2024-08-10",
        "name": "Tisva",
        "shop": "lighting"
      }
    },
    {
      "type": "node",
      "id": 12101733050,
      "lat": 12.965406,
      "lon": 77.6002473,
      "tags": {
        "access": "yes",
        "amenity": "charging_station",
        "brand": "Ola Hypercharger"
      }
    },
    {
      "type": "node",
      "id": 12101733052,
      "lat": 12.9638224,
      "lon": 77.5961117,
      "tags": {
        "check_date": "2024-08-10",
        "name": "Sarooj Jewellery",
        "shop": "jewelry"
      }
    },
    {
      "type": "node",
      "id": 12101733053,
      "lat": 12.9639309,
      "lon": 77.5962324,
      "tags": {
        "amenity": "place_of_worship",
        "check_date": "2024-08-10",
        "name": "Shree Saacha Sumtinath Jain Shwethambar",
        "religion": "jain"
      }
    },
    {
      "type": "node",
      "id": 12101733054,
      "lat": 12.9635732,
      "lon": 77.5959264,
      "tags": {
        "check_date": "2024-08-10",
        "name": "Gateshead",
        "shop": "lighting"
      }
    },
    {
      "type": "node",
      "id": 12101733055,
      "lat": 12.9622172,
      "lon": 77.5955424,
      "tags": {
        "amenity": "music_school",
        "check_date": "2024-08-10",
        "name": "The Music School Bangalore"
      }
    },
    {
      "type": "node",
      "id": 12101746574,
      "lat": 12.9618291,
      "lon": 77.5976174,
      "tags": {
        "amenity": "place_of_worship",
        "check_date": "2024-08-10",
        "religion": "hindu"
      }
    },
    {
      "type": "node",
      "id": 12101753701,
      "lat": 12.9595297,
      "lon": 77.6035588,
      "tags": {
        "amenity": "bank",
        "brand": "Kotak Mahindra Bank",
        "brand:wikidata": "Q2040404",
        "check_date": "2024-08-10",
        "name": "Kotak Mahindra Bank"
      }
    },
    {
      "type": "node",
      "id": 12101753702,
      "lat": 12.959495,
      "lon": 77.6036481,
      "tags": {
        "amenity": "bank",
        "atm": "yes",
        "brand": "Yes Bank",
        "brand:wikidata": "Q2040394",
        "check_date": "2024-08-10",
        "drive_through": "no",
        "name": "Yes Bank"
      }
    },
    {
      "type": "node",
      "id": 12101783870,
      "lat": 12.9595341,
      "lon": 77.5946237,
      "tags": {
        "amenity": "post_box",
        "operator": "India Post"
      }
    },
    {
      "type": "node",
      "id": 12102882512,
      "lat": 12.9609212,
      "lon": 77.6001914,
      "tags": {
        "brand": "Simpli Namdhari's",
        "brand:wikidata": "Q124374340",
        "diet:vegetarian": "yes",
        "name": "Simpli Namdhari's",
        "shop": "supermarket"
      }
    },
    {
      "type": "node",
      "id": 12102932389,
      "lat": 12.9607836,
      "lon": 77.6003789,
      "tags": {
        "amenity": "fast_food",
        "brand": "Subway",
        "brand:wikidata": "Q244457",
        "cuisine": "sandwich",
        "name": "Subway",
        "takeaway": "yes"
      }
    },
    {
      "type": "node",
      "id": 12102932392,
      "lat": 12.9607413,
      "lon": 77.6004627,
      "tags": {
        "amenity": "fast_food",
        "brand": "Domino's",
        "brand:wikidata": "Q839466",
        "cuisine": "pizza",
        "name": "Domino's",
        "name:kn": "ಡಾಮಿನೋಸ್",
        "takeaway": "yes"
      }
    },
    {
      "type": "node",
      "id": 12102932393,
      "lat": 12.960727,
      "lon": 77.6004939,
      "tags": {
        "name": "Dreamers",
        "shop": "hairdresser"
      }
    },
    {
      "type": "node",
      "id": 12102995495,
      "lat": 12.9559235,
      "lon": 77.5923618,
      "tags": {
        "amenity": "bench",
        "backrest": "no",
        "material": "stone"
      }
    },
    {
      "type": "node",
      "id": 12103003494,
      "lat": 12.9606846,
      "lon": 77.6017488,
      "tags": {
        "name": "Niells Designs",
        "shop": "lighting"
      }
    },
    {
      "type": "node",
      "id": 12103003495,
      "lat": 12.960503,
      "lon": 77.6017334,
      "tags": {
        "amenity": "events_venue",
        "name": "Jashn Banquet Hall"
      }
    },
    {
      "type": "node",
      "id": 12103003496,
      "lat": 12.9605563,
      "lon": 77.6017426,
      "tags": {
        "leisure": "sports_hall",
        "name": "Burn"
      }
    },
    {
      "type": "node",
      "id": 12103114965,
      "lat": 12.9634458,
      "lon": 77.6018166,
      "tags": {
        "amenity": "bench",
        "backrest": "yes",
        "material": "granite",
        "seats": "4"
      }
    },
    {
      "type": "node",
      "id": 12103114966,
      "lat": 12.9635963,
      "lon": 77.6018205,
      "tags": {
        "amenity": "bench",
        "backrest": "yes",
        "material": "granite",
        "seats": "4"
      }
    },
    {
      "type": "node",
      "id": 12103114967,
      "lat": 12.963598,
      "lon": 77.6016544,
      "tags": {
        "amenity": "bench",
        "backrest": "yes",
        "material": "granite",
        "seats": "4"
      }
    },
    {
      "type": "node",
      "id": 12103115002,
      "lat": 12.9646683,
      "lon": 77.6057034,
      "tags": {
        "amenity": "drinking_water"
      }
    },
    {
      "type": "node",
      "id": 12103665088,
      "lat": 12.9546902,
      "lon": 77.5929698,
      "tags": {
        "amenity": "bicycle_parking",
        "brand": "Trin",
        "operator": "DULT",
        "operator:type": "government"
      }
    },
    {
      "type": "node",
      "id": 12103707817,
      "lat": 12.9568092,
      "lon": 77.5926544,
      "tags": {
        "amenity": "post_box",
        "operator": "India Post",
        "operator:wikidata": "Q3519720"
      }
    },
    {
      "type": "node",
      "id": 12109772459,
      "lat": 12.9617175,
      "lon": 77.5960641,
      "tags": {
        "amenity": "food_court",
        "name": "St. Joseph's University Food Court"
      }
    },
    {
      "type": "node",
      "id": 12109773379,
      "lat": 12.9594748,
      "lon": 77.5947203,
      "tags": {
        "amenity": "school",
        "name": "EuroKids Shantinagar"
      }
    },
    {
      "type": "node",
      "id": 12149279048,
      "lat": 12.9584959,
      "lon": 77.5927545,
      "tags": {
        "addr:city": "Bengaluru",
        "addr:housenumber": "105",
        "addr:postcode": "560027",
        "addr:street": "Kengal Hanumanthaiah Road",
        "addr:suburb": "Shantinagar",
        "amenity": "cafe",
        "cuisine": "coffee_shop",
        "delivery": "yes",
        "name": "Ajji House by Subko",
        "operator": "Subko Coffee Roasters",
        "shop": "chocolate",
        "smoking": "separated",
        "takeaway": "yes",
        "toilets": "yes",
        "toilets:access": "customers",
        "website": "https://www.subko.coffee"
      }
    },
    {
      "type": "node",
      "id": 12246167229,
      "lat": 12.9514622,
      "lon": 77.5971982,
      "tags": {
        "amenity": "place_of_worship",
        "check_date": "2024-10-12",
        "religion": "hindu"
      }
    },
    {
      "type": "node",
      "id": 12326784734,
      "lat": 12.9584889,
      "lon": 77.6011744,
      "tags": {
        "amenity": "bicycle_repair_station",
        "operator": "Skyline Rider Enterprise"
      }
    },
    {
      "type": "node",
      "id": 12326784735,
      "lat": 12.9586023,
      "lon": 77.601142,
      "tags": {
        "name": "Karnataka Mutton Stall",
        "shop": "butcher"
      }
    },
    {
      "type": "node",
      "id": 12326784736,
      "lat": 12.9586303,
      "lon": 77.6011561,
      "tags": {
        "name": "Reception Beauty Saloon",
        "shop": "beauty"
      }
    },
    {
      "type": "node",
      "id": 12326784738,
      "lat": 12.9597759,
      "lon": 77.6016028,
      "tags": {
        "name": "India Saloon",
        "shop": "hairdresser"
      }
    },
    {
      "type": "node",
      "id": 12327093397,
      "lat": 12.9600628,
      "lon": 77.6018387,
      "tags": {
        "amenity": "dentist",
        "healthcare": "dentist",
        "name": "Dental Centre"
      }
    },
    {
      "type": "node",
      "id": 12460401565,
      "lat": 12.9621491,
      "lon": 77.6047713,
      "tags": {
        "amenity": "bank",
        "brand": "Union Bank of India",
        "brand:wikidata": "Q2004078",
        "check_date": "2024-12-29",
        "name": "Union Bank of India"
      }
    },
    {
      "type": "node",
      "id": 12461082108,
      "lat": 12.9667041,
      "lon": 77.600481,
      "tags": {
        "amenity": "kindergarten",
        "name": "Yello Preschool and Daycare"
      }
    },
    {
      "type": "node",
      "id": 12462400262,
      "lat": 12.9631778,
      "lon": 77.5999497,
      "tags": {
        "amenity": "bank",
        "brand": "Canara Bank",
        "brand:en": "Canara Bank",
        "brand:hi": "केनरा बैंक",
        "brand:kn": "ಕೆನರಾ ಬ್ಯಾಂಕ್",
        "brand:pa": "ਕੇਨਰਾ ਬੈਂਕ",
        "brand:pnb": "کینرا بینک",
        "brand:ur": "کینرا بینک",
        "brand:wikidata": "Q2003777",
        "name": "Canara Bank",
        "name:en": "Canara Bank",
        "name:hi": "केनरा बैंक",
        "name:kn": "ಕೆನರಾ ಬ್ಯಾಂಕ್",
        "name:pa": "ਕੇਨਰਾ ਬੈਂਕ",
        "name:pnb": "کینرا بینک",
        "name:ur": "کینرا بینک",
        "operator": "Canara Bank"
      }
    },
    {
      "type": "node",
      "id": 12462434292,
      "lat": 12.9662507,
      "lon": 77.6038694,
      "tags": {
        "name": "Peekay mini mart",
        "shop": "supermarket"
      }
    },
    {
      "type": "node",
      "id": 12508713298,
      "lat": 12.9657365,
      "lon": 77.6015719,
      "tags": {
        "addr:city": "Bengaluru",
        "addr:district": "Bengaluru Urban",
        "addr:housenumber": "11/2",
        "addr:postcode": "560025",
        "addr:street": "Hayes Road Off Richmond Road, Landmark Diagonally, opposite to Baldwin Girls High School",
        "amenity": "fast_food",
        "brand": "Beijing Bites",
        "brand:wikidata": "Q124374289",
        "capacity": "100",
        "contact:mobile": "+919731554777",
        "contact:phone": "+918040915505",
        "cuisine": "chinese",
        "delivery": "yes",
        "name": "Beijing Bites",
        "name:en": "Beijing Bites",
        "name:kn": "ಬೀಜಿಂಗ್ ಬೈಟ್ಸ್",
        "phone": "+918041246933",
        "smoking": "no",
        "takeaway": "yes"
      }
    },
    {
      "type": "node",
      "id": 12525844632,
      "lat": 12.9677173,
      "lon": 77.6003168,
      "tags": {
        "check_date": "2025-01-23",
        "name": "Veteran's Interiors",
        "shop": "interior_decoration"
      }
    },
    {
      "type": "node",
      "id": 12531970254,
      "lat": 12.9669505,
      "lon": 77.5958884,
      "tags": {
        "amenity": "restaurant",
        "name": "Cajsa"
      }
    },
    {
      "type": "node",
      "id": 13013588750,
      "lat": 12.9672746,
      "lon": 77.6018938,
      "tags": {
        "amenity": "restaurant",
        "cuisine": "chinese",
        "name": "Yan Yan"
      }
    },
    {
      "type": "node",
      "id": 13023090264,
      "lat": 12.9572298,
      "lon": 77.5943978,
      "tags": {
        "amenity": "cafe",
        "check_date": "2025-07-25",
        "name": "The Green Door Coffee House"
      }
    },
    {
      "type": "node",
      "id": 13163010608,
      "lat": 12.9573961,
      "lon": 77.5925814,
      "tags": {
        "addr:floor": "G",
        "amenity": "bank",
        "atm": "yes",
        "brand": "HDFC Bank",
        "brand:wikidata": "Q631047",
        "check_date": "2025-09-22",
        "level": "0",
        "name": "HDFC Bank",
        "name:en": "HDFC Bank",
        "short_name": "HDFC"
      }
    },
    {
      "type": "node",
      "id": 13163010609,
      "lat": 12.95751,
      "lon": 77.5926367,
      "tags": {
        "addr:floor": "G",
        "amenity": "bank",
        "check_date": "2025-09-22",
        "level": "0",
        "name": "Bharat Bank",
        "name:en": "Bharat Bank"
      }
    },
    {
      "type": "node",
      "id": 13163010610,
      "lat": 12.9570781,
      "lon": 77.5924413,
      "tags": {
        "addr:floor": "G",
        "amenity": "bank",
        "atm": "yes",
        "brand": "Kotak Mahindra Bank",
        "brand:wikidata": "Q2040404",
        "check_date": "2025-11-30",
        "level": "0",
        "name": "Kotak Mahindra Bank",
        "name:en": "Kotak Mahindra Bank",
        "wheelchair": "no"
      }
    },
    {
      "type": "node",
      "id": 13164679575,
      "lat": 12.9664994,
      "lon": 77.5988356,
      "tags": {
        "access": "permissive",
        "amenity": "toilets",
        "fee": "no",
        "level": "0",
        "toilets:disposal": "flush",
        "toilets:handwashing": "yes",
        "toilets:position": "squat",
        "unisex": "yes",
        "wheelchair": "no"
      }
    },
    {
      "type": "node",
      "id": 13164679576,
      "lat": 12.9665151,
      "lon": 77.5988551,
      "tags": {
        "access": "permissive",
        "amenity": "toilets",
        "fee": "no",
        "level": "0",
        "toilets:disposal": "flush",
        "toilets:handwashing": "yes",
        "toilets:position": "squat",
        "unisex": "yes",
        "wheelchair": "no"
      }
    },
    {
      "type": "node",
      "id": 13288585563,
      "lat": 12.9675481,
      "lon": 77.6017226,
      "tags": {
        "amenity": "restaurant",
        "name": "Zarqash"
      }
    },
    {
      "type": "node",
      "id": 13342377538,
      "lat": 12.9552799,
      "lon": 77.592933,
      "tags": {
        "amenity": "bench"
      }
    },
    {
      "type": "node",
      "id": 13342464189,
      "lat": 12.955353,
      "lon": 77.5927762,
      "tags": {
        "amenity": "bench"
      }
    },
    {
      "type": "node",
      "id": 13342464190,
      "lat": 12.9552689,
      "lon": 77.5930082,
      "tags": {
        "amenity": "bench"
      }
    },
    {
      "type": "node",
      "id": 13342466241,
      "lat": 12.9552446,
      "lon": 77.5930388,
      "tags": {
        "amenity": "bench"
      }
    },
    {
      "type": "node",
      "id": 13342467443,
      "lat": 12.9551831,
      "lon": 77.5930617,
      "tags": {
        "amenity": "bench"
      }
    },
    {
      "type": "node",
      "id": 13342467572,
      "lat": 12.9551639,
      "lon": 77.5930683,
      "tags": {
        "amenity": "bench"
      }
    },
    {
      "type": "node",
      "id": 13342471978,
      "lat": 12.9552575,
      "lon": 77.5930235,
      "tags": {
        "amenity": "bench"
      }
    },
    {
      "type": "node",
      "id": 13342479152,
      "lat": 12.9553263,
      "lon": 77.592815,
      "tags": {
        "amenity": "bench"
      }
    },
    {
      "type": "node",
      "id": 13342480857,
      "lat": 12.955204,
      "lon": 77.5930607,
      "tags": {
        "amenity": "bench"
      }
    },
    {
      "type": "node",
      "id": 13342482275,
      "lat": 12.9552804,
      "lon": 77.5929511,
      "tags": {
        "amenity": "bench"
      }
    },
    {
      "type": "node",
      "id": 13342485808,
      "lat": 12.9552798,
      "lon": 77.5929697,
      "tags": {
        "amenity": "bench"
      }
    },
    {
      "type": "node",
      "id": 13343543419,
      "lat": 12.9550869,
      "lon": 77.5925863,
      "tags": {
        "amenity": "parking_entrance",
        "parking": "multi-storey"
      }
    },
    {
      "type": "way",
      "id": 23030047,
      "center": {
        "lat": 12.9642555,
        "lon": 77.6003306
      },
      "tags": {
        "amenity": "school",
        "name": "Baldwin Girls' High School"
      }
    },
    {
      "type": "way",
      "id": 28451371,
      "center": {
        "lat": 12.9609837,
        "lon": 77.6011826
      },
      "tags": {
        "leisure": "pitch",
        "sport": "tennis"
      }
    },
    {
      "type": "way",
      "id": 38772821,
      "center": {
        "lat": 12.9656514,
        "lon": 77.6087869
      },
      "tags": {
        "amenity": "school",
        "name": "Cathedral High School & College",
        "name:kn": "ಕ್ಯಾತಡ್ರೆಲ್ ಪ್ರೌಡ ಶಾಲೆ ಮತ್ತು ಕಾಲೇಜು"
      }
    },
    {
      "type": "way",
      "id": 38772823,
      "center": {
        "lat": 12.9688511,
        "lon": 77.6045355
      },
      "tags": {
        "amenity": "school"
      }
    },
    {
      "type": "way",
      "id": 38773283,
      "center": {
        "lat": 12.9684197,
        "lon": 77.5992361
      },
      "tags": {
        "alt_name": "Bishop Cottons Boys",
        "amenity": "school",
        "email": "bcbhsblr@gmail.com",
        "name": "Bishop Cotton Boys School",
        "name:kn": "ಬಿಷಪ್ ಕಾಟನ್ ಬಾಲಕರ ಪ್ರೌಡ ಶಾಲೆ",
        "phone": "+91 80 4052 7888",
        "school:gender": "male",
        "start_date": "1865",
        "website": "https://bishopcottonboysschool.edu.in/",
        "wikidata": "Q4917523",
        "wikimedia_commons": "Category:Bishop Cotton Boys' School",
        "wikipedia": "en:Bishop Cotton Boys' School"
      }
    },
    {
      "type": "way",
      "id": 115837335,
      "center": {
        "lat": 12.9668142,
        "lon": 77.5974558
      },
      "tags": {
        "addr:city": "Bengaluru",
        "addr:country": "IN",
        "addr:housenumber": "10",
        "addr:postcode": "560025",
        "addr:street": "Residency Road",
        "addr:suburb": "Shanthala Nagar",
        "amenity": "community_centre",
        "club": "social",
        "community_centre": "club_home",
        "heritage": "2",
        "heritage:operator": "nmma",
        "heritage:website": "https://nmma.nic.in/nmma/exploreBuiltState.do?state=29",
        "leisure": "sports_centre",
        "name": "Bangalore Club",
        "name:kn": "ಬೆಂಗಳೂರು ಕ್ಲಬ್",
        "old_name": "Bangalore United Services Club",
        "ref:nmma": "KR20010316",
        "start_date": "1868",
        "website": "https://www.bangaloreclub.com/",
        "wikidata": "Q4855040",
        "wikipedia": "en:Bangalore Club"
      }
    },
    {
      "type": "way",
      "id": 138223945,
      "center": {
        "lat": 12.9625196,
        "lon": 77.6060778
      },
      "tags": {
        "amenity": "school",
        "fixme": "Accurate boundaries",
        "name": "Baldwin Boys High School",
        "name:kn": "ಬಾಲ್ಡವಿನ್ ಬಾಲಕರ ಪ್ರೌಡ ಶಾಲೆ",
        "wikidata": "Q4850530",
        "wikipedia": "en:Baldwin Boys' High School"
      }
    },
    {
      "type": "way",
      "id": 138991404,
      "center": {
        "lat": 12.9560946,
        "lon": 77.5929001
      },
      "tags": {
        "amenity": "place_of_worship",
        "landuse": "religious",
        "name": "Ishwara Temple",
        "name:kn": "ಈಶ್ವರ ದೇವಸ್ಥಾನ",
        "religion": "hindu"
      }
    },
    {
      "type": "way",
      "id": 148016864,
      "center": {
        "lat": 12.9635085,
        "lon": 77.5964537
      },
      "tags": {
        "leisure": "pitch",
        "sport": "basketball"
      }
    },
    {
      "type": "way",
      "id": 148016875,
      "center": {
        "lat": 12.9631739,
        "lon": 77.5962695
      },
      "tags": {
        "leisure": "pitch",
        "sport": "basketball"
      }
    },
    {
      "type": "way",
      "id": 152462761,
      "center": {
        "lat": 12.9568141,
        "lon": 77.5932416
      },
      "tags": {
        "leisure": "garden"
      }
    },
    {
      "type": "way",
      "id": 172899266,
      "center": {
        "lat": 12.9537421,
        "lon": 77.5938108
      },
      "tags": {
        "amenity": "school",
        "name": "Outreach School"
      }
    },
    {
      "type": "way",
      "id": 172899341,
      "center": {
        "lat": 12.953617,
        "lon": 77.5948769
      },
      "tags": {
        "amenity": "school"
      }
    },
    {
      "type": "way",
      "id": 208698152,
      "center": {
        "lat": 12.9698651,
        "lon": 77.601741
      },
      "tags": {
        "alt_name": "Bishop Cottons Girls",
        "amenity": "school",
        "email": "bcbhsblr@gmail.com",
        "name": "Bishop Cotton Girls School",
        "name:kn": "ಬಿಶಪ್ ಕಾಟನ್ಸ್ ಬಾಲಕಿಯರ ಪ್ರೌಡ ಶಾಲೆ",
        "phone": "+91 80 4052 7888",
        "school:gender": "female",
        "start_date": "1865",
        "website": "https://www.bishopcottongirls.com/",
        "wikidata": "Q4917524",
        "wikipedia": "en:Bishop Cotton Girls' School"
      }
    },
    {
      "type": "way",
      "id": 256703169,
      "center": {
        "lat": 12.9644217,
        "lon": 77.5926381
      },
      "tags": {
        "addr:district": "Bengaluru Urban",
        "addr:full": "1215 A Cross Sindhi Hospital Road, Sampangiramnagar",
        "addr:postcode": "560027",
        "addr:state": "Karnataka",
        "amenity": "hospital",
        "emergency": "yes",
        "name": "P.D. Hinduja Sindhi Hospital",
        "name:kn": "ಸಿಂಧಿ ಆಸ್ಪತ್ರೆ",
        "operator:type": "private",
        "source": "OpenGovernmentData",
        "website": "https://www.hindujasindhihospital.com/"
      }
    },
    {
      "type": "way",
      "id": 326032584,
      "center": {
        "lat": 12.9635291,
        "lon": 77.6017119
      },
      "tags": {
        "leisure": "park",
        "name": "Richmond Town Park"
      }
    },
    {
      "type": "way",
      "id": 326032586,
      "center": {
        "lat": 12.9615346,
        "lon": 77.6005247
      },
      "tags": {
        "check_date": "2024-08-09",
        "leisure": "stadium",
        "name": "Hockey Stadium",
        "name:kn": "ಹಾಕಿ ಕ್ರೀಡಾಂಗಣ",
        "official_name": "Field Marshal Carriappa Hockey Arena",
        "official_name:etymology:wikidata": "Q3630913",
        "sport": "field_hockey",
        "wheelchair": "limited"
      }
    },
    {
      "type": "way",
      "id": 326199006,
      "center": {
        "lat": 12.9559827,
        "lon": 77.6020973
      },
      "tags": {
        "leisure": "park"
      }
    },
    {
      "type": "way",
      "id": 326199007,
      "center": {
        "lat": 12.956985,
        "lon": 77.6011901
      },
      "tags": {
        "leisure": "park"
      }
    },
    {
      "type": "way",
      "id": 328994144,
      "center": {
        "lat": 12.968191,
        "lon": 77.5983131
      },
      "tags": {
        "fee": "no",
        "leisure": "sports_centre",
        "source": "https://bishopcottonboysschool.edu.in/infrastructure;local knowledge;survey",
        "sport": "swimming;karate;yoga;table_tennis;athletics"
      }
    },
    {
      "type": "way",
      "id": 329802987,
      "center": {
        "lat": 12.9620064,
        "lon": 77.6012302
      },
      "tags": {
        "leisure": "swimming_pool"
      }
    },
    {
      "type": "way",
      "id": 329803374,
      "center": {
        "lat": 12.9617543,
        "lon": 77.6006326
      },
      "tags": {
        "leisure": "pitch",
        "sport": "field_hockey"
      }
    },
    {
      "type": "way",
      "id": 331538343,
      "center": {
        "lat": 12.966805,
        "lon": 77.5970004
      },
      "tags": {
        "leisure": "pitch",
        "sport": "tennis"
      }
    },
    {
      "type": "way",
      "id": 331538354,
      "center": {
        "lat": 12.9660645,
        "lon": 77.5968515
      },
      "tags": {
        "leisure": "pitch",
        "sport": "tennis"
      }
    },
    {
      "type": "way",
      "id": 346154410,
      "center": {
        "lat": 12.9639882,
        "lon": 77.6006372
      },
      "tags": {
        "access": "permissive",
        "leisure": "swimming_pool"
      }
    },
    {
      "type": "way",
      "id": 347122093,
      "center": {
        "lat": 12.9630393,
        "lon": 77.6031442
      },
      "tags": {
        "building": "yes",
        "name": "royalmart supermarket",
        "shop": "supermarket"
      }
    },
    {
      "type": "way",
      "id": 351413886,
      "center": {
        "lat": 12.9679496,
        "lon": 77.5983148
      },
      "tags": {
        "access": "private",
        "building": "yes",
        "leisure": "sports_hall",
        "name": "Gymnasium"
      }
    },
    {
      "type": "way",
      "id": 377171223,
      "center": {
        "lat": 12.9663909,
        "lon": 77.5954955
      },
      "tags": {
        "amenity": "social_facility",
        "building": "yes",
        "name": "Eventide Home",
        "social_facility": "group_home",
        "social_facility:for": "senior"
      }
    },
    {
      "type": "way",
      "id": 393699912,
      "center": {
        "lat": 12.9540365,
        "lon": 77.5930748
      },
      "tags": {
        "alt_name": "TTMC Shanthinagara 'A' Block",
        "amenity": "office",
        "building": "yes",
        "building:levels": "6",
        "name": "'A' Block",
        "roof:shape": "flat"
      }
    },
    {
      "type": "way",
      "id": 393699932,
      "center": {
        "lat": 12.9533742,
        "lon": 77.5975797
      },
      "tags": {
        "amenity": "college",
        "name": "Indira Gandhi National Open University",
        "name:etymology:wikidata": "Q1149"
      }
    },
    {
      "type": "way",
      "id": 413926039,
      "center": {
        "lat": 12.9652826,
        "lon": 77.5944611
      },
      "tags": {
        "addr:city": "Bengaluru",
        "addr:postcode": "560027",
        "addr:street": "Sri Rama Road, Double Road, 1st Main Rd, Sampangi Rama Nagara, Sampangi Rama Nagar",
        "amenity": "place_of_worship",
        "building": "yes",
        "name": "Sri Balamuri Vinayaka Devasthana",
        "religion": "hindu"
      }
    },
    {
      "type": "way",
      "id": 440386372,
      "center": {
        "lat": 12.9665675,
        "lon": 77.5979751
      },
      "tags": {
        "amenity": "shelter"
      }
    },
    {
      "type": "way",
      "id": 440386374,
      "center": {
        "lat": 12.9667648,
        "lon": 77.5972402
      },
      "tags": {
        "leisure": "swimming_pool"
      }
    },
    {
      "type": "way",
      "id": 440386377,
      "center": {
        "lat": 12.9665496,
        "lon": 77.5972442
      },
      "tags": {
        "leisure": "swimming_pool"
      }
    },
    {
      "type": "way",
      "id": 440386378,
      "center": {
        "lat": 12.9664428,
        "lon": 77.5970518
      },
      "tags": {
        "leisure": "pitch",
        "sport": "tennis"
      }
    },
    {
      "type": "way",
      "id": 440386380,
      "center": {
        "lat": 12.9664102,
        "lon": 77.5968122
      },
      "tags": {
        "leisure": "pitch",
        "sport": "tennis"
      }
    },
    {
      "type": "way",
      "id": 440386382,
      "center": {
        "lat": 12.9661073,
        "lon": 77.5971601
      },
      "tags": {
        "leisure": "pitch",
        "sport": "tennis"
      }
    },
    {
      "type": "way",
      "id": 440386385,
      "center": {
        "lat": 12.966086,
        "lon": 77.597008
      },
      "tags": {
        "leisure": "pitch",
        "sport": "tennis"
      }
    },
    {
      "type": "way",
      "id": 442014335,
      "center": {
        "lat": 12.959741,
        "lon": 77.6086465
      },
      "tags": {
        "access": "private",
        "leisure": "swimming_pool"
      }
    },
    {
      "type": "way",
      "id": 442014336,
      "center": {
        "lat": 12.9533316,
        "lon": 77.6011904
      },
      "tags": {
        "leisure": "park"
      }
    },
    {
      "type": "way",
      "id": 442014338,
      "center": {
        "lat": 12.9566712,
        "lon": 77.6006813
      },
      "tags": {
        "amenity": "place_of_worship",
        "building": "mosque",
        "name": "Masjid-e-Khizar",
        "religion": "muslim"
      }
    },
    {
      "type": "way",
      "id": 532166910,
      "center": {
        "lat": 12.963687,
        "lon": 77.6002106
      },
      "tags": {
        "leisure": "pitch"
      }
    },
    {
      "type": "way",
      "id": 532166911,
      "center": {
        "lat": 12.9658252,
        "lon": 77.5988902
      },
      "tags": {
        "access": "customers",
        "depth": "4.5",
        "leisure": "swimming_pool"
      }
    },
    {
      "type": "way",
      "id": 532166918,
      "center": {
        "lat": 12.9631187,
        "lon": 77.6059511
      },
      "tags": {
        "access": "private",
        "leisure": "swimming_pool"
      }
    },
    {
      "type": "way",
      "id": 532166920,
      "center": {
        "lat": 12.9636702,
        "lon": 77.6064336
      },
      "tags": {
        "amenity": "place_of_worship",
        "denomination": "shia",
        "name": "Masjid-E-Askari",
        "name:kn": "ಮಸ್ಜಿದ್ ಎ ಆಸ್ಕರಿ",
        "religion": "muslim"
      }
    },
    {
      "type": "way",
      "id": 532166922,
      "center": {
        "lat": 12.9647297,
        "lon": 77.6063855
      },
      "tags": {
        "amenity": "place_of_worship",
        "building": "cathedral",
        "name": "St. Gregorios Orthodox Cathedral",
        "religion": "christian"
      }
    },
    {
      "type": "way",
      "id": 532166923,
      "center": {
        "lat": 12.9647718,
        "lon": 77.6062297
      },
      "tags": {
        "amenity": "place_of_worship",
        "name": "St Gregorios Orthodox Cathedral",
        "name:kn": "ಸೆಂಟ್ ಗ್ರೇಗೊರಿಯೋಸ್ ದೇವಸ್ಥಾನ",
        "religion": "christian"
      }
    },
    {
      "type": "way",
      "id": 532166924,
      "center": {
        "lat": 12.9641706,
        "lon": 77.6062644
      },
      "tags": {
        "amenity": "marketplace",
        "landuse": "retail",
        "name": "Johnson Market",
        "name:kn": "ಜಾನ್ಸನ್ ಮಾರ್ಕೆಟ್",
        "start_date": "1929"
      }
    },
    {
      "type": "way",
      "id": 532166925,
      "center": {
        "lat": 12.9637678,
        "lon": 77.6029183
      },
      "tags": {
        "amenity": "place_of_worship",
        "name": "Richmond Town Methodist Church",
        "religion": "christian",
        "wikidata": "Q7331016",
        "wikipedia": "en:Richmond Town Methodist Church"
      }
    },
    {
      "type": "way",
      "id": 532166926,
      "center": {
        "lat": 12.9636416,
        "lon": 77.6032559
      },
      "tags": {
        "amenity": "place_of_worship",
        "building": "church",
        "religion": "christian"
      }
    },
    {
      "type": "way",
      "id": 532166930,
      "center": {
        "lat": 12.9611751,
        "lon": 77.6002092
      },
      "tags": {
        "access": "permissive",
        "amenity": "parking",
        "fee": "yes",
        "parking": "surface"
      }
    },
    {
      "type": "way",
      "id": 639010024,
      "center": {
        "lat": 12.9620228,
        "lon": 77.5942366
      },
      "tags": {
        "amenity": "fuel",
        "brand": "Bharath Petroleum",
        "opening_hours": "Mo-Su 06:30-22:30",
        "operator": "Bharath Petroleum"
      }
    },
    {
      "type": "way",
      "id": 639010032,
      "center": {
        "lat": 12.9664157,
        "lon": 77.5953066
      },
      "tags": {
        "amenity": "fuel",
        "brand": "Indian Oil",
        "brand:wikidata": "Q1289348",
        "compressed_air": "yes",
        "name": "Indian Oil",
        "name:kn": "ಇಂಡಿಯನ್ ಆಯಿಲ್",
        "opening_hours": "24/7",
        "wheelchair": "limited"
      }
    },
    {
      "type": "way",
      "id": 781182572,
      "center": {
        "lat": 12.9591357,
        "lon": 77.6010894
      },
      "tags": {
        "amenity": "school",
        "isced:level": "2",
        "landuse": "education",
        "name": "GTHPS Puduparacheri",
        "name:kn": "ಸರ್ಕಾರಿ ತೆಲುಗು ಹಿರಿಯ ಪ್ರಾಥಮಿಕ ಶಾಲೆ ಪುದುಪರಾಚೇರಿ",
        "operator": "Department of Education",
        "school": "primary"
      }
    },
    {
      "type": "way",
      "id": 781182573,
      "center": {
        "lat": 12.9595349,
        "lon": 77.6011922
      },
      "tags": {
        "amenity": "school",
        "isced:level": "2",
        "landuse": "education",
        "name": "GMPS AkkithimmanaHalli",
        "name:kn": "ಸರ್ಕಾರಿ ಮಾದರಿ ಪ್ರಾಥಮಿಕ ಶಾಲೆ ಅಕ್ಕಿತಿಮ್ಮನಹಳ್ಳಿ",
        "operator": "Department of Education",
        "school": "primary"
      }
    },
    {
      "type": "way",
      "id": 781182575,
      "center": {
        "lat": 12.9563799,
        "lon": 77.6027769
      },
      "tags": {
        "leisure": "park"
      }
    },
    {
      "type": "way",
      "id": 781182581,
      "center": {
        "lat": 12.9605295,
        "lon": 77.6057468
      },
      "tags": {
        "amenity": "social_facility",
        "name": "Society of the Little Sisters of the Poor",
        "social_facility": "nursing_home",
        "social_facility:for": "senior"
      }
    },
    {
      "type": "way",
      "id": 781182587,
      "center": {
        "lat": 12.9627181,
        "lon": 77.6016773
      },
      "tags": {
        "leisure": "garden"
      }
    },
    {
      "type": "way",
      "id": 781182588,
      "center": {
        "lat": 12.9627778,
        "lon": 77.6016695
      },
      "tags": {
        "access": "private",
        "leisure": "swimming_pool"
      }
    },
    {
      "type": "way",
      "id": 781182595,
      "center": {
        "lat": 12.9618084,
        "lon": 77.5987266
      },
      "tags": {
        "area:highway": "traffic_island",
        "leisure": "garden"
      }
    },
    {
      "type": "way",
      "id": 796458046,
      "center": {
        "lat": 12.9625927,
        "lon": 77.6096003
      },
      "tags": {
        "addr:city": "Bengaluru",
        "addr:postcode": "560025",
        "addr:street": "Hosur Road",
        "alt_name": "Bangalore Military School",
        "alt_name_1": "Rashtriya Military School, Bengaluru",
        "amenity": "school",
        "email": "rmsbengaluru@gmail.com",
        "fax": "+91 080- 25308191",
        "landuse": "military",
        "name": "Rashtriya Military School",
        "old_name": "King George Royal Indian Military College",
        "operator": "Ministry of Defence, Government of India",
        "phone": "+91 080-29602555;+91 080- 25554972",
        "short_name": "CMP",
        "start_date": "1946-01-01",
        "website": "https://www.rashtriyamilitaryschools.edu.in/rmsbengaluru/",
        "wikidata": "Q4855064",
        "wikipedia": "en:Bangalore Military School"
      }
    },
    {
      "type": "way",
      "id": 996021805,
      "center": {
        "lat": 12.9613493,
        "lon": 77.6061795
      },
      "tags": {
        "amenity": "college",
        "fixme": "Accurate boundaries",
        "name": "Baldwin Methodist College"
      }
    },
    {
      "type": "way",
      "id": 1007640514,
      "center": {
        "lat": 12.9584034,
        "lon": 77.5929594
      },
      "tags": {
        "access": "customers",
        "amenity": "parking",
        "capacity": "6",
        "parking": "surface"
      }
    },
    {
      "type": "way",
      "id": 1007640516,
      "center": {
        "lat": 12.958464,
        "lon": 77.5928624
      },
      "tags": {
        "addr:housenumber": "105",
        "addr:street": "Kengal Hanumanthaiah Road",
        "amenity": "events_venue",
        "check_date": "2024-01-29",
        "contact:instagram": "https://www.instagram.com/thecourtyardcommunity",
        "email": "info@thecourtyard.in",
        "landuse": "commercial",
        "name": "The Courtyard",
        "phone": "+91 73386 77996",
        "website": "https://thecourtyard.in"
      }
    },
    {
      "type": "way",
      "id": 1049075231,
      "center": {
        "lat": 12.9573344,
        "lon": 77.6045898
      },
      "tags": {
        "addr:housenumber": "2",
        "addr:street": "Berlie Street",
        "amenity": "arts_centre",
        "contact:instagram": "kaashfoundation",
        "name": "Kaash",
        "operator": "Kaash Foundation"
      }
    },
    {
      "type": "way",
      "id": 1076405821,
      "center": {
        "lat": 12.9677901,
        "lon": 77.5999007
      },
      "tags": {
        "access": "customers",
        "amenity": "parking",
        "fee": "yes",
        "operator": "BBMP",
        "parking": "surface"
      }
    },
    {
      "type": "way",
      "id": 1081215243,
      "center": {
        "lat": 12.9685125,
        "lon": 77.5997811
      },
      "tags": {
        "access": "private",
        "leisure": "pitch",
        "lit": "yes",
        "name": "Second Eleven Field",
        "sport": "soccer;football",
        "surface": "artificial_turf",
        "website": "https://bishopcottonboysschool.edu.in/infrastructure"
      }
    },
    {
      "type": "way",
      "id": 1082449592,
      "center": {
        "lat": 12.9643414,
        "lon": 77.5947501
      },
      "tags": {
        "leisure": "park"
      }
    },
    {
      "type": "way",
      "id": 1093292147,
      "center": {
        "lat": 12.9680756,
        "lon": 77.605027
      },
      "tags": {
        "amenity": "school",
        "name": "St. Euphrasias Girls' High School"
      }
    },
    {
      "type": "way",
      "id": 1093292149,
      "center": {
        "lat": 12.9682507,
        "lon": 77.6032552
      },
      "tags": {
        "addr:street": "Convent Road",
        "amenity": "kindergarten",
        "name": "Sacred Heart Nursery School"
      }
    },
    {
      "type": "way",
      "id": 1093292155,
      "center": {
        "lat": 12.9692162,
        "lon": 77.6032078
      },
      "tags": {
        "addr:city": "Bengaluru",
        "addr:country": "IN",
        "addr:postcode": "560025",
        "addr:street": "Museum Road",
        "amenity": "school",
        "name": "Sacred Heart Girls' High School",
        "school:gender": "female",
        "start_date": "1854",
        "website": "https://shghs.edu.in/"
      }
    },
    {
      "type": "way",
      "id": 1095458699,
      "center": {
        "lat": 12.9592448,
        "lon": 77.601562
      },
      "tags": {
        "amenity": "place_of_worship",
        "denomination": "sunni",
        "landuse": "religious",
        "religion": "muslim"
      }
    },
    {
      "type": "way",
      "id": 1095458734,
      "center": {
        "lat": 12.96417,
        "lon": 77.6057086
      },
      "tags": {
        "amenity": "place_of_worship",
        "religion": "muslim"
      }
    },
    {
      "type": "way",
      "id": 1098069722,
      "center": {
        "lat": 12.9627585,
        "lon": 77.6041319
      },
      "tags": {
        "amenity": "school",
        "name": "Frank Anthony Junior School"
      }
    },
    {
      "type": "way",
      "id": 1099889138,
      "center": {
        "lat": 12.9678652,
        "lon": 77.5992495
      },
      "tags": {
        "access": "private",
        "leisure": "pitch",
        "lit": "no",
        "name": "First Eleven",
        "sport": "cricket",
        "surface": "grass"
      }
    },
    {
      "type": "way",
      "id": 1099889139,
      "center": {
        "lat": 12.9679693,
        "lon": 77.5987085
      },
      "tags": {
        "access": "private",
        "hoops": "2",
        "leisure": "pitch",
        "lit": "no",
        "name": "Basket Ball Court",
        "name:kn": "ಬಾಸ್ಕೆಟ್ ಬಾಲ್ ಅಂಕಣ",
        "sport": "basketball",
        "surface": "concrete"
      }
    },
    {
      "type": "way",
      "id": 1100674381,
      "center": {
        "lat": 12.955594,
        "lon": 77.5980861
      },
      "tags": {
        "amenity": "school",
        "name": "St. Michael's School",
        "name:kn": "ಸೈಂಟ್ ಮೈಕಲ್ ಶಾಲೆ"
      }
    },
    {
      "type": "way",
      "id": 1100674383,
      "center": {
        "lat": 12.9559596,
        "lon": 77.5970977
      },
      "tags": {
        "amenity": "place_of_worship",
        "denomination": "catholic",
        "name": "St. Michael's Church",
        "name:kn": "ಸೇಂಟ್ ಮೈಕೇಲ್ಸ್ ಚರ್ಚ್",
        "religion": "christian"
      }
    },
    {
      "type": "way",
      "id": 1124089055,
      "center": {
        "lat": 12.9669663,
        "lon": 77.5975083
      },
      "tags": {
        "leisure": "park",
        "name": "Oval Lawn"
      }
    },
    {
      "type": "way",
      "id": 1124838108,
      "center": {
        "lat": 12.9646791,
        "lon": 77.601165
      },
      "tags": {
        "amenity": "school",
        "name": "Baldwin Opportunity School"
      }
    },
    {
      "type": "way",
      "id": 1124838112,
      "center": {
        "lat": 12.9660073,
        "lon": 77.6035811
      },
      "tags": {
        "addr:city": "Bengaluru",
        "addr:country": "IN",
        "addr:hamlet": "Shanthala Nagar",
        "addr:housenumber": "32",
        "addr:postcode": "560025",
        "addr:street": "Richmond Road",
        "addr:suburb": "Richmond Town",
        "amenity": "coworking_space",
        "brand": "IndiQube",
        "fee": "yes",
        "landuse": "commercial",
        "name": "IndiQube Penta",
        "office": "coworking",
        "operator": "IndiQube"
      }
    },
    {
      "type": "way",
      "id": 1125144619,
      "center": {
        "lat": 12.9556473,
        "lon": 77.5924648
      },
      "tags": {
        "leisure": "garden"
      }
    },
    {
      "type": "way",
      "id": 1125144620,
      "center": {
        "lat": 12.9552802,
        "lon": 77.592935
      },
      "tags": {
        "leisure": "garden"
      }
    },
    {
      "type": "way",
      "id": 1125144623,
      "center": {
        "lat": 12.9558173,
        "lon": 77.592403
      },
      "tags": {
        "amenity": "shelter",
        "building": "yes",
        "shelter_type": "gazebo"
      }
    },
    {
      "type": "way",
      "id": 1126139647,
      "center": {
        "lat": 12.966881,
        "lon": 77.6038055
      },
      "tags": {
        "amenity": "place_of_worship",
        "denomination": "mormon",
        "name": "The Church of Jesus Christ of Latter-day Saints",
        "name:en": "The Church of Jesus Christ of Latter-day Saints",
        "religion": "christian"
      }
    },
    {
      "type": "way",
      "id": 1149213001,
      "center": {
        "lat": 12.9569001,
        "lon": 77.6047605
      },
      "tags": {
        "addr:district": "Bengaluru Urban",
        "addr:full": "15, Eagle Street Langford Town Shanti Nagar",
        "addr:postcode": "560025",
        "addr:state": "Karnataka",
        "amenity": "hospital",
        "emergency": "no",
        "name": "Dr Agarwal's Eye Hospital",
        "source": "OpenGovernmentData"
      }
    },
    {
      "type": "way",
      "id": 1156298770,
      "center": {
        "lat": 12.96692,
        "lon": 77.6045206
      },
      "tags": {
        "amenity": "monastery",
        "community:gender": "female",
        "denomination": "catholic",
        "landuse": "religious",
        "name": "Daughters of St. Paul",
        "religion": "christian"
      }
    },
    {
      "type": "way",
      "id": 1156298783,
      "center": {
        "lat": 12.9652589,
        "lon": 77.6035823
      },
      "tags": {
        "amenity": "monastery",
        "community:gender": "male",
        "denomination": "catholic",
        "landuse": "religious",
        "name": "Xavier Nilaya",
        "religion": "christian"
      }
    },
    {
      "type": "way",
      "id": 1177319348,
      "center": {
        "lat": 12.9540105,
        "lon": 77.6003994
      },
      "tags": {
        "addr:place": "Shanthinagar",
        "amenity": "school",
        "isced:level": "2",
        "name": "GHPS Ksrtc Shanthinagar",
        "name:kn": "ಸರ್ಕಾರಿ ಹಿರಿಯ ಪ್ರಾಥಮಿಕ ಶಾಲೆ ಕೆ.ಎಸ್‌.ಆರ್‌.ಟಿ.ಸಿ ಶಾಂತಿನಗರ",
        "operator": "Department of Education",
        "school": "primary"
      }
    },
    {
      "type": "way",
      "id": 1241682281,
      "center": {
        "lat": 12.9649692,
        "lon": 77.6004187
      },
      "tags": {
        "amenity": "college",
        "name": "Baldwin Women's Methodist College"
      }
    },
    {
      "type": "way",
      "id": 1291752685,
      "center": {
        "lat": 12.9661325,
        "lon": 77.5991608
      },
      "tags": {
        "access": "private",
        "amenity": "parking",
        "parking": "surface"
      }
    },
    {
      "type": "way",
      "id": 1305868782,
      "center": {
        "lat": 12.962,
        "lon": 77.5982143
      },
      "tags": {
        "building": "yes",
        "leisure": "sports_centre",
        "name": "Fusion the Turf Sports",
        "sport": "futsal"
      }
    },
    {
      "type": "way",
      "id": 1305868787,
      "center": {
        "lat": 12.9633582,
        "lon": 77.6023699
      },
      "tags": {
        "access": "private",
        "leisure": "swimming_pool"
      }
    },
    {
      "type": "way",
      "id": 1306881208,
      "center": {
        "lat": 12.9634553,
        "lon": 77.6009891
      },
      "tags": {
        "access": "yes",
        "amenity": "toilets",
        "building": "yes",
        "changing_table": "no",
        "female": "yes",
        "male": "yes",
        "wheelchair": "no"
      }
    },
    {
      "type": "way",
      "id": 1306881214,
      "center": {
        "lat": 12.9623198,
        "lon": 77.6011386
      },
      "tags": {
        "leisure": "pitch",
        "sport": "tennis"
      }
    },
    {
      "type": "way",
      "id": 1306888705,
      "center": {
        "lat": 12.9608584,
        "lon": 77.600729
      },
      "tags": {
        "amenity": "place_of_worship",
        "building": "yes",
        "name": "Shree Kere Katte Ganapati Shaneshwara Swamy Prathyanigira Devi Temple",
        "religion": "hindu"
      }
    },
    {
      "type": "way",
      "id": 1306894664,
      "center": {
        "lat": 12.9575231,
        "lon": 77.5933605
      },
      "tags": {
        "amenity": "parking",
        "parking": "surface"
      }
    },
    {
      "type": "way",
      "id": 1306908284,
      "center": {
        "lat": 12.9633291,
        "lon": 77.6019686
      },
      "tags": {
        "leisure": "playground"
      }
    },
    {
      "type": "way",
      "id": 1306976437,
      "center": {
        "lat": 12.9523925,
        "lon": 77.5980116
      },
      "tags": {
        "leisure": "sports_centre",
        "name": "KSRTC Sports Complex"
      }
    },
    {
      "type": "way",
      "id": 1307534753,
      "center": {
        "lat": 12.9627039,
        "lon": 77.6061486
      },
      "tags": {
        "leisure": "pitch",
        "sport": "basketball"
      }
    },
    {
      "type": "way",
      "id": 1307944838,
      "center": {
        "lat": 12.9663731,
        "lon": 77.6021506
      },
      "tags": {
        "access": "private",
        "leisure": "swimming_pool"
      }
    },
    {
      "type": "way",
      "id": 1308629018,
      "center": {
        "lat": 12.9681881,
        "lon": 77.5972126
      },
      "tags": {
        "leisure": "garden"
      }
    },
    {
      "type": "way",
      "id": 1347104356,
      "center": {
        "lat": 12.9669145,
        "lon": 77.5997577
      },
      "tags": {
        "access": "private",
        "amenity": "parking",
        "parking": "street_side"
      }
    },
    {
      "type": "way",
      "id": 1347241685,
      "center": {
        "lat": 12.9669302,
        "lon": 77.5989206
      },
      "tags": {
        "access": "yes",
        "amenity": "parking",
        "fee": "yes",
        "parking": "street_side"
      }
    },
    {
      "type": "way",
      "id": 1379017132,
      "center": {
        "lat": 12.9629876,
        "lon": 77.5989292
      },
      "tags": {
        "amenity": "monastery",
        "community:gender": "female",
        "denomination": "catholic",
        "landuse": "religious",
        "name": "Good Shepherd Provincialate",
        "religion": "christian"
      }
    },
    {
      "type": "way",
      "id": 1455412266,
      "center": {
        "lat": 12.9544737,
        "lon": 77.5926291
      },
      "tags": {
        "alt_name": "TTMC Shantinagara 'B' Block; Shanthinagar TTMC;Shanthi nagar TTMC",
        "amenity": "transportation",
        "building": "yes",
        "building:levels": "6",
        "bus": "yes",
        "full_name": "Atal Bihari Vajpayee Traffic and Transit Management Center",
        "name": "Shantinagara Bus Station",
        "name:kn": "ಶಾಂತಿನಗರ ಬಸ್ ನಿಲ್ದಾಣ",
        "official_name": "Atal Bihari Vajpayee TTMC",
        "phone": "7760991061",
        "public_transport": "station",
        "roof:shape": "flat",
        "short_name": "SBS",
        "start_date": "2005",
        "wikidata": "Q7489090",
        "wikipedia": "en:Atal Bihari Vajpayee TTMC"
      }
    },
    {
      "type": "way",
      "id": 1455412267,
      "center": {
        "lat": 12.9546736,
        "lon": 77.592278
      },
      "tags": {
        "alt_name": "Shanthinagar TTMC 'C' Block;Shanthi nagar TTMC 'C' block",
        "amenity": "office",
        "building": "yes",
        "building:levels": "7",
        "name": "Shanthinagara 'C' Block",
        "roof:shape": "flat"
      }
    }
  ]
}