{
  "area_name": "Puttenahalli",
  "osm_id": 7978094280,
  "osm_type": "node",
  "place_type": "neighbourhood",
  "amenity_count": 167,
  "amenities": [
    {
      "type": "node",
      "id": 959249211,
      "lat": 13.1028474,
      "lon": 77.5770272,
      "tags": {
        "amenity": "restaurant",
        "cuisine": "chinese",
        "internet_access": "no",
        "name": "Schezwan",
        "name:kn": "ಸೆಶವಾನ್",
        "smoking": "no",
        "stars": "2",
        "wheelchair": "no"
      }
    },
    {
      "type": "node",
      "id": 959250247,
      "lat": 13.1039689,
      "lon": 77.5837337,
      "tags": {
        "name": "Reality's book store",
        "shop": "stationery"
      }
    },
    {
      "type": "node",
      "id": 959250348,
      "lat": 13.1061576,
      "lon": 77.5798146,
      "tags": {
        "amenity": "fast_food",
        "cuisine": "regional",
        "name": "Namma Mane",
        "name:kn": "ನಮ್ಮ ಮನೆ"
      }
    },
    {
      "type": "node",
      "id": 959252342,
      "lat": 13.1048022,
      "lon": 77.5810644,
      "tags": {
        "amenity": "school",
        "name": "Drishya"
      }
    },
    {
      "type": "node",
      "id": 959253421,
      "lat": 13.1044566,
      "lon": 77.5832328,
      "tags": {
        "amenity": "fast_food",
        "name": "Mallu Bakery"
      }
    },
    {
      "type": "node",
      "id": 959253557,
      "lat": 13.103198,
      "lon": 77.5842815,
      "tags": {
        "amenity": "fast_food",
        "cuisine": "mixed",
        "internet_access": "yes",
        "name": "Kadai",
        "operator": "anna",
        "smoking": "yes"
      }
    },
    {
      "type": "node",
      "id": 959278216,
      "lat": 13.1050842,
      "lon": 77.5809991,
      "tags": {
        "amenity": "atm"
      }
    },
    {
      "type": "node",
      "id": 959509895,
      "lat": 13.1077028,
      "lon": 77.5806507,
      "tags": {
        "name": "Kanti Sweets",
        "shop": "confectionery",
        "wheelchair": "limited"
      }
    },
    {
      "type": "node",
      "id": 959519402,
      "lat": 13.104987,
      "lon": 77.5834226,
      "tags": {
        "amenity": "atm"
      }
    },
    {
      "type": "node",
      "id": 2537631631,
      "lat": 13.1070925,
      "lon": 77.5756631,
      "tags": {
        "amenity": "restaurant",
        "name": "Sri Ganesh Bake Paradise"
      }
    },
    {
      "type": "node",
      "id": 3641302856,
      "lat": 13.1076367,
      "lon": 77.5734215,
      "tags": {
        "amenity": "place_of_worship",
        "name": "Billal-E-Masjid",
        "religion": "muslim"
      }
    },
    {
      "type": "node",
      "id": 3641363472,
      "lat": 13.102259,
      "lon": 77.5769737,
      "tags": {
        "amenity": "bank",
        "brand": "State Bank of India",
        "brand:wikidata": "Q1340361",
        "brand:wikipedia": "en:State Bank of India",
        "name": "State Bank of India",
        "name:kn": "ಭಾರತೀಯ ಸ್ಟೇಟ್ ಬ್ಯಾಂಕ್",
        "short_name": "SBI"
      }
    },
    {
      "type": "node",
      "id": 3699964313,
      "lat": 13.1057039,
      "lon": 77.5774402,
      "tags": {
        "amenity": "atm",
        "brand": "ICICI Bank",
        "brand:wikidata": "Q1653258",
        "name": "ICICI Bank",
        "name:kn": "ಐಸಿಐಸಿಐ ಬ್ಯಾಂಕು",
        "operator": "ICICI Bank",
        "operator:wikidata": "Q1653258",
        "short_name": "ICICI"
      }
    },
    {
      "type": "node",
      "id": 4242256789,
      "lat": 13.1110497,
      "lon": 77.5797494,
      "tags": {
        "addr:postcode": "560064",
        "addr:street": "Doddaballapur Road",
        "amenity": "bus_station",
        "name": "Bus Station Puttanahalli",
        "name:kn": "ಪುಟ್ಟನಹಳ್ಳಿ ಬಸ್ ನಿಲ್ದಾಣ"
      }
    },
    {
      "type": "node",
      "id": 4399049933,
      "lat": 13.1053106,
      "lon": 77.577008,
      "tags": {
        "amenity": "pharmacy",
        "healthcare": "pharmacy",
        "name": "Pradhan Mantri Bharatiya Jan Aushadi Kendra"
      }
    },
    {
      "type": "node",
      "id": 4399049934,
      "lat": 13.1052531,
      "lon": 77.5772085,
      "tags": {
        "amenity": "bank",
        "atm": "yes",
        "brand": "State Bank of India",
        "brand:wikidata": "Q1340361",
        "brand:wikipedia": "en:State Bank of India",
        "name": "State Bank of India",
        "name:kn": "ಭಾರತೀಯ ಸ್ಟೇಟ್ ಬ್ಯಾಂಕ್",
        "short_name": "SBI",
        "website": "https://www.sbi.co.in"
      }
    },
    {
      "type": "node",
      "id": 4997735501,
      "lat": 13.1155339,
      "lon": 77.5770221,
      "tags": {
        "addr:city": "bangalore",
        "addr:postcode": "560064",
        "addr:street": "susheelamma layout",
        "amenity": "place_of_worship",
        "denomination": "hindu",
        "name": "Ganesha Shrine",
        "name:kn": "ಗಣೇಶ ಗುಡಿ",
        "religion": "hindu"
      }
    },
    {
      "type": "node",
      "id": 5000226091,
      "lat": 13.1143086,
      "lon": 77.5791243,
      "tags": {
        "addr:city": "bangalore",
        "addr:housenumber": "SH-9",
        "addr:postcode": "560064",
        "addr:street": "Doddaballapur Road",
        "amenity": "place_of_worship",
        "denomination": "hindu",
        "name": "Shri Anjaneya shrine",
        "name:kn": "ಅಂಜನೆಯ ಗುಡಿ",
        "religion": "hindu"
      }
    },
    {
      "type": "node",
      "id": 5964485854,
      "lat": 13.1034453,
      "lon": 77.5843576,
      "tags": {
        "amenity": "cafe",
        "brand": "Cafe Coffee Day",
        "brand:wikidata": "Q5017235",
        "cuisine": "coffee_shop",
        "indoor_seating": "yes",
        "name": "Cafe Coffee Day",
        "name:kn": "ಕಫೆ ಕಾಫಿ ಡೇ",
        "outdoor_seating": "no",
        "takeaway": "yes"
      }
    },
    {
      "type": "node",
      "id": 6938775815,
      "lat": 13.103924,
      "lon": 77.5837862,
      "tags": {
        "addr:district": "Bengaluru Urban",
        "addr:full": "No.32/1, Maruthi Complex,M S Nagar Bus Stop,Banaswadi Road",
        "addr:postcode": "560083",
        "addr:state": "Karnataka",
        "amenity": "hospital",
        "name": "Apple Hospital",
        "source": "OpenGovernmentData"
      }
    },
    {
      "type": "node",
      "id": 7220757469,
      "lat": 13.1035707,
      "lon": 77.5841725,
      "tags": {
        "amenity": "fast_food",
        "diet:vegetarian": "only",
        "indoor_seating": "yes",
        "name": "New Udupi Veg",
        "outdoor_seating": "yes"
      }
    },
    {
      "type": "node",
      "id": 7220757470,
      "lat": 13.1037262,
      "lon": 77.5840102,
      "tags": {
        "amenity": "fast_food",
        "indoor_seating": "yes",
        "name": "Biryani Zone",
        "outdoor_seating": "no"
      }
    },
    {
      "type": "node",
      "id": 7230029017,
      "lat": 13.1192444,
      "lon": 77.5803637,
      "tags": {
        "amenity": "parking"
      }
    },
    {
      "type": "node",
      "id": 7230029034,
      "lat": 13.116341,
      "lon": 77.5781161,
      "tags": {
        "amenity": "restaurant",
        "name": "3 Peg Bar and Restaurant",
        "name:kn": "3 ಪೆಗ್ ಬಾರ್ ಮತ್ತು ರೆಸ್ಟೋರೆಂಟ್",
        "wheelchair": "limited"
      }
    },
    {
      "type": "node",
      "id": 7230029088,
      "lat": 13.1143831,
      "lon": 77.5789408,
      "tags": {
        "name": "Just Bake",
        "shop": "bakery"
      }
    },
    {
      "type": "node",
      "id": 7230029089,
      "lat": 13.1140618,
      "lon": 77.5789194,
      "tags": {
        "name": "Royal Mart",
        "shop": "supermarket"
      }
    },
    {
      "type": "node",
      "id": 7579683187,
      "lat": 13.103358,
      "lon": 77.576052,
      "tags": {
        "addr:district": "Bengaluru Urban",
        "addr:full": "Yelahanka New Town, Bengaluru",
        "addr:postcode": "560064",
        "addr:state": "Karnataka",
        "amenity": "clinic",
        "name": "Apex Poly Clinic",
        "source": "Local Knowledge"
      }
    },
    {
      "type": "node",
      "id": 7579683203,
      "lat": 13.1039081,
      "lon": 77.5754898,
      "tags": {
        "addr:district": "Bengaluru Urban",
        "addr:full": "Yelahanka New Town, Bengaluru",
        "addr:postcode": "560064",
        "addr:state": "Karnataka",
        "amenity": "hospital",
        "name": "Bengalure Hospital",
        "source": "Local Knowledge"
      }
    },
    {
      "type": "node",
      "id": 7579683238,
      "lat": 13.1033688,
      "lon": 77.576326,
      "tags": {
        "addr:district": "Bengaluru Urban",
        "addr:full": "Yelahanka New Town, Bengaluru",
        "addr:postcode": "560064",
        "addr:state": "Karnataka",
        "amenity": "clinic",
        "name": "Srividya Clinic",
        "source": "Local Knowledge"
      }
    },
    {
      "type": "node",
      "id": 7579683241,
      "lat": 13.1036671,
      "lon": 77.5754256,
      "tags": {
        "addr:district": "Bengaluru Urban",
        "addr:full": "Yelahanka New Town, Bengaluru",
        "addr:postcode": "560064",
        "addr:state": "Karnataka",
        "amenity": "clinic",
        "name": "SB Clinic",
        "source": "Local Knowledge"
      }
    },
    {
      "type": "node",
      "id": 7579683250,
      "lat": 13.1035061,
      "lon": 77.5766997,
      "tags": {
        "addr:district": "Bengaluru Urban",
        "addr:full": "RWF West Colony, Yelahanka New Town, Bengaluru",
        "addr:postcode": "560064",
        "addr:state": "Karnataka",
        "amenity": "clinic",
        "name": "Mathru Clinic",
        "source": "Local Knowledge"
      }
    },
    {
      "type": "node",
      "id": 9689128396,
      "lat": 13.1039315,
      "lon": 77.5743994,
      "tags": {
        "name": "Kavery departmental stores",
        "opening_hours": "Mo-Su 08:00-22:00",
        "shop": "ration"
      }
    },
    {
      "type": "node",
      "id": 9689128397,
      "lat": 13.1039255,
      "lon": 77.574425,
      "tags": {
        "name": "Sri balaji home appliances",
        "opening_hours": "Mo-Su 08:30-22:00",
        "shop": "appliance"
      }
    },
    {
      "type": "node",
      "id": 9689136422,
      "lat": 13.1039426,
      "lon": 77.5745021,
      "tags": {
        "name": "Manasi stationers",
        "opening_hours": "Mo-Su 07:45-21:30",
        "shop": "stationery"
      }
    },
    {
      "type": "node",
      "id": 9689162968,
      "lat": 13.103914,
      "lon": 77.5745396,
      "tags": {
        "name": "Lucky fancy stores",
        "opening_hours": "Mo-Su 09:00-22:00",
        "shop": "gift"
      }
    },
    {
      "type": "node",
      "id": 9689162969,
      "lat": 13.1038871,
      "lon": 77.5745656,
      "tags": {
        "name": "Rang women's wear",
        "opening_hours": "Mo-Su 12:30-20:00",
        "shop": "clothes"
      }
    },
    {
      "type": "node",
      "id": 9689162970,
      "lat": 13.1038785,
      "lon": 77.5746462,
      "tags": {
        "name": "Sri muneshwara flour mill",
        "opening_hours": "Mo-Su 08:30-13:30, 15:00-21:00",
        "shop": "yes"
      }
    },
    {
      "type": "node",
      "id": 9689162971,
      "lat": 13.1038287,
      "lon": 77.5746321,
      "tags": {
        "name": "Mangal jewellers",
        "opening_hours": "Mo-Su 08:30-14:00, 15:00-21:30",
        "shop": "jewelry"
      }
    },
    {
      "type": "node",
      "id": 9689162972,
      "lat": 13.1038853,
      "lon": 77.5747217,
      "tags": {
        "name": "Sri Banashankari alteration trailer",
        "opening_hours": "Mo-Sa 09:00-13:30, 14:30-21:30",
        "shop": "tailor"
      }
    },
    {
      "type": "node",
      "id": 9689162973,
      "lat": 13.1038905,
      "lon": 77.5747344,
      "tags": {
        "amenity": "photo_booth",
        "name": "Ambika digital studio and video"
      }
    },
    {
      "type": "node",
      "id": 9689162974,
      "lat": 13.1038323,
      "lon": 77.5747509,
      "tags": {
        "name": "Dairy Products",
        "opening_hours": "Mo-Su 06:00-22:00",
        "shop": "dairy"
      }
    },
    {
      "type": "node",
      "id": 9689162975,
      "lat": 13.1038224,
      "lon": 77.5747328,
      "tags": {
        "name": "Sri Manjunatha Fruits, vegetables and provision",
        "opening_hours": "Mo-Su 07:00-22:00",
        "shop": "yes"
      }
    },
    {
      "type": "node",
      "id": 9689162976,
      "lat": 13.1038303,
      "lon": 77.5747948,
      "tags": {
        "amenity": "fast_food",
        "cuisine": "fish_and_chips",
        "name": "Beereshwara Hot Chips",
        "opening_hours": "Mo-Su 09:00-23:30"
      }
    },
    {
      "type": "node",
      "id": 9689162977,
      "lat": 13.1038573,
      "lon": 77.5748443,
      "tags": {
        "name": "Annaporneshwari",
        "opening_hours": "Mo-Su 06:30-22:00",
        "shop": "yes"
      }
    },
    {
      "type": "node",
      "id": 9689162978,
      "lat": 13.1038688,
      "lon": 77.5748633,
      "tags": {
        "name": "Balaji stationary arts",
        "opening_hours": "Mo-Su 07:30-21:45",
        "shop": "stationery"
      }
    },
    {
      "type": "node",
      "id": 9689162979,
      "lat": 13.1038174,
      "lon": 77.5748803,
      "tags": {
        "name": "Maharaja home appliances",
        "opening_hours": "Mo-Su 09:00-21:00",
        "shop": "appliance"
      }
    },
    {
      "type": "node",
      "id": 9689162980,
      "lat": 13.1038025,
      "lon": 77.5749664,
      "tags": {
        "name": "Traffic jam",
        "shop": "clothes"
      }
    },
    {
      "type": "node",
      "id": 9689162981,
      "lat": 13.1038576,
      "lon": 77.5749396,
      "tags": {
        "name": "Anvitha opticals",
        "shop": "optician"
      }
    },
    {
      "type": "node",
      "id": 9689162982,
      "lat": 13.1038491,
      "lon": 77.5749896,
      "tags": {
        "amenity": "pharmacy",
        "brand": "Apollo Pharmacy",
        "brand:wikidata": "Q62562612",
        "dispensing": "yes",
        "healthcare": "pharmacy",
        "name": "Apollo Pharmacy",
        "name:kn": "ಅಪೊಲೋ ಫಾರ್ಮಸಿ"
      }
    },
    {
      "type": "node",
      "id": 9689162983,
      "lat": 13.1038503,
      "lon": 77.5750357,
      "tags": {
        "name": "Suchin hairstyle",
        "shop": "hairdresser"
      }
    },
    {
      "type": "node",
      "id": 9689162984,
      "lat": 13.1038324,
      "lon": 77.5750971,
      "tags": {
        "name": "Venkateshwara enterprises",
        "shop": "copyshop"
      }
    },
    {
      "type": "node",
      "id": 9689162985,
      "lat": 13.1037916,
      "lon": 77.5750766,
      "tags": {
        "name": "Srinivasa electrical service",
        "shop": "electronics"
      }
    },
    {
      "type": "node",
      "id": 9689162986,
      "lat": 13.1038236,
      "lon": 77.5750781,
      "tags": {
        "name": "Devi akarsh ladies fashion",
        "shop": "tailor"
      }
    },
    {
      "type": "node",
      "id": 9689162987,
      "lat": 13.1037756,
      "lon": 77.5751479,
      "tags": {
        "name": "Vinayaka tailors",
        "shop": "tailor"
      }
    },
    {
      "type": "node",
      "id": 9689162988,
      "lat": 13.1037481,
      "lon": 77.5752539,
      "tags": {
        "name": "Shree benaka medical and general store",
        "shop": "chemist"
      }
    },
    {
      "type": "node",
      "id": 9689162989,
      "lat": 13.1037491,
      "lon": 77.5753387,
      "tags": {
        "amenity": "food_court",
        "name": "Thalassery restaurant"
      }
    },
    {
      "type": "node",
      "id": 9689162990,
      "lat": 13.1037228,
      "lon": 77.5755565,
      "tags": {
        "name": "klaize",
        "shop": "clothes"
      }
    },
    {
      "type": "node",
      "id": 9689162991,
      "lat": 13.1036369,
      "lon": 77.5756522,
      "tags": {
        "name": "Shri Lakshmi venkateshwar Iyengar bakery",
        "shop": "bakery"
      }
    },
    {
      "type": "node",
      "id": 10293914392,
      "lat": 13.1090384,
      "lon": 77.5803302,
      "tags": {
        "diet:vegetarian": "only",
        "name": "Simpli Namdhari's",
        "organic": "only",
        "shop": "supermarket",
        "website": "https://www.simplinamdharis.com/"
      }
    },
    {
      "type": "node",
      "id": 10558971057,
      "lat": 13.1038496,
      "lon": 77.5744911,
      "tags": {
        "amenity": "atm",
        "operator": "BOB",
        "source": "Eshwar"
      }
    },
    {
      "type": "node",
      "id": 10558971058,
      "lat": 13.1038454,
      "lon": 77.5745698,
      "tags": {
        "amenity": "atm",
        "operator": "ICICI",
        "source": "Eshwar"
      }
    },
    {
      "type": "node",
      "id": 10558971059,
      "lat": 13.1038674,
      "lon": 77.5749742,
      "tags": {
        "amenity": "pharmacy",
        "healthcare": "pharmacy",
        "name": "Apollo Pharmacy",
        "source": "Eshwar"
      }
    },
    {
      "type": "node",
      "id": 10558971060,
      "lat": 13.1037864,
      "lon": 77.5753327,
      "tags": {
        "amenity": "restaurant",
        "name": "Thalassery Restaurant",
        "source": "Eshwar"
      }
    },
    {
      "type": "node",
      "id": 10558971061,
      "lat": 13.1036729,
      "lon": 77.5756627,
      "tags": {
        "name": "Sri Lakshmi Venkateshwara Iyengar Bakery",
        "shop": "bakery",
        "source": "Eshwar"
      }
    },
    {
      "type": "node",
      "id": 10971500592,
      "lat": 13.1081782,
      "lon": 77.5801411,
      "tags": {
        "access": "permissive",
        "amenity": "parking_entrance",
        "parking": "underground"
      }
    },
    {
      "type": "node",
      "id": 11496780439,
      "lat": 13.1047037,
      "lon": 77.5770629,
      "tags": {
        "access": "yes",
        "amenity": "drinking_water",
        "bottle": "yes",
        "charge": "5 INR",
        "fee": "yes"
      }
    },
    {
      "type": "node",
      "id": 11496780440,
      "lat": 13.104773,
      "lon": 77.5770781,
      "tags": {
        "amenity": "marketplace",
        "check_date": "2024-01-07",
        "name": "Fruit and Vegetable Market"
      }
    },
    {
      "type": "node",
      "id": 11913889160,
      "lat": 13.1067029,
      "lon": 77.5766556,
      "tags": {
        "amenity": "fast_food",
        "indoor_seating": "yes",
        "name": "Santhosh Punjabi Dhaba",
        "outdoor_seating": "yes"
      }
    },
    {
      "type": "node",
      "id": 11913889161,
      "lat": 13.1067108,
      "lon": 77.5766194,
      "tags": {
        "name": "Manjushree Brahmalingeshwara Juice & Chats",
        "shop": "kiosk"
      }
    },
    {
      "type": "node",
      "id": 11913889223,
      "lat": 13.1062954,
      "lon": 77.5775528,
      "tags": {
        "name": "Vishal Mega Mart",
        "shop": "supermarket",
        "wheelchair": "yes"
      }
    },
    {
      "type": "node",
      "id": 11921193978,
      "lat": 13.1165088,
      "lon": 77.5769527,
      "tags": {
        "access": "private",
        "amenity": "parking_entrance",
        "parking": "underground"
      }
    },
    {
      "type": "node",
      "id": 11921193984,
      "lat": 13.1164167,
      "lon": 77.5760025,
      "tags": {
        "access": "private",
        "amenity": "parking_entrance",
        "parking": "underground"
      }
    },
    {
      "type": "node",
      "id": 12128997662,
      "lat": 13.1133093,
      "lon": 77.5748035,
      "tags": {
        "amenity": "place_of_worship",
        "check_date": "2025-04-11",
        "denomination": "reddy",
        "name": "Shiva Temple (Built by Ramakka)",
        "religion": "hindu"
      }
    },
    {
      "type": "node",
      "id": 12260569913,
      "lat": 13.1145947,
      "lon": 77.5778291,
      "tags": {
        "amenity": "restaurant",
        "name": "Aangan"
      }
    },
    {
      "type": "node",
      "id": 12260932569,
      "lat": 13.1053707,
      "lon": 77.5772403,
      "tags": {
        "amenity": "bank",
        "brand": "Karnataka Gramin Bank",
        "brand:wikidata": "Q24936908",
        "name": "Karnataka Gramin Bank"
      }
    },
    {
      "type": "node",
      "id": 12260941280,
      "lat": 13.1030045,
      "lon": 77.5767815,
      "tags": {
        "amenity": "pharmacy",
        "healthcare": "pharmacy",
        "name": "Netmeds"
      }
    },
    {
      "type": "node",
      "id": 12260942956,
      "lat": 13.102611,
      "lon": 77.5770172,
      "tags": {
        "amenity": "bank",
        "brand": "Bank of Maharashtra",
        "brand:wikidata": "Q2004304",
        "name": "Bank of Maharashtra"
      }
    },
    {
      "type": "node",
      "id": 12260949089,
      "lat": 13.1031397,
      "lon": 77.5767965,
      "tags": {
        "amenity": "pharmacy",
        "brand": "Apollo Pharmacy",
        "brand:wikidata": "Q62562612",
        "healthcare": "pharmacy",
        "name": "Apollo Pharmacy"
      }
    },
    {
      "type": "node",
      "id": 12260949090,
      "lat": 13.1025686,
      "lon": 77.5769976,
      "tags": {
        "amenity": "atm",
        "brand": "Bank of Maharashtra",
        "brand:wikidata": "Q2004304",
        "operator": "Bank of Maharashtra",
        "operator:wikidata": "Q2004304"
      }
    },
    {
      "type": "node",
      "id": 12260954252,
      "lat": 13.1038321,
      "lon": 77.5768311,
      "tags": {
        "amenity": "atm",
        "brand": "Canara Bank",
        "brand:en": "Canara Bank",
        "brand:hi": "केनरा बैंक",
        "brand:kn": "ಕೆನರಾ ಬ್ಯಾಂಕ್",
        "brand:pa": "ਕੇਨਰਾ ਬੈਂਕ",
        "brand:pnb": "کینرا بینک",
        "brand:ur": "کینرا بینک",
        "brand:wikidata": "Q2003777",
        "indoor": "yes",
        "name:en": "Canara Bank",
        "name:hi": "केनरा बैंक",
        "name:kn": "ಕೆನರಾ ಬ್ಯಾಂಕ್",
        "name:pa": "ਕੇਨਰਾ ਬੈਂਕ",
        "name:pnb": "کینرا بینک",
        "name:ur": "کینرا بینک",
        "operator": "Canara Bank",
        "operator:wikidata": "Q2003777"
      }
    },
    {
      "type": "node",
      "id": 12260975952,
      "lat": 13.1029053,
      "lon": 77.5770303,
      "tags": {
        "amenity": "pharmacy",
        "brand": "MedPlus",
        "brand:wikidata": "Q65684234",
        "healthcare": "pharmacy",
        "name": "MedPlus"
      }
    },
    {
      "type": "node",
      "id": 12260979906,
      "lat": 13.1022863,
      "lon": 77.5769775,
      "tags": {
        "amenity": "atm",
        "brand": "State Bank of India",
        "brand:wikidata": "Q1340361",
        "operator": "State Bank of India",
        "operator:wikidata": "Q1340361",
        "short_name": "SBI"
      }
    },
    {
      "type": "node",
      "id": 12412564737,
      "lat": 13.1079225,
      "lon": 77.5806948,
      "tags": {
        "check_date": "2024-11-29",
        "drive_through": "no",
        "internet_access": "no",
        "name": "Rajdhani Liquors",
        "payment:cash": "yes",
        "payment:credit_cards": "yes",
        "shop": "alcohol",
        "wheelchair": "no"
      }
    },
    {
      "type": "node",
      "id": 12473385240,
      "lat": 13.1036395,
      "lon": 77.5753829,
      "tags": {
        "amenity": "cafe",
        "check_date": "2025-01-04",
        "cuisine": "coffee_shop",
        "name": "The Bon Coffee"
      }
    },
    {
      "type": "node",
      "id": 12475125696,
      "lat": 13.1051029,
      "lon": 77.5846969,
      "tags": {
        "amenity": "fountain"
      }
    },
    {
      "type": "node",
      "id": 12475183767,
      "lat": 13.1070086,
      "lon": 77.5822775,
      "tags": {
        "amenity": "fountain"
      }
    },
    {
      "type": "node",
      "id": 12632035896,
      "lat": 13.1090044,
      "lon": 77.5802122,
      "tags": {
        "amenity": "restaurant",
        "name": "Shukra Dine"
      }
    },
    {
      "type": "node",
      "id": 12632035897,
      "lat": 13.1090867,
      "lon": 77.5802082,
      "tags": {
        "amenity": "restaurant",
        "name": "ON DE Roof"
      }
    },
    {
      "type": "node",
      "id": 12800684805,
      "lat": 13.1055878,
      "lon": 77.5751755,
      "tags": {
        "name": "Laundry Warehouse",
        "shop": "laundry"
      }
    },
    {
      "type": "node",
      "id": 12800684806,
      "lat": 13.1057106,
      "lon": 77.5744761,
      "tags": {
        "shop": "supermarket"
      }
    },
    {
      "type": "way",
      "id": 41206233,
      "center": {
        "lat": 13.1011886,
        "lon": 77.5804561
      },
      "tags": {
        "access": "private",
        "leisure": "stadium",
        "name": "RWF Colony Stadium"
      }
    },
    {
      "type": "way",
      "id": 41206237,
      "center": {
        "lat": 13.1024411,
        "lon": 77.5835391
      },
      "tags": {
        "alt_name": "Aditi School",
        "amenity": "school",
        "landuse": "education",
        "name": "Mallya Aditi International School",
        "short_name": "MAIS",
        "start_date": "1984",
        "wikidata": "Q6744335",
        "wikipedia": "en:Mallya Aditi International School"
      }
    },
    {
      "type": "way",
      "id": 82432632,
      "center": {
        "lat": 13.1041114,
        "lon": 77.5829963
      },
      "tags": {
        "addr:district": "Bengaluru Urban",
        "addr:full": "Yelahanka",
        "addr:postcode": "560064",
        "addr:state": "Karnataka",
        "amenity": "hospital",
        "healthcare": "hospital",
        "name": "Railways Hospital",
        "name:kn": "ರೈಲ್ವೇ ಆಸ್ಪತ್ರೆ",
        "source": "OpenGovernmentData"
      }
    },
    {
      "type": "way",
      "id": 82432642,
      "center": {
        "lat": 13.1027468,
        "lon": 77.5801742
      },
      "tags": {
        "amenity": "school",
        "brand": "Kendriya Vidyalaya",
        "brand:wikidata": "Q1156653",
        "name": "Kendriya Vidyalaya - RWF",
        "operator:type": "government_non_profit"
      }
    },
    {
      "type": "way",
      "id": 82432659,
      "center": {
        "lat": 13.1024188,
        "lon": 77.5835089
      },
      "tags": {
        "access": "private",
        "leisure": "pitch",
        "name": "MAIS Astroturf Ground",
        "operator": "Mallya Aditi International School",
        "operator:type": "school",
        "sport": "soccer;field_hockey",
        "surface": "artificial_turf"
      }
    },
    {
      "type": "way",
      "id": 82432695,
      "center": {
        "lat": 13.1046976,
        "lon": 77.5831761
      },
      "tags": {
        "leisure": "park"
      }
    },
    {
      "type": "way",
      "id": 82436961,
      "center": {
        "lat": 13.1025091,
        "lon": 77.5846333
      },
      "tags": {
        "amenity": "college",
        "name": "National Insittute of Public Cooperation and Child Development"
      }
    },
    {
      "type": "way",
      "id": 82436974,
      "center": {
        "lat": 13.1023296,
        "lon": 77.585574
      },
      "tags": {
        "leisure": "park"
      }
    },
    {
      "type": "way",
      "id": 133125287,
      "center": {
        "lat": 13.1184672,
        "lon": 77.575678
      },
      "tags": {
        "addr:street": "Doddaballapur Road",
        "amenity": "school",
        "name": "Kendriya Vidyalaya CRPF",
        "name:kn": "ಕೇಂದ್ರಿಯ ವಿದ್ಯಾಲಯ"
      }
    },
    {
      "type": "way",
      "id": 346190765,
      "center": {
        "lat": 13.1056278,
        "lon": 77.5772997
      },
      "tags": {
        "alt_name": "SLV Prasad Hospital (A Unit of Sri Lakshmi Venkateshwara Hospitals Pvt Ltd)",
        "amenity": "hospital",
        "building": "yes",
        "healthcare": "hospital",
        "name": "Sri Lakshmi Venkateshwara Hospital",
        "name:kn": "ಶ್ರೀ ಲಕ್ಷ್ಮೀ ವೆಂಕಟೇಶ್ವರ ಆಸ್ಪತ್ರೆ"
      }
    },
    {
      "type": "way",
      "id": 359408162,
      "center": {
        "lat": 13.1069246,
        "lon": 77.5733363
      },
      "tags": {
        "leisure": "park",
        "name": "Yelahanka 5th Phase Park",
        "name:en": "Yelahanka 5th Phase Park",
        "operator": "BBMP"
      }
    },
    {
      "type": "way",
      "id": 366003309,
      "center": {
        "lat": 13.1032469,
        "lon": 77.5767627
      },
      "tags": {
        "building": "commercial",
        "name": "VENKATADRI XTREME SPORTS",
        "shop": "sports"
      }
    },
    {
      "type": "way",
      "id": 366920115,
      "center": {
        "lat": 13.1069023,
        "lon": 77.5732638
      },
      "tags": {
        "amenity": "shelter",
        "shelter_type": "gazebo"
      }
    },
    {
      "type": "way",
      "id": 412909365,
      "center": {
        "lat": 13.1057293,
        "lon": 77.5725276
      },
      "tags": {
        "amenity": "bus_station",
        "name": "Yelahanka Satellite Town",
        "name:kn": "ಯಲಹಂಕ ಉಪಗ್ರಹ ಪಟ್ಟಣ"
      }
    },
    {
      "type": "way",
      "id": 628258487,
      "center": {
        "lat": 13.1166813,
        "lon": 77.5760199
      },
      "tags": {
        "leisure": "swimming_pool"
      }
    },
    {
      "type": "way",
      "id": 628258488,
      "center": {
        "lat": 13.1172702,
        "lon": 77.5761464
      },
      "tags": {
        "leisure": "swimming_pool"
      }
    },
    {
      "type": "way",
      "id": 677359656,
      "center": {
        "lat": 13.1071462,
        "lon": 77.5723658
      },
      "tags": {
        "leisure": "park"
      }
    },
    {
      "type": "way",
      "id": 677360041,
      "center": {
        "lat": 13.103928,
        "lon": 77.5761507
      },
      "tags": {
        "leisure": "park"
      }
    },
    {
      "type": "way",
      "id": 677360043,
      "center": {
        "lat": 13.1029938,
        "lon": 77.5776406
      },
      "tags": {
        "leisure": "park"
      }
    },
    {
      "type": "way",
      "id": 677360546,
      "center": {
        "lat": 13.1011261,
        "lon": 77.5787442
      },
      "tags": {
        "leisure": "park"
      }
    },
    {
      "type": "way",
      "id": 677360549,
      "center": {
        "lat": 13.1048363,
        "lon": 77.5765128
      },
      "tags": {
        "leisure": "park"
      }
    },
    {
      "type": "way",
      "id": 766720031,
      "center": {
        "lat": 13.1189023,
        "lon": 77.5793208
      },
      "tags": {
        "leisure": "swimming_pool"
      }
    },
    {
      "type": "way",
      "id": 773577275,
      "center": {
        "lat": 13.1036126,
        "lon": 77.5837987
      },
      "tags": {
        "addr:postcode": "560064",
        "addr:state": "Karnataka",
        "addr:street": "3rd B Cross Road",
        "amenity": "hospital",
        "building": "hospital",
        "check_date": "2024-12-25",
        "name": "Navachethana Hospital",
        "source": "local knowledge",
        "wheelchair": "yes"
      }
    },
    {
      "type": "way",
      "id": 773577280,
      "center": {
        "lat": 13.1089877,
        "lon": 77.5813237
      },
      "tags": {
        "alt_name": "Kalyana Mantapa",
        "amenity": "community_centre",
        "name": "Utsava Convention Hall"
      }
    },
    {
      "type": "way",
      "id": 774954554,
      "center": {
        "lat": 13.1193345,
        "lon": 77.579716
      },
      "tags": {
        "leisure": "garden"
      }
    },
    {
      "type": "way",
      "id": 774954563,
      "center": {
        "lat": 13.1145189,
        "lon": 77.5783112
      },
      "tags": {
        "leisure": "garden"
      }
    },
    {
      "type": "way",
      "id": 774954564,
      "center": {
        "lat": 13.1144598,
        "lon": 77.5778666
      },
      "tags": {
        "access": "customers",
        "leisure": "swimming_pool"
      }
    },
    {
      "type": "way",
      "id": 774954565,
      "center": {
        "lat": 13.1145392,
        "lon": 77.5779081
      },
      "tags": {
        "amenity": "community_centre",
        "landuse": "commercial",
        "leisure": "resort",
        "name": "Ramanashree California Resort",
        "website": "https://www.ramanashree.com/"
      }
    },
    {
      "type": "way",
      "id": 1053846098,
      "center": {
        "lat": 13.1052446,
        "lon": 77.5738674
      },
      "tags": {
        "leisure": "park"
      }
    },
    {
      "type": "way",
      "id": 1053846099,
      "center": {
        "lat": 13.1051287,
        "lon": 77.5748545
      },
      "tags": {
        "leisure": "park"
      }
    },
    {
      "type": "way",
      "id": 1181417661,
      "center": {
        "lat": 13.108329,
        "lon": 77.579839
      },
      "tags": {
        "access": "permissive",
        "amenity": "parking",
        "parking": "surface"
      }
    },
    {
      "type": "way",
      "id": 1181417667,
      "center": {
        "lat": 13.1076379,
        "lon": 77.5798826
      },
      "tags": {
        "leisure": "park"
      }
    },
    {
      "type": "way",
      "id": 1181417669,
      "center": {
        "lat": 13.1077636,
        "lon": 77.5797492
      },
      "tags": {
        "access": "permissive",
        "leisure": "swimming_pool"
      }
    },
    {
      "type": "way",
      "id": 1181417676,
      "center": {
        "lat": 13.1086459,
        "lon": 77.5803597
      },
      "tags": {
        "amenity": "animal_shelter",
        "animal_shelter": "mammal",
        "landuse": "recreation_ground",
        "name": "Cow Shed",
        "natural": "scrub"
      }
    },
    {
      "type": "way",
      "id": 1182880586,
      "center": {
        "lat": 13.1166792,
        "lon": 77.5800714
      },
      "tags": {
        "amenity": "hospital",
        "name": "KPTCL Hospital Yelahanka"
      }
    },
    {
      "type": "way",
      "id": 1182962298,
      "center": {
        "lat": 13.1115981,
        "lon": 77.5747091
      },
      "tags": {
        "leisure": "park"
      }
    },
    {
      "type": "way",
      "id": 1191456546,
      "center": {
        "lat": 13.1128294,
        "lon": 77.5893182
      },
      "tags": {
        "amenity": "shelter",
        "building": "yes",
        "shelter_type": "gazebo"
      }
    },
    {
      "type": "way",
      "id": 1224939075,
      "center": {
        "lat": 13.1026529,
        "lon": 77.583251
      },
      "tags": {
        "access": "private",
        "leisure": "sports_centre",
        "name": "MAIS Indoor Pool",
        "operator": "Mallya Aditi International School",
        "operator:type": "school",
        "sport": "swimming"
      }
    },
    {
      "type": "way",
      "id": 1224939076,
      "center": {
        "lat": 13.1022765,
        "lon": 77.5831761
      },
      "tags": {
        "access": "private",
        "hoops": "2",
        "leisure": "pitch",
        "name": "MAIS Indoor Basketball Court",
        "operator": "Mallya Aditi International School",
        "operator:type": "school",
        "sport": "basketball"
      }
    },
    {
      "type": "way",
      "id": 1231891888,
      "center": {
        "lat": 13.1024339,
        "lon": 77.5814996
      },
      "tags": {
        "access": "private",
        "leisure": "pitch",
        "sport": "tennis"
      }
    },
    {
      "type": "way",
      "id": 1231892096,
      "center": {
        "lat": 13.1069896,
        "lon": 77.5821817
      },
      "tags": {
        "leisure": "garden"
      }
    },
    {
      "type": "way",
      "id": 1238373962,
      "center": {
        "lat": 13.1105693,
        "lon": 77.5803939
      },
      "tags": {
        "leisure": "park"
      }
    },
    {
      "type": "way",
      "id": 1238373981,
      "center": {
        "lat": 13.1075552,
        "lon": 77.5799961
      },
      "tags": {
        "leisure": "playground"
      }
    },
    {
      "type": "way",
      "id": 1238373982,
      "center": {
        "lat": 13.1075588,
        "lon": 77.5797447
      },
      "tags": {
        "leisure": "playground"
      }
    },
    {
      "type": "way",
      "id": 1238374188,
      "center": {
        "lat": 13.1049348,
        "lon": 77.5755327
      },
      "tags": {
        "leisure": "park",
        "name": "4th Phase 707 Park",
        "opening_hours": "24/7",
        "operator": "Municipality"
      }
    },
    {
      "type": "way",
      "id": 1253477223,
      "center": {
        "lat": 13.1187138,
        "lon": 77.5790869
      },
      "tags": {
        "leisure": "pitch",
        "sport": "tennis"
      }
    },
    {
      "type": "way",
      "id": 1284295423,
      "center": {
        "lat": 13.106636,
        "lon": 77.5760105
      },
      "tags": {
        "leisure": "park"
      }
    },
    {
      "type": "way",
      "id": 1284355556,
      "center": {
        "lat": 13.1032882,
        "lon": 77.5756062
      },
      "tags": {
        "leisure": "park"
      }
    },
    {
      "type": "way",
      "id": 1284355583,
      "center": {
        "lat": 13.1029415,
        "lon": 77.5763875
      },
      "tags": {
        "leisure": "park"
      }
    },
    {
      "type": "way",
      "id": 1284378263,
      "center": {
        "lat": 13.1059403,
        "lon": 77.5747035
      },
      "tags": {
        "leisure": "park"
      }
    },
    {
      "type": "way",
      "id": 1284808041,
      "center": {
        "lat": 13.1058754,
        "lon": 77.5763786
      },
      "tags": {
        "leisure": "park"
      }
    },
    {
      "type": "way",
      "id": 1284811175,
      "center": {
        "lat": 13.104306,
        "lon": 77.5746053
      },
      "tags": {
        "leisure": "park"
      }
    },
    {
      "type": "way",
      "id": 1285043072,
      "center": {
        "lat": 13.1181849,
        "lon": 77.5766007
      },
      "tags": {
        "access": "permissive",
        "amenity": "parking",
        "parking": "surface"
      }
    },
    {
      "type": "way",
      "id": 1285043073,
      "center": {
        "lat": 13.1177446,
        "lon": 77.5769259
      },
      "tags": {
        "leisure": "pitch",
        "sport": "basketball"
      }
    },
    {
      "type": "way",
      "id": 1285043177,
      "center": {
        "lat": 13.1165088,
        "lon": 77.5767897
      },
      "tags": {
        "access": "permissive",
        "amenity": "parking",
        "parking": "surface"
      }
    },
    {
      "type": "way",
      "id": 1285043178,
      "center": {
        "lat": 13.1164032,
        "lon": 77.5753589
      },
      "tags": {
        "access": "permissive",
        "amenity": "parking",
        "parking": "surface"
      }
    },
    {
      "type": "way",
      "id": 1293453167,
      "center": {
        "lat": 13.1069571,
        "lon": 77.5735682
      },
      "tags": {
        "leisure": "playground"
      }
    },
    {
      "type": "way",
      "id": 1323789400,
      "center": {
        "lat": 13.1074572,
        "lon": 77.5761591
      },
      "tags": {
        "amenity": "prep_school",
        "building": "yes",
        "name": "Allen Career Institute",
        "operator:type": "private",
        "wheelchair": "yes"
      }
    },
    {
      "type": "way",
      "id": 1324940127,
      "center": {
        "lat": 13.1145168,
        "lon": 77.5770085
      },
      "tags": {
        "leisure": "pitch",
        "sport": "tennis"
      }
    },
    {
      "type": "way",
      "id": 1348650311,
      "center": {
        "lat": 13.1041965,
        "lon": 77.5848869
      },
      "tags": {
        "leisure": "garden"
      }
    },
    {
      "type": "way",
      "id": 1348650366,
      "center": {
        "lat": 13.1110495,
        "lon": 77.5802926
      },
      "tags": {
        "amenity": "place_of_worship",
        "landuse": "religious",
        "religion": "hindu"
      }
    },
    {
      "type": "way",
      "id": 1348650371,
      "center": {
        "lat": 13.1087079,
        "lon": 77.5810132
      },
      "tags": {
        "leisure": "garden"
      }
    },
    {
      "type": "way",
      "id": 1348650372,
      "center": {
        "lat": 13.109019,
        "lon": 77.5808986
      },
      "tags": {
        "leisure": "garden"
      }
    },
    {
      "type": "way",
      "id": 1348650373,
      "center": {
        "lat": 13.1093558,
        "lon": 77.5808619
      },
      "tags": {
        "access": "private",
        "amenity": "parking",
        "parking": "surface"
      }
    },
    {
      "type": "way",
      "id": 1348650383,
      "center": {
        "lat": 13.107419,
        "lon": 77.5820288
      },
      "tags": {
        "leisure": "garden"
      }
    },
    {
      "type": "way",
      "id": 1348650385,
      "center": {
        "lat": 13.1049579,
        "lon": 77.5841367
      },
      "tags": {
        "leisure": "garden"
      }
    },
    {
      "type": "way",
      "id": 1348650387,
      "center": {
        "lat": 13.1048985,
        "lon": 77.5846774
      },
      "tags": {
        "leisure": "garden"
      }
    },
    {
      "type": "way",
      "id": 1348650388,
      "center": {
        "lat": 13.1047065,
        "lon": 77.5850382
      },
      "tags": {
        "leisure": "garden"
      }
    },
    {
      "type": "way",
      "id": 1348650389,
      "center": {
        "lat": 13.1043753,
        "lon": 77.5850315
      },
      "tags": {
        "leisure": "garden"
      }
    },
    {
      "type": "way",
      "id": 1348650390,
      "center": {
        "lat": 13.1045542,
        "lon": 77.5846801
      },
      "tags": {
        "leisure": "garden"
      }
    },
    {
      "type": "way",
      "id": 1348650391,
      "center": {
        "lat": 13.1047325,
        "lon": 77.5843139
      },
      "tags": {
        "leisure": "garden"
      }
    },
    {
      "type": "way",
      "id": 1348650393,
      "center": {
        "lat": 13.1044269,
        "lon": 77.5843441
      },
      "tags": {
        "leisure": "garden"
      }
    },
    {
      "type": "way",
      "id": 1348650394,
      "center": {
        "lat": 13.1042958,
        "lon": 77.5842742
      },
      "tags": {
        "access": "private",
        "amenity": "parking",
        "parking": "surface"
      }
    },
    {
      "type": "way",
      "id": 1348650395,
      "center": {
        "lat": 13.1041324,
        "lon": 77.58466
      },
      "tags": {
        "access": "private",
        "amenity": "parking",
        "parking": "surface"
      }
    },
    {
      "type": "way",
      "id": 1348650420,
      "center": {
        "lat": 13.1066696,
        "lon": 77.5820577
      },
      "tags": {
        "leisure": "garden"
      }
    },
    {
      "type": "way",
      "id": 1365454967,
      "center": {
        "lat": 13.1077543,
        "lon": 77.5747848
      },
      "tags": {
        "amenity": "place_of_worship",
        "landuse": "religious",
        "name": "Shiva Temple",
        "name:kn": "ಶಿವ ದೇವಸ್ಥಾನ",
        "religion": "hindu"
      }
    },
    {
      "type": "way",
      "id": 1428234037,
      "center": {
        "lat": 13.1149517,
        "lon": 77.573367
      },
      "tags": {
        "description": "Retail Space where Goods of daily use is sold to Public",
        "landuse": "retail",
        "name": "KPN Fresh",
        "shop": "supermarket"
      }
    }
  ]
}