{
  "area_name": "Rajajinagar 4M Block",
  "osm_id": 11652617766,
  "osm_type": "node",
  "place_type": "neighbourhood",
  "amenity_count": 396,
  "amenities": [
    {
      "type": "node",
      "id": 446995814,
      "lat": 12.9907411,
      "lon": 77.5577577,
      "tags": {
        "amenity": "bar",
        "name": "Navarang Bar",
        "wheelchair": "no"
      }
    },
    {
      "type": "node",
      "id": 1348265190,
      "lat": 12.9827809,
      "lon": 77.5592036,
      "tags": {
        "addr:city": "Bengaluru",
        "addr:postcode": "560010",
        "addr:street": "1st Main Road",
        "name": "Total Superstore",
        "organic": "yes",
        "shop": "supermarket",
        "website": "http://www.totalsuperstore.com/"
      }
    },
    {
      "type": "node",
      "id": 1474821301,
      "lat": 12.9818644,
      "lon": 77.5488914,
      "tags": {
        "amenity": "place_of_worship",
        "name": "Hanuman Temple",
        "name:kn": "ಹನುಮಂತ ದೇವಸ್ಥಾನ",
        "religion": "hindu"
      }
    },
    {
      "type": "node",
      "id": 1474821306,
      "lat": 12.9822699,
      "lon": 77.5489012,
      "tags": {
        "amenity": "place_of_worship",
        "name": "Ganesha Temple",
        "name:kn": "ಗಣೇಶ ದೇವಸ್ಥಾನ",
        "religion": "hindu"
      }
    },
    {
      "type": "node",
      "id": 1474821308,
      "lat": 12.9831177,
      "lon": 77.5486996,
      "tags": {
        "amenity": "community_centre",
        "name": "Shivaprabha Kalyana Mantapa"
      }
    },
    {
      "type": "node",
      "id": 1474821311,
      "lat": 12.978954,
      "lon": 77.5493836,
      "tags": {
        "amenity": "bank",
        "brand": "State Bank of India",
        "brand:wikidata": "Q1340361",
        "brand:wikipedia": "en:State Bank of India",
        "name": "State Bank of India",
        "name:kn": "ಭಾರತೀಯ ಸ್ಟೇಟ್ ಬ್ಯಾಂಕ್",
        "short_name": "SBI",
        "website": "https://www.sbi.co.in"
      }
    },
    {
      "type": "node",
      "id": 1813501241,
      "lat": 12.9831416,
      "lon": 77.5593081,
      "tags": {
        "amenity": "fast_food",
        "brand": "Domino's",
        "brand:ks": "ڈومینوز",
        "brand:pa": "ਡੋਮੀਨੋਜ਼",
        "brand:ur": "ڈومینوز",
        "brand:wikidata": "Q839466",
        "brand:wikipedia": "en:Domino's Pizza",
        "cuisine": "pizza",
        "name": "Domino's",
        "name:kn": "ಡಾಮಿನೋಸ್",
        "name:ks": "ڈومینوز",
        "name:pa": "ਡੋਮੀਨੋਜ਼",
        "name:ur": "ڈومینوز",
        "takeaway": "yes"
      }
    },
    {
      "type": "node",
      "id": 1813501243,
      "lat": 12.9831807,
      "lon": 77.5597454,
      "tags": {
        "amenity": "fast_food",
        "brand": "McDonald's",
        "brand:pa": "ਮੈਕਡੋਨਲਡ’ਜ਼",
        "brand:ur": "مکڈونلڈز",
        "brand:wikidata": "Q38076",
        "brand:wikipedia": "en:McDonald's",
        "brand:wikipedia:pa": "ਮੈਕਡੋਨਲਡ’ਜ਼",
        "brand:wikipedia:ur": "مکڈونلڈز",
        "cuisine": "burger",
        "name": "McDonald's",
        "name:kn": "ಮ್ಯಾಕ್‌ಡೊನಾಲ್ಡ್ಸ್",
        "name:pa": "ਮੈਕਡੋਨਲਡ’ਜ਼",
        "name:ur": "مکڈونلڈز",
        "takeaway": "yes"
      }
    },
    {
      "type": "node",
      "id": 2016215963,
      "lat": 12.9841172,
      "lon": 77.5600221,
      "tags": {
        "amenity": "fuel"
      }
    },
    {
      "type": "node",
      "id": 2016220393,
      "lat": 12.9779674,
      "lon": 77.5530323,
      "tags": {
        "amenity": "fast_food",
        "name": "Al-Bek chiken",
        "wheelchair": "no"
      }
    },
    {
      "type": "node",
      "id": 2016220426,
      "lat": 12.9799118,
      "lon": 77.5541722,
      "tags": {
        "amenity": "atm",
        "brand": "Canara Bank",
        "brand:en": "Canara Bank",
        "brand:hi": "केनरा बैंक",
        "brand:kn": "ಕೆನರಾ ಬ್ಯಾಂಕ್",
        "brand:pa": "ਕੇਨਰਾ ਬੈਂਕ",
        "brand:pnb": "کینرا بینک",
        "brand:ur": "کینرا بینک",
        "brand:wikidata": "Q2003777",
        "name": "Canara Bank",
        "name:en": "Canara Bank",
        "name:hi": "केनरा बैंक",
        "name:kn": "ಕೆನರಾ ಬ್ಯಾಂಕ್",
        "name:pa": "ਕੇਨਰਾ ਬੈਂਕ",
        "name:pnb": "کینرا بینک",
        "name:ur": "کینرا بینک",
        "operator": "Canara Bank",
        "operator:wikidata": "Q2003777",
        "wheelchair": "no"
      }
    },
    {
      "type": "node",
      "id": 2016220471,
      "lat": 12.9784169,
      "lon": 77.5531691,
      "tags": {
        "name": "Spiritz Zone",
        "shop": "alcohol",
        "wheelchair": "no"
      }
    },
    {
      "type": "node",
      "id": 2016220474,
      "lat": 12.9754685,
      "lon": 77.5525146,
      "tags": {
        "name": "Kadamba Sports",
        "shop": "toys",
        "wheelchair": "no"
      }
    },
    {
      "type": "node",
      "id": 2249048755,
      "lat": 12.9877059,
      "lon": 77.5596356,
      "tags": {
        "amenity": "atm",
        "brand": "Citibank",
        "brand:wikidata": "Q857063",
        "name": "Citibank",
        "name:kn": "ಸಿಟಿಬ್ಯಾಂಕ್",
        "operator": "Citibank",
        "operator:wikidata": "Q857063",
        "short_name": "Citi"
      }
    },
    {
      "type": "node",
      "id": 2249052140,
      "lat": 12.9863548,
      "lon": 77.5603215,
      "tags": {
        "brand": "Honda",
        "brand:wikidata": "Q9584",
        "name": "Honda 2 Wheeler Service",
        "shop": "motorcycle"
      }
    },
    {
      "type": "node",
      "id": 2249053699,
      "lat": 12.9810568,
      "lon": 77.5583911,
      "tags": {
        "amenity": "fuel",
        "brand": "Indian Oil",
        "brand:wikidata": "Q1289348",
        "brand:wikipedia": "en:Indian Oil Corporation",
        "name": "Indian Oil",
        "name:kn": "ಇಂಡಿಯನ್ ಆಯಿಲ್",
        "wheelchair": "yes"
      }
    },
    {
      "type": "node",
      "id": 2249055949,
      "lat": 12.9800113,
      "lon": 77.5566101,
      "tags": {
        "amenity": "school",
        "name": "St Ann's School",
        "name:kn": "ಸೆಂಟ್ ಆನ್ಸ್ ಶಾಲೆ",
        "wheelchair": "no"
      }
    },
    {
      "type": "node",
      "id": 2249058820,
      "lat": 12.9776695,
      "lon": 77.5553656,
      "tags": {
        "amenity": "school",
        "name": "St Mira's School"
      }
    },
    {
      "type": "node",
      "id": 2271424244,
      "lat": 12.9842531,
      "lon": 77.5492418,
      "tags": {
        "name": "Girias",
        "shop": "hifi"
      }
    },
    {
      "type": "node",
      "id": 2293249618,
      "lat": 12.9843055,
      "lon": 77.5537764,
      "tags": {
        "addr:city": "Bangalore",
        "addr:postcode": "560079",
        "addr:street": "60th Cross Road",
        "alt_name": "A2B",
        "amenity": "restaurant",
        "brand": "Adyar Ananda Bhavan",
        "brand:wikidata": "Q15178238",
        "cuisine": "regional",
        "diet:vegetarian": "only",
        "name": "Adyar Ananda Bhavan",
        "name:kn": "ಆದ್ಯಾರ್ ಆನಂದ ಭವನ",
        "operator": "Adyar Ananda Bhavan",
        "phone": "+91 80 4212 3599",
        "smoking": "no",
        "website": "https://aabsweets.com",
        "wheelchair": "no"
      }
    },
    {
      "type": "node",
      "id": 2513711691,
      "lat": 12.9829933,
      "lon": 77.5593852,
      "tags": {
        "addr:city": "Bangalore",
        "addr:street": "Dr Rajkumar Road",
        "name": "FBB",
        "name:en": "Fashion at Big Bazar",
        "shop": "clothes",
        "wheelchair": "no"
      }
    },
    {
      "type": "node",
      "id": 2513711694,
      "lat": 12.9778758,
      "lon": 77.5529801,
      "tags": {
        "name": "Sangeetha Mobiles",
        "shop": "mobile_phone"
      }
    },
    {
      "type": "node",
      "id": 2513711696,
      "lat": 12.9801967,
      "lon": 77.5543695,
      "tags": {
        "addr:city": "Bangalore",
        "addr:housename": "Rajaji Nagar 5th Block",
        "addr:street": "Dr Rajkumar Road",
        "name": "The Raymond Shop",
        "shop": "clothes",
        "wheelchair": "limited"
      }
    },
    {
      "type": "node",
      "id": 2554302336,
      "lat": 12.9843805,
      "lon": 77.5558016,
      "tags": {
        "amenity": "community_centre",
        "name": "KTSVS Rajatha Mahotsava Samudaaya Bhavana"
      }
    },
    {
      "type": "node",
      "id": 2554302439,
      "lat": 12.9855811,
      "lon": 77.5556847,
      "tags": {
        "amenity": "cafe",
        "cuisine": "regional",
        "name": "Crane Crush"
      }
    },
    {
      "type": "node",
      "id": 2554302473,
      "lat": 12.9846268,
      "lon": 77.5558117,
      "tags": {
        "amenity": "bank",
        "atm": "yes",
        "brand": "State Bank of India",
        "brand:wikidata": "Q1340361",
        "brand:wikipedia": "en:State Bank of India",
        "name": "State Bank of India",
        "name:kn": "ಭಾರತೀಯ ಸ್ಟೇಟ್ ಬ್ಯಾಂಕ್",
        "short_name": "SBI"
      }
    },
    {
      "type": "node",
      "id": 2554302512,
      "lat": 12.9843701,
      "lon": 77.555666,
      "tags": {
        "amenity": "hospital",
        "name": "Pragathi Ayurvedic Center",
        "wheelchair": "no"
      }
    },
    {
      "type": "node",
      "id": 2774709473,
      "lat": 12.9855905,
      "lon": 77.5599798,
      "tags": {
        "name": "Suzuki 2 Wheelers",
        "shop": "motorcycle"
      }
    },
    {
      "type": "node",
      "id": 3209503890,
      "lat": 12.9895284,
      "lon": 77.5574083,
      "tags": {
        "name": "Nandini Milk Booth",
        "name:kn": "ನಂದಿನಿ ಹಾಲಿನ ಅಂಗಡಿ",
        "shop": "dairy"
      }
    },
    {
      "type": "node",
      "id": 3391134551,
      "lat": 12.9845372,
      "lon": 77.5543971,
      "tags": {
        "name": "Karthik Aquarium",
        "shop": "aquarium"
      }
    },
    {
      "type": "node",
      "id": 3391134552,
      "lat": 12.9894264,
      "lon": 77.5544249,
      "tags": {
        "name": "Vinutha Jewellers",
        "shop": "jewelry"
      }
    },
    {
      "type": "node",
      "id": 3391135055,
      "lat": 12.9852058,
      "lon": 77.5564437,
      "tags": {
        "amenity": "bank",
        "brand": "Axis Bank",
        "brand:wikidata": "Q2003549",
        "brand:wikipedia": "en:Axis Bank",
        "name": "Axis Bank",
        "name:en": "Axis Bank",
        "name:kn": "ಆಕ್ಸಿಸ್ ಬ್ಯಾಂಕ್",
        "website": "https://www.axisbank.com"
      }
    },
    {
      "type": "node",
      "id": 3391135056,
      "lat": 12.989866,
      "lon": 77.554497,
      "tags": {
        "name": "Mahesh Opticals",
        "shop": "optician"
      }
    },
    {
      "type": "node",
      "id": 3392655602,
      "lat": 12.9874289,
      "lon": 77.5541838,
      "tags": {
        "amenity": "bank",
        "brand": "State Bank of India",
        "brand:wikidata": "Q1340361",
        "name": "State Bank of India",
        "operator": "State Bank Of India",
        "short_name": "SBI"
      }
    },
    {
      "type": "node",
      "id": 3412354770,
      "lat": 12.9893163,
      "lon": 77.5570578,
      "tags": {
        "name": "Nandini General Stores",
        "shop": "general"
      }
    },
    {
      "type": "node",
      "id": 3412355482,
      "lat": 12.9893048,
      "lon": 77.5569651,
      "tags": {
        "building": "publishers",
        "name": "Bhavesh Publications Pvt Limited",
        "shop": "publi"
      }
    },
    {
      "type": "node",
      "id": 3412360994,
      "lat": 12.9896534,
      "lon": 77.5570551,
      "tags": {
        "name": "Artway tailors - Ladies and Gents",
        "shop": "tailor"
      }
    },
    {
      "type": "node",
      "id": 3412365834,
      "lat": 12.9893115,
      "lon": 77.5569048,
      "tags": {
        "name": "U S Chemicals",
        "shop": "yes"
      }
    },
    {
      "type": "node",
      "id": 3412377280,
      "lat": 12.9893195,
      "lon": 77.5568469,
      "tags": {
        "name": "Ganesh Jeans Alteration Center",
        "shop": "tailor"
      }
    },
    {
      "type": "node",
      "id": 3412384583,
      "lat": 12.9893684,
      "lon": 77.5574688,
      "tags": {
        "brand": "HOPCOMS",
        "brand:wikidata": "Q22908959",
        "name": "HOPCOMS",
        "name:kn": "ಹಾಪ್ ಕಾಮ್ಸ್",
        "shop": "greengrocer"
      }
    },
    {
      "type": "node",
      "id": 3412396638,
      "lat": 12.9893418,
      "lon": 77.5560549,
      "tags": {
        "name": "Marvel Abrasive Tools",
        "shop": "hardware"
      }
    },
    {
      "type": "node",
      "id": 3412397362,
      "lat": 12.9898332,
      "lon": 77.5561709,
      "tags": {
        "amenity": "cafe",
        "brand": "Cafe Coffee Day",
        "brand:wikidata": "Q5017235",
        "brand:wikipedia": "en:Café Coffee Day",
        "cuisine": "coffee_shop",
        "name": "Cafe Coffee Day",
        "name:kn": "ಕಫೆ ಕಾಫಿ ಡೇ",
        "takeaway": "yes",
        "wheelchair": "no"
      }
    },
    {
      "type": "node",
      "id": 3412398779,
      "lat": 12.989787,
      "lon": 77.5560235,
      "tags": {
        "building": "gymnasium",
        "leisure": "sports_centre",
        "name": "Body Flex Fitness Center and Gymnasium"
      }
    },
    {
      "type": "node",
      "id": 3412399008,
      "lat": 12.9893375,
      "lon": 77.5561073,
      "tags": {
        "amenity": "library",
        "name": "Just Books Lending Library",
        "wheelchair": "no"
      }
    },
    {
      "type": "node",
      "id": 3412399842,
      "lat": 12.9895832,
      "lon": 77.5560181,
      "tags": {
        "amenity": "clinic",
        "healthcare": "clinic",
        "name": "CKV Clinic"
      }
    },
    {
      "type": "node",
      "id": 3412401298,
      "lat": 12.9896302,
      "lon": 77.5560208,
      "tags": {
        "amenity": "pharmacy",
        "name": "Standard Medicals",
        "wheelchair": "no"
      }
    },
    {
      "type": "node",
      "id": 3412403085,
      "lat": 12.9894943,
      "lon": 77.5560074,
      "tags": {
        "name": "Khadi Gramodyog Bhavan",
        "shop": "clothes"
      }
    },
    {
      "type": "node",
      "id": 3412403732,
      "lat": 12.9894211,
      "lon": 77.556002,
      "tags": {
        "name": "Sri Manjunatha Condiments",
        "shop": "yes"
      }
    },
    {
      "type": "node",
      "id": 3412403797,
      "lat": 12.9894159,
      "lon": 77.556053,
      "tags": {
        "name": "Raikar Jewellery Works",
        "shop": "jewelry"
      }
    },
    {
      "type": "node",
      "id": 3412405288,
      "lat": 12.9893868,
      "lon": 77.5550414,
      "tags": {
        "name": "Classic Alteration Centre",
        "shop": "tailor"
      }
    },
    {
      "type": "node",
      "id": 3412406635,
      "lat": 12.9894133,
      "lon": 77.5560959,
      "tags": {
        "name": "Toddler's Den",
        "shop": "clothes"
      }
    },
    {
      "type": "node",
      "id": 3412406636,
      "lat": 12.9894159,
      "lon": 77.5561388,
      "tags": {
        "name": "Manju Dry Cleaners",
        "shop": "dry_cleaning"
      }
    },
    {
      "type": "node",
      "id": 3412411945,
      "lat": 12.9895753,
      "lon": 77.5545027,
      "tags": {
        "name": "Lidkar Leather Emporium",
        "shop": "shoes"
      }
    },
    {
      "type": "node",
      "id": 3412418277,
      "lat": 12.9894313,
      "lon": 77.554456,
      "tags": {
        "building": "company",
        "name": "Stella's Beauty Salon",
        "shop": "beauty"
      }
    },
    {
      "type": "node",
      "id": 3412443803,
      "lat": 12.9891535,
      "lon": 77.5550832,
      "tags": {
        "name": "Global Management Services",
        "shop": "services"
      }
    },
    {
      "type": "node",
      "id": 3412445610,
      "lat": 12.989273,
      "lon": 77.5551359,
      "tags": {
        "name": "Hi Tech Junction - Jeans Alteration",
        "shop": "tailor"
      }
    },
    {
      "type": "node",
      "id": 3412449880,
      "lat": 12.9893267,
      "lon": 77.5559106,
      "tags": {
        "name": "Om Ganesh Video Vision",
        "shop": "video"
      }
    },
    {
      "type": "node",
      "id": 3412449884,
      "lat": 12.9892765,
      "lon": 77.5559234,
      "tags": {
        "name": "Ganesh Enterprises",
        "shop": "stationery"
      }
    },
    {
      "type": "node",
      "id": 3412643476,
      "lat": 12.9892743,
      "lon": 77.5559849,
      "tags": {
        "amenity": "dentist",
        "building": "dentist",
        "name": "Kanva Dental Super Specialty Center"
      }
    },
    {
      "type": "node",
      "id": 3412647285,
      "lat": 12.9892332,
      "lon": 77.5559116,
      "tags": {
        "name": "Sun Stamps and Seals",
        "shop": "stamps"
      }
    },
    {
      "type": "node",
      "id": 3412649472,
      "lat": 12.9891936,
      "lon": 77.5559165,
      "tags": {
        "amenity": "clinic",
        "name": "Santosh Clinic - Family Physician"
      }
    },
    {
      "type": "node",
      "id": 3412651166,
      "lat": 12.9891599,
      "lon": 77.5559116,
      "tags": {
        "amenity": "pharmacy",
        "name": "Sairam Medicals and General Stores"
      }
    },
    {
      "type": "node",
      "id": 3412653247,
      "lat": 12.989107,
      "lon": 77.5559009,
      "tags": {
        "name": "Bombay Fashions - Ladies Tailors",
        "shop": "tailor"
      }
    },
    {
      "type": "node",
      "id": 3412653248,
      "lat": 12.9890068,
      "lon": 77.5559058,
      "tags": {
        "name": "Bhairav Jewellers",
        "shop": "jewelry"
      }
    },
    {
      "type": "node",
      "id": 3412653430,
      "lat": 12.9890694,
      "lon": 77.5558999,
      "tags": {
        "amenity": "bank",
        "atm": "yes",
        "brand": "Syndicate Bank",
        "brand:wikidata": "Q2004088",
        "building": "bank",
        "name": "Syndicate Bank",
        "name:en": "Syndicate Bank",
        "name:kn": "ಸಿಂಡಿಕೇಟ್ ಬ್ಯಾಂಕ್",
        "website": "https://www.syndicatebank.in"
      }
    },
    {
      "type": "node",
      "id": 3412656229,
      "lat": 12.9893325,
      "lon": 77.5559867,
      "tags": {
        "name": "Sri Maruti Air Travels",
        "shop": "travel_agency"
      }
    },
    {
      "type": "node",
      "id": 3412656370,
      "lat": 12.9893394,
      "lon": 77.5559942,
      "tags": {
        "name": "Sri Raghavendra Condiments",
        "shop": "convenience"
      }
    },
    {
      "type": "node",
      "id": 3412656669,
      "lat": 12.9891463,
      "lon": 77.5559752,
      "tags": {
        "name": "M N Tailors",
        "shop": "tailor"
      }
    },
    {
      "type": "node",
      "id": 3412659107,
      "lat": 12.9892592,
      "lon": 77.5559827,
      "tags": {
        "building": "services",
        "name": "Touch One Stop Repair Services - Laptop, Desktop, Tablet, Accessories",
        "shop": "electronics"
      }
    },
    {
      "type": "node",
      "id": 3412661323,
      "lat": 12.989092,
      "lon": 77.5559747,
      "tags": {
        "name": "Kailash Fashion Jewellery",
        "shop": "jewelry"
      }
    },
    {
      "type": "node",
      "id": 3412667183,
      "lat": 12.9891135,
      "lon": 77.5559765,
      "tags": {
        "amenity": "internet_cafe",
        "name": "A. Cyber Joint - Browsing Center"
      }
    },
    {
      "type": "node",
      "id": 3412667782,
      "lat": 12.9890532,
      "lon": 77.5559703,
      "tags": {
        "amenity": "dentist",
        "name": "Sangam Dental Center"
      }
    },
    {
      "type": "node",
      "id": 3412669259,
      "lat": 12.9890644,
      "lon": 77.5559708,
      "tags": {
        "name": "Sri Charan stores",
        "shop": "convenience"
      }
    },
    {
      "type": "node",
      "id": 3412672603,
      "lat": 12.9890834,
      "lon": 77.5559738,
      "tags": {
        "name": "Soundarya Beauty Parlour",
        "shop": "beauty"
      }
    },
    {
      "type": "node",
      "id": 3412675541,
      "lat": 12.9890052,
      "lon": 77.5559614,
      "tags": {
        "name": "Sri Manjunath Stores",
        "shop": "convenience"
      }
    },
    {
      "type": "node",
      "id": 3412676559,
      "lat": 12.9890226,
      "lon": 77.5559646,
      "tags": {
        "name": "Pradhan Jewellers",
        "shop": "jewelry"
      }
    },
    {
      "type": "node",
      "id": 3412677002,
      "lat": 12.9890135,
      "lon": 77.5559637,
      "tags": {
        "name": "Sri Balaji Agency",
        "shop": "travel_agency"
      }
    },
    {
      "type": "node",
      "id": 3412678729,
      "lat": 12.9890002,
      "lon": 77.5559632,
      "tags": {
        "name": "Mobile and More",
        "shop": "mobile_phone"
      }
    },
    {
      "type": "node",
      "id": 3412680703,
      "lat": 12.9889846,
      "lon": 77.555961,
      "tags": {
        "name": "Mamatha Jewels",
        "shop": "jewelry"
      }
    },
    {
      "type": "node",
      "id": 3412680704,
      "lat": 12.9889803,
      "lon": 77.5559601,
      "tags": {
        "name": "Gyan Exports",
        "shop": "clothes"
      }
    },
    {
      "type": "node",
      "id": 3412680774,
      "lat": 12.9889687,
      "lon": 77.555961,
      "tags": {
        "name": "Vishal Tea Company",
        "shop": "tea"
      }
    },
    {
      "type": "node",
      "id": 3412680901,
      "lat": 12.988954,
      "lon": 77.5559592,
      "tags": {
        "name": "Prasad Coffee Powder",
        "shop": "yes"
      }
    },
    {
      "type": "node",
      "id": 3412690280,
      "lat": 12.9904639,
      "lon": 77.5569256,
      "tags": {
        "amenity": "pharmacy",
        "healthcare": "pharmacy",
        "name": "Sri Prasamshi Medical Stores"
      }
    },
    {
      "type": "node",
      "id": 4443484964,
      "lat": 12.9898377,
      "lon": 77.5550568,
      "tags": {
        "addr:city": "bangalore",
        "addr:housenumber": "723/B",
        "addr:postcode": "560010",
        "addr:street": "11th Main Rd, 3rd Block, Rajaji Nagar",
        "amenity": "pharmacy",
        "healthcare": "pharmacy",
        "name": "Dr. Suresh's Dia Care",
        "phone": "080 2338 2867",
        "website": "drsureshdiacare.com"
      }
    },
    {
      "type": "node",
      "id": 4443494165,
      "lat": 12.9861471,
      "lon": 77.5598537,
      "tags": {
        "addr:city": "bangalore",
        "addr:housenumber": "403",
        "addr:postcode": "560010",
        "addr:street": "Dr. Rajkumar Road, 6th Block, 80 Feet Rd, 4th Block, Ramchandrapuram, Rajaji Nagar",
        "amenity": "pharmacy",
        "name": "Amrutha Medicals",
        "name:kn": "ಅಮೃತ ಮೆಡಿಕಲ್ಸ್",
        "phone": "080 2311 7929"
      }
    },
    {
      "type": "node",
      "id": 4443592306,
      "lat": 12.9882463,
      "lon": 77.5584271,
      "tags": {
        "addr:city": "bangalore",
        "addr:housenumber": "2/835/64/1",
        "addr:postcode": "560010",
        "addr:street": "4th Block, Amulya Corner, 3rd Main, 3rd Main Road, 4th Block, Rajaji Nagar",
        "amenity": "pharmacy",
        "name": "Nandhi Medical And General Stores",
        "phone": "080 2314 5334"
      }
    },
    {
      "type": "node",
      "id": 4445860418,
      "lat": 12.9834865,
      "lon": 77.5515572,
      "tags": {
        "addr:city": "Bangalore",
        "addr:housenumber": "3",
        "addr:postcode": "560010",
        "addr:street": "Near Bhashyam Circle Beauty Spot Park, 63rd & 64th Cross, 5th Block, Rajajinagar",
        "amenity": "school",
        "name": "East West Academy",
        "phone": "+91080 2315 7577",
        "website": "eastwestacademy.in"
      }
    },
    {
      "type": "node",
      "id": 4446271460,
      "lat": 12.9908258,
      "lon": 77.5578843,
      "tags": {
        "addr:city": "bangalore",
        "addr:housenumber": "1000",
        "addr:postcode": "560010",
        "addr:street": "4th Block, Dr Rajkumar Road,Rajajinagar",
        "amenity": "restaurant",
        "cuisine": "regional",
        "name": "Navarang Kabab Corner",
        "opening_hours": "12:00-15:00,18:30-22:00",
        "phone": "080 41487575",
        "website": "navrangkababkorner.in"
      }
    },
    {
      "type": "node",
      "id": 4446322676,
      "lat": 12.9903931,
      "lon": 77.5584441,
      "tags": {
        "addr:city": "bangalore",
        "addr:housenumber": "73",
        "addr:postcode": "560010",
        "addr:street": "Kantha Complex, Dr. Rajkumar Road, 3rd Stage, Rajajinaga",
        "amenity": "restaurant",
        "cuisine": "regional",
        "name": "Kudla beach",
        "opening_hours": "11:30-16:30,18:30-23:00",
        "phone": "080 32409844"
      }
    },
    {
      "type": "node",
      "id": 4446330574,
      "lat": 12.9758048,
      "lon": 77.5526524,
      "tags": {
        "addr:city": "bangalore",
        "addr:postcode": "560010",
        "addr:street": "6th Block, Dr Rajkumar Road, Rajajinagar",
        "amenity": "restaurant",
        "cuisine": "regional",
        "name": "Mayura andra style restaurant",
        "opening_hours": "11:30-16:00,18:30-23:00",
        "phone": "080-23506361,"
      }
    },
    {
      "type": "node",
      "id": 4446664412,
      "lat": 12.9881648,
      "lon": 77.5548179,
      "tags": {
        "addr:city": "bangalore",
        "addr:housenumber": "111",
        "addr:postcode": "560010",
        "addr:street": "West of Chord Road,, Opp Rajajinagar 1st Block Junction",
        "amenity": "hospital",
        "name": "Fortis Hospital",
        "name:kn": "ಫೋರ್ಟಿಸ್ ಆಸ್ಪತ್ರೆ",
        "phone": "080-2300-4444",
        "website": "fortisbangalore.com"
      }
    },
    {
      "type": "node",
      "id": 4446670981,
      "lat": 12.9883267,
      "lon": 77.5549712,
      "tags": {
        "addr:city": "bangalore",
        "addr:housenumber": "2",
        "addr:postcode": "560010",
        "addr:street": "46th cross, Rajajinagar 4th Block",
        "amenity": "pharmacy",
        "name": "Nandhi Medicals",
        "phone": "+91 80 2314 5334"
      }
    },
    {
      "type": "node",
      "id": 4446692224,
      "lat": 12.9898567,
      "lon": 77.5542305,
      "tags": {
        "addr:city": "Bangalore",
        "addr:housenumber": "955",
        "addr:postcode": "560010,",
        "addr:street": "3rd Block, Rajajinagar",
        "amenity": "pharmacy",
        "healthcare": "pharmacy",
        "name": "Sri Venkateshwara Medical & General Store",
        "phone": "+91 94491 68854"
      }
    },
    {
      "type": "node",
      "id": 4446701038,
      "lat": 12.9862636,
      "lon": 77.5575477,
      "tags": {
        "addr:city": "Bangalore",
        "addr:housenumber": "403",
        "addr:postcode": "560010",
        "addr:street": "Dr Rajkumar Road, Rajajinagar",
        "amenity": "pharmacy",
        "name": "Amrutha Medicals",
        "name:kn": "ಅಮೃತ ಮೆಡಿಕಲ್ಸ್",
        "phone": "+91 80 2311 7929"
      }
    },
    {
      "type": "node",
      "id": 4446968478,
      "lat": 12.9869612,
      "lon": 77.5602264,
      "tags": {
        "addr:city": "bangalore",
        "addr:housenumber": "2/10",
        "addr:postcode": "560010",
        "addr:street": "Dr Rajkumar Rd, 4N Block",
        "amenity": "pharmacy",
        "name": "Kanva Diagnostics",
        "phone": "+9180 2313 3840",
        "source": "www.yellowpages.co.in",
        "website": "https://kanvadiagnostic.com/"
      }
    },
    {
      "type": "node",
      "id": 4446986158,
      "lat": 12.9877039,
      "lon": 77.5530939,
      "tags": {
        "addr:city": "bangalore",
        "addr:housenumber": "13",
        "addr:postcode": "560003",
        "addr:street": ",2nd Main Rd, Malleshwaram",
        "amenity": "pharmacy",
        "name": "Sridhar Medicals",
        "phone": "080 2336 3765"
      }
    },
    {
      "type": "node",
      "id": 4446999695,
      "lat": 12.9887964,
      "lon": 77.5555474,
      "tags": {
        "addr:city": "Bangalore",
        "addr:housenumber": "2/835/64/1,",
        "addr:postcode": "560010",
        "addr:street": "4th Block, Rajaji Nagar",
        "amenity": "pharmacy",
        "name": "Nandhi Medicals",
        "phone": "+9180 2314 5334",
        "source": "www.justdial.com"
      }
    },
    {
      "type": "node",
      "id": 4447163944,
      "lat": 12.9878305,
      "lon": 77.5558493,
      "tags": {
        "addr:city": "Bangalore",
        "addr:housenumber": "638",
        "addr:postcode": "560010",
        "addr:street": "2nd Main, Near-Navarang Theater, Dr Rajkumar Rd, D-Block, 2nd Stage, Rajaji Nagar,",
        "amenity": "restaurant",
        "cuisine": "regional",
        "name": "Ambika Veg Restaurant",
        "opening_hours": "10:00 - 01:00",
        "phone": "080 4121 4708"
      }
    },
    {
      "type": "node",
      "id": 4488021019,
      "lat": 12.984947,
      "lon": 77.5540532,
      "tags": {
        "addr:city": "Bangalore",
        "addr:housenumber": "179/Y",
        "addr:postcode": "560010",
        "addr:street": "Rajajinagar",
        "name": "Sweet Chariot",
        "phone": "(91)-80-23151481",
        "shop": "supermarket"
      }
    },
    {
      "type": "node",
      "id": 4489837289,
      "lat": 12.9842839,
      "lon": 77.5533883,
      "tags": {
        "addr:city": "Bangalore",
        "addr:housenumber": "61st cross Rajajinagar 5th Block",
        "addr:postcode": "560010",
        "addr:street": "61st Cross Road",
        "leisure": "sports_centre",
        "name": "Golden Touch Beauty Salon & Spa",
        "opening_hours": "08:00-20:00",
        "phone": "91)-80-23124499"
      }
    },
    {
      "type": "node",
      "id": 4490262861,
      "lat": 12.9794303,
      "lon": 77.5521427,
      "tags": {
        "addr:city": "bangalore",
        "addr:housenumber": "No 338,",
        "addr:postcode": "560010",
        "addr:street": "12th main Dr Rajkumar Road,Rajajinagar",
        "name": "Stunning Salon and Spa",
        "opening_hours": "08:00-20:00",
        "phone": "91)-80-33294475",
        "shop": "beauty"
      }
    },
    {
      "type": "node",
      "id": 4490262862,
      "lat": 12.9881831,
      "lon": 77.5534451,
      "tags": {
        "addr:city": "bangalore",
        "addr:housenumber": "No.808/14,",
        "addr:postcode": "560010",
        "addr:street": "14th Main,50th Cross, Rajajinagar 3rd Block,",
        "name": "Snippetts Unisex Salon and Spa",
        "opening_hours": "08:00-20:00",
        "phone": "91)-9900777522",
        "shop": "beauty"
      }
    },
    {
      "type": "node",
      "id": 4490300851,
      "lat": 12.983366,
      "lon": 77.5591007,
      "tags": {
        "addr:city": "Bangalore",
        "addr:postcode": "560010",
        "addr:street": "Marriott Hotel, Sujatha Circle, Rajajinagar,",
        "name": "Scent Spa",
        "opening_hours": "10:00-23:30",
        "phone": "91)-9742212700",
        "shop": "beauty",
        "website": "https://www.scentlifestyle.com/"
      }
    },
    {
      "type": "node",
      "id": 4530356087,
      "lat": 12.9889585,
      "lon": 77.555959,
      "tags": {
        "amenity": "cafe",
        "name": "Priya Tiffin Room"
      }
    },
    {
      "type": "node",
      "id": 4697889490,
      "lat": 12.9835135,
      "lon": 77.554155,
      "tags": {
        "addr:housenumber": "63",
        "addr:postcode": "560010",
        "addr:street": "63rd Cross Road",
        "amenity": "clinic",
        "internet_access": "wlan",
        "name": "Sevabhaya hospital",
        "name:en": "Sevabhaya hospital",
        "opening_hours": "Mo-Su 09:00-22:00"
      }
    },
    {
      "type": "node",
      "id": 5157373805,
      "lat": 12.9873914,
      "lon": 77.5544089,
      "tags": {
        "name": "Vishwas Jewels (P) Ltd.",
        "shop": "jewelry"
      }
    },
    {
      "type": "node",
      "id": 5157373806,
      "lat": 12.987399,
      "lon": 77.5560805,
      "tags": {
        "name": "Prakash Medicals",
        "shop": "medical_supply"
      }
    },
    {
      "type": "node",
      "id": 5157373807,
      "lat": 12.9849537,
      "lon": 77.5569222,
      "tags": {
        "addr:district": "Bengaluru Urban",
        "addr:full": "6/63, 59Th Cross, 4Th Block, Rajajinagar Entrance, Mei Polytechnic, Rajajinagar",
        "addr:postcode": "560010",
        "addr:state": "Karnataka",
        "alt_name": "Altius Cancer Center",
        "amenity": "hospital",
        "healthcare": "hospital",
        "name": "Altius Hospital",
        "source": "OpenGovernmentData"
      }
    },
    {
      "type": "node",
      "id": 5168560646,
      "lat": 12.9821863,
      "lon": 77.5660957,
      "tags": {
        "amenity": "atm",
        "brand": "Axis Bank",
        "brand:wikidata": "Q2003549",
        "name": "Axis Bank",
        "operator": "Axis Bank",
        "operator:wikidata": "Q2003549"
      }
    },
    {
      "type": "node",
      "id": 5168685971,
      "lat": 12.9841839,
      "lon": 77.5496809,
      "tags": {
        "amenity": "toilets"
      }
    },
    {
      "type": "node",
      "id": 5168685972,
      "lat": 12.9843287,
      "lon": 77.5495899,
      "tags": {
        "amenity": "toilets"
      }
    },
    {
      "type": "node",
      "id": 5402224031,
      "lat": 12.9871073,
      "lon": 77.5598186,
      "tags": {
        "brand": "Yamaha",
        "brand:wikidata": "Q158888",
        "name": "Yamaha",
        "shop": "motorcycle"
      }
    },
    {
      "type": "node",
      "id": 5402302822,
      "lat": 12.9910874,
      "lon": 77.5580951,
      "tags": {
        "shop": "motorcycle"
      }
    },
    {
      "type": "node",
      "id": 5402307921,
      "lat": 12.9889292,
      "lon": 77.5593177,
      "tags": {
        "amenity": "toilets"
      }
    },
    {
      "type": "node",
      "id": 5470238026,
      "lat": 12.98542,
      "lon": 77.563284,
      "tags": {
        "leisure": "fitness_station"
      }
    },
    {
      "type": "node",
      "id": 5623433261,
      "lat": 12.9864932,
      "lon": 77.5558162,
      "tags": {
        "amenity": "pharmacy",
        "brand": "Apollo Pharmacy",
        "brand:wikidata": "Q62562612",
        "healthcare": "pharmacy",
        "name": "Apollo Pharmacy",
        "name:kn": "ಅಪೊಲೋ ಫಾರ್ಮಸಿ"
      }
    },
    {
      "type": "node",
      "id": 5623433262,
      "lat": 12.9863494,
      "lon": 77.5558101,
      "tags": {
        "name": "KAP Stationery",
        "shop": "stationery"
      }
    },
    {
      "type": "node",
      "id": 5623433263,
      "lat": 12.9863207,
      "lon": 77.5558088,
      "tags": {
        "name": "Sri Vasavi Gram Gold",
        "shop": "jewelry"
      }
    },
    {
      "type": "node",
      "id": 5623433264,
      "lat": 12.986288,
      "lon": 77.5558088,
      "tags": {
        "amenity": "atm",
        "brand": "State Bank of India",
        "brand:wikidata": "Q1340361",
        "name": "State Bank of India",
        "operator": "State Bank of India",
        "operator:wikidata": "Q1340361",
        "short_name": "SBI"
      }
    },
    {
      "type": "node",
      "id": 5623433265,
      "lat": 12.9861567,
      "lon": 77.5557927,
      "tags": {
        "amenity": "fast_food",
        "cuisine": "regional",
        "name": "Sri Venkateshwara Utsav"
      }
    },
    {
      "type": "node",
      "id": 5623433266,
      "lat": 12.9860253,
      "lon": 77.55579,
      "tags": {
        "name": "Sri Shiva Sai Agencies",
        "shop": "bed"
      }
    },
    {
      "type": "node",
      "id": 5623433267,
      "lat": 12.9860005,
      "lon": 77.5557914,
      "tags": {
        "name": "Sindhu Swadeshi Distribution Centre",
        "shop": "stationery"
      }
    },
    {
      "type": "node",
      "id": 5623433268,
      "lat": 12.9858992,
      "lon": 77.5557672,
      "tags": {
        "name": "Krishna Traders",
        "shop": "hardware"
      }
    },
    {
      "type": "node",
      "id": 5623433269,
      "lat": 12.9858665,
      "lon": 77.5557679,
      "tags": {
        "shop": "copyshop"
      }
    },
    {
      "type": "node",
      "id": 5623433270,
      "lat": 12.9858371,
      "lon": 77.5557672,
      "tags": {
        "name": "Manasa Enterprises",
        "shop": "clothes"
      }
    },
    {
      "type": "node",
      "id": 5623433272,
      "lat": 12.9855196,
      "lon": 77.5556874,
      "tags": {
        "name": "Shri Lakshmi Jewellery Works",
        "shop": "jewelry"
      }
    },
    {
      "type": "node",
      "id": 5623433275,
      "lat": 12.985206,
      "lon": 77.5557887,
      "tags": {
        "amenity": "clinic",
        "name": "Shri Kaushika Dental Clinic"
      }
    },
    {
      "type": "node",
      "id": 5623433276,
      "lat": 12.9848766,
      "lon": 77.5559878,
      "tags": {
        "amenity": "college",
        "name": "Rajajinagar PU Degree College"
      }
    },
    {
      "type": "node",
      "id": 5623550267,
      "lat": 12.9877647,
      "lon": 77.5558484,
      "tags": {
        "name": "V. G. Provision Store",
        "shop": "convenience"
      }
    },
    {
      "type": "node",
      "id": 5623550268,
      "lat": 12.9877078,
      "lon": 77.5558591,
      "tags": {
        "amenity": "bank",
        "atm": "yes",
        "brand": "Canara Bank",
        "brand:en": "Canara Bank",
        "brand:hi": "केनरा बैंक",
        "brand:kn": "ಕೆನರಾ ಬ್ಯಾಂಕ್",
        "brand:pa": "ਕੇਨਰਾ ਬੈਂਕ",
        "brand:pnb": "کینرا بینک",
        "brand:ur": "کینرا بینک",
        "brand:wikidata": "Q2003777",
        "brand:wikipedia": "en:Canara Bank",
        "brand:wikipedia:pa": "ਕੇਨਰਾ ਬੈਂਕ",
        "name": "Canara Bank",
        "name:en": "Canara Bank",
        "name:hi": "केनरा बैंक",
        "name:kn": "ಕೆನರಾ ಬ್ಯಾಂಕ್",
        "name:pa": "ਕੇਨਰਾ ਬੈਂਕ",
        "name:pnb": "کینرا بینک",
        "name:ur": "کینرا بینک"
      }
    },
    {
      "type": "node",
      "id": 5623550269,
      "lat": 12.9876052,
      "lon": 77.5558577,
      "tags": {
        "amenity": "atm",
        "brand": "Canara Bank",
        "brand:en": "Canara Bank",
        "brand:hi": "केनरा बैंक",
        "brand:kn": "ಕೆನರಾ ಬ್ಯಾಂಕ್",
        "brand:pa": "ਕੇਨਰਾ ਬੈਂਕ",
        "brand:pnb": "کینرا بینک",
        "brand:ur": "کینرا بینک",
        "brand:wikidata": "Q2003777",
        "name": "Canara Bank",
        "name:en": "Canara Bank",
        "name:hi": "केनरा बैंक",
        "name:kn": "ಕೆನರಾ ಬ್ಯಾಂಕ್",
        "name:pa": "ਕੇਨਰਾ ਬੈਂਕ",
        "name:pnb": "کینرا بینک",
        "name:ur": "کینرا بینک",
        "operator": "Canara Bank",
        "operator:wikidata": "Q2003777"
      }
    },
    {
      "type": "node",
      "id": 5623550270,
      "lat": 12.9873452,
      "lon": 77.5558457,
      "tags": {
        "name": "Naveenraj Fruits Stall",
        "shop": "greengrocer"
      }
    },
    {
      "type": "node",
      "id": 5623550273,
      "lat": 12.9872184,
      "lon": 77.555841,
      "tags": {
        "name": "Himalaya Provision Store",
        "note": "Dry Fruits, Kirana & General Merchants",
        "shop": "convenience"
      }
    },
    {
      "type": "node",
      "id": 5623550274,
      "lat": 12.9871929,
      "lon": 77.5558383,
      "tags": {
        "name": "LJB Bakery",
        "shop": "bakery"
      }
    },
    {
      "type": "node",
      "id": 5623550275,
      "lat": 12.9870838,
      "lon": 77.5558457,
      "tags": {
        "shop": "greengrocer"
      }
    },
    {
      "type": "node",
      "id": 5623550276,
      "lat": 12.9870453,
      "lon": 77.5558383,
      "tags": {
        "name": "Samsung - Seema Enterprises",
        "shop": "electronics"
      }
    },
    {
      "type": "node",
      "id": 5623550277,
      "lat": 12.9870178,
      "lon": 77.5558417,
      "tags": {
        "shop": "greengrocer"
      }
    },
    {
      "type": "node",
      "id": 5623550279,
      "lat": 12.9867356,
      "lon": 77.5558403,
      "tags": {
        "name": "Jagger Tailors",
        "shop": "tailor"
      }
    },
    {
      "type": "node",
      "id": 5623550280,
      "lat": 12.9867094,
      "lon": 77.5558383,
      "tags": {
        "name": "Madhok Ladies Tailors",
        "shop": "tailor"
      }
    },
    {
      "type": "node",
      "id": 5623550281,
      "lat": 12.9866689,
      "lon": 77.5558296,
      "tags": {
        "name": "Bijapur Stores",
        "shop": "greengrocer"
      }
    },
    {
      "type": "node",
      "id": 5623550282,
      "lat": 12.9866447,
      "lon": 77.5558249,
      "tags": {
        "name": "Blue Bird Dry Cleaners",
        "shop": "dry_cleaning"
      }
    },
    {
      "type": "node",
      "id": 5623550283,
      "lat": 12.9865814,
      "lon": 77.5558215,
      "tags": {
        "amenity": "ice_cream",
        "name": "Himadri Ice Creams"
      }
    },
    {
      "type": "node",
      "id": 5624262705,
      "lat": 12.9898647,
      "lon": 77.5545636,
      "tags": {
        "name": "Sri Sai Fashion",
        "shop": "clothes"
      }
    },
    {
      "type": "node",
      "id": 5624262706,
      "lat": 12.9898621,
      "lon": 77.5546219,
      "tags": {
        "amenity": "atm",
        "brand": "indicash"
      }
    },
    {
      "type": "node",
      "id": 5624262707,
      "lat": 12.9898477,
      "lon": 77.5551537,
      "tags": {
        "name": "Aadinath Medicals",
        "shop": "medical_supply"
      }
    },
    {
      "type": "node",
      "id": 5624262708,
      "lat": 12.9898516,
      "lon": 77.5551738,
      "tags": {
        "amenity": "atm",
        "brand": "HDFC Bank",
        "brand:wikidata": "Q631047",
        "name": "HDFC Bank",
        "operator": "HDFC Bank",
        "operator:wikidata": "Q631047",
        "short_name": "HDFC"
      }
    },
    {
      "type": "node",
      "id": 5624262709,
      "lat": 12.9898484,
      "lon": 77.5553153,
      "tags": {
        "name": "Graduate Textiles & Tailors",
        "shop": "tailor"
      }
    },
    {
      "type": "node",
      "id": 5624262710,
      "lat": 12.9898418,
      "lon": 77.5553763,
      "tags": {
        "amenity": "atm",
        "brand": "Union Bank"
      }
    },
    {
      "type": "node",
      "id": 5624262711,
      "lat": 12.9898399,
      "lon": 77.5554641,
      "tags": {
        "amenity": "dentist",
        "healthcare": "dentist",
        "name": "Magi Orthodontic Dental Care Centre"
      }
    },
    {
      "type": "node",
      "id": 5624262712,
      "lat": 12.9898562,
      "lon": 77.5555627,
      "tags": {
        "name": "Shri Thrupti Real Estate",
        "shop": "copyshop"
      }
    },
    {
      "type": "node",
      "id": 5624262713,
      "lat": 12.9898575,
      "lon": 77.5556009,
      "tags": {
        "name": "Bombay Modern Tailors",
        "shop": "tailor"
      }
    },
    {
      "type": "node",
      "id": 5624262714,
      "lat": 12.9898562,
      "lon": 77.5556318,
      "tags": {
        "name": "Singer Showroom",
        "note": "Sewing Machine, Home Appliances",
        "shop": "houseware"
      }
    },
    {
      "type": "node",
      "id": 5624262715,
      "lat": 12.9898418,
      "lon": 77.555723,
      "tags": {
        "amenity": "clinic",
        "healthcare": "clinic",
        "name": "Deepashri Clinical Laboratory"
      }
    },
    {
      "type": "node",
      "id": 5624262716,
      "lat": 12.989817,
      "lon": 77.5558289,
      "tags": {
        "name": "N Rich Fashions",
        "shop": "clothes"
      }
    },
    {
      "type": "node",
      "id": 5624262717,
      "lat": 12.9896759,
      "lon": 77.5559161,
      "tags": {
        "name": "Just Bake",
        "name:kn": "ಜಸ್ಟ್ ಬೇಕ್",
        "shop": "bakery"
      }
    },
    {
      "type": "node",
      "id": 5624262718,
      "lat": 12.9895772,
      "lon": 77.5559134,
      "tags": {
        "name": "Party N Toys Zone",
        "shop": "toys"
      }
    },
    {
      "type": "node",
      "id": 5624262719,
      "lat": 12.9895269,
      "lon": 77.5559134,
      "tags": {
        "name": "The Mobile Track",
        "shop": "mobile_phone"
      }
    },
    {
      "type": "node",
      "id": 5624262720,
      "lat": 12.9885991,
      "lon": 77.555898,
      "tags": {
        "amenity": "atm",
        "name": "NKGSB Bank"
      }
    },
    {
      "type": "node",
      "id": 5624263021,
      "lat": 12.9887846,
      "lon": 77.555898,
      "tags": {
        "note": "name unknown",
        "shop": "supermarket"
      }
    },
    {
      "type": "node",
      "id": 5624263022,
      "lat": 12.9886337,
      "lon": 77.5558993,
      "tags": {
        "amenity": "bank",
        "atm": "yes",
        "name": "NKGSB Bank"
      }
    },
    {
      "type": "node",
      "id": 5624263023,
      "lat": 12.9885435,
      "lon": 77.5558846,
      "tags": {
        "name": "One Touch",
        "shop": "electronics"
      }
    },
    {
      "type": "node",
      "id": 5624263024,
      "lat": 12.9885148,
      "lon": 77.5558839,
      "tags": {
        "name": "Pradhan Jewels & Diamonds",
        "shop": "jewelry"
      }
    },
    {
      "type": "node",
      "id": 5624263025,
      "lat": 12.9884716,
      "lon": 77.5558826,
      "tags": {
        "shop": "copyshop"
      }
    },
    {
      "type": "node",
      "id": 5624263026,
      "lat": 12.9884632,
      "lon": 77.5557008,
      "tags": {
        "name": "GP Footwear",
        "shop": "shoes"
      }
    },
    {
      "type": "node",
      "id": 5624263027,
      "lat": 12.9882482,
      "lon": 77.5558591,
      "tags": {
        "name": "Sharada Hearing Centre",
        "shop": "hearing_aids"
      }
    },
    {
      "type": "node",
      "id": 5624263028,
      "lat": 12.9882162,
      "lon": 77.5558598,
      "tags": {
        "name": "Sudha Book House",
        "shop": "books"
      }
    },
    {
      "type": "node",
      "id": 5624263029,
      "lat": 12.988128,
      "lon": 77.5558463,
      "tags": {
        "name": "Sri Sai Cake Palace",
        "shop": "bakery"
      }
    },
    {
      "type": "node",
      "id": 5624263030,
      "lat": 12.9880953,
      "lon": 77.5558457,
      "tags": {
        "name": "S. K. Fashions",
        "shop": "clothes"
      }
    },
    {
      "type": "node",
      "id": 5624263031,
      "lat": 12.9880221,
      "lon": 77.5558457,
      "tags": {
        "amenity": "pharmacy",
        "name": "Sree Prabhu Medical Centre"
      }
    },
    {
      "type": "node",
      "id": 5815730353,
      "lat": 12.9821384,
      "lon": 77.5560857,
      "tags": {
        "amenity": "place_of_worship",
        "denomination": "hindu",
        "name": "Temple",
        "name:kn": "ದೇವಸ್ಥಾನ",
        "religion": "hindu",
        "service_times": "07:00-12:00; 16:00-20:30"
      }
    },
    {
      "type": "node",
      "id": 5922660388,
      "lat": 12.9898921,
      "lon": 77.5536704,
      "tags": {
        "amenity": "dentist",
        "healthcare": "dentist",
        "name": "Ohan's Dental Care"
      }
    },
    {
      "type": "node",
      "id": 5922660389,
      "lat": 12.9899039,
      "lon": 77.5535725,
      "tags": {
        "name": "V. R. Opticians",
        "shop": "optician"
      }
    },
    {
      "type": "node",
      "id": 5922660390,
      "lat": 12.9899111,
      "lon": 77.5535088,
      "tags": {
        "name": "Annapoorneshwari Cars",
        "shop": "car"
      }
    },
    {
      "type": "node",
      "id": 6078097176,
      "lat": 12.9761861,
      "lon": 77.5517728,
      "tags": {
        "addr:city": "Bengaluru",
        "addr:housenumber": "54",
        "addr:postcode": "560010",
        "addr:street": "12th C Main Road",
        "name": "Rice Corner",
        "opening_hours": "Mo-Su 09:00-21:00",
        "payment:cash": "yes",
        "payment:notes": "yes",
        "shop": "supermarket"
      }
    },
    {
      "type": "node",
      "id": 6487165550,
      "lat": 12.9826939,
      "lon": 77.5607271,
      "tags": {
        "amenity": "bank",
        "atm": "yes",
        "brand": "Syndicate Bank",
        "brand:wikidata": "Q2004088",
        "name": "Syndicate Bank",
        "name:kn": "ಸಿಂಡಿಕೇಟ್ ಬ್ಯಾಂಕ್"
      }
    },
    {
      "type": "node",
      "id": 6502980174,
      "lat": 12.9821954,
      "lon": 77.5493143,
      "tags": {
        "addr:district": "Bengaluru Urban",
        "addr:full": "1032, 5th Block Opp Ganesh Temple, Chor Road Rajajinagar",
        "addr:postcode": "560010",
        "addr:state": "Karnataka",
        "amenity": "hospital",
        "healthcare": "hospital",
        "name": "The Eye Surgical Centre"
      }
    },
    {
      "type": "node",
      "id": 6646295302,
      "lat": 12.9860978,
      "lon": 77.5543504,
      "tags": {
        "addr:city": "Bangalore",
        "addr:postcode": "560010",
        "addr:street": "12th Main Road",
        "air_conditioning": "no",
        "amenity": "restaurant",
        "bar": "no",
        "cuisine": "indian;juice;ice_cream",
        "name": "New Shanthi Sagar",
        "opening_hours": "Mo-Su 06:00-22:00"
      }
    },
    {
      "type": "node",
      "id": 6681215502,
      "lat": 12.9845735,
      "lon": 77.5572538,
      "tags": {
        "leisure": "fitness_station",
        "name": "Fitness Hub"
      }
    },
    {
      "type": "node",
      "id": 6681215507,
      "lat": 12.9822565,
      "lon": 77.5656304,
      "tags": {
        "name": "Vega Helmets",
        "shop": "motorcycle"
      }
    },
    {
      "type": "node",
      "id": 6681254109,
      "lat": 12.9897373,
      "lon": 77.556185,
      "tags": {
        "amenity": "ice_cream",
        "name": "Fresh Natural Ice Cream"
      }
    },
    {
      "type": "node",
      "id": 6681254110,
      "lat": 12.9889656,
      "lon": 77.5561219,
      "tags": {
        "amenity": "dentist",
        "name": "Sabka Dentist"
      }
    },
    {
      "type": "node",
      "id": 6681254111,
      "lat": 12.9879672,
      "lon": 77.5560717,
      "tags": {
        "name": "Roop Niketan",
        "shop": "boutique"
      }
    },
    {
      "type": "node",
      "id": 6681254112,
      "lat": 12.9869192,
      "lon": 77.5562131,
      "tags": {
        "amenity": "cafe",
        "name": "by 2 coffy"
      }
    },
    {
      "type": "node",
      "id": 6938690600,
      "lat": 12.9822186,
      "lon": 77.5599374,
      "tags": {
        "addr:district": "Bengaluru Urban",
        "addr:full": "1033,4 Th Block Dr Rajdumar Road",
        "addr:postcode": "560010",
        "addr:state": "Karnataka",
        "amenity": "hospital",
        "name": "Sri Dhavantari Ayurveda Hoapital",
        "source": "OpenGovernmentData"
      }
    },
    {
      "type": "node",
      "id": 6938690601,
      "lat": 12.9848505,
      "lon": 77.5581537,
      "tags": {
        "addr:district": "Bengaluru Urban",
        "addr:full": "No. 546/46, 6Th Main, 4Th Block, Rajajinagar",
        "addr:postcode": "560010",
        "addr:state": "Karnataka",
        "amenity": "clinic",
        "name": "Spandana Nursing Home, Bengaluru Urban",
        "source": "OpenGovernmentData"
      }
    },
    {
      "type": "node",
      "id": 6938690602,
      "lat": 12.9845343,
      "lon": 77.5532775,
      "tags": {
        "addr:district": "Bengaluru Urban",
        "addr:full": "25 27 60Th Cross 5Th Block Near Bashyam Circle Rajajinagar",
        "addr:postcode": "560010",
        "addr:state": "Karnataka",
        "amenity": "clinic",
        "name": "Jinka Nursing Home",
        "source": "OpenGovernmentData"
      }
    },
    {
      "type": "node",
      "id": 6938690603,
      "lat": 12.9845512,
      "lon": 77.5528322,
      "tags": {
        "addr:district": "Bengaluru Urban",
        "addr:full": "No. 851/D , 5Th Block , Rajajinagar , 60Th Cross",
        "addr:postcode": "560040",
        "addr:state": "Karnataka",
        "amenity": "hospital",
        "name": "Vaidyam Hospital",
        "source": "OpenGovernmentData"
      }
    },
    {
      "type": "node",
      "id": 6938690604,
      "lat": 12.9897745,
      "lon": 77.5551014,
      "tags": {
        "addr:district": "Bengaluru Urban",
        "addr:full": "723 / B Main E S I Hospital Raod, 3Road Block, Rajajinagar",
        "addr:postcode": "560010",
        "addr:state": "Karnataka",
        "amenity": "hospital",
        "name": "Suresh Hospital - Bangalore",
        "source": "OpenGovernmentData"
      }
    },
    {
      "type": "node",
      "id": 6939061708,
      "lat": 12.9856882,
      "lon": 77.5565229,
      "tags": {
        "addr:district": "Bengaluru Urban",
        "addr:full": "Rajaji Nager",
        "addr:postcode": "560010",
        "addr:state": "Karnataka",
        "amenity": "clinic",
        "name": "Ramamni Nursing And Maternity",
        "source": "OpenGovernmentData"
      }
    },
    {
      "type": "node",
      "id": 6939438895,
      "lat": 12.982442,
      "lon": 77.5493681,
      "tags": {
        "addr:district": "Bengaluru Urban",
        "addr:full": "1031, 20Th Main Road, 5Th Block, Rajajinagar",
        "addr:postcode": "560010",
        "addr:state": "Karnataka",
        "amenity": "hospital",
        "name": "Sidvin Hospital Pvt Ltd",
        "source": "OpenGovernmentData"
      }
    },
    {
      "type": "node",
      "id": 6945606655,
      "lat": 12.9907644,
      "lon": 77.5568951,
      "tags": {
        "addr:district": "Bengaluru Urban",
        "addr:full": "No 562, 3Road Main Second Block, Rajajinagar",
        "addr:postcode": "560010",
        "addr:state": "Karnataka",
        "amenity": "clinic",
        "healthcare": "clinic",
        "name": "Kumar Nethralaya",
        "source": "OpenGovernmentData"
      }
    },
    {
      "type": "node",
      "id": 6947003707,
      "lat": 12.9741253,
      "lon": 77.561823,
      "tags": {
        "addr:district": "Bengaluru Urban",
        "addr:full": "2nd Cross, Magadi Road",
        "addr:postcode": "560023",
        "addr:state": "Karnataka",
        "amenity": "hospital",
        "name": "Magadi Road Maternity Home",
        "source": "OpenGovernmentData"
      }
    },
    {
      "type": "node",
      "id": 6947291977,
      "lat": 12.9753137,
      "lon": 77.5536856,
      "tags": {
        "addr:district": "Bengaluru Urban",
        "addr:full": "No 9/A Magadi Main Road",
        "addr:postcode": "560023",
        "addr:state": "Karnataka",
        "amenity": "clinic",
        "name": "Supriya Nursing Home",
        "source": "OpenGovernmentData"
      }
    },
    {
      "type": "node",
      "id": 6948438892,
      "lat": 12.9817233,
      "lon": 77.5549364,
      "tags": {
        "addr:district": "Bengaluru Urban",
        "addr:full": "10Th, A Main, 68Th Cross, 5Th Block, Rajajinagar Near Bhasyam Circle",
        "addr:postcode": "560010",
        "addr:state": "Karnataka",
        "amenity": "hospital",
        "name": "Rotary Eye Hospital (A Unit Of Bangalore North Rotary Trust)",
        "source": "OpenGovernmentData"
      }
    },
    {
      "type": "node",
      "id": 6948540414,
      "lat": 12.9880313,
      "lon": 77.5557142,
      "tags": {
        "addr:district": "Bengaluru Urban",
        "addr:full": "No. 652 , 46Th Cross , 'A' , 3Road Block Rajajinagar Near Cananra Bank",
        "addr:postcode": "560010",
        "addr:state": "Karnataka",
        "amenity": "clinic",
        "name": "Sri Sai Clinic and Maternity Home",
        "source": "OpenGovernmentData"
      }
    },
    {
      "type": "node",
      "id": 7043906885,
      "lat": 12.9900969,
      "lon": 77.5545487,
      "tags": {
        "name": "Shree Sai Silk Sarees",
        "shop": "clothes"
      }
    },
    {
      "type": "node",
      "id": 7043906886,
      "lat": 12.9882933,
      "lon": 77.5561065,
      "tags": {
        "amenity": "pharmacy",
        "brand": "Wellness Forever",
        "healthcare": "pharmacy",
        "name": "Wellness Forever"
      }
    },
    {
      "type": "node",
      "id": 7043907085,
      "lat": 12.9823104,
      "lon": 77.5652838,
      "tags": {
        "amenity": "dentist",
        "name": "Parhi's International Dental Centre",
        "name:en": "Pathi's International Dental Centre"
      }
    },
    {
      "type": "node",
      "id": 7142977657,
      "lat": 12.9772434,
      "lon": 77.5629482,
      "tags": {
        "amenity": "place_of_worship",
        "religion": "hindu"
      }
    },
    {
      "type": "node",
      "id": 7146770603,
      "lat": 12.988307,
      "lon": 77.5558618,
      "tags": {
        "amenity": "fast_food",
        "cuisine": "regional",
        "name": "Spicy Secret"
      }
    },
    {
      "type": "node",
      "id": 7146770604,
      "lat": 12.98691,
      "lon": 77.5558256,
      "tags": {
        "brand": "Airtel",
        "brand:wikidata": "Q854867",
        "name": "Airtel",
        "shop": "mobile_phone"
      }
    },
    {
      "type": "node",
      "id": 7146770605,
      "lat": 12.9849224,
      "lon": 77.5552703,
      "tags": {
        "brand": "Airtel",
        "brand:wikidata": "Q854867",
        "name": "Airtel",
        "shop": "mobile_phone"
      }
    },
    {
      "type": "node",
      "id": 7159791860,
      "lat": 12.9864945,
      "lon": 77.5555319,
      "tags": {
        "addr:city": "Bengaluru",
        "addr:postcode": "560010",
        "addr:street": "54th Cross Road",
        "addr:suburb": "Rajajinagar",
        "name": "Coffee Day Essentials",
        "shop": "convenience"
      }
    },
    {
      "type": "node",
      "id": 7176651804,
      "lat": 12.9771415,
      "lon": 77.5574429,
      "tags": {
        "access": "private",
        "amenity": "parking"
      }
    },
    {
      "type": "node",
      "id": 7236205635,
      "lat": 12.9838096,
      "lon": 77.5581993,
      "tags": {
        "name": "FD Outlet",
        "shop": "clothes"
      }
    },
    {
      "type": "node",
      "id": 7236205644,
      "lat": 12.9853419,
      "lon": 77.5564646,
      "tags": {
        "amenity": "atm",
        "brand": "ICICI Bank",
        "brand:wikidata": "Q1653258",
        "name": "ICICI Bank",
        "operator": "ICICI Bank",
        "operator:wikidata": "Q1653258",
        "short_name": "ICICI"
      }
    },
    {
      "type": "node",
      "id": 7236205645,
      "lat": 12.9872008,
      "lon": 77.556077,
      "tags": {
        "amenity": "fast_food",
        "name": "Malnad Aroma"
      }
    },
    {
      "type": "node",
      "id": 7236205646,
      "lat": 12.9878091,
      "lon": 77.5560877,
      "tags": {
        "name": "Sri Hema Book World",
        "shop": "books"
      }
    },
    {
      "type": "node",
      "id": 7236205647,
      "lat": 12.9893831,
      "lon": 77.5561236,
      "tags": {
        "amenity": "fast_food",
        "cuisine": "juice",
        "name": "Lassi Corner"
      }
    },
    {
      "type": "node",
      "id": 7236205648,
      "lat": 12.9900398,
      "lon": 77.5557384,
      "tags": {
        "amenity": "pharmacy",
        "name": "Stay Happi Pharmacy"
      }
    },
    {
      "type": "node",
      "id": 7236205652,
      "lat": 12.9847669,
      "lon": 77.5531782,
      "tags": {
        "amenity": "school",
        "name": "New Oxford High School"
      }
    },
    {
      "type": "node",
      "id": 7236205657,
      "lat": 12.9850504,
      "lon": 77.5532533,
      "tags": {
        "amenity": "pharmacy",
        "brand": "Apollo Pharmacy",
        "brand:wikidata": "Q62562612",
        "healthcare": "pharmacy",
        "name": "Apollo Pharmacy",
        "name:kn": "ಅಪೊಲೋ ಫಾರ್ಮಸಿ"
      }
    },
    {
      "type": "node",
      "id": 7236205658,
      "lat": 12.9857287,
      "lon": 77.5524808,
      "tags": {
        "amenity": "bank",
        "atm": "yes",
        "brand": "HDFC Bank",
        "brand:wikidata": "Q631047",
        "name": "HDFC Bank",
        "operator": "HDFC Bank",
        "short_name": "HDFC"
      }
    },
    {
      "type": "node",
      "id": 7236205659,
      "lat": 12.9858058,
      "lon": 77.5513798,
      "tags": {
        "amenity": "bank",
        "atm": "yes",
        "brand": "Karur Vysya Bank",
        "brand:wikidata": "Q6373724",
        "name": "Karur Vysya Bank",
        "name:kn": "ಕರೂರು ವೈಶ್ಯ ಬ್ಯಾಂಕ್",
        "operator": "Karur Vysya Bank"
      }
    },
    {
      "type": "node",
      "id": 7236205660,
      "lat": 12.9862606,
      "lon": 77.5508527,
      "tags": {
        "name": "Ashirwad Market",
        "shop": "supermarket"
      }
    },
    {
      "type": "node",
      "id": 7236205661,
      "lat": 12.9863873,
      "lon": 77.5508474,
      "tags": {
        "amenity": "bank",
        "atm": "yes",
        "brand": "Bank of Maharashtra",
        "brand:wikidata": "Q2004304",
        "name": "Bank of Maharashtra",
        "operator": "Bank of Maharashtra"
      }
    },
    {
      "type": "node",
      "id": 7292235595,
      "lat": 12.9840076,
      "lon": 77.5581591,
      "tags": {
        "amenity": "fast_food",
        "name": "Gobi Corner"
      }
    },
    {
      "type": "node",
      "id": 7292235596,
      "lat": 12.9844846,
      "lon": 77.5573383,
      "tags": {
        "name": "Uttara Computers",
        "shop": "computer"
      }
    },
    {
      "type": "node",
      "id": 7292235604,
      "lat": 12.9855248,
      "lon": 77.5567147,
      "tags": {
        "amenity": "place_of_worship",
        "religion": "hindu"
      }
    },
    {
      "type": "node",
      "id": 7292235609,
      "lat": 12.9872988,
      "lon": 77.5560663,
      "tags": {
        "shop": "shoes"
      }
    },
    {
      "type": "node",
      "id": 7292235610,
      "lat": 12.9897647,
      "lon": 77.5553186,
      "tags": {
        "name": "Matrix Salon",
        "shop": "hairdresser"
      }
    },
    {
      "type": "node",
      "id": 7297186445,
      "lat": 12.9812241,
      "lon": 77.5561622,
      "tags": {
        "amenity": "place_of_worship",
        "denomination": "hindu",
        "name": "Temple",
        "name:kn": "ದೇವಸ್ಥಾನ",
        "religion": "hindu",
        "service_times": "07:00-12:00; 16:00-20:30"
      }
    },
    {
      "type": "node",
      "id": 7572526722,
      "lat": 12.981027,
      "lon": 77.550187,
      "tags": {
        "addr:district": "Bengaluru Urban",
        "addr:full": "Jedara Halli, Rajajinagar, Bengaluru",
        "addr:postcode": "560010",
        "addr:state": "Karnataka",
        "amenity": "clinic",
        "name": "Shree Maternity",
        "source": "Local Knowledge"
      }
    },
    {
      "type": "node",
      "id": 7572526752,
      "lat": 12.9802303,
      "lon": 77.5548818,
      "tags": {
        "addr:district": "Bengaluru Urban",
        "addr:full": "Rajajinagar, Bengaluru",
        "addr:postcode": "560010",
        "addr:state": "Karnataka",
        "amenity": "hospital",
        "name": "G.R. Hospital",
        "source": "Local Knowledge"
      }
    },
    {
      "type": "node",
      "id": 7572526755,
      "lat": 12.9801974,
      "lon": 77.5546401,
      "tags": {
        "addr:district": "Bengaluru Urban",
        "addr:full": "Rajaji Nagar, Bengaluru",
        "addr:postcode": "560010",
        "addr:state": "Karnataka",
        "amenity": "clinic",
        "name": "Sri Krishna Clinic",
        "source": "Local Knowledge"
      }
    },
    {
      "type": "node",
      "id": 7572526762,
      "lat": 12.9757486,
      "lon": 77.553782,
      "tags": {
        "addr:district": "Bengaluru Urban",
        "addr:full": "Rajajinagar, Bengaluru",
        "addr:postcode": "560023",
        "addr:state": "Karnataka",
        "amenity": "hospital",
        "name": "Abhinav Hospital",
        "source": "Local Knowledge"
      }
    },
    {
      "type": "node",
      "id": 8187929955,
      "lat": 12.990191,
      "lon": 77.560667,
      "tags": {
        "addr:full": "2, Prakash Nagar, Rajajinagar, Bengaluru, Karnataka",
        "addr:state": "Karnataka",
        "amenity": "atm",
        "brand": "Axis Bank",
        "brand:wikidata": "Q2003549",
        "name": "Axis Bank",
        "name:kn": "ಆಕ್ಸಿಸ್ ಬ್ಯಾಂಕ್ ಎಟಿಎಂ",
        "operator": "Axis Bank",
        "operator:wikidata": "Q2003549"
      }
    },
    {
      "type": "node",
      "id": 8187930005,
      "lat": 12.975994,
      "lon": 77.558578,
      "tags": {
        "addr:full": "Near, 4, Magadi Main Rd, Bhuvaneshwari Nagar, Lakshminarayanapuram, Binnipete, Bengaluru, Karnataka",
        "addr:state": "Karnataka",
        "amenity": "atm",
        "brand": "Axis Bank",
        "brand:wikidata": "Q2003549",
        "name": "Axis Bank",
        "name:kn": "ಆಕ್ಸಿಸ್ ಬ್ಯಾಂಕ್ ಎಟಿಎಂ",
        "operator": "Axis Bank",
        "operator:wikidata": "Q2003549"
      }
    },
    {
      "type": "node",
      "id": 8187959329,
      "lat": 12.9900506,
      "lon": 77.5561739,
      "tags": {
        "addr:full": "Shop No.53, 41st Cross, Near Old Police Station, 2nd Block, 4th Block, Rajajinagar, Bengaluru, Karnataka",
        "addr:state": "Karnataka",
        "amenity": "bank",
        "brand": "Vijaya Bank",
        "brand:wikidata": "Q2003171",
        "brand:wikipedia": "en:Vijaya Bank",
        "name": "Vijaya Bank",
        "name:kn": "ವಿಜಯ ಬ್ಯಾಂಕ್"
      }
    },
    {
      "type": "node",
      "id": 8187962500,
      "lat": 12.9910228,
      "lon": 77.5576941,
      "tags": {
        "addr:full": "588, Dr Rajkumar Rd, 2nd Block, Rajajinagar, Bengaluru, Karnataka",
        "addr:state": "Karnataka",
        "amenity": "bank",
        "brand": "Andhra Bank",
        "brand:wikidata": "Q2003476",
        "brand:wikipedia": "en:Andhra Bank",
        "name": "Andhra Bank",
        "name:kn": "ಆಂಧ್ರ ಬ್ಯಾಂಕ್"
      }
    },
    {
      "type": "node",
      "id": 8187962507,
      "lat": 12.9905494,
      "lon": 77.5578922,
      "tags": {
        "addr:full": "Dr Rajkumar Rd, 4th Block, RajajiNagar, 4th Block, Rajajinagar, Bengaluru, Karnataka",
        "addr:state": "Karnataka",
        "amenity": "bank",
        "brand": "Bank of Baroda",
        "brand:wikidata": "Q2003797",
        "brand:wikipedia": "en:Bank of Baroda",
        "name": "Bank of Baroda",
        "name:kn": "ಬ್ಯಾಂಕ್ ಆಫ್ ಬರೋಡ"
      }
    },
    {
      "type": "node",
      "id": 8187963420,
      "lat": 12.9807621,
      "lon": 77.5585094,
      "tags": {
        "addr:full": "Near-Variar Bakery, 1050 A, SSI Area, 4th M Block, Dr Rajkumar Rd, Rajaji Nagar, 6th Block, Rajajinagar, Bengaluru, Karnataka",
        "addr:state": "Karnataka",
        "amenity": "bank",
        "brand": "Andhra Bank",
        "brand:wikidata": "Q2003476",
        "name": "Andhra Bank",
        "name:kn": "ಆಂಧ್ರ ಬ್ಯಾಂಕ್"
      }
    },
    {
      "type": "node",
      "id": 8188038742,
      "lat": 12.9905045,
      "lon": 77.5566355,
      "tags": {
        "addr:full": "172/A, 8th Main Rd, 2nd Block, Rajajinagar, Bengaluru, Karnataka",
        "addr:state": "Karnataka",
        "amenity": "hospital",
        "healthcare": "hospital",
        "name": "Government Hospital",
        "name:kn": "ಸರ್ಕಾರಿ ಆಸ್ಪತ್ರೆ"
      }
    },
    {
      "type": "node",
      "id": 8188038786,
      "lat": 12.9844963,
      "lon": 77.5551801,
      "tags": {
        "addr:full": "20th Main Rd, 5 Block, 3rd Block, Rajajinagar, Bengaluru, Karnataka",
        "addr:state": "Karnataka",
        "amenity": "hospital",
        "name": "Government Hospital",
        "name:kn": "ಸರ್ಕಾರಿ ಆಸ್ಪತ್ರೆ"
      }
    },
    {
      "type": "node",
      "id": 8188058456,
      "lat": 12.974256,
      "lon": 77.5598391,
      "tags": {
        "addr:full": "50, Magadi Road, Mariyappanapalya, Binnipete, Mariyappanapalya, Binnipete, Bengaluru, Karnataka",
        "addr:state": "Karnataka",
        "amenity": "restaurant",
        "name": "Atithi Family Restaurant"
      }
    },
    {
      "type": "node",
      "id": 8989622939,
      "lat": 12.9862109,
      "lon": 77.5563151,
      "tags": {
        "amenity": "toilets"
      }
    },
    {
      "type": "node",
      "id": 8989622941,
      "lat": 12.9883109,
      "lon": 77.556248,
      "tags": {
        "amenity": "fast_food",
        "cuisine": "regional",
        "name": "Prakriti Deluxe"
      }
    },
    {
      "type": "node",
      "id": 9632587559,
      "lat": 12.9815782,
      "lon": 77.5634363,
      "tags": {
        "leisure": "amusement_arcade",
        "name": "Funtura"
      }
    },
    {
      "type": "node",
      "id": 9632587574,
      "lat": 12.9851321,
      "lon": 77.556643,
      "tags": {
        "name": "Naseeb Fruits Stall",
        "shop": "greengrocer"
      }
    },
    {
      "type": "node",
      "id": 9632587578,
      "lat": 12.9870485,
      "lon": 77.5562185,
      "tags": {
        "shop": "greengrocer"
      }
    },
    {
      "type": "node",
      "id": 9632587579,
      "lat": 12.9876209,
      "lon": 77.5554702,
      "tags": {
        "name": "Jain Bakes",
        "shop": "bakery"
      }
    },
    {
      "type": "node",
      "id": 9632587580,
      "lat": 12.9876993,
      "lon": 77.5547004,
      "tags": {
        "name": "Color Curry",
        "shop": "copyshop"
      }
    },
    {
      "type": "node",
      "id": 9632587581,
      "lat": 12.987698,
      "lon": 77.5544375,
      "tags": {
        "name": "Asha Sweet Center",
        "shop": "confectionery"
      }
    },
    {
      "type": "node",
      "id": 9632587582,
      "lat": 12.9876693,
      "lon": 77.5541344,
      "tags": {
        "shop": "mobile_phone"
      }
    },
    {
      "type": "node",
      "id": 9632587583,
      "lat": 12.9877072,
      "lon": 77.5532667,
      "tags": {
        "name": "Ganapathi Jewels and Diamonds",
        "shop": "jewelry"
      }
    },
    {
      "type": "node",
      "id": 9632587584,
      "lat": 12.9874837,
      "lon": 77.5525647,
      "tags": {
        "name": "Adishwar",
        "name:kn": "ಅದಿಶ್ವರ್",
        "shop": "electronics"
      }
    },
    {
      "type": "node",
      "id": 9632587585,
      "lat": 12.9885762,
      "lon": 77.5526297,
      "tags": {
        "name": "Bharath Book Center",
        "shop": "books"
      }
    },
    {
      "type": "node",
      "id": 9632587586,
      "lat": 12.9895014,
      "lon": 77.5526485,
      "tags": {
        "name": "The Signman",
        "shop": "hardware"
      }
    },
    {
      "type": "node",
      "id": 9687256219,
      "lat": 12.9844193,
      "lon": 77.5580075,
      "tags": {
        "amenity": "fast_food",
        "name": "HOPCOMS"
      }
    },
    {
      "type": "node",
      "id": 9687256224,
      "lat": 12.9850753,
      "lon": 77.5567442,
      "tags": {
        "amenity": "fast_food",
        "brand": "Domino's",
        "brand:wikidata": "Q839466",
        "cuisine": "pizza",
        "delivery": "yes",
        "name": "Domino's",
        "operator": "Domino's",
        "outdoor_seating": "no",
        "takeaway": "yes"
      }
    },
    {
      "type": "node",
      "id": 9870839648,
      "lat": 12.982478,
      "lon": 77.5611357,
      "tags": {
        "name": "Ather",
        "shop": "motorcycle"
      }
    },
    {
      "type": "node",
      "id": 9872645087,
      "lat": 12.9841291,
      "lon": 77.5576642,
      "tags": {
        "shop": "copyshop"
      }
    },
    {
      "type": "node",
      "id": 9872645098,
      "lat": 12.9852752,
      "lon": 77.5564539,
      "tags": {
        "amenity": "atm",
        "brand": "State Bank of India",
        "brand:wikidata": "Q1340361",
        "name": "State Bank of India",
        "name:kn": "ಎಸ್ ಬಿ ಐ",
        "operator": "State Bank of India",
        "operator:wikidata": "Q1340361",
        "short_name": "SBI"
      }
    },
    {
      "type": "node",
      "id": 9872645099,
      "lat": 12.9867722,
      "lon": 77.5562862,
      "tags": {
        "name": "Kempegowda Vegetable Market",
        "shop": "greengrocer"
      }
    },
    {
      "type": "node",
      "id": 9872645102,
      "lat": 12.9892564,
      "lon": 77.5561494,
      "tags": {
        "name": "cycle.in",
        "shop": "bicycle"
      }
    },
    {
      "type": "node",
      "id": 9872645103,
      "lat": 12.9895171,
      "lon": 77.5561675,
      "tags": {
        "amenity": "cafe",
        "name": "Tandoor Chai Point"
      }
    },
    {
      "type": "node",
      "id": 9872645104,
      "lat": 12.9895929,
      "lon": 77.5553307,
      "tags": {
        "amenity": "kindergarten",
        "name": "Kids Cube International"
      }
    },
    {
      "type": "node",
      "id": 9909999109,
      "lat": 12.9823349,
      "lon": 77.5653427,
      "tags": {
        "name": "Leo Leon Lightings",
        "shop": "lighting"
      }
    },
    {
      "type": "node",
      "id": 9909999112,
      "lat": 12.9844173,
      "lon": 77.5574496,
      "tags": {
        "name": "Royal Cakes and Cookies",
        "shop": "bakery"
      }
    },
    {
      "type": "node",
      "id": 9909999114,
      "lat": 12.9851805,
      "lon": 77.5565518,
      "tags": {
        "name": "Window Styles",
        "shop": "curtain"
      }
    },
    {
      "type": "node",
      "id": 9909999115,
      "lat": 12.9870231,
      "lon": 77.5562178,
      "tags": {
        "amenity": "dentist",
        "name": "Bagda Dental Care"
      }
    },
    {
      "type": "node",
      "id": 9909999116,
      "lat": 12.9893616,
      "lon": 77.5561199,
      "tags": {
        "amenity": "fast_food",
        "cuisine": "regional",
        "name": "Malnad Cafe"
      }
    },
    {
      "type": "node",
      "id": 9936631185,
      "lat": 12.986139,
      "lon": 77.5508943,
      "tags": {
        "amenity": "school",
        "name": "Bala Vidya Mandir School"
      }
    },
    {
      "type": "node",
      "id": 9936631186,
      "lat": 12.9860841,
      "lon": 77.5507428,
      "tags": {
        "amenity": "kindergarten",
        "name": "Jack and the Beanstalk"
      }
    },
    {
      "type": "node",
      "id": 9936668824,
      "lat": 12.9874406,
      "lon": 77.5509466,
      "tags": {
        "amenity": "drinking_water"
      }
    },
    {
      "type": "node",
      "id": 9936668825,
      "lat": 12.9871936,
      "lon": 77.5507991,
      "tags": {
        "shop": "hairdresser"
      }
    },
    {
      "type": "node",
      "id": 9936668906,
      "lat": 12.9832366,
      "lon": 77.5492541,
      "tags": {
        "access": "yes",
        "amenity": "toilets",
        "fee": "yes",
        "operator": "BBMP"
      }
    },
    {
      "type": "node",
      "id": 10044533384,
      "lat": 12.9813306,
      "lon": 77.5638993,
      "tags": {
        "access": "customers",
        "amenity": "parking_entrance",
        "fee": "yes",
        "parking": "underground"
      }
    },
    {
      "type": "node",
      "id": 10045910456,
      "lat": 12.9759163,
      "lon": 77.5540171,
      "tags": {
        "name": "Sudarshan Tejas Silks",
        "shop": "wholesale"
      }
    },
    {
      "type": "node",
      "id": 10279677059,
      "lat": 12.9840494,
      "lon": 77.5578305,
      "tags": {
        "leisure": "fitness_centre",
        "name": "Tusker Fitness"
      }
    },
    {
      "type": "node",
      "id": 10285926886,
      "lat": 12.9869518,
      "lon": 77.5558249,
      "tags": {
        "contact:facebook": "tumbledry.in",
        "contact:instagram": "tumbledryind",
        "laundry_service": "yes",
        "name": "Tumbledry",
        "phone": "+917677250250",
        "shop": "laundry",
        "website": "https://www.tumbledry.in/"
      }
    },
    {
      "type": "node",
      "id": 10285926887,
      "lat": 12.9894282,
      "lon": 77.5541009,
      "tags": {
        "amenity": "dentist"
      }
    },
    {
      "type": "node",
      "id": 10285926888,
      "lat": 12.9894334,
      "lon": 77.5540446,
      "tags": {
        "amenity": "restaurant",
        "cuisine": "regional",
        "name": "Swagat"
      }
    },
    {
      "type": "node",
      "id": 10286250881,
      "lat": 12.9813757,
      "lon": 77.5632861,
      "tags": {
        "amenity": "restaurant",
        "name": "Barbeque Nation",
        "name:kn": "ಬರ್ಬಕ್ಯು ನೇಶನ್"
      }
    },
    {
      "type": "node",
      "id": 10286250882,
      "lat": 12.9809386,
      "lon": 77.5633482,
      "tags": {
        "brand": "Westside",
        "level": "1",
        "name": "Westside",
        "shop": "clothes"
      }
    },
    {
      "type": "node",
      "id": 10286250883,
      "lat": 12.981177,
      "lon": 77.563085,
      "tags": {
        "amenity": "cafe",
        "brand": "Starbucks",
        "brand:wikidata": "Q37158",
        "cuisine": "coffee_shop",
        "name": "Starbucks",
        "official_name": "Starbucks Coffee",
        "operator": "Starbucks",
        "takeaway": "yes"
      }
    },
    {
      "type": "node",
      "id": 10286250884,
      "lat": 12.9811856,
      "lon": 77.5631152,
      "tags": {
        "brand": "Pantaloons",
        "brand:wikidata": "Q7131643",
        "level": "1",
        "name": "Pantaloons",
        "shop": "clothes"
      }
    },
    {
      "type": "node",
      "id": 10570929389,
      "lat": 12.9816867,
      "lon": 77.5632835,
      "tags": {
        "amenity": "cinema",
        "brand": "Cinépolis",
        "brand:wikidata": "Q5686673",
        "name": "Cinepolis",
        "screen": "11"
      }
    },
    {
      "type": "node",
      "id": 10571082049,
      "lat": 12.9905041,
      "lon": 77.5580505,
      "tags": {
        "addr:city": "Bengaluru",
        "addr:housenumber": "1003",
        "addr:postcode": "560010",
        "addr:street": "4th Block Dr. Rajkumar Road Near Navrang Bar, Rajajinagar",
        "name": "Bulwark Authorized Motorcycle Riding Gears",
        "opening_hours": "Mo-Su 09:30-20:30",
        "shop": "motorcycle"
      }
    },
    {
      "type": "node",
      "id": 10571126134,
      "lat": 12.9903362,
      "lon": 77.5584987,
      "tags": {
        "addr:city": "Bengaluru",
        "addr:housenumber": "71/61",
        "addr:postcode": "560021",
        "addr:street": "Dr. Rajkumar Road, 3rd Stage, Prakash Nagar, Rajajinagar",
        "name": "Rynox Showroom Rajajinagar",
        "opening_hours": "Mo-Su 11:00-20:00",
        "phone": "07411539955",
        "shop": "motorcycle"
      }
    },
    {
      "type": "node",
      "id": 10763481596,
      "lat": 12.980886,
      "lon": 77.5636738,
      "tags": {
        "air_conditioning": "no",
        "amenity": "pub",
        "indoor_seating": "yes",
        "name": "Plan B",
        "outdoor_seating": "no",
        "smoking": "yes"
      }
    },
    {
      "type": "node",
      "id": 10875208176,
      "lat": 12.9812257,
      "lon": 77.5633806,
      "tags": {
        "brand": "Lulu Hypermarket",
        "brand:wikidata": "Q6702930",
        "changing_table": "no",
        "check_date": "2023-10-23",
        "name": "Lulu Hypermarket",
        "name:kn": "ಲುಲು ಹೈಪರ್ಮಾರ್ಕೆಟ್",
        "name:ml": "ലുലു ഹൈപ്പർമാർക്കറ്റ്",
        "opening_hours": "Mo-Su 10:00-23:00",
        "payment:cash": "yes",
        "payment:credit_cards": "yes",
        "shop": "supermarket",
        "toilets": "yes",
        "toilets:wheelchair": "limited",
        "wheelchair": "limited"
      }
    },
    {
      "type": "node",
      "id": 10924790344,
      "lat": 12.981358,
      "lon": 77.5634763,
      "tags": {
        "addr:city": "Bengaluru",
        "addr:country": "IN",
        "addr:housename": "LuLu Global Mall",
        "addr:postcode": "560023",
        "brand": "Bath & Body Works",
        "brand:wikidata": "Q810773",
        "fixme": "Accurate location inside mall",
        "name": "Bath & Body Works",
        "shop": "cosmetics",
        "website": "https://www.bathandbodyworks.in/"
      }
    },
    {
      "type": "node",
      "id": 11061437779,
      "lat": 12.9814502,
      "lon": 77.5636337,
      "tags": {
        "air_conditioning": "yes",
        "amenity": "pub",
        "indoor_seating": "yes",
        "name": "ToyBoy",
        "outdoor_seating": "no",
        "smoking": "yes",
        "wheelchair": "limited"
      }
    },
    {
      "type": "node",
      "id": 11061437780,
      "lat": 12.9811665,
      "lon": 77.563655,
      "tags": {
        "air_conditioning": "yes",
        "amenity": "pub",
        "indoor_seating": "yes",
        "name": "Badmaash",
        "outdoor_seating": "no",
        "smoking": "no",
        "wheelchair": "limited"
      }
    },
    {
      "type": "node",
      "id": 11061437782,
      "lat": 12.9817102,
      "lon": 77.5636162,
      "tags": {
        "amenity": "restaurant",
        "brand": "Chili's",
        "brand:wikidata": "Q1072948",
        "cuisine": "tex-mex",
        "diet:vegan": "yes",
        "diet:vegetarian": "yes",
        "indoor_seating": "yes",
        "name": "Chili's",
        "official_name": "Chili's Grill & Bar",
        "outdoor_seating": "no"
      }
    },
    {
      "type": "node",
      "id": 11088679767,
      "lat": 12.9878755,
      "lon": 77.5560771,
      "tags": {
        "brand": "Nandini",
        "name": "Nandini",
        "shop": "dairy"
      }
    },
    {
      "type": "node",
      "id": 11102274265,
      "lat": 12.9846349,
      "lon": 77.5536744,
      "tags": {
        "name": "Kim Lee Beauty Parlour",
        "shop": "beauty"
      }
    },
    {
      "type": "node",
      "id": 11102274266,
      "lat": 12.9847002,
      "lon": 77.5536101,
      "tags": {
        "amenity": "restaurant",
        "name": "Kim Lee Restaurant"
      }
    },
    {
      "type": "node",
      "id": 11102274267,
      "lat": 12.9857652,
      "lon": 77.55176,
      "tags": {
        "amenity": "restaurant",
        "name": "Sicilia Point"
      }
    },
    {
      "type": "node",
      "id": 11102274271,
      "lat": 12.9873583,
      "lon": 77.5507381,
      "tags": {
        "amenity": "clinic",
        "name": "Dhanavantri Health Care"
      }
    },
    {
      "type": "node",
      "id": 11285259370,
      "lat": 12.9816938,
      "lon": 77.5636239,
      "tags": {
        "check_date": "2023-10-23",
        "name": "Reliance Trends",
        "shop": "clothes"
      }
    },
    {
      "type": "node",
      "id": 11285259371,
      "lat": 12.9816085,
      "lon": 77.5636135,
      "tags": {
        "air_conditioning": "yes",
        "amenity": "ice_cream",
        "brand": "Cold Stone Creamery",
        "brand:wikidata": "Q1094923",
        "check_date": "2023-10-23",
        "cuisine": "ice_cream",
        "diet:vegan": "yes",
        "indoor_seating": "yes",
        "name": "Cold Stone Creamery",
        "outdoor_seating": "no",
        "smoking": "no",
        "wheelchair": "yes"
      }
    },
    {
      "type": "node",
      "id": 11285259372,
      "lat": 12.9806797,
      "lon": 77.5635843,
      "tags": {
        "air_conditioning": "yes",
        "amenity": "cafe",
        "brand": "Costa",
        "brand:wikidata": "Q608845",
        "check_date": "2023-10-23",
        "cuisine": "coffee_shop",
        "diet:vegan": "yes",
        "diet:vegetarian": "yes",
        "indoor_seating": "yes",
        "name": "Costa",
        "outdoor_seating": "no",
        "smoking": "no",
        "takeaway": "yes",
        "wheelchair": "limited"
      }
    },
    {
      "type": "node",
      "id": 11285259376,
      "lat": 12.9816046,
      "lon": 77.5637263,
      "tags": {
        "check_date": "2023-10-23",
        "indoor_seating": "yes",
        "name": "Cookie Man",
        "outdoor_seating": "no",
        "shop": "bakery",
        "smoking": "no",
        "wheelchair": "limited"
      }
    },
    {
      "type": "node",
      "id": 11285259377,
      "lat": 12.9815351,
      "lon": 77.5637281,
      "tags": {
        "check_date": "2023-10-23",
        "name": "Arabian Souk",
        "shop": "jewelry",
        "wheelchair": "limited"
      }
    },
    {
      "type": "node",
      "id": 11285259378,
      "lat": 12.9814612,
      "lon": 77.5637297,
      "tags": {
        "check_date": "2023-10-23",
        "name": "Titan World",
        "shop": "watches",
        "wheelchair": "limited"
      }
    },
    {
      "type": "node",
      "id": 11285259379,
      "lat": 12.9814012,
      "lon": 77.5637326,
      "tags": {
        "check_date": "2023-10-23",
        "name": "Titan Eye+",
        "shop": "optician",
        "wheelchair": "limited"
      }
    },
    {
      "type": "node",
      "id": 11285259380,
      "lat": 12.9813348,
      "lon": 77.5637324,
      "tags": {
        "check_date": "2023-10-23",
        "name": "Mia by Tanishq",
        "shop": "jewelry",
        "wheelchair": "limited"
      }
    },
    {
      "type": "node",
      "id": 11285259381,
      "lat": 12.9812823,
      "lon": 77.5637362,
      "tags": {
        "air_conditioning": "yes",
        "amenity": "cafe",
        "brand": "Chai Point",
        "brand:wikidata": "Q28173415",
        "check_date": "2023-10-23",
        "cuisine": "coffee_shop",
        "diet:vegan": "yes",
        "diet:vegetarian": "yes",
        "indoor_seating": "yes",
        "name": "Chai Point",
        "outdoor_seating": "no",
        "smoking": "no",
        "takeaway": "yes",
        "wheelchair": "limited"
      }
    },
    {
      "type": "node",
      "id": 11285259384,
      "lat": 12.9818723,
      "lon": 77.5637939,
      "tags": {
        "amenity": "cafe",
        "check_date": "2023-10-23",
        "name": "Qmin"
      }
    },
    {
      "type": "node",
      "id": 11285259385,
      "lat": 12.9811132,
      "lon": 77.5637769,
      "tags": {
        "amenity": "toilets",
        "check_date": "2023-10-23"
      }
    },
    {
      "type": "node",
      "id": 11285259386,
      "lat": 12.9810543,
      "lon": 77.5637333,
      "tags": {
        "check_date": "2023-10-23",
        "name": "Alma Casino",
        "shop": "jewelry"
      }
    },
    {
      "type": "node",
      "id": 11285259387,
      "lat": 12.9810048,
      "lon": 77.5637338,
      "tags": {
        "check_date": "2023-10-23",
        "name": "Swa Diamonds",
        "shop": "jewelry"
      }
    },
    {
      "type": "node",
      "id": 11285259388,
      "lat": 12.980941,
      "lon": 77.5637369,
      "tags": {
        "check_date": "2023-10-23",
        "name": "Lens Magic",
        "shop": "optician"
      }
    },
    {
      "type": "node",
      "id": 11285259389,
      "lat": 12.9808798,
      "lon": 77.5636522,
      "tags": {
        "amenity": "waste_basket"
      }
    },
    {
      "type": "node",
      "id": 11293554462,
      "lat": 12.9811091,
      "lon": 77.563085,
      "tags": {
        "amenity": "fast_food",
        "brand": "Subway",
        "brand:wikidata": "Q244457",
        "cuisine": "sandwich",
        "level": "3",
        "name": "Subway",
        "takeaway": "yes"
      }
    },
    {
      "type": "node",
      "id": 11293554463,
      "lat": 12.9810019,
      "lon": 77.5630863,
      "tags": {
        "amenity": "restaurant",
        "brand": "Pizza Hut",
        "brand:wikidata": "Q191615",
        "cuisine": "pizza",
        "level": "3",
        "name": "Pizza Hut"
      }
    },
    {
      "type": "node",
      "id": 11293554464,
      "lat": 12.9808974,
      "lon": 77.5630943,
      "tags": {
        "amenity": "fast_food",
        "level": "3",
        "name": "Naga's"
      }
    },
    {
      "type": "node",
      "id": 11293554465,
      "lat": 12.9807915,
      "lon": 77.5631037,
      "tags": {
        "amenity": "fast_food",
        "brand": "McDonald's",
        "brand:wikidata": "Q38076",
        "cuisine": "burger",
        "level": "3",
        "name": "McDonald's",
        "takeaway": "yes"
      }
    },
    {
      "type": "node",
      "id": 11293554466,
      "lat": 12.980683,
      "lon": 77.5631681,
      "tags": {
        "alt_name": "Kentucky Fried Chicken",
        "alt_name:en": "Kentucky Fried Chicken",
        "alt_name:hi": "केंटुकी फ्राइड चिकन",
        "alt_name:pa": "ਕੈਂਟੁਕੀ ਫ੍ਰਾਈਡ ਚਿਕਨ",
        "alt_name:pnb": "کینٹکی فرائیڈ چکن",
        "alt_name:ur": "کینٹکی فرائیڈ چکن",
        "amenity": "fast_food",
        "brand": "KFC",
        "brand:en": "KFC",
        "brand:hi": "केएफसी",
        "brand:pa": "ਕੇਐਫਸੀ",
        "brand:pnb": "کے ایف سی",
        "brand:ur": "کے ایف سی",
        "brand:wikidata": "Q524757",
        "cuisine": "chicken",
        "level": "3",
        "name": "KFC",
        "name:en": "KFC",
        "name:hi": "केएफसी",
        "name:pa": "ਕੇਐਫਸੀ",
        "name:pnb": "کے ایف سی",
        "name:ur": "کے ایف سی",
        "takeaway": "yes"
      }
    },
    {
      "type": "node",
      "id": 11293554467,
      "lat": 12.9806791,
      "lon": 77.5632673,
      "tags": {
        "amenity": "fast_food",
        "brand": "Domino's",
        "brand:wikidata": "Q839466",
        "cuisine": "pizza",
        "level": "3",
        "name": "Domino's",
        "takeaway": "yes"
      }
    },
    {
      "type": "node",
      "id": 11293554468,
      "lat": 12.9806804,
      "lon": 77.5633706,
      "tags": {
        "amenity": "fast_food",
        "brand": "Taco Bell",
        "brand:wikidata": "Q752941",
        "cuisine": "tex-mex",
        "level": "3",
        "name": "Taco Bell",
        "name:kn": "ಟಾಕೊ ಬೆಲ್",
        "takeaway": "yes"
      }
    },
    {
      "type": "node",
      "id": 11293599069,
      "lat": 12.9817167,
      "lon": 77.5637005,
      "tags": {
        "air_conditioning": "no",
        "amenity": "restaurant",
        "brand": "Punjab Grill",
        "brand:wikidata": "Q124374761",
        "cuisine": "north_indian",
        "delivery": "yes",
        "diet:vegan": "yes",
        "diet:vegetarian": "yes",
        "indoor_seating": "yes",
        "level": "3",
        "name": "Punjab Grill",
        "outdoor_seating": "no",
        "takeaway": "yes"
      }
    },
    {
      "type": "node",
      "id": 11293599070,
      "lat": 12.9811313,
      "lon": 77.5637347,
      "tags": {
        "air_conditioning": "yes",
        "amenity": "fast_food",
        "brand": "Popeyes",
        "brand:wikidata": "Q1330910",
        "brand:wikipedia": "en:Popeyes",
        "cuisine": "chicken",
        "delivery": "yes",
        "diet:vegan": "yes",
        "diet:vegetarian": "yes",
        "indoor_seating": "yes",
        "level": "3",
        "name": "Popeyes",
        "official_name": "Popeyes Louisiana Kitchen",
        "outdoor_seating": "no",
        "smoking": "no",
        "takeaway": "yes",
        "website": "https://www.popeyes.in/",
        "wikipedia": "en:Popeyes Louisiana Kitchen"
      }
    },
    {
      "type": "node",
      "id": 11293599093,
      "lat": 12.9813286,
      "lon": 77.5639473,
      "tags": {
        "access": "customers",
        "amenity": "parking_entrance",
        "fee": "yes",
        "parking": "underground"
      }
    },
    {
      "type": "node",
      "id": 11293610821,
      "lat": 12.9813391,
      "lon": 77.5631426,
      "tags": {
        "level": "1",
        "name": "LuLu Fashion Store",
        "shop": "clothes"
      }
    },
    {
      "type": "node",
      "id": 11293610849,
      "lat": 12.9807236,
      "lon": 77.5635959,
      "tags": {
        "level": "1",
        "name": "Nykaa",
        "shop": "beauty",
        "wheelchair": "limited"
      }
    },
    {
      "type": "node",
      "id": 11293610851,
      "lat": 12.9809777,
      "lon": 77.5637025,
      "tags": {
        "amenity": "waste_basket"
      }
    },
    {
      "type": "node",
      "id": 11293610858,
      "lat": 12.981735,
      "lon": 77.5636918,
      "tags": {
        "amenity": "waste_basket"
      }
    },
    {
      "type": "node",
      "id": 11341163858,
      "lat": 12.9788842,
      "lon": 77.5630729,
      "tags": {
        "access": "permissive",
        "amenity": "parking",
        "parking": "surface"
      }
    },
    {
      "type": "node",
      "id": 11341163859,
      "lat": 12.9789201,
      "lon": 77.5635611,
      "tags": {
        "access": "permissive",
        "amenity": "parking",
        "parking": "surface"
      }
    },
    {
      "type": "node",
      "id": 11341218829,
      "lat": 12.9762285,
      "lon": 77.5644702,
      "tags": {
        "amenity": "waste_basket"
      }
    },
    {
      "type": "node",
      "id": 11341218837,
      "lat": 12.9760261,
      "lon": 77.5646252,
      "tags": {
        "amenity": "waste_basket"
      }
    },
    {
      "type": "node",
      "id": 12082134090,
      "lat": 12.9810583,
      "lon": 77.5630873,
      "tags": {
        "name": "Beardo",
        "shop": "cosmetics"
      }
    },
    {
      "type": "node",
      "id": 12082134091,
      "lat": 12.9806822,
      "lon": 77.5634649,
      "tags": {
        "name": "Frockwala",
        "shop": "clothes"
      }
    },
    {
      "type": "node",
      "id": 12082134092,
      "lat": 12.9809974,
      "lon": 77.5634144,
      "tags": {
        "amenity": "ice_cream",
        "level": "3",
        "name": "Amul"
      }
    },
    {
      "type": "node",
      "id": 12082134093,
      "lat": 12.9809025,
      "lon": 77.5634072,
      "tags": {
        "amenity": "fast_food",
        "level": "3",
        "name": "Samosa Singh"
      }
    },
    {
      "type": "node",
      "id": 12082134094,
      "lat": 12.9807947,
      "lon": 77.5634108,
      "tags": {
        "amenity": "fast_food",
        "cuisine": "pizza",
        "level": "3",
        "name": "Gopizza"
      }
    },
    {
      "type": "node",
      "id": 12118816469,
      "lat": 12.990542,
      "lon": 77.5580302,
      "tags": {
        "addr:street": "Dr. Rajkumar Road",
        "amenity": "bank",
        "atm": "yes",
        "brand": "City Union Bank",
        "brand:en": "City Union Bank",
        "brand:hi": "सिटी यूनियन बैंक",
        "brand:ta": "சிட்டி யூனியன் வங்கி",
        "brand:wikidata": "Q2040264",
        "name": "City Union Bank",
        "name:en": "City Union Bank",
        "name:hi": "सिटी यूनियन बैंक",
        "name:ta": "சிட்டி யூனியன் வங்கி",
        "short_name": "CUB"
      }
    },
    {
      "type": "node",
      "id": 12438065188,
      "lat": 12.9828948,
      "lon": 77.5493318,
      "tags": {
        "amenity": "restaurant",
        "check_date": "2024-12-21"
      }
    },
    {
      "type": "node",
      "id": 12529149438,
      "lat": 12.9847832,
      "lon": 77.5540436,
      "tags": {
        "addr:city": "Bengaluru",
        "addr:district": "Bengaluru Urban",
        "addr:postcode": "560010",
        "addr:street": "12th Main Rd, 3rd Block, Rajajinagar",
        "brand": "Peter England",
        "brand:wikidata": "Q19573665",
        "clothes": "men",
        "name": "Peter England",
        "shop": "clothes"
      }
    },
    {
      "type": "node",
      "id": 12860300101,
      "lat": 12.9872272,
      "lon": 77.5542226,
      "tags": {
        "addr:postcode": "560010",
        "addr:street": "12th Main Road",
        "name": "Namma MTR",
        "shop": "grocery"
      }
    },
    {
      "type": "node",
      "id": 12901334775,
      "lat": 12.9859554,
      "lon": 77.5509443,
      "tags": {
        "amenity": "cafe",
        "brand": "Third Wave Coffee Roasters",
        "brand:wikidata": "Q7785004",
        "cuisine": "coffee_shop",
        "delivery": "yes",
        "name": "Third Wave Coffee Roasters",
        "takeaway": "yes"
      }
    },
    {
      "type": "node",
      "id": 12985437613,
      "lat": 12.9831667,
      "lon": 77.5604758,
      "tags": {
        "amenity": "clock",
        "display": "analog",
        "faces": "1",
        "support": "pole",
        "visibility": "street"
      }
    },
    {
      "type": "node",
      "id": 12990956824,
      "lat": 12.984977,
      "lon": 77.5535912,
      "tags": {
        "amenity": "post_box",
        "operator": "India Post"
      }
    },
    {
      "type": "node",
      "id": 13245247096,
      "lat": 12.9754949,
      "lon": 77.5570151,
      "tags": {
        "amenity": "college",
        "name": "Seshadripuram Commerce College"
      }
    },
    {
      "type": "node",
      "id": 13288507138,
      "lat": 12.981396,
      "lon": 77.5630786,
      "tags": {
        "amenity": "pub",
        "name": "The Beer Social"
      }
    },
    {
      "type": "way",
      "id": 53859295,
      "center": {
        "lat": 12.9798353,
        "lon": 77.5651105
      },
      "tags": {
        "amenity": "hospital",
        "name": "Railways Hospital",
        "name:kn": "ರೈಲ್ವೇ ಆಸ್ಪತ್ರೆ"
      }
    },
    {
      "type": "way",
      "id": 53859313,
      "center": {
        "lat": 12.9764135,
        "lon": 77.5636204
      },
      "tags": {
        "amenity": "college",
        "name": "Bapuji College",
        "name:kn": "ಬಾಪುಜಿ ಕಾಲೇಜು"
      }
    },
    {
      "type": "way",
      "id": 133756192,
      "center": {
        "lat": 12.9872218,
        "lon": 77.5504671
      },
      "tags": {
        "leisure": "park",
        "name": "Dhobi Ghat Park"
      }
    },
    {
      "type": "way",
      "id": 138697265,
      "center": {
        "lat": 12.9909528,
        "lon": 77.5534579
      },
      "tags": {
        "alt_name": "ESI Hospital",
        "amenity": "hospital",
        "emergency": "yes",
        "healthcare": "hospital",
        "int_name": "ESICMH",
        "name": "Employees' State Insurance Corporation Model Hospital",
        "operator": "Employees' State Insurance",
        "operator:short": "ESI",
        "operator:wikidata": "Q3595726",
        "wheelchair": "yes"
      }
    },
    {
      "type": "way",
      "id": 166612453,
      "center": {
        "lat": 12.9837431,
        "lon": 77.5566697
      },
      "tags": {
        "alt_name": "Rajajinagar PU and Degree College",
        "amenity": "college",
        "name": "MEI Polytechnic College"
      }
    },
    {
      "type": "way",
      "id": 166612470,
      "center": {
        "lat": 12.9829196,
        "lon": 77.5594515
      },
      "tags": {
        "landuse": "retail",
        "name": "Golden Heights Mall",
        "shop": "mall",
        "wheelchair": "no"
      }
    },
    {
      "type": "way",
      "id": 166612472,
      "center": {
        "lat": 12.976003,
        "lon": 77.5550008
      },
      "tags": {
        "access": "yes",
        "amenity": "parking",
        "fee": "yes",
        "operator": "BMRCL",
        "parking": "surface"
      }
    },
    {
      "type": "way",
      "id": 166612475,
      "center": {
        "lat": 12.9746944,
        "lon": 77.5621754
      },
      "tags": {
        "amenity": "school"
      }
    },
    {
      "type": "way",
      "id": 166612476,
      "center": {
        "lat": 12.9846189,
        "lon": 77.5559879
      },
      "tags": {
        "amenity": "school"
      }
    },
    {
      "type": "way",
      "id": 182821650,
      "center": {
        "lat": 12.9760796,
        "lon": 77.5628215
      },
      "tags": {
        "name": "Shri Venkateshwara Silks",
        "shop": "clothes"
      }
    },
    {
      "type": "way",
      "id": 191035682,
      "center": {
        "lat": 12.9830124,
        "lon": 77.5618384
      },
      "tags": {
        "addr:city": "Bangalore",
        "addr:street": "Link Road",
        "amenity": "cinema",
        "name": "Sujatha Theater",
        "name:kn": "ಸುಜತಾ",
        "wheelchair": "no"
      }
    },
    {
      "type": "way",
      "id": 191035698,
      "center": {
        "lat": 12.9813859,
        "lon": 77.5593257
      },
      "tags": {
        "amenity": "school",
        "name": "SJR School",
        "wheelchair": "limited"
      }
    },
    {
      "type": "way",
      "id": 191035701,
      "center": {
        "lat": 12.9805003,
        "lon": 77.55978
      },
      "tags": {
        "amenity": "school",
        "name": "Venkat International School",
        "wheelchair": "limited"
      }
    },
    {
      "type": "way",
      "id": 248981465,
      "center": {
        "lat": 12.9856441,
        "lon": 77.5561073
      },
      "tags": {
        "leisure": "park",
        "name": "Ram Mandir Ground"
      }
    },
    {
      "type": "way",
      "id": 248982011,
      "center": {
        "lat": 12.9864756,
        "lon": 77.5560959
      },
      "tags": {
        "amenity": "place_of_worship",
        "building": "temple",
        "name": "Sri Rama Mandira",
        "name:kn": "ಶ್ರೀ ರಾಮ ಮಂದಿರ",
        "religion": "hindu"
      }
    },
    {
      "type": "way",
      "id": 255664771,
      "center": {
        "lat": 12.991534,
        "lon": 77.5534904
      },
      "tags": {
        "alt_name": "ESICMC & PGIMSR",
        "amenity": "college",
        "int_name": "ESI Medical College",
        "name": "Employees' State Insurance Corporation Medical College & Post Graduate Institute of Medical Science & Research",
        "wheelchair": "limited"
      }
    },
    {
      "type": "way",
      "id": 259570534,
      "center": {
        "lat": 12.9815956,
        "lon": 77.5529529
      },
      "tags": {
        "amenity": "college",
        "building": "yes",
        "int_name": "Rajajinagar Parents' Association Education Trust",
        "name": "RPA First Grade College",
        "wheelchair": "no"
      }
    },
    {
      "type": "way",
      "id": 314082237,
      "center": {
        "lat": 12.9898972,
        "lon": 77.557249
      },
      "tags": {
        "leisure": "park",
        "name": "Children' play park"
      }
    },
    {
      "type": "way",
      "id": 314082268,
      "center": {
        "lat": 12.988455,
        "lon": 77.5580134
      },
      "tags": {
        "amenity": "place_of_worship",
        "building": "yes",
        "name": "Masoodhi",
        "name:kn": "ಮಸ್ಜಿದ್-ಎ-ನೂರ್",
        "religion": "muslim"
      }
    },
    {
      "type": "way",
      "id": 332419689,
      "center": {
        "lat": 12.9860061,
        "lon": 77.5561076
      },
      "tags": {
        "addr:city": "Bengaluru",
        "addr:district": "Bengaluru Urban",
        "addr:housenumber": "228/B",
        "addr:postcode": "560010",
        "addr:street": "55th Cross Rd, 1st Block, 3rd Block, Rajajinagar",
        "amenity": "library",
        "building": "yes",
        "name": "Public Library Rama Mandira Ground"
      }
    },
    {
      "type": "way",
      "id": 332420722,
      "center": {
        "lat": 12.9846871,
        "lon": 77.5539948
      },
      "tags": {
        "addr:city": "Bengaluru",
        "addr:postcode": "560010",
        "addr:street": "12th Main Road, Bashyam Circle, 3rd Block, Rajajinagar",
        "building": "yes",
        "name": "Flying Machine",
        "shop": "clothes"
      }
    },
    {
      "type": "way",
      "id": 334146826,
      "center": {
        "lat": 12.989147,
        "lon": 77.5576453
      },
      "tags": {
        "leisure": "park",
        "name": "Dharma Naidu Udhyanavana",
        "name:kn": "ಧರ್ಮ ನಾಯಿದು ಉದ್ಯಾನವನ"
      }
    },
    {
      "type": "way",
      "id": 334150635,
      "center": {
        "lat": 12.9896286,
        "lon": 77.5545539
      },
      "tags": {
        "amenity": "community_centre",
        "building": "yes",
        "name": "Terapanth Bhavan",
        "name:kn": "ತೇರಾಪಂಥ್ ಭವನ"
      }
    },
    {
      "type": "way",
      "id": 337987686,
      "center": {
        "lat": 12.9744546,
        "lon": 77.5640222
      },
      "tags": {
        "amenity": "hospital",
        "healthcare": "hospital",
        "name": "Leprosy Hospital"
      }
    },
    {
      "type": "way",
      "id": 347524506,
      "center": {
        "lat": 12.9867944,
        "lon": 77.5503643
      },
      "tags": {
        "amenity": "place_of_worship",
        "religion": "hindu"
      }
    },
    {
      "type": "way",
      "id": 347575616,
      "center": {
        "lat": 12.9844374,
        "lon": 77.5583151
      },
      "tags": {
        "addr:city": "Bangalore",
        "addr:housenumber": "222A/3",
        "addr:postcode": "560010",
        "addr:street": "58th Cross Rd, 4th Block, Rajaji Nagar,",
        "amenity": "place_of_worship",
        "building": "yes",
        "denomination": "original",
        "description": "Original Mandir To Worship Lord Swaminarayan",
        "name": "Shri Swaminarayan Mandir Vadtal Sansthan",
        "religion": "hindu",
        "website": "http://swaminarayanbangalore.com/"
      }
    },
    {
      "type": "way",
      "id": 347577234,
      "center": {
        "lat": 12.9853867,
        "lon": 77.5565285
      },
      "tags": {
        "amenity": "place_of_worship",
        "building": "yes",
        "fixme": "name of the temple/community hall/prayer hall",
        "religion": "jain"
      }
    },
    {
      "type": "way",
      "id": 348143055,
      "center": {
        "lat": 12.9830781,
        "lon": 77.561042
      },
      "tags": {
        "amenity": "post_office",
        "building": "yes",
        "name": "India Post",
        "name:kn": "ಅಂಚೆ ಕಛೇರಿ",
        "operator": "India Post",
        "operator:wikidata": "Q3519720"
      }
    },
    {
      "type": "way",
      "id": 363071335,
      "center": {
        "lat": 12.9863238,
        "lon": 77.5572633
      },
      "tags": {
        "addr:city": "Bangalore",
        "addr:housenumber": "209",
        "addr:postcode": "560010",
        "addr:street": "54th Cross Road",
        "dog": "yes",
        "leisure": "park",
        "name": "ABC Park",
        "opening_hours": "Mo-Su 05:00-20:00"
      }
    },
    {
      "type": "way",
      "id": 440598467,
      "center": {
        "lat": 12.9863051,
        "lon": 77.5502659
      },
      "tags": {
        "leisure": "playground",
        "name": "Dhobi Ghat Ground"
      }
    },
    {
      "type": "way",
      "id": 442786620,
      "center": {
        "lat": 12.9841446,
        "lon": 77.5496683
      },
      "tags": {
        "amenity": "school",
        "name": "National Public School, Rajajinagar",
        "name:kn": "ರಾಷ್ಟ್ರೀಯ ಸಾರ್ವಜನಿಕ ಶಾಲೆ ರಾಜಾಜಿನಗರ",
        "official_name": "National Public School",
        "wikidata": "Q6975125",
        "wikipedia": "en:National Public School, Rajajinagar"
      }
    },
    {
      "type": "way",
      "id": 532677470,
      "center": {
        "lat": 12.9838124,
        "lon": 77.5499157
      },
      "tags": {
        "leisure": "playground"
      }
    },
    {
      "type": "way",
      "id": 532677475,
      "center": {
        "lat": 12.9841084,
        "lon": 77.5499302
      },
      "tags": {
        "leisure": "pitch",
        "sport": "basketball",
        "surface": "paved"
      }
    },
    {
      "type": "way",
      "id": 532677476,
      "center": {
        "lat": 12.9843635,
        "lon": 77.5499367
      },
      "tags": {
        "leisure": "pitch",
        "sport": "volleyball",
        "surface": "unpaved"
      }
    },
    {
      "type": "way",
      "id": 762500480,
      "center": {
        "lat": 12.9845643,
        "lon": 77.5495696
      },
      "tags": {
        "leisure": "garden"
      }
    },
    {
      "type": "way",
      "id": 764600966,
      "center": {
        "lat": 12.977679,
        "lon": 77.5635352
      },
      "tags": {
        "access": "private",
        "leisure": "swimming_pool"
      }
    },
    {
      "type": "way",
      "id": 766604290,
      "center": {
        "lat": 12.9781752,
        "lon": 77.5627983
      },
      "tags": {
        "leisure": "pitch",
        "name": "Tennis Court",
        "name:kn": "ಟೆನ್ನಿಸ್ ಅಂಗಣ",
        "sport": "tennis"
      }
    },
    {
      "type": "way",
      "id": 768703827,
      "center": {
        "lat": 12.9767771,
        "lon": 77.5570604
      },
      "tags": {
        "leisure": "garden"
      }
    },
    {
      "type": "way",
      "id": 768703830,
      "center": {
        "lat": 12.976935,
        "lon": 77.5569343
      },
      "tags": {
        "access": "private",
        "leisure": "swimming_pool"
      }
    },
    {
      "type": "way",
      "id": 781588915,
      "center": {
        "lat": 12.9810437,
        "lon": 77.5557619
      },
      "tags": {
        "addr:city": "Bengaluru",
        "addr:country": "IN",
        "addr:district": "Bangalore Urban",
        "addr:housenumber": "176",
        "addr:postcode": "560010",
        "addr:street": "6th Cross Road",
        "addr:suburb": "Rajajinagar",
        "leisure": "sports_centre",
        "name": "Tennis Temple",
        "sport": "tennis",
        "website": "https://tennis360.in"
      }
    },
    {
      "type": "way",
      "id": 781588917,
      "center": {
        "lat": 12.9822633,
        "lon": 77.5530491
      },
      "tags": {
        "amenity": "school",
        "name": "Venkat International School",
        "wheelchair": "limited"
      }
    },
    {
      "type": "way",
      "id": 796367857,
      "center": {
        "lat": 12.9767096,
        "lon": 77.5649081
      },
      "tags": {
        "amenity": "place_of_worship",
        "religion": "hindu"
      }
    },
    {
      "type": "way",
      "id": 851788944,
      "center": {
        "lat": 12.9821724,
        "lon": 77.5612902
      },
      "tags": {
        "addr:city": "Bangalore",
        "addr:street": "Link Road",
        "amenity": "college",
        "name": "SJR College for Women"
      }
    },
    {
      "type": "way",
      "id": 991965856,
      "center": {
        "lat": 12.9780504,
        "lon": 77.5631151
      },
      "tags": {
        "leisure": "park"
      }
    },
    {
      "type": "way",
      "id": 1047549733,
      "center": {
        "lat": 12.9822336,
        "lon": 77.5664076
      },
      "tags": {
        "amenity": "fuel",
        "brand": "Shell",
        "brand:wikidata": "Q110716465",
        "compressed_air": "yes",
        "name": "Shell",
        "name:kn": "ಶೆಲ್",
        "operator": "Shell"
      }
    },
    {
      "type": "way",
      "id": 1076618915,
      "center": {
        "lat": 12.9849552,
        "lon": 77.556924
      },
      "tags": {
        "amenity": "hospital"
      }
    },
    {
      "type": "way",
      "id": 1084363602,
      "center": {
        "lat": 12.9854992,
        "lon": 77.5500979
      },
      "tags": {
        "name": "Dhobi Ghat",
        "name:kn": "ಧೋಬಿ ಘಾಟ್",
        "shop": "laundry"
      }
    },
    {
      "type": "way",
      "id": 1084363608,
      "center": {
        "lat": 12.9840297,
        "lon": 77.551708
      },
      "tags": {
        "leisure": "park"
      }
    },
    {
      "type": "way",
      "id": 1084363614,
      "center": {
        "lat": 12.9831886,
        "lon": 77.549527
      },
      "tags": {
        "leisure": "park"
      }
    },
    {
      "type": "way",
      "id": 1141353122,
      "center": {
        "lat": 12.9882302,
        "lon": 77.5600393
      },
      "tags": {
        "addr:district": "Bengaluru Urban",
        "addr:full": "1A/87, Dr Rajkumar Road, 4th Block, Rajajinagar",
        "addr:postcode": "560010",
        "addr:state": "Karnataka",
        "addr:street": "Dr Rajkumar Road",
        "amenity": "hospital",
        "emergency": "yes",
        "name": "Suguna Hospital",
        "name:kn": "ಸುಗುಣ ಆಸ್ಪತ್ರೆ",
        "source": "OpenGovernmentData"
      }
    },
    {
      "type": "way",
      "id": 1187741521,
      "center": {
        "lat": 12.9818579,
        "lon": 77.562324
      },
      "tags": {
        "access": "customers",
        "amenity": "motorcycle_parking",
        "parking": "surface"
      }
    },
    {
      "type": "way",
      "id": 1218825664,
      "center": {
        "lat": 12.9820859,
        "lon": 77.5632761
      },
      "tags": {
        "leisure": "park"
      }
    },
    {
      "type": "way",
      "id": 1222725575,
      "center": {
        "lat": 12.9794752,
        "lon": 77.5628191
      },
      "tags": {
        "leisure": "playground"
      }
    },
    {
      "type": "way",
      "id": 1222725576,
      "center": {
        "lat": 12.9793284,
        "lon": 77.5628305
      },
      "tags": {
        "access": "permissive",
        "leisure": "swimming_pool"
      }
    },
    {
      "type": "way",
      "id": 1222725580,
      "center": {
        "lat": 12.9776149,
        "lon": 77.5644233
      },
      "tags": {
        "leisure": "park"
      }
    },
    {
      "type": "way",
      "id": 1228264083,
      "center": {
        "lat": 12.9882352,
        "lon": 77.5602774
      },
      "tags": {
        "amenity": "parking",
        "parking": "surface"
      }
    },
    {
      "type": "way",
      "id": 1352475178,
      "center": {
        "lat": 12.9759236,
        "lon": 77.5573789
      },
      "tags": {
        "amenity": "fuel"
      }
    },
    {
      "type": "way",
      "id": 1352475182,
      "center": {
        "lat": 12.9761165,
        "lon": 77.5565538
      },
      "tags": {
        "access": "yes",
        "amenity": "parking",
        "fee": "yes",
        "operator": "BMRCL",
        "parking": "surface"
      }
    }
  ]
}