{
  "area_name": "Rajagopala Nagara",
  "osm_id": 19884578,
  "osm_type": "relation",
  "place_type": "administrative",
  "amenity_count": 5,
  "amenities": [
    {
      "type": "node",
      "id": 1794171016,
      "lat": 13.0108586,
      "lon": 77.5069287,
      "tags": {
        "amenity": "bus_station",
        "name": "Peenya 2nd Stage",
        "name:kn": "ಪೀಣ್ಯ ೨ನೇ ಹಂತ"
      }
    },
    {
      "type": "node",
      "id": 6944887294,
      "lat": 13.0117001,
      "lon": 77.509717,
      "tags": {
        "addr:district": "Bengaluru Urban",
        "addr:full": "Vijothi 3Road Cross Opp Maruthi Theatre Rajagopalanagar",
        "addr:postcode": "560058",
        "addr:state": "Karnataka",
        "amenity": "clinic",
        "name": "Jyothi Nursing and Maternity Home",
        "source": "OpenGovernmentData"
      }
    },
    {
      "type": "node",
      "id": 6947682046,
      "lat": 13.0068811,
      "lon": 77.5055636,
      "tags": {
        "addr:district": "Bengaluru Rural",
        "addr:full": "208, 210, Hegganahalli Main Road, Near Peenya 2nd Stage, Hegganahalli",
        "addr:postcode": "560091",
        "addr:state": "Karnataka",
        "amenity": "hospital",
        "name": "Jai Maruthi Hospital",
        "source": "OpenGovernmentData"
      }
    },
    {
      "type": "way",
      "id": 675688696,
      "center": {
        "lat": 13.0097604,
        "lon": 77.5143613
      },
      "tags": {
        "leisure": "park"
      }
    },
    {
      "type": "way",
      "id": 1123272073,
      "center": {
        "lat": 13.0091958,
        "lon": 77.514716
      },
      "tags": {
        "amenity": "school",
        "name": "Gnanodhaya International School"
      }
    }
  ]
}