{
  "area_name": "Rajarajeshwari Nagar",
  "osm_id": 447063719,
  "osm_type": "node",
  "place_type": "suburb",
  "amenity_count": 139,
  "amenities": [
    {
      "type": "node",
      "id": 1463547234,
      "lat": 12.9360631,
      "lon": 77.5177447,
      "tags": {
        "air_conditioning": "yes",
        "alt_name": "Kentucky Fried Chicken",
        "alt_name:en": "Kentucky Fried Chicken",
        "alt_name:hi": "केंटुकी फ्राइड चिकन",
        "alt_name:pa": "ਕੈਂਟੁਕੀ ਫ੍ਰਾਈਡ ਚਿਕਨ",
        "alt_name:pnb": "کینٹکی فرائیڈ چکن",
        "alt_name:ur": "کینٹکی فرائیڈ چکن",
        "amenity": "fast_food",
        "brand": "KFC",
        "brand:en": "KFC",
        "brand:hi": "केएफसी",
        "brand:pa": "ਕੇਐਫਸੀ",
        "brand:pnb": "کے ایف سی",
        "brand:ur": "کے ایف سی",
        "brand:wikidata": "Q524757",
        "brand:wikipedia": "en:KFC",
        "brand:wikipedia:pa": "ਕੇਐਫਸੀ",
        "brand:wikipedia:ur": "کینٹکی فرائیڈ چکن",
        "cuisine": "chicken",
        "diet:vegetarian": "yes",
        "indoor_seating": "yes",
        "name": "KFC",
        "name:en": "KFC",
        "name:hi": "केएफसी",
        "name:pa": "ਕੇਐਫਸੀ",
        "name:pnb": "کے ایف سی",
        "name:ur": "کے ایف سی",
        "outdoor_seating": "no",
        "smoking": "no",
        "takeaway": "yes"
      }
    },
    {
      "type": "node",
      "id": 1463547492,
      "lat": 12.9360526,
      "lon": 77.5179485,
      "tags": {
        "air_conditioning": "yes",
        "amenity": "fast_food",
        "brand": "McDonald's",
        "brand:pa": "ਮੈਕਡੋਨਲਡ’ਜ਼",
        "brand:ur": "مکڈونلڈز",
        "brand:wikidata": "Q38076",
        "brand:wikipedia": "en:McDonald's",
        "brand:wikipedia:pa": "ਮੈਕਡੋਨਲਡ’ਜ਼",
        "brand:wikipedia:ur": "مکڈونلڈز",
        "cuisine": "burger",
        "diet:vegetarian": "yes",
        "indoor_seating": "yes",
        "name": "McDonald's",
        "name:pa": "ਮੈਕਡੋਨਲਡ’ਜ਼",
        "name:ur": "مکڈونلڈز",
        "outdoor_seating": "no",
        "smoking": "no",
        "takeaway": "yes"
      }
    },
    {
      "type": "node",
      "id": 1463547493,
      "lat": 12.9357964,
      "lon": 77.5177929,
      "tags": {
        "amenity": "cinema",
        "name": "Big Cinemas"
      }
    },
    {
      "type": "node",
      "id": 1463547878,
      "lat": 12.9358801,
      "lon": 77.5176749,
      "tags": {
        "addr:city": "Bengaluru",
        "addr:street": "Bangalore-Mysore Road",
        "brand": "Star Bazaar",
        "brand:wikidata": "Q124175958",
        "name": "Star Bazaar",
        "organic": "yes",
        "shop": "supermarket",
        "website": "https://www.spencers.in/"
      }
    },
    {
      "type": "node",
      "id": 1463549048,
      "lat": 12.9359062,
      "lon": 77.5178788,
      "tags": {
        "name": "Brand Factory",
        "shop": "clothes"
      }
    },
    {
      "type": "node",
      "id": 1463550307,
      "lat": 12.9358801,
      "lon": 77.5175515,
      "tags": {
        "name": "Pai Electronics",
        "shop": "hifi"
      }
    },
    {
      "type": "node",
      "id": 1463551226,
      "lat": 12.9359271,
      "lon": 77.5179968,
      "tags": {
        "amenity": "atm",
        "brand": "ICICI Bank",
        "brand:wikidata": "Q1653258",
        "operator": "ICICI Bank",
        "operator:wikidata": "Q1653258",
        "short_name": "ICICI"
      }
    },
    {
      "type": "node",
      "id": 1463554421,
      "lat": 12.9314098,
      "lon": 77.515069,
      "tags": {
        "amenity": "place_of_worship",
        "check_date": "2023-11-16",
        "name": "Church Of The Holy Name Of Jesus",
        "religion": "christian"
      }
    },
    {
      "type": "node",
      "id": 1463555171,
      "lat": 12.9312478,
      "lon": 77.5154648,
      "tags": {
        "amenity": "bank",
        "atm": "yes",
        "brand": "ICICI Bank",
        "brand:wikidata": "Q1653258",
        "name": "ICICI Bank",
        "name:en": "ICICI Bank",
        "name:kn": "ಐಸಿಐಸಿಐ ಬ್ಯಾಂಕು",
        "short_name": "ICICI",
        "website": "https://www.icicibank.com"
      }
    },
    {
      "type": "node",
      "id": 1463555571,
      "lat": 12.930936,
      "lon": 77.5153776,
      "tags": {
        "addr:district": "Bengaluru Urban",
        "addr:full": "No. 484/A, Ideal Homes Township, 18th Main Road, Rajarajeshwarinagar",
        "addr:postcode": "560098",
        "addr:state": "Karnataka",
        "amenity": "hospital",
        "name": "Rc Hospital",
        "source": "OpenGovernmentData"
      }
    },
    {
      "type": "node",
      "id": 1463556053,
      "lat": 12.9309289,
      "lon": 77.5154272,
      "tags": {
        "amenity": "pharmacy",
        "dispensing": "yes",
        "name": "Trust"
      }
    },
    {
      "type": "node",
      "id": 1463563270,
      "lat": 12.9262076,
      "lon": 77.5151161,
      "tags": {
        "name": "Classic Polo Showroom",
        "shop": "clothes"
      }
    },
    {
      "type": "node",
      "id": 1463563608,
      "lat": 12.9263226,
      "lon": 77.5156579,
      "tags": {
        "amenity": "hospital",
        "name": "Veturi Child Health Centre"
      }
    },
    {
      "type": "node",
      "id": 1463569358,
      "lat": 12.9217044,
      "lon": 77.5204162,
      "tags": {
        "amenity": "fast_food",
        "cuisine": "regional",
        "name": "Bramhi Aahaara"
      }
    },
    {
      "type": "node",
      "id": 1463570044,
      "lat": 12.9214078,
      "lon": 77.5206736,
      "tags": {
        "amenity": "restaurant",
        "cuisine": "chinese",
        "name": "Beijing Bites",
        "name:kn": "ಬೀಜಿಂಗ್ ಬೈಟ್ಸ್"
      }
    },
    {
      "type": "node",
      "id": 1463570454,
      "lat": 12.920634,
      "lon": 77.5205368,
      "tags": {
        "amenity": "cafe",
        "name": "Coffee Day"
      }
    },
    {
      "type": "node",
      "id": 1463571018,
      "lat": 12.9209843,
      "lon": 77.5202713,
      "tags": {
        "name": "Food World",
        "shop": "supermarket"
      }
    },
    {
      "type": "node",
      "id": 1463571577,
      "lat": 12.9202209,
      "lon": 77.5201908,
      "tags": {
        "amenity": "place_of_worship",
        "name": "Ganesha Temple",
        "name:kn": "ಗಣೇಶ ದೇವಸ್ಥಾನ",
        "religion": "hindu"
      }
    },
    {
      "type": "node",
      "id": 1474854805,
      "lat": 12.931206,
      "lon": 77.5153867,
      "tags": {
        "amenity": "bank",
        "brand": "Axis Bank",
        "brand:wikidata": "Q2003549",
        "brand:wikipedia": "en:Axis Bank",
        "name": "Axis Bank",
        "name:en": "Axis Bank",
        "name:kn": "ಆಕ್ಸಿಸ್ ಬ್ಯಾಂಕ್",
        "website": "https://www.axisbank.com"
      }
    },
    {
      "type": "node",
      "id": 2996236143,
      "lat": 12.9266584,
      "lon": 77.5199911,
      "tags": {
        "amenity": "restaurant",
        "cuisine": "regional",
        "name": "Monish Corner"
      }
    },
    {
      "type": "node",
      "id": 2996236145,
      "lat": 12.9247082,
      "lon": 77.5196155,
      "tags": {
        "name": "Lakshmi Departmental Stores",
        "shop": "department_store"
      }
    },
    {
      "type": "node",
      "id": 2996236146,
      "lat": 12.9244128,
      "lon": 77.5190496,
      "tags": {
        "name": "Namdhari's Fresh",
        "shop": "supermarket"
      }
    },
    {
      "type": "node",
      "id": 2996236148,
      "lat": 12.9242219,
      "lon": 77.518945,
      "tags": {
        "amenity": "school",
        "name": "Carmel School Ground"
      }
    },
    {
      "type": "node",
      "id": 3004239730,
      "lat": 12.9228792,
      "lon": 77.5207873,
      "tags": {
        "name": "Le Pape",
        "shop": "clothes"
      }
    },
    {
      "type": "node",
      "id": 3004275434,
      "lat": 12.931334,
      "lon": 77.5154779,
      "tags": {
        "addr:district": "Bengaluru Urban",
        "addr:full": "#483, 16 Th Cross, 8 Th Main",
        "addr:postcode": "560098",
        "addr:state": "Karnataka",
        "addr:subdistrict": "Rajarajeswarinagar",
        "amenity": "hospital",
        "healthcare": "doctor",
        "healthcare:speciality": "ophthalmology",
        "name": "Vasan Eye Care Hospital, Rajarajeswari Nagar",
        "operator:type": "private",
        "source": "OpenGovernmentData",
        "website": "http://www.vasaneye.in/"
      }
    },
    {
      "type": "node",
      "id": 3259732942,
      "lat": 12.9204553,
      "lon": 77.515172,
      "tags": {
        "addr:city": "BENGALURU",
        "addr:postcode": "560098",
        "addr:street": "1st Cross, 1st Main, 1st Phase, 5th Stage, BEML Layout",
        "name": "HP GAS",
        "operator": "Abhishek GAS Agency",
        "shop": "Distributor"
      }
    },
    {
      "type": "node",
      "id": 3259733378,
      "lat": 12.920322,
      "lon": 77.5161055,
      "tags": {
        "addr:city": "BENGALURU",
        "addr:housenumber": "1669",
        "addr:postcode": "560098",
        "addr:street": "I Main, I Phase, V Stage, BEML Layout, RajaRajeshwari Nagar",
        "name": "Nikhil Electricals",
        "operator": "Nikhil Electricals",
        "shop": "electrical"
      }
    },
    {
      "type": "node",
      "id": 3259763130,
      "lat": 12.926408,
      "lon": 77.5158466,
      "tags": {
        "addr:city": "BENGALURU",
        "addr:postcode": "560098",
        "addr:street": "Ideal Homes",
        "amenity": "bank",
        "atm": "yes",
        "brand": "State Bank of India",
        "brand:wikidata": "Q1340361",
        "brand:wikipedia": "en:State Bank of India",
        "drive_through": "no",
        "name": "State Bank of India",
        "name:kn": "ಭಾರತೀಯ ಸ್ಟೇಟ್ ಬ್ಯಾಂಕ್",
        "operator": "State Bank of India"
      }
    },
    {
      "type": "node",
      "id": 3259780194,
      "lat": 12.9198566,
      "lon": 77.5142588,
      "tags": {
        "addr:city": "BENGALURU",
        "addr:postcode": "560098",
        "amenity": "bank",
        "name": "Apex Bank",
        "name:kn": "ಏಪೆಕ್ಸ್ ಬ್ಯಾಂಕ್",
        "opening_hours": "Mo-Fr 09:00-15:00;Sa 09:00-12:00",
        "operator": "APEX Bank"
      }
    },
    {
      "type": "node",
      "id": 3546831488,
      "lat": 12.9209531,
      "lon": 77.5213014,
      "tags": {
        "amenity": "school",
        "name": "BET Convent"
      }
    },
    {
      "type": "node",
      "id": 3690755778,
      "lat": 12.9313955,
      "lon": 77.5179594,
      "tags": {
        "amenity": "restaurant",
        "cuisine": "regional",
        "delivery": "yes",
        "name": "Twillight Tandoor Resto",
        "takeaway": "yes"
      }
    },
    {
      "type": "node",
      "id": 3691475331,
      "lat": 12.9313595,
      "lon": 77.5135774,
      "tags": {
        "addr:city": "Bengaluru",
        "addr:street": "Kenchenahalli Main Road",
        "amenity": "college",
        "name": "Urban DIET",
        "name:kn": "ನಗರ ಡೈಟ್",
        "operator": "Government"
      }
    },
    {
      "type": "node",
      "id": 4210647484,
      "lat": 12.9201765,
      "lon": 77.5174169,
      "tags": {
        "emergency": "no",
        "name": "Ramesh Medicals",
        "shop": "medical_supply"
      }
    },
    {
      "type": "node",
      "id": 4210668285,
      "lat": 12.920166,
      "lon": 77.5173257,
      "tags": {
        "name": "ACE Iyengar",
        "shop": "deli"
      }
    },
    {
      "type": "node",
      "id": 4210668286,
      "lat": 12.9201189,
      "lon": 77.5177655,
      "tags": {
        "name": "Delhi Chats",
        "shop": "deli"
      }
    },
    {
      "type": "node",
      "id": 4210668287,
      "lat": 12.9200614,
      "lon": 77.5183905,
      "tags": {
        "amenity": "childcare"
      }
    },
    {
      "type": "node",
      "id": 4212006126,
      "lat": 12.926701,
      "lon": 77.5143041,
      "tags": {
        "name": "Reliance Digital",
        "name:kn": "ರಿಲಾಯನ್ಸ್ ಡಿಜಿಟಲ್",
        "operator": "Reliance",
        "shop": "electronics"
      }
    },
    {
      "type": "node",
      "id": 4212006127,
      "lat": 12.9268736,
      "lon": 77.5143095,
      "tags": {
        "amenity": "community_centre",
        "name": "Vasavi Mahal",
        "name:kn": "ವಾಸವಿ ಮಹಲ್"
      }
    },
    {
      "type": "node",
      "id": 4212006129,
      "lat": 12.9221365,
      "lon": 77.5204974,
      "tags": {
        "addr:city": "Bengaluru",
        "addr:postcode": "560098",
        "addr:street": "BEML Layout 3rd Stage, Rajarajeshwari Nagar",
        "name": "Feet Shop",
        "shop": "shoes"
      }
    },
    {
      "type": "node",
      "id": 4488319661,
      "lat": 12.9208959,
      "lon": 77.5206097,
      "tags": {
        "addr:city": "BANGALORE",
        "addr:postcode": "560098",
        "addr:street": "Rajeswari nagar",
        "name": "Lakme Salon",
        "phone": "8033050394",
        "shop": "beauty"
      }
    },
    {
      "type": "node",
      "id": 5075572822,
      "lat": 12.9257694,
      "lon": 77.5211371,
      "tags": {
        "shop": "bakery"
      }
    },
    {
      "type": "node",
      "id": 5109209997,
      "lat": 12.9358578,
      "lon": 77.5160132,
      "tags": {
        "brand": "Renault",
        "brand:wikidata": "Q6686",
        "name": "Renault",
        "shop": "car"
      }
    },
    {
      "type": "node",
      "id": 5459056421,
      "lat": 12.9302122,
      "lon": 77.5150097,
      "tags": {
        "amenity": "fast_food",
        "check_date": "2025-10-18",
        "name": "RR Coffee House",
        "wheelchair": "no"
      }
    },
    {
      "type": "node",
      "id": 5459261729,
      "lat": 12.932306,
      "lon": 77.5165647,
      "tags": {
        "amenity": "cafe",
        "name": "Stone House Cafe"
      }
    },
    {
      "type": "node",
      "id": 5466043458,
      "lat": 12.9315906,
      "lon": 77.5174586,
      "tags": {
        "amenity": "kindergarten",
        "name": "Young World"
      }
    },
    {
      "type": "node",
      "id": 6292879944,
      "lat": 12.9275842,
      "lon": 77.5153381,
      "tags": {
        "amenity": "place_of_worship",
        "religion": "hindu"
      }
    },
    {
      "type": "node",
      "id": 6293010388,
      "lat": 12.9263673,
      "lon": 77.5156313,
      "tags": {
        "amenity": "bank",
        "atm": "yes",
        "brand": "HDFC Bank",
        "brand:wikidata": "Q631047",
        "brand:wikipedia": "en:HDFC Bank",
        "drive_through": "no",
        "name": "HDFC Bank",
        "name:kn": "ಎಚ್ ಡಿ ಎಫ್ ಸಿ",
        "operator": "HDFC"
      }
    },
    {
      "type": "node",
      "id": 7124635756,
      "lat": 12.9334731,
      "lon": 77.5099571,
      "tags": {
        "name": "Maruti Suzuki Nexa",
        "shop": "car"
      }
    },
    {
      "type": "node",
      "id": 7137042125,
      "lat": 12.9358794,
      "lon": 77.5162321,
      "tags": {
        "brand": "Honda",
        "brand:wikidata": "Q9584",
        "name": "Tridentauto Honda",
        "shop": "motorcycle"
      }
    },
    {
      "type": "node",
      "id": 8240257803,
      "lat": 12.9348259,
      "lon": 77.5116992,
      "tags": {
        "amenity": "fast_food",
        "name": "Mane Upahara"
      }
    },
    {
      "type": "node",
      "id": 9654247760,
      "lat": 12.9349331,
      "lon": 77.5119513,
      "tags": {
        "amenity": "fast_food",
        "cuisine": "regional",
        "name": "Thalassery Restaurant"
      }
    },
    {
      "type": "node",
      "id": 9692962923,
      "lat": 12.9288721,
      "lon": 77.5073755,
      "tags": {
        "amenity": "shelter",
        "shelter_type": "gazebo"
      }
    },
    {
      "type": "node",
      "id": 9838551996,
      "lat": 12.9200603,
      "lon": 77.5108428,
      "tags": {
        "amenity": "place_of_worship",
        "name": "Anjaneya Temple",
        "religion": "hindu"
      }
    },
    {
      "type": "node",
      "id": 10571036700,
      "lat": 12.9330518,
      "lon": 77.5158827,
      "tags": {
        "addr:city": "Bengaluru",
        "addr:housenumber": "No. 478",
        "addr:postcode": "560098",
        "addr:street": "P-2, Ideal Homes Town Ship, Rajarajeshwari Nagar",
        "amenity": "bank",
        "branch": "Rajarajeshwari Nagar",
        "brand": "Bank of Baroda",
        "brand:wikidata": "Q2003797",
        "name": "Bank of Baroda",
        "opening_hours": "Mo-Sa 10:00-19:00"
      }
    },
    {
      "type": "node",
      "id": 10944076080,
      "lat": 12.9317722,
      "lon": 77.5157033,
      "tags": {
        "amenity": "bar",
        "name": "1522 Pub",
        "website": "https://thepub1522.com/"
      }
    },
    {
      "type": "node",
      "id": 12018176333,
      "lat": 12.9331882,
      "lon": 77.5167967,
      "tags": {
        "addr:city": "Bangalore",
        "addr:country": "IN",
        "addr:housenumber": "148",
        "addr:postcode": "560098",
        "addr:street": "Kenchenahalli Main Road",
        "addr:suburb": "Rajarajeshwari Nagar",
        "amenity": "restaurant",
        "check_date": "2025-10-18",
        "contact:instagram": "daysie.allday",
        "delivery": "yes",
        "level": "0",
        "name": "Daysie",
        "takeaway": "yes",
        "website": "https://daysie.in/"
      }
    },
    {
      "type": "node",
      "id": 12395928078,
      "lat": 12.9330366,
      "lon": 77.5166559,
      "tags": {
        "addr:city": "Bengaluru",
        "addr:street": "Kenchenahalli Main Road",
        "addr:suburb": "Rajarajeshwari Nagar",
        "amenity": "restaurant",
        "check_date": "2025-10-18",
        "cuisine": "pizza",
        "delivery": "yes",
        "name": "Serious Slice",
        "takeaway": "yes",
        "website": "http://seriousslice.in/"
      }
    },
    {
      "type": "node",
      "id": 12538062751,
      "lat": 12.9321659,
      "lon": 77.5155657,
      "tags": {
        "addr:city": "Bengaluru",
        "addr:district": "Bengaluru Urban",
        "addr:postcode": "560098",
        "addr:street": "80 Feet Road, Ideal Homes Layout, Ideal Homes Twp, Rajarajeshwari Nagar",
        "amenity": "bank",
        "brand": "State Bank of India",
        "brand:wikidata": "Q1340361",
        "name": "State Bank of India",
        "short_name": "SBI"
      }
    },
    {
      "type": "node",
      "id": 13127367968,
      "lat": 12.9296878,
      "lon": 77.5209957,
      "tags": {
        "amenity": "shelter",
        "shelter_type": "gazebo"
      }
    },
    {
      "type": "node",
      "id": 13127367969,
      "lat": 12.929544,
      "lon": 77.5213525,
      "tags": {
        "amenity": "shelter",
        "shelter_type": "gazebo"
      }
    },
    {
      "type": "node",
      "id": 13127368034,
      "lat": 12.9285532,
      "lon": 77.5161999,
      "tags": {
        "amenity": "shelter",
        "shelter_type": "gazebo"
      }
    },
    {
      "type": "node",
      "id": 13127368035,
      "lat": 12.9286813,
      "lon": 77.5165969,
      "tags": {
        "amenity": "shelter",
        "shelter_type": "gazebo"
      }
    },
    {
      "type": "node",
      "id": 13127368064,
      "lat": 12.9290983,
      "lon": 77.5178924,
      "tags": {
        "amenity": "shelter",
        "shelter_type": "gazebo"
      }
    },
    {
      "type": "node",
      "id": 13127368065,
      "lat": 12.9295087,
      "lon": 77.5175303,
      "tags": {
        "amenity": "shelter",
        "shelter_type": "gazebo"
      }
    },
    {
      "type": "node",
      "id": 13127368066,
      "lat": 12.9298642,
      "lon": 77.5183216,
      "tags": {
        "amenity": "shelter",
        "shelter_type": "gazebo"
      }
    },
    {
      "type": "node",
      "id": 13240113592,
      "lat": 12.9300874,
      "lon": 77.5149732,
      "tags": {
        "amenity": "restaurant",
        "check_date": "2025-10-18",
        "diet:vegetarian": "yes",
        "name": "Paakashala"
      }
    },
    {
      "type": "node",
      "id": 13240113596,
      "lat": 12.9274267,
      "lon": 77.5150483,
      "tags": {
        "amenity": "community_centre",
        "check_date": "2025-10-18",
        "community_centre": "community_hall",
        "name": "Ideal Community Hall"
      }
    },
    {
      "type": "node",
      "id": 13240135376,
      "lat": 12.9282791,
      "lon": 77.5162838,
      "tags": {
        "amenity": "post_box",
        "operator": "India Post"
      }
    },
    {
      "type": "node",
      "id": 13240137087,
      "lat": 12.9285703,
      "lon": 77.5161577,
      "tags": {
        "amenity": "bench",
        "backrest": "yes",
        "material": "stone",
        "seats": "2"
      }
    },
    {
      "type": "node",
      "id": 13240142053,
      "lat": 12.928377,
      "lon": 77.5162909,
      "tags": {
        "amenity": "bench"
      }
    },
    {
      "type": "node",
      "id": 13240142054,
      "lat": 12.9283894,
      "lon": 77.5162546,
      "tags": {
        "amenity": "waste_basket"
      }
    },
    {
      "type": "node",
      "id": 13240142055,
      "lat": 12.9284084,
      "lon": 77.5162238,
      "tags": {
        "amenity": "bench"
      }
    },
    {
      "type": "node",
      "id": 13240142056,
      "lat": 12.9283564,
      "lon": 77.5163222,
      "tags": {
        "amenity": "bench"
      }
    },
    {
      "type": "node",
      "id": 13240142057,
      "lat": 12.928462,
      "lon": 77.5161446,
      "tags": {
        "amenity": "bench"
      }
    },
    {
      "type": "node",
      "id": 13240151359,
      "lat": 12.9272313,
      "lon": 77.5178189,
      "tags": {
        "amenity": "kindergarten",
        "check_date": "2025-10-18",
        "name": "Eunoia"
      }
    },
    {
      "type": "node",
      "id": 13240162744,
      "lat": 12.9286287,
      "lon": 77.5161986,
      "tags": {
        "amenity": "bench",
        "armrest": "yes",
        "backrest": "yes",
        "material": "concrete",
        "seats": "3"
      }
    },
    {
      "type": "node",
      "id": 13240162745,
      "lat": 12.9278374,
      "lon": 77.5163046,
      "tags": {
        "brand": "Nandini",
        "brand:wikidata": "Q124374212",
        "check_date": "2025-10-18",
        "name": "Nandini",
        "shop": "dairy"
      }
    },
    {
      "type": "node",
      "id": 13240162746,
      "lat": 12.9277651,
      "lon": 77.5162915,
      "tags": {
        "check_date": "2025-10-18",
        "shop": "copyshop"
      }
    },
    {
      "type": "node",
      "id": 13240172802,
      "lat": 12.9284394,
      "lon": 77.5160786,
      "tags": {
        "check_date": "2025-10-18",
        "name": "AG Enterprises",
        "shop": "kiosk"
      }
    },
    {
      "type": "node",
      "id": 13240191660,
      "lat": 12.9265957,
      "lon": 77.5168425,
      "tags": {
        "amenity": "dancing_school",
        "check_date": "2025-10-18",
        "name": "Kalagrhm"
      }
    },
    {
      "type": "node",
      "id": 13240191661,
      "lat": 12.92661,
      "lon": 77.5174309,
      "tags": {
        "amenity": "kindergarten",
        "check_date": "2025-10-18",
        "name": "Child's Kingdom"
      }
    },
    {
      "type": "node",
      "id": 13240191662,
      "lat": 12.925836,
      "lon": 77.5180757,
      "tags": {
        "amenity": "bank",
        "brand": "Indian Bank",
        "brand:wikidata": "Q2003789",
        "check_date": "2025-10-18",
        "name": "Indian Bank"
      }
    },
    {
      "type": "node",
      "id": 13240199710,
      "lat": 12.9279833,
      "lon": 77.518069,
      "tags": {
        "check_date": "2025-10-18",
        "name": "Coffee 2 Day",
        "shop": "coffee"
      }
    },
    {
      "type": "node",
      "id": 13240199712,
      "lat": 12.9281615,
      "lon": 77.5180785,
      "tags": {
        "check_date": "2025-10-18",
        "name": "Petrichor",
        "organic": "only",
        "shop": "greengrocer"
      }
    },
    {
      "type": "node",
      "id": 13240199714,
      "lat": 12.9280883,
      "lon": 77.5180799,
      "tags": {
        "amenity": "cafe",
        "check_date": "2025-10-18",
        "name": "Blossom Bean Cafe"
      }
    },
    {
      "type": "node",
      "id": 13242935400,
      "lat": 12.9276696,
      "lon": 77.5150909,
      "tags": {
        "amenity": "community_centre",
        "check_date": "2025-10-18",
        "community_centre": "community_hall",
        "name": "Golden Jubilee Convention Centre"
      }
    },
    {
      "type": "node",
      "id": 13242935443,
      "lat": 12.9303818,
      "lon": 77.5151297,
      "tags": {
        "brand": "Nandini",
        "brand:wikidata": "Q124374212",
        "name": "Nandini",
        "shop": "dairy"
      }
    },
    {
      "type": "node",
      "id": 13242935444,
      "lat": 12.9300368,
      "lon": 77.5149474,
      "tags": {
        "name": "Naturals Salon",
        "shop": "beauty"
      }
    },
    {
      "type": "node",
      "id": 13242935445,
      "lat": 12.9299662,
      "lon": 77.5149339,
      "tags": {
        "amenity": "fast_food",
        "cuisine": "pizza",
        "name": "Onesta"
      }
    },
    {
      "type": "node",
      "id": 13242935450,
      "lat": 12.9299989,
      "lon": 77.5149447,
      "tags": {
        "brand": "Royal Enfield",
        "brand:wikidata": "Q2668720",
        "name": "Royal Enfield",
        "shop": "motorcycle"
      }
    },
    {
      "type": "node",
      "id": 13242935451,
      "lat": 12.9304381,
      "lon": 77.5151002,
      "tags": {
        "amenity": "fast_food",
        "name": "The Madras Cafe"
      }
    },
    {
      "type": "node",
      "id": 13269444089,
      "lat": 12.9300684,
      "lon": 77.5150004,
      "tags": {
        "brand": "Royal Enfield",
        "brand:wikidata": "Q2668720",
        "check_date": "2025-10-18",
        "name": "Royal Enfield",
        "shop": "motorcycle",
        "wheelchair": "no"
      }
    },
    {
      "type": "node",
      "id": 13269444090,
      "lat": 12.9300434,
      "lon": 77.5149538,
      "tags": {
        "amenity": "cafe",
        "check_date": "2025-10-18",
        "name": "Onesta",
        "wheelchair": "no"
      }
    },
    {
      "type": "way",
      "id": 132998344,
      "center": {
        "lat": 12.919261,
        "lon": 77.5196974
      },
      "tags": {
        "leisure": "park",
        "name": "Dr Ambedkar Park",
        "name:etymology:wikidata": "Q231690",
        "name:kn": "ಅಂಬೇಡ್ಕರ್ ಉದ್ಯಾನ"
      }
    },
    {
      "type": "way",
      "id": 134100146,
      "center": {
        "lat": 12.9355908,
        "lon": 77.5177172
      },
      "tags": {
        "addr:city": "Bengaluru",
        "addr:street": "Mysore Road",
        "landuse": "commercial",
        "name": "Gopalan Arcade Mall",
        "operator": "Gopalan Enterprises",
        "shop": "mall"
      }
    },
    {
      "type": "way",
      "id": 319551492,
      "center": {
        "lat": 12.9210796,
        "lon": 77.519083
      },
      "tags": {
        "leisure": "park",
        "name": "Vivekananda Park",
        "name:kn": "ವಿವೇಕಾನಂದ ಪಾರ್ಕ್"
      }
    },
    {
      "type": "way",
      "id": 319552562,
      "center": {
        "lat": 12.928623,
        "lon": 77.5165144
      },
      "tags": {
        "leisure": "park",
        "name": "Rajarajeshwari Nagar Park",
        "name:kn": "ರಾಜರಾಜೇಶ್ವರಿ ನಗರ ಉದ್ಯಾನವನ"
      }
    },
    {
      "type": "way",
      "id": 347481812,
      "center": {
        "lat": 12.9218063,
        "lon": 77.5087855
      },
      "tags": {
        "amenity": "place_of_worship",
        "building": "yes",
        "religion": "hindu"
      }
    },
    {
      "type": "way",
      "id": 348149826,
      "center": {
        "lat": 12.9244231,
        "lon": 77.5114174
      },
      "tags": {
        "amenity": "community_centre",
        "building": "yes",
        "name": "Meenakshi Kalyana Matapa",
        "name:kn": "ಮೀನಾಕ್ಷಿ ಕಲ್ಯಾಣ ಮಂಟಪ"
      }
    },
    {
      "type": "way",
      "id": 348224514,
      "center": {
        "lat": 12.9332131,
        "lon": 77.5083663
      },
      "tags": {
        "amenity": "place_of_worship",
        "building": "yes",
        "check_date": "2022-11-25",
        "religion": "hindu"
      }
    },
    {
      "type": "way",
      "id": 348250634,
      "center": {
        "lat": 12.9248553,
        "lon": 77.5113967
      },
      "tags": {
        "amenity": "community_centre",
        "building": "yes",
        "name": "Meenakshi Padmavathi Kalyana Matapa",
        "name:kn": "ಮೀನಾಕ್ಷಿ ಪದ್ಮಾವತಿ ಕಲ್ಯಾಣ ಮಂಟಪ"
      }
    },
    {
      "type": "way",
      "id": 362913634,
      "center": {
        "lat": 12.9265922,
        "lon": 77.5186791
      },
      "tags": {
        "leisure": "park"
      }
    },
    {
      "type": "way",
      "id": 362913765,
      "center": {
        "lat": 12.92941,
        "lon": 77.5177585
      },
      "tags": {
        "leisure": "park",
        "name": "Netaji Memorial Park"
      }
    },
    {
      "type": "way",
      "id": 362914141,
      "center": {
        "lat": 12.9295564,
        "lon": 77.5212498
      },
      "tags": {
        "leisure": "park",
        "name": "Siddalingaiah Park"
      }
    },
    {
      "type": "way",
      "id": 365103916,
      "center": {
        "lat": 12.9311425,
        "lon": 77.513619
      },
      "tags": {
        "amenity": "college"
      }
    },
    {
      "type": "way",
      "id": 401829358,
      "center": {
        "lat": 12.9237378,
        "lon": 77.5233068
      },
      "tags": {
        "amenity": "school",
        "name": "National Hill View Public School"
      }
    },
    {
      "type": "way",
      "id": 672017071,
      "center": {
        "lat": 12.9265471,
        "lon": 77.5154436
      },
      "tags": {
        "amenity": "pub",
        "building": "yes",
        "cuisine": "pub",
        "name": "The Watering Hole"
      }
    },
    {
      "type": "way",
      "id": 729214178,
      "center": {
        "lat": 12.9307746,
        "lon": 77.5208241
      },
      "tags": {
        "leisure": "pitch",
        "sport": "tennis"
      }
    },
    {
      "type": "way",
      "id": 729214179,
      "center": {
        "lat": 12.9312491,
        "lon": 77.5213766
      },
      "tags": {
        "leisure": "pitch",
        "sport": "tennis"
      }
    },
    {
      "type": "way",
      "id": 729214180,
      "center": {
        "lat": 12.9314851,
        "lon": 77.5219687
      },
      "tags": {
        "leisure": "swimming_pool"
      }
    },
    {
      "type": "way",
      "id": 766647229,
      "center": {
        "lat": 12.9324692,
        "lon": 77.5102193
      },
      "tags": {
        "leisure": "garden"
      }
    },
    {
      "type": "way",
      "id": 1050584164,
      "center": {
        "lat": 12.9358259,
        "lon": 77.5149976
      },
      "tags": {
        "brand": "Tata",
        "brand:wikidata": "Q188514",
        "name": "Tata Motors",
        "name:kn": "ಟಾಟಾ ಮೋಟೊರ್ಸ್",
        "shop": "car"
      }
    },
    {
      "type": "way",
      "id": 1054822213,
      "center": {
        "lat": 12.9285885,
        "lon": 77.5070206
      },
      "tags": {
        "leisure": "park"
      }
    },
    {
      "type": "way",
      "id": 1182315656,
      "center": {
        "lat": 12.9264187,
        "lon": 77.5216783
      },
      "tags": {
        "amenity": "hospital",
        "name": "SS Sparsh Hospital"
      }
    },
    {
      "type": "way",
      "id": 1257194251,
      "center": {
        "lat": 12.9358954,
        "lon": 77.5155211
      },
      "tags": {
        "amenity": "fuel",
        "brand": "Hindustan Petroleum",
        "brand:wikidata": "Q1619375",
        "check_date": "2022-11-25",
        "compressed_air": "yes",
        "fuel:diesel": "yes",
        "fuel:petrol": "yes",
        "name": "HP",
        "name:kn": "ಹಿಂದುಸ್ತಾನ್ ಪೆಟ್ರೋಲಿಯಂ",
        "official_name": "Hindustan Petroleum",
        "self_service": "no",
        "source": "survey"
      }
    },
    {
      "type": "way",
      "id": 1265721109,
      "center": {
        "lat": 12.9312596,
        "lon": 77.52128
      },
      "tags": {
        "leisure": "park"
      }
    },
    {
      "type": "way",
      "id": 1265721110,
      "center": {
        "lat": 12.9303518,
        "lon": 77.5209496
      },
      "tags": {
        "leisure": "sports_centre",
        "name": "Sky Sports Arena"
      }
    },
    {
      "type": "way",
      "id": 1265721147,
      "center": {
        "lat": 12.9293231,
        "lon": 77.5141903
      },
      "tags": {
        "amenity": "fuel",
        "brand": "Bharat Petroleum",
        "brand:wikidata": "Q854826",
        "name": "Bharat Petroleum",
        "name:kn": "ಭಾರತ್ ಪೆಟ್ರೋಲಿಯಂ",
        "operator": "JainPax Filling Station"
      }
    },
    {
      "type": "way",
      "id": 1265721167,
      "center": {
        "lat": 12.9268513,
        "lon": 77.5125515
      },
      "tags": {
        "amenity": "place_of_worship",
        "landuse": "religious",
        "name": "Pyramid Temple",
        "religion": "hindu"
      }
    },
    {
      "type": "way",
      "id": 1265721171,
      "center": {
        "lat": 12.9270828,
        "lon": 77.5146577
      },
      "tags": {
        "amenity": "fuel",
        "brand": "Shell"
      }
    },
    {
      "type": "way",
      "id": 1265721181,
      "center": {
        "lat": 12.9328201,
        "lon": 77.5124926
      },
      "tags": {
        "amenity": "events_venue",
        "landuse": "commercial",
        "name": "Sri Akkamahadevi Kalyana Mantapa"
      }
    },
    {
      "type": "way",
      "id": 1265721182,
      "center": {
        "lat": 12.9331674,
        "lon": 77.5133036
      },
      "tags": {
        "leisure": "park"
      }
    },
    {
      "type": "way",
      "id": 1265721190,
      "center": {
        "lat": 12.9327013,
        "lon": 77.5165546
      },
      "tags": {
        "amenity": "fuel",
        "brand": "Indian Oil",
        "brand:wikidata": "Q1289348",
        "brand:wikipedia": "en:Indian Oil Corporation",
        "name": "Indian Oil",
        "name:kn": "ಇಂಡ್ಯನ್ ಆಯಿಲ್"
      }
    },
    {
      "type": "way",
      "id": 1318025690,
      "center": {
        "lat": 12.935799,
        "lon": 77.5122322
      },
      "tags": {
        "access": "customers",
        "amenity": "parking",
        "parking": "surface"
      }
    },
    {
      "type": "way",
      "id": 1352475184,
      "center": {
        "lat": 12.9345302,
        "lon": 77.5148169
      },
      "tags": {
        "amenity": "events_venue",
        "name": "Sri Shwetambhar Terapanth Jain Bhavan"
      }
    },
    {
      "type": "way",
      "id": 1364433566,
      "center": {
        "lat": 12.9266958,
        "lon": 77.5070802
      },
      "tags": {
        "leisure": "park"
      }
    },
    {
      "type": "way",
      "id": 1364433567,
      "center": {
        "lat": 12.9263964,
        "lon": 77.5080296
      },
      "tags": {
        "leisure": "park"
      }
    },
    {
      "type": "way",
      "id": 1427896139,
      "center": {
        "lat": 12.930829,
        "lon": 77.5212748
      },
      "tags": {
        "leisure": "pitch",
        "sport": "tennis"
      }
    },
    {
      "type": "way",
      "id": 1427923069,
      "center": {
        "lat": 12.9247404,
        "lon": 77.5175994
      },
      "tags": {
        "amenity": "place_of_worship",
        "landuse": "religious",
        "name": "Shri Nimishamba Devi Temple",
        "name:kn": "ನಿಮಿಶಾಂಬ ದೇವಸ್ಥಾನ",
        "religion": "hindu"
      }
    },
    {
      "type": "way",
      "id": 1427923075,
      "center": {
        "lat": 12.9241038,
        "lon": 77.5186018
      },
      "tags": {
        "amenity": "school",
        "landuse": "education",
        "name": "Mount Carmel School"
      }
    },
    {
      "type": "way",
      "id": 1427923323,
      "center": {
        "lat": 12.9298852,
        "lon": 77.5226436
      },
      "tags": {
        "amenity": "school",
        "landuse": "education",
        "name": "Ashwini School"
      }
    },
    {
      "type": "way",
      "id": 1427923338,
      "center": {
        "lat": 12.9296392,
        "lon": 77.5211662
      },
      "tags": {
        "leisure": "playground"
      }
    },
    {
      "type": "way",
      "id": 1427963451,
      "center": {
        "lat": 12.9324608,
        "lon": 77.5161986
      },
      "tags": {
        "amenity": "fuel",
        "name": "Total Gaz"
      }
    },
    {
      "type": "way",
      "id": 1427963609,
      "center": {
        "lat": 12.9318419,
        "lon": 77.5222202
      },
      "tags": {
        "amenity": "theatre",
        "theatre:type": "amphi"
      }
    },
    {
      "type": "way",
      "id": 1428266426,
      "center": {
        "lat": 12.9245556,
        "lon": 77.508896
      },
      "tags": {
        "leisure": "garden"
      }
    },
    {
      "type": "way",
      "id": 1443183186,
      "center": {
        "lat": 12.9287182,
        "lon": 77.513014
      },
      "tags": {
        "amenity": "school",
        "name": "Rajarajeshwari Vidya Shala",
        "name:kn": "ರಾಜರಾಜೇಶ್ವರಿ ವಿದ್ಯ ಶಾಲೆ"
      }
    },
    {
      "type": "way",
      "id": 1443183189,
      "center": {
        "lat": 12.9288584,
        "lon": 77.5164775
      },
      "tags": {
        "leisure": "playground"
      }
    },
    {
      "type": "way",
      "id": 1443183199,
      "center": {
        "lat": 12.9272579,
        "lon": 77.5158506
      },
      "tags": {
        "access": "permissive",
        "leisure": "swimming_pool"
      }
    },
    {
      "type": "way",
      "id": 1443186861,
      "center": {
        "lat": 12.9262121,
        "lon": 77.5102962
      },
      "tags": {
        "amenity": "place_of_worship",
        "landuse": "religious",
        "name": "Rajarajeshwari Temple",
        "name:kn": "ರಾಜರಾಜೇಶ್ವರಿ ದೇವಸ್ಥಾನ",
        "religion": "hindu"
      }
    }
  ]
}