{
  "area_name": "Rajiv Gandhi Nagar",
  "osm_id": 8302741288,
  "osm_type": "node",
  "place_type": "neighbourhood",
  "amenity_count": 343,
  "amenities": [
    {
      "type": "node",
      "id": 2107294737,
      "lat": 13.0630099,
      "lon": 77.582539,
      "tags": {
        "addr:housename": "Shiva Shakti Arcade",
        "addr:postcode": "560092",
        "amenity": "bank",
        "atm": "yes",
        "brand": "UCO Bank",
        "brand:wikidata": "Q2005310",
        "brand:wikipedia": "en:UCO Bank",
        "name": "UCO Bank",
        "name:en": "UCO Bank",
        "name:kn": "ಯೂಕೊ ಬ್ಯಾಂಕ್",
        "old_name": "United Commercial Bank",
        "website": "https://www.ucobank.com"
      }
    },
    {
      "type": "node",
      "id": 2107294738,
      "lat": 13.0630099,
      "lon": 77.5825229,
      "tags": {
        "amenity": "atm"
      }
    },
    {
      "type": "node",
      "id": 2108234086,
      "lat": 13.0626765,
      "lon": 77.5878626,
      "tags": {
        "amenity": "post_office",
        "name": "Sahakaranagara Post Office",
        "name:kn": "ಸಹಕಾರನಗರ ಅಂಚೆ ಕಛೇರಿ"
      }
    },
    {
      "type": "node",
      "id": 2389669488,
      "lat": 13.0775521,
      "lon": 77.5813643,
      "tags": {
        "amenity": "place_of_worship",
        "religion": "hindu"
      }
    },
    {
      "type": "node",
      "id": 2389680142,
      "lat": 13.0729591,
      "lon": 77.592187,
      "tags": {
        "amenity": "parking"
      }
    },
    {
      "type": "node",
      "id": 3238934761,
      "lat": 13.063134,
      "lon": 77.579815,
      "tags": {
        "brand": "Nandini Milk Parlour",
        "delivery": "no",
        "description": "Milk, grocery",
        "internet_access": "no",
        "name": "Krishna Dairy",
        "shop": "supermarket"
      }
    },
    {
      "type": "node",
      "id": 3291932461,
      "lat": 13.062591,
      "lon": 77.582191,
      "tags": {
        "brand": "HOPCOMS",
        "brand:wikidata": "Q22908959",
        "name": "HOPCOMS",
        "shop": "greengrocer"
      }
    },
    {
      "type": "node",
      "id": 3994774201,
      "lat": 13.0778369,
      "lon": 77.5789149,
      "tags": {
        "amenity": "library"
      }
    },
    {
      "type": "node",
      "id": 4320934703,
      "lat": 13.0632562,
      "lon": 77.5886973,
      "tags": {
        "name": "S N Colour Tech",
        "shop": "copyshop"
      }
    },
    {
      "type": "node",
      "id": 4489701345,
      "lat": 13.063594,
      "lon": 77.5895541,
      "tags": {
        "addr:city": "bangalore",
        "addr:housenumber": "19",
        "addr:postcode": "560092",
        "addr:street": "2nd Floor, Diamond Arcade, 60 Feet Road, F Block, Sahakara Nagar",
        "leisure": "fitness_centre",
        "name": "Snap Fitness",
        "opening_hours": "5:00-11:00",
        "phone": "(91)-80-39557019",
        "sport": "gymnastics",
        "website": "www.snapfitnessindia.com"
      }
    },
    {
      "type": "node",
      "id": 5340233880,
      "lat": 13.0705029,
      "lon": 77.577765,
      "tags": {
        "amenity": "place_of_worship",
        "check_date": "2024-07-21",
        "name": "Ganesha Temple",
        "name:kn": "ಗಣೇಶ ದೇವಸ್ಥಾನ",
        "park": "leisure",
        "religion": "hindu"
      }
    },
    {
      "type": "node",
      "id": 5685480838,
      "lat": 13.0641199,
      "lon": 77.5868748,
      "tags": {
        "name": "Cake Palace",
        "shop": "pastry"
      }
    },
    {
      "type": "node",
      "id": 5685496066,
      "lat": 13.0639984,
      "lon": 77.5868445,
      "tags": {
        "addr:housenumber": "144/42/2",
        "addr:street": "20th Main",
        "name": "Muskan Electrical Sales & Service",
        "shop": "appliance"
      }
    },
    {
      "type": "node",
      "id": 5685533527,
      "lat": 13.0638551,
      "lon": 77.5885041,
      "tags": {
        "name": "Poorvika",
        "shop": "mobile_phone"
      }
    },
    {
      "type": "node",
      "id": 5685537319,
      "lat": 13.0641993,
      "lon": 77.5866078,
      "tags": {
        "amenity": "studio",
        "name": "Guru Kala Kutir"
      }
    },
    {
      "type": "node",
      "id": 5685537320,
      "lat": 13.06502,
      "lon": 77.5843009,
      "tags": {
        "name": "Lee Car Decor",
        "shop": "car_parts"
      }
    },
    {
      "type": "node",
      "id": 5685537492,
      "lat": 13.0638286,
      "lon": 77.5864221,
      "tags": {
        "amenity": "kindergarten",
        "name": "Oi Playschool"
      }
    },
    {
      "type": "node",
      "id": 5685537583,
      "lat": 13.0637485,
      "lon": 77.5867282,
      "tags": {
        "name": "Iyengar's Bakery & Sweets",
        "name:kn": "ಐಯ್ಯಂಗಾರ್ ಬೇಕರಿ",
        "shop": "pastry"
      }
    },
    {
      "type": "node",
      "id": 5685538293,
      "lat": 13.0635883,
      "lon": 77.5870373,
      "tags": {
        "name": "Kyara",
        "shop": "clothes"
      }
    },
    {
      "type": "node",
      "id": 5685540790,
      "lat": 13.0654131,
      "lon": 77.5845668,
      "tags": {
        "name": "Kar Dry Cleaners",
        "shop": "dry_cleaning"
      }
    },
    {
      "type": "node",
      "id": 5685542194,
      "lat": 13.0638835,
      "lon": 77.5880338,
      "tags": {
        "amenity": "restaurant",
        "name": "Breadworks"
      }
    },
    {
      "type": "node",
      "id": 5685542907,
      "lat": 13.0638295,
      "lon": 77.5871557,
      "tags": {
        "amenity": "bank",
        "branch": "Sahakaranagara",
        "brand": "Canara Bank",
        "brand:en": "Canara Bank",
        "brand:hi": "केनरा बैंक",
        "brand:kn": "ಕೆನರಾ ಬ್ಯಾಂಕ್",
        "brand:pa": "ਕੇਨਰਾ ਬੈਂਕ",
        "brand:pnb": "کینرا بینک",
        "brand:ur": "کینرا بینک",
        "brand:wikidata": "Q2003777",
        "brand:wikipedia": "en:Canara Bank",
        "brand:wikipedia:pa": "ਕੇਨਰਾ ਬੈਂਕ",
        "name": "Canara Bank",
        "name:en": "Canara Bank",
        "name:hi": "केनरा बैंक",
        "name:kn": "ಕೆನರಾ ಬ್ಯಾಂಕ್",
        "name:pa": "ਕੇਨਰਾ ਬੈਂਕ",
        "name:pnb": "کینرا بینک",
        "name:ur": "کینرا بینک"
      }
    },
    {
      "type": "node",
      "id": 5685544903,
      "lat": 13.063618,
      "lon": 77.5874401,
      "tags": {
        "name": "Vinayaka Electricals",
        "shop": "electrical"
      }
    },
    {
      "type": "node",
      "id": 5685583485,
      "lat": 13.0636397,
      "lon": 77.5886718,
      "tags": {
        "name": "LaundrEx",
        "shop": "laundry"
      }
    },
    {
      "type": "node",
      "id": 5685583887,
      "lat": 13.0638577,
      "lon": 77.5901963,
      "tags": {
        "amenity": "pub",
        "name": "Blyton's Bar"
      }
    },
    {
      "type": "node",
      "id": 5685589694,
      "lat": 13.063911,
      "lon": 77.5831924,
      "tags": {
        "amenity": "bank",
        "brand": "Allahabad Bank",
        "brand:wikidata": "Q2018840",
        "name": "Allahabad Bank",
        "name:kn": "ಅಲಹಾಬಾದ್ ಬ್ಯಾಂಕ"
      }
    },
    {
      "type": "node",
      "id": 6380870463,
      "lat": 13.0712071,
      "lon": 77.5806832,
      "tags": {
        "amenity": "cafe",
        "name": "Academic Cafeteria",
        "opening_hours": "Mo-Fr 09:30-17:45; Sa 10:00-16:00",
        "outdoor_seating": "yes"
      }
    },
    {
      "type": "node",
      "id": 6380900077,
      "lat": 13.0711049,
      "lon": 77.5781394,
      "tags": {
        "amenity": "hospital",
        "check_date": "2024-07-21",
        "healthcare": "hospital",
        "healthcare:speciality": "general",
        "name": "Medical Center",
        "operator": "NCBS/InStem"
      }
    },
    {
      "type": "node",
      "id": 6382884233,
      "lat": 13.071694,
      "lon": 77.5803841,
      "tags": {
        "access": "customers",
        "leisure": "playground"
      }
    },
    {
      "type": "node",
      "id": 6403396108,
      "lat": 13.0719005,
      "lon": 77.5793224,
      "tags": {
        "access": "customers",
        "leisure": "playground"
      }
    },
    {
      "type": "node",
      "id": 7973362701,
      "lat": 13.0635732,
      "lon": 77.5878216,
      "tags": {
        "name": "Cake Delight",
        "shop": "bakery"
      }
    },
    {
      "type": "node",
      "id": 7973373583,
      "lat": 13.0635756,
      "lon": 77.5855555,
      "tags": {
        "description": "mobile and computer accessories",
        "name": "Krissh Tech World",
        "shop": "electronics"
      }
    },
    {
      "type": "node",
      "id": 7976322812,
      "lat": 13.0626666,
      "lon": 77.5871974,
      "tags": {
        "addr:housenumber": "547",
        "check_date": "2024-07-17",
        "name": "Nandi Stationary",
        "shop": "books"
      }
    },
    {
      "type": "node",
      "id": 8283583120,
      "lat": 13.0639874,
      "lon": 77.58574,
      "tags": {
        "amenity": "dentist",
        "name": "Dental Conceptz",
        "phone": "080 2363 6923",
        "website": "https://www.dentalconceptz.com/"
      }
    },
    {
      "type": "node",
      "id": 8283691140,
      "lat": 13.0637882,
      "lon": 77.585851,
      "tags": {
        "description": "fresh fruits and vegetables",
        "name": "Taaza Vegetables & Fruits",
        "opening_hours": "Mo-Su 08:00-20:30",
        "shop": "farm"
      }
    },
    {
      "type": "node",
      "id": 8300225144,
      "lat": 13.0691806,
      "lon": 77.5809502,
      "tags": {
        "amenity": "restaurant",
        "name": "Trupti Thindi",
        "opening_hours": "PH,Mo-Su 07:00-21:30"
      }
    },
    {
      "type": "node",
      "id": 8300228268,
      "lat": 13.0690971,
      "lon": 77.5809341,
      "tags": {
        "amenity": "restaurant",
        "name": "Nila Food Corner",
        "opening_hours": "PH,Mo-Su 07:00-20:00"
      }
    },
    {
      "type": "node",
      "id": 8361978897,
      "lat": 13.0687061,
      "lon": 77.5784641,
      "tags": {
        "name": "PowerZone bike repair shop",
        "opening_hours": "Mo-Sa 09:00-18:00",
        "shop": "motorcycle_repair"
      }
    },
    {
      "type": "node",
      "id": 8361991061,
      "lat": 13.068523,
      "lon": 77.5784351,
      "tags": {
        "addr:city": "Bangalore",
        "addr:postcode": "560065",
        "name": "Hyderabad Irani Tea",
        "opening_hours": "PH,Mo-Su 07:00-23:00",
        "shop": "tea"
      }
    },
    {
      "type": "node",
      "id": 8407820626,
      "lat": 13.0692906,
      "lon": 77.5756015,
      "tags": {
        "name": "Fresh Farm Veg and Fruots",
        "opening_hours": "Mo-Su,PH 08:00-20:00",
        "shop": "farm"
      }
    },
    {
      "type": "node",
      "id": 8540577968,
      "lat": 13.0691872,
      "lon": 77.5755211,
      "tags": {
        "name": "Farm Fresh Vegs",
        "shop": "farm"
      }
    },
    {
      "type": "node",
      "id": 8543840371,
      "lat": 13.0639837,
      "lon": 77.5857473,
      "tags": {
        "amenity": "dentist",
        "name": "Dental Concepts"
      }
    },
    {
      "type": "node",
      "id": 9013769316,
      "lat": 13.06375,
      "lon": 77.5777442,
      "tags": {
        "addr:street": "Kodigehalli main road",
        "amenity": "fast_food",
        "check_date:opening_hours": "2023-08-20",
        "cuisine": "juice;ice_cream;snack;chat;falooda",
        "name": "Naksha Greens Juice and Snack Bar",
        "opening_hours": "PH,Mo-Su 09:00-21:00"
      }
    },
    {
      "type": "node",
      "id": 9483060393,
      "lat": 13.0705642,
      "lon": 77.576758,
      "tags": {
        "amenity": "restaurant",
        "name": "Nitiksha Rasoi",
        "opening_hours": "Mo-Su 09:00-18:00"
      }
    },
    {
      "type": "node",
      "id": 9568878438,
      "lat": 13.0683205,
      "lon": 77.5785541,
      "tags": {
        "amenity": "restaurant",
        "name": "Santhu Spicy Table",
        "opening_hours": "PH,Mo-Su 08:00-22:00"
      }
    },
    {
      "type": "node",
      "id": 10032026857,
      "lat": 13.0688434,
      "lon": 77.5803865,
      "tags": {
        "amenity": "cafe",
        "name": "Café Nosh"
      }
    },
    {
      "type": "node",
      "id": 10110472163,
      "lat": 13.0623347,
      "lon": 77.587278,
      "tags": {
        "name": "Lakshmi Silk and Sarees",
        "shop": "clothes"
      }
    },
    {
      "type": "node",
      "id": 10110472164,
      "lat": 13.0626418,
      "lon": 77.5868586,
      "tags": {
        "name": "Flaunt Styling",
        "shop": "hairdresser"
      }
    },
    {
      "type": "node",
      "id": 10110472165,
      "lat": 13.0629512,
      "lon": 77.5864279,
      "tags": {
        "name": "Ganga bakes",
        "shop": "bakery"
      }
    },
    {
      "type": "node",
      "id": 10110472166,
      "lat": 13.0632343,
      "lon": 77.5860528,
      "tags": {
        "name": "Vaibhav Jewels",
        "shop": "jewelry"
      }
    },
    {
      "type": "node",
      "id": 10110472167,
      "lat": 13.0637468,
      "lon": 77.5853374,
      "tags": {
        "amenity": "restaurant",
        "name": "Brahmin's Thatte Idli"
      }
    },
    {
      "type": "node",
      "id": 10110472172,
      "lat": 13.0638985,
      "lon": 77.5851344,
      "tags": {
        "brand": "Kanti Sweets",
        "name": "Kanti Sweets",
        "shop": "confectionery"
      }
    },
    {
      "type": "node",
      "id": 10110472173,
      "lat": 13.0641062,
      "lon": 77.5848818,
      "tags": {
        "amenity": "kindergarten",
        "name": "Canadian Play School"
      }
    },
    {
      "type": "node",
      "id": 10250253421,
      "lat": 13.065306,
      "lon": 77.5800479,
      "tags": {
        "amenity": "veterinary",
        "name": "Pet Connect",
        "opening_hours": "PH,Mo-Su 08:00-20:00"
      }
    },
    {
      "type": "node",
      "id": 10555817219,
      "lat": 13.0757448,
      "lon": 77.5808036,
      "tags": {
        "access": "permissive",
        "amenity": "parking",
        "parking": "surface"
      }
    },
    {
      "type": "node",
      "id": 10791346039,
      "lat": 13.0687939,
      "lon": 77.5784904,
      "tags": {
        "name": "Sri Annapoorna Medical Store",
        "phone": "+91 74110 99045",
        "shop": "medical_supply"
      }
    },
    {
      "type": "node",
      "id": 10791389647,
      "lat": 13.0685272,
      "lon": 77.5783963,
      "tags": {
        "amenity": "food_court",
        "name": "Chitra Hotel"
      }
    },
    {
      "type": "node",
      "id": 11117270548,
      "lat": 13.0627726,
      "lon": 77.5872356,
      "tags": {
        "amenity": "cafe",
        "brand": "Glen's Bakehouse",
        "delivery": "yes",
        "name": "Glen's Bakehouse",
        "shop": "pastry",
        "takeaway": "yes"
      }
    },
    {
      "type": "node",
      "id": 11125643764,
      "lat": 13.063013,
      "lon": 77.58524,
      "tags": {
        "access": "yes",
        "amenity": "toilets",
        "fee": "yes",
        "operator": "BBMP"
      }
    },
    {
      "type": "node",
      "id": 11125643772,
      "lat": 13.0621534,
      "lon": 77.5868708,
      "tags": {
        "amenity": "shelter",
        "shelter_type": "gazebo"
      }
    },
    {
      "type": "node",
      "id": 11219784468,
      "lat": 13.0636616,
      "lon": 77.5899684,
      "tags": {
        "name": "Go Colours!",
        "shop": "clothes"
      }
    },
    {
      "type": "node",
      "id": 11219784469,
      "lat": 13.0636637,
      "lon": 77.5898966,
      "tags": {
        "brand": "Xiaomi",
        "brand:wikidata": "Q1636958",
        "name": "Xiaomi",
        "shop": "mobile_phone"
      }
    },
    {
      "type": "node",
      "id": 11219784470,
      "lat": 13.0636324,
      "lon": 77.5899294,
      "tags": {
        "amenity": "clinic",
        "contact:email": "nammaclinicals@gmail.com",
        "healthcare": "clinic",
        "name": "Namma Clinics",
        "phone": "+918310092635"
      }
    },
    {
      "type": "node",
      "id": 11219784471,
      "lat": 13.0636656,
      "lon": 77.5898283,
      "tags": {
        "name": "Swathishri",
        "shop": "clothes"
      }
    },
    {
      "type": "node",
      "id": 11219784472,
      "lat": 13.0636703,
      "lon": 77.5897697,
      "tags": {
        "name": "Radha Krishna Collection",
        "shop": "clothes"
      }
    },
    {
      "type": "node",
      "id": 11219784473,
      "lat": 13.0636377,
      "lon": 77.5897879,
      "tags": {
        "name": "Scent Salon",
        "shop": "hairdresser"
      }
    },
    {
      "type": "node",
      "id": 11219784480,
      "lat": 13.0636455,
      "lon": 77.5895433,
      "tags": {
        "amenity": "fast_food",
        "brand": "McDonald's",
        "brand:wikidata": "Q38076",
        "cuisine": "burger",
        "name": "McDonald's",
        "takeaway": "yes"
      }
    },
    {
      "type": "node",
      "id": 11219784482,
      "lat": 13.0636355,
      "lon": 77.5896015,
      "tags": {
        "name": "Dazzle Branded Garments",
        "shop": "clothes"
      }
    },
    {
      "type": "node",
      "id": 11219784487,
      "lat": 13.0636404,
      "lon": 77.5894759,
      "tags": {
        "amenity": "post_office",
        "brand": "Desk to Desk Courier & Cargo",
        "brand:short": "DTDC",
        "brand:wikidata": "Q55608802",
        "name": "Sri Manjunatha Enterprises",
        "operator": "Desk to Desk Courier & Cargo",
        "operator:short": "DTDC",
        "operator:wikidata": "Q55608802"
      }
    },
    {
      "type": "node",
      "id": 11219784488,
      "lat": 13.0636387,
      "lon": 77.5894321,
      "tags": {
        "name": "Rajesh Home Appliances",
        "shop": "appliance"
      }
    },
    {
      "type": "node",
      "id": 11219784497,
      "lat": 13.0636466,
      "lon": 77.5893918,
      "tags": {
        "name": "Basics",
        "shop": "clothes"
      }
    },
    {
      "type": "node",
      "id": 11219784499,
      "lat": 13.0636056,
      "lon": 77.5893748,
      "tags": {
        "name": "Excess Interior",
        "shop": "interior_decoration"
      }
    },
    {
      "type": "node",
      "id": 11219784504,
      "lat": 13.0636446,
      "lon": 77.5892088,
      "tags": {
        "name": "Asha Sweet Center",
        "shop": "confectionery"
      }
    },
    {
      "type": "node",
      "id": 11219784505,
      "lat": 13.0636037,
      "lon": 77.5892082,
      "tags": {
        "name": "Godrej Interio Kitchens",
        "shop": "kitchen"
      }
    },
    {
      "type": "node",
      "id": 11219784510,
      "lat": 13.0636423,
      "lon": 77.5891278,
      "tags": {
        "fixme": "can't make out the name",
        "shop": "hardware"
      }
    },
    {
      "type": "node",
      "id": 11219784515,
      "lat": 13.0636482,
      "lon": 77.5890425,
      "tags": {
        "name": "Hanuman Stores",
        "shop": "department_store"
      }
    },
    {
      "type": "node",
      "id": 11219784516,
      "lat": 13.0636015,
      "lon": 77.5890437,
      "tags": {
        "name": "B'Bob Salon",
        "shop": "hairdresser"
      }
    },
    {
      "type": "node",
      "id": 11219784535,
      "lat": 13.0636337,
      "lon": 77.5888045,
      "tags": {
        "name": "Swathi Enterprises",
        "shop": "clothes"
      }
    },
    {
      "type": "node",
      "id": 11219784536,
      "lat": 13.0635953,
      "lon": 77.5887631,
      "tags": {
        "amenity": "dentist",
        "healthcare": "dentist",
        "name": "Smile Studio Dental Care"
      }
    },
    {
      "type": "node",
      "id": 11219784538,
      "lat": 13.0636066,
      "lon": 77.5886894,
      "tags": {
        "name": "HP Store",
        "operator": "Computer Planet",
        "shop": "computer"
      }
    },
    {
      "type": "node",
      "id": 11219784583,
      "lat": 13.0636355,
      "lon": 77.588526,
      "tags": {
        "amenity": "pharmacy",
        "healthcare": "pharmacy",
        "name": "Shree Mohan Medicines & General Stores"
      }
    },
    {
      "type": "node",
      "id": 11219784584,
      "lat": 13.0635993,
      "lon": 77.588529,
      "tags": {
        "amenity": "dentist",
        "healthcare": "dentist",
        "name": "Aesthetic Dental Care"
      }
    },
    {
      "type": "node",
      "id": 11219784585,
      "lat": 13.0636377,
      "lon": 77.5884858,
      "tags": {
        "shop": "clothes"
      }
    },
    {
      "type": "node",
      "id": 11219784586,
      "lat": 13.0635963,
      "lon": 77.5884225,
      "tags": {
        "brand": "Amplifon",
        "brand:wikidata": "Q477222",
        "name": "Amplifon",
        "opening_hours": "Mo-Su 10:00-19:00",
        "phone": "080-41736884",
        "shop": "hearing_aids"
      }
    },
    {
      "type": "node",
      "id": 11219784587,
      "lat": 13.0636339,
      "lon": 77.588422,
      "tags": {
        "name": "Uniso",
        "shop": "variety_store"
      }
    },
    {
      "type": "node",
      "id": 11219784588,
      "lat": 13.0635663,
      "lon": 77.588335,
      "tags": {
        "name": "Naresh Tadimarri",
        "shop": "hairdresser"
      }
    },
    {
      "type": "node",
      "id": 11219784589,
      "lat": 13.0635932,
      "lon": 77.588335,
      "tags": {
        "amenity": "doctors",
        "healthcare": "doctor",
        "mobile": "9480390855",
        "name": "Dr. Prashanth MV",
        "opening_hours": "Mo-Su 10:00-14:00,17:00-21:00",
        "phone": "080-48518559"
      }
    },
    {
      "type": "node",
      "id": 11219784590,
      "lat": 13.0636301,
      "lon": 77.5883122,
      "tags": {
        "name": "Maya Mobiles Sales & Service",
        "shop": "mobile_phone"
      }
    },
    {
      "type": "node",
      "id": 11219784591,
      "lat": 13.0636318,
      "lon": 77.5883566,
      "tags": {
        "name": "Marrak Mewa",
        "shop": "nuts"
      }
    },
    {
      "type": "node",
      "id": 11219784592,
      "lat": 13.063619,
      "lon": 77.5882408,
      "tags": {
        "name": "Slv Buy & Save",
        "shop": "department_store"
      }
    },
    {
      "type": "node",
      "id": 11219784593,
      "lat": 13.0636273,
      "lon": 77.5881871,
      "tags": {
        "amenity": "clinic",
        "healthcare": "clinic",
        "healthcare:speciality": "fertility",
        "name": "Amogha Fertility Clinic"
      }
    },
    {
      "type": "node",
      "id": 11219784596,
      "lat": 13.0636264,
      "lon": 77.5879642,
      "tags": {
        "name": "Cauvery Arts & Frames",
        "shop": "art"
      }
    },
    {
      "type": "node",
      "id": 11219784603,
      "lat": 13.063619,
      "lon": 77.5877547,
      "tags": {
        "amenity": "fast_food",
        "name": "Bangarpet Chats"
      }
    },
    {
      "type": "node",
      "id": 11219784604,
      "lat": 13.063619,
      "lon": 77.5877168,
      "tags": {
        "amenity": "fast_food",
        "cuisine": "juice",
        "name": "Sree Ganesh Fruit Juice Centre"
      }
    },
    {
      "type": "node",
      "id": 11219784605,
      "lat": 13.0636267,
      "lon": 77.5876478,
      "tags": {
        "amenity": "fast_food",
        "cuisine": "juice",
        "name": "Lassi Shop"
      }
    },
    {
      "type": "node",
      "id": 11219784606,
      "lat": 13.0636156,
      "lon": 77.5875776,
      "tags": {
        "shop": "hairdresser"
      }
    },
    {
      "type": "node",
      "id": 11219784608,
      "lat": 13.0635837,
      "lon": 77.5874871,
      "tags": {
        "name": "Signia",
        "shop": "hearing_aids"
      }
    },
    {
      "type": "node",
      "id": 11219784609,
      "lat": 13.0636229,
      "lon": 77.5874859,
      "tags": {
        "name": "Himalaya",
        "shop": "cosmetics"
      }
    },
    {
      "type": "node",
      "id": 11219784614,
      "lat": 13.0636252,
      "lon": 77.5872571,
      "tags": {
        "name": "Sangeetha",
        "name:kn": "ಸಂಗೀತ",
        "shop": "mobile_phone"
      }
    },
    {
      "type": "node",
      "id": 11219784616,
      "lat": 13.0636133,
      "lon": 77.5871835,
      "tags": {
        "name": "Springwel Mattress",
        "shop": "bed"
      }
    },
    {
      "type": "node",
      "id": 11219784617,
      "lat": 13.0635437,
      "lon": 77.5870164,
      "tags": {
        "brand": "cult.fit",
        "brand:wikidata": "Q121289250",
        "leisure": "fitness_centre",
        "name": "cult.fit"
      }
    },
    {
      "type": "node",
      "id": 11220149668,
      "lat": 13.0638372,
      "lon": 77.5872251,
      "tags": {
        "name": "Aurelia",
        "name:kn": "ಅರೆಲಿಯ",
        "shop": "clothes"
      }
    },
    {
      "type": "node",
      "id": 11220149669,
      "lat": 13.0638418,
      "lon": 77.5872695,
      "tags": {
        "name": "W for woman",
        "shop": "clothes"
      }
    },
    {
      "type": "node",
      "id": 11220149670,
      "lat": 13.063838,
      "lon": 77.587358,
      "tags": {
        "name": "Eye Vision Plus",
        "shop": "optician"
      }
    },
    {
      "type": "node",
      "id": 11220149672,
      "lat": 13.0638317,
      "lon": 77.5874436,
      "tags": {
        "shop": "clothes"
      }
    },
    {
      "type": "node",
      "id": 11220149673,
      "lat": 13.0638363,
      "lon": 77.5874944,
      "tags": {
        "name": "Sree Sreedhara Jewels",
        "shop": "jewelry"
      }
    },
    {
      "type": "node",
      "id": 11220149674,
      "lat": 13.0638503,
      "lon": 77.5875648,
      "tags": {
        "brand": "Fabindia",
        "brand:wikidata": "Q5427779",
        "name": "Fabindia",
        "shop": "clothes"
      }
    },
    {
      "type": "node",
      "id": 11220149675,
      "lat": 13.0638494,
      "lon": 77.5876124,
      "tags": {
        "name": "O3 Spa & Salon",
        "shop": "hairdresser"
      }
    },
    {
      "type": "node",
      "id": 11220149678,
      "lat": 13.063843,
      "lon": 77.5881151,
      "tags": {
        "amenity": "restaurant",
        "check_date": "2024-04-30",
        "diet:vegetarian": "yes",
        "name": "Restaurant 1179"
      }
    },
    {
      "type": "node",
      "id": 11220149683,
      "lat": 13.0638874,
      "lon": 77.5887347,
      "tags": {
        "brand": "Allen Solly",
        "brand:wikidata": "Q110036995",
        "name": "Allen Solly",
        "shop": "clothes"
      }
    },
    {
      "type": "node",
      "id": 11220149684,
      "lat": 13.0638968,
      "lon": 77.5885044,
      "tags": {
        "amenity": "dentist",
        "healthcare": "dentist",
        "name": "clove dental"
      }
    },
    {
      "type": "node",
      "id": 11220149685,
      "lat": 13.0639506,
      "lon": 77.588505,
      "tags": {
        "name": "Lykke Salon",
        "shop": "hairdresser"
      }
    },
    {
      "type": "node",
      "id": 11220149686,
      "lat": 13.0638407,
      "lon": 77.5886028,
      "tags": {
        "name": "Trust Opticals",
        "shop": "optician"
      }
    },
    {
      "type": "node",
      "id": 11220149687,
      "lat": 13.0638488,
      "lon": 77.5883852,
      "tags": {
        "brand": "Peter England",
        "brand:wikidata": "Q19573665",
        "clothes": "men",
        "name": "Peter England",
        "shop": "clothes"
      }
    },
    {
      "type": "node",
      "id": 11220149688,
      "lat": 13.0639031,
      "lon": 77.5883845,
      "tags": {
        "amenity": "doctors",
        "healthcare": "doctor",
        "healthcare:speciality": "plastic_surgery",
        "name": "Dr. Sculpt Aesthetic Clinic"
      }
    },
    {
      "type": "node",
      "id": 11220149689,
      "lat": 13.0639156,
      "lon": 77.5882644,
      "tags": {
        "name": "Sukho Thai",
        "shop": "massage"
      }
    },
    {
      "type": "node",
      "id": 11220149690,
      "lat": 13.0638586,
      "lon": 77.5890881,
      "tags": {
        "amenity": "driving_school",
        "name": "Best New India Motor Driving School"
      }
    },
    {
      "type": "node",
      "id": 11220149700,
      "lat": 13.0638609,
      "lon": 77.5891702,
      "tags": {
        "name": "Kandha the baby shop",
        "shop": "baby_goods"
      }
    },
    {
      "type": "node",
      "id": 11220149701,
      "lat": 13.0638568,
      "lon": 77.5892788,
      "tags": {
        "amenity": "pharmacy",
        "brand": "MedPlus",
        "brand:wikidata": "Q65684234",
        "healthcare": "pharmacy",
        "name": "MedPlus"
      }
    },
    {
      "type": "node",
      "id": 11220149702,
      "lat": 13.0638895,
      "lon": 77.5892812,
      "tags": {
        "name": "YLG",
        "shop": "hairdresser"
      }
    },
    {
      "type": "node",
      "id": 11220149703,
      "lat": 13.0639293,
      "lon": 77.5892806,
      "tags": {
        "amenity": "clinic",
        "healthcare": "clinic",
        "healthcare:speciality": "fertility",
        "name": "B mom"
      }
    },
    {
      "type": "node",
      "id": 11220149704,
      "lat": 13.063874,
      "lon": 77.5893876,
      "tags": {
        "name": "globaldesi",
        "shop": "clothes"
      }
    },
    {
      "type": "node",
      "id": 11220149705,
      "lat": 13.063908,
      "lon": 77.5895456,
      "tags": {
        "name": "100! Interiors",
        "shop": "interior_decoration"
      }
    },
    {
      "type": "node",
      "id": 11220149706,
      "lat": 13.063972,
      "lon": 77.5895482,
      "tags": {
        "name": "Wise Men",
        "shop": "interior_decoration"
      }
    },
    {
      "type": "node",
      "id": 11220149707,
      "lat": 13.0638745,
      "lon": 77.5895504,
      "tags": {
        "name": "HB Ply & Boards",
        "shop": "hardware"
      }
    },
    {
      "type": "node",
      "id": 11220149708,
      "lat": 13.0638767,
      "lon": 77.589644,
      "tags": {
        "brand": "Levi's",
        "brand:wikidata": "Q127962",
        "clothes": "denim;men;women",
        "name": "Levi's",
        "shop": "clothes"
      }
    },
    {
      "type": "node",
      "id": 11220149709,
      "lat": 13.0639147,
      "lon": 77.589641,
      "tags": {
        "name": "Prestige Xclusive",
        "shop": "houseware"
      }
    },
    {
      "type": "node",
      "id": 11220149711,
      "lat": 13.063868,
      "lon": 77.5897493,
      "tags": {
        "brand": "Manyavar",
        "brand:wikidata": "Q24906783",
        "clothes": "wedding",
        "name": "Manyavar",
        "shop": "clothes"
      }
    },
    {
      "type": "node",
      "id": 11220149713,
      "lat": 13.0639758,
      "lon": 77.5898809,
      "tags": {
        "amenity": "bank",
        "brand": "Axis Bank",
        "brand:wikidata": "Q2003549",
        "name": "Axis Bank",
        "name:kn": "ಆಕ್ಸಿಸ್ ಬ್ಯಾಂಕ್"
      }
    },
    {
      "type": "node",
      "id": 11220149714,
      "lat": 13.0639378,
      "lon": 77.5899559,
      "tags": {
        "name": "Siyaram's Shop",
        "shop": "clothes"
      }
    },
    {
      "type": "node",
      "id": 11220149715,
      "lat": 13.0639963,
      "lon": 77.5899876,
      "tags": {
        "amenity": "dentist",
        "healthcare": "dentist",
        "name": "Dentyscan 3D"
      }
    },
    {
      "type": "node",
      "id": 11220149720,
      "lat": 13.0638672,
      "lon": 77.5899136,
      "tags": {
        "amenity": "ice_cream",
        "name": "Kelvin Scale"
      }
    },
    {
      "type": "node",
      "id": 11305116629,
      "lat": 13.071089,
      "lon": 77.5895275,
      "tags": {
        "addr:city": "Bengaluru",
        "addr:country": "IN",
        "addr:floor": "UG",
        "addr:hamlet": "Byatarayanapura",
        "addr:place": "Phoenix Mall of Asia",
        "addr:postcode": "560092",
        "addr:suburb": "Yelahanka",
        "brand": "Pottery Barn",
        "brand:wikidata": "Q3400126",
        "level": "1",
        "name": "Pottery Barn",
        "shop": "furniture"
      }
    },
    {
      "type": "node",
      "id": 11305116630,
      "lat": 13.0712131,
      "lon": 77.590296,
      "tags": {
        "addr:city": "Bengaluru",
        "addr:country": "IN",
        "addr:floor": "UG",
        "addr:hamlet": "Byatarayanapura",
        "addr:place": "Phoenix Mall of Asia",
        "addr:postcode": "560092",
        "addr:suburb": "Yelahanka",
        "brand": "Breitling",
        "brand:wikidata": "Q665740",
        "level": "1",
        "name": "Breitling",
        "shop": "watches"
      }
    },
    {
      "type": "node",
      "id": 11305116631,
      "lat": 13.0711687,
      "lon": 77.5905193,
      "tags": {
        "addr:city": "Bengaluru",
        "addr:country": "IN",
        "addr:floor": "UG",
        "addr:hamlet": "Byatarayanapura",
        "addr:place": "Phoenix Mall of Asia",
        "addr:postcode": "560092",
        "addr:suburb": "Yelahanka",
        "brand": "Tod's",
        "brand:wikidata": "Q1342350",
        "level": "1",
        "name": "Tod's",
        "shop": "shoes"
      }
    },
    {
      "type": "node",
      "id": 11305116632,
      "lat": 13.0710596,
      "lon": 77.5907312,
      "tags": {
        "addr:city": "Bengaluru",
        "addr:country": "IN",
        "addr:floor": "UG",
        "addr:hamlet": "Byatarayanapura",
        "addr:place": "Phoenix Mall of Asia",
        "addr:postcode": "560092",
        "addr:suburb": "Yelahanka",
        "brand": "Jimmy Choo",
        "brand:wikidata": "Q5213855",
        "level": "1",
        "name": "Jimmy Choo",
        "shop": "shoes"
      }
    },
    {
      "type": "node",
      "id": 11305116633,
      "lat": 13.0706618,
      "lon": 77.5909437,
      "tags": {
        "addr:city": "Bengaluru",
        "addr:country": "IN",
        "addr:floor": "G",
        "addr:hamlet": "Byatarayanapura",
        "addr:place": "Phoenix Mall of Asia",
        "addr:postcode": "560092",
        "addr:suburb": "Yelahanka",
        "brand": "Nautica",
        "brand:wikidata": "Q6981479",
        "level": "0",
        "name": "Nautica",
        "shop": "clothes"
      }
    },
    {
      "type": "node",
      "id": 11305116634,
      "lat": 13.0708173,
      "lon": 77.590992,
      "tags": {
        "addr:city": "Bengaluru",
        "addr:country": "IN",
        "addr:floor": "G",
        "addr:hamlet": "Byatarayanapura",
        "addr:place": "Phoenix Mall of Asia",
        "addr:postcode": "560092",
        "addr:suburb": "Yelahanka",
        "brand": "La Vie en Rose",
        "brand:wikidata": "Q4950452",
        "clothes": "underwear;women",
        "level": "0",
        "name": "La Vie en Rose",
        "shop": "clothes"
      }
    },
    {
      "type": "node",
      "id": 11305116635,
      "lat": 13.0707363,
      "lon": 77.591228,
      "tags": {
        "addr:city": "Bengaluru",
        "addr:country": "IN",
        "addr:floor": "G",
        "addr:hamlet": "Byatarayanapura",
        "addr:place": "Phoenix Mall of Asia",
        "addr:postcode": "560092",
        "addr:suburb": "Yelahanka",
        "brand": "Jockey",
        "brand:wikidata": "Q534235",
        "level": "0",
        "name": "Jockey",
        "shop": "clothes"
      }
    },
    {
      "type": "node",
      "id": 11305116636,
      "lat": 13.0706115,
      "lon": 77.5910839,
      "tags": {
        "addr:city": "Bengaluru",
        "addr:country": "IN",
        "addr:floor": "G",
        "addr:hamlet": "Byatarayanapura",
        "addr:place": "Phoenix Mall of Asia",
        "addr:postcode": "560092",
        "addr:suburb": "Yelahanka",
        "brand": "Hidesign",
        "brand:wikidata": "Q5752690",
        "level": "0",
        "name": "Hidesign",
        "shop": "leather"
      }
    },
    {
      "type": "node",
      "id": 11305116637,
      "lat": 13.0707729,
      "lon": 77.5911342,
      "tags": {
        "addr:city": "Bengaluru",
        "addr:country": "IN",
        "addr:floor": "G",
        "addr:hamlet": "Byatarayanapura",
        "addr:place": "Phoenix Mall of Asia",
        "addr:postcode": "560092",
        "addr:suburb": "Yelahanka",
        "brand": "Samsonite",
        "brand:wikidata": "Q1203426",
        "level": "0",
        "name": "Samsonite",
        "shop": "bag"
      }
    },
    {
      "type": "node",
      "id": 11305116638,
      "lat": 13.0712451,
      "lon": 77.590135,
      "tags": {
        "addr:city": "Bengaluru",
        "addr:country": "IN",
        "addr:floor": "G",
        "addr:hamlet": "Byatarayanapura",
        "addr:place": "Phoenix Mall of Asia",
        "addr:postcode": "560092",
        "addr:suburb": "Yelahanka",
        "brand": "Woodland",
        "brand:wikidata": "Q123068491",
        "level": "0",
        "name": "Woodland",
        "shop": "shoes"
      }
    },
    {
      "type": "node",
      "id": 11305116639,
      "lat": 13.0710714,
      "lon": 77.589907,
      "tags": {
        "addr:city": "Bengaluru",
        "addr:country": "IN",
        "addr:floor": "G",
        "addr:hamlet": "Byatarayanapura",
        "addr:place": "Phoenix Mall of Asia",
        "addr:postcode": "560092",
        "addr:suburb": "Yelahanka",
        "brand": "Columbia",
        "brand:wikidata": "Q1112588",
        "clothes": "outdoor",
        "level": "0",
        "name": "Columbia",
        "official_name": "Columbia Sportswear",
        "shop": "clothes"
      }
    },
    {
      "type": "node",
      "id": 11305116640,
      "lat": 13.0712556,
      "lon": 77.5899875,
      "tags": {
        "addr:city": "Bengaluru",
        "addr:country": "IN",
        "addr:floor": "G",
        "addr:hamlet": "Byatarayanapura",
        "addr:place": "Phoenix Mall of Asia",
        "addr:postcode": "560092",
        "addr:suburb": "Yelahanka",
        "brand": "ASICS",
        "brand:wikidata": "Q327247",
        "level": "0",
        "name": "ASICS",
        "shop": "shoes"
      }
    },
    {
      "type": "node",
      "id": 11305116641,
      "lat": 13.0706821,
      "lon": 77.5901444,
      "tags": {
        "addr:city": "Bengaluru",
        "addr:country": "IN",
        "addr:floor": "G",
        "addr:hamlet": "Byatarayanapura",
        "addr:place": "Phoenix Mall of Asia",
        "addr:postcode": "560092",
        "addr:suburb": "Yelahanka",
        "brand": "Vision Express",
        "brand:wikidata": "Q7936150",
        "level": "0",
        "name": "Vision Express",
        "shop": "optician"
      }
    },
    {
      "type": "node",
      "id": 11305116642,
      "lat": 13.0705201,
      "lon": 77.5907345,
      "tags": {
        "addr:city": "Bengaluru",
        "addr:country": "IN",
        "addr:floor": "G",
        "addr:hamlet": "Byatarayanapura",
        "addr:place": "Phoenix Mall of Asia",
        "addr:postcode": "560092",
        "addr:suburb": "Yelahanka",
        "brand": "Malabar Gold and Diamonds",
        "brand:wikidata": "Q60748883",
        "level": "0",
        "name": "Malabar Gold and Diamonds",
        "shop": "jewelry"
      }
    },
    {
      "type": "node",
      "id": 11305116643,
      "lat": 13.0704482,
      "lon": 77.5909618,
      "tags": {
        "addr:city": "Bengaluru",
        "addr:country": "IN",
        "addr:floor": "G",
        "addr:hamlet": "Byatarayanapura",
        "addr:place": "Phoenix Mall of Asia",
        "addr:postcode": "560092",
        "addr:suburb": "Yelahanka",
        "amenity": "cafe",
        "level": "0",
        "name": "Third Wave Coffee"
      }
    },
    {
      "type": "node",
      "id": 11305116644,
      "lat": 13.0704391,
      "lon": 77.5911308,
      "tags": {
        "addr:city": "Bengaluru",
        "addr:country": "IN",
        "addr:floor": "G",
        "addr:hamlet": "Byatarayanapura",
        "addr:place": "Phoenix Mall of Asia",
        "addr:postcode": "560092",
        "addr:suburb": "Yelahanka",
        "amenity": "cafe",
        "brand": "Chaayos",
        "brand:wikidata": "Q117235235",
        "cuisine": "tea",
        "level": "0",
        "name": "Chaayos",
        "takeaway": "yes"
      }
    },
    {
      "type": "node",
      "id": 11305116656,
      "lat": 13.0704162,
      "lon": 77.5911033,
      "tags": {
        "addr:city": "Bengaluru",
        "addr:country": "IN",
        "addr:floor": "UG",
        "addr:hamlet": "Byatarayanapura",
        "addr:place": "Phoenix Mall of Asia",
        "addr:postcode": "560092",
        "addr:suburb": "Yelahanka",
        "brand": "Canali",
        "brand:wikidata": "Q5031079",
        "clothes": "men",
        "level": "1",
        "name": "Canali",
        "shop": "clothes"
      }
    },
    {
      "type": "node",
      "id": 11305116657,
      "lat": 13.0706866,
      "lon": 77.5915311,
      "tags": {
        "addr:city": "Bengaluru",
        "addr:country": "IN",
        "addr:floor": "UG",
        "addr:hamlet": "Byatarayanapura",
        "addr:place": "Phoenix Mall of Asia",
        "addr:postcode": "560092",
        "addr:suburb": "Yelahanka",
        "brand": "Bulgari",
        "brand:wikidata": "Q752515",
        "level": "1",
        "name": "Bvlgari",
        "shop": "fashion_accessories"
      }
    },
    {
      "type": "node",
      "id": 11305116658,
      "lat": 13.0712092,
      "lon": 77.5904489,
      "tags": {
        "addr:city": "Bengaluru",
        "addr:country": "IN",
        "addr:floor": "UG",
        "addr:hamlet": "Byatarayanapura",
        "addr:place": "Phoenix Mall of Asia",
        "addr:postcode": "560092",
        "addr:suburb": "Yelahanka",
        "brand": "Michael Kors",
        "brand:wikidata": "Q19572998",
        "level": "1",
        "name": "Michael Kors",
        "shop": "clothes"
      }
    },
    {
      "type": "node",
      "id": 11305116659,
      "lat": 13.0708754,
      "lon": 77.5901927,
      "tags": {
        "addr:city": "Bengaluru",
        "addr:country": "IN",
        "addr:floor": "UG",
        "addr:hamlet": "Byatarayanapura",
        "addr:place": "Phoenix Mall of Asia",
        "addr:postcode": "560092",
        "addr:suburb": "Yelahanka",
        "brand": "Brooks Brothers",
        "brand:wikidata": "Q929722",
        "level": "1",
        "name": "Brooks Brothers",
        "shop": "clothes"
      }
    },
    {
      "type": "node",
      "id": 11305116660,
      "lat": 13.0708473,
      "lon": 77.5903456,
      "tags": {
        "addr:city": "Bengaluru",
        "addr:country": "IN",
        "addr:floor": "UG",
        "addr:hamlet": "Byatarayanapura",
        "addr:place": "Phoenix Mall of Asia",
        "addr:postcode": "560092",
        "addr:suburb": "Yelahanka",
        "brand": "Bally",
        "brand:wikidata": "Q688195",
        "level": "1",
        "name": "Bally",
        "shop": "shoes"
      }
    },
    {
      "type": "node",
      "id": 11305116661,
      "lat": 13.0709714,
      "lon": 77.5903603,
      "tags": {
        "addr:city": "Bengaluru",
        "addr:country": "IN",
        "addr:floor": "UG",
        "addr:hamlet": "Byatarayanapura",
        "addr:place": "Phoenix Mall of Asia",
        "addr:postcode": "560092",
        "addr:suburb": "Yelahanka",
        "brand": "Coach",
        "brand:wikidata": "Q727697",
        "level": "1",
        "name": "Coach",
        "shop": "bag"
      }
    },
    {
      "type": "node",
      "id": 11305116662,
      "lat": 13.0710864,
      "lon": 77.5899325,
      "tags": {
        "addr:city": "Bengaluru",
        "addr:country": "IN",
        "addr:floor": "UG",
        "addr:hamlet": "Byatarayanapura",
        "addr:place": "Phoenix Mall of Asia",
        "addr:postcode": "560092",
        "addr:suburb": "Yelahanka",
        "brand": "Polo Ralph Lauren",
        "brand:wikidata": "Q1641437",
        "level": "1",
        "name": "Polo Ralph Lauren",
        "shop": "clothes"
      }
    },
    {
      "type": "node",
      "id": 11305116663,
      "lat": 13.0709714,
      "lon": 77.5899097,
      "tags": {
        "addr:city": "Bengaluru",
        "addr:country": "IN",
        "addr:floor": "UG",
        "addr:hamlet": "Byatarayanapura",
        "addr:place": "Phoenix Mall of Asia",
        "addr:postcode": "560092",
        "addr:suburb": "Yelahanka",
        "brand": "Diesel",
        "brand:wikidata": "Q158285",
        "level": "1",
        "name": "Diesel",
        "shop": "clothes"
      }
    },
    {
      "type": "node",
      "id": 11305116664,
      "lat": 13.0709244,
      "lon": 77.5900385,
      "tags": {
        "addr:city": "Bengaluru",
        "addr:country": "IN",
        "addr:floor": "UG",
        "addr:hamlet": "Byatarayanapura",
        "addr:place": "Phoenix Mall of Asia",
        "addr:postcode": "560092",
        "addr:suburb": "Yelahanka",
        "brand": "Chanel",
        "brand:wikidata": "Q218115",
        "level": "1",
        "name": "Chanel",
        "shop": "clothes"
      }
    },
    {
      "type": "node",
      "id": 11305116665,
      "lat": 13.0710132,
      "lon": 77.5902584,
      "tags": {
        "addr:city": "Bengaluru",
        "addr:country": "IN",
        "addr:floor": "UG",
        "addr:hamlet": "Byatarayanapura",
        "addr:place": "Phoenix Mall of Asia",
        "addr:postcode": "560092",
        "addr:suburb": "Yelahanka",
        "brand": "Kate Spade New York",
        "brand:wikidata": "Q6375797",
        "level": "1",
        "name": "Kate Spade New York",
        "shop": "clothes",
        "short_name": "Kate Spade"
      }
    },
    {
      "type": "node",
      "id": 11305116666,
      "lat": 13.0710067,
      "lon": 77.590984,
      "tags": {
        "addr:city": "Bengaluru",
        "addr:country": "IN",
        "addr:floor": "UG",
        "addr:hamlet": "Byatarayanapura",
        "addr:place": "Phoenix Mall of Asia",
        "addr:postcode": "560092",
        "addr:suburb": "Yelahanka",
        "brand": "Bottega Veneta",
        "brand:wikidata": "Q894874",
        "level": "1",
        "name": "Bottega Veneta",
        "shop": "fashion_accessories"
      }
    },
    {
      "type": "node",
      "id": 11305116667,
      "lat": 13.0710511,
      "lon": 77.5908592,
      "tags": {
        "addr:city": "Bengaluru",
        "addr:country": "IN",
        "addr:floor": "UG",
        "addr:hamlet": "Byatarayanapura",
        "addr:place": "Phoenix Mall of Asia",
        "addr:postcode": "560092",
        "addr:suburb": "Yelahanka",
        "brand": "Versace",
        "brand:wikidata": "Q696376",
        "level": "1",
        "name": "Versace",
        "shop": "clothes"
      }
    },
    {
      "type": "node",
      "id": 11305116668,
      "lat": 13.0704802,
      "lon": 77.5908405,
      "tags": {
        "addr:city": "Bengaluru",
        "addr:country": "IN",
        "addr:floor": "UG",
        "addr:hamlet": "Byatarayanapura",
        "addr:place": "Phoenix Mall of Asia",
        "addr:postcode": "560092",
        "addr:suburb": "Yelahanka",
        "brand": "Ermenegildo Zegna",
        "brand:wikidata": "Q1355904",
        "clothes": "men",
        "level": "1",
        "name": "Ermenegildo Zegna",
        "shop": "clothes",
        "short_name": "Zegna"
      }
    },
    {
      "type": "node",
      "id": 11305149269,
      "lat": 13.0703365,
      "lon": 77.5914466,
      "tags": {
        "addr:city": "Bengaluru",
        "addr:country": "IN",
        "addr:floor": "UG",
        "addr:hamlet": "Byatarayanapura",
        "addr:place": "Phoenix Mall of Asia",
        "addr:postcode": "560092",
        "addr:suburb": "Yelahanka",
        "brand": "Hermès",
        "brand:wikidata": "Q843887",
        "level": "1",
        "name": "Hermès",
        "shop": "clothes"
      }
    },
    {
      "type": "node",
      "id": 11305149270,
      "lat": 13.070313,
      "lon": 77.5915915,
      "tags": {
        "addr:city": "Bengaluru",
        "addr:country": "IN",
        "addr:floor": "UG",
        "addr:hamlet": "Byatarayanapura",
        "addr:place": "Phoenix Mall of Asia",
        "addr:postcode": "560092",
        "addr:suburb": "Yelahanka",
        "brand": "Burberry",
        "brand:wikidata": "Q390107",
        "clothes": "men;women",
        "level": "1",
        "name": "Burberry",
        "shop": "clothes"
      }
    },
    {
      "type": "node",
      "id": 11305149271,
      "lat": 13.0706174,
      "lon": 77.5916974,
      "tags": {
        "addr:city": "Bengaluru",
        "addr:country": "IN",
        "addr:floor": "UG",
        "addr:hamlet": "Byatarayanapura",
        "addr:place": "Phoenix Mall of Asia",
        "addr:postcode": "560092",
        "addr:suburb": "Yelahanka",
        "brand": "Balenciaga",
        "brand:wikidata": "Q1530892",
        "level": "1",
        "name": "Balenciaga",
        "shop": "clothes"
      }
    },
    {
      "type": "node",
      "id": 11305149272,
      "lat": 13.0708656,
      "lon": 77.5915499,
      "tags": {
        "addr:city": "Bengaluru",
        "addr:country": "IN",
        "addr:floor": "UG",
        "addr:hamlet": "Byatarayanapura",
        "addr:place": "Phoenix Mall of Asia",
        "addr:postcode": "560092",
        "addr:suburb": "Yelahanka",
        "brand": "Dior",
        "brand:wikidata": "Q542767",
        "level": "1",
        "name": "Dior",
        "shop": "clothes"
      }
    },
    {
      "type": "node",
      "id": 11305149273,
      "lat": 13.071153,
      "lon": 77.5906862,
      "tags": {
        "addr:city": "Bengaluru",
        "addr:country": "IN",
        "addr:floor": "UG",
        "addr:hamlet": "Byatarayanapura",
        "addr:place": "Phoenix Mall of Asia",
        "addr:postcode": "560092",
        "addr:suburb": "Yelahanka",
        "brand": "Valentino",
        "brand:wikidata": "Q649646",
        "level": "1",
        "name": "Valentino",
        "shop": "clothes"
      }
    },
    {
      "type": "node",
      "id": 11305149274,
      "lat": 13.0708238,
      "lon": 77.590473,
      "tags": {
        "addr:city": "Bengaluru",
        "addr:country": "IN",
        "addr:floor": "UG",
        "addr:hamlet": "Byatarayanapura",
        "addr:place": "Phoenix Mall of Asia",
        "addr:postcode": "560092",
        "addr:suburb": "Yelahanka",
        "brand": "Gucci",
        "brand:wikidata": "Q178516",
        "level": "1",
        "name": "Gucci",
        "shop": "clothes"
      }
    },
    {
      "type": "node",
      "id": 11305149275,
      "lat": 13.0706252,
      "lon": 77.5904381,
      "tags": {
        "addr:city": "Bengaluru",
        "addr:country": "IN",
        "addr:floor": "UG",
        "addr:hamlet": "Byatarayanapura",
        "addr:place": "Phoenix Mall of Asia",
        "addr:postcode": "560092",
        "addr:suburb": "Yelahanka",
        "brand": "Emporio Armani",
        "brand:wikidata": "Q3497483",
        "level": "1",
        "name": "Emporio Armani",
        "shop": "clothes"
      }
    },
    {
      "type": "node",
      "id": 11305149276,
      "lat": 13.0707454,
      "lon": 77.5909853,
      "tags": {
        "addr:city": "Bengaluru",
        "addr:country": "IN",
        "addr:floor": "UG",
        "addr:hamlet": "Byatarayanapura",
        "addr:place": "Phoenix Mall of Asia",
        "addr:postcode": "560092",
        "addr:suburb": "Yelahanka",
        "brand": "Louis Vuitton",
        "brand:wikidata": "Q191485",
        "level": "1",
        "name": "Louis Vuitton",
        "shop": "clothes"
      }
    },
    {
      "type": "node",
      "id": 11305149277,
      "lat": 13.0708173,
      "lon": 77.5897796,
      "tags": {
        "addr:city": "Bengaluru",
        "addr:country": "IN",
        "addr:floor": "UG",
        "addr:hamlet": "Byatarayanapura",
        "addr:place": "Phoenix Mall of Asia",
        "addr:postcode": "560092",
        "addr:suburb": "Yelahanka",
        "brand": "Victoria's Secret",
        "brand:wikidata": "Q332477",
        "clothes": "underwear;women",
        "level": "1",
        "name": "Victoria's Secret",
        "shop": "clothes"
      }
    },
    {
      "type": "node",
      "id": 11305149278,
      "lat": 13.0711021,
      "lon": 77.5906728,
      "tags": {
        "addr:city": "Bengaluru",
        "addr:country": "IN",
        "addr:floor": "G",
        "addr:hamlet": "Byatarayanapura",
        "addr:place": "Phoenix Mall of Asia",
        "addr:postcode": "560092",
        "addr:suburb": "Yelahanka",
        "brand": "Jack & Jones",
        "brand:wikidata": "Q6077665",
        "level": "0",
        "name": "Jack & Jones",
        "shop": "clothes"
      }
    },
    {
      "type": "node",
      "id": 11305149279,
      "lat": 13.0711106,
      "lon": 77.590597,
      "tags": {
        "addr:city": "Bengaluru",
        "addr:country": "IN",
        "addr:floor": "G",
        "addr:hamlet": "Byatarayanapura",
        "addr:place": "Phoenix Mall of Asia",
        "addr:postcode": "560092",
        "addr:suburb": "Yelahanka",
        "brand": "American Eagle Outfitters",
        "brand:wikidata": "Q2842931",
        "clothes": "men;women",
        "level": "0",
        "name": "American Eagle Outfitters",
        "shop": "clothes",
        "short_name": "American Eagle"
      }
    },
    {
      "type": "node",
      "id": 11305149280,
      "lat": 13.0709878,
      "lon": 77.5908934,
      "tags": {
        "addr:city": "Bengaluru",
        "addr:country": "IN",
        "addr:floor": "G",
        "addr:hamlet": "Byatarayanapura",
        "addr:place": "Phoenix Mall of Asia",
        "addr:postcode": "560092",
        "addr:suburb": "Yelahanka",
        "amenity": "cafe",
        "contact:instagram": "perchinbengaluru",
        "level": "0",
        "name": "Perch"
      }
    },
    {
      "type": "node",
      "id": 11305149281,
      "lat": 13.0709708,
      "lon": 77.5911912,
      "tags": {
        "addr:city": "Bengaluru",
        "addr:country": "IN",
        "addr:floor": "G",
        "addr:hamlet": "Byatarayanapura",
        "addr:place": "Phoenix Mall of Asia",
        "addr:postcode": "560092",
        "addr:suburb": "Yelahanka",
        "brand": "Allen Solly",
        "brand:wikidata": "Q110036995",
        "level": "0",
        "name": "Allen Solly",
        "shop": "clothes"
      }
    },
    {
      "type": "node",
      "id": 11305149282,
      "lat": 13.0709368,
      "lon": 77.5912844,
      "tags": {
        "addr:city": "Bengaluru",
        "addr:country": "IN",
        "addr:floor": "G",
        "addr:hamlet": "Byatarayanapura",
        "addr:place": "Phoenix Mall of Asia",
        "addr:postcode": "560092",
        "addr:suburb": "Yelahanka",
        "level": "0",
        "name": "Louis Phillippe",
        "shop": "clothes"
      }
    },
    {
      "type": "node",
      "id": 11305149283,
      "lat": 13.0708506,
      "lon": 77.5914191,
      "tags": {
        "addr:city": "Bengaluru",
        "addr:country": "IN",
        "addr:floor": "G",
        "addr:hamlet": "Byatarayanapura",
        "addr:place": "Phoenix Mall of Asia",
        "addr:postcode": "560092",
        "addr:suburb": "Yelahanka",
        "brand": "Van Heusen",
        "brand:wikidata": "Q67551865",
        "clothes": "men",
        "level": "0",
        "name": "Van Heusen",
        "shop": "clothes"
      }
    },
    {
      "type": "node",
      "id": 11305149284,
      "lat": 13.0707337,
      "lon": 77.5916103,
      "tags": {
        "addr:city": "Bengaluru",
        "addr:country": "IN",
        "addr:floor": "G",
        "addr:hamlet": "Byatarayanapura",
        "addr:place": "Phoenix Mall of Asia",
        "addr:postcode": "560092",
        "addr:suburb": "Yelahanka",
        "level": "0",
        "name": "Loyal World Supermarket",
        "shop": "supermarket"
      }
    },
    {
      "type": "node",
      "id": 11305149285,
      "lat": 13.0704045,
      "lon": 77.5914963,
      "tags": {
        "addr:city": "Bengaluru",
        "addr:country": "IN",
        "addr:floor": "G",
        "addr:hamlet": "Byatarayanapura",
        "addr:place": "Phoenix Mall of Asia",
        "addr:postcode": "560092",
        "addr:suburb": "Yelahanka",
        "brand": "Pantaloons",
        "brand:wikidata": "Q7131643",
        "level": "0",
        "name": "Pantaloons",
        "shop": "clothes"
      }
    },
    {
      "type": "node",
      "id": 11305149286,
      "lat": 13.070603,
      "lon": 77.5905374,
      "tags": {
        "addr:city": "Bengaluru",
        "addr:country": "IN",
        "addr:floor": "G",
        "addr:hamlet": "Byatarayanapura",
        "addr:place": "Phoenix Mall of Asia",
        "addr:postcode": "560092",
        "addr:suburb": "Yelahanka",
        "brand": "Tanishq",
        "brand:en": "Tanishq",
        "brand:wikidata": "Q13117711",
        "level": "0",
        "name": "Tanishq",
        "name:en": "Tanishq",
        "shop": "jewelry"
      }
    },
    {
      "type": "node",
      "id": 11305149287,
      "lat": 13.0712797,
      "lon": 77.5898943,
      "tags": {
        "addr:city": "Bengaluru",
        "addr:country": "IN",
        "addr:floor": "G",
        "addr:hamlet": "Byatarayanapura",
        "addr:place": "Phoenix Mall of Asia",
        "addr:postcode": "560092",
        "addr:suburb": "Yelahanka",
        "brand": "Puma",
        "brand:wikidata": "Q157064",
        "level": "0",
        "name": "Puma",
        "shop": "clothes"
      }
    },
    {
      "type": "node",
      "id": 11305149288,
      "lat": 13.0713052,
      "lon": 77.5897696,
      "tags": {
        "addr:city": "Bengaluru",
        "addr:country": "IN",
        "addr:floor": "G",
        "addr:hamlet": "Byatarayanapura",
        "addr:place": "Phoenix Mall of Asia",
        "addr:postcode": "560092",
        "addr:suburb": "Yelahanka",
        "brand": "Skechers",
        "brand:wikidata": "Q2945643",
        "level": "0",
        "name": "Skechers",
        "shop": "shoes"
      }
    },
    {
      "type": "node",
      "id": 11305149289,
      "lat": 13.0713209,
      "lon": 77.5896945,
      "tags": {
        "addr:city": "Bengaluru",
        "addr:country": "IN",
        "addr:floor": "G",
        "addr:hamlet": "Byatarayanapura",
        "addr:place": "Phoenix Mall of Asia",
        "addr:postcode": "560092",
        "addr:suburb": "Yelahanka",
        "brand": "Reebok",
        "brand:wikidata": "Q466183",
        "level": "0",
        "name": "Reebok",
        "shop": "clothes"
      }
    },
    {
      "type": "node",
      "id": 11305149290,
      "lat": 13.0711119,
      "lon": 77.5896053,
      "tags": {
        "addr:city": "Bengaluru",
        "addr:country": "IN",
        "addr:floor": "G",
        "addr:hamlet": "Byatarayanapura",
        "addr:place": "Phoenix Mall of Asia",
        "addr:postcode": "560092",
        "addr:suburb": "Yelahanka",
        "brand": "Nike",
        "brand:wikidata": "Q483915",
        "level": "0",
        "name": "Nike",
        "shop": "clothes"
      }
    },
    {
      "type": "node",
      "id": 11305149291,
      "lat": 13.070978,
      "lon": 77.5895812,
      "tags": {
        "addr:city": "Bengaluru",
        "addr:country": "IN",
        "addr:floor": "G",
        "addr:hamlet": "Byatarayanapura",
        "addr:place": "Phoenix Mall of Asia",
        "addr:postcode": "560092",
        "addr:suburb": "Yelahanka",
        "brand": "Adidas",
        "brand:wikidata": "Q3895",
        "level": "0",
        "name": "Adidas",
        "name:kn": "ಅಡಿಡಾಸ್",
        "shop": "sports"
      }
    },
    {
      "type": "node",
      "id": 11305149292,
      "lat": 13.0705632,
      "lon": 77.5906654,
      "tags": {
        "addr:city": "Bengaluru",
        "addr:country": "IN",
        "addr:floor": "G",
        "addr:hamlet": "Byatarayanapura",
        "addr:place": "Phoenix Mall of Asia",
        "addr:postcode": "560092",
        "addr:suburb": "Yelahanka",
        "amenity": "cafe",
        "brand": "Tim Hortons",
        "brand:wikidata": "Q175106",
        "cuisine": "coffee_shop",
        "level": "0",
        "name": "Tim Hortons",
        "takeaway": "yes"
      }
    },
    {
      "type": "node",
      "id": 11305149293,
      "lat": 13.0710204,
      "lon": 77.5907325,
      "tags": {
        "addr:city": "Bengaluru",
        "addr:country": "IN",
        "addr:floor": "G",
        "addr:hamlet": "Byatarayanapura",
        "addr:place": "Phoenix Mall of Asia",
        "addr:postcode": "560092",
        "addr:suburb": "Yelahanka",
        "amenity": "cafe",
        "brand": "Starbucks",
        "brand:wikidata": "Q37158",
        "cuisine": "coffee_shop",
        "level": "0",
        "name": "Starbucks",
        "official_name": "Starbucks Coffee",
        "takeaway": "yes"
      }
    },
    {
      "type": "node",
      "id": 11305149315,
      "lat": 13.0706004,
      "lon": 77.5900948,
      "tags": {
        "amenity": "toilets"
      }
    },
    {
      "type": "node",
      "id": 11305149316,
      "lat": 13.0710981,
      "lon": 77.5909518,
      "tags": {
        "amenity": "toilets"
      }
    },
    {
      "type": "node",
      "id": 11305169242,
      "lat": 13.0705336,
      "lon": 77.591824,
      "tags": {
        "access": "customers",
        "amenity": "parking_entrance",
        "fee": "yes",
        "parking": "underground"
      }
    },
    {
      "type": "node",
      "id": 11305169244,
      "lat": 13.070522,
      "lon": 77.5918637,
      "tags": {
        "access": "customers",
        "amenity": "parking_entrance",
        "fee": "yes",
        "parking": "underground"
      }
    },
    {
      "type": "node",
      "id": 11305184192,
      "lat": 13.0709244,
      "lon": 77.5912099,
      "tags": {
        "addr:city": "Bengaluru",
        "addr:country": "IN",
        "addr:floor": "3",
        "addr:hamlet": "Byatarayanapura",
        "addr:place": "Phoenix Mall of Asia",
        "addr:postcode": "560092",
        "addr:suburb": "Yelahanka",
        "amenity": "fast_food",
        "level": "4",
        "name": "Nagas"
      }
    },
    {
      "type": "node",
      "id": 11305184193,
      "lat": 13.0709035,
      "lon": 77.5912837,
      "tags": {
        "addr:city": "Bengaluru",
        "addr:country": "IN",
        "addr:floor": "3",
        "addr:hamlet": "Byatarayanapura",
        "addr:place": "Phoenix Mall of Asia",
        "addr:postcode": "560092",
        "addr:suburb": "Yelahanka",
        "amenity": "fast_food",
        "brand": "Wow! Momo",
        "brand:wikidata": "Q8037446",
        "cuisine": "momo",
        "level": "4",
        "name": "Wow! Momo",
        "takeaway": "yes"
      }
    },
    {
      "type": "node",
      "id": 11305184194,
      "lat": 13.0706821,
      "lon": 77.5911798,
      "tags": {
        "addr:city": "Bengaluru",
        "addr:country": "IN",
        "addr:floor": "3",
        "addr:hamlet": "Byatarayanapura",
        "addr:place": "Phoenix Mall of Asia",
        "addr:postcode": "560092",
        "addr:suburb": "Yelahanka",
        "amenity": "fast_food",
        "level": "4",
        "name": "Keventers"
      }
    },
    {
      "type": "node",
      "id": 11305184195,
      "lat": 13.0708963,
      "lon": 77.5913313,
      "tags": {
        "addr:city": "Bengaluru",
        "addr:country": "IN",
        "addr:floor": "3",
        "addr:hamlet": "Byatarayanapura",
        "addr:place": "Phoenix Mall of Asia",
        "addr:postcode": "560092",
        "addr:suburb": "Yelahanka",
        "amenity": "fast_food",
        "level": "4",
        "name": "Shiv Sagar"
      }
    },
    {
      "type": "node",
      "id": 11305184196,
      "lat": 13.0707075,
      "lon": 77.5911127,
      "tags": {
        "addr:city": "Bengaluru",
        "addr:country": "IN",
        "addr:floor": "3",
        "addr:hamlet": "Byatarayanapura",
        "addr:place": "Phoenix Mall of Asia",
        "addr:postcode": "560092",
        "addr:suburb": "Yelahanka",
        "amenity": "fast_food",
        "brand": "Subway",
        "brand:wikidata": "Q244457",
        "cuisine": "sandwich",
        "level": "4",
        "name": "Subway",
        "takeaway": "yes"
      }
    },
    {
      "type": "node",
      "id": 11305184197,
      "lat": 13.0707663,
      "lon": 77.5915734,
      "tags": {
        "addr:city": "Bengaluru",
        "addr:country": "IN",
        "addr:floor": "3",
        "addr:hamlet": "Byatarayanapura",
        "addr:place": "Phoenix Mall of Asia",
        "addr:postcode": "560092",
        "addr:suburb": "Yelahanka",
        "leisure": "amusement_arcade",
        "level": "4",
        "name": "Timezone"
      }
    },
    {
      "type": "node",
      "id": 11305184198,
      "lat": 13.0704058,
      "lon": 77.5914212,
      "tags": {
        "addr:city": "Bengaluru",
        "addr:country": "IN",
        "addr:floor": "3",
        "addr:hamlet": "Byatarayanapura",
        "addr:place": "Phoenix Mall of Asia",
        "addr:postcode": "560092",
        "addr:suburb": "Yelahanka",
        "brand": "Hamleys",
        "brand:wikidata": "Q60299",
        "level": "4",
        "name": "Hamleys",
        "shop": "toys",
        "wheelchair": "limited"
      }
    },
    {
      "type": "node",
      "id": 11305184199,
      "lat": 13.070411,
      "lon": 77.5911362,
      "tags": {
        "addr:city": "Bengaluru",
        "addr:country": "IN",
        "addr:floor": "3",
        "addr:hamlet": "Byatarayanapura",
        "addr:place": "Phoenix Mall of Asia",
        "addr:postcode": "560092",
        "addr:suburb": "Yelahanka",
        "amenity": "fast_food",
        "brand": "Popeyes",
        "brand:wikidata": "Q1330910",
        "cuisine": "chicken",
        "level": "4",
        "name": "Popeyes",
        "official_name": "Popeyes Louisiana Kitchen",
        "takeaway": "yes"
      }
    },
    {
      "type": "node",
      "id": 11305184200,
      "lat": 13.0704489,
      "lon": 77.591047,
      "tags": {
        "addr:city": "Bengaluru",
        "addr:country": "IN",
        "addr:floor": "3",
        "addr:hamlet": "Byatarayanapura",
        "addr:place": "Phoenix Mall of Asia",
        "addr:postcode": "560092",
        "addr:suburb": "Yelahanka",
        "amenity": "restaurant",
        "brand": "Pizza Hut",
        "brand:wikidata": "Q191615",
        "cuisine": "pizza",
        "level": "4",
        "name": "Pizza Hut"
      }
    },
    {
      "type": "node",
      "id": 11305184201,
      "lat": 13.0704704,
      "lon": 77.5909793,
      "tags": {
        "addr:city": "Bengaluru",
        "addr:country": "IN",
        "addr:floor": "3",
        "addr:hamlet": "Byatarayanapura",
        "addr:place": "Phoenix Mall of Asia",
        "addr:postcode": "560092",
        "addr:suburb": "Yelahanka",
        "amenity": "fast_food",
        "brand": "Burger King",
        "brand:wikidata": "Q177054",
        "cuisine": "burger",
        "level": "4",
        "name": "Burger King",
        "takeaway": "yes"
      }
    },
    {
      "type": "node",
      "id": 11305184202,
      "lat": 13.0704913,
      "lon": 77.5908566,
      "tags": {
        "addr:city": "Bengaluru",
        "addr:country": "IN",
        "addr:floor": "3",
        "addr:hamlet": "Byatarayanapura",
        "addr:place": "Phoenix Mall of Asia",
        "addr:postcode": "560092",
        "addr:suburb": "Yelahanka",
        "amenity": "restaurant",
        "brand": "Chili's",
        "brand:wikidata": "Q1072948",
        "cuisine": "tex-mex",
        "level": "4",
        "name": "Chili's",
        "official_name": "Chili's Grill & Bar"
      }
    },
    {
      "type": "node",
      "id": 11305184203,
      "lat": 13.0705612,
      "lon": 77.5905608,
      "tags": {
        "addr:city": "Bengaluru",
        "addr:country": "IN",
        "addr:floor": "3",
        "addr:hamlet": "Byatarayanapura",
        "addr:place": "Phoenix Mall of Asia",
        "addr:postcode": "560092",
        "addr:suburb": "Yelahanka",
        "amenity": "restaurant",
        "brand": "PizzaExpress",
        "brand:wikidata": "Q662845",
        "cuisine": "pizza",
        "level": "4",
        "name": "PizzaExpress"
      }
    },
    {
      "type": "node",
      "id": 11305184204,
      "lat": 13.0705828,
      "lon": 77.5904703,
      "tags": {
        "addr:city": "Bengaluru",
        "addr:country": "IN",
        "addr:floor": "3",
        "addr:hamlet": "Byatarayanapura",
        "addr:place": "Phoenix Mall of Asia",
        "addr:postcode": "560092",
        "addr:suburb": "Yelahanka",
        "amenity": "restaurant",
        "level": "4",
        "name": "Rajdhani"
      }
    },
    {
      "type": "node",
      "id": 11305184205,
      "lat": 13.0705985,
      "lon": 77.5903831,
      "tags": {
        "addr:city": "Bengaluru",
        "addr:country": "IN",
        "addr:floor": "3",
        "addr:hamlet": "Byatarayanapura",
        "addr:place": "Phoenix Mall of Asia",
        "addr:postcode": "560092",
        "addr:suburb": "Yelahanka",
        "amenity": "restaurant",
        "brand": "Nando's",
        "brand:wikidata": "Q3472954",
        "cuisine": "chicken;portuguese",
        "level": "4",
        "name": "Nando's"
      }
    },
    {
      "type": "node",
      "id": 11305184206,
      "lat": 13.0706703,
      "lon": 77.5903221,
      "tags": {
        "addr:city": "Bengaluru",
        "addr:country": "IN",
        "addr:floor": "3",
        "addr:hamlet": "Byatarayanapura",
        "addr:place": "Phoenix Mall of Asia",
        "addr:postcode": "560092",
        "addr:suburb": "Yelahanka",
        "amenity": "fast_food",
        "level": "4",
        "name": "Waffle World"
      }
    },
    {
      "type": "node",
      "id": 11305184207,
      "lat": 13.0708088,
      "lon": 77.5903818,
      "tags": {
        "addr:city": "Bengaluru",
        "addr:country": "IN",
        "addr:floor": "3",
        "addr:hamlet": "Byatarayanapura",
        "addr:place": "Phoenix Mall of Asia",
        "addr:postcode": "560092",
        "addr:suburb": "Yelahanka",
        "amenity": "restaurant",
        "brand": "Punjab Grill",
        "brand:wikidata": "Q124374761",
        "cuisine": "north_indian",
        "delivery": "yes",
        "level": "4",
        "name": "Punjab Grill",
        "takeaway": "yes"
      }
    },
    {
      "type": "node",
      "id": 11305184208,
      "lat": 13.0708316,
      "lon": 77.5902115,
      "tags": {
        "addr:city": "Bengaluru",
        "addr:country": "IN",
        "addr:floor": "3",
        "addr:hamlet": "Byatarayanapura",
        "addr:place": "Phoenix Mall of Asia",
        "addr:postcode": "560092",
        "addr:suburb": "Yelahanka",
        "alt_name": "YouMee",
        "amenity": "restaurant",
        "full_name": "YouMee - Phoenix Mall of Asia",
        "level": "4",
        "name": "You Mee"
      }
    },
    {
      "type": "node",
      "id": 11305184209,
      "lat": 13.0709479,
      "lon": 77.5899017,
      "tags": {
        "addr:city": "Bengaluru",
        "addr:country": "IN",
        "addr:floor": "3",
        "addr:hamlet": "Byatarayanapura",
        "addr:place": "Phoenix Mall of Asia",
        "addr:postcode": "560092",
        "addr:suburb": "Yelahanka",
        "amenity": "restaurant",
        "level": "4",
        "name": "Jamie's Italian"
      }
    },
    {
      "type": "node",
      "id": 11305184210,
      "lat": 13.0709074,
      "lon": 77.5900231,
      "tags": {
        "addr:city": "Bengaluru",
        "addr:country": "IN",
        "addr:floor": "3",
        "addr:hamlet": "Byatarayanapura",
        "addr:place": "Phoenix Mall of Asia",
        "addr:postcode": "560092",
        "addr:suburb": "Yelahanka",
        "amenity": "restaurant",
        "cuisine": "burger",
        "level": "4",
        "name": "Burger Seigneur"
      }
    },
    {
      "type": "node",
      "id": 11305184211,
      "lat": 13.0710328,
      "lon": 77.5900586,
      "tags": {
        "addr:city": "Bengaluru",
        "addr:country": "IN",
        "addr:floor": "3",
        "addr:hamlet": "Byatarayanapura",
        "addr:place": "Phoenix Mall of Asia",
        "addr:postcode": "560092",
        "addr:suburb": "Yelahanka",
        "alt_name": "Kentucky Fried Chicken",
        "alt_name:en": "Kentucky Fried Chicken",
        "alt_name:hi": "केंटुकी फ्राइड चिकन",
        "alt_name:pa": "ਕੈਂਟੁਕੀ ਫ੍ਰਾਈਡ ਚਿਕਨ",
        "alt_name:pnb": "کینٹکی فرائیڈ چکن",
        "alt_name:ur": "کینٹکی فرائیڈ چکن",
        "amenity": "fast_food",
        "brand": "KFC",
        "brand:en": "KFC",
        "brand:hi": "केएफसी",
        "brand:pa": "ਕੇਐਫਸੀ",
        "brand:pnb": "کے ایف سی",
        "brand:ur": "کے ایف سی",
        "brand:wikidata": "Q524757",
        "cuisine": "chicken",
        "level": "4",
        "name": "KFC",
        "name:en": "KFC",
        "name:hi": "केएफसी",
        "name:pa": "ਕੇਐਫਸੀ",
        "name:pnb": "کے ایف سی",
        "name:ur": "کے ایف سی",
        "takeaway": "yes"
      }
    },
    {
      "type": "node",
      "id": 11305184212,
      "lat": 13.0710518,
      "lon": 77.5899285,
      "tags": {
        "addr:city": "Bengaluru",
        "addr:country": "IN",
        "addr:floor": "3",
        "addr:hamlet": "Byatarayanapura",
        "addr:place": "Phoenix Mall of Asia",
        "addr:postcode": "560092",
        "addr:suburb": "Yelahanka",
        "amenity": "restaurant",
        "brand": "Bhartiya Jalpan",
        "brand:wikidata": "Q124374711",
        "cuisine": "indian",
        "delivery": "yes",
        "level": "4",
        "name": "Bhartiya Jalpan",
        "takeaway": "yes"
      }
    },
    {
      "type": "node",
      "id": 11305184213,
      "lat": 13.071136,
      "lon": 77.589502,
      "tags": {
        "addr:city": "Bengaluru",
        "addr:country": "IN",
        "addr:floor": "3",
        "addr:hamlet": "Byatarayanapura",
        "addr:place": "Phoenix Mall of Asia",
        "addr:postcode": "560092",
        "addr:suburb": "Yelahanka",
        "amenity": "cinema",
        "brand": "INOX Leisure",
        "brand:wikidata": "Q5972349",
        "drive_in": "no",
        "level": "4",
        "name": "INOX Megaplex",
        "operator": "INOX",
        "screen": "14",
        "short_name": "INOX"
      }
    },
    {
      "type": "node",
      "id": 11305184214,
      "lat": 13.0713359,
      "lon": 77.5896308,
      "tags": {
        "addr:city": "Bengaluru",
        "addr:country": "IN",
        "addr:floor": "2",
        "addr:hamlet": "Byatarayanapura",
        "addr:place": "Phoenix Mall of Asia",
        "addr:postcode": "560092",
        "addr:suburb": "Yelahanka",
        "level": "3",
        "name": "Home Center",
        "shop": "interior_decoration"
      }
    },
    {
      "type": "node",
      "id": 11305184215,
      "lat": 13.0705638,
      "lon": 77.5905307,
      "tags": {
        "addr:city": "Bengaluru",
        "addr:country": "IN",
        "addr:floor": "2",
        "addr:hamlet": "Byatarayanapura",
        "addr:place": "Phoenix Mall of Asia",
        "addr:postcode": "560092",
        "addr:suburb": "Yelahanka",
        "amenity": "restaurant",
        "level": "3",
        "name": "Burma Burma"
      }
    },
    {
      "type": "node",
      "id": 11305184216,
      "lat": 13.0704868,
      "lon": 77.5909122,
      "tags": {
        "addr:city": "Bengaluru",
        "addr:country": "IN",
        "addr:floor": "2",
        "addr:hamlet": "Byatarayanapura",
        "addr:place": "Phoenix Mall of Asia",
        "addr:postcode": "560092",
        "addr:suburb": "Yelahanka",
        "amenity": "cafe",
        "level": "3",
        "name": "Cafe Allora"
      }
    },
    {
      "type": "node",
      "id": 11305184217,
      "lat": 13.0707121,
      "lon": 77.5912106,
      "tags": {
        "addr:city": "Bengaluru",
        "addr:country": "IN",
        "addr:floor": "2",
        "addr:hamlet": "Byatarayanapura",
        "addr:place": "Phoenix Mall of Asia",
        "addr:postcode": "560092",
        "addr:suburb": "Yelahanka",
        "brand": "Crossword Bookstores",
        "brand:wikidata": "Q5188909",
        "level": "3",
        "name": "Crossword Bookstores",
        "shop": "books"
      }
    },
    {
      "type": "node",
      "id": 11305184218,
      "lat": 13.0708401,
      "lon": 77.5916163,
      "tags": {
        "addr:city": "Bengaluru",
        "addr:country": "IN",
        "addr:floor": "2",
        "addr:hamlet": "Byatarayanapura",
        "addr:place": "Phoenix Mall of Asia",
        "addr:postcode": "560092",
        "addr:suburb": "Yelahanka",
        "level": "3",
        "name": "Reliance Trends",
        "shop": "clothes"
      }
    },
    {
      "type": "node",
      "id": 11305184219,
      "lat": 13.0706514,
      "lon": 77.591623,
      "tags": {
        "addr:city": "Bengaluru",
        "addr:country": "IN",
        "addr:floor": "2",
        "addr:hamlet": "Byatarayanapura",
        "addr:place": "Phoenix Mall of Asia",
        "addr:postcode": "560092",
        "addr:suburb": "Yelahanka",
        "brand": "Reliance Digital",
        "brand:wikidata": "Q7311012",
        "level": "3",
        "name": "Reliance Digital",
        "shop": "electronics"
      }
    },
    {
      "type": "node",
      "id": 11305184220,
      "lat": 13.0704809,
      "lon": 77.591566,
      "tags": {
        "addr:city": "Bengaluru",
        "addr:country": "IN",
        "addr:floor": "2",
        "addr:hamlet": "Byatarayanapura",
        "addr:place": "Phoenix Mall of Asia",
        "addr:postcode": "560092",
        "addr:suburb": "Yelahanka",
        "brand": "Cromā",
        "brand:wikidata": "Q5187683",
        "level": "3",
        "name": "Cromā",
        "shop": "electronics"
      }
    },
    {
      "type": "node",
      "id": 11305184221,
      "lat": 13.0703,
      "lon": 77.5914741,
      "tags": {
        "addr:city": "Bengaluru",
        "addr:country": "IN",
        "addr:floor": "2",
        "addr:hamlet": "Byatarayanapura",
        "addr:place": "Phoenix Mall of Asia",
        "addr:postcode": "560092",
        "addr:suburb": "Yelahanka",
        "brand": "Max",
        "brand:wikidata": "Q24939079",
        "level": "3",
        "name": "Max",
        "shop": "clothes"
      }
    },
    {
      "type": "node",
      "id": 11305184222,
      "lat": 13.0706736,
      "lon": 77.5909732,
      "tags": {
        "addr:city": "Bengaluru",
        "addr:country": "IN",
        "addr:floor": "1",
        "addr:hamlet": "Byatarayanapura",
        "addr:place": "Phoenix Mall of Asia",
        "addr:postcode": "560092",
        "addr:suburb": "Yelahanka",
        "brand": "Tissot",
        "brand:wikidata": "Q659530",
        "level": "2",
        "name": "Tissot",
        "shop": "watches"
      }
    },
    {
      "type": "node",
      "id": 11305184223,
      "lat": 13.0708421,
      "lon": 77.5905367,
      "tags": {
        "addr:city": "Bengaluru",
        "addr:country": "IN",
        "addr:floor": "1",
        "addr:hamlet": "Byatarayanapura",
        "addr:place": "Phoenix Mall of Asia",
        "addr:postcode": "560092",
        "addr:suburb": "Yelahanka",
        "brand": "Swarovski",
        "brand:wikidata": "Q611115",
        "level": "2",
        "name": "Swarovski",
        "shop": "jewelry"
      }
    },
    {
      "type": "node",
      "id": 11305184224,
      "lat": 13.0711798,
      "lon": 77.5906949,
      "tags": {
        "addr:city": "Bengaluru",
        "addr:country": "IN",
        "addr:floor": "1",
        "addr:hamlet": "Byatarayanapura",
        "addr:place": "Phoenix Mall of Asia",
        "addr:postcode": "560092",
        "addr:suburb": "Yelahanka",
        "brand": "Tommy Hilfiger",
        "brand:wikidata": "Q634881",
        "level": "2",
        "name": "Tommy Hilfiger",
        "shop": "clothes"
      }
    },
    {
      "type": "node",
      "id": 11305184225,
      "lat": 13.0711563,
      "lon": 77.5906084,
      "tags": {
        "addr:city": "Bengaluru",
        "addr:country": "IN",
        "addr:floor": "1",
        "addr:hamlet": "Byatarayanapura",
        "addr:place": "Phoenix Mall of Asia",
        "addr:postcode": "560092",
        "addr:suburb": "Yelahanka",
        "brand": "Calvin Klein",
        "brand:wikidata": "Q1068628",
        "level": "2",
        "name": "Calvin Klein",
        "name:kn": "ಕಾಲ್ವಿನ್ ಕ್ಲೈನ್",
        "shop": "clothes"
      }
    },
    {
      "type": "node",
      "id": 11305184226,
      "lat": 13.071202,
      "lon": 77.5904073,
      "tags": {
        "addr:city": "Bengaluru",
        "addr:country": "IN",
        "addr:floor": "1",
        "addr:hamlet": "Byatarayanapura",
        "addr:place": "Phoenix Mall of Asia",
        "addr:postcode": "560092",
        "addr:suburb": "Yelahanka",
        "amenity": "cafe",
        "level": "2",
        "name": "Magnolia Bakery"
      }
    },
    {
      "type": "node",
      "id": 11305184227,
      "lat": 13.0710518,
      "lon": 77.5900231,
      "tags": {
        "addr:city": "Bengaluru",
        "addr:country": "IN",
        "addr:floor": "1",
        "addr:hamlet": "Byatarayanapura",
        "addr:place": "Phoenix Mall of Asia",
        "addr:postcode": "560092",
        "addr:suburb": "Yelahanka",
        "brand": "Clarks",
        "brand:wikidata": "Q1095857",
        "level": "2",
        "name": "Clarks",
        "name:kn": "ಕ್ಲಾರ್ಕ್ಸ್",
        "shop": "shoes"
      }
    },
    {
      "type": "node",
      "id": 11305184228,
      "lat": 13.0709571,
      "lon": 77.5899942,
      "tags": {
        "addr:city": "Bengaluru",
        "addr:country": "IN",
        "addr:floor": "1",
        "addr:hamlet": "Byatarayanapura",
        "addr:place": "Phoenix Mall of Asia",
        "addr:postcode": "560092",
        "addr:suburb": "Yelahanka",
        "brand": "Birkenstock",
        "brand:wikidata": "Q648458",
        "level": "2",
        "name": "Birkenstock",
        "shop": "shoes"
      }
    },
    {
      "type": "node",
      "id": 11305184229,
      "lat": 13.0712634,
      "lon": 77.590239,
      "tags": {
        "addr:city": "Bengaluru",
        "addr:country": "IN",
        "addr:floor": "1",
        "addr:hamlet": "Byatarayanapura",
        "addr:place": "Phoenix Mall of Asia",
        "addr:postcode": "560092",
        "addr:suburb": "Yelahanka",
        "brand": "Lacoste",
        "brand:wikidata": "Q309031",
        "level": "2",
        "name": "Lacoste",
        "shop": "clothes"
      }
    },
    {
      "type": "node",
      "id": 11305184230,
      "lat": 13.0713509,
      "lon": 77.5898024,
      "tags": {
        "addr:city": "Bengaluru",
        "addr:country": "IN",
        "addr:floor": "1",
        "addr:hamlet": "Byatarayanapura",
        "addr:place": "Phoenix Mall of Asia",
        "addr:postcode": "560092",
        "addr:suburb": "Yelahanka",
        "brand": "Marks & Spencer",
        "brand:short": "M&S",
        "brand:wikidata": "Q714491",
        "level": "2",
        "name": "Marks & Spencer",
        "shop": "department_store"
      }
    },
    {
      "type": "node",
      "id": 11305184231,
      "lat": 13.0711602,
      "lon": 77.5895671,
      "tags": {
        "addr:city": "Bengaluru",
        "addr:country": "IN",
        "addr:floor": "1",
        "addr:hamlet": "Byatarayanapura",
        "addr:place": "Phoenix Mall of Asia",
        "addr:postcode": "560092",
        "addr:suburb": "Yelahanka",
        "brand": "Lifestyle",
        "brand:wikidata": "Q6545496",
        "level": "2",
        "name": "Lifestyle",
        "shop": "clothes"
      }
    },
    {
      "type": "node",
      "id": 11305184232,
      "lat": 13.0708682,
      "lon": 77.5895852,
      "tags": {
        "addr:city": "Bengaluru",
        "addr:country": "IN",
        "addr:floor": "1",
        "addr:hamlet": "Byatarayanapura",
        "addr:place": "Phoenix Mall of Asia",
        "addr:postcode": "560092",
        "addr:suburb": "Yelahanka",
        "brand": "H&M",
        "brand:wikidata": "Q188326",
        "level": "2",
        "name": "H&M",
        "shop": "clothes",
        "start_date": "2024-02-09"
      }
    },
    {
      "type": "node",
      "id": 11305184233,
      "lat": 13.0704861,
      "lon": 77.5907399,
      "tags": {
        "addr:city": "Bengaluru",
        "addr:country": "IN",
        "addr:floor": "1",
        "addr:hamlet": "Byatarayanapura",
        "addr:place": "Phoenix Mall of Asia",
        "addr:postcode": "560092",
        "addr:suburb": "Yelahanka",
        "brand": "Armani Exchange",
        "brand:wikidata": "Q56045740",
        "clothes": "men;women",
        "level": "2",
        "name": "Armani Exchange",
        "shop": "clothes"
      }
    },
    {
      "type": "node",
      "id": 11305184234,
      "lat": 13.0704737,
      "lon": 77.5908156,
      "tags": {
        "addr:city": "Bengaluru",
        "addr:country": "IN",
        "addr:floor": "1",
        "addr:hamlet": "Byatarayanapura",
        "addr:place": "Phoenix Mall of Asia",
        "addr:postcode": "560092",
        "addr:suburb": "Yelahanka",
        "brand": "Bath & Body Works",
        "brand:wikidata": "Q810773",
        "level": "2",
        "name": "Bath & Body Works",
        "shop": "cosmetics"
      }
    },
    {
      "type": "node",
      "id": 11305184235,
      "lat": 13.0704554,
      "lon": 77.590878,
      "tags": {
        "addr:city": "Bengaluru",
        "addr:country": "IN",
        "addr:floor": "1",
        "addr:hamlet": "Byatarayanapura",
        "addr:place": "Phoenix Mall of Asia",
        "addr:postcode": "560092",
        "addr:suburb": "Yelahanka",
        "brand": "The Body Shop",
        "brand:wikidata": "Q837851",
        "level": "2",
        "name": "The Body Shop",
        "shop": "cosmetics"
      }
    },
    {
      "type": "node",
      "id": 11305184236,
      "lat": 13.0703862,
      "lon": 77.5910202,
      "tags": {
        "addr:city": "Bengaluru",
        "addr:country": "IN",
        "addr:floor": "1",
        "addr:hamlet": "Byatarayanapura",
        "addr:place": "Phoenix Mall of Asia",
        "addr:postcode": "560092",
        "addr:suburb": "Yelahanka",
        "brand": "Vero Moda",
        "brand:wikidata": "Q640418",
        "clothes": "women",
        "level": "2",
        "name": "Vero Moda",
        "shop": "clothes"
      }
    },
    {
      "type": "node",
      "id": 11305184237,
      "lat": 13.0703692,
      "lon": 77.5911207,
      "tags": {
        "addr:city": "Bengaluru",
        "addr:country": "IN",
        "addr:floor": "1",
        "addr:hamlet": "Byatarayanapura",
        "addr:place": "Phoenix Mall of Asia",
        "addr:postcode": "560092",
        "addr:suburb": "Yelahanka",
        "brand": "Mango",
        "brand:wikidata": "Q136503",
        "level": "2",
        "name": "Mango",
        "shop": "clothes"
      }
    },
    {
      "type": "node",
      "id": 11305184238,
      "lat": 13.0705756,
      "lon": 77.5915781,
      "tags": {
        "addr:city": "Bengaluru",
        "addr:country": "IN",
        "addr:floor": "1",
        "addr:hamlet": "Byatarayanapura",
        "addr:place": "Phoenix Mall of Asia",
        "addr:postcode": "560092",
        "addr:suburb": "Yelahanka",
        "brand": "Zara",
        "brand:wikidata": "Q147662",
        "level": "2",
        "name": "Zara",
        "shop": "clothes"
      }
    },
    {
      "type": "node",
      "id": 11406977578,
      "lat": 13.0681222,
      "lon": 77.5791911,
      "tags": {
        "amenity": "restaurant",
        "name": "Calm Down Cafe"
      }
    },
    {
      "type": "node",
      "id": 11423202993,
      "lat": 13.0709074,
      "lon": 77.5907533,
      "tags": {
        "addr:city": "Bengaluru",
        "addr:country": "IN",
        "addr:floor": "1",
        "addr:hamlet": "Byatarayanapura",
        "addr:place": "Phoenix Mall of Asia",
        "addr:postcode": "560092",
        "addr:suburb": "Yelahanka",
        "amenity": "restaurant",
        "contact:instagram": "andreasdining",
        "cuisine": "italian",
        "level": "2",
        "name": "Andrea's Brasserie",
        "phone": "8588823878",
        "website": "https://andreas.co.in/andrea-s-brasserie-bengaluru"
      }
    },
    {
      "type": "node",
      "id": 11530632115,
      "lat": 13.0704515,
      "lon": 77.5780101,
      "tags": {
        "amenity": "shelter",
        "shelter_type": "gazebo"
      }
    },
    {
      "type": "node",
      "id": 11534769007,
      "lat": 13.0705715,
      "lon": 77.5905475,
      "tags": {
        "addr:city": "Bengaluru",
        "addr:country": "IN",
        "addr:hamlet": "Byatarayanapura",
        "addr:place": "Phoenix Mall of Asia",
        "addr:postcode": "560092",
        "addr:suburb": "Yelahanka",
        "amenity": "pub",
        "check_date": "2024-01-21",
        "level": "3",
        "name": "Sally by 1522",
        "website": "https://sallyby1522.com/"
      }
    },
    {
      "type": "node",
      "id": 11566358594,
      "lat": 13.0710194,
      "lon": 77.5909062,
      "tags": {
        "addr:city": "Bengaluru",
        "addr:country": "IN",
        "addr:floor": "2",
        "addr:hamlet": "Byatarayanapura",
        "addr:place": "Phoenix Mall of Asia",
        "addr:postcode": "560092",
        "addr:suburb": "Yelahanka",
        "amenity": "restaurant",
        "level": "3",
        "name": "Plan B"
      }
    },
    {
      "type": "node",
      "id": 11566358595,
      "lat": 13.070892,
      "lon": 77.590808,
      "tags": {
        "addr:city": "Bengaluru",
        "addr:country": "IN",
        "addr:floor": "2",
        "addr:hamlet": "Byatarayanapura",
        "addr:place": "Phoenix Mall of Asia",
        "addr:postcode": "560092",
        "addr:suburb": "Yelahanka",
        "amenity": "restaurant",
        "brand": "Cafe Noir",
        "brand:wikidata": "Q124374751",
        "cuisine": "french",
        "delivery": "yes",
        "level": "3",
        "name": "Cafe Noir",
        "takeaway": "yes"
      }
    },
    {
      "type": "node",
      "id": 11566358596,
      "lat": 13.0711959,
      "lon": 77.5903508,
      "tags": {
        "addr:city": "Bengaluru",
        "addr:country": "IN",
        "addr:floor": "2",
        "addr:hamlet": "Byatarayanapura",
        "addr:place": "Phoenix Mall of Asia",
        "addr:postcode": "560092",
        "addr:suburb": "Yelahanka",
        "level": "3",
        "name": "DJI",
        "shop": "electronics"
      }
    },
    {
      "type": "node",
      "id": 11566358597,
      "lat": 13.0710537,
      "lon": 77.5900683,
      "tags": {
        "addr:city": "Bengaluru",
        "addr:country": "IN",
        "addr:floor": "2",
        "addr:hamlet": "Byatarayanapura",
        "addr:place": "Phoenix Mall of Asia",
        "addr:postcode": "560092",
        "addr:suburb": "Yelahanka",
        "brand": "Bose",
        "brand:wikidata": "Q328568",
        "level": "3",
        "name": "Bose",
        "shop": "hifi"
      }
    },
    {
      "type": "node",
      "id": 11566358598,
      "lat": 13.0706075,
      "lon": 77.5911879,
      "tags": {
        "addr:city": "Bengaluru",
        "addr:country": "IN",
        "addr:floor": "2",
        "addr:hamlet": "Byatarayanapura",
        "addr:place": "Phoenix Mall of Asia",
        "addr:postcode": "560092",
        "addr:suburb": "Yelahanka",
        "brand": "Biba",
        "brand:wikidata": "Q4902942",
        "level": "3",
        "name": "Biba",
        "name:kn": "ಬೀಬ",
        "shop": "clothes"
      }
    },
    {
      "type": "node",
      "id": 11566358599,
      "lat": 13.0706432,
      "lon": 77.5903939,
      "tags": {
        "addr:city": "Bengaluru",
        "addr:country": "IN",
        "addr:floor": "2",
        "addr:hamlet": "Byatarayanapura",
        "addr:place": "Phoenix Mall of Asia",
        "addr:postcode": "560092",
        "addr:suburb": "Yelahanka",
        "level": "3",
        "name": "W",
        "shop": "clothes"
      }
    },
    {
      "type": "node",
      "id": 11566358600,
      "lat": 13.070951,
      "lon": 77.5899653,
      "tags": {
        "addr:city": "Bengaluru",
        "addr:country": "IN",
        "addr:floor": "2",
        "addr:hamlet": "Byatarayanapura",
        "addr:place": "Phoenix Mall of Asia",
        "addr:postcode": "560092",
        "addr:suburb": "Yelahanka",
        "level": "3",
        "name": "IndieFusion",
        "shop": "clothes"
      }
    },
    {
      "type": "node",
      "id": 11566358601,
      "lat": 13.0709744,
      "lon": 77.5898855,
      "tags": {
        "addr:city": "Bengaluru",
        "addr:country": "IN",
        "addr:floor": "2",
        "addr:hamlet": "Byatarayanapura",
        "addr:place": "Phoenix Mall of Asia",
        "addr:postcode": "560092",
        "addr:suburb": "Yelahanka",
        "level": "3",
        "name": "Mohanlal Sons",
        "shop": "clothes"
      }
    },
    {
      "type": "node",
      "id": 11566358602,
      "lat": 13.0709643,
      "lon": 77.5903859,
      "tags": {
        "addr:city": "Bengaluru",
        "addr:country": "IN",
        "addr:floor": "2",
        "addr:hamlet": "Byatarayanapura",
        "addr:place": "Phoenix Mall of Asia",
        "addr:postcode": "560092",
        "addr:suburb": "Yelahanka",
        "level": "3",
        "name": "Soch",
        "shop": "clothes"
      }
    },
    {
      "type": "node",
      "id": 11566358603,
      "lat": 13.0712519,
      "lon": 77.5900659,
      "tags": {
        "addr:city": "Bengaluru",
        "addr:country": "IN",
        "addr:floor": "2",
        "addr:hamlet": "Byatarayanapura",
        "addr:place": "Phoenix Mall of Asia",
        "addr:postcode": "560092",
        "addr:suburb": "Yelahanka",
        "level": "3",
        "name": "Mama Earth",
        "shop": "beauty"
      }
    },
    {
      "type": "node",
      "id": 11566358604,
      "lat": 13.0708611,
      "lon": 77.5901247,
      "tags": {
        "addr:city": "Bengaluru",
        "addr:country": "IN",
        "addr:floor": "UG",
        "addr:hamlet": "Byatarayanapura",
        "addr:place": "Phoenix Mall of Asia",
        "addr:postcode": "560092",
        "addr:suburb": "Yelahanka",
        "brand": "Jo Malone",
        "brand:wikidata": "Q28940761",
        "level": "1",
        "name": "Jo Malone",
        "shop": "perfumery"
      }
    },
    {
      "type": "node",
      "id": 11594831328,
      "lat": 13.0680231,
      "lon": 77.5791747,
      "tags": {
        "amenity": "restaurant",
        "name": "Calm Down Cafe"
      }
    },
    {
      "type": "node",
      "id": 11655446700,
      "lat": 13.0711439,
      "lon": 77.5889294,
      "tags": {
        "access": "customers",
        "amenity": "parking_entrance",
        "fee": "yes",
        "parking": "underground"
      }
    },
    {
      "type": "node",
      "id": 11777585622,
      "lat": 13.0709551,
      "lon": 77.5905318,
      "tags": {
        "addr:city": "Bengaluru",
        "addr:country": "IN",
        "addr:floor": "3",
        "addr:hamlet": "Byatarayanapura",
        "addr:place": "Phoenix Mall of Asia",
        "addr:postcode": "560092",
        "addr:suburb": "Yelahanka",
        "air_conditioning": "yes",
        "amenity": "restaurant",
        "contact:instagram": "ishaara.blr",
        "delivery": "yes",
        "dinner": "yes",
        "level": "4",
        "lunch": "yes",
        "name": "Ishaara",
        "opening_hours": "10:30-22:30",
        "reservation": "recommended",
        "takeaway": "yes"
      }
    },
    {
      "type": "node",
      "id": 11777585623,
      "lat": 13.0711653,
      "lon": 77.5904409,
      "tags": {
        "addr:city": "Bengaluru",
        "addr:country": "IN",
        "addr:floor": "3",
        "addr:hamlet": "Byatarayanapura",
        "addr:place": "Phoenix Mall of Asia",
        "addr:postcode": "560092",
        "addr:suburb": "Yelahanka",
        "air_conditioning": "yes",
        "amenity": "restaurant",
        "contact:instagram": "karigari.bangalore",
        "delivery": "yes",
        "dinner": "yes",
        "full_name": "Karigari by Chef Parpal Singh Sokhi",
        "level": "4",
        "lunch": "yes",
        "name": "Karigari",
        "opening_hours": "12:00-23:30",
        "reservation": "recommended",
        "takeaway": "yes",
        "website": "https://karigariindia.com/"
      }
    },
    {
      "type": "node",
      "id": 11777585624,
      "lat": 13.0711299,
      "lon": 77.5905713,
      "tags": {
        "addr:city": "Bengaluru",
        "addr:country": "IN",
        "addr:floor": "3",
        "addr:hamlet": "Byatarayanapura",
        "addr:place": "Phoenix Mall of Asia",
        "addr:postcode": "560092",
        "addr:suburb": "Yelahanka",
        "air_conditioning": "yes",
        "amenity": "restaurant",
        "bar": "yes",
        "contact:instagram": "plaka_india",
        "delivery": "no",
        "dinner": "yes",
        "full_name": "Plaka by Chef Ajay Chopra",
        "level": "4",
        "lunch": "yes",
        "name": "Plaka",
        "opening_hours": "11:00-00:00",
        "reservation": "recommended",
        "takeaway": "no",
        "website": "https://linktr.ee/PlakaByChefAjayChopra"
      }
    },
    {
      "type": "node",
      "id": 11817854695,
      "lat": 13.0723261,
      "lon": 77.5859582,
      "tags": {
        "amenity": "prep_school",
        "name": "Vaidya Medical Academy",
        "office": "educational_institution"
      }
    },
    {
      "type": "node",
      "id": 11817854700,
      "lat": 13.0707996,
      "lon": 77.5896261,
      "tags": {
        "addr:city": "Bengaluru",
        "addr:country": "IN",
        "addr:floor": "G",
        "addr:hamlet": "Byatarayanapura",
        "addr:place": "Phoenix Mall of Asia",
        "addr:postcode": "560092",
        "addr:suburb": "Yelahanka",
        "level": "0",
        "name": "Azorte",
        "shop": "clothes"
      }
    },
    {
      "type": "node",
      "id": 11913886655,
      "lat": 13.0708826,
      "lon": 77.5888033,
      "tags": {
        "access": "customers",
        "amenity": "parking_entrance",
        "fee": "yes",
        "parking": "underground"
      }
    },
    {
      "type": "node",
      "id": 11949329870,
      "lat": 13.0633061,
      "lon": 77.5895364,
      "tags": {
        "addr:housenumber": "459/7",
        "addr:street": "11cross",
        "amenity": "pharmacy",
        "name": "Pradhan mantri bharatiya jan aushadh kendra",
        "phone": "+919741602399"
      }
    },
    {
      "type": "node",
      "id": 11949339769,
      "lat": 13.0635448,
      "lon": 77.5895761,
      "tags": {
        "amenity": "clinic",
        "name": "Healing hands"
      }
    },
    {
      "type": "node",
      "id": 11977326690,
      "lat": 13.0707807,
      "lon": 77.5909786,
      "tags": {
        "addr:city": "Bengaluru",
        "addr:country": "IN",
        "addr:floor": "1",
        "addr:hamlet": "Byatarayanapura",
        "addr:place": "Phoenix Mall of Asia",
        "addr:postcode": "560092",
        "addr:suburb": "Yelahanka",
        "brand": "Superdry",
        "brand:wikidata": "Q1684445",
        "contact:facebook": "Superdry",
        "contact:instagram": "superdry",
        "contact:twitter": "superdry",
        "level": "2",
        "name": "Superdry",
        "shop": "clothes",
        "website": "https://www.superdry.com/"
      }
    },
    {
      "type": "node",
      "id": 12059052245,
      "lat": 13.0624439,
      "lon": 77.587205,
      "tags": {
        "amenity": "bank",
        "brand": "Bank of Baroda",
        "brand:wikidata": "Q2003797",
        "check_date": "2024-07-17",
        "name": "Bank of Baroda"
      }
    },
    {
      "type": "node",
      "id": 12059052246,
      "lat": 13.0624433,
      "lon": 77.5872737,
      "tags": {
        "check_date": "2024-07-17",
        "name": "Green Trends",
        "shop": "beauty"
      }
    },
    {
      "type": "node",
      "id": 12059052247,
      "lat": 13.0625632,
      "lon": 77.5871948,
      "tags": {
        "check_date": "2024-07-17",
        "name": "Affection Maternity, Kids And Toys",
        "shop": "clothes"
      }
    },
    {
      "type": "node",
      "id": 12059052248,
      "lat": 13.0625274,
      "lon": 77.5871872,
      "tags": {
        "brand": "Snack Shop",
        "check_date": "2024-07-17",
        "name": "Sunny Namkins",
        "shop": "convenience"
      }
    },
    {
      "type": "node",
      "id": 12059052249,
      "lat": 13.0628619,
      "lon": 77.5871538,
      "tags": {
        "amenity": "bank",
        "brand": "Indian Overseas Bank",
        "brand:wikidata": "Q2003611",
        "check_date": "2024-07-17",
        "name": "Indian Overseas Bank"
      }
    },
    {
      "type": "node",
      "id": 12174443786,
      "lat": 13.0636423,
      "lon": 77.5881608,
      "tags": {
        "name": "N S Digital",
        "shop": "photo_studio"
      }
    },
    {
      "type": "node",
      "id": 12175883071,
      "lat": 13.0708682,
      "lon": 77.5781591,
      "tags": {
        "addr:street": "Canara bank layout, Rajiv Gandhi nagar",
        "amenity": "restaurant",
        "name": "Swad authentic kerala restaurant"
      }
    },
    {
      "type": "node",
      "id": 12294001134,
      "lat": 13.070718,
      "lon": 77.5899795,
      "tags": {
        "amenity": "fast_food",
        "contact:instagram": "goodflippin",
        "cuisine": "burger",
        "delivery": "yes",
        "name": "Good Flippin' Burgers",
        "takeaway": "yes",
        "website": "https://goodflippin.com/"
      }
    },
    {
      "type": "node",
      "id": 12458015816,
      "lat": 13.0696562,
      "lon": 77.5779499,
      "tags": {
        "name": "Mataji Pharma",
        "shop": "medical_supply"
      }
    },
    {
      "type": "node",
      "id": 12495410070,
      "lat": 13.0648728,
      "lon": 77.5841846,
      "tags": {
        "name": "PNS Silks",
        "shop": "clothes"
      }
    },
    {
      "type": "node",
      "id": 12541432212,
      "lat": 13.0708939,
      "lon": 77.5765029,
      "tags": {
        "name": "Vinayaka Bakery",
        "shop": "bakery"
      }
    },
    {
      "type": "node",
      "id": 12651750822,
      "lat": 13.0688754,
      "lon": 77.5922614,
      "tags": {
        "access": "private",
        "amenity": "parking_entrance",
        "parking": "underground"
      }
    },
    {
      "type": "node",
      "id": 12651750840,
      "lat": 13.0693019,
      "lon": 77.5916545,
      "tags": {
        "access": "private",
        "amenity": "parking_entrance",
        "parking": "underground"
      }
    },
    {
      "type": "node",
      "id": 12651750846,
      "lat": 13.0679426,
      "lon": 77.5914641,
      "tags": {
        "access": "private",
        "amenity": "parking_entrance",
        "parking": "underground"
      }
    },
    {
      "type": "node",
      "id": 13086372169,
      "lat": 13.0703979,
      "lon": 77.5912706,
      "tags": {
        "brand": "Apple Store",
        "brand:wikidata": "Q421253",
        "name": "Apple Store",
        "official_name": "Apple Hebbal",
        "shop": "electronics",
        "short_name": "Apple",
        "start_date": "2025-09-02"
      }
    },
    {
      "type": "node",
      "id": 13111707601,
      "lat": 13.077387,
      "lon": 77.579739,
      "tags": {
        "addr:postcode": "560065",
        "amenity": "college",
        "name": "Institute of Agri-Business Management"
      }
    },
    {
      "type": "node",
      "id": 13112740301,
      "lat": 13.0773825,
      "lon": 77.57973,
      "tags": {
        "amenity": "college",
        "name": "Institute of Agri-Business Management"
      }
    },
    {
      "type": "node",
      "id": 13207117728,
      "lat": 13.0705273,
      "lon": 77.5914842,
      "tags": {
        "brand": "Massimo Dutti",
        "brand:wikidata": "Q788231",
        "name": "Massimo Dutti",
        "shop": "clothes"
      }
    },
    {
      "type": "node",
      "id": 13207117729,
      "lat": 13.0705952,
      "lon": 77.5915056,
      "tags": {
        "name": "Onitsuka Tiger",
        "shop": "clothes"
      }
    },
    {
      "type": "way",
      "id": 200864657,
      "center": {
        "lat": 13.0625346,
        "lon": 77.5825691
      },
      "tags": {
        "leisure": "playground",
        "name": "BBMP Children's Playground"
      }
    },
    {
      "type": "way",
      "id": 201253920,
      "center": {
        "lat": 13.0772767,
        "lon": 77.5777437
      },
      "tags": {
        "amenity": "college",
        "building": "school",
        "name": "College of Agriculture",
        "name:kn": "ಕೃಷಿ ಕಾಲೇಜು"
      }
    },
    {
      "type": "way",
      "id": 230471113,
      "center": {
        "lat": 13.0766171,
        "lon": 77.5806023
      },
      "tags": {
        "amenity": "events_venue",
        "building": "university",
        "name": "Dr. Babu Rajendra Prasad International Convention Centre"
      }
    },
    {
      "type": "way",
      "id": 230860212,
      "center": {
        "lat": 13.0767927,
        "lon": 77.5784431
      },
      "tags": {
        "amenity": "restaurant",
        "building": "yes"
      }
    },
    {
      "type": "way",
      "id": 249189384,
      "center": {
        "lat": 13.0624801,
        "lon": 77.5862547
      },
      "tags": {
        "leisure": "park"
      }
    },
    {
      "type": "way",
      "id": 310909648,
      "center": {
        "lat": 13.0629469,
        "lon": 77.5819582
      },
      "tags": {
        "leisure": "park",
        "name": "Sahakarnagar C Block Park"
      }
    },
    {
      "type": "way",
      "id": 346422195,
      "center": {
        "lat": 13.0686816,
        "lon": 77.5878466
      },
      "tags": {
        "amenity": "place_of_worship",
        "building": "yes",
        "name": "Swamy Ayappa Temple",
        "religion": "hindu"
      }
    },
    {
      "type": "way",
      "id": 346422524,
      "center": {
        "lat": 13.0691169,
        "lon": 77.5808726
      },
      "tags": {
        "amenity": "restaurant",
        "building": "yes",
        "cuisine": "south_indian",
        "diet:vegetarian": "yes",
        "name": "Trupti Tindi",
        "opening_hours": "Mo-Su 07:00-11:30,17:00-21:00"
      }
    },
    {
      "type": "way",
      "id": 396653991,
      "center": {
        "lat": 13.0757169,
        "lon": 77.5829078
      },
      "tags": {
        "leisure": "pitch"
      }
    },
    {
      "type": "way",
      "id": 396653999,
      "center": {
        "lat": 13.0776642,
        "lon": 77.5889375
      },
      "tags": {
        "leisure": "park"
      }
    },
    {
      "type": "way",
      "id": 408538810,
      "center": {
        "lat": 13.0757447,
        "lon": 77.5819597
      },
      "tags": {
        "leisure": "pitch"
      }
    },
    {
      "type": "way",
      "id": 408538811,
      "center": {
        "lat": 13.0758003,
        "lon": 77.5817706
      },
      "tags": {
        "leisure": "pitch",
        "sport": "tennis"
      }
    },
    {
      "type": "way",
      "id": 552430276,
      "center": {
        "lat": 13.0621911,
        "lon": 77.5802961
      },
      "tags": {
        "addr:city": "Bengaluru",
        "addr:postcode": "560092",
        "addr:street": "C Block, CQAL Layout, Sahakara nagar",
        "description": "Swings, slides and roundabouts for children's amusement, benches and paths for the elderly to unwind.",
        "leisure": "park",
        "name": "Sahakara Nagar CQAL Kids Park"
      }
    },
    {
      "type": "way",
      "id": 553192062,
      "center": {
        "lat": 13.0701069,
        "lon": 77.5778563
      },
      "tags": {
        "leisure": "park",
        "name": "Ganesh Temple Park",
        "official_name": "Pandit Deendayal Upadhyaya Park"
      }
    },
    {
      "type": "way",
      "id": 594570777,
      "center": {
        "lat": 13.0701791,
        "lon": 77.578586
      },
      "tags": {
        "leisure": "park"
      }
    },
    {
      "type": "way",
      "id": 594570780,
      "center": {
        "lat": 13.0689871,
        "lon": 77.579003
      },
      "tags": {
        "leisure": "park"
      }
    },
    {
      "type": "way",
      "id": 594570783,
      "center": {
        "lat": 13.0640638,
        "lon": 77.5841822
      },
      "tags": {
        "leisure": "park"
      }
    },
    {
      "type": "way",
      "id": 594570786,
      "center": {
        "lat": 13.0646954,
        "lon": 77.5833047
      },
      "tags": {
        "leisure": "park"
      }
    },
    {
      "type": "way",
      "id": 635487458,
      "center": {
        "lat": 13.0672404,
        "lon": 77.5863503
      },
      "tags": {
        "amenity": "community_centre",
        "name": "Radha Krishna Kalyana Mantapa"
      }
    },
    {
      "type": "way",
      "id": 635509936,
      "center": {
        "lat": 13.0708864,
        "lon": 77.5904608
      },
      "tags": {
        "contact:instagram": "phoenixmoa",
        "landuse": "retail",
        "name": "Phoenix Mall of Asia",
        "opening_hours": "10:00-01:00",
        "operator": "The Phoenix Mills",
        "shop": "mall"
      }
    },
    {
      "type": "way",
      "id": 681573027,
      "center": {
        "lat": 13.0710621,
        "lon": 77.579341
      },
      "tags": {
        "leisure": "swimming_pool",
        "name": "NCBS Pool"
      }
    },
    {
      "type": "way",
      "id": 681573199,
      "center": {
        "lat": 13.071134,
        "lon": 77.5796267
      },
      "tags": {
        "leisure": "sports_centre",
        "name": "Sports Center"
      }
    },
    {
      "type": "way",
      "id": 681805619,
      "center": {
        "lat": 13.0707804,
        "lon": 77.5794019
      },
      "tags": {
        "leisure": "pitch",
        "lit": "yes",
        "sport": "tennis",
        "surface": "grass"
      }
    },
    {
      "type": "way",
      "id": 781846361,
      "center": {
        "lat": 13.0635393,
        "lon": 77.584907
      },
      "tags": {
        "amenity": "place_of_worship",
        "name": "Ganesha Temple",
        "name:kn": "ಗಣೇಶ ದೇವಸ್ಥಾನ",
        "religion": "hindu"
      }
    },
    {
      "type": "way",
      "id": 816044957,
      "center": {
        "lat": 13.0698363,
        "lon": 77.5748727
      },
      "tags": {
        "building": "yes",
        "name": "SLVN Store",
        "opening_hours": "Mo-Sa 08:00-20:00",
        "shop": "small_shop"
      }
    },
    {
      "type": "way",
      "id": 816863562,
      "center": {
        "lat": 13.0714927,
        "lon": 77.5801602
      },
      "tags": {
        "addr:city": "Bangalore",
        "addr:postcode": "560065",
        "addr:street": "GKVK Campus",
        "amenity": "college",
        "full_name": "National Centre for Biological Sciences, Bangalore",
        "internet_access": "yes",
        "internet_access:fee": "no",
        "name": "NCBS Bangalore",
        "short_name": "NCBS",
        "website": "https://ncbs.res.in"
      }
    },
    {
      "type": "way",
      "id": 963698077,
      "center": {
        "lat": 13.0682545,
        "lon": 77.5890277
      },
      "tags": {
        "leisure": "park"
      }
    },
    {
      "type": "way",
      "id": 963698078,
      "center": {
        "lat": 13.0683184,
        "lon": 77.5903207
      },
      "tags": {
        "access": "private",
        "leisure": "pitch",
        "sport": "tennis"
      }
    },
    {
      "type": "way",
      "id": 1062006432,
      "center": {
        "lat": 13.0766719,
        "lon": 77.5825485
      },
      "tags": {
        "leisure": "pitch",
        "sport": "basketball"
      }
    },
    {
      "type": "way",
      "id": 1188310648,
      "center": {
        "lat": 13.0685481,
        "lon": 77.5810048
      },
      "tags": {
        "addr:postcode": "560092",
        "addr:street": "NTI Layout, Rajiv Gandhi Nagar ,Off Bangalore International Airport Road",
        "amenity": "school",
        "email": "communications.oisvn@orchids.edu.in",
        "name": "Orchids The International School Vivekananda - SahakarNagar",
        "opening_hours": "Mo-Su 09:00-18:30",
        "operator": "Orchids International School",
        "phone": "9513731352",
        "website": "https://www.orchidsinternationalschool.com/bangalore-branches/sahakar-nagar/"
      }
    },
    {
      "type": "way",
      "id": 1188310709,
      "center": {
        "lat": 13.0689322,
        "lon": 77.5897592
      },
      "tags": {
        "access": "private",
        "leisure": "swimming_pool"
      }
    },
    {
      "type": "way",
      "id": 1188310710,
      "center": {
        "lat": 13.0681377,
        "lon": 77.5906298
      },
      "tags": {
        "leisure": "park"
      }
    },
    {
      "type": "way",
      "id": 1188310711,
      "center": {
        "lat": 13.0685099,
        "lon": 77.5907567
      },
      "tags": {
        "leisure": "park"
      }
    },
    {
      "type": "way",
      "id": 1188310712,
      "center": {
        "lat": 13.0695478,
        "lon": 77.5910359
      },
      "tags": {
        "leisure": "park"
      }
    },
    {
      "type": "way",
      "id": 1188316008,
      "center": {
        "lat": 13.0738673,
        "lon": 77.5775206
      },
      "tags": {
        "leisure": "park"
      }
    },
    {
      "type": "way",
      "id": 1188316014,
      "center": {
        "lat": 13.0717625,
        "lon": 77.5776205
      },
      "tags": {
        "leisure": "park"
      }
    },
    {
      "type": "way",
      "id": 1241006118,
      "center": {
        "lat": 13.0711475,
        "lon": 77.5766295
      },
      "tags": {
        "access": "yes",
        "leisure": "playground",
        "name": "Children Park"
      }
    },
    {
      "type": "way",
      "id": 1241006121,
      "center": {
        "lat": 13.0712865,
        "lon": 77.577715
      },
      "tags": {
        "access": "permissive",
        "amenity": "parking",
        "parking": "surface"
      }
    },
    {
      "type": "way",
      "id": 1241006188,
      "center": {
        "lat": 13.0694692,
        "lon": 77.5764692
      },
      "tags": {
        "leisure": "park"
      }
    },
    {
      "type": "way",
      "id": 1253845508,
      "center": {
        "lat": 13.0693725,
        "lon": 77.5801961
      },
      "tags": {
        "amenity": "events_venue"
      }
    },
    {
      "type": "way",
      "id": 1253845511,
      "center": {
        "lat": 13.0727046,
        "lon": 77.5775149
      },
      "tags": {
        "leisure": "pitch",
        "sport": "basketball"
      }
    },
    {
      "type": "way",
      "id": 1253845513,
      "center": {
        "lat": 13.0716905,
        "lon": 77.5814353
      },
      "tags": {
        "access": "customers",
        "amenity": "parking",
        "fee": "no",
        "parking": "surface"
      }
    },
    {
      "type": "way",
      "id": 1253845515,
      "center": {
        "lat": 13.0711158,
        "lon": 77.5809201
      },
      "tags": {
        "leisure": "garden"
      }
    },
    {
      "type": "way",
      "id": 1284192704,
      "center": {
        "lat": 13.0711099,
        "lon": 77.5889756
      },
      "tags": {
        "access": "customers",
        "amenity": "parking",
        "fee": "yes",
        "parking": "surface"
      }
    },
    {
      "type": "way",
      "id": 1284192705,
      "center": {
        "lat": 13.0711891,
        "lon": 77.5886963
      },
      "tags": {
        "access": "customers",
        "amenity": "parking",
        "fee": "yes",
        "parking": "surface"
      }
    },
    {
      "type": "way",
      "id": 1287065121,
      "center": {
        "lat": 13.0645062,
        "lon": 77.5873482
      },
      "tags": {
        "access": "private",
        "leisure": "swimming_pool"
      }
    },
    {
      "type": "way",
      "id": 1287281063,
      "center": {
        "lat": 13.0667928,
        "lon": 77.5865936
      },
      "tags": {
        "access": "permissive",
        "amenity": "parking",
        "parking": "surface"
      }
    },
    {
      "type": "way",
      "id": 1287281064,
      "center": {
        "lat": 13.0668092,
        "lon": 77.58601
      },
      "tags": {
        "access": "permissive",
        "amenity": "parking",
        "parking": "surface"
      }
    },
    {
      "type": "way",
      "id": 1287281065,
      "center": {
        "lat": 13.0667962,
        "lon": 77.5863678
      },
      "tags": {
        "access": "private",
        "leisure": "swimming_pool"
      }
    },
    {
      "type": "way",
      "id": 1287281066,
      "center": {
        "lat": 13.0659678,
        "lon": 77.5859905
      },
      "tags": {
        "access": "permissive",
        "amenity": "parking",
        "parking": "surface"
      }
    },
    {
      "type": "way",
      "id": 1288366074,
      "center": {
        "lat": 13.0628757,
        "lon": 77.5855212
      },
      "tags": {
        "leisure": "playground"
      }
    },
    {
      "type": "way",
      "id": 1297388031,
      "center": {
        "lat": 13.0658952,
        "lon": 77.5759558
      },
      "tags": {
        "access": "private",
        "leisure": "swimming_pool"
      }
    },
    {
      "type": "way",
      "id": 1297388032,
      "center": {
        "lat": 13.0660367,
        "lon": 77.5770757
      },
      "tags": {
        "leisure": "pitch",
        "sport": "basketball"
      }
    },
    {
      "type": "way",
      "id": 1297388033,
      "center": {
        "lat": 13.0660888,
        "lon": 77.5769001
      },
      "tags": {
        "leisure": "pitch",
        "sport": "tennis"
      }
    },
    {
      "type": "way",
      "id": 1307651489,
      "center": {
        "lat": 13.0710936,
        "lon": 77.5749671
      },
      "tags": {
        "access": "private",
        "leisure": "swimming_pool"
      }
    },
    {
      "type": "way",
      "id": 1366161307,
      "center": {
        "lat": 13.0701262,
        "lon": 77.5888188
      },
      "tags": {
        "leisure": "park"
      }
    },
    {
      "type": "way",
      "id": 1366161308,
      "center": {
        "lat": 13.0693261,
        "lon": 77.5886203
      },
      "tags": {
        "leisure": "park"
      }
    },
    {
      "type": "way",
      "id": 1366161309,
      "center": {
        "lat": 13.0692953,
        "lon": 77.5897693
      },
      "tags": {
        "leisure": "park"
      }
    },
    {
      "type": "way",
      "id": 1366161314,
      "center": {
        "lat": 13.0679818,
        "lon": 77.5903644
      },
      "tags": {
        "amenity": "theatre",
        "leisure": "garden",
        "name": "Raintree Boulevard Amphitheatre",
        "theatre:type": "amphi"
      }
    },
    {
      "type": "way",
      "id": 1366161318,
      "center": {
        "lat": 13.0688789,
        "lon": 77.5923854
      },
      "tags": {
        "access": "private",
        "leisure": "garden"
      }
    },
    {
      "type": "way",
      "id": 1425823554,
      "center": {
        "lat": 13.0658906,
        "lon": 77.5808109
      },
      "tags": {
        "addr:city": "Bengaluru",
        "addr:housenumber": "B-1435,12th Main Rd, B Block, CQAL Layout",
        "addr:postcode": "560092",
        "addr:street": "Sahakaranagar Railway Parallel Road",
        "building": "yes",
        "name": "MONKEY AUTOCRAFTS",
        "opening_hours": "Mo-Sa 08:00-21:30",
        "payment:cash": "yes",
        "payment:credit_cards": "yes",
        "payment:debit_cards": "yes",
        "payment:google_pay": "yes",
        "payment:phonepay": "yes",
        "phone": "+91 7760690164",
        "service:vehicle:brakes": "yes",
        "service:vehicle:diagnostics": "yes",
        "service:vehicle:inspection": "yes",
        "service:vehicle:oil_change": "yes",
        "service:vehicle:repairs": "yes",
        "shop": "motorcycle_repair"
      }
    }
  ]
}