{
  "area_name": "Ramaswamy Palya",
  "osm_id": 19884514,
  "osm_type": "relation",
  "place_type": "administrative",
  "amenity_count": 9,
  "amenities": [
    {
      "type": "node",
      "id": 1067181200,
      "lat": 13.0044271,
      "lon": 77.6037741,
      "tags": {
        "amenity": "pharmacy",
        "healthcare": "pharmacy",
        "name": "Vijay Medicals",
        "name:kn": "ವಿಜಯ್ ಮೆಡಿಕಲ್ಸ್"
      }
    },
    {
      "type": "node",
      "id": 4304451297,
      "lat": 13.0025965,
      "lon": 77.5981195,
      "tags": {
        "addr:postcode": "560046",
        "addr:street": "Nandi Durg Road",
        "name": "Nilgiri Supermarket",
        "shop": "supermarket"
      }
    },
    {
      "type": "node",
      "id": 5482915622,
      "lat": 13.0053314,
      "lon": 77.5937908,
      "tags": {
        "amenity": "fuel",
        "brand": "Bharat Petroleum",
        "brand:wikidata": "Q854826",
        "brand:wikipedia": "en:Bharat Petroleum",
        "name": "Bharat Petroleum",
        "name:kn": "ಭಾರತ್ ಪೆಟ್ರೋಲಿಯಂ"
      }
    },
    {
      "type": "node",
      "id": 5862563586,
      "lat": 13.0057165,
      "lon": 77.5934124,
      "tags": {
        "amenity": "police",
        "name": "JC Nagara Police Station",
        "name:kn": "ಜೆಸಿ ನಗರ ಆರಕ್ಷಕ ಠಾಣೆ"
      }
    },
    {
      "type": "way",
      "id": 362940504,
      "center": {
        "lat": 13.0051069,
        "lon": 77.604059
      },
      "tags": {
        "leisure": "park"
      }
    },
    {
      "type": "way",
      "id": 673959416,
      "center": {
        "lat": 13.0060147,
        "lon": 77.5954888
      },
      "tags": {
        "amenity": "place_of_worship",
        "building": "mosque",
        "religion": "muslim"
      }
    },
    {
      "type": "way",
      "id": 1160845582,
      "center": {
        "lat": 13.0038413,
        "lon": 77.597227
      },
      "tags": {
        "amenity": "monastery",
        "landuse": "religious",
        "name": "Sri Sarada Matha",
        "name:kn": "ಶ್ರೀ ಶಾರದ ಮಠ",
        "religion": "hindu"
      }
    },
    {
      "type": "way",
      "id": 1348168191,
      "center": {
        "lat": 13.0060524,
        "lon": 77.598076
      },
      "tags": {
        "amenity": "school",
        "name": "St. JG Margaret School"
      }
    },
    {
      "type": "way",
      "id": 1348168192,
      "center": {
        "lat": 13.0062613,
        "lon": 77.5977187
      },
      "tags": {
        "amenity": "place_of_worship",
        "denomination": "catholic",
        "name": "St. John the Evangelist Church",
        "religion": "christian"
      }
    }
  ]
}