{
  "area_name": "Ramagondanahalli",
  "osm_id": 2456875081,
  "osm_type": "node",
  "place_type": "neighbourhood",
  "amenity_count": 28,
  "amenities": [
    {
      "type": "node",
      "id": 3614375216,
      "lat": 13.1253891,
      "lon": 77.5612417,
      "tags": {
        "amenity": "place_of_worship",
        "religion": "hindu"
      }
    },
    {
      "type": "way",
      "id": 275576975,
      "center": {
        "lat": 13.1232871,
        "lon": 77.5494145
      },
      "tags": {
        "amenity": "college",
        "name": "The Institute of Transdisciplinary Health Sciences and Technology",
        "short_name": "IHST"
      }
    },
    {
      "type": "way",
      "id": 515233982,
      "center": {
        "lat": 13.1102691,
        "lon": 77.5610752
      },
      "tags": {
        "access": "yes",
        "bicycle": "no",
        "highway": "path",
        "leisure": "track",
        "lit": "yes",
        "motor_vehicle": "no",
        "name": "Ananthapura / Attur Lake Trial",
        "sport": "running",
        "surface": "paving_stones"
      }
    },
    {
      "type": "way",
      "id": 515233983,
      "center": {
        "lat": 13.111466,
        "lon": 77.5630935
      },
      "tags": {
        "access": "yes",
        "bicycle": "no",
        "highway": "path",
        "leisure": "track",
        "lit": "yes",
        "motor_vehicle": "no",
        "name": "Attur lake trail",
        "sport": "running",
        "surface": "paving_stones"
      }
    },
    {
      "type": "way",
      "id": 631605056,
      "center": {
        "lat": 13.1278103,
        "lon": 77.5617204
      },
      "tags": {
        "leisure": "garden"
      }
    },
    {
      "type": "way",
      "id": 631605057,
      "center": {
        "lat": 13.1279038,
        "lon": 77.5610511
      },
      "tags": {
        "leisure": "garden"
      }
    },
    {
      "type": "way",
      "id": 631605058,
      "center": {
        "lat": 13.1279187,
        "lon": 77.5617545
      },
      "tags": {
        "leisure": "garden"
      }
    },
    {
      "type": "way",
      "id": 768997261,
      "center": {
        "lat": 13.1272076,
        "lon": 77.5628469
      },
      "tags": {
        "leisure": "playground"
      }
    },
    {
      "type": "way",
      "id": 963357010,
      "center": {
        "lat": 13.1114469,
        "lon": 77.5550611
      },
      "tags": {
        "amenity": "hospital",
        "name": "NIKISA Dementia Village",
        "website": "https://carefordementia.in/"
      }
    },
    {
      "type": "way",
      "id": 963357011,
      "center": {
        "lat": 13.127423,
        "lon": 77.5581059
      },
      "tags": {
        "amenity": "college",
        "landuse": "education",
        "name": "ICAR - Indian Veterinary Research Institute, Yelahanka"
      }
    },
    {
      "type": "way",
      "id": 963357016,
      "center": {
        "lat": 13.1230152,
        "lon": 77.5656143
      },
      "tags": {
        "leisure": "playground"
      }
    },
    {
      "type": "way",
      "id": 963357017,
      "center": {
        "lat": 13.1227285,
        "lon": 77.5650757
      },
      "tags": {
        "amenity": "school",
        "name": "Nagarjuna Vidytaniketan",
        "name:kn": "ನಾಗಾರ್ಜುನ ವಿದ್ಯಾನಿಕೇತನ"
      }
    },
    {
      "type": "way",
      "id": 1178383669,
      "center": {
        "lat": 13.1260353,
        "lon": 77.5643094
      },
      "tags": {
        "amenity": "community_centre",
        "name": "Le Roma Gardenia"
      }
    },
    {
      "type": "way",
      "id": 1182962321,
      "center": {
        "lat": 13.1136225,
        "lon": 77.5609391
      },
      "tags": {
        "leisure": "park"
      }
    },
    {
      "type": "way",
      "id": 1182962322,
      "center": {
        "lat": 13.113255,
        "lon": 77.562276
      },
      "tags": {
        "craft": "gardener",
        "leisure": "garden",
        "name": "Attur Nursery"
      }
    },
    {
      "type": "way",
      "id": 1182962327,
      "center": {
        "lat": 13.1102596,
        "lon": 77.5608713
      },
      "tags": {
        "access": "yes",
        "bicycle": "no",
        "highway": "path",
        "leisure": "track",
        "lit": "yes",
        "motor_vehicle": "no",
        "name": "Ananthapura / Attur Lake Trial",
        "sport": "running",
        "surface": "paving_stones"
      }
    },
    {
      "type": "way",
      "id": 1234220598,
      "center": {
        "lat": 13.1124673,
        "lon": 77.5598196
      },
      "tags": {
        "access": "yes",
        "bicycle": "no",
        "highway": "path",
        "leisure": "track",
        "lit": "yes",
        "motor_vehicle": "no",
        "name": "Attur Lake trail",
        "sport": "running",
        "surface": "paving_stones"
      }
    },
    {
      "type": "way",
      "id": 1234220599,
      "center": {
        "lat": 13.11336,
        "lon": 77.559945
      },
      "tags": {
        "bridge": "yes",
        "highway": "path",
        "layer": "1",
        "leisure": "track",
        "lit": "yes",
        "name": "Attur / Ananthapura Lake Trial",
        "sport": "running",
        "surface": "paving_stones"
      }
    },
    {
      "type": "way",
      "id": 1287042045,
      "center": {
        "lat": 13.1245916,
        "lon": 77.5651355
      },
      "tags": {
        "access": "private",
        "leisure": "pitch",
        "sport": "basketball"
      }
    },
    {
      "type": "way",
      "id": 1287042046,
      "center": {
        "lat": 13.1243565,
        "lon": 77.565061
      },
      "tags": {
        "access": "private",
        "leisure": "pitch",
        "sport": "tennis"
      }
    },
    {
      "type": "way",
      "id": 1308090822,
      "center": {
        "lat": 13.114113,
        "lon": 77.5550948
      },
      "tags": {
        "leisure": "park"
      }
    },
    {
      "type": "way",
      "id": 1315634311,
      "center": {
        "lat": 13.1237884,
        "lon": 77.5495529
      },
      "tags": {
        "amenity": "community_centre",
        "name": "Samavana"
      }
    },
    {
      "type": "way",
      "id": 1365364522,
      "center": {
        "lat": 13.116599,
        "lon": 77.5642066
      },
      "tags": {
        "amenity": "events_venue",
        "landuse": "commercial",
        "name": "Le Terra Gardens"
      }
    },
    {
      "type": "way",
      "id": 1365364523,
      "center": {
        "lat": 13.1172919,
        "lon": 77.5616723
      },
      "tags": {
        "amenity": "place_of_worship",
        "building": "yes",
        "religion": "hindu"
      }
    },
    {
      "type": "way",
      "id": 1365364524,
      "center": {
        "lat": 13.1161867,
        "lon": 77.5619876
      },
      "tags": {
        "amenity": "college",
        "name": "Nagarjuna Degree College"
      }
    },
    {
      "type": "way",
      "id": 1409426360,
      "center": {
        "lat": 13.1131401,
        "lon": 77.5538135
      },
      "tags": {
        "leisure": "park"
      }
    },
    {
      "type": "way",
      "id": 1420170969,
      "center": {
        "lat": 13.1236798,
        "lon": 77.550119
      },
      "tags": {
        "access": "private",
        "amenity": "parking",
        "parking": "surface"
      }
    },
    {
      "type": "way",
      "id": 1420170985,
      "center": {
        "lat": 13.1213492,
        "lon": 77.5519578
      },
      "tags": {
        "amenity": "college",
        "name": "Ramakrishna Ayurvedic College"
      }
    }
  ]
}