{
  "area_name": "Ramappa Layout",
  "osm_id": 2046148406,
  "osm_type": "node",
  "place_type": "neighbourhood",
  "amenity_count": 320,
  "amenities": [
    {
      "type": "node",
      "id": 1331946760,
      "lat": 12.895836,
      "lon": 77.5818445,
      "tags": {
        "amenity": "fuel",
        "brand": "Indian Oil",
        "brand:wikidata": "Q1289348",
        "brand:wikipedia": "en:Indian Oil Corporation",
        "name": "Indian Oil",
        "name:en": "Indian Oil Corporation",
        "name:kn": "ಇಂಡಿಯನ್ ಆಯಿಲ್",
        "operator": "Indian Oil"
      }
    },
    {
      "type": "node",
      "id": 1331989769,
      "lat": 12.9022616,
      "lon": 77.5827185,
      "tags": {
        "amenity": "place_of_worship",
        "name": "Ganesha Temple",
        "name:kn": "ಗಣೇಶ ದೇವಸ್ಥಾನ",
        "religion": "hindu"
      }
    },
    {
      "type": "node",
      "id": 1331989779,
      "lat": 12.9027732,
      "lon": 77.5837541,
      "tags": {
        "amenity": "restaurant",
        "cuisine": "indian",
        "name": "Incara",
        "name:kn": "ಇಂಚರ"
      }
    },
    {
      "type": "node",
      "id": 1877193413,
      "lat": 12.8903823,
      "lon": 77.5819754,
      "tags": {
        "name": "Everfine Super Market",
        "shop": "supermarket",
        "source": "Bing, local knowledge"
      }
    },
    {
      "type": "node",
      "id": 1877211861,
      "lat": 12.8922498,
      "lon": 77.5817101,
      "tags": {
        "amenity": "atm",
        "brand": "IndusInd Bank",
        "brand:wikidata": "Q2040323",
        "name": "IndusInd Bank",
        "operator": "IndusInd Bank",
        "operator:wikidata": "Q2040323",
        "source": "Bing, local knowledge"
      }
    },
    {
      "type": "node",
      "id": 1877608346,
      "lat": 12.8911059,
      "lon": 77.5794158,
      "tags": {
        "amenity": "post_box",
        "brand": "Desk to Desk Courier & Cargo",
        "brand:short": "DTDC",
        "brand:wikidata": "Q55608802",
        "name": "DTDC Courier",
        "operator": "Desk to Desk Courier & Cargo",
        "operator:short": "DTDC",
        "operator:wikidata": "Q55608802"
      }
    },
    {
      "type": "node",
      "id": 1922045869,
      "lat": 12.8908298,
      "lon": 77.5819384,
      "tags": {
        "name": "Melukote Iyengar's Bakery",
        "shop": "bakery"
      }
    },
    {
      "type": "node",
      "id": 1922055380,
      "lat": 12.9017004,
      "lon": 77.5823794,
      "tags": {
        "name": "Posh Little",
        "note": "Baby Store",
        "shop": "toys"
      }
    },
    {
      "type": "node",
      "id": 1923907402,
      "lat": 12.8925236,
      "lon": 77.5817104,
      "tags": {
        "name": "Multi Cakes",
        "shop": "bakery",
        "wheelchair": "limited"
      }
    },
    {
      "type": "node",
      "id": 1923909491,
      "lat": 12.8929275,
      "lon": 77.5816768,
      "tags": {
        "amenity": "restaurant",
        "cuisine": "indian",
        "name": "Aditya",
        "name:kn": "ಅದಿತ್ಯ",
        "wheelchair": "limited"
      }
    },
    {
      "type": "node",
      "id": 1923911570,
      "lat": 12.8950856,
      "lon": 77.581582,
      "tags": {
        "amenity": "atm",
        "brand": "Citibank",
        "brand:wikidata": "Q857063",
        "name": "Citibank",
        "operator": "Citibank",
        "operator:wikidata": "Q857063",
        "short_name": "Citi"
      }
    },
    {
      "type": "node",
      "id": 1923914071,
      "lat": 12.8909409,
      "lon": 77.5819291,
      "tags": {
        "name": "Classic Corner",
        "shop": "greengrocer"
      }
    },
    {
      "type": "node",
      "id": 1923914647,
      "lat": 12.8896649,
      "lon": 77.5817024,
      "tags": {
        "name": "Liquor Mart",
        "shop": "alcohol"
      }
    },
    {
      "type": "node",
      "id": 1923915481,
      "lat": 12.8894723,
      "lon": 77.5820065,
      "tags": {
        "amenity": "bank",
        "atm": "yes",
        "brand": "Andhra Bank",
        "brand:wikidata": "Q2003476",
        "brand:wikipedia": "en:Andhra Bank",
        "name": "Andhra Bank",
        "name:en": "Andhra Bank",
        "name:kn": "ಆಂಧ್ರ ಬ್ಯಾಂಕ್",
        "operator": "Andhra Bank",
        "website": "https://www.andhrabank.in"
      }
    },
    {
      "type": "node",
      "id": 1923915482,
      "lat": 12.8891563,
      "lon": 77.5820091,
      "tags": {
        "amenity": "bank",
        "atm": "yes",
        "brand": "State Bank of India",
        "brand:wikidata": "Q1340361",
        "brand:wikipedia": "en:State Bank of India",
        "name": "State Bank of India",
        "name:kn": "ಭಾರತೀಯ ಸ್ಟೇಟ್ ಬ್ಯಾಂಕ್",
        "short_name": "SBI",
        "website": "https://www.sbi.co.in"
      }
    },
    {
      "type": "node",
      "id": 1923916887,
      "lat": 12.8885876,
      "lon": 77.5820492,
      "tags": {
        "amenity": "doctors",
        "healthcare": "doctor",
        "name": "Kids Care Clinic"
      }
    },
    {
      "type": "node",
      "id": 1925650223,
      "lat": 12.8891417,
      "lon": 77.57816,
      "tags": {
        "leisure": "playground",
        "name": "Children's play area"
      }
    },
    {
      "type": "node",
      "id": 1925655676,
      "lat": 12.8902358,
      "lon": 77.581971,
      "tags": {
        "brand": "Bata",
        "brand:wikidata": "Q688082",
        "name": "Bata",
        "name:kn": "ಬಾಟಾ",
        "shop": "shoes"
      }
    },
    {
      "type": "node",
      "id": 1925679765,
      "lat": 12.8883173,
      "lon": 77.5816761,
      "tags": {
        "name": "Nandini Milk Products",
        "shop": "kiosk"
      }
    },
    {
      "type": "node",
      "id": 1946525330,
      "lat": 12.8931436,
      "lon": 77.5856019,
      "tags": {
        "name": "Arive",
        "shop": "clothes"
      }
    },
    {
      "type": "node",
      "id": 1949425620,
      "lat": 12.8900804,
      "lon": 77.581659,
      "tags": {
        "name": "Adishwar",
        "name:kn": "ಅದಿಶ್ವರ್",
        "shop": "electronics"
      }
    },
    {
      "type": "node",
      "id": 1949425628,
      "lat": 12.8889909,
      "lon": 77.5817111,
      "tags": {
        "name": "Pai International",
        "shop": "electronics"
      }
    },
    {
      "type": "node",
      "id": 1951179041,
      "lat": 12.8920021,
      "lon": 77.5789148,
      "tags": {
        "amenity": "driving_school",
        "name": "Manju Driving School"
      }
    },
    {
      "type": "node",
      "id": 1951179042,
      "lat": 12.8920083,
      "lon": 77.5789638,
      "tags": {
        "amenity": "pharmacy",
        "dispensing": "yes",
        "healthcare": "pharmacy",
        "name": "Nagashree Medicals"
      }
    },
    {
      "type": "node",
      "id": 1951182083,
      "lat": 12.8920259,
      "lon": 77.5791107,
      "tags": {
        "amenity": "restaurant",
        "cuisine": "indian;regional",
        "diet:vegetarian": "yes",
        "name": "Cafe Svarasya"
      }
    },
    {
      "type": "node",
      "id": 1951220184,
      "lat": 12.8908929,
      "lon": 77.5819348,
      "tags": {
        "amenity": "restaurant",
        "cuisine": "indian",
        "name": "SLV",
        "name:kn": "ಎಸ್ಎಲ್‌ವಿ"
      }
    },
    {
      "type": "node",
      "id": 1966181684,
      "lat": 12.8960869,
      "lon": 77.5860483,
      "tags": {
        "addr:street": "24th Main Road",
        "amenity": "restaurant",
        "cuisine": "indian;italian",
        "name": "Magadha",
        "name:kn": "ಮಗಧ"
      }
    },
    {
      "type": "node",
      "id": 1967262676,
      "lat": 12.8972071,
      "lon": 77.5818847,
      "tags": {
        "name": "Khadim's",
        "shop": "shoes"
      }
    },
    {
      "type": "node",
      "id": 2010713146,
      "lat": 12.8899469,
      "lon": 77.5776761,
      "tags": {
        "amenity": "dentist",
        "healthcare": "dentist",
        "name": "Dental Art"
      }
    },
    {
      "type": "node",
      "id": 2010727464,
      "lat": 12.8906906,
      "lon": 77.5799648,
      "tags": {
        "amenity": "place_of_worship",
        "name": "Dr. P. Vivekananda layout mini temple"
      }
    },
    {
      "type": "node",
      "id": 2012122119,
      "lat": 12.891484,
      "lon": 77.5816961,
      "tags": {
        "amenity": "hospital",
        "emergency": "yes",
        "healthcare": "hospital",
        "name": "Rainbow Clinic and Diagnostic Laboratory"
      }
    },
    {
      "type": "node",
      "id": 2021552674,
      "lat": 12.8919438,
      "lon": 77.5801537,
      "tags": {
        "amenity": "dentist",
        "healthcare": "dentist",
        "name": "DenTotal"
      }
    },
    {
      "type": "node",
      "id": 2021556248,
      "lat": 12.892026,
      "lon": 77.5808384,
      "tags": {
        "amenity": "pharmacy",
        "brand": "Apollo Pharmacy",
        "brand:wikidata": "Q62562612",
        "dispensing": "yes",
        "healthcare": "pharmacy",
        "name": "Apollo Pharmacy",
        "name:kn": "ಅಪೋಲೋ ಫಾರ್ಮಸಿ"
      }
    },
    {
      "type": "node",
      "id": 2021562445,
      "lat": 12.8939006,
      "lon": 77.5818041,
      "tags": {
        "name": "Snow White",
        "shop": "laundry"
      }
    },
    {
      "type": "node",
      "id": 2021571840,
      "lat": 12.8943291,
      "lon": 77.5818071,
      "tags": {
        "amenity": "restaurant",
        "cuisine": "indian",
        "name": "Sarovara",
        "name:kn": "ರಿಲೈಯನ್ಸ್ ಫ್ರೆಶ್"
      }
    },
    {
      "type": "node",
      "id": 2021574669,
      "lat": 12.8904007,
      "lon": 77.5824633,
      "tags": {
        "amenity": "bank",
        "atm": "yes",
        "brand": "ICICI Bank",
        "brand:wikidata": "Q1653258",
        "name": "ICICI Bank",
        "name:en": "ICICI Bank",
        "name:kn": "ಐಸಿಐಸಿಐ ಬ್ಯಾಂಕು",
        "operator": "ICICI Bank",
        "short_name": "ICICI",
        "website": "https://www.icicibank.com"
      }
    },
    {
      "type": "node",
      "id": 2030147384,
      "lat": 12.8921693,
      "lon": 77.5836432,
      "tags": {
        "amenity": "atm",
        "operator": "Lakshmi Vilas Bank"
      }
    },
    {
      "type": "node",
      "id": 2030149958,
      "lat": 12.8932454,
      "lon": 77.5815782,
      "tags": {
        "brand": "Maruti",
        "name": "Om Cars",
        "shop": "car_repair"
      }
    },
    {
      "type": "node",
      "id": 2030152914,
      "lat": 12.8926333,
      "lon": 77.5812405,
      "tags": {
        "amenity": "veterinary",
        "name": "Royal Pet Care"
      }
    },
    {
      "type": "node",
      "id": 2032038518,
      "lat": 12.8896231,
      "lon": 77.5823913,
      "tags": {
        "amenity": "kindergarten",
        "name": "Aura Montessori House of Children"
      }
    },
    {
      "type": "node",
      "id": 2032039489,
      "lat": 12.890184,
      "lon": 77.5823622,
      "tags": {
        "amenity": "bank",
        "brand": "UCO Bank",
        "brand:wikidata": "Q2005310",
        "brand:wikipedia": "en:UCO Bank",
        "name": "UCO Bank",
        "name:en": "UCO Bank",
        "name:kn": "ಯೂಕೊ ಬ್ಯಾಂಕ್",
        "old_name": "United Commercial Bank",
        "website": "https://www.ucobank.com"
      }
    },
    {
      "type": "node",
      "id": 2034797465,
      "lat": 12.8913808,
      "lon": 77.5767986,
      "tags": {
        "amenity": "dentist",
        "healthcare": "dentist",
        "name": "Sri Dental Clinic"
      }
    },
    {
      "type": "node",
      "id": 2044301341,
      "lat": 12.8919415,
      "lon": 77.5817506,
      "tags": {
        "amenity": "atm",
        "brand": "Canara Bank",
        "brand:en": "Canara Bank",
        "brand:hi": "केनरा बैंक",
        "brand:kn": "ಕೆನರಾ ಬ್ಯಾಂಕ್",
        "brand:pa": "ਕੇਨਰਾ ਬੈਂਕ",
        "brand:pnb": "کینرا بینک",
        "brand:ur": "کینرا بینک",
        "brand:wikidata": "Q2003777",
        "name": "Canara Bank",
        "name:en": "Canara Bank",
        "name:hi": "केनरा बैंक",
        "name:kn": "ಕೆನರಾ ಬ್ಯಾಂಕ್",
        "name:pa": "ਕੇਨਰਾ ਬੈਂਕ",
        "name:pnb": "کینرا بینک",
        "name:ur": "کینرا بینک",
        "operator": "Canara Bank",
        "operator:wikidata": "Q2003777"
      }
    },
    {
      "type": "node",
      "id": 2046124407,
      "lat": 12.8958786,
      "lon": 77.5819849,
      "tags": {
        "amenity": "atm",
        "brand": "Central Bank of India",
        "brand:wikidata": "Q2007090",
        "name": "Central Bank of India",
        "operator": "Central Bank of India",
        "operator:wikidata": "Q2007090"
      }
    },
    {
      "type": "node",
      "id": 2063169232,
      "lat": 12.8887979,
      "lon": 77.5793878,
      "tags": {
        "amenity": "place_of_worship",
        "name": "Shri Varadanjaneya Swamy Temple",
        "name:kn": "ವಾರದ ಅಂಜನೆಯ ದೇವಸ್ಥಾನ",
        "religion": "hindu"
      }
    },
    {
      "type": "node",
      "id": 2123769736,
      "lat": 12.8883943,
      "lon": 77.5820546,
      "tags": {
        "name": "Kanti Sweets",
        "shop": "bakery"
      }
    },
    {
      "type": "node",
      "id": 2123773761,
      "lat": 12.891182,
      "lon": 77.5816478,
      "tags": {
        "addr:city": "Bangalore",
        "addr:housenumber": "536, VBV Plaza",
        "addr:postcode": "560068",
        "addr:street": "Puttenahalli Main Road",
        "amenity": "fast_food",
        "brand": "Papa John's",
        "brand:wikidata": "Q2759586",
        "cuisine": "pizza",
        "delivery": "yes",
        "name": "Papa John's",
        "opening_hours": "11:00 - 23:00",
        "phone": "080 41463111",
        "takeaway": "yes",
        "website": "https://www.papajohnspizza.in"
      }
    },
    {
      "type": "node",
      "id": 2125941074,
      "lat": 12.8953157,
      "lon": 77.5863222,
      "tags": {
        "name": "Ten Ten Nimma Supermarket",
        "shop": "supermarket",
        "wheelchair": "no"
      }
    },
    {
      "type": "node",
      "id": 2151955930,
      "lat": 12.8954376,
      "lon": 77.5818086,
      "tags": {
        "amenity": "post_box",
        "brand": "Desk to Desk Courier & Cargo",
        "brand:short": "DTDC",
        "brand:wikidata": "Q55608802",
        "name": "DTDC Courier",
        "operator": "Desk to Desk Courier & Cargo",
        "operator:short": "DTDC",
        "operator:wikidata": "Q55608802"
      }
    },
    {
      "type": "node",
      "id": 2151959564,
      "lat": 12.8961223,
      "lon": 77.5818579,
      "tags": {
        "brand": "Bajaj",
        "brand:wikidata": "Q10910065",
        "motorcycle:clothes": "no",
        "motorcycle:parts": "brand",
        "motorcycle:rental": "no",
        "motorcycle:repair": "brand",
        "motorcycle:sales": "brand",
        "name": "Perl Motors",
        "shop": "motorcycle"
      }
    },
    {
      "type": "node",
      "id": 2153030763,
      "lat": 12.8967177,
      "lon": 77.5858102,
      "tags": {
        "amenity": "atm",
        "brand": "Indian Overseas Bank",
        "brand:wikidata": "Q2003611",
        "name": "Indian Overseas Bank ATM",
        "operator": "Indian Overseas Bank",
        "operator:wikidata": "Q2003611"
      }
    },
    {
      "type": "node",
      "id": 2153030764,
      "lat": 12.8967847,
      "lon": 77.5858129,
      "tags": {
        "amenity": "atm",
        "name": "Indicash ATM",
        "operator": "ICICI Bank",
        "wheelchair": "limited"
      }
    },
    {
      "type": "node",
      "id": 2168885812,
      "lat": 12.895317,
      "lon": 77.5816317,
      "tags": {
        "amenity": "atm",
        "brand": "HDFC Bank",
        "brand:wikidata": "Q631047",
        "name": "HDFC Bank",
        "operator": "HDFC Bank",
        "operator:wikidata": "Q631047",
        "short_name": "HDFC"
      }
    },
    {
      "type": "node",
      "id": 2194288983,
      "lat": 12.8920876,
      "lon": 77.5817631,
      "tags": {
        "amenity": "restaurant",
        "cuisine": "indian",
        "name": "Punjabi Food Corner",
        "source": "GPS"
      }
    },
    {
      "type": "node",
      "id": 2215727573,
      "lat": 12.8893056,
      "lon": 77.5817421,
      "tags": {
        "amenity": "fast_food",
        "brand": "Domino's",
        "brand:ks": "ڈومینوز",
        "brand:pa": "ਡੋਮੀਨੋਜ਼",
        "brand:ur": "ڈومینوز",
        "brand:wikidata": "Q839466",
        "brand:wikipedia": "en:Domino's Pizza",
        "cuisine": "pizza",
        "name": "Domino's",
        "name:kn": "ಡಾಮಿನೋಸ್",
        "name:ks": "ڈومینوز",
        "name:pa": "ਡੋਮੀਨੋਜ਼",
        "name:ur": "ڈومینوز",
        "takeaway": "yes"
      }
    },
    {
      "type": "node",
      "id": 2384193093,
      "lat": 12.900724,
      "lon": 77.5869656,
      "tags": {
        "name": "Royal Supermarket",
        "shop": "supermarket"
      }
    },
    {
      "type": "node",
      "id": 2384193105,
      "lat": 12.9004538,
      "lon": 77.5859289,
      "tags": {
        "amenity": "restaurant",
        "name": "Grills and Rolls",
        "wheelchair": "no"
      }
    },
    {
      "type": "node",
      "id": 2505556376,
      "lat": 12.8918378,
      "lon": 77.5795358,
      "tags": {
        "amenity": "restaurant",
        "cuisine": "indian",
        "diet:vegetarian": "yes",
        "name": "Brahmins",
        "wheelchair": "no"
      }
    },
    {
      "type": "node",
      "id": 2512834837,
      "lat": 12.8894895,
      "lon": 77.5820031,
      "tags": {
        "name": "Evergreen Fruit and Vegetable Super Market",
        "shop": "greengrocer"
      }
    },
    {
      "type": "node",
      "id": 2512834838,
      "lat": 12.8901353,
      "lon": 77.5819686,
      "tags": {
        "name": "Instring",
        "shop": "clothes"
      }
    },
    {
      "type": "node",
      "id": 2512834840,
      "lat": 12.8896247,
      "lon": 77.5817501,
      "tags": {
        "name": "Vesture",
        "shop": "clothes"
      }
    },
    {
      "type": "node",
      "id": 2512836521,
      "lat": 12.8907146,
      "lon": 77.58194,
      "tags": {
        "amenity": "atm",
        "brand": "Andhra Bank",
        "brand:wikidata": "Q2003476",
        "name": "Andhra Bank",
        "operator": "Andhra Bank",
        "operator:wikidata": "Q2003476"
      }
    },
    {
      "type": "node",
      "id": 2512839901,
      "lat": 12.8906819,
      "lon": 77.5819411,
      "tags": {
        "amenity": "pharmacy",
        "dispensing": "yes",
        "healthcare": "pharmacy",
        "name": "Sri Laxmi Medicals"
      }
    },
    {
      "type": "node",
      "id": 2514116208,
      "lat": 12.8894521,
      "lon": 77.5820294,
      "tags": {
        "brand": "Thomas Cook",
        "brand:wikidata": "Q2141800",
        "name": "Thomas Cook",
        "name:kn": "ತೋಮಸ್ ಕುಕ್",
        "shop": "travel_agency"
      }
    },
    {
      "type": "node",
      "id": 2520891453,
      "lat": 12.8920933,
      "lon": 77.581684,
      "tags": {
        "amenity": "dentist",
        "healthcare": "dentist",
        "name": "Johnson Dental Clinic"
      }
    },
    {
      "type": "node",
      "id": 2520891454,
      "lat": 12.8920729,
      "lon": 77.5816893,
      "tags": {
        "amenity": "doctors",
        "healthcare": "doctor",
        "name": "Raga's Skin Care"
      }
    },
    {
      "type": "node",
      "id": 2520891455,
      "lat": 12.8920803,
      "lon": 77.5817326,
      "tags": {
        "name": "Snip & Streak",
        "shop": "hairdresser"
      }
    },
    {
      "type": "node",
      "id": 2520891456,
      "lat": 12.8920976,
      "lon": 77.5817297,
      "tags": {
        "name": "Vision Lab",
        "shop": "optician"
      }
    },
    {
      "type": "node",
      "id": 2619001683,
      "lat": 12.8917971,
      "lon": 77.5777119,
      "tags": {
        "name": "E K Retail",
        "shop": "supermarket",
        "source": "Local knowledge"
      }
    },
    {
      "type": "node",
      "id": 2621193739,
      "lat": 12.8913374,
      "lon": 77.5819211,
      "tags": {
        "amenity": "post_box",
        "operator": "India Post",
        "operator:wikidata": "Q3519720"
      }
    },
    {
      "type": "node",
      "id": 2621198134,
      "lat": 12.8922631,
      "lon": 77.5814764,
      "tags": {
        "amenity": "restaurant",
        "cuisine": "indian",
        "name": "Green Chillies"
      }
    },
    {
      "type": "node",
      "id": 2638240793,
      "lat": 12.8902044,
      "lon": 77.5819669,
      "tags": {
        "name": "Everfine Vegetable and Fruit",
        "shop": "greengrocer"
      }
    },
    {
      "type": "node",
      "id": 2638241596,
      "lat": 12.8884857,
      "lon": 77.5820539,
      "tags": {
        "name": "Eden Fresh Fruits and Vegetables",
        "shop": "greengrocer"
      }
    },
    {
      "type": "node",
      "id": 2664957853,
      "lat": 12.8919779,
      "lon": 77.5787637,
      "tags": {
        "amenity": "doctors",
        "healthcare": "doctor",
        "healthcare:speciality": "ophthalmology",
        "name": "Nethradarshana Eye Clinic",
        "opening_hours": "Mo-Sa 17:00-21:00, Su 10:00-12:00",
        "source": "Survey"
      }
    },
    {
      "type": "node",
      "id": 2677269699,
      "lat": 12.8979332,
      "lon": 77.5859652,
      "tags": {
        "name": "Spritz & More",
        "shop": "alcohol",
        "wheelchair": "no"
      }
    },
    {
      "type": "node",
      "id": 2686093260,
      "lat": 12.8940622,
      "lon": 77.5817993,
      "tags": {
        "name": "Indian Tyre Center",
        "shop": "tyres"
      }
    },
    {
      "type": "node",
      "id": 2686093261,
      "lat": 12.8934343,
      "lon": 77.586476,
      "tags": {
        "name": "Iyengars Tyre care",
        "shop": "tyres"
      }
    },
    {
      "type": "node",
      "id": 2686938278,
      "lat": 12.8889981,
      "lon": 77.5820296,
      "tags": {
        "addr:city": "Bangalore",
        "addr:housenumber": "No.13",
        "addr:postcode": "560078",
        "addr:street": "Kothnur Main Road, J P Nagar, 7th Phase, Landmark - near Brigade Millennium Signal",
        "name": "First Baby Store",
        "opening_hours": "Mo-Su 10:00-21:00",
        "phone": "080 4127 3999",
        "shop": "baby_goods",
        "website": "https://firstbabystore.com/"
      }
    },
    {
      "type": "node",
      "id": 2686938279,
      "lat": 12.8890439,
      "lon": 77.582025,
      "tags": {
        "brand": "Liberty",
        "brand:wikidata": "Q6541947",
        "name": "Liberty Exclusive Showroom",
        "name:kn": "ಲಿಬರ್ಟಿ",
        "shop": "shoes"
      }
    },
    {
      "type": "node",
      "id": 2850537681,
      "lat": 12.9017134,
      "lon": 77.5824365,
      "tags": {
        "amenity": "library",
        "name": "Just Books CLC",
        "name:kn": "ಜಸ್ಟ್ ಬುಕ್ಸ್"
      }
    },
    {
      "type": "node",
      "id": 2866046929,
      "lat": 12.8922391,
      "lon": 77.5816665,
      "tags": {
        "name": "Style & Smart",
        "shop": "hairdresser"
      }
    },
    {
      "type": "node",
      "id": 2866051040,
      "lat": 12.8885573,
      "lon": 77.5820556,
      "tags": {
        "name": "Toy Zone",
        "shop": "toys"
      }
    },
    {
      "type": "node",
      "id": 2905307839,
      "lat": 12.8940129,
      "lon": 77.5817977,
      "tags": {
        "name": "BSK Birthday Party Shop",
        "note": "Supplies for Birthday parties",
        "shop": "gift"
      }
    },
    {
      "type": "node",
      "id": 2905307840,
      "lat": 12.8924542,
      "lon": 77.581717,
      "tags": {
        "name": "Bloo",
        "note": "Fish & Aquarium supplies",
        "shop": "pet"
      }
    },
    {
      "type": "node",
      "id": 2905307841,
      "lat": 12.8922399,
      "lon": 77.5816934,
      "tags": {
        "amenity": "pharmacy",
        "dispensing": "yes",
        "healthcare": "pharmacy",
        "name": "Pavithra Medical & General Stores"
      }
    },
    {
      "type": "node",
      "id": 2915879117,
      "lat": 12.8923977,
      "lon": 77.5817117,
      "tags": {
        "amenity": "fast_food",
        "cuisine": "chicken",
        "name": "Five Star Chicken"
      }
    },
    {
      "type": "node",
      "id": 2915879118,
      "lat": 12.8923904,
      "lon": 77.5816956,
      "tags": {
        "name": "Mithilasmita Art Gallery",
        "shop": "art"
      }
    },
    {
      "type": "node",
      "id": 2915879119,
      "lat": 12.8923982,
      "lon": 77.5816954,
      "tags": {
        "name": "Modern Chinese Beauty Parlour",
        "shop": "beauty"
      }
    },
    {
      "type": "node",
      "id": 2915879120,
      "lat": 12.8923922,
      "lon": 77.5817134,
      "tags": {
        "name": "The United Opticals",
        "shop": "optician"
      }
    },
    {
      "type": "node",
      "id": 2915879121,
      "lat": 12.8924363,
      "lon": 77.5817108,
      "tags": {
        "name": "Abloom",
        "shop": "hairdresser"
      }
    },
    {
      "type": "node",
      "id": 2934092931,
      "lat": 12.8946083,
      "lon": 77.5817753,
      "tags": {
        "name": "Samsung Smart Cafe",
        "shop": "mobile_phone"
      }
    },
    {
      "type": "node",
      "id": 2951208679,
      "lat": 12.8913095,
      "lon": 77.5816605,
      "tags": {
        "name": "Blak",
        "shop": "shoes"
      }
    },
    {
      "type": "node",
      "id": 2951208680,
      "lat": 12.891268,
      "lon": 77.5816626,
      "tags": {
        "amenity": "restaurant",
        "cuisine": "chinese;indian",
        "name": "Clay Oven Restaurant"
      }
    },
    {
      "type": "node",
      "id": 2951208681,
      "lat": 12.8911526,
      "lon": 77.5816598,
      "tags": {
        "name": "Health & Glow",
        "shop": "cosmetics"
      }
    },
    {
      "type": "node",
      "id": 2951208682,
      "lat": 12.8914002,
      "lon": 77.5816698,
      "tags": {
        "name": "Raymonds",
        "shop": "clothes"
      }
    },
    {
      "type": "node",
      "id": 2954412605,
      "lat": 12.8919655,
      "lon": 77.5817555,
      "tags": {
        "amenity": "pharmacy",
        "brand": "Apollo Pharmacy",
        "brand:wikidata": "Q62562612",
        "dispensing": "yes",
        "healthcare": "pharmacy",
        "name": "Apollo Pharmacy",
        "name:kn": "ಅಪೋಲೋ ಫಾರ್ಮಸಿ"
      }
    },
    {
      "type": "node",
      "id": 2954412606,
      "lat": 12.8910593,
      "lon": 77.5816806,
      "tags": {
        "amenity": "bank",
        "atm": "yes",
        "brand": "Canara Bank",
        "brand:en": "Canara Bank",
        "brand:hi": "केनरा बैंक",
        "brand:kn": "ಕೆನರಾ ಬ್ಯಾಂಕ್",
        "brand:pa": "ਕੇਨਰਾ ਬੈਂਕ",
        "brand:pnb": "کینرا بینک",
        "brand:ur": "کینرا بینک",
        "brand:wikidata": "Q2003777",
        "brand:wikipedia": "en:Canara Bank",
        "brand:wikipedia:pa": "ਕੇਨਰਾ ਬੈਂਕ",
        "name": "Canara Bank",
        "name:en": "Canara Bank",
        "name:hi": "केनरा बैंक",
        "name:kn": "ಕೆನರಾ ಬ್ಯಾಂಕ್",
        "name:pa": "ਕੇਨਰਾ ਬੈਂਕ",
        "name:pnb": "کینرا بینک",
        "name:ur": "کینرا بینک",
        "website": "https://www.canarabank.com/"
      }
    },
    {
      "type": "node",
      "id": 2954412607,
      "lat": 12.891081,
      "lon": 77.5776033,
      "tags": {
        "name": "Chabili",
        "shop": "clothes"
      }
    },
    {
      "type": "node",
      "id": 2954412609,
      "lat": 12.8886124,
      "lon": 77.5776022,
      "tags": {
        "amenity": "doctors",
        "healthcare": "doctor",
        "name": "Dr. Naline Jayaraj",
        "note": "pediatrician"
      }
    },
    {
      "type": "node",
      "id": 2954412610,
      "lat": 12.8919897,
      "lon": 77.5817621,
      "tags": {
        "name": "Drapes Nirakar",
        "shop": "curtain"
      }
    },
    {
      "type": "node",
      "id": 2954412614,
      "lat": 12.8909616,
      "lon": 77.5816833,
      "tags": {
        "name": "Fresh Greens & Grains",
        "shop": "greengrocer"
      }
    },
    {
      "type": "node",
      "id": 2954412616,
      "lat": 12.8915407,
      "lon": 77.577761,
      "tags": {
        "name": "In Fresh",
        "shop": "curtain"
      }
    },
    {
      "type": "node",
      "id": 2954412617,
      "lat": 12.8886473,
      "lon": 77.5820373,
      "tags": {
        "name": "Karthik Fashions",
        "shop": "clothes"
      }
    },
    {
      "type": "node",
      "id": 2954412618,
      "lat": 12.8911686,
      "lon": 77.5816939,
      "tags": {
        "name": "Malabar Gifts",
        "shop": "gift"
      }
    },
    {
      "type": "node",
      "id": 2954412620,
      "lat": 12.8893554,
      "lon": 77.5817524,
      "tags": {
        "name": "Megamart",
        "shop": "clothes"
      }
    },
    {
      "type": "node",
      "id": 2954412621,
      "lat": 12.8911005,
      "lon": 77.5816814,
      "tags": {
        "name": "Miss World",
        "shop": "clothes"
      }
    },
    {
      "type": "node",
      "id": 2954412623,
      "lat": 12.8886352,
      "lon": 77.5820313,
      "tags": {
        "name": "Niharika Collections",
        "shop": "clothes"
      }
    },
    {
      "type": "node",
      "id": 2954412626,
      "lat": 12.8918806,
      "lon": 77.5817562,
      "tags": {
        "amenity": "fast_food",
        "cuisine": "punjabi",
        "name": "Punjabi Food Corner"
      }
    },
    {
      "type": "node",
      "id": 2954412628,
      "lat": 12.8920226,
      "lon": 77.5809341,
      "tags": {
        "name": "Sri Bhagyalakshmi Hardware and Paints",
        "shop": "hardware"
      }
    },
    {
      "type": "node",
      "id": 2954412629,
      "lat": 12.8920902,
      "lon": 77.5815631,
      "tags": {
        "name": "Sri Raghavendra Iyengar Bakery",
        "shop": "bakery"
      }
    },
    {
      "type": "node",
      "id": 2954412631,
      "lat": 12.8886588,
      "lon": 77.5821115,
      "tags": {
        "internet_access": "yes",
        "name": "VG Computers",
        "shop": "copyshop"
      }
    },
    {
      "type": "node",
      "id": 2954412632,
      "lat": 12.8910795,
      "lon": 77.5816822,
      "tags": {
        "name": "YLG",
        "shop": "beauty"
      }
    },
    {
      "type": "node",
      "id": 2954417234,
      "lat": 12.8904626,
      "lon": 77.5816995,
      "tags": {
        "name": "Tamara",
        "shop": "fashion_accessories"
      }
    },
    {
      "type": "node",
      "id": 2954417235,
      "lat": 12.8905611,
      "lon": 77.5817123,
      "tags": {
        "brand": "Exide",
        "name": "Sree Prashanthi Enterprises",
        "note": "Rechargeable automotive & UPS batteries",
        "shop": "rechargeable_battery",
        "source": "voice"
      }
    },
    {
      "type": "node",
      "id": 2954417236,
      "lat": 12.8917424,
      "lon": 77.5817749,
      "tags": {
        "name": "Hot Chips",
        "note": "Deep fried snacks",
        "shop": "snacks"
      }
    },
    {
      "type": "node",
      "id": 2957037182,
      "lat": 12.8922462,
      "lon": 77.5817355,
      "tags": {
        "amenity": "fast_food",
        "cuisine": "chicken",
        "name": "Rolls on Wheels"
      }
    },
    {
      "type": "node",
      "id": 2957037183,
      "lat": 12.8922542,
      "lon": 77.5817355,
      "tags": {
        "note": "Mobile phone repairs",
        "shop": "mobile_phone_repair"
      }
    },
    {
      "type": "node",
      "id": 2957037184,
      "lat": 12.8922509,
      "lon": 77.5817283,
      "tags": {
        "name": "Ushas Gifting Solutions",
        "shop": "gift"
      }
    },
    {
      "type": "node",
      "id": 2961232504,
      "lat": 12.8962593,
      "lon": 77.5818602,
      "tags": {
        "name": "Bombay Dyeing",
        "name:kn": "ಬೊಂಬೆ ಡೈಯಿಂಗ್",
        "shop": "clothes"
      }
    },
    {
      "type": "node",
      "id": 2961232505,
      "lat": 12.8976922,
      "lon": 77.5825743,
      "tags": {
        "name": "The Cake Shop",
        "shop": "bakery"
      }
    },
    {
      "type": "node",
      "id": 2961232506,
      "lat": 12.891665,
      "lon": 77.5785483,
      "tags": {
        "amenity": "kindergarten",
        "name": "Touch Stone"
      }
    },
    {
      "type": "node",
      "id": 2964142634,
      "lat": 12.8920801,
      "lon": 77.5815212,
      "tags": {
        "amenity": "doctors",
        "healthcare": "doctor",
        "healthcare:speciality": "orthopaedics",
        "name": "Dr. Praveen's Orthopaedics Center"
      }
    },
    {
      "type": "node",
      "id": 2964142635,
      "lat": 12.8920738,
      "lon": 77.5814809,
      "tags": {
        "name": "Fusion Intimates",
        "shop": "clothes"
      }
    },
    {
      "type": "node",
      "id": 2964142636,
      "lat": 12.8922252,
      "lon": 77.5813723,
      "tags": {
        "name": "Ganesh Fancy and Gift Center",
        "shop": "gift"
      }
    },
    {
      "type": "node",
      "id": 2964142637,
      "lat": 12.8922282,
      "lon": 77.5814135,
      "tags": {
        "name": "Maharaja Stationery",
        "shop": "stationery"
      }
    },
    {
      "type": "node",
      "id": 2964142638,
      "lat": 12.892065,
      "lon": 77.581734,
      "tags": {
        "name": "SAT Sports",
        "shop": "sports"
      }
    },
    {
      "type": "node",
      "id": 2964142639,
      "lat": 12.8920613,
      "lon": 77.581495,
      "tags": {
        "name": "Vandana New Fashions",
        "shop": "clothes"
      }
    },
    {
      "type": "node",
      "id": 2964414615,
      "lat": 12.8902229,
      "lon": 77.5819872,
      "tags": {
        "name": "Royal Style Salon & Spa",
        "note": "Unisex Salon",
        "shop": "beauty"
      }
    },
    {
      "type": "node",
      "id": 2964414616,
      "lat": 12.8906339,
      "lon": 77.5819363,
      "tags": {
        "name": "S N Times",
        "note": "Shop selling watches",
        "shop": "watches",
        "source": "survey"
      }
    },
    {
      "type": "node",
      "id": 2964414617,
      "lat": 12.8907955,
      "lon": 77.5819391,
      "tags": {
        "name": "S V Provision Store",
        "shop": "convenience"
      }
    },
    {
      "type": "node",
      "id": 2984082852,
      "lat": 12.8885561,
      "lon": 77.5790692,
      "tags": {
        "amenity": "kindergarten",
        "name": "Roots Montessori"
      }
    },
    {
      "type": "node",
      "id": 3010283555,
      "lat": 12.8938911,
      "lon": 77.5861752,
      "tags": {
        "brand": "Honda",
        "brand:wikidata": "Q9584",
        "motorcycle:clothes": "no",
        "motorcycle:parts": "brand",
        "motorcycle:rental": "no",
        "motorcycle:repair": "brand",
        "motorcycle:sales": "brand",
        "name": "Saphire Honda",
        "shop": "motorcycle",
        "source": "voice, GPS",
        "wheelchair": "limited"
      }
    },
    {
      "type": "node",
      "id": 3010283556,
      "lat": 12.8968779,
      "lon": 77.5862819,
      "tags": {
        "butcher": "poultry",
        "name": "Suguna Daily Fresh",
        "shop": "butcher",
        "source": "voice, GPS",
        "wheelchair": "yes"
      }
    },
    {
      "type": "node",
      "id": 3011822779,
      "lat": 12.8918423,
      "lon": 77.5782169,
      "tags": {
        "name": "Indian Art Gallery",
        "shop": "art",
        "source": "survey"
      }
    },
    {
      "type": "node",
      "id": 3011822780,
      "lat": 12.8917717,
      "lon": 77.579072,
      "tags": {
        "name": "Itsy Bitsy",
        "note": "Shop selling craft supplies",
        "shop": "craft_supplies",
        "source": "survey"
      }
    },
    {
      "type": "node",
      "id": 3015982857,
      "lat": 12.8920105,
      "lon": 77.5789782,
      "tags": {
        "amenity": "ultrasound_scanning",
        "name": "Sri Sai Ultrasound Scan Center",
        "note": "Ultrasound Scanning",
        "source": "survey"
      }
    },
    {
      "type": "node",
      "id": 3016090357,
      "lat": 12.9020984,
      "lon": 77.5859455,
      "tags": {
        "amenity": "bank",
        "atm": "no",
        "brand": "Allahabad Bank",
        "brand:wikidata": "Q2018840",
        "brand:wikipedia": "en:Allahabad Bank",
        "name": "Allahabad Bank",
        "name:en": "Allahabad Bank",
        "name:kn": "ಅಲ್ಲಹಾಬಾದ್ ಬ್ಯಾಂಕ್",
        "website": "https://www.allahabadbank.in",
        "wheelchair": "no"
      }
    },
    {
      "type": "node",
      "id": 3016090358,
      "lat": 12.8888998,
      "lon": 77.5791519,
      "tags": {
        "amenity": "arts_centre",
        "name": "Arty Facets"
      }
    },
    {
      "type": "node",
      "id": 3016090361,
      "lat": 12.9007262,
      "lon": 77.5859519,
      "tags": {
        "amenity": "ice_cream",
        "brand": "Baskin-Robbins",
        "brand:wikidata": "Q584601",
        "cuisine": "ice_cream",
        "name": "Baskin-Robbins",
        "name:kn": "ಬಸ್ಕಿನ್ ರಾಬಿನ್ಸ್",
        "wheelchair": "limited"
      }
    },
    {
      "type": "node",
      "id": 3016090365,
      "lat": 12.903812,
      "lon": 77.5858613,
      "tags": {
        "amenity": "bank",
        "atm": "no",
        "brand": "IDBI Bank",
        "brand:wikidata": "Q3633485",
        "brand:wikipedia": "en:IDBI Bank",
        "name": "IDBI Bank",
        "name:en": "IDBI Bank",
        "name:kn": "ಐಡಿಬಿಐ ಬ್ಯಾಂಕ್",
        "old_name": "Industrial Development Bank of India",
        "operator": "IDBI Bank",
        "short_name": "IDBI",
        "website": "https://www.idbi.com",
        "wheelchair": "no"
      }
    },
    {
      "type": "node",
      "id": 3016090367,
      "lat": 12.8887777,
      "lon": 77.5791574,
      "tags": {
        "amenity": "kindergarten",
        "name": "Little Elly"
      }
    },
    {
      "type": "node",
      "id": 3016090368,
      "lat": 12.8899461,
      "lon": 77.5789701,
      "tags": {
        "amenity": "arts_centre",
        "name": "Magic Hive",
        "note": "Art classes for children"
      }
    },
    {
      "type": "node",
      "id": 3016090372,
      "lat": 12.9009848,
      "lon": 77.5859587,
      "tags": {
        "amenity": "atm",
        "brand": "Yes Bank",
        "brand:wikidata": "Q2040394",
        "currency:INR": "yes",
        "name": "Yes Bank",
        "name:kn": "ಯಸ್ ಬ್ಯಾಂಕ್",
        "operator": "Yes Bank",
        "operator:wikidata": "Q2040394"
      }
    },
    {
      "type": "node",
      "id": 3016587966,
      "lat": 12.901616,
      "lon": 77.5822469,
      "tags": {
        "name": "James Bond Dry Cleaners",
        "shop": "dry_cleaning"
      }
    },
    {
      "type": "node",
      "id": 3016590008,
      "lat": 12.8931345,
      "lon": 77.5816811,
      "tags": {
        "name": "Wood City",
        "shop": "furniture"
      }
    },
    {
      "type": "node",
      "id": 3022074188,
      "lat": 12.8944662,
      "lon": 77.5815515,
      "tags": {
        "name": "Prachi Fashion",
        "shop": "clothes"
      }
    },
    {
      "type": "node",
      "id": 3022113002,
      "lat": 12.8971318,
      "lon": 77.5858778,
      "tags": {
        "name": "The Big Market",
        "shop": "supermarket",
        "wheelchair": "no"
      }
    },
    {
      "type": "node",
      "id": 3024967815,
      "lat": 12.904523,
      "lon": 77.5803913,
      "tags": {
        "amenity": "atm",
        "brand": "Axis Bank",
        "brand:wikidata": "Q2003549",
        "name": "Axis Bank",
        "name:kn": "ಆಕ್ಸಿಸ್ ಬ್ಯಾಂಕ್",
        "operator": "Axis Bank",
        "operator:wikidata": "Q2003549"
      }
    },
    {
      "type": "node",
      "id": 3034550568,
      "lat": 12.8892751,
      "lon": 77.5817576,
      "tags": {
        "name": "MAC Unisex Salon",
        "shop": "hairdresser",
        "unisex": "yes"
      }
    },
    {
      "type": "node",
      "id": 3048433275,
      "lat": 12.8982318,
      "lon": 77.5827474,
      "tags": {
        "name": "Sri Basaweswara Cycle Mart",
        "service:bicycle:repair": "yes",
        "service:bicycle:retail": "yes",
        "shop": "bicycle",
        "source": "voice"
      }
    },
    {
      "type": "node",
      "id": 3058697531,
      "lat": 12.8943653,
      "lon": 77.5815509,
      "tags": {
        "amenity": "pharmacy",
        "dispensing": "yes",
        "healthcare": "pharmacy",
        "name": "Bankapura Medicals"
      }
    },
    {
      "type": "node",
      "id": 3058697532,
      "lat": 12.8944069,
      "lon": 77.5815499,
      "tags": {
        "name": "Mohan Wines",
        "shop": "alcohol"
      }
    },
    {
      "type": "node",
      "id": 3217683308,
      "lat": 12.8917386,
      "lon": 77.5790448,
      "tags": {
        "check_date": "2023-11-11",
        "name": "Easy Take Retail",
        "shop": "department_store",
        "source": "survey"
      }
    },
    {
      "type": "node",
      "id": 3217683310,
      "lat": 12.9001563,
      "lon": 77.585937,
      "tags": {
        "amenity": "restaurant",
        "cuisine": "punjabi",
        "name": "Funky Punjab",
        "source": "survey",
        "wheelchair": "no"
      }
    },
    {
      "type": "node",
      "id": 3220549890,
      "lat": 12.9033409,
      "lon": 77.5856019,
      "tags": {
        "name": "Kidzon",
        "shop": "baby_goods",
        "source": "survey"
      }
    },
    {
      "type": "node",
      "id": 3220550248,
      "lat": 12.9058961,
      "lon": 77.5802982,
      "tags": {
        "amenity": "restaurant",
        "cuisine": "indian",
        "name": "Vinaya Cafe",
        "name:kn": "ವಿನಯ ಕೆಫೆ",
        "source": "survey"
      }
    },
    {
      "type": "node",
      "id": 3226809435,
      "lat": 12.8966309,
      "lon": 77.5862714,
      "tags": {
        "amenity": "pharmacy",
        "brand": "Apollo Pharmacy",
        "brand:wikidata": "Q62562612",
        "dispensing": "yes",
        "healthcare": "pharmacy",
        "name": "Apollo Pharmacy",
        "name:kn": "ಅಪೋಲೋ ಫಾರ್ಮಸಿ",
        "wheelchair": "limited"
      }
    },
    {
      "type": "node",
      "id": 3226809437,
      "lat": 12.8999259,
      "lon": 77.5859193,
      "tags": {
        "name": "Just Kids",
        "shop": "baby_goods",
        "wheelchair": "no"
      }
    },
    {
      "type": "node",
      "id": 3226809438,
      "lat": 12.9009271,
      "lon": 77.5859552,
      "tags": {
        "addr:city": "Bangalore",
        "addr:postcode": "560078",
        "addr:street": "24th Main Road",
        "amenity": "pharmacy",
        "dispensing": "yes",
        "healthcare": "pharmacy",
        "name": "White Lotus",
        "wheelchair": "limited"
      }
    },
    {
      "type": "node",
      "id": 3226825473,
      "lat": 12.9044659,
      "lon": 77.5802459,
      "tags": {
        "amenity": "restaurant",
        "cuisine": "indian",
        "name": "Karavali Garden Restaurant",
        "name:kn": "ಕರಾವಳಿ ಗಾರ್ಡನ್ ರೆಸ್ಟೋರೆಂಟ್"
      }
    },
    {
      "type": "node",
      "id": 3378187573,
      "lat": 12.8907997,
      "lon": 77.5817018,
      "tags": {
        "name": "Compete",
        "shop": "clothes"
      }
    },
    {
      "type": "node",
      "id": 3378187574,
      "lat": 12.8903606,
      "lon": 77.582483,
      "tags": {
        "amenity": "clinic",
        "healthcare": "clinic",
        "name": "Dr. Mradula's Skin Clinic"
      }
    },
    {
      "type": "node",
      "id": 3388710064,
      "lat": 12.8922269,
      "lon": 77.5811949,
      "tags": {
        "amenity": "bank",
        "atm": "yes",
        "brand": "State Bank of India",
        "brand:wikidata": "Q1340361",
        "brand:wikipedia": "en:State Bank of India",
        "name": "State Bank of India",
        "name:kn": "ಭಾರತೀಯ ಸ್ಟೇಟ್ ಬ್ಯಾಂಕ್",
        "operator": "State Bank of India",
        "short_name": "SBI",
        "source": "survey"
      }
    },
    {
      "type": "node",
      "id": 3721889726,
      "lat": 12.893592,
      "lon": 77.586205,
      "tags": {
        "addr:city": "Bengaluru",
        "addr:country": "IN",
        "addr:postcode": "560078",
        "addr:province": "JP Nagar 7th Phase",
        "addr:state": "KA",
        "addr:street": "24th Main",
        "name": "Reliance Smart Point",
        "operator": "Reliance Retail",
        "shop": "supermarket",
        "wheelchair": "no"
      }
    },
    {
      "type": "node",
      "id": 3769908094,
      "lat": 12.8905953,
      "lon": 77.582004,
      "tags": {
        "name": "S P Enterprises",
        "shop": "copyshop"
      }
    },
    {
      "type": "node",
      "id": 3812492578,
      "lat": 12.8917806,
      "lon": 77.5792737,
      "tags": {
        "amenity": "restaurant",
        "cuisine": "indian",
        "description": "Chinese, Thai, Italian Restaurant",
        "name": "Chiah Hok",
        "source": "GPS"
      }
    },
    {
      "type": "node",
      "id": 4140907932,
      "lat": 12.8918925,
      "lon": 77.579749,
      "tags": {
        "amenity": "bank",
        "brand": "State Bank of India",
        "brand:wikidata": "Q1340361",
        "brand:wikipedia": "en:State Bank of India",
        "name": "State Bank of India",
        "name:kn": "ಭಾರತೀಯ ಸ್ಟೇಟ್ ಬ್ಯಾಂಕ್",
        "short_name": "SBI",
        "source": "gps",
        "website": "https://www.sbi.co.in"
      }
    },
    {
      "type": "node",
      "id": 4321222913,
      "lat": 12.9010386,
      "lon": 77.5859577,
      "tags": {
        "addr:street": "24th Main",
        "amenity": "bank",
        "brand": "HDFC Bank",
        "brand:wikidata": "Q631047",
        "name": "HDFC Bank",
        "name:kn": "ಎಚ್ ಡಿ ಎಫ್ ಸಿ",
        "short_name": "HDFC",
        "wheelchair": "limited"
      }
    },
    {
      "type": "node",
      "id": 4321245416,
      "lat": 12.9030809,
      "lon": 77.5855786,
      "tags": {
        "addr:street": "24th Main",
        "air_conditioning": "yes",
        "amenity": "restaurant",
        "contact:website": "https://thezaitoon.com/",
        "cuisine": "arab",
        "level": "1",
        "name": "Zaitoon",
        "name:kn": "ಜಾಐಟುನ್",
        "opening_hours": "Mo-Su 11:30-23:30",
        "toilets": "yes",
        "wheelchair": "no"
      }
    },
    {
      "type": "node",
      "id": 4321245505,
      "lat": 12.9017285,
      "lon": 77.5857629,
      "tags": {
        "addr:street": "24th Main",
        "amenity": "restaurant",
        "cuisine": "indian",
        "name": "Sea Salt"
      }
    },
    {
      "type": "node",
      "id": 4445183051,
      "lat": 12.8963221,
      "lon": 77.5784799,
      "tags": {
        "addr:city": "BANGALORE",
        "addr:housenumber": "8 & 9",
        "addr:postcode": "560068",
        "addr:street": "Near R N S Motors, GB Palya, Hosur Road, Near Bommanahalli Signal, Bommasandra Industrial Area",
        "amenity": "school",
        "name": "Narayana e-Techno School",
        "phone": "+9170222 93935",
        "website": "narayanaetechnoschools.com"
      }
    },
    {
      "type": "node",
      "id": 4447380525,
      "lat": 12.8888667,
      "lon": 77.5820897,
      "tags": {
        "addr:city": "Bangalore",
        "addr:housenumber": "13/A",
        "addr:postcode": "560078",
        "addr:street": "Wilson Garden Housing Society,, Kothnur Village Main Rd, JP Nagar 7th Phase",
        "name": "Vita Plus Clinic",
        "phone": "080 4094 4115",
        "shop": "medical_supply",
        "source": "justdial"
      }
    },
    {
      "type": "node",
      "id": 4447383325,
      "lat": 12.9039905,
      "lon": 77.5859569,
      "tags": {
        "addr:city": "bangalore",
        "addr:housenumber": "9",
        "addr:postcode": "560078",
        "addr:street": "24th Main Rd, KR Layout, 1st Phase, JP Nagar",
        "amenity": "hospital",
        "name": "M N Speciality Clinic",
        "name:kn": "ಎಮ್ ಎನ್ ಸ್ಪೆಶಾಲಿಟಿ ಕ್ಲಿನಿಕ್",
        "phone": "080 2653 0121"
      }
    },
    {
      "type": "node",
      "id": 4456223691,
      "lat": 12.9030471,
      "lon": 77.5851583,
      "tags": {
        "addr:housenumber": "CMS Annex 319",
        "addr:postcode": "560 078",
        "addr:street": "17th Cross Road",
        "amenity": "school",
        "email": "bschool@cms.ac.in",
        "name": "CMS Business School, Jain University",
        "name:en": "CMS Business School, Jain University",
        "name:kn": "ಸಿಎಂಎಸ್ ಬಿಸಿನೆಸ್ ಸ್ಕೂಲ್, ಜೈನ್ ವಿಶ್ವವಿದ್ಯಾಲಯ",
        "opening_hours": "Mo-Fr 09:00-17:00",
        "phone": "+91 80 4343 0400",
        "website": "http://www.bschool.cms.ac.in"
      }
    },
    {
      "type": "node",
      "id": 4463113589,
      "lat": 12.9035208,
      "lon": 77.5843442,
      "tags": {
        "amenity": "atm",
        "brand": "Canara Bank",
        "brand:en": "Canara Bank",
        "brand:hi": "केनरा बैंक",
        "brand:kn": "ಕೆನರಾ ಬ್ಯಾಂಕ್",
        "brand:pa": "ਕੇਨਰਾ ਬੈਂਕ",
        "brand:pnb": "کینرا بینک",
        "brand:ur": "کینرا بینک",
        "brand:wikidata": "Q2003777",
        "name": "Canara Bank",
        "name:en": "Canara Bank",
        "name:hi": "केनरा बैंक",
        "name:kn": "ಕೆನರಾ ಬ್ಯಾಂಕ್",
        "name:pa": "ਕੇਨਰਾ ਬੈਂਕ",
        "name:pnb": "کینرا بینک",
        "name:ur": "کینرا بینک",
        "opening_hours": "24/7",
        "operator": "Canara Bank",
        "operator:wikidata": "Q2003777"
      }
    },
    {
      "type": "node",
      "id": 4470962689,
      "lat": 12.9040892,
      "lon": 77.5847141,
      "tags": {
        "amenity": "atm",
        "brand": "Axis Bank",
        "brand:wikidata": "Q2003549",
        "name": "Axis Bank",
        "opening_hours": "24/7",
        "operator": "Axis Bank",
        "operator:wikidata": "Q2003549"
      }
    },
    {
      "type": "node",
      "id": 4488069422,
      "lat": 12.9027124,
      "lon": 77.5855115,
      "tags": {
        "addr:city": "bangalore",
        "addr:housenumber": "No-10/2, 1st Floor",
        "addr:postcode": "560078",
        "addr:street": "24th Main, Sarakki Village, J.P Nagar 6th Phase, Opp. Crystal Castle Hotel,",
        "building": "yes",
        "fee": "yes",
        "leisure": "sports_centre",
        "name": "Elite Batminton Arena",
        "opening_hours": "11:00-21:00",
        "phone": "080 4171 3131",
        "sport": "multi",
        "website": "http://thesportmall.in/"
      }
    },
    {
      "type": "node",
      "id": 4488140181,
      "lat": 12.8949497,
      "lon": 77.5815742,
      "tags": {
        "addr:city": "Bangalore",
        "addr:housenumber": "No. 21",
        "addr:postcode": "560078",
        "addr:street": "12th Main Road, Kothanur Main Road, J.P. Nagar, 7 Phase, Bengaluru",
        "name": "Cycle World",
        "opening_hours": "Mo-Su 09:30-21:00",
        "phone": "080 4092 1041",
        "shop": "sports"
      }
    },
    {
      "type": "node",
      "id": 4488456645,
      "lat": 12.9002999,
      "lon": 77.5860464,
      "tags": {
        "addr:city": "Bangalore",
        "addr:housenumber": "14/1",
        "addr:postcode": "560078",
        "addr:street": "23rd Main Rd, Nagaraja Garden, J P Nagar Phase 5, JP Nagar",
        "leisure": "sports_centre",
        "name": "WE Fitness, Health and Wellness Center",
        "opening_hours": "5:30-22:00",
        "phone": "080 8805 33338",
        "sport": "gymnastics",
        "website": "https://wefithealth.com/",
        "wheelchair": "limited"
      }
    },
    {
      "type": "node",
      "id": 4489814074,
      "lat": 12.8915823,
      "lon": 77.5769612,
      "tags": {
        "addr:city": "bangalore",
        "addr:housenumber": "No. 724",
        "addr:postcode": "560078",
        "addr:street": ", Rini Pearl, 2nd Floor, Opposite To EK Retail, RBI Layout, Krishna Nagar, Elita Promenade, JP Nagar 7th Phase, JP Nagar, Kothnur, Karnataka",
        "leisure": "sports_centre",
        "name": "N-Gage Fitness Center",
        "opening_hours": "5:30-22:00",
        "phone": "080500 00016"
      }
    },
    {
      "type": "node",
      "id": 4574199494,
      "lat": 12.8940807,
      "lon": 77.5866165,
      "tags": {
        "addr:city": "Bengaluru",
        "addr:housenumber": "1231/35/2, 24th Main,",
        "addr:postcode": "560076",
        "addr:street": "Opposite Brigade Palm Springs, Brigade Millenium Rd, JP Nagar 7th Phase,",
        "amenity": "restaurant",
        "name": "Hakuna Matata",
        "name:en": "Hakuna Matata",
        "phone": "+919741133866",
        "wheelchair": "limited"
      }
    },
    {
      "type": "node",
      "id": 4787585823,
      "lat": 12.9006918,
      "lon": 77.5868781,
      "tags": {
        "addr:street": "18th Cross Road",
        "amenity": "fast_food",
        "cuisine": "chinese;indian",
        "name": "ಶ್ರೀ ಕೃಷ್ಣ ದರ್ಶಿನಿ",
        "name:en": "Sri Krishna Darshini",
        "name:kn": "ಶ್ರೀ ಕೃಷ್ಣ ದರ್ಶಿನಿ",
        "opening_hours": "Mo-Su 08:00-22:00"
      }
    },
    {
      "type": "node",
      "id": 6072894766,
      "lat": 12.8989205,
      "lon": 77.5888391,
      "tags": {
        "amenity": "cafe",
        "name": "Zak Cafe"
      }
    },
    {
      "type": "node",
      "id": 6072894936,
      "lat": 12.9008702,
      "lon": 77.587901,
      "tags": {
        "addr:street": "18th Cross Road",
        "amenity": "atm",
        "brand": "Canara Bank",
        "brand:en": "Canara Bank",
        "brand:hi": "केनरा बैंक",
        "brand:kn": "ಕೆನರಾ ಬ್ಯಾಂಕ್",
        "brand:pa": "ਕੇਨਰਾ ਬੈਂਕ",
        "brand:pnb": "کینرا بینک",
        "brand:ur": "کینرا بینک",
        "brand:wikidata": "Q2003777",
        "name": "Canara Bank",
        "name:en": "Canara Bank",
        "name:hi": "केनरा बैंक",
        "name:kn": "ಕೆನರಾ ಬ್ಯಾಂಕ್",
        "name:pa": "ਕੇਨਰਾ ਬੈਂਕ",
        "name:pnb": "کینرا بینک",
        "name:ur": "کینرا بینک",
        "opening_hours": "24/7",
        "operator": "Canara Bank",
        "operator:wikidata": "Q2003777"
      }
    },
    {
      "type": "node",
      "id": 6072907744,
      "lat": 12.9007694,
      "lon": 77.5872749,
      "tags": {
        "addr:city": "Bangalore",
        "addr:postcode": "560078",
        "addr:street": "18th cross road",
        "amenity": "restaurant",
        "name": "Kakal Kai Ruchi"
      }
    },
    {
      "type": "node",
      "id": 6073524584,
      "lat": 12.9006451,
      "lon": 77.5866036,
      "tags": {
        "addr:street": "23rd main, Ramana Road, Ayodhya Nagar",
        "amenity": "pharmacy",
        "healthcare": "pharmacy",
        "name": "Sri Lakshmi Medicals"
      }
    },
    {
      "type": "node",
      "id": 6073529014,
      "lat": 12.900671,
      "lon": 77.5866393,
      "tags": {
        "addr:street": "23rd main, Ramanna road, JP nagar, 5th phase",
        "amenity": "clinic",
        "healthcare": "clinic",
        "name": "Sri Balaji Speciality Clinic & Diagnostic Center"
      }
    },
    {
      "type": "node",
      "id": 6073587023,
      "lat": 12.9006755,
      "lon": 77.5872566,
      "tags": {
        "addr:street": "22nd B Main, Ramanna Road, JP Nagar 5th Phase",
        "amenity": "clinic",
        "healthcare": "clinic",
        "name": "JP Nagar Clinic"
      }
    },
    {
      "type": "node",
      "id": 6073775977,
      "lat": 12.9004635,
      "lon": 77.5857728,
      "tags": {
        "addr:city": "Bangalore",
        "addr:postcode": "560078",
        "addr:street": "24th Main Road",
        "amenity": "cafe",
        "cuisine": "tea;sandwich;chicken;regional",
        "internet_access": "no",
        "name": "Paani kum Chai",
        "smoking": "no",
        "wheelchair": "no"
      }
    },
    {
      "type": "node",
      "id": 6074032575,
      "lat": 12.9001446,
      "lon": 77.5859196,
      "tags": {
        "addr:street": "24th Main, JP Nagar, 5th phase",
        "amenity": "cafe",
        "name": "Once In Nature (Organic Cafe)"
      }
    },
    {
      "type": "node",
      "id": 6075065398,
      "lat": 12.9005012,
      "lon": 77.5859088,
      "tags": {
        "addr:street": "24th main, JP Nagar, 5th Phase",
        "amenity": "pharmacy",
        "brand": "MedPlus",
        "brand:wikidata": "Q65684234",
        "healthcare": "pharmacy",
        "name": "MedPlus",
        "name:kn": "ಮೆಡ್‍ಪ್ಲಸ್"
      }
    },
    {
      "type": "node",
      "id": 6075096734,
      "lat": 12.9006994,
      "lon": 77.5872673,
      "tags": {
        "addr:city": "Bangalore",
        "addr:postcode": "560078",
        "addr:street": "22nd B Main Road",
        "amenity": "pharmacy",
        "dispensing": "yes",
        "healthcare": "pharmacy",
        "name": "Prem Pharmacy"
      }
    },
    {
      "type": "node",
      "id": 6075096735,
      "lat": 12.9007003,
      "lon": 77.58729,
      "tags": {
        "addr:city": "Bangalore",
        "addr:postcode": "560078",
        "addr:street": "18th Cross Road",
        "name": "LJ Iyengars Bakery",
        "opening_hours": "Mo-Fr 10:00-23:00",
        "shop": "bakery"
      }
    },
    {
      "type": "node",
      "id": 6079457673,
      "lat": 12.9001036,
      "lon": 77.585916,
      "tags": {
        "addr:city": "Bangalore",
        "addr:postcode": "560078",
        "addr:street": "24th Main Road",
        "amenity": "restaurant",
        "name": "Hotel Sankaranarayana Tiffanes",
        "wheelchair": "no"
      }
    },
    {
      "type": "node",
      "id": 6081211670,
      "lat": 12.8999597,
      "lon": 77.5856543,
      "tags": {
        "amenity": "school",
        "name": "Tiny Angels English Primary School",
        "wheelchair": "limited"
      }
    },
    {
      "type": "node",
      "id": 6082612990,
      "lat": 12.8998226,
      "lon": 77.5859426,
      "tags": {
        "addr:street": "24th main road, 5th phase, JP Nagar",
        "amenity": "clinic",
        "healthcare": "clinic",
        "name": "Sahasrara Neurosciences Clinic",
        "wheelchair": "no"
      }
    },
    {
      "type": "node",
      "id": 6082618914,
      "lat": 12.8998179,
      "lon": 77.5859162,
      "tags": {
        "addr:street": "24th main road, 5th Phase, JP Nagar",
        "name": "Adam & Eve's Unisex Salon",
        "shop": "beauty"
      }
    },
    {
      "type": "node",
      "id": 6082627939,
      "lat": 12.899352,
      "lon": 77.5859233,
      "tags": {
        "addr:street": "24th main road, 5th phase, JP Nagar",
        "name": "Bright Go Nuts",
        "shop": "chocolate"
      }
    },
    {
      "type": "node",
      "id": 6082646035,
      "lat": 12.8995515,
      "lon": 77.5859527,
      "tags": {
        "addr:street": "24th main road, 5th phase, JP Nagar",
        "name": "Velvet Studio",
        "shop": "massage"
      }
    },
    {
      "type": "node",
      "id": 6082648286,
      "lat": 12.8994481,
      "lon": 77.5859306,
      "tags": {
        "addr:street": "24th main road, 5th phase, JP Nagar",
        "amenity": "ice_cream",
        "name": "Roll Over"
      }
    },
    {
      "type": "node",
      "id": 6082778308,
      "lat": 12.9001386,
      "lon": 77.5859319,
      "tags": {
        "addr:city": "Bangalore",
        "addr:postcode": "560078",
        "addr:street": "24th Main Road",
        "name": "Arogya Organic",
        "organic": "only",
        "shop": "supermarket"
      }
    },
    {
      "type": "node",
      "id": 6082778309,
      "lat": 12.9007289,
      "lon": 77.5874648,
      "tags": {
        "addr:city": "Bangalore",
        "addr:postcode": "560078",
        "addr:street": "18th Cross Road, JP Nagar, 5th Phase",
        "amenity": "dentist",
        "healthcare": "dentist",
        "name": "Smile Dental"
      }
    },
    {
      "type": "node",
      "id": 6338071472,
      "lat": 12.9020427,
      "lon": 77.5857467,
      "tags": {
        "amenity": "restaurant",
        "name": "Empire Restaurant",
        "name:kn": "ಎಂಪೈರ್",
        "wheelchair": "no"
      }
    },
    {
      "type": "node",
      "id": 6338071473,
      "lat": 12.9017016,
      "lon": 77.5857953,
      "tags": {
        "amenity": "pharmacy",
        "healthcare": "pharmacy",
        "name": "Bengaluru Drug House Pharmacy",
        "wheelchair": "no"
      }
    },
    {
      "type": "node",
      "id": 6338071474,
      "lat": 12.899703,
      "lon": 77.5859281,
      "tags": {
        "amenity": "fast_food",
        "name": "Kolkata Famous Kati Roll",
        "wheelchair": "no"
      }
    },
    {
      "type": "node",
      "id": 6338071475,
      "lat": 12.8994281,
      "lon": 77.5858873,
      "tags": {
        "amenity": "fast_food",
        "name": "Chaatimes"
      }
    },
    {
      "type": "node",
      "id": 6338071922,
      "lat": 12.9032342,
      "lon": 77.5856124,
      "tags": {
        "name": "SLV Flowers",
        "shop": "florist"
      }
    },
    {
      "type": "node",
      "id": 6338071923,
      "lat": 12.9021091,
      "lon": 77.5857727,
      "tags": {
        "amenity": "fast_food",
        "name": "Cheesiano Pizza"
      }
    },
    {
      "type": "node",
      "id": 6338071924,
      "lat": 12.9018724,
      "lon": 77.5859502,
      "tags": {
        "amenity": "ice_cream",
        "name": "Polar Bear",
        "wheelchair": "yes"
      }
    },
    {
      "type": "node",
      "id": 6338071925,
      "lat": 12.9013144,
      "lon": 77.585703,
      "tags": {
        "amenity": "fuel",
        "name": "HiDrive Auto LPG",
        "wheelchair": "yes"
      }
    },
    {
      "type": "node",
      "id": 6338071926,
      "lat": 12.8996119,
      "lon": 77.5859158,
      "tags": {
        "brand": "Lenskart",
        "brand:wikidata": "Q17068753",
        "name": "Lenskart.com",
        "shop": "optician"
      }
    },
    {
      "type": "node",
      "id": 6341376490,
      "lat": 12.8973677,
      "lon": 77.5858738,
      "tags": {
        "addr:street": "JP Nagar 6th Phase, JP Nagar",
        "amenity": "restaurant",
        "name": "Kakal Kai Ruchi",
        "name:kn": "ಕಾಕಲ್ ಕೈ ರುಚಿ",
        "name:ta": "கக்கல் கை ருச்சி",
        "wheelchair": "limited"
      }
    },
    {
      "type": "node",
      "id": 6349500173,
      "lat": 12.8975384,
      "lon": 77.582022,
      "tags": {
        "addr:place": "Puttenhalli",
        "amenity": "school",
        "isced:level": "2",
        "name": "GMPS Puttenhalli",
        "name:kn": "ಸರ್ಕಾರಿ ಮಾದರಿ ಪ್ರಾಥಮಿಕ ಶಾಲೆ ಪುಟ್ಟೇನಹಳ್ಳಿ",
        "operator": "Department of Education",
        "school": "primary"
      }
    },
    {
      "type": "node",
      "id": 6531907477,
      "lat": 12.9032482,
      "lon": 77.5787159,
      "tags": {
        "addr:place": "Jaraganahalli",
        "amenity": "school",
        "isced:level": "3",
        "name": "Thrishool School J P Nagar, Jaragana Halli 1",
        "name:kn": "ತ್ರಿಶೂಲ್ ಶಾಲೆ ಜೆ.ಪಿ. ನಗರ,ಜರಗನ ಹಳ್ಳಿ",
        "operator": "Private Un-Aided",
        "school": "Higher Secondary"
      }
    },
    {
      "type": "node",
      "id": 6531910522,
      "lat": 12.8959609,
      "lon": 77.5886375,
      "tags": {
        "addr:place": "Jaraganahalli",
        "amenity": "school",
        "isced:level": "3",
        "name": "Holy Mother HPS J P Nagara, Jaragana Halli 1",
        "name:kn": "ಹೋಲಿ ಮದರ್ ಹಿರಿಯ ಪ್ರಾಥಮಿಕ ಶಾಲೆ ಜೆ.ಪಿ. ನಗರ,ಜರಗನ ಹಳ್ಳಿ",
        "operator": "Private Un-Aided",
        "school": "Higher Secondary"
      }
    },
    {
      "type": "node",
      "id": 6531943351,
      "lat": 12.9020965,
      "lon": 77.57588,
      "tags": {
        "addr:place": "Jaraganahalli",
        "amenity": "school",
        "isced:level": "2",
        "name": "Sri Vidyanikethan HPS Jaragana, Jaragana Halli 1",
        "name:kn": "ಶ್ರೀ ವಿದ್ಯಾನಿಕೆಥನ್ ಹಿರಿಯ ಪ್ರಾಥಮಿಕ ಶಾಲೆ ಜರಗನ ಹಳ್ಳಿ",
        "operator": "Private Un-Aided",
        "school": "Higher Primary"
      }
    },
    {
      "type": "node",
      "id": 6531954352,
      "lat": 12.8991056,
      "lon": 77.5763195,
      "tags": {
        "addr:place": "Jaraganahalli",
        "amenity": "school",
        "isced:level": "2",
        "name": "Vivekananda HPS, Jaragana Halli 1",
        "name:kn": "ವಿವೇಕಾನಂದ ಹಿರಿಯ ಪ್ರಾಥಮಿಕ ಶಾಲೆ,ಜರಗನ ಹಳ್ಳಿ",
        "operator": "Private Un-Aided",
        "school": "Higher Primary"
      }
    },
    {
      "type": "node",
      "id": 6531963628,
      "lat": 12.9040441,
      "lon": 77.574382,
      "tags": {
        "addr:place": "Jaraganahalli",
        "amenity": "school",
        "isced:level": "3",
        "name": "Shreyas School Jaraganahalli, Jaragana Halli 1",
        "name:kn": "ಶ್ರೇಯಸ್ ಶಾಲೆ ಜರಗನ ಹಳ್ಳಿ",
        "operator": "Private Un-Aided",
        "school": "Higher Secondary"
      }
    },
    {
      "type": "node",
      "id": 6536295717,
      "lat": 12.8996164,
      "lon": 77.5756288,
      "tags": {
        "addr:place": "Jaraganahalli",
        "amenity": "school",
        "isced:level": "2",
        "name": "Sincere Vidyalaya Jaraganahalli 1",
        "name:kn": "ಸಿನ್ಸೆರೆ  ವಿದ್ಯಾಲಯ ಜರಗನ ಹಳ್ಳಿ",
        "operator": "Private Un-Aided",
        "school": "Higher Primary"
      }
    },
    {
      "type": "node",
      "id": 6536296413,
      "lat": 12.9004587,
      "lon": 77.5851709,
      "tags": {
        "addr:place": "Jaraganahalli",
        "amenity": "school",
        "isced:level": "3",
        "name": "Image School J P Nagar, Jaraganahalli 2",
        "name:kn": "ಇಮೇಜ್ ಶಾಲೆ ಜೆ.ಪಿ.ನಗರ,ಜರಗನ ಹಳ್ಳಿ",
        "operator": "Private Un-Aided",
        "school": "Higher Secondary"
      }
    },
    {
      "type": "node",
      "id": 6938692472,
      "lat": 12.8919509,
      "lon": 77.5799654,
      "tags": {
        "addr:district": "Bengaluru Urban",
        "addr:full": "No.2, Chandra Complex,J.P.Nagar, 7Th Phase,Puttenahalli,OppositeRbi Cly",
        "addr:postcode": "560078",
        "addr:state": "Karnataka",
        "amenity": "hospital",
        "healthcare": "hospital",
        "name": "Supra South City Hospital",
        "source": "OpenGovernmentData"
      }
    },
    {
      "type": "node",
      "id": 6939068111,
      "lat": 12.8922411,
      "lon": 77.5814514,
      "tags": {
        "addr:district": "Bengaluru Urban",
        "addr:full": "No. 33, Om Tower, Kothnur Main Road, Gaurav Nagar, Jp Nagar, 7Th Phase",
        "addr:postcode": "560078",
        "addr:state": "Karnataka",
        "amenity": "clinic",
        "contact:phone": "06309937245",
        "name": "The Apollo Clinic For Health Check Up",
        "source": "OpenGovernmentData"
      }
    },
    {
      "type": "node",
      "id": 8122589859,
      "lat": 12.8917783,
      "lon": 77.577424,
      "tags": {
        "amenity": "fuel",
        "brand": "Indian Oil",
        "brand:wikidata": "Q1289348",
        "name": "Patel Fuel"
      }
    },
    {
      "type": "node",
      "id": 10685071178,
      "lat": 12.9019561,
      "lon": 77.5857322,
      "tags": {
        "diet:vegetarian": "only",
        "name": "Simpli Namdhari's",
        "organic": "only",
        "shop": "supermarket",
        "website": "https://www.simplinamdharis.com/",
        "wheelchair": "no"
      }
    },
    {
      "type": "node",
      "id": 10687931404,
      "lat": 12.891779,
      "lon": 77.5771096,
      "tags": {
        "addr:street": "Nr Ragvendra Swami Layout",
        "amenity": "fuel",
        "brand": "Shell",
        "brand:wikidata": "Q110716465",
        "fuel:GTL_diesel": "yes",
        "fuel:octane_95": "yes",
        "fuel:octane_98": "yes",
        "name": "Shell Pertol Station",
        "operator": "Shell"
      }
    },
    {
      "type": "node",
      "id": 10889979200,
      "lat": 12.8919852,
      "lon": 77.5802555,
      "tags": {
        "amenity": "fast_food",
        "check_date": "2023-09-17",
        "name": "Bangarpet Chats"
      }
    },
    {
      "type": "node",
      "id": 11015446614,
      "lat": 12.9046821,
      "lon": 77.5819794,
      "tags": {
        "access": "private",
        "amenity": "parking_entrance",
        "parking": "underground"
      }
    },
    {
      "type": "node",
      "id": 11183717719,
      "lat": 12.8920864,
      "lon": 77.5817853,
      "tags": {
        "amenity": "pharmacy",
        "brand": "Wellness Forever",
        "check_date": "2023-09-11",
        "healthcare": "pharmacy",
        "name": "Wellness Forever",
        "opening_hours": "24/7",
        "wheelchair": "limited"
      }
    },
    {
      "type": "node",
      "id": 11196248277,
      "lat": 12.8917341,
      "lon": 77.5775977,
      "tags": {
        "amenity": "pharmacy",
        "check_date": "2023-09-16",
        "healthcare": "pharmacy",
        "name": "Life Care Medicals"
      }
    },
    {
      "type": "node",
      "id": 11196248278,
      "lat": 12.8915279,
      "lon": 77.5776152,
      "tags": {
        "check_date": "2023-09-16",
        "description": "Fruits and Vegetables",
        "name": "Fresho",
        "payment:cash": "yes",
        "payment:mastercard": "yes",
        "payment:upi": "yes",
        "payment:visa": "yes",
        "shop": "supermarket"
      }
    },
    {
      "type": "node",
      "id": 11196248279,
      "lat": 12.8919652,
      "lon": 77.5806493,
      "tags": {
        "amenity": "pharmacy",
        "brand": "MedPlus",
        "brand:wikidata": "Q65684234",
        "check_date": "2023-09-16",
        "healthcare": "pharmacy",
        "name": "MedPlus",
        "payment:mastercard": "yes",
        "payment:visa": "yes"
      }
    },
    {
      "type": "node",
      "id": 11198130054,
      "lat": 12.8919377,
      "lon": 77.580094,
      "tags": {
        "check_date": "2023-09-17",
        "name": "Everfine Supermarket",
        "payment:mastercard": "yes",
        "payment:visa": "yes",
        "shop": "supermarket"
      }
    },
    {
      "type": "node",
      "id": 11198130055,
      "lat": 12.8919781,
      "lon": 77.5804337,
      "tags": {
        "amenity": "ice_cream",
        "check_date": "2023-09-17",
        "name": "ibaco",
        "payment:mastercard": "yes",
        "payment:visa": "yes"
      }
    },
    {
      "type": "node",
      "id": 11205380686,
      "lat": 12.888287,
      "lon": 77.5795047,
      "tags": {
        "amenity": "pharmacy",
        "check_date": "2023-09-20",
        "healthcare": "pharmacy",
        "name": "Hoysala Medical Stores"
      }
    },
    {
      "type": "node",
      "id": 11255169451,
      "lat": 12.8896074,
      "lon": 77.5824523,
      "tags": {
        "check_date": "2023-10-11",
        "name": "Ojas Nisarga",
        "organic": "only",
        "phone": "+91 94498 48632",
        "shop": "supermarket"
      }
    },
    {
      "type": "node",
      "id": 11261890103,
      "lat": 12.8914742,
      "lon": 77.5816905,
      "tags": {
        "check_date": "2023-10-14",
        "name": "Organic Mandya",
        "organic": "only",
        "payment:cash": "yes",
        "payment:mastercard": "yes",
        "payment:upi": "yes",
        "payment:visa": "yes",
        "shop": "supermarket"
      }
    },
    {
      "type": "node",
      "id": 11261890104,
      "lat": 12.8914809,
      "lon": 77.5816776,
      "tags": {
        "check_date": "2023-10-14",
        "name": "Washing Hut",
        "phone": "+91 95383 35522",
        "shop": "laundry"
      }
    },
    {
      "type": "node",
      "id": 11303710697,
      "lat": 12.9060288,
      "lon": 77.5792706,
      "tags": {
        "amenity": "atm",
        "brand": "State Bank of India",
        "brand:wikidata": "Q1340361",
        "operator": "State Bank of India",
        "operator:wikidata": "Q1340361",
        "short_name": "SBI"
      }
    },
    {
      "type": "node",
      "id": 11303716150,
      "lat": 12.9060151,
      "lon": 77.579232,
      "tags": {
        "amenity": "bank",
        "branch": "NRI Branch JP Nagar",
        "brand": "State Bank of India",
        "brand:wikidata": "Q1340361",
        "name": "State Bank of India",
        "name:kn": "ಎಸ್ ಬಿ ಐ",
        "short_name": "SBI"
      }
    },
    {
      "type": "node",
      "id": 11305178269,
      "lat": 12.8932346,
      "lon": 77.5864718,
      "tags": {
        "addr:postcode": "560078",
        "addr:street": "24th Main Road",
        "amenity": "restaurant",
        "cuisine": "barbecue;burger;chinese;curry;deli;friture;indian",
        "name": "Brahma Brews",
        "wheelchair": "limited"
      }
    },
    {
      "type": "node",
      "id": 11341600707,
      "lat": 12.8917413,
      "lon": 77.5790745,
      "tags": {
        "check_date": "2023-11-11",
        "name": "Dry Fruit Gallery",
        "shop": "nuts"
      }
    },
    {
      "type": "node",
      "id": 11341600708,
      "lat": 12.891681,
      "lon": 77.5786041,
      "tags": {
        "check_date": "2023-11-11",
        "name": "Bindass Basket",
        "shop": "supermarket"
      }
    },
    {
      "type": "node",
      "id": 11341600710,
      "lat": 12.8895786,
      "lon": 77.5790231,
      "tags": {
        "check_date": "2023-11-11",
        "leisure": "fitness_centre",
        "name": "Rajyoga Meditation Center",
        "sport": "yoga"
      }
    },
    {
      "type": "node",
      "id": 11342817075,
      "lat": 12.894055,
      "lon": 77.5859173,
      "tags": {
        "access": "private",
        "amenity": "parking_entrance",
        "parking": "underground"
      }
    },
    {
      "type": "node",
      "id": 11799677682,
      "lat": 12.8919593,
      "lon": 77.5834972,
      "tags": {
        "access": "permissive",
        "amenity": "parking_entrance",
        "parking": "underground"
      }
    },
    {
      "type": "node",
      "id": 11799677685,
      "lat": 12.8917881,
      "lon": 77.583915,
      "tags": {
        "amenity": "cafe",
        "name": "Third Wave Coffee Roasters",
        "wheelchair": "limited"
      }
    },
    {
      "type": "node",
      "id": 12033502400,
      "lat": 12.8978992,
      "lon": 77.5859308,
      "tags": {
        "addr:street": "24th Main Road, JP Nagar 6th Phase, Puttenahalli, Bengaluru",
        "amenity": "fast_food",
        "description": "A Nepali street vendor offering Veg & Non-Veg Momos",
        "name": "Kathmandu Momos"
      }
    },
    {
      "type": "node",
      "id": 12102864716,
      "lat": 12.8963113,
      "lon": 77.5810732,
      "tags": {
        "amenity": "pub",
        "name": "The Palms Brew & Kitchen"
      }
    },
    {
      "type": "node",
      "id": 12161544267,
      "lat": 12.9030499,
      "lon": 77.5859107,
      "tags": {
        "amenity": "restaurant",
        "brand": "Restaurante Popular",
        "level": "0",
        "name": "Samskruthi Sathkara",
        "wheelchair": "limited"
      }
    },
    {
      "type": "node",
      "id": 12171236647,
      "lat": 12.9032735,
      "lon": 77.5737196,
      "tags": {
        "description": "Water filter and other consumables",
        "name": "Aqua World",
        "shop": "appliance"
      }
    },
    {
      "type": "node",
      "id": 12206369021,
      "lat": 12.8962804,
      "lon": 77.571013,
      "tags": {
        "name": "Zudio",
        "shop": "clothes"
      }
    },
    {
      "type": "node",
      "id": 12522542151,
      "lat": 12.8975646,
      "lon": 77.5858239,
      "tags": {
        "addr:city": "Bangalore",
        "addr:housenumber": "44/45",
        "addr:postcode": "560078",
        "addr:street": "24th Main Rd, Ramaiah Garden, JP Nagar 7th Phase, J. P. Nagar",
        "name": "Sana Super Mart",
        "shop": "supermarket",
        "wheelchair": "limited"
      }
    },
    {
      "type": "node",
      "id": 12553373583,
      "lat": 12.8914399,
      "lon": 77.577242,
      "tags": {
        "addr:city": "Bengaluru",
        "addr:district": "Bengaluru Urban",
        "addr:full": "720 opp Shell Service Station RBI Layout Chunchgatta Main Road Kothnur, JP Nagar 7th Phase",
        "addr:postcode": "560078",
        "addr:street": "Chunchagatta Main Road",
        "beauty": "spa;massage",
        "name": "Dhara Spa JP Nagar",
        "opening_hours": "Mo-Su 10:30-21:00",
        "operator": "Mr. Ajith",
        "phone": "08618560995",
        "shop": "beauty",
        "website": "https://dharaspa.com/spa-in-jp-nagar/"
      }
    },
    {
      "type": "node",
      "id": 12631801632,
      "lat": 12.8895956,
      "lon": 77.5817507,
      "tags": {
        "addr:city": "Bengaluru",
        "addr:district": "Bengaluru Urban",
        "addr:housenumber": "473",
        "addr:postcode": "560078",
        "addr:street": "Kothnur Main Road, Second Floor, Swathi Towers, Near Dominos Pizza and Bank of Baroda",
        "amenity": "restaurant",
        "cuisine": "south_indian",
        "delivery": "yes",
        "diet:pure_veg": "yes",
        "name": "The Kadubu Canteen",
        "opening_hours": "We-Mo 07:00-11:00",
        "phone": "+919840084449",
        "takeaway": "only",
        "website": "https://kadubucanteen.in"
      }
    },
    {
      "type": "node",
      "id": 12828276462,
      "lat": 12.9061539,
      "lon": 77.5802618,
      "tags": {
        "check_date": "2023-11-01",
        "shop": "electronics"
      }
    },
    {
      "type": "node",
      "id": 12862846461,
      "lat": 12.9020393,
      "lon": 77.5856761,
      "tags": {
        "amenity": "fast_food",
        "cuisine": "burger",
        "delivery": "yes",
        "name": "Easy Bites by Empire",
        "takeaway": "yes"
      }
    },
    {
      "type": "node",
      "id": 12862846473,
      "lat": 12.8934013,
      "lon": 77.5862037,
      "tags": {
        "amenity": "fast_food",
        "contact:instagram": "goodflippin",
        "cuisine": "burger",
        "delivery": "yes",
        "name": "Good Flippin' Burgers",
        "takeaway": "yes",
        "website": "https://goodflippin.com/"
      }
    },
    {
      "type": "node",
      "id": 13130809622,
      "lat": 12.9007691,
      "lon": 77.5737005,
      "tags": {
        "addr:city": "Bengaluru",
        "addr:district": "Bengaluru Urban",
        "addr:housenumber": "146",
        "addr:postcode": "560078",
        "addr:street": "Kanakapura Road",
        "name": "Sri Lakshmi Auto Electrical and Battery Works",
        "shop": "car_repair"
      }
    },
    {
      "type": "node",
      "id": 13131134797,
      "lat": 12.8979821,
      "lon": 77.5859322,
      "tags": {
        "amenity": "fast_food",
        "cuisine": "indian",
        "name": "Babu Vada Pav"
      }
    },
    {
      "type": "node",
      "id": 13168786893,
      "lat": 12.9010005,
      "lon": 77.5857148,
      "tags": {
        "amenity": "restaurant",
        "bar": "yes",
        "contact:instagram": "jewel.sizzle",
        "name": "Jewel Sizzle",
        "website": "https://www.jewelsizzle.in/",
        "wheelchair": "no"
      }
    },
    {
      "type": "node",
      "id": 13180138045,
      "lat": 12.8962447,
      "lon": 77.5709505,
      "tags": {
        "name": "Star Bazar",
        "shop": "department_store"
      }
    },
    {
      "type": "node",
      "id": 13288585472,
      "lat": 12.8980466,
      "lon": 77.585608,
      "tags": {
        "amenity": "fast_food",
        "delivery": "only",
        "name": "Kreid Ko",
        "takeaway": "only"
      }
    },
    {
      "type": "way",
      "id": 177266968,
      "center": {
        "lat": 12.8889766,
        "lon": 77.5784217
      },
      "tags": {
        "leisure": "park",
        "name": "BBMP Park",
        "name:kn": "ಬೃ. ಬೆ. ಮ. ಪಾ. ಉದ್ಯಾನವನ",
        "operator": "ಬೃಹತ್ ಬೆಂಗಳೂರು ಮಹಾನಗರ ಪಾಲಿಕೆ",
        "operator:en": "Bruhat Bengaluru Mahanagara Palike",
        "operator:ka": "ಬೃಹತ್ ಬೆಂಗಳೂರು ಮಹಾನಗರ ಪಾಲಿಕೆ",
        "operator:short": "BBMP",
        "operator:type": "government",
        "operator:wikidata": "Q4978693",
        "source": "Bing, local knowledge"
      }
    },
    {
      "type": "way",
      "id": 182218210,
      "center": {
        "lat": 12.88884,
        "lon": 77.5807644
      },
      "tags": {
        "landuse": "recreation_ground",
        "leisure": "pitch",
        "name": "RBI Layout Grounds"
      }
    },
    {
      "type": "way",
      "id": 184457975,
      "center": {
        "lat": 12.8909522,
        "lon": 77.5802609
      },
      "tags": {
        "leisure": "park"
      }
    },
    {
      "type": "way",
      "id": 206841897,
      "center": {
        "lat": 12.8975086,
        "lon": 77.5820337
      },
      "tags": {
        "amenity": "school"
      }
    },
    {
      "type": "way",
      "id": 262072817,
      "center": {
        "lat": 12.9052976,
        "lon": 77.5810468
      },
      "tags": {
        "leisure": "park"
      }
    },
    {
      "type": "way",
      "id": 262072818,
      "center": {
        "lat": 12.9050716,
        "lon": 77.5810481
      },
      "tags": {
        "amenity": "place_of_worship",
        "building": "yes",
        "denomination": "Shiva,Ayyappan",
        "religion": "hindu"
      }
    },
    {
      "type": "way",
      "id": 334633597,
      "center": {
        "lat": 12.9023029,
        "lon": 77.5825752
      },
      "tags": {
        "addr:city": "Bengaluru",
        "addr:housenumber": "132",
        "addr:postcode": "560078",
        "addr:street": "Puttenahalli Rd, KR Layout, JP Nagar Phase 6, J. P. Nagar",
        "amenity": "place_of_worship",
        "landuse": "religious",
        "name": "Shri Ganesha Devasthana Mattu Saibaba Devasthana",
        "religion": "hindu"
      }
    },
    {
      "type": "way",
      "id": 334647969,
      "center": {
        "lat": 12.900453,
        "lon": 77.5725322
      },
      "tags": {
        "landuse": "recreation_ground",
        "leisure": "pitch"
      }
    },
    {
      "type": "way",
      "id": 347604056,
      "center": {
        "lat": 12.8926302,
        "lon": 77.5865551
      },
      "tags": {
        "building": "yes",
        "name": "New Mangalore Stores",
        "shop": "convenience"
      }
    },
    {
      "type": "way",
      "id": 439843203,
      "center": {
        "lat": 12.891643,
        "lon": 77.5843737
      },
      "tags": {
        "leisure": "park",
        "wheelchair": "limited"
      }
    },
    {
      "type": "way",
      "id": 439843207,
      "center": {
        "lat": 12.8917097,
        "lon": 77.5835354
      },
      "tags": {
        "amenity": "theatre",
        "check_date": "2024-04-06",
        "name": "Centre for Indian Music Experience",
        "theatre:genre": "musical",
        "wheelchair": "yes"
      }
    },
    {
      "type": "way",
      "id": 439843209,
      "center": {
        "lat": 12.8915907,
        "lon": 77.5851783
      },
      "tags": {
        "amenity": "events_venue",
        "check_date": "2023-04-08",
        "landuse": "commercial",
        "name": "MLR Convention Centre",
        "wheelchair": "limited"
      }
    },
    {
      "type": "way",
      "id": 439843210,
      "center": {
        "lat": 12.8923091,
        "lon": 77.5853171
      },
      "tags": {
        "amenity": "school",
        "name": "The Brigade School",
        "website": "https://www.brigadeschools.edu.in/",
        "wheelchair": "yes"
      }
    },
    {
      "type": "way",
      "id": 439843212,
      "center": {
        "lat": 12.8925366,
        "lon": 77.5834971
      },
      "tags": {
        "leisure": "swimming_pool",
        "name": "Woodrose Club",
        "wheelchair": "yes"
      }
    },
    {
      "type": "way",
      "id": 439843213,
      "center": {
        "lat": 12.8925228,
        "lon": 77.5839176
      },
      "tags": {
        "leisure": "sports_centre",
        "name": "Woodrose Club"
      }
    },
    {
      "type": "way",
      "id": 466642967,
      "center": {
        "lat": 12.9028846,
        "lon": 77.5755502
      },
      "tags": {
        "barrier": "fence",
        "leisure": "park",
        "name": "Jaraganahalli Park",
        "name:kn": "ಜರಗನಹಳ್ಳಿ ಉದ್ಯಾನವನ",
        "name:ta": "ஜரகனஹல்லி பூங்கா"
      }
    },
    {
      "type": "way",
      "id": 646422860,
      "center": {
        "lat": 12.9002738,
        "lon": 77.586036
      },
      "tags": {
        "addr:city": "Bangalore",
        "addr:postcode": "560078",
        "addr:street": "18th Cross Road",
        "building": "yes",
        "leisure": "fitness_centre",
        "name": "We Fitness and Health Center"
      }
    },
    {
      "type": "way",
      "id": 646663790,
      "center": {
        "lat": 12.8999451,
        "lon": 77.5855117
      },
      "tags": {
        "addr:city": "Bangalore",
        "addr:postcode": "560078",
        "addr:street": "24th Main Road",
        "amenity": "school",
        "name": "Royal High School"
      }
    },
    {
      "type": "way",
      "id": 658687560,
      "center": {
        "lat": 12.9058886,
        "lon": 77.5800176
      },
      "tags": {
        "amenity": "clinic",
        "healthcare": "doctor",
        "healthcare:speciality": "gynaecology",
        "name": "Janani Clinic",
        "operator": "Dr. Radha"
      }
    },
    {
      "type": "way",
      "id": 677277511,
      "center": {
        "lat": 12.897561,
        "lon": 77.5857742
      },
      "tags": {
        "addr:city": "Bangalore",
        "addr:district": "24th Main Rd, next to Sobha Tulip Apartments, Ramaiah Garden, JP Nagar 7th Phase, J. P. Nagar, Bengaluru, Karnataka",
        "addr:postcode": "560078",
        "addr:street": "24th Main Road",
        "building": "yes",
        "name": "E.N.Rao Plaza",
        "shop": "supermarket"
      }
    },
    {
      "type": "way",
      "id": 699270596,
      "center": {
        "lat": 12.8904843,
        "lon": 77.5859984
      },
      "tags": {
        "amenity": "parking"
      }
    },
    {
      "type": "way",
      "id": 699270597,
      "center": {
        "lat": 12.8910018,
        "lon": 77.585307
      },
      "tags": {
        "amenity": "events_venue",
        "landuse": "commercial",
        "name": "Samskruthi Brindavan Convention Centre",
        "website": "https://samskruthibrindavan.com/"
      }
    },
    {
      "type": "way",
      "id": 699270601,
      "center": {
        "lat": 12.8923911,
        "lon": 77.5849061
      },
      "tags": {
        "leisure": "track"
      }
    },
    {
      "type": "way",
      "id": 699270602,
      "center": {
        "lat": 12.8926928,
        "lon": 77.5837649
      },
      "tags": {
        "leisure": "pitch"
      }
    },
    {
      "type": "way",
      "id": 699270603,
      "center": {
        "lat": 12.8923838,
        "lon": 77.5845645
      },
      "tags": {
        "leisure": "pitch",
        "sport": "basketball"
      }
    },
    {
      "type": "way",
      "id": 699270606,
      "center": {
        "lat": 12.8924953,
        "lon": 77.5872933
      },
      "tags": {
        "amenity": "school",
        "wheelchair": "yes"
      }
    },
    {
      "type": "way",
      "id": 700738307,
      "center": {
        "lat": 12.8944202,
        "lon": 77.5771955
      },
      "tags": {
        "access": "residents",
        "leisure": "pitch",
        "name": "BPhase Basketball Court",
        "sport": "basketball",
        "surface": "concrete"
      }
    },
    {
      "type": "way",
      "id": 705294039,
      "center": {
        "lat": 12.8950396,
        "lon": 77.5767864
      },
      "tags": {
        "access": "private",
        "leisure": "swimming_pool",
        "lit": "yes",
        "location": "outdoor",
        "name": "Elita Wading Pool",
        "salt": "no"
      }
    },
    {
      "type": "way",
      "id": 705294093,
      "center": {
        "lat": 12.8947814,
        "lon": 77.577033
      },
      "tags": {
        "addr:city": "BANGALORE",
        "addr:postcode": "560068",
        "leisure": "park",
        "name": "B Phase Park 1",
        "opening_hours": "sunrise-sunset",
        "operator": "Elita Promenade"
      }
    },
    {
      "type": "way",
      "id": 705294094,
      "center": {
        "lat": 12.8947967,
        "lon": 77.5762675
      },
      "tags": {
        "addr:city": "BANGALORE",
        "addr:postcode": "560068",
        "leisure": "park",
        "name": "B Phase Park 2",
        "opening_hours": "sunrise-sunset",
        "operator": "Elita Promenade"
      }
    },
    {
      "type": "way",
      "id": 759837010,
      "center": {
        "lat": 12.8937593,
        "lon": 77.5814431
      },
      "tags": {
        "access": "customers",
        "amenity": "parking",
        "fee": "no",
        "operator": "Elaan Convention Centre",
        "operator:type": "private",
        "parking": "surface",
        "surface": "dirt"
      }
    },
    {
      "type": "way",
      "id": 777287806,
      "center": {
        "lat": 12.8933586,
        "lon": 77.586082
      },
      "tags": {
        "amenity": "restaurant",
        "building": "yes",
        "name": "kitches@ JP Nagar",
        "website": "https://kitchens-at.com/kitchens-at/"
      }
    },
    {
      "type": "way",
      "id": 817302688,
      "center": {
        "lat": 12.896001,
        "lon": 77.5805193
      },
      "tags": {
        "leisure": "park"
      }
    },
    {
      "type": "way",
      "id": 817302689,
      "center": {
        "lat": 12.8958822,
        "lon": 77.5806477
      },
      "tags": {
        "leisure": "park"
      }
    },
    {
      "type": "way",
      "id": 817416250,
      "center": {
        "lat": 12.8968307,
        "lon": 77.5796261
      },
      "tags": {
        "amenity": "place_of_worship",
        "name": "Vinayaka Temple",
        "name:kn": "ವಿನಾಯಕ ದೇವಸ್ಥಾನ",
        "religion": "hindu"
      }
    },
    {
      "type": "way",
      "id": 817423820,
      "center": {
        "lat": 12.896926,
        "lon": 77.5797127
      },
      "tags": {
        "amenity": "place_of_worship",
        "name": "Angalaparameshwari Temple",
        "name:kn": "ಅಂಗಾಲಪರಮೇಶ್ವರಿ ದೇವಸ್ಥಾನ",
        "religion": "hindu"
      }
    },
    {
      "type": "way",
      "id": 1044433695,
      "center": {
        "lat": 12.8931598,
        "lon": 77.5815418
      },
      "tags": {
        "addr:city": "JP Nagar 7th Phase, Bengaluru",
        "addr:postcode": "560078",
        "addr:street": "18th Main Road",
        "building": "yes",
        "name": "Li-Ning Superstore",
        "opening_hours": "Mo-Su 09:00-21:00",
        "payment:cash": "yes",
        "payment:credit_cards": "yes",
        "payment:debit_cards": "yes",
        "payment:upi": "yes",
        "shop": "sports",
        "sport": "badminton"
      }
    },
    {
      "type": "way",
      "id": 1137982234,
      "center": {
        "lat": 12.900122,
        "lon": 77.5733646
      },
      "tags": {
        "addr:place": "Jaraganahalli",
        "amenity": "school",
        "isced:level": "2",
        "name": "GMPS Jaraganahalli",
        "name:kn": "ಸರ್ಕಾರಿ ಮರಾಠ ಹಿರಿಯ ಪ್ರಾಥಮಿಕ ಶಾಲೆ ಜರಗನಹಳ್ಳಿ",
        "operator": "Department of Education",
        "school": "primary"
      }
    },
    {
      "type": "way",
      "id": 1270788423,
      "center": {
        "lat": 12.8983062,
        "lon": 77.5778787
      },
      "tags": {
        "leisure": "park"
      }
    },
    {
      "type": "way",
      "id": 1270788435,
      "center": {
        "lat": 12.9002593,
        "lon": 77.5717324
      },
      "tags": {
        "amenity": "school",
        "name": "Narayana e-Techno School"
      }
    },
    {
      "type": "way",
      "id": 1337309972,
      "center": {
        "lat": 12.8954466,
        "lon": 77.5783762
      },
      "tags": {
        "landuse": "commercial",
        "leisure": "sports_centre"
      }
    },
    {
      "type": "way",
      "id": 1352350871,
      "center": {
        "lat": 12.8971346,
        "lon": 77.5705733
      },
      "tags": {
        "amenity": "fuel"
      }
    },
    {
      "type": "way",
      "id": 1361893659,
      "center": {
        "lat": 12.9037586,
        "lon": 77.5807186
      },
      "tags": {
        "amenity": "theatre",
        "landuse": "commercial",
        "name": "Siddhalingeswara Theatre",
        "name:kn": "ಸಿದ್ದಲಿಂಗೇಶ್ವರ ತಿಯಟರ್"
      }
    },
    {
      "type": "way",
      "id": 1361893660,
      "center": {
        "lat": 12.9038236,
        "lon": 77.5804227
      },
      "tags": {
        "addr:street": "33 Main Road",
        "amenity": "theatre",
        "landuse": "commercial",
        "name": "Siddheswara Theatre",
        "name:kn": "ಸಿದ್ದೇಶ್ವರ"
      }
    },
    {
      "type": "way",
      "id": 1361893709,
      "center": {
        "lat": 12.9052591,
        "lon": 77.5799249
      },
      "tags": {
        "amenity": "school",
        "name": "Frank Public School",
        "name:kn": "ಫ್ರಾಂಕ್ ಪಬ್ಲಿಕ್ ಶಾಲೆ"
      }
    },
    {
      "type": "way",
      "id": 1361929851,
      "center": {
        "lat": 12.9053078,
        "lon": 77.5824875
      },
      "tags": {
        "leisure": "pitch",
        "name": "\\",
        "sport": "tennis"
      }
    },
    {
      "type": "way",
      "id": 1424148410,
      "center": {
        "lat": 12.8940765,
        "lon": 77.5795611
      },
      "tags": {
        "access": "private",
        "leisure": "swimming_pool"
      }
    },
    {
      "type": "way",
      "id": 1424148411,
      "center": {
        "lat": 12.894001,
        "lon": 77.5801113
      },
      "tags": {
        "access": "private",
        "leisure": "pitch"
      }
    },
    {
      "type": "way",
      "id": 1424148412,
      "center": {
        "lat": 12.8926948,
        "lon": 77.580351
      },
      "tags": {
        "access": "private",
        "leisure": "pitch",
        "sport": "tennis"
      }
    },
    {
      "type": "way",
      "id": 1424148415,
      "center": {
        "lat": 12.8957295,
        "lon": 77.5774266
      },
      "tags": {
        "access": "private",
        "amenity": "parking",
        "parking": "street_side"
      }
    },
    {
      "type": "way",
      "id": 1424148417,
      "center": {
        "lat": 12.8943168,
        "lon": 77.5762315
      },
      "tags": {
        "leisure": "pitch",
        "sport": "soccer"
      }
    },
    {
      "type": "way",
      "id": 1426267753,
      "center": {
        "lat": 12.8940312,
        "lon": 77.5865115
      },
      "tags": {
        "access": "customers",
        "amenity": "parking",
        "parking": "surface"
      }
    },
    {
      "type": "way",
      "id": 1426267758,
      "center": {
        "lat": 12.8949082,
        "lon": 77.5857347
      },
      "tags": {
        "access": "private",
        "leisure": "swimming_pool"
      }
    },
    {
      "type": "way",
      "id": 1426267762,
      "center": {
        "lat": 12.9020464,
        "lon": 77.5788303
      },
      "tags": {
        "amenity": "place_of_worship",
        "building": "yes",
        "religion": "hindu"
      }
    },
    {
      "type": "way",
      "id": 1426267766,
      "center": {
        "lat": 12.9018876,
        "lon": 77.5810495
      },
      "tags": {
        "amenity": "theatre",
        "name": "Amphitheatre",
        "theatre:type": "amphi"
      }
    },
    {
      "type": "way",
      "id": 1428268204,
      "center": {
        "lat": 12.9013783,
        "lon": 77.5741397
      },
      "tags": {
        "leisure": "garden"
      }
    },
    {
      "type": "way",
      "id": 1428268205,
      "center": {
        "lat": 12.9013756,
        "lon": 77.5740871
      },
      "tags": {
        "access": "private",
        "leisure": "swimming_pool"
      }
    },
    {
      "type": "way",
      "id": 1434002507,
      "center": {
        "lat": 12.8965526,
        "lon": 77.5710357
      },
      "tags": {
        "amenity": "fuel",
        "brand": "Indian Oil",
        "brand:wikidata": "Q1289348",
        "name": "Indian Oil"
      }
    }
  ]
}