{
  "area_name": "Rashad Nagar",
  "osm_id": 11148749657,
  "osm_type": "node",
  "place_type": "neighbourhood",
  "amenity_count": 50,
  "amenities": [
    {
      "type": "node",
      "id": 1370777376,
      "lat": 13.0317411,
      "lon": 77.611461,
      "tags": {
        "amenity": "atm",
        "fee": "SBM ATM"
      }
    },
    {
      "type": "node",
      "id": 1370777380,
      "lat": 13.0318378,
      "lon": 77.6124561,
      "tags": {
        "amenity": "bench",
        "designation": "BDA Park"
      }
    },
    {
      "type": "node",
      "id": 1474875685,
      "lat": 13.0248621,
      "lon": 77.6139585,
      "tags": {
        "amenity": "hospital",
        "emergency": "yes",
        "name": "Dr. Ambedkar Medical College Hospital",
        "name:kn": "ಅಂಬೇಡ್ಕರ್ ವೈದ್ಯಕೀಯ ಕಾಲೇಜು ಆಸ್ಪತ್ರೆ"
      }
    },
    {
      "type": "node",
      "id": 2129248997,
      "lat": 13.0304655,
      "lon": 77.6088898,
      "tags": {
        "amenity": "place_of_worship",
        "name": "Varasiddi Vinayaka Temple",
        "name:kn": "ವರಸಿದ್ಧಿ ವಿನಾಯಕ ದೇವಸ್ಥಾನ",
        "religion": "hindu",
        "wheelchair": "limited"
      }
    },
    {
      "type": "node",
      "id": 4448081793,
      "lat": 13.0240558,
      "lon": 77.6240521,
      "tags": {
        "addr:city": "Bangalore",
        "addr:postcode": "560052",
        "addr:street": "Jain Hospital, Millers Road, Vasanth Nagar, Vasanth Nagar",
        "amenity": "pharmacy",
        "name": "Banglore Lions Service Blood Bank",
        "phone": "080 2226 6807",
        "source": "http://www.bangalorean.co.in/"
      }
    },
    {
      "type": "node",
      "id": 4487320839,
      "lat": 13.0258719,
      "lon": 77.6265766,
      "tags": {
        "addr:city": "Bangalore",
        "addr:housenumber": "669/J, 1st Main",
        "addr:postcode": "560043",
        "addr:street": "H B R Layout, 3rd Block",
        "name": "Rakhra The sports store",
        "phone": "080 2544 3232",
        "shop": "sports"
      }
    },
    {
      "type": "node",
      "id": 4887964023,
      "lat": 13.0204879,
      "lon": 77.6186105,
      "tags": {
        "amenity": "place_of_worship",
        "name": "Masjid Noor ur Rahman",
        "name:en": "Masjid Noor ur Rahman",
        "religion": "muslim",
        "wheelchair": "yes"
      }
    },
    {
      "type": "node",
      "id": 6886594828,
      "lat": 13.0250774,
      "lon": 77.6140174,
      "tags": {
        "addr:city": "Bengaluru",
        "addr:district": "BENGALURU URBAN",
        "addr:full": "K. G. Halli, Bengaluru",
        "addr:postcode": "560045",
        "addr:state": "Karnataka",
        "amenity": "blood_bank",
        "contact:mobile": "9980155789",
        "contact:phone": "8025463442",
        "name": "Dr. B. R. Ambedkar Medical College Hospital Blood Bank",
        "opening_hours": "24/7",
        "operator:type": "private",
        "source": "OpenGovernmentData",
        "website": "https://www.bramc.org/"
      }
    },
    {
      "type": "node",
      "id": 6939074293,
      "lat": 13.0218188,
      "lon": 77.613084,
      "tags": {
        "addr:district": "Bengaluru Urban",
        "addr:full": "Kadugondanahalli",
        "addr:postcode": "560045",
        "addr:state": "Karnataka",
        "amenity": "hospital",
        "email": "drbramc@rediffmail.com",
        "healthcare:speciality": "multi speciality",
        "name": "Dr Ambedkar Medical College Hospital",
        "operator:type": "private",
        "source": "OpenGovernmentData",
        "website": "http://www.bramc.org/"
      }
    },
    {
      "type": "node",
      "id": 6948659616,
      "lat": 13.0269276,
      "lon": 77.6227882,
      "tags": {
        "addr:district": "Bengaluru Urban",
        "addr:full": "Lmc 1210 &1211 ,1st Main, 1st Stage, 3Road Block Hbr Layout",
        "addr:postcode": "560001",
        "addr:state": "Karnataka",
        "amenity": "hospital",
        "name": "Avian Medicare and Research Centre",
        "source": "OpenGovernmentData",
        "wheelchair": "yes"
      }
    },
    {
      "type": "node",
      "id": 6950412307,
      "lat": 13.0236062,
      "lon": 77.6196139,
      "tags": {
        "addr:district": "Bengaluru Urban",
        "addr:full": "5, Arabic College Main Road, Banglore",
        "addr:postcode": "560045",
        "addr:state": "Karnataka",
        "amenity": "hospital",
        "name": "Al- Habeeb Hospital",
        "source": "OpenGovernmentData"
      }
    },
    {
      "type": "node",
      "id": 7577248274,
      "lat": 13.0316687,
      "lon": 77.6230459,
      "tags": {
        "addr:district": "Bengaluru Urban",
        "addr:full": "HBR Layout, Bengaluru",
        "addr:postcode": "560043",
        "addr:state": "Karnataka",
        "amenity": "clinic",
        "name": "Jawad ENT Clinic",
        "source": "Local Knowledge"
      }
    },
    {
      "type": "node",
      "id": 7577248277,
      "lat": 13.029101,
      "lon": 77.620568,
      "tags": {
        "addr:district": "Bengaluru Urban",
        "addr:full": "Kadugondanahalli, Bengaluru",
        "addr:postcode": "560045",
        "addr:state": "Karnataka",
        "amenity": "hospital",
        "name": "Pranam Dental Hospital",
        "source": "Local Knowledge"
      }
    },
    {
      "type": "node",
      "id": 11067397943,
      "lat": 13.0262617,
      "lon": 77.6257895,
      "tags": {
        "addr:full": "1st Main Road, HBR layout",
        "addr:street": "1st Main Road",
        "amenity": "drinking_water",
        "name": "Government Water ATM"
      }
    },
    {
      "type": "node",
      "id": 11119054532,
      "lat": 13.0321371,
      "lon": 77.6102366,
      "tags": {
        "male": "yes",
        "name": "Flamingo Men's Salon",
        "shop": "hairdresser"
      }
    },
    {
      "type": "node",
      "id": 11119054553,
      "lat": 13.0320869,
      "lon": 77.6103477,
      "tags": {
        "name": "Inaya Interiors",
        "shop": "interior_decoration"
      }
    },
    {
      "type": "node",
      "id": 11119054568,
      "lat": 13.0314636,
      "lon": 77.609802,
      "tags": {
        "male": "yes",
        "name": "D-1 Mens Salon",
        "shop": "hairdresser"
      }
    },
    {
      "type": "node",
      "id": 11119054573,
      "lat": 13.0319851,
      "lon": 77.6096682,
      "tags": {
        "amenity": "childcare",
        "name": "Smiling Kangaroo Preschool and Daycare"
      }
    },
    {
      "type": "node",
      "id": 11476052446,
      "lat": 13.0231966,
      "lon": 77.6251359,
      "tags": {
        "amenity": "fast_food",
        "contact:instagram": "turkeyemek_blr",
        "cuisine": "turkish",
        "delivery": "yes",
        "name": "Turkeyemek",
        "takeaway": "only",
        "website": "https://turkeyemek.com/"
      }
    },
    {
      "type": "node",
      "id": 12265548261,
      "lat": 13.0263586,
      "lon": 77.620118,
      "tags": {
        "name": "KH Traders",
        "shop": "hardware"
      }
    },
    {
      "type": "node",
      "id": 12265558564,
      "lat": 13.0313563,
      "lon": 77.6209401,
      "tags": {
        "amenity": "school",
        "fixme": "location",
        "name": "St. Frazer High School"
      }
    },
    {
      "type": "node",
      "id": 12265567522,
      "lat": 13.0213579,
      "lon": 77.6189985,
      "tags": {
        "amenity": "place_of_worship",
        "religion": "hindu"
      }
    },
    {
      "type": "node",
      "id": 12265573536,
      "lat": 13.0322329,
      "lon": 77.6216892,
      "tags": {
        "name": "Nova Gold Covering",
        "shop": "jewelry"
      }
    },
    {
      "type": "node",
      "id": 12265573693,
      "lat": 13.0282177,
      "lon": 77.6207124,
      "tags": {
        "amenity": "fuel",
        "name": "Gas Plus"
      }
    },
    {
      "type": "node",
      "id": 12265574592,
      "lat": 13.0227436,
      "lon": 77.6194946,
      "tags": {
        "amenity": "events_venue",
        "name": "Amir Hall"
      }
    },
    {
      "type": "node",
      "id": 12265584625,
      "lat": 13.0348006,
      "lon": 77.6230232,
      "tags": {
        "name": "Uni Gas",
        "shop": "fuel"
      }
    },
    {
      "type": "node",
      "id": 12265584884,
      "lat": 13.0249894,
      "lon": 77.6198504,
      "tags": {
        "amenity": "events_venue",
        "name": "CRA Convention Hall"
      }
    },
    {
      "type": "node",
      "id": 12265592079,
      "lat": 13.0230689,
      "lon": 77.619348,
      "tags": {
        "amenity": "pharmacy",
        "name": "Koya Pharma"
      }
    },
    {
      "type": "way",
      "id": 37692459,
      "center": {
        "lat": 13.0352768,
        "lon": 77.6264044
      },
      "tags": {
        "boundary": "protected_area",
        "leisure": "nature_reserve",
        "name": "Hennur Biodiversity Park",
        "name:kn": "ಹೆಣ್ಣೂರು ಕೆರೆ ಜೀವ ವೈವಿಧ್ಯ ವನ",
        "natural": "wood"
      }
    },
    {
      "type": "way",
      "id": 175876882,
      "center": {
        "lat": 13.0241073,
        "lon": 77.6148515
      },
      "tags": {
        "addr:postcode": "560045",
        "alt_name": "Ambedkar Medical College",
        "amenity": "college",
        "landuse": "education",
        "name": "Dr. Ambedkar Medical College",
        "name:etymology:wikidata": "Q231690",
        "name:kn": "ಅಂಬೇಡ್ಕರ್ ವೈದ್ಯಕೀಯ ಕಾಲೇಜು"
      }
    },
    {
      "type": "way",
      "id": 183863413,
      "center": {
        "lat": 13.0304973,
        "lon": 77.6223395
      },
      "tags": {
        "addr:street": "Nagawara Main Road",
        "amenity": "college",
        "name": "Darul Uloom Sabeelur Rashad Arabic College"
      }
    },
    {
      "type": "way",
      "id": 184943581,
      "center": {
        "lat": 13.0362002,
        "lon": 77.619781
      },
      "tags": {
        "amenity": "college",
        "landuse": "education",
        "name": "HKBK College of Engineering",
        "name:kn": "ಎಚ್ ಕೆ ಬಿ ಕೆ ಇಂಜಿನಿಯರಿಂಗ್ ಕಾಲೇಜು",
        "wheelchair": "yes"
      }
    },
    {
      "type": "way",
      "id": 346726965,
      "center": {
        "lat": 13.0350694,
        "lon": 77.6198957
      },
      "tags": {
        "amenity": "restaurant",
        "building": "yes",
        "name": "HKBK Hostel Mess"
      }
    },
    {
      "type": "way",
      "id": 362936827,
      "center": {
        "lat": 13.027242,
        "lon": 77.6274388
      },
      "tags": {
        "leisure": "park",
        "name": "BBMP Park",
        "name:kn": "ಬೃ ಬೆಂ ಮ ಪಾ ಉದ್ಯಾನವನ"
      }
    },
    {
      "type": "way",
      "id": 389989913,
      "center": {
        "lat": 13.0218947,
        "lon": 77.6128718
      },
      "tags": {
        "amenity": "parking_space"
      }
    },
    {
      "type": "way",
      "id": 1034261996,
      "center": {
        "lat": 13.0318789,
        "lon": 77.6126193
      },
      "tags": {
        "leisure": "park"
      }
    },
    {
      "type": "way",
      "id": 1202598188,
      "center": {
        "lat": 13.0286366,
        "lon": 77.6083318
      },
      "tags": {
        "access": "private",
        "leisure": "park"
      }
    },
    {
      "type": "way",
      "id": 1202598190,
      "center": {
        "lat": 13.0279258,
        "lon": 77.6093161
      },
      "tags": {
        "amenity": "place_of_worship",
        "religion": "hindu"
      }
    },
    {
      "type": "way",
      "id": 1202598201,
      "center": {
        "lat": 13.0245659,
        "lon": 77.6190841
      },
      "tags": {
        "amenity": "events_venue",
        "landuse": "commercial",
        "name": "CMA Grand Convention & Wedding Hall"
      }
    },
    {
      "type": "way",
      "id": 1202598203,
      "center": {
        "lat": 13.0210609,
        "lon": 77.618726
      },
      "tags": {
        "amenity": "clinic",
        "name": "UPHC",
        "name:kn": "ಗ್ರಾಮಾಂತರ ಪ್ರಾಥಮಿಕ ಆರೋಗ್ಯ ಕೇಂದ್ರ",
        "operator": "BBMP"
      }
    },
    {
      "type": "way",
      "id": 1250240872,
      "center": {
        "lat": 13.0264657,
        "lon": 77.6257005
      },
      "tags": {
        "leisure": "park",
        "wheelchair": "yes"
      }
    },
    {
      "type": "way",
      "id": 1250240873,
      "center": {
        "lat": 13.0250122,
        "lon": 77.6261852
      },
      "tags": {
        "leisure": "park",
        "name": "2nd Block Park"
      }
    },
    {
      "type": "way",
      "id": 1262435451,
      "center": {
        "lat": 13.0357385,
        "lon": 77.620272
      },
      "tags": {
        "access": "students",
        "leisure": "pitch",
        "lit": "yes",
        "name": "HKBK basketball court",
        "sport": "basketball"
      }
    },
    {
      "type": "way",
      "id": 1262437141,
      "center": {
        "lat": 13.0352341,
        "lon": 77.6200897
      },
      "tags": {
        "amenity": "restaurant",
        "building": "yes",
        "name": "HKBK Mess"
      }
    },
    {
      "type": "way",
      "id": 1262437142,
      "center": {
        "lat": 13.0369675,
        "lon": 77.6197695
      },
      "tags": {
        "amenity": "restaurant",
        "building": "yes",
        "name": "HKBK canteen"
      }
    },
    {
      "type": "way",
      "id": 1385496251,
      "center": {
        "lat": 13.0283296,
        "lon": 77.6102895
      },
      "tags": {
        "amenity": "school"
      }
    },
    {
      "type": "way",
      "id": 1387155259,
      "center": {
        "lat": 13.0309571,
        "lon": 77.6096233
      },
      "tags": {
        "access": "private",
        "leisure": "swimming_pool"
      }
    },
    {
      "type": "way",
      "id": 1416675134,
      "center": {
        "lat": 13.0198144,
        "lon": 77.619254
      },
      "tags": {
        "amenity": "police",
        "name": "Kadugondanahalli Traffic Police Station"
      }
    },
    {
      "type": "way",
      "id": 1416675135,
      "center": {
        "lat": 13.0194119,
        "lon": 77.6192385
      },
      "tags": {
        "amenity": "police",
        "name": "Kadugondanahalli Police Station"
      }
    },
    {
      "type": "way",
      "id": 1416890170,
      "center": {
        "lat": 13.0229144,
        "lon": 77.6131504
      },
      "tags": {
        "access": "customers",
        "amenity": "parking",
        "parking": "surface"
      }
    }
  ]
}