{
  "area_name": "Reflex Layout",
  "osm_id": 8711415097,
  "osm_type": "node",
  "place_type": "neighbourhood",
  "amenity_count": 42,
  "amenities": [
    {
      "type": "node",
      "id": 3125514995,
      "lat": 12.9045616,
      "lon": 77.5057926,
      "tags": {
        "amenity": "restaurant",
        "cuisine": "chinese;indian",
        "name": "Pallavi",
        "name:kn": "ಪಲ್ಲವಿ",
        "source": "GPS"
      }
    },
    {
      "type": "node",
      "id": 3125514996,
      "lat": 12.9043665,
      "lon": 77.5053944,
      "tags": {
        "amenity": "bank",
        "atm": "no",
        "brand:wikidata": "Q1340361",
        "brand:wikipedia": "en:State Bank of India",
        "name": "State Bank of India",
        "name:kn": "ಮೈಸೂರು ಬ್ಯಾಂಕ್‌",
        "short_name": "SBI",
        "source": "GPS",
        "website": "https://www.sbi.co.in"
      }
    },
    {
      "type": "node",
      "id": 3125514997,
      "lat": 12.9048448,
      "lon": 77.5050195,
      "tags": {
        "amenity": "bank",
        "atm": "no",
        "brand": "UCO Bank",
        "brand:wikidata": "Q2005310",
        "brand:wikipedia": "en:UCO Bank",
        "name": "UCO Bank",
        "name:en": "UCO Bank",
        "name:kn": "ಯೂಕೊ ಬ್ಯಾಂಕ್",
        "old_name": "United Commercial Bank",
        "source": "GPS",
        "website": "https://www.ucobank.com"
      }
    },
    {
      "type": "node",
      "id": 5862499787,
      "lat": 12.9039405,
      "lon": 77.5106239,
      "tags": {
        "addr:postcode": "560060",
        "addr:street": "Dr. Vishnuvardhan Road",
        "name": "Aditya Bakery",
        "opening_hours": "Mo-Su 08:00-21:00",
        "shop": "bakery"
      }
    },
    {
      "type": "node",
      "id": 7173041691,
      "lat": 12.902777,
      "lon": 77.5073782,
      "tags": {
        "alt_name": "Chitrakala Parishat College of Fine Arts",
        "amenity": "college",
        "name": "Chitrakala Parishattu",
        "name:kn": "ಚಿತ್ರಕಲಾ ಪರಿಷತ್ತು"
      }
    },
    {
      "type": "node",
      "id": 8984816719,
      "lat": 12.9084569,
      "lon": 77.5119601,
      "tags": {
        "addr:city": "Bengaluru",
        "addr:postcode": "560098",
        "addr:street": "Old Manipal Hospital Road",
        "name": "Reliance Smart Point",
        "operator": "Reliance",
        "payment:cash": "yes",
        "payment:credit_cards": "yes",
        "payment:debit_cards": "yes",
        "shop": "supermarket"
      }
    },
    {
      "type": "node",
      "id": 10280801513,
      "lat": 12.9040849,
      "lon": 77.5078741,
      "tags": {
        "amenity": "pub",
        "microbrewery": "yes",
        "name": "Big Barrel Brewpub"
      }
    },
    {
      "type": "node",
      "id": 11757291185,
      "lat": 12.9095419,
      "lon": 77.5095467,
      "tags": {
        "amenity": "shelter",
        "shelter_type": "gazebo"
      }
    },
    {
      "type": "node",
      "id": 12300983061,
      "lat": 12.9017979,
      "lon": 77.5136545,
      "tags": {
        "amenity": "shelter",
        "shelter_type": "gazebo"
      }
    },
    {
      "type": "node",
      "id": 12492808022,
      "lat": 12.9096478,
      "lon": 77.5130175,
      "tags": {
        "amenity": "cinema",
        "name": "Movietime"
      }
    },
    {
      "type": "node",
      "id": 13013588706,
      "lat": 12.9112491,
      "lon": 77.5133944,
      "tags": {
        "amenity": "restaurant",
        "name": "154 Breakfast Club"
      }
    },
    {
      "type": "node",
      "id": 13276814996,
      "lat": 12.9036676,
      "lon": 77.5078566,
      "tags": {
        "brand": "Vishal Mega Mart",
        "brand:wikidata": "Q126895037",
        "name": "Vishal Mega Mart",
        "shop": "supermarket"
      }
    },
    {
      "type": "node",
      "id": 13276814997,
      "lat": 12.9036044,
      "lon": 77.5078535,
      "tags": {
        "amenity": "bar",
        "food": "yes",
        "min_age": "21",
        "name": "Skydeck"
      }
    },
    {
      "type": "node",
      "id": 13276814998,
      "lat": 12.9040944,
      "lon": 77.5080064,
      "tags": {
        "name": "Top in Town",
        "operator": "Top in Town",
        "payment:cash": "yes",
        "payment:credit_cards": "yes",
        "payment:debit_cards": "yes",
        "payment:upi": "yes",
        "shop": "supermarket"
      }
    },
    {
      "type": "node",
      "id": 13288585237,
      "lat": 12.9075231,
      "lon": 77.5119377,
      "tags": {
        "addr:city": "Bengaluru",
        "addr:country": "IN",
        "amenity": "restaurant",
        "cuisine": "pizza",
        "delivery": "yes",
        "name": "Mad Doh Sourdough Pizzeria",
        "reservation": "yes",
        "takeaway": "yes",
        "toilets": "yes"
      }
    },
    {
      "type": "way",
      "id": 106873634,
      "center": {
        "lat": 12.9025617,
        "lon": 77.5050775
      },
      "tags": {
        "addr:city": "bangalore",
        "addr:district": "bengaluru Urban",
        "addr:postcode": "560060",
        "addr:street": "Dr. Vishnuvardhan Road",
        "amenity": "college",
        "internet_access": "yes",
        "internet_access:fee": "Students and Faculty only",
        "name": "JSS Academy of Technical Education",
        "website": "https://jssateb.ac.in/"
      }
    },
    {
      "type": "way",
      "id": 132913842,
      "center": {
        "lat": 12.908884,
        "lon": 77.5136186
      },
      "tags": {
        "alt_name": "Jayadev Memorial Rashtrotthana Hospital and Research Centre",
        "amenity": "hospital",
        "healthcare": "hospital",
        "name": "Manipal Speciality Hospital",
        "website": "https://www.rashtrotthanahospital.com/"
      }
    },
    {
      "type": "way",
      "id": 307414835,
      "center": {
        "lat": 12.9030917,
        "lon": 77.5103778
      },
      "tags": {
        "amenity": "school",
        "building": "yes",
        "name": "JSS School",
        "source": "GPS"
      }
    },
    {
      "type": "way",
      "id": 331547213,
      "center": {
        "lat": 12.9012695,
        "lon": 77.4972635
      },
      "tags": {
        "amenity": "college",
        "landuse": "education",
        "name": "Adichunchanagiri Shikshana Trust",
        "name:kn": "ಆದಿಚುಂಚನಗಿರಿ ಶಿಕ್ಷಣ ಸಂಸ್ಥೆ"
      }
    },
    {
      "type": "way",
      "id": 348134392,
      "center": {
        "lat": 12.8998645,
        "lon": 77.5059316
      },
      "tags": {
        "amenity": "place_of_worship",
        "building": "yes",
        "denomination": "shaivism",
        "name": "Dwadasha Jyotirlinga Temple",
        "religion": "hindu",
        "wikidata": "Q17018520",
        "wikimedia_commons": "Category:Dwadasha Jyotirlinga Temple",
        "wikipedia": "en:Dwadasha Jyotirlinga Temple"
      }
    },
    {
      "type": "way",
      "id": 348134866,
      "center": {
        "lat": 12.902394,
        "lon": 77.5040165
      },
      "tags": {
        "access": "private",
        "amenity": "motorcycle_parking",
        "capacity": "100+",
        "covered": "yes",
        "operator": "JSSATEB"
      }
    },
    {
      "type": "way",
      "id": 348135295,
      "center": {
        "lat": 12.9095686,
        "lon": 77.5092011
      },
      "tags": {
        "addr:city": "Bengaluru",
        "addr:postcode": "560059",
        "addr:street": "KG Rd, Concord Garden City, Hemmigepura Ward 198, Rajarajeshwari Nagar",
        "amenity": "place_of_worship",
        "building": "yes",
        "name": "Shri Balamuri Vigneshwara Temple",
        "religion": "hindu"
      }
    },
    {
      "type": "way",
      "id": 729214193,
      "center": {
        "lat": 12.9109301,
        "lon": 77.5124248
      },
      "tags": {
        "leisure": "swimming_pool"
      }
    },
    {
      "type": "way",
      "id": 729214194,
      "center": {
        "lat": 12.9110479,
        "lon": 77.5119091
      },
      "tags": {
        "leisure": "pitch",
        "sport": "tennis"
      }
    },
    {
      "type": "way",
      "id": 839366903,
      "center": {
        "lat": 12.9083557,
        "lon": 77.5100482
      },
      "tags": {
        "addr:city": "Bengaluru",
        "addr:postcode": "560059",
        "addr:street": "4th Cross Road, Concord Garden City, RR Nagar",
        "amenity": "place_of_worship",
        "building": "yes",
        "name": "Subramanya Swamy Temple",
        "name:kn": "ಸುಬ್ರಮಣ್ಯ ಸ್ವಾಮಿ ದೇವಸ್ಥಾನ",
        "religion": "hindu"
      }
    },
    {
      "type": "way",
      "id": 1120154288,
      "center": {
        "lat": 12.9126949,
        "lon": 77.5124865
      },
      "tags": {
        "addr:city": "Bengaluru",
        "addr:postcode": "560098",
        "addr:street": "Kenchenahalli Main Road",
        "amenity": "school",
        "education": "school",
        "name": "Shri Jnanakshi Vidyaniketan",
        "name:kn": "ಜ್ಞಾನಾಕ್ಷಿ ವಿದ್ಯಾನಿಕೇತನ"
      }
    },
    {
      "type": "way",
      "id": 1120154290,
      "center": {
        "lat": 12.9003146,
        "lon": 77.5049604
      },
      "tags": {
        "amenity": "place_of_worship",
        "name": "Omkar Ashram",
        "religion": "hindu",
        "website": "https://www.omkarhills.org/"
      }
    },
    {
      "type": "way",
      "id": 1120154291,
      "center": {
        "lat": 12.902964,
        "lon": 77.5074479
      },
      "tags": {
        "alt_name": "Chitrakala Parishat College of Fine Arts",
        "amenity": "college",
        "name": "Chitrakala Parishattu",
        "name:kn": "ಚಿತ್ರಕಲಾ ಪರಿಷತ್ತು"
      }
    },
    {
      "type": "way",
      "id": 1157248009,
      "center": {
        "lat": 12.9102556,
        "lon": 77.4956636
      },
      "tags": {
        "amenity": "monastery",
        "fixme": "Boundaries of the area",
        "landuse": "religious",
        "name": "Sawan Durbar Ashram",
        "religion": "hindu"
      }
    },
    {
      "type": "way",
      "id": 1265724922,
      "center": {
        "lat": 12.91304,
        "lon": 77.5073386
      },
      "tags": {
        "leisure": "park"
      }
    },
    {
      "type": "way",
      "id": 1265724925,
      "center": {
        "lat": 12.9095538,
        "lon": 77.5097798
      },
      "tags": {
        "leisure": "park"
      }
    },
    {
      "type": "way",
      "id": 1315658041,
      "center": {
        "lat": 12.9043124,
        "lon": 77.5066365
      },
      "tags": {
        "amenity": "fuel",
        "brand": "Indian Oil",
        "brand:wikidata": "Q1289348",
        "brand:wikipedia": "en:Indian Oil Corporation",
        "name": "Indian Oil",
        "name:kn": "ಇಂಡ್ಯನ್ ಆಯಿಲ್",
        "source": "GPS"
      }
    },
    {
      "type": "way",
      "id": 1315658042,
      "center": {
        "lat": 12.9042592,
        "lon": 77.5075814
      },
      "tags": {
        "amenity": "fuel",
        "brand": "Bharat Petroleum",
        "brand:wikidata": "Q854826",
        "name": "Bharat Petroleum",
        "self_service": "no"
      }
    },
    {
      "type": "way",
      "id": 1315659137,
      "center": {
        "lat": 12.9090263,
        "lon": 77.5124855
      },
      "tags": {
        "amenity": "fuel"
      }
    },
    {
      "type": "way",
      "id": 1315659143,
      "center": {
        "lat": 12.9111596,
        "lon": 77.5096932
      },
      "tags": {
        "amenity": "college",
        "name": "Panchasheela Polytechnic School"
      }
    },
    {
      "type": "way",
      "id": 1329553331,
      "center": {
        "lat": 12.9015848,
        "lon": 77.5134815
      },
      "tags": {
        "leisure": "playground"
      }
    },
    {
      "type": "way",
      "id": 1329553332,
      "center": {
        "lat": 12.9017864,
        "lon": 77.5133623
      },
      "tags": {
        "leisure": "playground"
      }
    },
    {
      "type": "way",
      "id": 1329553338,
      "center": {
        "lat": 12.9015561,
        "lon": 77.5134393
      },
      "tags": {
        "leisure": "park"
      }
    },
    {
      "type": "way",
      "id": 1350416432,
      "center": {
        "lat": 12.9094652,
        "lon": 77.5130242
      },
      "tags": {
        "landuse": "retail",
        "name": "YGR Signature Mall",
        "shop": "mall"
      }
    },
    {
      "type": "way",
      "id": 1425365485,
      "center": {
        "lat": 12.9030262,
        "lon": 77.5063908
      },
      "tags": {
        "access": "private",
        "amenity": "parking",
        "fee": "no",
        "operator": "JSSATEB",
        "operator:type": "private",
        "parking": "surface",
        "surface": "dirt"
      }
    },
    {
      "type": "way",
      "id": 1425365487,
      "center": {
        "lat": 12.9020212,
        "lon": 77.505725
      },
      "tags": {
        "access": "private",
        "leisure": "pitch",
        "name": "JSSATEB Cricket Ground",
        "sport": "cricket",
        "surface": "grass"
      }
    },
    {
      "type": "way",
      "id": 1447184203,
      "center": {
        "lat": 12.9041255,
        "lon": 77.5086447
      },
      "tags": {
        "amenity": "fuel",
        "brand": "Shell",
        "brand:wikidata": "Q110716465",
        "name": "Shell",
        "self_service": "no"
      }
    }
  ]
}