{
  "area_name": "RMS Colony",
  "osm_id": 12765434578,
  "osm_type": "node",
  "place_type": "neighbourhood",
  "amenity_count": 143,
  "amenities": [
    {
      "type": "node",
      "id": 374217348,
      "lat": 13.0476857,
      "lon": 77.5742994,
      "tags": {
        "name": "Big Bazaar",
        "name:kn": "ಬಿಗ್ ಬಜಾರ್",
        "shop": "supermarket",
        "wheelchair": "limited"
      }
    },
    {
      "type": "node",
      "id": 621241029,
      "lat": 13.038095,
      "lon": 77.569086,
      "tags": {
        "amenity": "bar",
        "name": "RMV Club"
      }
    },
    {
      "type": "node",
      "id": 621241147,
      "lat": 13.0380165,
      "lon": 77.5693434,
      "tags": {
        "amenity": "restaurant",
        "name": "RMV Club",
        "name:kn": "ಆರ್‌ಎಮ್‌ವಿ ಕ್ಲಬ್"
      }
    },
    {
      "type": "node",
      "id": 622720273,
      "lat": 13.0342347,
      "lon": 77.5693249,
      "tags": {
        "addr:city": "Chikkamaranahalli, Bangalore",
        "addr:housenumber": "10",
        "addr:street": "1st Main Road, New BEL Road",
        "amenity": "restaurant",
        "cuisine": "chinese",
        "name": "Hunan Chinese Restaurant",
        "name:kn": "ಹುನನ್ ಚೈನೀಸ್ ರೆಸ್ಟೋರಂಟ್",
        "phone": "+91-80-23413337"
      }
    },
    {
      "type": "node",
      "id": 966862788,
      "lat": 13.0335598,
      "lon": 77.5758979,
      "tags": {
        "amenity": "police",
        "name": "Sanjayanagar Police station",
        "name:kn": "ಸಂಜಯನಗರ ಆರಕ್ಷಕ ಠಾಣೆ"
      }
    },
    {
      "type": "node",
      "id": 966863252,
      "lat": 13.0322788,
      "lon": 77.576876,
      "tags": {
        "amenity": "hospital",
        "emergency": "yes",
        "healthcare": "hospital",
        "name": "RMV Hospital"
      }
    },
    {
      "type": "node",
      "id": 1464775456,
      "lat": 13.0362481,
      "lon": 77.5747038,
      "tags": {
        "amenity": "restaurant",
        "cuisine": "chinese;indian",
        "diet:vegan": "yes",
        "diet:vegetarian": "yes",
        "name": "Atithi Satkaar",
        "name:kn": "ಅತಿಥಿ"
      }
    },
    {
      "type": "node",
      "id": 1472104730,
      "lat": 13.0345529,
      "lon": 77.5758254,
      "tags": {
        "amenity": "bank",
        "atm": "yes",
        "name": "Vijaya Bank",
        "name:kn": "ವಿಜಯ ಬ್ಯಾಂಕು"
      }
    },
    {
      "type": "node",
      "id": 1472104851,
      "lat": 13.0342969,
      "lon": 77.5759809,
      "tags": {
        "amenity": "atm",
        "brand": "HDFC Bank",
        "brand:wikidata": "Q631047",
        "name": "HDFC Bank",
        "name:kn": "ಎಚ್ ಡಿ ಎಫ್ ಸಿ",
        "operator": "HDFC Bank",
        "operator:wikidata": "Q631047",
        "short_name": "HDFC"
      }
    },
    {
      "type": "node",
      "id": 1473169657,
      "lat": 13.0383519,
      "lon": 77.5742318,
      "tags": {
        "addr:postcode": "560094",
        "addr:street": "Sanjaynagar Main Road",
        "name": "Sri Krishna Bhavan Sweets",
        "opening_hours": "PH,Mo-Su 07:00-22:00",
        "shop": "bakery"
      }
    },
    {
      "type": "node",
      "id": 1473172359,
      "lat": 13.0370609,
      "lon": 77.5744676,
      "tags": {
        "amenity": "bank",
        "atm": "yes",
        "brand": "Karnataka Bank",
        "brand:wikidata": "Q2042632",
        "name": "Karnataka Bank",
        "name:kn": "ಕರ್ನಾಟಕ ಬ್ಯಾಂಕ್"
      }
    },
    {
      "type": "node",
      "id": 1473179094,
      "lat": 13.0349108,
      "lon": 77.5752718,
      "tags": {
        "amenity": "bank",
        "atm": "yes",
        "brand:wikidata": "Q2003549",
        "brand:wikipedia": "en:Axis Bank",
        "check_date": "2024-06-03",
        "name": "Axis Bank",
        "name:en": "Axis Bank",
        "name:kn": "ಆಕ್ಸಿಸ್ ಬ್ಯಾಂಕ್",
        "website": "https://www.axisbank.com"
      }
    },
    {
      "type": "node",
      "id": 1473180303,
      "lat": 13.0363059,
      "lon": 77.5748837,
      "tags": {
        "amenity": "atm",
        "brand": "Citibank",
        "brand:wikidata": "Q857063",
        "name": "Citibank",
        "operator": "Citibank",
        "operator:wikidata": "Q857063",
        "short_name": "Citi"
      }
    },
    {
      "type": "node",
      "id": 1473180305,
      "lat": 13.0363843,
      "lon": 77.5748622,
      "tags": {
        "amenity": "atm"
      }
    },
    {
      "type": "node",
      "id": 1473180307,
      "lat": 13.0359923,
      "lon": 77.5749695,
      "tags": {
        "amenity": "bank",
        "atm": "yes",
        "brand": "State Bank of India",
        "brand:wikidata": "Q1340361",
        "brand:wikipedia": "en:State Bank of India",
        "name": "State Bank of India",
        "name:kn": "ಭಾರತೀಯ ಸ್ಟೇಟ್ ಬ್ಯಾಂಕ್",
        "short_name": "SBI",
        "website": "https://www.sbi.co.in"
      }
    },
    {
      "type": "node",
      "id": 1619884915,
      "lat": 13.0323102,
      "lon": 77.5807282,
      "tags": {
        "amenity": "school",
        "name": "Shiksha Sagar High School"
      }
    },
    {
      "type": "node",
      "id": 1929734613,
      "lat": 13.0353701,
      "lon": 77.5752731,
      "tags": {
        "amenity": "bank",
        "atm": "no",
        "name": "Karnataka Bank",
        "name:kn": "ಕರ್ನಾಟಕ ಬ್ಯಾಂಕ್",
        "operator": "Karnataka Bank"
      }
    },
    {
      "type": "node",
      "id": 1929739823,
      "lat": 13.0364505,
      "lon": 77.5745807,
      "tags": {
        "shop": "convenience"
      }
    },
    {
      "type": "node",
      "id": 2104341409,
      "lat": 13.0321646,
      "lon": 77.5765785,
      "tags": {
        "addr:city": "Bangalore",
        "addr:postcode": "560094",
        "addr:street": "Nagashettihalli, Sanjay Nagar,",
        "brand": "Reliance Fresh",
        "brand:wikidata": "Q7311014",
        "name": "Reliance Fresh",
        "name:kn": "ರಿಲಾಯನ್ಸ್ ಫ್ರೆಶ್",
        "phone": "80-22965183",
        "shop": "supermarket"
      }
    },
    {
      "type": "node",
      "id": 2319451107,
      "lat": 13.0323229,
      "lon": 77.5770689,
      "tags": {
        "amenity": "pharmacy",
        "name": "RMV Medicals"
      }
    },
    {
      "type": "node",
      "id": 3665552667,
      "lat": 13.0319123,
      "lon": 77.576777,
      "tags": {
        "amenity": "pharmacy"
      }
    },
    {
      "type": "node",
      "id": 4489717051,
      "lat": 13.0416048,
      "lon": 77.5797696,
      "tags": {
        "addr:city": "bangalore",
        "addr:housenumber": "25",
        "addr:postcode": "560094",
        "addr:street": "J.B Square building, Kalpana Chawala Road, Sanjay Nagar",
        "leisure": "sports_centre",
        "name": "Chisel Fitness Center",
        "opening_hours": "05:00-22:00",
        "phone": "(91)-80-33641514",
        "sport": "gymnastics",
        "website": "https://chisel.co.in/"
      }
    },
    {
      "type": "node",
      "id": 4489841033,
      "lat": 13.0326555,
      "lon": 77.5758079,
      "tags": {
        "addr:city": "Bangalore",
        "addr:housenumber": "No172",
        "addr:postcode": "560064",
        "addr:street": "AECS Naidu Layout 1st Cross",
        "name": "Freesia Spa Salon",
        "opening_hours": "10:00-21:00",
        "phone": "080-41210952",
        "shop": "beauty"
      }
    },
    {
      "type": "node",
      "id": 4679825893,
      "lat": 13.044455,
      "lon": 77.5801705,
      "tags": {
        "addr:city": "Bhoopasandra",
        "addr:country": "IN",
        "addr:housenumber": "2",
        "addr:postcode": "560094",
        "addr:street": "Cross Road",
        "addr:suburb": "Vinayaka Layout",
        "amenity": "college",
        "contact:email": "info@brindavancollege.com",
        "contact:fax": "+91-80-2341 7832",
        "contact:phone": "+91-80-4331 7777",
        "contact:website": "brindavancollege.com",
        "name": "Brindavan College",
        "name:en": "Brindavan College",
        "name:fr": "Brindavan College",
        "name:hi": "वृंदावन कॉलेज",
        "name:kn": "ಬೃಂದಾವನ ಕಾಲೇಜು",
        "name:ml": "ബൃന്ദാവൻ കോളെജ്",
        "name:ta": "பிருந்தாவன் கல்லூரி",
        "old_name": "National First Grade College"
      }
    },
    {
      "type": "node",
      "id": 6939108450,
      "lat": 13.0322819,
      "lon": 77.5770459,
      "tags": {
        "addr:district": "Bengaluru Urban",
        "addr:full": "No.138, Aec Layout, Sanjay Nagar",
        "addr:postcode": "560094",
        "addr:state": "Karnataka",
        "amenity": "hospital",
        "name": "Raj Mahal Vilas Hospital",
        "source": "OpenGovernmentData"
      }
    },
    {
      "type": "node",
      "id": 6947504016,
      "lat": 13.0377564,
      "lon": 77.5744454,
      "tags": {
        "addr:district": "Bengaluru Rural",
        "addr:full": "12, D Rajgopal Road, Next To Food World, Nagashettyhalli, Sanjaynagar",
        "addr:postcode": "560091",
        "addr:state": "Karnataka",
        "amenity": "hospital",
        "healthcare": "hospital",
        "name": "Mamta Hospital, Bengaluru Rural",
        "source": "OpenGovernmentData"
      }
    },
    {
      "type": "node",
      "id": 6947504017,
      "lat": 13.0360827,
      "lon": 77.575065,
      "tags": {
        "addr:district": "Bengaluru Urban",
        "addr:full": "No.2, Ngef Layout, Sanjaynagar Main Road",
        "addr:postcode": "560094",
        "addr:state": "Karnataka",
        "amenity": "hospital",
        "name": "S. J. Hospital",
        "source": "OpenGovernmentData"
      }
    },
    {
      "type": "node",
      "id": 7257189486,
      "lat": 13.0451003,
      "lon": 77.5725706,
      "tags": {
        "access": "permissive",
        "amenity": "parking",
        "parking": "surface"
      }
    },
    {
      "type": "node",
      "id": 7257189628,
      "lat": 13.0441191,
      "lon": 77.5721535,
      "tags": {
        "access": "permissive",
        "amenity": "parking",
        "parking": "surface"
      }
    },
    {
      "type": "node",
      "id": 7257189629,
      "lat": 13.0440708,
      "lon": 77.5729179,
      "tags": {
        "access": "permissive",
        "amenity": "parking",
        "parking": "surface"
      }
    },
    {
      "type": "node",
      "id": 7257728222,
      "lat": 13.0340915,
      "lon": 77.5696886,
      "tags": {
        "name": "Churn",
        "organic": "yes",
        "shop": "greengrocer"
      }
    },
    {
      "type": "node",
      "id": 7257728242,
      "lat": 13.0350322,
      "lon": 77.5725438,
      "tags": {
        "amenity": "clinic",
        "name": "Ayush Ayurvedic"
      }
    },
    {
      "type": "node",
      "id": 7257728243,
      "lat": 13.0359742,
      "lon": 77.5734048,
      "tags": {
        "amenity": "place_of_worship",
        "religion": "hindu"
      }
    },
    {
      "type": "node",
      "id": 7257728266,
      "lat": 13.0368849,
      "lon": 77.5747217,
      "tags": {
        "amenity": "fast_food",
        "cuisine": "regional",
        "name": "Brindavan Vaibhav"
      }
    },
    {
      "type": "node",
      "id": 7302021177,
      "lat": 13.0465803,
      "lon": 77.5755743,
      "tags": {
        "shop": "medical_supply"
      }
    },
    {
      "type": "node",
      "id": 7302031293,
      "lat": 13.0468704,
      "lon": 77.5758244,
      "tags": {
        "amenity": "fast_food",
        "cuisine": "chicken"
      }
    },
    {
      "type": "node",
      "id": 7302031325,
      "lat": 13.0466883,
      "lon": 77.576477,
      "tags": {
        "shop": "yes"
      }
    },
    {
      "type": "node",
      "id": 7495014660,
      "lat": 13.0378871,
      "lon": 77.5743958,
      "tags": {
        "name": "EasyDay Supermarket Ltd.",
        "payment:cash": "yes",
        "payment:credit_cards": "yes",
        "payment:debit_cards": "yes",
        "shop": "supermarket"
      }
    },
    {
      "type": "node",
      "id": 9912846632,
      "lat": 13.0479288,
      "lon": 77.5785318,
      "tags": {
        "amenity": "restaurant",
        "cuisine": "regional",
        "name": "Adyar Ananda Bhavan",
        "name:kn": "ಆದ್ಯಾರ್ ಆನಂದ ಭವನ",
        "takeaway": "yes"
      }
    },
    {
      "type": "node",
      "id": 10252983809,
      "lat": 13.0348455,
      "lon": 77.5789482,
      "tags": {
        "addr:postcode": "560094",
        "addr:street": "4th Main Road",
        "amenity": "school",
        "name": "Daffodils English School",
        "website": "https://www.daffodils.school/"
      }
    },
    {
      "type": "node",
      "id": 10299297409,
      "lat": 13.0477325,
      "lon": 77.5762392,
      "tags": {
        "amenity": "atm",
        "opening_hours": "24/7",
        "operator": "ICICI BANK"
      }
    },
    {
      "type": "node",
      "id": 10299297410,
      "lat": 13.0478235,
      "lon": 77.5761427,
      "tags": {
        "amenity": "ice_cream",
        "name": "Juice Point",
        "opening_hours": "Mo-Su 09:00-22:00"
      }
    },
    {
      "type": "node",
      "id": 10591250905,
      "lat": 13.047724,
      "lon": 77.5761271,
      "tags": {
        "shop": "bakery"
      }
    },
    {
      "type": "node",
      "id": 10753140993,
      "lat": 13.0363283,
      "lon": 77.5747083,
      "tags": {
        "shop": "bakery"
      }
    },
    {
      "type": "node",
      "id": 10753140994,
      "lat": 13.0361951,
      "lon": 77.5750262,
      "tags": {
        "name": "Bata",
        "name:kn": "ಬಾಟಾ",
        "shop": "shoes"
      }
    },
    {
      "type": "node",
      "id": 10753140995,
      "lat": 13.0364459,
      "lon": 77.5746654,
      "tags": {
        "name": "Poorvika",
        "shop": "mobile_phone"
      }
    },
    {
      "type": "node",
      "id": 10753140996,
      "lat": 13.0362055,
      "lon": 77.5747083,
      "tags": {
        "amenity": "restaurant",
        "cuisine": "chinese;indian",
        "name": "Taste of Coast"
      }
    },
    {
      "type": "node",
      "id": 10753151412,
      "lat": 13.0345887,
      "lon": 77.57535,
      "tags": {
        "amenity": "bank",
        "atm": "yes",
        "brand": "ICICI Bank",
        "brand:wikidata": "Q1653258",
        "name": "ICICI Bank",
        "name:kn": "ಐಸಿಐಸಿಐ ಬ್ಯಾಂಕು",
        "operator": "ICICI Bank",
        "short_name": "ICICI"
      }
    },
    {
      "type": "node",
      "id": 10753151416,
      "lat": 13.0346376,
      "lon": 77.5753815,
      "tags": {
        "access": "permissive",
        "amenity": "motorcycle_parking",
        "parking": "surface",
        "surface": "15"
      }
    },
    {
      "type": "node",
      "id": 10753151419,
      "lat": 13.0340079,
      "lon": 77.5755465,
      "tags": {
        "amenity": "shelter",
        "shelter_type": "gazebo"
      }
    },
    {
      "type": "node",
      "id": 10753151428,
      "lat": 13.0332579,
      "lon": 77.5759301,
      "tags": {
        "amenity": "bank",
        "atm": "yes",
        "brand": "HDFC Bank",
        "brand:wikidata": "Q631047",
        "name": "HDFC Bank",
        "name:kn": "ಎಚ್ ಡಿ ಎಫ್ ಸಿ",
        "operator": "HDFC Bank",
        "short_name": "HDFC"
      }
    },
    {
      "type": "node",
      "id": 10753151433,
      "lat": 13.0319305,
      "lon": 77.5769245,
      "tags": {
        "access": "yes",
        "amenity": "toilets",
        "fee": "yes",
        "female": "yes",
        "male": "yes",
        "operator": "BBMP"
      }
    },
    {
      "type": "node",
      "id": 10753151495,
      "lat": 13.0311635,
      "lon": 77.5771639,
      "tags": {
        "amenity": "fuel",
        "brand": "Nayara",
        "brand:wikidata": "Q1360409",
        "name": "Nayara",
        "operator": "Nayara"
      }
    },
    {
      "type": "node",
      "id": 11199068287,
      "lat": 13.0349878,
      "lon": 77.575524,
      "tags": {
        "addr:floor": "G",
        "addr:street": "4th Main Road",
        "amenity": "fast_food",
        "check_date": "2023-09-18",
        "cuisine": "indian",
        "diet:vegetarian": "yes",
        "name": "Brahmins thindis",
        "opening_hours": "Mo-Su 07:00-21:00",
        "phone": "080508 86278"
      }
    },
    {
      "type": "node",
      "id": 11199092874,
      "lat": 13.0348398,
      "lon": 77.5754822,
      "tags": {
        "addr:floor": "G",
        "check_date": "2023-09-18",
        "name": "Manjunath condiments",
        "shop": "tea"
      }
    },
    {
      "type": "node",
      "id": 11362736269,
      "lat": 13.0386087,
      "lon": 77.5742563,
      "tags": {
        "addr:postcode": "560094",
        "addr:street": "Sanjaynagar Main Road",
        "amenity": "restaurant",
        "cuisine": "chinese;indian",
        "diet:vegetarian": "yes",
        "name": "Udupi Garden",
        "opening_hours": "PH,Mo-Su 06:00-23:00",
        "phone": "094485 08089"
      }
    },
    {
      "type": "node",
      "id": 11371349956,
      "lat": 13.037758,
      "lon": 77.5744038,
      "tags": {
        "addr:city": "Bengaluru",
        "addr:district": "Bengaluru Urban",
        "addr:housenumber": "S. No. 6A",
        "addr:postcode": "560094",
        "addr:street": "Sanjaynagar Main Road",
        "amenity": "bank",
        "atm": "yes",
        "branch": "Ltd",
        "brand": "ICICI Bank",
        "brand:wikidata": "Q1653258",
        "name": "ICICI Bank",
        "opening_hours": "Mo-Fr 09:30-15:00",
        "short_name": "ICICI"
      }
    },
    {
      "type": "node",
      "id": 11371401649,
      "lat": 13.0354243,
      "lon": 77.5753543,
      "tags": {
        "addr:city": "Bengaluru",
        "addr:district": "Bengaluru Urban",
        "addr:housenumber": "24",
        "addr:postcode": "560094",
        "addr:street": "Sanjaynagar Main Road",
        "leisure": "sports_hall",
        "name": "Transform Fitness 2.0",
        "opening_hours": "Mo-Sa 05:30-22:00; Su 08:00-13:00",
        "phone": "08884655522",
        "sport": "gy",
        "unisex": "yes"
      }
    },
    {
      "type": "node",
      "id": 11850255969,
      "lat": 13.0311563,
      "lon": 77.5778161,
      "tags": {
        "amenity": "school",
        "name": "चिरंतना इंग्लिश स्कूल",
        "name:en": "Chirantana English High school"
      }
    },
    {
      "type": "node",
      "id": 12001090810,
      "lat": 13.0333592,
      "lon": 77.5740914,
      "tags": {
        "amenity": "arts_centre",
        "contact:instagram": "pagalcanvasbackyard",
        "email": "pagalcanvas@gmail.com",
        "name": "Pagal Canvas Backyard",
        "website": "https://pagalcanvas.wordpress.com/"
      }
    },
    {
      "type": "node",
      "id": 12064153963,
      "lat": 13.0315097,
      "lon": 77.577408,
      "tags": {
        "addr:city": "Bengaluru",
        "addr:country": "IN",
        "addr:postcode": "560094",
        "addr:street": "Sanjay Nagar Main Road",
        "addr:suburb": "Sanjay Nagar",
        "amenity": "pub",
        "contact:instagram": "toroblr",
        "delivery": "yes",
        "name": "Toro Brew House & Kitchen Zozo",
        "phone": "+91 9900005230",
        "takeaway": "yes"
      }
    },
    {
      "type": "node",
      "id": 12291501759,
      "lat": 13.0419418,
      "lon": 77.5701673,
      "tags": {
        "amenity": "fast_food"
      }
    },
    {
      "type": "node",
      "id": 12291501912,
      "lat": 13.042827,
      "lon": 77.5683233,
      "tags": {
        "leisure": "fitness_station"
      }
    },
    {
      "type": "node",
      "id": 12497708532,
      "lat": 13.0318659,
      "lon": 77.580016,
      "tags": {
        "check_date": "2025-01-13",
        "name": "Manjunath Stores",
        "shop": "grocery"
      }
    },
    {
      "type": "node",
      "id": 12717556901,
      "lat": 13.0323908,
      "lon": 77.5771592,
      "tags": {
        "amenity": "cafe",
        "name": "Sakura cafe / RMV CANTEEN"
      }
    },
    {
      "type": "node",
      "id": 12877032109,
      "lat": 13.0323496,
      "lon": 77.5773083,
      "tags": {
        "check_date": "2025-05-31",
        "internet_access": "no",
        "name": "Amma Pastries",
        "name:en": "Amma Pastries",
        "payment:cash": "yes",
        "payment:upi": "yes",
        "shop": "bakery"
      }
    },
    {
      "type": "node",
      "id": 12915173278,
      "lat": 13.0477044,
      "lon": 77.5758771,
      "tags": {
        "check_date": "2025-06-14",
        "name": "Sangeetha",
        "shop": "mobile_phone"
      }
    },
    {
      "type": "node",
      "id": 12915173279,
      "lat": 13.0481524,
      "lon": 77.5761041,
      "tags": {
        "amenity": "atm",
        "brand": "State Bank of India",
        "brand:wikidata": "Q1340361",
        "check_date": "2025-06-14",
        "operator": "State Bank of India",
        "operator:wikidata": "Q1340361",
        "short_name": "SBI"
      }
    },
    {
      "type": "way",
      "id": 42397792,
      "center": {
        "lat": 13.034726,
        "lon": 77.579118
      },
      "tags": {
        "amenity": "school",
        "name": "Daffodils English School",
        "start_date": "1978",
        "website": "https://daffodils.school/",
        "wikidata": "Q30589677",
        "wikipedia": "en:Daffodils English School, Sanjaynagar"
      }
    },
    {
      "type": "way",
      "id": 42397793,
      "center": {
        "lat": 13.0313957,
        "lon": 77.5807863
      },
      "tags": {
        "leisure": "park"
      }
    },
    {
      "type": "way",
      "id": 132417430,
      "center": {
        "lat": 13.0319397,
        "lon": 77.5774013
      },
      "tags": {
        "leisure": "park",
        "name": "Sanjay Nagar Park"
      }
    },
    {
      "type": "way",
      "id": 133297837,
      "center": {
        "lat": 13.03191,
        "lon": 77.5759882
      },
      "tags": {
        "amenity": "school",
        "name": "Sandeepani English High School"
      }
    },
    {
      "type": "way",
      "id": 133442033,
      "center": {
        "lat": 13.0329201,
        "lon": 77.5732641
      },
      "tags": {
        "leisure": "park"
      }
    },
    {
      "type": "way",
      "id": 133442034,
      "center": {
        "lat": 13.0325048,
        "lon": 77.5749403
      },
      "tags": {
        "leisure": "park"
      }
    },
    {
      "type": "way",
      "id": 133442035,
      "center": {
        "lat": 13.0330656,
        "lon": 77.5726321
      },
      "tags": {
        "leisure": "park"
      }
    },
    {
      "type": "way",
      "id": 133467007,
      "center": {
        "lat": 13.0486001,
        "lon": 77.5755015
      },
      "tags": {
        "amenity": "school",
        "name": "Shanthiniketan School",
        "name:kn": "ಶಾಂತಿನಿಕೇತನ ಶಾಲೆ"
      }
    },
    {
      "type": "way",
      "id": 133487598,
      "center": {
        "lat": 13.0337092,
        "lon": 77.5756624
      },
      "tags": {
        "amenity": "place_of_worship",
        "check_date": "2023-09-05",
        "landuse": "religious",
        "name": "Radhakrishna Temple",
        "name:en": "Radhakrishna Temple",
        "name:kn": "ರಾಧಾಕೃಷ್ಣ ದೇವಸ್ಥಾನ",
        "religion": "hindu"
      }
    },
    {
      "type": "way",
      "id": 133877962,
      "center": {
        "lat": 13.0368911,
        "lon": 77.5775794
      },
      "tags": {
        "addr:city": "Bangalore",
        "addr:housenumber": "68",
        "addr:postcode": "560094",
        "addr:street": "3rd Crs, Near Shastry Memorial Hall,, NGEF Layout, Postal Colony, Sanjaynaga",
        "building": "yes",
        "name": "Shopwell Supermarket",
        "phone": "+91080 3296 6077",
        "shop": "supermarket"
      }
    },
    {
      "type": "way",
      "id": 184923392,
      "center": {
        "lat": 13.0356871,
        "lon": 77.574775
      },
      "tags": {
        "addr:city": "Bengaluru",
        "addr:housenumber": "RMV Extension, 2nd stage,68/5",
        "addr:postcode": "560094",
        "addr:street": "Sanjaynagar Main Road, Near police station, Sanjayanagara",
        "amenity": "cinema",
        "building": "commercial",
        "contact:phone": "08023411877",
        "contact:website": "http://www.vaibhavtheatre.com/",
        "name": "Vaibhav Theatre",
        "name:kn": "ವೈಭವ"
      }
    },
    {
      "type": "way",
      "id": 345918138,
      "center": {
        "lat": 13.0368479,
        "lon": 77.5778353
      },
      "tags": {
        "addr:city": "Bengaluru",
        "addr:postcode": "560094",
        "addr:street": "60ft Road Sanjaynagar",
        "amenity": "place_of_worship",
        "building": "yes",
        "name": "Siddhivinayaka Temple",
        "name:kn": "ಸಿದ್ಧಿವಿನಾಯಕ ದೇವಸ್ಥಾನ",
        "religion": "hindu"
      }
    },
    {
      "type": "way",
      "id": 345918323,
      "center": {
        "lat": 13.036373,
        "lon": 77.5768723
      },
      "tags": {
        "addr:city": "Bengaluru",
        "addr:postcode": "560094",
        "addr:street": "2nd Main Road, NGEF Layout, Postal Colony",
        "amenity": "place_of_worship",
        "building": "yes",
        "name": "Sri Raghavendra Swamy Mutt and Temple",
        "religion": "hindu"
      }
    },
    {
      "type": "way",
      "id": 346807969,
      "center": {
        "lat": 13.0377598,
        "lon": 77.5749792
      },
      "tags": {
        "addr:city": "Bengaluru",
        "addr:housenumber": "1",
        "addr:postcode": "560094",
        "addr:street": "1st Cross Road, Sachidanda Nagar, Raj Mahal Vilas 2nd Stage, Sanjaynagar",
        "leisure": "park",
        "name": "NGEF Park",
        "opening_hours": "Mo-Su 06:00-08:00,16:30-20:00"
      }
    },
    {
      "type": "way",
      "id": 346807997,
      "center": {
        "lat": 13.0384308,
        "lon": 77.5747683
      },
      "tags": {
        "amenity": "post_office",
        "building": "yes",
        "name": "RMV 2nd Stage Post Office",
        "opening_hours": "Mo-Fr 09:00-14:00; Sa 09:00-12:00"
      }
    },
    {
      "type": "way",
      "id": 363073628,
      "center": {
        "lat": 13.0340583,
        "lon": 77.5754571
      },
      "tags": {
        "leisure": "park",
        "name": "Jyothivana Park",
        "name:kn": "ಜ್ಯೋತಿವನ"
      }
    },
    {
      "type": "way",
      "id": 363073976,
      "center": {
        "lat": 13.0350016,
        "lon": 77.5728653
      },
      "tags": {
        "leisure": "park"
      }
    },
    {
      "type": "way",
      "id": 363074109,
      "center": {
        "lat": 13.0451918,
        "lon": 77.571772
      },
      "tags": {
        "leisure": "park"
      }
    },
    {
      "type": "way",
      "id": 363075242,
      "center": {
        "lat": 13.044163,
        "lon": 77.5785196
      },
      "tags": {
        "leisure": "park"
      }
    },
    {
      "type": "way",
      "id": 363075328,
      "center": {
        "lat": 13.0415904,
        "lon": 77.5814713
      },
      "tags": {
        "leisure": "park"
      }
    },
    {
      "type": "way",
      "id": 363121717,
      "center": {
        "lat": 13.0361307,
        "lon": 77.5693741
      },
      "tags": {
        "leisure": "park",
        "name": "Dollar's Colony Park",
        "official_name": "Soundarya Park"
      }
    },
    {
      "type": "way",
      "id": 452680882,
      "center": {
        "lat": 13.0438004,
        "lon": 77.5699888
      },
      "tags": {
        "amenity": "school",
        "building": "yes",
        "name": "Government Higher Primary School",
        "name:kn": "ಸರ್ಕಾರಿ ಹಿರಿಯ ಪ್ರಾಥಮಿಕ ಶಾಲೆ ನಾಗಶೆಟ್ಟಿಹಳ್ಳಿ"
      }
    },
    {
      "type": "way",
      "id": 457998514,
      "center": {
        "lat": 13.0444348,
        "lon": 77.5810147
      },
      "tags": {
        "addr:city": "Bengaluru",
        "addr:postcode": "560094",
        "addr:street": "2nd Cross Road, Bhoopasandra",
        "amenity": "place_of_worship",
        "building": "yes",
        "name": "Sri Abhaya Anjaneya Swamy Temple",
        "religion": "hindu"
      }
    },
    {
      "type": "way",
      "id": 467074943,
      "center": {
        "lat": 13.0444126,
        "lon": 77.5738749
      },
      "tags": {
        "leisure": "pitch"
      }
    },
    {
      "type": "way",
      "id": 467074945,
      "center": {
        "lat": 13.0442072,
        "lon": 77.5737858
      },
      "tags": {
        "leisure": "pitch",
        "sport": "tennis"
      }
    },
    {
      "type": "way",
      "id": 467074947,
      "center": {
        "lat": 13.0440105,
        "lon": 77.5737059
      },
      "tags": {
        "leisure": "pitch"
      }
    },
    {
      "type": "way",
      "id": 467074955,
      "center": {
        "lat": 13.0382134,
        "lon": 77.5687093
      },
      "tags": {
        "leisure": "pitch",
        "sport": "tennis"
      }
    },
    {
      "type": "way",
      "id": 583239937,
      "center": {
        "lat": 13.034535,
        "lon": 77.5698022
      },
      "tags": {
        "leisure": "park",
        "name": "Atal Bihari Vajpayee Park",
        "name:etymology:wikidata": "Q233289"
      }
    },
    {
      "type": "way",
      "id": 674383493,
      "center": {
        "lat": 13.0332213,
        "lon": 77.5698495
      },
      "tags": {
        "leisure": "park"
      }
    },
    {
      "type": "way",
      "id": 674383495,
      "center": {
        "lat": 13.0348663,
        "lon": 77.5699823
      },
      "tags": {
        "leisure": "park",
        "name": "Shubhodaya Park"
      }
    },
    {
      "type": "way",
      "id": 777638963,
      "center": {
        "lat": 13.045172,
        "lon": 77.5718869
      },
      "tags": {
        "leisure": "playground"
      }
    },
    {
      "type": "way",
      "id": 777638965,
      "center": {
        "lat": 13.0446547,
        "lon": 77.5734852
      },
      "tags": {
        "leisure": "garden"
      }
    },
    {
      "type": "way",
      "id": 777638966,
      "center": {
        "lat": 13.0444802,
        "lon": 77.572234
      },
      "tags": {
        "leisure": "garden"
      }
    },
    {
      "type": "way",
      "id": 777638969,
      "center": {
        "lat": 13.044628,
        "lon": 77.572118
      },
      "tags": {
        "leisure": "swimming_pool"
      }
    },
    {
      "type": "way",
      "id": 777638970,
      "center": {
        "lat": 13.0446692,
        "lon": 77.5719594
      },
      "tags": {
        "leisure": "swimming_pool"
      }
    },
    {
      "type": "way",
      "id": 777638971,
      "center": {
        "lat": 13.044789,
        "lon": 77.5719826
      },
      "tags": {
        "leisure": "swimming_pool"
      }
    },
    {
      "type": "way",
      "id": 777638976,
      "center": {
        "lat": 13.044582,
        "lon": 77.5722532
      },
      "tags": {
        "access": "private",
        "leisure": "swimming_pool"
      }
    },
    {
      "type": "way",
      "id": 777638977,
      "center": {
        "lat": 13.0447893,
        "lon": 77.5717528
      },
      "tags": {
        "access": "private",
        "leisure": "swimming_pool"
      }
    },
    {
      "type": "way",
      "id": 777638978,
      "center": {
        "lat": 13.044431,
        "lon": 77.5726452
      },
      "tags": {
        "access": "private",
        "leisure": "swimming_pool"
      }
    },
    {
      "type": "way",
      "id": 777638979,
      "center": {
        "lat": 13.044492,
        "lon": 77.5724238
      },
      "tags": {
        "access": "private",
        "leisure": "swimming_pool"
      }
    },
    {
      "type": "way",
      "id": 777638980,
      "center": {
        "lat": 13.0439527,
        "lon": 77.5733428
      },
      "tags": {
        "amenity": "amphitheatre",
        "area": "yes",
        "highway": "pedestrian"
      }
    },
    {
      "type": "way",
      "id": 777638982,
      "center": {
        "lat": 13.0443373,
        "lon": 77.5715383
      },
      "tags": {
        "leisure": "garden"
      }
    },
    {
      "type": "way",
      "id": 777638997,
      "center": {
        "lat": 13.046028,
        "lon": 77.5719841
      },
      "tags": {
        "access": "private",
        "leisure": "swimming_pool",
        "sport": "swimming"
      }
    },
    {
      "type": "way",
      "id": 777690270,
      "center": {
        "lat": 13.0360414,
        "lon": 77.5773286
      },
      "tags": {
        "leisure": "playground"
      }
    },
    {
      "type": "way",
      "id": 777690271,
      "center": {
        "lat": 13.034927,
        "lon": 77.5775813
      },
      "tags": {
        "leisure": "park"
      }
    },
    {
      "type": "way",
      "id": 794445339,
      "center": {
        "lat": 13.0350995,
        "lon": 77.5744519
      },
      "tags": {
        "access": "private",
        "leisure": "swimming_pool"
      }
    },
    {
      "type": "way",
      "id": 1111845884,
      "center": {
        "lat": 13.0414988,
        "lon": 77.5814883
      },
      "tags": {
        "amenity": "school",
        "name": "Vidyasagar Preschool"
      }
    },
    {
      "type": "way",
      "id": 1156278588,
      "center": {
        "lat": 13.0307105,
        "lon": 77.57753
      },
      "tags": {
        "amenity": "place_of_worship",
        "landuse": "religious",
        "name": "Sri Ramanjaneya Swamy Temple",
        "name:kn": "ಶ್ರೀ ರಾಮಾಂಜನೇಯಸ್ವಾಮಿ ದೇವಸ್ಥಾನ",
        "religion": "hindu"
      }
    },
    {
      "type": "way",
      "id": 1238793140,
      "center": {
        "lat": 13.0456711,
        "lon": 77.5719998
      },
      "tags": {
        "access": "private",
        "leisure": "swimming_pool"
      }
    },
    {
      "type": "way",
      "id": 1279969036,
      "center": {
        "lat": 13.0392196,
        "lon": 77.579859
      },
      "tags": {
        "leisure": "playground"
      }
    },
    {
      "type": "way",
      "id": 1279969058,
      "center": {
        "lat": 13.0360331,
        "lon": 77.5807124
      },
      "tags": {
        "leisure": "park"
      }
    },
    {
      "type": "way",
      "id": 1284656988,
      "center": {
        "lat": 13.0368506,
        "lon": 77.5744706
      },
      "tags": {
        "amenity": "fuel",
        "brand": "Bharat Petroleum"
      }
    },
    {
      "type": "way",
      "id": 1284656989,
      "center": {
        "lat": 13.0402384,
        "lon": 77.5732183
      },
      "tags": {
        "amenity": "fuel"
      }
    },
    {
      "type": "way",
      "id": 1284657004,
      "center": {
        "lat": 13.0445163,
        "lon": 77.5773144
      },
      "tags": {
        "amenity": "school"
      }
    },
    {
      "type": "way",
      "id": 1326435525,
      "center": {
        "lat": 13.035843,
        "lon": 77.5707539
      },
      "tags": {
        "garden:type": "landscaping",
        "leisure": "garden"
      }
    },
    {
      "type": "way",
      "id": 1326435614,
      "center": {
        "lat": 13.0463973,
        "lon": 77.5709133
      },
      "tags": {
        "access": "private",
        "leisure": "swimming_pool",
        "sport": "swimming"
      }
    },
    {
      "type": "way",
      "id": 1329289180,
      "center": {
        "lat": 13.0437915,
        "lon": 77.5815236
      },
      "tags": {
        "amenity": "place_of_worship",
        "building": "yes",
        "religion": "muslim"
      }
    },
    {
      "type": "way",
      "id": 1349910496,
      "center": {
        "lat": 13.0320238,
        "lon": 77.5805089
      },
      "tags": {
        "amenity": "place_of_worship",
        "religion": "hindu"
      }
    },
    {
      "type": "way",
      "id": 1377975911,
      "center": {
        "lat": 13.0395936,
        "lon": 77.5776302
      },
      "tags": {
        "leisure": "park"
      }
    },
    {
      "type": "way",
      "id": 1377975918,
      "center": {
        "lat": 13.041235,
        "lon": 77.5769574
      },
      "tags": {
        "leisure": "park"
      }
    },
    {
      "type": "way",
      "id": 1377975919,
      "center": {
        "lat": 13.0409933,
        "lon": 77.5764671
      },
      "tags": {
        "leisure": "park"
      }
    },
    {
      "type": "way",
      "id": 1377977009,
      "center": {
        "lat": 13.0359857,
        "lon": 77.5756743
      },
      "tags": {
        "leisure": "park"
      }
    },
    {
      "type": "way",
      "id": 1378386995,
      "center": {
        "lat": 13.0343925,
        "lon": 77.5788553
      },
      "tags": {
        "leisure": "park"
      }
    },
    {
      "type": "way",
      "id": 1378387894,
      "center": {
        "lat": 13.0412853,
        "lon": 77.5708399
      },
      "tags": {
        "leisure": "park"
      }
    },
    {
      "type": "way",
      "id": 1378566413,
      "center": {
        "lat": 13.039042,
        "lon": 77.5749083
      },
      "tags": {
        "addr:city": "Bengaluru",
        "addr:housenumber": "Beside Ramana Mahashree Heritage Centre",
        "addr:postcode": "560094",
        "addr:street": "4th Main Road",
        "amenity": "place_of_worship",
        "landuse": "religious",
        "name": "Sri Gayathri Parishat and Sri Varasiddhi Vinayaka Temple",
        "religion": "hindu"
      }
    },
    {
      "type": "way",
      "id": 1378572788,
      "center": {
        "lat": 13.0417141,
        "lon": 77.5771582
      },
      "tags": {
        "leisure": "park"
      }
    },
    {
      "type": "way",
      "id": 1378572802,
      "center": {
        "lat": 13.0411098,
        "lon": 77.5813129
      },
      "tags": {
        "leisure": "park"
      }
    },
    {
      "type": "way",
      "id": 1378923002,
      "center": {
        "lat": 13.0368248,
        "lon": 77.5724644
      },
      "tags": {
        "leisure": "park"
      }
    },
    {
      "type": "way",
      "id": 1378923032,
      "center": {
        "lat": 13.0381346,
        "lon": 77.5728031
      },
      "tags": {
        "amenity": "school",
        "name": "Rajamahal High School"
      }
    },
    {
      "type": "way",
      "id": 1378923054,
      "center": {
        "lat": 13.0397539,
        "lon": 77.5731622
      },
      "tags": {
        "amenity": "school",
        "name": "Akal Public School"
      }
    },
    {
      "type": "way",
      "id": 1378923057,
      "center": {
        "lat": 13.0387291,
        "lon": 77.5748746
      },
      "tags": {
        "addr:city": "Bengaluru",
        "addr:housenumber": "AECS Layout, 2nd Stage, Postal Colony, Sanjaynagar",
        "addr:postcode": "560094",
        "addr:street": "4th Main Road",
        "amenity": "events_venue",
        "landuse": "commercial",
        "name": "Ramana Maharshi Heritage Auditorium",
        "official_name": "Ramana Maharshi Centre for Learning"
      }
    },
    {
      "type": "way",
      "id": 1378923058,
      "center": {
        "lat": 13.0388245,
        "lon": 77.5754737
      },
      "tags": {
        "amenity": "college",
        "name": "SYA PU College"
      }
    },
    {
      "type": "way",
      "id": 1378923061,
      "center": {
        "lat": 13.038576,
        "lon": 77.5760886
      },
      "tags": {
        "amenity": "college",
        "name": "SM PU and Degree College"
      }
    },
    {
      "type": "way",
      "id": 1378926273,
      "center": {
        "lat": 13.0348953,
        "lon": 77.5771994
      },
      "tags": {
        "amenity": "school"
      }
    },
    {
      "type": "way",
      "id": 1428274859,
      "center": {
        "lat": 13.0350456,
        "lon": 77.572806
      },
      "tags": {
        "leisure": "playground"
      }
    }
  ]
}