{
  "area_name": "RMV 2nd Stage 1st Block",
  "osm_id": 1619884913,
  "osm_type": "node",
  "place_type": "neighbourhood",
  "amenity_count": 279,
  "amenities": [
    {
      "type": "node",
      "id": 446059520,
      "lat": 13.0186339,
      "lon": 77.5709242,
      "tags": {
        "alt_name": "Department of Electronic Systems Engineering",
        "amenity": "college",
        "name": "Electronic Systems Engineering",
        "short_name": "DESE",
        "website": "https://www.dese.iisc.ac.in/"
      }
    },
    {
      "type": "node",
      "id": 529018365,
      "lat": 13.0281613,
      "lon": 77.5732067,
      "tags": {
        "amenity": "cafe",
        "name": "Polar Bear"
      }
    },
    {
      "type": "node",
      "id": 529018378,
      "lat": 13.02807,
      "lon": 77.5729018,
      "tags": {
        "amenity": "restaurant",
        "name": "Hav Mor",
        "name:kn": "ಹೇ ಮೊರ್"
      }
    },
    {
      "type": "node",
      "id": 593146903,
      "lat": 13.026313,
      "lon": 77.5845772,
      "tags": {
        "amenity": "college",
        "name": "National Bureau of Agriculturally Important Insects"
      }
    },
    {
      "type": "node",
      "id": 598969462,
      "lat": 13.0282486,
      "lon": 77.5727818,
      "tags": {
        "name": "Cane Crush",
        "shop": "juice"
      }
    },
    {
      "type": "node",
      "id": 638379029,
      "lat": 13.0184079,
      "lon": 77.5707285,
      "tags": {
        "amenity": "college",
        "name": "Computer Aided Design Laboratory",
        "short_name": "CAD Lab"
      }
    },
    {
      "type": "node",
      "id": 648956433,
      "lat": 13.014482,
      "lon": 77.5761323,
      "tags": {
        "addr:street": "CV Raman Avenue",
        "amenity": "place_of_worship",
        "denomination": "theravada",
        "name": "International Buddhist Seminary",
        "religion": "buddhist",
        "service_times": "Su Mo Tu We Th Fr Sa 06:00-12:00, 16:00-20:00"
      }
    },
    {
      "type": "node",
      "id": 660061426,
      "lat": 13.0282488,
      "lon": 77.5717997,
      "tags": {
        "amenity": "fast_food",
        "cuisine": "indian",
        "name": "Sri Ganesh Darshan"
      }
    },
    {
      "type": "node",
      "id": 660061427,
      "lat": 13.0245647,
      "lon": 77.5783085,
      "tags": {
        "amenity": "college",
        "name": "RRI Hostel"
      }
    },
    {
      "type": "node",
      "id": 660061429,
      "lat": 13.0275961,
      "lon": 77.5766293,
      "tags": {
        "amenity": "restaurant",
        "name": "Freska",
        "name:kn": "ಫ್ರೆಸ್ಕ"
      }
    },
    {
      "type": "node",
      "id": 660345491,
      "lat": 13.0279832,
      "lon": 77.5715545,
      "tags": {
        "addr:street": "New BEL Road",
        "amenity": "restaurant",
        "brand": "Pizza Hut",
        "brand:wikidata": "Q191615",
        "cuisine": "pizza",
        "name": "Pizza Hut",
        "name:kn": "ಪಿಟ್ಸ ಹಟ್"
      }
    },
    {
      "type": "node",
      "id": 660345492,
      "lat": 13.027204,
      "lon": 77.57712,
      "tags": {
        "amenity": "pub",
        "cuisine": "indian",
        "name": "The Founders Brewery",
        "wheelchair": "limited"
      }
    },
    {
      "type": "node",
      "id": 663920336,
      "lat": 13.0145146,
      "lon": 77.5735683,
      "tags": {
        "addr:street": "Dr. C V Raman Road",
        "name": "Voltas",
        "shop": "electronics"
      }
    },
    {
      "type": "node",
      "id": 663920339,
      "lat": 13.0140892,
      "lon": 77.5760778,
      "tags": {
        "addr:street": "CV Raman Avenue",
        "amenity": "school",
        "name": "Nagasena Vidyalaya",
        "name:kn": "ನಾಗಸೇನ ವಿದ್ಯಾಲಯ"
      }
    },
    {
      "type": "node",
      "id": 663920340,
      "lat": 13.0139649,
      "lon": 77.57891,
      "tags": {
        "amenity": "bank",
        "atm": "yes",
        "brand": "State Bank of India",
        "brand:wikidata": "Q1340361",
        "brand:wikipedia": "en:State Bank of India",
        "name": "State Bank of India",
        "name:kn": "ಭಾರತೀಯ ಸ್ಟೇಟ್ ಬ್ಯಾಂಕ್",
        "short_name": "SBI"
      }
    },
    {
      "type": "node",
      "id": 673860154,
      "lat": 13.014501,
      "lon": 77.5734712,
      "tags": {
        "addr:street": "Dr. C V Raman Road",
        "name": "Sandeep Motors",
        "shop": "car"
      }
    },
    {
      "type": "node",
      "id": 673860155,
      "lat": 13.0144757,
      "lon": 77.5736759,
      "tags": {
        "name": "Scotchyard",
        "shop": "alcohol"
      }
    },
    {
      "type": "node",
      "id": 673860156,
      "lat": 13.0144093,
      "lon": 77.5736842,
      "tags": {
        "amenity": "restaurant",
        "name": "Nikki's Pub & Restaurant",
        "name:kn": "ನಿಕ್ಕಿಸ್ ಪಬ್ & ರೆಸ್ಟೋರೆಂಟ್"
      }
    },
    {
      "type": "node",
      "id": 673860157,
      "lat": 13.014347,
      "lon": 77.5736987,
      "tags": {
        "name": "Sparsh",
        "shop": "hairdresser"
      }
    },
    {
      "type": "node",
      "id": 1184210527,
      "lat": 13.0189663,
      "lon": 77.5706728,
      "tags": {
        "amenity": "parking"
      }
    },
    {
      "type": "node",
      "id": 1185581613,
      "lat": 13.0177195,
      "lon": 77.5712755,
      "tags": {
        "amenity": "parking"
      }
    },
    {
      "type": "node",
      "id": 1185581616,
      "lat": 13.0168433,
      "lon": 77.5717684,
      "tags": {
        "amenity": "parking"
      }
    },
    {
      "type": "node",
      "id": 1185581622,
      "lat": 13.0186674,
      "lon": 77.5702771,
      "tags": {
        "amenity": "bicycle_parking"
      }
    },
    {
      "type": "node",
      "id": 1185581667,
      "lat": 13.0187044,
      "lon": 77.5702515,
      "tags": {
        "amenity": "parking",
        "ele": "934.760498",
        "wpt_description": "31-JAN-11 2:09:31AM"
      }
    },
    {
      "type": "node",
      "id": 1186888766,
      "lat": 13.0189316,
      "lon": 77.5711525,
      "tags": {
        "amenity": "bicycle_parking",
        "ele": "928.511963",
        "name": "133",
        "wpt_description": "31-JAN-11 2:28:36AM",
        "wpt_symbol": "Flag, Blue"
      }
    },
    {
      "type": "node",
      "id": 1464775796,
      "lat": 13.0291835,
      "lon": 77.5788862,
      "tags": {
        "amenity": "fuel",
        "operator": "IBP"
      }
    },
    {
      "type": "node",
      "id": 1467309641,
      "lat": 13.0281022,
      "lon": 77.5733848,
      "tags": {
        "amenity": "cafe",
        "brand": "Cafe Coffee Day",
        "brand:wikidata": "Q5017235",
        "cuisine": "coffee_shop",
        "name": "Cafe Coffee Day",
        "name:kn": "ಕಫೆ ಕಾಫಿ ಡೇ",
        "takeaway": "yes"
      }
    },
    {
      "type": "node",
      "id": 1467318815,
      "lat": 13.0280073,
      "lon": 77.5725777,
      "tags": {
        "amenity": "cafe",
        "check_date": "2025-12-01",
        "cuisine": "ice_cream",
        "name": "Corner House"
      }
    },
    {
      "type": "node",
      "id": 1467328374,
      "lat": 13.0283015,
      "lon": 77.5726596,
      "tags": {
        "amenity": "bank",
        "atm": "yes",
        "brand": "HDFC Bank",
        "brand:wikidata": "Q631047",
        "brand:wikipedia": "en:HDFC Bank",
        "name": "HDFC Bank",
        "name:kn": "ಎಚ್. ಡಿ. ಎಫ್. ಸಿ. ಬ್ಯಾಂಕ್",
        "operator": "HDFC Bank",
        "short_name": "HDFC",
        "website": "https://www.hdfcbank.com"
      }
    },
    {
      "type": "node",
      "id": 1467329134,
      "lat": 13.0272537,
      "lon": 77.5774582,
      "tags": {
        "amenity": "atm",
        "brand": "IDBI Bank",
        "brand:wikidata": "Q3633485",
        "name": "IDBI Bank",
        "operator": "IDBI Bank",
        "operator:wikidata": "Q3633485",
        "short_name": "IDBI"
      }
    },
    {
      "type": "node",
      "id": 1467335519,
      "lat": 13.0292314,
      "lon": 77.5787817,
      "tags": {
        "amenity": "atm",
        "operator": "Dhanalakshmi Bank"
      }
    },
    {
      "type": "node",
      "id": 1467359289,
      "lat": 13.0282784,
      "lon": 77.5715263,
      "tags": {
        "amenity": "pharmacy",
        "check_date": "2025-12-01",
        "name": "Maruthi Medical Store",
        "toilets:wheelchair": "no",
        "wheelchair": "limited"
      }
    },
    {
      "type": "node",
      "id": 1467362696,
      "lat": 13.0285232,
      "lon": 77.5716015,
      "tags": {
        "addr:city": "Bangalore",
        "addr:housenumber": "51",
        "addr:postcode": "560094",
        "addr:street": "80 Feet Road, Rmv Extension,",
        "name": "Kwality BIg Bazaar",
        "phone": "080-23515851",
        "shop": "convenience",
        "website": "NA"
      }
    },
    {
      "type": "node",
      "id": 1467371493,
      "lat": 13.0280554,
      "lon": 77.5733958,
      "tags": {
        "name": "Just Books",
        "name:kn": "ಜಸ್ಟ್ ಬುಕ್ಸ್",
        "shop": "books"
      }
    },
    {
      "type": "node",
      "id": 1467374658,
      "lat": 13.0280149,
      "lon": 77.5739162,
      "tags": {
        "brand": "HOPCOMS",
        "brand:wikidata": "Q22908959",
        "name": "HOPCOMS",
        "name:kn": "ಹಾಪ್ ಕಾಮ್ಸ್",
        "shop": "greengrocer",
        "wheelchair": "limited"
      }
    },
    {
      "type": "node",
      "id": 1468860444,
      "lat": 13.0272928,
      "lon": 77.579549,
      "tags": {
        "name": "Classic",
        "shop": "hairdresser"
      }
    },
    {
      "type": "node",
      "id": 1469035491,
      "lat": 13.0268364,
      "lon": 77.5798131,
      "tags": {
        "amenity": "pharmacy",
        "name": "St John's Medical Camp"
      }
    },
    {
      "type": "node",
      "id": 1469035492,
      "lat": 13.0281613,
      "lon": 77.5793947,
      "tags": {
        "amenity": "hospital",
        "name": "Amma's ENT Clinic"
      }
    },
    {
      "type": "node",
      "id": 1469035493,
      "lat": 13.0268965,
      "lon": 77.5799419,
      "tags": {
        "amenity": "pharmacy",
        "brand": "MedPlus",
        "brand:wikidata": "Q65684234",
        "healthcare": "pharmacy",
        "name": "MedPlus",
        "name:kn": "ಮೆಡ್‍ಪ್ಲಸ್"
      }
    },
    {
      "type": "node",
      "id": 1469036754,
      "lat": 13.026721,
      "lon": 77.5789272,
      "tags": {
        "alt_name": "Saraswathi Aithal Clinic",
        "amenity": "hospital",
        "name": "Krishna Specialty Clinic"
      }
    },
    {
      "type": "node",
      "id": 1471780073,
      "lat": 13.027249,
      "lon": 77.5798112,
      "tags": {
        "amenity": "restaurant",
        "name": "Paratha plaza",
        "name:kn": "ಪರಾಠ ಪ್ಲಾಜ"
      }
    },
    {
      "type": "node",
      "id": 1472111412,
      "lat": 13.028248,
      "lon": 77.5792969,
      "tags": {
        "name": "Rasagolla Shoppe",
        "shop": "bakery"
      }
    },
    {
      "type": "node",
      "id": 1473190732,
      "lat": 13.0298437,
      "lon": 77.5782954,
      "tags": {
        "amenity": "bank",
        "atm": "yes",
        "brand": "Corporation Bank",
        "brand:wikidata": "Q2003387",
        "name": "Corporation Bank",
        "name:kn": "ಕಾರ್ಪರೇಷನ್ ಬ್ಯಾಂಕ್",
        "operator": "Corporation Bank"
      }
    },
    {
      "type": "node",
      "id": 1474819116,
      "lat": 13.0270037,
      "lon": 77.5858396,
      "tags": {
        "name": "Gilma Store",
        "shop": "convenience"
      }
    },
    {
      "type": "node",
      "id": 1474819350,
      "lat": 13.0267603,
      "lon": 77.5798301,
      "tags": {
        "name": "Pit stop bike shop",
        "shop": "motorcycle"
      }
    },
    {
      "type": "node",
      "id": 1619979549,
      "lat": 13.0268312,
      "lon": 77.5789417,
      "tags": {
        "name": "Harsha Bakery",
        "shop": "bakery"
      }
    },
    {
      "type": "node",
      "id": 1871547602,
      "lat": 13.0282521,
      "lon": 77.5729006,
      "tags": {
        "amenity": "restaurant",
        "cuisine": "international",
        "name": "Ice and Spice"
      }
    },
    {
      "type": "node",
      "id": 1947633347,
      "lat": 13.0257883,
      "lon": 77.5808222,
      "tags": {
        "amenity": "atm",
        "brand": "HDFC Bank",
        "brand:wikidata": "Q631047",
        "name": "HDFC Bank",
        "name:kn": "ಎಚ್ ಡಿ ಎಫ್ ಸಿ",
        "operator": "HDFC Bank",
        "operator:wikidata": "Q631047",
        "short_name": "HDFC"
      }
    },
    {
      "type": "node",
      "id": 1947633354,
      "lat": 13.0256918,
      "lon": 77.5809536,
      "tags": {
        "shop": "florist"
      }
    },
    {
      "type": "node",
      "id": 1947633360,
      "lat": 13.0282258,
      "lon": 77.5730112,
      "tags": {
        "amenity": "restaurant",
        "name": "Frappy's"
      }
    },
    {
      "type": "node",
      "id": 2037714989,
      "lat": 13.0273009,
      "lon": 77.5785761,
      "tags": {
        "amenity": "place_of_worship",
        "name": "Madeena Masjid",
        "name:kn": "ಮದೀನ ಮಸೀದಿ",
        "religion": "muslim"
      }
    },
    {
      "type": "node",
      "id": 2037714993,
      "lat": 13.0266819,
      "lon": 77.5796268,
      "tags": {
        "name": "R N Tailors",
        "shop": "tailor"
      }
    },
    {
      "type": "node",
      "id": 2037714997,
      "lat": 13.0255583,
      "lon": 77.5797517,
      "tags": {
        "amenity": "place_of_worship",
        "name": "Gurudwara",
        "name:kn": "ಗುರುದ್ವಾರ"
      }
    },
    {
      "type": "node",
      "id": 2037714998,
      "lat": 13.0253913,
      "lon": 77.579918,
      "tags": {
        "shop": "hairdresser"
      }
    },
    {
      "type": "node",
      "id": 2037715000,
      "lat": 13.0266898,
      "lon": 77.5795455,
      "tags": {
        "name": "Uma Dry Cleaners",
        "shop": "laundry"
      }
    },
    {
      "type": "node",
      "id": 2041904694,
      "lat": 13.0260861,
      "lon": 77.5799826,
      "tags": {
        "amenity": "pharmacy",
        "dispensing": "yes",
        "name": "Bajaj Medical Shop"
      }
    },
    {
      "type": "node",
      "id": 2044405459,
      "lat": 13.0265464,
      "lon": 77.5796929,
      "tags": {
        "name": "Star City Mutton Stall",
        "shop": "butcher"
      }
    },
    {
      "type": "node",
      "id": 2084115319,
      "lat": 13.0298117,
      "lon": 77.5783199,
      "tags": {
        "amenity": "atm",
        "operator": "Axis Bank ATM"
      }
    },
    {
      "type": "node",
      "id": 2297715692,
      "lat": 13.0250446,
      "lon": 77.5781055,
      "tags": {
        "shop": "supermarket"
      }
    },
    {
      "type": "node",
      "id": 2297715817,
      "lat": 13.0265722,
      "lon": 77.5795534,
      "tags": {
        "name": "Sai Bike Service Station",
        "sale": "no",
        "service": "yes",
        "shop": "motorcycle"
      }
    },
    {
      "type": "node",
      "id": 2297715821,
      "lat": 13.0269768,
      "lon": 77.5778843,
      "tags": {
        "shop": "car_repair"
      }
    },
    {
      "type": "node",
      "id": 2309677672,
      "lat": 13.028009,
      "lon": 77.5728764,
      "tags": {
        "alt_name": "Khushi multicuisine restaurant",
        "amenity": "restaurant",
        "cuisine": "indian",
        "name": "Bhaga's"
      }
    },
    {
      "type": "node",
      "id": 2309677682,
      "lat": 13.0284874,
      "lon": 77.5717984,
      "tags": {
        "name": "Archies",
        "shop": "gift"
      }
    },
    {
      "type": "node",
      "id": 2309677686,
      "lat": 13.0281424,
      "lon": 77.5733461,
      "tags": {
        "amenity": "restaurant",
        "cuisine": "international",
        "name": "Tomatoes"
      }
    },
    {
      "type": "node",
      "id": 2309684404,
      "lat": 13.0273348,
      "lon": 77.5765728,
      "tags": {
        "amenity": "restaurant",
        "cuisine": "indian",
        "name": "Darasuni",
        "wheelchair": "no"
      }
    },
    {
      "type": "node",
      "id": 2309684405,
      "lat": 13.027186,
      "lon": 77.5776081,
      "tags": {
        "name": "3M Car Care",
        "shop": "car_repair"
      }
    },
    {
      "type": "node",
      "id": 2458999135,
      "lat": 13.0229372,
      "lon": 77.5848295,
      "tags": {
        "addr:city": "Bangalore",
        "addr:postcode": "560032",
        "addr:street": "Bellary Road",
        "alt_name": "A2B",
        "amenity": "restaurant",
        "brand": "Adyar Ananda Bhavan",
        "brand:wikidata": "Q15178238",
        "cuisine": "regional",
        "diet:vegetarian": "only",
        "email": "info@aabsweets.com",
        "name": "Adyar Ananda Bhavan",
        "name:kn": "ಆದ್ಯಾರ್ ಆನಂದ ಭವನ",
        "operator": "Adyar Ananda Bhavan",
        "phone": "+91 80 4151 5454",
        "smoking": "no",
        "website": "https://aabsweets.com",
        "wheelchair": "no"
      }
    },
    {
      "type": "node",
      "id": 2665993754,
      "lat": 13.0292523,
      "lon": 77.5829489,
      "tags": {
        "amenity": "school",
        "name": "UAS School"
      }
    },
    {
      "type": "node",
      "id": 2702151800,
      "lat": 13.0273584,
      "lon": 77.5763017,
      "tags": {
        "amenity": "cafe",
        "cuisine": "bavarian",
        "name": "Cafe Rossini",
        "wheelchair": "no"
      }
    },
    {
      "type": "node",
      "id": 2703661724,
      "lat": 13.0271442,
      "lon": 77.578158,
      "tags": {
        "amenity": "atm",
        "brand": "Axis Bank",
        "brand:wikidata": "Q2003549",
        "name": "Axis Bank",
        "operator": "Axis Bank",
        "operator:wikidata": "Q2003549"
      }
    },
    {
      "type": "node",
      "id": 2703661726,
      "lat": 13.0282068,
      "lon": 77.5729312,
      "tags": {
        "amenity": "atm",
        "brand": "Karnataka Bank",
        "brand:wikidata": "Q2042632",
        "operator": "Karnataka Bank",
        "operator:wikidata": "Q2042632"
      }
    },
    {
      "type": "node",
      "id": 2896563906,
      "lat": 13.0271848,
      "lon": 77.571876,
      "tags": {
        "amenity": "restaurant",
        "check_date": "2025-08-08",
        "cuisine": "chinese",
        "name": "Canyin"
      }
    },
    {
      "type": "node",
      "id": 2897376820,
      "lat": 13.0282899,
      "lon": 77.5714773,
      "tags": {
        "amenity": "restaurant",
        "check_date": "2025-12-01",
        "name": "A1 Rice Bowl"
      }
    },
    {
      "type": "node",
      "id": 3001237835,
      "lat": 13.0192552,
      "lon": 77.5707254,
      "tags": {
        "amenity": "college",
        "name": "Divecha Centre for Climate Change"
      }
    },
    {
      "type": "node",
      "id": 3316943067,
      "lat": 13.0268022,
      "lon": 77.5794516,
      "tags": {
        "alt_name": "Brahmin's Plate Idlis",
        "amenity": "restaurant",
        "diet:vegetarian": "yes",
        "name": "Brahmin's Thatte Idli"
      }
    },
    {
      "type": "node",
      "id": 3316943068,
      "lat": 13.0269386,
      "lon": 77.5799437,
      "tags": {
        "amenity": "dentist",
        "name": "Lakshmi Dental Clinic"
      }
    },
    {
      "type": "node",
      "id": 3334054162,
      "lat": 13.02565,
      "lon": 77.579972,
      "tags": {
        "amenity": "place_of_worship",
        "religion": "hindu"
      }
    },
    {
      "type": "node",
      "id": 3337863242,
      "lat": 13.0230972,
      "lon": 77.5848995,
      "tags": {
        "amenity": "bank",
        "atm": "yes",
        "brand": "Corporation Bank",
        "brand:wikidata": "Q2003387",
        "brand:wikipedia": "en:Corporation Bank",
        "check_date": "2024-02-15",
        "name": "Union Bank of India",
        "name:en": "Union Bank of India",
        "wheelchair": "no"
      }
    },
    {
      "type": "node",
      "id": 3371410044,
      "lat": 13.0189413,
      "lon": 77.5708021,
      "tags": {
        "amenity": "cafe",
        "internet_access": "no",
        "name": "Coffee Club",
        "opening_hours": "Mo-Fr 10:00-11:30,15:00-17:00",
        "smoking": "no"
      }
    },
    {
      "type": "node",
      "id": 3555811424,
      "lat": 13.0279983,
      "lon": 77.5726967,
      "tags": {
        "amenity": "restaurant",
        "building": "yes",
        "cuisine": "chinese",
        "name": "Chung Wah",
        "name:kn": "ಚುಂಗ್ ವಾ"
      }
    },
    {
      "type": "node",
      "id": 4219746730,
      "lat": 13.0165683,
      "lon": 77.5709518,
      "tags": {
        "amenity": "college",
        "check_date": "2024-08-02",
        "name": "Department of Computational and Data Sciences",
        "short_name": "CDS"
      }
    },
    {
      "type": "node",
      "id": 4315190385,
      "lat": 13.0256648,
      "lon": 77.5820029,
      "tags": {
        "internet_access": "wlan",
        "name": "Veterinary College Boys Hostel Bakery",
        "shop": "bakery"
      }
    },
    {
      "type": "node",
      "id": 4488023121,
      "lat": 13.0227583,
      "lon": 77.5848341,
      "tags": {
        "addr:city": "Bangalore",
        "addr:housenumber": "37, 1stFloor",
        "addr:postcode": "560032",
        "addr:street": "Bellary Road, Naveen Complex Bellary, 1st Main Road, Ganganagar",
        "name": "Kadamba Sports & Fitness",
        "opening_hours": "10:00-21:00",
        "phone": "080 2333 4422",
        "shop": "sports"
      }
    },
    {
      "type": "node",
      "id": 4488052281,
      "lat": 13.030455,
      "lon": 77.5797656,
      "tags": {
        "addr:city": "Bangalore",
        "addr:postcode": "560094",
        "addr:street": "No126, 80 ft road, RMV 2nd Stage, Ashwath Nagar",
        "leisure": "sports_centre",
        "name": "ProCycle",
        "phone": "080 4114 0903"
      }
    },
    {
      "type": "node",
      "id": 4488099156,
      "lat": 13.0273271,
      "lon": 77.5782409,
      "tags": {
        "addr:city": "Bangalore",
        "addr:housenumber": "No.185/186,",
        "addr:postcode": "560094",
        "addr:street": "RMV 2nd Stage, 80 Feet Road, Ashwanthnagar, Sanjay Nagar,",
        "name": "Shopping Day",
        "phone": "+91 8277015000,",
        "shop": "supermarket",
        "website": "NA",
        "wheelchair": "no"
      }
    },
    {
      "type": "node",
      "id": 4489390993,
      "lat": 13.0282272,
      "lon": 77.5716378,
      "tags": {
        "addr:city": "Bangalore",
        "addr:postcode": "560094",
        "addr:street": "Lakshmi Corner,Opposite M S Ramaiah Hospital, Off New BEL Road, 80 Feet Rd, RMV 2nd Stage, Ashwath Nagar",
        "name": "Hatrick Sports",
        "opening_hours": "10:00-21:30",
        "phone": "080 2341 9864",
        "shop": "sports"
      }
    },
    {
      "type": "node",
      "id": 4552278323,
      "lat": 13.0271537,
      "lon": 77.5718835,
      "tags": {
        "amenity": "restaurant",
        "check_date": "2025-08-08",
        "name": "Gilly's Resto Bar"
      }
    },
    {
      "type": "node",
      "id": 4783350859,
      "lat": 13.0169075,
      "lon": 77.5844663,
      "tags": {
        "amenity": "toilets"
      }
    },
    {
      "type": "node",
      "id": 4973060956,
      "lat": 13.0224361,
      "lon": 77.5847518,
      "tags": {
        "amenity": "restaurant",
        "name": "Hotel Emirates"
      }
    },
    {
      "type": "node",
      "id": 4973098283,
      "lat": 13.0217462,
      "lon": 77.584538,
      "tags": {
        "amenity": "community_centre",
        "name": "Karnataka Kalyana Mantapa"
      }
    },
    {
      "type": "node",
      "id": 5174700153,
      "lat": 13.0145985,
      "lon": 77.5768381,
      "tags": {
        "amenity": "childcare",
        "name": "KLAY Prep Schools and Day Care"
      }
    },
    {
      "type": "node",
      "id": 5295212542,
      "lat": 13.0146472,
      "lon": 77.5782943,
      "tags": {
        "name": "Lalco Interiors",
        "shop": "interior_decoration"
      }
    },
    {
      "type": "node",
      "id": 5295212549,
      "lat": 13.0219792,
      "lon": 77.5846105,
      "tags": {
        "name": "TVS",
        "shop": "motorcycle"
      }
    },
    {
      "type": "node",
      "id": 5295212551,
      "lat": 13.0225676,
      "lon": 77.5847474,
      "tags": {
        "name": "SM Silks",
        "shop": "clothes"
      }
    },
    {
      "type": "node",
      "id": 5983371030,
      "lat": 13.0260907,
      "lon": 77.5849835,
      "tags": {
        "amenity": "restaurant",
        "name": "Indira Canteen"
      }
    },
    {
      "type": "node",
      "id": 6126093263,
      "lat": 13.0238647,
      "lon": 77.5851211,
      "tags": {
        "name": "Track & Trail",
        "shop": "bicycle"
      }
    },
    {
      "type": "node",
      "id": 6570549997,
      "lat": 13.0165511,
      "lon": 77.5714045,
      "tags": {
        "amenity": "bicycle_parking"
      }
    },
    {
      "type": "node",
      "id": 6570549998,
      "lat": 13.0164407,
      "lon": 77.5714125,
      "tags": {
        "amenity": "motorcycle_parking"
      }
    },
    {
      "type": "node",
      "id": 6570549999,
      "lat": 13.0169346,
      "lon": 77.5710028,
      "tags": {
        "amenity": "parking",
        "capacity": "4"
      }
    },
    {
      "type": "node",
      "id": 6575118610,
      "lat": 13.0187965,
      "lon": 77.5711028,
      "tags": {
        "amenity": "bicycle_parking"
      }
    },
    {
      "type": "node",
      "id": 6575118611,
      "lat": 13.0185548,
      "lon": 77.5711095,
      "tags": {
        "amenity": "bicycle_parking"
      }
    },
    {
      "type": "node",
      "id": 6575118612,
      "lat": 13.0184006,
      "lon": 77.5711101,
      "tags": {
        "amenity": "motorcycle_parking"
      }
    },
    {
      "type": "node",
      "id": 6575118613,
      "lat": 13.0187168,
      "lon": 77.5712845,
      "tags": {
        "amenity": "bicycle_rental"
      }
    },
    {
      "type": "node",
      "id": 6577109027,
      "lat": 13.0189794,
      "lon": 77.5710804,
      "tags": {
        "amenity": "bench"
      }
    },
    {
      "type": "node",
      "id": 6577109028,
      "lat": 13.0189796,
      "lon": 77.5710662,
      "tags": {
        "amenity": "bench"
      }
    },
    {
      "type": "node",
      "id": 6577109029,
      "lat": 13.0189798,
      "lon": 77.5710493,
      "tags": {
        "amenity": "bench"
      }
    },
    {
      "type": "node",
      "id": 6577109030,
      "lat": 13.0189797,
      "lon": 77.5710315,
      "tags": {
        "amenity": "bench"
      }
    },
    {
      "type": "node",
      "id": 6577109031,
      "lat": 13.01898,
      "lon": 77.5710152,
      "tags": {
        "amenity": "bench"
      }
    },
    {
      "type": "node",
      "id": 6577109032,
      "lat": 13.0189803,
      "lon": 77.571001,
      "tags": {
        "amenity": "bench"
      }
    },
    {
      "type": "node",
      "id": 6577109033,
      "lat": 13.019212,
      "lon": 77.5708701,
      "tags": {
        "amenity": "bench"
      }
    },
    {
      "type": "node",
      "id": 6577109034,
      "lat": 13.0191781,
      "lon": 77.5708707,
      "tags": {
        "amenity": "bench"
      }
    },
    {
      "type": "node",
      "id": 6577109035,
      "lat": 13.01915,
      "lon": 77.5708694,
      "tags": {
        "amenity": "bench"
      }
    },
    {
      "type": "node",
      "id": 6577109036,
      "lat": 13.019212,
      "lon": 77.5709043,
      "tags": {
        "amenity": "bench"
      }
    },
    {
      "type": "node",
      "id": 6577109037,
      "lat": 13.0191781,
      "lon": 77.5709043,
      "tags": {
        "amenity": "bench"
      }
    },
    {
      "type": "node",
      "id": 6577109038,
      "lat": 13.0191487,
      "lon": 77.5709043,
      "tags": {
        "amenity": "bench"
      }
    },
    {
      "type": "node",
      "id": 6577109039,
      "lat": 13.0191199,
      "lon": 77.5709043,
      "tags": {
        "amenity": "bench"
      }
    },
    {
      "type": "node",
      "id": 6577109040,
      "lat": 13.019118,
      "lon": 77.5708694,
      "tags": {
        "amenity": "bench"
      }
    },
    {
      "type": "node",
      "id": 6886594823,
      "lat": 13.0228765,
      "lon": 77.5848772,
      "tags": {
        "addr:city": "Bengaluru",
        "addr:district": "BENGALURU URBAN",
        "addr:full": "2, 10th Cross, Ganganagar, Bengaluru",
        "addr:postcode": "560032",
        "addr:state": "Karnataka",
        "amenity": "blood_bank",
        "contact:mobile": "9740330720",
        "contact:phone": "8023431233",
        "name": "Grace Blood Bank and Laboratory",
        "opening_hours": "24/7",
        "operator:type": "private",
        "source": "OpenGovernmentData"
      }
    },
    {
      "type": "node",
      "id": 6938864296,
      "lat": 13.0228314,
      "lon": 77.5863478,
      "tags": {
        "addr:district": "Bengaluru Urban",
        "addr:full": "CGHS Dispensary No.9, Gangenahalli 256, 1stCross, II Main Ganganagar, Layout",
        "addr:state": "Karnataka",
        "amenity": "clinic",
        "health_facility:type": "dispensary",
        "healthcare": "centre",
        "name": "CGHS Dispensary No.9",
        "operator:type": "government",
        "source": "OpenGovernmentData",
        "website": "http://nb.bsf.gov.in/CGHS%20DIspenseries.pdf"
      }
    },
    {
      "type": "node",
      "id": 6938988776,
      "lat": 13.0250141,
      "lon": 77.5856289,
      "tags": {
        "addr:district": "Bengaluru Urban",
        "addr:full": "1st Main Road, 7th Cross, Ganganagar",
        "addr:postcode": "560032",
        "addr:state": "Karnataka",
        "addr:subdistrict": "Ganganagar",
        "amenity": "hospital",
        "healthcare:speciality": "Piles; fistula; fissure",
        "name": "Dr. T.V.Ramesh Piles Hospital",
        "operator:type": "private",
        "source": "OpenGovernmentData",
        "website": "https://www.pilesramesh.com/"
      }
    },
    {
      "type": "node",
      "id": 7223109295,
      "lat": 13.024189,
      "lon": 77.5851756,
      "tags": {
        "amenity": "bank",
        "atm": "yes",
        "branch": "Gangenahalli",
        "brand": "State Bank of India",
        "brand:wikidata": "Q1340361",
        "check_date": "2025-09-19",
        "name": "State Bank of India",
        "operator": "State Bank of India",
        "short_name": "SBI"
      }
    },
    {
      "type": "node",
      "id": 7223109296,
      "lat": 13.0252747,
      "lon": 77.5854385,
      "tags": {
        "amenity": "bank",
        "atm": "yes",
        "brand": "Axis Bank",
        "brand:wikidata": "Q2003549",
        "name": "Axis Bank",
        "name:kn": "ಆಕ್ಸಿಸ್ ಬ್ಯಾಂಕ್",
        "operator": "Axis Bank"
      }
    },
    {
      "type": "node",
      "id": 7223109303,
      "lat": 13.0259692,
      "lon": 77.5850059,
      "tags": {
        "access": "yes",
        "amenity": "toilets",
        "fee": "yes"
      }
    },
    {
      "type": "node",
      "id": 7257189835,
      "lat": 13.0174156,
      "lon": 77.5840574,
      "tags": {
        "amenity": "bench",
        "backrest": "yes",
        "seats": "3"
      }
    },
    {
      "type": "node",
      "id": 7257189847,
      "lat": 13.0228696,
      "lon": 77.5848321,
      "tags": {
        "leisure": "fitness_centre",
        "name": "Eon Fitness"
      }
    },
    {
      "type": "node",
      "id": 7257189855,
      "lat": 13.0237231,
      "lon": 77.5850442,
      "tags": {
        "name": "R R Cycle",
        "shop": "bicycle"
      }
    },
    {
      "type": "node",
      "id": 7257728185,
      "lat": 13.0280499,
      "lon": 77.5715386,
      "tags": {
        "amenity": "fast_food",
        "brand": "Subway",
        "brand:pa": "ਸਬਵੇਅ",
        "brand:ur": "سب وے",
        "brand:wikidata": "Q244457",
        "brand:wikipedia": "en:Subway (restaurant)",
        "check_date": "2025-08-02",
        "cuisine": "sandwich",
        "name": "Subway",
        "name:pa": "ਸਬਵੇਅ",
        "name:ur": "سب وے",
        "takeaway": "yes"
      }
    },
    {
      "type": "node",
      "id": 7257728186,
      "lat": 13.0279258,
      "lon": 77.5715741,
      "tags": {
        "name": "Bharath Auto Tyres Shop",
        "shop": "tyres"
      }
    },
    {
      "type": "node",
      "id": 8442191506,
      "lat": 13.0151954,
      "lon": 77.58375,
      "tags": {
        "amenity": "bench",
        "backrest": "yes"
      }
    },
    {
      "type": "node",
      "id": 8442191507,
      "lat": 13.0304848,
      "lon": 77.5758007,
      "tags": {
        "amenity": "fast_food",
        "cuisine": "american",
        "delivery": "only",
        "name": "amerikhani",
        "opening_hours": "Mo-Su 08:00-22:00",
        "outdoor_seating": "no",
        "takeaway": "only"
      }
    },
    {
      "type": "node",
      "id": 9197342023,
      "lat": 13.0274554,
      "lon": 77.5772913,
      "tags": {
        "addr:city": "Bangalore",
        "addr:country": "IN",
        "addr:hamlet": "Dollars Colony",
        "addr:housename": "RK Plaza",
        "addr:postcode": "560094",
        "addr:street": "80 Feet Road",
        "addr:suburb": "Ashwath Nagar",
        "amenity": "cafe",
        "delivery": "yes",
        "name": "Old Madras Baking Company",
        "opening_hours": "08:00-23:00",
        "operator": "Old Madras Baking Company",
        "shop": "bakery",
        "takeaway": "yes"
      }
    },
    {
      "type": "node",
      "id": 9197342024,
      "lat": 13.0272477,
      "lon": 77.5765631,
      "tags": {
        "amenity": "cafe",
        "name": "Third Wave Coffee Roasters"
      }
    },
    {
      "type": "node",
      "id": 9197342025,
      "lat": 13.027398,
      "lon": 77.5760011,
      "tags": {
        "leisure": "fitness_station",
        "name": "Cult.fit",
        "wheelchair": "limited"
      }
    },
    {
      "type": "node",
      "id": 9197342026,
      "lat": 13.0274123,
      "lon": 77.575867,
      "tags": {
        "amenity": "cafe",
        "brand": "Starbucks",
        "brand:pa": "ਸਟਾਰਬਕਸ",
        "brand:ur": "اسٹاربکس",
        "brand:wikidata": "Q37158",
        "brand:wikipedia": "en:Starbucks",
        "cuisine": "coffee_shop",
        "name": "Starbucks",
        "name:pa": "ਸਟਾਰਬਕਸ",
        "name:ur": "اسٹاربکس",
        "official_name": "Starbucks Coffee",
        "official_name:pa": "ਸਟਾਰਬਕਸ ਕੌਫੀ",
        "official_name:ur": "اسٹاربکس کافی",
        "takeaway": "yes",
        "wheelchair": "no"
      }
    },
    {
      "type": "node",
      "id": 9197342027,
      "lat": 13.0277102,
      "lon": 77.5760025,
      "tags": {
        "name": "Ajfan Dry Fruits and Nuts",
        "shop": "convenience"
      }
    },
    {
      "type": "node",
      "id": 9197342028,
      "lat": 13.0278749,
      "lon": 77.5751294,
      "tags": {
        "amenity": "ice_cream",
        "name": "Milano Ice Cream",
        "wheelchair": "no"
      }
    },
    {
      "type": "node",
      "id": 9197342029,
      "lat": 13.0279894,
      "lon": 77.5726551,
      "tags": {
        "amenity": "restaurant",
        "check_date": "2025-12-01",
        "name": "IDC Kitchen"
      }
    },
    {
      "type": "node",
      "id": 9197342030,
      "lat": 13.0286549,
      "lon": 77.5719067,
      "tags": {
        "amenity": "restaurant",
        "cuisine": "punjabi",
        "name": "Queens"
      }
    },
    {
      "type": "node",
      "id": 9197342031,
      "lat": 13.0284577,
      "lon": 77.571902,
      "tags": {
        "amenity": "restaurant",
        "name": "Leon Grill"
      }
    },
    {
      "type": "node",
      "id": 9197342034,
      "lat": 13.0281976,
      "lon": 77.5731593,
      "tags": {
        "amenity": "restaurant",
        "name": "The Belgian Waffel Co."
      }
    },
    {
      "type": "node",
      "id": 9466195428,
      "lat": 13.0284621,
      "lon": 77.5719342,
      "tags": {
        "amenity": "pub"
      }
    },
    {
      "type": "node",
      "id": 9583428972,
      "lat": 13.0139397,
      "lon": 77.5787263,
      "tags": {
        "amenity": "bank",
        "atm": "yes",
        "brand": "HDFC Bank",
        "brand:wikidata": "Q631047",
        "name": "HDFC Bank",
        "name:kn": "ಎಚ್ ಡಿ ಎಫ್ ಸಿ",
        "operator": "HDFC Bank",
        "short_name": "HDFC"
      }
    },
    {
      "type": "node",
      "id": 9583428973,
      "lat": 13.0145081,
      "lon": 77.5742617,
      "tags": {
        "amenity": "veterinary",
        "name": "Cessna Lifeline Veterinary Hospital"
      }
    },
    {
      "type": "node",
      "id": 9709501450,
      "lat": 13.0283896,
      "lon": 77.5722836,
      "tags": {
        "name": "iPlanet",
        "shop": "electronics"
      }
    },
    {
      "type": "node",
      "id": 9709501451,
      "lat": 13.0282825,
      "lon": 77.5728013,
      "tags": {
        "amenity": "cafe",
        "name": "Glen's Bakehouse",
        "shop": "bakery"
      }
    },
    {
      "type": "node",
      "id": 9739831279,
      "lat": 13.0221154,
      "lon": 77.5847036,
      "tags": {
        "amenity": "restaurant",
        "cuisine": "regional",
        "name": "Punjabi Rasoi"
      }
    },
    {
      "type": "node",
      "id": 9826431267,
      "lat": 13.0222937,
      "lon": 77.5847256,
      "tags": {
        "amenity": "restaurant",
        "name": "The Punjabi Rasoi"
      }
    },
    {
      "type": "node",
      "id": 10033755411,
      "lat": 13.0272434,
      "lon": 77.571858,
      "tags": {
        "amenity": "restaurant",
        "cuisine": "chinese",
        "name": "Chinese Wok"
      }
    },
    {
      "type": "node",
      "id": 10124399211,
      "lat": 13.0146179,
      "lon": 77.5781925,
      "tags": {
        "name": "Sculpu",
        "shop": "interior_decoration"
      }
    },
    {
      "type": "node",
      "id": 10212418972,
      "lat": 13.0293905,
      "lon": 77.5784862,
      "tags": {
        "shop": "greengrocer"
      }
    },
    {
      "type": "node",
      "id": 10212418973,
      "lat": 13.0271472,
      "lon": 77.5791256,
      "tags": {
        "check_date": "2024-09-01",
        "name": "Namdhari's Fresh",
        "shop": "supermarket"
      }
    },
    {
      "type": "node",
      "id": 10212418978,
      "lat": 13.0274959,
      "lon": 77.5771357,
      "tags": {
        "name": "Blown",
        "shop": "beauty"
      }
    },
    {
      "type": "node",
      "id": 10212418991,
      "lat": 13.0276122,
      "lon": 77.5764397,
      "tags": {
        "amenity": "restaurant",
        "cuisine": "regional",
        "name": "Nammura Naati Mane"
      }
    },
    {
      "type": "node",
      "id": 10212418992,
      "lat": 13.0276645,
      "lon": 77.5762868,
      "tags": {
        "amenity": "cafe",
        "name": "Theobroma",
        "shop": "bakery"
      }
    },
    {
      "type": "node",
      "id": 10212418993,
      "lat": 13.0278814,
      "lon": 77.5750376,
      "tags": {
        "amenity": "fast_food",
        "contact:instagram": "milanopizzacafe_india",
        "cuisine": "pizza",
        "name": "Milano Pizza",
        "wheelchair": "no"
      }
    },
    {
      "type": "node",
      "id": 10242924663,
      "lat": 13.0261502,
      "lon": 77.5776319,
      "tags": {
        "amenity": "clinic",
        "name": "BBMP Clinic"
      }
    },
    {
      "type": "node",
      "id": 10242924686,
      "lat": 13.0242809,
      "lon": 77.5866545,
      "tags": {
        "amenity": "recycling",
        "name": "BBMP Dry Waste Collection Center",
        "name:kn": "ಒಣ ತ್ಯಾಜ್ಯ ನಿರ್ವಹಣೆಗೆ ಸ್ಥಳ",
        "recycling_type": "centre"
      }
    },
    {
      "type": "node",
      "id": 10296638734,
      "lat": 13.0191702,
      "lon": 77.5852802,
      "tags": {
        "addr:city": "Bangalore",
        "addr:country": "IN",
        "addr:hamlet": "Ganganagar",
        "addr:housenumber": "8",
        "addr:postcode": "560032",
        "addr:street": "Bellary Road",
        "amenity": "bar",
        "contact:facebook": "CopitasBengaluru",
        "contact:instagram": "copitasbengaluru",
        "email": "copitas.bng@fourseasons.com",
        "level": "21",
        "name": "Copitas",
        "opening_hours": "Tu-Su 17:00-01:00",
        "phone": "96456 69697",
        "website": "https://www.fourseasons.com/bengaluru/dining/lounges/copitas/"
      }
    },
    {
      "type": "node",
      "id": 10574607719,
      "lat": 13.0293422,
      "lon": 77.5837058,
      "tags": {
        "amenity": "college",
        "name": "Dairy Science College"
      }
    },
    {
      "type": "node",
      "id": 10574607724,
      "lat": 13.0285112,
      "lon": 77.5835663,
      "tags": {
        "amenity": "college",
        "name": "National Bureau of Soil Survey and Landuse Planning"
      }
    },
    {
      "type": "node",
      "id": 10753151495,
      "lat": 13.0311635,
      "lon": 77.5771639,
      "tags": {
        "amenity": "fuel",
        "brand": "Nayara",
        "brand:wikidata": "Q1360409",
        "name": "Nayara",
        "operator": "Nayara"
      }
    },
    {
      "type": "node",
      "id": 10753151502,
      "lat": 13.030552,
      "lon": 77.5777929,
      "tags": {
        "amenity": "fast_food",
        "name": "Sri Ganesh Darshini"
      }
    },
    {
      "type": "node",
      "id": 10753151503,
      "lat": 13.0302084,
      "lon": 77.5780423,
      "tags": {
        "name": "Just Bake",
        "name:kn": "ಜಸ್ಟ್ ಬೇಕ್",
        "shop": "bakery"
      }
    },
    {
      "type": "node",
      "id": 10753151510,
      "lat": 13.0285491,
      "lon": 77.5791071,
      "tags": {
        "name": "Nandini Milk Parlour",
        "shop": "dairy"
      }
    },
    {
      "type": "node",
      "id": 10753151511,
      "lat": 13.0282917,
      "lon": 77.5790736,
      "tags": {
        "shop": "greengrocer"
      }
    },
    {
      "type": "node",
      "id": 10753151512,
      "lat": 13.0285504,
      "lon": 77.5789918,
      "tags": {
        "access": "yes",
        "amenity": "toilets",
        "fee": "yes",
        "female": "yes",
        "male": "yes",
        "operator": "BBMP"
      }
    },
    {
      "type": "node",
      "id": 11117243810,
      "lat": 13.0299497,
      "lon": 77.5784688,
      "tags": {
        "amenity": "restaurant",
        "cuisine": "pizza",
        "delivery": "yes",
        "name": "Nomad Pizza",
        "takeaway": "yes"
      }
    },
    {
      "type": "node",
      "id": 11176400127,
      "lat": 13.0271928,
      "lon": 77.5767475,
      "tags": {
        "amenity": "restaurant",
        "check_date": "2023-09-02",
        "diet:vegetarian": "yes",
        "name": "Ayodhya aahar",
        "wheelchair": "yes"
      }
    },
    {
      "type": "node",
      "id": 11176400129,
      "lat": 13.0275337,
      "lon": 77.576734,
      "tags": {
        "check_date": "2023-09-02",
        "name": "Reeti Designer studio",
        "shop": "clothes",
        "wheelchair": "no"
      }
    },
    {
      "type": "node",
      "id": 11475679272,
      "lat": 13.0282636,
      "lon": 77.5731795,
      "tags": {
        "addr:city": "Bengaluru",
        "addr:country": "IN",
        "addr:housenumber": "83",
        "addr:postcode": "560094",
        "addr:street": "80 Feet Road",
        "amenity": "cafe",
        "delivery": "yes",
        "name": "Rosé Restaurant And Patisserie",
        "takeaway": "yes"
      }
    },
    {
      "type": "node",
      "id": 11626785030,
      "lat": 13.0192846,
      "lon": 77.5851267,
      "tags": {
        "amenity": "pub",
        "check_date": "2024-02-15",
        "name": "Hopshaus"
      }
    },
    {
      "type": "node",
      "id": 11850255969,
      "lat": 13.0311563,
      "lon": 77.5778161,
      "tags": {
        "amenity": "school",
        "name": "चिरंतना इंग्लिश स्कूल",
        "name:en": "Chirantana English High school"
      }
    },
    {
      "type": "node",
      "id": 12135686523,
      "lat": 13.0188924,
      "lon": 77.5840565,
      "tags": {
        "amenity": "bench",
        "backrest": "yes",
        "material": "stone",
        "seats": "2"
      }
    },
    {
      "type": "node",
      "id": 12140229732,
      "lat": 13.025346,
      "lon": 77.5846247,
      "tags": {
        "access": "permissive",
        "amenity": "parking_entrance",
        "parking": "underground"
      }
    },
    {
      "type": "node",
      "id": 12149544732,
      "lat": 13.0275983,
      "lon": 77.5748627,
      "tags": {
        "amenity": "restaurant",
        "check_date": "2024-09-01",
        "cuisine": "pizza",
        "delivery": "yes",
        "name": "The Pizza Bakery",
        "outdoor_seating": "yes",
        "takeaway": "yes",
        "toilets": "yes",
        "wheelchair": "no"
      }
    },
    {
      "type": "node",
      "id": 12149544733,
      "lat": 13.0276129,
      "lon": 77.5747367,
      "tags": {
        "amenity": "fast_food",
        "check_date": "2024-09-01",
        "name": "Paris Panini",
        "wheelchair": "no"
      }
    },
    {
      "type": "node",
      "id": 12149544734,
      "lat": 13.0273632,
      "lon": 77.5761223,
      "tags": {
        "check_date": "2024-09-01",
        "name": "KC Das",
        "shop": "confectionery",
        "wheelchair": "no"
      }
    },
    {
      "type": "node",
      "id": 12149544735,
      "lat": 13.0272159,
      "lon": 77.577638,
      "tags": {
        "amenity": "post_box"
      }
    },
    {
      "type": "node",
      "id": 12149767435,
      "lat": 13.02577,
      "lon": 77.5844822,
      "tags": {
        "access": "permissive",
        "amenity": "drinking_water",
        "fee": "no"
      }
    },
    {
      "type": "node",
      "id": 12149767436,
      "lat": 13.0258564,
      "lon": 77.5844357,
      "tags": {
        "access": "permissive",
        "addr:floor": "1",
        "amenity": "toilets",
        "check_date": "2024-09-01",
        "level": "1"
      }
    },
    {
      "type": "node",
      "id": 12149838036,
      "lat": 13.0270577,
      "lon": 77.5793812,
      "tags": {
        "check_date": "2024-09-01",
        "name": "Step Up",
        "shop": "shoes"
      }
    },
    {
      "type": "node",
      "id": 12149838039,
      "lat": 13.027107,
      "lon": 77.5790867,
      "tags": {
        "check_date": "2024-09-01",
        "shop": "laundry"
      }
    },
    {
      "type": "node",
      "id": 12149838040,
      "lat": 13.0269073,
      "lon": 77.5791047,
      "tags": {
        "check_date": "2024-09-01",
        "name": "Chat",
        "shop": "kiosk"
      }
    },
    {
      "type": "node",
      "id": 12208469960,
      "lat": 13.0277599,
      "lon": 77.5738956,
      "tags": {
        "amenity": "ice_cream",
        "name": "Cream Stone"
      }
    },
    {
      "type": "node",
      "id": 12223936560,
      "lat": 13.0290669,
      "lon": 77.5794135,
      "tags": {
        "amenity": "waste_basket",
        "colour": "j"
      }
    },
    {
      "type": "node",
      "id": 12223936562,
      "lat": 13.0288817,
      "lon": 77.5790722,
      "tags": {
        "amenity": "waste_basket",
        "colour": "j"
      }
    },
    {
      "type": "node",
      "id": 12364258201,
      "lat": 13.0145068,
      "lon": 77.5743315,
      "tags": {
        "addr:city": "Bengaluru",
        "addr:country": "IN",
        "addr:hamlet": "RMV Extension",
        "addr:housenumber": "238",
        "addr:postcode": "560080",
        "addr:street": "Dr. CV Raman Road",
        "addr:suburb": "Sadashivanagar",
        "amenity": "cafe",
        "contact:instagram": "thebrowntable_blr",
        "name": "The Brown Table",
        "opening_hours": "08:00-23:00",
        "takeaway": "yes",
        "toilets": "yes"
      }
    },
    {
      "type": "node",
      "id": 12450996660,
      "lat": 13.0206082,
      "lon": 77.5837838,
      "tags": {
        "amenity": "bench",
        "backrest": "yes"
      }
    },
    {
      "type": "node",
      "id": 12487713375,
      "lat": 13.0296603,
      "lon": 77.5805059,
      "tags": {
        "brand": "HOPCOMS",
        "brand:wikidata": "Q22908959",
        "name": "HOPCOMS",
        "shop": "greengrocer"
      }
    },
    {
      "type": "node",
      "id": 12517671097,
      "lat": 13.0271232,
      "lon": 77.5792184,
      "tags": {
        "addr:street": "80 feet road",
        "amenity": "bank",
        "atm": "yes",
        "brand": "Canara Bank",
        "brand:en": "Canara Bank",
        "brand:hi": "केनरा बैंक",
        "brand:kn": "ಕೆನರಾ ಬ್ಯಾಂಕ್",
        "brand:pa": "ਕੇਨਰਾ ਬੈਂਕ",
        "brand:pnb": "کینرا بینک",
        "brand:ur": "کینرا بینک",
        "brand:wikidata": "Q2003777",
        "brand:wikipedia": "en:Canara Bank",
        "brand:wikipedia:pa": "ਕੇਨਰਾ ਬੈਂਕ",
        "name": "Canara Bank",
        "name:en": "Canara Bank",
        "name:hi": "केनरा बैंक",
        "name:kn": "ಕೆನರಾ ಬ್ಯಾಂಕ್",
        "name:pa": "ਕੇਨਰਾ ਬੈਂਕ",
        "name:pnb": "کینرا بینک",
        "name:ur": "کینرا بینک",
        "website": "https://www.canarabank.com/"
      }
    },
    {
      "type": "node",
      "id": 12519659558,
      "lat": 13.0271055,
      "lon": 77.5778326,
      "tags": {
        "addr:city": "Bengaluru",
        "addr:housenumber": "3",
        "addr:postcode": "560094",
        "addr:street": "80 Feet Road, New Bel Rd, near MSR Hospital Road, Ashwath Nagar, R.M.V. 2nd Stage",
        "amenity": "clinic",
        "healthcare": "clinic",
        "name": "Dental Cures Clinic"
      }
    },
    {
      "type": "node",
      "id": 12541388519,
      "lat": 13.0282975,
      "lon": 77.5731188,
      "tags": {
        "addr:city": "Bengaluru",
        "addr:housenumber": "84",
        "addr:postcode": "560094",
        "addr:street": "80 Feet Rd, Jaladarsini Layout, Sanjayanagara",
        "amenity": "restaurant",
        "cuisine": "american",
        "name": "Truffles"
      }
    },
    {
      "type": "node",
      "id": 12957089042,
      "lat": 13.0275443,
      "lon": 77.5770193,
      "tags": {
        "addr:floor": "4",
        "air_conditioning": "yes",
        "amenity": "cafe",
        "check_date": "2025-06-28",
        "contact:instagram": "https://www.instagram.com/thestagecafe_blr",
        "cuisine": "coffee_shop",
        "delivery": "yes",
        "level": "4",
        "name": "The Stage Cafe",
        "opening_hours": "09:00-23:00",
        "takeaway": "yes",
        "toilets": "yes",
        "website": "https://thestagecafe.in"
      }
    },
    {
      "type": "node",
      "id": 12985053029,
      "lat": 13.0202802,
      "lon": 77.5783253,
      "tags": {
        "amenity": "bench",
        "backrest": "yes"
      }
    },
    {
      "type": "node",
      "id": 12985053030,
      "lat": 13.0201855,
      "lon": 77.5783702,
      "tags": {
        "amenity": "bench",
        "backrest": "yes"
      }
    },
    {
      "type": "node",
      "id": 13013584295,
      "lat": 13.0274933,
      "lon": 77.5773905,
      "tags": {
        "amenity": "restaurant",
        "name": "Curry Central"
      }
    },
    {
      "type": "node",
      "id": 13013588745,
      "lat": 13.0276135,
      "lon": 77.5717753,
      "tags": {
        "addr:city": "Bengaluru",
        "addr:country": "IN",
        "addr:postcode": "560024",
        "addr:street": "New BEL Road",
        "addr:suburb": "RMV 2nd Stage",
        "amenity": "restaurant",
        "check_date": "2025-12-01",
        "contact:instagram": "sinonnas",
        "cuisine": "pizza",
        "delivery": "yes",
        "name": "Si Nonna's",
        "reservation": "yes",
        "takeaway": "yes",
        "toilets": "yes",
        "website": "https://sinonnas.com/"
      }
    },
    {
      "type": "node",
      "id": 13033883599,
      "lat": 13.015249,
      "lon": 77.583746,
      "tags": {
        "amenity": "place_of_worship",
        "religion": "hindu"
      }
    },
    {
      "type": "node",
      "id": 13043171891,
      "lat": 13.0282476,
      "lon": 77.5714826,
      "tags": {
        "amenity": "pharmacy",
        "check_date": "2025-08-08",
        "name": "Divya Medicals"
      }
    },
    {
      "type": "node",
      "id": 13043171896,
      "lat": 13.0276847,
      "lon": 77.5717056,
      "tags": {
        "brand": "Lenskart",
        "brand:wikidata": "Q17068753",
        "check_date": "2025-12-01",
        "name": "Lenskart",
        "shop": "optician"
      }
    },
    {
      "type": "node",
      "id": 13043171897,
      "lat": 13.027296,
      "lon": 77.5718397,
      "tags": {
        "check_date": "2025-08-08",
        "leisure": "escape_game",
        "name": "Mystery Owl"
      }
    },
    {
      "type": "node",
      "id": 13057916462,
      "lat": 13.0277326,
      "lon": 77.5716918,
      "tags": {
        "amenity": "fast_food",
        "brand": "Subway",
        "brand:wikidata": "Q244457",
        "check_date": "2025-12-01",
        "cuisine": "sandwich",
        "name": "Subway",
        "takeaway": "yes"
      }
    },
    {
      "type": "node",
      "id": 13108814301,
      "lat": 13.0280492,
      "lon": 77.5721604,
      "tags": {
        "addr:housenumber": "62",
        "addr:postcode": "560094",
        "addr:street": "80 Feet Road",
        "amenity": "restaurant",
        "cuisine": "indian",
        "level": "1",
        "name": "The LightHouse Restaurant",
        "opening_hours": "Mo-Su 11:30-15:30, 19:00-23:00",
        "outdoor_seating": "yes",
        "phone": "070262 36661",
        "self_service": "no"
      }
    },
    {
      "type": "node",
      "id": 13155774218,
      "lat": 13.0252499,
      "lon": 77.5855296,
      "tags": {
        "brand": "Suzuki",
        "brand:wikidata": "Q181642",
        "check_date": "2025-09-19",
        "name": "Suzuki",
        "operator": "Meghanath",
        "shop": "motorcycle"
      }
    },
    {
      "type": "node",
      "id": 13155774219,
      "lat": 13.0249358,
      "lon": 77.5854217,
      "tags": {
        "amenity": "bank",
        "brand": "Indian Bank",
        "brand:wikidata": "Q2003789",
        "check_date": "2025-09-19",
        "name": "Indian Bank"
      }
    },
    {
      "type": "node",
      "id": 13155774220,
      "lat": 13.0236639,
      "lon": 77.5851074,
      "tags": {
        "check_date": "2025-09-19",
        "name": "OLA",
        "shop": "motorcycle"
      }
    },
    {
      "type": "node",
      "id": 13155774221,
      "lat": 13.0226528,
      "lon": 77.5848532,
      "tags": {
        "brand": "Vespa",
        "brand:wikidata": "Q217673",
        "check_date": "2025-09-19",
        "name": "Vespa",
        "shop": "motorcycle"
      }
    },
    {
      "type": "node",
      "id": 13155774222,
      "lat": 13.0225276,
      "lon": 77.5848255,
      "tags": {
        "brand": "Triumph",
        "brand:wikidata": "Q1140383",
        "check_date": "2025-09-19",
        "shop": "motorcycle"
      }
    },
    {
      "type": "node",
      "id": 13155774223,
      "lat": 13.0207668,
      "lon": 77.584449,
      "tags": {
        "check_date": "2025-09-19",
        "name": "Jawa",
        "shop": "motorcycle"
      }
    },
    {
      "type": "node",
      "id": 13155774224,
      "lat": 13.0203057,
      "lon": 77.5842015,
      "tags": {
        "check_date": "2025-09-19",
        "shop": "florist"
      }
    },
    {
      "type": "node",
      "id": 13344560275,
      "lat": 13.0280568,
      "lon": 77.5723185,
      "tags": {
        "check_date": "2025-12-01",
        "name": "Health & Glow",
        "shop": "beauty"
      }
    },
    {
      "type": "way",
      "id": 37107184,
      "center": {
        "lat": 13.0301869,
        "lon": 77.5675088
      },
      "tags": {
        "amenity": "university",
        "full_name": "MS Ramaiah University of Applied Sciences",
        "landuse": "education",
        "name": "MS Ramaiah University",
        "name:etymology:wikidata": "Q6713104",
        "name:kn": "ಗೋಕುಲ ಶಿಕ್ಷಣ ಸಂಸ್ಥೆ",
        "official_name": "Gokula Education Foundation",
        "wikidata": "Q24590299",
        "wikipedia": "en:Ramaiah University of Applied Sciences"
      }
    },
    {
      "type": "way",
      "id": 37107313,
      "center": {
        "lat": 13.0211693,
        "lon": 77.5748124
      },
      "tags": {
        "amenity": "research_institute",
        "landuse": "industrial",
        "name": "Central Power Research Institute",
        "name:kn": "ಕೇಂದ್ರ ವಿದ್ಯುತ್ ಸಂಶೋಧನಾ ಸಂಸ್ಥೆ",
        "office": "research",
        "website": "https://cpri.res.in/",
        "wikidata": "Q5061693",
        "wikipedia": "en:Central Power Research Institute"
      }
    },
    {
      "type": "way",
      "id": 37107603,
      "center": {
        "lat": 13.0159059,
        "lon": 77.5756278
      },
      "tags": {
        "addr:city": "Bengaluru",
        "addr:housename": "KV Hebbal",
        "addr:postcode": "560 080",
        "addr:street": "Dr. CV Raman Road",
        "amenity": "school",
        "brand": "Kendriya Vidyalaya",
        "brand:wikidata": "Q1156653",
        "name": "Kendriya Vidyalaya Hebbal",
        "name:kn": "ಕೇಂದ್ರೀಯ ವಿದ್ಯಾಲಯ ಹೆಬ್ಬಾಳ",
        "operator:type": "government_non_profit",
        "wheelchair": "limited"
      }
    },
    {
      "type": "way",
      "id": 37107621,
      "center": {
        "lat": 13.0185547,
        "lon": 77.5762613
      },
      "tags": {
        "access": "private",
        "golf:course": "18_hole",
        "leisure": "golf_course",
        "name": "Air Force Training Command Golf Course",
        "short_name": "AFTC Golf Course"
      }
    },
    {
      "type": "way",
      "id": 38858195,
      "center": {
        "lat": 13.0144188,
        "lon": 77.575357
      },
      "tags": {
        "leisure": "pitch",
        "name": "Nagasena Vidyalaya",
        "name:kn": "ನಾಗಸೇನ ವಿದ್ಯಾಲಯ"
      }
    },
    {
      "type": "way",
      "id": 38858222,
      "center": {
        "lat": 13.0130745,
        "lon": 77.5811095
      },
      "tags": {
        "amenity": "college",
        "name": "Raman Research Institute",
        "name:etymology:wikidata": "Q60429",
        "short_name": "RRI",
        "start_date": "1948",
        "website": "https://rri.res.in",
        "wikidata": "Q1259644",
        "wikipedia": "en:Raman Research Institute"
      }
    },
    {
      "type": "way",
      "id": 38858241,
      "center": {
        "lat": 13.0135247,
        "lon": 77.5753732
      },
      "tags": {
        "addr:city": "Bengaluru",
        "addr:housenumber": "HKES, 14 A",
        "addr:postcode": "560080",
        "addr:street": "13th Main Road",
        "alt_name": "HKES National Public School",
        "amenity": "school",
        "loc_name": "HKES NPS",
        "name": "National Public School Sadashivanagar",
        "name:kn": "ರಾಷ್ಟ್ರೀಯ ಸಾರ್ವಜನಿಕ ಶಾಲೆ",
        "office": "educational_institution",
        "official_name": "HKES NPS National Public School",
        "phone": "08029906571",
        "short_name": "NPS Sadashivanagar",
        "website": "https://npssadashivanagar.com/"
      }
    },
    {
      "type": "way",
      "id": 93585376,
      "center": {
        "lat": 13.0202455,
        "lon": 77.5705267
      },
      "tags": {
        "access": "permissive",
        "leisure": "swimming_pool",
        "name": "Swimming Pool",
        "name:kn": "ಈಜು ಕೊಳ",
        "sport": "swimming"
      }
    },
    {
      "type": "way",
      "id": 133297105,
      "center": {
        "lat": 13.027577,
        "lon": 77.5722591
      },
      "tags": {
        "amenity": "place_of_worship",
        "landuse": "religious",
        "name": "Anjaneya Temple",
        "name:kn": "ಆಂಜನೇಯ ದೇವಸ್ಥಾನ",
        "religion": "hindu"
      }
    },
    {
      "type": "way",
      "id": 133298024,
      "center": {
        "lat": 13.0281634,
        "lon": 77.5737594
      },
      "tags": {
        "leisure": "park",
        "wheelchair": "no"
      }
    },
    {
      "type": "way",
      "id": 133299271,
      "center": {
        "lat": 13.0211198,
        "lon": 77.5779131
      },
      "tags": {
        "leisure": "park"
      }
    },
    {
      "type": "way",
      "id": 133340778,
      "center": {
        "lat": 13.0201319,
        "lon": 77.5779298
      },
      "tags": {
        "barrier": "fence",
        "leisure": "park"
      }
    },
    {
      "type": "way",
      "id": 133442038,
      "center": {
        "lat": 13.0295801,
        "lon": 77.580377
      },
      "tags": {
        "landuse": "recreation_ground",
        "leisure": "recreation_ground",
        "name": "Volleyball Ground"
      }
    },
    {
      "type": "way",
      "id": 139216933,
      "center": {
        "lat": 13.0144945,
        "lon": 77.576137
      },
      "tags": {
        "addr:city": "Bangalore",
        "addr:housenumber": "CV Raman Road",
        "addr:postcode": "560080",
        "addr:street": "9th Cross Road",
        "amenity": "place_of_worship",
        "building": "yes",
        "denomination": "theravada",
        "name": "Buddhist Temple",
        "name:kn": "ಬುದ್ಧ ವಿಹಾರ",
        "religion": "buddhist"
      }
    },
    {
      "type": "way",
      "id": 175880547,
      "center": {
        "lat": 13.0271503,
        "lon": 77.5768623
      },
      "tags": {
        "addr:district": "Bengaluru Urban",
        "addr:full": "8, Poojary Layout, 80Ft. Road, Rmv Iind Stage,Sanjaynagar",
        "addr:postcode": "560094",
        "addr:state": "Karnataka",
        "amenity": "hospital",
        "building": "yes",
        "name": "Nethra Eye Hospital",
        "source": "OpenGovernmentData",
        "wheelchair": "no"
      }
    },
    {
      "type": "way",
      "id": 184299455,
      "center": {
        "lat": 13.0262966,
        "lon": 77.580156
      },
      "tags": {
        "building": "yes",
        "name": "Hillton Motors",
        "second_hand": "yes",
        "shop": "car"
      }
    },
    {
      "type": "way",
      "id": 184299457,
      "center": {
        "lat": 13.0280798,
        "lon": 77.572201
      },
      "tags": {
        "addr:city": "Bengaluru",
        "addr:postcode": "560094",
        "addr:street": "RMV 2nd Stage, Banday Colony, Ashwath Nagar",
        "amenity": "restaurant",
        "building": "yes",
        "building:levels": "1",
        "check_date": "2025-12-01",
        "name": "Shiv Sagar Express"
      }
    },
    {
      "type": "way",
      "id": 184299458,
      "center": {
        "lat": 13.0264061,
        "lon": 77.5804879
      },
      "tags": {
        "name": "Mars Maruti Authorized Service",
        "shop": "car_repair"
      }
    },
    {
      "type": "way",
      "id": 260994096,
      "center": {
        "lat": 13.0283387,
        "lon": 77.5844332
      },
      "tags": {
        "amenity": "veterinary",
        "name": "Veterinary Hospital",
        "name:kn": "ಪಶುವೈದ್ಯ ಆಸ್ಪತ್ರೆ"
      }
    },
    {
      "type": "way",
      "id": 260994753,
      "center": {
        "lat": 13.0275269,
        "lon": 77.5843812
      },
      "tags": {
        "amenity": "post_office",
        "name": "UAS Farm Post Office",
        "operator": "India Post"
      }
    },
    {
      "type": "way",
      "id": 261253027,
      "center": {
        "lat": 13.0280351,
        "lon": 77.5743362
      },
      "tags": {
        "building": "yes",
        "name": "Nexus Maruti Service",
        "shop": "car_repair",
        "wheelchair": "limited"
      }
    },
    {
      "type": "way",
      "id": 325764796,
      "center": {
        "lat": 13.0280151,
        "lon": 77.5852582
      },
      "tags": {
        "leisure": "park"
      }
    },
    {
      "type": "way",
      "id": 345894198,
      "center": {
        "lat": 13.0268056,
        "lon": 77.5777865
      },
      "tags": {
        "building": "yes",
        "name": "Cauvery Pumps",
        "shop": "hardware"
      }
    },
    {
      "type": "way",
      "id": 346753343,
      "center": {
        "lat": 13.0279158,
        "lon": 77.5719737
      },
      "tags": {
        "addr:city": "Bengaluru",
        "addr:street": "New BEL Road",
        "amenity": "restaurant",
        "building": "yes",
        "cuisine": "south_indian",
        "name": "Brahmin's Fast Food, Juice and Chats"
      }
    },
    {
      "type": "way",
      "id": 346807771,
      "center": {
        "lat": 13.0284013,
        "lon": 77.5723448
      },
      "tags": {
        "addr:city": "Bengaluru",
        "addr:street": "80 Feet Road",
        "building": "yes",
        "name": "Max",
        "operator": "Max",
        "shop": "mall"
      }
    },
    {
      "type": "way",
      "id": 349461400,
      "center": {
        "lat": 13.0278568,
        "lon": 77.5732416
      },
      "tags": {
        "amenity": "restaurant",
        "building": "yes",
        "cuisine": "indian",
        "name": "Smoke"
      }
    },
    {
      "type": "way",
      "id": 349461449,
      "center": {
        "lat": 13.0282052,
        "lon": 77.5718135
      },
      "tags": {
        "addr:city": "Bengaluru",
        "addr:postcode": "560094",
        "addr:street": "80 feet Road, New BEL Rd, opposite MS Ramaiah Hospital, R.M.V. 2nd Stage",
        "building": "yes",
        "building:levels": "2",
        "name": "Ambika Hardware & Plywood",
        "shop": "hardware"
      }
    },
    {
      "type": "way",
      "id": 696136974,
      "center": {
        "lat": 13.0185168,
        "lon": 77.5710589
      },
      "tags": {
        "leisure": "garden"
      }
    },
    {
      "type": "way",
      "id": 696136975,
      "center": {
        "lat": 13.0188496,
        "lon": 77.5710586
      },
      "tags": {
        "leisure": "garden"
      }
    },
    {
      "type": "way",
      "id": 696150483,
      "center": {
        "lat": 13.0158298,
        "lon": 77.5760877
      },
      "tags": {
        "leisure": "garden"
      }
    },
    {
      "type": "way",
      "id": 696150484,
      "center": {
        "lat": 13.0157782,
        "lon": 77.5750449
      },
      "tags": {
        "access": "private",
        "leisure": "park",
        "name": "School Ground",
        "operator": "KV Hebbal",
        "surface": "ground"
      }
    },
    {
      "type": "way",
      "id": 696150486,
      "center": {
        "lat": 13.0150479,
        "lon": 77.5736311
      },
      "tags": {
        "leisure": "garden"
      }
    },
    {
      "type": "way",
      "id": 699694034,
      "center": {
        "lat": 13.0185615,
        "lon": 77.5708302
      },
      "tags": {
        "leisure": "garden"
      }
    },
    {
      "type": "way",
      "id": 772835104,
      "center": {
        "lat": 13.0149658,
        "lon": 77.5724873
      },
      "tags": {
        "amenity": "police",
        "check_date": "2025-08-08",
        "name": "Sadhashivanagar Police Station",
        "name:kn": "ಸದಾಶಿವನಗರ ಆರಕ್ಷಕ ಠಾಣೆ"
      }
    },
    {
      "type": "way",
      "id": 775184932,
      "center": {
        "lat": 13.019624,
        "lon": 77.5856561
      },
      "tags": {
        "leisure": "garden"
      }
    },
    {
      "type": "way",
      "id": 775184933,
      "center": {
        "lat": 13.0204442,
        "lon": 77.5858046
      },
      "tags": {
        "access": "private",
        "leisure": "swimming_pool"
      }
    },
    {
      "type": "way",
      "id": 775184934,
      "center": {
        "lat": 13.0196648,
        "lon": 77.5855236
      },
      "tags": {
        "access": "customers",
        "leisure": "swimming_pool"
      }
    },
    {
      "type": "way",
      "id": 775184937,
      "center": {
        "lat": 13.0206624,
        "lon": 77.5857778
      },
      "tags": {
        "leisure": "garden"
      }
    },
    {
      "type": "way",
      "id": 775186840,
      "center": {
        "lat": 13.0249052,
        "lon": 77.5775823
      },
      "tags": {
        "access": "private",
        "leisure": "swimming_pool"
      }
    },
    {
      "type": "way",
      "id": 775186841,
      "center": {
        "lat": 13.0201187,
        "lon": 77.5815427
      },
      "tags": {
        "access": "no",
        "leisure": "pitch",
        "sport": "cricket"
      }
    },
    {
      "type": "way",
      "id": 775186842,
      "center": {
        "lat": 13.021008,
        "lon": 77.5821548
      },
      "tags": {
        "access": "no",
        "leisure": "swimming_pool",
        "sport": "swimming"
      }
    },
    {
      "type": "way",
      "id": 775186843,
      "center": {
        "lat": 13.0191431,
        "lon": 77.5820683
      },
      "tags": {
        "access": "no",
        "leisure": "pitch",
        "sport": "tennis"
      }
    },
    {
      "type": "way",
      "id": 777690256,
      "center": {
        "lat": 13.0235709,
        "lon": 77.5723936
      },
      "tags": {
        "amenity": "place_of_worship",
        "check_date": "2025-08-08",
        "name": "Swamiye Saravana Ayeppa",
        "religion": "hindu"
      }
    },
    {
      "type": "way",
      "id": 792790148,
      "center": {
        "lat": 13.019365,
        "lon": 77.5706077
      },
      "tags": {
        "leisure": "garden"
      }
    },
    {
      "type": "way",
      "id": 963352882,
      "center": {
        "lat": 13.0248754,
        "lon": 77.5830666
      },
      "tags": {
        "addr:city": "Bengaluru",
        "addr:postcode": "560024",
        "addr:street": "Hebbal, Sanjaynagar, Karnataka",
        "amenity": "college",
        "fixme": "polygon boundaries",
        "landuse": "education",
        "name": "ICAR - Indian Veterinary Research Institute, Hebbal",
        "name:kn": "ಕೃಷಿ ವಿಶ್ವವಿದ್ಯಾಲಯ",
        "phone": "080 2341 0729",
        "website": "ivri.nic.in"
      }
    },
    {
      "type": "way",
      "id": 1040899000,
      "center": {
        "lat": 13.0138956,
        "lon": 77.5761248
      },
      "tags": {
        "addr:street": "CV Raman Avenue",
        "amenity": "school",
        "name": "Nagasena Vidyalaya",
        "name:kn": "ನಾಗಸೇನ ವಿದ್ಯಾಲಯ"
      }
    },
    {
      "type": "way",
      "id": 1065048410,
      "center": {
        "lat": 13.0150203,
        "lon": 77.581429
      },
      "tags": {
        "leisure": "garden"
      }
    },
    {
      "type": "way",
      "id": 1116582879,
      "center": {
        "lat": 13.0277749,
        "lon": 77.5772226
      },
      "tags": {
        "leisure": "sports_centre"
      }
    },
    {
      "type": "way",
      "id": 1119921717,
      "center": {
        "lat": 13.0241141,
        "lon": 77.5866881
      },
      "tags": {
        "leisure": "playground"
      }
    },
    {
      "type": "way",
      "id": 1119921718,
      "center": {
        "lat": 13.024187,
        "lon": 77.5863339
      },
      "tags": {
        "leisure": "park"
      }
    },
    {
      "type": "way",
      "id": 1119921719,
      "center": {
        "lat": 13.0258745,
        "lon": 77.5777121
      },
      "tags": {
        "amenity": "recycling",
        "name": "BBMP Dry Waste Collection Centre",
        "name:kn": "ಒಣ ತ್ಯಾಜ್ಯ ನಿರ್ವಹಣ",
        "recycling_type": "centre"
      }
    },
    {
      "type": "way",
      "id": 1119921720,
      "center": {
        "lat": 13.0262063,
        "lon": 77.5774846
      },
      "tags": {
        "leisure": "park"
      }
    },
    {
      "type": "way",
      "id": 1156278588,
      "center": {
        "lat": 13.0307105,
        "lon": 77.57753
      },
      "tags": {
        "amenity": "place_of_worship",
        "landuse": "religious",
        "name": "Sri Ramanjaneya Swamy Temple",
        "name:kn": "ಶ್ರೀ ರಾಮಾಂಜನೇಯಸ್ವಾಮಿ ದೇವಸ್ಥಾನ",
        "religion": "hindu"
      }
    },
    {
      "type": "way",
      "id": 1156278589,
      "center": {
        "lat": 13.0285262,
        "lon": 77.5791876
      },
      "tags": {
        "leisure": "playground"
      }
    },
    {
      "type": "way",
      "id": 1173114174,
      "center": {
        "lat": 13.0277375,
        "lon": 77.5718968
      },
      "tags": {
        "building": "yes",
        "name": "Sri Manjunatha Condiments",
        "shop": "yes"
      }
    },
    {
      "type": "way",
      "id": 1173114175,
      "center": {
        "lat": 13.028132,
        "lon": 77.5719962
      },
      "tags": {
        "addr:district": "Bengaluru Urban",
        "addr:postcode": "560094",
        "addr:street": "80 Feet Road",
        "building": "yes",
        "clothes": "men",
        "name": "Shiva Enterprises",
        "shop": "tyres",
        "wheelchair": "no"
      }
    },
    {
      "type": "way",
      "id": 1173114177,
      "center": {
        "lat": 13.0279558,
        "lon": 77.5727563
      },
      "tags": {
        "addr:city": "Bengaluru",
        "addr:street": "80 Feet Road",
        "amenity": "ice_cream",
        "brand": "Naturals",
        "brand:wikidata": "Q24439154",
        "building": "yes",
        "cuisine": "ice_cream",
        "name": "Naturals"
      }
    },
    {
      "type": "way",
      "id": 1173114178,
      "center": {
        "lat": 13.0278683,
        "lon": 77.5733339
      },
      "tags": {
        "addr:city": "Bengaluru",
        "addr:street": "80 Feet Road",
        "building": "yes",
        "name": "Occassions",
        "shop": "bakery"
      }
    },
    {
      "type": "way",
      "id": 1209134486,
      "center": {
        "lat": 13.0281727,
        "lon": 77.5812205
      },
      "tags": {
        "name": "IIHR Sales Counter",
        "shop": "farm"
      }
    },
    {
      "type": "way",
      "id": 1289175416,
      "center": {
        "lat": 13.0151607,
        "lon": 77.5779033
      },
      "tags": {
        "access": "no",
        "leisure": "pitch",
        "sport": "soccer"
      }
    },
    {
      "type": "way",
      "id": 1305773021,
      "center": {
        "lat": 13.0169957,
        "lon": 77.575873
      },
      "tags": {
        "access": "private",
        "amenity": "parking",
        "parking": "surface"
      }
    },
    {
      "type": "way",
      "id": 1311549277,
      "center": {
        "lat": 13.0247211,
        "lon": 77.5852977
      },
      "tags": {
        "amenity": "fuel",
        "brand": "Hindustan Petroleum",
        "brand:wikidata": "Q1619375",
        "name": "Hindustan Petroleum",
        "name:kn": "ಹಿಂದುಸ್ತಾನ್ ಪೆಟ್ರೋಲಿಯಂ",
        "official_name": "Hindustan Petroleum",
        "wheelchair": "limited"
      }
    },
    {
      "type": "way",
      "id": 1319188464,
      "center": {
        "lat": 13.0252422,
        "lon": 77.5772971
      },
      "tags": {
        "access": "private",
        "amenity": "parking",
        "parking": "street_side"
      }
    },
    {
      "type": "way",
      "id": 1319188467,
      "center": {
        "lat": 13.026305,
        "lon": 77.5760732
      },
      "tags": {
        "leisure": "playground"
      }
    },
    {
      "type": "way",
      "id": 1327255356,
      "center": {
        "lat": 13.0201526,
        "lon": 77.5719021
      },
      "tags": {
        "amenity": "place_of_worship",
        "building": "yes",
        "name": "Temple",
        "religion": "hindu"
      }
    },
    {
      "type": "way",
      "id": 1343349411,
      "center": {
        "lat": 13.0211878,
        "lon": 77.5844051
      },
      "tags": {
        "amenity": "fuel",
        "brand": "Shell",
        "brand:wikidata": "Q110716465",
        "compressed_air": "yes",
        "name": "Shell",
        "opening_hours": "Mo-Su 06:00-23:00",
        "operator": "Shell",
        "wheelchair": "limited"
      }
    },
    {
      "type": "way",
      "id": 1385609285,
      "center": {
        "lat": 13.0244119,
        "lon": 77.585337
      },
      "tags": {
        "amenity": "place_of_worship",
        "religion": "hindu"
      }
    },
    {
      "type": "way",
      "id": 1393079985,
      "center": {
        "lat": 13.0272639,
        "lon": 77.5850349
      },
      "tags": {
        "leisure": "pitch",
        "sport": "tennis"
      }
    }
  ]
}