{
  "area_name": "Roopena Agrahara",
  "osm_id": 8320252560,
  "osm_type": "node",
  "place_type": "neighbourhood",
  "amenity_count": 217,
  "amenities": [
    {
      "type": "node",
      "id": 738185306,
      "lat": 12.9062825,
      "lon": 77.6276456,
      "tags": {
        "amenity": "place_of_worship",
        "name": "Ganesha Temple",
        "name:kn": "ಗಣೇಶ ದೇವಸ್ಥಾನ",
        "religion": "hindu"
      }
    },
    {
      "type": "node",
      "id": 946653489,
      "lat": 12.9150732,
      "lon": 77.6197271,
      "tags": {
        "amenity": "place_of_worship",
        "name": "Vinayaka Temple",
        "name:kn": "ವಿನಾಯಕ ದೇವಸ್ಥಾನ",
        "religion": "hindu"
      }
    },
    {
      "type": "node",
      "id": 1467032774,
      "lat": 12.9135109,
      "lon": 77.6245166,
      "tags": {
        "addr:street": "Hosur road",
        "name": "Car & Bike Store",
        "second_hand": "only",
        "shop": "car"
      }
    },
    {
      "type": "node",
      "id": 1469644020,
      "lat": 12.9141932,
      "lon": 77.6241465,
      "tags": {
        "name": "Mahindra showroom",
        "name:kn": "ಮಹಿಂದ್ರ",
        "shop": "car"
      }
    },
    {
      "type": "node",
      "id": 1470421127,
      "lat": 12.9062634,
      "lon": 77.6298345,
      "tags": {
        "addr:housenumber": "Hosur road",
        "amenity": "restaurant",
        "name": "Tharavad",
        "name:kn": "ಥರವಾದ್"
      }
    },
    {
      "type": "node",
      "id": 1470544491,
      "lat": 12.9161328,
      "lon": 77.6310764,
      "tags": {
        "name": "Janani Tours",
        "shop": "travel_agency"
      }
    },
    {
      "type": "node",
      "id": 1470839826,
      "lat": 12.90536,
      "lon": 77.630729,
      "tags": {
        "amenity": "place_of_worship",
        "name": "St Marys Church",
        "religion": "christian"
      }
    },
    {
      "type": "node",
      "id": 1471683739,
      "lat": 12.9108417,
      "lon": 77.6270457,
      "tags": {
        "brand": "Jaguar",
        "brand:wikidata": "Q21170490",
        "name": "Jaguar Landrover Range Rover",
        "shop": "car"
      }
    },
    {
      "type": "node",
      "id": 1471685731,
      "lat": 12.911347,
      "lon": 77.626597,
      "tags": {
        "addr:housenumber": "Hosur road",
        "brand": "Hero",
        "brand:wikidata": "Q1613763",
        "name": "Hero Motocorp",
        "shop": "motorcycle"
      }
    },
    {
      "type": "node",
      "id": 1471690115,
      "lat": 12.9145174,
      "lon": 77.6239184,
      "tags": {
        "addr:street": "Hosur road",
        "name": "Tara Fiat Service",
        "shop": "car_repair"
      }
    },
    {
      "type": "node",
      "id": 1471717212,
      "lat": 12.9170218,
      "lon": 77.6292559,
      "tags": {
        "amenity": "restaurant",
        "indoor_seating": "yes",
        "name": "Aranya Restaurant",
        "name:kn": "ಅರಣ್ಯ ರೆಸ್ಟೊರೆಂಟ್",
        "outdoor_seating": "no"
      }
    },
    {
      "type": "node",
      "id": 1471717737,
      "lat": 12.9170321,
      "lon": 77.6289637,
      "tags": {
        "amenity": "atm",
        "fee": "Andhra Bank ATM"
      }
    },
    {
      "type": "node",
      "id": 1471718806,
      "lat": 12.9170375,
      "lon": 77.6289099,
      "tags": {
        "check_date": "2024-10-20",
        "name": "Madhuloka",
        "name:kn": "ಮಧುಲೋಕ",
        "shop": "alcohol"
      }
    },
    {
      "type": "node",
      "id": 1472111625,
      "lat": 12.9169725,
      "lon": 77.6300572,
      "tags": {
        "amenity": "hospital",
        "name": "Sagar Dental Clinic"
      }
    },
    {
      "type": "node",
      "id": 1472212762,
      "lat": 12.9090166,
      "lon": 77.6280806,
      "tags": {
        "addr:city": "Bengaluru",
        "amenity": "fuel",
        "brand": "Bharat Petroleum",
        "brand:wikidata": "Q854826",
        "brand:wikipedia": "en:Bharat Petroleum",
        "fuel:diesel": "yes",
        "fuel:petrol": "yes",
        "name": "Bharat Petroleum",
        "operator": "Vasundhara Auto Service",
        "self_service": "no"
      }
    },
    {
      "type": "node",
      "id": 1473085346,
      "lat": 12.9123058,
      "lon": 77.6325653,
      "tags": {
        "brand": "Sweet Chariot",
        "delivery": "yes",
        "name": "Sweet Chariot",
        "name:kn": "ಸ್ವೀಟ್ ಚಾರಿಯಟ್",
        "shop": "pastry",
        "takeaway": "yes"
      }
    },
    {
      "type": "node",
      "id": 1473087127,
      "lat": 12.9067307,
      "lon": 77.6311698,
      "tags": {
        "name": "Addlabs",
        "shop": "electronics"
      }
    },
    {
      "type": "node",
      "id": 1473224706,
      "lat": 12.9123293,
      "lon": 77.6326323,
      "tags": {
        "amenity": "pharmacy",
        "brand": "Apollo Pharmacy",
        "brand:wikidata": "Q62562612",
        "healthcare": "pharmacy",
        "name": "Apollo Pharmacy",
        "name:kn": "ಅಪೋಲೋ ಫಾರ್ಮಸಿ"
      }
    },
    {
      "type": "node",
      "id": 1474104406,
      "lat": 12.9102705,
      "lon": 77.6265538,
      "tags": {
        "addr:street": "Hosur road",
        "amenity": "hospital",
        "check_date": "2024-09-19",
        "healthcare": "hospital",
        "name": "Vasan Eye Care"
      }
    },
    {
      "type": "node",
      "id": 1474317196,
      "lat": 12.9160081,
      "lon": 77.6193573,
      "tags": {
        "addr:district": "Bengaluru Rural",
        "addr:full": "No 72, 35Th Main 1st Cross 100 Ft Ring Road, Btm Layour, 2nd Stage Btm Layout",
        "addr:postcode": "560068",
        "addr:state": "Karnataka",
        "amenity": "hospital",
        "emergency": "yes",
        "healthcare": "hospital",
        "name": "Karanth Speciality Hospital",
        "source": "OpenGovernmentData"
      }
    },
    {
      "type": "node",
      "id": 1474321284,
      "lat": 12.9160306,
      "lon": 77.6171846,
      "tags": {
        "amenity": "place_of_worship",
        "check_date": "2023-12-05",
        "name": "Shree Karumariyamma Temple",
        "name:kn": "ಮಾರಿಯಮ್ಮ ದೇವಸ್ಥಾನ",
        "religion": "hindu"
      }
    },
    {
      "type": "node",
      "id": 1474433302,
      "lat": 12.9167831,
      "lon": 77.6184931,
      "tags": {
        "name": "Preethi Bakery & Sweets",
        "shop": "bakery"
      }
    },
    {
      "type": "node",
      "id": 1474819060,
      "lat": 12.9147871,
      "lon": 77.6247622,
      "tags": {
        "addr:district": "Bengaluru Rural",
        "addr:full": "No-206, Reddy Building , Roopena Agrahara Opp Roopena Agrahara Bus Stop, Hosur Main Road",
        "addr:postcode": "560068",
        "addr:state": "Karnataka",
        "addr:street": "Hosur road",
        "amenity": "hospital",
        "name": "Aswad Hospital",
        "source": "OpenGovernmentData"
      }
    },
    {
      "type": "node",
      "id": 1613147970,
      "lat": 12.9087203,
      "lon": 77.6275079,
      "tags": {
        "amenity": "fuel",
        "brand": "Indian Oil",
        "brand:wikidata": "Q1289348",
        "brand:wikipedia": "en:Indian Oil Corporation",
        "compressed_air": "yes",
        "name": "Indian Oil",
        "name:kn": "ಇಂಡಿಯನ್ ಆಯಿಲ್"
      }
    },
    {
      "type": "node",
      "id": 1837440175,
      "lat": 12.9169487,
      "lon": 77.6194004,
      "tags": {
        "amenity": "college",
        "name": "Alliance Business School Admin Office"
      }
    },
    {
      "type": "node",
      "id": 1893011344,
      "lat": 12.902875,
      "lon": 77.6242515,
      "tags": {
        "amenity": "atm",
        "brand": "HDFC Bank",
        "brand:wikidata": "Q631047",
        "operator": "HDFC Bank",
        "operator:wikidata": "Q631047",
        "short_name": "HDFC"
      }
    },
    {
      "type": "node",
      "id": 1893176911,
      "lat": 12.9055194,
      "lon": 77.6273464,
      "tags": {
        "amenity": "place_of_worship",
        "name": "Bommanahalli Mosque",
        "name:kn": "ಬೊಮ್ಮನಹಳ್ಳಿ ಮಸೀದಿ",
        "religion": "muslim"
      }
    },
    {
      "type": "node",
      "id": 1893273665,
      "lat": 12.9029172,
      "lon": 77.6242687,
      "tags": {
        "name": "Mega Mart",
        "shop": "clothes"
      }
    },
    {
      "type": "node",
      "id": 2385050250,
      "lat": 12.9063916,
      "lon": 77.6270985,
      "tags": {
        "name": "KSEB Kiosk",
        "shop": "kiosk"
      }
    },
    {
      "type": "node",
      "id": 2389353607,
      "lat": 12.9034741,
      "lon": 77.6255722,
      "tags": {
        "amenity": "atm",
        "brand": "HDFC Bank",
        "brand:wikidata": "Q631047",
        "check_date": "2022-06-14",
        "operator": "HDFC Bank",
        "operator:wikidata": "Q631047",
        "short_name": "HDFC"
      }
    },
    {
      "type": "node",
      "id": 2389353616,
      "lat": 12.9034741,
      "lon": 77.6256178,
      "tags": {
        "amenity": "atm",
        "brand": "Canara Bank",
        "brand:en": "Canara Bank",
        "brand:hi": "केनरा बैंक",
        "brand:kn": "ಕೆನರಾ ಬ್ಯಾಂಕ್",
        "brand:pa": "ਕੇਨਰਾ ਬੈਂਕ",
        "brand:pnb": "کینرا بینک",
        "brand:ur": "کینرا بینک",
        "brand:wikidata": "Q2003777",
        "check_date": "2022-06-14",
        "name:en": "Canara Bank",
        "name:hi": "केनरा बैंक",
        "name:kn": "ಕೆನರಾ ಬ್ಯಾಂಕ್",
        "name:pa": "ਕੇਨਰਾ ਬੈਂਕ",
        "name:pnb": "کینرا بینک",
        "name:ur": "کینرا بینک",
        "operator": "Canara Bank",
        "operator:wikidata": "Q2003777"
      }
    },
    {
      "type": "node",
      "id": 2389667841,
      "lat": 12.9035518,
      "lon": 77.6274068,
      "tags": {
        "amenity": "pharmacy",
        "dispensing": "yes",
        "name": "Jain Medicals"
      }
    },
    {
      "type": "node",
      "id": 2389667919,
      "lat": 12.9037635,
      "lon": 77.626806,
      "tags": {
        "name": "Vardhman Textiles",
        "shop": "clothes"
      }
    },
    {
      "type": "node",
      "id": 2389668260,
      "lat": 12.9031858,
      "lon": 77.6245476,
      "tags": {
        "amenity": "restaurant",
        "cuisine": "indian",
        "name": "Sri Krishna Upahara"
      }
    },
    {
      "type": "node",
      "id": 2389669498,
      "lat": 12.9055153,
      "lon": 77.6277689,
      "tags": {
        "name": "Lulu Bakery",
        "shop": "bakery"
      }
    },
    {
      "type": "node",
      "id": 2412058808,
      "lat": 12.91201,
      "lon": 77.6323154,
      "tags": {
        "amenity": "bank",
        "atm": "yes",
        "brand": "Allahabad Bank",
        "brand:wikidata": "Q2018840",
        "brand:wikipedia": "en:Allahabad Bank",
        "name": "Allahabad Bank",
        "name:en": "Allahabad Bank",
        "name:kn": "ಅಲ್ಲಹಾಬಾದ್ ಬ್ಯಾಂಕ್",
        "website": "https://www.allahabadbank.in"
      }
    },
    {
      "type": "node",
      "id": 2444074728,
      "lat": 12.9038463,
      "lon": 77.6271871,
      "tags": {
        "amenity": "atm",
        "brand": "Indian Overseas Bank",
        "brand:wikidata": "Q2003611",
        "check_date": "2022-06-14",
        "operator": "Indian Overseas Bank",
        "operator:wikidata": "Q2003611"
      }
    },
    {
      "type": "node",
      "id": 2446926669,
      "lat": 12.9112592,
      "lon": 77.6259903,
      "tags": {
        "amenity": "restaurant"
      }
    },
    {
      "type": "node",
      "id": 2446947452,
      "lat": 12.9027884,
      "lon": 77.6240135,
      "tags": {
        "shop": "shoes"
      }
    },
    {
      "type": "node",
      "id": 2447813801,
      "lat": 12.9032799,
      "lon": 77.6225483,
      "tags": {
        "shop": "bakery"
      }
    },
    {
      "type": "node",
      "id": 2447813802,
      "lat": 12.9033479,
      "lon": 77.6225644,
      "tags": {
        "name": "OK Bikes",
        "shop": "motorcycle"
      }
    },
    {
      "type": "node",
      "id": 2447846664,
      "lat": 12.9064393,
      "lon": 77.6308237,
      "tags": {
        "amenity": "hospital",
        "emergency": "yes",
        "name": "Blossoms Hospital"
      }
    },
    {
      "type": "node",
      "id": 2448072370,
      "lat": 12.9016567,
      "lon": 77.6234928,
      "tags": {
        "name": "Exide",
        "shop": "doityourself"
      }
    },
    {
      "type": "node",
      "id": 2449242270,
      "lat": 12.9033458,
      "lon": 77.6250038,
      "tags": {
        "shop": "motorcycle"
      }
    },
    {
      "type": "node",
      "id": 2449248039,
      "lat": 12.912146,
      "lon": 77.6253492,
      "tags": {
        "name": "Mahindra",
        "name:kn": "ಮಹಿಂದ್ರ",
        "shop": "car"
      }
    },
    {
      "type": "node",
      "id": 2471281381,
      "lat": 12.9062783,
      "lon": 77.6274095,
      "tags": {
        "amenity": "atm",
        "brand": "Canara Bank",
        "brand:en": "Canara Bank",
        "brand:hi": "केनरा बैंक",
        "brand:kn": "ಕೆನರಾ ಬ್ಯಾಂಕ್",
        "brand:pa": "ਕੇਨਰਾ ਬੈਂਕ",
        "brand:pnb": "کینرا بینک",
        "brand:ur": "کینرا بینک",
        "brand:wikidata": "Q2003777",
        "name:en": "Canara Bank",
        "name:hi": "केनरा बैंक",
        "name:kn": "ಕೆನರಾ ಬ್ಯಾಂಕ್",
        "name:pa": "ਕੇਨਰਾ ਬੈਂਕ",
        "name:pnb": "کینرا بینک",
        "name:ur": "کینرا بینک",
        "operator": "Canara Bank",
        "operator:wikidata": "Q2003777"
      }
    },
    {
      "type": "node",
      "id": 2471281382,
      "lat": 12.9062993,
      "lon": 77.627329,
      "tags": {
        "amenity": "atm",
        "brand": "HDFC Bank",
        "brand:wikidata": "Q631047",
        "operator": "HDFC Bank",
        "operator:wikidata": "Q631047",
        "short_name": "HDFC"
      }
    },
    {
      "type": "node",
      "id": 2471281383,
      "lat": 12.90295,
      "lon": 77.6242795,
      "tags": {
        "amenity": "atm",
        "brand": "Canara Bank",
        "brand:en": "Canara Bank",
        "brand:hi": "केनरा बैंक",
        "brand:kn": "ಕೆನರಾ ಬ್ಯಾಂಕ್",
        "brand:pa": "ਕੇਨਰਾ ਬੈਂਕ",
        "brand:pnb": "کینرا بینک",
        "brand:ur": "کینرا بینک",
        "brand:wikidata": "Q2003777",
        "name:en": "Canara Bank",
        "name:hi": "केनरा बैंक",
        "name:kn": "ಕೆನರಾ ಬ್ಯಾಂಕ್",
        "name:pa": "ਕੇਨਰਾ ਬੈਂਕ",
        "name:pnb": "کینرا بینک",
        "name:ur": "کینرا بینک",
        "operator": "Canara Bank",
        "operator:wikidata": "Q2003777"
      }
    },
    {
      "type": "node",
      "id": 2471287781,
      "lat": 12.9170758,
      "lon": 77.6290832,
      "tags": {
        "amenity": "post_box",
        "brand": "Blue Dart Express",
        "brand:short": "Blue Dart",
        "brand:wikidata": "Q54621493",
        "operator": "Blue Dart Express",
        "operator:short": "Blue Dart",
        "operator:wikidata": "Q54621493"
      }
    },
    {
      "type": "node",
      "id": 2706909234,
      "lat": 12.9067131,
      "lon": 77.6310198,
      "tags": {
        "amenity": "post_office",
        "name": "Bommanahalli",
        "name:kn": "ಬೊಮ್ಮನಹಳ್ಳಿ",
        "operator": "India Post",
        "operator:wikidata": "Q3519720"
      }
    },
    {
      "type": "node",
      "id": 2898982746,
      "lat": 12.9028462,
      "lon": 77.6240272,
      "tags": {
        "amenity": "dentist",
        "name": "Dr. Reddy's Dental Forum"
      }
    },
    {
      "type": "node",
      "id": 3400223639,
      "lat": 12.9125994,
      "lon": 77.6259239,
      "tags": {
        "check_date": "2024-07-28",
        "name": "Sri Mahesh Ceramics",
        "shop": "flooring",
        "source": "survey"
      }
    },
    {
      "type": "node",
      "id": 3680311255,
      "lat": 12.9105606,
      "lon": 77.6326899,
      "tags": {
        "amenity": "fast_food",
        "check_date": "2024-11-30",
        "name": "Southinn"
      }
    },
    {
      "type": "node",
      "id": 4203857493,
      "lat": 12.9066637,
      "lon": 77.6287463,
      "tags": {
        "addr:district": "Bengaluru Urban",
        "addr:full": "90-D, Bommanahalli Circle, Hosur road",
        "addr:postcode": "560068",
        "addr:state": "Karnataka",
        "amenity": "hospital",
        "email": "prashanthhospital1996@gmail.com",
        "healthcare": "hospital",
        "name": "Prashanth Hospital",
        "name:kn": "ಪ್ರಶಾಂತ ಆಸ್ಪತ್ರೆ",
        "operator:type": "private",
        "source": "OpenGovernmentData",
        "website": "http://dpal.kar.nic.in/Kanunu%20padakosha%20PDF%20Files/Recognised%20Hospitals.pdf"
      }
    },
    {
      "type": "node",
      "id": 4203857494,
      "lat": 12.9062859,
      "lon": 77.6290719,
      "tags": {
        "amenity": "fast_food",
        "check_date": "2024-09-19",
        "name": "Sapna Bakery"
      }
    },
    {
      "type": "node",
      "id": 4445433361,
      "lat": 12.9073279,
      "lon": 77.6283365,
      "tags": {
        "addr:city": "Bangalore",
        "addr:housenumber": "268/3",
        "addr:postcode": "560068",
        "addr:street": "1st Floor, BVNR Complex, Hosur Main Road, Bommanahalli",
        "amenity": "restaurant",
        "cuisine": "regional",
        "delivery": "yes",
        "name": "Dandes Hyderabad Biryani",
        "opening_hours": "12:00-15:30,18:00-22:30",
        "phone": "080 41667966 080 41636261",
        "smoking": "no",
        "takeaway": "yes"
      }
    },
    {
      "type": "node",
      "id": 4445449989,
      "lat": 12.9121011,
      "lon": 77.6262626,
      "tags": {
        "addr:city": "Bangalore",
        "addr:housenumber": "67/7",
        "addr:postcode": "560068",
        "addr:street": "Rupena Agrahara, Bommanahalli",
        "amenity": "restaurant",
        "check_date": "2024-07-28",
        "cuisine": "regional",
        "delivery": "yes",
        "indoor_seating": "yes",
        "name": "Sardarji Ka Dhaba",
        "opening_hours": "11:00-17:00,19:00-23:30",
        "outdoor_seating": "no",
        "phone": "+91 9886432987",
        "smoking": "no",
        "source": "survey",
        "takeaway": "yes"
      }
    },
    {
      "type": "node",
      "id": 4445493335,
      "lat": 12.9025398,
      "lon": 77.6253423,
      "tags": {
        "addr:city": "bagalore",
        "addr:postcode": "560068",
        "addr:street": "ATM, Bommanahalli Village, Begur, Bommanahalli,",
        "amenity": "restaurant",
        "cuisine": "regional",
        "delivery": "yes",
        "name": "Ammis Biryani",
        "name:kn": "ಅಮ್ಮಿ ಬಿರಿಯಾನಿ",
        "opening_hours": "12:00-23:00",
        "phone": "080 39457777",
        "smoking": "no",
        "takeaway": "yes"
      }
    },
    {
      "type": "node",
      "id": 4446317428,
      "lat": 12.915785,
      "lon": 77.6194045,
      "tags": {
        "addr:city": "Bengaluru",
        "addr:postcode": "560068",
        "addr:street": "KAS Officers Colony, Stage 2, BTM 2nd Stage, Karnataka",
        "amenity": "clinic",
        "name": "Ismile Dental & Oral Health Care Centre",
        "phone": "+9198863 99310"
      }
    },
    {
      "type": "node",
      "id": 4446322688,
      "lat": 12.9127062,
      "lon": 77.6201668,
      "tags": {
        "addr:city": "Bengaluru",
        "addr:postcode": "560076",
        "addr:street": "7th Cross, 35th Main, BTM 2nd Stage,, Adjacent DSR Naveen Lake View Apartments, Karnataka",
        "amenity": "hospital",
        "name": "Keva Ayurveda Health Care Pvt Ltd",
        "phone": "080508 01515",
        "website": "https://kevaayurveda.com/"
      }
    },
    {
      "type": "node",
      "id": 4447972412,
      "lat": 12.9067129,
      "lon": 77.6265085,
      "tags": {
        "addr:city": "Bangalore",
        "addr:housenumber": "90/D",
        "addr:postcode": "560068",
        "addr:street": "Bommanahalli Circle, Hosur Main Road",
        "amenity": "hospital",
        "emergency": "yes",
        "name": "Prashanth Hospital",
        "name:kn": "ಪ್ರಶಾಂತ ಆಸ್ಪತ್ರೆ",
        "phone": "080 4150 3714",
        "source": "http://yellowpages.sulekha.com/",
        "website": "https://www.prashanthhospitals.in/"
      }
    },
    {
      "type": "node",
      "id": 4448110384,
      "lat": 12.9159162,
      "lon": 77.6285313,
      "tags": {
        "addr:city": "Bangalore",
        "addr:housenumber": "167",
        "addr:postcode": "560102",
        "addr:street": "Outer Ring Road, Sector 6, HSR Layout",
        "amenity": "pharmacy",
        "name": "Focus Diagnostics Centre & Speciality Clinics",
        "phone": "080670 85400",
        "source": "http://bestofhealthindia.com/",
        "website": "focushealth.in"
      }
    },
    {
      "type": "node",
      "id": 4487220597,
      "lat": 12.9074573,
      "lon": 77.6259561,
      "tags": {
        "addr:city": "Bangalore",
        "addr:housenumber": "#45, 3rd Floor, 69/3",
        "addr:postcode": "560068",
        "addr:street": "6th Main Road",
        "name": "X- Dog Trekking",
        "phone": "099455 55897",
        "shop": "sports",
        "website": "https://xdogtrekking.com/"
      }
    },
    {
      "type": "node",
      "id": 4487940721,
      "lat": 12.906051,
      "lon": 77.6276471,
      "tags": {
        "addr:city": "Bangalore",
        "addr:housenumber": "16,",
        "addr:postcode": "560068",
        "addr:street": "Begur Road",
        "name": "Nnk Cycle Mart",
        "phone": "080-41691398",
        "shop": "sports"
      }
    },
    {
      "type": "node",
      "id": 4487950404,
      "lat": 12.9114996,
      "lon": 77.6241693,
      "tags": {
        "addr:city": "Bangalore",
        "addr:housenumber": "37/2",
        "addr:postcode": "560068",
        "addr:street": "Viratnagar Main Road",
        "name": "SLN Super Market",
        "phone": "+(91)-80-33569365",
        "shop": "supermarket"
      }
    },
    {
      "type": "node",
      "id": 4489314045,
      "lat": 12.9065609,
      "lon": 77.6282887,
      "tags": {
        "addr:city": "Bangalore",
        "addr:housenumber": "23/2",
        "addr:postcode": "560068",
        "addr:street": "1st Floor, Above Nandini Bakery, Begur Main Road, Bommanahalli, Hosur Rd",
        "name": "Cider Sports & Fitness",
        "opening_hours": "10:30-20:30",
        "phone": "08040957685",
        "shop": "sports"
      }
    },
    {
      "type": "node",
      "id": 4565735791,
      "lat": 12.9160728,
      "lon": 77.6272019,
      "tags": {
        "name": "Clay Station",
        "name:en": "Clay Station",
        "opening_hours": "Tu-Su 10:30-13:30, 15:00-18:00",
        "shop": "convenience",
        "website": "https://claystation.in/"
      }
    },
    {
      "type": "node",
      "id": 4996563703,
      "lat": 12.9171674,
      "lon": 77.6283437,
      "tags": {
        "addr:city": "Bangalore",
        "addr:postcode": "560102",
        "addr:street": "Outer Ring Road",
        "name": "Lemoni Fresh Condiments",
        "shop": "bakery"
      }
    },
    {
      "type": "node",
      "id": 5395290526,
      "lat": 12.9192637,
      "lon": 77.6217728,
      "tags": {
        "amenity": "toilets",
        "check_date": "2025-05-31",
        "fee": "yes"
      }
    },
    {
      "type": "node",
      "id": 5402224023,
      "lat": 12.9105609,
      "lon": 77.6271039,
      "tags": {
        "amenity": "bank",
        "brand": "State Bank of India",
        "brand:wikidata": "Q1340361",
        "name": "State Bank of India",
        "name:kn": "ಭಾರತೀಯ ಸ್ಟೇಟ್ ಬ್ಯಾಂಕ್",
        "short_name": "SBI"
      }
    },
    {
      "type": "node",
      "id": 5402307922,
      "lat": 12.9142555,
      "lon": 77.6250349,
      "tags": {
        "brand": "Renault",
        "brand:wikidata": "Q6686",
        "check_date": "2025-05-31",
        "name": "Garage Renault",
        "shop": "car_repair"
      }
    },
    {
      "type": "node",
      "id": 5402307923,
      "lat": 12.9055051,
      "lon": 77.630219,
      "tags": {
        "shop": "furniture"
      }
    },
    {
      "type": "node",
      "id": 5402308122,
      "lat": 12.9144055,
      "lon": 77.6247856,
      "tags": {
        "brand": "Isuzu",
        "brand:wikidata": "Q29803",
        "name": "Isuzu",
        "shop": "car_repair"
      }
    },
    {
      "type": "node",
      "id": 5402308123,
      "lat": 12.9100294,
      "lon": 77.627487,
      "tags": {
        "brand": "Honda",
        "brand:wikidata": "Q9584",
        "check_date": "2025-05-31",
        "name": "Ananda Honda",
        "payment:cash": "yes",
        "payment:mastercard": "yes",
        "payment:visa": "yes",
        "shop": "motorcycle"
      }
    },
    {
      "type": "node",
      "id": 5806406585,
      "lat": 12.9148051,
      "lon": 77.6168225,
      "tags": {
        "service:bicycle:pump": "yes",
        "service:bicycle:repair": "yes",
        "shop": "bicycle"
      }
    },
    {
      "type": "node",
      "id": 6347042239,
      "lat": 12.9141446,
      "lon": 77.6160973,
      "tags": {
        "addr:place": "BTM Layout",
        "amenity": "school",
        "isced:level": "2",
        "name": "Vidya Jyothi KHPS BTM Layout",
        "name:kn": "ವಿದ್ಯಾ ಜ್ಯೋತಿ ಕನ್ನಡ ಹಿರಿಯ ಪ್ರಾಥಮಿಕ ಶಾಲೆ ಬಿಟಿಎಂ ಲೇಔಟ್",
        "operator": "Department of Primary and Secondary Education",
        "operator:type": "government",
        "operator:wikidata": "Q111467381",
        "school": "primary"
      }
    },
    {
      "type": "node",
      "id": 6347299242,
      "lat": 12.9064542,
      "lon": 77.629646,
      "tags": {
        "addr:place": "Bommanahalli",
        "amenity": "school",
        "isced:level": "2",
        "name": "GKHPS Bommanahalli",
        "name:kn": "ಸರ್ಕಾರಿ ಕನ್ನಡ ಹಿರಿಯ ಪ್ರಾಥಮಿಕ ಶಾಲೆ ಬೊಮ್ಮನಹಳ್ಳಿ",
        "operator": "Department of Primary and Secondary Education",
        "operator:type": "government",
        "operator:wikidata": "Q111467381",
        "school": "primary"
      }
    },
    {
      "type": "node",
      "id": 6347309061,
      "lat": 12.9057047,
      "lon": 77.6271138,
      "tags": {
        "addr:place": "Bommanahalli",
        "amenity": "school",
        "isced:level": "2",
        "name": "GUHPS Bommanahalli",
        "name:kn": "ಸರ್ಕಾರಿ ಉರ್ದು ಹಿರಿಯ ಪ್ರಾಥಮಿಕ ಶಾಲೆ ಬೊಮ್ಮನಹಳ್ಳಿ",
        "operator": "Department of Primary and Secondary Education",
        "operator:type": "government",
        "operator:wikidata": "Q111467381",
        "school": "primary"
      }
    },
    {
      "type": "node",
      "id": 6349078203,
      "lat": 12.9103875,
      "lon": 77.6249479,
      "tags": {
        "addr:place": "Bommanahalli",
        "amenity": "school",
        "isced:level": "2",
        "name": "Sadhguru Sai Baba HPS Roopena Bommanahalli",
        "name:kn": "ಸಧ್ಗುರು ಸಾಯಿ ಬಾಬಾ ಹಿರಿಯ ಪ್ರಾಥಮಿಕ ಶಾಲೆ ರೂಪೇನಾ ಬೊಮ್ಮನಹಳ್ಳಿ",
        "operator": "Department of Primary and Secondary Education",
        "operator:type": "government",
        "operator:wikidata": "Q111467381",
        "school": "primary"
      }
    },
    {
      "type": "node",
      "id": 6408147708,
      "lat": 12.9138593,
      "lon": 77.6153672,
      "tags": {
        "addr:place": "B T M Layout",
        "amenity": "school",
        "isced:level": "2",
        "name": "Vidya Jyothi EHPS ,B T M Layout W No 65",
        "name:kn": "ವಿದ್ಯಾ ಜ್ಯೋತಿ ಆಂಗ್ಲ ಹಿರಿಯ ಪ್ರಾಥಮಿಕ ಶಾಲೆ, ಬಿ.ಟಿ.ಎಂ.ಲೇಔಟ್",
        "operator": "Private Un-Aided",
        "school": "Higher secondary"
      }
    },
    {
      "type": "node",
      "id": 6422479067,
      "lat": 12.9061288,
      "lon": 77.6243998,
      "tags": {
        "addr:place": "Bommanahalli",
        "amenity": "school",
        "isced:level": "3",
        "name": "St Joseph HPS Bommana Halli",
        "name:kn": "ಸೆಂಟ್‌ ಜೋಸೆಫ್ ಹಿರಿಯ ಪ್ರಾಥಮಿಕ ಶಾಲೆ ಬೊಮ್ಮನಹಳ್ಳಿ",
        "operator": "Private Un-Aided",
        "school": "Higher Secondary"
      }
    },
    {
      "type": "node",
      "id": 6422587417,
      "lat": 12.9080891,
      "lon": 77.6242973,
      "tags": {
        "addr:place": "BommanaHalli",
        "amenity": "school",
        "isced:level": "3",
        "name": "New Cambridge Convent &HS, Bommana Halli",
        "name:kn": "ನ್ಯೂ ಕೇಂಬ್ರಿಜ್ ಕಾನ್ವೆಂಟ್ ಪ್ರೌಢಶಾಲೆ ,ಬೊಮ್ಮನಹಳ್ಳಿ",
        "operator": "Private Un-Aided",
        "school": "Higher Secondary"
      }
    },
    {
      "type": "node",
      "id": 6422593981,
      "lat": 12.9043475,
      "lon": 77.6205177,
      "tags": {
        "addr:place": "BommanaHalli",
        "amenity": "school",
        "isced:level": "3",
        "name": "EHPS New Francis, Bommana Halli",
        "name:kn": "ಆಂಗ್ಲ ಹಿರಿಯ ಪ್ರಾಥಮಿಕ ಶಾಲೆ ನ್ಯೂ ಫ್ರಾನ್ಸಿಸ್, ಬೊಮ್ಮನಹಳ್ಳಿ",
        "operator": "Private Un-Aided",
        "school": "Higher Secondary"
      }
    },
    {
      "type": "node",
      "id": 6422598568,
      "lat": 12.9065455,
      "lon": 77.6214942,
      "tags": {
        "amenity": "school",
        "isced:level": "2",
        "name": "English Higher Primary School",
        "name:kn": "ಆಂಗ್ಲ ಹಿರಿಯ ಪ್ರಾಥಮಿಕ ಶಾಲೆ ಅಮರದೀಪ್, ಬೊಮ್ಮನಹಳ್ಳಿ",
        "operator": "Private Un-Aided",
        "school": "Higher Primary"
      }
    },
    {
      "type": "node",
      "id": 6430430717,
      "lat": 12.9037178,
      "lon": 77.6257972,
      "tags": {
        "addr:place": "Bommanahalli",
        "amenity": "school",
        "isced:level": "2",
        "name": "Lorven Pub Sch, Bommanahalli",
        "name:kn": "ಲಾರ್ವೆನ್ ಪಬ್ಲಿಕ್ ಶಾಲೆ,ಬೊಮ್ಮನಹಳ್ಳಿ",
        "operator": "Private Un-Aided",
        "school": "Higher Primary"
      }
    },
    {
      "type": "node",
      "id": 6494672785,
      "lat": 12.9057779,
      "lon": 77.6221591,
      "tags": {
        "addr:place": "Ellikunate",
        "amenity": "school",
        "isced:level": "3",
        "name": "New Pecidencny Public School Icse",
        "name:kn": "ಹೊಸ ಪೆಸಿಡೆನ್ಸಿ ಪಬ್ಲಿಕ್ ಶಾಲೆ, ಐ.ಸಿ.ಎಸ್.ಇ. ಎಳ್ಳುಕುಂಟೆ",
        "operator": "Private Un-Aided",
        "school": "Higher Secondary"
      }
    },
    {
      "type": "node",
      "id": 6938896388,
      "lat": 12.9079615,
      "lon": 77.6235715,
      "tags": {
        "addr:district": "Bengaluru Rural",
        "addr:full": "No-8, 1st Cross Ngr Layout Roopera Agrahara",
        "addr:postcode": "560068",
        "addr:state": "Karnataka",
        "amenity": "hospital",
        "name": "Mahanth Hospital",
        "source": "OpenGovernmentData"
      }
    },
    {
      "type": "node",
      "id": 6939448269,
      "lat": 12.9063562,
      "lon": 77.6302998,
      "tags": {
        "addr:district": "Bengaluru Rural",
        "addr:full": "Mangammanapalya Main Road, Bommanahalli",
        "addr:postcode": "560068",
        "addr:state": "Karnataka",
        "amenity": "clinic",
        "name": "Uma Nursing Home, Bengaluru Rural",
        "source": "OpenGovernmentData"
      }
    },
    {
      "type": "node",
      "id": 6944138102,
      "lat": 12.9074596,
      "lon": 77.6274445,
      "tags": {
        "addr:district": "Bengaluru Rural",
        "addr:full": "69/5B, Hesur Main Road, Bommanahalli, Bangalore",
        "addr:postcode": "560068",
        "addr:state": "Karnataka",
        "amenity": "clinic",
        "name": "Bhaanu Nursing Home",
        "source": "OpenGovernmentData"
      }
    },
    {
      "type": "node",
      "id": 6944290482,
      "lat": 12.9160636,
      "lon": 77.6308219,
      "tags": {
        "addr:district": "Bengaluru Urban",
        "addr:full": "L 168, Sector - 6, Ring Road, Hsr Layout",
        "addr:postcode": "560040",
        "addr:state": "Karnataka",
        "amenity": "hospital",
        "name": "Bhagavathi Multi Speciality Hospital",
        "source": "OpenGovernmentData"
      }
    },
    {
      "type": "node",
      "id": 7164330973,
      "lat": 12.9159432,
      "lon": 77.6192416,
      "tags": {
        "amenity": "bank",
        "brand": "HDFC Bank",
        "brand:wikidata": "Q631047",
        "name": "HDFC Bank",
        "short_name": "HDFC"
      }
    },
    {
      "type": "node",
      "id": 7202723905,
      "lat": 12.9102142,
      "lon": 77.6244654,
      "tags": {
        "addr:district": "Bangalore",
        "addr:full": "3rd Main Rd, NGR Layout, Roopena Agrahara, Bommanahalli",
        "addr:postcode": "560068",
        "addr:state": "Karnataka",
        "addr:subdistrict": "Bangalore South",
        "amenity": "hospital",
        "name": "Roopena Agrahara Government Hospital",
        "source": "OpenGovernmentData"
      }
    },
    {
      "type": "node",
      "id": 7294283050,
      "lat": 12.9172609,
      "lon": 77.6281339,
      "tags": {
        "brand": "Škoda",
        "brand:wikidata": "Q29637",
        "name": "Škoda",
        "operator": "Škoda",
        "shop": "car"
      }
    },
    {
      "type": "node",
      "id": 7294283054,
      "lat": 12.9180556,
      "lon": 77.6248053,
      "tags": {
        "name": "Mahindra",
        "name:kn": "ಮಹಿಂದ್ರ",
        "shop": "motorcycle"
      }
    },
    {
      "type": "node",
      "id": 7294283058,
      "lat": 12.9180295,
      "lon": 77.624584,
      "tags": {
        "addr:city": "Bengaluru",
        "addr:country": "IN",
        "addr:postcode": "560102",
        "addr:street": "Outer Ring Road",
        "addr:suburb": "HSR Layout",
        "amenity": "coworking_space",
        "fee": "yes",
        "name": "BHIVE Workspace",
        "office": "coworking",
        "operator": "BHIVE Workspace",
        "website": "https://bhiveworkspace.com"
      }
    },
    {
      "type": "node",
      "id": 7294283059,
      "lat": 12.9179053,
      "lon": 77.6242849,
      "tags": {
        "addr:city": "Bengaluru",
        "addr:country": "IN",
        "addr:housenumber": "192",
        "addr:postcode": "560102",
        "addr:street": "Outer Ring Road",
        "addr:suburb": "HSR Layout",
        "brand": "Comfold",
        "name": "Comfold",
        "operator": "Comfold",
        "shop": "furniture",
        "website": "https://comfold.com"
      }
    },
    {
      "type": "node",
      "id": 7294299935,
      "lat": 12.9179105,
      "lon": 77.6238799,
      "tags": {
        "amenity": "restaurant",
        "indoor_seating": "yes",
        "name": "Lounge 189",
        "outdoor_seating": "no"
      }
    },
    {
      "type": "node",
      "id": 7294299936,
      "lat": 12.9178543,
      "lon": 77.6241066,
      "tags": {
        "amenity": "restaurant",
        "name": "The Aroma"
      }
    },
    {
      "type": "node",
      "id": 7294299937,
      "lat": 12.9178269,
      "lon": 77.6237981,
      "tags": {
        "amenity": "cafe",
        "name": "Cafe Awesome"
      }
    },
    {
      "type": "node",
      "id": 8320252561,
      "lat": 12.9092387,
      "lon": 77.6217341,
      "tags": {
        "amenity": "library",
        "email": "haadibadi@gmail.com",
        "name": "Haadibadi",
        "website": "http://www.haadibadi.org/"
      }
    },
    {
      "type": "node",
      "id": 9858668211,
      "lat": 12.9163445,
      "lon": 77.6239148,
      "tags": {
        "name": "Furlenco",
        "shop": "furniture",
        "website": "https://www.furlenco.com/"
      }
    },
    {
      "type": "node",
      "id": 9858668212,
      "lat": 12.9072883,
      "lon": 77.6291558,
      "tags": {
        "name": "BGauss",
        "note": "Electric Scooters Dealer",
        "shop": "motorcycle",
        "website": "https://www.bgauss.com/"
      }
    },
    {
      "type": "node",
      "id": 10872824029,
      "lat": 12.9160204,
      "lon": 77.6198418,
      "tags": {
        "amenity": "bank",
        "atm": "yes",
        "brand": "Bank of Baroda",
        "brand:wikidata": "Q2003797",
        "name": "Bank of Baroda",
        "operator": "Bank of Baroda"
      }
    },
    {
      "type": "node",
      "id": 11011849930,
      "lat": 12.9066122,
      "lon": 77.6310591,
      "tags": {
        "addr:city": "Bangalore",
        "addr:housenumber": "492",
        "addr:postcode": "560068",
        "addr:street": "Mangammapalaya Road",
        "amenity": "bank",
        "atm": "yes",
        "brand": "Karnataka Bank",
        "brand:wikidata": "Q2042632",
        "name": "Karnataka Bank",
        "name:kn": "ಕರ್ನಾಟಕ ಬ್ಯಾಂಕ್",
        "opening_hours": "24/7"
      }
    },
    {
      "type": "node",
      "id": 11164777497,
      "lat": 12.9165851,
      "lon": 77.6195826,
      "tags": {
        "amenity": "bank",
        "brand": "Axis Bank",
        "brand:wikidata": "Q2003549",
        "check_date": "2023-12-04",
        "name": "Axis Bank",
        "name:kn": "ಆಕ್ಸಿಸ್ ಬ್ಯಾಂಕ್"
      }
    },
    {
      "type": "node",
      "id": 11250697610,
      "lat": 12.9127486,
      "lon": 77.6325388,
      "tags": {
        "name": "Adco",
        "shop": "clothes"
      }
    },
    {
      "type": "node",
      "id": 11250697654,
      "lat": 12.9126127,
      "lon": 77.6328172,
      "tags": {
        "brand": "Airtel",
        "brand:wikidata": "Q854867",
        "name": "Airtel",
        "shop": "mobile_phone"
      }
    },
    {
      "type": "node",
      "id": 11250719123,
      "lat": 12.912655,
      "lon": 77.6325493,
      "tags": {
        "amenity": "doctors",
        "healthcare": "doctor",
        "healthcare:speciality": "neurology",
        "name": "Chandini Neuro Specialty Clinic"
      }
    },
    {
      "type": "node",
      "id": 11250726315,
      "lat": 12.9126728,
      "lon": 77.6328115,
      "tags": {
        "name": "Puran Interiors",
        "shop": "interior_decoration"
      }
    },
    {
      "type": "node",
      "id": 11250726425,
      "lat": 12.9129158,
      "lon": 77.6322984,
      "tags": {
        "amenity": "fast_food",
        "brand": "Domino's",
        "brand:wikidata": "Q839466",
        "cuisine": "pizza",
        "name": "Domino's",
        "name:kn": "ಡಾಮಿನೋಸ್",
        "takeaway": "yes"
      }
    },
    {
      "type": "node",
      "id": 11250737409,
      "lat": 12.9126156,
      "lon": 77.6327999,
      "tags": {
        "amenity": "ice_cream",
        "brand:wikidata": "Q124374249",
        "delivery": "yes",
        "name": "Polar Bear Ice Cream",
        "takeaway": "yes"
      }
    },
    {
      "type": "node",
      "id": 11250748512,
      "lat": 12.9134255,
      "lon": 77.6325085,
      "tags": {
        "name": "Fitwell - Car Seat Cover Makers",
        "shop": "car_parts"
      }
    },
    {
      "type": "node",
      "id": 11250750534,
      "lat": 12.9131807,
      "lon": 77.6322851,
      "tags": {
        "name": "Titan Eyeplus",
        "shop": "optician"
      }
    },
    {
      "type": "node",
      "id": 11250759679,
      "lat": 12.9126891,
      "lon": 77.6325502,
      "tags": {
        "amenity": "dentist",
        "healthcare": "dentist",
        "name": "Denton Dental Clinic"
      }
    },
    {
      "type": "node",
      "id": 11250759916,
      "lat": 12.9133475,
      "lon": 77.6325187,
      "tags": {
        "name": "Baggana UB Spirits",
        "shop": "alcohol"
      }
    },
    {
      "type": "node",
      "id": 11250760175,
      "lat": 12.9131925,
      "lon": 77.6325549,
      "tags": {
        "amenity": "bank",
        "name": "Sreenidhi Souhardha Sahakari Bank"
      }
    },
    {
      "type": "node",
      "id": 11250766548,
      "lat": 12.9125847,
      "lon": 77.6325628,
      "tags": {
        "name": "Eye World Optician",
        "shop": "optician"
      }
    },
    {
      "type": "node",
      "id": 11250766549,
      "lat": 12.9131528,
      "lon": 77.6325518,
      "tags": {
        "name": "PrintQ",
        "shop": "copyshop"
      }
    },
    {
      "type": "node",
      "id": 11250767001,
      "lat": 12.9132184,
      "lon": 77.6322623,
      "tags": {
        "name": "Space Trend",
        "shop": "interior_decoration"
      }
    },
    {
      "type": "node",
      "id": 11250768948,
      "lat": 12.914311,
      "lon": 77.6322175,
      "tags": {
        "name": "Easyday Club",
        "shop": "supermarket"
      }
    },
    {
      "type": "node",
      "id": 11250773208,
      "lat": 12.9135353,
      "lon": 77.632283,
      "tags": {
        "clothes": "underwear",
        "name": "Jockey",
        "name:kn": "ಜಾಕೀ",
        "shop": "clothes"
      }
    },
    {
      "type": "node",
      "id": 11250775969,
      "lat": 12.9140046,
      "lon": 77.6322295,
      "tags": {
        "amenity": "bank",
        "brand": "Jana Small Finance Bank",
        "brand:wikidata": "Q65122274",
        "name": "Jana Small Finance Bank"
      }
    },
    {
      "type": "node",
      "id": 11250781823,
      "lat": 12.9139562,
      "lon": 77.6322007,
      "tags": {
        "amenity": "restaurant",
        "name": "Atthemane Restaurants"
      }
    },
    {
      "type": "node",
      "id": 11259449032,
      "lat": 12.9134504,
      "lon": 77.6286677,
      "tags": {
        "addr:city": "Bengaluru",
        "addr:country": "IN",
        "addr:housenumber": "525",
        "addr:place": "Sector 6",
        "addr:postcode": "560102",
        "addr:street": "2nd A Main Road",
        "addr:suburb": "HSR Layout",
        "alt_name": "Fabtolab",
        "email": "store@fabtolab.com",
        "level": "3",
        "name": "Fab.to.lab",
        "opening_hours": "Mo-Fr 09:00-18:30; Sa 09:30-15:00",
        "phone": "+91 6361942383",
        "shop": "electronics",
        "website": "https://www.fabtolab.com/"
      }
    },
    {
      "type": "node",
      "id": 11309805441,
      "lat": 12.9170447,
      "lon": 77.6299095,
      "tags": {
        "amenity": "fast_food",
        "check_date": "2023-11-03",
        "name": "New Udupi Grand"
      }
    },
    {
      "type": "node",
      "id": 11333433742,
      "lat": 12.9132992,
      "lon": 77.6255557,
      "tags": {
        "brand": "Vishal Mega Mart",
        "brand:wikidata": "Q126895037",
        "check_date": "2025-05-31",
        "name": "Vishal Mega Mart",
        "payment:cash": "yes",
        "payment:credit_cards": "yes",
        "payment:debit_cards": "yes",
        "shop": "supermarket"
      }
    },
    {
      "type": "node",
      "id": 11333470402,
      "lat": 12.9132676,
      "lon": 77.6256181,
      "tags": {
        "amenity": "fast_food",
        "name": "Sri Guru Raghavendra Juice and Snacks"
      }
    },
    {
      "type": "node",
      "id": 11333476004,
      "lat": 12.9132727,
      "lon": 77.6256232,
      "tags": {
        "amenity": "fast_food",
        "name": "MR fast food"
      }
    },
    {
      "type": "node",
      "id": 11333476005,
      "lat": 12.9132602,
      "lon": 77.6256156,
      "tags": {
        "amenity": "fast_food",
        "name": "Pooja Special North Indian Chats"
      }
    },
    {
      "type": "node",
      "id": 11333480993,
      "lat": 12.9132799,
      "lon": 77.6256326,
      "tags": {
        "name": "Sri Guru Raghavendra sugar cane",
        "shop": "beverages"
      }
    },
    {
      "type": "node",
      "id": 11353617734,
      "lat": 12.9133852,
      "lon": 77.6256151,
      "tags": {
        "amenity": "fast_food",
        "name": "Cafe Hut"
      }
    },
    {
      "type": "node",
      "id": 11380741685,
      "lat": 12.9159436,
      "lon": 77.6187925,
      "tags": {
        "check_date": "2023-11-28",
        "name": "Bengali Fun Foods",
        "shop": "confectionery"
      }
    },
    {
      "type": "node",
      "id": 11383647393,
      "lat": 12.9157908,
      "lon": 77.6164119,
      "tags": {
        "amenity": "bench",
        "backrest": "no",
        "material": "stone",
        "seats": "2"
      }
    },
    {
      "type": "node",
      "id": 11383647394,
      "lat": 12.915783,
      "lon": 77.6164541,
      "tags": {
        "amenity": "bench",
        "backrest": "no",
        "material": "stone",
        "seats": "2"
      }
    },
    {
      "type": "node",
      "id": 11383647395,
      "lat": 12.9157872,
      "lon": 77.6163565,
      "tags": {
        "amenity": "bench",
        "backrest": "no",
        "material": "stone",
        "seats": "2"
      }
    },
    {
      "type": "node",
      "id": 11383647396,
      "lat": 12.9157842,
      "lon": 77.6163179,
      "tags": {
        "amenity": "bench",
        "backrest": "no",
        "material": "stone",
        "seats": "2"
      }
    },
    {
      "type": "node",
      "id": 11383647397,
      "lat": 12.9157878,
      "lon": 77.6162616,
      "tags": {
        "amenity": "bench",
        "backrest": "no",
        "material": "stone",
        "seats": "2"
      }
    },
    {
      "type": "node",
      "id": 11395345932,
      "lat": 12.9164076,
      "lon": 77.6167809,
      "tags": {
        "check_date": "2023-12-05",
        "shop": "hardware"
      }
    },
    {
      "type": "node",
      "id": 11395407771,
      "lat": 12.9164764,
      "lon": 77.6175785,
      "tags": {
        "check_date": "2023-12-05",
        "name": "Sri Lakshmi Bakery",
        "shop": "kiosk"
      }
    },
    {
      "type": "node",
      "id": 11395407772,
      "lat": 12.9164639,
      "lon": 77.6175375,
      "tags": {
        "check_date": "2023-12-05",
        "name": "Balaji Helmet Shop",
        "shop": "kiosk"
      }
    },
    {
      "type": "node",
      "id": 11478661230,
      "lat": 12.9113014,
      "lon": 77.6326498,
      "tags": {
        "addr:city": "Bengaluru",
        "addr:district": "HSR Layout",
        "addr:housenumber": "1165",
        "addr:postcode": "560102",
        "addr:street": "5th Main Road",
        "air_conditioning": "yes",
        "description": "Bitshala Bitspace is our hackerspace in Bengaluru for Bitcoin, open protocols, privacy and freedom tech builders.\n\nBitshala is a grassroots learning initiative, we help educate and transition Indian developers into Freedom Tech and BOSS (Bitcoin Open Sour",
        "fee": "no",
        "image": "https://media.licdn.com/dms/image/v2/D5622AQELFkSpLtI4NQ/feedshare-shrink_800/B56ZhGEdUCHUAk-/0/1753522231695?e=2147483647&v=beta&t=kKM1trtsgc5WC7vnT_dunjm9Qs62S-vb8X6AkxGBAwM",
        "internet_access": "wlan",
        "internet_access:fee": "customers",
        "leisure": "hackerspace",
        "name": "Bitshala Bitspace",
        "opening_hours": "Mo-Sa 10:00-19:00",
        "source": "GEPTIS",
        "website": "https://x.com/bitshala"
      }
    },
    {
      "type": "node",
      "id": 11530060469,
      "lat": 12.9139447,
      "lon": 77.6322291,
      "tags": {
        "name": "Juice Junction",
        "shop": "beverages"
      }
    },
    {
      "type": "node",
      "id": 11830290144,
      "lat": 12.9124102,
      "lon": 77.6252338,
      "tags": {
        "name": "Arunagiri TVS",
        "shop": "motorcycle"
      }
    },
    {
      "type": "node",
      "id": 11830305646,
      "lat": 12.9119818,
      "lon": 77.6254463,
      "tags": {
        "amenity": "place_of_worship",
        "religion": "hindu"
      }
    },
    {
      "type": "node",
      "id": 11984487708,
      "lat": 12.9106707,
      "lon": 77.6326678,
      "tags": {
        "amenity": "restaurant",
        "check_date": "2024-11-30",
        "name": "Sendhoor Coffee"
      }
    },
    {
      "type": "node",
      "id": 12078449264,
      "lat": 12.9105119,
      "lon": 77.627123,
      "tags": {
        "amenity": "atm",
        "brand": "Kotak Mahindra Bank",
        "brand:wikidata": "Q2040404",
        "cash_in": "no",
        "check_date": "2024-07-28",
        "operator": "Kotak Mahindra Bank",
        "operator:wikidata": "Q2040404",
        "source": "survey"
      }
    },
    {
      "type": "node",
      "id": 12078449265,
      "lat": 12.9079574,
      "lon": 77.6288166,
      "tags": {
        "amenity": "fuel",
        "check_date": "2024-07-28",
        "self_service": "no",
        "source": "survey"
      }
    },
    {
      "type": "node",
      "id": 12205289240,
      "lat": 12.9117593,
      "lon": 77.6323451,
      "tags": {
        "name": "goodgudi",
        "shop": "stationery"
      }
    },
    {
      "type": "node",
      "id": 12205289553,
      "lat": 12.9114596,
      "lon": 77.6305923,
      "tags": {
        "name": "Roshini's Studio",
        "shop": "beauty"
      }
    },
    {
      "type": "node",
      "id": 12205299936,
      "lat": 12.9113795,
      "lon": 77.6326155,
      "tags": {
        "name": "Sagar Juice and Snacks",
        "shop": "beverages"
      }
    },
    {
      "type": "node",
      "id": 12205299937,
      "lat": 12.9119751,
      "lon": 77.6323279,
      "tags": {
        "alt_name": "Burgermeister",
        "amenity": "cafe",
        "name": "Cuppa Redifined"
      }
    },
    {
      "type": "node",
      "id": 12212780814,
      "lat": 12.9118609,
      "lon": 77.6326125,
      "tags": {
        "amenity": "restaurant",
        "check_date": "2024-11-30",
        "name": "Asha Tiffins"
      }
    },
    {
      "type": "node",
      "id": 12212780815,
      "lat": 12.9107426,
      "lon": 77.6326455,
      "tags": {
        "amenity": "cafe",
        "check_date": "2024-11-30",
        "name": "Tea House"
      }
    },
    {
      "type": "node",
      "id": 12212780816,
      "lat": 12.9104742,
      "lon": 77.6324377,
      "tags": {
        "amenity": "fast_food"
      }
    },
    {
      "type": "node",
      "id": 12212780817,
      "lat": 12.9103743,
      "lon": 77.6323509,
      "tags": {
        "amenity": "restaurant",
        "name": "Kailash Parbat"
      }
    },
    {
      "type": "node",
      "id": 12212780818,
      "lat": 12.9105383,
      "lon": 77.6327368,
      "tags": {
        "amenity": "restaurant",
        "name": "SKP Donne Biriyani"
      }
    },
    {
      "type": "node",
      "id": 12212780819,
      "lat": 12.911564,
      "lon": 77.6308748,
      "tags": {
        "shop": "greengrocer"
      }
    },
    {
      "type": "node",
      "id": 12212780820,
      "lat": 12.9115476,
      "lon": 77.6297825,
      "tags": {
        "addr:housenumber": "1461",
        "addr:street": "17th cross road",
        "name": "Bake N Joy",
        "shop": "bakery"
      }
    },
    {
      "type": "node",
      "id": 12212780821,
      "lat": 12.9118582,
      "lon": 77.6295466,
      "tags": {
        "shop": "bakery"
      }
    },
    {
      "type": "node",
      "id": 12238336221,
      "lat": 12.9103731,
      "lon": 77.6328115,
      "tags": {
        "amenity": "restaurant",
        "name": "Samosa Point"
      }
    },
    {
      "type": "node",
      "id": 12238349605,
      "lat": 12.9105329,
      "lon": 77.6326851,
      "tags": {
        "amenity": "ice_cream",
        "name": "Kulfi Shulfi"
      }
    },
    {
      "type": "node",
      "id": 12244702994,
      "lat": 12.9117627,
      "lon": 77.6326055,
      "tags": {
        "amenity": "bank",
        "brand": "Ujjivan Small Finance Bank",
        "brand:wikidata": "Q42529272",
        "name": "Ujjivan Small Finance Bank"
      }
    },
    {
      "type": "node",
      "id": 12244734920,
      "lat": 12.9117281,
      "lon": 77.6326118,
      "tags": {
        "amenity": "atm",
        "brand": "Ujjivan Small Finance Bank",
        "brand:wikidata": "Q42529272",
        "name": "Ujjivan",
        "operator": "Ujjivan Small Finance Bank",
        "operator:wikidata": "Q42529272"
      }
    },
    {
      "type": "node",
      "id": 12248235680,
      "lat": 12.908564,
      "lon": 77.6239237,
      "tags": {
        "name": "ALV Fresh Supermarket",
        "shop": "supermarket"
      }
    },
    {
      "type": "node",
      "id": 12248273668,
      "lat": 12.9086283,
      "lon": 77.6236311,
      "tags": {
        "leisure": "fitness_centre",
        "name": "Xtreme Body Fitness"
      }
    },
    {
      "type": "node",
      "id": 12248311200,
      "lat": 12.9106758,
      "lon": 77.6248004,
      "tags": {
        "name": "The Man Cave",
        "shop": "hairdresser"
      }
    },
    {
      "type": "node",
      "id": 12248328810,
      "lat": 12.9108405,
      "lon": 77.6244568,
      "tags": {
        "leisure": "fitness_centre",
        "name": "Smack Fitness"
      }
    },
    {
      "type": "node",
      "id": 12248350601,
      "lat": 12.9093364,
      "lon": 77.6243746,
      "tags": {
        "name": "Clean & Care Laundry",
        "shop": "laundry"
      }
    },
    {
      "type": "node",
      "id": 12270762301,
      "lat": 12.9174543,
      "lon": 77.6275416,
      "tags": {
        "amenity": "bank",
        "atm": "yes",
        "brand": "HDFC Bank",
        "brand:wikidata": "Q631047",
        "check_date": "2024-10-20",
        "name": "HDFC Bank",
        "short_name": "HDFC"
      }
    },
    {
      "type": "node",
      "id": 12270762302,
      "lat": 12.9173626,
      "lon": 77.6278563,
      "tags": {
        "amenity": "bank",
        "brand": "Bank of India",
        "brand:wikidata": "Q2004439",
        "check_date": "2024-10-20",
        "name": "Bank of India"
      }
    },
    {
      "type": "node",
      "id": 12270762303,
      "lat": 12.9173826,
      "lon": 77.6278011,
      "tags": {
        "amenity": "atm",
        "brand": "Bank of India",
        "brand:wikidata": "Q2004439",
        "check_date": "2024-10-20",
        "operator": "Bank of India",
        "operator:wikidata": "Q2004439"
      }
    },
    {
      "type": "node",
      "id": 12285338814,
      "lat": 12.9112615,
      "lon": 77.6257353,
      "tags": {
        "brand": "Royal Enfield",
        "brand:wikidata": "Q2668720",
        "check_date": "2024-10-23",
        "name": "Royal Enfield",
        "shop": "motorcycle"
      }
    },
    {
      "type": "node",
      "id": 12285338815,
      "lat": 12.9098456,
      "lon": 77.6266764,
      "tags": {
        "brand": "Maruti Suzuki",
        "brand:wikidata": "Q963718",
        "check_date": "2024-10-23",
        "name": "Maruti Suzuki",
        "shop": "car_repair"
      }
    },
    {
      "type": "node",
      "id": 12285684753,
      "lat": 12.909786,
      "lon": 77.6325956,
      "tags": {
        "amenity": "restaurant",
        "name": "MM Nati Mane"
      }
    },
    {
      "type": "node",
      "id": 12307015095,
      "lat": 12.9106722,
      "lon": 77.6294978,
      "tags": {
        "amenity": "restaurant",
        "name": "Bismilla Biriyani"
      }
    },
    {
      "type": "node",
      "id": 12487002474,
      "lat": 12.9121081,
      "lon": 77.6244415,
      "tags": {
        "amenity": "restaurant",
        "name": "Champaran Dhaba"
      }
    },
    {
      "type": "node",
      "id": 12622743939,
      "lat": 12.9113947,
      "lon": 77.615695,
      "tags": {
        "addr:city": "Bangalore",
        "addr:postcode": "560076",
        "addr:state": "KA",
        "addr:street": "Tank Bund Road",
        "amenity": "restaurant",
        "name": "Chill N Waffle"
      }
    },
    {
      "type": "node",
      "id": 12622743940,
      "lat": 12.9112174,
      "lon": 77.6156439,
      "tags": {
        "addr:city": "Bangalore",
        "addr:postcode": "560076",
        "addr:state": "KA",
        "addr:street": "Tank Bund Road",
        "amenity": "fast_food",
        "indoor_seating": "yes",
        "name": "Corn Insta"
      }
    },
    {
      "type": "node",
      "id": 12622743941,
      "lat": 12.9114044,
      "lon": 77.6156456,
      "tags": {
        "addr:city": "Bangalore",
        "addr:postcode": "560076",
        "addr:state": "KA",
        "addr:street": "Tank Bund Road",
        "amenity": "cafe",
        "name": "Irani Chai Biscuit"
      }
    },
    {
      "type": "node",
      "id": 12706360453,
      "lat": 12.907737,
      "lon": 77.6281119,
      "tags": {
        "amenity": "fast_food",
        "check_date": "2025-03-28",
        "name": "Aramane Donne Biryani"
      }
    },
    {
      "type": "node",
      "id": 12850046728,
      "lat": 12.9172785,
      "lon": 77.6179532,
      "tags": {
        "amenity": "place_of_worship",
        "religion": "hindu"
      }
    },
    {
      "type": "node",
      "id": 13063810467,
      "lat": 12.9123027,
      "lon": 77.6327926,
      "tags": {
        "amenity": "pharmacy",
        "brand": "Apollo Pharmacy",
        "brand:wikidata": "Q62562612",
        "healthcare": "pharmacy",
        "name": "Apollo Pharmacy"
      }
    },
    {
      "type": "node",
      "id": 13070296261,
      "lat": 12.9166047,
      "lon": 77.620558,
      "tags": {
        "access": "yes",
        "amenity": "motorcycle_parking",
        "capacity": "230",
        "fee": "yes",
        "name": "Silk Board Metro Parking",
        "operator": "BMRCL",
        "parking": "surface"
      }
    },
    {
      "type": "node",
      "id": 13070296262,
      "lat": 12.9106453,
      "lon": 77.6263825,
      "tags": {
        "access": "yes",
        "amenity": "motorcycle_parking",
        "capacity": "85",
        "fee": "yes",
        "name": "Bommanahalli Metro Parking",
        "operator": "BMRCL",
        "parking": "surface"
      }
    },
    {
      "type": "way",
      "id": 128220279,
      "center": {
        "lat": 12.9148923,
        "lon": 77.6302032
      },
      "tags": {
        "leisure": "park"
      }
    },
    {
      "type": "way",
      "id": 201072740,
      "center": {
        "lat": 12.91675,
        "lon": 77.6192237
      },
      "tags": {
        "leisure": "park",
        "name": "Daniel Park"
      }
    },
    {
      "type": "way",
      "id": 231659914,
      "center": {
        "lat": 12.9058635,
        "lon": 77.6275338
      },
      "tags": {
        "alt_name": "BBMP Office",
        "amenity": "public_building",
        "building": "yes",
        "int_name": "Bruhat Bengaluru Mahanagara Palike",
        "name": "BBMP Bommanahalli",
        "name:kn": "ಬೃ. ಬೆ. ಮ. ಪಾ. ಕಛೈರಿ"
      }
    },
    {
      "type": "way",
      "id": 236746012,
      "center": {
        "lat": 12.9029006,
        "lon": 77.6277282
      },
      "tags": {
        "amenity": "place_of_worship",
        "religion": "hindu"
      }
    },
    {
      "type": "way",
      "id": 236967890,
      "center": {
        "lat": 12.9078642,
        "lon": 77.627663
      },
      "tags": {
        "check_date": "2024-09-19",
        "name": "Nandi Toyota",
        "shop": "car"
      }
    },
    {
      "type": "way",
      "id": 237089963,
      "center": {
        "lat": 12.912228,
        "lon": 77.6301145
      },
      "tags": {
        "leisure": "park"
      }
    },
    {
      "type": "way",
      "id": 237089969,
      "center": {
        "lat": 12.9107388,
        "lon": 77.6314614
      },
      "tags": {
        "leisure": "park"
      }
    },
    {
      "type": "way",
      "id": 237548188,
      "center": {
        "lat": 12.9110491,
        "lon": 77.6334801
      },
      "tags": {
        "leisure": "park"
      }
    },
    {
      "type": "way",
      "id": 243896056,
      "center": {
        "lat": 12.9156888,
        "lon": 77.6162448
      },
      "tags": {
        "amenity": "bus_station",
        "bus": "yes",
        "name": "Kuvempunagara Bus Station",
        "name:kn": "ಕುವೆಂಪುನಗರ ಬಸ್ ನಿಲ್ದಾಣ",
        "public_transport": "station"
      }
    },
    {
      "type": "way",
      "id": 262857972,
      "center": {
        "lat": 12.9036079,
        "lon": 77.6208549
      },
      "tags": {
        "leisure": "park",
        "name": "Viratnagar Park",
        "name:kn": "ವಿರಾಟನಗರ ಉದ್ಯಾನವನ"
      }
    },
    {
      "type": "way",
      "id": 313831699,
      "center": {
        "lat": 12.9175448,
        "lon": 77.6291049
      },
      "tags": {
        "addr:city": "Bengaluru",
        "addr:postcode": "560034",
        "addr:street": "5th A Avenue",
        "garden:type": "rosegarden",
        "leisure": "park",
        "name": "Teacher's Colony Park",
        "natural": "grassland",
        "opening_hours": "sunrise-sunset"
      }
    },
    {
      "type": "way",
      "id": 316018421,
      "center": {
        "lat": 12.9128032,
        "lon": 77.6313466
      },
      "tags": {
        "leisure": "park"
      }
    },
    {
      "type": "way",
      "id": 692207409,
      "center": {
        "lat": 12.9166239,
        "lon": 77.6199309
      },
      "tags": {
        "amenity": "fuel",
        "brand": "Indian Oil",
        "brand:wikidata": "Q1289348",
        "compressed_air": "yes",
        "name": "Indian Oil",
        "name:kn": "ಇಂಡಿಯನ್ ಆಯಿಲ್"
      }
    },
    {
      "type": "way",
      "id": 1066726710,
      "center": {
        "lat": 12.9181312,
        "lon": 77.6230925
      },
      "tags": {
        "amenity": "bus_station",
        "bus": "yes",
        "network": "BMTC",
        "operator": "BMTC",
        "public_transport": "station",
        "ref": "Silk Board TTMC"
      }
    },
    {
      "type": "way",
      "id": 1069600848,
      "center": {
        "lat": 12.9189097,
        "lon": 77.622754
      },
      "tags": {
        "amenity": "community_centre",
        "community_centre": "community_hall",
        "landuse": "commercial",
        "name": "Samudaya Bhavan",
        "name:kn": "ಸಮುದಾಯ ಭವನ",
        "source": "https://www.newindianexpress.com/cities/bengaluru/2023/Jul/18/bmrcl-sets-community-hall-for-cops-at-central-silk-board-junction-in-bengaluru-2596040.html"
      }
    },
    {
      "type": "way",
      "id": 1125664997,
      "center": {
        "lat": 12.9170293,
        "lon": 77.6309793
      },
      "tags": {
        "leisure": "park"
      }
    },
    {
      "type": "way",
      "id": 1141414938,
      "center": {
        "lat": 12.9131689,
        "lon": 77.6196209
      },
      "tags": {
        "leisure": "park"
      }
    },
    {
      "type": "way",
      "id": 1208112293,
      "center": {
        "lat": 12.9146596,
        "lon": 77.6227666
      },
      "tags": {
        "access": "private",
        "leisure": "swimming_pool",
        "location": "outdoor",
        "swimming_pool": "outdoor"
      }
    },
    {
      "type": "way",
      "id": 1215337275,
      "center": {
        "lat": 12.9129481,
        "lon": 77.6279955
      },
      "tags": {
        "access": "private",
        "leisure": "swimming_pool"
      }
    },
    {
      "type": "way",
      "id": 1219736767,
      "center": {
        "lat": 12.9136447,
        "lon": 77.6280962
      },
      "tags": {
        "building": "yes",
        "layer": "1",
        "shop": "plant_nursery"
      }
    },
    {
      "type": "way",
      "id": 1262069425,
      "center": {
        "lat": 12.9180909,
        "lon": 77.6184638
      },
      "tags": {
        "amenity": "place_of_worship",
        "landuse": "religious",
        "religion": "hindu"
      }
    },
    {
      "type": "way",
      "id": 1262069448,
      "center": {
        "lat": 12.9154922,
        "lon": 77.6303172
      },
      "tags": {
        "leisure": "pitch"
      }
    },
    {
      "type": "way",
      "id": 1262069454,
      "center": {
        "lat": 12.9158877,
        "lon": 77.629413
      },
      "tags": {
        "leisure": "park"
      }
    },
    {
      "type": "way",
      "id": 1262069462,
      "center": {
        "lat": 12.9165092,
        "lon": 77.6266198
      },
      "tags": {
        "leisure": "park"
      }
    },
    {
      "type": "way",
      "id": 1262069463,
      "center": {
        "lat": 12.9157648,
        "lon": 77.6270986
      },
      "tags": {
        "leisure": "park"
      }
    },
    {
      "type": "way",
      "id": 1262069464,
      "center": {
        "lat": 12.9148916,
        "lon": 77.6276169
      },
      "tags": {
        "leisure": "park"
      }
    },
    {
      "type": "way",
      "id": 1262087808,
      "center": {
        "lat": 12.9188146,
        "lon": 77.622777
      },
      "tags": {
        "amenity": "theatre",
        "theatre:type": "amphi"
      }
    },
    {
      "type": "way",
      "id": 1265835943,
      "center": {
        "lat": 12.9042328,
        "lon": 77.6190444
      },
      "tags": {
        "leisure": "pitch",
        "lit": "no",
        "sport": "tennis",
        "surface": "clay"
      }
    },
    {
      "type": "way",
      "id": 1265835948,
      "center": {
        "lat": 12.9095516,
        "lon": 77.6137211
      },
      "tags": {
        "leisure": "park",
        "name": "Madiwala Lake Park"
      }
    },
    {
      "type": "way",
      "id": 1294934455,
      "center": {
        "lat": 12.9155407,
        "lon": 77.6166708
      },
      "tags": {
        "amenity": "toilets",
        "building": "yes"
      }
    },
    {
      "type": "way",
      "id": 1414001461,
      "center": {
        "lat": 12.9156969,
        "lon": 77.6225378
      },
      "tags": {
        "leisure": "sports_centre"
      }
    },
    {
      "type": "way",
      "id": 1421713660,
      "center": {
        "lat": 12.9121156,
        "lon": 77.6297859
      },
      "tags": {
        "leisure": "fitness_station",
        "sport": "fitness"
      }
    },
    {
      "type": "way",
      "id": 1422674076,
      "center": {
        "lat": 12.9168008,
        "lon": 77.619929
      },
      "tags": {
        "addr:place": "BTM Layout",
        "alt_name": "Mira's High School",
        "amenity": "school",
        "check_date": "2023-12-05",
        "isced:level": "3",
        "name": "St. Mira's School",
        "name:kn": "ಸೆಂಟ್‌ ಮಿರ್ಸ್ ಪ್ರೌಢಶಾಲೆ,ಬಿ.ಟಿ.ಎಂ ಲೇಔಟ್",
        "operator": "Private Un-Aided",
        "school": "Higher Secondary"
      }
    }
  ]
}