{
  "area_name": "Royal Placid Layout",
  "osm_id": 10676129241,
  "osm_type": "node",
  "place_type": "neighbourhood",
  "amenity_count": 110,
  "amenities": [
    {
      "type": "node",
      "id": 4665353934,
      "lat": 12.8985431,
      "lon": 77.6499391,
      "tags": {
        "amenity": "place_of_worship",
        "name": "Residency Park Temple"
      }
    },
    {
      "type": "node",
      "id": 5780841177,
      "lat": 12.905697,
      "lon": 77.6511262,
      "tags": {
        "addr:city": "Bengaluru",
        "addr:housenumber": "1585",
        "addr:postcode": "560102",
        "addr:street": "27th Main Road, HSR Layout, Sector 2",
        "alt_name": "Pragmattic Services",
        "level": "1",
        "name": "Track and Trail",
        "operator": "TI Cycles India",
        "payment:cash": "yes",
        "payment:credit_cards": "yes",
        "service:bicycle:pump": "yes",
        "service:bicycle:repair": "yes",
        "service:bicycle:retail": "yes",
        "shop": "bicycle"
      }
    },
    {
      "type": "node",
      "id": 5784276606,
      "lat": 12.9056908,
      "lon": 77.6510831,
      "tags": {
        "level": "-1",
        "organic": "only",
        "shop": "supermarket"
      }
    },
    {
      "type": "node",
      "id": 6346934417,
      "lat": 12.8982752,
      "lon": 77.6515095,
      "tags": {
        "addr:place": "aralakunate",
        "amenity": "school",
        "isced:level": "2",
        "name": "GHPS Aralakunate",
        "name:kn": "ಸರ್ಕಾರಿ ಹಿರಿಯ ಪ್ರಾಥಮಿಕ ಶಾಲೆ ಅರಳಕುಂಟೆ",
        "operator": "Department of Education",
        "school": "primary"
      }
    },
    {
      "type": "node",
      "id": 6422582704,
      "lat": 12.8996038,
      "lon": 77.6515434,
      "tags": {
        "addr:place": "BommanaHalli",
        "amenity": "school",
        "isced:level": "3",
        "name": "Chinmaya Vidya Mandira, Bommana Halli",
        "name:kn": "ಚಿನ್ಮಯ ವಿದ್ಯಾ ಮಂದಿರ, ಬೊಮ್ಮನಹಳ್ಳಿ",
        "operator": "Private Un-Aided",
        "school": "Higher Secondary"
      }
    },
    {
      "type": "node",
      "id": 6698658814,
      "lat": 12.8989162,
      "lon": 77.6566393,
      "tags": {
        "addr:city": "Bengaluru",
        "addr:housenumber": "Shop #1, Sy No 30, Opp Vibgyor High School",
        "addr:postcode": "560102",
        "addr:street": "Reliable Residency Layout, Somasundrapalya, Harlur Road, HSR Layout 2nd Extn",
        "amenity": "veterinary",
        "contact:email": "swatimvc@gmail.com",
        "contact:phone": "7204522768",
        "description": "We care for your loved ones",
        "fee": "yes",
        "name": "Your's pet",
        "opening_hours": "Th-Tu 09:00-13:00",
        "operator": "Dr. Swati Jain",
        "payment:cash": "yes",
        "source": "local knowledge"
      }
    },
    {
      "type": "node",
      "id": 6698658815,
      "lat": 12.8985449,
      "lon": 77.6582915,
      "tags": {
        "addr:city": "Bengaluru",
        "addr:postcode": "560102",
        "addr:street": "Haralur Road",
        "brand": "FreshCo",
        "brand:wikidata": "Q5502915",
        "brand:wikipedia": "en:FreshCo",
        "name": "FreshCo",
        "payment:cash": "yes",
        "payment:credit_cards": "yes",
        "payment:debit_cards": "yes",
        "phone": "25577888",
        "ref:vatin": "29AAEFF0415A1Z4",
        "shop": "supermarket"
      }
    },
    {
      "type": "node",
      "id": 8293160652,
      "lat": 12.9036054,
      "lon": 77.6638956,
      "tags": {
        "amenity": "parking_entrance",
        "parking": "underground"
      }
    },
    {
      "type": "node",
      "id": 8293160689,
      "lat": 12.9040784,
      "lon": 77.6651169,
      "tags": {
        "amenity": "parking_entrance",
        "parking": "underground"
      }
    },
    {
      "type": "node",
      "id": 8293160690,
      "lat": 12.9033097,
      "lon": 77.6649412,
      "tags": {
        "amenity": "parking_entrance",
        "parking": "underground"
      }
    },
    {
      "type": "node",
      "id": 8439422717,
      "lat": 12.8984689,
      "lon": 77.6572967,
      "tags": {
        "addr:housenumber": "5",
        "addr:postcode": "560102",
        "addr:street": "Reliable Lakedew Residency",
        "amenity": "clinic",
        "healthcare": "clinic",
        "name": "Liss Medical and Dental Clinic",
        "name:en": "Liss Medical and Dental Clinic",
        "name:hi": "लिस मेडिकल एंड डेंटल क्लिनिक",
        "opening_hours": "Mo-Su 09:00-18:00"
      }
    },
    {
      "type": "node",
      "id": 8439422718,
      "lat": 12.8985674,
      "lon": 77.6574334,
      "tags": {
        "addr:housenumber": "4",
        "addr:postcode": "560102",
        "addr:street": "Haralur Road",
        "name:en": "Patanjali Aarogya Kendra",
        "name:hi": "पतंजि आरोग्य केंद्र",
        "opening_hours": "Mo-Su 09:00-18:00",
        "phone": "+91 95351 92990",
        "shop": "convenience"
      }
    },
    {
      "type": "node",
      "id": 8439429817,
      "lat": 12.8984692,
      "lon": 77.6577702,
      "tags": {
        "addr:housenumber": "2",
        "addr:postcode": "560102",
        "addr:street": "Haralur Road",
        "name": "My Chicken and More",
        "name:en": "My Chicken and More",
        "name:hi": "माइ चिकन एंड मोर",
        "opening_hours": "Mo-Su 09:00-18:00",
        "phone": "076250 62773",
        "shop": "butcher",
        "website": "https://www.mychickenandmore.com/"
      }
    },
    {
      "type": "node",
      "id": 8439438617,
      "lat": 12.8987996,
      "lon": 77.6584097,
      "tags": {
        "addr:postcode": "560102",
        "addr:street": "Haralur Road",
        "air_conditioning": "yes",
        "amenity": "fast_food",
        "brand": "Domino's",
        "brand:wikidata": "Q839466",
        "brand:wikipedia": "en:Domino's Pizza",
        "cuisine": "pizza",
        "diet:vegetarian": "yes",
        "indoor_seating": "yes",
        "name": "Domino's",
        "name:en": "Domino's Pizza",
        "name:hi": "डोमिनोज़ पिज़्ज़ा",
        "name:kn": "ಡಾಮಿನೋಸ್",
        "opening_hours": "Mo-Su 10:00-23:00",
        "outdoor_seating": "no",
        "smoking": "no",
        "takeaway": "yes",
        "website": "https://www.dominos.co.in/"
      }
    },
    {
      "type": "node",
      "id": 8439822017,
      "lat": 12.8986228,
      "lon": 77.656868,
      "tags": {
        "addr:postcode": "560102",
        "addr:street": "Reliable Lakedew Residency",
        "name": "Gorjiyasa",
        "opening_hours": "Mo-Fr 09:00-18:00",
        "shop": "beauty"
      }
    },
    {
      "type": "node",
      "id": 10683877995,
      "lat": 12.8947657,
      "lon": 77.6615988,
      "tags": {
        "amenity": "restaurant",
        "cuisine": "indian;chinese;sandwich;american",
        "diet:non-vegetarian": "yes",
        "diet:vegetarian": "yes",
        "level": "1",
        "name": "Birbal Biryani"
      }
    },
    {
      "type": "node",
      "id": 10683921044,
      "lat": 12.8952056,
      "lon": 77.6573307,
      "tags": {
        "air_conditioning": "yes",
        "check_date": "2025-02-12",
        "clothes": "women;men;children",
        "level": "0",
        "name": "Reliance Trends",
        "operator": "Reliance",
        "payment:cash": "yes",
        "payment:mastercard": "yes",
        "payment:visa": "yes",
        "second_hand": "no",
        "shop": "clothes",
        "source": "survey"
      }
    },
    {
      "type": "node",
      "id": 10683921045,
      "lat": 12.8950025,
      "lon": 77.6572377,
      "tags": {
        "check_date": "2024-09-18",
        "level": "0",
        "name": "Reliance Digital",
        "operator": "Reliance",
        "payment:cash": "yes",
        "payment:credit_cards": "yes",
        "payment:debit_cards": "yes",
        "shop": "appliance",
        "source": "survey"
      }
    },
    {
      "type": "node",
      "id": 10683921046,
      "lat": 12.8951857,
      "lon": 77.656994,
      "tags": {
        "check_date": "2025-02-12",
        "level": "0;1",
        "name": "Reliance Smart Superstore",
        "operator": "Reliance",
        "payment:cash": "yes",
        "payment:mastercard": "yes",
        "payment:visa": "yes",
        "shop": "supermarket",
        "source": "survey"
      }
    },
    {
      "type": "node",
      "id": 10683921047,
      "lat": 12.8952727,
      "lon": 77.6570219,
      "tags": {
        "amenity": "cinema",
        "check_date": "2024-09-18",
        "level": "2;3",
        "name": "Cinephile 4K Multiplex",
        "payment:cash": "yes",
        "payment:credit_cards": "yes",
        "payment:debit_cards": "yes",
        "screen": "4",
        "source": "survey"
      }
    },
    {
      "type": "node",
      "id": 10685007738,
      "lat": 12.8947279,
      "lon": 77.6614484,
      "tags": {
        "amenity": "cafe",
        "cuisine": "indian",
        "level": "0",
        "name": "Gopal Jee Cafe",
        "outdoor_seating": "no"
      }
    },
    {
      "type": "node",
      "id": 10685007743,
      "lat": 12.8946577,
      "lon": 77.6602471,
      "tags": {
        "level": "0",
        "name": "My Chicken",
        "shop": "butcher"
      }
    },
    {
      "type": "node",
      "id": 10685007744,
      "lat": 12.8946628,
      "lon": 77.6601917,
      "tags": {
        "level": "1",
        "name": "Gentleman Hair Studio",
        "shop": "hairdresser",
        "unisex": "yes"
      }
    },
    {
      "type": "node",
      "id": 10685053923,
      "lat": 12.8950894,
      "lon": 77.6615924,
      "tags": {
        "amenity": "kindergarten",
        "level": "0",
        "name": "Koala Preschool",
        "preschool": "yes"
      }
    },
    {
      "type": "node",
      "id": 10685053924,
      "lat": 12.8950121,
      "lon": 77.6615985,
      "tags": {
        "level": "1",
        "name": "Midas Touch",
        "shop": "hairdresser",
        "unisex": "yes"
      }
    },
    {
      "type": "node",
      "id": 10685053925,
      "lat": 12.8950745,
      "lon": 77.6615909,
      "tags": {
        "amenity": "dentist",
        "healthcare": "dentist",
        "level": "1",
        "name": "Creative Smiles"
      }
    },
    {
      "type": "node",
      "id": 10685053926,
      "lat": 12.894727,
      "lon": 77.6616046,
      "tags": {
        "amenity": "clinic",
        "healthcare": "clinic",
        "level": "0",
        "name": "Geronics"
      }
    },
    {
      "type": "node",
      "id": 10685053927,
      "lat": 12.8947315,
      "lon": 77.6615482,
      "tags": {
        "amenity": "pharmacy",
        "healthcare": "pharmacy",
        "level": "0",
        "name": "Geronics Pharmacy"
      }
    },
    {
      "type": "node",
      "id": 10685053928,
      "lat": 12.8947805,
      "lon": 77.6615315,
      "tags": {
        "leisure": "fitness_centre",
        "level": "3",
        "name": "Fit City Gym"
      }
    },
    {
      "type": "node",
      "id": 10727955501,
      "lat": 12.9014685,
      "lon": 77.6504016,
      "tags": {
        "amenity": "cafe",
        "contact:facebook": "lefromageboulangerie",
        "contact:instagram": "le_fromage_boulangerie",
        "delivery": "yes",
        "name": "Dunk'd",
        "old_name": "Le Fromage",
        "shop": "pastry",
        "takeaway": "yes",
        "website": "https://www.lefromage.shop"
      }
    },
    {
      "type": "node",
      "id": 11136669670,
      "lat": 12.8947448,
      "lon": 77.6614264,
      "tags": {
        "female": "yes",
        "level": "1",
        "male": "yes",
        "name": "Tony and Guy",
        "shop": "hairdresser"
      }
    },
    {
      "type": "node",
      "id": 11136746017,
      "lat": 12.8943447,
      "lon": 77.6571511,
      "tags": {
        "amenity": "pharmacy",
        "dispensing": "yes",
        "drive_through": "no",
        "healthcare": "pharmacy",
        "name": "Ramdev Medicals",
        "wheelchair": "limited"
      }
    },
    {
      "type": "node",
      "id": 11502372890,
      "lat": 12.9054885,
      "lon": 77.6499377,
      "tags": {
        "addr:city": "Bengaluru",
        "addr:district": "Bengaluru",
        "addr:postcode": "560102",
        "addr:state": "KA",
        "addr:street": "26th Cross Road",
        "addr:suburb": "HSR Layout",
        "amenity": "community_centre",
        "community_centre": "community_hall",
        "community_centre:for": "family",
        "name": "Siddhartha Convention Centre",
        "opening_hours": "Mo-Su 10:30-08:30",
        "toilets": "yes",
        "wheelchair": "no"
      }
    },
    {
      "type": "node",
      "id": 11836691638,
      "lat": 12.8936429,
      "lon": 77.6574086,
      "tags": {
        "access": "private",
        "amenity": "parking_entrance",
        "parking": "underground"
      }
    },
    {
      "type": "node",
      "id": 11836691643,
      "lat": 12.8931242,
      "lon": 77.6564222,
      "tags": {
        "amenity": "parking_entrance",
        "parking": "underground"
      }
    },
    {
      "type": "node",
      "id": 12522252573,
      "lat": 12.8940089,
      "lon": 77.6558713,
      "tags": {
        "addr:city": "Bangalore",
        "addr:postcode": "560102",
        "addr:street": "Kudlu Rd, Reliable Tranquil Layout",
        "air_conditioning": "yes",
        "check_date": "2025-02-12",
        "name": "Freshco Hyperbazaar",
        "payment:cash": "yes",
        "payment:mastercard": "yes",
        "payment:visa": "yes",
        "second_hand": "no",
        "shop": "supermarket",
        "source": "survey"
      }
    },
    {
      "type": "node",
      "id": 12580943038,
      "lat": 12.8930856,
      "lon": 77.6532067,
      "tags": {
        "leisure": "pitch",
        "source": "survey",
        "sport": "badminton"
      }
    },
    {
      "type": "node",
      "id": 12580943039,
      "lat": 12.8968052,
      "lon": 77.6584541,
      "tags": {
        "amenity": "bank",
        "brand": "HDFC Bank",
        "brand:wikidata": "Q631047",
        "check_date": "2025-02-12",
        "name": "HDFC Bank",
        "short_name": "HDFC",
        "source": "survey"
      }
    },
    {
      "type": "node",
      "id": 12580943040,
      "lat": 12.8967568,
      "lon": 77.6584355,
      "tags": {
        "amenity": "atm",
        "brand": "HDFC Bank",
        "brand:wikidata": "Q631047",
        "check_date": "2025-02-12",
        "name": "HDFC Bank",
        "opening_hours": "24/7",
        "operator": "HDFC Bank",
        "operator:wikidata": "Q631047",
        "short_name": "HDFC",
        "source": "survey"
      }
    },
    {
      "type": "node",
      "id": 12580943041,
      "lat": 12.9007752,
      "lon": 77.6598469,
      "tags": {
        "amenity": "atm",
        "brand": "Canara Bank",
        "brand:en": "Canara Bank",
        "brand:hi": "केनरा बैंक",
        "brand:kn": "ಕೆನರಾ ಬ್ಯಾಂಕ್",
        "brand:pa": "ਕੇਨਰਾ ਬੈਂਕ",
        "brand:pnb": "کینرا بینک",
        "brand:ur": "کینرا بینک",
        "brand:wikidata": "Q2003777",
        "check_date": "2025-02-12",
        "name:en": "Canara Bank",
        "name:hi": "केनरा बैंक",
        "name:kn": "ಕೆನರಾ ಬ್ಯಾಂಕ್",
        "name:pa": "ਕੇਨਰਾ ਬੈਂਕ",
        "name:pnb": "کینرا بینک",
        "name:ur": "کینرا بینک",
        "opening_hours": "24/7",
        "operator": "Canara Bank",
        "operator:wikidata": "Q2003777",
        "source": "survey"
      }
    },
    {
      "type": "node",
      "id": 13144331983,
      "lat": 12.8931163,
      "lon": 77.6607911,
      "tags": {
        "access": "private",
        "amenity": "parking_entrance",
        "parking": "underground"
      }
    },
    {
      "type": "node",
      "id": 13144331984,
      "lat": 12.8943811,
      "lon": 77.6605819,
      "tags": {
        "access": "private",
        "amenity": "parking_entrance",
        "parking": "underground"
      }
    },
    {
      "type": "node",
      "id": 13144332224,
      "lat": 12.8936942,
      "lon": 77.6604465,
      "tags": {
        "access": "private",
        "amenity": "parking_entrance",
        "parking": "underground"
      }
    },
    {
      "type": "node",
      "id": 13144332677,
      "lat": 12.8926385,
      "lon": 77.6575148,
      "tags": {
        "access": "private",
        "amenity": "parking_entrance",
        "parking": "underground"
      }
    },
    {
      "type": "node",
      "id": 13144332682,
      "lat": 12.8929202,
      "lon": 77.6575229,
      "tags": {
        "access": "private",
        "amenity": "parking_entrance",
        "parking": "underground"
      }
    },
    {
      "type": "node",
      "id": 13144332686,
      "lat": 12.893717,
      "lon": 77.6578843,
      "tags": {
        "access": "private",
        "amenity": "parking_entrance",
        "parking": "underground"
      }
    },
    {
      "type": "way",
      "id": 24365167,
      "center": {
        "lat": 12.9015628,
        "lon": 77.6605259
      },
      "tags": {
        "amenity": "clinic",
        "healthcare": "clinic",
        "name": "Sri Lakshmi Clinic",
        "name:kn": "ಶ್ರೀ ಲಕ್ಷ್ಮಿ ಆರೋಗ್ಯ ಕೇಂದ್ರ"
      }
    },
    {
      "type": "way",
      "id": 24365350,
      "center": {
        "lat": 12.9011202,
        "lon": 77.6603117
      },
      "tags": {
        "amenity": "place_of_worship",
        "check_date": "2025-02-12",
        "created_by": "JOSM",
        "religion": "hindu",
        "source": "survey"
      }
    },
    {
      "type": "way",
      "id": 24365351,
      "center": {
        "lat": 12.8997336,
        "lon": 77.6591542
      },
      "tags": {
        "created_by": "JOSM",
        "name": "Grandway Stop & Shop",
        "shop": "convenience"
      }
    },
    {
      "type": "way",
      "id": 335080002,
      "center": {
        "lat": 12.9043962,
        "lon": 77.6500887
      },
      "tags": {
        "leisure": "park"
      }
    },
    {
      "type": "way",
      "id": 472322381,
      "center": {
        "lat": 12.8999058,
        "lon": 77.6493921
      },
      "tags": {
        "building": "yes",
        "name": "Shop On",
        "opening_hours": "Mo-Su 07:30-22:30",
        "shop": "department_store",
        "toilets": "yes"
      }
    },
    {
      "type": "way",
      "id": 583256404,
      "center": {
        "lat": 12.9012242,
        "lon": 77.6643306
      },
      "tags": {
        "leisure": "park"
      }
    },
    {
      "type": "way",
      "id": 583256406,
      "center": {
        "lat": 12.9010679,
        "lon": 77.6662731
      },
      "tags": {
        "leisure": "park"
      }
    },
    {
      "type": "way",
      "id": 583256408,
      "center": {
        "lat": 12.9021705,
        "lon": 77.6645535
      },
      "tags": {
        "leisure": "park"
      }
    },
    {
      "type": "way",
      "id": 583256410,
      "center": {
        "lat": 12.902174,
        "lon": 77.6640182
      },
      "tags": {
        "leisure": "park"
      }
    },
    {
      "type": "way",
      "id": 626885461,
      "center": {
        "lat": 12.9016626,
        "lon": 77.6502392
      },
      "tags": {
        "leisure": "swimming_pool"
      }
    },
    {
      "type": "way",
      "id": 781700159,
      "center": {
        "lat": 12.907817,
        "lon": 77.663132
      },
      "tags": {
        "leisure": "park"
      }
    },
    {
      "type": "way",
      "id": 855740610,
      "center": {
        "lat": 12.8961021,
        "lon": 77.6499664
      },
      "tags": {
        "building": "yes",
        "shop": "storage_rental"
      }
    },
    {
      "type": "way",
      "id": 892243891,
      "center": {
        "lat": 12.9043343,
        "lon": 77.6644346
      },
      "tags": {
        "access": "permissive",
        "amenity": "parking"
      }
    },
    {
      "type": "way",
      "id": 892243894,
      "center": {
        "lat": 12.9037633,
        "lon": 77.6639809
      },
      "tags": {
        "leisure": "garden"
      }
    },
    {
      "type": "way",
      "id": 892243895,
      "center": {
        "lat": 12.903875,
        "lon": 77.6637439
      },
      "tags": {
        "leisure": "garden"
      }
    },
    {
      "type": "way",
      "id": 892243896,
      "center": {
        "lat": 12.9042458,
        "lon": 77.6636031
      },
      "tags": {
        "leisure": "pitch",
        "sport": "basketball"
      }
    },
    {
      "type": "way",
      "id": 892243897,
      "center": {
        "lat": 12.9039833,
        "lon": 77.6634981
      },
      "tags": {
        "leisure": "garden"
      }
    },
    {
      "type": "way",
      "id": 892243898,
      "center": {
        "lat": 12.9039457,
        "lon": 77.6643788
      },
      "tags": {
        "leisure": "playground"
      }
    },
    {
      "type": "way",
      "id": 892243899,
      "center": {
        "lat": 12.9036628,
        "lon": 77.6642699
      },
      "tags": {
        "leisure": "playground"
      }
    },
    {
      "type": "way",
      "id": 892243900,
      "center": {
        "lat": 12.904145,
        "lon": 77.6633719
      },
      "tags": {
        "access": "permissive",
        "amenity": "parking"
      }
    },
    {
      "type": "way",
      "id": 892243902,
      "center": {
        "lat": 12.9038509,
        "lon": 77.6646139
      },
      "tags": {
        "access": "private",
        "leisure": "swimming_pool"
      }
    },
    {
      "type": "way",
      "id": 892243907,
      "center": {
        "lat": 12.9035225,
        "lon": 77.6651836
      },
      "tags": {
        "leisure": "garden"
      }
    },
    {
      "type": "way",
      "id": 892243908,
      "center": {
        "lat": 12.904008,
        "lon": 77.6652186
      },
      "tags": {
        "leisure": "garden"
      }
    },
    {
      "type": "way",
      "id": 892243909,
      "center": {
        "lat": 12.9038112,
        "lon": 77.6652296
      },
      "tags": {
        "leisure": "playground"
      }
    },
    {
      "type": "way",
      "id": 892243910,
      "center": {
        "lat": 12.9032857,
        "lon": 77.6651141
      },
      "tags": {
        "leisure": "pitch",
        "sport": "basketball"
      }
    },
    {
      "type": "way",
      "id": 892243913,
      "center": {
        "lat": 12.9047941,
        "lon": 77.6639045
      },
      "tags": {
        "leisure": "park"
      }
    },
    {
      "type": "way",
      "id": 892243915,
      "center": {
        "lat": 12.9026038,
        "lon": 77.6621282
      },
      "tags": {
        "leisure": "park"
      }
    },
    {
      "type": "way",
      "id": 892243916,
      "center": {
        "lat": 12.9018937,
        "lon": 77.6652141
      },
      "tags": {
        "leisure": "pitch",
        "sport": "tennis",
        "surface": "artificial_turf"
      }
    },
    {
      "type": "way",
      "id": 892243917,
      "center": {
        "lat": 12.9018821,
        "lon": 77.6653752
      },
      "tags": {
        "leisure": "pitch",
        "sport": "tennis",
        "surface": "artificial_turf"
      }
    },
    {
      "type": "way",
      "id": 892243918,
      "center": {
        "lat": 12.9009155,
        "lon": 77.665136
      },
      "tags": {
        "leisure": "pitch",
        "sport": "soccer"
      }
    },
    {
      "type": "way",
      "id": 892243919,
      "center": {
        "lat": 12.9021711,
        "lon": 77.6632212
      },
      "tags": {
        "leisure": "garden"
      }
    },
    {
      "type": "way",
      "id": 892243920,
      "center": {
        "lat": 12.903718,
        "lon": 77.665559
      },
      "tags": {
        "amenity": "school"
      }
    },
    {
      "type": "way",
      "id": 892243921,
      "center": {
        "lat": 12.9035909,
        "lon": 77.6645158
      },
      "tags": {
        "access": "private",
        "leisure": "swimming_pool"
      }
    },
    {
      "type": "way",
      "id": 1050019908,
      "center": {
        "lat": 12.9055373,
        "lon": 77.6500453
      },
      "tags": {
        "amenity": "events_venue",
        "name": "Siddhartha Convention Center"
      }
    },
    {
      "type": "way",
      "id": 1148303801,
      "center": {
        "lat": 12.8951331,
        "lon": 77.6571353
      },
      "tags": {
        "building": "yes",
        "building:levels": "4",
        "name": "PNR Felicity",
        "shop": "mall"
      }
    },
    {
      "type": "way",
      "id": 1148303802,
      "center": {
        "lat": 12.8949264,
        "lon": 77.65702
      },
      "tags": {
        "access": "permissive",
        "amenity": "parking",
        "fee": "yes",
        "parking": "surface",
        "surface": "concrete"
      }
    },
    {
      "type": "way",
      "id": 1148303803,
      "center": {
        "lat": 12.8953905,
        "lon": 77.6572284
      },
      "tags": {
        "access": "permissive",
        "amenity": "parking",
        "fee": "yes",
        "parking": "surface",
        "surface": "concrete"
      }
    },
    {
      "type": "way",
      "id": 1204249206,
      "center": {
        "lat": 12.8953459,
        "lon": 77.6643682
      },
      "tags": {
        "leisure": "park"
      }
    },
    {
      "type": "way",
      "id": 1244165575,
      "center": {
        "lat": 12.8960497,
        "lon": 77.6645006
      },
      "tags": {
        "leisure": "park"
      }
    },
    {
      "type": "way",
      "id": 1274778716,
      "center": {
        "lat": 12.9000432,
        "lon": 77.654042
      },
      "tags": {
        "leisure": "playground"
      }
    },
    {
      "type": "way",
      "id": 1274778717,
      "center": {
        "lat": 12.9001635,
        "lon": 77.6538266
      },
      "tags": {
        "leisure": "park"
      }
    },
    {
      "type": "way",
      "id": 1274778719,
      "center": {
        "lat": 12.9001612,
        "lon": 77.6535307
      },
      "tags": {
        "leisure": "pitch",
        "sport": "tennis"
      }
    },
    {
      "type": "way",
      "id": 1274793360,
      "center": {
        "lat": 12.8921805,
        "lon": 77.6560731
      },
      "tags": {
        "amenity": "fuel"
      }
    },
    {
      "type": "way",
      "id": 1312729960,
      "center": {
        "lat": 12.8985135,
        "lon": 77.6480828
      },
      "tags": {
        "leisure": "park"
      }
    },
    {
      "type": "way",
      "id": 1363265488,
      "center": {
        "lat": 12.8999391,
        "lon": 77.6659796
      },
      "tags": {
        "amenity": "school",
        "name": "Orchids the International School"
      }
    },
    {
      "type": "way",
      "id": 1364168872,
      "center": {
        "lat": 12.8990752,
        "lon": 77.6584302
      },
      "tags": {
        "addr:city": "Bangalore",
        "addr:postcode": "560068",
        "addr:street": "Haralur Road",
        "amenity": "fuel",
        "brand": "Indian Oil",
        "brand:wikidata": "Q1289348",
        "brand:wikipedia": "en:Indian Oil Corporation",
        "compressed_air": "yes",
        "name": "Indian Oil",
        "name:kn": "ಇಂಡಿಯನ್ ಆಯಿಲ್"
      }
    },
    {
      "type": "way",
      "id": 1364168917,
      "center": {
        "lat": 12.8993951,
        "lon": 77.6572331
      },
      "tags": {
        "addr:housename": "Vibgyor",
        "addr:street": "hosa road",
        "amenity": "school",
        "name": "Vibgyor School",
        "name:en": "Vibgyor",
        "name:hi": "विभ्योर",
        "name:kn": "ವಿಬ್ಗ್ಯೋರ್ ಶಾಲೆ",
        "source": "bing"
      }
    },
    {
      "type": "way",
      "id": 1422822765,
      "center": {
        "lat": 12.8966894,
        "lon": 77.6561564
      },
      "tags": {
        "leisure": "pitch",
        "sport": "tennis"
      }
    },
    {
      "type": "way",
      "id": 1429941615,
      "center": {
        "lat": 12.8940961,
        "lon": 77.6628554
      },
      "tags": {
        "access": "private",
        "leisure": "pitch",
        "sport": "tennis"
      }
    },
    {
      "type": "way",
      "id": 1429941616,
      "center": {
        "lat": 12.8941376,
        "lon": 77.6626146
      },
      "tags": {
        "access": "private",
        "leisure": "pitch",
        "sport": "soccer"
      }
    },
    {
      "type": "way",
      "id": 1429941617,
      "center": {
        "lat": 12.8936392,
        "lon": 77.6625953
      },
      "tags": {
        "access": "private",
        "leisure": "pitch",
        "sport": "chess"
      }
    },
    {
      "type": "way",
      "id": 1429941619,
      "center": {
        "lat": 12.8937894,
        "lon": 77.6605276
      },
      "tags": {
        "access": "private",
        "leisure": "playground"
      }
    },
    {
      "type": "way",
      "id": 1429941621,
      "center": {
        "lat": 12.8935063,
        "lon": 77.6606761
      },
      "tags": {
        "access": "private",
        "leisure": "park"
      }
    },
    {
      "type": "way",
      "id": 1429941622,
      "center": {
        "lat": 12.8933402,
        "lon": 77.6612504
      },
      "tags": {
        "access": "private",
        "leisure": "pitch",
        "sport": "cricket"
      }
    },
    {
      "type": "way",
      "id": 1429941625,
      "center": {
        "lat": 12.8923741,
        "lon": 77.6610964
      },
      "tags": {
        "access": "private",
        "leisure": "pitch",
        "sport": "basketball"
      }
    },
    {
      "type": "way",
      "id": 1429941644,
      "center": {
        "lat": 12.8923437,
        "lon": 77.6609239
      },
      "tags": {
        "access": "private",
        "leisure": "pitch",
        "sport": "tennis"
      }
    },
    {
      "type": "way",
      "id": 1429941647,
      "center": {
        "lat": 12.8939837,
        "lon": 77.6592834
      },
      "tags": {
        "access": "private",
        "leisure": "park"
      }
    },
    {
      "type": "way",
      "id": 1429941648,
      "center": {
        "lat": 12.8937869,
        "lon": 77.6586275
      },
      "tags": {
        "access": "private",
        "leisure": "playground"
      }
    },
    {
      "type": "way",
      "id": 1429941649,
      "center": {
        "lat": 12.893473,
        "lon": 77.6583932
      },
      "tags": {
        "access": "private",
        "leisure": "pitch",
        "sport": "badminton"
      }
    },
    {
      "type": "way",
      "id": 1429941650,
      "center": {
        "lat": 12.8930837,
        "lon": 77.65875
      },
      "tags": {
        "access": "private",
        "leisure": "swimming_pool"
      }
    },
    {
      "type": "way",
      "id": 1429941653,
      "center": {
        "lat": 12.8933889,
        "lon": 77.6570066
      },
      "tags": {
        "access": "private",
        "leisure": "swimming_pool"
      }
    },
    {
      "type": "way",
      "id": 1429941658,
      "center": {
        "lat": 12.8924608,
        "lon": 77.657406
      },
      "tags": {
        "access": "private",
        "leisure": "playground"
      }
    },
    {
      "type": "way",
      "id": 1429941659,
      "center": {
        "lat": 12.8927323,
        "lon": 77.6580462
      },
      "tags": {
        "access": "private",
        "leisure": "pitch",
        "sport": "tennis"
      }
    },
    {
      "type": "way",
      "id": 1429941660,
      "center": {
        "lat": 12.8933851,
        "lon": 77.6581303
      },
      "tags": {
        "access": "private",
        "leisure": "swimming_pool"
      }
    }
  ]
}