{
  "area_name": "S.M Krishna Ward",
  "osm_id": 19884549,
  "osm_type": "relation",
  "place_type": "administrative",
  "amenity_count": 314,
  "amenities": [
    {
      "type": "node",
      "id": 514096090,
      "lat": 12.9841356,
      "lon": 77.7292427,
      "tags": {
        "addr:city": "Whitefield, Bangalore",
        "addr:street": "1st Main Road, EPIP Area",
        "amenity": "atm",
        "check_date": "2023-12-03",
        "operator": "Axis Bank ATM"
      }
    },
    {
      "type": "node",
      "id": 1080536956,
      "lat": 12.9794141,
      "lon": 77.7513286,
      "tags": {
        "addr:city": "Bangalore",
        "addr:postcode": "560066",
        "addr:street": "Whitefield Main Road",
        "amenity": "cafe",
        "brand": "Cafe Coffee Day",
        "brand:wikidata": "Q5017235",
        "check_date": "2025-07-24",
        "cuisine": "coffee_shop",
        "level": "0",
        "name": "Cafe Coffee Day",
        "name:kn": "ಕಫೆ ಕಾಫಿ ಡೇ",
        "phone": "+91-80-41641300",
        "takeaway": "yes",
        "wheelchair": "limited"
      }
    },
    {
      "type": "node",
      "id": 1081506759,
      "lat": 12.9792064,
      "lon": 77.7513027,
      "tags": {
        "addr:city": "Bangalore",
        "addr:housenumber": "3/3",
        "addr:postcode": "560066",
        "addr:street": "Whitefield Main Road",
        "amenity": "restaurant",
        "check_date": "2025-07-24",
        "cuisine": "chinese",
        "name": "Chung WAH",
        "name:kn": "ಚಂಗ್ ವಾ",
        "phone": "+91-80-41641300"
      }
    },
    {
      "type": "node",
      "id": 1096305524,
      "lat": 12.9840811,
      "lon": 77.7293242,
      "tags": {
        "amenity": "bank",
        "atm": "no",
        "brand": "Axis Bank",
        "brand:wikidata": "Q2003549",
        "brand:wikipedia": "en:Axis Bank",
        "name": "Axis Bank",
        "name:en": "Axis Bank",
        "name:kn": "ಅಕ್ಸಿಸ್ ಬ್ಯಾಂಕ್",
        "website": "https://www.axisbank.com"
      }
    },
    {
      "type": "node",
      "id": 1126186796,
      "lat": 12.979677,
      "lon": 77.748098,
      "tags": {
        "addr:housename": "Holy Cross School & College",
        "amenity": "school",
        "designation": "Educational Organization"
      }
    },
    {
      "type": "node",
      "id": 1252163966,
      "lat": 12.9858253,
      "lon": 77.735868,
      "tags": {
        "amenity": "atm",
        "fee": "ICICI ATM"
      }
    },
    {
      "type": "node",
      "id": 1262057184,
      "lat": 12.9838028,
      "lon": 77.7489996,
      "tags": {
        "amenity": "kindergarten",
        "name": "Apple Kids"
      }
    },
    {
      "type": "node",
      "id": 1264989727,
      "lat": 12.9750892,
      "lon": 77.7509276,
      "tags": {
        "amenity": "bank",
        "atm": "yes",
        "brand:wikidata": "Q1340361",
        "brand:wikipedia": "en:State Bank of India",
        "check_date": "2025-08-19",
        "name": "IDFC First Bank Whitefield",
        "name:kn": "ಭಾರತೀಯ ಸ್ಟೇಟ್ ಬ್ಯಾಂಕ್",
        "short_name": "SBI",
        "website": "https://www.sbi.co.in"
      }
    },
    {
      "type": "node",
      "id": 1434224680,
      "lat": 12.9791395,
      "lon": 77.7512477,
      "tags": {
        "addr:city": "Bangalore",
        "addr:postcode": "560066",
        "addr:street": "Whitefield Main Road",
        "amenity": "restaurant",
        "check_date": "2025-05-24",
        "cuisine": "kebab",
        "name": "Khan Saheb",
        "name:kn": "ಖಾನ್ ಸಾಹೇಬ್",
        "phone": "+91-80-41641300",
        "wheelchair": "limited"
      }
    },
    {
      "type": "node",
      "id": 1434243876,
      "lat": 12.9867527,
      "lon": 77.7359534,
      "tags": {
        "air_conditioning": "yes",
        "amenity": "cinema",
        "brand": "PVR Cinemas",
        "brand:short": "PVR",
        "brand:wikidata": "Q3359908",
        "check_date": "2025-11-23",
        "name": "PVR Cinemas",
        "payment:mastercard": "yes",
        "payment:visa": "yes",
        "short_name": "PVR",
        "source": "survey"
      }
    },
    {
      "type": "node",
      "id": 1435078367,
      "lat": 12.9792031,
      "lon": 77.7513013,
      "tags": {
        "addr:city": "Bangalore",
        "addr:postcode": "560066",
        "addr:street": "Whitefield Main Road",
        "check_date": "2025-07-24",
        "cuisine": "coffee_shop",
        "level": "0",
        "name": "Karthik Sweets and Chats",
        "phone": "+91-80-41641300",
        "shop": "confectionery"
      }
    },
    {
      "type": "node",
      "id": 1492407655,
      "lat": 12.9785891,
      "lon": 77.7454478,
      "tags": {
        "amenity": "place_of_worship",
        "name": "Sri Sri Sri Muneshwara Swamy Temple",
        "name:kn": "ಶ್ರೀ ಮುನೇಶ್ವರ ಸ್ವಾಮಿ ದೇವಸ್ಥಾನ",
        "religion": "hindu"
      }
    },
    {
      "type": "node",
      "id": 1504703088,
      "lat": 12.9867284,
      "lon": 77.736789,
      "tags": {
        "addr:floor": "3",
        "addr:housename": "Park Square Mall",
        "check_date": "2025-10-04",
        "leisure": "sports_centre",
        "name": "Amoeba Bowling Alley",
        "sport": "10pin",
        "wheelchair": "yes"
      }
    },
    {
      "type": "node",
      "id": 1604575880,
      "lat": 12.9871697,
      "lon": 77.7360104,
      "tags": {
        "addr:housename": "Park Square Mall",
        "addr:housenumber": "G-01",
        "addr:postcode": "560066",
        "addr:street": "Whitefield Road",
        "amenity": "restaurant",
        "cuisine": "mexican",
        "name": "Habanero",
        "name:kn": "ಹೆಬನೇರೊ"
      }
    },
    {
      "type": "node",
      "id": 1604575882,
      "lat": 12.9872062,
      "lon": 77.7368076,
      "tags": {
        "addr:housename": "Park Square Mall",
        "addr:postcode": "560066",
        "brand": "Zudio",
        "brand:wikidata": "Q123375926",
        "check_date": "2025-05-21",
        "clothes": "women;men;children",
        "name": "Zudio",
        "payment:mastercard": "yes",
        "payment:upi": "yes",
        "payment:visa": "yes",
        "shop": "clothes",
        "source": "survey"
      }
    },
    {
      "type": "node",
      "id": 1604575883,
      "lat": 12.9871697,
      "lon": 77.736166,
      "tags": {
        "addr:floor": "4",
        "addr:housename": "Park Square Mall",
        "amenity": "ice_cream",
        "brand": "Baskin-Robbins",
        "brand:wikidata": "Q584601",
        "check_date": "2025-10-04",
        "name": "Baskin Robbins",
        "wheelchair": "yes"
      }
    },
    {
      "type": "node",
      "id": 1604575910,
      "lat": 12.9868354,
      "lon": 77.7369256,
      "tags": {
        "addr:floor": "4",
        "addr:housename": "Park Square Mall",
        "air_conditioning": "yes",
        "amenity": "fast_food",
        "brand": "Domino's",
        "brand:ks": "ڈومینوز",
        "brand:pa": "ਡੋਮੀਨੋਜ਼",
        "brand:ur": "ڈومینوز",
        "brand:wikidata": "Q839466",
        "brand:wikipedia": "en:Domino's Pizza",
        "check_date": "2025-10-04",
        "cuisine": "pizza",
        "name": "Domino's",
        "name:ks": "ڈومینوز",
        "name:pa": "ਡੋਮੀਨੋਜ਼",
        "name:ur": "ڈومینوز",
        "outdoor_seating": "no",
        "payment:mastercard": "yes",
        "payment:visa": "yes",
        "smoking": "no",
        "source": "survey",
        "takeaway": "yes",
        "wheelchair": "yes"
      }
    },
    {
      "type": "node",
      "id": 2007720980,
      "lat": 12.9869399,
      "lon": 77.7359602,
      "tags": {
        "addr:housename": "Park Square",
        "addr:street": "Whitefield Road",
        "amenity": "restaurant",
        "brand": "Barbeque Nation",
        "brand:wikidata": "Q4859568",
        "check_date": "2025-11-23",
        "cuisine": "barbecue",
        "indoor_seating": "yes",
        "name": "Barbeque Nation",
        "name:kn": "ಬರ್ಬಕ್ಯು ನೇಶನ್",
        "outdoor_seating": "no"
      }
    },
    {
      "type": "node",
      "id": 2093480342,
      "lat": 12.9815191,
      "lon": 77.7520947,
      "tags": {
        "amenity": "bank",
        "atm": "yes",
        "brand": "ICICI Bank",
        "brand:wikidata": "Q1653258",
        "check_date": "2025-07-03",
        "name": "ICICI Bank",
        "name:en": "ICICI Bank",
        "name:kn": "ಐಸಿಐಸಿಐ ಬ್ಯಾಂಕು",
        "short_name": "ICICI",
        "website": "https://www.icicibank.com"
      }
    },
    {
      "type": "node",
      "id": 2411618321,
      "lat": 12.9812737,
      "lon": 77.7333977,
      "tags": {
        "amenity": "school",
        "name": "Government School",
        "name:kn": "ಸರ್ಕಾರಿ ಶಾಲೆ"
      }
    },
    {
      "type": "node",
      "id": 2619331787,
      "lat": 12.9870223,
      "lon": 77.7359581,
      "tags": {
        "amenity": "restaurant",
        "cuisine": "indian",
        "name": "Bakasur"
      }
    },
    {
      "type": "node",
      "id": 2619331789,
      "lat": 12.987086,
      "lon": 77.7369762,
      "tags": {
        "amenity": "restaurant",
        "name": "Punjabi by Nature 2.0"
      }
    },
    {
      "type": "node",
      "id": 2631448299,
      "lat": 12.9814669,
      "lon": 77.7523656,
      "tags": {
        "amenity": "clinic",
        "name": "Bhagwan Mahavir Jain Health Center"
      }
    },
    {
      "type": "node",
      "id": 2876319736,
      "lat": 12.9835135,
      "lon": 77.7520657,
      "tags": {
        "addr:city": "Bangalore",
        "addr:housename": "Arya Hub",
        "addr:postcode": "560068",
        "addr:street": "Whitefield Main Road",
        "air_conditioning": "yes",
        "alt_name": "A2B",
        "amenity": "restaurant",
        "brand": "Adyar Ananda Bhavan",
        "brand:wikidata": "Q15178238",
        "check_date": "2025-08-26",
        "cuisine": "regional",
        "diet:vegetarian": "only",
        "indoor_seating": "yes",
        "name": "Adyar Ananda Bhavan",
        "name:kn": "ಆದ್ಯಾರ್ ಆನಂದ ಭವನ",
        "operator": "Adyar Ananda Bhavan",
        "outdoor_seating": "no",
        "phone": "+91 44 42333333",
        "smoking": "no",
        "website": "https://aabsweets.com"
      }
    },
    {
      "type": "node",
      "id": 3179100221,
      "lat": 12.9825833,
      "lon": 77.7485219,
      "tags": {
        "amenity": "fast_food",
        "name": "Dosa Time"
      }
    },
    {
      "type": "node",
      "id": 3179100222,
      "lat": 12.9825936,
      "lon": 77.7484763,
      "tags": {
        "amenity": "fast_food",
        "name": "Abhiruchi"
      }
    },
    {
      "type": "node",
      "id": 3268435578,
      "lat": 12.9878709,
      "lon": 77.7319773,
      "tags": {
        "addr:city": "Bangalore",
        "addr:country": "IN",
        "addr:postcode": "560066",
        "addr:street": "Whitefield Main Road",
        "amenity": "hospital",
        "check_date": "2025-06-27",
        "name": "Cloud Nine Hospital",
        "phone": "+91 80 6799 9999",
        "website": "https://cloudninecare.com/"
      }
    },
    {
      "type": "node",
      "id": 3654380563,
      "lat": 12.9698283,
      "lon": 77.735625,
      "tags": {
        "amenity": "restaurant",
        "cuisine": "international",
        "name": "The Marigold - Fine Dine"
      }
    },
    {
      "type": "node",
      "id": 3881381852,
      "lat": 12.9792637,
      "lon": 77.751316,
      "tags": {
        "amenity": "ice_cream",
        "brand": "Baskin-Robbins",
        "brand:wikidata": "Q584601",
        "check_date": "2025-07-24",
        "cuisine": "ice_cream",
        "name": "Baskin-Robbins",
        "wheelchair": "limited"
      }
    },
    {
      "type": "node",
      "id": 4444420057,
      "lat": 12.9861111,
      "lon": 77.7324232,
      "tags": {
        "addr:city": "Bangalore",
        "addr:housenumber": "1",
        "addr:postcode": "560066",
        "addr:street": "Beside Symphony Teleca Building, Whitefield,, Bangalore",
        "amenity": "restaurant",
        "cuisine": "regional",
        "delivery": "yes",
        "name": "Khaaja Chowk",
        "opening_hours": "07:00-23:00",
        "phone": "+91 78460 94310",
        "smoking": "no",
        "takeaway": "yes",
        "website": "https://www.liveinstyle.com/"
      }
    },
    {
      "type": "node",
      "id": 4446921910,
      "lat": 12.9700147,
      "lon": 77.7334952,
      "tags": {
        "addr:city": "bangalore",
        "addr:housenumber": "#669",
        "addr:postcode": "560066",
        "addr:street": "1st A Main Rd, Whitefield",
        "amenity": "pharmacy",
        "name": "MedPlus",
        "phone": "085536 54002",
        "source": "http://bestofhealthindia.com/"
      }
    },
    {
      "type": "node",
      "id": 4488617934,
      "lat": 12.9823096,
      "lon": 77.7571638,
      "tags": {
        "addr:city": "Bangalore",
        "addr:housenumber": "37No.",
        "addr:postcode": "560066",
        "addr:street": "Chennasandra Main Road Whitefield",
        "name": "Jeeshvi Supermarket",
        "phone": "(91)-80-33292905",
        "shop": "supermarket"
      }
    },
    {
      "type": "node",
      "id": 4548744324,
      "lat": 12.9794845,
      "lon": 77.7275544,
      "tags": {
        "access": "private",
        "amenity": "parking_entrance",
        "parking": "underground"
      }
    },
    {
      "type": "node",
      "id": 4548744343,
      "lat": 12.9787174,
      "lon": 77.72772,
      "tags": {
        "access": "private",
        "amenity": "parking_entrance",
        "parking": "underground"
      }
    },
    {
      "type": "node",
      "id": 5053373334,
      "lat": 12.9790327,
      "lon": 77.7302971,
      "tags": {
        "amenity": "bank",
        "atm": "yes",
        "brand": "Bank of India",
        "brand:wikidata": "Q2004439",
        "brand:wikipedia": "en:Bank of India",
        "name": "Bank of India"
      }
    },
    {
      "type": "node",
      "id": 5053373338,
      "lat": 12.9790642,
      "lon": 77.7300557,
      "tags": {
        "amenity": "restaurant",
        "name": "Sai restaurant"
      }
    },
    {
      "type": "node",
      "id": 5125738299,
      "lat": 12.9762768,
      "lon": 77.7286128,
      "tags": {
        "amenity": "atm",
        "brand": "Bank of India",
        "brand:wikidata": "Q2004439",
        "check_date": "2025-07-15",
        "name": "Bank of India",
        "operator": "Bank of India",
        "operator:wikidata": "Q2004439"
      }
    },
    {
      "type": "node",
      "id": 5165419321,
      "lat": 12.9795928,
      "lon": 77.7506994,
      "tags": {
        "addr:housenumber": "1A/1",
        "addr:postcode": "560066",
        "addr:street": "Whitefield Main Road",
        "amenity": "school",
        "name": "Footprints Preschool and Daycare",
        "opening_hours": "Mo-Fr 09:00-18:30",
        "operator": "Footprints",
        "phone": "9654999677",
        "website": "https://www.footprintseducation.in/"
      }
    },
    {
      "type": "node",
      "id": 5637655127,
      "lat": 12.9692742,
      "lon": 77.7355237,
      "tags": {
        "amenity": "atm",
        "brand": "HDFC Bank",
        "brand:wikidata": "Q631047",
        "check_date": "2022-06-14",
        "operator": "HDFC Bank",
        "operator:wikidata": "Q631047",
        "short_name": "HDFC"
      }
    },
    {
      "type": "node",
      "id": 5920403846,
      "lat": 12.9872641,
      "lon": 77.7334337,
      "tags": {
        "amenity": "restaurant",
        "cuisine": "international",
        "name": "Laila"
      }
    },
    {
      "type": "node",
      "id": 6374356467,
      "lat": 12.9788227,
      "lon": 77.7512306,
      "tags": {
        "amenity": "bank",
        "brand": "Ujjivan Small Finance Bank",
        "brand:wikidata": "Q42529272",
        "check_date": "2025-09-08",
        "name": "Ujjivan Small Finance Bank"
      }
    },
    {
      "type": "node",
      "id": 6374356468,
      "lat": 12.9790422,
      "lon": 77.7516788,
      "tags": {
        "amenity": "bank",
        "brand": "Axis Bank",
        "brand:wikidata": "Q2003549",
        "brand:wikipedia": "en:Axis Bank",
        "check_date": "2025-07-03",
        "name": "Axis Bank",
        "name:en": "Axis Bank",
        "name:kn": "ಅಕ್ಸಿಸ್ ಬ್ಯಾಂಕ್",
        "website": "https://www.axisbank.com"
      }
    },
    {
      "type": "node",
      "id": 6795662019,
      "lat": 12.9835729,
      "lon": 77.7331184,
      "tags": {
        "addr:street": "Next left to ITPL back gate",
        "amenity": "restaurant",
        "name": "Andhra biryanis",
        "opening_hours": "Mo-Su 10:00-22:00"
      }
    },
    {
      "type": "node",
      "id": 6886594759,
      "lat": 12.9756295,
      "lon": 77.7293135,
      "tags": {
        "addr:city": "Bengaluru",
        "addr:district": "BENGALURU URBAN",
        "addr:full": "EPIP AREA, 06 WHITE FIELD",
        "addr:postcode": "560066",
        "addr:state": "Karnataka",
        "amenity": "blood_bank",
        "contact:mobile": "9916749060",
        "contact:phone": "8028410874",
        "name": "Vydehi Institute of Medical Science Hospital Blood Bank",
        "opening_hours": "24/7",
        "operator:type": "private",
        "source": "OpenGovernmentData"
      }
    },
    {
      "type": "node",
      "id": 6886594760,
      "lat": 12.9814332,
      "lon": 77.7292129,
      "tags": {
        "addr:city": "Bengaluru",
        "addr:district": "BENGALURU URBAN",
        "addr:full": "EPIP Area, Whitefield",
        "addr:postcode": "560066",
        "addr:state": "Karnataka",
        "amenity": "blood_bank",
        "contact:mobile": "9741597101",
        "contact:phone": "08028411500; 08028004600",
        "fax": "9180 28411503",
        "name": "Sri Sathya Sai Institute of Higher Medical Sciences Blood Bank",
        "opening_hours": "24/7",
        "operator:type": "private",
        "source": "OpenGovernmentData",
        "website": "https://wfd.sssihms.org.in"
      }
    },
    {
      "type": "node",
      "id": 7132397448,
      "lat": 12.9751437,
      "lon": 77.7509404,
      "tags": {
        "amenity": "bank",
        "atm": "yes",
        "brand": "Bandhan Bank",
        "brand:wikidata": "Q19882235",
        "check_date": "2025-07-11",
        "name": "Bandhan Bank",
        "wheelchair": "limited"
      }
    },
    {
      "type": "node",
      "id": 9841049853,
      "lat": 12.9687509,
      "lon": 77.7354147,
      "tags": {
        "amenity": "restaurant",
        "cuisine": "indian",
        "diet:vegetarian": "yes",
        "name": "Sri Udupi Food Hub"
      }
    },
    {
      "type": "node",
      "id": 9874059055,
      "lat": 12.9693727,
      "lon": 77.7374799,
      "tags": {
        "amenity": "restaurant",
        "diet:vegetarian": "yes",
        "name": "Udupi Veg"
      }
    },
    {
      "type": "node",
      "id": 9874784651,
      "lat": 12.9696729,
      "lon": 77.7336579,
      "tags": {
        "name": "Nandini Milk Parlour",
        "shop": "dairy"
      }
    },
    {
      "type": "node",
      "id": 9928560844,
      "lat": 12.9824546,
      "lon": 77.7491971,
      "tags": {
        "name": "Barbershop",
        "shop": "hairdresser"
      }
    },
    {
      "type": "node",
      "id": 9937521047,
      "lat": 12.9878131,
      "lon": 77.7323245,
      "tags": {
        "check_date": "2025-06-27",
        "name": "Pepperfry",
        "shop": "furniture"
      }
    },
    {
      "type": "node",
      "id": 9937521048,
      "lat": 12.9878391,
      "lon": 77.7321844,
      "tags": {
        "brand": "Royal Enfield",
        "brand:wikidata": "Q2668720",
        "check_date": "2025-07-05",
        "name": "Royal Enfield Jagadamba",
        "shop": "motorcycle"
      }
    },
    {
      "type": "node",
      "id": 9965888792,
      "lat": 12.983415,
      "lon": 77.752032,
      "tags": {
        "addr:housename": "Arya Hub",
        "addr:street": "Whitefield Main Road",
        "check_date": "2025-08-02",
        "level": "0",
        "name": "Punlu Sports",
        "shop": "sports"
      }
    },
    {
      "type": "node",
      "id": 10003575471,
      "lat": 12.9761501,
      "lon": 77.7544594,
      "tags": {
        "access": "private",
        "amenity": "parking_entrance",
        "parking": "underground"
      }
    },
    {
      "type": "node",
      "id": 10033933657,
      "lat": 12.9872094,
      "lon": 77.736573,
      "tags": {
        "brand": "Decathlon",
        "brand:wikidata": "Q509349",
        "name": "Decathlon",
        "shop": "sports"
      }
    },
    {
      "type": "node",
      "id": 10151991207,
      "lat": 12.9872165,
      "lon": 77.736433,
      "tags": {
        "amenity": "cafe",
        "brand": "Chaayos",
        "brand:wikidata": "Q117235235",
        "check_date": "2025-10-04",
        "cuisine": "tea",
        "highchair": "yes",
        "name": "Chaayos",
        "outdoor_seating": "no",
        "payment:mastercard": "yes",
        "payment:visa": "yes",
        "smoking": "no",
        "source": "survey",
        "takeaway": "yes"
      }
    },
    {
      "type": "node",
      "id": 10221065256,
      "lat": 12.9828178,
      "lon": 77.7487144,
      "tags": {
        "amenity": "fast_food",
        "cuisine": "juice",
        "name": "Chai Venue"
      }
    },
    {
      "type": "node",
      "id": 10281069567,
      "lat": 12.9845957,
      "lon": 77.7491648,
      "tags": {
        "amenity": "restaurant",
        "check_date": "2025-07-25",
        "cuisine": "arab;indian",
        "indoor_seating": "yes",
        "level": "0",
        "name": "Orbis Restaurant",
        "operator": "Orbis",
        "outdoor_seating": "no",
        "takeaway": "yes",
        "wheelchair": "yes"
      }
    },
    {
      "type": "node",
      "id": 10281069570,
      "lat": 12.9843662,
      "lon": 77.7498873,
      "tags": {
        "addr:housename": "Pearl Grand Tower",
        "addr:street": "Whitefield Road",
        "amenity": "restaurant",
        "check_date": "2025-07-25",
        "cuisine": "indian",
        "indoor_seating": "yes",
        "internet_access": "no",
        "level": "0",
        "name": "Thalassery Restaurant",
        "outdoor_seating": "no",
        "takeaway": "yes",
        "toilets": "yes",
        "toilets:access": "permissive",
        "wheelchair": "limited"
      }
    },
    {
      "type": "node",
      "id": 10588172014,
      "lat": 12.9826494,
      "lon": 77.7483836,
      "tags": {
        "amenity": "restaurant",
        "name": "Leon's"
      }
    },
    {
      "type": "node",
      "id": 10588172015,
      "lat": 12.9825142,
      "lon": 77.7482292,
      "tags": {
        "name": "City Tasty Bakery",
        "shop": "bakery"
      }
    },
    {
      "type": "node",
      "id": 10649418819,
      "lat": 12.9663414,
      "lon": 77.7333677,
      "tags": {
        "amenity": "cafe",
        "contact:instagram": "paperandpieblr",
        "fixme": "Approximate location",
        "name": "Paper & Pie"
      }
    },
    {
      "type": "node",
      "id": 10695073022,
      "lat": 12.9843198,
      "lon": 77.7492539,
      "tags": {
        "amenity": "kindergarten",
        "name": "Ani Bee"
      }
    },
    {
      "type": "node",
      "id": 10695073023,
      "lat": 12.9841434,
      "lon": 77.7490802,
      "tags": {
        "amenity": "restaurant",
        "name": "Sri Balaji Restaurant"
      }
    },
    {
      "type": "node",
      "id": 10695073024,
      "lat": 12.9842256,
      "lon": 77.7491072,
      "tags": {
        "male": "yes",
        "name": "New Mirage Salon",
        "shop": "hairdresser"
      }
    },
    {
      "type": "node",
      "id": 10695073025,
      "lat": 12.9861258,
      "lon": 77.7450403,
      "tags": {
        "amenity": "atm",
        "brand": "IDBI Bank",
        "brand:wikidata": "Q3633485",
        "check_date": "2025-07-03",
        "operator": "IDBI Bank",
        "operator:wikidata": "Q3633485",
        "short_name": "IDBI"
      }
    },
    {
      "type": "node",
      "id": 10861897024,
      "lat": 12.986995,
      "lon": 77.7364965,
      "tags": {
        "amenity": "atm",
        "brand": "Axis Bank",
        "brand:wikidata": "Q2003549",
        "check_date": "2023-05-02",
        "name": "Axis Bank",
        "name:kn": "ಆಕ್ಸಿಸ್ ಬ್ಯಾಂಕ್",
        "operator": "Axis Bank",
        "operator:wikidata": "Q2003549",
        "source": "survey"
      }
    },
    {
      "type": "node",
      "id": 10861897025,
      "lat": 12.9871067,
      "lon": 77.7363881,
      "tags": {
        "addr:floor": "1",
        "brand": "Archies",
        "brand:wikidata": "Q4786843",
        "check_date": "2025-10-04",
        "internet_access": "no",
        "level": "1",
        "name": "Archies",
        "payment:mastercard": "yes",
        "payment:upi": "yes",
        "payment:visa": "yes",
        "phone": "+91 80 6122 4737",
        "second_hand": "no",
        "shop": "gift",
        "source": "survey",
        "wheelchair": "yes"
      }
    },
    {
      "type": "node",
      "id": 10861897026,
      "lat": 12.9871562,
      "lon": 77.736278,
      "tags": {
        "addr:floor": "G",
        "amenity": "cafe",
        "brand": "Starbucks",
        "brand:wikidata": "Q37158",
        "check_date": "2025-10-04",
        "cuisine": "coffee_shop",
        "internet_access": "wlan",
        "internet_access:fee": "customers",
        "level": "0",
        "name": "Starbucks",
        "official_name": "Starbucks Coffee",
        "payment:mastercard": "yes",
        "payment:visa": "yes",
        "source": "survey",
        "takeaway": "yes",
        "wheelchair": "yes"
      }
    },
    {
      "type": "node",
      "id": 10861897027,
      "lat": 12.9871841,
      "lon": 77.736697,
      "tags": {
        "air_conditioning": "yes",
        "amenity": "fast_food",
        "brand": "Burger King",
        "brand:wikidata": "Q177054",
        "check_date": "2025-10-04",
        "cuisine": "burger",
        "name": "Burger King",
        "name:kn": "ಬರ್ಗರ್ ಕಿಂಗ್",
        "outdoor_seating": "no",
        "payment:mastercard": "yes",
        "payment:visa": "yes",
        "smoking": "no",
        "source": "survey",
        "takeaway": "yes"
      }
    },
    {
      "type": "node",
      "id": 10861897028,
      "lat": 12.9871722,
      "lon": 77.7359041,
      "tags": {
        "air_conditioning": "yes",
        "amenity": "fast_food",
        "brand": "McDonald's",
        "brand:wikidata": "Q38076",
        "check_date": "2025-10-04",
        "cuisine": "burger",
        "indoor_seating": "yes",
        "name": "McDonald's",
        "name:kn": "ಮ್ಯಾಕ್‌ಡೊನಾಲ್ಡ್ಸ್",
        "outdoor_seating": "no",
        "payment:mastercard": "yes",
        "payment:visa": "yes",
        "source": "survey",
        "takeaway": "yes"
      }
    },
    {
      "type": "node",
      "id": 10861897029,
      "lat": 12.9869481,
      "lon": 77.7360774,
      "tags": {
        "addr:floor": "G",
        "amenity": "restaurant",
        "brand": "Hard Rock Cafe",
        "brand:wikidata": "Q918151",
        "check_date": "2025-10-04",
        "cuisine": "american",
        "level": "0",
        "name": "Hard Rock Cafe",
        "opening_hours": "12:00-24:00",
        "payment:mastercard": "yes",
        "payment:visa": "yes",
        "source": "survey"
      }
    },
    {
      "type": "node",
      "id": 11028341135,
      "lat": 12.9846095,
      "lon": 77.7490486,
      "tags": {
        "amenity": "veterinary",
        "check_date": "2025-07-25",
        "name": "Dr. Santa Animal Health Care"
      }
    },
    {
      "type": "node",
      "id": 11228221337,
      "lat": 12.9769538,
      "lon": 77.7512005,
      "tags": {
        "addr:postcode": "560066",
        "addr:street": "Whitefield Main Road",
        "amenity": "prep_school",
        "check_date": "2025-08-26",
        "name": "Allen Career Institute, Whitefield",
        "opening_hours": "Mo-Su 08:30-20:30",
        "phone": "0 92586 88166",
        "website": "https://www.allen.ac.in/bengaluru/",
        "wheelchair": "no"
      }
    },
    {
      "type": "node",
      "id": 11375174501,
      "lat": 12.9803164,
      "lon": 77.7513407,
      "tags": {
        "brand": "Fabindia",
        "brand:wikidata": "Q5427779",
        "check_date": "2025-07-03",
        "name": "Fabindia",
        "shop": "clothes",
        "wheelchair": "limited"
      }
    },
    {
      "type": "node",
      "id": 11375174502,
      "lat": 12.9803856,
      "lon": 77.7507511,
      "tags": {
        "amenity": "ice_cream",
        "brand": "Corner House",
        "check_date": "2025-07-03",
        "delivery": "yes",
        "name": "Corner House",
        "takeaway": "yes"
      }
    },
    {
      "type": "node",
      "id": 11375280751,
      "lat": 12.9764933,
      "lon": 77.7518991,
      "tags": {
        "access": "private",
        "amenity": "parking_entrance",
        "parking": "underground"
      }
    },
    {
      "type": "node",
      "id": 11375280762,
      "lat": 12.9796424,
      "lon": 77.7514039,
      "tags": {
        "access": "private",
        "amenity": "parking_entrance"
      }
    },
    {
      "type": "node",
      "id": 11521382362,
      "lat": 12.9759162,
      "lon": 77.7542921,
      "tags": {
        "access": "private",
        "amenity": "parking_entrance",
        "parking": "underground"
      }
    },
    {
      "type": "node",
      "id": 11534769006,
      "lat": 12.9803766,
      "lon": 77.7510212,
      "tags": {
        "amenity": "restaurant",
        "check_date": "2024-01-21",
        "contact:instagram": "https://www.instagram.com/pocoapoco.bangalore",
        "name": "Poco A Poco"
      }
    },
    {
      "type": "node",
      "id": 11640744663,
      "lat": 12.9688174,
      "lon": 77.7354254,
      "tags": {
        "amenity": "restaurant",
        "diet:vegetarian": "yes",
        "level": "7",
        "name": "Celeb's"
      }
    },
    {
      "type": "node",
      "id": 11649596369,
      "lat": 12.976882,
      "lon": 77.753489,
      "tags": {
        "name": "Planet Sports (Yonex Dealership)",
        "shop": "sports"
      }
    },
    {
      "type": "node",
      "id": 11826962880,
      "lat": 12.963666,
      "lon": 77.7330257,
      "tags": {
        "amenity": "pharmacy",
        "healthcare": "pharmacy",
        "name": "Brothers Chemist"
      }
    },
    {
      "type": "node",
      "id": 11826962881,
      "lat": 12.9637518,
      "lon": 77.73304,
      "tags": {
        "amenity": "dentist",
        "healthcare": "dentist",
        "name": "Clove Dental"
      }
    },
    {
      "type": "node",
      "id": 11826962882,
      "lat": 12.9637694,
      "lon": 77.7330024,
      "tags": {
        "amenity": "music_school",
        "name": "Hum & Strum"
      }
    },
    {
      "type": "node",
      "id": 11826962883,
      "lat": 12.9637303,
      "lon": 77.7330322,
      "tags": {
        "amenity": "atm",
        "brand": "Axis Bank",
        "brand:wikidata": "Q2003549",
        "operator": "Axis Bank",
        "operator:wikidata": "Q2003549",
        "wheelchair": "no"
      }
    },
    {
      "type": "node",
      "id": 11826962886,
      "lat": 12.9638142,
      "lon": 77.7330522,
      "tags": {
        "amenity": "parking_entrance",
        "parking": "underground"
      }
    },
    {
      "type": "node",
      "id": 11826962892,
      "lat": 12.9639284,
      "lon": 77.7330495,
      "tags": {
        "amenity": "parking_entrance"
      }
    },
    {
      "type": "node",
      "id": 11826962895,
      "lat": 12.9640357,
      "lon": 77.7330576,
      "tags": {
        "amenity": "parking_entrance"
      }
    },
    {
      "type": "node",
      "id": 11826962932,
      "lat": 12.9649714,
      "lon": 77.7318323,
      "tags": {
        "amenity": "kindergarten",
        "name": "Kai International Pre-school"
      }
    },
    {
      "type": "node",
      "id": 11826962961,
      "lat": 12.966127,
      "lon": 77.7334534,
      "tags": {
        "amenity": "restaurant",
        "name": "The Thali House"
      }
    },
    {
      "type": "node",
      "id": 11826962962,
      "lat": 12.9661053,
      "lon": 77.7334476,
      "tags": {
        "name": "J. B. I. Bike Point",
        "shop": "motorcycle_repair"
      }
    },
    {
      "type": "node",
      "id": 11826962963,
      "lat": 12.9660741,
      "lon": 77.7334408,
      "tags": {
        "shop": "butcher"
      }
    },
    {
      "type": "node",
      "id": 11826962972,
      "lat": 12.9661657,
      "lon": 77.7334592,
      "tags": {
        "male": "yes",
        "name": "Tony & Guy Salon",
        "shop": "hairdresser"
      }
    },
    {
      "type": "node",
      "id": 11826962973,
      "lat": 12.9662083,
      "lon": 77.7334708,
      "tags": {
        "female": "yes",
        "name": "Lola Women",
        "shop": "hairdresser"
      }
    },
    {
      "type": "node",
      "id": 11826963019,
      "lat": 12.9688836,
      "lon": 77.7354394,
      "tags": {
        "amenity": "restaurant",
        "bar": "yes",
        "name": "Chowki"
      }
    },
    {
      "type": "node",
      "id": 11946684145,
      "lat": 12.9827902,
      "lon": 77.7368277,
      "tags": {
        "access": "private",
        "amenity": "parking_entrance",
        "parking": "underground"
      }
    },
    {
      "type": "node",
      "id": 12072910368,
      "lat": 12.9810019,
      "lon": 77.7276465,
      "tags": {
        "access": "customers",
        "amenity": "drinking_water",
        "indoor": "yes",
        "level": "1",
        "operator": "BMRCL"
      }
    },
    {
      "type": "node",
      "id": 12072910369,
      "lat": 12.9809,
      "lon": 77.7276251,
      "tags": {
        "access": "customers",
        "amenity": "toilets",
        "female": "yes",
        "level": "1",
        "operator": "BMRCL"
      }
    },
    {
      "type": "node",
      "id": 12072910370,
      "lat": 12.9813064,
      "lon": 77.7277203,
      "tags": {
        "access": "customers",
        "amenity": "toilets",
        "level": "1",
        "male": "yes",
        "operator": "BMRCL"
      }
    },
    {
      "type": "node",
      "id": 12211188777,
      "lat": 12.9850258,
      "lon": 77.7330418,
      "tags": {
        "amenity": "parking_entrance"
      }
    },
    {
      "type": "node",
      "id": 12223948373,
      "lat": 12.9759875,
      "lon": 77.7309277,
      "tags": {
        "amenity": "fountain",
        "drinking_water": "no",
        "fountain": "decorative"
      }
    },
    {
      "type": "node",
      "id": 12227919578,
      "lat": 12.9664294,
      "lon": 77.7309595,
      "tags": {
        "check_date": "2024-10-05",
        "shop": "garden_centre"
      }
    },
    {
      "type": "node",
      "id": 12227919579,
      "lat": 12.9637207,
      "lon": 77.7321112,
      "tags": {
        "check_date": "2024-10-05",
        "hairdresser": "barber",
        "male": "yes",
        "shop": "hairdresser"
      }
    },
    {
      "type": "node",
      "id": 12622909979,
      "lat": 12.9860278,
      "lon": 77.7325622,
      "tags": {
        "access": "private",
        "amenity": "parking_entrance",
        "parking": "underground"
      }
    },
    {
      "type": "node",
      "id": 12852810063,
      "lat": 12.9877236,
      "lon": 77.7335778,
      "tags": {
        "amenity": "place_of_worship",
        "check_date": "2025-11-23",
        "contact:phone": "+91 83102 10547",
        "religion": "hindu"
      }
    },
    {
      "type": "node",
      "id": 12852812564,
      "lat": 12.9794216,
      "lon": 77.75129,
      "tags": {
        "brand": "cult.fit",
        "brand:wikidata": "Q121289250",
        "check_date": "2025-07-24",
        "leisure": "fitness_centre",
        "level": "1",
        "name": "Elite Gym"
      }
    },
    {
      "type": "node",
      "id": 12860399903,
      "lat": 12.9792296,
      "lon": 77.75125,
      "tags": {
        "beauty": "hair;spa",
        "brand": "Naturals",
        "brand:wikidata": "Q125728261",
        "check_date": "2025-07-24",
        "level": "1",
        "name": "Naturals",
        "shop": "beauty"
      }
    },
    {
      "type": "node",
      "id": 12860399907,
      "lat": 12.9793737,
      "lon": 77.7513277,
      "tags": {
        "check_date": "2025-05-24",
        "name": "Preferred Store",
        "shop": "clothes"
      }
    },
    {
      "type": "node",
      "id": 12860399908,
      "lat": 12.9793775,
      "lon": 77.7512839,
      "tags": {
        "amenity": "doctors",
        "check_date": "2025-05-24",
        "healthcare": "doctor",
        "healthcare:speciality": "otolaryngology"
      }
    },
    {
      "type": "node",
      "id": 12860399910,
      "lat": 12.9792318,
      "lon": 77.7513063,
      "tags": {
        "brand": "Airtel",
        "brand:wikidata": "Q854867",
        "check_date": "2025-07-01",
        "name": "Airtel",
        "shop": "telecommunication"
      }
    },
    {
      "type": "node",
      "id": 12860399925,
      "lat": 12.972478,
      "lon": 77.750091,
      "tags": {
        "amenity": "place_of_worship",
        "check_date": "2025-07-07",
        "name": "Sri Prasanna Maruthi Temple",
        "religion": "hindu"
      }
    },
    {
      "type": "node",
      "id": 12872219776,
      "lat": 12.969824,
      "lon": 77.7320636,
      "tags": {
        "amenity": "place_of_worship",
        "check_date": "2025-05-29",
        "religion": "hindu"
      }
    },
    {
      "type": "node",
      "id": 12872219777,
      "lat": 12.9699687,
      "lon": 77.7320429,
      "tags": {
        "check_date": "2025-05-29",
        "name": "Chitanya Bakery",
        "shop": "bakery"
      }
    },
    {
      "type": "node",
      "id": 12872594925,
      "lat": 12.9834458,
      "lon": 77.7519909,
      "tags": {
        "addr:housename": "Arya Hub",
        "addr:street": "Whitefield Main Road",
        "amenity": "music_school",
        "check_date": "2025-08-02",
        "level": "1",
        "name": "Gems Music School"
      }
    },
    {
      "type": "node",
      "id": 12872632885,
      "lat": 12.9749902,
      "lon": 77.7509286,
      "tags": {
        "amenity": "pharmacy",
        "check_date": "2025-08-19",
        "healthcare": "pharmacy",
        "name": "Ramdev Medicals"
      }
    },
    {
      "type": "node",
      "id": 12874807511,
      "lat": 12.9836015,
      "lon": 77.7516254,
      "tags": {
        "brand": "Vishal Mega Mart",
        "brand:wikidata": "Q126895037",
        "check_date": "2025-05-30",
        "name": "Vishal Mega Mart",
        "shop": "supermarket"
      }
    },
    {
      "type": "node",
      "id": 12874807513,
      "lat": 12.983665,
      "lon": 77.7520297,
      "tags": {
        "addr:street": "Whitefield Road",
        "amenity": "fast_food",
        "building": "kiosk",
        "building:levels": "1",
        "check_date": "2025-08-02",
        "cuisine": "roll",
        "drive_through": "no",
        "name": "FS Kati Roll Junction",
        "roof:levels": "0",
        "roof:shape": "flat"
      }
    },
    {
      "type": "node",
      "id": 12874807514,
      "lat": 12.9836112,
      "lon": 77.752016,
      "tags": {
        "addr:housename": "Arya Hub",
        "addr:street": "Whitefield Main Road",
        "check_date": "2025-08-26",
        "name": "Perimeter",
        "shop": "hairdresser"
      }
    },
    {
      "type": "node",
      "id": 12874807515,
      "lat": 12.9828866,
      "lon": 77.7518975,
      "tags": {
        "addr:housename": "HM Tech Park",
        "addr:street": "Whitefield Main Road",
        "amenity": "atm",
        "brand": "State Bank of India",
        "brand:wikidata": "Q1340361",
        "check_date": "2025-08-26",
        "operator": "State Bank of India",
        "operator:wikidata": "Q1340361",
        "short_name": "SBI"
      }
    },
    {
      "type": "node",
      "id": 12874807516,
      "lat": 12.9833204,
      "lon": 77.751986,
      "tags": {
        "addr:housename": "Arya Hub",
        "addr:street": "Whitefield Main Road",
        "check_date": "2025-06-02",
        "shop": "tattoo"
      }
    },
    {
      "type": "node",
      "id": 12880382708,
      "lat": 12.9838269,
      "lon": 77.7513513,
      "tags": {
        "check_date": "2025-06-02",
        "name": "Sofas And More",
        "shop": "furniture"
      }
    },
    {
      "type": "node",
      "id": 12880382709,
      "lat": 12.9830268,
      "lon": 77.7525114,
      "tags": {
        "addr:housename": "KNR Square",
        "addr:street": "Whitefield Main Road",
        "check_date": "2025-06-03",
        "level": "1",
        "name": "Shekhawati Furniture",
        "shop": "furniture"
      }
    },
    {
      "type": "node",
      "id": 12880382710,
      "lat": 12.9829988,
      "lon": 77.7525019,
      "tags": {
        "addr:housename": "KNR Square",
        "addr:street": "Whitefield Main Road",
        "check_date": "2025-06-03",
        "level": "0",
        "name": "Livspace",
        "shop": "interior_decoration"
      }
    },
    {
      "type": "node",
      "id": 12880382712,
      "lat": 12.9829517,
      "lon": 77.7525129,
      "tags": {
        "addr:housename": "KNR Square",
        "addr:street": "Whitefield Main Road",
        "amenity": "doctors",
        "check_date": "2025-06-03",
        "healthcare": "doctor",
        "healthcare:speciality": "dermatology",
        "level": "3",
        "name": "CosMediQ"
      }
    },
    {
      "type": "node",
      "id": 12898759641,
      "lat": 12.9760819,
      "lon": 77.7285339,
      "tags": {
        "check_date": "2025-06-09",
        "name": "Vydehi General Store",
        "shop": "general"
      }
    },
    {
      "type": "node",
      "id": 12955917169,
      "lat": 12.9749935,
      "lon": 77.7509653,
      "tags": {
        "check_date": "2025-06-27",
        "hairdresser": "barber",
        "name": "Mustache",
        "shop": "hairdresser"
      }
    },
    {
      "type": "node",
      "id": 12963890401,
      "lat": 12.9848056,
      "lon": 77.7485569,
      "tags": {
        "check_date": "2025-06-30",
        "shop": "garden_centre"
      }
    },
    {
      "type": "node",
      "id": 12972911341,
      "lat": 12.9860032,
      "lon": 77.7452869,
      "tags": {
        "amenity": "atm",
        "brand": "Kotak Mahindra Bank",
        "brand:wikidata": "Q2040404",
        "check_date": "2025-08-13",
        "operator": "Kotak Mahindra Bank",
        "operator:wikidata": "Q2040404"
      }
    },
    {
      "type": "node",
      "id": 12972911342,
      "lat": 12.9838519,
      "lon": 77.7514636,
      "tags": {
        "amenity": "restaurant",
        "check_date": "2025-07-03",
        "cuisine": "indian",
        "diet:vegetarian": "only",
        "indoor_seating": "yes",
        "name": "Sri Udupi Food Hub",
        "outdoor_seating": "no"
      }
    },
    {
      "type": "node",
      "id": 12972911343,
      "lat": 12.9839969,
      "lon": 77.7511159,
      "tags": {
        "brand": "TVS",
        "brand:wikidata": "Q3300084",
        "check_date": "2025-07-03",
        "name": "Trijal TVS",
        "shop": "motorcycle"
      }
    },
    {
      "type": "node",
      "id": 12972911344,
      "lat": 12.9838793,
      "lon": 77.7515475,
      "tags": {
        "check_date": "2025-07-03",
        "shop": "kiosk"
      }
    },
    {
      "type": "node",
      "id": 12972911345,
      "lat": 12.9836831,
      "lon": 77.7519769,
      "tags": {
        "amenity": "fast_food",
        "check_date": "2025-07-03",
        "name": "Swirl"
      }
    },
    {
      "type": "node",
      "id": 12972911346,
      "lat": 12.9836774,
      "lon": 77.7520031,
      "tags": {
        "amenity": "cafe",
        "check_date": "2025-07-03",
        "cuisine": "tea",
        "name": "Chai Makhani"
      }
    },
    {
      "type": "node",
      "id": 12972911347,
      "lat": 12.9834869,
      "lon": 77.7529026,
      "tags": {
        "amenity": "bar",
        "check_date": "2025-07-03",
        "name": "Bay Leaves"
      }
    },
    {
      "type": "node",
      "id": 12972911350,
      "lat": 12.9833252,
      "lon": 77.7520057,
      "tags": {
        "check_date": "2025-07-03",
        "name": "La Heaven",
        "shop": "pastry"
      }
    },
    {
      "type": "node",
      "id": 12972911351,
      "lat": 12.983139,
      "lon": 77.7519287,
      "tags": {
        "check_date": "2025-07-03",
        "clothes": "motorcycle",
        "name": "Rally Motorsports",
        "shop": "clothes"
      }
    },
    {
      "type": "node",
      "id": 12972935724,
      "lat": 12.9790784,
      "lon": 77.7516966,
      "tags": {
        "check_date": "2025-07-03",
        "name": "Tony And Guy",
        "shop": "hairdresser"
      }
    },
    {
      "type": "node",
      "id": 12979257770,
      "lat": 12.9833103,
      "lon": 77.7515625,
      "tags": {
        "check_date": "2025-07-05",
        "name": "Sheesham Homes",
        "shop": "furniture"
      }
    },
    {
      "type": "node",
      "id": 12979272521,
      "lat": 12.9841607,
      "lon": 77.7504265,
      "tags": {
        "brand": "Hyundai",
        "brand:wikidata": "Q55931",
        "check_date": "2025-07-05",
        "name": "Lakshmi Hyundai",
        "shop": "car"
      }
    },
    {
      "type": "node",
      "id": 12985062914,
      "lat": 12.9727306,
      "lon": 77.7500936,
      "tags": {
        "amenity": "place_of_worship",
        "check_date": "2025-07-07",
        "name": "Sri Mahaganapathi Temple",
        "religion": "hindu"
      }
    },
    {
      "type": "node",
      "id": 12985062915,
      "lat": 12.9725978,
      "lon": 77.7500645,
      "tags": {
        "amenity": "community_centre",
        "check_date": "2025-07-07",
        "name": "Sri Mahaganapathi Community Center"
      }
    },
    {
      "type": "node",
      "id": 12985113917,
      "lat": 12.9833772,
      "lon": 77.7519481,
      "tags": {
        "amenity": "clinic",
        "check_date": "2025-07-07",
        "healthcare": "clinic",
        "healthcare:speciality": "urology",
        "name": "Whitefield Clinic of Nephro-Urology"
      }
    },
    {
      "type": "node",
      "id": 12987060869,
      "lat": 12.9836787,
      "lon": 77.7523109,
      "tags": {
        "amenity": "place_of_worship",
        "check_date": "2025-07-08",
        "religion": "hindu"
      }
    },
    {
      "type": "node",
      "id": 12987086502,
      "lat": 12.9842611,
      "lon": 77.7502347,
      "tags": {
        "brand": "KTM",
        "brand:wikidata": "Q215657",
        "check_date": "2025-07-08",
        "name": "KTM",
        "shop": "motorcycle"
      }
    },
    {
      "type": "node",
      "id": 12987088742,
      "lat": 12.9872446,
      "lon": 77.7389571,
      "tags": {
        "amenity": "driving_school",
        "check_date": "2025-07-11",
        "name": "Hi Tech Driving School"
      }
    },
    {
      "type": "node",
      "id": 12987088743,
      "lat": 12.9871889,
      "lon": 77.7389659,
      "tags": {
        "amenity": "restaurant",
        "check_date": "2025-07-08",
        "indoor_seating": "yes",
        "name": "Delhi Restaurant",
        "outdoor_seating": "no"
      }
    },
    {
      "type": "node",
      "id": 12996866981,
      "lat": 12.9755193,
      "lon": 77.7437688,
      "tags": {
        "brand": "Nandini",
        "brand:wikidata": "Q124374212",
        "check_date": "2025-07-13",
        "name": "Nandini",
        "shop": "dairy"
      }
    },
    {
      "type": "node",
      "id": 12996866982,
      "lat": 12.9755174,
      "lon": 77.7437119,
      "tags": {
        "check_date": "2025-07-13",
        "name": "St Chaitanya Enterprises",
        "shop": "stationery"
      }
    },
    {
      "type": "node",
      "id": 12997791809,
      "lat": 12.9830582,
      "lon": 77.7471656,
      "tags": {
        "amenity": "restaurant",
        "name": "Telugu Aromas"
      }
    },
    {
      "type": "node",
      "id": 12997791810,
      "lat": 12.9830726,
      "lon": 77.7471375,
      "tags": {
        "amenity": "fast_food",
        "cuisine": "pizza",
        "name": "La Pino's"
      }
    },
    {
      "type": "node",
      "id": 12999157278,
      "lat": 12.9836025,
      "lon": 77.7519245,
      "tags": {
        "brand": "cult.fit",
        "brand:wikidata": "Q121289250",
        "check_date": "2025-08-02",
        "leisure": "fitness_centre",
        "name": "cult.fit"
      }
    },
    {
      "type": "node",
      "id": 13020318615,
      "lat": 12.9815214,
      "lon": 77.7518014,
      "tags": {
        "check_date": "2025-07-24",
        "shop": "furniture"
      }
    },
    {
      "type": "node",
      "id": 13020318616,
      "lat": 12.9815362,
      "lon": 77.7516283,
      "tags": {
        "check_date": "2025-07-24",
        "name": "Cocoon Day Spa",
        "shop": "massage"
      }
    },
    {
      "type": "node",
      "id": 13020318617,
      "lat": 12.9802776,
      "lon": 77.7514389,
      "tags": {
        "check_date": "2025-07-24",
        "name": "The Good Place",
        "shop": "furniture"
      }
    },
    {
      "type": "node",
      "id": 13020318619,
      "lat": 12.9793925,
      "lon": 77.7512601,
      "tags": {
        "check_date": "2025-07-24",
        "name": "Truww",
        "shop": "furniture"
      }
    },
    {
      "type": "node",
      "id": 13022417925,
      "lat": 12.9847476,
      "lon": 77.7489168,
      "tags": {
        "check_date": "2025-07-25",
        "name": "MS Flower Designs",
        "shop": "florist"
      }
    },
    {
      "type": "node",
      "id": 13022417926,
      "lat": 12.9843377,
      "lon": 77.7496869,
      "tags": {
        "check_date": "2025-07-25",
        "name": "Avyanna",
        "shop": "massage"
      }
    },
    {
      "type": "node",
      "id": 13022417927,
      "lat": 12.9843577,
      "lon": 77.7496932,
      "tags": {
        "check_date": "2025-07-25",
        "leisure": "fitness_centre",
        "name": "Ample Fit"
      }
    },
    {
      "type": "node",
      "id": 13022417928,
      "lat": 12.9843792,
      "lon": 77.749701,
      "tags": {
        "check_date": "2025-07-25",
        "shop": "vacant"
      }
    },
    {
      "type": "node",
      "id": 13022417929,
      "lat": 12.9844002,
      "lon": 77.7497076,
      "tags": {
        "check_date": "2025-07-25",
        "name": "Würfel",
        "shop": "furniture"
      }
    },
    {
      "type": "node",
      "id": 13022417930,
      "lat": 12.9844171,
      "lon": 77.7497141,
      "tags": {
        "amenity": "restaurant",
        "check_date": "2025-07-25",
        "name": "Family Kitchen"
      }
    },
    {
      "type": "node",
      "id": 13022417931,
      "lat": 12.9844058,
      "lon": 77.7495205,
      "tags": {
        "amenity": "prep_school",
        "check_date": "2025-07-25",
        "name": "Centum Academy"
      }
    },
    {
      "type": "node",
      "id": 13022417933,
      "lat": 12.9844548,
      "lon": 77.7495405,
      "tags": {
        "addr:floor": "2",
        "amenity": "fast_food",
        "check_date": "2025-07-25",
        "cuisine": "pizza",
        "name": "Pepe's Pizza"
      }
    },
    {
      "type": "node",
      "id": 13022417934,
      "lat": 12.9844717,
      "lon": 77.7495433,
      "tags": {
        "amenity": "restaurant",
        "check_date": "2025-07-25",
        "level": "1",
        "name": "Mani's Dum Biriyani"
      }
    },
    {
      "type": "node",
      "id": 13022417935,
      "lat": 12.9844913,
      "lon": 77.7495495,
      "tags": {
        "amenity": "bank",
        "brand": "Bank of Baroda",
        "brand:wikidata": "Q2003797",
        "check_date": "2025-07-25",
        "level": "0",
        "name": "Bank of Baroda",
        "operator": "Bank of Baroda",
        "operator:wikidata": "Q2003797"
      }
    },
    {
      "type": "node",
      "id": 13022417944,
      "lat": 12.9847043,
      "lon": 77.748794,
      "tags": {
        "amenity": "restaurant",
        "check_date": "2025-07-25",
        "name": "The Heaven Mandi"
      }
    },
    {
      "type": "node",
      "id": 13022417945,
      "lat": 12.984719,
      "lon": 77.7488832,
      "tags": {
        "amenity": "restaurant",
        "check_date": "2025-07-25",
        "name": "House Of Desserts"
      }
    },
    {
      "type": "node",
      "id": 13022417946,
      "lat": 12.9847782,
      "lon": 77.7488158,
      "tags": {
        "amenity": "restaurant",
        "check_date": "2025-07-25",
        "name": "Smoky Dock"
      }
    },
    {
      "type": "node",
      "id": 13022417947,
      "lat": 12.9844636,
      "lon": 77.7493771,
      "tags": {
        "addr:housename": "SDR Tower",
        "addr:street": "Whitefield Road",
        "check_date": "2025-07-25",
        "leisure": "fitness_centre",
        "level": "3",
        "name": "Rock's Gym"
      }
    },
    {
      "type": "node",
      "id": 13022417948,
      "lat": 12.9846806,
      "lon": 77.748896,
      "tags": {
        "amenity": "restaurant",
        "check_date": "2025-07-25",
        "name": "Donne Biriyani Palace"
      }
    },
    {
      "type": "node",
      "id": 13022417949,
      "lat": 12.9846441,
      "lon": 77.7489586,
      "tags": {
        "check_date": "2025-07-25",
        "name": "Kent Spa",
        "shop": "massage"
      }
    },
    {
      "type": "node",
      "id": 13022417950,
      "lat": 12.9845912,
      "lon": 77.748989,
      "tags": {
        "check_date": "2025-07-25",
        "name": "Aluma Salon",
        "shop": "hairdresser"
      }
    },
    {
      "type": "node",
      "id": 13022417951,
      "lat": 12.9846354,
      "lon": 77.7490087,
      "tags": {
        "amenity": "studio",
        "check_date": "2025-07-25",
        "name": "Studio II"
      }
    },
    {
      "type": "node",
      "id": 13022417952,
      "lat": 12.9846111,
      "lon": 77.7491282,
      "tags": {
        "amenity": "restaurant",
        "check_date": "2025-07-25",
        "name": "Laffah"
      }
    },
    {
      "type": "node",
      "id": 13022417953,
      "lat": 12.9845332,
      "lon": 77.7491765,
      "tags": {
        "check_date": "2025-07-25",
        "shop": "beauty"
      }
    },
    {
      "type": "node",
      "id": 13022417954,
      "lat": 12.9844954,
      "lon": 77.7496757,
      "tags": {
        "addr:street": "Whitefield Road",
        "amenity": "cafe",
        "building": "kiosk",
        "building:levels": "2",
        "building:material": "metal",
        "name": "Family Kitchen",
        "roof:levels": "0",
        "roof:shape": "flat"
      }
    },
    {
      "type": "node",
      "id": 13022417955,
      "lat": 12.9845057,
      "lon": 77.7493875,
      "tags": {
        "addr:housename": "SDR Tower",
        "addr:street": "Whitefield Road",
        "amenity": "restaurant",
        "check_date": "2025-07-25",
        "level": "1",
        "name": "Star Biriyani"
      }
    },
    {
      "type": "node",
      "id": 13022417956,
      "lat": 12.9845257,
      "lon": 77.7493918,
      "tags": {
        "addr:housename": "SDR Tower",
        "addr:street": "Whitefield Road",
        "amenity": "atm",
        "brand": "South Indian Bank",
        "brand:wikidata": "Q2044973",
        "check_date": "2025-07-25",
        "level": "0",
        "operator": "South Indian Bank",
        "operator:wikidata": "Q2044973"
      }
    },
    {
      "type": "node",
      "id": 13022417957,
      "lat": 12.9844842,
      "lon": 77.749381,
      "tags": {
        "addr:housename": "SDR Tower",
        "addr:street": "Whitefield Road",
        "amenity": "bank",
        "check_date": "2025-07-25",
        "level": "2",
        "name": "Tata Capital"
      }
    },
    {
      "type": "node",
      "id": 13022417958,
      "lat": 12.9844294,
      "lon": 77.74953,
      "tags": {
        "check_date": "2025-07-25",
        "leisure": "fitness_centre",
        "level": "3",
        "name": "Phoenix Fitness"
      }
    },
    {
      "type": "node",
      "id": 13072751388,
      "lat": 12.9762148,
      "lon": 77.7285533,
      "tags": {
        "amenity": "pharmacy",
        "check_date": "2025-06-11",
        "dispensing": "yes",
        "healthcare": "pharmacy",
        "name": "DKA Pharmacy"
      }
    },
    {
      "type": "node",
      "id": 13121579524,
      "lat": 12.9838011,
      "lon": 77.7367285,
      "tags": {
        "access": "private",
        "amenity": "parking_entrance",
        "parking": "underground"
      }
    },
    {
      "type": "node",
      "id": 13121579528,
      "lat": 12.9873583,
      "lon": 77.7359064,
      "tags": {
        "access": "customers",
        "amenity": "parking_entrance",
        "parking": "underground"
      }
    },
    {
      "type": "node",
      "id": 13123221066,
      "lat": 12.9819298,
      "lon": 77.7389661,
      "tags": {
        "access": "private",
        "amenity": "parking_entrance",
        "parking": "underground"
      }
    },
    {
      "type": "node",
      "id": 13123221076,
      "lat": 12.9822865,
      "lon": 77.7387241,
      "tags": {
        "access": "private",
        "amenity": "parking_entrance",
        "parking": "underground"
      }
    },
    {
      "type": "node",
      "id": 13172594354,
      "lat": 12.9829879,
      "lon": 77.7525021,
      "tags": {
        "addr:floor": "2",
        "check_date": "2025-09-26",
        "name": "Homes To Life",
        "shop": "interior_decoration"
      }
    },
    {
      "type": "node",
      "id": 13192032431,
      "lat": 12.9867135,
      "lon": 77.735713,
      "tags": {
        "amenity": "cafe",
        "check_date": "2025-10-04",
        "name": "Coffee Central",
        "outdoor_seating": "yes",
        "wheelchair": "yes"
      }
    },
    {
      "type": "node",
      "id": 13192032432,
      "lat": 12.9862273,
      "lon": 77.7362915,
      "tags": {
        "addr:floor": "-1",
        "brand": "Thomas Cook",
        "brand:wikidata": "Q2141800",
        "check_date": "2025-10-04",
        "name": "Thomas Cook",
        "shop": "travel_agency",
        "wheelchair": "yes"
      }
    },
    {
      "type": "node",
      "id": 13192032433,
      "lat": 12.9862894,
      "lon": 77.7365167,
      "tags": {
        "addr:floor": "-1",
        "amenity": "bank",
        "brand": "HDFC Bank",
        "brand:wikidata": "Q631047",
        "check_date": "2025-10-04",
        "name": "HDFC Bank",
        "short_name": "HDFC"
      }
    },
    {
      "type": "node",
      "id": 13192032435,
      "lat": 12.9862939,
      "lon": 77.7364863,
      "tags": {
        "amenity": "waste_basket"
      }
    },
    {
      "type": "node",
      "id": 13192032436,
      "lat": 12.9862032,
      "lon": 77.7363344,
      "tags": {
        "amenity": "bench",
        "armrest": "yes",
        "backrest": "yes",
        "seats": "3"
      }
    },
    {
      "type": "node",
      "id": 13192032437,
      "lat": 12.9862679,
      "lon": 77.7362923,
      "tags": {
        "addr:floor": "-1",
        "check_date": "2025-10-04",
        "name": "Global Wings",
        "shop": "travel_agency",
        "wheelchair": "yes"
      }
    },
    {
      "type": "node",
      "id": 13192084800,
      "lat": 12.9868719,
      "lon": 77.736817,
      "tags": {
        "amenity": "ice_cream",
        "brand": "Polar Bear",
        "brand:wikidata": "Q124374249",
        "check_date": "2025-10-04",
        "delivery": "yes",
        "name": "Polar Bear",
        "payment:cash": "yes",
        "payment:credit_cards": "yes",
        "payment:debit_cards": "yes",
        "takeaway": "yes"
      }
    },
    {
      "type": "node",
      "id": 13192098301,
      "lat": 12.9868488,
      "lon": 77.7367295,
      "tags": {
        "addr:floor": "4",
        "amenity": "restaurant",
        "check_date": "2025-10-04",
        "cuisine": "indian",
        "diet:halal": "yes",
        "diet:vegetarian": "yes",
        "name": "Deccan Paradise"
      }
    },
    {
      "type": "node",
      "id": 13192098302,
      "lat": 12.9869918,
      "lon": 77.7368999,
      "tags": {
        "addr:floor": "4",
        "amenity": "restaurant",
        "check_date": "2025-10-04",
        "cuisine": "chinese",
        "name": "Sichuan"
      }
    },
    {
      "type": "node",
      "id": 13192098303,
      "lat": 12.9870886,
      "lon": 77.7368972,
      "tags": {
        "addr:floor": "4",
        "amenity": "restaurant",
        "brand": "California Burrito",
        "brand:wikidata": "Q124374596",
        "check_date": "2025-10-04",
        "cuisine": "mexican",
        "name": "California Burrito"
      }
    },
    {
      "type": "node",
      "id": 13192098304,
      "lat": 12.9871552,
      "lon": 77.7368908,
      "tags": {
        "addr:floor": "4",
        "amenity": "fast_food",
        "brand": "Subway",
        "brand:wikidata": "Q244457",
        "check_date": "2025-10-04",
        "cuisine": "sandwich",
        "name": "Subway",
        "takeaway": "yes"
      }
    },
    {
      "type": "node",
      "id": 13192098305,
      "lat": 12.9869592,
      "lon": 77.7368287,
      "tags": {
        "amenity": "toilets",
        "check_date": "2025-10-04",
        "operator": "KFC",
        "operator:wikidata": "Q524757"
      }
    },
    {
      "type": "node",
      "id": 13192098306,
      "lat": 12.9870453,
      "lon": 77.7367822,
      "tags": {
        "addr:floor": "4",
        "amenity": "dancing_school",
        "check_date": "2025-10-04",
        "name": "Etram Dance Academy"
      }
    },
    {
      "type": "way",
      "id": 94359695,
      "center": {
        "lat": 12.9760976,
        "lon": 77.72788
      },
      "tags": {
        "access": "customers",
        "amenity": "parking",
        "fee": "no",
        "name": "Vydhehi Hospital Parking",
        "parking": "surface"
      }
    },
    {
      "type": "way",
      "id": 122668468,
      "center": {
        "lat": 12.9765783,
        "lon": 77.742023
      },
      "tags": {
        "addr:city": "Bangalore",
        "addr:country": "IN",
        "addr:postcode": "560066",
        "addr:street": "Opp. E.C.C, Whitefield,",
        "amenity": "school",
        "name": "The Deen's Academy",
        "phone": "+91-080-28454691 /4693 / 4464",
        "website": "https://deensacademy.com/"
      }
    },
    {
      "type": "way",
      "id": 124394941,
      "center": {
        "lat": 12.9869853,
        "lon": 77.7364154
      },
      "tags": {
        "addr:postcode": "560066",
        "addr:street": "Whitefield Road",
        "building": "retail",
        "building:levels": "5",
        "building:levels:underground": "3",
        "building:material": "glass",
        "check_date": "2025-10-04",
        "internet_access": "no",
        "name": "Park Square Mall",
        "phone": "+91 080 41880000",
        "roof:shape": "flat",
        "shop": "mall",
        "source": "survey",
        "wheelchair": "yes"
      }
    },
    {
      "type": "way",
      "id": 124782791,
      "center": {
        "lat": 12.9808814,
        "lon": 77.7303132
      },
      "tags": {
        "amenity": "hospital",
        "barrier": "wall",
        "healthcare": "hospital",
        "name": "Sri Sathya Sai Institute of Higher Medical Sciences",
        "name:etymology:wikidata": "Q483931"
      }
    },
    {
      "type": "way",
      "id": 130644751,
      "center": {
        "lat": 12.9749759,
        "lon": 77.7389455
      },
      "tags": {
        "landuse": "religious",
        "leisure": "recreation_ground",
        "name": "Ecumenical Christian Centre",
        "religion": "christian"
      }
    },
    {
      "type": "way",
      "id": 136477081,
      "center": {
        "lat": 12.9737412,
        "lon": 77.7482483
      },
      "tags": {
        "amenity": "school",
        "name": "Cottolengo Special School"
      }
    },
    {
      "type": "way",
      "id": 136507312,
      "center": {
        "lat": 12.9778778,
        "lon": 77.7481154
      },
      "tags": {
        "amenity": "school",
        "name": "Abhayadhama Human Development Center"
      }
    },
    {
      "type": "way",
      "id": 144977760,
      "center": {
        "lat": 12.9805613,
        "lon": 77.743629
      },
      "tags": {
        "leisure": "swimming_pool"
      }
    },
    {
      "type": "way",
      "id": 145130450,
      "center": {
        "lat": 12.9816106,
        "lon": 77.7440305
      },
      "tags": {
        "leisure": "swimming_pool"
      }
    },
    {
      "type": "way",
      "id": 145130455,
      "center": {
        "lat": 12.9823215,
        "lon": 77.7443008
      },
      "tags": {
        "leisure": "swimming_pool"
      }
    },
    {
      "type": "way",
      "id": 147380607,
      "center": {
        "lat": 12.9800593,
        "lon": 77.7513938
      },
      "tags": {
        "addr:housenumber": "132",
        "addr:postcode": "560066",
        "addr:street": "Whitefield Main Road",
        "building": "yes",
        "building:colour": "grey",
        "building:levels": "1",
        "check_date": "2025-07-01",
        "name": "Royal Mart Supermarket",
        "roof:levels": "0",
        "roof:orientation": "along",
        "roof:shape": "gabled",
        "shop": "supermarket",
        "wheelchair": "no"
      }
    },
    {
      "type": "way",
      "id": 159031314,
      "center": {
        "lat": 12.9767075,
        "lon": 77.7504301
      },
      "tags": {
        "leisure": "park",
        "name": "St. Joseph's Convent Playground"
      }
    },
    {
      "type": "way",
      "id": 159031330,
      "center": {
        "lat": 12.9766724,
        "lon": 77.7495518
      },
      "tags": {
        "addr:street": "Whitefield Main Road",
        "amenity": "school",
        "check_date": "2025-05-24",
        "email": "sjcems2011@gmail.com",
        "name": "St. Joseph's Convent High School",
        "phone": "080-28457985",
        "religion": "christian",
        "website": "http:sjcemswhitefield"
      }
    },
    {
      "type": "way",
      "id": 159033029,
      "center": {
        "lat": 12.9766175,
        "lon": 77.7418829
      },
      "tags": {
        "access": "private",
        "leisure": "swimming_pool",
        "sport": "swimming"
      }
    },
    {
      "type": "way",
      "id": 159033031,
      "center": {
        "lat": 12.976887,
        "lon": 77.7417489
      },
      "tags": {
        "access": "private",
        "amenity": "parking",
        "parking": "surface"
      }
    },
    {
      "type": "way",
      "id": 168345821,
      "center": {
        "lat": 12.9790583,
        "lon": 77.7480207
      },
      "tags": {
        "addr:postcode": "560066",
        "amenity": "school",
        "name": "Holy Cross School & College",
        "website": "http://hcscwhitefield.com/"
      }
    },
    {
      "type": "way",
      "id": 181333919,
      "center": {
        "lat": 12.9870024,
        "lon": 77.7375402
      },
      "tags": {
        "leisure": "garden"
      }
    },
    {
      "type": "way",
      "id": 184160588,
      "center": {
        "lat": 12.9838291,
        "lon": 77.7440519
      },
      "tags": {
        "addr:street": "E C C Road",
        "building": "yes",
        "name": "Loyal City Super Market",
        "opening_hours": "Mo-Su 07:30-22:30",
        "shop": "supermarket"
      }
    },
    {
      "type": "way",
      "id": 269121846,
      "center": {
        "lat": 12.9814109,
        "lon": 77.7287213
      },
      "tags": {
        "leisure": "garden"
      }
    },
    {
      "type": "way",
      "id": 269121847,
      "center": {
        "lat": 12.9819571,
        "lon": 77.7288286
      },
      "tags": {
        "leisure": "garden"
      }
    },
    {
      "type": "way",
      "id": 269121848,
      "center": {
        "lat": 12.9821216,
        "lon": 77.7283517
      },
      "tags": {
        "leisure": "garden"
      }
    },
    {
      "type": "way",
      "id": 269121851,
      "center": {
        "lat": 12.9829559,
        "lon": 77.728766
      },
      "tags": {
        "amenity": "parking"
      }
    },
    {
      "type": "way",
      "id": 269121856,
      "center": {
        "lat": 12.9806246,
        "lon": 77.7286474
      },
      "tags": {
        "leisure": "garden"
      }
    },
    {
      "type": "way",
      "id": 269121857,
      "center": {
        "lat": 12.9807314,
        "lon": 77.7287749
      },
      "tags": {
        "leisure": "garden"
      }
    },
    {
      "type": "way",
      "id": 269122245,
      "center": {
        "lat": 12.982889,
        "lon": 77.7286247
      },
      "tags": {
        "leisure": "garden"
      }
    },
    {
      "type": "way",
      "id": 269122246,
      "center": {
        "lat": 12.9827465,
        "lon": 77.7291491
      },
      "tags": {
        "leisure": "garden"
      }
    },
    {
      "type": "way",
      "id": 346449367,
      "center": {
        "lat": 12.9829065,
        "lon": 77.7478025
      },
      "tags": {
        "amenity": "hospital",
        "building": "yes",
        "emergency": "no",
        "healthcare": "hospital",
        "name": "Amrik Hospital"
      }
    },
    {
      "type": "way",
      "id": 348453871,
      "center": {
        "lat": 12.9699235,
        "lon": 77.7355984
      },
      "tags": {
        "building": "yes",
        "name": "The Whitefield Market",
        "shop": "supermarket",
        "wheelchair": "yes"
      }
    },
    {
      "type": "way",
      "id": 348455090,
      "center": {
        "lat": 12.9745549,
        "lon": 77.7499753
      },
      "tags": {
        "amenity": "place_of_worship",
        "building": "church",
        "building:levels": "2",
        "check_date": "2025-05-24",
        "denomination": "roman_catholic",
        "name": "Our Lady of Lourdes Church",
        "name:kn": "ಅವರ್ ಲೇಡಿ ಅಫ್ ಲೂರ್ಡ್ಸ್ ಚರ್ಚ್",
        "religion": "christian",
        "roof:levels": "1"
      }
    },
    {
      "type": "way",
      "id": 348658786,
      "center": {
        "lat": 12.9763468,
        "lon": 77.7299596
      },
      "tags": {
        "amenity": "parking",
        "orientation": "perpendicular",
        "parking": "street_side"
      }
    },
    {
      "type": "way",
      "id": 349137228,
      "center": {
        "lat": 12.9762985,
        "lon": 77.7305307
      },
      "tags": {
        "amenity": "parking",
        "orientation": "perpendicular",
        "parking": "street_side"
      }
    },
    {
      "type": "way",
      "id": 493435700,
      "center": {
        "lat": 12.9754599,
        "lon": 77.7277351
      },
      "tags": {
        "access": "private",
        "amenity": "parking",
        "name": "Vydehi Staff Parking",
        "parking": "surface"
      }
    },
    {
      "type": "way",
      "id": 494678981,
      "center": {
        "lat": 12.9767231,
        "lon": 77.7303716
      },
      "tags": {
        "amenity": "college",
        "check_date": "2025-06-11",
        "email": "info@vims.ac.in",
        "landuse": "education",
        "name": "Vydehi Institute of Medical Science and Research Center",
        "phone": "+91-80-49069000",
        "school:gender": "mixed",
        "website": "https://vims.ac.in/education/",
        "wikidata": "Q7943917",
        "wikipedia": "en:Vydehi Institute of Medical Sciences and Research Centre"
      }
    },
    {
      "type": "way",
      "id": 521700725,
      "center": {
        "lat": 12.9764726,
        "lon": 77.7310529
      },
      "tags": {
        "access": "private",
        "amenity": "parking",
        "parking": "surface"
      }
    },
    {
      "type": "way",
      "id": 552563427,
      "center": {
        "lat": 12.9826757,
        "lon": 77.7379987
      },
      "tags": {
        "amenity": "restaurant",
        "building": "yes"
      }
    },
    {
      "type": "way",
      "id": 552563503,
      "center": {
        "lat": 12.983558,
        "lon": 77.7376936
      },
      "tags": {
        "leisure": "park"
      }
    },
    {
      "type": "way",
      "id": 617107222,
      "center": {
        "lat": 12.9753726,
        "lon": 77.7321534
      },
      "tags": {
        "leisure": "garden"
      }
    },
    {
      "type": "way",
      "id": 626914822,
      "center": {
        "lat": 12.9706732,
        "lon": 77.7367969
      },
      "tags": {
        "leisure": "swimming_pool"
      }
    },
    {
      "type": "way",
      "id": 662550834,
      "center": {
        "lat": 12.9790701,
        "lon": 77.741741
      },
      "tags": {
        "shop": "storage_rental"
      }
    },
    {
      "type": "way",
      "id": 675403660,
      "center": {
        "lat": 12.9730236,
        "lon": 77.7355154
      },
      "tags": {
        "amenity": "grave_yard",
        "landuse": "cemetery"
      }
    },
    {
      "type": "way",
      "id": 763007407,
      "center": {
        "lat": 12.9755616,
        "lon": 77.7524201
      },
      "tags": {
        "access": "private",
        "leisure": "pitch",
        "sport": "tennis"
      }
    },
    {
      "type": "way",
      "id": 773145619,
      "center": {
        "lat": 12.9796526,
        "lon": 77.7481856
      },
      "tags": {
        "leisure": "park"
      }
    },
    {
      "type": "way",
      "id": 773145620,
      "center": {
        "lat": 12.9789375,
        "lon": 77.7480521
      },
      "tags": {
        "leisure": "pitch",
        "sport": "basketball"
      }
    },
    {
      "type": "way",
      "id": 1009334204,
      "center": {
        "lat": 12.982202,
        "lon": 77.7517912
      },
      "tags": {
        "amenity": "fuel",
        "brand": "Shell",
        "brand:wikidata": "Q110716465",
        "check_date": "2025-08-26",
        "compressed_air": "yes",
        "fuel:diesel": "yes",
        "fuel:petrol": "yes",
        "landuse": "retail",
        "name": "Shell Petrol Pump Hope Farm",
        "operator": "Shell",
        "self_service": "no"
      }
    },
    {
      "type": "way",
      "id": 1072344870,
      "center": {
        "lat": 12.9757501,
        "lon": 77.7521828
      },
      "tags": {
        "access": "private",
        "leisure": "swimming_pool"
      }
    },
    {
      "type": "way",
      "id": 1072674729,
      "center": {
        "lat": 12.9652826,
        "lon": 77.7331247
      },
      "tags": {
        "amenity": "fuel",
        "brand": "Hindustan Petroleum",
        "brand:wikidata": "Q1619375",
        "name": "HP",
        "name:kn": "ಹಿಂದುಸ್ತಾನ್ ಪೆಟ್ರೋಲಿಯಂ",
        "official_name": "Hindustan Petroleum"
      }
    },
    {
      "type": "way",
      "id": 1079087285,
      "center": {
        "lat": 12.96522,
        "lon": 77.7323991
      },
      "tags": {
        "amenity": "kindergarten",
        "name": "The Little Gym of Whitefield",
        "website": "https://thelittlegym.in"
      }
    },
    {
      "type": "way",
      "id": 1083394762,
      "center": {
        "lat": 12.9838223,
        "lon": 77.7506996
      },
      "tags": {
        "access": "private",
        "layer": "10",
        "leisure": "swimming_pool",
        "location": "roof"
      }
    },
    {
      "type": "way",
      "id": 1083400622,
      "center": {
        "lat": 12.9794557,
        "lon": 77.7284341
      },
      "tags": {
        "access": "customers",
        "leisure": "swimming_pool"
      }
    },
    {
      "type": "way",
      "id": 1084458394,
      "center": {
        "lat": 12.9864058,
        "lon": 77.7376689
      },
      "tags": {
        "leisure": "swimming_pool"
      }
    },
    {
      "type": "way",
      "id": 1084458397,
      "center": {
        "lat": 12.9839812,
        "lon": 77.7441181
      },
      "tags": {
        "access": "private",
        "leisure": "swimming_pool"
      }
    },
    {
      "type": "way",
      "id": 1087693697,
      "center": {
        "lat": 12.9738994,
        "lon": 77.7510564
      },
      "tags": {
        "access": "private",
        "leisure": "swimming_pool"
      }
    },
    {
      "type": "way",
      "id": 1087693700,
      "center": {
        "lat": 12.9767588,
        "lon": 77.7523738
      },
      "tags": {
        "access": "private",
        "leisure": "swimming_pool"
      }
    },
    {
      "type": "way",
      "id": 1088209026,
      "center": {
        "lat": 12.9753821,
        "lon": 77.7511064
      },
      "tags": {
        "amenity": "police",
        "check_date": "2025-06-10",
        "name": "Whitefield Police Station -Office of the Deputy Commisionner"
      }
    },
    {
      "type": "way",
      "id": 1095647718,
      "center": {
        "lat": 12.9870962,
        "lon": 77.7352484
      },
      "tags": {
        "access": "private",
        "amenity": "motorcycle_parking",
        "fee": "yes",
        "parking": "surface"
      }
    },
    {
      "type": "way",
      "id": 1101376586,
      "center": {
        "lat": 12.9873201,
        "lon": 77.7321113
      },
      "tags": {
        "alt_name": "ITPL fire station",
        "amenity": "fire_station",
        "check_date": "2025-07-07",
        "name": "Whitefield Fire Station",
        "name:kn": "ವೈಟ್‌ಫೀಲ್ಡ್‌ ಅಗ್ನಿಶಾಮಕ ಠಾಣೆ"
      }
    },
    {
      "type": "way",
      "id": 1125172752,
      "center": {
        "lat": 12.9823647,
        "lon": 77.7518309
      },
      "tags": {
        "addr:street": "Whitefield Main Road",
        "brand": "Shell Select",
        "brand:wikidata": "Q124359752",
        "building": "retail",
        "building:levels": "1",
        "building:material": "concrete",
        "building:material:concrete": "panels",
        "check_date": "2025-08-26",
        "name": "Shell Select",
        "roof:levels": "0",
        "roof:shape": "flat",
        "shop": "convenience"
      }
    },
    {
      "type": "way",
      "id": 1125367469,
      "center": {
        "lat": 12.9766812,
        "lon": 77.7534662
      },
      "tags": {
        "leisure": "pitch",
        "lit": "yes",
        "sport": "soccer",
        "surface": "artificial_turf"
      }
    },
    {
      "type": "way",
      "id": 1125367470,
      "center": {
        "lat": 12.976411,
        "lon": 77.7534269
      },
      "tags": {
        "leisure": "pitch",
        "sport": "badminton"
      }
    },
    {
      "type": "way",
      "id": 1125972901,
      "center": {
        "lat": 12.987104,
        "lon": 77.7343125
      },
      "tags": {
        "access": "private",
        "amenity": "parking",
        "fee": "yes",
        "parking": "surface"
      }
    },
    {
      "type": "way",
      "id": 1135846628,
      "center": {
        "lat": 12.9835296,
        "lon": 77.7489362
      },
      "tags": {
        "leisure": "park"
      }
    },
    {
      "type": "way",
      "id": 1144296232,
      "center": {
        "lat": 12.9852447,
        "lon": 77.7331674
      },
      "tags": {
        "amenity": "university",
        "landuse": "education",
        "name": "Jain University School of Allied Healthcare & Sciences",
        "website": "https://www.jgi.ac.in/"
      }
    },
    {
      "type": "way",
      "id": 1144296237,
      "center": {
        "lat": 12.9707055,
        "lon": 77.7356274
      },
      "tags": {
        "access": "private",
        "leisure": "swimming_pool"
      }
    },
    {
      "type": "way",
      "id": 1147662042,
      "center": {
        "lat": 12.9767332,
        "lon": 77.7405962
      },
      "tags": {
        "leisure": "swimming_pool"
      }
    },
    {
      "type": "way",
      "id": 1147662046,
      "center": {
        "lat": 12.9792722,
        "lon": 77.7433084
      },
      "tags": {
        "access": "private",
        "leisure": "swimming_pool",
        "location": "outdoor"
      }
    },
    {
      "type": "way",
      "id": 1153852642,
      "center": {
        "lat": 12.9784809,
        "lon": 77.7358452
      },
      "tags": {
        "access": "private",
        "leisure": "swimming_pool",
        "location": "outdoor",
        "swimming_pool": "outdoor"
      }
    },
    {
      "type": "way",
      "id": 1153852651,
      "center": {
        "lat": 12.9766547,
        "lon": 77.7397494
      },
      "tags": {
        "amenity": "kindergarten",
        "barrier": "wall",
        "name": "Mont Ivy Preschools",
        "website": "https://www.montivy.com/"
      }
    },
    {
      "type": "way",
      "id": 1153852652,
      "center": {
        "lat": 12.976608,
        "lon": 77.7399133
      },
      "tags": {
        "amenity": "kindergarten",
        "barrier": "wall"
      }
    },
    {
      "type": "way",
      "id": 1187678803,
      "center": {
        "lat": 12.9844411,
        "lon": 77.7499129
      },
      "tags": {
        "access": "customers",
        "amenity": "parking",
        "fee": "no",
        "operator": "Thalassery Restaurant",
        "operator:type": "private",
        "parking": "surface",
        "surface": "paved"
      }
    },
    {
      "type": "way",
      "id": 1187679088,
      "center": {
        "lat": 12.984717,
        "lon": 77.7490274
      },
      "tags": {
        "access": "customers",
        "amenity": "parking",
        "parking": "surface",
        "surface": "paved"
      }
    },
    {
      "type": "way",
      "id": 1208446239,
      "center": {
        "lat": 12.9836161,
        "lon": 77.751234
      },
      "tags": {
        "access": "customers",
        "amenity": "parking",
        "parking": "surface"
      }
    },
    {
      "type": "way",
      "id": 1238904217,
      "center": {
        "lat": 12.973514,
        "lon": 77.7293232
      },
      "tags": {
        "access": "private",
        "amenity": "parking",
        "parking": "surface"
      }
    },
    {
      "type": "way",
      "id": 1239790342,
      "center": {
        "lat": 12.9759883,
        "lon": 77.7402814
      },
      "tags": {
        "leisure": "pitch",
        "name": "Ashpire Tennis Academy",
        "sport": "tennis"
      }
    },
    {
      "type": "way",
      "id": 1240102703,
      "center": {
        "lat": 12.9755297,
        "lon": 77.7540232
      },
      "tags": {
        "access": "private",
        "amenity": "parking",
        "parking": "street_side"
      }
    },
    {
      "type": "way",
      "id": 1252334764,
      "center": {
        "lat": 12.9690243,
        "lon": 77.7354538
      },
      "tags": {
        "access": "customers",
        "amenity": "parking",
        "parking": "surface"
      }
    },
    {
      "type": "way",
      "id": 1256756139,
      "center": {
        "lat": 12.9819879,
        "lon": 77.7293887
      },
      "tags": {
        "leisure": "garden"
      }
    },
    {
      "type": "way",
      "id": 1273628107,
      "center": {
        "lat": 12.9748382,
        "lon": 77.728848
      },
      "tags": {
        "access": "customers",
        "amenity": "parking",
        "fee": "no",
        "parking": "surface"
      }
    },
    {
      "type": "way",
      "id": 1278838213,
      "center": {
        "lat": 12.9704096,
        "lon": 77.7374479
      },
      "tags": {
        "building": "yes",
        "leisure": "sports_centre",
        "lit": "yes",
        "name": "SKVM",
        "sport": "badminton;table_tennis"
      }
    },
    {
      "type": "way",
      "id": 1278852356,
      "center": {
        "lat": 12.9704457,
        "lon": 77.7374593
      },
      "tags": {
        "leisure": "pitch",
        "sport": "badminton"
      }
    },
    {
      "type": "way",
      "id": 1288213011,
      "center": {
        "lat": 12.9825864,
        "lon": 77.7366836
      },
      "tags": {
        "access": "permissive",
        "amenity": "parking",
        "parking": "surface"
      }
    },
    {
      "type": "way",
      "id": 1302227108,
      "center": {
        "lat": 12.9837506,
        "lon": 77.7430781
      },
      "tags": {
        "leisure": "pitch",
        "sport": "tennis",
        "wheelchair": "no"
      }
    },
    {
      "type": "way",
      "id": 1302227109,
      "center": {
        "lat": 12.9838507,
        "lon": 77.742846
      },
      "tags": {
        "access": "private",
        "leisure": "swimming_pool"
      }
    },
    {
      "type": "way",
      "id": 1314991483,
      "center": {
        "lat": 12.9775769,
        "lon": 77.7518152
      },
      "tags": {
        "addr:housenumber": "237",
        "amenity": "monastery",
        "check_date": "2025-07-03",
        "denomination": "catholic",
        "landuse": "religious",
        "name": "Maria Ashram",
        "religion": "christian"
      }
    },
    {
      "type": "way",
      "id": 1318032788,
      "center": {
        "lat": 12.976171,
        "lon": 77.7384171
      },
      "tags": {
        "access": "private",
        "leisure": "swimming_pool"
      }
    },
    {
      "type": "way",
      "id": 1318032791,
      "center": {
        "lat": 12.9773988,
        "lon": 77.7403011
      },
      "tags": {
        "access": "private",
        "leisure": "swimming_pool"
      }
    },
    {
      "type": "way",
      "id": 1318038680,
      "center": {
        "lat": 12.9760876,
        "lon": 77.7416119
      },
      "tags": {
        "leisure": "pitch",
        "sport": "basketball"
      }
    },
    {
      "type": "way",
      "id": 1328350855,
      "center": {
        "lat": 12.9738458,
        "lon": 77.7329764
      },
      "tags": {
        "access": "private",
        "leisure": "pitch",
        "sport": "basketball",
        "surface": "concrete"
      }
    },
    {
      "type": "way",
      "id": 1328350856,
      "center": {
        "lat": 12.9736695,
        "lon": 77.7329528
      },
      "tags": {
        "access": "private",
        "leisure": "pitch",
        "sport": "basketball",
        "surface": "concrete"
      }
    },
    {
      "type": "way",
      "id": 1333112395,
      "center": {
        "lat": 12.9752821,
        "lon": 77.7517234
      },
      "tags": {
        "leisure": "garden"
      }
    },
    {
      "type": "way",
      "id": 1333112396,
      "center": {
        "lat": 12.9756262,
        "lon": 77.7525018
      },
      "tags": {
        "leisure": "garden"
      }
    },
    {
      "type": "way",
      "id": 1338326413,
      "center": {
        "lat": 12.9788965,
        "lon": 77.7569
      },
      "tags": {
        "access": "private",
        "leisure": "swimming_pool"
      }
    },
    {
      "type": "way",
      "id": 1354864314,
      "center": {
        "lat": 12.979118,
        "lon": 77.728449
      },
      "tags": {
        "leisure": "garden"
      }
    },
    {
      "type": "way",
      "id": 1385087391,
      "center": {
        "lat": 12.9810109,
        "lon": 77.7402381
      },
      "tags": {
        "access": "private",
        "leisure": "park"
      }
    },
    {
      "type": "way",
      "id": 1385087392,
      "center": {
        "lat": 12.9832797,
        "lon": 77.7431255
      },
      "tags": {
        "amenity": "car_rental",
        "name": "Everest Fleet"
      }
    },
    {
      "type": "way",
      "id": 1395649748,
      "center": {
        "lat": 12.9637839,
        "lon": 77.7324542
      },
      "tags": {
        "leisure": "pitch"
      }
    },
    {
      "type": "way",
      "id": 1410852309,
      "center": {
        "lat": 12.9825173,
        "lon": 77.7522202
      },
      "tags": {
        "amenity": "shelter",
        "bench": "yes",
        "bin": "no",
        "building": "yes",
        "building:colour": "grey",
        "building:levels": "0",
        "bus": "yes",
        "departures_board": "no",
        "highway": "bus_stop",
        "lit": "no",
        "name": "Hope Farm (Towards Varthur)",
        "network": "BMTC",
        "network:wikidata": "Q3345039",
        "operator": "BMTC",
        "public_transport": "platform",
        "roof:levels": "1",
        "roof:shape": "flat",
        "shelter": "yes",
        "shelter_type": "public_transport"
      }
    },
    {
      "type": "way",
      "id": 1410852310,
      "center": {
        "lat": 12.9823752,
        "lon": 77.7521958
      },
      "tags": {
        "amenity": "shelter",
        "bench": "yes",
        "bin": "no",
        "building": "yes",
        "building:colour": "grey",
        "building:levels": "0",
        "bus": "yes",
        "departures_board": "no",
        "highway": "bus_stop",
        "lit": "no",
        "name": "Hope Farm (Towards Varthur)",
        "network": "BMTC",
        "network:wikidata": "Q3345039",
        "operator": "BMTC",
        "public_transport": "platform",
        "roof:levels": "1",
        "roof:shape": "flat",
        "shelter": "yes",
        "shelter_type": "public_transport",
        "tactile_paving": "no",
        "wheelchair": "no"
      }
    },
    {
      "type": "way",
      "id": 1410852334,
      "center": {
        "lat": 12.9830389,
        "lon": 77.7523874
      },
      "tags": {
        "access": "customers",
        "amenity": "parking",
        "fee": "no",
        "parking": "surface"
      }
    },
    {
      "type": "way",
      "id": 1414473383,
      "center": {
        "lat": 12.972506,
        "lon": 77.7495268
      },
      "tags": {
        "amenity": "kindergarten",
        "check_date": "2025-07-13",
        "name": "Greenwood High Pre-school"
      }
    },
    {
      "type": "way",
      "id": 1414577179,
      "center": {
        "lat": 12.9764027,
        "lon": 77.7467817
      },
      "tags": {
        "leisure": "garden"
      }
    },
    {
      "type": "way",
      "id": 1414639331,
      "center": {
        "lat": 12.9817445,
        "lon": 77.7376656
      },
      "tags": {
        "access": "permissive",
        "amenity": "parking",
        "parking": "surface"
      }
    },
    {
      "type": "way",
      "id": 1422500131,
      "center": {
        "lat": 12.9755221,
        "lon": 77.7284845
      },
      "tags": {
        "amenity": "toilets",
        "building": "toilets",
        "check_date": "2025-06-05"
      }
    },
    {
      "type": "way",
      "id": 1422500132,
      "center": {
        "lat": 12.9752423,
        "lon": 77.7284725
      },
      "tags": {
        "access": "private",
        "amenity": "parking"
      }
    },
    {
      "type": "way",
      "id": 1424969526,
      "center": {
        "lat": 12.9762864,
        "lon": 77.7310959
      },
      "tags": {
        "amenity": "fast_food",
        "building": "retail",
        "check_date": "2025-06-11",
        "cuisine": "sandwich;juice;coffee_shop;tea;salad;local",
        "diet:vegetarian": "yes",
        "drive_through": "no",
        "indoor_seating": "no",
        "internet_access": "no",
        "name": "Vindoos",
        "outdoor_seating": "yes",
        "street_vendor": "yes",
        "wheelchair": "no"
      }
    },
    {
      "type": "way",
      "id": 1427351731,
      "center": {
        "lat": 12.9857998,
        "lon": 77.7364021
      },
      "tags": {
        "leisure": "park"
      }
    },
    {
      "type": "way",
      "id": 1427496513,
      "center": {
        "lat": 12.977981,
        "lon": 77.7407835
      },
      "tags": {
        "access": "private",
        "leisure": "pitch",
        "sport": "tennis"
      }
    },
    {
      "type": "way",
      "id": 1427496514,
      "center": {
        "lat": 12.9780831,
        "lon": 77.7408102
      },
      "tags": {
        "access": "private",
        "leisure": "playground"
      }
    },
    {
      "type": "way",
      "id": 1427496533,
      "center": {
        "lat": 12.983525,
        "lon": 77.7439269
      },
      "tags": {
        "access": "private",
        "leisure": "playground"
      }
    },
    {
      "type": "way",
      "id": 1427496536,
      "center": {
        "lat": 12.9821702,
        "lon": 77.7395351
      },
      "tags": {
        "access": "private",
        "leisure": "swimming_pool"
      }
    },
    {
      "type": "way",
      "id": 1427501312,
      "center": {
        "lat": 12.9815357,
        "lon": 77.7423538
      },
      "tags": {
        "leisure": "pitch",
        "sport": "roller_skating"
      }
    },
    {
      "type": "way",
      "id": 1427501316,
      "center": {
        "lat": 12.9822218,
        "lon": 77.7404888
      },
      "tags": {
        "access": "private",
        "leisure": "pitch",
        "sport": "tennis"
      }
    },
    {
      "type": "way",
      "id": 1427501317,
      "center": {
        "lat": 12.9817633,
        "lon": 77.7403922
      },
      "tags": {
        "access": "private",
        "leisure": "pitch",
        "sport": "basketball"
      }
    },
    {
      "type": "way",
      "id": 1427501321,
      "center": {
        "lat": 12.9816576,
        "lon": 77.7414669
      },
      "tags": {
        "access": "private",
        "leisure": "swimming_pool"
      }
    },
    {
      "type": "way",
      "id": 1454051715,
      "center": {
        "lat": 12.9816253,
        "lon": 77.7569055
      },
      "tags": {
        "addr:city": "Whitefield, Bangalore",
        "addr:postcode": "560066",
        "addr:street": "Channasandra Main Road",
        "amenity": "school",
        "name": "Whitefield Global School"
      }
    }
  ]
}