{
  "area_name": "Sampige Nagara",
  "osm_id": 2989201781,
  "osm_type": "node",
  "place_type": "neighbourhood",
  "amenity_count": 79,
  "amenities": [
    {
      "type": "node",
      "id": 3840533862,
      "lat": 12.8352868,
      "lon": 77.6919362,
      "tags": {
        "name": "Geo Travels",
        "shop": "travel_agency"
      }
    },
    {
      "type": "node",
      "id": 4161597589,
      "lat": 12.8356336,
      "lon": 77.6914484,
      "tags": {
        "name": "Grand hypermarket",
        "shop": "supermarket"
      }
    },
    {
      "type": "node",
      "id": 4161597689,
      "lat": 12.8355682,
      "lon": 77.6916336,
      "tags": {
        "amenity": "bank",
        "brand": "Andhra Bank",
        "brand:wikidata": "Q2003476",
        "brand:wikipedia": "en:Andhra Bank",
        "name": "Andhra Bank",
        "name:en": "Andhra Bank",
        "name:kn": "ಆಂಧ್ರ ಬ್ಯಾಂಕ್",
        "website": "https://www.andhrabank.in"
      }
    },
    {
      "type": "node",
      "id": 4161597989,
      "lat": 12.8356189,
      "lon": 77.6915158,
      "tags": {
        "amenity": "pharmacy",
        "brand": "Apollo Pharmacy",
        "brand:wikidata": "Q62562612",
        "healthcare": "pharmacy",
        "name": "Apollo Pharmacy",
        "name:kn": "ಅಪೋಲೋ ಫಾರ್ಮಸಿ"
      }
    },
    {
      "type": "node",
      "id": 4445506814,
      "lat": 12.8354432,
      "lon": 77.6915884,
      "tags": {
        "amenity": "cafe",
        "name": "Sweet Revenge"
      }
    },
    {
      "type": "node",
      "id": 4445506815,
      "lat": 12.8354706,
      "lon": 77.6917063,
      "tags": {
        "addr:city": "bangalore",
        "addr:postcode": "560100",
        "addr:street": "Anantha Nagar Road",
        "amenity": "restaurant",
        "name": "Meat and Eat",
        "wheelchair": "no"
      }
    },
    {
      "type": "node",
      "id": 4445510861,
      "lat": 12.8352039,
      "lon": 77.6915346,
      "tags": {
        "addr:city": "bangalore",
        "addr:postcode": "560100",
        "name": "Dharwad Pedha",
        "shop": "bakery"
      }
    },
    {
      "type": "node",
      "id": 4488681889,
      "lat": 12.8378848,
      "lon": 77.6897153,
      "tags": {
        "amenity": "community_centre",
        "name": "ಶ್ರೀ ಸುಧೀಂದ್ರ ಸಭಾಂಗಣ",
        "name:en": "Sri Sudhindra Sabhangana",
        "name:kn": "ಶ್ರೀ ಸುಧೀಂದ್ರ ಸಭಾಂಗಣ"
      }
    },
    {
      "type": "node",
      "id": 4488681989,
      "lat": 12.8379513,
      "lon": 77.6897288,
      "tags": {
        "amenity": "place_of_worship",
        "name": "ಶ್ರೀ ಚಪ್ಪರ ವಿನಾಯಕ ದೇವರ ಗುಡಿ",
        "name:en": "Shri Chappara Vinaayaka Devara Gudi",
        "name:kn": "ಶ್ರೀ ಚಪ್ಪರ ವಿನಾಯಕ ದೇವರ ಗುಡಿ",
        "religion": "hindu"
      }
    },
    {
      "type": "node",
      "id": 4489903963,
      "lat": 12.835538,
      "lon": 77.6995432,
      "tags": {
        "addr:city": "bangalore",
        "addr:postcode": "560100\"",
        "addr:street": "\" 2nd Floor, CNR Complex, Sampige Nagar Road, Glass Factory Layout, Electronic City, Vaddara Palya, Karnataka 560100\"",
        "leisure": "sports_centre",
        "name": "Kalos Fitness Hub",
        "opening_hours": "5:00-22:00",
        "phone": "097416 94307",
        "sport": "gymnasium"
      }
    },
    {
      "type": "node",
      "id": 7572669022,
      "lat": 12.8349625,
      "lon": 77.6939561,
      "tags": {
        "addr:district": "Bengaluru Urban",
        "addr:full": "Kammasandra, Electronic City, Bengaluru",
        "addr:postcode": "560100",
        "addr:state": "Karnataka",
        "amenity": "dentist",
        "name": "Elite Canals Dental Clinic",
        "source": "Local Knowledge"
      }
    },
    {
      "type": "node",
      "id": 7572669037,
      "lat": 12.8350141,
      "lon": 77.6953077,
      "tags": {
        "addr:district": "Bengaluru Urban",
        "addr:full": "Kammasandra, Electronic City, Bengaluru",
        "addr:postcode": "560100",
        "addr:state": "Karnataka",
        "amenity": "hospital",
        "name": "JJ Hospitals",
        "source": "Local Knowledge"
      }
    },
    {
      "type": "node",
      "id": 7572669059,
      "lat": 12.8347876,
      "lon": 77.6950973,
      "tags": {
        "addr:district": "Bengaluru Urban",
        "addr:full": "Hosur Road, Electronic City, Bengaluru",
        "addr:postcode": "560100",
        "addr:state": "Karnataka",
        "amenity": "clinic",
        "name": "Yashaayu Multi Speciality Ayurveda and Panchakarma Centre",
        "source": "Local Knowledge"
      }
    },
    {
      "type": "node",
      "id": 11341069164,
      "lat": 12.8355771,
      "lon": 77.6908841,
      "tags": {
        "addr:postcode": "560100",
        "addr:street": "Ananth Nagar Road",
        "name": "Reliance Smart Point",
        "shop": "supermarket"
      }
    },
    {
      "type": "node",
      "id": 11341071583,
      "lat": 12.8358986,
      "lon": 77.6887744,
      "tags": {
        "addr:street": "14th cross, Ananth Nagar",
        "name": "Durga Electricals and Hardware",
        "shop": "hardware"
      }
    },
    {
      "type": "node",
      "id": 11341466752,
      "lat": 12.8354876,
      "lon": 77.6914121,
      "tags": {
        "addr:postcode": "560100",
        "addr:street": "Anantha Nagar Road",
        "brand": "Vishal Mega Mart",
        "brand:wikidata": "Q126895037",
        "name": "Vishal Mega Mart",
        "shop": "supermarket",
        "wheelchair": "yes"
      }
    },
    {
      "type": "node",
      "id": 11341468405,
      "lat": 12.8353468,
      "lon": 77.6922314,
      "tags": {
        "addr:postcode": "560100",
        "addr:street": "Anantha Nagar Road",
        "alt_name": "Kentucky Fried Chicken",
        "alt_name:en": "Kentucky Fried Chicken",
        "alt_name:hi": "केंटुकी फ्राइड चिकन",
        "alt_name:pa": "ਕੈਂਟੁਕੀ ਫ੍ਰਾਈਡ ਚਿਕਨ",
        "alt_name:pnb": "کینٹکی فرائیڈ چکن",
        "alt_name:ur": "کینٹکی فرائیڈ چکن",
        "amenity": "fast_food",
        "brand": "KFC",
        "brand:en": "KFC",
        "brand:hi": "केएफसी",
        "brand:pa": "ਕੇਐਫਸੀ",
        "brand:pnb": "کے ایف سی",
        "brand:ur": "کے ایف سی",
        "brand:wikidata": "Q524757",
        "cuisine": "chicken",
        "name": "KFC",
        "name:en": "KFC",
        "name:hi": "केएफसी",
        "name:pa": "ਕੇਐਫਸੀ",
        "name:pnb": "کے ایف سی",
        "name:ur": "کے ایف سی",
        "takeaway": "yes"
      }
    },
    {
      "type": "node",
      "id": 11341484903,
      "lat": 12.8354006,
      "lon": 77.6927405,
      "tags": {
        "addr:postcode": "560100",
        "addr:street": "Ananth Nagar",
        "brand": "Lenskart",
        "brand:wikidata": "Q17068753",
        "name": "Lenskart",
        "shop": "optician"
      }
    },
    {
      "type": "node",
      "id": 11341486342,
      "lat": 12.835383,
      "lon": 77.691914,
      "tags": {
        "addr:postcode": "560100",
        "addr:street": "Anantha Nagar Road",
        "name": "Hot Chips",
        "shop": "bakery",
        "wheelchair": "no"
      }
    },
    {
      "type": "node",
      "id": 11341491925,
      "lat": 12.8352231,
      "lon": 77.6930207,
      "tags": {
        "addr:postcode": "560100",
        "addr:street": "Anantha Nagar Road",
        "name": "Dry fruit Specials",
        "shop": "nuts"
      }
    },
    {
      "type": "node",
      "id": 11341496120,
      "lat": 12.8353564,
      "lon": 77.6928134,
      "tags": {
        "amenity": "bank",
        "brand": "ICICI Bank",
        "brand:wikidata": "Q1653258",
        "name": "ICICI Bank",
        "short_name": "ICICI"
      }
    },
    {
      "type": "node",
      "id": 11341496121,
      "lat": 12.8352482,
      "lon": 77.6938219,
      "tags": {
        "name": "Sangeetha Mobiles",
        "shop": "mobile_phone"
      }
    },
    {
      "type": "node",
      "id": 11341496848,
      "lat": 12.8353208,
      "lon": 77.6924032,
      "tags": {
        "name": "Magno footwares",
        "shop": "shoes",
        "wheelchair": "no"
      }
    },
    {
      "type": "node",
      "id": 11341498394,
      "lat": 12.8352586,
      "lon": 77.6936602,
      "tags": {
        "addr:postcode": "560100",
        "addr:street": "Anantha Nagar Road",
        "name": "Agarwal Sweets",
        "shop": "pastry"
      }
    },
    {
      "type": "node",
      "id": 11341513736,
      "lat": 12.8349944,
      "lon": 77.6911649,
      "tags": {
        "access": "private",
        "amenity": "parking",
        "fee": "no",
        "layer": "-1",
        "operator": "Mahendra Aarna Appartments",
        "operator:type": "private",
        "parking": "underground"
      }
    },
    {
      "type": "node",
      "id": 11341513737,
      "lat": 12.8352764,
      "lon": 77.6915487,
      "tags": {
        "amenity": "restaurant",
        "diet:vegetarian": "yes",
        "name": "Sri Matha Grand Veg"
      }
    },
    {
      "type": "node",
      "id": 11341513738,
      "lat": 12.8356629,
      "lon": 77.6913067,
      "tags": {
        "addr:postcode": "560100",
        "addr:street": "Anantha Nagar Road",
        "amenity": "bank",
        "name": "Indus Bank"
      }
    },
    {
      "type": "node",
      "id": 11341518793,
      "lat": 12.8352645,
      "lon": 77.6935833,
      "tags": {
        "addr:postcode": "560100",
        "addr:street": "Anantha Nagar Road",
        "brand": "More",
        "brand:wikidata": "Q6910891",
        "name": "More",
        "shop": "supermarket"
      }
    },
    {
      "type": "node",
      "id": 11341529464,
      "lat": 12.835523,
      "lon": 77.6916245,
      "tags": {
        "amenity": "atm",
        "name": "Union Bank ATM"
      }
    },
    {
      "type": "node",
      "id": 11341529869,
      "lat": 12.8353122,
      "lon": 77.693277,
      "tags": {
        "name": "Ratnadeep",
        "shop": "supermarket"
      }
    },
    {
      "type": "node",
      "id": 11342630242,
      "lat": 12.8350168,
      "lon": 77.6952595,
      "tags": {
        "amenity": "pharmacy",
        "brand": "MedPlus",
        "brand:wikidata": "Q65684234",
        "healthcare": "pharmacy",
        "name": "MedPlus"
      }
    },
    {
      "type": "node",
      "id": 11342636612,
      "lat": 12.8351099,
      "lon": 77.6947162,
      "tags": {
        "addr:street": "Anantha Nagar",
        "amenity": "bank",
        "brand": "Axis Bank",
        "brand:wikidata": "Q2003549",
        "name": "Axis Bank"
      }
    },
    {
      "type": "node",
      "id": 11342636613,
      "lat": 12.8349928,
      "lon": 77.695376,
      "tags": {
        "name": "APM Optics",
        "shop": "optician"
      }
    },
    {
      "type": "node",
      "id": 11342636614,
      "lat": 12.8351292,
      "lon": 77.6944783,
      "tags": {
        "addr:street": "Anantha Nagar Road",
        "amenity": "fast_food",
        "brand": "Domino's",
        "brand:wikidata": "Q839466",
        "cuisine": "pizza",
        "name": "Domino's",
        "takeaway": "yes"
      }
    },
    {
      "type": "node",
      "id": 11342650453,
      "lat": 12.8352461,
      "lon": 77.6939932,
      "tags": {
        "addr:street": "Anantha Nagar Road",
        "amenity": "restaurant",
        "name": "Spicy Revenge"
      }
    },
    {
      "type": "node",
      "id": 11342650965,
      "lat": 12.8352665,
      "lon": 77.6926479,
      "tags": {
        "name": "Tital Eye+",
        "shop": "optician",
        "wheelchair": "no"
      }
    },
    {
      "type": "node",
      "id": 11342657920,
      "lat": 12.8349707,
      "lon": 77.6936499,
      "tags": {
        "addr:street": "Anantha Nagar",
        "amenity": "fast_food",
        "food": "burger",
        "name": "Biggies Burger"
      }
    },
    {
      "type": "node",
      "id": 11342658515,
      "lat": 12.8355383,
      "lon": 77.692031,
      "tags": {
        "addr:street": "Anantha Nagar Road",
        "brand": "jockey",
        "name": "Jockey Store",
        "shop": "clothes"
      }
    },
    {
      "type": "node",
      "id": 11342660623,
      "lat": 12.835039,
      "lon": 77.69384,
      "tags": {
        "addr:street": "Anantha Nagar",
        "amenity": "pharmacy",
        "healthcare": "yes",
        "name": "Shree Ramdev Medicals"
      }
    },
    {
      "type": "node",
      "id": 11342666026,
      "lat": 12.8354154,
      "lon": 77.6917711,
      "tags": {
        "addr:street": "Anantha Nagar Road",
        "name": "Cell Palace",
        "shop": "mobile_phone",
        "wheelchair": "no"
      }
    },
    {
      "type": "node",
      "id": 11342669688,
      "lat": 12.8352798,
      "lon": 77.693619,
      "tags": {
        "addr:street": "Anantha Nagar Road",
        "beauty": "hair;spa",
        "brand": "Naturals",
        "brand:wikidata": "Q125728261",
        "name": "Naturals",
        "shop": "beauty"
      }
    },
    {
      "type": "node",
      "id": 11342672397,
      "lat": 12.8353022,
      "lon": 77.6925178,
      "tags": {
        "addr:street": "Anantha Nagar",
        "name": "Saraswati Stationery",
        "shop": "stationery",
        "wheelchair": "no"
      }
    },
    {
      "type": "node",
      "id": 11342688520,
      "lat": 12.8349187,
      "lon": 77.6948374,
      "tags": {
        "amenity": "food_court",
        "name": "Ambur Dhum Biriyani"
      }
    },
    {
      "type": "node",
      "id": 11342688521,
      "lat": 12.8351202,
      "lon": 77.6932858,
      "tags": {
        "addr:street": "Anantha Nagar",
        "name": "Mutton and Chicken Stall",
        "shop": "butcher"
      }
    },
    {
      "type": "node",
      "id": 11342710964,
      "lat": 12.8350455,
      "lon": 77.693987,
      "tags": {
        "amenity": "hospital",
        "name": "JJ Hospital"
      }
    },
    {
      "type": "node",
      "id": 11353312858,
      "lat": 12.835677,
      "lon": 77.690165,
      "tags": {
        "addr:postcode": "560100",
        "addr:street": "Anantha Nagar Road",
        "name": "Tasty Park",
        "shop": "bakery",
        "wheelchair": "no"
      }
    },
    {
      "type": "node",
      "id": 11353313338,
      "lat": 12.8357863,
      "lon": 77.6895118,
      "tags": {
        "addr:postcode": "560100",
        "addr:street": "Anantha Nagar Road",
        "amenity": "restaurant",
        "diet:vegetarian": "yes",
        "name": "Vaikunta pure veg",
        "wheelchair": "no"
      }
    },
    {
      "type": "node",
      "id": 11353321338,
      "lat": 12.835602,
      "lon": 77.6906797,
      "tags": {
        "addr:street": "Anantha Nagar Road",
        "amenity": "childcare",
        "name": "Play Preschool and Daycare"
      }
    },
    {
      "type": "node",
      "id": 11353325025,
      "lat": 12.835763,
      "lon": 77.6906896,
      "tags": {
        "addr:postcode": "560100",
        "addr:street": "Anantha Nagar Road",
        "amenity": "bank",
        "brand": "HDFC Bank",
        "brand:wikidata": "Q631047",
        "name": "HDFC Bank",
        "short_name": "HDFC"
      }
    },
    {
      "type": "node",
      "id": 11353331329,
      "lat": 12.8359024,
      "lon": 77.6898855,
      "tags": {
        "name": "Women's Choice",
        "shop": "clothes"
      }
    },
    {
      "type": "node",
      "id": 11355615419,
      "lat": 12.8357615,
      "lon": 77.6905702,
      "tags": {
        "name": "Health and Glow",
        "shop": "cosmetics"
      }
    },
    {
      "type": "node",
      "id": 11355621143,
      "lat": 12.8353335,
      "lon": 77.6923329,
      "tags": {
        "amenity": "cafe",
        "name": "Pro Teen Cafe",
        "wheelchair": "no"
      }
    },
    {
      "type": "node",
      "id": 11355621517,
      "lat": 12.8352368,
      "lon": 77.6938893,
      "tags": {
        "name": "Organic Mandya",
        "organic": "yes",
        "shop": "greengrocer"
      }
    },
    {
      "type": "node",
      "id": 11355628414,
      "lat": 12.8352064,
      "lon": 77.6931582,
      "tags": {
        "name": "Sri Gajanand Sweets",
        "shop": "bakery"
      }
    },
    {
      "type": "node",
      "id": 11355639096,
      "lat": 12.8352608,
      "lon": 77.6928248,
      "tags": {
        "name": "specs makers",
        "shop": "optician",
        "wheelchair": "no"
      }
    },
    {
      "type": "node",
      "id": 11355639807,
      "lat": 12.8355755,
      "lon": 77.6918112,
      "tags": {
        "name": "Green Trends",
        "shop": "beauty"
      }
    },
    {
      "type": "node",
      "id": 11355639808,
      "lat": 12.835656,
      "lon": 77.690311,
      "tags": {
        "name": "Kurl-on",
        "shop": "furniture",
        "wheelchair": "no"
      }
    },
    {
      "type": "node",
      "id": 11355639809,
      "lat": 12.8358533,
      "lon": 77.6891843,
      "tags": {
        "name": "Kalos Salon",
        "shop": "beauty"
      }
    },
    {
      "type": "node",
      "id": 11355652902,
      "lat": 12.8359102,
      "lon": 77.6898188,
      "tags": {
        "name": "Leo cars",
        "shop": "car_repair"
      }
    },
    {
      "type": "way",
      "id": 248214950,
      "center": {
        "lat": 12.8380237,
        "lon": 77.6895351
      },
      "tags": {
        "amenity": "place_of_worship",
        "building": "yes",
        "name": "Venkataramana Temple",
        "name:kn": "ವೆಂಕಟರಮನ ದೇವಸ್ಥಾನ",
        "religion": "hindu"
      }
    },
    {
      "type": "way",
      "id": 248215470,
      "center": {
        "lat": 12.8364355,
        "lon": 77.6881848
      },
      "tags": {
        "leisure": "park"
      }
    },
    {
      "type": "way",
      "id": 295214487,
      "center": {
        "lat": 12.8376184,
        "lon": 77.6904507
      },
      "tags": {
        "leisure": "park"
      }
    },
    {
      "type": "way",
      "id": 1088209018,
      "center": {
        "lat": 12.8442358,
        "lon": 77.7021253
      },
      "tags": {
        "amenity": "school"
      }
    },
    {
      "type": "way",
      "id": 1118851569,
      "center": {
        "lat": 12.8291032,
        "lon": 77.7026844
      },
      "tags": {
        "access": "private",
        "leisure": "swimming_pool"
      }
    },
    {
      "type": "way",
      "id": 1118865775,
      "center": {
        "lat": 12.8310484,
        "lon": 77.7034489
      },
      "tags": {
        "addr:city": "Andapura",
        "addr:district": "Bengaluru",
        "addr:postcode": "560099",
        "addr:street": "Hilalige Road",
        "building": "yes",
        "name": "MBT Hypermart",
        "name:ta": "MBT ஹைப்பர்மார்ட்",
        "phone": "+916366683696",
        "shop": "supermarket"
      }
    },
    {
      "type": "way",
      "id": 1285068977,
      "center": {
        "lat": 12.8338877,
        "lon": 77.7018501
      },
      "tags": {
        "amenity": "school"
      }
    },
    {
      "type": "way",
      "id": 1311435629,
      "center": {
        "lat": 12.8316599,
        "lon": 77.7046034
      },
      "tags": {
        "access": "customers",
        "addr:city": "Andapura",
        "addr:district": "Bengaluru",
        "addr:housenumber": "161/3",
        "addr:postcode": "560099",
        "addr:street": "Hilalige Road",
        "leisure": "pitch",
        "name": "Pace Sports Academy",
        "phone": "+91 8792510184",
        "sport": "soccer;tennis",
        "website": "https://www.pacesportsacademy.com"
      }
    },
    {
      "type": "way",
      "id": 1311435630,
      "center": {
        "lat": 12.8315405,
        "lon": 77.7043924
      },
      "tags": {
        "access": "private",
        "leisure": "pitch",
        "lit": "yes",
        "name": "Bengaluru Grasshoppers FC",
        "sport": "soccer",
        "surface": "artificial_turf"
      }
    },
    {
      "type": "way",
      "id": 1311435631,
      "center": {
        "lat": 12.8317737,
        "lon": 77.7045125
      },
      "tags": {
        "leisure": "pitch",
        "sport": "tennis"
      }
    },
    {
      "type": "way",
      "id": 1311435632,
      "center": {
        "lat": 12.8320576,
        "lon": 77.7046693
      },
      "tags": {
        "leisure": "pitch",
        "sport": "tennis"
      }
    },
    {
      "type": "way",
      "id": 1394919718,
      "center": {
        "lat": 12.8316441,
        "lon": 77.7035571
      },
      "tags": {
        "access": "customers",
        "amenity": "parking",
        "operator": "MBT Hypermart",
        "operator:type": "private",
        "parking": "surface",
        "surface": "concrete"
      }
    },
    {
      "type": "way",
      "id": 1394991831,
      "center": {
        "lat": 12.8381055,
        "lon": 77.6998677
      },
      "tags": {
        "access": "private",
        "leisure": "playground",
        "name": "Brookfield Playground",
        "operator": "Brookfield High School",
        "surface": "ground"
      }
    },
    {
      "type": "way",
      "id": 1394991832,
      "center": {
        "lat": 12.83802,
        "lon": 77.6996216
      },
      "tags": {
        "addr:city": "Gulimangala",
        "addr:district": "Bengaluru",
        "addr:postcode": "560100",
        "addr:street": "Singena Agrahara Road",
        "amenity": "school",
        "mobile": "9243606247",
        "name": "Brookfield High School",
        "opening_hours": "Mo-Fr 09:00-15:00",
        "website": "https://www.brookfieldhigh.com/"
      }
    },
    {
      "type": "way",
      "id": 1419688744,
      "center": {
        "lat": 12.8289618,
        "lon": 77.7044121
      },
      "tags": {
        "amenity": "monastery",
        "denomination": "catholic",
        "landuse": "education",
        "name": "Deepahalli",
        "religion": "christian"
      }
    },
    {
      "type": "way",
      "id": 1419688768,
      "center": {
        "lat": 12.8372978,
        "lon": 77.7031587
      },
      "tags": {
        "amenity": "school",
        "landuse": "education",
        "name": "IGNOU Regional Centre"
      }
    },
    {
      "type": "way",
      "id": 1419688769,
      "center": {
        "lat": 12.8386504,
        "lon": 77.7026617
      },
      "tags": {
        "leisure": "sports_centre"
      }
    },
    {
      "type": "way",
      "id": 1419688777,
      "center": {
        "lat": 12.8283475,
        "lon": 77.7024024
      },
      "tags": {
        "leisure": "resort",
        "name": "Gold Coins Club and Resort"
      }
    },
    {
      "type": "way",
      "id": 1419688782,
      "center": {
        "lat": 12.8300436,
        "lon": 77.7002126
      },
      "tags": {
        "access": "private",
        "leisure": "swimming_pool"
      }
    },
    {
      "type": "way",
      "id": 1419688790,
      "center": {
        "lat": 12.8291453,
        "lon": 77.7025354
      },
      "tags": {
        "leisure": "sports_centre"
      }
    }
  ]
}