{
  "area_name": "Sampigehalli",
  "osm_id": 2651559397,
  "osm_type": "node",
  "place_type": "neighbourhood",
  "amenity_count": 31,
  "amenities": [
    {
      "type": "node",
      "id": 6899539637,
      "lat": 13.0858426,
      "lon": 77.6132838,
      "tags": {
        "leisure": "playground"
      }
    },
    {
      "type": "node",
      "id": 6899539650,
      "lat": 13.0834599,
      "lon": 77.6094604,
      "tags": {
        "amenity": "toilets"
      }
    },
    {
      "type": "way",
      "id": 208957734,
      "center": {
        "lat": 13.0757557,
        "lon": 77.6185548
      },
      "tags": {
        "amenity": "place_of_worship",
        "name": "Anjaneya Temple",
        "name:kn": "ಆಂಜನೇಯ ದೇವಸ್ಥಾನ",
        "religion": "hindu"
      }
    },
    {
      "type": "way",
      "id": 386894596,
      "center": {
        "lat": 13.0772591,
        "lon": 77.6206246
      },
      "tags": {
        "leisure": "swimming_pool"
      }
    },
    {
      "type": "way",
      "id": 635497943,
      "center": {
        "lat": 13.0744999,
        "lon": 77.612131
      },
      "tags": {
        "leisure": "park"
      }
    },
    {
      "type": "way",
      "id": 635499292,
      "center": {
        "lat": 13.0764289,
        "lon": 77.6121499
      },
      "tags": {
        "leisure": "park"
      }
    },
    {
      "type": "way",
      "id": 635499839,
      "center": {
        "lat": 13.0757047,
        "lon": 77.612121
      },
      "tags": {
        "leisure": "park"
      }
    },
    {
      "type": "way",
      "id": 635500584,
      "center": {
        "lat": 13.0769154,
        "lon": 77.6103081
      },
      "tags": {
        "leisure": "park"
      }
    },
    {
      "type": "way",
      "id": 736945755,
      "center": {
        "lat": 13.084147,
        "lon": 77.609461
      },
      "tags": {
        "leisure": "garden"
      }
    },
    {
      "type": "way",
      "id": 1086438029,
      "center": {
        "lat": 13.0767034,
        "lon": 77.6267551
      },
      "tags": {
        "amenity": "college",
        "name": "Police Training School"
      }
    },
    {
      "type": "way",
      "id": 1182672439,
      "center": {
        "lat": 13.0736784,
        "lon": 77.6214731
      },
      "tags": {
        "leisure": "sports_centre",
        "name": "Sathanur Tennis Arena",
        "sport": "tennis"
      }
    },
    {
      "type": "way",
      "id": 1182672447,
      "center": {
        "lat": 13.0823075,
        "lon": 77.6193162
      },
      "tags": {
        "amenity": "school",
        "name": "Orchids The International School, Jakkur",
        "website": "https://www.orchidsinternationalschool.com/bangalore-branches/jakkur"
      }
    },
    {
      "type": "way",
      "id": 1182672476,
      "center": {
        "lat": 13.0816164,
        "lon": 77.6209262
      },
      "tags": {
        "amenity": "school",
        "name": "Greenfield Public School"
      }
    },
    {
      "type": "way",
      "id": 1182672478,
      "center": {
        "lat": 13.0818361,
        "lon": 77.6153565
      },
      "tags": {
        "amenity": "school",
        "name": "NAFL Jakkur",
        "website": "https://nafljakkur.in/"
      }
    },
    {
      "type": "way",
      "id": 1186887016,
      "center": {
        "lat": 13.0741963,
        "lon": 77.6224246
      },
      "tags": {
        "amenity": "school",
        "name": "National Public School, Jakkur",
        "name:kn": "ರಾಷ್ಟ್ರೀಯ ಸಾರ್ವಜನಿಕ ಶಾಲೆ ಜಕ್ಕೂರು",
        "website": "https://www.npsjkr.com/"
      }
    },
    {
      "type": "way",
      "id": 1191446949,
      "center": {
        "lat": 13.0765567,
        "lon": 77.6227992
      },
      "tags": {
        "leisure": "sports_centre",
        "name": "Dr. Shivaram Karanth Nagar Club"
      }
    },
    {
      "type": "way",
      "id": 1208006782,
      "center": {
        "lat": 13.0856819,
        "lon": 77.6187958
      },
      "tags": {
        "access": "customers",
        "amenity": "parking",
        "parking": "surface"
      }
    },
    {
      "type": "way",
      "id": 1208006783,
      "center": {
        "lat": 13.0856166,
        "lon": 77.6170027
      },
      "tags": {
        "access": "customers",
        "amenity": "parking",
        "parking": "surface"
      }
    },
    {
      "type": "way",
      "id": 1252744303,
      "center": {
        "lat": 13.0793666,
        "lon": 77.627173
      },
      "tags": {
        "leisure": "pitch",
        "sport": "tennis"
      }
    },
    {
      "type": "way",
      "id": 1279826189,
      "center": {
        "lat": 13.0860771,
        "lon": 77.6233844
      },
      "tags": {
        "access": "private",
        "leisure": "swimming_pool"
      }
    },
    {
      "type": "way",
      "id": 1279826192,
      "center": {
        "lat": 13.0864516,
        "lon": 77.6227356
      },
      "tags": {
        "leisure": "pitch",
        "sport": "basketball"
      }
    },
    {
      "type": "way",
      "id": 1279826193,
      "center": {
        "lat": 13.0866384,
        "lon": 77.6227071
      },
      "tags": {
        "leisure": "pitch",
        "sport": "tennis"
      }
    },
    {
      "type": "way",
      "id": 1284852011,
      "center": {
        "lat": 13.0893565,
        "lon": 77.6247771
      },
      "tags": {
        "leisure": "park"
      }
    },
    {
      "type": "way",
      "id": 1286464063,
      "center": {
        "lat": 13.0831255,
        "lon": 77.6092491
      },
      "tags": {
        "leisure": "pitch",
        "sport": "basketball"
      }
    },
    {
      "type": "way",
      "id": 1286464064,
      "center": {
        "lat": 13.0832729,
        "lon": 77.6091063
      },
      "tags": {
        "leisure": "park"
      }
    },
    {
      "type": "way",
      "id": 1347351999,
      "center": {
        "lat": 13.0880225,
        "lon": 77.6248235
      },
      "tags": {
        "amenity": "school",
        "name": "The Shri Ram Universal School"
      }
    },
    {
      "type": "way",
      "id": 1347352126,
      "center": {
        "lat": 13.0811704,
        "lon": 77.6213915
      },
      "tags": {
        "access": "private",
        "leisure": "swimming_pool"
      }
    },
    {
      "type": "way",
      "id": 1347352171,
      "center": {
        "lat": 13.0764679,
        "lon": 77.6226481
      },
      "tags": {
        "leisure": "pitch",
        "sport": "soccer"
      }
    },
    {
      "type": "way",
      "id": 1347352172,
      "center": {
        "lat": 13.0765119,
        "lon": 77.6229754
      },
      "tags": {
        "leisure": "pitch",
        "sport": "tennis"
      }
    },
    {
      "type": "way",
      "id": 1420211121,
      "center": {
        "lat": 13.0744156,
        "lon": 77.6221485
      },
      "tags": {
        "leisure": "pitch"
      }
    },
    {
      "type": "way",
      "id": 1420211122,
      "center": {
        "lat": 13.0743879,
        "lon": 77.6219742
      },
      "tags": {
        "leisure": "pitch"
      }
    }
  ]
}