{
  "area_name": "Sane Guruvana Halli",
  "osm_id": 19884590,
  "osm_type": "relation",
  "place_type": "administrative",
  "amenity_count": 13,
  "amenities": [
    {
      "type": "node",
      "id": 1116412178,
      "lat": 12.9916942,
      "lon": 77.5457901,
      "tags": {
        "amenity": "fuel",
        "brand": "Indian Oil",
        "brand:wikidata": "Q1289348",
        "brand:wikipedia": "en:Indian Oil Corporation",
        "name": "Indian Oil",
        "name:kn": "ಇಂಡಿಯನ್ ಆಯಿಲ್"
      }
    },
    {
      "type": "node",
      "id": 2293237354,
      "lat": 12.9919502,
      "lon": 77.5457767,
      "tags": {
        "shop": "alcohol"
      }
    },
    {
      "type": "node",
      "id": 4445878633,
      "lat": 12.9881757,
      "lon": 77.5413711,
      "tags": {
        "addr:city": "Banglore",
        "addr:housenumber": "1",
        "addr:postcode": "560079",
        "addr:street": "Shamavana, 4th B Main, III Block, Basaveshwaranagar",
        "amenity": "school",
        "name": "Sri Vani Education Centre",
        "phone": "+9180 2323 8608",
        "website": "https://srivani.org/"
      }
    },
    {
      "type": "node",
      "id": 4477057219,
      "lat": 12.9920497,
      "lon": 77.5461018,
      "tags": {
        "name": "Karnataka Fish Stall",
        "shop": "seafood"
      }
    },
    {
      "type": "node",
      "id": 4477057220,
      "lat": 12.993015,
      "lon": 77.5459803,
      "tags": {
        "amenity": "bank",
        "brand": "Axis Bank",
        "brand:wikidata": "Q2003549",
        "brand:wikipedia": "en:Axis Bank",
        "name": "Axis Bank",
        "name:en": "Axis Bank",
        "name:kn": "ಆಕ್ಸಿಸ್ ಬ್ಯಾಂಕ್",
        "website": "https://www.axisbank.com"
      }
    },
    {
      "type": "node",
      "id": 11031908387,
      "lat": 12.9918503,
      "lon": 77.5437825,
      "tags": {
        "addr:city": "Basaveshwara Nagar, Bangalore",
        "addr:housenumber": "629",
        "addr:postcode": "560079",
        "addr:street": "8th B Main Road, 3rd Stage, 2nd Block, Basaveshwaranagara",
        "amenity": "hospital",
        "healthcare": "hospital",
        "healthcare:speciality": "gynaecology;orthodontics;dentist;vaccination;plastic_surgery",
        "name": "Janani Clinics",
        "operator": "Dr. V. Jeevan Prakash",
        "operator:type": "private",
        "phone": "9036817877"
      }
    },
    {
      "type": "way",
      "id": 42434168,
      "center": {
        "lat": 12.9913616,
        "lon": 77.5442738
      },
      "tags": {
        "leisure": "park",
        "name": "Netaji Subash Chandra Bose Park",
        "name:etymology:wikidata": "Q2153"
      }
    },
    {
      "type": "way",
      "id": 220192627,
      "center": {
        "lat": 12.9916419,
        "lon": 77.5427457
      },
      "tags": {
        "amenity": "place_of_worship",
        "name": "Ganesh Temple",
        "name:kn": "ಗಣೇಶ ದೇವಸ್ಥಾನ",
        "religion": "hindu"
      }
    },
    {
      "type": "way",
      "id": 405095229,
      "center": {
        "lat": 12.9879381,
        "lon": 77.5419973
      },
      "tags": {
        "leisure": "pitch"
      }
    },
    {
      "type": "way",
      "id": 851795159,
      "center": {
        "lat": 12.9880639,
        "lon": 77.5414201
      },
      "tags": {
        "addr:city": "Banglore",
        "addr:housenumber": "1",
        "addr:postcode": "560079",
        "addr:street": "Shamavana, 4th B Main, III Block, Basaveshwaranagar",
        "amenity": "school",
        "email": "bsnr@srivani.org",
        "name": "Sri Vani Education Centre",
        "phone": "+91 80 2323 8608",
        "school:gender": "mixed",
        "website": "https://srivani.edu.in/shamavana/"
      }
    },
    {
      "type": "way",
      "id": 851795162,
      "center": {
        "lat": 12.9878783,
        "lon": 77.5419686
      },
      "tags": {
        "addr:city": "Bengaluru",
        "addr:postcode": "560079",
        "addr:street": "3rd Cross",
        "amenity": "school",
        "email": "naflblr@gmail.com",
        "name": "National Academy for Learning",
        "phone": "+91-80-23239281",
        "phone_1": "+91-80-23231567",
        "wikidata": "Q6970108"
      }
    },
    {
      "type": "way",
      "id": 1069253451,
      "center": {
        "lat": 12.9886281,
        "lon": 77.5443632
      },
      "tags": {
        "amenity": "school",
        "name": "Carmel High School",
        "name:kn": "ಕಾರ್ಮೆಲ್ ಪ್ರೌಡಶಾಲೆ",
        "wheelchair": "limited"
      }
    },
    {
      "type": "way",
      "id": 1092672116,
      "center": {
        "lat": 12.9905596,
        "lon": 77.5438262
      },
      "tags": {
        "leisure": "park",
        "name": "Netaji Subash Chandra Bose Ground",
        "name:etymology:wikidata": "Q2153"
      }
    }
  ]
}