{
  "area_name": "Sangama Ward",
  "osm_id": 19883463,
  "osm_type": "relation",
  "place_type": "administrative",
  "amenity_count": 67,
  "amenities": [
    {
      "type": "node",
      "id": 986744081,
      "lat": 12.981538,
      "lon": 77.680174,
      "tags": {
        "addr:street": "Kaggadasspura Main Road",
        "amenity": "bank",
        "atm": "yes",
        "brand": "State Bank of India",
        "brand:wikidata": "Q1340361",
        "brand:wikipedia": "en:State Bank of India",
        "name": "State Bank of India",
        "name:kn": "ಭಾರತೀಯ ಸ್ಟೇಟ್ ಬ್ಯಾಂಕ್",
        "operator": "State Bank of India",
        "short_name": "SBI"
      }
    },
    {
      "type": "node",
      "id": 1584654586,
      "lat": 12.9545685,
      "lon": 77.680605,
      "tags": {
        "amenity": "parking",
        "wheelchair": "limited"
      }
    },
    {
      "type": "node",
      "id": 1584654660,
      "lat": 12.9548506,
      "lon": 77.6807484,
      "tags": {
        "amenity": "fountain"
      }
    },
    {
      "type": "node",
      "id": 3428235500,
      "lat": 12.9619762,
      "lon": 77.6816641,
      "tags": {
        "access": "yes",
        "amenity": "toilets",
        "fee": "yes",
        "name": "eToilet",
        "toilets:disposal": "pitlatrine",
        "unisex": "yes"
      }
    },
    {
      "type": "node",
      "id": 3655587612,
      "lat": 12.9785172,
      "lon": 77.6795909,
      "tags": {
        "amenity": "bank",
        "atm": "yes",
        "brand": "State Bank of India",
        "brand:wikidata": "Q1340361",
        "brand:wikipedia": "en:State Bank of India",
        "drive_through": "yes",
        "name": "State Bank of India",
        "name:kn": "ಭಾರತೀಯ ಸ್ಟೇಟ್ ಬ್ಯಾಂಕ್",
        "short_name": "SBI",
        "wheelchair": "no"
      }
    },
    {
      "type": "node",
      "id": 4163020089,
      "lat": 12.9830395,
      "lon": 77.6805944,
      "tags": {
        "addr:street": "Kaggadasspura Main Road",
        "amenity": "clinic",
        "name": "Smile Dental Clinic"
      }
    },
    {
      "type": "node",
      "id": 4227025142,
      "lat": 12.9791313,
      "lon": 77.6796562,
      "tags": {
        "addr:postcode": "560093",
        "amenity": "bank",
        "brand": "Karnataka Bank",
        "brand:wikidata": "Q2042632",
        "name": "Karnataka Bank",
        "name:kn": "ಕರ್ನಾಟಕ ಬ್ಯಾಂಕ್",
        "opening_hours": "24/7",
        "wheelchair": "no"
      }
    },
    {
      "type": "node",
      "id": 4250298694,
      "lat": 12.9794006,
      "lon": 77.6803999,
      "tags": {
        "amenity": "doctors",
        "name": "Toothzone Dental Studio"
      }
    },
    {
      "type": "node",
      "id": 4488313681,
      "lat": 12.9672408,
      "lon": 77.6827922,
      "tags": {
        "addr:city": "Bangalore",
        "addr:housenumber": "166",
        "addr:postcode": "560037",
        "addr:street": "3rd Cross Road Rajanna Colony, Marathahalli",
        "name": "Value Bazaar",
        "opening_hours": "08:00-22:00",
        "phone": "(91)-80-41615329",
        "shop": "supermarket",
        "wheelchair": "no"
      }
    },
    {
      "type": "node",
      "id": 4489734178,
      "lat": 12.9782924,
      "lon": 77.6815156,
      "tags": {
        "addr:city": "Bangalore",
        "addr:housenumber": "7",
        "addr:postcode": "560037",
        "addr:street": "6A Cross Road, Ramaswamy Palya, Vignana Nagar",
        "leisure": "sports_centre",
        "name": "Anson Sports",
        "phone": "098729 93957",
        "website": "https://www.ansonsports.com/"
      }
    },
    {
      "type": "node",
      "id": 4489804407,
      "lat": 12.9831187,
      "lon": 77.6804448,
      "tags": {
        "addr:city": "Bengaluru,",
        "addr:housenumber": "No. 211",
        "addr:postcode": "560093",
        "addr:street": ", Kushal's Corner, 2nd floor, Kaggadasapura Main Road, Ram Nagar post, Abbaiah Reddy Layout, Kaggadasapura, Karnataka",
        "leisure": "sports_centre",
        "name": "Sutra Fitness",
        "opening_hours": "6:00-20:00",
        "phone": "072593 00400",
        "sport": "gymnasium"
      }
    },
    {
      "type": "node",
      "id": 4595863991,
      "lat": 12.9817362,
      "lon": 77.6801865,
      "tags": {
        "name": "Amar hardware",
        "name:en": "Amar hardware",
        "shop": "hardware"
      }
    },
    {
      "type": "node",
      "id": 4691723393,
      "lat": 12.9831524,
      "lon": 77.6803756,
      "tags": {
        "name": "Bhagas",
        "name:en": "Bhagas",
        "shop": "wine"
      }
    },
    {
      "type": "node",
      "id": 4691723493,
      "lat": 12.9832075,
      "lon": 77.6802595,
      "tags": {
        "amenity": "atm",
        "brand": "Karur Vysya Bank",
        "brand:wikidata": "Q6373724",
        "operator": "Karur Vysya Bank",
        "operator:wikidata": "Q6373724"
      }
    },
    {
      "type": "node",
      "id": 5296886722,
      "lat": 12.9557759,
      "lon": 77.6881147,
      "tags": {
        "amenity": "community_centre",
        "name": "Hal"
      }
    },
    {
      "type": "node",
      "id": 6095249002,
      "lat": 12.9793569,
      "lon": 77.6803249,
      "tags": {
        "name": "Iyengar Bakery and Sweets",
        "shop": "bakery"
      }
    },
    {
      "type": "node",
      "id": 6771722377,
      "lat": 12.9748177,
      "lon": 77.6831756,
      "tags": {
        "shop": "laundry"
      }
    },
    {
      "type": "node",
      "id": 6944143695,
      "lat": 12.9825937,
      "lon": 77.6814736,
      "tags": {
        "addr:district": "Bengaluru Urban",
        "addr:full": "21st Cross Kaggadasapura Main Road C V Raman Nagar",
        "addr:postcode": "560093",
        "addr:state": "Karnataka",
        "amenity": "hospital",
        "name": "Sree Lakshmi Hospital",
        "source": "OpenGovernmentData"
      }
    },
    {
      "type": "node",
      "id": 7140608249,
      "lat": 12.9694812,
      "lon": 77.6825981,
      "tags": {
        "air_conditioning": "yes",
        "amenity": "fast_food",
        "brand": "Domino's",
        "brand:ks": "ڈومینوز",
        "brand:pa": "ਡੋਮੀਨੋਜ਼",
        "brand:ur": "ڈومینوز",
        "brand:wikidata": "Q839466",
        "brand:wikipedia": "en:Domino's Pizza",
        "cuisine": "pizza",
        "diet:vegetarian": "yes",
        "indoor_seating": "yes",
        "name": "Domino's",
        "name:ks": "ڈومینوز",
        "name:pa": "ਡੋਮੀਨੋਜ਼",
        "name:ur": "ڈومینوز",
        "opening_hours": "Mo-Su 11:00-23:00",
        "outdoor_seating": "no",
        "smoking": "no",
        "takeaway": "yes",
        "wheelchair": "no"
      }
    },
    {
      "type": "node",
      "id": 7147351707,
      "lat": 12.9694309,
      "lon": 77.6829853,
      "tags": {
        "amenity": "pharmacy",
        "healthcare": "pharmacy",
        "name": "Aster Pharmacy"
      }
    },
    {
      "type": "node",
      "id": 7147351708,
      "lat": 12.9694407,
      "lon": 77.6829323,
      "tags": {
        "name": "Frozen Bottle",
        "shop": "beverages"
      }
    },
    {
      "type": "node",
      "id": 7147351709,
      "lat": 12.9694446,
      "lon": 77.6828532,
      "tags": {
        "amenity": "ice_cream",
        "brand": "Baskin-Robbins",
        "brand:wikidata": "Q584601",
        "brand:wikipedia": "en:Baskin-Robbins",
        "cuisine": "ice_cream",
        "name": "Baskin-Robbins"
      }
    },
    {
      "type": "node",
      "id": 7147351710,
      "lat": 12.969455,
      "lon": 77.6827513,
      "tags": {
        "amenity": "cafe",
        "brand": "Chai Point",
        "brand:wikidata": "Q28173415",
        "cuisine": "coffee_shop",
        "name": "Chai Point",
        "takeaway": "yes"
      }
    },
    {
      "type": "node",
      "id": 7572131814,
      "lat": 12.9807257,
      "lon": 77.6823734,
      "tags": {
        "addr:district": "Bengaluru Urban",
        "addr:full": "Nagappareddy Layout, Kaggadasapura, Bengaluru",
        "addr:postcode": "560093",
        "addr:state": "Karnataka",
        "amenity": "hospital",
        "name": "Little Flower Hospital",
        "source": "Local Knowledge"
      }
    },
    {
      "type": "node",
      "id": 7572131891,
      "lat": 12.9807085,
      "lon": 77.680126,
      "tags": {
        "addr:district": "Bengaluru Urban",
        "addr:full": "Kaggadasapura, 27th Cross Road, C V Raman Nagar, Bengaluru",
        "addr:postcode": "560093",
        "addr:state": "Karnataka",
        "amenity": "clinic",
        "name": "Dr. Pranjali Srivastava's Clinic",
        "source": "Local Knowledge",
        "wheelchair": "no"
      }
    },
    {
      "type": "node",
      "id": 7572131913,
      "lat": 12.9807404,
      "lon": 77.680094,
      "tags": {
        "addr:district": "Bengaluru Urban",
        "addr:full": "Thimma Reddy Lane, Kaggadasapura Main Road, Layout, Bengaluru",
        "addr:postcode": "560093",
        "addr:state": "Karnataka",
        "amenity": "clinic",
        "name": "Grihi's Diabetes Centre",
        "source": "Local Knowledge"
      }
    },
    {
      "type": "node",
      "id": 8188018394,
      "lat": 12.9831754,
      "lon": 77.6803283,
      "tags": {
        "addr:full": "Abbaiah Reddy Layout, Kaggadasapura, Bengaluru, Karnataka",
        "addr:state": "Karnataka",
        "amenity": "dentist",
        "name": "Smiles Dental Care ECHS Clinic"
      }
    },
    {
      "type": "node",
      "id": 8356150082,
      "lat": 12.9583738,
      "lon": 77.6884769,
      "tags": {
        "access": "private",
        "leisure": "playground",
        "name": "Children play area",
        "playground:theme": "playground",
        "surface": "gravel"
      }
    },
    {
      "type": "node",
      "id": 8356200026,
      "lat": 12.9604907,
      "lon": 77.6878991,
      "tags": {
        "blind": "limited",
        "fitness_station": "yes",
        "leisure": "fitness_station",
        "name": "Green Gym Park",
        "sport": "fitness",
        "wheelchair": "limited"
      }
    },
    {
      "type": "node",
      "id": 10741174381,
      "lat": 12.9694379,
      "lon": 77.6830508,
      "tags": {
        "name": "Hazael Brownies",
        "shop": "bakery"
      }
    },
    {
      "type": "node",
      "id": 10741197688,
      "lat": 12.9694276,
      "lon": 77.683007,
      "tags": {
        "amenity": "restaurant",
        "cuisine": "indian",
        "name": "Chupa Rustam"
      }
    },
    {
      "type": "node",
      "id": 11697908101,
      "lat": 12.9594511,
      "lon": 77.6860938,
      "tags": {
        "amenity": "bank"
      }
    },
    {
      "type": "node",
      "id": 11697908106,
      "lat": 12.95897,
      "lon": 77.6847734,
      "tags": {
        "amenity": "bank",
        "brand": "State Bank of India",
        "brand:wikidata": "Q1340361",
        "name": "State Bank of India",
        "short_name": "SBI"
      }
    },
    {
      "type": "node",
      "id": 12165307692,
      "lat": 12.9797469,
      "lon": 77.6808891,
      "tags": {
        "check_date": "2024-09-07",
        "name": "Thatha Tea",
        "shop": "tea"
      }
    },
    {
      "type": "way",
      "id": 144989749,
      "center": {
        "lat": 12.9548549,
        "lon": 77.6807533
      },
      "tags": {
        "leisure": "garden"
      }
    },
    {
      "type": "way",
      "id": 323849003,
      "center": {
        "lat": 12.9550696,
        "lon": 77.6817647
      },
      "tags": {
        "addr:city": "Bengaluru",
        "addr:postcode": "560037",
        "addr:street": "HAL GB Quaters, Marathahalli",
        "amenity": "conference_centre",
        "building": "yes",
        "name": "HAL Convention Center"
      }
    },
    {
      "type": "way",
      "id": 330181554,
      "center": {
        "lat": 12.9628719,
        "lon": 77.6820609
      },
      "tags": {
        "access": "private",
        "amenity": "parking",
        "capacity": "50",
        "parking": "surface"
      }
    },
    {
      "type": "way",
      "id": 333234155,
      "center": {
        "lat": 12.9633694,
        "lon": 77.6824498
      },
      "tags": {
        "leisure": "garden"
      }
    },
    {
      "type": "way",
      "id": 333234447,
      "center": {
        "lat": 12.9631648,
        "lon": 77.6826894
      },
      "tags": {
        "leisure": "garden"
      }
    },
    {
      "type": "way",
      "id": 333234676,
      "center": {
        "lat": 12.9626031,
        "lon": 77.6827368
      },
      "tags": {
        "leisure": "garden"
      }
    },
    {
      "type": "way",
      "id": 333234792,
      "center": {
        "lat": 12.9629258,
        "lon": 77.6830266
      },
      "tags": {
        "leisure": "garden"
      }
    },
    {
      "type": "way",
      "id": 333234961,
      "center": {
        "lat": 12.9628621,
        "lon": 77.6824424
      },
      "tags": {
        "leisure": "garden"
      }
    },
    {
      "type": "way",
      "id": 333542158,
      "center": {
        "lat": 12.9625919,
        "lon": 77.6824705
      },
      "tags": {
        "leisure": "garden"
      }
    },
    {
      "type": "way",
      "id": 333975847,
      "center": {
        "lat": 12.9622927,
        "lon": 77.6826767
      },
      "tags": {
        "leisure": "garden"
      }
    },
    {
      "type": "way",
      "id": 333975952,
      "center": {
        "lat": 12.9628485,
        "lon": 77.6822466
      },
      "tags": {
        "leisure": "garden"
      }
    },
    {
      "type": "way",
      "id": 346857854,
      "center": {
        "lat": 12.955069,
        "lon": 77.6828084
      },
      "tags": {
        "amenity": "police",
        "building": "yes",
        "name": "HAL Police Station",
        "operator": "Bangalore City Police",
        "wikidata": "Q4855039",
        "wikipedia": "en:Bangalore City Police"
      }
    },
    {
      "type": "way",
      "id": 347017336,
      "center": {
        "lat": 12.9740919,
        "lon": 77.6840408
      },
      "tags": {
        "amenity": "school",
        "landuse": "education",
        "name": "Shri Shri Ravishankar Vidya Mandir"
      }
    },
    {
      "type": "way",
      "id": 347017466,
      "center": {
        "lat": 12.9712543,
        "lon": 77.6820908
      },
      "tags": {
        "amenity": "fuel",
        "brand": "Shell",
        "brand:wikidata": "Q110716465",
        "brand:wikipedia": "en:Royal Dutch Shell",
        "compressed_air": "yes",
        "fuel:diesel": "yes",
        "fuel:unleaded": "yes",
        "name": "Shell",
        "name:kn": "ಶೆಲ್",
        "opening_hours": "24/7",
        "wheelchair": "yes"
      }
    },
    {
      "type": "way",
      "id": 351034870,
      "center": {
        "lat": 12.9608782,
        "lon": 77.682226
      },
      "tags": {
        "addr:street": "GM Palya Main Road",
        "amenity": "place_of_worship",
        "building": "mosque",
        "religion": "muslim"
      }
    },
    {
      "type": "way",
      "id": 362927674,
      "center": {
        "lat": 12.9760106,
        "lon": 77.6840346
      },
      "tags": {
        "leisure": "park",
        "name": "Virla Children's Park"
      }
    },
    {
      "type": "way",
      "id": 799452941,
      "center": {
        "lat": 12.9712431,
        "lon": 77.6822495
      },
      "tags": {
        "brand": "Shell Select",
        "brand:wikidata": "Q124359752",
        "brand:wikipedia": "en:Royal Dutch Shell",
        "building": "yes",
        "name": "Shell Select",
        "opening_hours": "24/7",
        "shop": "convenience"
      }
    },
    {
      "type": "way",
      "id": 815851380,
      "center": {
        "lat": 12.9559165,
        "lon": 77.6882298
      },
      "tags": {
        "amenity": "post_office",
        "building": "yes",
        "name": "Marathahalli Colony Post Office",
        "operator": "India Post",
        "operator:wikidata": "Q3519720"
      }
    },
    {
      "type": "way",
      "id": 1147357395,
      "center": {
        "lat": 12.954711,
        "lon": 77.6802621
      },
      "tags": {
        "leisure": "garden"
      }
    },
    {
      "type": "way",
      "id": 1225130420,
      "center": {
        "lat": 12.9736427,
        "lon": 77.6859585
      },
      "tags": {
        "access": "private",
        "leisure": "swimming_pool"
      }
    },
    {
      "type": "way",
      "id": 1225132353,
      "center": {
        "lat": 12.9794972,
        "lon": 77.6829234
      },
      "tags": {
        "amenity": "crematorium",
        "landuse": "cemetery"
      }
    },
    {
      "type": "way",
      "id": 1254925111,
      "center": {
        "lat": 12.9613936,
        "lon": 77.6854252
      },
      "tags": {
        "access": "private",
        "amenity": "parking"
      }
    },
    {
      "type": "way",
      "id": 1254925113,
      "center": {
        "lat": 12.9612334,
        "lon": 77.6845554
      },
      "tags": {
        "access": "private",
        "amenity": "parking",
        "parking": "street_side"
      }
    },
    {
      "type": "way",
      "id": 1274050061,
      "center": {
        "lat": 12.9583561,
        "lon": 77.6848331
      },
      "tags": {
        "leisure": "park",
        "name": "HAL Park"
      }
    },
    {
      "type": "way",
      "id": 1319396469,
      "center": {
        "lat": 12.9782314,
        "lon": 77.6795336
      },
      "tags": {
        "amenity": "fuel",
        "brand": "Hindustan Petroleum",
        "brand:wikidata": "Q1619375",
        "compressed_air": "yes",
        "name": "HP Petrol Bunk",
        "name:kn": "ಹಿಂದುಸ್ತಾನ್ ಪೆಟ್ರೋಲಿಯಂ",
        "official_name": "Hindustan Petroleum",
        "operator": "HP",
        "wheelchair": "limited"
      }
    },
    {
      "type": "way",
      "id": 1337428794,
      "center": {
        "lat": 12.9679993,
        "lon": 77.6847255
      },
      "tags": {
        "access": "private",
        "leisure": "swimming_pool"
      }
    },
    {
      "type": "way",
      "id": 1443878742,
      "center": {
        "lat": 12.9738858,
        "lon": 77.6855381
      },
      "tags": {
        "access": "private",
        "leisure": "pitch",
        "sport": "basketball"
      }
    },
    {
      "type": "way",
      "id": 1443878743,
      "center": {
        "lat": 12.97347,
        "lon": 77.6861977
      },
      "tags": {
        "leisure": "playground"
      }
    },
    {
      "type": "way",
      "id": 1443878744,
      "center": {
        "lat": 12.9734058,
        "lon": 77.6863724
      },
      "tags": {
        "access": "private",
        "leisure": "pitch",
        "sport": "basketball"
      }
    },
    {
      "type": "way",
      "id": 1443942873,
      "center": {
        "lat": 12.970701,
        "lon": 77.682283
      },
      "tags": {
        "amenity": "school",
        "name": "Sri Chaitanya Future Pathways Global School"
      }
    },
    {
      "type": "way",
      "id": 1443942969,
      "center": {
        "lat": 12.9777444,
        "lon": 77.6812117
      },
      "tags": {
        "leisure": "pitch"
      }
    },
    {
      "type": "way",
      "id": 1443942970,
      "center": {
        "lat": 12.9777363,
        "lon": 77.6813317
      },
      "tags": {
        "access": "private",
        "leisure": "swimming_pool"
      }
    },
    {
      "type": "way",
      "id": 1444447489,
      "center": {
        "lat": 12.9778841,
        "lon": 77.6849608
      },
      "tags": {
        "leisure": "playground"
      }
    }
  ]
}