{
  "area_name": "Sarovara Layout",
  "osm_id": 12994644712,
  "osm_type": "node",
  "place_type": "neighbourhood",
  "amenity_count": 81,
  "amenities": [
    {
      "type": "node",
      "id": 374217348,
      "lat": 13.0476857,
      "lon": 77.5742994,
      "tags": {
        "name": "Big Bazaar",
        "name:kn": "ಬಿಗ್ ಬಜಾರ್",
        "shop": "supermarket",
        "wheelchair": "limited"
      }
    },
    {
      "type": "node",
      "id": 2108921936,
      "lat": 13.0581249,
      "lon": 77.5877178,
      "tags": {
        "brand": "More",
        "brand:wikidata": "Q6910891",
        "name": "More",
        "name:kn": "ಮೋರ್",
        "shop": "supermarket"
      }
    },
    {
      "type": "node",
      "id": 2108922891,
      "lat": 13.0580068,
      "lon": 77.588161,
      "tags": {
        "amenity": "pharmacy",
        "name": "Mediplus Medical Store"
      }
    },
    {
      "type": "node",
      "id": 2112118336,
      "lat": 13.0551956,
      "lon": 77.5744949,
      "tags": {
        "amenity": "bench"
      }
    },
    {
      "type": "node",
      "id": 2112118405,
      "lat": 13.0552844,
      "lon": 77.574173,
      "tags": {
        "amenity": "toilets"
      }
    },
    {
      "type": "node",
      "id": 2112143168,
      "lat": 13.0543647,
      "lon": 77.5729124,
      "tags": {
        "shop": "hairdresser"
      }
    },
    {
      "type": "node",
      "id": 2340693275,
      "lat": 13.0598353,
      "lon": 77.5776438,
      "tags": {
        "amenity": "bar",
        "name": "Naidu Bar and Restaurant"
      }
    },
    {
      "type": "node",
      "id": 2340693276,
      "lat": 13.0598058,
      "lon": 77.5767863,
      "tags": {
        "amenity": "place_of_worship",
        "name": "Sree Mahaganapathi Temple",
        "name:kn": "ಮಹಾಗಣಪತಿ ದೇವಸ್ಥಾನ",
        "religion": "hindu",
        "wheelchair": "no"
      }
    },
    {
      "type": "node",
      "id": 2340693277,
      "lat": 13.0600947,
      "lon": 77.5766579,
      "tags": {
        "amenity": "bar",
        "name": "Ranganatha Bar and Restaurant",
        "name:kn": "ರಂಗನಾಥ"
      }
    },
    {
      "type": "node",
      "id": 4197977501,
      "lat": 13.0591909,
      "lon": 77.5875414,
      "tags": {
        "addr:city": "Bangalore",
        "addr:postcode": "560092",
        "amenity": "restaurant",
        "cuisine": "regional",
        "name": "Hyderabad Biryani",
        "name:kn": "ಹೈದರಾಬಾದ್ ಬಿರಿಯಾನಿ",
        "outdoor_seating": "no"
      }
    },
    {
      "type": "node",
      "id": 4197977502,
      "lat": 13.0589975,
      "lon": 77.5875951,
      "tags": {
        "amenity": "restaurant",
        "diet:vegetarian": "yes",
        "name": "Adigas",
        "name:kn": "ಅಡಿಗಾಸ್"
      }
    },
    {
      "type": "node",
      "id": 4679825893,
      "lat": 13.044455,
      "lon": 77.5801705,
      "tags": {
        "addr:city": "Bhoopasandra",
        "addr:country": "IN",
        "addr:housenumber": "2",
        "addr:postcode": "560094",
        "addr:street": "Cross Road",
        "addr:suburb": "Vinayaka Layout",
        "amenity": "college",
        "contact:email": "info@brindavancollege.com",
        "contact:fax": "+91-80-2341 7832",
        "contact:phone": "+91-80-4331 7777",
        "contact:website": "brindavancollege.com",
        "name": "Brindavan College",
        "name:en": "Brindavan College",
        "name:fr": "Brindavan College",
        "name:hi": "वृंदावन कॉलेज",
        "name:kn": "ಬೃಂದಾವನ ಕಾಲೇಜು",
        "name:ml": "ബൃന്ദാവൻ കോളെജ്",
        "name:ta": "பிருந்தாவன் கல்லூரி",
        "old_name": "National First Grade College"
      }
    },
    {
      "type": "node",
      "id": 5320170731,
      "lat": 13.0534563,
      "lon": 77.5747466,
      "tags": {
        "amenity": "restaurant",
        "cuisine": "regional",
        "delivery": "no",
        "name": "Indira Canteen",
        "opening_hours": "Mo-Su 08:00-10:00,12:00-14:00, 20:00-22:00",
        "takeaway": "no"
      }
    },
    {
      "type": "node",
      "id": 5406702622,
      "lat": 13.0578349,
      "lon": 77.5875037,
      "tags": {
        "amenity": "fast_food",
        "name": "Knopcha"
      }
    },
    {
      "type": "node",
      "id": 5406711221,
      "lat": 13.0578821,
      "lon": 77.5873552,
      "tags": {
        "name": "MRP M. P. Wine World",
        "shop": "beverages"
      }
    },
    {
      "type": "node",
      "id": 5420463131,
      "lat": 13.057594,
      "lon": 77.5872852,
      "tags": {
        "name": "TORQ92",
        "repair": "yes",
        "shop": "motorcycle"
      }
    },
    {
      "type": "node",
      "id": 7302021177,
      "lat": 13.0465803,
      "lon": 77.5755743,
      "tags": {
        "shop": "medical_supply"
      }
    },
    {
      "type": "node",
      "id": 7302031293,
      "lat": 13.0468704,
      "lon": 77.5758244,
      "tags": {
        "amenity": "fast_food",
        "cuisine": "chicken"
      }
    },
    {
      "type": "node",
      "id": 7302031325,
      "lat": 13.0466883,
      "lon": 77.576477,
      "tags": {
        "shop": "yes"
      }
    },
    {
      "type": "node",
      "id": 8012727677,
      "lat": 13.0535572,
      "lon": 77.5752216,
      "tags": {
        "amenity": "cafe",
        "name": "Iyengar Bakery",
        "name:kn": "ಐಯ್ಯಂಗಾರ್ ಬೇಕರಿ"
      }
    },
    {
      "type": "node",
      "id": 8543451259,
      "lat": 13.0585216,
      "lon": 77.5877269,
      "tags": {
        "craft": "computer",
        "name": "Rddhi Print Station",
        "shop": "printer"
      }
    },
    {
      "type": "node",
      "id": 9563008718,
      "lat": 13.053769,
      "lon": 77.5744763,
      "tags": {
        "amenity": "dentist",
        "name": "Dentist"
      }
    },
    {
      "type": "node",
      "id": 9563015417,
      "lat": 13.0494769,
      "lon": 77.5757339,
      "tags": {
        "shop": "shoes"
      }
    },
    {
      "type": "node",
      "id": 9563021217,
      "lat": 13.0536736,
      "lon": 77.5747148,
      "tags": {
        "shop": "hairdresser"
      }
    },
    {
      "type": "node",
      "id": 9685654766,
      "lat": 13.0588929,
      "lon": 77.5860351,
      "tags": {
        "amenity": "cafe",
        "name": "The rich crust cafe and bar"
      }
    },
    {
      "type": "node",
      "id": 9912846632,
      "lat": 13.0479288,
      "lon": 77.5785318,
      "tags": {
        "amenity": "restaurant",
        "cuisine": "regional",
        "name": "Adyar Ananda Bhavan",
        "name:kn": "ಆದ್ಯಾರ್ ಆನಂದ ಭವನ",
        "takeaway": "yes"
      }
    },
    {
      "type": "node",
      "id": 10033030781,
      "lat": 13.0608078,
      "lon": 77.5821447,
      "tags": {
        "brand": "Vishal Mega Mart",
        "name": "Vishal Mega Mart",
        "shop": "supermarket"
      }
    },
    {
      "type": "node",
      "id": 10299297409,
      "lat": 13.0477325,
      "lon": 77.5762392,
      "tags": {
        "amenity": "atm",
        "opening_hours": "24/7",
        "operator": "ICICI BANK"
      }
    },
    {
      "type": "node",
      "id": 10299297410,
      "lat": 13.0478235,
      "lon": 77.5761427,
      "tags": {
        "amenity": "ice_cream",
        "name": "Juice Point",
        "opening_hours": "Mo-Su 09:00-22:00"
      }
    },
    {
      "type": "node",
      "id": 10299332309,
      "lat": 13.0545024,
      "lon": 77.5755966,
      "tags": {
        "amenity": "bank",
        "brand": "HDFC Bank",
        "brand:wikidata": "Q631047",
        "name": "HDFC Bank",
        "name:kn": "ಎಚ್ ಡಿ ಎಫ್ ಸಿ",
        "opening_hours": "Mo-Su 09:30-15:30",
        "operator": "HDFC Bank",
        "short_name": "HDFC"
      }
    },
    {
      "type": "node",
      "id": 10299332310,
      "lat": 13.0547385,
      "lon": 77.5757832,
      "tags": {
        "amenity": "pharmacy",
        "name": "Medical Shop",
        "opening_hours": "Mo-Su 10:00-22:45",
        "wheelchair": "no"
      }
    },
    {
      "type": "node",
      "id": 10299332509,
      "lat": 13.0547653,
      "lon": 77.5757273,
      "tags": {
        "leisure": "fitness_centre",
        "name": "Bangalore Fitness Center (BFC)",
        "opening_hours": "Mo-Su 05:30-22:45",
        "wheelchair": "limited"
      }
    },
    {
      "type": "node",
      "id": 10591250905,
      "lat": 13.047724,
      "lon": 77.5761271,
      "tags": {
        "shop": "bakery"
      }
    },
    {
      "type": "node",
      "id": 10591250907,
      "lat": 13.0599809,
      "lon": 77.5766833,
      "tags": {
        "amenity": "pharmacy"
      }
    },
    {
      "type": "node",
      "id": 10908391629,
      "lat": 13.0601937,
      "lon": 77.5813253,
      "tags": {
        "addr:city": "Bengaluru",
        "addr:country": "IN",
        "addr:housenumber": "339",
        "addr:postcode": "560092",
        "addr:street": "20th Cross Road",
        "addr:suburb": "Sahakar Nagar",
        "amenity": "restaurant",
        "contact:facebook": "Amiel-Gourmet-107521115047083",
        "cuisine": "french",
        "email": "info.amielgourmet@gmail.com",
        "name": "Amiel Gourmet",
        "phone": "+91 8884441259",
        "website": "https://www.amielgourmet.com/"
      }
    },
    {
      "type": "node",
      "id": 11039823505,
      "lat": 13.0483167,
      "lon": 77.574566,
      "tags": {
        "amenity": "place_of_worship",
        "name": "Gangamma Temple"
      }
    },
    {
      "type": "node",
      "id": 11407254183,
      "lat": 13.058128,
      "lon": 77.5860405,
      "tags": {
        "amenity": "hospital",
        "name": "MEDSTAR Speciality Hospital"
      }
    },
    {
      "type": "node",
      "id": 11865663530,
      "lat": 13.0588573,
      "lon": 77.5876258,
      "tags": {
        "amenity": "fast_food",
        "name": "Gopizza"
      }
    },
    {
      "type": "node",
      "id": 11865663531,
      "lat": 13.0595575,
      "lon": 77.5875065,
      "tags": {
        "amenity": "cafe",
        "brand": "Chaayos",
        "brand:wikidata": "Q117235235",
        "cuisine": "tea",
        "name": "Chaayos",
        "takeaway": "yes"
      }
    },
    {
      "type": "node",
      "id": 11865663546,
      "lat": 13.0583321,
      "lon": 77.5859595,
      "tags": {
        "amenity": "fast_food",
        "name": "Mulabagilu Dosa Point"
      }
    },
    {
      "type": "node",
      "id": 11949235206,
      "lat": 13.0578826,
      "lon": 77.5888392,
      "tags": {
        "amenity": "clinic",
        "check_date": "2024-06-01",
        "healthcare": "clinic",
        "name": "Dr. B K Mudhusudhan Neurology Superspeciality"
      }
    },
    {
      "type": "node",
      "id": 11949241901,
      "lat": 13.0576217,
      "lon": 77.5893868,
      "tags": {
        "amenity": "restaurant",
        "check_date": "2024-06-01",
        "name": "The Punjabi Rasoi - Authentic Punjabi Khana"
      }
    },
    {
      "type": "node",
      "id": 11949346388,
      "lat": 13.0578745,
      "lon": 77.5889485,
      "tags": {
        "amenity": "clinic",
        "check_date": "2024-06-01",
        "healthcare": "clinic",
        "name": "Dr. B M Krupa Obstetrics And Gynaec Speciality"
      }
    },
    {
      "type": "node",
      "id": 11949350695,
      "lat": 13.0575915,
      "lon": 77.5894655,
      "tags": {
        "amenity": "restaurant",
        "check_date": "2024-06-01",
        "description": "Small restaurant/eatery",
        "name": "Mangalore Military Hotel"
      }
    },
    {
      "type": "node",
      "id": 11949350696,
      "lat": 13.057596,
      "lon": 77.5895565,
      "tags": {
        "check_date": "2024-06-01",
        "description": "Deals in rice, oil, dhal and wheat",
        "name": "Chowdeshwari Rice Traders",
        "shop": "agrarian"
      }
    },
    {
      "type": "node",
      "id": 12915173278,
      "lat": 13.0477044,
      "lon": 77.5758771,
      "tags": {
        "check_date": "2025-06-14",
        "name": "Sangeetha",
        "shop": "mobile_phone"
      }
    },
    {
      "type": "node",
      "id": 12915173279,
      "lat": 13.0481524,
      "lon": 77.5761041,
      "tags": {
        "amenity": "atm",
        "brand": "State Bank of India",
        "brand:wikidata": "Q1340361",
        "check_date": "2025-06-14",
        "operator": "State Bank of India",
        "operator:wikidata": "Q1340361",
        "short_name": "SBI"
      }
    },
    {
      "type": "node",
      "id": 12963913658,
      "lat": 13.0606485,
      "lon": 77.5765351,
      "tags": {
        "amenity": "cinema",
        "name": "Sri Raj Murali Theater"
      }
    },
    {
      "type": "node",
      "id": 13013588701,
      "lat": 13.0571759,
      "lon": 77.5887121,
      "tags": {
        "amenity": "cafe",
        "cuisine": "coffee_shop",
        "name": "Zenforest"
      }
    },
    {
      "type": "node",
      "id": 13084774560,
      "lat": 13.0598684,
      "lon": 77.5874247,
      "tags": {
        "brand": "Toni & Guy",
        "brand:wikidata": "Q324784",
        "name": "Toni & Guy",
        "shop": "hairdresser"
      }
    },
    {
      "type": "node",
      "id": 13084774561,
      "lat": 13.059645,
      "lon": 77.5877546,
      "tags": {
        "amenity": "cafe",
        "brand": "Cafe Coffee Day",
        "brand:wikidata": "Q5017235",
        "cuisine": "coffee_shop",
        "name": "Cafe Coffee Day",
        "takeaway": "yes"
      }
    },
    {
      "type": "way",
      "id": 133467007,
      "center": {
        "lat": 13.0486001,
        "lon": 77.5755015
      },
      "tags": {
        "amenity": "school",
        "name": "Shanthiniketan School",
        "name:kn": "ಶಾಂತಿನಿಕೇತನ ಶಾಲೆ"
      }
    },
    {
      "type": "way",
      "id": 201253300,
      "center": {
        "lat": 13.0548129,
        "lon": 77.5742951
      },
      "tags": {
        "leisure": "park",
        "name": "Satish Dhawan Memorial Park",
        "name:etymology:wikidata": "Q325393"
      }
    },
    {
      "type": "way",
      "id": 249189323,
      "center": {
        "lat": 13.0584078,
        "lon": 77.5861818
      },
      "tags": {
        "access": "permissive",
        "amenity": "parking",
        "parking": "surface"
      }
    },
    {
      "type": "way",
      "id": 457998514,
      "center": {
        "lat": 13.0444348,
        "lon": 77.5810147
      },
      "tags": {
        "addr:city": "Bengaluru",
        "addr:postcode": "560094",
        "addr:street": "2nd Cross Road, Bhoopasandra",
        "amenity": "place_of_worship",
        "building": "yes",
        "name": "Sri Abhaya Anjaneya Swamy Temple",
        "religion": "hindu"
      }
    },
    {
      "type": "way",
      "id": 550861926,
      "center": {
        "lat": 13.0534181,
        "lon": 77.5750015
      },
      "tags": {
        "amenity": "pharmacy",
        "building": "commercial",
        "building:levels": "1",
        "description": "Medical Store, Pharmacy",
        "name": "Nandi Medicals"
      }
    },
    {
      "type": "way",
      "id": 552430276,
      "center": {
        "lat": 13.0621911,
        "lon": 77.5802961
      },
      "tags": {
        "addr:city": "Bengaluru",
        "addr:postcode": "560092",
        "addr:street": "C Block, CQAL Layout, Sahakara nagar",
        "description": "Swings, slides and roundabouts for children's amusement, benches and paths for the elderly to unwind.",
        "leisure": "park",
        "name": "Sahakara Nagar CQAL Kids Park"
      }
    },
    {
      "type": "way",
      "id": 674699456,
      "center": {
        "lat": 13.0562339,
        "lon": 77.5747526
      },
      "tags": {
        "leisure": "park"
      }
    },
    {
      "type": "way",
      "id": 674699459,
      "center": {
        "lat": 13.0560706,
        "lon": 77.5751683
      },
      "tags": {
        "leisure": "playground"
      }
    },
    {
      "type": "way",
      "id": 781846364,
      "center": {
        "lat": 13.0594285,
        "lon": 77.5831727
      },
      "tags": {
        "amenity": "school",
        "landuse": "education",
        "name": "Trio World Academy"
      }
    },
    {
      "type": "way",
      "id": 893319466,
      "center": {
        "lat": 13.0537899,
        "lon": 77.5810306
      },
      "tags": {
        "addr:full": "Kodigehalli,Sahakara Nagar South, AMCO Colony, Koti Hosahalli, Bengaluru, Karnataka",
        "addr:state": "Karnataka",
        "amenity": "college",
        "fixme": "boundaries",
        "name": "Impact College of Engineering and Applied Sciences"
      }
    },
    {
      "type": "way",
      "id": 1040899005,
      "center": {
        "lat": 13.0545318,
        "lon": 77.5918707
      },
      "tags": {
        "amenity": "hospital",
        "name": "Aster CMI Hospital"
      }
    },
    {
      "type": "way",
      "id": 1095569350,
      "center": {
        "lat": 13.0578383,
        "lon": 77.5848497
      },
      "tags": {
        "amenity": "community_centre",
        "community_centre": "events_venue",
        "landuse": "commercial",
        "name": "The Neighborhood",
        "website": "https://www.theneighborhood.in/"
      }
    },
    {
      "type": "way",
      "id": 1095569351,
      "center": {
        "lat": 13.0552476,
        "lon": 77.58856
      },
      "tags": {
        "amenity": "place_of_worship",
        "denomination": "catholic",
        "name": "Holy Trinity Church",
        "religion": "christian"
      }
    },
    {
      "type": "way",
      "id": 1212106943,
      "center": {
        "lat": 13.052516,
        "lon": 77.5742745
      },
      "tags": {
        "leisure": "park",
        "wheelchair": "no"
      }
    },
    {
      "type": "way",
      "id": 1212106944,
      "center": {
        "lat": 13.0513439,
        "lon": 77.5742977
      },
      "tags": {
        "leisure": "park"
      }
    },
    {
      "type": "way",
      "id": 1232959522,
      "center": {
        "lat": 13.0512934,
        "lon": 77.5745681
      },
      "tags": {
        "access": "private",
        "leisure": "pitch",
        "sport": "tennis"
      }
    },
    {
      "type": "way",
      "id": 1278078092,
      "center": {
        "lat": 13.0579696,
        "lon": 77.5864011
      },
      "tags": {
        "amenity": "fuel",
        "brand": "Indian Oil",
        "brand:wikidata": "Q1289348",
        "check_date": "2024-04-28",
        "name": "Indian Oil"
      }
    },
    {
      "type": "way",
      "id": 1278078237,
      "center": {
        "lat": 13.0598068,
        "lon": 77.5834414
      },
      "tags": {
        "leisure": "pitch",
        "sport": "basketball"
      }
    },
    {
      "type": "way",
      "id": 1278078238,
      "center": {
        "lat": 13.0593168,
        "lon": 77.5830566
      },
      "tags": {
        "leisure": "pitch",
        "sport": "soccer"
      }
    },
    {
      "type": "way",
      "id": 1278078240,
      "center": {
        "lat": 13.0588506,
        "lon": 77.5840602
      },
      "tags": {
        "amenity": "place_of_worship",
        "religion": "hindu"
      }
    },
    {
      "type": "way",
      "id": 1278156574,
      "center": {
        "lat": 13.0582609,
        "lon": 77.5894624
      },
      "tags": {
        "leisure": "park"
      }
    },
    {
      "type": "way",
      "id": 1278546179,
      "center": {
        "lat": 13.0514115,
        "lon": 77.5737615
      },
      "tags": {
        "access": "private",
        "leisure": "swimming_pool"
      }
    },
    {
      "type": "way",
      "id": 1278546180,
      "center": {
        "lat": 13.0515941,
        "lon": 77.5750956
      },
      "tags": {
        "amenity": "fuel"
      }
    },
    {
      "type": "way",
      "id": 1278546181,
      "center": {
        "lat": 13.0525048,
        "lon": 77.5742154
      },
      "tags": {
        "leisure": "playground",
        "wheelchair": "no"
      }
    },
    {
      "type": "way",
      "id": 1287284074,
      "center": {
        "lat": 13.0587665,
        "lon": 77.5843817
      },
      "tags": {
        "amenity": "school"
      }
    },
    {
      "type": "way",
      "id": 1352267055,
      "center": {
        "lat": 13.0482398,
        "lon": 77.5808441
      },
      "tags": {
        "leisure": "garden"
      }
    },
    {
      "type": "way",
      "id": 1357701144,
      "center": {
        "lat": 13.0548989,
        "lon": 77.5905072
      },
      "tags": {
        "amenity": "school"
      }
    },
    {
      "type": "way",
      "id": 1412438809,
      "center": {
        "lat": 13.052692,
        "lon": 77.5887587
      },
      "tags": {
        "access": "private",
        "leisure": "swimming_pool"
      }
    },
    {
      "type": "way",
      "id": 1412490983,
      "center": {
        "lat": 13.0570292,
        "lon": 77.576983
      },
      "tags": {
        "amenity": "place_of_worship",
        "building": "yes",
        "religion": "hindu"
      }
    },
    {
      "type": "way",
      "id": 1422979173,
      "center": {
        "lat": 13.0600274,
        "lon": 77.5822922
      },
      "tags": {
        "amenity": "school",
        "landuse": "education",
        "name": "Trio World Academy"
      }
    }
  ]
}