{
  "area_name": "Seshadripuram",
  "osm_id": 19883405,
  "osm_type": "relation",
  "place_type": "administrative",
  "amenity_count": 48,
  "amenities": [
    {
      "type": "node",
      "id": 456029893,
      "lat": 12.9955258,
      "lon": 77.5717703,
      "tags": {
        "amenity": "restaurant",
        "name": "Hallimane",
        "name:kn": "ಹಳ್ಳಿಮನೆ"
      }
    },
    {
      "type": "node",
      "id": 577026690,
      "lat": 12.9940976,
      "lon": 77.571267,
      "tags": {
        "addr:street": "Sampige Road",
        "amenity": "atm",
        "brand": "ICICI Bank",
        "brand:wikidata": "Q1653258",
        "name": "ICICI Bank",
        "name:kn": "ಐಸಿಐಸಿಐ",
        "operator": "ICICI Bank",
        "operator:wikidata": "Q1653258",
        "short_name": "ICICI"
      }
    },
    {
      "type": "node",
      "id": 577028441,
      "lat": 12.9953279,
      "lon": 77.5712934,
      "tags": {
        "addr:street": "Sampige Road",
        "amenity": "fast_food",
        "name": "Kolkata Chaat"
      }
    },
    {
      "type": "node",
      "id": 650621057,
      "lat": 12.994359,
      "lon": 77.5711764,
      "tags": {
        "addr:street": "Sampige Road",
        "amenity": "restaurant",
        "name": "Rasa",
        "name:kn": "ರಸ"
      }
    },
    {
      "type": "node",
      "id": 1474820320,
      "lat": 12.9950177,
      "lon": 77.5716418,
      "tags": {
        "amenity": "bank",
        "brand": "State Bank of India",
        "brand:wikidata": "Q1340361",
        "brand:wikipedia": "en:State Bank of India",
        "name": "State Bank of India",
        "name:kn": "ಭಾರತೀಯ ಸ್ಟೇಟ್ ಬ್ಯಾಂಕ್",
        "short_name": "SBI",
        "website": "https://www.sbi.co.in"
      }
    },
    {
      "type": "node",
      "id": 1617398466,
      "lat": 12.9928414,
      "lon": 77.5753482,
      "tags": {
        "amenity": "social_facility",
        "name": "Lakshmi Nursing Home",
        "social_facility": "nursing_home",
        "social_facility:for": "senior"
      }
    },
    {
      "type": "node",
      "id": 2247460568,
      "lat": 12.9971687,
      "lon": 77.5805055,
      "tags": {
        "amenity": "fast_food",
        "check_date": "2024-06-15",
        "name": "Prashanth Grand"
      }
    },
    {
      "type": "node",
      "id": 2468465645,
      "lat": 12.9921952,
      "lon": 77.5754609,
      "tags": {
        "amenity": "bank",
        "atm": "yes"
      }
    },
    {
      "type": "node",
      "id": 3280224336,
      "lat": 12.9962972,
      "lon": 77.5719247,
      "tags": {
        "name": "Sri Mukambika",
        "shop": "bakery",
        "wheelchair": "no"
      }
    },
    {
      "type": "node",
      "id": 3971246020,
      "lat": 12.9942736,
      "lon": 77.5715823,
      "tags": {
        "addr:street": "Sampige Road",
        "amenity": "restaurant",
        "name": "Al Bek",
        "phone": "08023461077"
      }
    },
    {
      "type": "node",
      "id": 4445397516,
      "lat": 12.9951627,
      "lon": 77.5738144,
      "tags": {
        "addr:city": "Bangalore",
        "addr:district": "Bengaluru Urban",
        "addr:full": "No: 2, Sirur Park Road (Behind Natraja Theatre) Seshadripuram",
        "addr:housenumber": "191/1",
        "addr:postcode": "560020",
        "addr:state": "Karnataka",
        "addr:street": ", 2nd cross, Link Road, Malleswaram",
        "amenity": "hospital",
        "name": "Dr Solankis Eye Hospital",
        "phone": "080 2356 2211",
        "source": "OpenGovernmentData"
      }
    },
    {
      "type": "node",
      "id": 4447010999,
      "lat": 12.9961953,
      "lon": 77.5715924,
      "tags": {
        "addr:city": "Bangalore",
        "addr:housenumber": "502",
        "addr:postcode": "560003",
        "addr:street": "3rd Cross, Sampige Road, Malleshwaram",
        "amenity": "restaurant",
        "cuisine": "regional",
        "name": "A1 Biryani Restaurant",
        "opening_hours": "11:00-23:00",
        "phone": "+91 7411144480"
      }
    },
    {
      "type": "node",
      "id": 4447171840,
      "lat": 12.9947201,
      "lon": 77.5715879,
      "tags": {
        "addr:city": "Bangalore",
        "addr:housenumber": "1",
        "addr:postcode": "560003",
        "addr:street": "2nd Cross Rd, Malleshwaram",
        "amenity": "hospital",
        "name": "The Homoeo World",
        "phone": "080 2346 1995"
      }
    },
    {
      "type": "node",
      "id": 4623704804,
      "lat": 12.9920129,
      "lon": 77.5753645,
      "tags": {
        "check_date": "2024-01-02",
        "name": "Apoorva Iyengar Bakery",
        "name:en": "Apoorva Iyengar Bakery",
        "shop": "bakery"
      }
    },
    {
      "type": "node",
      "id": 4623723103,
      "lat": 12.9962755,
      "lon": 77.5733477,
      "tags": {
        "amenity": "atm",
        "brand": "HDFC Bank",
        "brand:wikidata": "Q631047",
        "name": "HDFC Bank",
        "operator": "HDFC Bank",
        "operator:wikidata": "Q631047",
        "short_name": "HDFC"
      }
    },
    {
      "type": "node",
      "id": 5061380660,
      "lat": 12.9955482,
      "lon": 77.5737403,
      "tags": {
        "brand": "TVS",
        "brand:wikidata": "Q3300084",
        "name": "TVS",
        "shop": "motorcycle"
      }
    },
    {
      "type": "node",
      "id": 5229456536,
      "lat": 12.9932869,
      "lon": 77.5741305,
      "tags": {
        "name": "Vinod Motors",
        "shop": "motorcycle"
      }
    },
    {
      "type": "node",
      "id": 5229456537,
      "lat": 12.9922208,
      "lon": 77.5751298,
      "tags": {
        "name": "Maa Ceramics and Sanitary Wares",
        "shop": "yes"
      }
    },
    {
      "type": "node",
      "id": 5229456546,
      "lat": 12.9935528,
      "lon": 77.5712961,
      "tags": {
        "amenity": "restaurant",
        "check_date": "2024-01-02",
        "name": "New Karavali Bar & Restaurant"
      }
    },
    {
      "type": "node",
      "id": 5229456547,
      "lat": 12.9934739,
      "lon": 77.5713892,
      "tags": {
        "amenity": "atm",
        "brand": "Bank of Baroda",
        "brand:wikidata": "Q2003797",
        "check_date": "2024-01-02",
        "operator": "Bank of Baroda",
        "operator:wikidata": "Q2003797"
      }
    },
    {
      "type": "node",
      "id": 8187962443,
      "lat": 12.9961075,
      "lon": 77.5794798,
      "tags": {
        "addr:full": "No 161 2nd Cross, Main Road, DN Ramaiah Layout, Seshadripuram, Bengaluru, Karnataka",
        "addr:state": "Karnataka",
        "amenity": "bank",
        "brand": "Axis Bank",
        "brand:wikidata": "Q2003549",
        "name": "Axis Bank",
        "name:kn": "ಆಕ್ಸಿಸ್ ಬ್ಯಾಂಕ್"
      }
    },
    {
      "type": "node",
      "id": 8187962473,
      "lat": 12.9931411,
      "lon": 77.5767129,
      "tags": {
        "addr:full": "162, 1st Main Rd, Near-Priya Jewelers, 4th Block, Kumara Park West, Seshadripuram, Bengaluru, Karnataka",
        "addr:state": "Karnataka",
        "amenity": "bank",
        "brand": "Indian Bank",
        "brand:wikidata": "Q2003789",
        "brand:wikipedia": "en:Indian Bank",
        "name": "Indian Bank",
        "name:kn": "ಇಂಡಿಯನ್ ಬ್ಯಾಂಕ್"
      }
    },
    {
      "type": "node",
      "id": 9214185064,
      "lat": 12.9935413,
      "lon": 77.5740867,
      "tags": {
        "name": "Expert Dry Cleaners",
        "shop": "dry_cleaning"
      }
    },
    {
      "type": "node",
      "id": 9784639593,
      "lat": 12.9955047,
      "lon": 77.5715809,
      "tags": {
        "amenity": "dentist",
        "name": "Planet Dental"
      }
    },
    {
      "type": "node",
      "id": 9784639594,
      "lat": 12.9953819,
      "lon": 77.5715849,
      "tags": {
        "name": "Prashanti",
        "shop": "clothes"
      }
    },
    {
      "type": "node",
      "id": 9784639595,
      "lat": 12.9951676,
      "lon": 77.5713153,
      "tags": {
        "name": "Janvi Silver",
        "shop": "jewelry"
      }
    },
    {
      "type": "node",
      "id": 9784639597,
      "lat": 12.9945697,
      "lon": 77.5716164,
      "tags": {
        "amenity": "pharmacy"
      }
    },
    {
      "type": "node",
      "id": 9784639598,
      "lat": 12.9946266,
      "lon": 77.5713267,
      "tags": {
        "name": "Hop Salon",
        "shop": "hairdresser"
      }
    },
    {
      "type": "node",
      "id": 9784639599,
      "lat": 12.9944756,
      "lon": 77.5716184,
      "tags": {
        "name": "Rangachari Textiles",
        "shop": "fabric"
      }
    },
    {
      "type": "node",
      "id": 9784639600,
      "lat": 12.9940732,
      "lon": 77.5716097,
      "tags": {
        "shop": "mobile_phone"
      }
    },
    {
      "type": "node",
      "id": 9784639601,
      "lat": 12.9938523,
      "lon": 77.5713777,
      "tags": {
        "amenity": "restaurant",
        "cuisine": "regional",
        "delivery": "yes",
        "name": "Hyderabadi Biryani",
        "takeaway": "yes"
      }
    },
    {
      "type": "node",
      "id": 9784639602,
      "lat": 12.9935681,
      "lon": 77.571371,
      "tags": {
        "name": "Tynimo",
        "shop": "supermarket"
      }
    },
    {
      "type": "node",
      "id": 9786116690,
      "lat": 12.995915,
      "lon": 77.571298,
      "tags": {
        "name": "Lalithaa Jewellery",
        "shop": "jewelry"
      }
    },
    {
      "type": "node",
      "id": 11214903960,
      "lat": 12.9938464,
      "lon": 77.5735818,
      "tags": {
        "amenity": "fast_food",
        "cuisine": "regional",
        "name": "Sri Raghavendra Upachara"
      }
    },
    {
      "type": "node",
      "id": 11214904084,
      "lat": 12.9938307,
      "lon": 77.5716694,
      "tags": {
        "name": "GRT Jewelers",
        "shop": "jewelry"
      }
    },
    {
      "type": "node",
      "id": 11281310972,
      "lat": 12.995804,
      "lon": 77.5736421,
      "tags": {
        "name": "Trends Unisex Salon",
        "shop": "hairdresser"
      }
    },
    {
      "type": "node",
      "id": 11478107294,
      "lat": 12.9937126,
      "lon": 77.5731581,
      "tags": {
        "check_date": "2024-01-02",
        "name": "CNU Digital Prints",
        "shop": "copyshop"
      }
    },
    {
      "type": "node",
      "id": 11684647134,
      "lat": 12.9935333,
      "lon": 77.5715998,
      "tags": {
        "check_date": "2024-03-02",
        "name": "AVR Swarna Jewelers",
        "shop": "jewelry"
      }
    },
    {
      "type": "node",
      "id": 11687235825,
      "lat": 12.9925805,
      "lon": 77.5745703,
      "tags": {
        "amenity": "fast_food",
        "check_date": "2024-03-03",
        "name": "Vinayaka Tiffin Center"
      }
    },
    {
      "type": "node",
      "id": 11951350410,
      "lat": 12.9927709,
      "lon": 77.5743277,
      "tags": {
        "brand": "Nandini",
        "check_date": "2024-06-02",
        "name": "Nandini",
        "shop": "dairy"
      }
    },
    {
      "type": "node",
      "id": 11982395421,
      "lat": 12.9954465,
      "lon": 77.5790081,
      "tags": {
        "amenity": "place_of_worship",
        "check_date": "2024-06-15",
        "religion": "hindu"
      }
    },
    {
      "type": "node",
      "id": 11986964427,
      "lat": 12.9924482,
      "lon": 77.5756565,
      "tags": {
        "amenity": "pharmacy",
        "name": "Shanti Medicals"
      }
    },
    {
      "type": "node",
      "id": 11986964436,
      "lat": 12.9937269,
      "lon": 77.5769795,
      "tags": {
        "name": "Save More",
        "shop": "supermarket"
      }
    },
    {
      "type": "node",
      "id": 12103825759,
      "lat": 12.995914,
      "lon": 77.5759975,
      "tags": {
        "check_date": "2024-08-11",
        "name": "Sri Priya Jewellers",
        "shop": "jewelry"
      }
    },
    {
      "type": "node",
      "id": 12686350442,
      "lat": 12.9925107,
      "lon": 77.5746316,
      "tags": {
        "check_date": "2025-03-21",
        "shop": "tyres"
      }
    },
    {
      "type": "node",
      "id": 12686350448,
      "lat": 12.9924689,
      "lon": 77.574722,
      "tags": {
        "check_date": "2025-03-21",
        "shop": "tyres"
      }
    },
    {
      "type": "way",
      "id": 1113050872,
      "center": {
        "lat": 12.9941812,
        "lon": 77.574021
      },
      "tags": {
        "leisure": "park"
      }
    },
    {
      "type": "way",
      "id": 1292999612,
      "center": {
        "lat": 12.993966,
        "lon": 77.5771632
      },
      "tags": {
        "amenity": "school",
        "name": "Sri Chaitanya Techno School"
      }
    }
  ]
}