{
  "area_name": "Shampura",
  "osm_id": 2463032631,
  "osm_type": "node",
  "place_type": "neighbourhood",
  "amenity_count": 58,
  "amenities": [
    {
      "type": "node",
      "id": 1370777376,
      "lat": 13.0317411,
      "lon": 77.611461,
      "tags": {
        "amenity": "atm",
        "fee": "SBM ATM"
      }
    },
    {
      "type": "node",
      "id": 1370777379,
      "lat": 13.0303875,
      "lon": 77.6079607,
      "tags": {
        "brand": "Reliance Fresh",
        "brand:wikidata": "Q7311014",
        "name": "Reliance Fresh",
        "name:kn": "ರಿಲಾಯನ್ಸ್ ಫ್ರೆಶ್",
        "shop": "supermarket"
      }
    },
    {
      "type": "node",
      "id": 1370777380,
      "lat": 13.0318378,
      "lon": 77.6124561,
      "tags": {
        "amenity": "bench",
        "designation": "BDA Park"
      }
    },
    {
      "type": "node",
      "id": 1422402902,
      "lat": 13.0252349,
      "lon": 77.6054904,
      "tags": {
        "brand": "More",
        "brand:wikidata": "Q6910891",
        "name": "More",
        "name:kn": "ಮೋರ್",
        "shop": "supermarket"
      }
    },
    {
      "type": "node",
      "id": 1474875685,
      "lat": 13.0248621,
      "lon": 77.6139585,
      "tags": {
        "amenity": "hospital",
        "emergency": "yes",
        "name": "Dr. Ambedkar Medical College Hospital",
        "name:kn": "ಅಂಬೇಡ್ಕರ್ ವೈದ್ಯಕೀಯ ಕಾಲೇಜು ಆಸ್ಪತ್ರೆ"
      }
    },
    {
      "type": "node",
      "id": 1722602478,
      "lat": 13.026256,
      "lon": 77.6062003,
      "tags": {
        "alt_name": "New Punjabi",
        "amenity": "restaurant",
        "diet:vegetarian": "only",
        "name": "Punjabi Dhaba",
        "name:kn": "ಪಂಜಾಬಿ ಧಾಬ"
      }
    },
    {
      "type": "node",
      "id": 2125939229,
      "lat": 13.032436,
      "lon": 77.6088298,
      "tags": {
        "amenity": "atm",
        "fee": "no",
        "operator": "Canara Bank"
      }
    },
    {
      "type": "node",
      "id": 2125939655,
      "lat": 13.0324467,
      "lon": 77.6087814,
      "tags": {
        "amenity": "atm",
        "fee": "no",
        "operator": "Axis Bank"
      }
    },
    {
      "type": "node",
      "id": 2125939660,
      "lat": 13.0318249,
      "lon": 77.6084004,
      "tags": {
        "amenity": "atm",
        "fee": "no",
        "operator": "ICICI Bank"
      }
    },
    {
      "type": "node",
      "id": 2125941628,
      "lat": 13.0304891,
      "lon": 77.6081971,
      "tags": {
        "addr:housename": "SMS Complex",
        "addr:housenumber": "G3",
        "addr:postcode": "560032",
        "addr:street": "KHB Main Road",
        "amenity": "restaurant",
        "cuisine": "regional",
        "name": "Peacock Restaurant"
      }
    },
    {
      "type": "node",
      "id": 2129248997,
      "lat": 13.0304655,
      "lon": 77.6088898,
      "tags": {
        "amenity": "place_of_worship",
        "name": "Varasiddi Vinayaka Temple",
        "name:kn": "ವರಸಿದ್ಧಿ ವಿನಾಯಕ ದೇವಸ್ಥಾನ",
        "religion": "hindu",
        "wheelchair": "limited"
      }
    },
    {
      "type": "node",
      "id": 4488035144,
      "lat": 13.0235383,
      "lon": 77.6090101,
      "tags": {
        "addr:city": "Bangalore",
        "addr:housenumber": "18",
        "addr:postcode": "560032",
        "addr:street": "Dinnur Main Road,Ambedkar Medical College Road",
        "name": "Ahmeds Retail",
        "phone": "(91)-80-23656566",
        "shop": "supermarket"
      }
    },
    {
      "type": "node",
      "id": 4887964023,
      "lat": 13.0204879,
      "lon": 77.6186105,
      "tags": {
        "amenity": "place_of_worship",
        "name": "Masjid Noor ur Rahman",
        "name:en": "Masjid Noor ur Rahman",
        "religion": "muslim",
        "wheelchair": "yes"
      }
    },
    {
      "type": "node",
      "id": 6886594828,
      "lat": 13.0250774,
      "lon": 77.6140174,
      "tags": {
        "addr:city": "Bengaluru",
        "addr:district": "BENGALURU URBAN",
        "addr:full": "K. G. Halli, Bengaluru",
        "addr:postcode": "560045",
        "addr:state": "Karnataka",
        "amenity": "blood_bank",
        "contact:mobile": "9980155789",
        "contact:phone": "8025463442",
        "name": "Dr. B. R. Ambedkar Medical College Hospital Blood Bank",
        "opening_hours": "24/7",
        "operator:type": "private",
        "source": "OpenGovernmentData",
        "website": "https://www.bramc.org/"
      }
    },
    {
      "type": "node",
      "id": 6939074293,
      "lat": 13.0218188,
      "lon": 77.613084,
      "tags": {
        "addr:district": "Bengaluru Urban",
        "addr:full": "Kadugondanahalli",
        "addr:postcode": "560045",
        "addr:state": "Karnataka",
        "amenity": "hospital",
        "email": "drbramc@rediffmail.com",
        "healthcare:speciality": "multi speciality",
        "name": "Dr Ambedkar Medical College Hospital",
        "operator:type": "private",
        "source": "OpenGovernmentData",
        "website": "http://www.bramc.org/"
      }
    },
    {
      "type": "node",
      "id": 6948659616,
      "lat": 13.0269276,
      "lon": 77.6227882,
      "tags": {
        "addr:district": "Bengaluru Urban",
        "addr:full": "Lmc 1210 &1211 ,1st Main, 1st Stage, 3Road Block Hbr Layout",
        "addr:postcode": "560001",
        "addr:state": "Karnataka",
        "amenity": "hospital",
        "name": "Avian Medicare and Research Centre",
        "source": "OpenGovernmentData",
        "wheelchair": "yes"
      }
    },
    {
      "type": "node",
      "id": 6950412307,
      "lat": 13.0236062,
      "lon": 77.6196139,
      "tags": {
        "addr:district": "Bengaluru Urban",
        "addr:full": "5, Arabic College Main Road, Banglore",
        "addr:postcode": "560045",
        "addr:state": "Karnataka",
        "amenity": "hospital",
        "name": "Al- Habeeb Hospital",
        "source": "OpenGovernmentData"
      }
    },
    {
      "type": "node",
      "id": 7213565705,
      "lat": 13.0324318,
      "lon": 77.6085263,
      "tags": {
        "addr:district": "Bengaluru Urban",
        "addr:full": "48/1, KHB Colony Main Rd, Sultanpalya, Hebbal, Bengaluru",
        "addr:postcode": "560032",
        "addr:state": "Karnataka",
        "amenity": "hospital",
        "healthcare": "hospital",
        "name": "Cure Hospital",
        "source": "OpenGovernmentData"
      }
    },
    {
      "type": "node",
      "id": 7577248277,
      "lat": 13.029101,
      "lon": 77.620568,
      "tags": {
        "addr:district": "Bengaluru Urban",
        "addr:full": "Kadugondanahalli, Bengaluru",
        "addr:postcode": "560045",
        "addr:state": "Karnataka",
        "amenity": "hospital",
        "name": "Pranam Dental Hospital",
        "source": "Local Knowledge"
      }
    },
    {
      "type": "node",
      "id": 9082429618,
      "lat": 13.0259658,
      "lon": 77.6060233,
      "tags": {
        "addr:postcode": "560032",
        "amenity": "pharmacy",
        "name": "Jan Aushadhi"
      }
    },
    {
      "type": "node",
      "id": 11119054524,
      "lat": 13.0334824,
      "lon": 77.6090904,
      "tags": {
        "name": "Families Supermarket",
        "payment:cash": "yes",
        "payment:coins": "yes",
        "payment:contactless": "yes",
        "payment:credit_cards": "yes",
        "payment:debit_cards": "yes",
        "payment:maestro": "yes",
        "payment:mastercard": "yes",
        "payment:notes": "yes",
        "payment:visa": "yes",
        "shop": "supermarket"
      }
    },
    {
      "type": "node",
      "id": 11119054525,
      "lat": 13.0329717,
      "lon": 77.6089188,
      "tags": {
        "amenity": "pharmacy",
        "brand": "MedPlus",
        "brand:wikidata": "Q65684234",
        "healthcare": "pharmacy",
        "name": "MedPlus"
      }
    },
    {
      "type": "node",
      "id": 11119054526,
      "lat": 13.0331645,
      "lon": 77.6090114,
      "tags": {
        "amenity": "events_venue",
        "name": "R.K. Palace"
      }
    },
    {
      "type": "node",
      "id": 11119054532,
      "lat": 13.0321371,
      "lon": 77.6102366,
      "tags": {
        "male": "yes",
        "name": "Flamingo Men's Salon",
        "shop": "hairdresser"
      }
    },
    {
      "type": "node",
      "id": 11119054553,
      "lat": 13.0320869,
      "lon": 77.6103477,
      "tags": {
        "name": "Inaya Interiors",
        "shop": "interior_decoration"
      }
    },
    {
      "type": "node",
      "id": 11119054568,
      "lat": 13.0314636,
      "lon": 77.609802,
      "tags": {
        "male": "yes",
        "name": "D-1 Mens Salon",
        "shop": "hairdresser"
      }
    },
    {
      "type": "node",
      "id": 11119054573,
      "lat": 13.0319851,
      "lon": 77.6096682,
      "tags": {
        "amenity": "childcare",
        "name": "Smiling Kangaroo Preschool and Daycare"
      }
    },
    {
      "type": "node",
      "id": 11119061418,
      "lat": 13.0324302,
      "lon": 77.6066728,
      "tags": {
        "amenity": "place_of_worship",
        "name": "St. Alphonsa Forane Church",
        "religion": "christian"
      }
    },
    {
      "type": "node",
      "id": 11119061439,
      "lat": 13.0304639,
      "lon": 77.6080348,
      "tags": {
        "name": "Kaveri Jewellers",
        "shop": "jewelry"
      }
    },
    {
      "type": "node",
      "id": 11119061495,
      "lat": 13.029036,
      "lon": 77.6071212,
      "tags": {
        "brand": "DMart",
        "brand:wikidata": "Q5203271",
        "name": "DMart",
        "shop": "supermarket"
      }
    },
    {
      "type": "node",
      "id": 11119061496,
      "lat": 13.0272269,
      "lon": 77.6066805,
      "tags": {
        "amenity": "fast_food",
        "name": "Mad Eats"
      }
    },
    {
      "type": "node",
      "id": 11119061497,
      "lat": 13.0270827,
      "lon": 77.6066478,
      "tags": {
        "name": "Cake Magic",
        "shop": "bakery"
      }
    },
    {
      "type": "node",
      "id": 11119061498,
      "lat": 13.0252044,
      "lon": 77.6057928,
      "tags": {
        "name": "Ganga Bakery",
        "shop": "bakery"
      }
    },
    {
      "type": "node",
      "id": 12265548261,
      "lat": 13.0263586,
      "lon": 77.620118,
      "tags": {
        "name": "KH Traders",
        "shop": "hardware"
      }
    },
    {
      "type": "node",
      "id": 12265558564,
      "lat": 13.0313563,
      "lon": 77.6209401,
      "tags": {
        "amenity": "school",
        "fixme": "location",
        "name": "St. Frazer High School"
      }
    },
    {
      "type": "node",
      "id": 12265567522,
      "lat": 13.0213579,
      "lon": 77.6189985,
      "tags": {
        "amenity": "place_of_worship",
        "religion": "hindu"
      }
    },
    {
      "type": "node",
      "id": 12265573536,
      "lat": 13.0322329,
      "lon": 77.6216892,
      "tags": {
        "name": "Nova Gold Covering",
        "shop": "jewelry"
      }
    },
    {
      "type": "node",
      "id": 12265573693,
      "lat": 13.0282177,
      "lon": 77.6207124,
      "tags": {
        "amenity": "fuel",
        "name": "Gas Plus"
      }
    },
    {
      "type": "node",
      "id": 12265574592,
      "lat": 13.0227436,
      "lon": 77.6194946,
      "tags": {
        "amenity": "events_venue",
        "name": "Amir Hall"
      }
    },
    {
      "type": "node",
      "id": 12265584884,
      "lat": 13.0249894,
      "lon": 77.6198504,
      "tags": {
        "amenity": "events_venue",
        "name": "CRA Convention Hall"
      }
    },
    {
      "type": "node",
      "id": 12265592079,
      "lat": 13.0230689,
      "lon": 77.619348,
      "tags": {
        "amenity": "pharmacy",
        "name": "Koya Pharma"
      }
    },
    {
      "type": "way",
      "id": 175876882,
      "center": {
        "lat": 13.0241073,
        "lon": 77.6148515
      },
      "tags": {
        "addr:postcode": "560045",
        "alt_name": "Ambedkar Medical College",
        "amenity": "college",
        "landuse": "education",
        "name": "Dr. Ambedkar Medical College",
        "name:etymology:wikidata": "Q231690",
        "name:kn": "ಅಂಬೇಡ್ಕರ್ ವೈದ್ಯಕೀಯ ಕಾಲೇಜು"
      }
    },
    {
      "type": "way",
      "id": 183863413,
      "center": {
        "lat": 13.0304973,
        "lon": 77.6223395
      },
      "tags": {
        "addr:street": "Nagawara Main Road",
        "amenity": "college",
        "name": "Darul Uloom Sabeelur Rashad Arabic College"
      }
    },
    {
      "type": "way",
      "id": 389989913,
      "center": {
        "lat": 13.0218947,
        "lon": 77.6128718
      },
      "tags": {
        "amenity": "parking_space"
      }
    },
    {
      "type": "way",
      "id": 1034261996,
      "center": {
        "lat": 13.0318789,
        "lon": 77.6126193
      },
      "tags": {
        "leisure": "park"
      }
    },
    {
      "type": "way",
      "id": 1198647091,
      "center": {
        "lat": 13.0293789,
        "lon": 77.60653
      },
      "tags": {
        "access": "private",
        "leisure": "swimming_pool"
      }
    },
    {
      "type": "way",
      "id": 1202598188,
      "center": {
        "lat": 13.0286366,
        "lon": 77.6083318
      },
      "tags": {
        "access": "private",
        "leisure": "park"
      }
    },
    {
      "type": "way",
      "id": 1202598190,
      "center": {
        "lat": 13.0279258,
        "lon": 77.6093161
      },
      "tags": {
        "amenity": "place_of_worship",
        "religion": "hindu"
      }
    },
    {
      "type": "way",
      "id": 1202598201,
      "center": {
        "lat": 13.0245659,
        "lon": 77.6190841
      },
      "tags": {
        "amenity": "events_venue",
        "landuse": "commercial",
        "name": "CMA Grand Convention & Wedding Hall"
      }
    },
    {
      "type": "way",
      "id": 1202598203,
      "center": {
        "lat": 13.0210609,
        "lon": 77.618726
      },
      "tags": {
        "amenity": "clinic",
        "name": "UPHC",
        "name:kn": "ಗ್ರಾಮಾಂತರ ಪ್ರಾಥಮಿಕ ಆರೋಗ್ಯ ಕೇಂದ್ರ",
        "operator": "BBMP"
      }
    },
    {
      "type": "way",
      "id": 1385496251,
      "center": {
        "lat": 13.0283296,
        "lon": 77.6102895
      },
      "tags": {
        "amenity": "school"
      }
    },
    {
      "type": "way",
      "id": 1385583281,
      "center": {
        "lat": 13.0222556,
        "lon": 77.6081873
      },
      "tags": {
        "amenity": "fuel"
      }
    },
    {
      "type": "way",
      "id": 1387155259,
      "center": {
        "lat": 13.0309571,
        "lon": 77.6096233
      },
      "tags": {
        "access": "private",
        "leisure": "swimming_pool"
      }
    },
    {
      "type": "way",
      "id": 1387155424,
      "center": {
        "lat": 13.0301395,
        "lon": 77.6079288
      },
      "tags": {
        "amenity": "fuel",
        "brand": "Bharat Petroleum",
        "brand:wikidata": "Q854826",
        "operator": "Bharat Petroleum"
      }
    },
    {
      "type": "way",
      "id": 1387946479,
      "center": {
        "lat": 13.0291677,
        "lon": 77.6066994
      },
      "tags": {
        "access": "private",
        "leisure": "garden"
      }
    },
    {
      "type": "way",
      "id": 1416675134,
      "center": {
        "lat": 13.0198144,
        "lon": 77.619254
      },
      "tags": {
        "amenity": "police",
        "name": "Kadugondanahalli Traffic Police Station"
      }
    },
    {
      "type": "way",
      "id": 1416675135,
      "center": {
        "lat": 13.0194119,
        "lon": 77.6192385
      },
      "tags": {
        "amenity": "police",
        "name": "Kadugondanahalli Police Station"
      }
    },
    {
      "type": "way",
      "id": 1416890170,
      "center": {
        "lat": 13.0229144,
        "lon": 77.6131504
      },
      "tags": {
        "access": "customers",
        "amenity": "parking",
        "parking": "surface"
      }
    }
  ]
}