{
  "area_name": "Shamana Nagar",
  "osm_id": 7391586673,
  "osm_type": "node",
  "place_type": "neighbourhood",
  "amenity_count": 222,
  "amenities": [
    {
      "type": "node",
      "id": 1107936763,
      "lat": 12.9681074,
      "lon": 77.5413652,
      "tags": {
        "amenity": "place_of_worship",
        "name": "Sri Ganesha Temple",
        "name:kn": "ಗಣೇಶ ದೇವಸ್ಥಾನ",
        "religion": "hindu"
      }
    },
    {
      "type": "node",
      "id": 1107942103,
      "lat": 12.9690223,
      "lon": 77.5433246,
      "tags": {
        "amenity": "place_of_worship",
        "name": "Sri Mariamma Temple",
        "religion": "hindu"
      }
    },
    {
      "type": "node",
      "id": 1107984443,
      "lat": 12.9672449,
      "lon": 77.5427653,
      "tags": {
        "amenity": "pharmacy",
        "name": "Vikas Medicals"
      }
    },
    {
      "type": "node",
      "id": 1107986012,
      "lat": 12.9670358,
      "lon": 77.5428833,
      "tags": {
        "amenity": "pharmacy",
        "brand": "MedPlus",
        "brand:wikidata": "Q65684234",
        "healthcare": "pharmacy",
        "name": "MedPlus",
        "name:kn": "ಮೆಡ್‍ಪ್ಲಸ್"
      }
    },
    {
      "type": "node",
      "id": 1107989981,
      "lat": 12.9672919,
      "lon": 77.5426111,
      "tags": {
        "amenity": "fast_food",
        "name": "SLV Fast Food"
      }
    },
    {
      "type": "node",
      "id": 1107995720,
      "lat": 12.9673775,
      "lon": 77.5418993,
      "tags": {
        "name": "Bansuri Sweets",
        "shop": "confectionery"
      }
    },
    {
      "type": "node",
      "id": 1107995725,
      "lat": 12.9672031,
      "lon": 77.541844,
      "tags": {
        "amenity": "fast_food",
        "name": "Paratha Point"
      }
    },
    {
      "type": "node",
      "id": 1107995731,
      "lat": 12.9676187,
      "lon": 77.541608,
      "tags": {
        "amenity": "fast_food",
        "name": "LJB Iyengar's Bakery"
      }
    },
    {
      "type": "node",
      "id": 1107995737,
      "lat": 12.9673021,
      "lon": 77.5421438,
      "tags": {
        "amenity": "cafe",
        "name": "Nature Fresh"
      }
    },
    {
      "type": "node",
      "id": 1107998731,
      "lat": 12.9670358,
      "lon": 77.5433138,
      "tags": {
        "amenity": "place_of_worship",
        "name": "Shakthi Ganapathi Temple",
        "name:kn": "ಶಕ್ತಿ ಗಣಪತಿ",
        "religion": "hindu"
      }
    },
    {
      "type": "node",
      "id": 1107998748,
      "lat": 12.9673129,
      "lon": 77.5417077,
      "tags": {
        "name": "Mamatha Departmental Store",
        "shop": "convenience"
      }
    },
    {
      "type": "node",
      "id": 1108003748,
      "lat": 12.9655564,
      "lon": 77.5417627,
      "tags": {
        "amenity": "school",
        "name": "The New Cambridge High School"
      }
    },
    {
      "type": "node",
      "id": 1108014134,
      "lat": 12.9681189,
      "lon": 77.54325,
      "tags": {
        "amenity": "hospital",
        "emergency": "no",
        "name": "Soujanya Clinic"
      }
    },
    {
      "type": "node",
      "id": 1108016253,
      "lat": 12.9676709,
      "lon": 77.5415073,
      "tags": {
        "amenity": "taxi",
        "name": "Autorickshaw stand",
        "name:kn": "ಆಟೋ ನಿಲ್ದಾಣ"
      }
    },
    {
      "type": "node",
      "id": 1108040901,
      "lat": 12.967291,
      "lon": 77.5429164,
      "tags": {
        "amenity": "hospital",
        "name": "Kanva Diagnostics Collection Centre"
      }
    },
    {
      "type": "node",
      "id": 1108046797,
      "lat": 12.9671974,
      "lon": 77.5428831,
      "tags": {
        "name": "Vodafone",
        "name:kn": "ವೋಡಫೋನ್",
        "shop": "convenience"
      }
    },
    {
      "type": "node",
      "id": 1108055614,
      "lat": 12.9673076,
      "lon": 77.5425508,
      "tags": {
        "name": "Seetha General Store",
        "shop": "convenience"
      }
    },
    {
      "type": "node",
      "id": 1568753846,
      "lat": 12.9678784,
      "lon": 77.5438967,
      "tags": {
        "brand": "HOPCOMS",
        "brand:wikidata": "Q22908959",
        "name": "HOPCOMS",
        "name:kn": "ಹಾಪ್ ಕಾಮ್ಸ್",
        "shop": "greengrocer"
      }
    },
    {
      "type": "node",
      "id": 1568758585,
      "lat": 12.9672761,
      "lon": 77.5422857,
      "tags": {
        "amenity": "fast_food",
        "name": "Ganga Sagar"
      }
    },
    {
      "type": "node",
      "id": 1568765286,
      "lat": 12.9655182,
      "lon": 77.541311,
      "tags": {
        "amenity": "school",
        "name": "St. Johns High School",
        "wheelchair": "limited"
      }
    },
    {
      "type": "node",
      "id": 1575706224,
      "lat": 12.9674654,
      "lon": 77.5413752,
      "tags": {
        "amenity": "pharmacy",
        "name": "Devi Medicals",
        "wheelchair": "no"
      }
    },
    {
      "type": "node",
      "id": 1778947641,
      "lat": 12.9645291,
      "lon": 77.5387819,
      "tags": {
        "amenity": "place_of_worship",
        "name": "Ganesha Temple (RPC Layout)",
        "name:kn": "ಗಣೇಶ ದೇವಸ್ಥಾನ",
        "religion": "hindu"
      }
    },
    {
      "type": "node",
      "id": 1789736226,
      "lat": 12.9534085,
      "lon": 77.5435706,
      "tags": {
        "amenity": "bus_station",
        "check_date": "2024-04-05",
        "name": "Mysore Road Bus Station",
        "name:kn": "ಮೈಸೂರು ರಸ್ತೆ ಬಸ್ ನಿಲ್ದಾಣ"
      }
    },
    {
      "type": "node",
      "id": 1789739261,
      "lat": 12.9525197,
      "lon": 77.5409488,
      "tags": {
        "amenity": "place_of_worship",
        "check_date": "2022-11-25",
        "name": "Gaali Anjaneya Temple",
        "name:kn": "ಗಾಳಿ ಅಂಜನೇಯ ದೇವಸ್ಥಾನ",
        "religion": "hindu"
      }
    },
    {
      "type": "node",
      "id": 1809698917,
      "lat": 12.9656038,
      "lon": 77.5363115,
      "tags": {
        "amenity": "cafe",
        "brand": "Cafe Coffee Day",
        "brand:wikidata": "Q5017235",
        "cuisine": "coffee_shop",
        "name": "Cafe Coffee Day",
        "name:kn": "ಕಫೆ ಕಾಫಿ ಡೇ",
        "takeaway": "yes",
        "wheelchair": "no"
      }
    },
    {
      "type": "node",
      "id": 2017962169,
      "lat": 12.965712,
      "lon": 77.5363,
      "tags": {
        "amenity": "fast_food"
      }
    },
    {
      "type": "node",
      "id": 2487524459,
      "lat": 12.9669405,
      "lon": 77.5470005,
      "tags": {
        "addr:city": "Bangalore",
        "addr:housename": "Vijayanagar",
        "addr:street": "Hosahalli Main Road",
        "amenity": "fuel",
        "brand": "Total",
        "brand:wikidata": "Q154037",
        "building": "yes",
        "name": "Total Gas"
      }
    },
    {
      "type": "node",
      "id": 2487524460,
      "lat": 12.9664835,
      "lon": 77.5443788,
      "tags": {
        "addr:city": "Bangalore",
        "addr:housename": "Vijayanagar",
        "addr:postcode": "560040",
        "addr:street": "Pipeline Road",
        "name": "Panchamukhi Motors, Bajar Service Station",
        "shop": "motorcycle"
      }
    },
    {
      "type": "node",
      "id": 2487524461,
      "lat": 12.9673086,
      "lon": 77.5461504,
      "tags": {
        "addr:city": "Bangalore",
        "addr:housename": "Vijayanagar",
        "addr:postcode": "560040",
        "addr:street": "Hosahalli Main Road",
        "amenity": "fuel",
        "brand": "Indian Oil",
        "brand:wikidata": "Q1289348",
        "brand:wikipedia": "en:Indian Oil Corporation",
        "building": "yes",
        "name": "Indian Oil",
        "name:kn": "ಇಂಡಿಯನ್ ಆಯಿಲ್"
      }
    },
    {
      "type": "node",
      "id": 2489009755,
      "lat": 12.9668706,
      "lon": 77.543321,
      "tags": {
        "addr:city": "Bangalore",
        "addr:housename": "RPC Layout, Vijayanagar",
        "addr:street": "2nd Cross",
        "brand": "Vision Express",
        "brand:wikidata": "Q7936150",
        "name": "Vision Express",
        "shop": "optician"
      }
    },
    {
      "type": "node",
      "id": 2489009756,
      "lat": 12.9669804,
      "lon": 77.5430045,
      "tags": {
        "addr:city": "Bangalore",
        "addr:housename": "RPC Layout, Vijayanagar",
        "addr:street": "2 Cross, Ram Mandir Road",
        "name": "IFB Point",
        "shop": "electronics"
      }
    },
    {
      "type": "node",
      "id": 2914178500,
      "lat": 12.9580924,
      "lon": 77.5341659,
      "tags": {
        "addr:housename": "Poornima Complex",
        "addr:housenumber": "1st Floor",
        "addr:street": "RPC Layout",
        "amenity": "bank",
        "atm": "yes",
        "name": "Gandharva Sip & Dine;ICICI Bank"
      }
    },
    {
      "type": "node",
      "id": 2914181101,
      "lat": 12.9578735,
      "lon": 77.5342317,
      "tags": {
        "amenity": "bank",
        "branch": "RPC Layout Branch",
        "brand": "State Bank of India",
        "brand:wikidata": "Q1340361",
        "brand:wikipedia": "en:State Bank of India",
        "name": "State Bank of India",
        "name:kn": "ಭಾರತೀಯ ಸ್ಟೇಟ್ ಬ್ಯಾಂಕ್",
        "short_name": "SBI"
      }
    },
    {
      "type": "node",
      "id": 2914218960,
      "lat": 12.9649244,
      "lon": 77.5387391,
      "tags": {
        "addr:city": "Bangalore",
        "addr:postcode": "560040",
        "addr:street": "5th Main, Vijayanagar",
        "amenity": "cafe",
        "cuisine": "South_Indian",
        "description": "Holige, Idli, Dose available",
        "internet_access": "no",
        "name": "By-two Coffee",
        "opening_hours": "Mo-Su 09:30-21:00",
        "phone": "9844086711/9880428819",
        "smoking": "no"
      }
    },
    {
      "type": "node",
      "id": 2914229342,
      "lat": 12.9651023,
      "lon": 77.5380182,
      "tags": {
        "addr:city": "Bangalore",
        "addr:postcode": "560040",
        "amenity": "post_office",
        "name": "Hampi Nagar Post Office",
        "operator": "India Post",
        "operator:wikidata": "Q3519720"
      }
    },
    {
      "type": "node",
      "id": 2914260121,
      "lat": 12.9623406,
      "lon": 77.5342853,
      "tags": {
        "addr:district": "Bengaluru Urban",
        "addr:full": "No.1133/F,30 Ft.Service Road, R.P.C. Layout,Vijaynagar",
        "addr:postcode": "560040",
        "addr:state": "Karnataka",
        "amenity": "hospital",
        "healthcare": "hospital",
        "name": "Sharavathi Hospitals (P) Ltd.",
        "source": "OpenGovernmentData"
      }
    },
    {
      "type": "node",
      "id": 2914302319,
      "lat": 12.9681257,
      "lon": 77.538885,
      "tags": {
        "amenity": "clinic",
        "name": "Ayush Children's Clinic (Dr.Murli)",
        "opening_hours": "07:30-08:00; 18:30-21:30"
      }
    },
    {
      "type": "node",
      "id": 2914344547,
      "lat": 12.96021,
      "lon": 77.5347682,
      "tags": {
        "amenity": "library",
        "name": "Public Library",
        "name:kn": "ಸಾರ್ವಜನಿಕ ಗ್ರಂಥಾಲಯ"
      }
    },
    {
      "type": "node",
      "id": 2914384312,
      "lat": 12.9642991,
      "lon": 77.5406633,
      "tags": {
        "addr:city": "Bangalore",
        "addr:postcode": "560040",
        "addr:street": "vijayanagar",
        "name": "Butter Sponge",
        "shop": "bakery"
      }
    },
    {
      "type": "node",
      "id": 2914384313,
      "lat": 12.9576285,
      "lon": 77.5339363,
      "tags": {
        "addr:city": "Bangalore",
        "addr:postcode": "560040",
        "addr:street": "Attiguppe, Chord Road, Vijayanagar",
        "amenity": "bank",
        "brand": "Syndicate Bank",
        "brand:wikidata": "Q2004088",
        "name": "Syndicate Bank",
        "name:en": "Syndicate Bank",
        "name:kn": "ಸಿಂಡಿಕೇಟ್ ಬ್ಯಾಂಕ್",
        "website": "https://www.syndicatebank.in"
      }
    },
    {
      "type": "node",
      "id": 2962224266,
      "lat": 12.965202,
      "lon": 77.5380586,
      "tags": {
        "addr:city": "Bangalore",
        "addr:postcode": "560040",
        "amenity": "kindergarten",
        "name": "Holy Saint High School"
      }
    },
    {
      "type": "node",
      "id": 3951238108,
      "lat": 12.9671346,
      "lon": 77.5450815,
      "tags": {
        "amenity": "place_of_worship",
        "description": "syro Malabar church",
        "name": "Mary Matha Church",
        "opening_hours": "Mo-Fr 06:30-07:15; Sa 17:30-19:00; Su 09:00-11:00",
        "religion": "christian"
      }
    },
    {
      "type": "node",
      "id": 4100763597,
      "lat": 12.9644353,
      "lon": 77.5495402,
      "tags": {
        "amenity": "atm",
        "opening_hours": "24/7"
      }
    },
    {
      "type": "node",
      "id": 4100763598,
      "lat": 12.9640156,
      "lon": 77.5510964,
      "tags": {
        "addr:street": "Hosahalli Main Road",
        "amenity": "pharmacy",
        "healthcare": "pharmacy",
        "name": "Bangalore Medical",
        "opening_hours": "Mo-Su 10:00-00:00"
      }
    },
    {
      "type": "node",
      "id": 4100777593,
      "lat": 12.9640262,
      "lon": 77.5507761,
      "tags": {
        "amenity": "atm",
        "opening_hours": "24/7"
      }
    },
    {
      "type": "node",
      "id": 4101060393,
      "lat": 12.9607245,
      "lon": 77.5464821,
      "tags": {
        "addr:street": "Pipeline Road",
        "amenity": "place_of_worship",
        "building": "mosque",
        "name:kn": "ಮಸೀದಿ",
        "religion": "muslim"
      }
    },
    {
      "type": "node",
      "id": 4101066891,
      "lat": 12.9618838,
      "lon": 77.5509669,
      "tags": {
        "addr:housenumber": "7th cross padarayana pura",
        "addr:street": "Hosahalli Main Road",
        "amenity": "place_of_worship",
        "building": "mosque",
        "name": "Masjid e Mecca",
        "name:kn": "ಮಸ್ಜಿದ್ ಎ ಮಕ್ಕ",
        "religion": "muslim"
      }
    },
    {
      "type": "node",
      "id": 4101066892,
      "lat": 12.9609456,
      "lon": 77.5506364,
      "tags": {
        "addr:street": "vinayaka nagar",
        "name": "puncher shop",
        "shop": "tyres"
      }
    },
    {
      "type": "node",
      "id": 4101067191,
      "lat": 12.9631344,
      "lon": 77.5497399,
      "tags": {
        "addr:housenumber": "9th cross padarayana pura",
        "addr:street": "Hosahalli Main Road",
        "amenity": "place_of_worship",
        "building": "mosque",
        "name": "Masjid e Rahmaniya",
        "opening_hours": "24/7",
        "religion": "muslim"
      }
    },
    {
      "type": "node",
      "id": 4101067192,
      "lat": 12.9628516,
      "lon": 77.550719,
      "tags": {
        "addr:housenumber": "7th cross padarayana pura",
        "addr:street": "Hosahalli Main Road",
        "amenity": "place_of_worship",
        "building": "mosque",
        "name": "Masjid e Riyazul Jinna",
        "religion": "muslim"
      }
    },
    {
      "type": "node",
      "id": 4101067193,
      "lat": 12.9609798,
      "lon": 77.5499693,
      "tags": {
        "addr:street": "vinayaka nagar old gudahalli",
        "amenity": "place_of_worship",
        "building": "mosque",
        "name": "Masjid e Alquba",
        "religion": "muslim"
      }
    },
    {
      "type": "node",
      "id": 4101067198,
      "lat": 12.9606907,
      "lon": 77.5455229,
      "tags": {
        "addr:street": "Pipeline Road",
        "amenity": "place_of_worship",
        "building": "mosque",
        "name": "Masjid e Amiri Kalimi",
        "religion": "muslim"
      }
    },
    {
      "type": "node",
      "id": 4101094993,
      "lat": 12.9630364,
      "lon": 77.5439374,
      "tags": {
        "addr:street": "Pipeline Road",
        "amenity": "cinema",
        "name": "santosh talkies"
      }
    },
    {
      "type": "node",
      "id": 4101094994,
      "lat": 12.9574368,
      "lon": 77.5418657,
      "tags": {
        "addr:street": "Mysore Road",
        "amenity": "place_of_worship",
        "building": "mosque",
        "name": "Masjid e Hira",
        "name:kn": "ಮಸ್ಜಿದ್-ಎ-ಹೀರ",
        "religion": "muslim"
      }
    },
    {
      "type": "node",
      "id": 4101094995,
      "lat": 12.9625119,
      "lon": 77.5486586,
      "tags": {
        "addr:street": "Hosahalli Main Road",
        "amenity": "restaurant",
        "name": "Khawja Hotel"
      }
    },
    {
      "type": "node",
      "id": 4101094996,
      "lat": 12.9620904,
      "lon": 77.5496787,
      "tags": {
        "amenity": "community_centre",
        "name": "Government Function Hall"
      }
    },
    {
      "type": "node",
      "id": 4101097189,
      "lat": 12.9626268,
      "lon": 77.5485405,
      "tags": {
        "addr:housenumber": "11th cross padarayana pura",
        "addr:street": "Hosahalli Main Road",
        "amenity": "place_of_worship",
        "building": "mosque",
        "name": "Masjid e Towheed",
        "name:kn": "ಮಸ್ಜಿದ್-ಎ-ತೌಹೀದ್",
        "opening_hours": "24/7",
        "religion": "muslim"
      }
    },
    {
      "type": "node",
      "id": 4101097390,
      "lat": 12.9569629,
      "lon": 77.5491868,
      "tags": {
        "addr:street": "Mysore Road",
        "amenity": "fuel",
        "brand": "Shell",
        "brand:wikidata": "Q110716465",
        "name": "Shell",
        "name:kn": "ಶೆಲ್"
      }
    },
    {
      "type": "node",
      "id": 4101097391,
      "lat": 12.9572135,
      "lon": 77.5429632,
      "tags": {
        "addr:street": "Mysore Road",
        "amenity": "cinema",
        "name": "shobha talkies"
      }
    },
    {
      "type": "node",
      "id": 4101097393,
      "lat": 12.9641843,
      "lon": 77.5502624,
      "tags": {
        "addr:street": "Hosahalli Main Road",
        "amenity": "pharmacy",
        "healthcare": "pharmacy",
        "name": "star hospital ",
        "opening_hours": "24/7"
      }
    },
    {
      "type": "node",
      "id": 4104244613,
      "lat": 12.9580745,
      "lon": 77.5341292,
      "tags": {
        "addr:city": "Bangalore",
        "addr:housenumber": "998/20",
        "addr:postcode": "560040",
        "addr:street": "Chord Road",
        "amenity": "bank",
        "atm": "yes",
        "brand": "ICICI Bank",
        "brand:wikidata": "Q1653258",
        "drive_through": "no",
        "name": "ICICI Bank",
        "name:en": "ICICI Bank",
        "name:kn": "ಐಸಿಐಸಿಐ ಬ್ಯಾಂಕು",
        "opening_hours": "8:00-20:00",
        "short_name": "ICICI",
        "website": "https://www.icicibank.com"
      }
    },
    {
      "type": "node",
      "id": 4130913192,
      "lat": 12.9609208,
      "lon": 77.5490696,
      "tags": {
        "amenity": "clinic"
      }
    },
    {
      "type": "node",
      "id": 4130913291,
      "lat": 12.9633542,
      "lon": 77.5487215,
      "tags": {
        "addr:street": "Hosahalli Main Road",
        "amenity": "pharmacy",
        "healthcare": "pharmacy",
        "name": "Kashif Medical"
      }
    },
    {
      "type": "node",
      "id": 4130913292,
      "lat": 12.9677777,
      "lon": 77.545264,
      "tags": {
        "addr:street": "Pipeline Road",
        "amenity": "clinic",
        "name": "Ashvini"
      }
    },
    {
      "type": "node",
      "id": 4130913294,
      "lat": 12.9640984,
      "lon": 77.5506116,
      "tags": {
        "addr:street": "Hosahalli Main Road",
        "amenity": "pharmacy",
        "healthcare": "pharmacy",
        "name": "Mysore Medical"
      }
    },
    {
      "type": "node",
      "id": 4130929490,
      "lat": 12.964313,
      "lon": 77.5489284,
      "tags": {
        "addr:street": "Hosahalli Main Road",
        "amenity": "doctors",
        "healthcare": "doctor",
        "name": "Mustafa Doctor"
      }
    },
    {
      "type": "node",
      "id": 4130929491,
      "lat": 12.9609947,
      "lon": 77.5508936,
      "tags": {
        "addr:street": "vinayaka nagar",
        "amenity": "bus_station",
        "bus": "yes",
        "name": "Old Gudahalli",
        "public_transport": "station"
      }
    },
    {
      "type": "node",
      "id": 4130929493,
      "lat": 12.9621886,
      "lon": 77.5493658,
      "tags": {
        "amenity": "clinic",
        "healthcare": "clinic",
        "name": "Shahid Doctor"
      }
    },
    {
      "type": "node",
      "id": 4130934095,
      "lat": 12.9635067,
      "lon": 77.5487362,
      "tags": {
        "name": "ladies dress dulhan ",
        "shop": "clothes"
      }
    },
    {
      "type": "node",
      "id": 4130934098,
      "lat": 12.9608368,
      "lon": 77.5485824,
      "tags": {
        "amenity": "cafe",
        "name": "Bismillah Tea Hotel"
      }
    },
    {
      "type": "node",
      "id": 4130960192,
      "lat": 12.9640886,
      "lon": 77.5503466,
      "tags": {
        "name": "Ayub Bakery",
        "shop": "bakery"
      }
    },
    {
      "type": "node",
      "id": 4130960193,
      "lat": 12.9641006,
      "lon": 77.5502859,
      "tags": {
        "shop": "hairdresser"
      }
    },
    {
      "type": "node",
      "id": 4130960196,
      "lat": 12.9614166,
      "lon": 77.5486757,
      "tags": {
        "amenity": "theatre",
        "name": "a.m function hall"
      }
    },
    {
      "type": "node",
      "id": 4130960197,
      "lat": 12.9609197,
      "lon": 77.5483084,
      "tags": {
        "amenity": "clinic",
        "name": "saty doctor"
      }
    },
    {
      "type": "node",
      "id": 4130960198,
      "lat": 12.9632664,
      "lon": 77.5488141,
      "tags": {
        "addr:street": "Hosahalli Main Road",
        "name": "Manjunatha Bakery",
        "shop": "bakery"
      }
    },
    {
      "type": "node",
      "id": 4130960289,
      "lat": 12.9608675,
      "lon": 77.5495476,
      "tags": {
        "amenity": "atm",
        "opening_hours": "24/7"
      }
    },
    {
      "type": "node",
      "id": 4130960389,
      "lat": 12.9626651,
      "lon": 77.5482596,
      "tags": {
        "addr:housenumber": "12th cross",
        "addr:street": "Hosahalli Main Road",
        "amenity": "pharmacy",
        "name": "Unity Hospital"
      }
    },
    {
      "type": "node",
      "id": 4130960394,
      "lat": 12.9616399,
      "lon": 77.5484171,
      "tags": {
        "amenity": "clinic"
      }
    },
    {
      "type": "node",
      "id": 4130960395,
      "lat": 12.962222,
      "lon": 77.5505208,
      "tags": {
        "amenity": "cafe"
      }
    },
    {
      "type": "node",
      "id": 4130960396,
      "lat": 12.9615054,
      "lon": 77.5504015,
      "tags": {
        "amenity": "cafe",
        "name": "Bismillah Tea Hotel"
      }
    },
    {
      "type": "node",
      "id": 4130960489,
      "lat": 12.9642578,
      "lon": 77.5489199,
      "tags": {
        "addr:street": "Hosahalli Main Road",
        "amenity": "pharmacy",
        "healthcare": "pharmacy",
        "name": "Shifa Medical"
      }
    },
    {
      "type": "node",
      "id": 4130960490,
      "lat": 12.9621356,
      "lon": 77.5493894,
      "tags": {
        "amenity": "pharmacy",
        "healthcare": "pharmacy"
      }
    },
    {
      "type": "node",
      "id": 4130960491,
      "lat": 12.9641082,
      "lon": 77.5504793,
      "tags": {
        "addr:street": "Hosahalli Main Road",
        "amenity": "cafe",
        "name": "Khalil Tea Hotel"
      }
    },
    {
      "type": "node",
      "id": 4130960492,
      "lat": 12.9632318,
      "lon": 77.5500256,
      "tags": {
        "amenity": "cafe",
        "name": "Bombay tea hotel"
      }
    },
    {
      "type": "node",
      "id": 4130960991,
      "lat": 12.9643548,
      "lon": 77.5499608,
      "tags": {
        "addr:street": "Hosahalli Main Road",
        "amenity": "theatre",
        "name": "Kk Function Hall"
      }
    },
    {
      "type": "node",
      "id": 4130960992,
      "lat": 12.961869,
      "lon": 77.5471629,
      "tags": {
        "amenity": "cinema",
        "name": "Sujatha Talkies",
        "name:kn": "ಸುಜಾತ ಚಿತ್ರಮಂದಿರ"
      }
    },
    {
      "type": "node",
      "id": 4130960993,
      "lat": 12.9608471,
      "lon": 77.5490504,
      "tags": {
        "name": "Ayenger Bakery",
        "name:kn": "ಅಯ್ಯಂಗರ್",
        "shop": "bakery"
      }
    },
    {
      "type": "node",
      "id": 4130961390,
      "lat": 12.9671968,
      "lon": 77.5402087,
      "tags": {
        "name": "Car Garage",
        "shop": "car_repair"
      }
    },
    {
      "type": "node",
      "id": 4130962589,
      "lat": 12.9640632,
      "lon": 77.5509417,
      "tags": {
        "amenity": "clinic",
        "healthcare": "clinic"
      }
    },
    {
      "type": "node",
      "id": 4130962590,
      "lat": 12.9608525,
      "lon": 77.5490077,
      "tags": {
        "amenity": "pharmacy",
        "healthcare": "pharmacy"
      }
    },
    {
      "type": "node",
      "id": 4130962591,
      "lat": 12.9638664,
      "lon": 77.5510308,
      "tags": {
        "amenity": "cafe",
        "name": "Bismillah Tea Hotel"
      }
    },
    {
      "type": "node",
      "id": 4130962989,
      "lat": 12.9612397,
      "lon": 77.5508007,
      "tags": {
        "amenity": "drinking_water",
        "name": "doctor water"
      }
    },
    {
      "type": "node",
      "id": 4446374048,
      "lat": 12.9643262,
      "lon": 77.5404059,
      "tags": {
        "addr:city": "Bangalore",
        "addr:housenumber": "15",
        "addr:postcode": "560040",
        "addr:street": "5th Main Road Rpc Layout, Vijayanagar",
        "amenity": "restaurant",
        "cuisine": "regional",
        "name": "Sai Prasadam",
        "opening_hours": "10:00-22:00",
        "phone": "80-23200916"
      }
    },
    {
      "type": "node",
      "id": 4447094596,
      "lat": 12.9675638,
      "lon": 77.539088,
      "tags": {
        "addr:city": "Bangalore",
        "addr:housenumber": "2260",
        "addr:postcode": "560040",
        "addr:street": "4th 'A' cross, 1st Main Road Vijayanagar, Club Ave, Vijay nagar, Hosahalli Extension, Vijayanagar",
        "amenity": "pharmacy",
        "name": "Health Heal Physio",
        "phone": "+91 88800 04422"
      }
    },
    {
      "type": "node",
      "id": 4447100075,
      "lat": 12.9649703,
      "lon": 77.5389842,
      "tags": {
        "addr:city": "Bangalore",
        "addr:housenumber": "221",
        "addr:postcode": "560040",
        "addr:street": "1st Floor, Next to Sai Prasadam Hotel, 5th Main Rd, Hampi Nagar 2nd Stage, RPC Layout",
        "amenity": "hospital",
        "healthcare": "hospital",
        "name": "Blossom Infertility Center",
        "phone": "+91 99009 99116"
      }
    },
    {
      "type": "node",
      "id": 4447105332,
      "lat": 12.958321,
      "lon": 77.5350434,
      "tags": {
        "addr:city": "Bangalore",
        "addr:housenumber": "30",
        "addr:postcode": "560040",
        "addr:street": "1108/30 10Th Main 4Th Cross, Rpc Layout, Vijayanagar",
        "amenity": "hospital",
        "name": "Padmashree Nursing Home and Maternity Home",
        "phone": "080 2311 8372"
      }
    },
    {
      "type": "node",
      "id": 4490214038,
      "lat": 12.9684633,
      "lon": 77.5405727,
      "tags": {
        "addr:city": "Bangalore",
        "addr:housenumber": "No 2420/B",
        "addr:postcode": "560040",
        "addr:street": "1st Main Road,SBI Staff Colony, Vijayanagar,",
        "name": "Green Trends Unisex Hair and Style Salon",
        "opening_hours": "10:00  - 21:00",
        "phone": "91)-80-33532031",
        "shop": "beauty",
        "website": "https://www.mygreentrends.in/"
      }
    },
    {
      "type": "node",
      "id": 4513110189,
      "lat": 12.9601779,
      "lon": 77.5345169,
      "tags": {
        "amenity": "library",
        "name": "RPC Layout Central Library",
        "name:en": "RPC Layout Central Library"
      }
    },
    {
      "type": "node",
      "id": 4516946096,
      "lat": 12.9673595,
      "lon": 77.5453295,
      "tags": {
        "addr:postcode": "560040",
        "addr:street": "Hosahalli Main Road",
        "name": "K L D fish stall",
        "name:en": "K L D fish stall",
        "opening_hours": "Tu-Su 08:00-13:00",
        "phone": "+91 9448682253",
        "shop": "seafood"
      }
    },
    {
      "type": "node",
      "id": 4520910090,
      "lat": 12.9672966,
      "lon": 77.545065,
      "tags": {
        "amenity": "atm",
        "operator": "Karnataka Bank ATM"
      }
    },
    {
      "type": "node",
      "id": 4520918289,
      "lat": 12.9663276,
      "lon": 77.5443481,
      "tags": {
        "amenity": "atm",
        "operator": "Vijaya Bank"
      }
    },
    {
      "type": "node",
      "id": 4533766191,
      "lat": 12.9641822,
      "lon": 77.5424512,
      "tags": {
        "addr:street": "5th Main",
        "amenity": "bank",
        "name": "Panjab National Bank",
        "name:en": "Panjab national Bank"
      }
    },
    {
      "type": "node",
      "id": 4533766192,
      "lat": 12.964348,
      "lon": 77.5402052,
      "tags": {
        "amenity": "atm",
        "brand": "State Bank of India",
        "brand:wikidata": "Q1340361",
        "name": "State Bank of India",
        "operator": "State Bank of India",
        "operator:wikidata": "Q1340361",
        "short_name": "SBI"
      }
    },
    {
      "type": "node",
      "id": 4533776989,
      "lat": 12.965614,
      "lon": 77.5432765,
      "tags": {
        "brand": "HOPCOMS",
        "brand:wikidata": "Q22908959",
        "name": "HOPCOMS",
        "name:en": "HOPCOMS",
        "name:kn": "ಹಾಪ್ ಕಾಮ್ಸ್",
        "shop": "greengrocer"
      }
    },
    {
      "type": "node",
      "id": 4534097697,
      "lat": 12.9681925,
      "lon": 77.5455125,
      "tags": {
        "addr:district": "Bengaluru Urban",
        "addr:full": "72 14Th Cross Vijayanagar Pipeline Road Cholurpalya",
        "addr:postcode": "560023",
        "addr:state": "Karnataka",
        "amenity": "clinic",
        "name": "Tejus hospital",
        "name:en": "Tejas hospital",
        "source": "OpenGovernmentData"
      }
    },
    {
      "type": "node",
      "id": 4542486736,
      "lat": 12.9537484,
      "lon": 77.543639,
      "tags": {
        "addr:city": "Bangalore",
        "addr:postcode": "560026",
        "addr:street": "Mysore Road",
        "alt_name": "A2B",
        "amenity": "restaurant",
        "brand": "Adyar Ananda Bhavan",
        "brand:wikidata": "Q15178238",
        "cuisine": "South_Indian",
        "diet:vegetarian": "only",
        "email": "info@aabsweets.com",
        "name": "Adyar Ananda Bhavan",
        "name:kn": "ಆದ್ಯಾರ್ ಆನಂದ ಭವನ",
        "opening_hours": "7:00-22:30",
        "operator": "Adyar Ananda Bhavan",
        "phone": "+91 80 2674 6999",
        "smoking": "no",
        "website": "https://aabsweets.com"
      }
    },
    {
      "type": "node",
      "id": 4542490906,
      "lat": 12.9543065,
      "lon": 77.5444531,
      "tags": {
        "amenity": "post_office",
        "check_date": "2022-11-25",
        "name": "India Post"
      }
    },
    {
      "type": "node",
      "id": 4542494317,
      "lat": 12.9556017,
      "lon": 77.5459806,
      "tags": {
        "addr:city": "Bangalore",
        "addr:postcode": "560026",
        "addr:street": "Mysore Road",
        "name": "Deco Design",
        "operator": "Deco Design",
        "shop": "furniture",
        "wheelchair": "no"
      }
    },
    {
      "type": "node",
      "id": 4619897393,
      "lat": 12.9582106,
      "lon": 77.5348921,
      "tags": {
        "amenity": "atm",
        "operator": "SBI E-lobby"
      }
    },
    {
      "type": "node",
      "id": 4620010389,
      "lat": 12.9584059,
      "lon": 77.5356011,
      "tags": {
        "amenity": "atm",
        "brand": "State Bank of India",
        "brand:wikidata": "Q1340361",
        "name": "State Bank of India",
        "operator": "State Bank of India",
        "operator:wikidata": "Q1340361",
        "short_name": "SBI"
      }
    },
    {
      "type": "node",
      "id": 4620010489,
      "lat": 12.9582945,
      "lon": 77.5351343,
      "tags": {
        "amenity": "atm",
        "operator": "Union Bank"
      }
    },
    {
      "type": "node",
      "id": 5103586722,
      "lat": 12.9536888,
      "lon": 77.543512,
      "tags": {
        "addr:street": "Mysore Road",
        "amenity": "restaurant",
        "check_date": "2022-11-25",
        "name": "Imperial Restaurant",
        "source": "survey"
      }
    },
    {
      "type": "node",
      "id": 5147958922,
      "lat": 12.9665385,
      "lon": 77.544607,
      "tags": {
        "addr:postcode": "560040",
        "addr:street": "Church Service Road",
        "amenity": "fast_food",
        "brand": "Indira Canteen",
        "brand:wikidata": "Q36164828",
        "cuisine": "south_indian",
        "name": "Indira Canteen",
        "operator": "BBMP",
        "takeaway": "yes"
      }
    },
    {
      "type": "node",
      "id": 5259390022,
      "lat": 12.9629891,
      "lon": 77.551268,
      "tags": {
        "amenity": "school",
        "name": "Kinto School"
      }
    },
    {
      "type": "node",
      "id": 5259390023,
      "lat": 12.9610936,
      "lon": 77.5468666,
      "tags": {
        "amenity": "school",
        "name": "Kinto High School"
      }
    },
    {
      "type": "node",
      "id": 5259390024,
      "lat": 12.9622432,
      "lon": 77.5494253,
      "tags": {
        "amenity": "drinking_water",
        "name": "Doctor water"
      }
    },
    {
      "type": "node",
      "id": 5259407521,
      "lat": 12.9638701,
      "lon": 77.5499513,
      "tags": {
        "amenity": "clinic",
        "healthcare": "nursing",
        "name": "Shilpa nursing home"
      }
    },
    {
      "type": "node",
      "id": 5307972739,
      "lat": 12.9605675,
      "lon": 77.5350542,
      "tags": {
        "name": "Aravind Book Store",
        "shop": "books"
      }
    },
    {
      "type": "node",
      "id": 5342668560,
      "lat": 12.9651565,
      "lon": 77.5379718,
      "tags": {
        "amenity": "atm",
        "brand": "India Post Payments Bank",
        "brand:en": "India Post Payments Bank",
        "brand:hi": "भारतीय डाक भुगतान बैंक",
        "brand:wikidata": "Q2003302",
        "name": "India Post Payments Bank",
        "name:en": "India Post Payments Bank",
        "name:hi": "भारतीय डाक भुगतान बैंक",
        "operator": "India Post Payments Bank",
        "operator:wikidata": "Q2003302"
      }
    },
    {
      "type": "node",
      "id": 5412441733,
      "lat": 12.9635234,
      "lon": 77.5378026,
      "tags": {
        "amenity": "toilets"
      }
    },
    {
      "type": "node",
      "id": 5614863421,
      "lat": 12.966938,
      "lon": 77.5386653,
      "tags": {
        "amenity": "kindergarten",
        "name": "Apple kids",
        "opening_hours": "Mo-Sa 09:00-19:00"
      }
    },
    {
      "type": "node",
      "id": 5614863422,
      "lat": 12.9671648,
      "lon": 77.5386866,
      "tags": {
        "amenity": "kindergarten",
        "name": "Times school"
      }
    },
    {
      "type": "node",
      "id": 5678058124,
      "lat": 12.9642911,
      "lon": 77.5416866,
      "tags": {
        "amenity": "drinking_water",
        "name": "RO Center"
      }
    },
    {
      "type": "node",
      "id": 5678058126,
      "lat": 12.9672282,
      "lon": 77.5412711,
      "tags": {
        "amenity": "drinking_water",
        "name": "RO center"
      }
    },
    {
      "type": "node",
      "id": 5879132707,
      "lat": 12.9677607,
      "lon": 77.5413282,
      "tags": {
        "addr:district": "Bengaluru Urban",
        "addr:full": "No.14 , Maruthi Nagar , Near Maruthi Temple , Nagarbhavi Main Road",
        "addr:postcode": "560072",
        "addr:state": "Karnataka",
        "amenity": "hospital",
        "name": "Maruthi Hospital",
        "name:kn": "ಮಾರುತಿ ಆಸ್ಪತ್ರೆ",
        "source": "OpenGovernmentData"
      }
    },
    {
      "type": "node",
      "id": 5921847685,
      "lat": 12.96482,
      "lon": 77.5352602,
      "tags": {
        "addr:housenumber": "39/2",
        "addr:postcode": "560040",
        "addr:street": "Sha Shi Marulayya Road",
        "name": "Sri Sai Telecom Carl",
        "name:en": "Sri Sai Tele communication (CarlCare Centre)",
        "opening_hours": "Mo-Sa 10:00-18:30",
        "phone": "+918048658105",
        "shop": "mobile_phone"
      }
    },
    {
      "type": "node",
      "id": 6209428549,
      "lat": 12.9585898,
      "lon": 77.5392625,
      "tags": {
        "amenity": "restaurant",
        "name": "New Sagar Hotel"
      }
    },
    {
      "type": "node",
      "id": 6209440473,
      "lat": 12.9592702,
      "lon": 77.539807,
      "tags": {
        "amenity": "place_of_worship",
        "name": "Devi Maramma",
        "religion": "hindu"
      }
    },
    {
      "type": "node",
      "id": 6209457584,
      "lat": 12.9615935,
      "lon": 77.5403059,
      "tags": {
        "amenity": "fast_food",
        "name": "condiments"
      }
    },
    {
      "type": "node",
      "id": 6938774143,
      "lat": 12.9650437,
      "lon": 77.5435022,
      "tags": {
        "addr:district": "Bengaluru Urban",
        "addr:full": "No.10, Pipeline Road, RPC Layout, Vijayanagar, 2nd Stage",
        "addr:postcode": "560104",
        "addr:state": "Karnataka",
        "amenity": "hospital",
        "email": "skamcBengaluru@gmail.com",
        "healthcare": "hospital",
        "name": "Sri Kalabyraveshwara Swamy Ayurvedic Medical College hospital",
        "operator:type": "private",
        "source": "OpenGovernmentData",
        "website": "http://skayurvediccollegeandhospital.com/"
      }
    },
    {
      "type": "node",
      "id": 6944309977,
      "lat": 12.9645006,
      "lon": 77.5427189,
      "tags": {
        "addr:district": "Bengaluru Urban",
        "addr:full": "No. 1869, 5Th Main, 13Th Cross, R.P.C. Lay Out, Vijayanagar",
        "addr:postcode": "560040",
        "addr:state": "Karnataka",
        "amenity": "hospital",
        "healthcare": "hospital",
        "name": "Susheel Hospital",
        "source": "OpenGovernmentData"
      }
    },
    {
      "type": "node",
      "id": 6944464994,
      "lat": 12.9559644,
      "lon": 77.5485635,
      "tags": {
        "addr:district": "Bengaluru Urban",
        "addr:full": "Kasturabanagar, Mysore Road , South",
        "addr:postcode": "560026",
        "addr:state": "Karnataka",
        "amenity": "hospital",
        "name": "Azad Nagar Maternity Home",
        "source": "OpenGovernmentData"
      }
    },
    {
      "type": "node",
      "id": 6945348721,
      "lat": 12.9586907,
      "lon": 77.5352668,
      "tags": {
        "addr:district": "Bengaluru Urban",
        "addr:full": "#966/ 22, Service Road, RPC Layout, Vijayanagar, Opposite Syndicate Bank",
        "addr:postcode": "560104",
        "addr:state": "Karnataka",
        "amenity": "hospital",
        "healthcare": "hospital",
        "healthcare:speciality": "Cataract Treatment; Cornea Clinic; Retina Clinic; Glaucoma Clinic",
        "name": "Divya Drishti Eye Hospital, Vijayanagar",
        "operator:type": "private",
        "source": "OpenGovernmentData",
        "website": "http://divyadrishtieyehospital.com/"
      }
    },
    {
      "type": "node",
      "id": 6947268976,
      "lat": 12.9561944,
      "lon": 77.5460348,
      "tags": {
        "addr:district": "Bengaluru Urban",
        "addr:full": "1/1,1/2,1/3, New Guddadahalli, Mysore Road",
        "addr:postcode": "560026",
        "addr:state": "Karnataka",
        "amenity": "clinic",
        "name": "Balaji Nursing Home",
        "source": "OpenGovernmentData"
      }
    },
    {
      "type": "node",
      "id": 7124643398,
      "lat": 12.9574282,
      "lon": 77.5342686,
      "tags": {
        "access": "customers",
        "amenity": "toilets",
        "fee": "yes"
      }
    },
    {
      "type": "node",
      "id": 7164440797,
      "lat": 12.9574242,
      "lon": 77.5340112,
      "tags": {
        "name": "Queen's Creation",
        "shop": "clothes"
      }
    },
    {
      "type": "node",
      "id": 7572491983,
      "lat": 12.9679511,
      "lon": 77.5388826,
      "tags": {
        "addr:district": "Bengaluru Urban",
        "addr:full": "Hoshalli Extension, Vijayanagar, Bengaluru",
        "addr:postcode": "560104",
        "addr:state": "Karnataka",
        "amenity": "clinic",
        "name": "Raju Institute Of Nephro Urology Clinic",
        "source": "Local Knowledge"
      }
    },
    {
      "type": "node",
      "id": 7572526730,
      "lat": 12.966677,
      "lon": 77.5424542,
      "tags": {
        "addr:district": "Bengaluru Urban",
        "addr:full": "RPC Layout, Hoshalli Extension, Vijayanagar, Bengaluru",
        "addr:postcode": "560104",
        "addr:state": "Karnataka",
        "amenity": "clinic",
        "name": "GHOC Clinic",
        "source": "Local Knowledge"
      }
    },
    {
      "type": "node",
      "id": 7572526739,
      "lat": 12.967029,
      "lon": 77.541853,
      "tags": {
        "addr:district": "Bengaluru Urban",
        "addr:full": "Hosahalli Extension, Vijayanagar, Bengaluru",
        "addr:postcode": "560104",
        "addr:state": "Karnataka",
        "amenity": "doctors",
        "name": "Dr. S C Shankaralingaiah",
        "source": "Local Knowledge"
      }
    },
    {
      "type": "node",
      "id": 8120747620,
      "lat": 12.9593325,
      "lon": 77.5363763,
      "tags": {
        "addr:postcode": "560104",
        "addr:street": "9th Main Road",
        "amenity": "vending_machine",
        "name": "Water ATM",
        "vending": "water"
      }
    },
    {
      "type": "node",
      "id": 10218102646,
      "lat": 12.9545702,
      "lon": 77.5447288,
      "tags": {
        "amenity": "atm",
        "brand": "ICICI Bank",
        "brand:wikidata": "Q1653258",
        "cash_in": "no",
        "check_date": "2022-11-25",
        "name": "ICICI Bank",
        "operator": "ICICI Bank",
        "operator:wikidata": "Q1653258",
        "short_name": "ICICI",
        "source": "survey"
      }
    },
    {
      "type": "node",
      "id": 10218102647,
      "lat": 12.9533862,
      "lon": 77.5424568,
      "tags": {
        "amenity": "place_of_worship",
        "check_date": "2022-11-25",
        "name:en": "Roshan Mosque",
        "religion": "muslim",
        "source": "survey"
      }
    },
    {
      "type": "node",
      "id": 10571038248,
      "lat": 12.9546654,
      "lon": 77.5448794,
      "tags": {
        "addr:city": "Bengaluru",
        "addr:housenumber": "No 2",
        "addr:postcode": "560026",
        "addr:street": "Timberyard Layout Feather Lite Compound, Mysore Road",
        "branch": "Big Wing Service Topline",
        "brand": "Honda",
        "name": "Honda Big Wing Service Topline",
        "not:brand:wikidata": "Q9584",
        "opening_hours": "Mo-Su 09:30-18:30",
        "phone": "09844564832",
        "shop": "motorcycle_repair"
      }
    },
    {
      "type": "node",
      "id": 11248255456,
      "lat": 12.9571796,
      "lon": 77.5501655,
      "tags": {
        "amenity": "bank",
        "brand": "Union Bank of India",
        "brand:wikidata": "Q2004078",
        "check_date": "2023-10-08",
        "name": "Union Bank of India",
        "name:kn": "ಯೂನಿಯನ್ ಬ್ಯಾಂಕ್"
      }
    },
    {
      "type": "node",
      "id": 11248255457,
      "lat": 12.9571816,
      "lon": 77.550277,
      "tags": {
        "amenity": "atm",
        "brand": "Union Bank of India",
        "brand:wikidata": "Q2004078",
        "check_date": "2023-10-08",
        "operator": "Union Bank of India",
        "operator:wikidata": "Q2004078"
      }
    },
    {
      "type": "node",
      "id": 11248255458,
      "lat": 12.9573596,
      "lon": 77.5511498,
      "tags": {
        "amenity": "fuel",
        "brand": "Bharat Petroleum",
        "brand:wikidata": "Q854826",
        "check_date": "2024-01-25",
        "name": "Bharat Petroleum",
        "name:en": "Bharat Petroleum",
        "name:kn": "ಭಾರತ್ ಪೆಟ್ರೋಲಿಯಂ",
        "self_service": "no"
      }
    },
    {
      "type": "node",
      "id": 11323076631,
      "lat": 12.9523737,
      "lon": 77.5438444,
      "tags": {
        "amenity": "restaurant",
        "check_date": "2024-04-05",
        "name": "Kadamba Classic Hotel"
      }
    },
    {
      "type": "node",
      "id": 11323095020,
      "lat": 12.9525544,
      "lon": 77.5434542,
      "tags": {
        "amenity": "toilets",
        "check_date": "2024-04-05",
        "fee": "yes",
        "wheelchair": "yes"
      }
    },
    {
      "type": "node",
      "id": 11323095021,
      "lat": 12.9523656,
      "lon": 77.544301,
      "tags": {
        "amenity": "toilets",
        "fee": "yes",
        "female": "yes",
        "male": "yes"
      }
    },
    {
      "type": "node",
      "id": 11903974620,
      "lat": 12.9600943,
      "lon": 77.535249,
      "tags": {
        "check_date": "2024-05-14",
        "name": "Nandini",
        "shop": "dairy"
      }
    },
    {
      "type": "node",
      "id": 11904000038,
      "lat": 12.9612426,
      "lon": 77.5346527,
      "tags": {
        "check_date": "2024-05-14",
        "leisure": "sports_centre",
        "name": "VFive",
        "operator:type": "private",
        "sport": "fitness;badminton"
      }
    },
    {
      "type": "node",
      "id": 11904013614,
      "lat": 12.9598176,
      "lon": 77.5335655,
      "tags": {
        "amenity": "clinic",
        "check_date": "2024-05-14",
        "healthcare": "clinic",
        "name": "Keshava Polyclinic"
      }
    },
    {
      "type": "node",
      "id": 11904020620,
      "lat": 12.9595929,
      "lon": 77.5356369,
      "tags": {
        "amenity": "place_of_worship",
        "check_date": "2024-05-14",
        "name": "Vishvakarma Temple",
        "religion": "hindu"
      }
    },
    {
      "type": "node",
      "id": 11904038969,
      "lat": 12.9604833,
      "lon": 77.5352336,
      "tags": {
        "check_date": "2024-05-14",
        "name": "Midas Touch Saloon",
        "shop": "beauty"
      }
    },
    {
      "type": "node",
      "id": 11904042865,
      "lat": 12.9595766,
      "lon": 77.535977,
      "tags": {
        "amenity": "cafe",
        "check_date": "2024-05-14",
        "name": "Mandya Cafe"
      }
    },
    {
      "type": "node",
      "id": 11904042969,
      "lat": 12.9593134,
      "lon": 77.5360153,
      "tags": {
        "amenity": "clinic",
        "check_date": "2024-05-14",
        "healthcare": "clinic",
        "name": "Namma Clinic",
        "operator": "Government"
      }
    },
    {
      "type": "node",
      "id": 11904046645,
      "lat": 12.95979,
      "lon": 77.5339559,
      "tags": {
        "check_date": "2024-05-14",
        "name": "The Fresh Greens",
        "shop": "convenience"
      }
    },
    {
      "type": "node",
      "id": 11904046646,
      "lat": 12.9597543,
      "lon": 77.533889,
      "tags": {
        "check_date": "2024-05-14",
        "name": "Marudhar Furnishing",
        "shop": "furniture"
      }
    },
    {
      "type": "node",
      "id": 11904060987,
      "lat": 12.9598893,
      "lon": 77.5337545,
      "tags": {
        "amenity": "events_venue",
        "check_date": "2024-05-14",
        "name": "Rajathashree Party Hall"
      }
    },
    {
      "type": "node",
      "id": 11919877826,
      "lat": 12.9678746,
      "lon": 77.53859,
      "tags": {
        "check_date": "2024-05-20",
        "clothes": "men;children;women",
        "name": "Desi Store",
        "shop": "clothes"
      }
    },
    {
      "type": "node",
      "id": 11922136038,
      "lat": 12.9655044,
      "lon": 77.5367666,
      "tags": {
        "amenity": "atm",
        "brand": "ICICI Bank",
        "brand:wikidata": "Q1653258",
        "check_date": "2024-05-21",
        "operator": "ICICI Bank",
        "operator:wikidata": "Q1653258",
        "short_name": "ICICI"
      }
    },
    {
      "type": "node",
      "id": 11922136039,
      "lat": 12.9655423,
      "lon": 77.5366178,
      "tags": {
        "amenity": "atm",
        "brand": "Kotak Mahindra Bank",
        "brand:wikidata": "Q2040404",
        "check_date": "2024-05-21",
        "operator": "Kotak Mahindra Bank",
        "operator:wikidata": "Q2040404"
      }
    },
    {
      "type": "node",
      "id": 11922152406,
      "lat": 12.9654054,
      "lon": 77.5369897,
      "tags": {
        "check_date": "2024-05-21",
        "name": "Nivvi's Pets",
        "shop": "pet"
      }
    },
    {
      "type": "node",
      "id": 11922182881,
      "lat": 12.9653192,
      "lon": 77.5372327,
      "tags": {
        "addr:floor": "1",
        "check_date": "2024-05-21",
        "level": "1",
        "name": "Decorland",
        "shop": "flooring"
      }
    },
    {
      "type": "node",
      "id": 11922182882,
      "lat": 12.9652902,
      "lon": 77.5372027,
      "tags": {
        "addr:floor": "G",
        "check_date": "2024-05-21",
        "level": "0",
        "name": "Preity's Silks",
        "shop": "clothes"
      }
    },
    {
      "type": "node",
      "id": 11922186732,
      "lat": 12.9653758,
      "lon": 77.5371458,
      "tags": {
        "amenity": "fixme",
        "check_date": "2024-05-21",
        "fixme": "type",
        "fixme:type": "courier",
        "name": "SME Express"
      }
    },
    {
      "type": "node",
      "id": 11922188745,
      "lat": 12.9654322,
      "lon": 77.5368748,
      "tags": {
        "check_date": "2024-05-21",
        "name": "Impana Images",
        "shop": "photo"
      }
    },
    {
      "type": "node",
      "id": 11922189794,
      "lat": 12.9654,
      "lon": 77.5370654,
      "tags": {
        "check_date": "2024-05-21",
        "name": "Oxford Saloon",
        "shop": "hairdresser"
      }
    },
    {
      "type": "node",
      "id": 11922194550,
      "lat": 12.9652737,
      "lon": 77.5373512,
      "tags": {
        "check_date": "2024-05-21",
        "name": "Belli Jewellers",
        "shop": "jewelry"
      }
    },
    {
      "type": "node",
      "id": 11922199835,
      "lat": 12.9652886,
      "lon": 77.537287,
      "tags": {
        "check_date": "2024-05-21",
        "name": "Praveen Jewellers",
        "shop": "jewelry"
      }
    },
    {
      "type": "node",
      "id": 11922269793,
      "lat": 12.9654241,
      "lon": 77.5378299,
      "tags": {
        "check_date": "2024-05-21",
        "name": "Shivani Organics",
        "organic": "only",
        "shop": "supermarket"
      }
    },
    {
      "type": "node",
      "id": 11922269794,
      "lat": 12.9651237,
      "lon": 77.5378104,
      "tags": {
        "amenity": "dentist",
        "check_date": "2024-05-21",
        "healthcare": "dentist",
        "name": "Harish Dental Clinic"
      }
    },
    {
      "type": "node",
      "id": 11922269795,
      "lat": 12.9653425,
      "lon": 77.538099,
      "tags": {
        "check_date": "2024-05-21",
        "name": "Life Care Medicals",
        "shop": "medical_supply"
      }
    },
    {
      "type": "node",
      "id": 11922269796,
      "lat": 12.9652928,
      "lon": 77.5383608,
      "tags": {
        "addr:floor": "1",
        "check_date": "2024-05-21",
        "level": "1",
        "name": "Cut 'N' Style",
        "shop": "hairdresser"
      }
    },
    {
      "type": "node",
      "id": 11922269797,
      "lat": 12.9653744,
      "lon": 77.5383779,
      "tags": {
        "check_date": "2024-05-21",
        "name": "Rajajinagar Bakery",
        "shop": "bakery"
      }
    },
    {
      "type": "node",
      "id": 11922269798,
      "lat": 12.9654818,
      "lon": 77.5383935,
      "tags": {
        "check_date": "2024-05-21",
        "name": "Sri Balaji General Store & Stationery",
        "shop": "stationery"
      }
    },
    {
      "type": "node",
      "id": 11922269799,
      "lat": 12.9650601,
      "lon": 77.5389467,
      "tags": {
        "amenity": "clinic",
        "check_date": "2024-05-21",
        "healthcare": "clinic",
        "healthcare:speciality": "orthopaedics",
        "name": "Prasad Ortho Care",
        "phone": "+91 96636 11405"
      }
    },
    {
      "type": "node",
      "id": 11922269800,
      "lat": 12.9650636,
      "lon": 77.5388749,
      "tags": {
        "check_date": "2024-05-21",
        "name": "Rishabh Jewels And Diamonds",
        "shop": "jewelry"
      }
    },
    {
      "type": "node",
      "id": 11922269801,
      "lat": 12.9649164,
      "lon": 77.5392244,
      "tags": {
        "amenity": "clinic",
        "check_date": "2024-05-21",
        "healthcare": "clinic",
        "healthcare:speciality": "diabetology;paediatrics;gynaecology",
        "name": "Avikova Clinics"
      }
    },
    {
      "type": "node",
      "id": 11922269802,
      "lat": 12.9646622,
      "lon": 77.5392138,
      "tags": {
        "amenity": "atm",
        "brand": "Karnataka Bank",
        "brand:wikidata": "Q2042632",
        "check_date": "2024-05-21",
        "operator": "Karnataka Bank",
        "operator:wikidata": "Q2042632"
      }
    },
    {
      "type": "node",
      "id": 11930674589,
      "lat": 12.9639892,
      "lon": 77.5348786,
      "tags": {
        "amenity": "pharmacy",
        "brand": "MedPlus",
        "brand:wikidata": "Q65684234",
        "check_date": "2024-05-24",
        "healthcare": "pharmacy",
        "name": "MedPlus"
      }
    },
    {
      "type": "node",
      "id": 11930674590,
      "lat": 12.9632858,
      "lon": 77.5346055,
      "tags": {
        "check_date": "2024-05-24",
        "name": "Maruti Medicals",
        "shop": "medical_supply"
      }
    },
    {
      "type": "node",
      "id": 11934957072,
      "lat": 12.9581229,
      "lon": 77.534236,
      "tags": {
        "check_date": "2024-05-26",
        "name": "Vishal Mega Mart",
        "shop": "supermarket"
      }
    },
    {
      "type": "node",
      "id": 12128957168,
      "lat": 12.9555351,
      "lon": 77.544152,
      "tags": {
        "amenity": "place_of_worship",
        "denomination": "catholic",
        "name": "St. Anthony's Church",
        "religion": "christian"
      }
    },
    {
      "type": "node",
      "id": 12145536674,
      "lat": 12.9572457,
      "lon": 77.5509305,
      "tags": {
        "amenity": "fuel",
        "brand": "Bharat Petroleum",
        "brand:wikidata": "Q854826",
        "name": "Bharat Petroleum"
      }
    },
    {
      "type": "node",
      "id": 12438126007,
      "lat": 12.9607659,
      "lon": 77.5335532,
      "tags": {
        "amenity": "cafe",
        "check_date": "2024-05-14",
        "name": "Kuppu's Kafe"
      }
    },
    {
      "type": "node",
      "id": 12734621153,
      "lat": 12.9562108,
      "lon": 77.5476429,
      "tags": {
        "check_date": "2025-04-07",
        "clothes": "men;women;wedding;underwear;traditional;babies;denim;children;maternity;socks;fashion;accessories",
        "name": "Pothys",
        "name:en": "Pothys",
        "payment:cash": "yes",
        "payment:credit_cards": "yes",
        "payment:debit_cards": "yes",
        "payment:upi": "yes",
        "shop": "clothes",
        "wheelchair": "limited"
      }
    },
    {
      "type": "way",
      "id": 48876294,
      "center": {
        "lat": 12.9617616,
        "lon": 77.5408873
      },
      "tags": {
        "leisure": "swimming_pool",
        "name": "Vijayanagar Swimming Pool",
        "name:kn": "ವಿಜಯನಗರ ಈಜು ಕೊಳ",
        "sport": "swimming"
      }
    },
    {
      "type": "way",
      "id": 54147956,
      "center": {
        "lat": 12.9646102,
        "lon": 77.5387904
      },
      "tags": {
        "amenity": "place_of_worship",
        "building": "yes",
        "name": "Sankashta Hara Ganapati Temple",
        "name:kn": "ಸಂಕಷ್ಟ ಹರ ಗಣಪತಿ ದೇವಸ್ಥಾನ",
        "religion": "hindu"
      }
    },
    {
      "type": "way",
      "id": 54147967,
      "center": {
        "lat": 12.9667564,
        "lon": 77.5395051
      },
      "tags": {
        "amenity": "college",
        "name": "Government Degree College",
        "name:kn": "ಸರ್ಕಾರಿ ಪದವಿ ಕಾಲೇಜು"
      }
    },
    {
      "type": "way",
      "id": 54147968,
      "center": {
        "lat": 12.9624023,
        "lon": 77.5409565
      },
      "tags": {
        "leisure": "park",
        "name": "Hampinagar Park"
      }
    },
    {
      "type": "way",
      "id": 54147974,
      "center": {
        "lat": 12.9568726,
        "lon": 77.5366726
      },
      "tags": {
        "leisure": "park"
      }
    },
    {
      "type": "way",
      "id": 54147983,
      "center": {
        "lat": 12.9655212,
        "lon": 77.5416734
      },
      "tags": {
        "amenity": "school"
      }
    },
    {
      "type": "way",
      "id": 54148010,
      "center": {
        "lat": 12.9646952,
        "lon": 77.5365751
      },
      "tags": {
        "leisure": "park"
      }
    },
    {
      "type": "way",
      "id": 54148021,
      "center": {
        "lat": 12.9590229,
        "lon": 77.5364157
      },
      "tags": {
        "leisure": "park",
        "name": "Aalada Mara (Banyan Tree)",
        "name:kn": "ಆಲದ ಮರ"
      }
    },
    {
      "type": "way",
      "id": 54148030,
      "center": {
        "lat": 12.9645623,
        "lon": 77.5417803
      },
      "tags": {
        "amenity": "school"
      }
    },
    {
      "type": "way",
      "id": 54148031,
      "center": {
        "lat": 12.9589791,
        "lon": 77.5354787
      },
      "tags": {
        "amenity": "bus_station",
        "bus": "yes",
        "name": "Hampinagara Bus Station",
        "name:en": "Hampinagara Bus Station",
        "name:kn": "ಹಂಪಿನಗರ ಬಸ್ ನಿಲ್ದಾಣ",
        "public_transport": "station"
      }
    },
    {
      "type": "way",
      "id": 54148046,
      "center": {
        "lat": 12.9647097,
        "lon": 77.5383618
      },
      "tags": {
        "addr:city": "Bangalore",
        "addr:postcode": "560040",
        "addr:street": "5th Main Vijaynagar",
        "leisure": "playground"
      }
    },
    {
      "type": "way",
      "id": 54148075,
      "center": {
        "lat": 12.9632376,
        "lon": 77.5361075
      },
      "tags": {
        "leisure": "park"
      }
    },
    {
      "type": "way",
      "id": 169816627,
      "center": {
        "lat": 12.9651167,
        "lon": 77.5434098
      },
      "tags": {
        "amenity": "college",
        "name": "Ayurvedic Medical College",
        "name:kn": "ಆಯುರ್ವೇದ ವೈದ್ಯಕೀಯ ಕಾಲೇಜು"
      }
    },
    {
      "type": "way",
      "id": 173575215,
      "center": {
        "lat": 12.9673224,
        "lon": 77.5398823
      },
      "tags": {
        "leisure": "swimming_pool",
        "sport": "swimming"
      }
    },
    {
      "type": "way",
      "id": 173575217,
      "center": {
        "lat": 12.9676612,
        "lon": 77.5399126
      },
      "tags": {
        "leisure": "pitch",
        "sport": "tennis"
      }
    },
    {
      "type": "way",
      "id": 347562755,
      "center": {
        "lat": 12.9649219,
        "lon": 77.5504198
      },
      "tags": {
        "addr:housenumber": "13th cross padarayana pura",
        "addr:street": "Hosahalli Main Road",
        "amenity": "place_of_worship",
        "building": "mosque",
        "name": "Masjid e Mamooriya",
        "name:kn": "ಮಸ್ಜೀದ್ ಎ ಮಮೂರಿಯ",
        "opening_hours": "24/7",
        "religion": "muslim"
      }
    },
    {
      "type": "way",
      "id": 349453244,
      "center": {
        "lat": 12.9671443,
        "lon": 77.5450914
      },
      "tags": {
        "amenity": "place_of_worship",
        "building": "yes",
        "name": "Mary Matha Church",
        "religion": "christian"
      }
    },
    {
      "type": "way",
      "id": 404195623,
      "center": {
        "lat": 12.9530952,
        "lon": 77.5408987
      },
      "tags": {
        "addr:city": "Bengaluru",
        "addr:postcode": "560104",
        "addr:street": "Mysore Rd, Kavika Lay Out, Bapuji Nagar",
        "amenity": "place_of_worship",
        "building": "temple",
        "name": "Shri Beereshwara Temple",
        "religion": "hindu"
      }
    },
    {
      "type": "way",
      "id": 687319753,
      "center": {
        "lat": 12.9526538,
        "lon": 77.5396451
      },
      "tags": {
        "leisure": "park"
      }
    },
    {
      "type": "way",
      "id": 1050580095,
      "center": {
        "lat": 12.9569959,
        "lon": 77.5344182
      },
      "tags": {
        "leisure": "park"
      }
    },
    {
      "type": "way",
      "id": 1227284662,
      "center": {
        "lat": 12.9553668,
        "lon": 77.5402629
      },
      "tags": {
        "addr:housenumber": "2A",
        "addr:street": "2nd Main Road",
        "addr:unit": "2",
        "building": "residential",
        "building:levels": "1",
        "check_date": "2025-01-18",
        "name": "Sri Sai Enterprises",
        "shop": "copyshop"
      }
    },
    {
      "type": "way",
      "id": 1227284856,
      "center": {
        "lat": 12.9551125,
        "lon": 77.5403067
      },
      "tags": {
        "amenity": "place_of_worship",
        "building": "yes",
        "name": "Ganesha Ayyappa Swamy Temple",
        "name:kn": "ಗಣೇಶ ಅಯ್ಯಪ್ಪ ಸ್ವಾಮಿ ದೇವಸ್ಥಾನ",
        "religion": "hindu"
      }
    },
    {
      "type": "way",
      "id": 1238631158,
      "center": {
        "lat": 12.9635289,
        "lon": 77.5417158
      },
      "tags": {
        "amenity": "language_school",
        "name": "Shree Bharathi Vidhyalaya"
      }
    },
    {
      "type": "way",
      "id": 1238631225,
      "center": {
        "lat": 12.9606449,
        "lon": 77.5408253
      },
      "tags": {
        "amenity": "police",
        "name": "Vijayanagara Traffic Police Station",
        "name:kn": "ವಿಜಯನಗರ ಸಂಚಾರ ಆರಕ್ಷಕ ಠಾಣೆ"
      }
    },
    {
      "type": "way",
      "id": 1238631229,
      "center": {
        "lat": 12.961117,
        "lon": 77.5409245
      },
      "tags": {
        "leisure": "sports_centre",
        "name": "Hampinagar Sports Club"
      }
    },
    {
      "type": "way",
      "id": 1238631230,
      "center": {
        "lat": 12.9617827,
        "lon": 77.5408235
      },
      "tags": {
        "leisure": "sports_centre",
        "name": "Vijaynagar Aquatic Centre"
      }
    },
    {
      "type": "way",
      "id": 1238631243,
      "center": {
        "lat": 12.9675631,
        "lon": 77.5396799
      },
      "tags": {
        "club": "sport",
        "leisure": "sports_centre",
        "name": "Vijayanagar Club"
      }
    },
    {
      "type": "way",
      "id": 1238821118,
      "center": {
        "lat": 12.9532043,
        "lon": 77.5437227
      },
      "tags": {
        "amenity": "bus_station",
        "check_date": "2024-04-05",
        "name": "KSRTC Mysore Road Satellite Bus Station",
        "name:kn": "ಕ. ರಾ. ರ. ಸಾ. ನಿ. ಬಸ್ ನಿಲ್ದಾಣ, ಮೈಸೂರು ರಸ್ತೆ"
      }
    },
    {
      "type": "way",
      "id": 1257194263,
      "center": {
        "lat": 12.9544671,
        "lon": 77.5437395
      },
      "tags": {
        "amenity": "fuel",
        "check_date": "2023-10-08"
      }
    },
    {
      "type": "way",
      "id": 1257194266,
      "center": {
        "lat": 12.9564423,
        "lon": 77.5487311
      },
      "tags": {
        "amenity": "fuel",
        "brand": "Indian Oil",
        "brand:wikidata": "Q1289348",
        "compressed_air": "yes",
        "name": "Indian Oil",
        "wheelchair": "yes"
      }
    },
    {
      "type": "way",
      "id": 1283097923,
      "center": {
        "lat": 12.9599035,
        "lon": 77.5406171
      },
      "tags": {
        "addr:city": "Bengaluru",
        "addr:postcode": "560104",
        "addr:street": "Railway Parallel Rd, Chowdappa Layout, RPC Layout, Bapuji Nagar",
        "amenity": "place_of_worship",
        "building": "yes",
        "name": "Shri Bhuneela Venkateshwara Swami Temple",
        "religion": "hindu"
      }
    },
    {
      "type": "way",
      "id": 1283097924,
      "center": {
        "lat": 12.9587754,
        "lon": 77.5396655
      },
      "tags": {
        "addr:city": "Bengaluru",
        "addr:postcode": "560104",
        "addr:street": "Railway Parallel Rd, Chowdappa Layout, Vijaya Nagar II Stage",
        "amenity": "place_of_worship",
        "building": "yes",
        "internet_access": "no",
        "name": "Sri Siddhivinayak Temple",
        "network": "IR",
        "operator": "SWR",
        "public_transport": "halt",
        "ref": "KNDV",
        "religion": "hindu",
        "train": "yes"
      }
    },
    {
      "type": "way",
      "id": 1309995712,
      "center": {
        "lat": 12.9536909,
        "lon": 77.542113
      },
      "tags": {
        "amenity": "fuel",
        "check_date": "2023-10-08"
      }
    },
    {
      "type": "way",
      "id": 1343761959,
      "center": {
        "lat": 12.967483,
        "lon": 77.53726
      },
      "tags": {
        "leisure": "park"
      }
    },
    {
      "type": "way",
      "id": 1390722993,
      "center": {
        "lat": 12.9592412,
        "lon": 77.5356745
      },
      "tags": {
        "amenity": "school"
      }
    }
  ]
}