{
  "area_name": "Shanti Nagar",
  "osm_id": 428464054,
  "osm_type": "node",
  "place_type": "suburb",
  "amenity_count": 443,
  "amenities": [
    {
      "type": "node",
      "id": 315207084,
      "lat": 12.9537994,
      "lon": 77.5925553,
      "tags": {
        "amenity": "toilets",
        "survey:date": "2024-02-01"
      }
    },
    {
      "type": "node",
      "id": 317119985,
      "lat": 12.9543746,
      "lon": 77.5930172,
      "tags": {
        "amenity": "restaurant",
        "brand": "Adyar Ananda Bhavan",
        "brand:wikidata": "Q15178238",
        "name": "Adyar Ananda Bhavan",
        "name:kn": "ಕದಂಬ ವೆಜ್",
        "opening_hours": "PH,Mo-Su 07:00-22:30",
        "shop": "confectionery",
        "survey:date": "2024-02-01"
      }
    },
    {
      "type": "node",
      "id": 429833271,
      "lat": 12.9550389,
      "lon": 77.5854279,
      "tags": {
        "addr:housenumber": "14",
        "addr:postcode": "560027",
        "addr:street": "Lalbagh Road",
        "alt_name": "MTR",
        "amenity": "restaurant",
        "name": "Mavalli Tiffin Rooms",
        "name:kn": "ಮಾವಳ್ಳಿ ಟಿಫಿನ್ ರೂಮ್ಸ್ - ಎಂಟಿಆರ್",
        "opening_hours": "Tu-Su 06:30-11:00, 12:30-21:00",
        "phone": "+918022220022",
        "short_name": "MTR",
        "start_date": "1924",
        "website": "http://www.mavallitiffinrooms.com",
        "wheelchair": "no",
        "wikidata": "Q6794121",
        "wikimedia_commons": "Category:Mavalli Tiffin Room",
        "wikipedia": "en:Mavalli Tiffin Room"
      }
    },
    {
      "type": "node",
      "id": 459471357,
      "lat": 12.954643,
      "lon": 77.5858156,
      "tags": {
        "amenity": "parking"
      }
    },
    {
      "type": "node",
      "id": 517874464,
      "lat": 12.9522306,
      "lon": 77.5897955,
      "tags": {
        "amenity": "restaurant"
      }
    },
    {
      "type": "node",
      "id": 577393706,
      "lat": 12.9547341,
      "lon": 77.593073,
      "tags": {
        "amenity": "taxi",
        "auto_rickshaw": "yes",
        "fee": "yes"
      }
    },
    {
      "type": "node",
      "id": 577394250,
      "lat": 12.9511843,
      "lon": 77.5919036,
      "tags": {
        "amenity": "toilets"
      }
    },
    {
      "type": "node",
      "id": 594206377,
      "lat": 12.9571863,
      "lon": 77.5862334,
      "tags": {
        "addr:street": "Lalbagh Road",
        "amenity": "fuel",
        "brand": "Indian Oil",
        "brand:wikidata": "Q1289348",
        "brand:wikipedia": "en:Indian Oil Corporation",
        "name": "Indian Oil",
        "name:kn": "ಇಂಡಿಯನ್ ಆಯಿಲ್"
      }
    },
    {
      "type": "node",
      "id": 646739373,
      "lat": 12.9601639,
      "lon": 77.5945806,
      "tags": {
        "addr:street": "Shanti Road",
        "amenity": "restaurant",
        "name": "Utsav",
        "name:kn": "ಉತ್ಸವ್"
      }
    },
    {
      "type": "node",
      "id": 676872668,
      "lat": 12.9538673,
      "lon": 77.5849624,
      "tags": {
        "amenity": "toilets",
        "fee": "yes",
        "wheelchair": "no"
      }
    },
    {
      "type": "node",
      "id": 677286824,
      "lat": 12.9554112,
      "lon": 77.5918509,
      "tags": {
        "addr:street": "KH Road (Double Road)",
        "name": "Mysore Resham Emporium",
        "shop": "clothes"
      }
    },
    {
      "type": "node",
      "id": 683352686,
      "lat": 12.950253,
      "lon": 77.5868038,
      "tags": {
        "amenity": "toilets"
      }
    },
    {
      "type": "node",
      "id": 1121420612,
      "lat": 12.9578638,
      "lon": 77.5932147,
      "tags": {
        "amenity": "restaurant",
        "name": "Foody's",
        "name:kn": "ಫುಡೀಸ್"
      }
    },
    {
      "type": "node",
      "id": 1342910456,
      "lat": 12.9516439,
      "lon": 77.5950678,
      "tags": {
        "shop": "motorcycle"
      }
    },
    {
      "type": "node",
      "id": 1466731141,
      "lat": 12.9518933,
      "lon": 77.5848336,
      "tags": {
        "amenity": "fountain"
      }
    },
    {
      "type": "node",
      "id": 1474511948,
      "lat": 12.9483598,
      "lon": 77.5940621,
      "tags": {
        "addr:district": "Bengaluru Urban",
        "addr:full": "87/2, 8Th Cross,Wilson Garden",
        "addr:postcode": "560027",
        "addr:state": "Karnataka",
        "amenity": "hospital",
        "healthcare": "hospital",
        "name": "Manjunath Hospital",
        "name:kn": "ಮಂಜುನಾಥ ಆಸ್ಪತ್ರೆ",
        "source": "OpenGovernmentData"
      }
    },
    {
      "type": "node",
      "id": 1474512442,
      "lat": 12.9484356,
      "lon": 77.5942592,
      "tags": {
        "addr:street": "8th Cross",
        "amenity": "hospital",
        "healthcare": "hospital",
        "name": "Karthik Hospital",
        "name:kn": "ಕಾರ್ತಿಕ್ ಆಸ್ಪತ್ರೆ"
      }
    },
    {
      "type": "node",
      "id": 1474512610,
      "lat": 12.9494002,
      "lon": 77.5926204,
      "tags": {
        "amenity": "restaurant",
        "name": "Bhagini Hotel",
        "name:kn": "ಭಾಗಿನಿ ಹೋಟೆಲ್",
        "wheelchair": "no"
      }
    },
    {
      "type": "node",
      "id": 1603318755,
      "lat": 12.9510846,
      "lon": 77.5955162,
      "tags": {
        "amenity": "doctors",
        "name": "Swetha Clinic"
      }
    },
    {
      "type": "node",
      "id": 1603318781,
      "lat": 12.9488718,
      "lon": 77.5977625,
      "tags": {
        "amenity": "atm",
        "brand": "Karnataka Bank",
        "brand:wikidata": "Q2042632",
        "name": "Karnataka Bank",
        "name:kn": "ಕರ್ನಾಟಕ ಬ್ಯಾಂಕ್",
        "operator": "Karnataka Bank",
        "operator:wikidata": "Q2042632"
      }
    },
    {
      "type": "node",
      "id": 1650296747,
      "lat": 12.9634626,
      "lon": 77.5910392,
      "tags": {
        "name": "Stanley Automotive Leather Seating",
        "shop": "car_parts"
      }
    },
    {
      "type": "node",
      "id": 1652785558,
      "lat": 12.962625,
      "lon": 77.5899443,
      "tags": {
        "amenity": "place_of_worship",
        "name": "Mahabaleshwar Temple",
        "name:kn": "ಮಹಾಬಲೇಶ್ವರ",
        "religion": "hindu"
      }
    },
    {
      "type": "node",
      "id": 1851618527,
      "lat": 12.9616161,
      "lon": 77.5986353,
      "tags": {
        "amenity": "bank",
        "atm": "yes",
        "brand": "IDFC First Bank",
        "brand:wikidata": "Q22031467",
        "brand:wikipedia": "en:IDFC First Bank",
        "drive_through": "no",
        "name": "IDFC First Bank",
        "not:brand:wikidata": "Q1653258",
        "operator": "IDFC First Bank"
      }
    },
    {
      "type": "node",
      "id": 1930675161,
      "lat": 12.9496534,
      "lon": 77.5966436,
      "tags": {
        "name": "Maariyah Opticals",
        "shop": "optician"
      }
    },
    {
      "type": "node",
      "id": 2405795045,
      "lat": 12.9494818,
      "lon": 77.5916049,
      "tags": {
        "amenity": "toilets"
      }
    },
    {
      "type": "node",
      "id": 2405795060,
      "lat": 12.9511502,
      "lon": 77.5869158,
      "tags": {
        "amenity": "bench"
      }
    },
    {
      "type": "node",
      "id": 2405795064,
      "lat": 12.9512344,
      "lon": 77.5870455,
      "tags": {
        "amenity": "bench"
      }
    },
    {
      "type": "node",
      "id": 2405795081,
      "lat": 12.9514672,
      "lon": 77.5869825,
      "tags": {
        "amenity": "bench"
      }
    },
    {
      "type": "node",
      "id": 2405795088,
      "lat": 12.9515214,
      "lon": 77.5863056,
      "tags": {
        "amenity": "bench"
      }
    },
    {
      "type": "node",
      "id": 2405795096,
      "lat": 12.9515785,
      "lon": 77.5869766,
      "tags": {
        "amenity": "bench"
      }
    },
    {
      "type": "node",
      "id": 2405795103,
      "lat": 12.9516947,
      "lon": 77.5876117,
      "tags": {
        "amenity": "bench",
        "source": "survey"
      }
    },
    {
      "type": "node",
      "id": 2405795104,
      "lat": 12.9517501,
      "lon": 77.5874235,
      "tags": {
        "amenity": "bench",
        "source": "survey"
      }
    },
    {
      "type": "node",
      "id": 2405795106,
      "lat": 12.9518415,
      "lon": 77.5874529,
      "tags": {
        "amenity": "bench",
        "source": "survey"
      }
    },
    {
      "type": "node",
      "id": 2405795107,
      "lat": 12.951798,
      "lon": 77.5871966,
      "tags": {
        "amenity": "bench",
        "source": "survey"
      }
    },
    {
      "type": "node",
      "id": 2405825768,
      "lat": 12.947839,
      "lon": 77.5877187,
      "tags": {
        "amenity": "bench",
        "backrest": "yes",
        "source": "survey"
      }
    },
    {
      "type": "node",
      "id": 2405825783,
      "lat": 12.9482178,
      "lon": 77.588168,
      "tags": {
        "amenity": "bench",
        "backrest": "yes",
        "source": "survey"
      }
    },
    {
      "type": "node",
      "id": 2405825785,
      "lat": 12.9482347,
      "lon": 77.5881112,
      "tags": {
        "amenity": "bench",
        "backrest": "yes",
        "source": "survey"
      }
    },
    {
      "type": "node",
      "id": 2405825786,
      "lat": 12.9483029,
      "lon": 77.5881244,
      "tags": {
        "amenity": "bench",
        "backrest": "yes",
        "source": "survey"
      }
    },
    {
      "type": "node",
      "id": 2405873559,
      "lat": 12.95148,
      "lon": 77.5863456,
      "tags": {
        "amenity": "waste_basket",
        "source": "survey"
      }
    },
    {
      "type": "node",
      "id": 2405873562,
      "lat": 12.9515158,
      "lon": 77.5861858,
      "tags": {
        "amenity": "bench"
      }
    },
    {
      "type": "node",
      "id": 2405873568,
      "lat": 12.951628,
      "lon": 77.5861083,
      "tags": {
        "amenity": "waste_basket",
        "source": "survey"
      }
    },
    {
      "type": "node",
      "id": 2405873570,
      "lat": 12.9516584,
      "lon": 77.5860843,
      "tags": {
        "amenity": "bench"
      }
    },
    {
      "type": "node",
      "id": 2405873588,
      "lat": 12.9521776,
      "lon": 77.5856078,
      "tags": {
        "amenity": "waste_basket",
        "source": "survey"
      }
    },
    {
      "type": "node",
      "id": 2405873600,
      "lat": 12.9524849,
      "lon": 77.5855716,
      "tags": {
        "amenity": "waste_basket",
        "source": "survey"
      }
    },
    {
      "type": "node",
      "id": 2405873611,
      "lat": 12.9528197,
      "lon": 77.5855106,
      "tags": {
        "amenity": "waste_basket",
        "source": "survey"
      }
    },
    {
      "type": "node",
      "id": 2405873618,
      "lat": 12.9529213,
      "lon": 77.5838722,
      "tags": {
        "amenity": "bench",
        "source": "survey"
      }
    },
    {
      "type": "node",
      "id": 2405873621,
      "lat": 12.9530637,
      "lon": 77.5854007,
      "tags": {
        "amenity": "waste_basket",
        "source": "survey"
      }
    },
    {
      "type": "node",
      "id": 2405873635,
      "lat": 12.953689,
      "lon": 77.584188,
      "tags": {
        "amenity": "waste_basket",
        "source": "survey"
      }
    },
    {
      "type": "node",
      "id": 2577231853,
      "lat": 12.9632542,
      "lon": 77.5920638,
      "tags": {
        "addr:city": "Bangalore",
        "addr:housenumber": "16",
        "addr:postcode": "560027",
        "addr:street": "Mission Road (Kalinga Rao Road)",
        "amenity": "police",
        "name": "Sampangi Rama Nagar Police Station",
        "name:bn": "সম্পাঙ্গী রাম নগর থানা"
      }
    },
    {
      "type": "node",
      "id": 2600851625,
      "lat": 12.954627,
      "lon": 77.5905488,
      "tags": {
        "addr:city": "Bangalore",
        "addr:housename": "Nyaya Degula",
        "addr:housenumber": "6/69",
        "addr:postcode": "560027",
        "addr:street": "H. Siddiah Road",
        "amenity": "courthouse",
        "name": "Family & Labour Courts",
        "operator": "Government of Karnataka",
        "phone": "00918022221526",
        "website": "http://karnatakajudiciary.kar.nic.in",
        "wheelchair": "yes"
      }
    },
    {
      "type": "node",
      "id": 2600852209,
      "lat": 12.9547787,
      "lon": 77.5906007,
      "tags": {
        "addr:city": "Bangalore",
        "addr:housename": "Nyaya Degula",
        "addr:housenumber": "6/69",
        "addr:postcode": "560027",
        "addr:street": "H. Siddiah Road",
        "amenity": "courthouse",
        "check_date": "2023-04-05",
        "name": "Karnataka State Legal Services Authority",
        "source": "survey",
        "website": "http://www.kslsa.kar.nic.in/",
        "wheelchair": "yes"
      }
    },
    {
      "type": "node",
      "id": 3019588216,
      "lat": 12.962382,
      "lon": 77.5939054,
      "tags": {
        "amenity": "fast_food",
        "name": "Darshini",
        "name:kn": "ದರ್ಶಿನಿ"
      }
    },
    {
      "type": "node",
      "id": 3019593147,
      "lat": 12.9624238,
      "lon": 77.5942112,
      "tags": {
        "name": "Surya Bakery",
        "name:kn": "ಸೂರ್ಯ ಬೇಕರಿ",
        "shop": "bakery"
      }
    },
    {
      "type": "node",
      "id": 3302507156,
      "lat": 12.9487986,
      "lon": 77.597431,
      "tags": {
        "amenity": "post_office",
        "name": "Wilson Garden",
        "name:kn": "ಅಂಚೆ ಕಛೇರಿ"
      }
    },
    {
      "type": "node",
      "id": 3391134548,
      "lat": 12.9554901,
      "lon": 77.5854638,
      "tags": {
        "name": "Helmet Paradise",
        "shop": "variety_store"
      }
    },
    {
      "type": "node",
      "id": 3535926312,
      "lat": 12.9540627,
      "lon": 77.5918908,
      "tags": {
        "amenity": "parking_entrance",
        "parking": "multi-storey"
      }
    },
    {
      "type": "node",
      "id": 3546180333,
      "lat": 12.9629426,
      "lon": 77.5875693,
      "tags": {
        "addr:street": "3rd Cross Road",
        "amenity": "cafe"
      }
    },
    {
      "type": "node",
      "id": 3773028057,
      "lat": 12.9603157,
      "lon": 77.5930493,
      "tags": {
        "addr:city": "Bengaluru",
        "addr:district": "Bengaluru Urban",
        "addr:full": "44-45/2, 2nd Cross Raja Rammohan Roy Extn Off Lalbagh Double Road",
        "addr:postcode": "560027",
        "addr:state": "Karnataka",
        "amenity": "hospital",
        "building": "hospital",
        "name": "HCG Cancer Hospital",
        "source": "OpenGovernmentData",
        "website": "https://www.hcgoncology.com/"
      }
    },
    {
      "type": "node",
      "id": 3773028984,
      "lat": 12.9609168,
      "lon": 77.5879444,
      "tags": {
        "addr:city": "Bengaluru",
        "addr:street": "Lalbagh Road",
        "name": "Jayalakshmi Bakery",
        "shop": "bakery"
      }
    },
    {
      "type": "node",
      "id": 3922280181,
      "lat": 12.9584755,
      "lon": 77.5919279,
      "tags": {
        "amenity": "hospital",
        "name": "Health Care Global"
      }
    },
    {
      "type": "node",
      "id": 4172563290,
      "lat": 12.9636036,
      "lon": 77.5940552,
      "tags": {
        "addr:housenumber": "1 Main Road",
        "addr:street": "Sri Ram Mandir Road",
        "email": "rk@orinova.org",
        "internet_access": "wlan",
        "name": "Kasseva",
        "opening_hours": "Mo-Sa 10:30-17:45",
        "phone": "9379796333",
        "shop": "chemist",
        "website": "www.kasseva.com"
      }
    },
    {
      "type": "node",
      "id": 4172591489,
      "lat": 12.9627136,
      "lon": 77.5949225,
      "tags": {
        "addr:housenumber": "1 Main Road ",
        "addr:street": "Sampangi Ram Nagar ",
        "email": "rk@orinova.org",
        "internet_access": "wlan",
        "name": "Origo Cosmeceuticals Private Limited",
        "opening_hours": "24/7",
        "phone": "+918022241789",
        "shop": "chemist",
        "website": "https://www.origopharma.com/"
      }
    },
    {
      "type": "node",
      "id": 4314392992,
      "lat": 12.9541378,
      "lon": 77.5920058,
      "tags": {
        "addr:floor": "G",
        "amenity": "restaurant",
        "check_date": "2025-02-21",
        "cuisine": "indian",
        "diet:non-vegetarian": "yes",
        "diet:vegetarian": "yes",
        "indoor_seating": "yes",
        "level": "0",
        "name": "Swathi Deluxe",
        "name:kn": "ಸ್ವಾತಿ ಡಿಲಕ್ಸ್",
        "outdoor_seating": "no",
        "source": "survey"
      }
    },
    {
      "type": "node",
      "id": 4314394189,
      "lat": 12.9540285,
      "lon": 77.5912583,
      "tags": {
        "amenity": "fast_food",
        "name": "Take a Break"
      }
    },
    {
      "type": "node",
      "id": 4349257796,
      "lat": 12.9515064,
      "lon": 77.5902414,
      "tags": {
        "amenity": "bicycle_parking"
      }
    },
    {
      "type": "node",
      "id": 4349307190,
      "lat": 12.9532485,
      "lon": 77.5873773,
      "tags": {
        "amenity": "place_of_worship",
        "name": "Dargah Hazrat Atulla Shah",
        "place_of_worship": "shrine",
        "religion": "muslim"
      }
    },
    {
      "type": "node",
      "id": 4349317390,
      "lat": 12.954324,
      "lon": 77.5850242,
      "tags": {
        "amenity": "restaurant",
        "name": "Anand Bhavan",
        "name:en": "New Udupi Anand Bhavan",
        "name:kn": "ಆನಂದ್ ಭಾವನ್"
      }
    },
    {
      "type": "node",
      "id": 4488175690,
      "lat": 12.9551847,
      "lon": 77.5894021,
      "tags": {
        "addr:city": "Bangalore",
        "addr:housenumber": "Plot B 204",
        "addr:postcode": "560017",
        "addr:street": "6th Cross Road",
        "name": "Jmv Enterprises",
        "phone": "09035759524",
        "shop": "sports"
      }
    },
    {
      "type": "node",
      "id": 4488473860,
      "lat": 12.9604211,
      "lon": 77.5937215,
      "tags": {
        "addr:city": "Bangalore",
        "addr:housenumber": "No. 126",
        "addr:postcode": "560027",
        "addr:street": "Chabria Square, KH Road, Bhadrappa Layout, Srinivas Colony, Sudhama Nagar,",
        "leisure": "sports_centre",
        "name": "i-fitness",
        "opening_hours": "5:30-22:00",
        "phone": "080 4151 8000",
        "sport": "gymnastics",
        "website": "https://i-fitness.in/"
      }
    },
    {
      "type": "node",
      "id": 4489351702,
      "lat": 12.9632753,
      "lon": 77.595633,
      "tags": {
        "addr:city": "Bangalore",
        "addr:postcode": "560027",
        "addr:street": "Ranka Park, Near Richmond Circle, Richmond Road, Richmond Road,",
        "check_date": "2024-08-10",
        "name": "Sports Shoppee",
        "opening_hours": "10:00-19:00",
        "phone": "08022227223",
        "shop": "sports",
        "website": "https://www.zelexfitness.com/",
        "wheelchair": "no"
      }
    },
    {
      "type": "node",
      "id": 4489828265,
      "lat": 12.9584561,
      "lon": 77.5857024,
      "tags": {
        "addr:city": "Bangalore",
        "addr:housenumber": "# 16",
        "addr:postcode": "560027",
        "addr:street": "Fathima Elegance, 2nd cross, SGN layout, Lalbagh Main Road, Bangalore-27, 2nd Cross Rd, Bhadrappa Layout, SGN Layout, Doddamavalli, Sudhama Nagar",
        "leisure": "sports_centre",
        "name": "Alliance Fitness & Wellness",
        "opening_hours": "06:00-22:00",
        "phone": "9742882266",
        "sport": "gymnastics",
        "website": "alliancefitness.net"
      }
    },
    {
      "type": "node",
      "id": 4489902735,
      "lat": 12.9554408,
      "lon": 77.5918122,
      "tags": {
        "addr:city": "Bangalore",
        "addr:housenumber": "Abhishtha, # 63, M.V.S. Building",
        "addr:postcode": "560027",
        "addr:street": "K.H. Road",
        "name": "Beauty Saloon & SPA",
        "opening_hours": "10:00-21:30",
        "phone": "080 6570 9570",
        "shop": "beauty",
        "website": "abhishtha.com"
      }
    },
    {
      "type": "node",
      "id": 4489908738,
      "lat": 12.9642449,
      "lon": 77.5923432,
      "tags": {
        "addr:city": "Bangalore",
        "addr:housenumber": "# 112, 566",
        "addr:postcode": "560027",
        "addr:street": "ms plaza Opposite Telephone Exchange, Near S R Nagar Police Station, 4th Main Rd, Sampangi Rama Nagar",
        "leisure": "sports_centre",
        "name": "Eternal Fitness",
        "opening_hours": "06:00-22:00",
        "phone": "098860 08976",
        "sport": "gymnastics"
      }
    },
    {
      "type": "node",
      "id": 4550578791,
      "lat": 12.949078,
      "lon": 77.5978259,
      "tags": {
        "amenity": "restaurant",
        "name": "Annapurna benne dosa",
        "name:en": "Annapurna benne dosa",
        "name:kn": "ಅನ್ನಪೂರ್ಣ ಬೆಣ್ಣೆ ದೋಸ",
        "opening_hours": "Mo-Sa 16:00-21:30"
      }
    },
    {
      "type": "node",
      "id": 4703298136,
      "lat": 12.9499469,
      "lon": 77.5860202,
      "tags": {
        "amenity": "fountain"
      }
    },
    {
      "type": "node",
      "id": 4763212133,
      "lat": 12.9502621,
      "lon": 77.5867696,
      "tags": {
        "amenity": "drinking_water"
      }
    },
    {
      "type": "node",
      "id": 4824906934,
      "lat": 12.9489409,
      "lon": 77.5862685,
      "tags": {
        "amenity": "drinking_water"
      }
    },
    {
      "type": "node",
      "id": 4840984963,
      "lat": 12.9469705,
      "lon": 77.5944165,
      "tags": {
        "amenity": "restaurant",
        "name": "Biryani palace"
      }
    },
    {
      "type": "node",
      "id": 4843099624,
      "lat": 12.9549893,
      "lon": 77.5915906,
      "tags": {
        "amenity": "atm",
        "brand": "State Bank of India",
        "brand:wikidata": "Q1340361",
        "name": "State Bank of India",
        "operator": "State Bank of India",
        "operator:wikidata": "Q1340361",
        "short_name": "SBI"
      }
    },
    {
      "type": "node",
      "id": 4843099625,
      "lat": 12.956397,
      "lon": 77.5921935,
      "tags": {
        "amenity": "restaurant",
        "name": "Ambur Dum Biryani",
        "name:en": "Ambur dum biryani"
      }
    },
    {
      "type": "node",
      "id": 4843099626,
      "lat": 12.957338,
      "lon": 77.5925388,
      "tags": {
        "name": "Sri Srinivas Silk House",
        "name:en": "Sri Srinivas silk house",
        "shop": "clothes"
      }
    },
    {
      "type": "node",
      "id": 4843099627,
      "lat": 12.9594205,
      "lon": 77.5937772,
      "tags": {
        "amenity": "restaurant",
        "name": "Sea Pearl",
        "name:en": "Sea Pearl"
      }
    },
    {
      "type": "node",
      "id": 4843099628,
      "lat": 12.9614843,
      "lon": 77.5940764,
      "tags": {
        "leisure": "fitness_centre",
        "name": "Pure Life Gym",
        "name:en": "Pure life gym"
      }
    },
    {
      "type": "node",
      "id": 4843100123,
      "lat": 12.9593325,
      "lon": 77.5932644,
      "tags": {
        "name": "Furniture Forum",
        "name:en": "Furniture Forum",
        "shop": "furniture"
      }
    },
    {
      "type": "node",
      "id": 4843100425,
      "lat": 12.9588237,
      "lon": 77.5936181,
      "tags": {
        "amenity": "school",
        "name": "Cambridge School",
        "name:en": "Cambridge School",
        "name:kn": "ಕೇಂಬ್ರಿಜ್ ಶಾಲೆ"
      }
    },
    {
      "type": "node",
      "id": 4843100435,
      "lat": 12.9496879,
      "lon": 77.5931127,
      "tags": {
        "leisure": "fitness_centre",
        "name": "Mara fitness international",
        "name:en": "Mara fitness international"
      }
    },
    {
      "type": "node",
      "id": 4843104321,
      "lat": 12.9555357,
      "lon": 77.5918347,
      "tags": {
        "amenity": "hospital",
        "name": "Respigen healthcare",
        "name:en": "Respigen healthcare"
      }
    },
    {
      "type": "node",
      "id": 4843105721,
      "lat": 12.9580965,
      "lon": 77.593251,
      "tags": {
        "amenity": "restaurant",
        "name": "Rahhams",
        "name:en": "Rahhams"
      }
    },
    {
      "type": "node",
      "id": 4843105722,
      "lat": 12.9586318,
      "lon": 77.5934793,
      "tags": {
        "name": "Prince dry cleaners",
        "name:en": "Prince dry cleaners",
        "shop": "dry_cleaning"
      }
    },
    {
      "type": "node",
      "id": 4843116021,
      "lat": 12.9578168,
      "lon": 77.593057,
      "tags": {
        "amenity": "bank",
        "brand": "Bank of Baroda",
        "brand:wikidata": "Q2003797",
        "brand:wikipedia": "en:Bank of Baroda",
        "name": "Bank of Baroda",
        "name:en": "Bank of Baroda",
        "name:kn": "ಬ್ಯಾಂಕ್ ಆಫ್ ಬರೋಡ",
        "short_name": "BoB",
        "website": "http://www.bankofbaroda.com"
      }
    },
    {
      "type": "node",
      "id": 4843123822,
      "lat": 12.9584406,
      "lon": 77.593372,
      "tags": {
        "amenity": "bank",
        "brand": "Union Bank of India",
        "brand:wikidata": "Q2004078",
        "brand:wikipedia": "en:Union Bank of India",
        "name": "Union Bank of India",
        "name:en": "Union Bank of India",
        "name:kn": "ಯೂನಿಯನ್ ಬ್ಯಾಂಕ್",
        "website": "https://www.unionbankofindia.co.in/"
      }
    },
    {
      "type": "node",
      "id": 4843123823,
      "lat": 12.9584582,
      "lon": 77.5934393,
      "tags": {
        "amenity": "cafe",
        "name": "Samsung smartcafe",
        "name:en": "Samsung smartcafe"
      }
    },
    {
      "type": "node",
      "id": 4843123824,
      "lat": 12.9589729,
      "lon": 77.593575,
      "tags": {
        "name": "Cox and Kings",
        "name:en": "Cox and Kings",
        "shop": "travel_agency"
      }
    },
    {
      "type": "node",
      "id": 4843125821,
      "lat": 12.9575014,
      "lon": 77.5930278,
      "tags": {
        "name": "Butterfly",
        "name:en": "Butterfly",
        "shop": "electronics"
      }
    },
    {
      "type": "node",
      "id": 4843125822,
      "lat": 12.9593625,
      "lon": 77.5937351,
      "tags": {
        "amenity": "restaurant",
        "name": "Parijatha",
        "name:en": "Parijatha"
      }
    },
    {
      "type": "node",
      "id": 4843126221,
      "lat": 12.9597445,
      "lon": 77.5939951,
      "tags": {
        "name": "Tulasi",
        "name:en": "Tulasi",
        "name:kn": "ತುಲಸಿ",
        "shop": "beverages"
      }
    },
    {
      "type": "node",
      "id": 4843126321,
      "lat": 12.9604187,
      "lon": 77.5941492,
      "tags": {
        "amenity": "bank",
        "brand": "Axis Bank",
        "brand:wikidata": "Q2003549",
        "brand:wikipedia": "en:Axis Bank",
        "name": "Axis Bank",
        "name:en": "Axis Bank",
        "name:kn": "ಆಕ್ಸಿಸ್ ಬ್ಯಾಂಕ್",
        "website": "https://www.axisbank.com",
        "wheelchair": "no"
      }
    },
    {
      "type": "node",
      "id": 4846787922,
      "lat": 12.9615604,
      "lon": 77.5941029,
      "tags": {
        "name": "Olympic toys and sport wears",
        "name:en": "Olympic toys and sport wears",
        "shop": "sports"
      }
    },
    {
      "type": "node",
      "id": 4847294840,
      "lat": 12.9622636,
      "lon": 77.5951894,
      "tags": {
        "check_date": "2024-08-10",
        "name": "Kawasaki",
        "name:en": "Kawasaki",
        "name:kn": "ಕವಸಕಿ",
        "shop": "motorcycle"
      }
    },
    {
      "type": "node",
      "id": 4847294841,
      "lat": 12.9598633,
      "lon": 77.593474,
      "tags": {
        "amenity": "restaurant",
        "name": "Tiffany's",
        "name:en": "Tiffany's"
      }
    },
    {
      "type": "node",
      "id": 4847294842,
      "lat": 12.9580518,
      "lon": 77.5928392,
      "tags": {
        "amenity": "bank",
        "brand": "HDFC Bank",
        "brand:wikidata": "Q631047",
        "name": "HDFC Bank",
        "name:en": "HDFC Bank",
        "name:kn": "ಎಚ್ ಡಿ ಎಫ್ ಸಿ",
        "short_name": "HDFC"
      }
    },
    {
      "type": "node",
      "id": 4847824923,
      "lat": 12.9549365,
      "lon": 77.5915735,
      "tags": {
        "amenity": "restaurant",
        "name": "Bacardi",
        "name:en": "Bacardi"
      }
    },
    {
      "type": "node",
      "id": 4847824924,
      "lat": 12.9500152,
      "lon": 77.5929905,
      "tags": {
        "leisure": "fitness_centre",
        "name": "Mara fitness",
        "name:en": "Mara fitness"
      }
    },
    {
      "type": "node",
      "id": 4847824925,
      "lat": 12.946968,
      "lon": 77.5942273,
      "tags": {
        "amenity": "fast_food",
        "check_date": "2023-11-23",
        "name": "Limra Hotel",
        "name:en": "Limra Hotel"
      }
    },
    {
      "type": "node",
      "id": 4847827721,
      "lat": 12.9560009,
      "lon": 77.5920884,
      "tags": {
        "amenity": "restaurant",
        "name": "Hotel Revoli",
        "name:en": "Hotel Revoli"
      }
    },
    {
      "type": "node",
      "id": 4849094830,
      "lat": 12.9479719,
      "lon": 77.5937414,
      "tags": {
        "amenity": "school",
        "name": "Driving school for all types of cars",
        "name:en": "Driving school for all types of cars"
      }
    },
    {
      "type": "node",
      "id": 4849094831,
      "lat": 12.9539546,
      "lon": 77.5857915,
      "tags": {
        "amenity": "restaurant"
      }
    },
    {
      "type": "node",
      "id": 4849108628,
      "lat": 12.9467871,
      "lon": 77.5944122,
      "tags": {
        "name": "Ssv automobiles",
        "name:en": "Ssv automobiles",
        "shop": "car_parts"
      }
    },
    {
      "type": "node",
      "id": 4849108630,
      "lat": 12.9543469,
      "lon": 77.5840455,
      "tags": {
        "name": "Surya carz",
        "name:en": "Surya carz",
        "shop": "car"
      }
    },
    {
      "type": "node",
      "id": 4988321488,
      "lat": 12.9631272,
      "lon": 77.594174,
      "tags": {
        "addr:city": "Bengaluru",
        "addr:housenumber": "18/7",
        "addr:postcode": "560027",
        "addr:street": "1st Main Road",
        "amenity": "place_of_worship",
        "denomination": "sunni",
        "name": "Masjid-e-Rahimia",
        "name:bn": "মসজিদ-ই-রহিমিয়া",
        "name:kn": "ಮಸ್ಜಿದ್ ಎ ರಹೀಮ",
        "religion": "muslim"
      }
    },
    {
      "type": "node",
      "id": 4993784521,
      "lat": 12.9616605,
      "lon": 77.5891542,
      "tags": {
        "amenity": "community_centre",
        "name": "Huq Building",
        "name:en": "Huq Building"
      }
    },
    {
      "type": "node",
      "id": 5234726029,
      "lat": 12.9477827,
      "lon": 77.5970683,
      "tags": {
        "amenity": "internet_cafe",
        "name": "iStar Cyber Cafe"
      }
    },
    {
      "type": "node",
      "id": 5234729438,
      "lat": 12.9478549,
      "lon": 77.5971182,
      "tags": {
        "amenity": "atm",
        "brand": "Kotak Mahindra Bank",
        "brand:wikidata": "Q2040404",
        "check_date": "2022-07-11",
        "operator": "Kotak Mahindra Bank",
        "operator:wikidata": "Q2040404"
      }
    },
    {
      "type": "node",
      "id": 5234729473,
      "lat": 12.948031,
      "lon": 77.5972353,
      "tags": {
        "amenity": "pharmacy",
        "healthcare": "pharmacy",
        "name": "Trust Medicals"
      }
    },
    {
      "type": "node",
      "id": 5234733420,
      "lat": 12.9483581,
      "lon": 77.5972643,
      "tags": {
        "amenity": "bank",
        "brand": "State Bank of India",
        "brand:wikidata": "Q1340361",
        "name": "State Bank of India",
        "name:kn": "ಭಾರತೀಯ ಸ್ಟೇಟ್ ಬ್ಯಾಂಕ್",
        "short_name": "SBI"
      }
    },
    {
      "type": "node",
      "id": 5234735116,
      "lat": 12.9488127,
      "lon": 77.5978542,
      "tags": {
        "amenity": "bank",
        "branch": "Ltd",
        "brand": "Karnataka Bank",
        "brand:wikidata": "Q2042632",
        "name": "Karnataka Bank",
        "name:kn": "ಕರ್ನಾಟಕ ಬ್ಯಾಂಕ್"
      }
    },
    {
      "type": "node",
      "id": 5234736190,
      "lat": 12.9486539,
      "lon": 77.5977493,
      "tags": {
        "amenity": "fast_food",
        "brand": "Domino's",
        "brand:ks": "ڈومینوز",
        "brand:pa": "ਡੋਮੀਨੋਜ਼",
        "brand:ur": "ڈومینوز",
        "brand:wikidata": "Q839466",
        "brand:wikipedia": "en:Domino's Pizza",
        "cuisine": "pizza",
        "name": "Domino's",
        "name:ks": "ڈومینوز",
        "name:pa": "ਡੋਮੀਨੋਜ਼",
        "name:ur": "ڈومینوز",
        "takeaway": "yes"
      }
    },
    {
      "type": "node",
      "id": 5234736819,
      "lat": 12.9485625,
      "lon": 77.5976727,
      "tags": {
        "amenity": "bank",
        "brand": "State Bank of India",
        "brand:wikidata": "Q1340361",
        "name": "State Bank of India",
        "name:kn": "ಭಾರತೀಯ ಸ್ಟೇಟ್ ಬ್ಯಾಂಕ್",
        "short_name": "SBI"
      }
    },
    {
      "type": "node",
      "id": 5234740873,
      "lat": 12.9495474,
      "lon": 77.5970623,
      "tags": {
        "name": "Anand Bhavan Sweets",
        "shop": "bakery"
      }
    },
    {
      "type": "node",
      "id": 5385728022,
      "lat": 12.9562285,
      "lon": 77.5919414,
      "tags": {
        "amenity": "place_of_worship",
        "name": "Maari Amma Temple",
        "religion": "hindu"
      }
    },
    {
      "type": "node",
      "id": 5402307928,
      "lat": 12.9618944,
      "lon": 77.5977432,
      "tags": {
        "amenity": "place_of_worship"
      }
    },
    {
      "type": "node",
      "id": 5402307929,
      "lat": 12.962196,
      "lon": 77.5950696,
      "tags": {
        "brand": "KTM",
        "brand:wikidata": "Q215657",
        "name": "KTM",
        "shop": "motorcycle"
      }
    },
    {
      "type": "node",
      "id": 5402308124,
      "lat": 12.9622025,
      "lon": 77.5950041,
      "tags": {
        "branch": "Tyre Center",
        "brand": "Pirelli",
        "brand:wikidata": "Q207770",
        "name": "Pirelli",
        "shop": "tyres"
      }
    },
    {
      "type": "node",
      "id": 5964506929,
      "lat": 12.959495,
      "lon": 77.5933412,
      "tags": {
        "amenity": "bank",
        "brand": "Karnataka Bank",
        "brand:wikidata": "Q2042632",
        "name": "Karnataka Bank",
        "name:kn": "ಕರ್ನಾಟಕ ಬ್ಯಾಂಕ್"
      }
    },
    {
      "type": "node",
      "id": 5983455178,
      "lat": 12.9631282,
      "lon": 77.5891892,
      "tags": {
        "amenity": "bank",
        "check_date": "2024-03-02",
        "name": "J&K Bank"
      }
    },
    {
      "type": "node",
      "id": 5983455179,
      "lat": 12.9588104,
      "lon": 77.5868782,
      "tags": {
        "amenity": "fuel",
        "check_date": "2023-04-05",
        "name": "Gogas",
        "source": "survey"
      }
    },
    {
      "type": "node",
      "id": 6110283523,
      "lat": 12.9479063,
      "lon": 77.5880012,
      "tags": {
        "amenity": "waste_basket"
      }
    },
    {
      "type": "node",
      "id": 6110283792,
      "lat": 12.9478809,
      "lon": 77.5879078,
      "tags": {
        "amenity": "bench"
      }
    },
    {
      "type": "node",
      "id": 6110283805,
      "lat": 12.9479274,
      "lon": 77.5879038,
      "tags": {
        "amenity": "bench"
      }
    },
    {
      "type": "node",
      "id": 6110285206,
      "lat": 12.9480516,
      "lon": 77.5881285,
      "tags": {
        "amenity": "bench",
        "backrest": "no"
      }
    },
    {
      "type": "node",
      "id": 6248981887,
      "lat": 12.9611012,
      "lon": 77.5887564,
      "tags": {
        "amenity": "restaurant",
        "cuisine": "tea;chicken;noodles;coffee_shop;curry;indian;local",
        "diet:vegetarian": "yes",
        "name": "Vyshali Food Corner"
      }
    },
    {
      "type": "node",
      "id": 6349031908,
      "lat": 12.9539725,
      "lon": 77.6004211,
      "tags": {
        "addr:place": "Shanthinagar",
        "amenity": "school",
        "isced:level": "2",
        "name": "GHPS Ksrtc Shanthinagar",
        "name:kn": "ಸರ್ಕಾರಿ ಹಿರಿಯ ಪ್ರಾಥಮಿಕ ಶಾಲೆ ಕೆ.ಎಸ್‌.ಆರ್‌.ಟಿ.ಸಿ ಶಾಂತಿನಗರ",
        "operator": "Department of Education",
        "school": "primary"
      }
    },
    {
      "type": "node",
      "id": 6349040951,
      "lat": 12.9533162,
      "lon": 77.6005694,
      "tags": {
        "amenity": "school",
        "isced:level": "2",
        "name": "Shanthi KHPS Vinayakanagar",
        "name:kn": "ಶಾಂತಿ ಕನ್ನಡ ಹಿರಿಯ ಪ್ರಾಥಮಿಕ ಶಾಲೆ ವಿನಾಯಕನಗರ",
        "operator": "Department of Education",
        "school": "primary"
      }
    },
    {
      "type": "node",
      "id": 6349052554,
      "lat": 12.9482206,
      "lon": 77.5968593,
      "tags": {
        "addr:place": "Wilson Garden",
        "amenity": "school",
        "isced:level": "2",
        "name": "GKMPS Wilson Garden",
        "name:kn": "ಸರ್ಕಾರಿ ಕನ್ನಡ ಮಾದರಿ ಪ್ರಾಥಮಿಕ ಶಾಲೆ ವಿಲ್ಸನ್ ಗಾರ್ಡನ್",
        "operator": "Department of Education",
        "school": "primary"
      }
    },
    {
      "type": "node",
      "id": 6349074612,
      "lat": 12.9555605,
      "lon": 77.5978653,
      "tags": {
        "addr:place": "Shanthinagar",
        "amenity": "school",
        "isced:level": "2",
        "name": "St Michael LPS Shanthinagar",
        "name:kn": "ಸೆಂಟ್‌ ಮೈಕಲ್ ಕಿರಿಯ ಪ್ರಾಥಮಿಕ ಶಾಲೆ ಶಾಂತಿನಗರ",
        "operator": "Department of Education",
        "school": "primary"
      }
    },
    {
      "type": "node",
      "id": 6349206826,
      "lat": 12.9492633,
      "lon": 77.5974085,
      "tags": {
        "addr:place": "Willson Garden",
        "amenity": "school",
        "isced:level": "2",
        "name": "Maruthi KHPS Willson Garden",
        "name:kn": "ಮಾರುತಿ ಕನ್ನಡ ಹಿರಿಯ ಪ್ರಾಥಮಿಕ ಶಾಲೆ ವಿಲ್ಸನ್ ಗಾರ್ಡನ್",
        "operator": "Pvt. Aided",
        "school": "primary"
      }
    },
    {
      "type": "node",
      "id": 6552306254,
      "lat": 12.9636997,
      "lon": 77.5923663,
      "tags": {
        "addr:city": "Bengaluru",
        "addr:postcode": "560027",
        "addr:street": "Chidananda Maharashi Ashram Road",
        "amenity": "restaurant",
        "cuisine": "regional",
        "name": "Devi Upahara",
        "name:kn": "ದೇವಿ ಉಪಹಾರ"
      }
    },
    {
      "type": "node",
      "id": 6745868123,
      "lat": 12.9592835,
      "lon": 77.5945482,
      "tags": {
        "addr:place": "Shanthinagar",
        "amenity": "school",
        "isced:level": "1",
        "name": "Morning Glory LPS",
        "name:kn": "ಮಾರ್ನಿಂಗ್ ಗ್ಲೋರಿ ಕಿರಿಯ ಪ್ರಾಥಮಿಕ ಶಾಲೆ ಶಾಂತಿನಗರ",
        "operator": "Private Un-Aided",
        "school": "primary"
      }
    },
    {
      "type": "node",
      "id": 6938868534,
      "lat": 12.9491537,
      "lon": 77.5978383,
      "tags": {
        "addr:district": "Bengaluru Urban",
        "addr:full": "376/21, T.V. Plaza, 6Th Cross, Wilson Garden",
        "addr:postcode": "560027",
        "addr:state": "Karnataka",
        "amenity": "clinic",
        "healthcare": "clinic",
        "name": "Shantha Nethralaya",
        "source": "OpenGovernmentData"
      }
    },
    {
      "type": "node",
      "id": 6939048258,
      "lat": 12.9605309,
      "lon": 77.592659,
      "tags": {
        "addr:district": "Bengaluru Urban",
        "addr:full": "No 44-45/2, 2nd Cross, Raja Rammohan Roy Extension, Opposite Double Road",
        "addr:postcode": "560027",
        "addr:state": "Karnataka",
        "amenity": "hospital",
        "name": "HCG",
        "source": "OpenGovernmentData"
      }
    },
    {
      "type": "node",
      "id": 6939719899,
      "lat": 12.9608027,
      "lon": 77.5911717,
      "tags": {
        "addr:district": "Bengaluru Urban",
        "addr:full": "26, 1st Main, 2nd Cross, Ckc Garden Off Mission Road",
        "addr:postcode": "560027",
        "addr:state": "Karnataka",
        "amenity": "hospital",
        "name": "Phoenix Hospital, Bengaluru Urban",
        "source": "OpenGovernmentData"
      }
    },
    {
      "type": "node",
      "id": 6944138103,
      "lat": 12.9489406,
      "lon": 77.5949925,
      "tags": {
        "addr:district": "Bengaluru Urban",
        "addr:full": "56, 8Th Cross, Wilson Garden",
        "addr:postcode": "560027",
        "addr:state": "Karnataka",
        "amenity": "hospital",
        "healthcare": "hospital",
        "name": "Karthik Hospital, Bengaluru Urban",
        "source": "OpenGovernmentData"
      }
    },
    {
      "type": "node",
      "id": 7043229686,
      "lat": 12.9550956,
      "lon": 77.5858088,
      "tags": {
        "name": "Megha Enterprises",
        "shop": "motorcycle"
      }
    },
    {
      "type": "node",
      "id": 7043229687,
      "lat": 12.9552795,
      "lon": 77.5858224,
      "tags": {
        "name": "Chethan's Helmet World",
        "shop": "motorcycle"
      }
    },
    {
      "type": "node",
      "id": 7043229688,
      "lat": 12.9549086,
      "lon": 77.5857588,
      "tags": {
        "amenity": "restaurant",
        "name": "New Ambur Biriyani"
      }
    },
    {
      "type": "node",
      "id": 7043245785,
      "lat": 12.9550094,
      "lon": 77.5857787,
      "tags": {
        "name": "Moto Nation",
        "shop": "motorcycle"
      }
    },
    {
      "type": "node",
      "id": 7043255185,
      "lat": 12.9554304,
      "lon": 77.585944,
      "tags": {
        "amenity": "restaurant",
        "cuisine": "indian",
        "name": "Hotel Nandeshwara Lunch Home"
      }
    },
    {
      "type": "node",
      "id": 7043262185,
      "lat": 12.9553721,
      "lon": 77.5855419,
      "tags": {
        "addr:housenumber": "120/1",
        "addr:street": "Lalbagh Road",
        "amenity": "pharmacy",
        "name": "Sapthagiri Medicals"
      }
    },
    {
      "type": "node",
      "id": 7043262385,
      "lat": 12.9550862,
      "lon": 77.5858696,
      "tags": {
        "name": "Babu Auto Garage",
        "shop": "car_repair"
      }
    },
    {
      "type": "node",
      "id": 7043262485,
      "lat": 12.9549325,
      "lon": 77.5857756,
      "tags": {
        "name": "The Car Shopp",
        "shop": "car_parts"
      }
    },
    {
      "type": "node",
      "id": 7043519087,
      "lat": 12.9524178,
      "lon": 77.5889783,
      "tags": {
        "addr:housenumber": "2",
        "addr:postcode": "560027",
        "addr:street": "Dr. M. H. Marigowda Road",
        "name": "Prakash S. M. Kannappa Automobiles Pvt. Ltd.",
        "name:en": "S.M. Kannappa Automobiles Pvt. Ltd.",
        "shop": "car"
      }
    },
    {
      "type": "node",
      "id": 7043533585,
      "lat": 12.9522659,
      "lon": 77.5897266,
      "tags": {
        "amenity": "childcare",
        "name": "Sri Maruthi Nursery"
      }
    },
    {
      "type": "node",
      "id": 7043991985,
      "lat": 12.962044,
      "lon": 77.5933871,
      "tags": {
        "amenity": "bank",
        "brand": "IDBI Bank",
        "brand:wikidata": "Q3633485",
        "name": "IDBI Bank",
        "name:kn": "ಐಡಿಬಿಐ ಬ್ಯಾಂಕ್",
        "short_name": "IDBI"
      }
    },
    {
      "type": "node",
      "id": 7043992185,
      "lat": 12.9620164,
      "lon": 77.5978486,
      "tags": {
        "amenity": "restaurant",
        "name": "Peace Restaurant"
      }
    },
    {
      "type": "node",
      "id": 7293719482,
      "lat": 12.9622109,
      "lon": 77.5954049,
      "tags": {
        "addr:floor": "G",
        "check_date": "2024-08-10",
        "level": "0",
        "name": "Ashoka Tyres And Service",
        "name:hi": "Ashoka Tyres And Service",
        "shop": "tyres",
        "wheelchair": "no"
      }
    },
    {
      "type": "node",
      "id": 7293719483,
      "lat": 12.9620404,
      "lon": 77.5937144,
      "tags": {
        "amenity": "bank",
        "atm": "yes",
        "brand": "State Bank of India",
        "brand:wikidata": "Q1340361",
        "name": "State Bank of India",
        "name:kn": "ಭಾರತೀಯ ಸ್ಟೇಟ್ ಬ್ಯಾಂಕ್",
        "operator": "State Bank of India",
        "short_name": "SBI"
      }
    },
    {
      "type": "node",
      "id": 7576958055,
      "lat": 12.9626783,
      "lon": 77.5949614,
      "tags": {
        "addr:district": "Bengaluru Urban",
        "addr:full": "Sampangi Rama Nagar, Bengaluru",
        "addr:postcode": "560027",
        "addr:state": "Karnataka",
        "amenity": "clinic",
        "name": "Dr. Shankar Desai Clinic",
        "source": "Local Knowledge"
      }
    },
    {
      "type": "node",
      "id": 7576958063,
      "lat": 12.961178,
      "lon": 77.593184,
      "tags": {
        "addr:district": "Bengaluru Urban",
        "addr:full": "Srinivas Colony, Sudhama Nagar, Bengaluru",
        "addr:postcode": "560027",
        "addr:state": "Karnataka",
        "amenity": "clinic",
        "name": "Ashwini Medical Specialist Centre",
        "source": "Local Knowledge"
      }
    },
    {
      "type": "node",
      "id": 7576958103,
      "lat": 12.9593021,
      "lon": 77.5927413,
      "tags": {
        "addr:district": "Bengaluru Urban",
        "addr:full": "Srinivas Colony, Sudhama Nagar, Bengaluru",
        "addr:postcode": "560027",
        "addr:state": "Karnataka",
        "amenity": "clinic",
        "name": "Yeshaswi Clinics",
        "source": "Local Knowledge"
      }
    },
    {
      "type": "node",
      "id": 8292562199,
      "lat": 12.9605614,
      "lon": 77.5948658,
      "tags": {
        "addr:city": "Bengaluru",
        "addr:country": "IN",
        "addr:housenumber": "1",
        "addr:postcode": "560027",
        "addr:street": "Shanthi Road",
        "addr:suburb": "Shanthinagar",
        "amenity": "arts_centre",
        "name": "1Shanthiroad Studio/Gallery",
        "website": "http://1shanthiroad.com/"
      }
    },
    {
      "type": "node",
      "id": 9140200239,
      "lat": 12.9601375,
      "lon": 77.595942,
      "tags": {
        "addr:floor": "G",
        "air_conditioning": "no",
        "alt_name": "YDH Canteen",
        "amenity": "fast_food",
        "check_date": "2024-08-11",
        "cuisine": "regional",
        "delivery": "no",
        "diet:vegetarian": "yes",
        "drive_through": "no",
        "level": "0",
        "name": "Yelamma Dasappa Canteen",
        "takeaway": "yes"
      }
    },
    {
      "type": "node",
      "id": 9292386641,
      "lat": 12.9493948,
      "lon": 77.5888026,
      "tags": {
        "amenity": "bench",
        "backrest": "yes",
        "material": "wood",
        "seats": "3"
      }
    },
    {
      "type": "node",
      "id": 9292386642,
      "lat": 12.949434,
      "lon": 77.5889307,
      "tags": {
        "amenity": "bench",
        "backrest": "yes",
        "material": "wood",
        "seats": "3"
      }
    },
    {
      "type": "node",
      "id": 9292386643,
      "lat": 12.9494785,
      "lon": 77.5890313,
      "tags": {
        "amenity": "bench",
        "backrest": "yes",
        "material": "wood",
        "seats": "3"
      }
    },
    {
      "type": "node",
      "id": 9292386644,
      "lat": 12.9495379,
      "lon": 77.5891614,
      "tags": {
        "amenity": "bench",
        "backrest": "yes",
        "material": "wood",
        "seats": "3"
      }
    },
    {
      "type": "node",
      "id": 9292386645,
      "lat": 12.9495896,
      "lon": 77.5892814,
      "tags": {
        "amenity": "bench",
        "backrest": "yes",
        "material": "wood",
        "seats": "3"
      }
    },
    {
      "type": "node",
      "id": 9292386646,
      "lat": 12.9496516,
      "lon": 77.5893934,
      "tags": {
        "amenity": "bench",
        "backrest": "yes",
        "material": "wood",
        "seats": "3"
      }
    },
    {
      "type": "node",
      "id": 9292386647,
      "lat": 12.9497046,
      "lon": 77.5895101,
      "tags": {
        "amenity": "bench",
        "backrest": "yes",
        "material": "wood",
        "seats": "3"
      }
    },
    {
      "type": "node",
      "id": 9292386648,
      "lat": 12.9495262,
      "lon": 77.5894202,
      "tags": {
        "amenity": "waste_basket"
      }
    },
    {
      "type": "node",
      "id": 9292386649,
      "lat": 12.9497418,
      "lon": 77.5895376,
      "tags": {
        "amenity": "waste_basket"
      }
    },
    {
      "type": "node",
      "id": 9296258308,
      "lat": 12.9590684,
      "lon": 77.5930989,
      "tags": {
        "brand": "Suzuki",
        "name": "Suzuki",
        "shop": "car"
      }
    },
    {
      "type": "node",
      "id": 9296258309,
      "lat": 12.9592631,
      "lon": 77.5931659,
      "tags": {
        "amenity": "clinic",
        "name": "Magnum Onco Care"
      }
    },
    {
      "type": "node",
      "id": 9296258312,
      "lat": 12.9596526,
      "lon": 77.5938318,
      "tags": {
        "amenity": "bank",
        "atm": "yes",
        "brand": "Canara Bank",
        "brand:en": "Canara Bank",
        "brand:hi": "केनरा बैंक",
        "brand:kn": "ಕೆನರಾ ಬ್ಯಾಂಕ್",
        "brand:pa": "ਕੇਨਰਾ ਬੈਂਕ",
        "brand:pnb": "کینرا بینک",
        "brand:ur": "کینرا بینک",
        "brand:wikidata": "Q2003777",
        "brand:wikipedia": "en:Canara Bank",
        "brand:wikipedia:pa": "ਕੇਨਰਾ ਬੈਂਕ",
        "name": "Canara Bank",
        "name:en": "Canara Bank",
        "name:hi": "केनरा बैंक",
        "name:kn": "ಕೆನರಾ ಬ್ಯಾಂಕ್",
        "name:pa": "ਕੇਨਰਾ ਬੈਂਕ",
        "name:pnb": "کینرا بینک",
        "name:ur": "کینرا بینک"
      }
    },
    {
      "type": "node",
      "id": 9296258313,
      "lat": 12.959039,
      "lon": 77.5936943,
      "tags": {
        "name": "Prasiddhi Stores",
        "shop": "fabric"
      }
    },
    {
      "type": "node",
      "id": 9296258314,
      "lat": 12.9590854,
      "lon": 77.5936373,
      "tags": {
        "amenity": "bank",
        "atm": "yes",
        "brand": "Karnataka Bank",
        "brand:wikidata": "Q2042632",
        "name": "Karnataka Bank",
        "name:kn": "ಕರ್ನಾಟಕ ಬ್ಯಾಂಕ್"
      }
    },
    {
      "type": "node",
      "id": 9296258316,
      "lat": 12.958609,
      "lon": 77.5934523,
      "tags": {
        "name": "Kaff",
        "shop": "kitchen"
      }
    },
    {
      "type": "node",
      "id": 9507141939,
      "lat": 12.959883,
      "lon": 77.5978925,
      "tags": {
        "amenity": "cafe",
        "cuisine": "juice",
        "internet_access": "no",
        "name": "Sreeraj Lassi Bar",
        "outdoor_seating": "no"
      }
    },
    {
      "type": "node",
      "id": 9507141940,
      "lat": 12.9599213,
      "lon": 77.5979464,
      "tags": {
        "amenity": "fast_food",
        "cuisine": "sandwich",
        "name": "Hari Super Sandwich"
      }
    },
    {
      "type": "node",
      "id": 9507166593,
      "lat": 12.9611473,
      "lon": 77.5982936,
      "tags": {
        "amenity": "cafe",
        "cuisine": "tea_shop",
        "name": "Karak Chai",
        "outdoor_seating": "no"
      }
    },
    {
      "type": "node",
      "id": 9922802663,
      "lat": 12.9501718,
      "lon": 77.5861922,
      "tags": {
        "amenity": "drinking_water"
      }
    },
    {
      "type": "node",
      "id": 9922802664,
      "lat": 12.9502137,
      "lon": 77.5853258,
      "tags": {
        "amenity": "drinking_water"
      }
    },
    {
      "type": "node",
      "id": 9922810975,
      "lat": 12.9643079,
      "lon": 77.5942938,
      "tags": {
        "shop": "car_repair"
      }
    },
    {
      "type": "node",
      "id": 9924452289,
      "lat": 12.9584471,
      "lon": 77.5927218,
      "tags": {
        "amenity": "toilets"
      }
    },
    {
      "type": "node",
      "id": 9924452290,
      "lat": 12.9585493,
      "lon": 77.5927576,
      "tags": {
        "amenity": "toilets"
      }
    },
    {
      "type": "node",
      "id": 9924452291,
      "lat": 12.9584054,
      "lon": 77.5928903,
      "tags": {
        "addr:city": "Bengaluru",
        "addr:housenumber": "105",
        "addr:postcode": "560027",
        "addr:street": "Kengal Hanumanthaiah Road",
        "addr:suburb": "Shantinagar",
        "amenity": "restaurant",
        "capacity": "20",
        "check_date": "2024-05-11",
        "contact:instagram": "eatnaru",
        "contact:twitter": "eatnaru",
        "cuisine": "ramen",
        "delivery": "no",
        "email": "info@narunoodlebar.com",
        "name": "Naru Noodle Bar",
        "opening_hours": "Tu 18:30-20:30; We-Su 12:30-14:30,18:30-20:30",
        "outdoor_seating": "yes",
        "phone": "+91 98867 91733",
        "reservation": "only",
        "takeaway": "no",
        "toilets": "yes",
        "toilets:access": "customers",
        "website": "https://www.narunoodlebar.com/"
      }
    },
    {
      "type": "node",
      "id": 9924452292,
      "lat": 12.9584446,
      "lon": 77.5929034,
      "tags": {
        "amenity": "events_venue",
        "name": "The Conservatory"
      }
    },
    {
      "type": "node",
      "id": 10032117240,
      "lat": 12.9477787,
      "lon": 77.592107,
      "tags": {
        "amenity": "restaurant",
        "cuisine": "regional",
        "name": "Cafe Amudham",
        "name:en": "Cafe Amudham",
        "survey:date": "2022-11-13"
      }
    },
    {
      "type": "node",
      "id": 10032117247,
      "lat": 12.9567642,
      "lon": 77.5926107,
      "tags": {
        "access": "yes",
        "amenity": "bicycle_rental",
        "brand": "Yulu",
        "brand:wikidata": "Q104871276",
        "capacity": "10",
        "fee": "no",
        "network": "Yulu",
        "network:wikidata": "Q104871276",
        "operator": "Yulu"
      }
    },
    {
      "type": "node",
      "id": 10045910454,
      "lat": 12.9549456,
      "lon": 77.588287,
      "tags": {
        "name": "MRS Enterprises",
        "shop": "car_parts"
      }
    },
    {
      "type": "node",
      "id": 10289145777,
      "lat": 12.9555473,
      "lon": 77.5925404,
      "tags": {
        "amenity": "bench",
        "backrest": "no",
        "material": "stone"
      }
    },
    {
      "type": "node",
      "id": 10289145794,
      "lat": 12.9554494,
      "lon": 77.5926661,
      "tags": {
        "amenity": "bench",
        "backrest": "no",
        "material": "stone"
      }
    },
    {
      "type": "node",
      "id": 10697561504,
      "lat": 12.9633163,
      "lon": 77.5889106,
      "tags": {
        "amenity": "bank",
        "brand": "State Bank of India",
        "brand:wikidata": "Q1340361",
        "name": "State Bank of India",
        "short_name": "SBI"
      }
    },
    {
      "type": "node",
      "id": 10792887305,
      "lat": 12.9585496,
      "lon": 77.5867635,
      "tags": {
        "access": "private",
        "amenity": "parking",
        "covered": "no",
        "fee": "yes",
        "parking": "surface",
        "payment:cash": "yes",
        "source": "survey",
        "supervised": "yes",
        "surface": "ground"
      }
    },
    {
      "type": "node",
      "id": 10895966348,
      "lat": 12.9482721,
      "lon": 77.5970484,
      "tags": {
        "access": "yes",
        "amenity": "toilets",
        "fee": "yes",
        "operator": "Bruhat Bengaluru Mahanagara Palike",
        "operator:short": "BBMP",
        "operator:wikidata": "Q4978693"
      }
    },
    {
      "type": "node",
      "id": 10895966350,
      "lat": 12.9511455,
      "lon": 77.5951937,
      "tags": {
        "brand": "Lenskart",
        "brand:wikidata": "Q17068753",
        "name": "Lenskart",
        "shop": "optician"
      }
    },
    {
      "type": "node",
      "id": 10895966356,
      "lat": 12.9578594,
      "lon": 77.5926986,
      "tags": {
        "amenity": "bank",
        "atm": "yes",
        "brand": "ICICI Bank",
        "brand:wikidata": "Q1653258",
        "name": "ICICI Bank",
        "name:kn": "ಐಸಿಐಸಿಐ ಬ್ಯಾಂಕು",
        "operator": "ICICI Bank",
        "short_name": "ICICI"
      }
    },
    {
      "type": "node",
      "id": 11064985066,
      "lat": 12.9543709,
      "lon": 77.5905051,
      "tags": {
        "amenity": "courthouse",
        "name": "Bangalore Mediation Centre"
      }
    },
    {
      "type": "node",
      "id": 11167710685,
      "lat": 12.9582865,
      "lon": 77.6011607,
      "tags": {
        "brand": "Ration Shop",
        "brand:wikidata": "Q60901",
        "name": "Ration Shop",
        "operator": "Public Distribution System",
        "operator:type": "public",
        "operator:wikidata": "Q60901",
        "shop": "convenience"
      }
    },
    {
      "type": "node",
      "id": 11171328737,
      "lat": 12.958252,
      "lon": 77.6011466,
      "tags": {
        "shop": "stationery"
      }
    },
    {
      "type": "node",
      "id": 11171328738,
      "lat": 12.9580872,
      "lon": 77.6010965,
      "tags": {
        "shop": "bakery"
      }
    },
    {
      "type": "node",
      "id": 11171328739,
      "lat": 12.9576687,
      "lon": 77.6009775,
      "tags": {
        "name": "Nandini Diary Parlor",
        "shop": "dairy"
      }
    },
    {
      "type": "node",
      "id": 11295469699,
      "lat": 12.9519038,
      "lon": 77.5944072,
      "tags": {
        "amenity": "pharmacy",
        "healthcare": "pharmacy",
        "level": "0",
        "name": "Primecare Pharma",
        "opening_hours": "Mo-Su 08:00-23:00,13:30-18:30; PH open"
      }
    },
    {
      "type": "node",
      "id": 11295714523,
      "lat": 12.9540945,
      "lon": 77.5913153,
      "tags": {
        "amenity": "cafe",
        "level": "0",
        "name": "Murugan Cafe",
        "opening_hours": "Mo-Su 05:00-23:00; PH open"
      }
    },
    {
      "type": "node",
      "id": 11295718722,
      "lat": 12.9547702,
      "lon": 77.5915257,
      "tags": {
        "level": "0",
        "name": "Black & White",
        "shop": "alcohol"
      }
    },
    {
      "type": "node",
      "id": 11295814509,
      "lat": 12.9566336,
      "lon": 77.5922681,
      "tags": {
        "alt_name": "Kentucky Fried Chicken",
        "alt_name:en": "Kentucky Fried Chicken",
        "alt_name:hi": "केंटुकी फ्राइड चिकन",
        "alt_name:pa": "ਕੈਂਟੁਕੀ ਫ੍ਰਾਈਡ ਚਿਕਨ",
        "alt_name:pnb": "کینٹکی فرائیڈ چکن",
        "alt_name:ur": "کینٹکی فرائیڈ چکن",
        "amenity": "fast_food",
        "brand": "KFC",
        "brand:en": "KFC",
        "brand:hi": "केएफसी",
        "brand:pa": "ਕੇਐਫਸੀ",
        "brand:pnb": "کے ایف سی",
        "brand:ur": "کے ایف سی",
        "brand:wikidata": "Q524757",
        "cuisine": "chicken",
        "level": "0",
        "name": "KFC",
        "name:en": "KFC",
        "name:hi": "केएफसी",
        "name:pa": "ਕੇਐਫਸੀ",
        "name:pnb": "کے ایف سی",
        "name:ur": "کے ایف سی",
        "takeaway": "yes"
      }
    },
    {
      "type": "node",
      "id": 11295814512,
      "lat": 12.9565308,
      "lon": 77.5911058,
      "tags": {
        "level": "0",
        "name": "Sri Manjunatha Bakery & Cool Joint",
        "shop": "bakery"
      }
    },
    {
      "type": "node",
      "id": 11295826654,
      "lat": 12.9550118,
      "lon": 77.5925388,
      "tags": {
        "amenity": "restaurant",
        "level": "0",
        "name": "Sri Vishnu Bhavan",
        "survey:date": "2024-02-01"
      }
    },
    {
      "type": "node",
      "id": 11295826656,
      "lat": 12.9547541,
      "lon": 77.5929871,
      "tags": {
        "amenity": "atm",
        "brand": "Karnataka Bank",
        "brand:wikidata": "Q2042632",
        "cash_in": "no",
        "level": "0",
        "operator": "Karnataka Bank",
        "operator:wikidata": "Q2042632"
      }
    },
    {
      "type": "node",
      "id": 11295833796,
      "lat": 12.9551335,
      "lon": 77.592631,
      "tags": {
        "amenity": "waste_basket",
        "waste": "trash"
      }
    },
    {
      "type": "node",
      "id": 11295848643,
      "lat": 12.9468716,
      "lon": 77.5947342,
      "tags": {
        "amenity": "shelter",
        "shelter_type": "public_transport"
      }
    },
    {
      "type": "node",
      "id": 11295848644,
      "lat": 12.9470676,
      "lon": 77.5945671,
      "tags": {
        "amenity": "shelter",
        "shelter_type": "public_transport"
      }
    },
    {
      "type": "node",
      "id": 11295848646,
      "lat": 12.946989,
      "lon": 77.594634,
      "tags": {
        "amenity": "shelter",
        "shelter_type": "public_transport"
      }
    },
    {
      "type": "node",
      "id": 11295921628,
      "lat": 12.9500344,
      "lon": 77.5965335,
      "tags": {
        "amenity": "pharmacy",
        "healthcare": "pharmacy",
        "level": "0",
        "name": "Kamaldeep Medicals"
      }
    },
    {
      "type": "node",
      "id": 11295921629,
      "lat": 12.9499736,
      "lon": 77.5966031,
      "tags": {
        "amenity": "pharmacy",
        "healthcare": "pharmacy",
        "level": "0",
        "name": "Amruth Medicals"
      }
    },
    {
      "type": "node",
      "id": 11295921632,
      "lat": 12.9494898,
      "lon": 77.5962984,
      "tags": {
        "level": "0",
        "name": "Bake Land",
        "opening_hours": "Mo-Su 07:00-23:30; PH open",
        "shop": "bakery"
      }
    },
    {
      "type": "node",
      "id": 11295921634,
      "lat": 12.9500034,
      "lon": 77.5965705,
      "tags": {
        "indoor_seating": "no",
        "level": "0",
        "name": "Sri Venkatesha Iyengar's Bakery",
        "outdoor_seating": "no",
        "shop": "bakery",
        "takeaway": "only",
        "wheelchair": "no"
      }
    },
    {
      "type": "node",
      "id": 11295921635,
      "lat": 12.9514745,
      "lon": 77.595132,
      "tags": {
        "amenity": "pharmacy",
        "healthcare": "pharmacy",
        "level": "0",
        "name": "Rajalakshmi Medicals"
      }
    },
    {
      "type": "node",
      "id": 11295921636,
      "lat": 12.94961,
      "lon": 77.5962261,
      "tags": {
        "amenity": "pharmacy",
        "brand": "Apollo Pharmacy",
        "brand:wikidata": "Q62562612",
        "healthcare": "pharmacy",
        "level": "0",
        "name": "Apollo Pharmacy",
        "name:kn": "ಅಪೋಲೋ ಫಾರ್ಮಸಿ"
      }
    },
    {
      "type": "node",
      "id": 11296003727,
      "lat": 12.9494082,
      "lon": 77.59618,
      "tags": {
        "amenity": "pharmacy",
        "healthcare": "pharmacy",
        "level": "0",
        "name": "Susheela Medicals"
      }
    },
    {
      "type": "node",
      "id": 11298161566,
      "lat": 12.9541005,
      "lon": 77.5913286,
      "tags": {
        "access": "permissive",
        "amenity": "drinking_water",
        "bottle": "yes",
        "indoor": "yes",
        "level": "0"
      }
    },
    {
      "type": "node",
      "id": 11355730131,
      "lat": 12.9483269,
      "lon": 77.5935933,
      "tags": {
        "amenity": "toilets",
        "check_date": "2023-11-16"
      }
    },
    {
      "type": "node",
      "id": 11371236634,
      "lat": 12.9539626,
      "lon": 77.5851182,
      "tags": {
        "brand": "Nandini",
        "check_date": "2023-11-23",
        "name": "Nandini",
        "shop": "dairy"
      }
    },
    {
      "type": "node",
      "id": 11371236635,
      "lat": 12.9545088,
      "lon": 77.5833551,
      "tags": {
        "brand": "Apollo Tyres",
        "brand:wikidata": "Q4780362",
        "check_date": "2023-11-23",
        "name": "Apollo Tyres",
        "shop": "tyres"
      }
    },
    {
      "type": "node",
      "id": 11371245256,
      "lat": 12.9478186,
      "lon": 77.593784,
      "tags": {
        "check_date": "2023-11-23",
        "shop": "alcohol"
      }
    },
    {
      "type": "node",
      "id": 11371245258,
      "lat": 12.9491881,
      "lon": 77.5931321,
      "tags": {
        "check_date": "2023-11-23",
        "name": "Vara",
        "shop": "clothes",
        "wheelchair": "yes"
      }
    },
    {
      "type": "node",
      "id": 11371245260,
      "lat": 12.9510527,
      "lon": 77.5911638,
      "tags": {
        "check_date": "2023-11-23",
        "name": "Nandini",
        "shop": "dairy"
      }
    },
    {
      "type": "node",
      "id": 11400959258,
      "lat": 12.9575721,
      "lon": 77.6001983,
      "tags": {
        "addr:city": "Bengaluru",
        "addr:housenumber": "Pride Apartment 182",
        "addr:postcode": "560076",
        "addr:street": "Bannerghatta Main Road Phase 4 Bilekahalli",
        "becknified": "true",
        "image": "https:\\/\\/cdn.shopify.com\\/s\\/files\\/1\\/0647\\/3662\\/4854\\/files\\/logo_2_1_fc405c5b-4db5-419a-8ec3-380144685e90.svg?v=1669615619",
        "logo": "https:\\/\\/cdn.shopify.com\\/s\\/files\\/1\\/0647\\/3662\\/4854\\/files\\/logo_2_1_fc405c5b-4db5-419a-8ec3-380144685e90.svg?v=1669615619",
        "name": "Wiggles shopify store",
        "name:en": "Wiggles shopify store",
        "operator": "BOC Shopify",
        "payment:cash": "yes",
        "payment:credit_cards": "yes",
        "payment:debit_cards": "yes",
        "providerId": "bocshopify.humbhionline.in",
        "shop": "supermarket"
      }
    },
    {
      "type": "node",
      "id": 11417003455,
      "lat": 12.9484916,
      "lon": 77.5938183,
      "tags": {
        "check_date": "2023-12-14",
        "name": "Right Tyres",
        "shop": "tyres"
      }
    },
    {
      "type": "node",
      "id": 11417003456,
      "lat": 12.9485984,
      "lon": 77.5937714,
      "tags": {
        "check_date": "2023-12-14",
        "name": "Front Line Decor",
        "shop": "interior_decoration"
      }
    },
    {
      "type": "node",
      "id": 11417003457,
      "lat": 12.9490255,
      "lon": 77.5936154,
      "tags": {
        "check_date": "2023-12-14",
        "name": "The Furniture Store",
        "shop": "furniture",
        "wheelchair": "yes"
      }
    },
    {
      "type": "node",
      "id": 11417003458,
      "lat": 12.9492483,
      "lon": 77.5934342,
      "tags": {
        "check_date": "2023-12-14",
        "name": "Prolink",
        "shop": "copyshop"
      }
    },
    {
      "type": "node",
      "id": 11417003459,
      "lat": 12.9500234,
      "lon": 77.593064,
      "tags": {
        "brand": "Tata",
        "brand:wikidata": "Q188514",
        "check_date": "2023-12-14",
        "name": "Tata",
        "shop": "car"
      }
    },
    {
      "type": "node",
      "id": 11524109257,
      "lat": 12.9576565,
      "lon": 77.6011948,
      "tags": {
        "addr:city": "Bengaluru",
        "addr:district": "Bannerghatta Main Road Phase 4 Bilekahalli",
        "addr:postcode": "560076",
        "addr:street": "P Street",
        "becknified": "true",
        "images": "https://ws1.humbhionline.in/resources/web_manifest/512x512.png?v=1.0",
        "logo": "https://ws1.humbhionline.in/resources/web_manifest/512x512.png?v=1.0",
        "name": "Vegetables Bhi Online",
        "operator": "HumBhi Online",
        "payment:cash": "yes",
        "payment:credit_cards": "yes",
        "payment:debit_cards": "yes",
        "providerId": "ws1.humbhionline.in",
        "shop": "supermarket"
      }
    },
    {
      "type": "node",
      "id": 11557028551,
      "lat": 12.9584724,
      "lon": 77.5929147,
      "tags": {
        "addr:floor": "G",
        "addr:housenumber": "105",
        "addr:street": "Kengal Hanumanthaiah Road",
        "amenity": "bar",
        "check_date": "2024-01-29",
        "contact:instagram": "https://www.instagram.com/wineinprogressblr",
        "level": "0",
        "name": "Wine In Progress",
        "opening_hours": "17:00-23:00",
        "start_date": "2024-01-31",
        "website": "https://wip.thecourtyard.in/"
      }
    },
    {
      "type": "node",
      "id": 11577096069,
      "lat": 12.9538309,
      "lon": 77.5926163,
      "tags": {
        "amenity": "shelter",
        "bench": "yes",
        "lit": "yes",
        "name": "Airavat Passengers Waiting Lounge",
        "shelter_type": "public_transport",
        "survey:date": "2024-02-01"
      }
    },
    {
      "type": "node",
      "id": 11602938154,
      "lat": 12.9569478,
      "lon": 77.6015303,
      "tags": {
        "amenity": "school",
        "name": "BBMP High School"
      }
    },
    {
      "type": "node",
      "id": 11687235830,
      "lat": 12.9625546,
      "lon": 77.5922966,
      "tags": {
        "check_date": "2024-03-03",
        "name": "Nandini",
        "shop": "dairy"
      }
    },
    {
      "type": "node",
      "id": 11963070622,
      "lat": 12.9536988,
      "lon": 77.59234,
      "tags": {
        "amenity": "atm",
        "brand": "Karnataka Bank",
        "brand:wikidata": "Q2042632",
        "cash_in": "no",
        "check_date": "2024-06-07",
        "currency:INR": "yes",
        "drive_through": "no",
        "indoor": "no",
        "operator": "Karnataka Bank",
        "operator:wikidata": "Q2042632"
      }
    },
    {
      "type": "node",
      "id": 11981271373,
      "lat": 12.953587,
      "lon": 77.5927559,
      "tags": {
        "addr:floor": "G",
        "brand": "METRO",
        "brand:wikidata": "Q13610282",
        "check_date": "2024-06-14",
        "level": "0",
        "name": "Metro",
        "name:en": "METRO",
        "shop": "wholesale"
      }
    },
    {
      "type": "node",
      "id": 12000048468,
      "lat": 12.9533931,
      "lon": 77.5850082,
      "tags": {
        "amenity": "waste_basket"
      }
    },
    {
      "type": "node",
      "id": 12000107758,
      "lat": 12.9535803,
      "lon": 77.5849908,
      "tags": {
        "amenity": "waste_basket"
      }
    },
    {
      "type": "node",
      "id": 12000109175,
      "lat": 12.9532948,
      "lon": 77.5851274,
      "tags": {
        "amenity": "drinking_water"
      }
    },
    {
      "type": "node",
      "id": 12000109176,
      "lat": 12.953211,
      "lon": 77.585119,
      "tags": {
        "amenity": "waste_basket"
      }
    },
    {
      "type": "node",
      "id": 12000126769,
      "lat": 12.9518909,
      "lon": 77.5848763,
      "tags": {
        "amenity": "clock"
      }
    },
    {
      "type": "node",
      "id": 12000126770,
      "lat": 12.9511255,
      "lon": 77.5847047,
      "tags": {
        "amenity": "fountain"
      }
    },
    {
      "type": "node",
      "id": 12000126771,
      "lat": 12.9509424,
      "lon": 77.5845687,
      "tags": {
        "brand": "HOPCOMS",
        "brand:wikidata": "Q22908959",
        "check_date": "2024-06-22",
        "name": "HOPCOMS",
        "shop": "greengrocer"
      }
    },
    {
      "type": "node",
      "id": 12000333860,
      "lat": 12.9535837,
      "lon": 77.5849067,
      "tags": {
        "amenity": "waste_basket"
      }
    },
    {
      "type": "node",
      "id": 12000333865,
      "lat": 12.9522509,
      "lon": 77.5838309,
      "tags": {
        "amenity": "waste_basket"
      }
    },
    {
      "type": "node",
      "id": 12000333866,
      "lat": 12.9523954,
      "lon": 77.5838654,
      "tags": {
        "amenity": "bench",
        "backrest": "yes"
      }
    },
    {
      "type": "node",
      "id": 12000333868,
      "lat": 12.9523508,
      "lon": 77.5841706,
      "tags": {
        "amenity": "bench",
        "backrest": "yes"
      }
    },
    {
      "type": "node",
      "id": 12000359669,
      "lat": 12.9524939,
      "lon": 77.5837914,
      "tags": {
        "amenity": "waste_basket"
      }
    },
    {
      "type": "node",
      "id": 12000359670,
      "lat": 12.9529697,
      "lon": 77.5839233,
      "tags": {
        "amenity": "waste_basket"
      }
    },
    {
      "type": "node",
      "id": 12000359671,
      "lat": 12.9531516,
      "lon": 77.5841746,
      "tags": {
        "amenity": "waste_basket"
      }
    },
    {
      "type": "node",
      "id": 12000359672,
      "lat": 12.9532353,
      "lon": 77.5841196,
      "tags": {
        "amenity": "bench",
        "backrest": "yes"
      }
    },
    {
      "type": "node",
      "id": 12000359673,
      "lat": 12.9534505,
      "lon": 77.5846776,
      "tags": {
        "amenity": "bench",
        "backrest": "yes"
      }
    },
    {
      "type": "node",
      "id": 12000359674,
      "lat": 12.9534355,
      "lon": 77.5846438,
      "tags": {
        "amenity": "bench",
        "backrest": "yes"
      }
    },
    {
      "type": "node",
      "id": 12000359675,
      "lat": 12.9535811,
      "lon": 77.5847475,
      "tags": {
        "amenity": "waste_basket"
      }
    },
    {
      "type": "node",
      "id": 12036211740,
      "lat": 12.9543622,
      "lon": 77.5929328,
      "tags": {
        "addr:floor": "G",
        "check_date": "2024-07-05",
        "level": "0",
        "name": "Sri Vari Stationary & Conditiments",
        "name:en": "Sri Vari Stationary & Conditiments",
        "shop": "convenience"
      }
    },
    {
      "type": "node",
      "id": 12061117156,
      "lat": 12.9563963,
      "lon": 77.5862865,
      "tags": {
        "addr:floor": "G",
        "brand": "Volkswagen",
        "brand:wikidata": "Q246",
        "check_date": "2024-07-18",
        "level": "0",
        "name": "Volkswagen Bengaluru Central",
        "name:en": "Volkswagen Bengaluru Central",
        "shop": "car"
      }
    },
    {
      "type": "node",
      "id": 12061117157,
      "lat": 12.9568208,
      "lon": 77.5862981,
      "tags": {
        "addr:floor": "G",
        "brand": "Kia",
        "brand:wikidata": "Q35349",
        "check_date": "2024-07-18",
        "level": "0",
        "name": "Advaith Kia",
        "name:en": "Advaith Kia",
        "shop": "car"
      }
    },
    {
      "type": "node",
      "id": 12078423950,
      "lat": 12.9539684,
      "lon": 77.5920517,
      "tags": {
        "access": "yes",
        "amenity": "toilets",
        "check_date": "2024-07-28",
        "fee": "no",
        "payment:cash": "yes",
        "payment:upi": "yes",
        "source": "survey"
      }
    },
    {
      "type": "node",
      "id": 12078423951,
      "lat": 12.9538065,
      "lon": 77.5922406,
      "tags": {
        "check_date": "2024-07-28",
        "name": "Venkatadri Condiments",
        "payment:cash": "yes",
        "payment:upi": "yes",
        "shop": "convenience",
        "source": "survey"
      }
    },
    {
      "type": "node",
      "id": 12078423952,
      "lat": 12.9540507,
      "lon": 77.5921812,
      "tags": {
        "check_date": "2024-07-28",
        "name": "Sri Sai Sweets & Coffee Point",
        "payment:cash": "yes",
        "payment:upi": "yes",
        "shop": "convenience",
        "source": "survey"
      }
    },
    {
      "type": "node",
      "id": 12101659684,
      "lat": 12.9618739,
      "lon": 77.5946931,
      "tags": {
        "check_date": "2024-08-10",
        "name": "Designer Light Gallery",
        "shop": "lighting"
      }
    },
    {
      "type": "node",
      "id": 12101659685,
      "lat": 12.9615765,
      "lon": 77.5946056,
      "tags": {
        "addr:floor": "G",
        "amenity": "cafe",
        "check_date": "2024-08-10",
        "level": "0",
        "name": "The Bangalore Cafe"
      }
    },
    {
      "type": "node",
      "id": 12101659686,
      "lat": 12.9614801,
      "lon": 77.5945241,
      "tags": {
        "addr:floor": "G",
        "check_date": "2024-08-10",
        "level": "0",
        "name": "Crava",
        "shop": "flooring"
      }
    },
    {
      "type": "node",
      "id": 12101659687,
      "lat": 12.9613636,
      "lon": 77.5944811,
      "tags": {
        "amenity": "bank",
        "atm": "yes",
        "brand": "Indian Overseas Bank",
        "brand:wikidata": "Q2003611",
        "check_date": "2024-08-10",
        "name": "Indian Overseas Bank",
        "wheelchair": "limited"
      }
    },
    {
      "type": "node",
      "id": 12101712423,
      "lat": 12.9631578,
      "lon": 77.5955227,
      "tags": {
        "check_date": "2024-08-10",
        "clothes": "suits",
        "name": "Jatin Bhandari",
        "shop": "clothes"
      }
    },
    {
      "type": "node",
      "id": 12101731497,
      "lat": 12.963649,
      "lon": 77.5960156,
      "tags": {
        "addr:floor": "G",
        "amenity": "dentist",
        "check_date": "2024-08-10",
        "healthcare": "dentist",
        "level": "0",
        "name": "Dental Clinic"
      }
    },
    {
      "type": "node",
      "id": 12101733054,
      "lat": 12.9635732,
      "lon": 77.5959264,
      "tags": {
        "check_date": "2024-08-10",
        "name": "Gateshead",
        "shop": "lighting"
      }
    },
    {
      "type": "node",
      "id": 12101733055,
      "lat": 12.9622172,
      "lon": 77.5955424,
      "tags": {
        "amenity": "music_school",
        "check_date": "2024-08-10",
        "name": "The Music School Bangalore"
      }
    },
    {
      "type": "node",
      "id": 12101746574,
      "lat": 12.9618291,
      "lon": 77.5976174,
      "tags": {
        "amenity": "place_of_worship",
        "check_date": "2024-08-10",
        "religion": "hindu"
      }
    },
    {
      "type": "node",
      "id": 12101783870,
      "lat": 12.9595341,
      "lon": 77.5946237,
      "tags": {
        "amenity": "post_box",
        "operator": "India Post"
      }
    },
    {
      "type": "node",
      "id": 12102995495,
      "lat": 12.9559235,
      "lon": 77.5923618,
      "tags": {
        "amenity": "bench",
        "backrest": "no",
        "material": "stone"
      }
    },
    {
      "type": "node",
      "id": 12103665088,
      "lat": 12.9546902,
      "lon": 77.5929698,
      "tags": {
        "amenity": "bicycle_parking",
        "brand": "Trin",
        "operator": "DULT",
        "operator:type": "government"
      }
    },
    {
      "type": "node",
      "id": 12103707817,
      "lat": 12.9568092,
      "lon": 77.5926544,
      "tags": {
        "amenity": "post_box",
        "operator": "India Post",
        "operator:wikidata": "Q3519720"
      }
    },
    {
      "type": "node",
      "id": 12109772459,
      "lat": 12.9617175,
      "lon": 77.5960641,
      "tags": {
        "amenity": "food_court",
        "name": "St. Joseph's University Food Court"
      }
    },
    {
      "type": "node",
      "id": 12109773379,
      "lat": 12.9594748,
      "lon": 77.5947203,
      "tags": {
        "amenity": "school",
        "name": "EuroKids Shantinagar"
      }
    },
    {
      "type": "node",
      "id": 12149279048,
      "lat": 12.9584959,
      "lon": 77.5927545,
      "tags": {
        "addr:city": "Bengaluru",
        "addr:housenumber": "105",
        "addr:postcode": "560027",
        "addr:street": "Kengal Hanumanthaiah Road",
        "addr:suburb": "Shantinagar",
        "amenity": "cafe",
        "cuisine": "coffee_shop",
        "delivery": "yes",
        "name": "Ajji House by Subko",
        "operator": "Subko Coffee Roasters",
        "shop": "chocolate",
        "smoking": "separated",
        "takeaway": "yes",
        "toilets": "yes",
        "toilets:access": "customers",
        "website": "https://www.subko.coffee"
      }
    },
    {
      "type": "node",
      "id": 12168410900,
      "lat": 12.9532918,
      "lon": 77.5930251,
      "tags": {
        "addr:floor": "G",
        "check_date": "2024-09-10",
        "level": "0",
        "name": "SRS Travels",
        "name:en": "SRS Travels",
        "shop": "travel_agency"
      }
    },
    {
      "type": "node",
      "id": 12168445591,
      "lat": 12.950762,
      "lon": 77.595979,
      "tags": {
        "addr:floor": "1",
        "check_date": "2024-09-10",
        "leisure": "fitness_centre",
        "level": "1",
        "name": "Game On Fitness",
        "name:en": "Game On Fitness"
      }
    },
    {
      "type": "node",
      "id": 12168445592,
      "lat": 12.9489708,
      "lon": 77.5979648,
      "tags": {
        "addr:floor": "G",
        "amenity": "restaurant",
        "check_date": "2024-09-10",
        "diet:vegetarian": "yes",
        "level": "0",
        "name": "Sandhya Veg",
        "name:en": "Sandhya Veg"
      }
    },
    {
      "type": "node",
      "id": 12246167229,
      "lat": 12.9514622,
      "lon": 77.5971982,
      "tags": {
        "amenity": "place_of_worship",
        "check_date": "2024-10-12",
        "religion": "hindu"
      }
    },
    {
      "type": "node",
      "id": 12246167230,
      "lat": 12.9505253,
      "lon": 77.598265,
      "tags": {
        "amenity": "fast_food",
        "brand": "Indira Canteen",
        "brand:wikidata": "Q36164828",
        "check_date": "2024-10-12",
        "cuisine": "south_indian",
        "fast_food": "cafeteria",
        "name": "Indira Canteen",
        "operator": "BBMP",
        "takeaway": "yes"
      }
    },
    {
      "type": "node",
      "id": 12558309901,
      "lat": 12.9571022,
      "lon": 77.5838084,
      "tags": {
        "amenity": "community_centre",
        "name": "Bangalore City Dr Ambedkar Youth Welfare Association"
      }
    },
    {
      "type": "node",
      "id": 13023090264,
      "lat": 12.9572298,
      "lon": 77.5943978,
      "tags": {
        "amenity": "cafe",
        "check_date": "2025-07-25",
        "name": "The Green Door Coffee House"
      }
    },
    {
      "type": "node",
      "id": 13155991171,
      "lat": 12.9498997,
      "lon": 77.5958958,
      "tags": {
        "amenity": "atm",
        "brand": "State Bank of India",
        "brand:wikidata": "Q1340361",
        "check_date": "2025-09-19",
        "operator": "State Bank of India",
        "operator:wikidata": "Q1340361"
      }
    },
    {
      "type": "node",
      "id": 13155991172,
      "lat": 12.9495651,
      "lon": 77.5962737,
      "tags": {
        "check_date": "2025-09-19",
        "name": "Sunil Raj Printers",
        "shop": "copyshop"
      }
    },
    {
      "type": "node",
      "id": 13155991173,
      "lat": 12.9492191,
      "lon": 77.5962052,
      "tags": {
        "amenity": "restaurant",
        "check_date": "2025-09-19",
        "name": "Flames Restaurant"
      }
    },
    {
      "type": "node",
      "id": 13163010608,
      "lat": 12.9573961,
      "lon": 77.5925814,
      "tags": {
        "addr:floor": "G",
        "amenity": "bank",
        "atm": "yes",
        "brand": "HDFC Bank",
        "brand:wikidata": "Q631047",
        "check_date": "2025-09-22",
        "level": "0",
        "name": "HDFC Bank",
        "name:en": "HDFC Bank",
        "short_name": "HDFC"
      }
    },
    {
      "type": "node",
      "id": 13163010609,
      "lat": 12.95751,
      "lon": 77.5926367,
      "tags": {
        "addr:floor": "G",
        "amenity": "bank",
        "check_date": "2025-09-22",
        "level": "0",
        "name": "Bharat Bank",
        "name:en": "Bharat Bank"
      }
    },
    {
      "type": "node",
      "id": 13163010610,
      "lat": 12.9570781,
      "lon": 77.5924413,
      "tags": {
        "addr:floor": "G",
        "amenity": "bank",
        "atm": "yes",
        "brand": "Kotak Mahindra Bank",
        "brand:wikidata": "Q2040404",
        "check_date": "2025-11-30",
        "level": "0",
        "name": "Kotak Mahindra Bank",
        "name:en": "Kotak Mahindra Bank",
        "wheelchair": "no"
      }
    },
    {
      "type": "node",
      "id": 13195197468,
      "lat": 12.9510042,
      "lon": 77.5874497,
      "tags": {
        "amenity": "bench"
      }
    },
    {
      "type": "node",
      "id": 13195211142,
      "lat": 12.9509978,
      "lon": 77.587449,
      "tags": {
        "amenity": "bench"
      }
    },
    {
      "type": "node",
      "id": 13236852613,
      "lat": 12.9538537,
      "lon": 77.5924088,
      "tags": {
        "addr:floor": "G",
        "check_date": "2025-10-16",
        "level": "0",
        "name": "Sree Devi Condiments",
        "name:en": "Sree Devi Condiments",
        "shop": "convenience"
      }
    },
    {
      "type": "node",
      "id": 13341775165,
      "lat": 12.950955,
      "lon": 77.5938177,
      "tags": {
        "access": "yes",
        "amenity": "bench",
        "armrest": "no",
        "backrest": "yes",
        "material": "stone",
        "seats": "3"
      }
    },
    {
      "type": "node",
      "id": 13341775166,
      "lat": 12.9506612,
      "lon": 77.5919149,
      "tags": {
        "addr:floor": "2",
        "amenity": "restaurant",
        "check_date": "2025-11-30",
        "internet_access": "no",
        "name": "Alankaaram",
        "wheelchair": "no"
      }
    },
    {
      "type": "node",
      "id": 13341775173,
      "lat": 12.9502461,
      "lon": 77.5929829,
      "tags": {
        "addr:housenumber": "1",
        "addr:street": "3rd Cross Road",
        "amenity": "place_of_worship",
        "check_date": "2025-11-30",
        "name": "Ahmadiyya Masjid",
        "phone": "18001032131",
        "religion": "muslim",
        "website": "https://alislam.org"
      }
    },
    {
      "type": "node",
      "id": 13341775174,
      "lat": 12.9512757,
      "lon": 77.5941291,
      "tags": {
        "access": "yes",
        "amenity": "bench",
        "armrest": "no",
        "backrest": "yes",
        "material": "stone",
        "seats": "3"
      }
    },
    {
      "type": "node",
      "id": 13341775175,
      "lat": 12.9512355,
      "lon": 77.5940951,
      "tags": {
        "access": "yes",
        "amenity": "bench",
        "armrest": "no",
        "backrest": "yes",
        "material": "stone",
        "seats": "3"
      }
    },
    {
      "type": "node",
      "id": 13341775176,
      "lat": 12.9512041,
      "lon": 77.5940552,
      "tags": {
        "access": "yes",
        "amenity": "bench",
        "armrest": "no",
        "backrest": "no",
        "material": "stone",
        "seats": "3"
      }
    },
    {
      "type": "node",
      "id": 13341775177,
      "lat": 12.9511623,
      "lon": 77.5940154,
      "tags": {
        "access": "yes",
        "amenity": "bench",
        "armrest": "no",
        "backrest": "yes",
        "material": "stone",
        "seats": "4"
      }
    },
    {
      "type": "node",
      "id": 13341775178,
      "lat": 12.9510987,
      "lon": 77.5939516,
      "tags": {
        "access": "yes",
        "amenity": "bench",
        "armrest": "no",
        "backrest": "no",
        "material": "stone",
        "seats": "3"
      }
    },
    {
      "type": "node",
      "id": 13341775179,
      "lat": 12.9510585,
      "lon": 77.5939167,
      "tags": {
        "access": "yes",
        "amenity": "bench",
        "armrest": "no",
        "backrest": "yes",
        "material": "stone",
        "seats": "3"
      }
    },
    {
      "type": "node",
      "id": 13341775180,
      "lat": 12.9506612,
      "lon": 77.5919149,
      "tags": {
        "addr:floor": "G",
        "amenity": "fixme",
        "check_date": "2025-11-30",
        "fixme": "type",
        "fixme:type": "bike showroom",
        "internet_access": "no",
        "level": "0",
        "name": "Honda Big Wing",
        "wheelchair": "no"
      }
    },
    {
      "type": "node",
      "id": 13341775181,
      "lat": 12.9508398,
      "lon": 77.5937107,
      "tags": {
        "access": "yes",
        "amenity": "bench",
        "armrest": "no",
        "backrest": "yes",
        "material": "stone",
        "seats": "3"
      }
    },
    {
      "type": "node",
      "id": 13341775182,
      "lat": 12.9507637,
      "lon": 77.5936396,
      "tags": {
        "access": "yes",
        "amenity": "bench",
        "armrest": "no",
        "backrest": "yes",
        "material": "stone",
        "seats": "3"
      }
    },
    {
      "type": "node",
      "id": 13341775183,
      "lat": 12.9507045,
      "lon": 77.5935782,
      "tags": {
        "access": "yes",
        "amenity": "bench",
        "armrest": "no",
        "backrest": "yes",
        "material": "stone",
        "seats": "3"
      }
    },
    {
      "type": "node",
      "id": 13341775184,
      "lat": 12.9506327,
      "lon": 77.5935171,
      "tags": {
        "access": "yes",
        "amenity": "bench",
        "armrest": "no",
        "backrest": "yes",
        "material": "stone",
        "seats": "3"
      }
    },
    {
      "type": "node",
      "id": 13341775185,
      "lat": 12.9505504,
      "lon": 77.5934449,
      "tags": {
        "access": "yes",
        "amenity": "bench",
        "armrest": "no",
        "backrest": "yes",
        "material": "stone",
        "seats": "3"
      }
    },
    {
      "type": "node",
      "id": 13341775186,
      "lat": 12.9503847,
      "lon": 77.5933052,
      "tags": {
        "access": "yes",
        "amenity": "bench",
        "armrest": "no",
        "backrest": "yes",
        "material": "stone",
        "seats": "3"
      }
    },
    {
      "type": "node",
      "id": 13341775187,
      "lat": 12.9504496,
      "lon": 77.5935075,
      "tags": {
        "access": "yes",
        "amenity": "bench",
        "armrest": "no",
        "backrest": "yes",
        "material": "stone",
        "seats": "3"
      }
    },
    {
      "type": "node",
      "id": 13341775188,
      "lat": 12.9504677,
      "lon": 77.5935778,
      "tags": {
        "amenity": "waste_basket",
        "colour": "Green and Blue",
        "material": "plastic",
        "operator": "BBMP",
        "waste": "mixed"
      }
    },
    {
      "type": "node",
      "id": 13341775189,
      "lat": 12.9504829,
      "lon": 77.5936337,
      "tags": {
        "access": "yes",
        "amenity": "bench",
        "armrest": "no",
        "backrest": "yes",
        "material": "stone",
        "seats": "3"
      }
    },
    {
      "type": "node",
      "id": 13341775190,
      "lat": 12.9505083,
      "lon": 77.5936882,
      "tags": {
        "access": "yes",
        "amenity": "bench",
        "armrest": "no",
        "backrest": "yes",
        "material": "stone",
        "seats": "3"
      }
    },
    {
      "type": "node",
      "id": 13341775191,
      "lat": 12.9505426,
      "lon": 77.5937699,
      "tags": {
        "access": "yes",
        "amenity": "bench",
        "armrest": "no",
        "backrest": "yes",
        "material": "stone",
        "seats": "3"
      }
    },
    {
      "type": "node",
      "id": 13341775192,
      "lat": 12.9505884,
      "lon": 77.5938736,
      "tags": {
        "access": "yes",
        "amenity": "bench",
        "armrest": "no",
        "material": "stone",
        "seats": "3"
      }
    },
    {
      "type": "node",
      "id": 13341775193,
      "lat": 12.9506357,
      "lon": 77.5939583,
      "tags": {
        "access": "yes",
        "amenity": "bench",
        "armrest": "no",
        "backrest": "yes",
        "material": "stone",
        "seats": "3"
      }
    },
    {
      "type": "node",
      "id": 13341775194,
      "lat": 12.9506573,
      "lon": 77.5940061,
      "tags": {
        "access": "yes",
        "amenity": "bench",
        "armrest": "no",
        "backrest": "no",
        "material": "stone",
        "seats": "3"
      }
    },
    {
      "type": "node",
      "id": 13341775195,
      "lat": 12.9506997,
      "lon": 77.5940911,
      "tags": {
        "access": "yes",
        "amenity": "bench",
        "armrest": "no",
        "backrest": "yes",
        "material": "stone",
        "seats": "3"
      }
    },
    {
      "type": "node",
      "id": 13341775196,
      "lat": 12.9509344,
      "lon": 77.594536,
      "tags": {
        "access": "yes",
        "amenity": "bench",
        "armrest": "no",
        "backrest": "no",
        "material": "stone",
        "seats": "3"
      }
    },
    {
      "type": "node",
      "id": 13341775197,
      "lat": 12.9507483,
      "lon": 77.5941885,
      "tags": {
        "access": "yes",
        "amenity": "bench",
        "armrest": "no",
        "backrest": "yes",
        "material": "stone",
        "seats": "3"
      }
    },
    {
      "type": "node",
      "id": 13341775198,
      "lat": 12.9507739,
      "lon": 77.5942358,
      "tags": {
        "access": "yes",
        "amenity": "bench",
        "armrest": "no",
        "backrest": "no",
        "material": "stone",
        "seats": "3"
      }
    },
    {
      "type": "node",
      "id": 13341775199,
      "lat": 12.9508028,
      "lon": 77.5942867,
      "tags": {
        "access": "yes",
        "amenity": "bench",
        "armrest": "no",
        "backrest": "yes",
        "material": "stone",
        "seats": "3"
      }
    },
    {
      "type": "node",
      "id": 13341775200,
      "lat": 12.9508235,
      "lon": 77.594331,
      "tags": {
        "access": "yes",
        "amenity": "bench",
        "armrest": "no",
        "backrest": "no",
        "material": "stone",
        "seats": "3"
      }
    },
    {
      "type": "node",
      "id": 13341789489,
      "lat": 12.9510827,
      "lon": 77.5942784,
      "tags": {
        "amenity": "shelter",
        "bench": "yes",
        "name": "Gaze P",
        "shelter_type": "gazebo"
      }
    },
    {
      "type": "node",
      "id": 13341800373,
      "lat": 12.951193,
      "lon": 77.5948828,
      "tags": {
        "amenity": "bench"
      }
    },
    {
      "type": "node",
      "id": 13341800374,
      "lat": 12.9510853,
      "lon": 77.5946963,
      "tags": {
        "amenity": "bench"
      }
    },
    {
      "type": "node",
      "id": 13341800382,
      "lat": 12.9509376,
      "lon": 77.5921354,
      "tags": {
        "level": "0",
        "name": "Elica",
        "shop": "appliance"
      }
    },
    {
      "type": "node",
      "id": 13341800384,
      "lat": 12.9511529,
      "lon": 77.5948087,
      "tags": {
        "amenity": "bench"
      }
    },
    {
      "type": "node",
      "id": 13341800388,
      "lat": 12.9510515,
      "lon": 77.5946258,
      "tags": {
        "amenity": "bench"
      }
    },
    {
      "type": "node",
      "id": 13341800391,
      "lat": 12.9509903,
      "lon": 77.592186,
      "tags": {
        "level": "2",
        "name": "Double Two",
        "shop": "clothes"
      }
    },
    {
      "type": "node",
      "id": 13341800392,
      "lat": 12.9512697,
      "lon": 77.5945254,
      "tags": {
        "amenity": "shelter",
        "shelter_type": "gazebo"
      }
    },
    {
      "type": "node",
      "id": 13341800397,
      "lat": 12.9511181,
      "lon": 77.5947387,
      "tags": {
        "amenity": "bench"
      }
    },
    {
      "type": "node",
      "id": 13341812877,
      "lat": 12.951213,
      "lon": 77.5941732,
      "tags": {
        "amenity": "shelter",
        "bench": "yes",
        "name": "Gazebo",
        "shelter_type": "gazebo"
      }
    },
    {
      "type": "node",
      "id": 13341818301,
      "lat": 12.9508419,
      "lon": 77.5943618,
      "tags": {
        "access": "yes",
        "amenity": "bench",
        "armrest": "no",
        "backrest": "yes",
        "material": "stone",
        "seats": "3"
      }
    },
    {
      "type": "node",
      "id": 13341818302,
      "lat": 12.9508552,
      "lon": 77.5943934,
      "tags": {
        "access": "yes",
        "amenity": "bench",
        "armrest": "no",
        "backrest": "no",
        "material": "stone",
        "seats": "3"
      }
    },
    {
      "type": "node",
      "id": 13341818303,
      "lat": 12.9508754,
      "lon": 77.5944231,
      "tags": {
        "access": "yes",
        "amenity": "bench",
        "armrest": "no",
        "backrest": "yes",
        "material": "stone",
        "seats": "3"
      }
    },
    {
      "type": "node",
      "id": 13341818304,
      "lat": 12.9508843,
      "lon": 77.5944461,
      "tags": {
        "access": "yes",
        "amenity": "bench",
        "armrest": "no",
        "backrest": "no",
        "material": "stone",
        "seats": "3"
      }
    },
    {
      "type": "node",
      "id": 13341818305,
      "lat": 12.9508866,
      "lon": 77.5944535,
      "tags": {
        "amenity": "waste_basket",
        "colour": "Green and Blue",
        "material": "plastic",
        "operator": "BBMP",
        "waste": "mixed"
      }
    },
    {
      "type": "node",
      "id": 13341818306,
      "lat": 12.9508984,
      "lon": 77.5944766,
      "tags": {
        "access": "yes",
        "amenity": "bench",
        "armrest": "no",
        "backrest": "no",
        "material": "stone",
        "seats": "3"
      }
    },
    {
      "type": "node",
      "id": 13341818307,
      "lat": 12.9509094,
      "lon": 77.5944919,
      "tags": {
        "access": "yes",
        "amenity": "bench",
        "armrest": "no",
        "backrest": "yes",
        "material": "stone",
        "seats": "3"
      }
    },
    {
      "type": "node",
      "id": 13341818308,
      "lat": 12.9509273,
      "lon": 77.5945205,
      "tags": {
        "access": "yes",
        "amenity": "bench",
        "armrest": "no",
        "backrest": "yes",
        "material": "stone",
        "seats": "3"
      }
    },
    {
      "type": "node",
      "id": 13341818309,
      "lat": 12.9507263,
      "lon": 77.594144,
      "tags": {
        "access": "yes",
        "amenity": "bench",
        "armrest": "no",
        "backrest": "no",
        "material": "stone",
        "seats": "3"
      }
    },
    {
      "type": "node",
      "id": 13341823601,
      "lat": 12.9512445,
      "lon": 77.5941483,
      "tags": {
        "amenity": "waste_basket",
        "manufacturer": "aristo"
      }
    },
    {
      "type": "node",
      "id": 13342377538,
      "lat": 12.9552799,
      "lon": 77.592933,
      "tags": {
        "amenity": "bench"
      }
    },
    {
      "type": "node",
      "id": 13342464189,
      "lat": 12.955353,
      "lon": 77.5927762,
      "tags": {
        "amenity": "bench"
      }
    },
    {
      "type": "node",
      "id": 13342464190,
      "lat": 12.9552689,
      "lon": 77.5930082,
      "tags": {
        "amenity": "bench"
      }
    },
    {
      "type": "node",
      "id": 13342466241,
      "lat": 12.9552446,
      "lon": 77.5930388,
      "tags": {
        "amenity": "bench"
      }
    },
    {
      "type": "node",
      "id": 13342467443,
      "lat": 12.9551831,
      "lon": 77.5930617,
      "tags": {
        "amenity": "bench"
      }
    },
    {
      "type": "node",
      "id": 13342467572,
      "lat": 12.9551639,
      "lon": 77.5930683,
      "tags": {
        "amenity": "bench"
      }
    },
    {
      "type": "node",
      "id": 13342471978,
      "lat": 12.9552575,
      "lon": 77.5930235,
      "tags": {
        "amenity": "bench"
      }
    },
    {
      "type": "node",
      "id": 13342479152,
      "lat": 12.9553263,
      "lon": 77.592815,
      "tags": {
        "amenity": "bench"
      }
    },
    {
      "type": "node",
      "id": 13342480857,
      "lat": 12.955204,
      "lon": 77.5930607,
      "tags": {
        "amenity": "bench"
      }
    },
    {
      "type": "node",
      "id": 13342482275,
      "lat": 12.9552804,
      "lon": 77.5929511,
      "tags": {
        "amenity": "bench"
      }
    },
    {
      "type": "node",
      "id": 13342485808,
      "lat": 12.9552798,
      "lon": 77.5929697,
      "tags": {
        "amenity": "bench"
      }
    },
    {
      "type": "node",
      "id": 13343543419,
      "lat": 12.9550869,
      "lon": 77.5925863,
      "tags": {
        "amenity": "parking_entrance",
        "parking": "multi-storey"
      }
    },
    {
      "type": "node",
      "id": 13343543420,
      "lat": 12.9536152,
      "lon": 77.5925145,
      "tags": {
        "amenity": "parking_entrance",
        "parking": "multi-storey"
      }
    },
    {
      "type": "way",
      "id": 15802464,
      "center": {
        "lat": 12.9488929,
        "lon": 77.5866687
      },
      "tags": {
        "leisure": "park",
        "name": "Lalbagh Botanical Gardens",
        "name:kn": "ಲಾಲ್‌ಬಾಗ್ ಸಸ್ಯೋದ್ಯಾನ",
        "name:te": "లాల్‌బాగ్ వృక్షశాస్త్ర ఉద్యానవనం",
        "tourism": "attraction",
        "wikidata": "Q200711",
        "wikimedia_commons": "Category:Lalbagh Botanical Garden",
        "wikipedia": "en:Lal Bagh"
      }
    },
    {
      "type": "way",
      "id": 38758707,
      "center": {
        "lat": 12.9646803,
        "lon": 77.588875
      },
      "tags": {
        "addr:city": "Bangalore",
        "addr:postcode": "560002",
        "addr:street": "Sampangi Rama Nagar",
        "amenity": "school",
        "name": "Mitralaya Girls College",
        "name:bn": "মিত্রালয়া মহিলা কলেজ"
      }
    },
    {
      "type": "way",
      "id": 129888684,
      "center": {
        "lat": 12.9541534,
        "lon": 77.5884604
      },
      "tags": {
        "amenity": "grave_yard",
        "landuse": "cemetery",
        "name": "Bada Makan",
        "name:kn": "ಬಡ ಮಕಾನ್",
        "religion": "muslim"
      }
    },
    {
      "type": "way",
      "id": 129888685,
      "center": {
        "lat": 12.9530904,
        "lon": 77.5873952
      },
      "tags": {
        "amenity": "grave_yard",
        "landuse": "cemetery",
        "religion": "muslim"
      }
    },
    {
      "type": "way",
      "id": 131442463,
      "center": {
        "lat": 12.9506553,
        "lon": 77.5912883
      },
      "tags": {
        "amenity": "marketplace",
        "name": "HOPCOMS",
        "name:kn": "ಹಾಪ್ ಕಾಮ್ಸ್"
      }
    },
    {
      "type": "way",
      "id": 131443354,
      "center": {
        "lat": 12.9626697,
        "lon": 77.586985
      },
      "tags": {
        "addr:city": "Bangalore",
        "addr:housenumber": "19",
        "addr:postcode": "560027",
        "addr:street": "3rd Cross Road",
        "amenity": "college",
        "name": "Bishop Cotton's Women's Christian College",
        "phone": "+91 080 22121898"
      }
    },
    {
      "type": "way",
      "id": 131487139,
      "center": {
        "lat": 12.9533813,
        "lon": 77.5867976
      },
      "tags": {
        "amenity": "place_of_worship",
        "denomination": "sunni",
        "name": "Al-Ameen Mosque",
        "name:kn": "ಆಲ್-ಆಮೀನ್ ಮಸೀದಿ",
        "religion": "muslim"
      }
    },
    {
      "type": "way",
      "id": 138991403,
      "center": {
        "lat": 12.9545969,
        "lon": 77.5919117
      },
      "tags": {
        "amenity": "transportation",
        "building": "shed"
      }
    },
    {
      "type": "way",
      "id": 138991404,
      "center": {
        "lat": 12.9560946,
        "lon": 77.5929001
      },
      "tags": {
        "amenity": "place_of_worship",
        "landuse": "religious",
        "name": "Ishwara Temple",
        "name:kn": "ಈಶ್ವರ ದೇವಸ್ಥಾನ",
        "religion": "hindu"
      }
    },
    {
      "type": "way",
      "id": 138991405,
      "center": {
        "lat": 12.9612179,
        "lon": 77.5904079
      },
      "tags": {
        "addr:city": "Bengaluru",
        "addr:postcode": "560027",
        "addr:street": "Mission Road (Kalinga Rao Road)",
        "amenity": "college",
        "name": "Government Pharmacy College",
        "wikidata": "Q5589028",
        "wikipedia": "en:Government Pharmacy College, Bangalore"
      }
    },
    {
      "type": "way",
      "id": 147124751,
      "center": {
        "lat": 12.9510783,
        "lon": 77.594223
      },
      "tags": {
        "leisure": "park",
        "name": "Kitturu Rani Chennamma Park",
        "name:etymology:wikidata": "Q3536979",
        "name:kn": "ಕಿತ್ತೂರು ರಾಣಿ ಚೆನ್ನಮ್ಮ ಉದ್ಯಾನವನ",
        "old_name": "Wilson Garden Park"
      }
    },
    {
      "type": "way",
      "id": 148016864,
      "center": {
        "lat": 12.9635085,
        "lon": 77.5964537
      },
      "tags": {
        "leisure": "pitch",
        "sport": "basketball"
      }
    },
    {
      "type": "way",
      "id": 148016875,
      "center": {
        "lat": 12.9631739,
        "lon": 77.5962695
      },
      "tags": {
        "leisure": "pitch",
        "sport": "basketball"
      }
    },
    {
      "type": "way",
      "id": 152193863,
      "center": {
        "lat": 12.9639243,
        "lon": 77.5912829
      },
      "tags": {
        "building": "yes",
        "name": "Advaith Hyundai Service",
        "name:kn": "ಅದ್ವೈತ ಹ್ಯುಂಡೈ",
        "shop": "car_repair"
      }
    },
    {
      "type": "way",
      "id": 152193875,
      "center": {
        "lat": 12.9626143,
        "lon": 77.5896924
      },
      "tags": {
        "leisure": "garden"
      }
    },
    {
      "type": "way",
      "id": 152462759,
      "center": {
        "lat": 12.9515662,
        "lon": 77.5905178
      },
      "tags": {
        "leisure": "garden"
      }
    },
    {
      "type": "way",
      "id": 152462761,
      "center": {
        "lat": 12.9568141,
        "lon": 77.5932416
      },
      "tags": {
        "leisure": "garden"
      }
    },
    {
      "type": "way",
      "id": 172899266,
      "center": {
        "lat": 12.9537421,
        "lon": 77.5938108
      },
      "tags": {
        "amenity": "school",
        "name": "Outreach School"
      }
    },
    {
      "type": "way",
      "id": 172899341,
      "center": {
        "lat": 12.953617,
        "lon": 77.5948769
      },
      "tags": {
        "amenity": "school"
      }
    },
    {
      "type": "way",
      "id": 208697526,
      "center": {
        "lat": 12.9626389,
        "lon": 77.5899774
      },
      "tags": {
        "amenity": "place_of_worship",
        "name": "Mahabaleshwara Temple",
        "name:kn": "ಮಹಾಬಲೇಶ್ವರ ದೇವಸ್ಥಾನ",
        "religion": "hindu"
      }
    },
    {
      "type": "way",
      "id": 225712324,
      "center": {
        "lat": 12.963161,
        "lon": 77.5899217
      },
      "tags": {
        "amenity": "public_building",
        "building": "yes",
        "name": "Food Corporation of India",
        "name:kn": "ಭಾರತ ಆಹಾರ ನಿಗಮ"
      }
    },
    {
      "type": "way",
      "id": 232207307,
      "center": {
        "lat": 12.9492451,
        "lon": 77.5908599
      },
      "tags": {
        "access": "customers",
        "amenity": "parking",
        "fee": "yes",
        "parking": "surface"
      }
    },
    {
      "type": "way",
      "id": 256703169,
      "center": {
        "lat": 12.9644217,
        "lon": 77.5926381
      },
      "tags": {
        "addr:district": "Bengaluru Urban",
        "addr:full": "1215 A Cross Sindhi Hospital Road, Sampangiramnagar",
        "addr:postcode": "560027",
        "addr:state": "Karnataka",
        "amenity": "hospital",
        "emergency": "yes",
        "name": "P.D. Hinduja Sindhi Hospital",
        "name:kn": "ಸಿಂಧಿ ಆಸ್ಪತ್ರೆ",
        "operator:type": "private",
        "source": "OpenGovernmentData",
        "website": "https://www.hindujasindhihospital.com/"
      }
    },
    {
      "type": "way",
      "id": 323458337,
      "center": {
        "lat": 12.9479026,
        "lon": 77.5965298
      },
      "tags": {
        "amenity": "school",
        "name": "Hombegowda Boys School",
        "name:kn": "ಹೊಂಬೆಗೌಡ ಬಾಲಕರ ಶಾಲೆ"
      }
    },
    {
      "type": "way",
      "id": 323458339,
      "center": {
        "lat": 12.9487167,
        "lon": 77.5971382
      },
      "tags": {
        "amenity": "place_of_worship",
        "name": "Ram Mandir",
        "name:kn": "ರಾಮ ಮಂದಿರ",
        "religion": "hindu"
      }
    },
    {
      "type": "way",
      "id": 323852398,
      "center": {
        "lat": 12.9560886,
        "lon": 77.5854402
      },
      "tags": {
        "addr:street": "Lalbagh Road",
        "amenity": "cinema",
        "landuse": "commercial",
        "name": "Urvashi",
        "name:kn": "ಊರ್ವಶಿ",
        "name:ta": "ஊர்வசி திரையரங்கம்",
        "opening_hours": "Mo-Su 11:00-19:45"
      }
    },
    {
      "type": "way",
      "id": 326199006,
      "center": {
        "lat": 12.9559827,
        "lon": 77.6020973
      },
      "tags": {
        "leisure": "park"
      }
    },
    {
      "type": "way",
      "id": 326199007,
      "center": {
        "lat": 12.956985,
        "lon": 77.6011901
      },
      "tags": {
        "leisure": "park"
      }
    },
    {
      "type": "way",
      "id": 335369723,
      "center": {
        "lat": 12.9529705,
        "lon": 77.5881572
      },
      "tags": {
        "addr:street": "MariGowda Road",
        "amenity": "college",
        "name": "Al Ameen Pre and Degree College",
        "name:kn": "ಆಲ್‌-ಆಮೀನ್‌ ಕಾಲೇಜು"
      }
    },
    {
      "type": "way",
      "id": 335369724,
      "center": {
        "lat": 12.9490049,
        "lon": 77.5924776
      },
      "tags": {
        "amenity": "parking"
      }
    },
    {
      "type": "way",
      "id": 335369725,
      "center": {
        "lat": 12.9492563,
        "lon": 77.5878311
      },
      "tags": {
        "amenity": "parking",
        "wheelchair": "yes"
      }
    },
    {
      "type": "way",
      "id": 335369726,
      "center": {
        "lat": 12.9500526,
        "lon": 77.5893375
      },
      "tags": {
        "leisure": "garden",
        "name": "Bonsai Park",
        "name:kn": "ಬೊನ್ಸಾಯಿ ಉದ್ಯಾನ",
        "source": "knowledge"
      }
    },
    {
      "type": "way",
      "id": 335369765,
      "center": {
        "lat": 12.9497939,
        "lon": 77.5856218
      },
      "tags": {
        "leisure": "garden"
      }
    },
    {
      "type": "way",
      "id": 335369766,
      "center": {
        "lat": 12.9503285,
        "lon": 77.5857108
      },
      "tags": {
        "leisure": "garden"
      }
    },
    {
      "type": "way",
      "id": 335704459,
      "center": {
        "lat": 12.9503038,
        "lon": 77.5847757
      },
      "tags": {
        "leisure": "garden"
      }
    },
    {
      "type": "way",
      "id": 345892554,
      "center": {
        "lat": 12.9622681,
        "lon": 77.5888874
      },
      "tags": {
        "amenity": "place_of_worship",
        "building": "yes",
        "name": "CSI St. Peters Telugu Church",
        "religion": "christian"
      }
    },
    {
      "type": "way",
      "id": 345924045,
      "center": {
        "lat": 12.9595629,
        "lon": 77.5877705
      },
      "tags": {
        "addr:city": "Bengaluru",
        "addr:housenumber": "37",
        "addr:postcode": "560027",
        "addr:street": "Lalbagh Road",
        "amenity": "arts_centre",
        "building": "yes",
        "name": "Shoonya - Centre for Art and Somatic Practices",
        "website": "http://shoonyaspace.com/"
      }
    },
    {
      "type": "way",
      "id": 347076931,
      "center": {
        "lat": 12.9500332,
        "lon": 77.5922164
      },
      "tags": {
        "building": "yes",
        "name": "HMG Stones",
        "shop": "jewelry"
      }
    },
    {
      "type": "way",
      "id": 347167749,
      "center": {
        "lat": 12.9491979,
        "lon": 77.596808
      },
      "tags": {
        "amenity": "hospital",
        "healthcare": "hospital",
        "name": "BBMP Maternity Hospital",
        "name:kn": "ಸರಕಾರಿ ಹೆರಿಗೆ ಆಸ್ಪತ್ರೆ"
      }
    },
    {
      "type": "way",
      "id": 347234063,
      "center": {
        "lat": 12.9538875,
        "lon": 77.5922444
      },
      "tags": {
        "alt_name": "TTMC Shanthinagara MLCP",
        "amenity": "parking",
        "building": "parking",
        "building:levels": "7",
        "name": "Multi Level Car Park",
        "parking": "multi-storey",
        "roof:shape": "flat"
      }
    },
    {
      "type": "way",
      "id": 348608160,
      "center": {
        "lat": 12.9474175,
        "lon": 77.59156
      },
      "tags": {
        "amenity": "place_of_worship",
        "building": "mosque",
        "name:kn": "ಮಸೀದಿ",
        "religion": "muslim"
      }
    },
    {
      "type": "way",
      "id": 393699912,
      "center": {
        "lat": 12.9540365,
        "lon": 77.5930748
      },
      "tags": {
        "alt_name": "TTMC Shanthinagara 'A' Block",
        "amenity": "office",
        "building": "yes",
        "building:levels": "6",
        "name": "'A' Block",
        "roof:shape": "flat"
      }
    },
    {
      "type": "way",
      "id": 393699932,
      "center": {
        "lat": 12.9533742,
        "lon": 77.5975797
      },
      "tags": {
        "amenity": "college",
        "name": "Indira Gandhi National Open University",
        "name:etymology:wikidata": "Q1149"
      }
    },
    {
      "type": "way",
      "id": 408248117,
      "center": {
        "lat": 12.9646129,
        "lon": 77.5920177
      },
      "tags": {
        "amenity": "parking",
        "parking": "surface"
      }
    },
    {
      "type": "way",
      "id": 442014336,
      "center": {
        "lat": 12.9533316,
        "lon": 77.6011904
      },
      "tags": {
        "leisure": "park"
      }
    },
    {
      "type": "way",
      "id": 442014338,
      "center": {
        "lat": 12.9566712,
        "lon": 77.6006813
      },
      "tags": {
        "amenity": "place_of_worship",
        "building": "mosque",
        "name": "Masjid-e-Khizar",
        "religion": "muslim"
      }
    },
    {
      "type": "way",
      "id": 509638758,
      "center": {
        "lat": 12.9637737,
        "lon": 77.5896833
      },
      "tags": {
        "addr:city": "Bengaluru",
        "addr:country": "IN",
        "addr:district": "Bengaluru Urban",
        "addr:full": "No 8, HCG Towers, P. Kalinga Rao Road, Sampangi Ram Nagar, Bengaluru",
        "addr:hamlet": "Sampangi Ram Nagar",
        "addr:housenumber": "8",
        "addr:postcode": "560027",
        "addr:state": "Karnataka",
        "addr:street": "P. Kalinga Rao Road",
        "amenity": "hospital",
        "fax": "+918022485962",
        "name": "HCG Cancer Hospital",
        "name:bn": "এইচসিজি ক্যান্সার হাসপাতাল",
        "name:en": "HealthCare Global Enterprises Ltd",
        "operator:type": "private",
        "phone": "+918040206000",
        "source": "OpenGovernmentData",
        "website": "https://www.hcgoncology.com/"
      }
    },
    {
      "type": "way",
      "id": 625747310,
      "center": {
        "lat": 12.9474276,
        "lon": 77.5952577
      },
      "tags": {
        "alt_name": "Elephant Park",
        "leisure": "park",
        "name": "Bhuvaneshwari Park",
        "name:kn": "ಭುವನೇಶ್ವರಿ ಉದ್ಯಾನವನ"
      }
    },
    {
      "type": "way",
      "id": 635256290,
      "center": {
        "lat": 12.9522929,
        "lon": 77.5892459
      },
      "tags": {
        "amenity": "fuel",
        "compressed_air": "yes"
      }
    },
    {
      "type": "way",
      "id": 639010019,
      "center": {
        "lat": 12.9492019,
        "lon": 77.5977936
      },
      "tags": {
        "addr:district": "Bengaluru Urban",
        "addr:full": "35, Siddiah Road, Wilson Garden",
        "addr:postcode": "560027",
        "addr:state": "Karnataka",
        "amenity": "hospital",
        "building": "hospital",
        "healthcare": "hospital",
        "name": "Agadi Hospital",
        "name:kn": "ಅಗಡಿ ಆಸ್ಪತ್ರೆ",
        "source": "OpenGovernmentData"
      }
    },
    {
      "type": "way",
      "id": 639010024,
      "center": {
        "lat": 12.9620228,
        "lon": 77.5942366
      },
      "tags": {
        "amenity": "fuel",
        "brand": "Bharath Petroleum",
        "opening_hours": "Mo-Su 06:30-22:30",
        "operator": "Bharath Petroleum"
      }
    },
    {
      "type": "way",
      "id": 673677240,
      "center": {
        "lat": 12.9482151,
        "lon": 77.5968238
      },
      "tags": {
        "amenity": "college"
      }
    },
    {
      "type": "way",
      "id": 688824194,
      "center": {
        "lat": 12.9496246,
        "lon": 77.5928626
      },
      "tags": {
        "amenity": "fuel",
        "brand": "Shell",
        "brand:wikidata": "Q110716465",
        "brand:wikipedia": "en:Royal Dutch Shell",
        "compressed_air": "yes",
        "name": "Shell",
        "name:kn": "ಶೆಲ್"
      }
    },
    {
      "type": "way",
      "id": 781182572,
      "center": {
        "lat": 12.9591357,
        "lon": 77.6010894
      },
      "tags": {
        "amenity": "school",
        "isced:level": "2",
        "landuse": "education",
        "name": "GTHPS Puduparacheri",
        "name:kn": "ಸರ್ಕಾರಿ ತೆಲುಗು ಹಿರಿಯ ಪ್ರಾಥಮಿಕ ಶಾಲೆ ಪುದುಪರಾಚೇರಿ",
        "operator": "Department of Education",
        "school": "primary"
      }
    },
    {
      "type": "way",
      "id": 781182595,
      "center": {
        "lat": 12.9618084,
        "lon": 77.5987266
      },
      "tags": {
        "area:highway": "traffic_island",
        "leisure": "garden"
      }
    },
    {
      "type": "way",
      "id": 897512106,
      "center": {
        "lat": 12.9471141,
        "lon": 77.5954126
      },
      "tags": {
        "leisure": "pitch",
        "sport": "skateboard",
        "wheelchair": "yes"
      }
    },
    {
      "type": "way",
      "id": 1007640514,
      "center": {
        "lat": 12.9584034,
        "lon": 77.5929594
      },
      "tags": {
        "access": "customers",
        "amenity": "parking",
        "capacity": "6",
        "parking": "surface"
      }
    },
    {
      "type": "way",
      "id": 1007640516,
      "center": {
        "lat": 12.958464,
        "lon": 77.5928624
      },
      "tags": {
        "addr:housenumber": "105",
        "addr:street": "Kengal Hanumanthaiah Road",
        "amenity": "events_venue",
        "check_date": "2024-01-29",
        "contact:instagram": "https://www.instagram.com/thecourtyardcommunity",
        "email": "info@thecourtyard.in",
        "landuse": "commercial",
        "name": "The Courtyard",
        "phone": "+91 73386 77996",
        "website": "https://thecourtyard.in"
      }
    },
    {
      "type": "way",
      "id": 1079087278,
      "center": {
        "lat": 12.9542208,
        "lon": 77.5867157
      },
      "tags": {
        "amenity": "college",
        "name": "Al-Ameen Arts and Science College",
        "name:kn": "ಆಲ್-ಆಮೀನ್ ಕಾಲೇಜು"
      }
    },
    {
      "type": "way",
      "id": 1082449592,
      "center": {
        "lat": 12.9643414,
        "lon": 77.5947501
      },
      "tags": {
        "leisure": "park"
      }
    },
    {
      "type": "way",
      "id": 1082449594,
      "center": {
        "lat": 12.9620358,
        "lon": 77.5888834
      },
      "tags": {
        "amenity": "place_of_worship",
        "religion": "christian"
      }
    },
    {
      "type": "way",
      "id": 1082722307,
      "center": {
        "lat": 12.9498179,
        "lon": 77.586695
      },
      "tags": {
        "leisure": "garden"
      }
    },
    {
      "type": "way",
      "id": 1100674381,
      "center": {
        "lat": 12.955594,
        "lon": 77.5980861
      },
      "tags": {
        "amenity": "school",
        "name": "St. Michael's School",
        "name:kn": "ಸೈಂಟ್ ಮೈಕಲ್ ಶಾಲೆ"
      }
    },
    {
      "type": "way",
      "id": 1100674383,
      "center": {
        "lat": 12.9559596,
        "lon": 77.5970977
      },
      "tags": {
        "amenity": "place_of_worship",
        "denomination": "catholic",
        "name": "St. Michael's Church",
        "name:kn": "ಸೇಂಟ್ ಮೈಕೇಲ್ಸ್ ಚರ್ಚ್",
        "religion": "christian"
      }
    },
    {
      "type": "way",
      "id": 1125144619,
      "center": {
        "lat": 12.9556473,
        "lon": 77.5924648
      },
      "tags": {
        "leisure": "garden"
      }
    },
    {
      "type": "way",
      "id": 1125144620,
      "center": {
        "lat": 12.9552802,
        "lon": 77.592935
      },
      "tags": {
        "leisure": "garden"
      }
    },
    {
      "type": "way",
      "id": 1125144623,
      "center": {
        "lat": 12.9558173,
        "lon": 77.592403
      },
      "tags": {
        "amenity": "shelter",
        "building": "yes",
        "shelter_type": "gazebo"
      }
    },
    {
      "type": "way",
      "id": 1172707221,
      "center": {
        "lat": 12.9514665,
        "lon": 77.5947664
      },
      "tags": {
        "access": "yes",
        "leisure": "playground"
      }
    },
    {
      "type": "way",
      "id": 1177319348,
      "center": {
        "lat": 12.9540105,
        "lon": 77.6003994
      },
      "tags": {
        "addr:place": "Shanthinagar",
        "amenity": "school",
        "isced:level": "2",
        "name": "GHPS Ksrtc Shanthinagar",
        "name:kn": "ಸರ್ಕಾರಿ ಹಿರಿಯ ಪ್ರಾಥಮಿಕ ಶಾಲೆ ಕೆ.ಎಸ್‌.ಆರ್‌.ಟಿ.ಸಿ ಶಾಂತಿನಗರ",
        "operator": "Department of Education",
        "school": "primary"
      }
    },
    {
      "type": "way",
      "id": 1186431410,
      "center": {
        "lat": 12.9603662,
        "lon": 77.5871967
      },
      "tags": {
        "amenity": "college",
        "name": "Jain Centre for Management Studies"
      }
    },
    {
      "type": "way",
      "id": 1186431416,
      "center": {
        "lat": 12.9622763,
        "lon": 77.5885958
      },
      "tags": {
        "leisure": "park"
      }
    },
    {
      "type": "way",
      "id": 1186431418,
      "center": {
        "lat": 12.9609075,
        "lon": 77.5872111
      },
      "tags": {
        "amenity": "cinema",
        "name": "Swagath Poornima"
      }
    },
    {
      "type": "way",
      "id": 1186431423,
      "center": {
        "lat": 12.9609027,
        "lon": 77.5853359
      },
      "tags": {
        "amenity": "college",
        "name": "Jain University",
        "name:kn": "ಜೈನ ವಿಶ್ವವಿದ್ಯಾಲಯ"
      }
    },
    {
      "type": "way",
      "id": 1222892857,
      "center": {
        "lat": 12.9479271,
        "lon": 77.5924806
      },
      "tags": {
        "access": "customers",
        "amenity": "parking"
      }
    },
    {
      "type": "way",
      "id": 1257327546,
      "center": {
        "lat": 12.9478274,
        "lon": 77.5924806
      },
      "tags": {
        "alt_name": "Truelife Maha Bodhi Hospital",
        "amenity": "hospital",
        "name": "Brains Super Speciality Hospital",
        "official_name": "Maha Bodhi Mallige Hospital",
        "old_name": "Mallige Hospital",
        "old_name:kn": "ಮಲ್ಲಿಗೆ ಆಸ್ಪತ್ರೆ"
      }
    },
    {
      "type": "way",
      "id": 1267610352,
      "center": {
        "lat": 12.9600528,
        "lon": 77.586529
      },
      "tags": {
        "amenity": "events_venue",
        "name": "Sri Godwad Bhavana"
      }
    },
    {
      "type": "way",
      "id": 1305868782,
      "center": {
        "lat": 12.962,
        "lon": 77.5982143
      },
      "tags": {
        "building": "yes",
        "leisure": "sports_centre",
        "name": "Fusion the Turf Sports",
        "sport": "futsal"
      }
    },
    {
      "type": "way",
      "id": 1306894664,
      "center": {
        "lat": 12.9575231,
        "lon": 77.5933605
      },
      "tags": {
        "amenity": "parking",
        "parking": "surface"
      }
    },
    {
      "type": "way",
      "id": 1306976437,
      "center": {
        "lat": 12.9523925,
        "lon": 77.5980116
      },
      "tags": {
        "leisure": "sports_centre",
        "name": "KSRTC Sports Complex"
      }
    },
    {
      "type": "way",
      "id": 1307025478,
      "center": {
        "lat": 12.9501836,
        "lon": 77.5961204
      },
      "tags": {
        "amenity": "police",
        "name": "Wilson Garden Police Station",
        "name:kn": "ವಿಲ್ಸನ್ ಗಾರ್ಡನ್ ಪೋಲಿಸ್ ಠಾಣೆ"
      }
    },
    {
      "type": "way",
      "id": 1311064544,
      "center": {
        "lat": 12.9615128,
        "lon": 77.5856889
      },
      "tags": {
        "amenity": "fuel"
      }
    },
    {
      "type": "way",
      "id": 1351859098,
      "center": {
        "lat": 12.9552124,
        "lon": 77.5921494
      },
      "tags": {
        "leisure": "garden"
      }
    },
    {
      "type": "way",
      "id": 1418860511,
      "center": {
        "lat": 12.9621435,
        "lon": 77.5901163
      },
      "tags": {
        "addr:city": "Bengaluru",
        "addr:postcode": "560027",
        "addr:street": "Mission Road (Kalinga Rao Road)",
        "amenity": "college",
        "name": "Government Pharmacy College",
        "wikidata": "Q5589028",
        "wikipedia": "en:Government Pharmacy College, Bangalore"
      }
    },
    {
      "type": "way",
      "id": 1455412266,
      "center": {
        "lat": 12.9544737,
        "lon": 77.5926291
      },
      "tags": {
        "alt_name": "TTMC Shantinagara 'B' Block; Shanthinagar TTMC;Shanthi nagar TTMC",
        "amenity": "transportation",
        "building": "yes",
        "building:levels": "6",
        "bus": "yes",
        "full_name": "Atal Bihari Vajpayee Traffic and Transit Management Center",
        "name": "Shantinagara Bus Station",
        "name:kn": "ಶಾಂತಿನಗರ ಬಸ್ ನಿಲ್ದಾಣ",
        "official_name": "Atal Bihari Vajpayee TTMC",
        "phone": "7760991061",
        "public_transport": "station",
        "roof:shape": "flat",
        "short_name": "SBS",
        "start_date": "2005",
        "wikidata": "Q7489090",
        "wikipedia": "en:Atal Bihari Vajpayee TTMC"
      }
    },
    {
      "type": "way",
      "id": 1455412267,
      "center": {
        "lat": 12.9546736,
        "lon": 77.592278
      },
      "tags": {
        "alt_name": "Shanthinagar TTMC 'C' Block;Shanthi nagar TTMC 'C' block",
        "amenity": "office",
        "building": "yes",
        "building:levels": "7",
        "name": "Shanthinagara 'C' Block",
        "roof:shape": "flat"
      }
    }
  ]
}