{
  "area_name": "SHBCS Layout",
  "osm_id": 12095364735,
  "osm_type": "node",
  "place_type": "neighbourhood",
  "amenity_count": 177,
  "amenities": [
    {
      "type": "node",
      "id": 595411389,
      "lat": 12.925064,
      "lon": 77.6328706,
      "tags": {
        "amenity": "pub",
        "name": "Sathya's"
      }
    },
    {
      "type": "node",
      "id": 839826450,
      "lat": 12.9267313,
      "lon": 77.6346384,
      "tags": {
        "amenity": "clinic",
        "name": "Shilpa Homeopathic Clinic"
      }
    },
    {
      "type": "node",
      "id": 1463845802,
      "lat": 12.9312186,
      "lon": 77.6342399,
      "tags": {
        "amenity": "restaurant"
      }
    },
    {
      "type": "node",
      "id": 1469643951,
      "lat": 12.9239635,
      "lon": 77.6401322,
      "tags": {
        "brand": "Hundai",
        "check_date": "2024-03-02",
        "name": "Trident Hyundai",
        "shop": "car_repair"
      }
    },
    {
      "type": "node",
      "id": 1469643966,
      "lat": 12.9255307,
      "lon": 77.6371758,
      "tags": {
        "amenity": "bank",
        "atm": "yes",
        "brand": "ICICI Bank",
        "brand:wikidata": "Q1653258",
        "name": "ICICI Bank",
        "name:en": "ICICI Bank",
        "name:kn": "ಐಸಿಐಸಿಐ ಬ್ಯಾಂಕು",
        "short_name": "ICICI",
        "website": "https://www.icicibank.com"
      }
    },
    {
      "type": "node",
      "id": 1469643994,
      "lat": 12.9272988,
      "lon": 77.6375732,
      "tags": {
        "amenity": "kindergarten",
        "name": "Kidzee Play school"
      }
    },
    {
      "type": "node",
      "id": 1469643995,
      "lat": 12.9246365,
      "lon": 77.6384508,
      "tags": {
        "amenity": "school",
        "name": "Kripanidhi Cambridge Public School"
      }
    },
    {
      "type": "node",
      "id": 1469644300,
      "lat": 12.9286689,
      "lon": 77.6354869,
      "tags": {
        "amenity": "kindergarten"
      }
    },
    {
      "type": "node",
      "id": 1470765801,
      "lat": 12.924661,
      "lon": 77.638669,
      "tags": {
        "amenity": "dentist",
        "name": "Basha Clinic"
      }
    },
    {
      "type": "node",
      "id": 1472871254,
      "lat": 12.9322872,
      "lon": 77.6320394,
      "tags": {
        "addr:postcode": "560034",
        "addr:street": "80 Feet Road",
        "amenity": "bank",
        "name": "Unity Small Finance Bank"
      }
    },
    {
      "type": "node",
      "id": 1472880535,
      "lat": 12.9252403,
      "lon": 77.6337162,
      "tags": {
        "name": "Kanyaka Clothes",
        "shop": "clothes"
      }
    },
    {
      "type": "node",
      "id": 1484531940,
      "lat": 12.9216098,
      "lon": 77.6453053,
      "tags": {
        "amenity": "restaurant",
        "cuisine": "indian",
        "indoor_seating": "yes",
        "name": "Nandana Palace",
        "name:kn": "ನಂದನ ರೆಸ್ಟೊರೆಂಟ್",
        "outdoor_seating": "no"
      }
    },
    {
      "type": "node",
      "id": 1964234101,
      "lat": 12.9255152,
      "lon": 77.6370763,
      "tags": {
        "amenity": "restaurant",
        "brand": "Barbeque Nation",
        "brand:wikidata": "Q4859568",
        "check_date": "2025-05-31",
        "cuisine": "barbecue",
        "name": "Barbeque Nation",
        "name:kn": "ಬರ್ಬಕ್ಯು ನೇಶನ್",
        "payment:cash": "yes",
        "payment:mastercard": "yes",
        "payment:visa": "yes"
      }
    },
    {
      "type": "node",
      "id": 3145158639,
      "lat": 12.9330379,
      "lon": 77.6329291,
      "tags": {
        "leisure": "park",
        "name": "S T Bed Park and Field at 8th Cross"
      }
    },
    {
      "type": "node",
      "id": 3205936027,
      "lat": 12.9240664,
      "lon": 77.6388883,
      "tags": {
        "amenity": "bank",
        "atm": "yes",
        "brand:wikidata": "Q5266685",
        "brand:wikipedia": "en:DCB Bank",
        "name": "DCB Bank",
        "name:en": "DCB Bank",
        "name:kn": "ಡಿಸಿಬಿ ಬ್ಯಾಂಕ್",
        "operator": "DCB",
        "website": "https://www.dcbbank.com"
      }
    },
    {
      "type": "node",
      "id": 3801694532,
      "lat": 12.9249765,
      "lon": 77.6338267,
      "tags": {
        "amenity": "toilets",
        "check_date": "2021-11-28",
        "fee": "yes",
        "name": "Pay and Use Toilet",
        "operator": "Sulabh International",
        "operator:wikidata": "Q3064151",
        "wheelchair": "no"
      }
    },
    {
      "type": "node",
      "id": 3886255459,
      "lat": 12.9240664,
      "lon": 77.6389446,
      "tags": {
        "addr:city": "Bengaluru",
        "addr:housenumber": "No.98/1",
        "addr:street": "Sarjapur Main Road",
        "amenity": "coworking_space",
        "fee": "yes",
        "level": "1",
        "name": "Work Adda",
        "name:kn": "ವರ್ಕ್ ಅಡ್ಡ",
        "office": "yes",
        "operator": "Work Adda",
        "postal_code": "560034"
      }
    },
    {
      "type": "node",
      "id": 3960924263,
      "lat": 12.9324956,
      "lon": 77.631848,
      "tags": {
        "addr:postcode": "560034",
        "addr:street": "80 Feet Road",
        "amenity": "bank",
        "atm": "yes",
        "brand": "Axis Bank",
        "brand:wikidata": "Q2003549",
        "brand:wikipedia": "en:Axis Bank",
        "level": "0",
        "name": "Axis Bank",
        "name:en": "Axis Bank",
        "name:kn": "ಅಕ್ಸಿಸ್ ಬ್ಯಾಂಕ್",
        "website": "https://www.axisbank.com",
        "wheelchair": "no"
      }
    },
    {
      "type": "node",
      "id": 4067960952,
      "lat": 12.923925,
      "lon": 77.6404562,
      "tags": {
        "name": "Autoport",
        "second_hand": "only",
        "shop": "car",
        "source": "gps"
      }
    },
    {
      "type": "node",
      "id": 4133355393,
      "lat": 12.9274912,
      "lon": 77.6373711,
      "tags": {
        "amenity": "restaurant",
        "contact:phone": "08065321900",
        "contact:website": "manis.in",
        "drive_in": "no",
        "name": "Mani's Dum Biriyani",
        "operator": "Mani's Dum Biriyani",
        "organic": "no",
        "smoking": "no"
      }
    },
    {
      "type": "node",
      "id": 4133355897,
      "lat": 12.9274912,
      "lon": 77.6373711,
      "tags": {
        "amenity": "veterinary"
      }
    },
    {
      "type": "node",
      "id": 4133355898,
      "lat": 12.9274912,
      "lon": 77.637341,
      "tags": {
        "amenity": "veterinary"
      }
    },
    {
      "type": "node",
      "id": 4133370689,
      "lat": 12.9272827,
      "lon": 77.6379132,
      "tags": {
        "amenity": "atm",
        "brand": "Axis Bank",
        "brand:wikidata": "Q2003549",
        "cash_in": "no",
        "currency:INR": "yes",
        "drive_through": "no",
        "operator": "Axis Bank",
        "operator:wikidata": "Q2003549"
      }
    },
    {
      "type": "node",
      "id": 4133376389,
      "lat": 12.9273443,
      "lon": 77.6381549,
      "tags": {
        "name": "Naiyanar Bakery",
        "shop": "bakery"
      }
    },
    {
      "type": "node",
      "id": 4294187645,
      "lat": 12.9253813,
      "lon": 77.6337008,
      "tags": {
        "amenity": "bar",
        "indoor_seating": "yes",
        "name": "Pingara Restaurant & Bar",
        "outdoor_seating": "no"
      }
    },
    {
      "type": "node",
      "id": 4442655749,
      "lat": 12.9247643,
      "lon": 77.6382862,
      "tags": {
        "addr:city": "Bangalore",
        "addr:district": "Bengaluru Urban",
        "addr:full": "97 Sarjapur Road 1st Block Koramangala",
        "addr:housenumber": "97",
        "addr:postcode": "560034",
        "addr:state": "Karnataka",
        "addr:street": "Sarjapura Road, Jakkasandra Extension",
        "amenity": "clinic",
        "name": "Murthy Health and Research Centre",
        "phone": "+91- 80 2553 6090",
        "source": "OpenGovernmentData"
      }
    },
    {
      "type": "node",
      "id": 4447018763,
      "lat": 12.9217959,
      "lon": 77.6337167,
      "tags": {
        "addr:city": "bangalore",
        "addr:housenumber": "358/1-10",
        "addr:postcode": "560034",
        "addr:street": "7th Cross, Venkatapura Main Rd, 1st Block Koramangala, HSR Layout 5th Sector",
        "amenity": "pharmacy",
        "name": "Excel Diagnostics",
        "phone": "+9180 2550 0182",
        "source": "justdial"
      }
    },
    {
      "type": "node",
      "id": 4448886964,
      "lat": 12.9233799,
      "lon": 77.6341276,
      "tags": {
        "addr:city": "bangalore",
        "addr:housenumber": "39/13,",
        "addr:postcode": "560102",
        "addr:street": "5th Cross, Near Ibblur Bus Stop, Outer Ring Rd, Agara Village, Sector 4, HSR Layou",
        "amenity": "restaurant",
        "cuisine": "regional",
        "delivery": "yes",
        "name": "Ira Residency",
        "phone": "080 2572 7656",
        "smoking": "no",
        "takeaway": "yes"
      }
    },
    {
      "type": "node",
      "id": 4488412947,
      "lat": 12.9242108,
      "lon": 77.6388037,
      "tags": {
        "addr:city": "Bangalore",
        "addr:housenumber": "#998",
        "addr:postcode": "560034",
        "addr:street": "Sarjapura main road, Koramangala, , Near Agra lake",
        "leisure": "sports_centre",
        "name": "The body zone gym",
        "opening_hours": "05:00- 22:00",
        "phone": "9980002533",
        "sport": "gymnastics"
      }
    },
    {
      "type": "node",
      "id": 4489791821,
      "lat": 12.9280827,
      "lon": 77.6373095,
      "tags": {
        "addr:city": "bangalore",
        "addr:housenumber": "305, 1st Main Rd, Koramangala 1st Block",
        "addr:postcode": "5560034",
        "addr:street": "Jakkasandra extension, HSR Layout, 1st Block Koramangala,",
        "name": "Essence Unisex Salon And Spa",
        "opening_hours": "8:30-21:00",
        "phone": "080-40953697",
        "shop": "beauty"
      }
    },
    {
      "type": "node",
      "id": 4489814319,
      "lat": 12.9292777,
      "lon": 77.6350299,
      "tags": {
        "addr:city": "Banngalore",
        "addr:housenumber": "998, 1st Floor",
        "addr:postcode": "560034",
        "addr:street": "1st Main 1st Block, Koramangala, S.T. Bed, 1st Block Koramangala, Bengaluru,",
        "leisure": "sports_centre",
        "name": "The Body Works",
        "opening_hours": "5:30-22:30",
        "phone": "8041102623",
        "sport": "gymnastics",
        "website": "bodyworksgym.in"
      }
    },
    {
      "type": "node",
      "id": 4489845028,
      "lat": 12.9322428,
      "lon": 77.6321637,
      "tags": {
        "addr:postcode": "560034",
        "addr:street": "80 Feet Road",
        "leisure": "fitness_centre",
        "level": "2;3",
        "name": "Posh Fitness"
      }
    },
    {
      "type": "node",
      "id": 4489896406,
      "lat": 12.9252152,
      "lon": 77.6338719,
      "tags": {
        "addr:city": "Bengaluru",
        "addr:housenumber": "Varthur Sarjapur Road, Near Govt. School",
        "addr:postcode": "560087",
        "addr:street": "Gunjur, 239, 1st Cross Rd, 1st Block Koramangala",
        "name": "Isthaa spa",
        "opening_hours": "08:00-20:00",
        "phone": "090353 52000",
        "shop": "beauty",
        "website": "https://isthaa.com/"
      }
    },
    {
      "type": "node",
      "id": 4582748890,
      "lat": 12.9304984,
      "lon": 77.6338469,
      "tags": {
        "amenity": "restaurant",
        "name:zh": "中国菜"
      }
    },
    {
      "type": "node",
      "id": 5807262206,
      "lat": 12.9251568,
      "lon": 77.6338744,
      "tags": {
        "amenity": "restaurant",
        "indoor_seating": "yes",
        "name": "Pingara",
        "outdoor_seating": "no"
      }
    },
    {
      "type": "node",
      "id": 5915887966,
      "lat": 12.9304826,
      "lon": 77.6331908,
      "tags": {
        "amenity": "ice_cream",
        "name": "Natural Ice Cream",
        "not:brand:wikidata": "Q24439154",
        "outdoor_seating": "no",
        "website": "https://naturalicecreams.in/"
      }
    },
    {
      "type": "node",
      "id": 5915887967,
      "lat": 12.9312594,
      "lon": 77.6329642,
      "tags": {
        "amenity": "pub",
        "name": "Bira 91 Taproom"
      }
    },
    {
      "type": "node",
      "id": 5915887969,
      "lat": 12.9255456,
      "lon": 77.6333329,
      "tags": {
        "amenity": "restaurant",
        "check_date": "2023-11-30",
        "indoor_seating": "yes",
        "name": "Bistro Claytopia",
        "outdoor_seating": "yes",
        "start_date": "2004"
      }
    },
    {
      "type": "node",
      "id": 5915887970,
      "lat": 12.9257724,
      "lon": 77.6333947,
      "tags": {
        "amenity": "bank",
        "brand": "State Bank of India",
        "brand:wikidata": "Q1340361",
        "check_date": "2025-08-08",
        "name": "State Bank of India",
        "short_name": "SBI"
      }
    },
    {
      "type": "node",
      "id": 5915887971,
      "lat": 12.9260044,
      "lon": 77.6332862,
      "tags": {
        "amenity": "restaurant",
        "name": "Magnolia"
      }
    },
    {
      "type": "node",
      "id": 5915887973,
      "lat": 12.926672,
      "lon": 77.6335707,
      "tags": {
        "name": "iService - iPhone, MacBook, Oneplus, Xiaomi Repairs and Service Center",
        "shop": "electronics"
      }
    },
    {
      "type": "node",
      "id": 5915887975,
      "lat": 12.9269862,
      "lon": 77.6332224,
      "tags": {
        "amenity": "bank",
        "brand": "Federal Bank",
        "brand:wikidata": "Q2044983",
        "name": "Federal Bank"
      }
    },
    {
      "type": "node",
      "id": 5915906203,
      "lat": 12.9255085,
      "lon": 77.6343557,
      "tags": {
        "amenity": "pharmacy",
        "dispensing": "yes",
        "healthcare": "pharmacy",
        "name": "Pragathi Homeo Pharmacy"
      }
    },
    {
      "type": "node",
      "id": 5915906204,
      "lat": 12.9256013,
      "lon": 77.6359638,
      "tags": {
        "addr:district": "Bengaluru Urban",
        "addr:full": "No. 8, 1st Main Road 1st Block, Koramangala",
        "addr:postcode": "560034",
        "addr:state": "Karnataka",
        "amenity": "hospital",
        "check_date": "2023-12-31",
        "healthcare": "hospital",
        "name": "Sankeerthana Hospital and Fertility Center",
        "source": "OpenGovernmentData"
      }
    },
    {
      "type": "node",
      "id": 5915906216,
      "lat": 12.9256161,
      "lon": 77.6368877,
      "tags": {
        "amenity": "bank",
        "brand": "State Bank of India",
        "brand:wikidata": "Q1340361",
        "name": "State Bank of India",
        "name:kn": "ಭಾರತೀಯ ಸ್ಟೇಟ್ ಬ್ಯಾಂಕ್",
        "short_name": "SBI"
      }
    },
    {
      "type": "node",
      "id": 5915906217,
      "lat": 12.9251513,
      "lon": 77.6378065,
      "tags": {
        "amenity": "restaurant",
        "brand": "Barbeque Nation",
        "brand:wikidata": "Q4859568",
        "cuisine": "barbecue",
        "name": "Barbeque Nation",
        "name:kn": "ಬರ್ಬಕ್ಯು ನೇಶನ್"
      }
    },
    {
      "type": "node",
      "id": 5915906218,
      "lat": 12.9250056,
      "lon": 77.6379296,
      "tags": {
        "amenity": "bank",
        "name": "Chartered Sahakari Bank Niyamitha"
      }
    },
    {
      "type": "node",
      "id": 5983500265,
      "lat": 12.9256424,
      "lon": 77.6366798,
      "tags": {
        "amenity": "bank",
        "brand": "ICICI Bank",
        "brand:wikidata": "Q1653258",
        "name": "ICICI Bank",
        "short_name": "ICICI"
      }
    },
    {
      "type": "node",
      "id": 5983500949,
      "lat": 12.9253183,
      "lon": 77.6348207,
      "tags": {
        "name": "Aishwarya",
        "shop": "department_store"
      }
    },
    {
      "type": "node",
      "id": 6348976690,
      "lat": 12.9217806,
      "lon": 77.6363478,
      "tags": {
        "addr:place": "Venkatapur",
        "amenity": "school",
        "isced:level": "2",
        "name": "Chikanna Madevi HPS Venkatapur",
        "name:kn": "ಚಿಕನ್ನಮಾದೇವಿ ಹಿರಿಯ ಪ್ರಾಥಮಿಕ ಶಾಲೆ ವೆಂಕಟಾಪುರ",
        "operator": "Department of Primary and Secondary Education",
        "operator:type": "government",
        "operator:wikidata": "Q111467381",
        "school": "primary"
      }
    },
    {
      "type": "node",
      "id": 6348984684,
      "lat": 12.9243486,
      "lon": 77.6325688,
      "tags": {
        "addr:place": "Koramangala",
        "amenity": "school",
        "isced:level": "2",
        "name": "GHPS Ksrp Koramangala",
        "name:kn": "ಸರ್ಕಾರಿ ಹಿರಿಯ ಪ್ರಾಥಮಿಕ ಶಾಲೆ ಕನ್ನಡ ಹಿರಿಯ ಪ್ರಾಥಮಿಕ ಶಾಲೆ ಕೋರಮಂಗಲ",
        "operator": "Department of Primary and Secondary Education",
        "operator:type": "government",
        "operator:wikidata": "Q111467381",
        "school": "primary"
      }
    },
    {
      "type": "node",
      "id": 6349008940,
      "lat": 12.9251002,
      "lon": 77.63686,
      "tags": {
        "amenity": "school",
        "check_date": "2024-04-03",
        "isced:level": "2",
        "name": "Government Higher Primary School Jakkasandra",
        "name:kn": "ಸರ್ಕಾರಿ ಹಿರಿಯ ಪ್ರಾಥಮಿಕ ಶಾಲೆ ಜಕ್ಕಸಂದ್ರ",
        "operator": "Department of Education",
        "operator:type": "government",
        "school": "primary",
        "source": "survey"
      }
    },
    {
      "type": "node",
      "id": 6515065044,
      "lat": 12.9256339,
      "lon": 77.6368064,
      "tags": {
        "amenity": "bank",
        "brand": "Kotak Mahindra Bank",
        "brand:wikidata": "Q2040404",
        "name": "Kotak Mahindra Bank",
        "name:kn": "ಕೋಟಕ್ ಮಹಿಂದ್ರ ಬ್ಯಾಂಕ್"
      }
    },
    {
      "type": "node",
      "id": 6544146352,
      "lat": 12.923222,
      "lon": 77.6364709,
      "tags": {
        "addr:place": "Madiwala",
        "amenity": "school",
        "isced:level": "3",
        "name": "Goldwyn Memorial Pub Sch Jakka, Madiwala",
        "name:kn": "ಗೋಲ್ಡ್ವಿನ್ ಮೆಮೊರಿಯಲ್ ಪಬ್ಲಿಕ್ ಶಾಲೆ,ಮಡಿವಾಳ",
        "operator": "Private Un-Aided",
        "school": "Higher Secondary"
      }
    },
    {
      "type": "node",
      "id": 6569023746,
      "lat": 12.9289898,
      "lon": 77.6329994,
      "tags": {
        "addr:city": "Bengaluru",
        "addr:country": "IN",
        "addr:hamlet": "Koramangala 1A Block",
        "addr:housename": "Prestige Atlanta",
        "addr:postcode": "560034",
        "addr:street": "80 Feet Road",
        "amenity": "coworking_space",
        "brand": "WeWork",
        "brand:wikidata": "Q19995004",
        "fee": "yes",
        "name": "WeWork",
        "office": "coworking",
        "operator": "WeWork",
        "website": "https://www.wework.com/buildings/prestige-atlanta--bengaluru--Karnataka"
      }
    },
    {
      "type": "node",
      "id": 6734440134,
      "lat": 12.9261765,
      "lon": 77.6361788,
      "tags": {
        "addr:place": "Eegipura",
        "amenity": "school",
        "isced:level": "3",
        "name": "Seema HPS Eegipura W No 68",
        "name:kn": "ಸೀಮಾ ಹಿರಿಯ ಪ್ರಾಥಮಿಕ ಶಾಲೆ ಈಜಿಪುರ",
        "operator": "Private Un-Aided",
        "school": "Higher Secondary"
      }
    },
    {
      "type": "node",
      "id": 7294283007,
      "lat": 12.9235705,
      "lon": 77.6471347,
      "tags": {
        "air_conditioning": "yes",
        "amenity": "fast_food",
        "brand": "Domino's",
        "brand:ks": "ڈومینوز",
        "brand:pa": "ਡੋਮੀਨੋਜ਼",
        "brand:ur": "ڈومینوز",
        "brand:wikidata": "Q839466",
        "brand:wikipedia": "en:Domino's Pizza",
        "cuisine": "pizza",
        "diet:halal": "yes",
        "diet:vegetarian": "yes",
        "indoor_seating": "yes",
        "name": "Domino's",
        "name:ks": "ڈومینوز",
        "name:pa": "ਡੋਮੀਨੋਜ਼",
        "name:ur": "ڈومینوز",
        "outdoor_seating": "no",
        "smoking": "no",
        "takeaway": "yes"
      }
    },
    {
      "type": "node",
      "id": 10073443014,
      "lat": 12.9265299,
      "lon": 77.6375122,
      "tags": {
        "amenity": "veterinary",
        "name": "V-Care Pet Polyclinic",
        "phone": "08025525834",
        "website": "https://www.vcarepetpolyclinic.com/"
      }
    },
    {
      "type": "node",
      "id": 10075728807,
      "lat": 12.9348545,
      "lon": 77.6348279,
      "tags": {
        "addr:street": "8th Cross Road",
        "name": "Classic Shop",
        "shop": "department_store"
      }
    },
    {
      "type": "node",
      "id": 10075729404,
      "lat": 12.9318955,
      "lon": 77.6333311,
      "tags": {
        "addr:street": "1st Main Road",
        "check_date": "2025-05-25",
        "leisure": "fitness_centre",
        "name": "Iconic Gym"
      }
    },
    {
      "type": "node",
      "id": 10075730026,
      "lat": 12.9320203,
      "lon": 77.6333683,
      "tags": {
        "addr:street": "8th Cross Road",
        "name": "Green Grocer",
        "shop": "greengrocer"
      }
    },
    {
      "type": "node",
      "id": 10075730590,
      "lat": 12.932216,
      "lon": 77.6321306,
      "tags": {
        "amenity": "restaurant",
        "name": "La Pino'z Pizza",
        "website": "https://lapinozpizza.in/"
      }
    },
    {
      "type": "node",
      "id": 10079235531,
      "lat": 12.9350365,
      "lon": 77.6332951,
      "tags": {
        "addr:housenumber": "991",
        "addr:street": "7th Main Road",
        "amenity": "pharmacy",
        "dispensing": "yes",
        "healthcare": "pharmacy",
        "name": "Skanda Medicals"
      }
    },
    {
      "type": "node",
      "id": 10079235532,
      "lat": 12.9347554,
      "lon": 77.6333093,
      "tags": {
        "name": "Safa Provision Store",
        "shop": "convenience"
      }
    },
    {
      "type": "node",
      "id": 10295524798,
      "lat": 12.9294166,
      "lon": 77.6323832,
      "tags": {
        "addr:city": "Bengaluru",
        "addr:country": "IN",
        "addr:housenumber": "12",
        "addr:postcode": "560034",
        "addr:street": "7th Cross Road",
        "addr:suburb": "Koramangala",
        "amenity": "coworking_space",
        "fee": "yes",
        "name": "Attic Space Trishul",
        "office": "coworking",
        "operator": "Attic Space",
        "website": "https://atticspace.in/location/attic-space-trishul-kormangala"
      }
    },
    {
      "type": "node",
      "id": 10295524802,
      "lat": 12.9295061,
      "lon": 77.6314384,
      "tags": {
        "amenity": "post_box"
      }
    },
    {
      "type": "node",
      "id": 10296378589,
      "lat": 12.924028,
      "lon": 77.6403192,
      "tags": {
        "amenity": "pub",
        "contact:instagram": "atlantisbengaluru",
        "name": "Atlantis",
        "payment:mastercard": "yes",
        "payment:visa": "yes",
        "phone": "+91 9741790700",
        "website": "https://bengaluruatlantis.com/"
      }
    },
    {
      "type": "node",
      "id": 10895997183,
      "lat": 12.9251848,
      "lon": 77.6365943,
      "tags": {
        "access": "yes",
        "amenity": "toilets",
        "fee": "yes",
        "operator": "ಬೃಹತ್ ಬೆಂಗಳೂರು ಮಹಾನಗರ ಪಾಲಿಕೆ",
        "operator:en": "Bruhat Bengaluru Mahanagara Palike",
        "operator:ka": "ಬೃಹತ್ ಬೆಂಗಳೂರು ಮಹಾನಗರ ಪಾಲಿಕೆ",
        "operator:short": "BBMP",
        "operator:wikidata": "Q4978693",
        "wheelchair": "no"
      }
    },
    {
      "type": "node",
      "id": 10924790335,
      "lat": 12.9318674,
      "lon": 77.6320308,
      "tags": {
        "amenity": "bar",
        "name": "Chin Lung Resto Bar"
      }
    },
    {
      "type": "node",
      "id": 10924790336,
      "lat": 12.9313575,
      "lon": 77.6324685,
      "tags": {
        "level": "1",
        "name": "Truefitt & Hill",
        "payment:credit_cards": "yes",
        "payment:debit_cards": "yes",
        "shop": "hairdresser",
        "website": "https://www.truefittandhill.in/",
        "wheelchair": "no"
      }
    },
    {
      "type": "node",
      "id": 11034486736,
      "lat": 12.9255788,
      "lon": 77.6362412,
      "tags": {
        "amenity": "bank",
        "brand": "Bandhan Bank",
        "brand:wikidata": "Q19882235",
        "check_date": "2023-07-08",
        "name": "Bandhan Bank"
      }
    },
    {
      "type": "node",
      "id": 11245989083,
      "lat": 12.9206511,
      "lon": 77.6359691,
      "tags": {
        "addr:housenumber": "314",
        "addr:street": "6th Main Road",
        "check_date": "2024-06-17",
        "name": "Raj Tailor",
        "name:en": "Raj Tailor",
        "shop": "tailor"
      }
    },
    {
      "type": "node",
      "id": 11385511621,
      "lat": 12.9247289,
      "lon": 77.637667,
      "tags": {
        "amenity": "place_of_worship",
        "check_date": "2023-11-30",
        "religion": "hindu"
      }
    },
    {
      "type": "node",
      "id": 11385511624,
      "lat": 12.9262798,
      "lon": 77.6332784,
      "tags": {
        "amenity": "bank",
        "check_date": "2023-11-30",
        "name": "Bharat Bank"
      }
    },
    {
      "type": "node",
      "id": 11385511625,
      "lat": 12.9271334,
      "lon": 77.6332033,
      "tags": {
        "amenity": "cafe",
        "check_date": "2023-11-30",
        "name": "Chai Fast"
      }
    },
    {
      "type": "node",
      "id": 11385511629,
      "lat": 12.9302112,
      "lon": 77.6329689,
      "tags": {
        "check_date": "2024-01-10",
        "name": "Wooden Street",
        "shop": "furniture"
      }
    },
    {
      "type": "node",
      "id": 11385511630,
      "lat": 12.9310729,
      "lon": 77.6326552,
      "tags": {
        "amenity": "cafe",
        "brand": "Barista",
        "brand:wikidata": "Q644735",
        "check_date": "2023-11-30",
        "cuisine": "coffee_shop",
        "name": "Barista",
        "takeaway": "yes"
      }
    },
    {
      "type": "node",
      "id": 11385511631,
      "lat": 12.9311872,
      "lon": 77.6326024,
      "tags": {
        "amenity": "fast_food",
        "brand": "Domino's",
        "brand:wikidata": "Q839466",
        "check_date": "2023-11-30",
        "cuisine": "pizza",
        "name": "Domino's",
        "takeaway": "yes"
      }
    },
    {
      "type": "node",
      "id": 11385511632,
      "lat": 12.9323886,
      "lon": 77.6314845,
      "tags": {
        "amenity": "cafe",
        "brand": "Starbucks",
        "brand:wikidata": "Q37158",
        "check_date": "2023-11-30",
        "cuisine": "coffee_shop",
        "name": "Starbucks",
        "official_name": "Starbucks Coffee",
        "takeaway": "yes"
      }
    },
    {
      "type": "node",
      "id": 11397803290,
      "lat": 12.9232925,
      "lon": 77.6413495,
      "tags": {
        "amenity": "bench",
        "backrest": "yes",
        "material": "stone",
        "seats": "2"
      }
    },
    {
      "type": "node",
      "id": 11397803291,
      "lat": 12.9234716,
      "lon": 77.640376,
      "tags": {
        "amenity": "bench",
        "backrest": "yes",
        "material": "stone",
        "seats": "2"
      }
    },
    {
      "type": "node",
      "id": 11397803296,
      "lat": 12.9268376,
      "lon": 77.6332674,
      "tags": {
        "check_date": "2023-12-06",
        "name": "JusBake",
        "shop": "bakery"
      }
    },
    {
      "type": "node",
      "id": 11505695829,
      "lat": 12.9266025,
      "lon": 77.6332815,
      "tags": {
        "brand": "LG",
        "brand:wikidata": "Q162345",
        "check_date": "2024-01-10",
        "name": "LG",
        "shop": "electronics"
      }
    },
    {
      "type": "node",
      "id": 11505695830,
      "lat": 12.9268066,
      "lon": 77.6332725,
      "tags": {
        "amenity": "cafe",
        "check_date": "2024-01-10",
        "name": "Tatvika Cafe"
      }
    },
    {
      "type": "node",
      "id": 11505695833,
      "lat": 12.9320555,
      "lon": 77.6318284,
      "tags": {
        "check_date": "2024-01-10",
        "shop": "garden_centre"
      }
    },
    {
      "type": "node",
      "id": 11534655522,
      "lat": 12.9206516,
      "lon": 77.6433997,
      "tags": {
        "amenity": "shelter",
        "shelter_type": "gazebo"
      }
    },
    {
      "type": "node",
      "id": 11534655524,
      "lat": 12.9241548,
      "lon": 77.6446751,
      "tags": {
        "access": "yes",
        "amenity": "toilets"
      }
    },
    {
      "type": "node",
      "id": 11659905691,
      "lat": 12.9295032,
      "lon": 77.6326634,
      "tags": {
        "name": "Cut & Style Salon",
        "shop": "hairdresser"
      }
    },
    {
      "type": "node",
      "id": 11659905692,
      "lat": 12.930344,
      "lon": 77.6332226,
      "tags": {
        "amenity": "pharmacy",
        "brand": "MedPlus",
        "brand:wikidata": "Q65684234",
        "healthcare": "pharmacy",
        "name": "MedPlus",
        "name:kn": "ಮೆಡ್‍ಪ್ಲಸ್"
      }
    },
    {
      "type": "node",
      "id": 11659905693,
      "lat": 12.9307348,
      "lon": 77.633114,
      "tags": {
        "amenity": "cafe",
        "brand": "Chai Point",
        "brand:wikidata": "Q28173415",
        "check_date": "2025-05-25",
        "cuisine": "coffee_shop",
        "name": "Chai Point",
        "takeaway": "yes"
      }
    },
    {
      "type": "node",
      "id": 11659905694,
      "lat": 12.9309544,
      "lon": 77.6330697,
      "tags": {
        "amenity": "restaurant",
        "name": "Gabru Di Chaap"
      }
    },
    {
      "type": "node",
      "id": 11659905695,
      "lat": 12.9311505,
      "lon": 77.6325856,
      "tags": {
        "level": "1",
        "name": "YLG Salon",
        "shop": "beauty"
      }
    },
    {
      "type": "node",
      "id": 11659905696,
      "lat": 12.9314093,
      "lon": 77.6325158,
      "tags": {
        "amenity": "bank",
        "atm": "yes",
        "brand": "ICICI Bank",
        "brand:wikidata": "Q1653258",
        "name": "ICICI Bank",
        "name:kn": "ಐಸಿಐಸಿಐ ಬ್ಯಾಂಕು",
        "short_name": "ICICI"
      }
    },
    {
      "type": "node",
      "id": 11659905697,
      "lat": 12.9308067,
      "lon": 77.6327707,
      "tags": {
        "amenity": "bank",
        "name": "SVC Cooperative Bank Ltd"
      }
    },
    {
      "type": "node",
      "id": 11659905698,
      "lat": 12.9308262,
      "lon": 77.6330783,
      "tags": {
        "addr:housenumber": "1025",
        "addr:street": "80 Feet Road",
        "amenity": "fast_food",
        "cuisine": "kebab;burger;shawarma",
        "diet:halal": "yes",
        "diet:meat": "yes",
        "diet:non-vegetarian": "yes",
        "drive_through": "no",
        "name": "Al Taza"
      }
    },
    {
      "type": "node",
      "id": 11659905699,
      "lat": 12.930842,
      "lon": 77.633114,
      "tags": {
        "name": "Lotus Unisex Spa",
        "shop": "massage"
      }
    },
    {
      "type": "node",
      "id": 11684016163,
      "lat": 12.9252665,
      "lon": 77.6341144,
      "tags": {
        "amenity": "fuel",
        "check_date": "2024-03-02",
        "name": "Gail Gas"
      }
    },
    {
      "type": "node",
      "id": 11903069865,
      "lat": 12.9227589,
      "lon": 77.6461721,
      "tags": {
        "name": "Hindustan Hardware and Plywoods",
        "shop": "hardware"
      }
    },
    {
      "type": "node",
      "id": 11903125908,
      "lat": 12.9217411,
      "lon": 77.6452006,
      "tags": {
        "amenity": "restaurant",
        "name": "Chimi's"
      }
    },
    {
      "type": "node",
      "id": 12083603347,
      "lat": 12.9322948,
      "lon": 77.6316027,
      "tags": {
        "amenity": "bar",
        "name": "The Fixx Bar"
      }
    },
    {
      "type": "node",
      "id": 12083603348,
      "lat": 12.9325502,
      "lon": 77.6318589,
      "tags": {
        "amenity": "cafe",
        "level": "3",
        "name": "Dialogues Cafe",
        "outdoor_seating": "yes"
      }
    },
    {
      "type": "node",
      "id": 12083603349,
      "lat": 12.931798,
      "lon": 77.632117,
      "tags": {
        "amenity": "cafe",
        "name": "Helloo Dilli"
      }
    },
    {
      "type": "node",
      "id": 12083603350,
      "lat": 12.9315093,
      "lon": 77.6324208,
      "tags": {
        "name": "Zeiss Vision Center",
        "shop": "optician"
      }
    },
    {
      "type": "node",
      "id": 12083603351,
      "lat": 12.9317143,
      "lon": 77.6322196,
      "tags": {
        "amenity": "bank",
        "brand": "Bandhan Bank",
        "brand:wikidata": "Q19882235",
        "name": "Bandhan Bank"
      }
    },
    {
      "type": "node",
      "id": 12083603353,
      "lat": 12.9315158,
      "lon": 77.6328365,
      "tags": {
        "name": "enrich",
        "shop": "beauty"
      }
    },
    {
      "type": "node",
      "id": 12083603354,
      "lat": 12.9313995,
      "lon": 77.6329049,
      "tags": {
        "amenity": "restaurant",
        "cuisine": "thai",
        "name": "Thai Basil"
      }
    },
    {
      "type": "node",
      "id": 12115149775,
      "lat": 12.9323246,
      "lon": 77.6320872,
      "tags": {
        "addr:postcode": "560034",
        "addr:street": "80 Feet Road",
        "level": "1",
        "name": "Noodira Salon",
        "shop": "beauty"
      }
    },
    {
      "type": "node",
      "id": 12115149776,
      "lat": 12.932367,
      "lon": 77.6321201,
      "tags": {
        "addr:postcode": "560034",
        "addr:street": "80 Feet Road",
        "brand": "cult.fit",
        "brand:wikidata": "Q121289250",
        "leisure": "fitness_centre",
        "level": "2",
        "name": "cult.fit"
      }
    },
    {
      "type": "node",
      "id": 12115149777,
      "lat": 12.9322049,
      "lon": 77.6321901,
      "tags": {
        "addr:postcode": "560034",
        "addr:street": "80 Feet Road",
        "amenity": "dentist",
        "healthcare": "dentist",
        "level": "1",
        "name": "Clove Dental"
      }
    },
    {
      "type": "node",
      "id": 12115149778,
      "lat": 12.9321791,
      "lon": 77.6321694,
      "tags": {
        "addr:postcode": "560034",
        "addr:street": "80 Feet Road",
        "name": "Bottle Store",
        "shop": "alcohol"
      }
    },
    {
      "type": "node",
      "id": 12115251881,
      "lat": 12.9295347,
      "lon": 77.6308153,
      "tags": {
        "addr:postcode": "560034",
        "addr:street": "7th Cross Road",
        "amenity": "cafe",
        "name": "Cafe OTW On The Way"
      }
    },
    {
      "type": "node",
      "id": 12115251882,
      "lat": 12.9296138,
      "lon": 77.6316244,
      "tags": {
        "addr:postcode": "560034",
        "addr:street": "7th Cross Road",
        "amenity": "clinic",
        "healthcare": "clinic",
        "healthcare:speciality": "fertility",
        "name": "Cherish Fertinity Clinic"
      }
    },
    {
      "type": "node",
      "id": 12115251883,
      "lat": 12.9300397,
      "lon": 77.6332545,
      "tags": {
        "addr:postcode": "560034",
        "addr:street": "80 Feet Road",
        "name": "DriveX NIAX Motors",
        "second_hand": "only",
        "shop": "motorcycle"
      }
    },
    {
      "type": "node",
      "id": 12115251884,
      "lat": 12.9295327,
      "lon": 77.6320146,
      "tags": {
        "addr:postcode": "560034",
        "addr:street": "7th Cross Road",
        "name": "Nanesh Unisex Salon",
        "shop": "beauty"
      }
    },
    {
      "type": "node",
      "id": 12115251886,
      "lat": 12.9295262,
      "lon": 77.6319228,
      "tags": {
        "addr:postcode": "560034",
        "addr:street": "7th Cross Road",
        "amenity": "cafe",
        "name": "Kaffe 399"
      }
    },
    {
      "type": "node",
      "id": 12115251888,
      "lat": 12.9306501,
      "lon": 77.6331509,
      "tags": {
        "addr:postcode": "560034",
        "addr:street": "80 Feet Road",
        "name": "Pulito Wash",
        "shop": "laundry"
      }
    },
    {
      "type": "node",
      "id": 12115251889,
      "lat": 12.9305861,
      "lon": 77.6331696,
      "tags": {
        "addr:postcode": "560034",
        "addr:street": "80 Feet Road",
        "amenity": "cafe",
        "cuisine": "waffle",
        "name": "Belgian Waffle"
      }
    },
    {
      "type": "node",
      "id": 12129005537,
      "lat": 12.9308818,
      "lon": 77.6327024,
      "tags": {
        "contact:instagram": "lokomadofficial",
        "name": "LokoMAD",
        "shop": "pastry"
      }
    },
    {
      "type": "node",
      "id": 12307012930,
      "lat": 12.9233702,
      "lon": 77.6468113,
      "tags": {
        "amenity": "bank",
        "brand": "HDFC Bank",
        "brand:wikidata": "Q631047",
        "name": "HDFC Bank",
        "short_name": "HDFC"
      }
    },
    {
      "type": "node",
      "id": 12443353162,
      "lat": 12.9235685,
      "lon": 77.6400607,
      "tags": {
        "amenity": "toilets"
      }
    },
    {
      "type": "node",
      "id": 12443353189,
      "lat": 12.924326,
      "lon": 77.640405,
      "tags": {
        "amenity": "bar",
        "name": "Animal Bar"
      }
    },
    {
      "type": "node",
      "id": 12737055648,
      "lat": 12.9313271,
      "lon": 77.6344679,
      "tags": {
        "access": "private",
        "amenity": "parking_entrance",
        "parking": "underground"
      }
    },
    {
      "type": "node",
      "id": 12737055652,
      "lat": 12.9310471,
      "lon": 77.6349783,
      "tags": {
        "amenity": "parking_entrance"
      }
    },
    {
      "type": "node",
      "id": 12762692064,
      "lat": 12.922395,
      "lon": 77.6339794,
      "tags": {
        "amenity": "restaurant",
        "name": "Karavali Restaurant"
      }
    },
    {
      "type": "node",
      "id": 12762692745,
      "lat": 12.9218604,
      "lon": 77.6337115,
      "tags": {
        "amenity": "restaurant",
        "name": "7th Cross"
      }
    },
    {
      "type": "node",
      "id": 12862846434,
      "lat": 12.9261467,
      "lon": 77.6332737,
      "tags": {
        "amenity": "restaurant",
        "cuisine": "burger",
        "delivery": "yes",
        "name": "The High Joint",
        "takeaway": "yes"
      }
    },
    {
      "type": "node",
      "id": 13063812828,
      "lat": 12.9220463,
      "lon": 77.6453525,
      "tags": {
        "amenity": "place_of_worship",
        "name": "Faithfully Gospel Church",
        "religion": "christian"
      }
    },
    {
      "type": "node",
      "id": 13086275910,
      "lat": 12.9283909,
      "lon": 77.6361652,
      "tags": {
        "amenity": "cafe",
        "name": "Krust Cafe"
      }
    },
    {
      "type": "node",
      "id": 13086275911,
      "lat": 12.9288004,
      "lon": 77.6353345,
      "tags": {
        "amenity": "restaurant",
        "cuisine": "asian",
        "name": "Bao To Me"
      }
    },
    {
      "type": "node",
      "id": 13155168301,
      "lat": 12.9303877,
      "lon": 77.6332249,
      "tags": {
        "amenity": "events_venue",
        "name": "Ministry of Comedy"
      }
    },
    {
      "type": "node",
      "id": 13288585452,
      "lat": 12.9303331,
      "lon": 77.6332426,
      "tags": {
        "name": "The Tempt Bakehouse",
        "shop": "pastry"
      }
    },
    {
      "type": "way",
      "id": 27789854,
      "center": {
        "lat": 12.9283646,
        "lon": 77.6334858
      },
      "tags": {
        "created_by": "Potlatch 0.10f",
        "leisure": "park",
        "name": "Wipro Park"
      }
    },
    {
      "type": "way",
      "id": 37786371,
      "center": {
        "lat": 12.9308899,
        "lon": 77.6319955
      },
      "tags": {
        "leisure": "park",
        "name": "BBMP Park",
        "name:kn": "ಬೃ. ಬೆ. ಮ. ಪಾ. ಉದ್ಯಾನವನ",
        "operator": "ಬೃಹತ್ ಬೆಂಗಳೂರು ಮಹಾನಗರ ಪಾಲಿಕೆ",
        "operator:en": "Bruhat Bengaluru Mahanagara Palike",
        "operator:ka": "ಬೃಹತ್ ಬೆಂಗಳೂರು ಮಹಾನಗರ ಪಾಲಿಕೆ",
        "operator:short": "BBMP",
        "operator:type": "government",
        "operator:wikidata": "Q4978693"
      }
    },
    {
      "type": "way",
      "id": 164210883,
      "center": {
        "lat": 12.9271752,
        "lon": 77.6330217
      },
      "tags": {
        "addr:city": "Bengaluru",
        "addr:postcode": "560034",
        "addr:street": "100 Feet Rd, 3rd Block, Koramangala",
        "building": "commercial",
        "name": "Spencer",
        "organic": "yes",
        "payment:credit_cards": "yes",
        "payment:debit_cards": "yes",
        "shop": "supermarket",
        "website": "https://www.spencers.in/"
      }
    },
    {
      "type": "way",
      "id": 164210884,
      "center": {
        "lat": 12.9271608,
        "lon": 77.6325899
      },
      "tags": {
        "amenity": "parking"
      }
    },
    {
      "type": "way",
      "id": 232239123,
      "center": {
        "lat": 12.9215131,
        "lon": 77.6447168
      },
      "tags": {
        "amenity": "fuel",
        "brand": "Indian Oil",
        "brand:wikidata": "Q1289348",
        "check_date": "2024-10-05",
        "compressed_air": "yes",
        "name": "Sowbhagya Fuel Station"
      }
    },
    {
      "type": "way",
      "id": 345934952,
      "center": {
        "lat": 12.9328802,
        "lon": 77.6353844
      },
      "tags": {
        "leisure": "pitch",
        "sport": "tennis"
      }
    },
    {
      "type": "way",
      "id": 345955207,
      "center": {
        "lat": 12.9309751,
        "lon": 77.6338422
      },
      "tags": {
        "building": "yes",
        "name": "Nuts Corner",
        "shop": "nuts",
        "source": "local knowledge;survey"
      }
    },
    {
      "type": "way",
      "id": 347039621,
      "center": {
        "lat": 12.9251991,
        "lon": 77.6337342
      },
      "tags": {
        "addr:housenumber": "168",
        "amenity": "restaurant",
        "building": "yes",
        "cuisine": "regional",
        "name": "Udupi Upahar",
        "name:kn": "ಉಡುಪಿ ಉಪಹಾರ",
        "opening_hours": "07:00-22:30",
        "source": "GEPTIS",
        "takeaway": "yes"
      }
    },
    {
      "type": "way",
      "id": 362919956,
      "center": {
        "lat": 12.9288113,
        "lon": 77.6303716
      },
      "tags": {
        "leisure": "park"
      }
    },
    {
      "type": "way",
      "id": 362920876,
      "center": {
        "lat": 12.927514,
        "lon": 77.6355294
      },
      "tags": {
        "leisure": "park",
        "name": "Swabhimana Park",
        "name:kn": "ಸ್ವಾಭೀಮಾನ ಉದ್ಯಾನವನ"
      }
    },
    {
      "type": "way",
      "id": 362921972,
      "center": {
        "lat": 12.9331364,
        "lon": 77.6327824
      },
      "tags": {
        "leisure": "park",
        "name": "Children's Park"
      }
    },
    {
      "type": "way",
      "id": 439766477,
      "center": {
        "lat": 12.9216037,
        "lon": 77.6442001
      },
      "tags": {
        "access": "yes",
        "amenity": "toilets",
        "building": "yes"
      }
    },
    {
      "type": "way",
      "id": 487990356,
      "center": {
        "lat": 12.9287804,
        "lon": 77.6319089
      },
      "tags": {
        "access": "private",
        "leisure": "swimming_pool"
      }
    },
    {
      "type": "way",
      "id": 547746814,
      "center": {
        "lat": 12.9326788,
        "lon": 77.6332164
      },
      "tags": {
        "leisure": "playground",
        "name": "Children's Playground"
      }
    },
    {
      "type": "way",
      "id": 610111576,
      "center": {
        "lat": 12.9203509,
        "lon": 77.6431558
      },
      "tags": {
        "leisure": "park",
        "name": "Agara Lake Park",
        "opening_hours": "Mo-Su 06:00-10:00,16:00-19:00"
      }
    },
    {
      "type": "way",
      "id": 610166000,
      "center": {
        "lat": 12.9243576,
        "lon": 77.6401009
      },
      "tags": {
        "amenity": "parking"
      }
    },
    {
      "type": "way",
      "id": 631197946,
      "center": {
        "lat": 12.9238895,
        "lon": 77.6407659
      },
      "tags": {
        "amenity": "fuel",
        "brand": "Petronas",
        "brand:wikidata": "Q221692",
        "fuel:cng": "yes",
        "fuel:lpg": "yes",
        "name": "Petronas"
      }
    },
    {
      "type": "way",
      "id": 755391108,
      "center": {
        "lat": 12.9253351,
        "lon": 77.6376486
      },
      "tags": {
        "amenity": "fuel",
        "brand": "Shell",
        "brand:wikidata": "Q110716465",
        "brand:wikipedia": "en:Royal Dutch Shell",
        "compressed_air": "yes",
        "name": "Shell",
        "name:kn": "ಶೆಲ್"
      }
    },
    {
      "type": "way",
      "id": 779344649,
      "center": {
        "lat": 12.9308407,
        "lon": 77.6358184
      },
      "tags": {
        "leisure": "park"
      }
    },
    {
      "type": "way",
      "id": 779344654,
      "center": {
        "lat": 12.926722,
        "lon": 77.6302447
      },
      "tags": {
        "leisure": "playground"
      }
    },
    {
      "type": "way",
      "id": 779344655,
      "center": {
        "lat": 12.9270487,
        "lon": 77.6301463
      },
      "tags": {
        "amenity": "college",
        "fixme": "Boundaries of college campus",
        "name": "St. Francis Composite PU College"
      }
    },
    {
      "type": "way",
      "id": 1041053814,
      "center": {
        "lat": 12.9276182,
        "lon": 77.6409629
      },
      "tags": {
        "addr:city": "Bengaluru",
        "addr:housenumber": "Jakkasandra Extension, Koramangala",
        "addr:postcode": "560034",
        "addr:street": "3rd Cross Road",
        "fee": "yes",
        "leisure": "sports_centre",
        "name": "Coolulu TurfPark Sports",
        "payment:cash": "yes",
        "payment:upi": "yes",
        "sport": "soccer;swimming;cricket;badminton"
      }
    },
    {
      "type": "way",
      "id": 1066116300,
      "center": {
        "lat": 12.9270252,
        "lon": 77.6304325
      },
      "tags": {
        "leisure": "pitch",
        "sport": "basketball"
      }
    },
    {
      "type": "way",
      "id": 1099875751,
      "center": {
        "lat": 12.9321517,
        "lon": 77.6346228
      },
      "tags": {
        "addr:street": "Temple Trees Rd, Cauvery Colony",
        "air_conditioning": "yes",
        "brand": "DMart",
        "building": "yes",
        "building:levels": "3",
        "name": "DMart",
        "not:brand:wikidata": "Q5203271",
        "payment:cash": "yes",
        "payment:contactless": "yes",
        "payment:debit_cards": "yes",
        "shop": "supermarket",
        "website": "https://www.dmartindia.com/"
      }
    },
    {
      "type": "way",
      "id": 1122842100,
      "center": {
        "lat": 12.9198701,
        "lon": 77.6378055
      },
      "tags": {
        "leisure": "park"
      }
    },
    {
      "type": "way",
      "id": 1125892149,
      "center": {
        "lat": 12.9251104,
        "lon": 77.6331617
      },
      "tags": {
        "addr:city": "Bangalore",
        "addr:country": "IN",
        "addr:hamlet": "SBI Colony",
        "addr:housenumber": "19,20",
        "addr:postcode": "560034",
        "addr:street": "Thoshiba Front Office Road",
        "addr:suburb": "Koramangala",
        "amenity": "coworking_space",
        "landuse": "commercial",
        "name": "IndiQube Celestia",
        "office": "coworking",
        "operator": "IndiQube",
        "website": "https://indiqube.com/bangalore/coworking-spaces-koramangala/indiqube-celestia/"
      }
    },
    {
      "type": "way",
      "id": 1125892156,
      "center": {
        "lat": 12.9278086,
        "lon": 77.6316812
      },
      "tags": {
        "access": "private",
        "leisure": "pitch",
        "sport": "badminton"
      }
    },
    {
      "type": "way",
      "id": 1143988615,
      "center": {
        "lat": 12.9289892,
        "lon": 77.6354659
      },
      "tags": {
        "amenity": "toilets",
        "building": "yes"
      }
    },
    {
      "type": "way",
      "id": 1195978038,
      "center": {
        "lat": 12.9312351,
        "lon": 77.6348441
      },
      "tags": {
        "access": "private",
        "leisure": "swimming_pool"
      }
    },
    {
      "type": "way",
      "id": 1195978077,
      "center": {
        "lat": 12.9328859,
        "lon": 77.6374053
      },
      "tags": {
        "leisure": "swimming_pool"
      }
    },
    {
      "type": "way",
      "id": 1195978080,
      "center": {
        "lat": 12.9336723,
        "lon": 77.6354051
      },
      "tags": {
        "leisure": "pitch"
      }
    },
    {
      "type": "way",
      "id": 1195978087,
      "center": {
        "lat": 12.9341016,
        "lon": 77.6349444
      },
      "tags": {
        "access": "private",
        "leisure": "swimming_pool"
      }
    },
    {
      "type": "way",
      "id": 1240984542,
      "center": {
        "lat": 12.9236919,
        "lon": 77.6459387
      },
      "tags": {
        "fitness_station": "yes",
        "leisure": "fitness_station",
        "sport": "fitness"
      }
    },
    {
      "type": "way",
      "id": 1240984543,
      "center": {
        "lat": 12.923958,
        "lon": 77.6456551
      },
      "tags": {
        "leisure": "playground"
      }
    },
    {
      "type": "way",
      "id": 1240984544,
      "center": {
        "lat": 12.9238281,
        "lon": 77.6453975
      },
      "tags": {
        "leisure": "playground"
      }
    },
    {
      "type": "way",
      "id": 1240985780,
      "center": {
        "lat": 12.9287653,
        "lon": 77.6317307
      },
      "tags": {
        "leisure": "park"
      }
    },
    {
      "type": "way",
      "id": 1242263790,
      "center": {
        "lat": 12.9252806,
        "lon": 77.6341216
      },
      "tags": {
        "addr:housenumber": "165",
        "amenity": "fuel",
        "source": "GEPTIS"
      }
    },
    {
      "type": "way",
      "id": 1252339219,
      "center": {
        "lat": 12.9215585,
        "lon": 77.6441635
      },
      "tags": {
        "amenity": "shelter",
        "bench": "yes",
        "building": "yes",
        "shelter_type": "gazebo"
      }
    },
    {
      "type": "way",
      "id": 1258918103,
      "center": {
        "lat": 12.926455,
        "lon": 77.6406997
      },
      "tags": {
        "leisure": "park"
      }
    },
    {
      "type": "way",
      "id": 1258918114,
      "center": {
        "lat": 12.9313194,
        "lon": 77.6372995
      },
      "tags": {
        "access": "private",
        "leisure": "swimming_pool"
      }
    },
    {
      "type": "way",
      "id": 1258918115,
      "center": {
        "lat": 12.9275407,
        "lon": 77.6414555
      },
      "tags": {
        "leisure": "pitch",
        "sport": "cricket"
      }
    },
    {
      "type": "way",
      "id": 1258918118,
      "center": {
        "lat": 12.927683,
        "lon": 77.6411034
      },
      "tags": {
        "access": "customers",
        "coach": "yes",
        "heating": "no",
        "leisure": "swimming_pool",
        "length": "25",
        "lit": "yes",
        "location": "outdoor",
        "name": "Nisha Millet Swimming Academy",
        "swimming_pool": "inground",
        "website": "https://www.nishamillet.com"
      }
    },
    {
      "type": "way",
      "id": 1258918119,
      "center": {
        "lat": 12.9275924,
        "lon": 77.6406172
      },
      "tags": {
        "leisure": "pitch",
        "sport": "soccer"
      }
    },
    {
      "type": "way",
      "id": 1332827917,
      "center": {
        "lat": 12.9334268,
        "lon": 77.6348476
      },
      "tags": {
        "access": "private",
        "leisure": "swimming_pool"
      }
    },
    {
      "type": "way",
      "id": 1344968637,
      "center": {
        "lat": 12.9231836,
        "lon": 77.639084
      },
      "tags": {
        "leisure": "pitch",
        "name": "Roots Football School",
        "sport": "soccer"
      }
    },
    {
      "type": "way",
      "id": 1411938953,
      "center": {
        "lat": 12.93133,
        "lon": 77.637061
      },
      "tags": {
        "leisure": "playground"
      }
    }
  ]
}