{
  "area_name": "Shirdi Sai Nagara",
  "osm_id": 7274156791,
  "osm_type": "node",
  "place_type": "neighbourhood",
  "amenity_count": 126,
  "amenities": [
    {
      "type": "node",
      "id": 1341046577,
      "lat": 13.0645959,
      "lon": 77.6385277,
      "tags": {
        "access": "private",
        "amenity": "parking",
        "name": "Golden Palms Visitors Parking",
        "parking": "surface"
      }
    },
    {
      "type": "node",
      "id": 4114320889,
      "lat": 13.0649791,
      "lon": 77.631672,
      "tags": {
        "addr:housenumber": "59",
        "addr:street": "Thanisandra Main Road",
        "amenity": "childcare",
        "email": "info@orchid-tree.com",
        "name": "Orchid-tree",
        "opening_hours": "Mo-Sa 10:30-17:30",
        "phone": "08022713009",
        "website": "https://www.orchid-tree.com/"
      }
    },
    {
      "type": "node",
      "id": 4973098303,
      "lat": 13.0672422,
      "lon": 77.6361014,
      "tags": {
        "amenity": "atm",
        "name": "Union Bank",
        "name:kn": "ಯೂನಿಯನ್ ಬ್ಯಾಂಕ್",
        "operator": "Union Bank"
      }
    },
    {
      "type": "node",
      "id": 4973098304,
      "lat": 13.067194,
      "lon": 77.634866,
      "tags": {
        "amenity": "atm",
        "name": "Axis Bank",
        "name:kn": "ಆಕ್ಸಿಸ್ ಬ್ಯಾಂಕ್",
        "operator": "Axis Bank"
      }
    },
    {
      "type": "node",
      "id": 4973098305,
      "lat": 13.0667879,
      "lon": 77.6385465,
      "tags": {
        "name": "Garden City Supermarket",
        "shop": "supermarket"
      }
    },
    {
      "type": "node",
      "id": 4973098306,
      "lat": 13.0662857,
      "lon": 77.6405595,
      "tags": {
        "name": "Shreedev Medicals and General Stores",
        "shop": "medical_supply"
      }
    },
    {
      "type": "node",
      "id": 5295004555,
      "lat": 13.0613244,
      "lon": 77.6333591,
      "tags": {
        "name": "Spex World",
        "shop": "optician"
      }
    },
    {
      "type": "node",
      "id": 5295004556,
      "lat": 13.0618055,
      "lon": 77.6331852,
      "tags": {
        "amenity": "bank",
        "name": "Kotak Mahindra Bank",
        "name:kn": "ಕೋಟಕ್ ಮಹಿಂದ್ರ ಬ್ಯಾಂಕ್"
      }
    },
    {
      "type": "node",
      "id": 5295004557,
      "lat": 13.0624812,
      "lon": 77.6333112,
      "tags": {
        "name": "Adishwar Electro World",
        "shop": "appliance"
      }
    },
    {
      "type": "node",
      "id": 5295004574,
      "lat": 13.0674024,
      "lon": 77.635487,
      "tags": {
        "amenity": "atm",
        "operator": "Andhra Bank"
      }
    },
    {
      "type": "node",
      "id": 5295004575,
      "lat": 13.0669064,
      "lon": 77.6379603,
      "tags": {
        "amenity": "atm",
        "operator": "ICICI Bank"
      }
    },
    {
      "type": "node",
      "id": 5295004576,
      "lat": 13.0668204,
      "lon": 77.6392281,
      "tags": {
        "name": "Sri Sri Medicals",
        "shop": "medical_supply"
      }
    },
    {
      "type": "node",
      "id": 5295004577,
      "lat": 13.0667343,
      "lon": 77.6398517,
      "tags": {
        "name": "Foodmax",
        "shop": "supermarket"
      }
    },
    {
      "type": "node",
      "id": 5295004580,
      "lat": 13.065231,
      "lon": 77.6404066,
      "tags": {
        "amenity": "atm",
        "operator": "State Bank of India"
      }
    },
    {
      "type": "node",
      "id": 5295004581,
      "lat": 13.0616922,
      "lon": 77.6419287,
      "tags": {
        "name": "Happy Meat",
        "shop": "butcher"
      }
    },
    {
      "type": "node",
      "id": 5966255496,
      "lat": 13.066957,
      "lon": 77.6361282,
      "tags": {
        "amenity": "pharmacy",
        "name": "Krishna Medicals"
      }
    },
    {
      "type": "node",
      "id": 5966255497,
      "lat": 13.066842,
      "lon": 77.6390545,
      "tags": {
        "amenity": "hospital",
        "name": "Bangalore Prime Hospital"
      }
    },
    {
      "type": "node",
      "id": 5966255498,
      "lat": 13.0665402,
      "lon": 77.6405686,
      "tags": {
        "name": "Sri PK",
        "shop": "greengrocer"
      }
    },
    {
      "type": "node",
      "id": 5966255499,
      "lat": 13.064936,
      "lon": 77.6407188,
      "tags": {
        "name": "Balaji Departmental Stores",
        "shop": "convenience"
      }
    },
    {
      "type": "node",
      "id": 5966255500,
      "lat": 13.0641025,
      "lon": 77.6409978,
      "tags": {
        "name": "Non Veg Bazaar",
        "shop": "butcher"
      }
    },
    {
      "type": "node",
      "id": 5966255510,
      "lat": 13.0610325,
      "lon": 77.6420653,
      "tags": {
        "amenity": "cafe",
        "name": "Chosen Cafe"
      }
    },
    {
      "type": "node",
      "id": 6194256788,
      "lat": 13.0651729,
      "lon": 77.6391946,
      "tags": {
        "access": "private",
        "amenity": "parking_entrance",
        "parking": "underground"
      }
    },
    {
      "type": "node",
      "id": 6857394466,
      "lat": 13.0613342,
      "lon": 77.6420881,
      "tags": {
        "name": "Sree Chowdeshwari Chicken Centre",
        "shop": "butcher"
      }
    },
    {
      "type": "node",
      "id": 6857394467,
      "lat": 13.0612023,
      "lon": 77.642076,
      "tags": {
        "shop": "greengrocer"
      }
    },
    {
      "type": "node",
      "id": 6857394468,
      "lat": 13.0613251,
      "lon": 77.6418467,
      "tags": {
        "amenity": "fast_food",
        "name": "Arunachalam Hot Chips"
      }
    },
    {
      "type": "node",
      "id": 6857394483,
      "lat": 13.0644892,
      "lon": 77.6408288,
      "tags": {
        "amenity": "kindergarten",
        "name": "Little Lions"
      }
    },
    {
      "type": "node",
      "id": 6857394484,
      "lat": 13.0663312,
      "lon": 77.6402789,
      "tags": {
        "amenity": "restaurant",
        "name": "De Grand"
      }
    },
    {
      "type": "node",
      "id": 6857427185,
      "lat": 13.0664618,
      "lon": 77.6394099,
      "tags": {
        "name": "New Gardencity Bakery",
        "shop": "bakery"
      }
    },
    {
      "type": "node",
      "id": 6857427186,
      "lat": 13.0665115,
      "lon": 77.6385623,
      "tags": {
        "name": "Shankara Build Pro",
        "shop": "interior_decoration"
      }
    },
    {
      "type": "node",
      "id": 6857427207,
      "lat": 13.0683038,
      "lon": 77.6279515,
      "tags": {
        "name": "M A P Farm Fresh",
        "shop": "greengrocer"
      }
    },
    {
      "type": "node",
      "id": 6857427209,
      "lat": 13.0681288,
      "lon": 77.6287561,
      "tags": {
        "amenity": "bank",
        "atm": "yes",
        "brand": "ICICI Bank",
        "brand:wikidata": "Q1653258",
        "name": "ICICI Bank",
        "name:kn": "ಐಸಿಐಸಿಐ ಬ್ಯಾಂಕು",
        "short_name": "ICICI"
      }
    },
    {
      "type": "node",
      "id": 7202935818,
      "lat": 13.0631921,
      "lon": 77.6423476,
      "tags": {
        "addr:district": "Bangalore",
        "addr:full": "Bagalur ROAD, Kottanur Post, K. Narayanapura",
        "addr:postcode": "560077",
        "addr:state": "Karnataka",
        "addr:subdistrict": "Bangalore East",
        "amenity": "clinic",
        "description": "Urban Primary Health Centre",
        "healthcare": "centre",
        "name": "K Narayanapura Urban Primary Health Centre",
        "name:kn": "ಗ್ರಾಮಾಂತರ ಪ್ರಾಥಮಿಕ ಆರೋಗ್ಯ ಕೇಂದ್ರ",
        "source": "OpenGovernmentData"
      }
    },
    {
      "type": "node",
      "id": 7206419706,
      "lat": 13.0607666,
      "lon": 77.6415369,
      "tags": {
        "amenity": "waste_basket"
      }
    },
    {
      "type": "node",
      "id": 7206419709,
      "lat": 13.0607032,
      "lon": 77.6413357,
      "tags": {
        "amenity": "community_centre",
        "name": "Clubhouse"
      }
    },
    {
      "type": "node",
      "id": 7206419710,
      "lat": 13.0607241,
      "lon": 77.6412003,
      "tags": {
        "check_date": "2024-02-25",
        "leisure": "fitness_station",
        "name": "Gym"
      }
    },
    {
      "type": "node",
      "id": 7206419722,
      "lat": 13.0602839,
      "lon": 77.6413478,
      "tags": {
        "access": "permissive",
        "amenity": "parking",
        "fee": "no",
        "lit": "yes",
        "parking": "surface"
      }
    },
    {
      "type": "node",
      "id": 7206419727,
      "lat": 13.0607418,
      "lon": 77.6415322,
      "tags": {
        "access": "private",
        "amenity": "parking",
        "parking": "underground"
      }
    },
    {
      "type": "node",
      "id": 7213498681,
      "lat": 13.0701337,
      "lon": 77.6329103,
      "tags": {
        "addr:district": "Bengaluru Urban",
        "addr:full": "Sri Balaji Krupa Layout",
        "addr:postcode": "560077",
        "addr:state": "Karnataka",
        "amenity": "hospital",
        "name": "Sai Hospital",
        "source": "OpenGovernmentData"
      }
    },
    {
      "type": "node",
      "id": 7255943590,
      "lat": 13.0607513,
      "lon": 77.6414216,
      "tags": {
        "amenity": "waste_basket"
      }
    },
    {
      "type": "node",
      "id": 9527967871,
      "lat": 13.0614616,
      "lon": 77.6417635,
      "tags": {
        "amenity": "fast_food",
        "name": "Nandu's"
      }
    },
    {
      "type": "node",
      "id": 9527967872,
      "lat": 13.0608058,
      "lon": 77.6419332,
      "tags": {
        "name": "Hair Saloon",
        "shop": "hairdresser"
      }
    },
    {
      "type": "node",
      "id": 9527967873,
      "lat": 13.0608541,
      "lon": 77.6419379,
      "tags": {
        "amenity": "pharmacy",
        "name": "Aster Labs"
      }
    },
    {
      "type": "node",
      "id": 9940038172,
      "lat": 13.0736769,
      "lon": 77.6338953,
      "tags": {
        "amenity": "fast_food",
        "cuisine": "regional",
        "name": "Indira Canteen"
      }
    },
    {
      "type": "node",
      "id": 10731130855,
      "lat": 13.0655474,
      "lon": 77.6442835,
      "tags": {
        "amenity": "school",
        "name": "Don Bosco High School"
      }
    },
    {
      "type": "node",
      "id": 10731130864,
      "lat": 13.0664266,
      "lon": 77.641042,
      "tags": {
        "amenity": "clinic",
        "name": "Bangalore Baptist Clinic"
      }
    },
    {
      "type": "node",
      "id": 10731130865,
      "lat": 13.0665089,
      "lon": 77.6406839,
      "tags": {
        "name": "Ninjacart",
        "shop": "greengrocer"
      }
    },
    {
      "type": "node",
      "id": 10731130866,
      "lat": 13.0669086,
      "lon": 77.6391806,
      "tags": {
        "amenity": "pharmacy",
        "name": "Balaji Pharma"
      }
    },
    {
      "type": "node",
      "id": 10731130879,
      "lat": 13.067908,
      "lon": 77.6324992,
      "tags": {
        "amenity": "restaurant",
        "cuisine": "regional",
        "name": "New Krishna Sagar"
      }
    },
    {
      "type": "node",
      "id": 10731130883,
      "lat": 13.0678283,
      "lon": 77.6303883,
      "tags": {
        "alt_name": "Kentucky Fried Chicken",
        "alt_name:en": "Kentucky Fried Chicken",
        "alt_name:hi": "केंटुकी फ्राइड चिकन",
        "alt_name:pa": "ਕੈਂਟੁਕੀ ਫ੍ਰਾਈਡ ਚਿਕਨ",
        "alt_name:pnb": "کینٹکی فرائیڈ چکن",
        "alt_name:ur": "کینٹکی فرائیڈ چکن",
        "amenity": "fast_food",
        "brand": "KFC",
        "brand:en": "KFC",
        "brand:hi": "केएफसी",
        "brand:pa": "ਕੇਐਫਸੀ",
        "brand:pnb": "کے ایف سی",
        "brand:ur": "کے ایف سی",
        "brand:wikidata": "Q524757",
        "cuisine": "chicken",
        "name": "KFC",
        "name:en": "KFC",
        "name:hi": "केएफसी",
        "name:pa": "ਕੇਐਫਸੀ",
        "name:pnb": "کے ایف سی",
        "name:ur": "کے ایف سی",
        "takeaway": "yes"
      }
    },
    {
      "type": "node",
      "id": 10731130884,
      "lat": 13.0679158,
      "lon": 77.6299082,
      "tags": {
        "amenity": "restaurant",
        "cuisine": "regional",
        "name": "Pinch of Pepper"
      }
    },
    {
      "type": "node",
      "id": 10731130885,
      "lat": 13.0680752,
      "lon": 77.6290686,
      "tags": {
        "amenity": "bank",
        "atm": "yes",
        "brand": "Axis Bank",
        "brand:wikidata": "Q2003549",
        "name": "Axis Bank",
        "name:kn": "ಆಕ್ಸಿಸ್ ಬ್ಯಾಂಕ್",
        "operator": "Axis Bank"
      }
    },
    {
      "type": "node",
      "id": 10731130886,
      "lat": 13.0680413,
      "lon": 77.6292343,
      "tags": {
        "amenity": "bank",
        "atm": "yes",
        "brand": "State Bank of India",
        "brand:wikidata": "Q1340361",
        "name": "State Bank of India",
        "operator": "State Bank of India",
        "short_name": "SBI"
      }
    },
    {
      "type": "node",
      "id": 10731130887,
      "lat": 13.068829,
      "lon": 77.6275063,
      "tags": {
        "amenity": "restaurant",
        "cuisine": "regional",
        "name": "Suruchi Veg"
      }
    },
    {
      "type": "node",
      "id": 10895959919,
      "lat": 13.0625178,
      "lon": 77.6423885,
      "tags": {
        "access": "yes",
        "amenity": "toilets",
        "fee": "yes",
        "operator": "BBMP"
      }
    },
    {
      "type": "node",
      "id": 11146706695,
      "lat": 13.0604576,
      "lon": 77.6395024,
      "tags": {
        "access": "permissive",
        "amenity": "parking",
        "parking": "surface"
      }
    },
    {
      "type": "node",
      "id": 11917452855,
      "lat": 13.0654577,
      "lon": 77.6404559,
      "tags": {
        "amenity": "place_of_worship",
        "check_date": "2024-05-19",
        "religion": "hindu"
      }
    },
    {
      "type": "node",
      "id": 12105652062,
      "lat": 13.064529,
      "lon": 77.6386347,
      "tags": {
        "access": "private",
        "amenity": "parking_entrance",
        "parking": "underground"
      }
    },
    {
      "type": "node",
      "id": 12157095325,
      "lat": 13.0626984,
      "lon": 77.6391455,
      "tags": {
        "amenity": "parking_entrance"
      }
    },
    {
      "type": "node",
      "id": 12157095329,
      "lat": 13.0621008,
      "lon": 77.6390573,
      "tags": {
        "amenity": "parking_entrance"
      }
    },
    {
      "type": "node",
      "id": 12157095337,
      "lat": 13.0637481,
      "lon": 77.6390309,
      "tags": {
        "amenity": "parking_entrance"
      }
    },
    {
      "type": "node",
      "id": 12157122633,
      "lat": 13.0606512,
      "lon": 77.6401833,
      "tags": {
        "amenity": "parking_entrance"
      }
    },
    {
      "type": "node",
      "id": 12265548492,
      "lat": 13.0747194,
      "lon": 77.633371,
      "tags": {
        "amenity": "police",
        "check_date": "2024-10-19"
      }
    },
    {
      "type": "node",
      "id": 12469425111,
      "lat": 13.067341,
      "lon": 77.6352334,
      "tags": {
        "amenity": "bank",
        "branch": "Thanisandra",
        "fixme": "location",
        "name": "Federal Bank"
      }
    },
    {
      "type": "node",
      "id": 12752583724,
      "lat": 13.0615759,
      "lon": 77.6341447,
      "tags": {
        "amenity": "pub",
        "name": "Finca"
      }
    },
    {
      "type": "node",
      "id": 12752639016,
      "lat": 13.0610762,
      "lon": 77.6420633,
      "tags": {
        "amenity": "fast_food",
        "name": "Lala Place"
      }
    },
    {
      "type": "way",
      "id": 188010805,
      "center": {
        "lat": 13.0742237,
        "lon": 77.6350434
      },
      "tags": {
        "landuse": "recreation_ground",
        "leisure": "recreation_ground",
        "name": "Police Grounds",
        "name:kn": "ಪೊಲೀಸ್ ಮೈದಾನ"
      }
    },
    {
      "type": "way",
      "id": 507886813,
      "center": {
        "lat": 13.0605788,
        "lon": 77.6415218
      },
      "tags": {
        "access": "permissive",
        "amenity": "parking",
        "capacity": "20",
        "fee": "no",
        "lit": "yes",
        "name": "Visitor's Parking",
        "name:kn": "ವಿಮಾನ ನಿಲ್ದಾಣ",
        "parking": "surface"
      }
    },
    {
      "type": "way",
      "id": 525508983,
      "center": {
        "lat": 13.0668492,
        "lon": 77.6394164
      },
      "tags": {
        "amenity": "hospital",
        "emergency": "yes",
        "name": "Shirdi Sai Hospital",
        "name:kn": "ಶಿರಡಿ ಸಾಯಿ ಆಸ್ಪತ್ರೆ"
      }
    },
    {
      "type": "way",
      "id": 545829392,
      "center": {
        "lat": 13.0606235,
        "lon": 77.6409739
      },
      "tags": {
        "access": "permissive",
        "leisure": "swimming_pool"
      }
    },
    {
      "type": "way",
      "id": 545829393,
      "center": {
        "lat": 13.060004,
        "lon": 77.6409402
      },
      "tags": {
        "access": "private",
        "leisure": "playground"
      }
    },
    {
      "type": "way",
      "id": 732317791,
      "center": {
        "lat": 13.0627875,
        "lon": 77.64241
      },
      "tags": {
        "amenity": "school",
        "name": "Government School",
        "name:kn": "ಸರ್ಕಾರಿ ಶಾಲೆ"
      }
    },
    {
      "type": "way",
      "id": 732317794,
      "center": {
        "lat": 13.0681053,
        "lon": 77.6342359
      },
      "tags": {
        "leisure": "park"
      }
    },
    {
      "type": "way",
      "id": 732317795,
      "center": {
        "lat": 13.0682752,
        "lon": 77.6345457
      },
      "tags": {
        "amenity": "school",
        "name": "Rashtrotthana Vidya Kendra",
        "name:kn": "ರಾಷ್ಟ್ರೋತ್ತಾನ ವಿದ್ಯ ಕೇಂದ್ರ"
      }
    },
    {
      "type": "way",
      "id": 771931360,
      "center": {
        "lat": 13.0606895,
        "lon": 77.6416174
      },
      "tags": {
        "leisure": "garden"
      }
    },
    {
      "type": "way",
      "id": 771931363,
      "center": {
        "lat": 13.0607003,
        "lon": 77.6408914
      },
      "tags": {
        "leisure": "garden"
      }
    },
    {
      "type": "way",
      "id": 772836318,
      "center": {
        "lat": 13.061442,
        "lon": 77.6321803
      },
      "tags": {
        "access": "permissive",
        "leisure": "swimming_pool"
      }
    },
    {
      "type": "way",
      "id": 772836320,
      "center": {
        "lat": 13.0607496,
        "lon": 77.6319101
      },
      "tags": {
        "leisure": "playground"
      }
    },
    {
      "type": "way",
      "id": 772836321,
      "center": {
        "lat": 13.0607179,
        "lon": 77.6320442
      },
      "tags": {
        "leisure": "pitch",
        "sport": "tennis"
      }
    },
    {
      "type": "way",
      "id": 781773646,
      "center": {
        "lat": 13.0768817,
        "lon": 77.6356179
      },
      "tags": {
        "leisure": "park"
      }
    },
    {
      "type": "way",
      "id": 781773651,
      "center": {
        "lat": 13.075638,
        "lon": 77.6418635
      },
      "tags": {
        "leisure": "park"
      }
    },
    {
      "type": "way",
      "id": 781773656,
      "center": {
        "lat": 13.075927,
        "lon": 77.6406491
      },
      "tags": {
        "leisure": "park"
      }
    },
    {
      "type": "way",
      "id": 781773657,
      "center": {
        "lat": 13.0761726,
        "lon": 77.6398561
      },
      "tags": {
        "leisure": "park"
      }
    },
    {
      "type": "way",
      "id": 781773665,
      "center": {
        "lat": 13.0762401,
        "lon": 77.6373734
      },
      "tags": {
        "leisure": "park"
      }
    },
    {
      "type": "way",
      "id": 781773681,
      "center": {
        "lat": 13.0755991,
        "lon": 77.6371105
      },
      "tags": {
        "leisure": "park"
      }
    },
    {
      "type": "way",
      "id": 781773682,
      "center": {
        "lat": 13.0757027,
        "lon": 77.6384663
      },
      "tags": {
        "leisure": "pitch",
        "sport": "tennis"
      }
    },
    {
      "type": "way",
      "id": 781773683,
      "center": {
        "lat": 13.0759726,
        "lon": 77.6386776
      },
      "tags": {
        "leisure": "pitch",
        "sport": "tennis"
      }
    },
    {
      "type": "way",
      "id": 781773685,
      "center": {
        "lat": 13.0754557,
        "lon": 77.6377862
      },
      "tags": {
        "access": "private",
        "leisure": "swimming_pool"
      }
    },
    {
      "type": "way",
      "id": 781773686,
      "center": {
        "lat": 13.0754384,
        "lon": 77.6379605
      },
      "tags": {
        "access": "private",
        "leisure": "swimming_pool"
      }
    },
    {
      "type": "way",
      "id": 1034262013,
      "center": {
        "lat": 13.0610735,
        "lon": 77.6398332
      },
      "tags": {
        "leisure": "garden"
      }
    },
    {
      "type": "way",
      "id": 1065053848,
      "center": {
        "lat": 13.0626691,
        "lon": 77.6331478
      },
      "tags": {
        "amenity": "community_centre",
        "name": "Crystal Palace Convention Center"
      }
    },
    {
      "type": "way",
      "id": 1065053851,
      "center": {
        "lat": 13.066902,
        "lon": 77.6342976
      },
      "tags": {
        "amenity": "place_of_worship",
        "name": "Jamia Muhammadiyah Masjid",
        "religion": "muslim"
      }
    },
    {
      "type": "way",
      "id": 1084735142,
      "center": {
        "lat": 13.0753016,
        "lon": 77.6356014
      },
      "tags": {
        "amenity": "police",
        "name": "City Armed Reserve North",
        "short_name": "CAR North"
      }
    },
    {
      "type": "way",
      "id": 1153855767,
      "center": {
        "lat": 13.0651198,
        "lon": 77.6371707
      },
      "tags": {
        "amenity": "college",
        "name": "Bible College and Ministry Training Center"
      }
    },
    {
      "type": "way",
      "id": 1153855768,
      "center": {
        "lat": 13.0677016,
        "lon": 77.630796
      },
      "tags": {
        "amenity": "fuel",
        "brand": "Bharat Petroleum",
        "brand:wikidata": "Q854826",
        "name": "Bharat Petroleum",
        "name:kn": "ಭಾರತ್ ಪೆಟ್ರೋಲಿಯಂ",
        "operator": "Bharat Petroleum"
      }
    },
    {
      "type": "way",
      "id": 1241565588,
      "center": {
        "lat": 13.0618363,
        "lon": 77.6346456
      },
      "tags": {
        "leisure": "pitch",
        "name": "BR Tennis Academy",
        "sport": "tennis"
      }
    },
    {
      "type": "way",
      "id": 1256456757,
      "center": {
        "lat": 13.0691105,
        "lon": 77.6398766
      },
      "tags": {
        "after_school": "yes",
        "alt_name": "Goddard School",
        "amenity": "kindergarten",
        "brand": "The Goddard School",
        "brand:wikidata": "Q5576260",
        "fee": "yes",
        "isced:level": "0",
        "min_age": "6 weeks",
        "name": "The Goddard School",
        "nursery": "yes",
        "preschool": "yes"
      }
    },
    {
      "type": "way",
      "id": 1256456758,
      "center": {
        "lat": 13.0677507,
        "lon": 77.6392036
      },
      "tags": {
        "access": "private",
        "leisure": "pitch",
        "sport": "tennis"
      }
    },
    {
      "type": "way",
      "id": 1265866289,
      "center": {
        "lat": 13.0616978,
        "lon": 77.6423258
      },
      "tags": {
        "amenity": "school",
        "name": "BBMP School"
      }
    },
    {
      "type": "way",
      "id": 1284773636,
      "center": {
        "lat": 13.0665366,
        "lon": 77.6388272
      },
      "tags": {
        "amenity": "fuel",
        "brand": "Indian Oil",
        "brand:wikidata": "Q1289348",
        "check_date": "2024-05-19",
        "name": "Indian Oil"
      }
    },
    {
      "type": "way",
      "id": 1284851967,
      "center": {
        "lat": 13.0759157,
        "lon": 77.6428352
      },
      "tags": {
        "leisure": "park"
      }
    },
    {
      "type": "way",
      "id": 1298832745,
      "center": {
        "lat": 13.060445,
        "lon": 77.6371153
      },
      "tags": {
        "leisure": "playground"
      }
    },
    {
      "type": "way",
      "id": 1298832746,
      "center": {
        "lat": 13.0608103,
        "lon": 77.6359693
      },
      "tags": {
        "access": "private",
        "leisure": "swimming_pool"
      }
    },
    {
      "type": "way",
      "id": 1298832747,
      "center": {
        "lat": 13.0600794,
        "lon": 77.6358747
      },
      "tags": {
        "access": "private",
        "leisure": "pitch",
        "sport": "basketball"
      }
    },
    {
      "type": "way",
      "id": 1298832748,
      "center": {
        "lat": 13.0601011,
        "lon": 77.6356975
      },
      "tags": {
        "access": "private",
        "leisure": "pitch",
        "sport": "tennis"
      }
    },
    {
      "type": "way",
      "id": 1298832777,
      "center": {
        "lat": 13.0598951,
        "lon": 77.633003
      },
      "tags": {
        "amenity": "fuel",
        "check_date": "2024-05-19",
        "name": "Trugaz"
      }
    },
    {
      "type": "way",
      "id": 1298832938,
      "center": {
        "lat": 13.0652469,
        "lon": 77.6342342
      },
      "tags": {
        "access": "permissive",
        "amenity": "parking",
        "parking": "surface"
      }
    },
    {
      "type": "way",
      "id": 1298832941,
      "center": {
        "lat": 13.0660816,
        "lon": 77.6342303
      },
      "tags": {
        "amenity": "school",
        "name": "Samar International Islamic School"
      }
    },
    {
      "type": "way",
      "id": 1298832942,
      "center": {
        "lat": 13.0651864,
        "lon": 77.634146
      },
      "tags": {
        "amenity": "community_centre",
        "community_centre:for": "family",
        "landuse": "commercial",
        "name": "Sri Nandagokula Kalyana Mantapa"
      }
    },
    {
      "type": "way",
      "id": 1307177955,
      "center": {
        "lat": 13.0650573,
        "lon": 77.638798
      },
      "tags": {
        "leisure": "park"
      }
    },
    {
      "type": "way",
      "id": 1307177959,
      "center": {
        "lat": 13.062703,
        "lon": 77.639549
      },
      "tags": {
        "leisure": "pitch",
        "sport": "tennis"
      }
    },
    {
      "type": "way",
      "id": 1307177960,
      "center": {
        "lat": 13.0627143,
        "lon": 77.6394187
      },
      "tags": {
        "leisure": "pitch",
        "sport": "tennis"
      }
    },
    {
      "type": "way",
      "id": 1307177982,
      "center": {
        "lat": 13.0694436,
        "lon": 77.6399672
      },
      "tags": {
        "leisure": "pitch",
        "sport": "basketball"
      }
    },
    {
      "type": "way",
      "id": 1307177983,
      "center": {
        "lat": 13.0694873,
        "lon": 77.6397788
      },
      "tags": {
        "leisure": "pitch",
        "sport": "soccer"
      }
    },
    {
      "type": "way",
      "id": 1307177984,
      "center": {
        "lat": 13.0694563,
        "lon": 77.6401983
      },
      "tags": {
        "access": "private",
        "leisure": "swimming_pool"
      }
    },
    {
      "type": "way",
      "id": 1307177988,
      "center": {
        "lat": 13.0643426,
        "lon": 77.6428798
      },
      "tags": {
        "amenity": "school"
      }
    },
    {
      "type": "way",
      "id": 1307178058,
      "center": {
        "lat": 13.0688544,
        "lon": 77.6349494
      },
      "tags": {
        "leisure": "pitch",
        "sport": "basketball"
      }
    },
    {
      "type": "way",
      "id": 1307178060,
      "center": {
        "lat": 13.0689263,
        "lon": 77.6351699
      },
      "tags": {
        "access": "private",
        "leisure": "swimming_pool"
      }
    },
    {
      "type": "way",
      "id": 1350892205,
      "center": {
        "lat": 13.0628125,
        "lon": 77.6433396
      },
      "tags": {
        "leisure": "sports_centre",
        "name": "Kristu Jayanti College Sports Arena"
      }
    },
    {
      "type": "way",
      "id": 1351243835,
      "center": {
        "lat": 13.0682725,
        "lon": 77.6394331
      },
      "tags": {
        "leisure": "playground"
      }
    },
    {
      "type": "way",
      "id": 1351243836,
      "center": {
        "lat": 13.0676559,
        "lon": 77.6398236
      },
      "tags": {
        "access": "private",
        "leisure": "swimming_pool"
      }
    },
    {
      "type": "way",
      "id": 1351244014,
      "center": {
        "lat": 13.0706327,
        "lon": 77.6363671
      },
      "tags": {
        "amenity": "police",
        "name": "Hennur Traffic Police Station"
      }
    },
    {
      "type": "way",
      "id": 1351244019,
      "center": {
        "lat": 13.0707812,
        "lon": 77.6355525
      },
      "tags": {
        "amenity": "college",
        "name": "Traffic Training and Road Safety Institute"
      }
    },
    {
      "type": "way",
      "id": 1351244079,
      "center": {
        "lat": 13.0714228,
        "lon": 77.6278985
      },
      "tags": {
        "amenity": "school"
      }
    },
    {
      "type": "way",
      "id": 1351244188,
      "center": {
        "lat": 13.0682117,
        "lon": 77.6319413
      },
      "tags": {
        "amenity": "place_of_worship",
        "denomination": "catholic",
        "name": "St. Mary's Church",
        "religion": "christian"
      }
    },
    {
      "type": "way",
      "id": 1351499499,
      "center": {
        "lat": 13.0691425,
        "lon": 77.6396553
      },
      "tags": {
        "leisure": "garden"
      }
    },
    {
      "type": "way",
      "id": 1351499520,
      "center": {
        "lat": 13.0704159,
        "lon": 77.6397096
      },
      "tags": {
        "amenity": "school"
      }
    }
  ]
}