{
  "area_name": "Shivaganga Layout",
  "osm_id": 1717894443,
  "osm_type": "node",
  "place_type": "neighbourhood",
  "amenity_count": 207,
  "amenities": [
    {
      "type": "node",
      "id": 1350237055,
      "lat": 12.9949844,
      "lon": 77.6960255,
      "tags": {
        "addr:city": "Mahadevapura, Bangalore",
        "addr:street": "Whitefield Road",
        "amenity": "bank",
        "atm": "yes",
        "brand": "Corporation Bank",
        "brand:wikidata": "Q2003387",
        "brand:wikipedia": "en:Corporation Bank",
        "name": "Corporation Bank",
        "name:en": "Corporation Bank",
        "name:kn": "ಕಾರ್ಪರೇಷನ್ ಬ್ಯಾಂಕ್",
        "website": "https://corpbank.com/"
      }
    },
    {
      "type": "node",
      "id": 1717889465,
      "lat": 12.9917754,
      "lon": 77.6901171,
      "tags": {
        "amenity": "place_of_worship",
        "name": "Maheshwari Temple",
        "name:kn": "ಮಹೇಶ್ವರಿ ದೇವಸ್ಥಾನ",
        "religion": "hindu"
      }
    },
    {
      "type": "node",
      "id": 1717904864,
      "lat": 12.9914612,
      "lon": 77.6909164,
      "tags": {
        "addr:postcode": "560048",
        "addr:street": "Maheshwari Nagar, Mahadevapura",
        "name": "Happy Land Store",
        "shop": "convenience"
      }
    },
    {
      "type": "node",
      "id": 1717908330,
      "lat": 12.9912991,
      "lon": 77.6878913,
      "tags": {
        "amenity": "clinic",
        "name": "Maruthi Clinic",
        "name:kn": "ಮಾರುತಿ ಚಿಕಿತ್ಸಾಲಯ"
      }
    },
    {
      "type": "node",
      "id": 1717909484,
      "lat": 12.9960796,
      "lon": 77.6933786,
      "tags": {
        "addr:street": "Whitefield Road",
        "amenity": "clinic",
        "name": "Dr.Chandar Clinic"
      }
    },
    {
      "type": "node",
      "id": 1719522409,
      "lat": 12.9918615,
      "lon": 77.6883761,
      "tags": {
        "amenity": "pharmacy",
        "dispensing": "yes"
      }
    },
    {
      "type": "node",
      "id": 1719523296,
      "lat": 12.99131,
      "lon": 77.6878396,
      "tags": {
        "amenity": "pharmacy",
        "dispensing": "yes"
      }
    },
    {
      "type": "node",
      "id": 1719524393,
      "lat": 12.9914105,
      "lon": 77.6910821,
      "tags": {
        "name": "Raghavendra Bakery",
        "shop": "bakery"
      }
    },
    {
      "type": "node",
      "id": 1719526890,
      "lat": 12.9926782,
      "lon": 77.6910662,
      "tags": {
        "name": "Hindiwala Provision Store",
        "shop": "convenience"
      }
    },
    {
      "type": "node",
      "id": 1719526893,
      "lat": 12.9926025,
      "lon": 77.6913531,
      "tags": {
        "name": "Anjeneya Provision Store",
        "shop": "convenience"
      }
    },
    {
      "type": "node",
      "id": 1719527370,
      "lat": 12.9939459,
      "lon": 77.6932252,
      "tags": {
        "name": "Reni Provision Store",
        "shop": "convenience"
      }
    },
    {
      "type": "node",
      "id": 1719528233,
      "lat": 12.989333,
      "lon": 77.6892958,
      "tags": {
        "laundry_service": "yes",
        "name": "White Collar Laundry",
        "self_service": "no",
        "shop": "laundry"
      }
    },
    {
      "type": "node",
      "id": 1719533074,
      "lat": 12.9913846,
      "lon": 77.6911465,
      "tags": {
        "name": "Touch and Glow Hairdresser",
        "shop": "hairdresser"
      }
    },
    {
      "type": "node",
      "id": 1719548828,
      "lat": 12.9916899,
      "lon": 77.6893706,
      "tags": {
        "name": "Small Vegetable Shop",
        "shop": "greengrocer"
      }
    },
    {
      "type": "node",
      "id": 1719549419,
      "lat": 12.9918415,
      "lon": 77.6888153,
      "tags": {
        "name": "Ayyappan Provision Store",
        "shop": "convenience"
      }
    },
    {
      "type": "node",
      "id": 1719556774,
      "lat": 12.9892466,
      "lon": 77.6894861,
      "tags": {
        "name": "Hindustan Garage",
        "shop": "car_repair"
      }
    },
    {
      "type": "node",
      "id": 1719557720,
      "lat": 12.9881698,
      "lon": 77.6897409,
      "tags": {
        "check_date": "2024-03-06",
        "name": "Castrol Bikez Zone",
        "shop": "motorcycle"
      }
    },
    {
      "type": "node",
      "id": 1719558693,
      "lat": 12.991706,
      "lon": 77.6893145,
      "tags": {
        "name": "Bike Repair Shop",
        "shop": "motorcycle"
      }
    },
    {
      "type": "node",
      "id": 1719559161,
      "lat": 12.9914959,
      "lon": 77.6880796,
      "tags": {
        "name": "Bike Repair Shop",
        "shop": "motorcycle"
      }
    },
    {
      "type": "node",
      "id": 2282215762,
      "lat": 12.9916549,
      "lon": 77.6907785,
      "tags": {
        "amenity": "atm",
        "brand": "ICICI Bank",
        "brand:wikidata": "Q1653258",
        "operator": "ICICI Bank",
        "operator:wikidata": "Q1653258",
        "short_name": "ICICI"
      }
    },
    {
      "type": "node",
      "id": 2287631057,
      "lat": 12.9970313,
      "lon": 77.6915828,
      "tags": {
        "amenity": "atm",
        "brand": "IDBI Bank",
        "brand:wikidata": "Q3633485",
        "operator": "IDBI Bank",
        "operator:wikidata": "Q3633485",
        "short_name": "IDBI"
      }
    },
    {
      "type": "node",
      "id": 3512838516,
      "lat": 12.9894591,
      "lon": 77.6892708,
      "tags": {
        "amenity": "parking_entrance",
        "parking": "underground"
      }
    },
    {
      "type": "node",
      "id": 3512838525,
      "lat": 12.989869,
      "lon": 77.6890792,
      "tags": {
        "amenity": "parking_entrance",
        "parking": "underground"
      }
    },
    {
      "type": "node",
      "id": 4172475591,
      "lat": 12.9970034,
      "lon": 77.6911331,
      "tags": {
        "addr:street": "Mahadevapura Main Road",
        "amenity": "pharmacy",
        "name": "Max Pharma"
      }
    },
    {
      "type": "node",
      "id": 4187143292,
      "lat": 12.9969671,
      "lon": 77.691283,
      "tags": {
        "addr:street": "Whitefield Road",
        "name": "Sports Line",
        "shop": "sports"
      }
    },
    {
      "type": "node",
      "id": 4270322789,
      "lat": 12.9966807,
      "lon": 77.6954878,
      "tags": {
        "addr:floor": "3",
        "addr:street": "Whitefield Road",
        "air_conditioning": "yes",
        "amenity": "cinema",
        "brand": "PVR Cinemas",
        "brand:wikidata": "Q3359908",
        "check_date": "2023-02-08",
        "internet_access": "no",
        "level": "3",
        "name": "PVR IMAX",
        "payment:cash": "yes",
        "payment:credit_cards": "yes",
        "payment:debit_cards": "yes",
        "payment:upi": "yes",
        "short_name": "PVR",
        "source": "survey",
        "wheelchair": "yes"
      }
    },
    {
      "type": "node",
      "id": 4350028789,
      "lat": 12.9820149,
      "lon": 77.6927858,
      "tags": {
        "addr:floor": "1",
        "addr:housenumber": "62/2",
        "addr:street": "Outer Ring Road",
        "air_conditioning": "yes",
        "amenity": "restaurant",
        "bar": "no",
        "check_date": "2025-09-03",
        "contact:facebook": "punjabbistroblr",
        "cuisine": "indian",
        "diet:non-vegetarian": "yes",
        "diet:vegetarian": "yes",
        "highchair": "no",
        "indoor_seating": "yes",
        "level": "1",
        "name": "Punjab Bistro",
        "opening_hours": "Mo-Su 12:00-23:30",
        "operator": "TSS Hospitality Services",
        "outdoor_seating": "no",
        "payment:credit_cards": "yes",
        "payment:debit_cards": "yes",
        "phone": "+91 72049 11183; +91 80 4546 1987",
        "ref:vatin": "29AATFT4757G1ZE",
        "reservation": "yes",
        "smoking": "no",
        "source": "survey",
        "takeaway": "yes",
        "toilets": "yes",
        "toilets:wheelchair": "no",
        "wheelchair": "no"
      }
    },
    {
      "type": "node",
      "id": 4445551689,
      "lat": 12.991518,
      "lon": 77.6838598,
      "tags": {
        "addr:city": "Bangalore",
        "addr:housenumber": "#16/2",
        "addr:postcode": "560048",
        "addr:street": "7th Cross Road, B Narayanapura, Mahadevapura",
        "amenity": "pharmacy",
        "name": "Lahari Medicals",
        "phone": "080 2560 5559"
      }
    },
    {
      "type": "node",
      "id": 4445573505,
      "lat": 12.9950766,
      "lon": 77.6967056,
      "tags": {
        "addr:city": "Bangalore",
        "addr:housenumber": "# 90A",
        "addr:postcode": "560048",
        "addr:street": "Whitefield Road, R.H.B. colony, Mahadevapura",
        "amenity": "pharmacy",
        "name": "Mass pharma",
        "phone": "+9197408 10151"
      }
    },
    {
      "type": "node",
      "id": 4445660067,
      "lat": 12.9891818,
      "lon": 77.689783,
      "tags": {
        "addr:city": "Bangalore",
        "addr:housenumber": "#56/2",
        "addr:postcode": "560048",
        "addr:street": "ORR Service Road, Shiva Ganga Layout, B Narayanapura, Mahadevapura",
        "amenity": "hospital",
        "name": "Bright Children's Clinic",
        "phone": "+9178994 22511"
      }
    },
    {
      "type": "node",
      "id": 4447099294,
      "lat": 12.9820804,
      "lon": 77.6926306,
      "tags": {
        "addr:city": "Bangalore",
        "addr:postcode": "560037",
        "addr:street": "Opposite EMC2, Outer Ring Road, Doddanekundi, Mahadevpura",
        "air_conditioning": "no",
        "amenity": "restaurant",
        "bar": "yes",
        "check_date": "2025-02-03",
        "diet:non-vegetarian": "yes",
        "diet:vegetarian": "yes",
        "highchair": "no",
        "indoor_seating": "yes",
        "internet_access": "no",
        "level": "4",
        "name": "Gilly's resto-bar",
        "outdoor_seating": "yes",
        "payment:credit_cards": "yes",
        "payment:debit_cards": "yes",
        "payment:mastercard": "yes",
        "payment:upi": "yes",
        "payment:visa": "yes",
        "smoking": "separated",
        "source": "survey",
        "wheelchair": "no"
      }
    },
    {
      "type": "node",
      "id": 4447487501,
      "lat": 12.9960736,
      "lon": 77.6964135,
      "tags": {
        "addr:city": "Bengaluru",
        "addr:housename": "Phoenix Market City",
        "addr:postcode": "560048",
        "addr:street": "Whitefield Road",
        "addr:suburb": "Mahadevpura",
        "level": "-1",
        "name": "GlobalDesi",
        "phone": "+918067266048",
        "shop": "clothes",
        "website": "https://www.globaldesi.in/"
      }
    },
    {
      "type": "node",
      "id": 4487965894,
      "lat": 12.9842093,
      "lon": 77.6891629,
      "tags": {
        "addr:city": "Bangalore",
        "addr:housenumber": "Shop No.5&6/310",
        "addr:postcode": "560048",
        "addr:street": "Outer Ring Road,Complex,, 6, Service Rd, Puttappa layout, Mahadevapura,",
        "name": "Sports Line",
        "opening_hours": "10:00-21:00",
        "phone": "085535 22268",
        "shop": "sports",
        "website": "https://www.sportslineindia.com/"
      }
    },
    {
      "type": "node",
      "id": 4569766791,
      "lat": 12.9968569,
      "lon": 77.6913541,
      "tags": {
        "name": "Airtel Express",
        "name:en": "Airtel Express",
        "shop": "mobile_phone"
      }
    },
    {
      "type": "node",
      "id": 4635868597,
      "lat": 12.9868385,
      "lon": 77.6887546,
      "tags": {
        "name": "Annadata Farms Market",
        "shop": "supermarket"
      }
    },
    {
      "type": "node",
      "id": 4782423379,
      "lat": 12.9876335,
      "lon": 77.6851595,
      "tags": {
        "addr:city": "Bengaluru",
        "addr:housenumber": "#33",
        "addr:postcode": "560048",
        "addr:street": "DRDO Phase 2 Main Road",
        "amenity": "hospital",
        "emergency": "yes",
        "name": "Dr. Roshni's Tooth Planet Dental Clinic",
        "operator": "Dr. Roshni Maurya"
      }
    },
    {
      "type": "node",
      "id": 6508995414,
      "lat": 12.9967575,
      "lon": 77.6948135,
      "tags": {
        "brand": "Royal Enfield;Ducati;KTM;Harley Davidson",
        "name": "Wicked Ride Whitefield",
        "operator": "Wicked Ride",
        "shop": "motorcycle",
        "website": "https://www.wickedride.com/"
      }
    },
    {
      "type": "node",
      "id": 7178597794,
      "lat": 12.9964417,
      "lon": 77.695743,
      "tags": {
        "addr:city": "Bengaluru",
        "addr:country": "IN",
        "addr:hamlet": "Mahadevapura",
        "addr:housenumber": "VR Mall",
        "addr:postcode": "560048",
        "addr:street": "Whitefield Road",
        "amenity": "cafe",
        "name": "Food Hall",
        "website": "https://www.foodhallonline.com/"
      }
    },
    {
      "type": "node",
      "id": 7180744030,
      "lat": 12.9859422,
      "lon": 77.6943962,
      "tags": {
        "amenity": "fast_food",
        "brand": "Domino's",
        "brand:ks": "ڈومینوز",
        "brand:pa": "ਡੋਮੀਨੋਜ਼",
        "brand:ur": "ڈومینوز",
        "brand:wikidata": "Q839466",
        "brand:wikipedia": "en:Domino's Pizza",
        "cuisine": "pizza",
        "name": "Domino's",
        "name:kn": "ಡಾಮಿನೋಸ್",
        "name:ks": "ڈومینوز",
        "name:pa": "ਡੋਮੀਨੋਜ਼",
        "name:ur": "ڈومینوز",
        "takeaway": "yes"
      }
    },
    {
      "type": "node",
      "id": 7180744031,
      "lat": 12.9859631,
      "lon": 77.6943305,
      "tags": {
        "amenity": "fast_food",
        "brand": "Subway",
        "brand:pa": "ਸਬਵੇਅ",
        "brand:ur": "سب وے",
        "brand:wikidata": "Q244457",
        "brand:wikipedia": "en:Subway (restaurant)",
        "cuisine": "sandwich",
        "name": "Subway",
        "name:pa": "ਸਬਵੇਅ",
        "name:ur": "سب وے",
        "takeaway": "yes"
      }
    },
    {
      "type": "node",
      "id": 7180744036,
      "lat": 12.9859657,
      "lon": 77.69436,
      "tags": {
        "amenity": "restaurant",
        "brand": "California Burrito",
        "brand:wikidata": "Q124374596",
        "cuisine": "mexican",
        "name": "California Burrito"
      }
    },
    {
      "type": "node",
      "id": 7572131861,
      "lat": 12.9893915,
      "lon": 77.6893075,
      "tags": {
        "addr:district": "Bengaluru Urban",
        "addr:full": "Narayanapura, Mahadevapura, Bengaluru",
        "addr:postcode": "560048",
        "addr:state": "Karnataka",
        "amenity": "clinic",
        "name": "Bright Children's Clinic",
        "source": "Local Knowledge"
      }
    },
    {
      "type": "node",
      "id": 7572131874,
      "lat": 12.992777,
      "lon": 77.694674,
      "tags": {
        "addr:district": "Bengaluru Urban",
        "addr:full": "Lakshmi Sagar Layout, RHB Colony, Mahadevapura, Bengaluru, Karnatak",
        "addr:postcode": "560048",
        "addr:state": "Karnataka",
        "amenity": "clinic",
        "name": "Lyfas Digital Health Clinic",
        "source": "Local Knowledge"
      }
    },
    {
      "type": "node",
      "id": 7572131876,
      "lat": 12.9912698,
      "lon": 77.6877454,
      "tags": {
        "addr:district": "Bengaluru Urban",
        "addr:full": "Outer Ring Road, Bengaluru",
        "addr:postcode": "560048",
        "addr:state": "Karnataka",
        "amenity": "dentist",
        "name": "Total Dental Care",
        "source": "Local Knowledge"
      }
    },
    {
      "type": "node",
      "id": 7572131914,
      "lat": 12.9887324,
      "lon": 77.6845282,
      "tags": {
        "addr:district": "Bengaluru Urban",
        "addr:full": "Chinappa Layout, Mahadevapura, Bengaluru",
        "addr:postcode": "560093",
        "addr:state": "Karnataka",
        "amenity": "clinic",
        "name": "Sreenivasa Poly Clinic",
        "source": "Local Knowledge"
      }
    },
    {
      "type": "node",
      "id": 7572131919,
      "lat": 12.9915097,
      "lon": 77.6835962,
      "tags": {
        "addr:district": "Bengaluru Urban",
        "addr:full": "Anjappa Layout, Mahadevapura, Bengaluru",
        "addr:postcode": "560048",
        "addr:state": "Karnataka",
        "amenity": "clinic",
        "name": "IMS Clinic",
        "source": "Local Knowledge"
      }
    },
    {
      "type": "node",
      "id": 7572131932,
      "lat": 12.991679,
      "lon": 77.683904,
      "tags": {
        "addr:district": "Bengaluru Urban",
        "addr:full": "Mahadevapura, Bengaluru",
        "addr:postcode": "560048",
        "addr:state": "Karnataka",
        "amenity": "clinic",
        "name": "Venkateshwara Clinic",
        "source": "Local Knowledge"
      }
    },
    {
      "type": "node",
      "id": 9291015214,
      "lat": 12.9820309,
      "lon": 77.6927316,
      "tags": {
        "air_conditioning": "yes",
        "amenity": "restaurant",
        "check_date": "2025-06-13",
        "check_date:smoking": "2023-02-27",
        "cuisine": "indian;rajasthani",
        "diet:non-vegetarian": "yes",
        "diet:vegetarian": "yes",
        "indoor_seating": "yes",
        "level": "2",
        "name": "Chulha Chauki da Dhabha",
        "outdoor_seating": "no",
        "payment:credit_cards": "yes",
        "payment:debit_cards": "yes",
        "smoking": "no",
        "wheelchair": "no"
      }
    },
    {
      "type": "node",
      "id": 9291015215,
      "lat": 12.9820909,
      "lon": 77.6927764,
      "tags": {
        "brand": "cult.fit",
        "brand:wikidata": "Q121289250",
        "check_date": "2025-06-14",
        "cuisine": "international;indian",
        "diet:non-vegetarian": "yes",
        "diet:vegetarian": "yes",
        "leisure": "fitness_centre",
        "level": "3",
        "name": "cult.fit",
        "wheelchair": "no"
      }
    },
    {
      "type": "node",
      "id": 9718769446,
      "lat": 12.9965754,
      "lon": 77.6853456,
      "tags": {
        "addr:city": "bangalore",
        "addr:postcode": "560016",
        "addr:street": "1st Main Road",
        "amenity": "place_of_worship",
        "name": "Devi Temple",
        "name:kn": "ದೇವಿ ದೇವಸ್ಖಾನ",
        "religion": "hindu",
        "source": "local knowledge"
      }
    },
    {
      "type": "node",
      "id": 10079035456,
      "lat": 12.9984502,
      "lon": 77.6889225,
      "tags": {
        "name": "Cycle World",
        "shop": "bicycle"
      }
    },
    {
      "type": "node",
      "id": 10617518505,
      "lat": 12.9962283,
      "lon": 77.6953573,
      "tags": {
        "brand": "Crossword Bookstores",
        "brand:wikidata": "Q5188909",
        "check_date": "2023-12-27",
        "level": "2",
        "name": "Crossword Bookstores",
        "payment:cash": "yes",
        "payment:credit_cards": "yes",
        "payment:debit_cards": "yes",
        "payment:upi": "yes",
        "shop": "books",
        "source": "survey",
        "toilets": "no",
        "wheelchair": "yes"
      }
    },
    {
      "type": "node",
      "id": 10617518506,
      "lat": 12.9963713,
      "lon": 77.6951825,
      "tags": {
        "addr:floor": "UG",
        "brand": "H&M",
        "brand:wikidata": "Q188326",
        "check_date": "2023-12-27",
        "internet_access": "no",
        "level": "0;1",
        "name": "H&M",
        "payment:credit_cards": "yes",
        "payment:debit_cards": "yes",
        "shop": "clothes",
        "source": "survey",
        "wheelchair": "yes"
      }
    },
    {
      "type": "node",
      "id": 10792878638,
      "lat": 12.994845,
      "lon": 77.6961343,
      "tags": {
        "amenity": "place_of_worship",
        "check_date": "2023-04-05",
        "religion": "hindu",
        "source": "survey"
      }
    },
    {
      "type": "node",
      "id": 10792878639,
      "lat": 12.9950889,
      "lon": 77.6961786,
      "tags": {
        "addr:floor": "1",
        "check_date": "2023-04-05",
        "email": "watchesandclocks16@gmail.com",
        "level": "1",
        "name": "Watches & Clocks",
        "phone": "+91 72044 22772; +91 95384 78546",
        "shop": "watches",
        "source": "survey",
        "wheelchair": "no"
      }
    },
    {
      "type": "node",
      "id": 10792878640,
      "lat": 12.9946616,
      "lon": 77.6961287,
      "tags": {
        "amenity": "clinic",
        "check_date": "2023-04-05",
        "healthcare": "clinic",
        "name": "Harsha Poly Clinic & Maternity Home",
        "phone": "+91 93428 63309",
        "source": "survey"
      }
    },
    {
      "type": "node",
      "id": 10792878641,
      "lat": 12.9964034,
      "lon": 77.6954857,
      "tags": {
        "addr:floor": "1",
        "air_conditioning": "yes",
        "brand": "Zudio",
        "brand:wikidata": "Q123375926",
        "check_date": "2023-12-27",
        "clothes": "women;men;children",
        "level": "1",
        "name": "Zudio",
        "payment:credit_cards": "yes",
        "payment:debit_cards": "yes",
        "shop": "clothes",
        "source": "survey"
      }
    },
    {
      "type": "node",
      "id": 10792878650,
      "lat": 12.9960219,
      "lon": 77.6954466,
      "tags": {
        "addr:floor": "UG",
        "brand": "Superdry",
        "brand:wikidata": "Q1684445",
        "check_date": "2023-12-27",
        "level": "0",
        "name": "Superdry",
        "payment:credit_cards": "yes",
        "payment:debit_cards": "yes",
        "shop": "clothes"
      }
    },
    {
      "type": "node",
      "id": 10792878651,
      "lat": 12.9960944,
      "lon": 77.6953909,
      "tags": {
        "addr:floor": "UG",
        "amenity": "cafe",
        "brand": "Blue Tokai Coffee Roasters",
        "check_date": "2025-04-10",
        "check_date:opening_hours": "2025-04-10",
        "cuisine": "coffee_shop",
        "delivery": "yes",
        "level": "0",
        "name": "Blue Tokai Coffee Roasters",
        "opening_hours": "Mo-Sa 08:00-23:00",
        "outdoor_seating": "yes",
        "payment:credit_cards": "yes",
        "payment:debit_cards": "yes",
        "takeaway": "yes"
      }
    },
    {
      "type": "node",
      "id": 10892608897,
      "lat": 12.9886368,
      "lon": 77.6842948,
      "tags": {
        "addr:city": "Bengaluru",
        "addr:postcode": "560048",
        "addr:street": "DRDO Phase 2 Main Road",
        "amenity": "pharmacy",
        "brand": "MedPlus",
        "brand:wikidata": "Q65684234",
        "drive_through": "no",
        "healthcare": "pharmacy",
        "name": "MedPlus",
        "operator": "MedPlus"
      }
    },
    {
      "type": "node",
      "id": 10892622555,
      "lat": 12.9874353,
      "lon": 77.6894176,
      "tags": {
        "addr:city": "Bangalore",
        "addr:postcode": "560048",
        "level": "2",
        "name": "Lakme Salon",
        "operator": "Q6479731",
        "payment:cash": "yes",
        "payment:credit_cards": "yes",
        "payment:debit_cards": "yes",
        "payment:upi": "yes",
        "shop": "hairdresser"
      }
    },
    {
      "type": "node",
      "id": 10892672970,
      "lat": 12.9874393,
      "lon": 77.6893768,
      "tags": {
        "amenity": "clinic",
        "healthcare": "clinic",
        "name": "Apollo Clinic"
      }
    },
    {
      "type": "node",
      "id": 11014674468,
      "lat": 12.9857353,
      "lon": 77.6941481,
      "tags": {
        "amenity": "fast_food",
        "check_date": "2023-06-30",
        "cuisine": "pizza",
        "name": "Onesta",
        "source": "survey"
      }
    },
    {
      "type": "node",
      "id": 11014674469,
      "lat": 12.9856643,
      "lon": 77.692824,
      "tags": {
        "access": "yes",
        "fitness_station": "fitness_station",
        "leisure": "fitness_station",
        "sport": "fitness"
      }
    },
    {
      "type": "node",
      "id": 11014674470,
      "lat": 12.9858369,
      "lon": 77.6939845,
      "tags": {
        "amenity": "cafe",
        "bar": "no",
        "brand": "Chaayos",
        "brand:wikidata": "Q117235235",
        "check_date": "2023-06-30",
        "cuisine": "tea",
        "name": "Chaayos",
        "payment:mastercard": "yes",
        "payment:visa": "yes",
        "source": "survey",
        "takeaway": "yes",
        "toilets": "no"
      }
    },
    {
      "type": "node",
      "id": 11014674473,
      "lat": 12.9885512,
      "lon": 77.6937025,
      "tags": {
        "access": "yes",
        "amenity": "toilets",
        "changing_table": "no",
        "check_date": "2023-06-30",
        "fee": "no",
        "source": "survey",
        "toilets:handwashing": "yes",
        "toilets:position": "squat"
      }
    },
    {
      "type": "node",
      "id": 11093820777,
      "lat": 12.9852347,
      "lon": 77.693492,
      "tags": {
        "amenity": "bench",
        "backrest": "yes",
        "material": "stone"
      }
    },
    {
      "type": "node",
      "id": 11093820778,
      "lat": 12.9886408,
      "lon": 77.691471,
      "tags": {
        "amenity": "bench",
        "backrest": "yes",
        "material": "stone"
      }
    },
    {
      "type": "node",
      "id": 11093820779,
      "lat": 12.9886659,
      "lon": 77.6914847,
      "tags": {
        "amenity": "bench",
        "backrest": "yes",
        "material": "stone"
      }
    },
    {
      "type": "node",
      "id": 11093820780,
      "lat": 12.98913,
      "lon": 77.6918109,
      "tags": {
        "amenity": "bench",
        "backrest": "yes",
        "material": "stone"
      }
    },
    {
      "type": "node",
      "id": 11093820781,
      "lat": 12.9891489,
      "lon": 77.6918225,
      "tags": {
        "amenity": "bench",
        "backrest": "yes",
        "material": "stone"
      }
    },
    {
      "type": "node",
      "id": 11093820782,
      "lat": 12.9891564,
      "lon": 77.6918748,
      "tags": {
        "amenity": "bench",
        "backrest": "yes",
        "material": "stone"
      }
    },
    {
      "type": "node",
      "id": 11093820783,
      "lat": 12.9891575,
      "lon": 77.6918556,
      "tags": {
        "amenity": "bench",
        "backrest": "yes",
        "material": "stone"
      }
    },
    {
      "type": "node",
      "id": 11093820784,
      "lat": 12.9891457,
      "lon": 77.6919022,
      "tags": {
        "amenity": "bench",
        "backrest": "yes",
        "material": "stone"
      }
    },
    {
      "type": "node",
      "id": 11093820785,
      "lat": 12.9891387,
      "lon": 77.6919192,
      "tags": {
        "amenity": "bench",
        "backrest": "yes",
        "material": "stone"
      }
    },
    {
      "type": "node",
      "id": 11093820786,
      "lat": 12.9887811,
      "lon": 77.6930315,
      "tags": {
        "amenity": "bench",
        "backrest": "yes",
        "material": "stone"
      }
    },
    {
      "type": "node",
      "id": 11093820787,
      "lat": 12.9887692,
      "lon": 77.6930599,
      "tags": {
        "amenity": "bench",
        "backrest": "yes",
        "material": "stone"
      }
    },
    {
      "type": "node",
      "id": 11093820788,
      "lat": 12.9887322,
      "lon": 77.6931775,
      "tags": {
        "amenity": "bench",
        "backrest": "yes",
        "material": "stone"
      }
    },
    {
      "type": "node",
      "id": 11093820789,
      "lat": 12.9886824,
      "lon": 77.6933161,
      "tags": {
        "amenity": "bench",
        "backrest": "yes",
        "material": "stone"
      }
    },
    {
      "type": "node",
      "id": 11093820790,
      "lat": 12.9884797,
      "lon": 77.6936996,
      "tags": {
        "amenity": "bench",
        "backrest": "yes",
        "material": "stone"
      }
    },
    {
      "type": "node",
      "id": 11093820791,
      "lat": 12.9852176,
      "lon": 77.6935246,
      "tags": {
        "amenity": "bench",
        "backrest": "yes",
        "material": "stone"
      }
    },
    {
      "type": "node",
      "id": 11093820792,
      "lat": 12.9864201,
      "lon": 77.691899,
      "tags": {
        "amenity": "bench",
        "backrest": "yes",
        "material": "stone"
      }
    },
    {
      "type": "node",
      "id": 11093820793,
      "lat": 12.9853149,
      "lon": 77.6933671,
      "tags": {
        "amenity": "bench",
        "backrest": "yes",
        "material": "stone"
      }
    },
    {
      "type": "node",
      "id": 11093820794,
      "lat": 12.9853365,
      "lon": 77.6933241,
      "tags": {
        "amenity": "bench",
        "backrest": "yes",
        "material": "stone"
      }
    },
    {
      "type": "node",
      "id": 11093820795,
      "lat": 12.9852551,
      "lon": 77.6934565,
      "tags": {
        "amenity": "bench",
        "backrest": "yes",
        "material": "stone"
      }
    },
    {
      "type": "node",
      "id": 11093820796,
      "lat": 12.9854461,
      "lon": 77.693154,
      "tags": {
        "amenity": "bench",
        "backrest": "yes",
        "material": "stone"
      }
    },
    {
      "type": "node",
      "id": 11093820797,
      "lat": 12.985543,
      "lon": 77.6930621,
      "tags": {
        "amenity": "bench",
        "backrest": "yes",
        "material": "stone"
      }
    },
    {
      "type": "node",
      "id": 11093820798,
      "lat": 12.9853665,
      "lon": 77.6932769,
      "tags": {
        "amenity": "bench",
        "backrest": "yes",
        "material": "stone"
      }
    },
    {
      "type": "node",
      "id": 11093820799,
      "lat": 12.9854106,
      "lon": 77.6932022,
      "tags": {
        "amenity": "bench",
        "backrest": "yes",
        "material": "stone"
      }
    },
    {
      "type": "node",
      "id": 11093820800,
      "lat": 12.9856178,
      "lon": 77.6930085,
      "tags": {
        "amenity": "bench",
        "backrest": "yes",
        "material": "stone"
      }
    },
    {
      "type": "node",
      "id": 11093820801,
      "lat": 12.9856871,
      "lon": 77.6929471,
      "tags": {
        "amenity": "bench",
        "backrest": "yes",
        "material": "stone"
      }
    },
    {
      "type": "node",
      "id": 11093820802,
      "lat": 12.9858388,
      "lon": 77.6928537,
      "tags": {
        "amenity": "bench",
        "backrest": "yes",
        "material": "stone"
      }
    },
    {
      "type": "node",
      "id": 11093820803,
      "lat": 12.9859281,
      "lon": 77.692779,
      "tags": {
        "amenity": "bench",
        "backrest": "yes",
        "material": "stone"
      }
    },
    {
      "type": "node",
      "id": 11093820804,
      "lat": 12.9859698,
      "lon": 77.6927518,
      "tags": {
        "amenity": "bench",
        "backrest": "yes",
        "material": "stone"
      }
    },
    {
      "type": "node",
      "id": 11093835305,
      "lat": 12.9860205,
      "lon": 77.6927066,
      "tags": {
        "amenity": "bench",
        "backrest": "yes",
        "material": "stone"
      }
    },
    {
      "type": "node",
      "id": 11093835306,
      "lat": 12.9863868,
      "lon": 77.691995,
      "tags": {
        "amenity": "bench",
        "backrest": "yes",
        "material": "stone"
      }
    },
    {
      "type": "node",
      "id": 11093835307,
      "lat": 12.9861428,
      "lon": 77.6924964,
      "tags": {
        "amenity": "bench",
        "backrest": "yes",
        "material": "stone"
      }
    },
    {
      "type": "node",
      "id": 11093835308,
      "lat": 12.9862352,
      "lon": 77.6922771,
      "tags": {
        "amenity": "bench",
        "backrest": "yes",
        "material": "stone"
      }
    },
    {
      "type": "node",
      "id": 11093835309,
      "lat": 12.9862889,
      "lon": 77.6921884,
      "tags": {
        "amenity": "bench",
        "backrest": "yes",
        "material": "stone"
      }
    },
    {
      "type": "node",
      "id": 11093835310,
      "lat": 12.9863308,
      "lon": 77.6921071,
      "tags": {
        "amenity": "bench",
        "backrest": "yes",
        "material": "stone"
      }
    },
    {
      "type": "node",
      "id": 11093835311,
      "lat": 12.9865123,
      "lon": 77.6916416,
      "tags": {
        "amenity": "bench",
        "backrest": "yes",
        "material": "stone"
      }
    },
    {
      "type": "node",
      "id": 11093835312,
      "lat": 12.986535,
      "lon": 77.691592,
      "tags": {
        "amenity": "bench",
        "backrest": "yes",
        "material": "stone"
      }
    },
    {
      "type": "node",
      "id": 11093835313,
      "lat": 12.9865571,
      "lon": 77.6915187,
      "tags": {
        "amenity": "bench",
        "backrest": "yes",
        "material": "stone"
      }
    },
    {
      "type": "node",
      "id": 11093835314,
      "lat": 12.9865794,
      "lon": 77.6910869,
      "tags": {
        "amenity": "bench",
        "backrest": "yes",
        "material": "stone"
      }
    },
    {
      "type": "node",
      "id": 11093835315,
      "lat": 12.9865402,
      "lon": 77.6908461,
      "tags": {
        "amenity": "bench",
        "backrest": "yes",
        "material": "stone"
      }
    },
    {
      "type": "node",
      "id": 11093835316,
      "lat": 12.9869155,
      "lon": 77.6906238,
      "tags": {
        "amenity": "bench",
        "backrest": "yes",
        "material": "stone"
      }
    },
    {
      "type": "node",
      "id": 11093835317,
      "lat": 12.9867857,
      "lon": 77.6905629,
      "tags": {
        "amenity": "bench",
        "backrest": "yes",
        "material": "stone"
      }
    },
    {
      "type": "node",
      "id": 11093835318,
      "lat": 12.9865752,
      "lon": 77.6912728,
      "tags": {
        "amenity": "bench",
        "backrest": "yes",
        "material": "stone"
      }
    },
    {
      "type": "node",
      "id": 11093835319,
      "lat": 12.9864656,
      "lon": 77.6917735,
      "tags": {
        "amenity": "bench",
        "backrest": "yes",
        "material": "stone"
      }
    },
    {
      "type": "node",
      "id": 11093835320,
      "lat": 12.986107,
      "lon": 77.6925669,
      "tags": {
        "amenity": "bench",
        "backrest": "yes",
        "material": "stone"
      }
    },
    {
      "type": "node",
      "id": 11411440163,
      "lat": 12.9969081,
      "lon": 77.6892266,
      "tags": {
        "access": "private",
        "amenity": "parking_entrance",
        "parking": "underground"
      }
    },
    {
      "type": "node",
      "id": 11488322160,
      "lat": 12.9963038,
      "lon": 77.6947333,
      "tags": {
        "amenity": "restaurant",
        "check_date": "2024-01-04",
        "name": "Hyderabad Biryani",
        "name:kn": "ಹೈದರಾಬಾದ್ ಬಿರಿಯಾನಿ"
      }
    },
    {
      "type": "node",
      "id": 11507591777,
      "lat": 12.9827775,
      "lon": 77.6944674,
      "tags": {
        "access": "private",
        "amenity": "parking_entrance",
        "parking": "underground"
      }
    },
    {
      "type": "node",
      "id": 11696225386,
      "lat": 12.9886788,
      "lon": 77.6895091,
      "tags": {
        "amenity": "bank",
        "brand": "RBL Bank",
        "brand:wikidata": "Q13120398",
        "check_date": "2024-03-06",
        "drive_through": "no",
        "name": "RBL Bank",
        "opening_hours": "Mo-Fr 09:30-18:30; Sa 09:30-16:30; Su,Sa[2,4],PH off",
        "source": "survey",
        "wheelchair": "no"
      }
    },
    {
      "type": "node",
      "id": 11696225387,
      "lat": 12.988668,
      "lon": 77.6895699,
      "tags": {
        "addr:floor": "1",
        "brand": "Toni & Guy",
        "brand:wikidata": "Q324784",
        "check_date": "2024-03-06",
        "level": "1",
        "name": "Toni & Guy",
        "shop": "hairdresser"
      }
    },
    {
      "type": "node",
      "id": 11696225388,
      "lat": 12.98872,
      "lon": 77.689524,
      "tags": {
        "amenity": "restaurant",
        "check_date": "2024-03-06",
        "cuisine": "indian",
        "indoor_seating": "yes",
        "name": "Tashann Multicuisine Restaurant",
        "outdoor_seating": "no"
      }
    },
    {
      "type": "node",
      "id": 11696225389,
      "lat": 12.9886288,
      "lon": 77.6895514,
      "tags": {
        "amenity": "ice_cream",
        "check_date": "2024-03-06",
        "drive_through": "no",
        "indoor_seating": "yes",
        "internet_access": "no",
        "name": "Ibaco",
        "opening_hours": "11:00-23:00",
        "outdoor_seating": "no",
        "payment:cash": "yes",
        "payment:credit_cards": "yes",
        "payment:debit_cards": "yes",
        "source": "survey",
        "takeaway": "yes",
        "wheelchair": "no"
      }
    },
    {
      "type": "node",
      "id": 11696225390,
      "lat": 12.9887167,
      "lon": 77.6894777,
      "tags": {
        "brand": "Kanti Sweets",
        "check_date": "2024-03-06",
        "internet_access": "no",
        "name": "Kanti Sweets",
        "payment:cash": "yes",
        "payment:credit_cards": "yes",
        "payment:debit_cards": "yes",
        "shop": "confectionery",
        "source": "survey",
        "wheelchair": "no"
      }
    },
    {
      "type": "node",
      "id": 11773801015,
      "lat": 12.9947071,
      "lon": 77.689124,
      "tags": {
        "access": "private",
        "amenity": "parking_entrance",
        "parking": "underground"
      }
    },
    {
      "type": "node",
      "id": 11999510490,
      "lat": 12.9877921,
      "lon": 77.6972078,
      "tags": {
        "access": "yes",
        "amenity": "bicycle_parking",
        "bicycle_parking": "stands",
        "capacity": "6",
        "covered": "no",
        "fee": "no",
        "operator:type": "public"
      }
    },
    {
      "type": "node",
      "id": 11999555405,
      "lat": 12.9829965,
      "lon": 77.692858,
      "tags": {
        "access": "yes",
        "amenity": "bicycle_parking",
        "bicycle_parking": "stands",
        "capacity": "4",
        "covered": "no",
        "fee": "no",
        "operator:type": "public"
      }
    },
    {
      "type": "node",
      "id": 12174614891,
      "lat": 12.9964826,
      "lon": 77.6953563,
      "tags": {
        "name": "Wildcraft",
        "shop": "outdoor"
      }
    },
    {
      "type": "node",
      "id": 12174714926,
      "lat": 12.9949316,
      "lon": 77.6970521,
      "tags": {
        "amenity": "restaurant",
        "contact:website": "https://chefpillai.com",
        "name": "North Rasoi"
      }
    },
    {
      "type": "node",
      "id": 12174714927,
      "lat": 12.9949545,
      "lon": 77.6972062,
      "tags": {
        "addr:city": "Bengaluru",
        "addr:postcode": "560048",
        "addr:street": "Whitefield Road",
        "amenity": "restaurant",
        "name": "Restaurant Chef Pillai",
        "phone": "+91 8943150000",
        "website": "https://chefpillai.com/"
      }
    },
    {
      "type": "node",
      "id": 12196935719,
      "lat": 12.9964369,
      "lon": 77.6949772,
      "tags": {
        "amenity": "parking_entrance"
      }
    },
    {
      "type": "node",
      "id": 12196935727,
      "lat": 12.9963412,
      "lon": 77.6957498,
      "tags": {
        "amenity": "parking_entrance"
      }
    },
    {
      "type": "node",
      "id": 12199055890,
      "lat": 12.9917327,
      "lon": 77.6932471,
      "tags": {
        "amenity": "parking_entrance"
      }
    },
    {
      "type": "node",
      "id": 12199055891,
      "lat": 12.9917515,
      "lon": 77.6931774,
      "tags": {
        "amenity": "parking_entrance"
      }
    },
    {
      "type": "node",
      "id": 12246090205,
      "lat": 12.9964893,
      "lon": 77.6935636,
      "tags": {
        "amenity": "police",
        "check_date": "2024-10-12",
        "name": "Mahadevapura Traffic Police"
      }
    },
    {
      "type": "node",
      "id": 12246090206,
      "lat": 12.9964748,
      "lon": 77.6936783,
      "tags": {
        "amenity": "police",
        "check_date": "2024-10-12",
        "name": "Office Of The Assistant Commissioner Whitefield Subdivision"
      }
    },
    {
      "type": "node",
      "id": 12246090207,
      "lat": 12.9964976,
      "lon": 77.6937845,
      "tags": {
        "access": "yes",
        "amenity": "drinking_water",
        "fee": "no"
      }
    },
    {
      "type": "node",
      "id": 12246090208,
      "lat": 12.9963506,
      "lon": 77.693861,
      "tags": {
        "amenity": "dentist",
        "check_date": "2024-10-12",
        "healthcare": "dentist",
        "name": "Sabka Dentist"
      }
    },
    {
      "type": "node",
      "id": 12460927624,
      "lat": 12.9951,
      "lon": 77.6963703,
      "tags": {
        "air_conditioning": "yes",
        "brand": "Xiaomi",
        "brand:wikidata": "Q1636958",
        "check_date": "2024-12-29",
        "level": "2",
        "mobile_phone:repair": "yes",
        "name": "Xiaomi Service Centre",
        "opening_hours": "Mo-Sa 10:30-19:00; Su,PH off",
        "shop": "mobile_phone",
        "source": "survey",
        "toilets": "yes",
        "wheelchair": "no"
      }
    },
    {
      "type": "node",
      "id": 12460927625,
      "lat": 12.9906571,
      "lon": 77.6874595,
      "tags": {
        "check_date": "2024-12-29",
        "name": "Yes Vegetable Market",
        "shop": "greengrocer"
      }
    },
    {
      "type": "node",
      "id": 12460927626,
      "lat": 12.9907507,
      "lon": 77.6872939,
      "tags": {
        "check_date": "2024-12-29",
        "name": "Sri Angala Parameshwari Vegetables & Fruits",
        "shop": "greengrocer"
      }
    },
    {
      "type": "node",
      "id": 12528658846,
      "lat": 12.9967906,
      "lon": 77.6907514,
      "tags": {
        "name": "Ather",
        "operator": "Ather",
        "shop": "motorcycle"
      }
    },
    {
      "type": "node",
      "id": 12528658847,
      "lat": 12.996933,
      "lon": 77.6907742,
      "tags": {
        "brand": "Audi",
        "brand:wikidata": "Q23317",
        "name": "Audi",
        "shop": "car"
      }
    },
    {
      "type": "node",
      "id": 12536352046,
      "lat": 12.9943405,
      "lon": 77.6854697,
      "tags": {
        "amenity": "bank",
        "brand": "ICICI Bank",
        "brand:wikidata": "Q1653258",
        "check_date": "2025-01-27",
        "name": "ICICI Bank",
        "short_name": "ICICI",
        "source": "survey"
      }
    },
    {
      "type": "node",
      "id": 12536352047,
      "lat": 12.9961959,
      "lon": 77.6840874,
      "tags": {
        "amenity": "bank",
        "brand": "HDFC Bank",
        "brand:wikidata": "Q631047",
        "check_date": "2025-01-27",
        "name": "HDFC Bank",
        "short_name": "HDFC",
        "source": "survey",
        "wheelchair": "yes"
      }
    },
    {
      "type": "node",
      "id": 13207038885,
      "lat": 12.9973786,
      "lon": 77.6910719,
      "tags": {
        "amenity": "pub",
        "name": "Oasis Brewery"
      }
    },
    {
      "type": "node",
      "id": 13289164737,
      "lat": 12.9947672,
      "lon": 77.6851568,
      "tags": {
        "check_date": "2025-11-08",
        "name": "P.S Liquor Mart",
        "shop": "alcohol"
      }
    },
    {
      "type": "node",
      "id": 13319711857,
      "lat": 12.9930859,
      "lon": 77.6845703,
      "tags": {
        "access": "private",
        "amenity": "parking_entrance",
        "parking": "underground"
      }
    },
    {
      "type": "way",
      "id": 159860397,
      "center": {
        "lat": 12.992135,
        "lon": 77.6922128
      },
      "tags": {
        "leisure": "recreation_ground",
        "name": "Recreation Ground"
      }
    },
    {
      "type": "way",
      "id": 159864349,
      "center": {
        "lat": 12.9900759,
        "lon": 77.6958954
      },
      "tags": {
        "addr:city": "Bengaluru",
        "addr:postcode": "560048",
        "addr:street": "Maheshwaramma Temple Main Road, Mahadevapura",
        "building": "retail",
        "leisure": "indoor_play",
        "name": "Altis Indoor Badminton"
      }
    },
    {
      "type": "way",
      "id": 190157402,
      "center": {
        "lat": 12.9950206,
        "lon": 77.6933462
      },
      "tags": {
        "building": "yes",
        "name": "Bimal Maruti Service",
        "name:kn": "ಬಿಮಲ್ ಮಾರುತಿ",
        "shop": "car_repair"
      }
    },
    {
      "type": "way",
      "id": 190157403,
      "center": {
        "lat": 12.9951363,
        "lon": 77.6933571
      },
      "tags": {
        "addr:housenumber": "60/2",
        "addr:postcode": "560048",
        "addr:street": "Whitefield Road",
        "name": "Bimal Maruti Show Room",
        "name:kn": "ಬಿಮಲ್ ಮಾರುತಿ",
        "shop": "car",
        "website": "https://www.bimalmaruti.com/"
      }
    },
    {
      "type": "way",
      "id": 218280604,
      "center": {
        "lat": 12.9884023,
        "lon": 77.6887098
      },
      "tags": {
        "addr:city": "Bengaluru",
        "addr:housenumber": "2",
        "addr:postcode": "560048",
        "addr:street": "Mahadevapura , Outer Ring Rd, Marathahalli",
        "alt_name": "Maruti Suzuki True Value (Bimal Auto, Marathahalli, Bangalore)",
        "building": "yes",
        "name": "True Value Preowned cars",
        "operator": "Bimal Auto Agency",
        "shop": "car"
      }
    },
    {
      "type": "way",
      "id": 219618403,
      "center": {
        "lat": 12.9954003,
        "lon": 77.685062
      },
      "tags": {
        "brand": "Volkswagen",
        "brand:wikidata": "Q246",
        "building": "yes",
        "name": "Volkswagen Whitefield",
        "name:kn": "ವೋಕ್ಸ್ ವಾಗನ್",
        "shop": "car"
      }
    },
    {
      "type": "way",
      "id": 219618426,
      "center": {
        "lat": 12.9947359,
        "lon": 77.6953981
      },
      "tags": {
        "amenity": "school"
      }
    },
    {
      "type": "way",
      "id": 220085423,
      "center": {
        "lat": 12.9892145,
        "lon": 77.682501
      },
      "tags": {
        "leisure": "playground",
        "name": "JK Cricket Academy"
      }
    },
    {
      "type": "way",
      "id": 345953131,
      "center": {
        "lat": 12.9885633,
        "lon": 77.6856705
      },
      "tags": {
        "amenity": "fast_food",
        "brand": "Indira Canteen",
        "brand:wikidata": "Q36164828",
        "building": "yes",
        "cuisine": "south_indian",
        "name": "Indira Canteen",
        "operator": "BBMP",
        "takeaway": "yes"
      }
    },
    {
      "type": "way",
      "id": 639390620,
      "center": {
        "lat": 12.9870887,
        "lon": 77.690427
      },
      "tags": {
        "amenity": "fuel",
        "brand": "Indian Oil",
        "brand:wikidata": "Q1289348",
        "brand:wikipedia": "en:Indian Oil Corporation",
        "compressed_air": "yes",
        "fuel:diesel": "yes",
        "fuel:petrol": "yes",
        "name": "Sai Krishna Service Station",
        "survey:date": "2022-06-13"
      }
    },
    {
      "type": "way",
      "id": 732010491,
      "center": {
        "lat": 12.9841278,
        "lon": 77.6951797
      },
      "tags": {
        "access": "permissive",
        "amenity": "parking",
        "parking": "surface"
      }
    },
    {
      "type": "way",
      "id": 732010494,
      "center": {
        "lat": 12.9881031,
        "lon": 77.6868797
      },
      "tags": {
        "access": "private",
        "amenity": "parking",
        "parking": "surface"
      }
    },
    {
      "type": "way",
      "id": 769233910,
      "center": {
        "lat": 12.986003,
        "lon": 77.6942075
      },
      "tags": {
        "amenity": "food_court",
        "building": "yes",
        "name": "Bagmane Onyx"
      }
    },
    {
      "type": "way",
      "id": 769233911,
      "center": {
        "lat": 12.9856618,
        "lon": 77.6943721
      },
      "tags": {
        "building": "yes",
        "shop": "pastry"
      }
    },
    {
      "type": "way",
      "id": 1065104449,
      "center": {
        "lat": 12.9862612,
        "lon": 77.6954352
      },
      "tags": {
        "leisure": "sports_centre"
      }
    },
    {
      "type": "way",
      "id": 1065104457,
      "center": {
        "lat": 12.9841773,
        "lon": 77.6941386
      },
      "tags": {
        "amenity": "kindergarten",
        "building": "yes",
        "name": "KLAY Preschool and Day Care Bagmane WTC",
        "operator": "KLAY"
      }
    },
    {
      "type": "way",
      "id": 1065104458,
      "center": {
        "lat": 12.9836113,
        "lon": 77.693066
      },
      "tags": {
        "access": "permissive",
        "amenity": "parking",
        "operator": "Bagmane Group",
        "parking": "surface"
      }
    },
    {
      "type": "way",
      "id": 1065104464,
      "center": {
        "lat": 12.9856369,
        "lon": 77.6921476
      },
      "tags": {
        "leisure": "garden"
      }
    },
    {
      "type": "way",
      "id": 1066943970,
      "center": {
        "lat": 12.9970673,
        "lon": 77.6918445
      },
      "tags": {
        "addr:street": "Whitefield Road",
        "amenity": "fuel",
        "brand": "Hindustan Petroleum",
        "brand:wikidata": "Q1619375",
        "compressed_air": "yes",
        "name": "HP Petrol / Gas Station",
        "official_name": "Hindustan Petroleum",
        "operator": "HP"
      }
    },
    {
      "type": "way",
      "id": 1082660835,
      "center": {
        "lat": 12.9928594,
        "lon": 77.6856983
      },
      "tags": {
        "leisure": "park"
      }
    },
    {
      "type": "way",
      "id": 1101376578,
      "center": {
        "lat": 12.998321,
        "lon": 77.6892871
      },
      "tags": {
        "addr:street": "Whitefield Road",
        "amenity": "fuel",
        "brand": "Shell",
        "brand:wikidata": "Q110716465",
        "compressed_air": "yes",
        "name": "V Power Shell Petrol Bunk",
        "operator": "Shell"
      }
    },
    {
      "type": "way",
      "id": 1172346606,
      "center": {
        "lat": 12.9872766,
        "lon": 77.6895525
      },
      "tags": {
        "addr:city": "Bengaluru",
        "addr:housenumber": "4,3",
        "addr:postcode": "560016",
        "addr:street": "Outer Ring Rd, Venkateshwara Layout, Mahadevapura",
        "alt_name": "Honda service center",
        "branch": "BigWing",
        "brand": "Honda",
        "brand:wikidata": "Q9584",
        "building": "yes",
        "motorcycle:electrical": "yes",
        "motorcycle:repair": "yes",
        "motorcycle:sales": "yes",
        "motorcycle:tyres": "yes",
        "name": "Honda BigWing",
        "name:kn": "ಹೊಂಡ",
        "operator": "VFM Honda",
        "service:vehicle:oil_change": "yes",
        "shop": "motorcycle_repair"
      }
    },
    {
      "type": "way",
      "id": 1220059062,
      "center": {
        "lat": 12.9824636,
        "lon": 77.6923726
      },
      "tags": {
        "leisure": "park"
      }
    },
    {
      "type": "way",
      "id": 1235735053,
      "center": {
        "lat": 12.9893308,
        "lon": 77.694785
      },
      "tags": {
        "leisure": "playground"
      }
    },
    {
      "type": "way",
      "id": 1235735054,
      "center": {
        "lat": 12.9892894,
        "lon": 77.6949419
      },
      "tags": {
        "access": "private",
        "leisure": "pitch",
        "sport": "basketball"
      }
    },
    {
      "type": "way",
      "id": 1235735090,
      "center": {
        "lat": 12.9873811,
        "lon": 77.6954784
      },
      "tags": {
        "access": "private",
        "leisure": "pitch",
        "sport": "tennis"
      }
    },
    {
      "type": "way",
      "id": 1267710958,
      "center": {
        "lat": 12.9923352,
        "lon": 77.687584
      },
      "tags": {
        "amenity": "school",
        "landuse": "education",
        "name": "Government High-Tech Kannada and English Medium Higher Primary School"
      }
    },
    {
      "type": "way",
      "id": 1267710964,
      "center": {
        "lat": 12.9944887,
        "lon": 77.6886888
      },
      "tags": {
        "access": "private",
        "leisure": "swimming_pool"
      }
    },
    {
      "type": "way",
      "id": 1267710991,
      "center": {
        "lat": 12.9956872,
        "lon": 77.6877795
      },
      "tags": {
        "access": "permissive",
        "amenity": "parking",
        "parking": "surface"
      }
    },
    {
      "type": "way",
      "id": 1267711028,
      "center": {
        "lat": 12.9909696,
        "lon": 77.6955105
      },
      "tags": {
        "leisure": "park"
      }
    },
    {
      "type": "way",
      "id": 1267711039,
      "center": {
        "lat": 12.9907063,
        "lon": 77.6938896
      },
      "tags": {
        "amenity": "school",
        "name": "MTB School"
      }
    },
    {
      "type": "way",
      "id": 1267711095,
      "center": {
        "lat": 12.9871976,
        "lon": 77.6868809
      },
      "tags": {
        "amenity": "parking",
        "parking": "surface"
      }
    },
    {
      "type": "way",
      "id": 1268945173,
      "center": {
        "lat": 12.9857913,
        "lon": 77.6911312
      },
      "tags": {
        "access": "permissive",
        "amenity": "parking",
        "operator": "Bagmane Group",
        "parking": "surface"
      }
    },
    {
      "type": "way",
      "id": 1268945174,
      "center": {
        "lat": 12.9842972,
        "lon": 77.6920928
      },
      "tags": {
        "access": "permissive",
        "amenity": "parking",
        "operator": "Bagmane Group",
        "parking": "surface"
      }
    },
    {
      "type": "way",
      "id": 1268945188,
      "center": {
        "lat": 12.9847611,
        "lon": 77.6968167
      },
      "tags": {
        "leisure": "park"
      }
    },
    {
      "type": "way",
      "id": 1268945190,
      "center": {
        "lat": 12.9883651,
        "lon": 77.6941391
      },
      "tags": {
        "access": "permissive",
        "amenity": "parking",
        "parking": "surface"
      }
    },
    {
      "type": "way",
      "id": 1268945193,
      "center": {
        "lat": 12.9859023,
        "lon": 77.6937977
      },
      "tags": {
        "amenity": "theatre",
        "theatre:type": "amphi"
      }
    },
    {
      "type": "way",
      "id": 1278772124,
      "center": {
        "lat": 12.9868126,
        "lon": 77.6981663
      },
      "tags": {
        "alt_name": "Yeklgata Lake Park",
        "leisure": "park",
        "name": "Goshala Lake Park"
      }
    },
    {
      "type": "way",
      "id": 1296042957,
      "center": {
        "lat": 12.9850166,
        "lon": 77.6962353
      },
      "tags": {
        "access": "permissive",
        "amenity": "parking",
        "parking": "surface"
      }
    },
    {
      "type": "way",
      "id": 1296042958,
      "center": {
        "lat": 12.9847484,
        "lon": 77.6967613
      },
      "tags": {
        "alt_name": "Kewal Aradhna Sthal, Goushala",
        "amenity": "place_of_worship",
        "building": "yes",
        "name": "Bangalore Gaurakshana Shala",
        "religion": "jain"
      }
    },
    {
      "type": "way",
      "id": 1299038391,
      "center": {
        "lat": 12.9812208,
        "lon": 77.6859362
      },
      "tags": {
        "amenity": "school",
        "name": "Geetanjali Vidyalaya",
        "name:kn": "ಗೀತಾಂಜಲಿ ವಿದ್ಯಾಲಯ"
      }
    },
    {
      "type": "way",
      "id": 1303738151,
      "center": {
        "lat": 12.9813649,
        "lon": 77.6929909
      },
      "tags": {
        "access": "private",
        "leisure": "pitch",
        "sport": "soccer"
      }
    },
    {
      "type": "way",
      "id": 1304298505,
      "center": {
        "lat": 12.9817921,
        "lon": 77.6910024
      },
      "tags": {
        "access": "permissive",
        "amenity": "parking",
        "parking": "surface"
      }
    },
    {
      "type": "way",
      "id": 1304298506,
      "center": {
        "lat": 12.9819648,
        "lon": 77.6918557
      },
      "tags": {
        "access": "permissive",
        "amenity": "parking",
        "parking": "surface"
      }
    },
    {
      "type": "way",
      "id": 1304298507,
      "center": {
        "lat": 12.9839714,
        "lon": 77.6915087
      },
      "tags": {
        "access": "permissive",
        "amenity": "parking",
        "parking": "surface"
      }
    },
    {
      "type": "way",
      "id": 1313999539,
      "center": {
        "lat": 12.9888623,
        "lon": 77.6843558
      },
      "tags": {
        "amenity": "place_of_worship",
        "building": "yes",
        "religion": "hindu"
      }
    },
    {
      "type": "way",
      "id": 1314000851,
      "center": {
        "lat": 12.9917118,
        "lon": 77.686655
      },
      "tags": {
        "amenity": "fuel",
        "fuel": "lpg",
        "name": "Go Gas"
      }
    },
    {
      "type": "way",
      "id": 1328129618,
      "center": {
        "lat": 12.9869656,
        "lon": 77.6952712
      },
      "tags": {
        "access": "private",
        "leisure": "swimming_pool"
      }
    },
    {
      "type": "way",
      "id": 1328129623,
      "center": {
        "lat": 12.987677,
        "lon": 77.6988429
      },
      "tags": {
        "leisure": "sports_centre"
      }
    },
    {
      "type": "way",
      "id": 1353870716,
      "center": {
        "lat": 12.9968133,
        "lon": 77.6928379
      },
      "tags": {
        "addr:street": "Whitefield Road",
        "amenity": "police",
        "name": "Mahadevpura Police Station",
        "name:kn": "ಮಹಾದೇವಪುರ ಅರಕ್ಷಕ ಠಾಣೆ"
      }
    },
    {
      "type": "way",
      "id": 1353870717,
      "center": {
        "lat": 12.9964924,
        "lon": 77.6935887
      },
      "tags": {
        "amenity": "police"
      }
    },
    {
      "type": "way",
      "id": 1353870728,
      "center": {
        "lat": 12.9975361,
        "lon": 77.6908899
      },
      "tags": {
        "amenity": "fuel"
      }
    },
    {
      "type": "way",
      "id": 1433298948,
      "center": {
        "lat": 12.9810047,
        "lon": 77.6920648
      },
      "tags": {
        "access": "private",
        "leisure": "pitch",
        "sport": "cricket_nets"
      }
    },
    {
      "type": "way",
      "id": 1433298949,
      "center": {
        "lat": 12.9813361,
        "lon": 77.6918789
      },
      "tags": {
        "access": "private",
        "leisure": "playground"
      }
    },
    {
      "type": "way",
      "id": 1433298950,
      "center": {
        "lat": 12.9814913,
        "lon": 77.6919196
      },
      "tags": {
        "access": "private",
        "leisure": "swimming_pool",
        "location": "outdoor"
      }
    },
    {
      "type": "way",
      "id": 1433298951,
      "center": {
        "lat": 12.9811867,
        "lon": 77.6918415
      },
      "tags": {
        "access": "private",
        "leisure": "pitch",
        "sport": "tennis"
      }
    },
    {
      "type": "way",
      "id": 1444469674,
      "center": {
        "lat": 12.9851394,
        "lon": 77.6868513
      },
      "tags": {
        "access": "private",
        "leisure": "swimming_pool"
      }
    },
    {
      "type": "way",
      "id": 1444469677,
      "center": {
        "lat": 12.9844257,
        "lon": 77.6890188
      },
      "tags": {
        "access": "private",
        "leisure": "swimming_pool"
      }
    },
    {
      "type": "way",
      "id": 1452396071,
      "center": {
        "lat": 12.993506,
        "lon": 77.6836165
      },
      "tags": {
        "access": "private",
        "leisure": "swimming_pool"
      }
    },
    {
      "type": "way",
      "id": 1452396084,
      "center": {
        "lat": 12.9940729,
        "lon": 77.6843463
      },
      "tags": {
        "access": "private",
        "amenity": "parking",
        "parking": "street_side"
      }
    },
    {
      "type": "way",
      "id": 1452396085,
      "center": {
        "lat": 12.993559,
        "lon": 77.6842274
      },
      "tags": {
        "access": "private",
        "amenity": "parking",
        "parking": "street_side"
      }
    },
    {
      "type": "way",
      "id": 1452396090,
      "center": {
        "lat": 12.9933139,
        "lon": 77.684996
      },
      "tags": {
        "access": "private",
        "leisure": "playground"
      }
    },
    {
      "type": "way",
      "id": 1452396091,
      "center": {
        "lat": 12.9936439,
        "lon": 77.6847111
      },
      "tags": {
        "access": "private",
        "leisure": "swimming_pool"
      }
    },
    {
      "type": "way",
      "id": 1452396096,
      "center": {
        "lat": 12.9944331,
        "lon": 77.684516
      },
      "tags": {
        "amenity": "fuel",
        "brand": "Hindustan Petroleum",
        "brand:wikidata": "Q1619375",
        "compressed_air": "yes",
        "name": "HP",
        "official_name": "Hindustan Petroleum"
      }
    },
    {
      "type": "way",
      "id": 1452396099,
      "center": {
        "lat": 12.9944814,
        "lon": 77.6860998
      },
      "tags": {
        "amenity": "school",
        "name": "St. Theresa School"
      }
    }
  ]
}