{
  "area_name": "Shivanahalli",
  "osm_id": 7944634962,
  "osm_type": "node",
  "place_type": "neighbourhood",
  "amenity_count": 334,
  "amenities": [
    {
      "type": "node",
      "id": 529780984,
      "lat": 12.9885908,
      "lon": 77.5442935,
      "tags": {
        "amenity": "school",
        "name": "Carmel High School",
        "name:kn": "ಕಾರ್ಮೆಲ್ ಪ್ರೌಡಶಾಲೆ",
        "wheelchair": "limited"
      }
    },
    {
      "type": "node",
      "id": 529897859,
      "lat": 12.9854915,
      "lon": 77.5425698,
      "tags": {
        "amenity": "police",
        "name": "Basaveshwaranagar Police Station",
        "name:kn": "ಬಸವೇಶ್ವರ ನಗರ ಆರಕ್ಷಕ ಠಾಣೆ",
        "wheelchair": "yes"
      }
    },
    {
      "type": "node",
      "id": 530343291,
      "lat": 12.993098,
      "lon": 77.5421028,
      "tags": {
        "addr:city": "Basaveshwara Nagar, Bangalore",
        "amenity": "place_of_worship",
        "name": "Temple",
        "name:kn": "ದೇವಸ್ಥಾನ",
        "religion": "hindu"
      }
    },
    {
      "type": "node",
      "id": 1024942731,
      "lat": 12.9899522,
      "lon": 77.5378467,
      "tags": {
        "amenity": "bank",
        "atm": "yes",
        "brand": "Bank of India",
        "brand:wikidata": "Q2004439",
        "brand:wikipedia": "en:Bank of India",
        "name": "Bank of India",
        "name:en": "Bank of India",
        "short_name": "BoI",
        "website": "http://www.bankofindia.co.in"
      }
    },
    {
      "type": "node",
      "id": 1116412178,
      "lat": 12.9916942,
      "lon": 77.5457901,
      "tags": {
        "amenity": "fuel",
        "brand": "Indian Oil",
        "brand:wikidata": "Q1289348",
        "brand:wikipedia": "en:Indian Oil Corporation",
        "name": "Indian Oil",
        "name:kn": "ಇಂಡಿಯನ್ ಆಯಿಲ್"
      }
    },
    {
      "type": "node",
      "id": 1440193832,
      "lat": 12.9865791,
      "lon": 77.5403594,
      "tags": {
        "amenity": "fuel",
        "brand": "Total",
        "brand:wikidata": "Q154037",
        "fuel:lpg": "yes",
        "name": "Total gas",
        "operator": "Total"
      }
    },
    {
      "type": "node",
      "id": 1440194638,
      "lat": 12.98568,
      "lon": 77.5421189,
      "tags": {
        "addr:housename": "Canara bank",
        "addr:postcode": "560079",
        "addr:street": "Basaveshwaranagar",
        "amenity": "bank",
        "atm": "yes",
        "brand": "Canara Bank",
        "brand:en": "Canara Bank",
        "brand:hi": "केनरा बैंक",
        "brand:kn": "ಕೆನರಾ ಬ್ಯಾಂಕ್",
        "brand:pa": "ਕੇਨਰਾ ਬੈਂਕ",
        "brand:pnb": "کینرا بینک",
        "brand:ur": "کینرا بینک",
        "brand:wikidata": "Q2003777",
        "brand:wikipedia": "en:Canara Bank",
        "brand:wikipedia:pa": "ਕੇਨਰਾ ਬੈਂਕ",
        "name": "Canara Bank",
        "name:en": "Canara Bank",
        "name:hi": "केनरा बैंक",
        "name:kn": "ಕೆನರಾ ಬ್ಯಾಂಕ್",
        "name:pa": "ਕੇਨਰਾ ਬੈਂਕ",
        "name:pnb": "کینرا بینک",
        "name:ur": "کینرا بینک",
        "website": "https://www.canarabank.com/"
      }
    },
    {
      "type": "node",
      "id": 1440197001,
      "lat": 12.9860568,
      "lon": 77.5418754,
      "tags": {
        "addr:housename": "Karnataka State Co-op Apex Bank",
        "addr:housenumber": "No 1",
        "addr:postcode": "560079",
        "addr:street": "15th Main, 3rd Stage, Basaveshwaranagar",
        "amenity": "bank",
        "atm": "no",
        "name": "Karnataka State Co-op Apex Bank"
      }
    },
    {
      "type": "node",
      "id": 1440198432,
      "lat": 12.9862868,
      "lon": 77.539676,
      "tags": {
        "amenity": "place_of_worship",
        "name": "Muneshwara Temple",
        "name:kn": "ಮುನೇಶ್ವರ ದೇವಸ್ಥಾನ",
        "religion": "hindu"
      }
    },
    {
      "type": "node",
      "id": 1467501674,
      "lat": 12.9856724,
      "lon": 77.5420617,
      "tags": {
        "amenity": "atm",
        "brand": "Canara Bank",
        "brand:en": "Canara Bank",
        "brand:hi": "केनरा बैंक",
        "brand:kn": "ಕೆನರಾ ಬ್ಯಾಂಕ್",
        "brand:pa": "ਕੇਨਰਾ ਬੈਂਕ",
        "brand:pnb": "کینرا بینک",
        "brand:ur": "کینرا بینک",
        "brand:wikidata": "Q2003777",
        "name": "Canara Bank",
        "name:en": "Canara Bank",
        "name:hi": "केनरा बैंक",
        "name:kn": "ಕೆನರಾ ಬ್ಯಾಂಕ್",
        "name:pa": "ਕੇਨਰਾ ਬੈਂਕ",
        "name:pnb": "کینرا بینک",
        "name:ur": "کینرا بینک",
        "operator": "Canara Bank",
        "operator:wikidata": "Q2003777"
      }
    },
    {
      "type": "node",
      "id": 1467501725,
      "lat": 12.988545,
      "lon": 77.5377868,
      "tags": {
        "amenity": "restaurant",
        "name": "New Shanti Sagar",
        "name:kn": "ನ್ಯೂ ಶಾರದ"
      }
    },
    {
      "type": "node",
      "id": 1472178615,
      "lat": 12.9872341,
      "lon": 77.549974,
      "tags": {
        "amenity": "fast_food",
        "name": "Gangasagar Chats",
        "wheelchair": "no"
      }
    },
    {
      "type": "node",
      "id": 1472178648,
      "lat": 12.9880757,
      "lon": 77.5496789,
      "tags": {
        "amenity": "cafe",
        "wheelchair": "no"
      }
    },
    {
      "type": "node",
      "id": 1474819887,
      "lat": 12.9955579,
      "lon": 77.5503454,
      "tags": {
        "amenity": "place_of_worship",
        "name": "Ranganatha Swamy Temple",
        "name:kn": "ರಂಗನಾಥಸ್ವಾಮಿ ದೇವಸ್ಥಾನ",
        "religion": "hindu"
      }
    },
    {
      "type": "node",
      "id": 1474819896,
      "lat": 12.9956506,
      "lon": 77.5510696,
      "tags": {
        "addr:city": "Bangalore",
        "addr:district": "Bengaluru Urban",
        "addr:full": "25/91, Chord Road, Iind Block, Rajajinagar",
        "addr:housenumber": "25/91",
        "addr:postcode": "560010",
        "addr:state": "Karnataka",
        "addr:street": "Chord Road",
        "amenity": "hospital",
        "name": "Citi Hospital",
        "opening_hours": "24/7",
        "phone": "+(91)-80-23131778",
        "phone_1": "23131777",
        "phone_2": "23526910",
        "source": "OpenGovernmentData"
      }
    },
    {
      "type": "node",
      "id": 1474819901,
      "lat": 12.9940551,
      "lon": 77.5513325,
      "tags": {
        "amenity": "place_of_worship",
        "name": "Yesukrupalaya Church",
        "religion": "christian"
      }
    },
    {
      "type": "node",
      "id": 1474820324,
      "lat": 12.9872807,
      "lon": 77.5494174,
      "tags": {
        "amenity": "restaurant",
        "name": "Sree Nandini Palace Restaurant",
        "name:kn": "ಶ್ರೀ ನಂದಿನಿ ಪ್ಯಾಲಸ್ ರೆಸ್ಟೋರೆಂಟ್"
      }
    },
    {
      "type": "node",
      "id": 1474821301,
      "lat": 12.9818644,
      "lon": 77.5488914,
      "tags": {
        "amenity": "place_of_worship",
        "name": "Hanuman Temple",
        "name:kn": "ಹನುಮಂತ ದೇವಸ್ಥಾನ",
        "religion": "hindu"
      }
    },
    {
      "type": "node",
      "id": 1474821306,
      "lat": 12.9822699,
      "lon": 77.5489012,
      "tags": {
        "amenity": "place_of_worship",
        "name": "Ganesha Temple",
        "name:kn": "ಗಣೇಶ ದೇವಸ್ಥಾನ",
        "religion": "hindu"
      }
    },
    {
      "type": "node",
      "id": 1474821308,
      "lat": 12.9831177,
      "lon": 77.5486996,
      "tags": {
        "amenity": "community_centre",
        "name": "Shivaprabha Kalyana Mantapa"
      }
    },
    {
      "type": "node",
      "id": 1809624008,
      "lat": 12.9886227,
      "lon": 77.5378109,
      "tags": {
        "amenity": "restaurant",
        "name": "Nisarga Andhra Style",
        "name:kn": "ನಿಸರ್ಗ ಅಂಧ್ರ ಸ್ಟೈಲ್"
      }
    },
    {
      "type": "node",
      "id": 1979075210,
      "lat": 12.9829855,
      "lon": 77.5486383,
      "tags": {
        "amenity": "restaurant",
        "name": "1947",
        "name:kn": "೧೯೪೭",
        "wheelchair": "no"
      }
    },
    {
      "type": "node",
      "id": 2027517361,
      "lat": 12.991257,
      "lon": 77.5384096,
      "tags": {
        "addr:city": "Bangalore",
        "addr:housename": "Basaveshwara Nagar",
        "addr:postcode": "560079",
        "addr:street": "Siddhaiah Puranik Road",
        "amenity": "atm",
        "name": "Karnataka Bank Money Plant",
        "operator": "Karnatakaa Bank"
      }
    },
    {
      "type": "node",
      "id": 2245111330,
      "lat": 12.9888754,
      "lon": 77.5378467,
      "tags": {
        "brand": "Bata",
        "brand:wikidata": "Q688082",
        "name": "Bata",
        "name:kn": "ಬಾಟಾ",
        "shop": "shoes"
      }
    },
    {
      "type": "node",
      "id": 2245145511,
      "lat": 12.9914936,
      "lon": 77.538699,
      "tags": {
        "addr:city": "Bangalore",
        "addr:housenumber": "491/A",
        "addr:street": "8th Main Road",
        "amenity": "ice_cream",
        "brand": "Polar Bear",
        "name": "Polar Bear",
        "opening_hours": "Mo-Su 11:00-23:00",
        "phone": "+91 80 2322 5704",
        "website": "https://polarbear.co.in/"
      }
    },
    {
      "type": "node",
      "id": 2247443467,
      "lat": 12.991114,
      "lon": 77.5407958,
      "tags": {
        "amenity": "restaurant",
        "cuisine": "indian",
        "name": "Davanagere Benne Dose",
        "name:kn": "ದಾವಣಗೆರೆ ಬೆಣ್ಣೆ ದೋಸೆ",
        "wheelchair": "no"
      }
    },
    {
      "type": "node",
      "id": 2249045755,
      "lat": 12.9851341,
      "lon": 77.5433278,
      "tags": {
        "amenity": "fuel",
        "brand": "BP",
        "brand:wikidata": "Q152057",
        "name": "BP petrol pump",
        "wheelchair": "yes"
      }
    },
    {
      "type": "node",
      "id": 2249069522,
      "lat": 12.9856882,
      "lon": 77.5435424,
      "tags": {
        "addr:district": "Bengaluru Urban",
        "addr:full": "#6, Thimmaiah Layout, 1st Main 3rd D Cross, 3rd Stage, 2nd Block",
        "addr:postcode": "560079",
        "addr:state": "Karnataka",
        "addr:subdistrict": "Basaveshwaranagar",
        "amenity": "hospital",
        "name": "Shanbhag Hospital",
        "operator:type": "private",
        "source": "OpenGovernmentData",
        "website": "http://snsvo7.seekandsource.com/shanbhag/",
        "wheelchair": "yes"
      }
    },
    {
      "type": "node",
      "id": 2271424244,
      "lat": 12.9842531,
      "lon": 77.5492418,
      "tags": {
        "name": "Girias",
        "shop": "hifi"
      }
    },
    {
      "type": "node",
      "id": 2271426098,
      "lat": 12.9875529,
      "lon": 77.5496062,
      "tags": {
        "amenity": "community_centre",
        "name": "Nandana Party Hall",
        "wheelchair": "no"
      }
    },
    {
      "type": "node",
      "id": 2293237354,
      "lat": 12.9919502,
      "lon": 77.5457767,
      "tags": {
        "shop": "alcohol"
      }
    },
    {
      "type": "node",
      "id": 2293249618,
      "lat": 12.9843055,
      "lon": 77.5537764,
      "tags": {
        "addr:city": "Bangalore",
        "addr:postcode": "560079",
        "addr:street": "60th Cross Road",
        "alt_name": "A2B",
        "amenity": "restaurant",
        "brand": "Adyar Ananda Bhavan",
        "brand:wikidata": "Q15178238",
        "cuisine": "regional",
        "diet:vegetarian": "only",
        "name": "Adyar Ananda Bhavan",
        "name:kn": "ಆದ್ಯಾರ್ ಆನಂದ ಭವನ",
        "operator": "Adyar Ananda Bhavan",
        "phone": "+91 80 4212 3599",
        "smoking": "no",
        "website": "https://aabsweets.com",
        "wheelchair": "no"
      }
    },
    {
      "type": "node",
      "id": 2293286379,
      "lat": 12.9836572,
      "lon": 77.5487644,
      "tags": {
        "name": "Just Bake",
        "name:kn": "ಜಸ್ಟ್ ಬೇಕ್",
        "shop": "bakery"
      }
    },
    {
      "type": "node",
      "id": 2480862321,
      "lat": 12.9931607,
      "lon": 77.5394749,
      "tags": {
        "addr:city": "Bangalore",
        "addr:housename": "3rd Phase, Basaveshwara Nagar",
        "addr:street": "10th Main",
        "amenity": "fast_food",
        "cuisine": "indian_chats",
        "name": "Shree Vinayaka Juice & Chat Center"
      }
    },
    {
      "type": "node",
      "id": 2497073980,
      "lat": 12.9894445,
      "lon": 77.5379861,
      "tags": {
        "addr:city": "Bangalore",
        "addr:housename": "Near Havanur Circle, Basaveshwaranagar",
        "addr:street": "1st main Basaveshwaranagar",
        "amenity": "ice_cream",
        "name": "Arun Ice Cream"
      }
    },
    {
      "type": "node",
      "id": 2503514687,
      "lat": 12.9917578,
      "lon": 77.5386852,
      "tags": {
        "addr:city": "Bangalore",
        "addr:housename": "Near 8th Main Intersection",
        "addr:postcode": "560079",
        "addr:street": "Siddhaiah Puranik Road",
        "name": "Prestige Smart Kitchen",
        "name:en": "PSK",
        "shop": "kitchen"
      }
    },
    {
      "type": "node",
      "id": 2503514688,
      "lat": 12.991912,
      "lon": 77.5386905,
      "tags": {
        "addr:city": "Bangalore",
        "addr:housename": "Near 8th Main Intersection",
        "addr:postcode": "560079",
        "addr:street": "Siddhaiah Puranik Road",
        "amenity": "clinic",
        "healthcare": "clinic",
        "name": "Positive Homeopathy"
      }
    },
    {
      "type": "node",
      "id": 2505742898,
      "lat": 12.991155,
      "lon": 77.5383908,
      "tags": {
        "amenity": "atm",
        "brand": "IndusInd Bank",
        "brand:wikidata": "Q2040323",
        "name": "IndusInd Bank",
        "operator": "IndusInd Bank",
        "operator:wikidata": "Q2040323"
      }
    },
    {
      "type": "node",
      "id": 2505742917,
      "lat": 12.9918738,
      "lon": 77.5386617,
      "tags": {
        "addr:city": "Bangalore",
        "addr:housename": "Near 8th Main Junction, Basaweshwara Nagar",
        "addr:postcode": "560079",
        "addr:street": "Siddhaiah Puranik Road",
        "name": "On Track Mobiles",
        "shop": "mobile_phone"
      }
    },
    {
      "type": "node",
      "id": 2505742918,
      "lat": 12.9920018,
      "lon": 77.5387341,
      "tags": {
        "addr:city": "Bangalore",
        "addr:housename": "opp Titan Eye+, Basaweshwara Nagar",
        "addr:postcode": "560079",
        "addr:street": "Siddhaiah Puranik Road",
        "name": "Punjab Handlooms",
        "shop": "clothes"
      }
    },
    {
      "type": "node",
      "id": 2505742936,
      "lat": 12.9893282,
      "lon": 77.5379751,
      "tags": {
        "addr:city": "Bangalore",
        "addr:housename": "Basaweshwara Nagar",
        "addr:postcode": "560079",
        "addr:street": "Siddhaiah Puranik Road",
        "amenity": "ice_cream",
        "name": "Amul Ice Cream"
      }
    },
    {
      "type": "node",
      "id": 2505742941,
      "lat": 12.9884317,
      "lon": 77.5377873,
      "tags": {
        "addr:city": "Bangalore",
        "addr:housename": "Neat Pavithra Paradise, Havanur Circle, Basaweshwara Nagar",
        "addr:postcode": "560079",
        "addr:street": "Siddhaiah Puranik Road",
        "name": "KSIC Silks",
        "shop": "clothes"
      }
    },
    {
      "type": "node",
      "id": 2505742971,
      "lat": 12.9877574,
      "lon": 77.5378544,
      "tags": {
        "addr:city": "Bangalore",
        "addr:housename": "Havanur Circle, Basaweshwara Nagar",
        "addr:postcode": "560079",
        "addr:street": "1st main Basaveshwaranagar",
        "name": "Srinivasa Wines",
        "shop": "alcohol"
      }
    },
    {
      "type": "node",
      "id": 2554302439,
      "lat": 12.9855811,
      "lon": 77.5556847,
      "tags": {
        "amenity": "cafe",
        "cuisine": "regional",
        "name": "Crane Crush"
      }
    },
    {
      "type": "node",
      "id": 2587490997,
      "lat": 12.9915093,
      "lon": 77.538526,
      "tags": {
        "name": "Ice Fort Ice Creams",
        "shop": "yes"
      }
    },
    {
      "type": "node",
      "id": 3209500886,
      "lat": 12.9914598,
      "lon": 77.5546233,
      "tags": {
        "name": "O. G. Variar and Sons Bakery",
        "shop": "bakery"
      }
    },
    {
      "type": "node",
      "id": 3391134117,
      "lat": 12.9952537,
      "lon": 77.5517627,
      "tags": {
        "name": "Manjunath Dry Cleaners",
        "shop": "dry_cleaning"
      }
    },
    {
      "type": "node",
      "id": 3391134551,
      "lat": 12.9845372,
      "lon": 77.5543971,
      "tags": {
        "name": "Karthik Aquarium",
        "shop": "aquarium"
      }
    },
    {
      "type": "node",
      "id": 3391134552,
      "lat": 12.9894264,
      "lon": 77.5544249,
      "tags": {
        "name": "Vinutha Jewellers",
        "shop": "jewelry"
      }
    },
    {
      "type": "node",
      "id": 3391135056,
      "lat": 12.989866,
      "lon": 77.554497,
      "tags": {
        "name": "Mahesh Opticals",
        "shop": "optician"
      }
    },
    {
      "type": "node",
      "id": 3391135057,
      "lat": 12.9899339,
      "lon": 77.5526805,
      "tags": {
        "amenity": "restaurant",
        "name": "New Sagar Fast Food & Party Hall"
      }
    },
    {
      "type": "node",
      "id": 3392655602,
      "lat": 12.9874289,
      "lon": 77.5541838,
      "tags": {
        "amenity": "bank",
        "brand": "State Bank of India",
        "brand:wikidata": "Q1340361",
        "name": "State Bank of India",
        "operator": "State Bank Of India",
        "short_name": "SBI"
      }
    },
    {
      "type": "node",
      "id": 3412405288,
      "lat": 12.9893868,
      "lon": 77.5550414,
      "tags": {
        "name": "Classic Alteration Centre",
        "shop": "tailor"
      }
    },
    {
      "type": "node",
      "id": 3412411945,
      "lat": 12.9895753,
      "lon": 77.5545027,
      "tags": {
        "name": "Lidkar Leather Emporium",
        "shop": "shoes"
      }
    },
    {
      "type": "node",
      "id": 3412418277,
      "lat": 12.9894313,
      "lon": 77.554456,
      "tags": {
        "building": "company",
        "name": "Stella's Beauty Salon",
        "shop": "beauty"
      }
    },
    {
      "type": "node",
      "id": 3412443803,
      "lat": 12.9891535,
      "lon": 77.5550832,
      "tags": {
        "name": "Global Management Services",
        "shop": "services"
      }
    },
    {
      "type": "node",
      "id": 3412445610,
      "lat": 12.989273,
      "lon": 77.5551359,
      "tags": {
        "name": "Hi Tech Junction - Jeans Alteration",
        "shop": "tailor"
      }
    },
    {
      "type": "node",
      "id": 3412449880,
      "lat": 12.9893267,
      "lon": 77.5559106,
      "tags": {
        "name": "Om Ganesh Video Vision",
        "shop": "video"
      }
    },
    {
      "type": "node",
      "id": 3412647285,
      "lat": 12.9892332,
      "lon": 77.5559116,
      "tags": {
        "name": "Sun Stamps and Seals",
        "shop": "stamps"
      }
    },
    {
      "type": "node",
      "id": 3412649472,
      "lat": 12.9891936,
      "lon": 77.5559165,
      "tags": {
        "amenity": "clinic",
        "name": "Santosh Clinic - Family Physician"
      }
    },
    {
      "type": "node",
      "id": 3412651166,
      "lat": 12.9891599,
      "lon": 77.5559116,
      "tags": {
        "amenity": "pharmacy",
        "name": "Sairam Medicals and General Stores"
      }
    },
    {
      "type": "node",
      "id": 3412653247,
      "lat": 12.989107,
      "lon": 77.5559009,
      "tags": {
        "name": "Bombay Fashions - Ladies Tailors",
        "shop": "tailor"
      }
    },
    {
      "type": "node",
      "id": 3412653248,
      "lat": 12.9890068,
      "lon": 77.5559058,
      "tags": {
        "name": "Bhairav Jewellers",
        "shop": "jewelry"
      }
    },
    {
      "type": "node",
      "id": 3412653430,
      "lat": 12.9890694,
      "lon": 77.5558999,
      "tags": {
        "amenity": "bank",
        "atm": "yes",
        "brand": "Syndicate Bank",
        "brand:wikidata": "Q2004088",
        "building": "bank",
        "name": "Syndicate Bank",
        "name:en": "Syndicate Bank",
        "name:kn": "ಸಿಂಡಿಕೇಟ್ ಬ್ಯಾಂಕ್",
        "website": "https://www.syndicatebank.in"
      }
    },
    {
      "type": "node",
      "id": 3412680703,
      "lat": 12.9889846,
      "lon": 77.555961,
      "tags": {
        "name": "Mamatha Jewels",
        "shop": "jewelry"
      }
    },
    {
      "type": "node",
      "id": 3412680704,
      "lat": 12.9889803,
      "lon": 77.5559601,
      "tags": {
        "name": "Gyan Exports",
        "shop": "clothes"
      }
    },
    {
      "type": "node",
      "id": 3412680774,
      "lat": 12.9889687,
      "lon": 77.555961,
      "tags": {
        "name": "Vishal Tea Company",
        "shop": "tea"
      }
    },
    {
      "type": "node",
      "id": 3412680901,
      "lat": 12.988954,
      "lon": 77.5559592,
      "tags": {
        "name": "Prasad Coffee Powder",
        "shop": "yes"
      }
    },
    {
      "type": "node",
      "id": 4035007844,
      "lat": 12.9852789,
      "lon": 77.5434809,
      "tags": {
        "amenity": "restaurant",
        "cuisine": "indian",
        "name": "Sri Krishna Sagar"
      }
    },
    {
      "type": "node",
      "id": 4035297540,
      "lat": 12.9852423,
      "lon": 77.5437542,
      "tags": {
        "amenity": "ice_cream",
        "brand": "Naturals",
        "brand:wikidata": "Q24439154",
        "cuisine": "ice_cream",
        "name": "Naturals",
        "shop": "confectionery"
      }
    },
    {
      "type": "node",
      "id": 4036600738,
      "lat": 12.9879988,
      "lon": 77.5381661,
      "tags": {
        "cuisine": "indian",
        "name": "Tango Sandwich Centre",
        "shop": "fast_food"
      }
    },
    {
      "type": "node",
      "id": 4073230950,
      "lat": 12.9917285,
      "lon": 77.5386255,
      "tags": {
        "name": "Tata Docomo Customer Servie",
        "shop": "customer_service"
      }
    },
    {
      "type": "node",
      "id": 4087635781,
      "lat": 12.9866737,
      "lon": 77.5408083,
      "tags": {
        "amenity": "fast_food",
        "name": "Bansuri"
      }
    },
    {
      "type": "node",
      "id": 4087635782,
      "lat": 12.9878328,
      "lon": 77.5376138,
      "tags": {
        "name": "Gundappa Bakery",
        "shop": "bakery"
      }
    },
    {
      "type": "node",
      "id": 4343881190,
      "lat": 12.9850421,
      "lon": 77.5460481,
      "tags": {
        "addr:district": "Bengaluru Urban",
        "addr:full": "No 370.371,I Stage West Of Cord Road",
        "addr:postcode": "560079",
        "addr:state": "Karnataka",
        "amenity": "hospital",
        "name": "Dr Raos Maternity Hospital",
        "source": "OpenGovernmentData"
      }
    },
    {
      "type": "node",
      "id": 4383676406,
      "lat": 12.9939186,
      "lon": 77.5513274,
      "tags": {
        "name": "Simply Organics",
        "organic": "only",
        "shop": "supermarket"
      }
    },
    {
      "type": "node",
      "id": 4383676407,
      "lat": 12.9875682,
      "lon": 77.5504525,
      "tags": {
        "addr:city": "Bangalore",
        "addr:housenumber": "1190",
        "addr:postcode": "560010",
        "addr:street": "18th C Main Road, Rajajinagar 5th Block",
        "amenity": "internet_cafe",
        "name": "Blitz Zone"
      }
    },
    {
      "type": "node",
      "id": 4443484964,
      "lat": 12.9898377,
      "lon": 77.5550568,
      "tags": {
        "addr:city": "bangalore",
        "addr:housenumber": "723/B",
        "addr:postcode": "560010",
        "addr:street": "11th Main Rd, 3rd Block, Rajaji Nagar",
        "amenity": "pharmacy",
        "healthcare": "pharmacy",
        "name": "Dr. Suresh's Dia Care",
        "phone": "080 2338 2867",
        "website": "drsureshdiacare.com"
      }
    },
    {
      "type": "node",
      "id": 4444302998,
      "lat": 12.9862573,
      "lon": 77.5403259,
      "tags": {
        "addr:city": "Bengaluru",
        "addr:housenumber": "12",
        "addr:postcode": "560079",
        "addr:street": "4th Stage, 3rd Block,Basaveshwara Nagar,",
        "amenity": "restaurant",
        "cuisine": "chinese",
        "name": "Cave n Dine",
        "opening_hours": "11:00 to 16:00 , 180:30  to 23:30",
        "phone": "080 23102051",
        "website": "https://cavendine.com/"
      }
    },
    {
      "type": "node",
      "id": 4445860418,
      "lat": 12.9834865,
      "lon": 77.5515572,
      "tags": {
        "addr:city": "Bangalore",
        "addr:housenumber": "3",
        "addr:postcode": "560010",
        "addr:street": "Near Bhashyam Circle Beauty Spot Park, 63rd & 64th Cross, 5th Block, Rajajinagar",
        "amenity": "school",
        "name": "East West Academy",
        "phone": "+91080 2315 7577",
        "website": "eastwestacademy.in"
      }
    },
    {
      "type": "node",
      "id": 4445878633,
      "lat": 12.9881757,
      "lon": 77.5413711,
      "tags": {
        "addr:city": "Banglore",
        "addr:housenumber": "1",
        "addr:postcode": "560079",
        "addr:street": "Shamavana, 4th B Main, III Block, Basaveshwaranagar",
        "amenity": "school",
        "name": "Sri Vani Education Centre",
        "phone": "+9180 2323 8608",
        "website": "https://srivani.org/"
      }
    },
    {
      "type": "node",
      "id": 4446284111,
      "lat": 12.9845159,
      "lon": 77.5478044,
      "tags": {
        "addr:city": "bangalore",
        "addr:postcode": "560010",
        "addr:street": "GEF Block, RajajinagarIndustrial Town, Rajajinaga",
        "amenity": "restaurant",
        "cuisine": "regional",
        "name": "Kolkata Biryani And Rolls",
        "opening_hours": "12:00-15:00,18:30-22:00",
        "phone": "+91 7676471371"
      }
    },
    {
      "type": "node",
      "id": 4446337629,
      "lat": 12.9864094,
      "lon": 77.5405663,
      "tags": {
        "addr:city": "Bangalore",
        "addr:housenumber": "14",
        "addr:postcode": "560079",
        "addr:street": "4th Stage, 3rd Block,Basaveshwara Naga",
        "amenity": "restaurant",
        "cuisine": "regional",
        "name": "Cave N Dine",
        "opening_hours": "11:00-16:00,18:30-23:30",
        "phone": "080 23102051",
        "website": "https://cavendine.com/"
      }
    },
    {
      "type": "node",
      "id": 4446347659,
      "lat": 12.9891546,
      "lon": 77.5500014,
      "tags": {
        "addr:city": "bangalore",
        "addr:housenumber": "1",
        "addr:postcode": "560010",
        "addr:street": "5th Main, West of Chord Road, Shivanagar, Rajajinagar",
        "amenity": "restaurant",
        "cuisine": "regional",
        "name": "Shree Nandana Palace",
        "opening_hours": "12:00-23:00",
        "phone": "080 64444455"
      }
    },
    {
      "type": "node",
      "id": 4446664412,
      "lat": 12.9881648,
      "lon": 77.5548179,
      "tags": {
        "addr:city": "bangalore",
        "addr:housenumber": "111",
        "addr:postcode": "560010",
        "addr:street": "West of Chord Road,, Opp Rajajinagar 1st Block Junction",
        "amenity": "hospital",
        "name": "Fortis Hospital",
        "name:kn": "ಫೋರ್ಟಿಸ್ ಆಸ್ಪತ್ರೆ",
        "phone": "080-2300-4444",
        "website": "fortisbangalore.com"
      }
    },
    {
      "type": "node",
      "id": 4446670981,
      "lat": 12.9883267,
      "lon": 77.5549712,
      "tags": {
        "addr:city": "bangalore",
        "addr:housenumber": "2",
        "addr:postcode": "560010",
        "addr:street": "46th cross, Rajajinagar 4th Block",
        "amenity": "pharmacy",
        "name": "Nandhi Medicals",
        "phone": "+91 80 2314 5334"
      }
    },
    {
      "type": "node",
      "id": 4446692224,
      "lat": 12.9898567,
      "lon": 77.5542305,
      "tags": {
        "addr:city": "Bangalore",
        "addr:housenumber": "955",
        "addr:postcode": "560010,",
        "addr:street": "3rd Block, Rajajinagar",
        "amenity": "pharmacy",
        "healthcare": "pharmacy",
        "name": "Sri Venkateshwara Medical & General Store",
        "phone": "+91 94491 68854"
      }
    },
    {
      "type": "node",
      "id": 4446983284,
      "lat": 12.9853927,
      "lon": 77.5383552,
      "tags": {
        "addr:city": "Bangalore",
        "addr:housenumber": "723/B",
        "addr:postcode": "560010",
        "addr:street": "11th Main Rd, 3rd Block, Rajaji Nagar",
        "amenity": "pharmacy",
        "name": "Dr. Suresh's Dia Care",
        "phone": "+91 80 2338 2867",
        "source": "www.justdial.com",
        "website": "drsureshdiacare.com"
      }
    },
    {
      "type": "node",
      "id": 4446985998,
      "lat": 12.9857599,
      "lon": 77.5386584,
      "tags": {
        "amenity": "pharmacy"
      }
    },
    {
      "type": "node",
      "id": 4446985999,
      "lat": 12.9851133,
      "lon": 77.5390188,
      "tags": {
        "addr:city": "Bangalore",
        "addr:housenumber": "403",
        "addr:postcode": "560010",
        "addr:street": "Dr. Rajkumar Road, 6th Block, 80 Feet Rd, 4th Block, Ramchandrapuram",
        "amenity": "pharmacy",
        "name": "Amrutha Medicals",
        "name:kn": "ಅಮೃತ ಮೆಡಿಕಲ್ಸ್",
        "phone": "+91 80 2311 7929",
        "source": "www.justdial.com"
      }
    },
    {
      "type": "node",
      "id": 4446986158,
      "lat": 12.9877039,
      "lon": 77.5530939,
      "tags": {
        "addr:city": "bangalore",
        "addr:housenumber": "13",
        "addr:postcode": "560003",
        "addr:street": ",2nd Main Rd, Malleshwaram",
        "amenity": "pharmacy",
        "name": "Sridhar Medicals",
        "phone": "080 2336 3765"
      }
    },
    {
      "type": "node",
      "id": 4446999695,
      "lat": 12.9887964,
      "lon": 77.5555474,
      "tags": {
        "addr:city": "Bangalore",
        "addr:housenumber": "2/835/64/1,",
        "addr:postcode": "560010",
        "addr:street": "4th Block, Rajaji Nagar",
        "amenity": "pharmacy",
        "name": "Nandhi Medicals",
        "phone": "+9180 2314 5334",
        "source": "www.justdial.com"
      }
    },
    {
      "type": "node",
      "id": 4447156426,
      "lat": 12.9898003,
      "lon": 77.5500343,
      "tags": {
        "addr:city": "bangalore",
        "addr:housenumber": "5",
        "addr:postcode": "560010",
        "addr:street": "1st Stage, West Shivanahalli, Chord Road, Shivanagar, Rajaji Nagar",
        "amenity": "restaurant",
        "cuisine": "regional",
        "name": "Shree Nandini Palace",
        "opening_hours": "10:30-16:00,18:00-22:30",
        "phone": "080 2335 0055"
      }
    },
    {
      "type": "node",
      "id": 4447163944,
      "lat": 12.9878305,
      "lon": 77.5558493,
      "tags": {
        "addr:city": "Bangalore",
        "addr:housenumber": "638",
        "addr:postcode": "560010",
        "addr:street": "2nd Main, Near-Navarang Theater, Dr Rajkumar Rd, D-Block, 2nd Stage, Rajaji Nagar,",
        "amenity": "restaurant",
        "cuisine": "regional",
        "name": "Ambika Veg Restaurant",
        "opening_hours": "10:00 - 01:00",
        "phone": "080 4121 4708"
      }
    },
    {
      "type": "node",
      "id": 4447535055,
      "lat": 12.9879713,
      "lon": 77.5402233,
      "tags": {
        "addr:city": "Banglore",
        "addr:postcode": "560079",
        "addr:street": "4th Main Rd, KHB Colony, Basaveshwar Nagar,",
        "amenity": "school",
        "name": "Traffic Police Station Kamakshipalya",
        "name:kn": "ಕಾಮಾಕ್ಷಿಪಾಳ್ಯ ಸಂಚಾರ ಪೊಲೀಸ್ ಠಾಣೆ",
        "phone": "NA",
        "website": "NA"
      }
    },
    {
      "type": "node",
      "id": 4477057217,
      "lat": 12.9853846,
      "lon": 77.5444298,
      "tags": {
        "addr:city": "Bangalore",
        "addr:housenumber": "80",
        "addr:postcode": "560079",
        "addr:street": "1st Main Basaveshwaranagar",
        "amenity": "college",
        "contact:phone": "7022627374",
        "contact:phone_2": "7022627325",
        "name": "Allen Career Institute",
        "website": "https://www.allen.ac.in/"
      }
    },
    {
      "type": "node",
      "id": 4477057218,
      "lat": 12.9895041,
      "lon": 77.54581,
      "tags": {
        "addr:city": "Bangalore",
        "addr:postcode": "560010",
        "addr:street": "7th Main Road",
        "amenity": "fast_food",
        "cuisine": "indian",
        "name": "Sai Tiffin Centre"
      }
    },
    {
      "type": "node",
      "id": 4477057219,
      "lat": 12.9920497,
      "lon": 77.5461018,
      "tags": {
        "name": "Karnataka Fish Stall",
        "shop": "seafood"
      }
    },
    {
      "type": "node",
      "id": 4477057220,
      "lat": 12.993015,
      "lon": 77.5459803,
      "tags": {
        "amenity": "bank",
        "brand": "Axis Bank",
        "brand:wikidata": "Q2003549",
        "brand:wikipedia": "en:Axis Bank",
        "name": "Axis Bank",
        "name:en": "Axis Bank",
        "name:kn": "ಆಕ್ಸಿಸ್ ಬ್ಯಾಂಕ್",
        "website": "https://www.axisbank.com"
      }
    },
    {
      "type": "node",
      "id": 4477057221,
      "lat": 12.9938105,
      "lon": 77.5458656,
      "tags": {
        "amenity": "school",
        "name": "Indian High School"
      }
    },
    {
      "type": "node",
      "id": 4488021019,
      "lat": 12.984947,
      "lon": 77.5540532,
      "tags": {
        "addr:city": "Bangalore",
        "addr:housenumber": "179/Y",
        "addr:postcode": "560010",
        "addr:street": "Rajajinagar",
        "name": "Sweet Chariot",
        "phone": "(91)-80-23151481",
        "shop": "supermarket"
      }
    },
    {
      "type": "node",
      "id": 4489837289,
      "lat": 12.9842839,
      "lon": 77.5533883,
      "tags": {
        "addr:city": "Bangalore",
        "addr:housenumber": "61st cross Rajajinagar 5th Block",
        "addr:postcode": "560010",
        "addr:street": "61st Cross Road",
        "leisure": "sports_centre",
        "name": "Golden Touch Beauty Salon & Spa",
        "opening_hours": "08:00-20:00",
        "phone": "91)-80-23124499"
      }
    },
    {
      "type": "node",
      "id": 4489873401,
      "lat": 12.9874641,
      "lon": 77.5385407,
      "tags": {
        "addr:city": "Bengaluru",
        "addr:housenumber": "20/3",
        "addr:postcode": "560079",
        "addr:street": ", Kaushik Plaza, 80 Feet Road, 2nd Stage, Khb Colony, Near-Sony Show Room, Basaveshwara Nagar, 2nd Stage, KHB Colony, Basaveshwar Nagar, Bengaluru, Karnataka",
        "leisure": "sports_centre",
        "name": "Celebrities Fitness Slimming Studio",
        "opening_hours": "5:00-22:00",
        "phone": "\"096321 55362 \""
      }
    },
    {
      "type": "node",
      "id": 4490262862,
      "lat": 12.9881831,
      "lon": 77.5534451,
      "tags": {
        "addr:city": "bangalore",
        "addr:housenumber": "No.808/14,",
        "addr:postcode": "560010",
        "addr:street": "14th Main,50th Cross, Rajajinagar 3rd Block,",
        "name": "Snippetts Unisex Salon and Spa",
        "opening_hours": "08:00-20:00",
        "phone": "91)-9900777522",
        "shop": "beauty"
      }
    },
    {
      "type": "node",
      "id": 4530356087,
      "lat": 12.9889585,
      "lon": 77.555959,
      "tags": {
        "amenity": "cafe",
        "name": "Priya Tiffin Room"
      }
    },
    {
      "type": "node",
      "id": 4697889490,
      "lat": 12.9835135,
      "lon": 77.554155,
      "tags": {
        "addr:housenumber": "63",
        "addr:postcode": "560010",
        "addr:street": "63rd Cross Road",
        "amenity": "clinic",
        "internet_access": "wlan",
        "name": "Sevabhaya hospital",
        "name:en": "Sevabhaya hospital",
        "opening_hours": "Mo-Su 09:00-22:00"
      }
    },
    {
      "type": "node",
      "id": 5086281341,
      "lat": 12.9868452,
      "lon": 77.5403901,
      "tags": {
        "name": "Soumya Medicals",
        "shop": "medical_supply"
      }
    },
    {
      "type": "node",
      "id": 5157373778,
      "lat": 12.9933689,
      "lon": 77.5528214,
      "tags": {
        "amenity": "college",
        "name": "Government First Grade College"
      }
    },
    {
      "type": "node",
      "id": 5157373803,
      "lat": 12.9899364,
      "lon": 77.5528432,
      "tags": {
        "amenity": "pharmacy",
        "healthcare": "pharmacy",
        "name": "Kasturi Pharma and General Stores"
      }
    },
    {
      "type": "node",
      "id": 5157373805,
      "lat": 12.9873914,
      "lon": 77.5544089,
      "tags": {
        "name": "Vishwas Jewels (P) Ltd.",
        "shop": "jewelry"
      }
    },
    {
      "type": "node",
      "id": 5168685971,
      "lat": 12.9841839,
      "lon": 77.5496809,
      "tags": {
        "amenity": "toilets"
      }
    },
    {
      "type": "node",
      "id": 5168685972,
      "lat": 12.9843287,
      "lon": 77.5495899,
      "tags": {
        "amenity": "toilets"
      }
    },
    {
      "type": "node",
      "id": 5623433261,
      "lat": 12.9864932,
      "lon": 77.5558162,
      "tags": {
        "amenity": "pharmacy",
        "brand": "Apollo Pharmacy",
        "brand:wikidata": "Q62562612",
        "healthcare": "pharmacy",
        "name": "Apollo Pharmacy",
        "name:kn": "ಅಪೊಲೋ ಫಾರ್ಮಸಿ"
      }
    },
    {
      "type": "node",
      "id": 5623433262,
      "lat": 12.9863494,
      "lon": 77.5558101,
      "tags": {
        "name": "KAP Stationery",
        "shop": "stationery"
      }
    },
    {
      "type": "node",
      "id": 5623433263,
      "lat": 12.9863207,
      "lon": 77.5558088,
      "tags": {
        "name": "Sri Vasavi Gram Gold",
        "shop": "jewelry"
      }
    },
    {
      "type": "node",
      "id": 5623433264,
      "lat": 12.986288,
      "lon": 77.5558088,
      "tags": {
        "amenity": "atm",
        "brand": "State Bank of India",
        "brand:wikidata": "Q1340361",
        "name": "State Bank of India",
        "operator": "State Bank of India",
        "operator:wikidata": "Q1340361",
        "short_name": "SBI"
      }
    },
    {
      "type": "node",
      "id": 5623433265,
      "lat": 12.9861567,
      "lon": 77.5557927,
      "tags": {
        "amenity": "fast_food",
        "cuisine": "regional",
        "name": "Sri Venkateshwara Utsav"
      }
    },
    {
      "type": "node",
      "id": 5623433266,
      "lat": 12.9860253,
      "lon": 77.55579,
      "tags": {
        "name": "Sri Shiva Sai Agencies",
        "shop": "bed"
      }
    },
    {
      "type": "node",
      "id": 5623433267,
      "lat": 12.9860005,
      "lon": 77.5557914,
      "tags": {
        "name": "Sindhu Swadeshi Distribution Centre",
        "shop": "stationery"
      }
    },
    {
      "type": "node",
      "id": 5623433268,
      "lat": 12.9858992,
      "lon": 77.5557672,
      "tags": {
        "name": "Krishna Traders",
        "shop": "hardware"
      }
    },
    {
      "type": "node",
      "id": 5623433269,
      "lat": 12.9858665,
      "lon": 77.5557679,
      "tags": {
        "shop": "copyshop"
      }
    },
    {
      "type": "node",
      "id": 5623433270,
      "lat": 12.9858371,
      "lon": 77.5557672,
      "tags": {
        "name": "Manasa Enterprises",
        "shop": "clothes"
      }
    },
    {
      "type": "node",
      "id": 5623433272,
      "lat": 12.9855196,
      "lon": 77.5556874,
      "tags": {
        "name": "Shri Lakshmi Jewellery Works",
        "shop": "jewelry"
      }
    },
    {
      "type": "node",
      "id": 5623550267,
      "lat": 12.9877647,
      "lon": 77.5558484,
      "tags": {
        "name": "V. G. Provision Store",
        "shop": "convenience"
      }
    },
    {
      "type": "node",
      "id": 5623550268,
      "lat": 12.9877078,
      "lon": 77.5558591,
      "tags": {
        "amenity": "bank",
        "atm": "yes",
        "brand": "Canara Bank",
        "brand:en": "Canara Bank",
        "brand:hi": "केनरा बैंक",
        "brand:kn": "ಕೆನರಾ ಬ್ಯಾಂಕ್",
        "brand:pa": "ਕੇਨਰਾ ਬੈਂਕ",
        "brand:pnb": "کینرا بینک",
        "brand:ur": "کینرا بینک",
        "brand:wikidata": "Q2003777",
        "brand:wikipedia": "en:Canara Bank",
        "brand:wikipedia:pa": "ਕੇਨਰਾ ਬੈਂਕ",
        "name": "Canara Bank",
        "name:en": "Canara Bank",
        "name:hi": "केनरा बैंक",
        "name:kn": "ಕೆನರಾ ಬ್ಯಾಂಕ್",
        "name:pa": "ਕੇਨਰਾ ਬੈਂਕ",
        "name:pnb": "کینرا بینک",
        "name:ur": "کینرا بینک"
      }
    },
    {
      "type": "node",
      "id": 5623550269,
      "lat": 12.9876052,
      "lon": 77.5558577,
      "tags": {
        "amenity": "atm",
        "brand": "Canara Bank",
        "brand:en": "Canara Bank",
        "brand:hi": "केनरा बैंक",
        "brand:kn": "ಕೆನರಾ ಬ್ಯಾಂಕ್",
        "brand:pa": "ਕੇਨਰਾ ਬੈਂਕ",
        "brand:pnb": "کینرا بینک",
        "brand:ur": "کینرا بینک",
        "brand:wikidata": "Q2003777",
        "name": "Canara Bank",
        "name:en": "Canara Bank",
        "name:hi": "केनरा बैंक",
        "name:kn": "ಕೆನರಾ ಬ್ಯಾಂಕ್",
        "name:pa": "ਕੇਨਰਾ ਬੈਂਕ",
        "name:pnb": "کینرا بینک",
        "name:ur": "کینرا بینک",
        "operator": "Canara Bank",
        "operator:wikidata": "Q2003777"
      }
    },
    {
      "type": "node",
      "id": 5623550270,
      "lat": 12.9873452,
      "lon": 77.5558457,
      "tags": {
        "name": "Naveenraj Fruits Stall",
        "shop": "greengrocer"
      }
    },
    {
      "type": "node",
      "id": 5623550273,
      "lat": 12.9872184,
      "lon": 77.555841,
      "tags": {
        "name": "Himalaya Provision Store",
        "note": "Dry Fruits, Kirana & General Merchants",
        "shop": "convenience"
      }
    },
    {
      "type": "node",
      "id": 5623550274,
      "lat": 12.9871929,
      "lon": 77.5558383,
      "tags": {
        "name": "LJB Bakery",
        "shop": "bakery"
      }
    },
    {
      "type": "node",
      "id": 5623550275,
      "lat": 12.9870838,
      "lon": 77.5558457,
      "tags": {
        "shop": "greengrocer"
      }
    },
    {
      "type": "node",
      "id": 5623550276,
      "lat": 12.9870453,
      "lon": 77.5558383,
      "tags": {
        "name": "Samsung - Seema Enterprises",
        "shop": "electronics"
      }
    },
    {
      "type": "node",
      "id": 5623550277,
      "lat": 12.9870178,
      "lon": 77.5558417,
      "tags": {
        "shop": "greengrocer"
      }
    },
    {
      "type": "node",
      "id": 5623550279,
      "lat": 12.9867356,
      "lon": 77.5558403,
      "tags": {
        "name": "Jagger Tailors",
        "shop": "tailor"
      }
    },
    {
      "type": "node",
      "id": 5623550280,
      "lat": 12.9867094,
      "lon": 77.5558383,
      "tags": {
        "name": "Madhok Ladies Tailors",
        "shop": "tailor"
      }
    },
    {
      "type": "node",
      "id": 5623550281,
      "lat": 12.9866689,
      "lon": 77.5558296,
      "tags": {
        "name": "Bijapur Stores",
        "shop": "greengrocer"
      }
    },
    {
      "type": "node",
      "id": 5623550282,
      "lat": 12.9866447,
      "lon": 77.5558249,
      "tags": {
        "name": "Blue Bird Dry Cleaners",
        "shop": "dry_cleaning"
      }
    },
    {
      "type": "node",
      "id": 5623550283,
      "lat": 12.9865814,
      "lon": 77.5558215,
      "tags": {
        "amenity": "ice_cream",
        "name": "Himadri Ice Creams"
      }
    },
    {
      "type": "node",
      "id": 5624262705,
      "lat": 12.9898647,
      "lon": 77.5545636,
      "tags": {
        "name": "Sri Sai Fashion",
        "shop": "clothes"
      }
    },
    {
      "type": "node",
      "id": 5624262706,
      "lat": 12.9898621,
      "lon": 77.5546219,
      "tags": {
        "amenity": "atm",
        "brand": "indicash"
      }
    },
    {
      "type": "node",
      "id": 5624262707,
      "lat": 12.9898477,
      "lon": 77.5551537,
      "tags": {
        "name": "Aadinath Medicals",
        "shop": "medical_supply"
      }
    },
    {
      "type": "node",
      "id": 5624262708,
      "lat": 12.9898516,
      "lon": 77.5551738,
      "tags": {
        "amenity": "atm",
        "brand": "HDFC Bank",
        "brand:wikidata": "Q631047",
        "name": "HDFC Bank",
        "operator": "HDFC Bank",
        "operator:wikidata": "Q631047",
        "short_name": "HDFC"
      }
    },
    {
      "type": "node",
      "id": 5624262709,
      "lat": 12.9898484,
      "lon": 77.5553153,
      "tags": {
        "name": "Graduate Textiles & Tailors",
        "shop": "tailor"
      }
    },
    {
      "type": "node",
      "id": 5624262710,
      "lat": 12.9898418,
      "lon": 77.5553763,
      "tags": {
        "amenity": "atm",
        "brand": "Union Bank"
      }
    },
    {
      "type": "node",
      "id": 5624262711,
      "lat": 12.9898399,
      "lon": 77.5554641,
      "tags": {
        "amenity": "dentist",
        "healthcare": "dentist",
        "name": "Magi Orthodontic Dental Care Centre"
      }
    },
    {
      "type": "node",
      "id": 5624262712,
      "lat": 12.9898562,
      "lon": 77.5555627,
      "tags": {
        "name": "Shri Thrupti Real Estate",
        "shop": "copyshop"
      }
    },
    {
      "type": "node",
      "id": 5624262713,
      "lat": 12.9898575,
      "lon": 77.5556009,
      "tags": {
        "name": "Bombay Modern Tailors",
        "shop": "tailor"
      }
    },
    {
      "type": "node",
      "id": 5624262714,
      "lat": 12.9898562,
      "lon": 77.5556318,
      "tags": {
        "name": "Singer Showroom",
        "note": "Sewing Machine, Home Appliances",
        "shop": "houseware"
      }
    },
    {
      "type": "node",
      "id": 5624262715,
      "lat": 12.9898418,
      "lon": 77.555723,
      "tags": {
        "amenity": "clinic",
        "healthcare": "clinic",
        "name": "Deepashri Clinical Laboratory"
      }
    },
    {
      "type": "node",
      "id": 5624262720,
      "lat": 12.9885991,
      "lon": 77.555898,
      "tags": {
        "amenity": "atm",
        "name": "NKGSB Bank"
      }
    },
    {
      "type": "node",
      "id": 5624263021,
      "lat": 12.9887846,
      "lon": 77.555898,
      "tags": {
        "note": "name unknown",
        "shop": "supermarket"
      }
    },
    {
      "type": "node",
      "id": 5624263022,
      "lat": 12.9886337,
      "lon": 77.5558993,
      "tags": {
        "amenity": "bank",
        "atm": "yes",
        "name": "NKGSB Bank"
      }
    },
    {
      "type": "node",
      "id": 5624263023,
      "lat": 12.9885435,
      "lon": 77.5558846,
      "tags": {
        "name": "One Touch",
        "shop": "electronics"
      }
    },
    {
      "type": "node",
      "id": 5624263024,
      "lat": 12.9885148,
      "lon": 77.5558839,
      "tags": {
        "name": "Pradhan Jewels & Diamonds",
        "shop": "jewelry"
      }
    },
    {
      "type": "node",
      "id": 5624263025,
      "lat": 12.9884716,
      "lon": 77.5558826,
      "tags": {
        "shop": "copyshop"
      }
    },
    {
      "type": "node",
      "id": 5624263026,
      "lat": 12.9884632,
      "lon": 77.5557008,
      "tags": {
        "name": "GP Footwear",
        "shop": "shoes"
      }
    },
    {
      "type": "node",
      "id": 5624263027,
      "lat": 12.9882482,
      "lon": 77.5558591,
      "tags": {
        "name": "Sharada Hearing Centre",
        "shop": "hearing_aids"
      }
    },
    {
      "type": "node",
      "id": 5624263028,
      "lat": 12.9882162,
      "lon": 77.5558598,
      "tags": {
        "name": "Sudha Book House",
        "shop": "books"
      }
    },
    {
      "type": "node",
      "id": 5624263029,
      "lat": 12.988128,
      "lon": 77.5558463,
      "tags": {
        "name": "Sri Sai Cake Palace",
        "shop": "bakery"
      }
    },
    {
      "type": "node",
      "id": 5624263030,
      "lat": 12.9880953,
      "lon": 77.5558457,
      "tags": {
        "name": "S. K. Fashions",
        "shop": "clothes"
      }
    },
    {
      "type": "node",
      "id": 5624263031,
      "lat": 12.9880221,
      "lon": 77.5558457,
      "tags": {
        "amenity": "pharmacy",
        "name": "Sree Prabhu Medical Centre"
      }
    },
    {
      "type": "node",
      "id": 5846733389,
      "lat": 12.9880976,
      "lon": 77.5376599,
      "tags": {
        "name": "Pavithra Paradise",
        "payment:coins": "yes",
        "payment:debit_cards": "yes",
        "payment:notes": "yes",
        "shop": "bakery"
      }
    },
    {
      "type": "node",
      "id": 5922659271,
      "lat": 12.994309,
      "lon": 77.5508192,
      "tags": {
        "name": "Rostar Mottan Stall",
        "note": "spelled as Mottan on board",
        "shop": "butcher"
      }
    },
    {
      "type": "node",
      "id": 5922659273,
      "lat": 12.9934544,
      "lon": 77.5508621,
      "tags": {
        "name": "The Ancient Buddha",
        "note": "Healthcare and Spa",
        "shop": "yes"
      }
    },
    {
      "type": "node",
      "id": 5922659275,
      "lat": 12.9928703,
      "lon": 77.550834,
      "tags": {
        "amenity": "fast_food",
        "cuisine": "regional",
        "name": "Hotel Park Inn"
      }
    },
    {
      "type": "node",
      "id": 5922659276,
      "lat": 12.9928193,
      "lon": 77.5508326,
      "tags": {
        "name": "Srinidhi Wines",
        "shop": "wine"
      }
    },
    {
      "type": "node",
      "id": 5922659277,
      "lat": 12.9921267,
      "lon": 77.5507937,
      "tags": {
        "brand": "Hyundai",
        "brand:wikidata": "Q55931",
        "name": "Trident Hyundai",
        "shop": "car"
      }
    },
    {
      "type": "node",
      "id": 5922659278,
      "lat": 12.9914563,
      "lon": 77.550787,
      "tags": {
        "amenity": "community_centre",
        "name": "Sri Channakeshava Kalyana Mantapa"
      }
    },
    {
      "type": "node",
      "id": 5922659279,
      "lat": 12.9913348,
      "lon": 77.5507951,
      "tags": {
        "amenity": "college",
        "name": "Hindi Shikshak Training College"
      }
    },
    {
      "type": "node",
      "id": 5922659280,
      "lat": 12.9911127,
      "lon": 77.5507508,
      "tags": {
        "name": "Sun Car Decore",
        "shop": "car_parts"
      }
    },
    {
      "type": "node",
      "id": 5922659281,
      "lat": 12.9909964,
      "lon": 77.5507374,
      "tags": {
        "name": "Bharath Car Fitting",
        "shop": "car_repair"
      }
    },
    {
      "type": "node",
      "id": 5922659282,
      "lat": 12.9910238,
      "lon": 77.5505564,
      "tags": {
        "amenity": "atm",
        "brand": "ICICI Bank",
        "brand:wikidata": "Q1653258",
        "operator": "ICICI Bank",
        "operator:wikidata": "Q1653258",
        "short_name": "ICICI"
      }
    },
    {
      "type": "node",
      "id": 5922660388,
      "lat": 12.9898921,
      "lon": 77.5536704,
      "tags": {
        "amenity": "dentist",
        "healthcare": "dentist",
        "name": "Ohan's Dental Care"
      }
    },
    {
      "type": "node",
      "id": 5922660389,
      "lat": 12.9899039,
      "lon": 77.5535725,
      "tags": {
        "name": "V. R. Opticians",
        "shop": "optician"
      }
    },
    {
      "type": "node",
      "id": 5922660390,
      "lat": 12.9899111,
      "lon": 77.5535088,
      "tags": {
        "name": "Annapoorneshwari Cars",
        "shop": "car"
      }
    },
    {
      "type": "node",
      "id": 5922660392,
      "lat": 12.9899111,
      "lon": 77.5532211,
      "tags": {
        "amenity": "restaurant",
        "cuisine": "regional",
        "name": "Sri Durga Grand Veg"
      }
    },
    {
      "type": "node",
      "id": 5922660393,
      "lat": 12.9899104,
      "lon": 77.5531138,
      "tags": {
        "amenity": "pharmacy",
        "name": "Seetha Medicals & General Store"
      }
    },
    {
      "type": "node",
      "id": 5922660394,
      "lat": 12.9899287,
      "lon": 77.5528993,
      "tags": {
        "amenity": "bank",
        "atm": "yes",
        "brand": "Axis Bank",
        "brand:wikidata": "Q2003549",
        "name": "Axis Bank",
        "name:kn": "ಆಕ್ಸಿಸ್ ಬ್ಯಾಂಕ್"
      }
    },
    {
      "type": "node",
      "id": 5922660395,
      "lat": 12.9899349,
      "lon": 77.5527977,
      "tags": {
        "amenity": "fast_food",
        "cuisine": "regional",
        "name": "Hotel Kaveri",
        "name:kn": "ಹೊಟೆಲ್ ಕಾವೇರಿ"
      }
    },
    {
      "type": "node",
      "id": 6464656295,
      "lat": 12.9874542,
      "lon": 77.5495752,
      "tags": {
        "name": "J.P. Lights and Appliances",
        "shop": "electronics"
      }
    },
    {
      "type": "node",
      "id": 6464656296,
      "lat": 12.9873587,
      "lon": 77.5495564,
      "tags": {
        "amenity": "fast_food",
        "name": "Nala's Kitchen"
      }
    },
    {
      "type": "node",
      "id": 6464656297,
      "lat": 12.9861643,
      "lon": 77.5491935,
      "tags": {
        "amenity": "clinic",
        "name": "New Modern Clinic"
      }
    },
    {
      "type": "node",
      "id": 6464656298,
      "lat": 12.9834415,
      "lon": 77.548714,
      "tags": {
        "leisure": "fitness_station",
        "name": "Movenza Fitness"
      }
    },
    {
      "type": "node",
      "id": 6487165551,
      "lat": 12.9904646,
      "lon": 77.5505346,
      "tags": {
        "amenity": "restaurant",
        "cuisine": "indian",
        "name": "Udupi Upachar"
      }
    },
    {
      "type": "node",
      "id": 6487165552,
      "lat": 12.9954423,
      "lon": 77.5504727,
      "tags": {
        "name": "True Cars",
        "shop": "car"
      }
    },
    {
      "type": "node",
      "id": 6502980174,
      "lat": 12.9821954,
      "lon": 77.5493143,
      "tags": {
        "addr:district": "Bengaluru Urban",
        "addr:full": "1032, 5th Block Opp Ganesh Temple, Chor Road Rajajinagar",
        "addr:postcode": "560010",
        "addr:state": "Karnataka",
        "amenity": "hospital",
        "healthcare": "hospital",
        "name": "The Eye Surgical Centre"
      }
    },
    {
      "type": "node",
      "id": 6646295302,
      "lat": 12.9860978,
      "lon": 77.5543504,
      "tags": {
        "addr:city": "Bangalore",
        "addr:postcode": "560010",
        "addr:street": "12th Main Road",
        "air_conditioning": "no",
        "amenity": "restaurant",
        "bar": "no",
        "cuisine": "indian;juice;ice_cream",
        "name": "New Shanthi Sagar",
        "opening_hours": "Mo-Su 06:00-22:00"
      }
    },
    {
      "type": "node",
      "id": 6681254107,
      "lat": 12.9899287,
      "lon": 77.5529918,
      "tags": {
        "amenity": "restaurant",
        "name": "Al-Taj Restaurant"
      }
    },
    {
      "type": "node",
      "id": 6886594811,
      "lat": 12.9898745,
      "lon": 77.5528128,
      "tags": {
        "addr:city": "Bengaluru",
        "addr:district": "BENGALURU URBAN",
        "addr:full": "No. 968, 2nd Floor, 41st Cross, 3rd Block. Opposite E. S. I. Hospital, Rajajinagar",
        "addr:postcode": "560010",
        "addr:state": "Karnataka",
        "amenity": "blood_bank",
        "contact:mobile": "9448084990",
        "contact:phone": "8023147303",
        "name": "Akshay Voluntary Blood Bank",
        "opening_hours": "24/7",
        "operator:type": "ngo",
        "source": "OpenGovernmentData"
      }
    },
    {
      "type": "node",
      "id": 6886594812,
      "lat": 12.9907376,
      "lon": 77.5533566,
      "tags": {
        "addr:city": "Bengaluru",
        "addr:district": "BENGALURU URBAN",
        "addr:full": "Rajajinagar",
        "addr:postcode": "560010",
        "addr:state": "Karnataka",
        "amenity": "blood_bank",
        "contact:mobile": "9945343990",
        "contact:phone": "8023013808",
        "name": "E. S. I. Hospital Blood Bank, Rajajinagar",
        "opening_hours": "24/7",
        "operator:type": "government",
        "source": "OpenGovernmentData"
      }
    },
    {
      "type": "node",
      "id": 6938690602,
      "lat": 12.9845343,
      "lon": 77.5532775,
      "tags": {
        "addr:district": "Bengaluru Urban",
        "addr:full": "25 27 60Th Cross 5Th Block Near Bashyam Circle Rajajinagar",
        "addr:postcode": "560010",
        "addr:state": "Karnataka",
        "amenity": "clinic",
        "name": "Jinka Nursing Home",
        "source": "OpenGovernmentData"
      }
    },
    {
      "type": "node",
      "id": 6938690603,
      "lat": 12.9845512,
      "lon": 77.5528322,
      "tags": {
        "addr:district": "Bengaluru Urban",
        "addr:full": "No. 851/D , 5Th Block , Rajajinagar , 60Th Cross",
        "addr:postcode": "560040",
        "addr:state": "Karnataka",
        "amenity": "hospital",
        "name": "Vaidyam Hospital",
        "source": "OpenGovernmentData"
      }
    },
    {
      "type": "node",
      "id": 6938690604,
      "lat": 12.9897745,
      "lon": 77.5551014,
      "tags": {
        "addr:district": "Bengaluru Urban",
        "addr:full": "723 / B Main E S I Hospital Raod, 3Road Block, Rajajinagar",
        "addr:postcode": "560010",
        "addr:state": "Karnataka",
        "amenity": "hospital",
        "name": "Suresh Hospital - Bangalore",
        "source": "OpenGovernmentData"
      }
    },
    {
      "type": "node",
      "id": 6939438895,
      "lat": 12.982442,
      "lon": 77.5493681,
      "tags": {
        "addr:district": "Bengaluru Urban",
        "addr:full": "1031, 20Th Main Road, 5Th Block, Rajajinagar",
        "addr:postcode": "560010",
        "addr:state": "Karnataka",
        "amenity": "hospital",
        "name": "Sidvin Hospital Pvt Ltd",
        "source": "OpenGovernmentData"
      }
    },
    {
      "type": "node",
      "id": 6947707901,
      "lat": 12.9895981,
      "lon": 77.5388995,
      "tags": {
        "addr:district": "Bengaluru Urban",
        "addr:full": "425/A, 6Th Main Road 3Road Stage, 3Road Block Basaveshwara Nagar",
        "addr:postcode": "560079",
        "addr:state": "Karnataka",
        "amenity": "clinic",
        "name": "Matru Nursing Home And Trauma Care Centre",
        "source": "OpenGovernmentData"
      }
    },
    {
      "type": "node",
      "id": 6948540414,
      "lat": 12.9880313,
      "lon": 77.5557142,
      "tags": {
        "addr:district": "Bengaluru Urban",
        "addr:full": "No. 652 , 46Th Cross , 'A' , 3Road Block Rajajinagar Near Cananra Bank",
        "addr:postcode": "560010",
        "addr:state": "Karnataka",
        "amenity": "clinic",
        "name": "Sri Sai Clinic and Maternity Home",
        "source": "OpenGovernmentData"
      }
    },
    {
      "type": "node",
      "id": 7043906885,
      "lat": 12.9900969,
      "lon": 77.5545487,
      "tags": {
        "name": "Shree Sai Silk Sarees",
        "shop": "clothes"
      }
    },
    {
      "type": "node",
      "id": 7124643393,
      "lat": 12.9876889,
      "lon": 77.5496471,
      "tags": {
        "name": "Royal Stag",
        "shop": "alcohol"
      }
    },
    {
      "type": "node",
      "id": 7139631437,
      "lat": 12.9843239,
      "lon": 77.5486091,
      "tags": {
        "amenity": "fast_food",
        "cuisine": "regional",
        "name": "Saanvi Delicacy"
      }
    },
    {
      "type": "node",
      "id": 7139631439,
      "lat": 12.9811953,
      "lon": 77.5485688,
      "tags": {
        "amenity": "place_of_worship",
        "religion": "hindu"
      }
    },
    {
      "type": "node",
      "id": 7146770602,
      "lat": 12.9921881,
      "lon": 77.5546494,
      "tags": {
        "amenity": "restaurant",
        "cuisine": "regional",
        "name": "Karavali Fine Dine"
      }
    },
    {
      "type": "node",
      "id": 7146770603,
      "lat": 12.988307,
      "lon": 77.5558618,
      "tags": {
        "amenity": "fast_food",
        "cuisine": "regional",
        "name": "Spicy Secret"
      }
    },
    {
      "type": "node",
      "id": 7146770604,
      "lat": 12.98691,
      "lon": 77.5558256,
      "tags": {
        "brand": "Airtel",
        "brand:wikidata": "Q854867",
        "name": "Airtel",
        "shop": "mobile_phone"
      }
    },
    {
      "type": "node",
      "id": 7146770605,
      "lat": 12.9849224,
      "lon": 77.5552703,
      "tags": {
        "brand": "Airtel",
        "brand:wikidata": "Q854867",
        "name": "Airtel",
        "shop": "mobile_phone"
      }
    },
    {
      "type": "node",
      "id": 7156536792,
      "lat": 12.9906161,
      "lon": 77.5505832,
      "tags": {
        "amenity": "pharmacy",
        "name": "Harshitha Medical & General Store"
      }
    },
    {
      "type": "node",
      "id": 7156536793,
      "lat": 12.988699,
      "lon": 77.5499944,
      "tags": {
        "amenity": "atm",
        "brand": "ICICI Bank",
        "brand:wikidata": "Q1653258",
        "name": "ICICI Bank",
        "operator": "ICICI Bank",
        "operator:wikidata": "Q1653258",
        "short_name": "ICICI"
      }
    },
    {
      "type": "node",
      "id": 7156536795,
      "lat": 12.9858672,
      "lon": 77.54912,
      "tags": {
        "name": "Jaguar Lighting",
        "shop": "electronics"
      }
    },
    {
      "type": "node",
      "id": 7159791860,
      "lat": 12.9864945,
      "lon": 77.5555319,
      "tags": {
        "addr:city": "Bengaluru",
        "addr:postcode": "560010",
        "addr:street": "54th Cross Road",
        "addr:suburb": "Rajajinagar",
        "name": "Coffee Day Essentials",
        "shop": "convenience"
      }
    },
    {
      "type": "node",
      "id": 7235403686,
      "lat": 12.9853993,
      "lon": 77.5454024,
      "tags": {
        "amenity": "hospital",
        "name": "Yashas Neurocare"
      }
    },
    {
      "type": "node",
      "id": 7235403985,
      "lat": 12.9870634,
      "lon": 77.549951,
      "tags": {
        "amenity": "hospital",
        "name": "Focus Diagnostic Center"
      }
    },
    {
      "type": "node",
      "id": 7236205648,
      "lat": 12.9900398,
      "lon": 77.5557384,
      "tags": {
        "amenity": "pharmacy",
        "name": "Stay Happi Pharmacy"
      }
    },
    {
      "type": "node",
      "id": 7236205652,
      "lat": 12.9847669,
      "lon": 77.5531782,
      "tags": {
        "amenity": "school",
        "name": "New Oxford High School"
      }
    },
    {
      "type": "node",
      "id": 7236205657,
      "lat": 12.9850504,
      "lon": 77.5532533,
      "tags": {
        "amenity": "pharmacy",
        "brand": "Apollo Pharmacy",
        "brand:wikidata": "Q62562612",
        "healthcare": "pharmacy",
        "name": "Apollo Pharmacy",
        "name:kn": "ಅಪೊಲೋ ಫಾರ್ಮಸಿ"
      }
    },
    {
      "type": "node",
      "id": 7236205658,
      "lat": 12.9857287,
      "lon": 77.5524808,
      "tags": {
        "amenity": "bank",
        "atm": "yes",
        "brand": "HDFC Bank",
        "brand:wikidata": "Q631047",
        "name": "HDFC Bank",
        "operator": "HDFC Bank",
        "short_name": "HDFC"
      }
    },
    {
      "type": "node",
      "id": 7236205659,
      "lat": 12.9858058,
      "lon": 77.5513798,
      "tags": {
        "amenity": "bank",
        "atm": "yes",
        "brand": "Karur Vysya Bank",
        "brand:wikidata": "Q6373724",
        "name": "Karur Vysya Bank",
        "name:kn": "ಕರೂರು ವೈಶ್ಯ ಬ್ಯಾಂಕ್",
        "operator": "Karur Vysya Bank"
      }
    },
    {
      "type": "node",
      "id": 7236205660,
      "lat": 12.9862606,
      "lon": 77.5508527,
      "tags": {
        "name": "Ashirwad Market",
        "shop": "supermarket"
      }
    },
    {
      "type": "node",
      "id": 7236205661,
      "lat": 12.9863873,
      "lon": 77.5508474,
      "tags": {
        "amenity": "bank",
        "atm": "yes",
        "brand": "Bank of Maharashtra",
        "brand:wikidata": "Q2004304",
        "name": "Bank of Maharashtra",
        "operator": "Bank of Maharashtra"
      }
    },
    {
      "type": "node",
      "id": 7236205666,
      "lat": 12.9885082,
      "lon": 77.5499395,
      "tags": {
        "name": "City Lights and Appliances",
        "shop": "electronics"
      }
    },
    {
      "type": "node",
      "id": 7236205672,
      "lat": 12.9915491,
      "lon": 77.5507884,
      "tags": {
        "name": "Car World",
        "shop": "car_parts"
      }
    },
    {
      "type": "node",
      "id": 7257126384,
      "lat": 12.9960502,
      "lon": 77.5476876,
      "tags": {
        "amenity": "college",
        "name": "Goutham College",
        "website": "https://gouthamcollege.org/"
      }
    },
    {
      "type": "node",
      "id": 7292235610,
      "lat": 12.9897647,
      "lon": 77.5553186,
      "tags": {
        "name": "Matrix Salon",
        "shop": "hairdresser"
      }
    },
    {
      "type": "node",
      "id": 7572526695,
      "lat": 12.9794497,
      "lon": 77.5442417,
      "tags": {
        "addr:district": "Bengaluru Urban",
        "addr:full": "Agrahara Dasarahalli, Rajajinagar, Bengaluru",
        "addr:postcode": "560079",
        "addr:state": "Karnataka",
        "amenity": "clinic",
        "name": "Adarsha Clinic",
        "source": "Local Knowledge"
      }
    },
    {
      "type": "node",
      "id": 7572526722,
      "lat": 12.981027,
      "lon": 77.550187,
      "tags": {
        "addr:district": "Bengaluru Urban",
        "addr:full": "Jedara Halli, Rajajinagar, Bengaluru",
        "addr:postcode": "560010",
        "addr:state": "Karnataka",
        "amenity": "clinic",
        "name": "Shree Maternity",
        "source": "Local Knowledge"
      }
    },
    {
      "type": "node",
      "id": 7572526781,
      "lat": 12.9794315,
      "lon": 77.5441641,
      "tags": {
        "addr:district": "Bengaluru Urban",
        "addr:full": "Agrahara Dasarahalli, Rajajinagar, Bengaluru",
        "addr:postcode": "560010",
        "addr:state": "Karnataka",
        "amenity": "hospital",
        "name": "Ammashrees Hospital",
        "source": "Local Knowledge"
      }
    },
    {
      "type": "node",
      "id": 7658279910,
      "lat": 12.9930284,
      "lon": 77.5541264,
      "tags": {
        "access": "yes",
        "amenity": "toilets",
        "description": "BBMP",
        "female": "yes",
        "male": "yes"
      }
    },
    {
      "type": "node",
      "id": 8187962488,
      "lat": 12.9916668,
      "lon": 77.5549016,
      "tags": {
        "addr:full": "41st Cross Rd, 2nd Block, Rajajinagar, Bengaluru, Karnataka",
        "addr:state": "Karnataka",
        "amenity": "bank",
        "brand": "Union Bank of India",
        "brand:wikidata": "Q2004078",
        "brand:wikipedia": "en:Union Bank of India",
        "name": "Union Bank of India",
        "name:kn": "ಯೂನಿಯನ್ ಬ್ಯಾಂಕ್"
      }
    },
    {
      "type": "node",
      "id": 8188038735,
      "lat": 12.9916924,
      "lon": 77.5539007,
      "tags": {
        "addr:full": "620/A/1, 12th Main Rd, 2nd Block, Rajajinagar, Bengaluru, Karnataka",
        "addr:state": "Karnataka",
        "amenity": "hospital",
        "healthcare": "hospital",
        "name": "ESIC Model Hospital"
      }
    },
    {
      "type": "node",
      "id": 8188038743,
      "lat": 12.9904985,
      "lon": 77.5530924,
      "tags": {
        "addr:full": "3rd Block, Rajajinagar, Bengaluru, Karnataka",
        "addr:state": "Karnataka",
        "amenity": "hospital",
        "healthcare": "hospital",
        "name": "Esi Hospital Bangalore",
        "operator": "Employees' State Insurance",
        "operator:short": "ESI",
        "operator:wikidata": "Q3595726"
      }
    },
    {
      "type": "node",
      "id": 8188038786,
      "lat": 12.9844963,
      "lon": 77.5551801,
      "tags": {
        "addr:full": "20th Main Rd, 5 Block, 3rd Block, Rajajinagar, Bengaluru, Karnataka",
        "addr:state": "Karnataka",
        "amenity": "hospital",
        "name": "Government Hospital",
        "name:kn": "ಸರ್ಕಾರಿ ಆಸ್ಪತ್ರೆ"
      }
    },
    {
      "type": "node",
      "id": 9063447833,
      "lat": 12.9870447,
      "lon": 77.5422372,
      "tags": {
        "amenity": "cafe",
        "name": "Rasayana coffee bar"
      }
    },
    {
      "type": "node",
      "id": 9161008304,
      "lat": 12.987796,
      "lon": 77.537777,
      "tags": {
        "brand": "cult.fit",
        "brand:wikidata": "Q121289250",
        "leisure": "fitness_centre",
        "name": "cult.fit",
        "operator": "cult.fit"
      }
    },
    {
      "type": "node",
      "id": 9163088408,
      "lat": 12.9873836,
      "lon": 77.5386851,
      "tags": {
        "amenity": "language_school",
        "email": "enquiry@sayuri.co.in",
        "name": "Sayuri",
        "phone": "+91 99 006 31710",
        "website": "https://sayuri.co.in/"
      }
    },
    {
      "type": "node",
      "id": 9171580313,
      "lat": 12.9951708,
      "lon": 77.5509506,
      "tags": {
        "amenity": "toilets",
        "operator": "BBMP"
      }
    },
    {
      "type": "node",
      "id": 9632587579,
      "lat": 12.9876209,
      "lon": 77.5554702,
      "tags": {
        "name": "Jain Bakes",
        "shop": "bakery"
      }
    },
    {
      "type": "node",
      "id": 9632587580,
      "lat": 12.9876993,
      "lon": 77.5547004,
      "tags": {
        "name": "Color Curry",
        "shop": "copyshop"
      }
    },
    {
      "type": "node",
      "id": 9632587581,
      "lat": 12.987698,
      "lon": 77.5544375,
      "tags": {
        "name": "Asha Sweet Center",
        "shop": "confectionery"
      }
    },
    {
      "type": "node",
      "id": 9632587582,
      "lat": 12.9876693,
      "lon": 77.5541344,
      "tags": {
        "shop": "mobile_phone"
      }
    },
    {
      "type": "node",
      "id": 9632587583,
      "lat": 12.9877072,
      "lon": 77.5532667,
      "tags": {
        "name": "Ganapathi Jewels and Diamonds",
        "shop": "jewelry"
      }
    },
    {
      "type": "node",
      "id": 9632587584,
      "lat": 12.9874837,
      "lon": 77.5525647,
      "tags": {
        "name": "Adishwar",
        "name:kn": "ಅದಿಶ್ವರ್",
        "shop": "electronics"
      }
    },
    {
      "type": "node",
      "id": 9632587585,
      "lat": 12.9885762,
      "lon": 77.5526297,
      "tags": {
        "name": "Bharath Book Center",
        "shop": "books"
      }
    },
    {
      "type": "node",
      "id": 9632587586,
      "lat": 12.9895014,
      "lon": 77.5526485,
      "tags": {
        "name": "The Signman",
        "shop": "hardware"
      }
    },
    {
      "type": "node",
      "id": 9632630919,
      "lat": 12.9932335,
      "lon": 77.5512538,
      "tags": {
        "access": "yes",
        "amenity": "toilets"
      }
    },
    {
      "type": "node",
      "id": 9872645104,
      "lat": 12.9895929,
      "lon": 77.5553307,
      "tags": {
        "amenity": "kindergarten",
        "name": "Kids Cube International"
      }
    },
    {
      "type": "node",
      "id": 9872645111,
      "lat": 12.9897405,
      "lon": 77.5526163,
      "tags": {
        "shop": "greengrocer"
      }
    },
    {
      "type": "node",
      "id": 9872645114,
      "lat": 12.9905083,
      "lon": 77.5507381,
      "tags": {
        "access": "yes",
        "amenity": "toilets"
      }
    },
    {
      "type": "node",
      "id": 9910000923,
      "lat": 12.9941692,
      "lon": 77.5513637,
      "tags": {
        "name": "Kadambari",
        "shop": "boutique"
      }
    },
    {
      "type": "node",
      "id": 9936631185,
      "lat": 12.986139,
      "lon": 77.5508943,
      "tags": {
        "amenity": "school",
        "name": "Bala Vidya Mandir School"
      }
    },
    {
      "type": "node",
      "id": 9936631186,
      "lat": 12.9860841,
      "lon": 77.5507428,
      "tags": {
        "amenity": "kindergarten",
        "name": "Jack and the Beanstalk"
      }
    },
    {
      "type": "node",
      "id": 9936631187,
      "lat": 12.9881057,
      "lon": 77.550838,
      "tags": {
        "brand": "HOPCOMS",
        "brand:wikidata": "Q22908959",
        "name": "HOPCOMS",
        "shop": "greengrocer"
      }
    },
    {
      "type": "node",
      "id": 9936631189,
      "lat": 12.9878673,
      "lon": 77.5507743,
      "tags": {
        "access": "yes",
        "amenity": "toilets",
        "fee": "yes",
        "operator": "BBMP"
      }
    },
    {
      "type": "node",
      "id": 9936668824,
      "lat": 12.9874406,
      "lon": 77.5509466,
      "tags": {
        "amenity": "drinking_water"
      }
    },
    {
      "type": "node",
      "id": 9936668825,
      "lat": 12.9871936,
      "lon": 77.5507991,
      "tags": {
        "shop": "hairdresser"
      }
    },
    {
      "type": "node",
      "id": 9936668906,
      "lat": 12.9832366,
      "lon": 77.5492541,
      "tags": {
        "access": "yes",
        "amenity": "toilets",
        "fee": "yes",
        "operator": "BBMP"
      }
    },
    {
      "type": "node",
      "id": 9936668911,
      "lat": 12.9871845,
      "lon": 77.5501205,
      "tags": {
        "name": "Vivek Tailors",
        "shop": "tailor"
      }
    },
    {
      "type": "node",
      "id": 10006972490,
      "lat": 12.9909755,
      "lon": 77.546521,
      "tags": {
        "amenity": "drinking_water"
      }
    },
    {
      "type": "node",
      "id": 10285926886,
      "lat": 12.9869518,
      "lon": 77.5558249,
      "tags": {
        "contact:facebook": "tumbledry.in",
        "contact:instagram": "tumbledryind",
        "laundry_service": "yes",
        "name": "Tumbledry",
        "phone": "+917677250250",
        "shop": "laundry",
        "website": "https://www.tumbledry.in/"
      }
    },
    {
      "type": "node",
      "id": 10285926887,
      "lat": 12.9894282,
      "lon": 77.5541009,
      "tags": {
        "amenity": "dentist"
      }
    },
    {
      "type": "node",
      "id": 10285926888,
      "lat": 12.9894334,
      "lon": 77.5540446,
      "tags": {
        "amenity": "restaurant",
        "cuisine": "regional",
        "name": "Swagat"
      }
    },
    {
      "type": "node",
      "id": 10285926890,
      "lat": 12.9918327,
      "lon": 77.5525928,
      "tags": {
        "access": "customers",
        "amenity": "toilets",
        "fee": "yes",
        "operator": "BBMP"
      }
    },
    {
      "type": "node",
      "id": 11031908387,
      "lat": 12.9918503,
      "lon": 77.5437825,
      "tags": {
        "addr:city": "Basaveshwara Nagar, Bangalore",
        "addr:housenumber": "629",
        "addr:postcode": "560079",
        "addr:street": "8th B Main Road, 3rd Stage, 2nd Block, Basaveshwaranagara",
        "amenity": "hospital",
        "healthcare": "hospital",
        "healthcare:speciality": "gynaecology;orthodontics;dentist;vaccination;plastic_surgery",
        "name": "Janani Clinics",
        "operator": "Dr. V. Jeevan Prakash",
        "operator:type": "private",
        "phone": "9036817877"
      }
    },
    {
      "type": "node",
      "id": 11102274265,
      "lat": 12.9846349,
      "lon": 77.5536744,
      "tags": {
        "name": "Kim Lee Beauty Parlour",
        "shop": "beauty"
      }
    },
    {
      "type": "node",
      "id": 11102274266,
      "lat": 12.9847002,
      "lon": 77.5536101,
      "tags": {
        "amenity": "restaurant",
        "name": "Kim Lee Restaurant"
      }
    },
    {
      "type": "node",
      "id": 11102274267,
      "lat": 12.9857652,
      "lon": 77.55176,
      "tags": {
        "amenity": "restaurant",
        "name": "Sicilia Point"
      }
    },
    {
      "type": "node",
      "id": 11102274271,
      "lat": 12.9873583,
      "lon": 77.5507381,
      "tags": {
        "amenity": "clinic",
        "name": "Dhanavantri Health Care"
      }
    },
    {
      "type": "node",
      "id": 11913334196,
      "lat": 12.9867896,
      "lon": 77.5423336,
      "tags": {
        "check_date": "2024-05-17",
        "name": "GK Vale",
        "shop": "photo"
      }
    },
    {
      "type": "node",
      "id": 11913334295,
      "lat": 12.9867617,
      "lon": 77.542063,
      "tags": {
        "check_date": "2024-05-17",
        "name": "Ganesh Green Tea",
        "shop": "tea"
      }
    },
    {
      "type": "node",
      "id": 11913334987,
      "lat": 12.9865586,
      "lon": 77.5422486,
      "tags": {
        "check_date": "2024-05-17",
        "name": "Usha Shringar",
        "shop": "beauty"
      }
    },
    {
      "type": "node",
      "id": 11917795792,
      "lat": 12.9864809,
      "lon": 77.5422287,
      "tags": {
        "check_date": "2024-05-17",
        "name": "Cheveux",
        "shop": "hairdresser"
      }
    },
    {
      "type": "node",
      "id": 11917795793,
      "lat": 12.9865869,
      "lon": 77.5422792,
      "tags": {
        "check_date": "2024-05-17",
        "name": "Nithya Garments",
        "shop": "clothes"
      }
    },
    {
      "type": "node",
      "id": 12408853763,
      "lat": 12.9926112,
      "lon": 77.5391934,
      "tags": {
        "amenity": "cafe",
        "check_date": "2024-12-10",
        "name": "Socialize"
      }
    },
    {
      "type": "node",
      "id": 12438065188,
      "lat": 12.9828948,
      "lon": 77.5493318,
      "tags": {
        "amenity": "restaurant",
        "check_date": "2024-12-21"
      }
    },
    {
      "type": "node",
      "id": 12441867970,
      "lat": 12.9916231,
      "lon": 77.5385334,
      "tags": {
        "access": "yes",
        "amenity": "toilets",
        "fee": "yes"
      }
    },
    {
      "type": "node",
      "id": 12487685586,
      "lat": 12.9948911,
      "lon": 77.5506484,
      "tags": {
        "name": "Malnad Coffee House",
        "shop": "coffee"
      }
    },
    {
      "type": "node",
      "id": 12529149438,
      "lat": 12.9847832,
      "lon": 77.5540436,
      "tags": {
        "addr:city": "Bengaluru",
        "addr:district": "Bengaluru Urban",
        "addr:postcode": "560010",
        "addr:street": "12th Main Rd, 3rd Block, Rajajinagar",
        "brand": "Peter England",
        "brand:wikidata": "Q19573665",
        "clothes": "men",
        "name": "Peter England",
        "shop": "clothes"
      }
    },
    {
      "type": "node",
      "id": 12676261329,
      "lat": 12.9954818,
      "lon": 77.5516759,
      "tags": {
        "brand": "Nandini",
        "brand:wikidata": "Q124374212",
        "check_date": "2025-03-18",
        "name": "Nandini",
        "shop": "dairy"
      }
    },
    {
      "type": "node",
      "id": 12676261330,
      "lat": 12.9953929,
      "lon": 77.5516944,
      "tags": {
        "brand": "HOPCOMS",
        "brand:wikidata": "Q22908959",
        "check_date": "2025-03-18",
        "name": "HOPCOMS",
        "shop": "greengrocer"
      }
    },
    {
      "type": "node",
      "id": 12860169701,
      "lat": 12.9810676,
      "lon": 77.5478955,
      "tags": {
        "addr:housenumber": "43/52",
        "addr:postcode": "560010",
        "addr:street": "2nd Main Road",
        "name": "Bharathi Jewelleries",
        "shop": "jewelry"
      }
    },
    {
      "type": "node",
      "id": 12860300101,
      "lat": 12.9872272,
      "lon": 77.5542226,
      "tags": {
        "addr:postcode": "560010",
        "addr:street": "12th Main Road",
        "name": "Namma MTR",
        "shop": "grocery"
      }
    },
    {
      "type": "node",
      "id": 12901334775,
      "lat": 12.9859554,
      "lon": 77.5509443,
      "tags": {
        "amenity": "cafe",
        "brand": "Third Wave Coffee Roasters",
        "brand:wikidata": "Q7785004",
        "cuisine": "coffee_shop",
        "delivery": "yes",
        "name": "Third Wave Coffee Roasters",
        "takeaway": "yes"
      }
    },
    {
      "type": "node",
      "id": 12990956824,
      "lat": 12.984977,
      "lon": 77.5535912,
      "tags": {
        "amenity": "post_box",
        "operator": "India Post"
      }
    },
    {
      "type": "way",
      "id": 42434168,
      "center": {
        "lat": 12.9913616,
        "lon": 77.5442738
      },
      "tags": {
        "leisure": "park",
        "name": "Netaji Subash Chandra Bose Park",
        "name:etymology:wikidata": "Q2153"
      }
    },
    {
      "type": "way",
      "id": 42475182,
      "center": {
        "lat": 12.9956531,
        "lon": 77.5437827
      },
      "tags": {
        "leisure": "park"
      }
    },
    {
      "type": "way",
      "id": 133442471,
      "center": {
        "lat": 12.9840941,
        "lon": 77.5439081
      },
      "tags": {
        "leisure": "sports_centre",
        "name": "Ambedkar Ground",
        "name:kn": "ಅಂಬೇಡ್ಕರ್ ಮೈದಾನ",
        "wheelchair": "limited"
      }
    },
    {
      "type": "way",
      "id": 133756192,
      "center": {
        "lat": 12.9872218,
        "lon": 77.5504671
      },
      "tags": {
        "leisure": "park",
        "name": "Dhobi Ghat Park"
      }
    },
    {
      "type": "way",
      "id": 138697265,
      "center": {
        "lat": 12.9909528,
        "lon": 77.5534579
      },
      "tags": {
        "alt_name": "ESI Hospital",
        "amenity": "hospital",
        "emergency": "yes",
        "healthcare": "hospital",
        "int_name": "ESICMH",
        "name": "Employees' State Insurance Corporation Model Hospital",
        "operator": "Employees' State Insurance",
        "operator:short": "ESI",
        "operator:wikidata": "Q3595726",
        "wheelchair": "yes"
      }
    },
    {
      "type": "way",
      "id": 187152098,
      "center": {
        "lat": 12.9926872,
        "lon": 77.549977
      },
      "tags": {
        "leisure": "park",
        "name": "Manjunathnagar Park",
        "name:kn": "ಮಂಜುನಾಥನಗರ ಉದ್ಯಾನವನ"
      }
    },
    {
      "type": "way",
      "id": 220192627,
      "center": {
        "lat": 12.9916419,
        "lon": 77.5427457
      },
      "tags": {
        "amenity": "place_of_worship",
        "name": "Ganesh Temple",
        "name:kn": "ಗಣೇಶ ದೇವಸ್ಥಾನ",
        "religion": "hindu"
      }
    },
    {
      "type": "way",
      "id": 220195322,
      "center": {
        "lat": 12.9845793,
        "lon": 77.5469655
      },
      "tags": {
        "name": "Mandovi Motors",
        "name:kn": "ಮಂಡೋವಿ ಮೋಟರ್ಸ್",
        "shop": "car_repair",
        "wheelchair": "limited"
      }
    },
    {
      "type": "way",
      "id": 248982011,
      "center": {
        "lat": 12.9864756,
        "lon": 77.5560959
      },
      "tags": {
        "amenity": "place_of_worship",
        "building": "temple",
        "name": "Sri Rama Mandira",
        "name:kn": "ಶ್ರೀ ರಾಮ ಮಂದಿರ",
        "religion": "hindu"
      }
    },
    {
      "type": "way",
      "id": 255543238,
      "center": {
        "lat": 12.9863176,
        "lon": 77.5384952
      },
      "tags": {
        "leisure": "park"
      }
    },
    {
      "type": "way",
      "id": 255664771,
      "center": {
        "lat": 12.991534,
        "lon": 77.5534904
      },
      "tags": {
        "alt_name": "ESICMC & PGIMSR",
        "amenity": "college",
        "int_name": "ESI Medical College",
        "name": "Employees' State Insurance Corporation Medical College & Post Graduate Institute of Medical Science & Research",
        "wheelchair": "limited"
      }
    },
    {
      "type": "way",
      "id": 259570534,
      "center": {
        "lat": 12.9815956,
        "lon": 77.5529529
      },
      "tags": {
        "amenity": "college",
        "building": "yes",
        "int_name": "Rajajinagar Parents' Association Education Trust",
        "name": "RPA First Grade College",
        "wheelchair": "no"
      }
    },
    {
      "type": "way",
      "id": 314079480,
      "center": {
        "lat": 12.9943157,
        "lon": 77.5532784
      },
      "tags": {
        "amenity": "school",
        "name": "Basaweshwara School",
        "name:kn": "ಬಸವೇಶ್ವರ ಶಾಲೆ"
      }
    },
    {
      "type": "way",
      "id": 332420722,
      "center": {
        "lat": 12.9846871,
        "lon": 77.5539948
      },
      "tags": {
        "addr:city": "Bengaluru",
        "addr:postcode": "560010",
        "addr:street": "12th Main Road, Bashyam Circle, 3rd Block, Rajajinagar",
        "building": "yes",
        "name": "Flying Machine",
        "shop": "clothes"
      }
    },
    {
      "type": "way",
      "id": 334150635,
      "center": {
        "lat": 12.9896286,
        "lon": 77.5545539
      },
      "tags": {
        "amenity": "community_centre",
        "building": "yes",
        "name": "Terapanth Bhavan",
        "name:kn": "ತೇರಾಪಂಥ್ ಭವನ"
      }
    },
    {
      "type": "way",
      "id": 336673385,
      "center": {
        "lat": 12.9935446,
        "lon": 77.5523198
      },
      "tags": {
        "amenity": "community_centre",
        "building": "yes",
        "name": "Samudaya Bhavan",
        "name:kn": "ಸಮುದಾಯ ಭವನ"
      }
    },
    {
      "type": "way",
      "id": 347489304,
      "center": {
        "lat": 12.9924959,
        "lon": 77.5547168
      },
      "tags": {
        "amenity": "place_of_worship",
        "building": "church",
        "denomination": "catholic",
        "name": "Assumption Church",
        "religion": "christian"
      }
    },
    {
      "type": "way",
      "id": 347524506,
      "center": {
        "lat": 12.9867944,
        "lon": 77.5503643
      },
      "tags": {
        "amenity": "place_of_worship",
        "religion": "hindu"
      }
    },
    {
      "type": "way",
      "id": 347606477,
      "center": {
        "lat": 12.9898922,
        "lon": 77.5520058
      },
      "tags": {
        "amenity": "place_of_worship",
        "building": "yes",
        "religion": "hindu"
      }
    },
    {
      "type": "way",
      "id": 348535898,
      "center": {
        "lat": 12.9933779,
        "lon": 77.5533031
      },
      "tags": {
        "amenity": "college",
        "building": "yes",
        "layer": "1",
        "name": "Rural DIET, Rajajinagar",
        "name:kn": "ಜಿಲ್ಲಾ ಶೈಕ್ಷಿಣಿಕ ಮತ್ತು ತರಬೇತಿ ಸಂಸ್ಥೆ, ಬೆಂಗಳೂರು ಗ್ರಾಮಾಂತರ"
      }
    },
    {
      "type": "way",
      "id": 349097599,
      "center": {
        "lat": 12.98751,
        "lon": 77.5501255
      },
      "tags": {
        "building": "yes",
        "building:levels": "4",
        "local_ref": "Varier Bakery",
        "name": "O G Varier Bakery",
        "shop": "bakery",
        "wheelchair": "no"
      }
    },
    {
      "type": "way",
      "id": 354557501,
      "center": {
        "lat": 12.9898665,
        "lon": 77.5377091
      },
      "tags": {
        "amenity": "bank",
        "brand": "Bank of India",
        "brand:wikidata": "Q2004439",
        "brand:wikipedia": "en:Bank of India",
        "building": "yes",
        "name": "Bank of India",
        "name:en": "Bank of India",
        "name:kn": "ಬ್ಯಾಂಕ್ ಅಫ್ ಇಂಡಿಯ",
        "short_name": "BoI",
        "website": "http://www.bankofindia.co.in"
      }
    },
    {
      "type": "way",
      "id": 363145084,
      "center": {
        "lat": 12.9845464,
        "lon": 77.541172
      },
      "tags": {
        "leisure": "park",
        "name": "Basava Park",
        "name:kn": "ಬಸವ ಉದ್ಯಾನವನ"
      }
    },
    {
      "type": "way",
      "id": 370462807,
      "center": {
        "lat": 12.9835772,
        "lon": 77.5465703
      },
      "tags": {
        "leisure": "park"
      }
    },
    {
      "type": "way",
      "id": 405095229,
      "center": {
        "lat": 12.9879381,
        "lon": 77.5419973
      },
      "tags": {
        "leisure": "pitch"
      }
    },
    {
      "type": "way",
      "id": 440598467,
      "center": {
        "lat": 12.9863051,
        "lon": 77.5502659
      },
      "tags": {
        "leisure": "playground",
        "name": "Dhobi Ghat Ground"
      }
    },
    {
      "type": "way",
      "id": 442786620,
      "center": {
        "lat": 12.9841446,
        "lon": 77.5496683
      },
      "tags": {
        "amenity": "school",
        "name": "National Public School, Rajajinagar",
        "name:kn": "ರಾಷ್ಟ್ರೀಯ ಸಾರ್ವಜನಿಕ ಶಾಲೆ ರಾಜಾಜಿನಗರ",
        "official_name": "National Public School",
        "wikidata": "Q6975125",
        "wikipedia": "en:National Public School, Rajajinagar"
      }
    },
    {
      "type": "way",
      "id": 532677470,
      "center": {
        "lat": 12.9838124,
        "lon": 77.5499157
      },
      "tags": {
        "leisure": "playground"
      }
    },
    {
      "type": "way",
      "id": 532677475,
      "center": {
        "lat": 12.9841084,
        "lon": 77.5499302
      },
      "tags": {
        "leisure": "pitch",
        "sport": "basketball",
        "surface": "paved"
      }
    },
    {
      "type": "way",
      "id": 532677476,
      "center": {
        "lat": 12.9843635,
        "lon": 77.5499367
      },
      "tags": {
        "leisure": "pitch",
        "sport": "volleyball",
        "surface": "unpaved"
      }
    },
    {
      "type": "way",
      "id": 618592983,
      "center": {
        "lat": 12.9897882,
        "lon": 77.5381094
      },
      "tags": {
        "building": "yes",
        "name": "Mangala Sweets",
        "shop": "bakery"
      }
    },
    {
      "type": "way",
      "id": 627403914,
      "center": {
        "lat": 12.9897262,
        "lon": 77.5508363
      },
      "tags": {
        "amenity": "community_centre",
        "landuse": "commercial",
        "name": "Dr. Bheem Rao Palace"
      }
    },
    {
      "type": "way",
      "id": 762500480,
      "center": {
        "lat": 12.9845643,
        "lon": 77.5495696
      },
      "tags": {
        "leisure": "garden"
      }
    },
    {
      "type": "way",
      "id": 781588917,
      "center": {
        "lat": 12.9822633,
        "lon": 77.5530491
      },
      "tags": {
        "amenity": "school",
        "name": "Venkat International School",
        "wheelchair": "limited"
      }
    },
    {
      "type": "way",
      "id": 820135310,
      "center": {
        "lat": 12.9916612,
        "lon": 77.554227
      },
      "tags": {
        "amenity": "place_of_worship",
        "name": "Hanuman Temple",
        "name:kn": "ಹನುಮಂತ ದೇವಸ್ಥಾನ",
        "religion": "hindu",
        "wheelchair": "limited"
      }
    },
    {
      "type": "way",
      "id": 851795158,
      "center": {
        "lat": 12.987142,
        "lon": 77.5426794
      },
      "tags": {
        "amenity": "college",
        "name": "VVS Girls College"
      }
    },
    {
      "type": "way",
      "id": 851795159,
      "center": {
        "lat": 12.9880639,
        "lon": 77.5414201
      },
      "tags": {
        "addr:city": "Banglore",
        "addr:housenumber": "1",
        "addr:postcode": "560079",
        "addr:street": "Shamavana, 4th B Main, III Block, Basaveshwaranagar",
        "amenity": "school",
        "email": "bsnr@srivani.org",
        "name": "Sri Vani Education Centre",
        "phone": "+91 80 2323 8608",
        "school:gender": "mixed",
        "website": "https://srivani.edu.in/shamavana/"
      }
    },
    {
      "type": "way",
      "id": 851795162,
      "center": {
        "lat": 12.9878783,
        "lon": 77.5419686
      },
      "tags": {
        "addr:city": "Bengaluru",
        "addr:postcode": "560079",
        "addr:street": "3rd Cross",
        "amenity": "school",
        "email": "naflblr@gmail.com",
        "name": "National Academy for Learning",
        "phone": "+91-80-23239281",
        "phone_1": "+91-80-23231567",
        "wikidata": "Q6970108"
      }
    },
    {
      "type": "way",
      "id": 991531037,
      "center": {
        "lat": 12.9936034,
        "lon": 77.539461
      },
      "tags": {
        "addr:city": "Basaveshwara Nagar, Bangalore",
        "addr:postcode": "560079",
        "addr:street": "10th Main, 3rd Stage, West Of Chord Road",
        "amenity": "school",
        "name": "S Cadambi Vidya Kendra English Secondary School",
        "phone": "+91 80 23232831"
      }
    },
    {
      "type": "way",
      "id": 1054127613,
      "center": {
        "lat": 12.9902224,
        "lon": 77.5514664
      },
      "tags": {
        "amenity": "place_of_worship",
        "name": "Anjaneya Ganesha Temple",
        "name:kn": "ಅಂಜನೇಯ ಗಣಪತಿ",
        "religion": "hindu"
      }
    },
    {
      "type": "way",
      "id": 1069253451,
      "center": {
        "lat": 12.9886281,
        "lon": 77.5443632
      },
      "tags": {
        "amenity": "school",
        "name": "Carmel High School",
        "name:kn": "ಕಾರ್ಮೆಲ್ ಪ್ರೌಡಶಾಲೆ",
        "wheelchair": "limited"
      }
    },
    {
      "type": "way",
      "id": 1069253452,
      "center": {
        "lat": 12.988239,
        "lon": 77.5450381
      },
      "tags": {
        "amenity": "college",
        "name": "Carmel PUC"
      }
    },
    {
      "type": "way",
      "id": 1081206654,
      "center": {
        "lat": 12.9957639,
        "lon": 77.5510655
      },
      "tags": {
        "access": "customers",
        "amenity": "parking",
        "parking": "surface"
      }
    },
    {
      "type": "way",
      "id": 1084363602,
      "center": {
        "lat": 12.9854992,
        "lon": 77.5500979
      },
      "tags": {
        "name": "Dhobi Ghat",
        "name:kn": "ಧೋಬಿ ಘಾಟ್",
        "shop": "laundry"
      }
    },
    {
      "type": "way",
      "id": 1084363608,
      "center": {
        "lat": 12.9840297,
        "lon": 77.551708
      },
      "tags": {
        "leisure": "park"
      }
    },
    {
      "type": "way",
      "id": 1084363611,
      "center": {
        "lat": 12.9851688,
        "lon": 77.5487069
      },
      "tags": {
        "shop": "car_repair"
      }
    },
    {
      "type": "way",
      "id": 1084363614,
      "center": {
        "lat": 12.9831886,
        "lon": 77.549527
      },
      "tags": {
        "leisure": "park"
      }
    },
    {
      "type": "way",
      "id": 1092672115,
      "center": {
        "lat": 12.9921356,
        "lon": 77.5480351
      },
      "tags": {
        "amenity": "school"
      }
    },
    {
      "type": "way",
      "id": 1092672116,
      "center": {
        "lat": 12.9905596,
        "lon": 77.5438262
      },
      "tags": {
        "leisure": "park",
        "name": "Netaji Subash Chandra Bose Ground",
        "name:etymology:wikidata": "Q2153"
      }
    },
    {
      "type": "way",
      "id": 1092672118,
      "center": {
        "lat": 12.9905567,
        "lon": 77.546588
      },
      "tags": {
        "amenity": "school"
      }
    },
    {
      "type": "way",
      "id": 1092672119,
      "center": {
        "lat": 12.9911584,
        "lon": 77.5465833
      },
      "tags": {
        "leisure": "playground"
      }
    },
    {
      "type": "way",
      "id": 1111108764,
      "center": {
        "lat": 12.993391,
        "lon": 77.5528384
      },
      "tags": {
        "amenity": "college",
        "name": "Government First Grade College",
        "name:kn": "ಸರಕಾರಿ ಪ್ರಥಮ ದರ್ಜೆ ಕಾಲೇಜು"
      }
    },
    {
      "type": "way",
      "id": 1136503963,
      "center": {
        "lat": 12.9806566,
        "lon": 77.5485024
      },
      "tags": {
        "amenity": "fire_station",
        "name": "Rajajinagar Fire Station",
        "name:kn": "ಅಗ್ನಿಶಾಮಕ ಠಾಣೆ, ರಾಜಾಜಿನಗರ"
      }
    },
    {
      "type": "way",
      "id": 1206776988,
      "center": {
        "lat": 12.9841866,
        "lon": 77.5398134
      },
      "tags": {
        "leisure": "park"
      }
    },
    {
      "type": "way",
      "id": 1351849840,
      "center": {
        "lat": 12.9848818,
        "lon": 77.5440288
      },
      "tags": {
        "access": "customers",
        "amenity": "parking",
        "parking": "surface"
      }
    }
  ]
}