{
  "area_name": "Singasandra",
  "osm_id": 19883332,
  "osm_type": "relation",
  "place_type": "administrative",
  "amenity_count": 95,
  "amenities": [
    {
      "type": "node",
      "id": 266737833,
      "lat": 12.872803,
      "lon": 77.6541333,
      "tags": {
        "amenity": "telephone",
        "created_by": "JOSM"
      }
    },
    {
      "type": "node",
      "id": 267221220,
      "lat": 12.8708434,
      "lon": 77.6556881,
      "tags": {
        "amenity": "biergarten",
        "name": "Bar and Restaurant"
      }
    },
    {
      "type": "node",
      "id": 1465590356,
      "lat": 12.8737198,
      "lon": 77.6448305,
      "tags": {
        "addr:street": "Manipal County Road",
        "name": "Store",
        "shop": "convenience"
      }
    },
    {
      "type": "node",
      "id": 1468355688,
      "lat": 12.8737015,
      "lon": 77.6420142,
      "tags": {
        "amenity": "restaurant",
        "name": "Manipal County",
        "name:kn": "ಮಣಿಪಾಲ್ ಕೌಂಟಿ"
      }
    },
    {
      "type": "node",
      "id": 1470730703,
      "lat": 12.8754555,
      "lon": 77.6483068,
      "tags": {
        "amenity": "atm",
        "brand": "State Bank of India",
        "brand:wikidata": "Q1340361",
        "name": "State Bank of India",
        "name:kn": "ಎಸ್ ಬಿ ಐ",
        "operator": "State Bank of India",
        "operator:wikidata": "Q1340361",
        "short_name": "SBI"
      }
    },
    {
      "type": "node",
      "id": 1470731018,
      "lat": 12.8737728,
      "lon": 77.6449481,
      "tags": {
        "amenity": "pharmacy",
        "name": "Balaji Medicals",
        "name:kn": "ಬಾಲಾಜಿ ಮೆಡಿಕಲ್"
      }
    },
    {
      "type": "node",
      "id": 1470844858,
      "lat": 12.8737637,
      "lon": 77.6453401,
      "tags": {
        "name": "Family Food Choice",
        "shop": "convenience"
      }
    },
    {
      "type": "node",
      "id": 1470845581,
      "lat": 12.8759127,
      "lon": 77.6397852,
      "tags": {
        "name": "Day To Day",
        "shop": "convenience"
      }
    },
    {
      "type": "node",
      "id": 1471665996,
      "lat": 12.8853599,
      "lon": 77.6417564,
      "tags": {
        "amenity": "fuel",
        "brand": "Indian Oil",
        "brand:wikidata": "Q1289348",
        "brand:wikipedia": "en:Indian Oil Corporation",
        "name": "Indian Oil",
        "name:kn": "ಇಂಡಿಯನ್ ಆಯಿಲ್"
      }
    },
    {
      "type": "node",
      "id": 1472032985,
      "lat": 12.8761746,
      "lon": 77.6476656,
      "tags": {
        "brand": "Hero",
        "brand:wikidata": "Q1613763",
        "name": "Hero",
        "shop": "motorcycle",
        "wheelchair": "no"
      }
    },
    {
      "type": "node",
      "id": 1472037865,
      "lat": 12.8736928,
      "lon": 77.6449626,
      "tags": {
        "amenity": "hospital",
        "name": "Sri Sapthagiri Clinic"
      }
    },
    {
      "type": "node",
      "id": 1472212558,
      "lat": 12.8780028,
      "lon": 77.638532,
      "tags": {
        "name": "Fathima food choice",
        "shop": "convenience"
      }
    },
    {
      "type": "node",
      "id": 1472212559,
      "lat": 12.8780838,
      "lon": 77.6384592,
      "tags": {
        "amenity": "pharmacy",
        "name": "Sanjeevani Medicals"
      }
    },
    {
      "type": "node",
      "id": 1472212560,
      "lat": 12.8778841,
      "lon": 77.6386301,
      "tags": {
        "name": "chicken",
        "shop": "butcher"
      }
    },
    {
      "type": "node",
      "id": 1473298105,
      "lat": 12.8779361,
      "lon": 77.6385812,
      "tags": {
        "name": "gents saloon",
        "shop": "hairdresser"
      }
    },
    {
      "type": "node",
      "id": 1473298166,
      "lat": 12.8740614,
      "lon": 77.6462636,
      "tags": {
        "name": "store,mess",
        "shop": "convenience"
      }
    },
    {
      "type": "node",
      "id": 1474112148,
      "lat": 12.874931,
      "lon": 77.648874,
      "tags": {
        "name": "SMS Electronics",
        "shop": "electronics"
      }
    },
    {
      "type": "node",
      "id": 2115414253,
      "lat": 12.8879434,
      "lon": 77.6403584,
      "tags": {
        "amenity": "car_wash",
        "fixme": "Survey closing time.",
        "name": "Prerana Motors",
        "opening_hours": "09:00+",
        "self_service": "no"
      }
    },
    {
      "type": "node",
      "id": 2449294308,
      "lat": 12.8791713,
      "lon": 77.6454925,
      "tags": {
        "amenity": "hospital",
        "emergency": "yes",
        "name": "Live100"
      }
    },
    {
      "type": "node",
      "id": 2615930890,
      "lat": 12.8744077,
      "lon": 77.6404596,
      "tags": {
        "name": "Family Food Choice",
        "shop": "convenience"
      }
    },
    {
      "type": "node",
      "id": 2619354951,
      "lat": 12.8777704,
      "lon": 77.6386842,
      "tags": {
        "amenity": "atm",
        "brand": "Canara Bank",
        "brand:wikidata": "Q2003777",
        "name": "Canara Bank",
        "name:kn": "ಕೆನರಾ ಬ್ಯಾಂಕ್",
        "operator": "Canara Bank",
        "operator:wikidata": "Q2003777"
      }
    },
    {
      "type": "node",
      "id": 3874194881,
      "lat": 12.8739896,
      "lon": 77.650836,
      "tags": {
        "amenity": "parking"
      }
    },
    {
      "type": "node",
      "id": 3968670272,
      "lat": 12.8771837,
      "lon": 77.6391315,
      "tags": {
        "addr:city": "Singasandra",
        "addr:postcode": "560068",
        "addr:street": "Manipal County Road",
        "opening_hours": "09:00-20:00",
        "shop": "hardware"
      }
    },
    {
      "type": "node",
      "id": 4034230238,
      "lat": 12.8859277,
      "lon": 77.6416481,
      "tags": {
        "addr:city": "Bangalore",
        "addr:housenumber": "82/2",
        "addr:postcode": "560068",
        "addr:street": "NVR complex, Kudlu Gate, Hosur Road",
        "name": "ServiceMyMobile.com",
        "opening_hours": "10:00-19:00",
        "operator": "pradeep",
        "shop": "mobile_phone"
      }
    },
    {
      "type": "node",
      "id": 4056844951,
      "lat": 12.8826477,
      "lon": 77.6413709,
      "tags": {
        "addr:city": "Bangalore",
        "addr:street": "5th Cross Road",
        "amenity": "place_of_worship",
        "denomination": "orthodox",
        "name": "Vinayaka Temple",
        "name:kn": "ವಿನಾಯಕ ದೇವಸ್ಥಾನ",
        "religion": "hindu"
      }
    },
    {
      "type": "node",
      "id": 4140612077,
      "lat": 12.87924,
      "lon": 77.6383068,
      "tags": {
        "name": "Magizh Groceries",
        "shop": "supermarket"
      }
    },
    {
      "type": "node",
      "id": 4375628582,
      "lat": 12.8771451,
      "lon": 77.6466294,
      "tags": {
        "amenity": "place_of_worship",
        "denomination": "hindu",
        "name": "Sri Sri Sri Patalamma Temple",
        "religion": "hindu"
      }
    },
    {
      "type": "node",
      "id": 4445197443,
      "lat": 12.8701786,
      "lon": 77.6548332,
      "tags": {
        "addr:city": "Bangalore",
        "addr:housenumber": "736",
        "addr:postcode": "560100",
        "addr:street": "11th Cross, Mico Main Road, Hosur Rd, CK Nagar, Electronic City",
        "amenity": "pharmacy",
        "name": "SRS Hitech Diagnostic Laboratory",
        "phone": "+9177956 39577"
      }
    },
    {
      "type": "node",
      "id": 4446900239,
      "lat": 12.870394,
      "lon": 77.6559601,
      "tags": {
        "addr:city": "Bangalore",
        "addr:housenumber": "850",
        "addr:postcode": "560100",
        "addr:street": "3rd Cross, 1st Main Road, C.K Nagar, Electronic City, Chennakeshava Nagar, Hosa Road, Pragathi Nagar, Electronic City",
        "amenity": "pharmacy",
        "name": "Omkar Medicals",
        "phone": "+9197398 57963"
      }
    },
    {
      "type": "node",
      "id": 5018250555,
      "lat": 12.8713433,
      "lon": 77.6516147,
      "tags": {
        "brand": "Volkswagen",
        "brand:wikidata": "Q246",
        "name": "Volkswagen",
        "shop": "car"
      }
    },
    {
      "type": "node",
      "id": 5660597690,
      "lat": 12.8736281,
      "lon": 77.6448728,
      "tags": {
        "amenity": "restaurant",
        "cuisine": "indian",
        "delivery": "yes",
        "name": "Magic Pack Resturant",
        "takeaway": "yes"
      }
    },
    {
      "type": "node",
      "id": 5660661462,
      "lat": 12.8743888,
      "lon": 77.6405192,
      "tags": {
        "amenity": "atm",
        "brand": "Axis Bank",
        "brand:wikidata": "Q2003549",
        "name": "Axis Bank",
        "operator": "Axis Bank",
        "operator:wikidata": "Q2003549"
      }
    },
    {
      "type": "node",
      "id": 5660954801,
      "lat": 12.8738696,
      "lon": 77.6424281,
      "tags": {
        "addr:city": "Bangalore",
        "addr:street": "Manipal County Road",
        "amenity": "cafe",
        "name": "Cane Corner",
        "payment:cash": "yes",
        "shop": "juice"
      }
    },
    {
      "type": "node",
      "id": 5661087689,
      "lat": 12.8741533,
      "lon": 77.6412186,
      "tags": {
        "name": "Priyam Furniture Store",
        "shop": "furniture"
      }
    },
    {
      "type": "node",
      "id": 5661241448,
      "lat": 12.8746867,
      "lon": 77.6401583,
      "tags": {
        "name": "Five Star Chicken",
        "shop": "yes"
      }
    },
    {
      "type": "node",
      "id": 5692364120,
      "lat": 12.8746789,
      "lon": 77.6401603,
      "tags": {
        "amenity": "atm",
        "brand": "ICICI Bank",
        "brand:wikidata": "Q1653258",
        "currency:INR": "yes",
        "name": "ICICI Bank",
        "operator": "ICICI Bank",
        "operator:wikidata": "Q1653258",
        "short_name": "ICICI"
      }
    },
    {
      "type": "node",
      "id": 5730437664,
      "lat": 12.8759565,
      "lon": 77.6397754,
      "tags": {
        "addr:city": "Singasandra",
        "addr:housenumber": "Opp. Royal Height Apartment",
        "addr:postcode": "560068",
        "addr:street": "Manipal County Road",
        "amenity": "restaurant",
        "cuisine": "indian;kerala",
        "name": "Illam Resturant",
        "opening_hours": "Mo-Su 09:00-22:00"
      }
    },
    {
      "type": "node",
      "id": 5745157613,
      "lat": 12.8741555,
      "lon": 77.6464491,
      "tags": {
        "name": "Magic oven",
        "shop": "bakery"
      }
    },
    {
      "type": "node",
      "id": 6657724259,
      "lat": 12.876884,
      "lon": 77.6392801,
      "tags": {
        "amenity": "restaurant",
        "cuisine": "indian;kerala",
        "name": "Nandanam",
        "opening_hours": "Mo-Su 08:00-23:00",
        "phone": "7338446609",
        "phone_1": "7338446603"
      }
    },
    {
      "type": "node",
      "id": 6657899659,
      "lat": 12.8787708,
      "lon": 77.6379804,
      "tags": {
        "description": "Sweets n Namkeen",
        "name": "Pandit Ji",
        "payment:cash": "yes",
        "payment:credit_cards": "yes",
        "payment:debit_cards": "yes",
        "shop": "bakery"
      }
    },
    {
      "type": "node",
      "id": 6657899660,
      "lat": 12.8775236,
      "lon": 77.638837,
      "tags": {
        "name": "Mani's sea food",
        "payment:cash": "yes",
        "shop": "seafood"
      }
    },
    {
      "type": "node",
      "id": 6657899661,
      "lat": 12.8789708,
      "lon": 77.6378821,
      "tags": {
        "amenity": "atm",
        "check_date": "2023-10-31",
        "operator": "ICICI bank ATM"
      }
    },
    {
      "type": "node",
      "id": 6657899662,
      "lat": 12.8789656,
      "lon": 77.6378674,
      "tags": {
        "amenity": "bank",
        "atm": "yes",
        "branch": "Manipal County Road",
        "brand": "ICICI Bank",
        "brand:wikidata": "Q1653258",
        "brand:wikipedia": "en:ICICI Bank",
        "level": "0",
        "name": "ICICI Bank",
        "name:kn": "ಐಸಿಐಸಿಐ ಬ್ಯಾಂಕು",
        "short_name": "ICICI"
      }
    },
    {
      "type": "node",
      "id": 6657899663,
      "lat": 12.8790819,
      "lon": 77.6381758,
      "tags": {
        "amenity": "bank",
        "brand": "State Bank of India",
        "brand:wikidata": "Q1340361",
        "brand:wikipedia": "en:State Bank of India",
        "name": "State Bank of India",
        "short_name": "SBI"
      }
    },
    {
      "type": "node",
      "id": 6657899664,
      "lat": 12.8791199,
      "lon": 77.6382724,
      "tags": {
        "addr:city": "Bengaluru",
        "addr:housenumber": "No. 739, 12th Main",
        "addr:postcode": "560068",
        "addr:street": "AECS layout, B Block, Singasandra",
        "amenity": "clinic",
        "email": "healthgateaecs@gmail.com",
        "healthcare": "clinic",
        "healthcare:speciality": "laboratory;x-ray;ECG;echo_cardiography;ultrasound",
        "name": "Health Gate Diagnostics & Multi-speciality clinic",
        "phone": "7338393399",
        "phone_1": "08043700799"
      }
    },
    {
      "type": "node",
      "id": 6658119308,
      "lat": 12.8743782,
      "lon": 77.6405809,
      "tags": {
        "amenity": "restaurant",
        "cuisine": "regional",
        "description": "Pure Vegetarian",
        "diet:vegetarian": "only",
        "name": "Sri Krishna Grand"
      }
    },
    {
      "type": "node",
      "id": 6658119309,
      "lat": 12.8738174,
      "lon": 77.642721,
      "tags": {
        "name": "Ajwa Dry Fruit & chocolats",
        "payment:cash": "yes",
        "payment:credit_cards": "yes",
        "payment:debit_cards": "yes",
        "shop": "yes"
      }
    },
    {
      "type": "node",
      "id": 6658119310,
      "lat": 12.8743639,
      "lon": 77.6406876,
      "tags": {
        "amenity": "clinic",
        "healthcare": "clinic",
        "name": "Apollo Clinic",
        "name:kn": "ಅಪೊಲೊ ಕ್ಲಿನಿಕ್"
      }
    },
    {
      "type": "node",
      "id": 6658119313,
      "lat": 12.8738255,
      "lon": 77.6428925,
      "tags": {
        "amenity": "kindergarten",
        "name": "Little Elly Preschool"
      }
    },
    {
      "type": "node",
      "id": 6658119314,
      "lat": 12.8738439,
      "lon": 77.6425641,
      "tags": {
        "name": "Milk center",
        "shop": "convenience"
      }
    },
    {
      "type": "node",
      "id": 6658119315,
      "lat": 12.87385,
      "lon": 77.6426017,
      "tags": {
        "name": "Dry clean & Ironing",
        "payment:cash": "yes",
        "shop": "dry_cleaning"
      }
    },
    {
      "type": "node",
      "id": 6658119316,
      "lat": 12.873434,
      "lon": 77.6457606,
      "tags": {
        "name": "Dry Cleaning & Ironing",
        "payment:cash": "yes",
        "shop": "dry_cleaning"
      }
    },
    {
      "type": "node",
      "id": 6658580092,
      "lat": 12.8744332,
      "lon": 77.6470699,
      "tags": {
        "amenity": "cafe",
        "cuisine": "shawarma;sandwich;coffee_shop;indian",
        "delivery": "yes",
        "internet_access": "no",
        "name": "FAB cafe",
        "outdoor_seating": "yes",
        "payment:cash": "yes",
        "payment:credit_cards": "yes",
        "payment:debit_cards": "yes"
      }
    },
    {
      "type": "node",
      "id": 6658580093,
      "lat": 12.8744175,
      "lon": 77.6469277,
      "tags": {
        "name": "FAB Mobiles",
        "shop": "mobile_phone"
      }
    },
    {
      "type": "node",
      "id": 6662095289,
      "lat": 12.8736312,
      "lon": 77.6448952,
      "tags": {
        "name": "Flowers, Xerox and Prints",
        "payment:cash": "yes",
        "shop": "florist"
      }
    },
    {
      "type": "node",
      "id": 6662095290,
      "lat": 12.8731213,
      "lon": 77.6443212,
      "tags": {
        "name": "Xerox and print outs",
        "payment:cash": "yes",
        "shop": "copyshop"
      }
    },
    {
      "type": "node",
      "id": 6662095291,
      "lat": 12.8769807,
      "lon": 77.6392545,
      "tags": {
        "amenity": "kindergarten",
        "name": "Special Me Preschool & DayCare"
      }
    },
    {
      "type": "node",
      "id": 6662095307,
      "lat": 12.8772412,
      "lon": 77.6390888,
      "tags": {
        "amenity": "pharmacy",
        "brand": "Apollo Pharmacy",
        "brand:wikidata": "Q62562612",
        "dispensing": "yes",
        "healthcare": "pharmacy",
        "name": "Apollo Pharmacy",
        "name:kn": "ಅಪೋಲೋ ಫಾರ್ಮಸಿ"
      }
    },
    {
      "type": "node",
      "id": 6677280438,
      "lat": 12.8789603,
      "lon": 77.637845,
      "tags": {
        "description": "Unisex Hair & style salon",
        "level": "1",
        "name": "Green Trends",
        "shop": "hairdresser",
        "unisex": "yes"
      }
    },
    {
      "type": "node",
      "id": 6677334945,
      "lat": 12.8777101,
      "lon": 77.6387217,
      "tags": {
        "amenity": "cafe",
        "cuisine": "burger;sandwich",
        "name": "Magic Oven",
        "outdoor_seating": "no",
        "payment:cash": "yes",
        "payment:credit_cards": "yes",
        "payment:debit_cards": "yes"
      }
    },
    {
      "type": "node",
      "id": 6677364002,
      "lat": 12.8774214,
      "lon": 77.6388932,
      "tags": {
        "amenity": "pharmacy",
        "brand": "MedPlus",
        "brand:wikidata": "Q65684234",
        "brand:wikipedia": "en:MedPlus",
        "dispensing": "yes",
        "drive_through": "no",
        "healthcare": "pharmacy",
        "name": "MedPlus",
        "name:kn": "ಮೆಡ್‍ಪ್ಲಸ್",
        "payment:cash": "yes",
        "payment:credit_cards": "yes",
        "payment:debit_cards": "yes"
      }
    },
    {
      "type": "node",
      "id": 6677364003,
      "lat": 12.8785294,
      "lon": 77.6385091,
      "tags": {
        "amenity": "kindergarten",
        "contact:email": "admin.singasandra@maplebear.in",
        "contact:phone": "63666 88882",
        "email": "coordinator.singasandra@maplebear.in",
        "name": "Maple Bear Canadian Pre-school",
        "phone": "63666 88881",
        "source": "local knowledge",
        "website": "http://www.maplebear.in/singasandra/"
      }
    },
    {
      "type": "node",
      "id": 6677364004,
      "lat": 12.8763799,
      "lon": 77.6396056,
      "tags": {
        "drive_through": "no",
        "name": "NS Liquor store",
        "payment:cash": "yes",
        "payment:credit_cards": "yes",
        "payment:debit_cards": "yes",
        "shop": "alcohol"
      }
    },
    {
      "type": "node",
      "id": 6677364005,
      "lat": 12.8760221,
      "lon": 77.639765,
      "tags": {
        "name": "Radiance Ladies Beauty Salon & Spa",
        "shop": "beauty"
      }
    },
    {
      "type": "node",
      "id": 7046466599,
      "lat": 12.8776064,
      "lon": 77.6449397,
      "tags": {
        "addr:city": "Bengaluru",
        "addr:housenumber": "#73/14",
        "addr:postcode": "560068",
        "addr:street": "Aishwarya Crystal Layout",
        "amenity": "restaurant",
        "name": "NuTy Central Kitchen"
      }
    },
    {
      "type": "node",
      "id": 9183197254,
      "lat": 12.8727454,
      "lon": 77.6538377,
      "tags": {
        "addr:city": "Bengaluru",
        "addr:housenumber": "#270",
        "addr:postcode": "560100",
        "addr:street": "1st Main, 6th Cross, Hosa Road",
        "amenity": "social_facility",
        "name": "Beena Ville",
        "operator": "Robin Rajan",
        "operator:type": "private",
        "social_facility": "shelter",
        "social_facility:for": "homeless"
      }
    },
    {
      "type": "node",
      "id": 9858691338,
      "lat": 12.8729728,
      "lon": 77.6513578,
      "tags": {
        "amenity": "bank",
        "atm": "yes",
        "brand": "HDFC Bank",
        "brand:wikidata": "Q631047",
        "name": "HDFC Bank",
        "name:kn": "ಎಚ್ ಡಿ ಎಫ್ ಸಿ",
        "operator": "HDFC Bank",
        "short_name": "HDFC"
      }
    },
    {
      "type": "node",
      "id": 11301539100,
      "lat": 12.8773579,
      "lon": 77.6389209,
      "tags": {
        "amenity": "restaurant",
        "level": "0",
        "name": "Dwarka Bhavan",
        "opening_hours": "Mo-Fr 05:30-22:30; PH open",
        "wheelchair": "limited"
      }
    },
    {
      "type": "node",
      "id": 11301688308,
      "lat": 12.8737877,
      "lon": 77.6433022,
      "tags": {
        "level": "0",
        "name": "Food Paradise Supermarket",
        "shop": "convenience",
        "wheelchair": "limited"
      }
    },
    {
      "type": "node",
      "id": 11301688309,
      "lat": 12.8773968,
      "lon": 77.638902,
      "tags": {
        "level": "0",
        "name": "Krishna Cake Palace",
        "shop": "bakery",
        "wheelchair": "limited"
      }
    },
    {
      "type": "node",
      "id": 11301688310,
      "lat": 12.8773772,
      "lon": 77.6389141,
      "tags": {
        "amenity": "pharmacy",
        "healthcare": "pharmacy",
        "level": "0",
        "name": "Narayana Pharmacy"
      }
    },
    {
      "type": "node",
      "id": 11301855957,
      "lat": 12.878942,
      "lon": 77.6378364,
      "tags": {
        "amenity": "dentist",
        "healthcare": "dentist",
        "level": "2",
        "mobile": "+91 99867 36776",
        "name": "Gracious Smilz"
      }
    },
    {
      "type": "node",
      "id": 11301855959,
      "lat": 12.8786953,
      "lon": 77.6380002,
      "tags": {
        "level": "0",
        "name:signed": "no",
        "shop": "tobacco"
      }
    },
    {
      "type": "node",
      "id": 12144434657,
      "lat": 12.8729114,
      "lon": 77.651369,
      "tags": {
        "amenity": "atm",
        "brand": "HDFC Bank",
        "brand:wikidata": "Q631047",
        "cash_in": "no",
        "check_date": "2024-08-29",
        "opening_hours": "24/7",
        "operator": "HDFC Bank",
        "operator:wikidata": "Q631047",
        "short_name": "HDFC",
        "source": "survey"
      }
    },
    {
      "type": "node",
      "id": 12144434658,
      "lat": 12.8728525,
      "lon": 77.6515698,
      "tags": {
        "amenity": "hospital",
        "check_date": "2024-08-29",
        "healthcare": "hospital",
        "name": "Abiramm Hospital",
        "source": "survey"
      }
    },
    {
      "type": "node",
      "id": 12230123287,
      "lat": 12.8787343,
      "lon": 77.6537102,
      "tags": {
        "amenity": "fast_food",
        "brand": "Domino's",
        "brand:wikidata": "Q839466",
        "cuisine": "pizza",
        "drive_through": "no",
        "name": "Domino's",
        "takeaway": "yes"
      }
    },
    {
      "type": "node",
      "id": 12270754747,
      "lat": 12.871395,
      "lon": 77.6542581,
      "tags": {
        "amenity": "hospital",
        "check_date": "2024-10-20",
        "healthcare": "hospital",
        "name": "Sri Sai Hospital"
      }
    },
    {
      "type": "node",
      "id": 12270754748,
      "lat": 12.8717707,
      "lon": 77.654208,
      "tags": {
        "amenity": "pharmacy",
        "brand": "Pradhan Mantri Bharatiya Janaushadhi Pariyojana Kendra",
        "brand:wikidata": "Q39058281",
        "check_date": "2024-10-20",
        "healthcare": "pharmacy",
        "name": "Jan Aushadhi",
        "official_name": "Pradhan Mantri Bharatiya Janaushadhi Pariyojana Kendra"
      }
    },
    {
      "type": "node",
      "id": 12270754749,
      "lat": 12.8719033,
      "lon": 77.654013,
      "tags": {
        "amenity": "clinic",
        "check_date": "2024-10-20",
        "healthcare": "clinic",
        "name": "Seva Clinic"
      }
    },
    {
      "type": "node",
      "id": 12270754750,
      "lat": 12.8719512,
      "lon": 77.6540059,
      "tags": {
        "amenity": "pharmacy",
        "check_date": "2024-10-20",
        "healthcare": "pharmacy",
        "name": "Sathiyam Medicals"
      }
    },
    {
      "type": "node",
      "id": 12464229079,
      "lat": 12.8696046,
      "lon": 77.653182,
      "tags": {
        "name": "Cycle World",
        "shop": "bicycle"
      }
    },
    {
      "type": "node",
      "id": 12876472293,
      "lat": 12.8734918,
      "lon": 77.6511181,
      "tags": {
        "check_date": "2025-05-31",
        "name": "Precarmart",
        "second_hand": "only",
        "shop": "car",
        "source": "survey"
      }
    },
    {
      "type": "node",
      "id": 13039719355,
      "lat": 12.8703911,
      "lon": 77.6534148,
      "tags": {
        "amenity": "school",
        "check_date": "2025-07-31",
        "name": "Sri Channakeshava English School",
        "name:en": "Sri Channakeshava English School"
      }
    },
    {
      "type": "node",
      "id": 13070296265,
      "lat": 12.8807477,
      "lon": 77.6448333,
      "tags": {
        "access": "yes",
        "amenity": "motorcycle_parking",
        "capacity": "90",
        "fee": "yes",
        "name": "Singasandra Metro Parking",
        "operator": "BMRCL",
        "parking": "surface"
      }
    },
    {
      "type": "node",
      "id": 13070296266,
      "lat": 12.8707573,
      "lon": 77.6523812,
      "tags": {
        "access": "yes",
        "amenity": "motorcycle_parking",
        "capacity": "90",
        "fee": "yes",
        "name": "Hosa Road Metro Parking",
        "operator": "BMRCL",
        "parking": "surface"
      }
    },
    {
      "type": "way",
      "id": 24530992,
      "center": {
        "lat": 12.8710715,
        "lon": 77.6536342
      },
      "tags": {
        "amenity": "school",
        "name": "CKN English Medium School"
      }
    },
    {
      "type": "way",
      "id": 236976152,
      "center": {
        "lat": 12.8788545,
        "lon": 77.6456513
      },
      "tags": {
        "amenity": "parking",
        "name": "Live100 Parking",
        "parking": "surface"
      }
    },
    {
      "type": "way",
      "id": 236976153,
      "center": {
        "lat": 12.8751443,
        "lon": 77.6484448
      },
      "tags": {
        "amenity": "fuel",
        "brand": "Bharat Petroleum",
        "brand:wikidata": "Q854826",
        "compressed_air": "yes",
        "name": "Bharat Petroleum",
        "name:kn": "ಭಾರತ್ ಪೆಟ್ರೋಲಿಯಂ"
      }
    },
    {
      "type": "way",
      "id": 309182166,
      "center": {
        "lat": 12.8740718,
        "lon": 77.6410358
      },
      "tags": {
        "addr:city": "Bangalore",
        "addr:postcode": "560114",
        "addr:street": "Manipal County Road",
        "amenity": "fuel",
        "brand": "Indian Oil",
        "brand:wikidata": "Q1289348",
        "name": "Indian Oil",
        "name:kn": "ಇಂಡಿಯನ್ ಆಯಿಲ್",
        "operator": "Indian Oil"
      }
    },
    {
      "type": "way",
      "id": 708592741,
      "center": {
        "lat": 12.8744868,
        "lon": 77.6469881
      },
      "tags": {
        "addr:city": "bengaluru",
        "addr:housenumber": "#58/1",
        "addr:postcode": "560068",
        "addr:street": "Manipal County Road",
        "building": "yes",
        "contact:phone": "8861060004",
        "name": "FAB Hypermarket",
        "payment:cash": "yes",
        "payment:credit_cards": "yes",
        "payment:debit_cards": "yes",
        "phone": "08048544492",
        "shop": "supermarket"
      }
    },
    {
      "type": "way",
      "id": 1261916603,
      "center": {
        "lat": 12.8725446,
        "lon": 77.6500709
      },
      "tags": {
        "amenity": "parking",
        "parking": "surface"
      }
    },
    {
      "type": "way",
      "id": 1297657106,
      "center": {
        "lat": 12.8846916,
        "lon": 77.64259
      },
      "tags": {
        "access": "yes",
        "amenity": "parking",
        "parking": "layby"
      }
    },
    {
      "type": "way",
      "id": 1374095334,
      "center": {
        "lat": 12.8835577,
        "lon": 77.6428894
      },
      "tags": {
        "amenity": "fuel",
        "brand": "Shell",
        "brand:wikidata": "Q110716465",
        "check_date": "2024-04-03",
        "name": "Shell",
        "self_service": "no",
        "source": "survey"
      }
    },
    {
      "type": "way",
      "id": 1422247281,
      "center": {
        "lat": 12.8853646,
        "lon": 77.6417803
      },
      "tags": {
        "amenity": "fuel"
      }
    },
    {
      "type": "way",
      "id": 1427355561,
      "center": {
        "lat": 12.8745883,
        "lon": 77.6417944
      },
      "tags": {
        "access": "private",
        "leisure": "swimming_pool"
      }
    }
  ]
}