{
  "area_name": "Sir M. Visvesvaraya Layout",
  "osm_id": 12040963494,
  "osm_type": "node",
  "place_type": "neighbourhood",
  "amenity_count": 42,
  "amenities": [
    {
      "type": "node",
      "id": 267216388,
      "lat": 12.8878334,
      "lon": 77.6729219,
      "tags": {
        "amenity": "telephone"
      }
    },
    {
      "type": "node",
      "id": 267217171,
      "lat": 12.8749338,
      "lon": 77.6688773,
      "tags": {
        "amenity": "telephone",
        "created_by": "JOSM"
      }
    },
    {
      "type": "node",
      "id": 4273047590,
      "lat": 12.8899392,
      "lon": 77.6733771,
      "tags": {
        "addr:housenumber": "65/1",
        "addr:postcode": "560099",
        "addr:street": "Central Jail Road",
        "name": "Loyal World Retail Mart",
        "opening_hours": "Mo-Sa 08:30-21:30; Su 08:30-09:30",
        "phone": "08025746285",
        "shop": "supermarket"
      }
    },
    {
      "type": "node",
      "id": 4441925587,
      "lat": 12.8901398,
      "lon": 77.6734141,
      "tags": {
        "addr:city": "Bangaluru",
        "addr:housename": "Muniyellapa Building",
        "addr:postcode": "560099",
        "addr:street": "Central Jail Road",
        "amenity": "clinic",
        "healthcare": "clinic",
        "name": "Harmony Wellness Concepts Center",
        "phone": "+91-97418 99116",
        "website": "https://www.harmonywellnessconcepts.com/"
      }
    },
    {
      "type": "node",
      "id": 6349022511,
      "lat": 12.8814541,
      "lon": 77.6674463,
      "tags": {
        "addr:place": "Parappana Agrahara",
        "amenity": "school",
        "isced:level": "2",
        "name": "GHPS Parappana Agrahara Centra",
        "name:kn": "ಸರ್ಕಾರಿ ಹಿರಿಯ ಪ್ರಾಥಮಿಕ ಶಾಲೆ ಪರಪ್ಪನ ಅಗ್ರಹಾರ",
        "operator": "Department of Education",
        "school": "primary"
      }
    },
    {
      "type": "node",
      "id": 6494392041,
      "lat": 12.8775539,
      "lon": 77.6700895,
      "tags": {
        "addr:place": "Ellikunte",
        "amenity": "school",
        "isced": "2",
        "name": "New Shanthiniketan Eng Convent",
        "name:kn": "ನ್ಯೂ ಶಾಂತಿನಿಕೇತನ ಆಂಗ್ಲ ಕಾನ್ವೆಂಟ್, ಎಳ್ಳುಕುಂಟೆ",
        "operator": "Private Un-Aided",
        "school": "Higher Primary"
      }
    },
    {
      "type": "node",
      "id": 6631456960,
      "lat": 12.8764083,
      "lon": 77.6716475,
      "tags": {
        "amenity": "fuel",
        "brand": "Indian Oil",
        "brand:wikidata": "Q1289348",
        "brand:wikipedia": "en:Indian Oil Corporation",
        "name": "Indian Oil",
        "name:kn": "ಇಂಡಿಯನ್ ಆಯಿಲ್"
      }
    },
    {
      "type": "node",
      "id": 11680912575,
      "lat": 12.8760205,
      "lon": 77.6705852,
      "tags": {
        "amenity": "place_of_worship",
        "denomination": "sunni",
        "name": "Masjid-e-Alhadi",
        "religion": "muslim"
      }
    },
    {
      "type": "node",
      "id": 11688074831,
      "lat": 12.8756646,
      "lon": 77.6707057,
      "tags": {
        "amenity": "restaurant",
        "diet:vegetarian": "yes",
        "name": "Sri Vishnu Grand"
      }
    },
    {
      "type": "node",
      "id": 11688074832,
      "lat": 12.8755609,
      "lon": 77.6705991,
      "tags": {
        "amenity": "fast_food",
        "cuisine": "juice",
        "name": "Udupi Juice Junction"
      }
    },
    {
      "type": "node",
      "id": 13139145003,
      "lat": 12.8854594,
      "lon": 77.667789,
      "tags": {
        "access": "private",
        "amenity": "parking_entrance",
        "parking": "underground"
      }
    },
    {
      "type": "node",
      "id": 13139145035,
      "lat": 12.8846606,
      "lon": 77.6685977,
      "tags": {
        "access": "private",
        "amenity": "parking_entrance",
        "parking": "underground"
      }
    },
    {
      "type": "way",
      "id": 55338929,
      "center": {
        "lat": 12.8785163,
        "lon": 77.6652056
      },
      "tags": {
        "amenity": "prison",
        "barrier": "wall"
      }
    },
    {
      "type": "way",
      "id": 55338950,
      "center": {
        "lat": 12.8801432,
        "lon": 77.6655733
      },
      "tags": {
        "alt_name": "Parappana Agrahara Central Jail",
        "amenity": "prison",
        "name": "Bangalore Central Jail",
        "name:kn": "ಪರಪ್ಪನ ಅಗ್ರಹಾರ ಕೇಂದ್ರ ಕಾರಾಗೃಹ",
        "official_name": "Central Prison, Bangalore",
        "start_date": "1997",
        "wikipedia": "en:Central Prison, Bangalore"
      }
    },
    {
      "type": "way",
      "id": 613757688,
      "center": {
        "lat": 12.8834187,
        "lon": 77.6794502
      },
      "tags": {
        "addr:city": "Bengaluru",
        "addr:postcode": "560099",
        "addr:street": "Notre Dame Nagar, Huskur, Choodasandra",
        "amenity": "school",
        "landuse": "education",
        "name": "Notre Dame Academy"
      }
    },
    {
      "type": "way",
      "id": 613757694,
      "center": {
        "lat": 12.8836939,
        "lon": 77.6789462
      },
      "tags": {
        "access": "private",
        "hoops": "2",
        "leisure": "pitch",
        "lit": "no",
        "sport": "basketball",
        "surface": "concrete"
      }
    },
    {
      "type": "way",
      "id": 628196762,
      "center": {
        "lat": 12.8808058,
        "lon": 77.6791126
      },
      "tags": {
        "leisure": "swimming_pool"
      }
    },
    {
      "type": "way",
      "id": 1065763447,
      "center": {
        "lat": 12.885446,
        "lon": 77.671825
      },
      "tags": {
        "amenity": "police",
        "building": "yes",
        "source": "microsoft/BuildingFootprints"
      }
    },
    {
      "type": "way",
      "id": 1065763489,
      "center": {
        "lat": 12.8808799,
        "lon": 77.6731674
      },
      "tags": {
        "building": "yes",
        "fee": "yes",
        "leisure": "sports_centre",
        "name": "Elevate",
        "payment:cash": "yes",
        "payment:upi": "yes",
        "sport": "climbing"
      }
    },
    {
      "type": "way",
      "id": 1244168907,
      "center": {
        "lat": 12.8880547,
        "lon": 77.6701878
      },
      "tags": {
        "leisure": "sports_centre"
      }
    },
    {
      "type": "way",
      "id": 1256468545,
      "center": {
        "lat": 12.8764449,
        "lon": 77.6716449
      },
      "tags": {
        "amenity": "fuel",
        "name": "Aum Petroleum"
      }
    },
    {
      "type": "way",
      "id": 1299914671,
      "center": {
        "lat": 12.8844038,
        "lon": 77.6690852
      },
      "tags": {
        "leisure": "pitch",
        "sport": "tennis"
      }
    },
    {
      "type": "way",
      "id": 1302845999,
      "center": {
        "lat": 12.8765263,
        "lon": 77.6741472
      },
      "tags": {
        "amenity": "fuel",
        "brand": "Nayara",
        "fuel:diesel": "yes",
        "fuel:octane_100": "yes",
        "fuel:octane_80": "yes",
        "fuel:octane_87": "yes",
        "fuel:octane_91": "yes",
        "fuel:octane_92": "yes",
        "fuel:octane_95": "yes",
        "fuel:octane_98": "yes",
        "name": "Nayara Petrol Pump",
        "operator": "Nayara Energy",
        "wheelchair": "yes"
      }
    },
    {
      "type": "way",
      "id": 1420117239,
      "center": {
        "lat": 12.8815246,
        "lon": 77.6784219
      },
      "tags": {
        "leisure": "garden"
      }
    },
    {
      "type": "way",
      "id": 1420117288,
      "center": {
        "lat": 12.8855582,
        "lon": 77.6794888
      },
      "tags": {
        "leisure": "pitch",
        "sport": "basketball"
      }
    },
    {
      "type": "way",
      "id": 1429319205,
      "center": {
        "lat": 12.878125,
        "lon": 77.6730139
      },
      "tags": {
        "access": "private",
        "leisure": "swimming_pool"
      }
    },
    {
      "type": "way",
      "id": 1429319211,
      "center": {
        "lat": 12.878376,
        "lon": 77.6721857
      },
      "tags": {
        "leisure": "pitch",
        "sport": "tennis"
      }
    },
    {
      "type": "way",
      "id": 1429319216,
      "center": {
        "lat": 12.8883525,
        "lon": 77.6680542
      },
      "tags": {
        "access": "private",
        "leisure": "pitch",
        "sport": "soccer"
      }
    },
    {
      "type": "way",
      "id": 1429319339,
      "center": {
        "lat": 12.889184,
        "lon": 77.6673833
      },
      "tags": {
        "access": "private",
        "leisure": "playground"
      }
    },
    {
      "type": "way",
      "id": 1429319340,
      "center": {
        "lat": 12.888981,
        "lon": 77.6676254
      },
      "tags": {
        "access": "private",
        "leisure": "swimming_pool"
      }
    },
    {
      "type": "way",
      "id": 1429319341,
      "center": {
        "lat": 12.8900046,
        "lon": 77.6685904
      },
      "tags": {
        "access": "private",
        "leisure": "pitch",
        "sport": "tennis"
      }
    },
    {
      "type": "way",
      "id": 1429319353,
      "center": {
        "lat": 12.8846213,
        "lon": 77.6687774
      },
      "tags": {
        "access": "private",
        "leisure": "pitch",
        "sport": "cricket_nets"
      }
    },
    {
      "type": "way",
      "id": 1429319354,
      "center": {
        "lat": 12.8843763,
        "lon": 77.6683183
      },
      "tags": {
        "access": "private",
        "leisure": "playground"
      }
    },
    {
      "type": "way",
      "id": 1429319356,
      "center": {
        "lat": 12.8850528,
        "lon": 77.6668551
      },
      "tags": {
        "access": "private",
        "leisure": "park"
      }
    },
    {
      "type": "way",
      "id": 1429319357,
      "center": {
        "lat": 12.8852911,
        "lon": 77.6669602
      },
      "tags": {
        "access": "private",
        "leisure": "playground"
      }
    },
    {
      "type": "way",
      "id": 1429319363,
      "center": {
        "lat": 12.8847837,
        "lon": 77.6674775
      },
      "tags": {
        "access": "private",
        "leisure": "swimming_pool"
      }
    },
    {
      "type": "way",
      "id": 1429319376,
      "center": {
        "lat": 12.8782997,
        "lon": 77.6714666
      },
      "tags": {
        "access": "private",
        "amenity": "theatre",
        "theatre:type": "amphi"
      }
    },
    {
      "type": "way",
      "id": 1429319378,
      "center": {
        "lat": 12.8788367,
        "lon": 77.6717578
      },
      "tags": {
        "access": "private",
        "leisure": "swimming_pool"
      }
    },
    {
      "type": "way",
      "id": 1429319379,
      "center": {
        "lat": 12.8788873,
        "lon": 77.6711404
      },
      "tags": {
        "access": "private",
        "leisure": "swimming_pool"
      }
    },
    {
      "type": "way",
      "id": 1429319386,
      "center": {
        "lat": 12.8804967,
        "lon": 77.676363
      },
      "tags": {
        "access": "private",
        "leisure": "swimming_pool"
      }
    },
    {
      "type": "way",
      "id": 1429319402,
      "center": {
        "lat": 12.8822219,
        "lon": 77.6769766
      },
      "tags": {
        "leisure": "pitch",
        "sport": "soccer"
      }
    },
    {
      "type": "way",
      "id": 1429319404,
      "center": {
        "lat": 12.8823662,
        "lon": 77.678823
      },
      "tags": {
        "access": "private",
        "leisure": "swimming_pool"
      }
    }
  ]
}