{
  "area_name": "Somasundarapalya",
  "osm_id": 2909527109,
  "osm_type": "node",
  "place_type": "neighbourhood",
  "amenity_count": 105,
  "amenities": [
    {
      "type": "node",
      "id": 266472080,
      "lat": 12.9056265,
      "lon": 77.6487875,
      "tags": {
        "amenity": "post_box"
      }
    },
    {
      "type": "node",
      "id": 1467831581,
      "lat": 12.9076312,
      "lon": 77.6492635,
      "tags": {
        "addr:district": "Bengaluru",
        "addr:postcode": "560102",
        "addr:street": "24th main hsr 2nd sector",
        "amenity": "pharmacy",
        "dispensing": "yes",
        "healthcare": "pharmacy",
        "name": "Sree Shakthi medicals"
      }
    },
    {
      "type": "node",
      "id": 1468908276,
      "lat": 12.9076284,
      "lon": 77.6493158,
      "tags": {
        "amenity": "clinic",
        "healthcare": "clinic",
        "name": "A K Clinic"
      }
    },
    {
      "type": "node",
      "id": 1468908295,
      "lat": 12.9071172,
      "lon": 77.6491754,
      "tags": {
        "addr:postcode": "560102",
        "addr:street": "24th main hsr 2nd sector",
        "amenity": "pharmacy",
        "brand": "MedPlus",
        "brand:wikidata": "Q65684234",
        "dispensing": "yes",
        "healthcare": "pharmacy",
        "name": "MedPlus",
        "name:kn": "ಮೆಡ್‍ಪ್ಲಸ್"
      }
    },
    {
      "type": "node",
      "id": 1468908300,
      "lat": 12.9075992,
      "lon": 77.6488507,
      "tags": {
        "amenity": "hospital",
        "name": "health nest"
      }
    },
    {
      "type": "node",
      "id": 1468908328,
      "lat": 12.9044398,
      "lon": 77.649016,
      "tags": {
        "shop": "supermarket"
      }
    },
    {
      "type": "node",
      "id": 1470755128,
      "lat": 12.907194,
      "lon": 77.649038,
      "tags": {
        "amenity": "place_of_worship",
        "name": "Sri Mariyamma Temple",
        "name:kn": "ಮಾರಿಯಮ್ಮ ದೇವಸ್ಥಾನ",
        "religion": "hindu"
      }
    },
    {
      "type": "node",
      "id": 1835512586,
      "lat": 12.9074968,
      "lon": 77.6492213,
      "tags": {
        "amenity": "hospital",
        "name": "Cure & Care Dental Clinic Dr. Moumita Mukherjee"
      }
    },
    {
      "type": "node",
      "id": 2387041604,
      "lat": 12.8985271,
      "lon": 77.6448289,
      "tags": {
        "amenity": "atm",
        "brand": "HDFC Bank",
        "brand:wikidata": "Q631047",
        "brand:wikipedia": "en:HDFC Bank",
        "name": "HDFC Bank",
        "name:kn": "ಎಚ್ ಡಿ ಎಫ್ ಸಿ",
        "operator": "HDFC Bank",
        "operator:wikidata": "Q631047",
        "operator:wikipedia": "en:HDFC Bank",
        "short_name": "HDFC"
      }
    },
    {
      "type": "node",
      "id": 2387041605,
      "lat": 12.8972303,
      "lon": 77.6459233,
      "tags": {
        "amenity": "atm",
        "brand": "Canara Bank",
        "brand:en": "Canara Bank",
        "brand:hi": "केनरा बैंक",
        "brand:kn": "ಕೆನರಾ ಬ್ಯಾಂಕ್",
        "brand:pa": "ਕੇਨਰਾ ਬੈਂਕ",
        "brand:pnb": "کینرا بینک",
        "brand:ur": "کینرا بینک",
        "brand:wikidata": "Q2003777",
        "brand:wikipedia": "en:Canara Bank",
        "name": "Canara Bank",
        "name:en": "Canara Bank",
        "name:hi": "केनरा बैंक",
        "name:kn": "ಕೆನರಾ ಬ್ಯಾಂಕ್",
        "name:pa": "ਕੇਨਰਾ ਬੈਂਕ",
        "name:pnb": "کینرا بینک",
        "name:ur": "کینرا بینک",
        "operator": "Canara Bank",
        "operator:wikidata": "Q2003777",
        "operator:wikipedia": "en:Canara Bank"
      }
    },
    {
      "type": "node",
      "id": 2387041695,
      "lat": 12.9043833,
      "lon": 77.6455159,
      "tags": {
        "amenity": "atm",
        "brand": "ICICI Bank",
        "brand:wikidata": "Q1653258",
        "operator": "ICICI Bank",
        "operator:wikidata": "Q1653258",
        "short_name": "ICICI"
      }
    },
    {
      "type": "node",
      "id": 4057972757,
      "lat": 12.8918648,
      "lon": 77.6496129,
      "tags": {
        "amenity": "atm",
        "brand": "Axis Bank",
        "brand:wikidata": "Q2003549",
        "name": "Axis Bank",
        "operator": "Axis Bank",
        "operator:wikidata": "Q2003549"
      }
    },
    {
      "type": "node",
      "id": 4665353934,
      "lat": 12.8985431,
      "lon": 77.6499391,
      "tags": {
        "amenity": "place_of_worship",
        "name": "Residency Park Temple"
      }
    },
    {
      "type": "node",
      "id": 5780841177,
      "lat": 12.905697,
      "lon": 77.6511262,
      "tags": {
        "addr:city": "Bengaluru",
        "addr:housenumber": "1585",
        "addr:postcode": "560102",
        "addr:street": "27th Main Road, HSR Layout, Sector 2",
        "alt_name": "Pragmattic Services",
        "level": "1",
        "name": "Track and Trail",
        "operator": "TI Cycles India",
        "payment:cash": "yes",
        "payment:credit_cards": "yes",
        "service:bicycle:pump": "yes",
        "service:bicycle:repair": "yes",
        "service:bicycle:retail": "yes",
        "shop": "bicycle"
      }
    },
    {
      "type": "node",
      "id": 5784276606,
      "lat": 12.9056908,
      "lon": 77.6510831,
      "tags": {
        "level": "-1",
        "organic": "only",
        "shop": "supermarket"
      }
    },
    {
      "type": "node",
      "id": 6346934417,
      "lat": 12.8982752,
      "lon": 77.6515095,
      "tags": {
        "addr:place": "aralakunate",
        "amenity": "school",
        "isced:level": "2",
        "name": "GHPS Aralakunate",
        "name:kn": "ಸರ್ಕಾರಿ ಹಿರಿಯ ಪ್ರಾಥಮಿಕ ಶಾಲೆ ಅರಳಕುಂಟೆ",
        "operator": "Department of Education",
        "school": "primary"
      }
    },
    {
      "type": "node",
      "id": 6422582704,
      "lat": 12.8996038,
      "lon": 77.6515434,
      "tags": {
        "addr:place": "BommanaHalli",
        "amenity": "school",
        "isced:level": "3",
        "name": "Chinmaya Vidya Mandira, Bommana Halli",
        "name:kn": "ಚಿನ್ಮಯ ವಿದ್ಯಾ ಮಂದಿರ, ಬೊಮ್ಮನಹಳ್ಳಿ",
        "operator": "Private Un-Aided",
        "school": "Higher Secondary"
      }
    },
    {
      "type": "node",
      "id": 6494721727,
      "lat": 12.9000115,
      "lon": 77.6452749,
      "tags": {
        "addr:place": "Ellikunate",
        "amenity": "school",
        "isced:level": "3",
        "name": "New Madar Teresa",
        "name:kn": "ಹೊಸ ಮದರ್ ತೆರೇಸಾ, ಎಳ್ಳುಕುಂಟೆ",
        "operator": "Private Un-Aided",
        "school": "Higher Secondary"
      }
    },
    {
      "type": "node",
      "id": 6698658814,
      "lat": 12.8989162,
      "lon": 77.6566393,
      "tags": {
        "addr:city": "Bengaluru",
        "addr:housenumber": "Shop #1, Sy No 30, Opp Vibgyor High School",
        "addr:postcode": "560102",
        "addr:street": "Reliable Residency Layout, Somasundrapalya, Harlur Road, HSR Layout 2nd Extn",
        "amenity": "veterinary",
        "contact:email": "swatimvc@gmail.com",
        "contact:phone": "7204522768",
        "description": "We care for your loved ones",
        "fee": "yes",
        "name": "Your's pet",
        "opening_hours": "Th-Tu 09:00-13:00",
        "operator": "Dr. Swati Jain",
        "payment:cash": "yes",
        "source": "local knowledge"
      }
    },
    {
      "type": "node",
      "id": 6698658815,
      "lat": 12.8985449,
      "lon": 77.6582915,
      "tags": {
        "addr:city": "Bengaluru",
        "addr:postcode": "560102",
        "addr:street": "Haralur Road",
        "brand": "FreshCo",
        "brand:wikidata": "Q5502915",
        "brand:wikipedia": "en:FreshCo",
        "name": "FreshCo",
        "payment:cash": "yes",
        "payment:credit_cards": "yes",
        "payment:debit_cards": "yes",
        "phone": "25577888",
        "ref:vatin": "29AAEFF0415A1Z4",
        "shop": "supermarket"
      }
    },
    {
      "type": "node",
      "id": 8439422717,
      "lat": 12.8984689,
      "lon": 77.6572967,
      "tags": {
        "addr:housenumber": "5",
        "addr:postcode": "560102",
        "addr:street": "Reliable Lakedew Residency",
        "amenity": "clinic",
        "healthcare": "clinic",
        "name": "Liss Medical and Dental Clinic",
        "name:en": "Liss Medical and Dental Clinic",
        "name:hi": "लिस मेडिकल एंड डेंटल क्लिनिक",
        "opening_hours": "Mo-Su 09:00-18:00"
      }
    },
    {
      "type": "node",
      "id": 8439422718,
      "lat": 12.8985674,
      "lon": 77.6574334,
      "tags": {
        "addr:housenumber": "4",
        "addr:postcode": "560102",
        "addr:street": "Haralur Road",
        "name:en": "Patanjali Aarogya Kendra",
        "name:hi": "पतंजि आरोग्य केंद्र",
        "opening_hours": "Mo-Su 09:00-18:00",
        "phone": "+91 95351 92990",
        "shop": "convenience"
      }
    },
    {
      "type": "node",
      "id": 8439429817,
      "lat": 12.8984692,
      "lon": 77.6577702,
      "tags": {
        "addr:housenumber": "2",
        "addr:postcode": "560102",
        "addr:street": "Haralur Road",
        "name": "My Chicken and More",
        "name:en": "My Chicken and More",
        "name:hi": "माइ चिकन एंड मोर",
        "opening_hours": "Mo-Su 09:00-18:00",
        "phone": "076250 62773",
        "shop": "butcher",
        "website": "https://www.mychickenandmore.com/"
      }
    },
    {
      "type": "node",
      "id": 8439438617,
      "lat": 12.8987996,
      "lon": 77.6584097,
      "tags": {
        "addr:postcode": "560102",
        "addr:street": "Haralur Road",
        "air_conditioning": "yes",
        "amenity": "fast_food",
        "brand": "Domino's",
        "brand:wikidata": "Q839466",
        "brand:wikipedia": "en:Domino's Pizza",
        "cuisine": "pizza",
        "diet:vegetarian": "yes",
        "indoor_seating": "yes",
        "name": "Domino's",
        "name:en": "Domino's Pizza",
        "name:hi": "डोमिनोज़ पिज़्ज़ा",
        "name:kn": "ಡಾಮಿನೋಸ್",
        "opening_hours": "Mo-Su 10:00-23:00",
        "outdoor_seating": "no",
        "smoking": "no",
        "takeaway": "yes",
        "website": "https://www.dominos.co.in/"
      }
    },
    {
      "type": "node",
      "id": 8439822017,
      "lat": 12.8986228,
      "lon": 77.656868,
      "tags": {
        "addr:postcode": "560102",
        "addr:street": "Reliable Lakedew Residency",
        "name": "Gorjiyasa",
        "opening_hours": "Mo-Fr 09:00-18:00",
        "shop": "beauty"
      }
    },
    {
      "type": "node",
      "id": 9649527871,
      "lat": 12.9080295,
      "lon": 77.6519331,
      "tags": {
        "amenity": "restaurant",
        "name": "Kapoor's Cafe",
        "wheelchair": "no"
      }
    },
    {
      "type": "node",
      "id": 10049437550,
      "lat": 12.907836,
      "lon": 77.6518547,
      "tags": {
        "name": "Have Nuts",
        "shop": "greengrocer"
      }
    },
    {
      "type": "node",
      "id": 10683921044,
      "lat": 12.8952056,
      "lon": 77.6573307,
      "tags": {
        "air_conditioning": "yes",
        "check_date": "2025-02-12",
        "clothes": "women;men;children",
        "level": "0",
        "name": "Reliance Trends",
        "operator": "Reliance",
        "payment:cash": "yes",
        "payment:mastercard": "yes",
        "payment:visa": "yes",
        "second_hand": "no",
        "shop": "clothes",
        "source": "survey"
      }
    },
    {
      "type": "node",
      "id": 10683921045,
      "lat": 12.8950025,
      "lon": 77.6572377,
      "tags": {
        "check_date": "2024-09-18",
        "level": "0",
        "name": "Reliance Digital",
        "operator": "Reliance",
        "payment:cash": "yes",
        "payment:credit_cards": "yes",
        "payment:debit_cards": "yes",
        "shop": "appliance",
        "source": "survey"
      }
    },
    {
      "type": "node",
      "id": 10683921046,
      "lat": 12.8951857,
      "lon": 77.656994,
      "tags": {
        "check_date": "2025-02-12",
        "level": "0;1",
        "name": "Reliance Smart Superstore",
        "operator": "Reliance",
        "payment:cash": "yes",
        "payment:mastercard": "yes",
        "payment:visa": "yes",
        "shop": "supermarket",
        "source": "survey"
      }
    },
    {
      "type": "node",
      "id": 10683921047,
      "lat": 12.8952727,
      "lon": 77.6570219,
      "tags": {
        "amenity": "cinema",
        "check_date": "2024-09-18",
        "level": "2;3",
        "name": "Cinephile 4K Multiplex",
        "payment:cash": "yes",
        "payment:credit_cards": "yes",
        "payment:debit_cards": "yes",
        "screen": "4",
        "source": "survey"
      }
    },
    {
      "type": "node",
      "id": 10685007743,
      "lat": 12.8946577,
      "lon": 77.6602471,
      "tags": {
        "level": "0",
        "name": "My Chicken",
        "shop": "butcher"
      }
    },
    {
      "type": "node",
      "id": 10685007744,
      "lat": 12.8946628,
      "lon": 77.6601917,
      "tags": {
        "level": "1",
        "name": "Gentleman Hair Studio",
        "shop": "hairdresser",
        "unisex": "yes"
      }
    },
    {
      "type": "node",
      "id": 10727955501,
      "lat": 12.9014685,
      "lon": 77.6504016,
      "tags": {
        "amenity": "cafe",
        "contact:facebook": "lefromageboulangerie",
        "contact:instagram": "le_fromage_boulangerie",
        "delivery": "yes",
        "name": "Dunk'd",
        "old_name": "Le Fromage",
        "shop": "pastry",
        "takeaway": "yes",
        "website": "https://www.lefromage.shop"
      }
    },
    {
      "type": "node",
      "id": 10778975981,
      "lat": 12.9078712,
      "lon": 77.651886,
      "tags": {
        "amenity": "doctors",
        "name": "Padithem Health Centre"
      }
    },
    {
      "type": "node",
      "id": 11085582494,
      "lat": 12.9051719,
      "lon": 77.6491105,
      "tags": {
        "name": "RG Unisex Salon",
        "shop": "hairdresser"
      }
    },
    {
      "type": "node",
      "id": 11085582498,
      "lat": 12.9053754,
      "lon": 77.64933,
      "tags": {
        "amenity": "fast_food",
        "cuisine": "juice",
        "name": "Fresh Cane Juice"
      }
    },
    {
      "type": "node",
      "id": 11085704835,
      "lat": 12.9038504,
      "lon": 77.6490166,
      "tags": {
        "amenity": "restaurant",
        "cuisine": "sushi",
        "name": "Suku"
      }
    },
    {
      "type": "node",
      "id": 11136746017,
      "lat": 12.8943447,
      "lon": 77.6571511,
      "tags": {
        "amenity": "pharmacy",
        "dispensing": "yes",
        "drive_through": "no",
        "healthcare": "pharmacy",
        "name": "Ramdev Medicals",
        "wheelchair": "limited"
      }
    },
    {
      "type": "node",
      "id": 11233733246,
      "lat": 12.9036184,
      "lon": 77.6486952,
      "tags": {
        "amenity": "cafe",
        "cuisine": "snacks;tea;juice",
        "name": "Coffee Makers",
        "outdoor_seating": "yes"
      }
    },
    {
      "type": "node",
      "id": 11399737010,
      "lat": 12.9082406,
      "lon": 77.6519429,
      "tags": {
        "amenity": "bank",
        "brand": "IndusInd Bank",
        "brand:wikidata": "Q2040323",
        "check_date": "2023-12-07",
        "name": "IndusInd Bank",
        "name:kn": "ಇಂಡಸ್ಇಂಡ್"
      }
    },
    {
      "type": "node",
      "id": 11502362673,
      "lat": 12.9052595,
      "lon": 77.6495099,
      "tags": {
        "addr:state": "KA",
        "addr:street": "26th Cross Road",
        "name": "24 Mantra Organic Shop",
        "opening_hours": "Mo-Su 08:30-20:30",
        "organic": "yes",
        "shop": "greengrocer",
        "wheelchair": "no"
      }
    },
    {
      "type": "node",
      "id": 11502372890,
      "lat": 12.9054885,
      "lon": 77.6499377,
      "tags": {
        "addr:city": "Bengaluru",
        "addr:district": "Bengaluru",
        "addr:postcode": "560102",
        "addr:state": "KA",
        "addr:street": "26th Cross Road",
        "addr:suburb": "HSR Layout",
        "amenity": "community_centre",
        "community_centre": "community_hall",
        "community_centre:for": "family",
        "name": "Siddhartha Convention Centre",
        "opening_hours": "Mo-Su 10:30-08:30",
        "toilets": "yes",
        "wheelchair": "no"
      }
    },
    {
      "type": "node",
      "id": 11689992008,
      "lat": 12.8942759,
      "lon": 77.6457077,
      "tags": {
        "amenity": "shelter",
        "shelter_type": "gazebo"
      }
    },
    {
      "type": "node",
      "id": 11836691638,
      "lat": 12.8936429,
      "lon": 77.6574086,
      "tags": {
        "access": "private",
        "amenity": "parking_entrance",
        "parking": "underground"
      }
    },
    {
      "type": "node",
      "id": 11836691643,
      "lat": 12.8931242,
      "lon": 77.6564222,
      "tags": {
        "amenity": "parking_entrance",
        "parking": "underground"
      }
    },
    {
      "type": "node",
      "id": 11948295136,
      "lat": 12.9075461,
      "lon": 77.6490336,
      "tags": {
        "addr:city": "Bangaluru",
        "addr:district": "Bengaluru",
        "addr:postcode": "560102",
        "addr:street": "24th Main Road",
        "amenity": "pharmacy",
        "healthcare": "pharmacy",
        "name": "Ganesh Medicals"
      }
    },
    {
      "type": "node",
      "id": 11949742433,
      "lat": 12.9048145,
      "lon": 77.6488354,
      "tags": {
        "addr:city": "Bengaluru",
        "addr:district": "Bengaluru",
        "addr:postcode": "560102",
        "addr:street": "24th Main Road, Sector-2, HSR layout",
        "name": "Food Palace Supermarket",
        "name:kn": "ಫುಡ್ ಪ್ಯಾಲೇಸ್",
        "opening_hours": "Mo-Su 07:30-22:30",
        "shop": "supermarket"
      }
    },
    {
      "type": "node",
      "id": 11982676010,
      "lat": 12.9052662,
      "lon": 77.6488723,
      "tags": {
        "addr:city": "Bengaluru",
        "addr:district": "Bengaluru",
        "addr:postcode": "560102",
        "addr:street": "24th Main Road, Sector-2, HSR Layout",
        "name": "Ayush Hyper Market",
        "shop": "supermarket"
      }
    },
    {
      "type": "node",
      "id": 11982683582,
      "lat": 12.9052092,
      "lon": 77.6491024,
      "tags": {
        "addr:city": "Bengaluru",
        "addr:district": "Bengaluru",
        "addr:housenumber": "1318",
        "addr:postcode": "560102",
        "addr:street": "24th Main Road,Sector-2, HSR Layout",
        "amenity": "bank",
        "brand": "ESAF Small Finance Bank",
        "brand:wikidata": "Q28173964",
        "name": "ESAF Small Finance Bank"
      }
    },
    {
      "type": "node",
      "id": 11982683583,
      "lat": 12.9052438,
      "lon": 77.6491055,
      "tags": {
        "amenity": "atm",
        "brand": "ESAF Small Finance Bank",
        "brand:wikidata": "Q28173964",
        "operator": "ESAF Small Finance Bank",
        "operator:wikidata": "Q28173964"
      }
    },
    {
      "type": "node",
      "id": 11998243869,
      "lat": 12.9077495,
      "lon": 77.6492278,
      "tags": {
        "addr:housenumber": "51/1",
        "addr:postcode": "560102",
        "addr:street": "24th Main Road",
        "name": "Manju Departmental Store",
        "opening_hours": "Mo-Su 09:00-10:00",
        "shop": "grocery"
      }
    },
    {
      "type": "node",
      "id": 11998244069,
      "lat": 12.9077278,
      "lon": 77.6490733,
      "tags": {
        "addr:housenumber": "3/1",
        "addr:postcode": "560102",
        "addr:street": "24th Main Road",
        "name": "Mahashakti Fancy & Gift Paradise",
        "opening_hours": "Mo-Su 09:00-10:00",
        "shop": "gift"
      }
    },
    {
      "type": "node",
      "id": 12076711791,
      "lat": 12.8971942,
      "lon": 77.6454983,
      "tags": {
        "addr:city": "Bengaluru",
        "addr:district": "Bengaluru",
        "addr:postcode": "560068",
        "addr:street": "Hosapalya",
        "brand": "Nandini",
        "brand:wikidata": "Q124374212",
        "name": "Nandini",
        "name:kn": "ನಂದಿನಿ",
        "shop": "dairy"
      }
    },
    {
      "type": "node",
      "id": 12076711792,
      "lat": 12.8972797,
      "lon": 77.6454852,
      "tags": {
        "addr:city": "Bengaluru",
        "addr:district": "Bengaluru",
        "addr:postcode": "560068",
        "amenity": "bus_station",
        "bus": "yes",
        "name": "Hosapalya Bus Stop",
        "name:ta": "ஹோசாபால்யா பஸ் நிறுத்தம்",
        "public_transport": "station"
      }
    },
    {
      "type": "node",
      "id": 12486963377,
      "lat": 12.9067318,
      "lon": 77.6493254,
      "tags": {
        "leisure": "fitness_centre",
        "name": "Next Move"
      }
    },
    {
      "type": "node",
      "id": 12486985771,
      "lat": 12.9067271,
      "lon": 77.648918,
      "tags": {
        "amenity": "bank",
        "name": "Axis Bank"
      }
    },
    {
      "type": "node",
      "id": 12486999002,
      "lat": 12.9065855,
      "lon": 77.649084,
      "tags": {
        "name": "Print Express",
        "shop": "print"
      }
    },
    {
      "type": "node",
      "id": 12487006151,
      "lat": 12.9065774,
      "lon": 77.6492549,
      "tags": {
        "name": "Bike Service Point",
        "shop": "motorcycle"
      }
    },
    {
      "type": "node",
      "id": 12487007747,
      "lat": 12.906594,
      "lon": 77.6492113,
      "tags": {
        "amenity": "restaurant",
        "name": "The Madras Mess"
      }
    },
    {
      "type": "node",
      "id": 12522252573,
      "lat": 12.8940089,
      "lon": 77.6558713,
      "tags": {
        "addr:city": "Bangalore",
        "addr:postcode": "560102",
        "addr:street": "Kudlu Rd, Reliable Tranquil Layout",
        "air_conditioning": "yes",
        "check_date": "2025-02-12",
        "name": "Freshco Hyperbazaar",
        "payment:cash": "yes",
        "payment:mastercard": "yes",
        "payment:visa": "yes",
        "second_hand": "no",
        "shop": "supermarket",
        "source": "survey"
      }
    },
    {
      "type": "node",
      "id": 12580943038,
      "lat": 12.8930856,
      "lon": 77.6532067,
      "tags": {
        "leisure": "pitch",
        "source": "survey",
        "sport": "badminton"
      }
    },
    {
      "type": "node",
      "id": 12580943039,
      "lat": 12.8968052,
      "lon": 77.6584541,
      "tags": {
        "amenity": "bank",
        "brand": "HDFC Bank",
        "brand:wikidata": "Q631047",
        "check_date": "2025-02-12",
        "name": "HDFC Bank",
        "short_name": "HDFC",
        "source": "survey"
      }
    },
    {
      "type": "node",
      "id": 12580943040,
      "lat": 12.8967568,
      "lon": 77.6584355,
      "tags": {
        "amenity": "atm",
        "brand": "HDFC Bank",
        "brand:wikidata": "Q631047",
        "check_date": "2025-02-12",
        "name": "HDFC Bank",
        "opening_hours": "24/7",
        "operator": "HDFC Bank",
        "operator:wikidata": "Q631047",
        "short_name": "HDFC",
        "source": "survey"
      }
    },
    {
      "type": "node",
      "id": 12580943041,
      "lat": 12.9007752,
      "lon": 77.6598469,
      "tags": {
        "amenity": "atm",
        "brand": "Canara Bank",
        "brand:en": "Canara Bank",
        "brand:hi": "केनरा बैंक",
        "brand:kn": "ಕೆನರಾ ಬ್ಯಾಂಕ್",
        "brand:pa": "ਕੇਨਰਾ ਬੈਂਕ",
        "brand:pnb": "کینرا بینک",
        "brand:ur": "کینرا بینک",
        "brand:wikidata": "Q2003777",
        "check_date": "2025-02-12",
        "name:en": "Canara Bank",
        "name:hi": "केनरा बैंक",
        "name:kn": "ಕೆನರಾ ಬ್ಯಾಂಕ್",
        "name:pa": "ਕੇਨਰਾ ਬੈਂਕ",
        "name:pnb": "کینرا بینک",
        "name:ur": "کینرا بینک",
        "opening_hours": "24/7",
        "operator": "Canara Bank",
        "operator:wikidata": "Q2003777",
        "source": "survey"
      }
    },
    {
      "type": "node",
      "id": 13144332677,
      "lat": 12.8926385,
      "lon": 77.6575148,
      "tags": {
        "access": "private",
        "amenity": "parking_entrance",
        "parking": "underground"
      }
    },
    {
      "type": "node",
      "id": 13144332682,
      "lat": 12.8929202,
      "lon": 77.6575229,
      "tags": {
        "access": "private",
        "amenity": "parking_entrance",
        "parking": "underground"
      }
    },
    {
      "type": "node",
      "id": 13144332686,
      "lat": 12.893717,
      "lon": 77.6578843,
      "tags": {
        "access": "private",
        "amenity": "parking_entrance",
        "parking": "underground"
      }
    },
    {
      "type": "way",
      "id": 24365167,
      "center": {
        "lat": 12.9015628,
        "lon": 77.6605259
      },
      "tags": {
        "amenity": "clinic",
        "healthcare": "clinic",
        "name": "Sri Lakshmi Clinic",
        "name:kn": "ಶ್ರೀ ಲಕ್ಷ್ಮಿ ಆರೋಗ್ಯ ಕೇಂದ್ರ"
      }
    },
    {
      "type": "way",
      "id": 24365350,
      "center": {
        "lat": 12.9011202,
        "lon": 77.6603117
      },
      "tags": {
        "amenity": "place_of_worship",
        "check_date": "2025-02-12",
        "created_by": "JOSM",
        "religion": "hindu",
        "source": "survey"
      }
    },
    {
      "type": "way",
      "id": 24365351,
      "center": {
        "lat": 12.8997336,
        "lon": 77.6591542
      },
      "tags": {
        "created_by": "JOSM",
        "name": "Grandway Stop & Shop",
        "shop": "convenience"
      }
    },
    {
      "type": "way",
      "id": 233128987,
      "center": {
        "lat": 12.907384,
        "lon": 77.6472991
      },
      "tags": {
        "addr:city": "Bangalore",
        "addr:postcode": "560102",
        "addr:street": "22nd Main Road",
        "leisure": "park",
        "name": "Independence Park"
      }
    },
    {
      "type": "way",
      "id": 335080002,
      "center": {
        "lat": 12.9043962,
        "lon": 77.6500887
      },
      "tags": {
        "leisure": "park"
      }
    },
    {
      "type": "way",
      "id": 412929455,
      "center": {
        "lat": 12.8943151,
        "lon": 77.6486824
      },
      "tags": {
        "amenity": "crematorium",
        "landuse": "cemetery",
        "name": "Kudlu Crematorium"
      }
    },
    {
      "type": "way",
      "id": 472322381,
      "center": {
        "lat": 12.8999058,
        "lon": 77.6493921
      },
      "tags": {
        "building": "yes",
        "name": "Shop On",
        "opening_hours": "Mo-Su 07:30-22:30",
        "shop": "department_store",
        "toilets": "yes"
      }
    },
    {
      "type": "way",
      "id": 626885461,
      "center": {
        "lat": 12.9016626,
        "lon": 77.6502392
      },
      "tags": {
        "leisure": "swimming_pool"
      }
    },
    {
      "type": "way",
      "id": 628247480,
      "center": {
        "lat": 12.9037471,
        "lon": 77.6454097
      },
      "tags": {
        "leisure": "swimming_pool"
      }
    },
    {
      "type": "way",
      "id": 855740610,
      "center": {
        "lat": 12.8961021,
        "lon": 77.6499664
      },
      "tags": {
        "building": "yes",
        "shop": "storage_rental"
      }
    },
    {
      "type": "way",
      "id": 1050019908,
      "center": {
        "lat": 12.9055373,
        "lon": 77.6500453
      },
      "tags": {
        "amenity": "events_venue",
        "name": "Siddhartha Convention Center"
      }
    },
    {
      "type": "way",
      "id": 1148303801,
      "center": {
        "lat": 12.8951331,
        "lon": 77.6571353
      },
      "tags": {
        "building": "yes",
        "building:levels": "4",
        "name": "PNR Felicity",
        "shop": "mall"
      }
    },
    {
      "type": "way",
      "id": 1148303802,
      "center": {
        "lat": 12.8949264,
        "lon": 77.65702
      },
      "tags": {
        "access": "permissive",
        "amenity": "parking",
        "fee": "yes",
        "parking": "surface",
        "surface": "concrete"
      }
    },
    {
      "type": "way",
      "id": 1148303803,
      "center": {
        "lat": 12.8953905,
        "lon": 77.6572284
      },
      "tags": {
        "access": "permissive",
        "amenity": "parking",
        "fee": "yes",
        "parking": "surface",
        "surface": "concrete"
      }
    },
    {
      "type": "way",
      "id": 1188968031,
      "center": {
        "lat": 12.9060053,
        "lon": 77.6474272
      },
      "tags": {
        "access": "private",
        "leisure": "pitch",
        "sport": "tennis"
      }
    },
    {
      "type": "way",
      "id": 1188968058,
      "center": {
        "lat": 12.9014213,
        "lon": 77.647459
      },
      "tags": {
        "access": "private",
        "leisure": "swimming_pool",
        "location": "outdoor",
        "swimming_pool": "outdoor"
      }
    },
    {
      "type": "way",
      "id": 1188968062,
      "center": {
        "lat": 12.9014695,
        "lon": 77.648176
      },
      "tags": {
        "access": "private",
        "leisure": "pitch",
        "sport": "basketball"
      }
    },
    {
      "type": "way",
      "id": 1188968077,
      "center": {
        "lat": 12.9013686,
        "lon": 77.6477352
      },
      "tags": {
        "amenity": "school"
      }
    },
    {
      "type": "way",
      "id": 1209542181,
      "center": {
        "lat": 12.9061308,
        "lon": 77.6467093
      },
      "tags": {
        "leisure": "swimming_pool",
        "name": "Pool"
      }
    },
    {
      "type": "way",
      "id": 1257330705,
      "center": {
        "lat": 12.8945883,
        "lon": 77.6458331
      },
      "tags": {
        "addr:city": "Bengaluru",
        "addr:district": "Bengaluru",
        "addr:postcode": "560068",
        "addr:street": "Hosapalya",
        "leisure": "park"
      }
    },
    {
      "type": "way",
      "id": 1274778716,
      "center": {
        "lat": 12.9000432,
        "lon": 77.654042
      },
      "tags": {
        "leisure": "playground"
      }
    },
    {
      "type": "way",
      "id": 1274778717,
      "center": {
        "lat": 12.9001635,
        "lon": 77.6538266
      },
      "tags": {
        "leisure": "park"
      }
    },
    {
      "type": "way",
      "id": 1274778719,
      "center": {
        "lat": 12.9001612,
        "lon": 77.6535307
      },
      "tags": {
        "leisure": "pitch",
        "sport": "tennis"
      }
    },
    {
      "type": "way",
      "id": 1274793360,
      "center": {
        "lat": 12.8921805,
        "lon": 77.6560731
      },
      "tags": {
        "amenity": "fuel"
      }
    },
    {
      "type": "way",
      "id": 1312729960,
      "center": {
        "lat": 12.8985135,
        "lon": 77.6480828
      },
      "tags": {
        "leisure": "park"
      }
    },
    {
      "type": "way",
      "id": 1364168872,
      "center": {
        "lat": 12.8990752,
        "lon": 77.6584302
      },
      "tags": {
        "addr:city": "Bangalore",
        "addr:postcode": "560068",
        "addr:street": "Haralur Road",
        "amenity": "fuel",
        "brand": "Indian Oil",
        "brand:wikidata": "Q1289348",
        "brand:wikipedia": "en:Indian Oil Corporation",
        "compressed_air": "yes",
        "name": "Indian Oil",
        "name:kn": "ಇಂಡಿಯನ್ ಆಯಿಲ್"
      }
    },
    {
      "type": "way",
      "id": 1364168917,
      "center": {
        "lat": 12.8993951,
        "lon": 77.6572331
      },
      "tags": {
        "addr:housename": "Vibgyor",
        "addr:street": "hosa road",
        "amenity": "school",
        "name": "Vibgyor School",
        "name:en": "Vibgyor",
        "name:hi": "विभ्योर",
        "name:kn": "ವಿಬ್ಗ್ಯೋರ್ ಶಾಲೆ",
        "source": "bing"
      }
    },
    {
      "type": "way",
      "id": 1419979527,
      "center": {
        "lat": 12.8909155,
        "lon": 77.6511482
      },
      "tags": {
        "leisure": "pitch",
        "sport": "tennis"
      }
    },
    {
      "type": "way",
      "id": 1422822765,
      "center": {
        "lat": 12.8966894,
        "lon": 77.6561564
      },
      "tags": {
        "leisure": "pitch",
        "sport": "tennis"
      }
    },
    {
      "type": "way",
      "id": 1429941647,
      "center": {
        "lat": 12.8939837,
        "lon": 77.6592834
      },
      "tags": {
        "access": "private",
        "leisure": "park"
      }
    },
    {
      "type": "way",
      "id": 1429941648,
      "center": {
        "lat": 12.8937869,
        "lon": 77.6586275
      },
      "tags": {
        "access": "private",
        "leisure": "playground"
      }
    },
    {
      "type": "way",
      "id": 1429941649,
      "center": {
        "lat": 12.893473,
        "lon": 77.6583932
      },
      "tags": {
        "access": "private",
        "leisure": "pitch",
        "sport": "badminton"
      }
    },
    {
      "type": "way",
      "id": 1429941650,
      "center": {
        "lat": 12.8930837,
        "lon": 77.65875
      },
      "tags": {
        "access": "private",
        "leisure": "swimming_pool"
      }
    },
    {
      "type": "way",
      "id": 1429941653,
      "center": {
        "lat": 12.8933889,
        "lon": 77.6570066
      },
      "tags": {
        "access": "private",
        "leisure": "swimming_pool"
      }
    },
    {
      "type": "way",
      "id": 1429941658,
      "center": {
        "lat": 12.8924608,
        "lon": 77.657406
      },
      "tags": {
        "access": "private",
        "leisure": "playground"
      }
    },
    {
      "type": "way",
      "id": 1429941659,
      "center": {
        "lat": 12.8927323,
        "lon": 77.6580462
      },
      "tags": {
        "access": "private",
        "leisure": "pitch",
        "sport": "tennis"
      }
    },
    {
      "type": "way",
      "id": 1429941660,
      "center": {
        "lat": 12.8933851,
        "lon": 77.6581303
      },
      "tags": {
        "access": "private",
        "leisure": "swimming_pool"
      }
    }
  ]
}