{
  "area_name": "Someshwara Nagara",
  "osm_id": 19883459,
  "osm_type": "relation",
  "place_type": "administrative",
  "amenity_count": 159,
  "amenities": [
    {
      "type": "node",
      "id": 579371985,
      "lat": 12.9430867,
      "lon": 77.5994637,
      "tags": {
        "amenity": "school",
        "name": "Madrasa-e Arabiya",
        "name:kn": "ಮದ್ರಸ ಎ ಅರಬಿಯ"
      }
    },
    {
      "type": "node",
      "id": 1101839426,
      "lat": 12.9455764,
      "lon": 77.5965053,
      "tags": {
        "addr:street": "MariGowda Road",
        "amenity": "place_of_worship",
        "check_date": "2024-10-23",
        "name": "C. S. I. T. A. Shanti Church",
        "religion": "christian"
      }
    },
    {
      "type": "node",
      "id": 1474509222,
      "lat": 12.9459429,
      "lon": 77.5956857,
      "tags": {
        "amenity": "restaurant",
        "name": "Jade Empress",
        "name:kn": "ಜೇಡ್ ಎಂಪ್ರೆಸ್"
      }
    },
    {
      "type": "node",
      "id": 1474509677,
      "lat": 12.9459575,
      "lon": 77.5951685,
      "tags": {
        "amenity": "restaurant",
        "name": "Keys Hotel",
        "name:kn": "ಕೀಸ್ ಹೋಟೆಲ್"
      }
    },
    {
      "type": "node",
      "id": 1474510894,
      "lat": 12.9467025,
      "lon": 77.5942807,
      "tags": {
        "amenity": "place_of_worship",
        "name": "Raghavendra Swamy Temple",
        "name:kn": "ರಾಘವೇಂದ್ರ ಸ್ವಾಮಿ ದೇವಸ್ಥಾನ",
        "religion": "hindu"
      }
    },
    {
      "type": "node",
      "id": 1603318749,
      "lat": 12.9441664,
      "lon": 77.5969354,
      "tags": {
        "amenity": "college",
        "name": "Bangalore Institute of Dental Sciences",
        "website": "https://bidsinstitution.com/"
      }
    },
    {
      "type": "node",
      "id": 1773364555,
      "lat": 12.9456792,
      "lon": 77.5960812,
      "tags": {
        "amenity": "atm",
        "brand": "Canara Bank",
        "brand:en": "Canara Bank",
        "brand:hi": "केनरा बैंक",
        "brand:kn": "ಕೆನರಾ ಬ್ಯಾಂಕ್",
        "brand:pa": "ਕੇਨਰਾ ਬੈਂਕ",
        "brand:pnb": "کینرا بینک",
        "brand:ur": "کینرا بینک",
        "brand:wikidata": "Q2003777",
        "name": "Canara Bank",
        "name:en": "Canara Bank",
        "name:hi": "केनरा बैंक",
        "name:kn": "ಕೆನರಾ ಬ್ಯಾಂಕ್",
        "name:pa": "ਕੇਨਰਾ ਬੈਂਕ",
        "name:pnb": "کینرا بینک",
        "name:ur": "کینرا بینک",
        "operator": "Canara Bank",
        "operator:wikidata": "Q2003777"
      }
    },
    {
      "type": "node",
      "id": 2526071423,
      "lat": 12.9441545,
      "lon": 77.5991339,
      "tags": {
        "amenity": "place_of_worship",
        "name": "Prince of Peace Disciples Church",
        "religion": "christian"
      }
    },
    {
      "type": "node",
      "id": 3309341643,
      "lat": 12.9471719,
      "lon": 77.599717,
      "tags": {
        "name": "Uninor",
        "shop": "yes"
      }
    },
    {
      "type": "node",
      "id": 3391123031,
      "lat": 12.9460933,
      "lon": 77.5950233,
      "tags": {
        "amenity": "fuel",
        "name": "Aegis Autogas",
        "wheelchair": "yes"
      }
    },
    {
      "type": "node",
      "id": 3392655753,
      "lat": 12.9441339,
      "lon": 77.5971889,
      "tags": {
        "amenity": "toilets",
        "fee": "yes"
      }
    },
    {
      "type": "node",
      "id": 3394753831,
      "lat": 12.9425246,
      "lon": 77.6025303,
      "tags": {
        "addr:district": "Bengaluru Urban",
        "addr:full": "1, 1st Cross, Gupta Layout,Lakksandra, Near Dairy Circle",
        "addr:housenumber": "#1",
        "addr:postcode": "560030",
        "addr:state": "Karnataka",
        "addr:street": "Bannerghatta Road",
        "amenity": "hospital",
        "name": "Sree Venkateshwara Speciality Hospital",
        "name:kn": "ಶ್ರೀ ವೆಂಕಟೆಶ್ವರ ಆಸ್ಪತ್ರೆ"
      }
    },
    {
      "type": "node",
      "id": 3394760961,
      "lat": 12.9426929,
      "lon": 77.6026966,
      "tags": {
        "amenity": "atm",
        "name": "HDFC ATM",
        "name:kn": "ಎಚ್ ಡಿ ಎಫ್ ಸಿ",
        "operator": "HDFC"
      }
    },
    {
      "type": "node",
      "id": 3394762170,
      "lat": 12.9424288,
      "lon": 77.6015084,
      "tags": {
        "amenity": "atm",
        "brand": "State Bank of India",
        "brand:wikidata": "Q1340361",
        "name": "State Bank of India",
        "operator": "State Bank of India",
        "operator:wikidata": "Q1340361",
        "short_name": "SBI"
      }
    },
    {
      "type": "node",
      "id": 3710229270,
      "lat": 12.9474937,
      "lon": 77.5998176,
      "tags": {
        "name": "Karnataka Tailor",
        "shop": "tailor"
      }
    },
    {
      "type": "node",
      "id": 4062007588,
      "lat": 12.9476948,
      "lon": 77.600799,
      "tags": {
        "amenity": "place_of_worship",
        "name": "Sri Maramma Temple",
        "name:kn": "ಮಾರಮ್ಮ ದೇವಸ್ಥಾನ",
        "religion": "hindu"
      }
    },
    {
      "type": "node",
      "id": 4062011905,
      "lat": 12.9487281,
      "lon": 77.6003812,
      "tags": {
        "addr:housenumber": "299/1",
        "addr:street": "B.T.S Main Road, Wilson Garden, Bangalore",
        "name": "KH phrama",
        "shop": "medical_supply"
      }
    },
    {
      "type": "node",
      "id": 4349257997,
      "lat": 12.9451931,
      "lon": 77.5969836,
      "tags": {
        "amenity": "bar",
        "name": "Imperial Blue Garden Bar and Restaurant"
      }
    },
    {
      "type": "node",
      "id": 4680014207,
      "lat": 12.9397588,
      "lon": 77.59445,
      "tags": {
        "amenity": "hospital",
        "healthcare": "yes",
        "name": "NIMHANS - Ashwini Block"
      }
    },
    {
      "type": "node",
      "id": 4729472422,
      "lat": 12.9400669,
      "lon": 77.5931597,
      "tags": {
        "addr:district": "Bangalore",
        "addr:full": "Lakkasandra, Wilson Garden, Bangalore, Karnataka, India",
        "addr:postcode": "560029",
        "addr:state": "Karnataka",
        "addr:subdistrict": "Bangalore East",
        "amenity": "hospital",
        "contact:phone": "08026995201;08026995000;08026995202",
        "description": "Medical Colleges Hospital",
        "healthcare": "hospital",
        "name": "National Institute of Mental Health and Neuro Sciences",
        "short_name": "NIMHANS",
        "source": "OpenGovernmentData"
      }
    },
    {
      "type": "node",
      "id": 4840984963,
      "lat": 12.9469705,
      "lon": 77.5944165,
      "tags": {
        "amenity": "restaurant",
        "name": "Biryani palace"
      }
    },
    {
      "type": "node",
      "id": 4843097921,
      "lat": 12.945523,
      "lon": 77.5952075,
      "tags": {
        "amenity": "fast_food",
        "name": "AFC",
        "name:en": "AFC"
      }
    },
    {
      "type": "node",
      "id": 4843097922,
      "lat": 12.9453021,
      "lon": 77.5952136,
      "tags": {
        "name": "Silsila",
        "name:en": "Silsila",
        "shop": "clothes"
      }
    },
    {
      "type": "node",
      "id": 4843099622,
      "lat": 12.9439985,
      "lon": 77.5946425,
      "tags": {
        "amenity": "restaurant",
        "name": "A1 biryani",
        "name:en": "A1 biryani"
      }
    },
    {
      "type": "node",
      "id": 4843099633,
      "lat": 12.9455298,
      "lon": 77.5952158,
      "tags": {
        "amenity": "fast_food",
        "cuisine": "juice",
        "name": "Juice World"
      }
    },
    {
      "type": "node",
      "id": 4843100121,
      "lat": 12.9430419,
      "lon": 77.5945987,
      "tags": {
        "name": "Palace Bakery and Sweets",
        "name:bn": "প্যালেস বেকারি অ্যান্ড সুইটস",
        "name:en": "Palace Bakery and Sweets",
        "shop": "bakery",
        "wheelchair": "no"
      }
    },
    {
      "type": "node",
      "id": 4843100421,
      "lat": 12.9443098,
      "lon": 77.594569,
      "tags": {
        "name": "Masha Allah ( Falouda)",
        "name:en": "Masha Allah ( Falouda)",
        "shop": "confectionery",
        "wheelchair": "yes"
      }
    },
    {
      "type": "node",
      "id": 4843100433,
      "lat": 12.9446921,
      "lon": 77.5968791,
      "tags": {
        "construction": "retail",
        "name": "Floral bakery",
        "name:en": "Floral bakery",
        "shop": "bakery"
      }
    },
    {
      "type": "node",
      "id": 4843104322,
      "lat": 12.9454861,
      "lon": 77.595168,
      "tags": {
        "amenity": "restaurant",
        "name": "Alfa fried and Grill",
        "name:en": "Alfa fried and Grill"
      }
    },
    {
      "type": "node",
      "id": 4847824824,
      "lat": 12.9449109,
      "lon": 77.5948763,
      "tags": {
        "name": "Bilal",
        "name:en": "Bilal",
        "shop": "bakery"
      }
    },
    {
      "type": "node",
      "id": 4847824925,
      "lat": 12.946968,
      "lon": 77.5942273,
      "tags": {
        "amenity": "fast_food",
        "check_date": "2023-11-23",
        "name": "Limra Hotel",
        "name:en": "Limra Hotel"
      }
    },
    {
      "type": "node",
      "id": 4847827723,
      "lat": 12.9417358,
      "lon": 77.593605,
      "tags": {
        "name": "Cyber cafe",
        "name:en": "Cyber cafe",
        "shop": "computer"
      }
    },
    {
      "type": "node",
      "id": 4847829321,
      "lat": 12.9447719,
      "lon": 77.5949585,
      "tags": {
        "amenity": "restaurant",
        "name": "Kolkata",
        "name:en": "Kolkata"
      }
    },
    {
      "type": "node",
      "id": 4849094824,
      "lat": 12.9458364,
      "lon": 77.5959506,
      "tags": {
        "amenity": "cafe",
        "name": "Coffee works",
        "name:en": "Coffee works"
      }
    },
    {
      "type": "node",
      "id": 4849094825,
      "lat": 12.9458056,
      "lon": 77.5960259,
      "tags": {
        "name": "Vk export shops",
        "name:en": "Vk export shops",
        "shop": "clothes"
      }
    },
    {
      "type": "node",
      "id": 4849107923,
      "lat": 12.9432876,
      "lon": 77.5973717,
      "tags": {
        "name": "Superb Opticals",
        "name:en": "Superb Opticals",
        "shop": "optician"
      }
    },
    {
      "type": "node",
      "id": 4849108022,
      "lat": 12.9456176,
      "lon": 77.5958465,
      "tags": {
        "amenity": "fast_food",
        "name": "Hungry lion",
        "name:en": "Hungry lion"
      }
    },
    {
      "type": "node",
      "id": 4849108024,
      "lat": 12.9453284,
      "lon": 77.5967062,
      "tags": {
        "name": "Bharat service station",
        "name:en": "Bharat service station",
        "shop": "bicycle"
      }
    },
    {
      "type": "node",
      "id": 4849108621,
      "lat": 12.945542,
      "lon": 77.595102,
      "tags": {
        "name": "Peace tours and travels",
        "name:en": "Peace tours and travels",
        "shop": "travel_agency"
      }
    },
    {
      "type": "node",
      "id": 4849108627,
      "lat": 12.9448176,
      "lon": 77.5970859,
      "tags": {
        "name": "Naveen Nitrelaya",
        "name:en": "Naveen nitrelaya",
        "shop": "optician"
      }
    },
    {
      "type": "node",
      "id": 4849108628,
      "lat": 12.9467871,
      "lon": 77.5944122,
      "tags": {
        "name": "Ssv automobiles",
        "name:en": "Ssv automobiles",
        "shop": "car_parts"
      }
    },
    {
      "type": "node",
      "id": 4849577743,
      "lat": 12.9418502,
      "lon": 77.5937118,
      "tags": {
        "name": "MZ Hindustan Motor",
        "shop": "yes"
      }
    },
    {
      "type": "node",
      "id": 4849577746,
      "lat": 12.9417072,
      "lon": 77.5935799,
      "tags": {
        "name": "SA Modern Seat Covers",
        "shop": "yes"
      }
    },
    {
      "type": "node",
      "id": 4849618943,
      "lat": 12.9417742,
      "lon": 77.5938148,
      "tags": {
        "amenity": "restaurant",
        "name": "Priya"
      }
    },
    {
      "type": "node",
      "id": 4849618944,
      "lat": 12.9418173,
      "lon": 77.5938336,
      "tags": {
        "amenity": "clinic",
        "healthcare": "clinic",
        "name": "Al Habeeb Dental Clinic and Implant Center",
        "wheelchair": "no"
      }
    },
    {
      "type": "node",
      "id": 4849618945,
      "lat": 12.9428123,
      "lon": 77.5944745,
      "tags": {
        "name": "Mavalli Mutton Center",
        "shop": "butcher",
        "wheelchair": "no"
      }
    },
    {
      "type": "node",
      "id": 4849618946,
      "lat": 12.9431377,
      "lon": 77.5946284,
      "tags": {
        "name": "MK Video Coverage",
        "shop": "photo"
      }
    },
    {
      "type": "node",
      "id": 4849618947,
      "lat": 12.94318,
      "lon": 77.5946531,
      "tags": {
        "name": "HKGN Poultry Center",
        "shop": "butcher"
      }
    },
    {
      "type": "node",
      "id": 4849618948,
      "lat": 12.9432172,
      "lon": 77.5946684,
      "tags": {
        "name": "Idea 4G",
        "shop": "yes"
      }
    },
    {
      "type": "node",
      "id": 4849618951,
      "lat": 12.9433373,
      "lon": 77.5947264,
      "tags": {
        "amenity": "fast_food",
        "name": "Taj Chicken Kebab"
      }
    },
    {
      "type": "node",
      "id": 4849618952,
      "lat": 12.9436588,
      "lon": 77.5947656,
      "tags": {
        "name": "New Mayura",
        "shop": "hairdresser"
      }
    },
    {
      "type": "node",
      "id": 4849618953,
      "lat": 12.9437019,
      "lon": 77.5947656,
      "tags": {
        "amenity": "atm",
        "brand": "HDFC Bank",
        "brand:wikidata": "Q631047",
        "name": "HDFC Bank",
        "name:kn": "ಎಚ್ ಡಿ ಎಫ್ ಸಿ",
        "operator": "HDFC Bank",
        "operator:wikidata": "Q631047",
        "short_name": "HDFC",
        "wheelchair": "limited"
      }
    },
    {
      "type": "node",
      "id": 4849618954,
      "lat": 12.9437585,
      "lon": 77.5947349,
      "tags": {
        "name": "The Hajj",
        "shop": "travel_agency"
      }
    },
    {
      "type": "node",
      "id": 4849618955,
      "lat": 12.9437303,
      "lon": 77.5947351,
      "tags": {
        "amenity": "pharmacy",
        "healthcare": "pharmacy",
        "name": "Venkatagiri",
        "name:kn": "ವೆಂಕಟಗಿರಿ"
      }
    },
    {
      "type": "node",
      "id": 4849618956,
      "lat": 12.9437964,
      "lon": 77.5947161,
      "tags": {
        "name": "Sri Yaksha Brahmalingeshwara Juice and Condiments",
        "shop": "beverages"
      }
    },
    {
      "type": "node",
      "id": 4849618957,
      "lat": 12.9440327,
      "lon": 77.59462,
      "tags": {
        "name": "A1 Service Station",
        "shop": "car_repair"
      }
    },
    {
      "type": "node",
      "id": 4849618958,
      "lat": 12.9444805,
      "lon": 77.5946018,
      "tags": {
        "name": "Rehmaniya",
        "shop": "travel_agency"
      }
    },
    {
      "type": "node",
      "id": 4849618959,
      "lat": 12.9445341,
      "lon": 77.5946219,
      "tags": {
        "name": "Al Mueed",
        "shop": "perfumery",
        "wheelchair": "no"
      }
    },
    {
      "type": "node",
      "id": 4849618960,
      "lat": 12.9446426,
      "lon": 77.5947035,
      "tags": {
        "name": "Ar automobiles",
        "shop": "motorcycle"
      }
    },
    {
      "type": "node",
      "id": 4849618961,
      "lat": 12.9446779,
      "lon": 77.5947558,
      "tags": {
        "name": "Moderm hardware",
        "shop": "hardware"
      }
    },
    {
      "type": "node",
      "id": 5265649228,
      "lat": 12.9403849,
      "lon": 77.5945391,
      "tags": {
        "amenity": "hospital",
        "emergency": "yes",
        "healthcare": "hospital",
        "name": "Emergency Block , NIMHANS"
      }
    },
    {
      "type": "node",
      "id": 6348945618,
      "lat": 12.9438378,
      "lon": 77.6000871,
      "tags": {
        "addr:place": "Lakkasandra",
        "amenity": "school",
        "isced:level": "2",
        "name": "GHPS Lakkasandra",
        "name:kn": "ಸರ್ಕಾರಿ ಹಿರಿಯ ಪ್ರಾಥಮಿಕ ಶಾಲೆ ಲಕ್ಕಸಂದ್ರ",
        "operator": "Department of Education",
        "school": "primary"
      }
    },
    {
      "type": "node",
      "id": 6348971753,
      "lat": 12.9431126,
      "lon": 77.5995158,
      "tags": {
        "addr:place": "Lakkasandra",
        "amenity": "school",
        "isced:level": "2",
        "name": "GUHPS Lakkasandra",
        "name:kn": "ಸರ್ಕಾರಿ ಉರ್ದು ಹಿರಿಯ ಪ್ರಾಥಮಿಕ ಶಾಲೆ ಲಕ್ಕಸಂದ್ರ",
        "operator": "Department of Education",
        "school": "primary"
      }
    },
    {
      "type": "node",
      "id": 6349577893,
      "lat": 12.9446007,
      "lon": 77.594691,
      "tags": {
        "addr:place": "Arekempanahalli",
        "amenity": "school",
        "isced:level": "2",
        "name": "GUMPS Tank Garden Arekempanahalli",
        "name:kn": "ಸರ್ಕಾರಿ ಉರ್ದು ಮಾದರಿ ಪ್ರಾಥಮಿಕ ಶಾಲೆ ಟ್ಯಾಂಕ್ ಗಾರ್ಡನ್",
        "operator": "Department of Education",
        "school": "primary"
      }
    },
    {
      "type": "node",
      "id": 6937688998,
      "lat": 12.9438106,
      "lon": 77.5974722,
      "tags": {
        "addr:district": "Bengaluru Urban",
        "addr:full": "449/1, 15th Main Lakksandra",
        "addr:postcode": "560030",
        "addr:state": "Karnataka",
        "amenity": "clinic",
        "healthcare": "clinic",
        "name": "Deepti Nursing Home",
        "source": "OpenGovernmentData"
      }
    },
    {
      "type": "node",
      "id": 6938992706,
      "lat": 12.9421755,
      "lon": 77.5941208,
      "tags": {
        "addr:district": "Bengaluru Urban",
        "addr:full": "No.276Th A Cross, 1st Mainroad, Someshwar Nagar 1st Block,Jayanagar",
        "addr:postcode": "560011",
        "addr:state": "Karnataka",
        "amenity": "clinic",
        "healthcare": "clinic",
        "name": "N.R. Amar Nursing Home",
        "source": "OpenGovernmentData"
      }
    },
    {
      "type": "node",
      "id": 6944138100,
      "lat": 12.9465876,
      "lon": 77.6015028,
      "tags": {
        "addr:district": "Bengaluru Urban",
        "addr:full": "#20 (Old#310),7Th Main,16Th Cross,Lakkasandra Extension",
        "addr:postcode": "560030",
        "addr:state": "Karnataka",
        "amenity": "clinic",
        "healthcare": "clinic",
        "name": "Shiva Nursing Home, Bengaluru Urban",
        "source": "OpenGovernmentData"
      }
    },
    {
      "type": "node",
      "id": 9906259166,
      "lat": 12.9433165,
      "lon": 77.5963885,
      "tags": {
        "amenity": "toilets",
        "female": "yes",
        "level": "0",
        "repeat_on": "1",
        "toilets:position": "seated;urinal"
      }
    },
    {
      "type": "node",
      "id": 10875973855,
      "lat": 12.9457622,
      "lon": 77.6001628,
      "tags": {
        "name": "Assam tea leaves",
        "opening_hours": "Mo-Su 09:30-13:30, 17:00-21:30",
        "phone": "9945937669",
        "shop": "tea"
      }
    },
    {
      "type": "node",
      "id": 11295066049,
      "lat": 12.9432703,
      "lon": 77.5973579,
      "tags": {
        "addr:floor": "G",
        "check_date": "2023-10-28",
        "internet_access": "no",
        "level": "0",
        "name": "Rajsheela Medicals",
        "payment:cash": "yes",
        "payment:credit_cards": "yes",
        "payment:mastercard": "yes",
        "payment:visa": "yes",
        "shop": "medical_supply"
      }
    },
    {
      "type": "node",
      "id": 11295071515,
      "lat": 12.9400516,
      "lon": 77.5954768,
      "tags": {
        "amenity": "hospital",
        "check_date": "2023-10-28",
        "healthcare": "hospital",
        "name": "NIMHANS Department Of Psychiatric and Neuro Rehabilitation",
        "operator:type": "government",
        "wheelchair": "yes"
      }
    },
    {
      "type": "node",
      "id": 11295236459,
      "lat": 12.9402285,
      "lon": 77.595265,
      "tags": {
        "amenity": "toilets",
        "check_date": "2023-10-28"
      }
    },
    {
      "type": "node",
      "id": 11295245074,
      "lat": 12.9400321,
      "lon": 77.5950052,
      "tags": {
        "check_date": "2023-10-28",
        "name": "NIMHANS surgical store",
        "shop": "medical_supply"
      }
    },
    {
      "type": "node",
      "id": 11295245077,
      "lat": 12.9401246,
      "lon": 77.5945482,
      "tags": {
        "amenity": "atm",
        "cash_in": "no",
        "check_date": "2023-10-28",
        "currency:INR": "yes",
        "operator": "SBI"
      }
    },
    {
      "type": "node",
      "id": 11295246682,
      "lat": 12.9402037,
      "lon": 77.5954721,
      "tags": {
        "amenity": "hospital",
        "check_date": "2023-10-28",
        "healthcare": "hospital",
        "name": "NIMHANS Physiotherapy Center",
        "operator:type": "government",
        "wheelchair": "yes"
      }
    },
    {
      "type": "node",
      "id": 11295265489,
      "lat": 12.9412196,
      "lon": 77.5946052,
      "tags": {
        "amenity": "motorcycle_parking",
        "capacity": "100"
      }
    },
    {
      "type": "node",
      "id": 11295265923,
      "lat": 12.9406356,
      "lon": 77.5948929,
      "tags": {
        "amenity": "pharmacy",
        "check_date": "2023-10-28",
        "name": "NIMHANS Pharmacy",
        "shop": "chemist"
      }
    },
    {
      "type": "node",
      "id": 11295274601,
      "lat": 12.9404885,
      "lon": 77.5946581,
      "tags": {
        "amenity": "motorcycle_parking",
        "capacity": "50",
        "operator": "NIMHANS"
      }
    },
    {
      "type": "node",
      "id": 11295280629,
      "lat": 12.9464443,
      "lon": 77.5946337,
      "tags": {
        "amenity": "events_venue",
        "check_date": "2023-10-28",
        "name": "Royal palace wedding hall and convention center",
        "wheelchair": "yes"
      }
    },
    {
      "type": "node",
      "id": 11295829642,
      "lat": 12.9406149,
      "lon": 77.5949214,
      "tags": {
        "amenity": "police",
        "name": "NIMHANS Police Outpost"
      }
    },
    {
      "type": "node",
      "id": 11297708106,
      "lat": 12.9433156,
      "lon": 77.5964558,
      "tags": {
        "amenity": "toilets",
        "level": "0",
        "male": "yes",
        "repeat_on": "1",
        "toilets:position": "seated;urinal"
      }
    },
    {
      "type": "node",
      "id": 11302937519,
      "lat": 12.9455956,
      "lon": 77.5952641,
      "tags": {
        "addr:city": "Bengaluru",
        "addr:full": "2, Arekempenahally, Near Brand Factory, Wilson Garden, Bangalore, 560027",
        "addr:housenumber": "2",
        "addr:postcode": "560027",
        "addr:street": "Arekempenahally",
        "amenity": "restaurant",
        "brand": "Revoli Inn",
        "cuisine": "indian;chinese;tibetan;regional;kebab;chicken",
        "description": "Multi cuisine restaurant",
        "name": "Empark Restaurant",
        "opening_hours": "Mo-Su 07:00-23:30",
        "phone": "+91 8904022661;+91 9946222661",
        "website": "https://www.emparkinternational.com"
      }
    },
    {
      "type": "node",
      "id": 11355730129,
      "lat": 12.9461493,
      "lon": 77.595148,
      "tags": {
        "amenity": "drinking_water",
        "operator": "BBMP"
      }
    },
    {
      "type": "node",
      "id": 11417003452,
      "lat": 12.9444485,
      "lon": 77.5973468,
      "tags": {
        "check_date": "2025-09-19",
        "level": "0",
        "name": "Iyengar's Pastry Palace",
        "shop": "pastry",
        "wheelchair": "no"
      }
    },
    {
      "type": "node",
      "id": 11417003453,
      "lat": 12.9458387,
      "lon": 77.5960658,
      "tags": {
        "check_date": "2023-12-14",
        "name": "Red Rock Wines & Spirits",
        "shop": "alcohol"
      }
    },
    {
      "type": "node",
      "id": 11506269878,
      "lat": 12.9414619,
      "lon": 77.59479,
      "tags": {
        "shop": "laundry"
      }
    },
    {
      "type": "node",
      "id": 12161781667,
      "lat": 12.9448375,
      "lon": 77.5966341,
      "tags": {
        "amenity": "bench",
        "armrest": "yes",
        "backrest": "yes",
        "colour": "black",
        "material": "concrete",
        "seats": "3"
      }
    },
    {
      "type": "node",
      "id": 12161781668,
      "lat": 12.9451836,
      "lon": 77.5964615,
      "tags": {
        "amenity": "waste_basket",
        "waste": "trash"
      }
    },
    {
      "type": "node",
      "id": 12161781673,
      "lat": 12.9450619,
      "lon": 77.5965431,
      "tags": {
        "amenity": "bench",
        "armrest": "yes",
        "backrest": "yes",
        "colour": "black",
        "material": "concrete",
        "seats": "3"
      }
    },
    {
      "type": "node",
      "id": 12161781675,
      "lat": 12.9450279,
      "lon": 77.5964749,
      "tags": {
        "amenity": "waste_basket",
        "waste": "trash"
      }
    },
    {
      "type": "node",
      "id": 12161781683,
      "lat": 12.9449013,
      "lon": 77.5968265,
      "tags": {
        "amenity": "bench",
        "armrest": "yes",
        "backrest": "yes",
        "colour": "black",
        "material": "concrete",
        "seats": "3"
      }
    },
    {
      "type": "node",
      "id": 12161781684,
      "lat": 12.9450861,
      "lon": 77.5966096,
      "tags": {
        "amenity": "bench",
        "armrest": "yes",
        "backrest": "yes",
        "colour": "black",
        "material": "concrete",
        "seats": "3"
      }
    },
    {
      "type": "node",
      "id": 12161781686,
      "lat": 12.944987,
      "lon": 77.5967383,
      "tags": {
        "amenity": "waste_basket",
        "waste": "trash"
      }
    },
    {
      "type": "node",
      "id": 12161781688,
      "lat": 12.9449248,
      "lon": 77.5966053,
      "tags": {
        "amenity": "bench",
        "armrest": "yes",
        "backrest": "yes",
        "colour": "black",
        "material": "concrete",
        "seats": "3"
      }
    },
    {
      "type": "node",
      "id": 12161781689,
      "lat": 12.9448371,
      "lon": 77.5967768,
      "tags": {
        "amenity": "bench",
        "armrest": "yes",
        "backrest": "yes",
        "colour": "black",
        "material": "concrete",
        "seats": "3"
      }
    },
    {
      "type": "node",
      "id": 12161781693,
      "lat": 12.9451678,
      "lon": 77.5964536,
      "tags": {
        "amenity": "bench",
        "armrest": "yes",
        "backrest": "yes",
        "colour": "black",
        "material": "concrete",
        "seats": "3"
      }
    },
    {
      "type": "node",
      "id": 12161781697,
      "lat": 12.9449145,
      "lon": 77.5965919,
      "tags": {
        "amenity": "bench",
        "armrest": "yes",
        "backrest": "yes",
        "colour": "black",
        "material": "concrete",
        "seats": "3"
      }
    },
    {
      "type": "node",
      "id": 12161781698,
      "lat": 12.9448829,
      "lon": 77.5966155,
      "tags": {
        "amenity": "bench",
        "armrest": "yes",
        "backrest": "yes",
        "colour": "black",
        "material": "concrete",
        "seats": "3"
      }
    },
    {
      "type": "node",
      "id": 12161781700,
      "lat": 12.9447707,
      "lon": 77.5966888,
      "tags": {
        "amenity": "bench",
        "armrest": "yes",
        "backrest": "yes",
        "colour": "black",
        "material": "concrete",
        "seats": "3"
      }
    },
    {
      "type": "node",
      "id": 12161827805,
      "lat": 12.9449936,
      "lon": 77.5967313,
      "tags": {
        "amenity": "bench",
        "armrest": "yes",
        "backrest": "yes",
        "colour": "black",
        "material": "concrete",
        "seats": "3"
      }
    },
    {
      "type": "node",
      "id": 12161827807,
      "lat": 12.9451097,
      "lon": 77.5966152,
      "tags": {
        "amenity": "bench",
        "armrest": "yes",
        "backrest": "yes",
        "colour": "black",
        "material": "concrete",
        "seats": "3"
      }
    },
    {
      "type": "node",
      "id": 12161827808,
      "lat": 12.9451318,
      "lon": 77.5965522,
      "tags": {
        "amenity": "waste_basket",
        "waste": "trash"
      }
    },
    {
      "type": "node",
      "id": 12161827810,
      "lat": 12.9450146,
      "lon": 77.5964937,
      "tags": {
        "amenity": "bench",
        "armrest": "yes",
        "backrest": "yes",
        "colour": "black",
        "material": "concrete",
        "seats": "3"
      }
    },
    {
      "type": "node",
      "id": 12161827824,
      "lat": 12.944894,
      "lon": 77.5966309,
      "tags": {
        "amenity": "bench",
        "armrest": "yes",
        "backrest": "yes",
        "colour": "black",
        "material": "concrete",
        "seats": "3"
      }
    },
    {
      "type": "node",
      "id": 12161827830,
      "lat": 12.9448439,
      "lon": 77.5967477,
      "tags": {
        "amenity": "bench",
        "armrest": "yes",
        "backrest": "yes",
        "colour": "black",
        "material": "concrete",
        "seats": "3"
      }
    },
    {
      "type": "node",
      "id": 12161827831,
      "lat": 12.9451396,
      "lon": 77.5965027,
      "tags": {
        "amenity": "bench",
        "armrest": "yes",
        "backrest": "yes",
        "colour": "black",
        "material": "concrete",
        "seats": "3"
      }
    },
    {
      "type": "node",
      "id": 12162043399,
      "lat": 12.9443523,
      "lon": 77.5972744,
      "tags": {
        "check_date": "2025-09-19",
        "level": "0",
        "shop": "tobacco"
      }
    },
    {
      "type": "node",
      "id": 12162059529,
      "lat": 12.9433335,
      "lon": 77.5973926,
      "tags": {
        "amenity": "fast_food",
        "indoor_seating": "yes",
        "level": "0",
        "name": "Tejas Sweets",
        "outdoor_seating": "yes"
      }
    },
    {
      "type": "node",
      "id": 12162059542,
      "lat": 12.9442615,
      "lon": 77.5972443,
      "tags": {
        "check_date": "2025-09-19",
        "shop": "betel_quid"
      }
    },
    {
      "type": "node",
      "id": 12163099769,
      "lat": 12.9442542,
      "lon": 77.5972774,
      "tags": {
        "access": "permissive",
        "amenity": "drinking_water",
        "bottle": "yes",
        "indoor": "yes",
        "level": "0"
      }
    },
    {
      "type": "node",
      "id": 12163099776,
      "lat": 12.9434181,
      "lon": 77.5982473,
      "tags": {
        "addr:city": "Bangalore",
        "addr:housenumber": "417/9",
        "addr:place": "Lakkasandra",
        "addr:postcode": "560030",
        "addr:street": "15th Cross",
        "amenity": "internet_cafe",
        "contact:mobile": "+91-80504-12317",
        "level": "0",
        "name": "Vijaylakshmi Cyber Cafe",
        "operator": "Vijaylakshmi Enterprises",
        "wheelchair": "no"
      }
    },
    {
      "type": "node",
      "id": 12163099778,
      "lat": 12.945782,
      "lon": 77.595251,
      "tags": {
        "access": "permissive",
        "amenity": "toilets",
        "female": "yes",
        "male": "yes"
      }
    },
    {
      "type": "node",
      "id": 12163099779,
      "lat": 12.9459529,
      "lon": 77.5951966,
      "tags": {
        "air_conditioning": "no",
        "amenity": "fast_food",
        "level": "0",
        "name": "Murugan Tiffin Center"
      }
    },
    {
      "type": "node",
      "id": 12491762696,
      "lat": 12.9412309,
      "lon": 77.5932246,
      "tags": {
        "amenity": "restaurant",
        "name": "Empark Restaurant"
      }
    },
    {
      "type": "node",
      "id": 13158425219,
      "lat": 12.9445378,
      "lon": 77.5972756,
      "tags": {
        "addr:city": "Bangalore",
        "addr:full": "14th Cross, 13th Main, Lakksandra, Bangalore - 560030",
        "addr:parentstreet": "13th Main Road",
        "addr:postcode": "560030",
        "addr:street": "14th Cross Road",
        "addr:suburb": "Lakksandra",
        "amenity": "fast_food",
        "cuisine": "biryani",
        "level": "0",
        "name": "Ambur Biryani",
        "wheelchair": "no"
      }
    },
    {
      "type": "node",
      "id": 13161609978,
      "lat": 12.9430165,
      "lon": 77.5988989,
      "tags": {
        "check_date": "2025-09-20",
        "name": "Rex Bicycles",
        "service:bicycle:repair": "yes",
        "shop": "bicycle"
      }
    },
    {
      "type": "node",
      "id": 13161609979,
      "lat": 12.9430318,
      "lon": 77.5990927,
      "tags": {
        "check_date": "2025-09-20",
        "name": "Family Mart",
        "shop": "supermarket"
      }
    },
    {
      "type": "node",
      "id": 13161609980,
      "lat": 12.9441876,
      "lon": 77.5959383,
      "tags": {
        "check_date": "2025-09-20",
        "name": "Sri Ganesh Store",
        "shop": "convenience"
      }
    },
    {
      "type": "node",
      "id": 13161609981,
      "lat": 12.9443046,
      "lon": 77.5960438,
      "tags": {
        "amenity": "fast_food",
        "check_date": "2025-09-20",
        "diet:vegetarian": "yes",
        "name": "Ruha Cafe",
        "takeaway": "only"
      }
    },
    {
      "type": "node",
      "id": 13242923144,
      "lat": 12.9429723,
      "lon": 77.5963693,
      "tags": {
        "amenity": "restaurant",
        "survey:date": "2025-09-20"
      }
    },
    {
      "type": "node",
      "id": 13242923146,
      "lat": 12.9429811,
      "lon": 77.596407,
      "tags": {
        "shop": "bakery",
        "survey:date": "2025-09-20"
      }
    },
    {
      "type": "way",
      "id": 45439811,
      "center": {
        "lat": 12.9439601,
        "lon": 77.5973757
      },
      "tags": {
        "leisure": "park"
      }
    },
    {
      "type": "way",
      "id": 130863014,
      "center": {
        "lat": 12.9455044,
        "lon": 77.5957587
      },
      "tags": {
        "addr:street": "Dr. M H Marigowda Road",
        "building": "retail",
        "building:levels": "5",
        "building:levels:underground": "1",
        "name": "Brand Factory",
        "roof:shape": "flat",
        "shop": "clothes"
      }
    },
    {
      "type": "way",
      "id": 323458338,
      "center": {
        "lat": 12.94484,
        "lon": 77.6003444
      },
      "tags": {
        "addr:city": "Bangalore",
        "addr:postcode": "560030",
        "addr:street": "12th Main, 15th Cross, Wilson Garden",
        "amenity": "school",
        "name": "Mary Immaculate School",
        "website": "http://www.maryimmaculateschool.in/index.php"
      }
    },
    {
      "type": "way",
      "id": 333556168,
      "center": {
        "lat": 12.9471261,
        "lon": 77.6021753
      },
      "tags": {
        "addr:street": "Bannerghatta Road",
        "amenity": "place_of_worship",
        "name": "Masjid-e-Aala",
        "name:kn": "ಮಸ್ಜಿದ್-ಎ-ಆಲ",
        "religion": "muslim"
      }
    },
    {
      "type": "way",
      "id": 334493074,
      "center": {
        "lat": 12.9409785,
        "lon": 77.5943587
      },
      "tags": {
        "amenity": "doctors",
        "building": "yes",
        "healthcare": "doctor",
        "healthcare:speciality": "psychiatry",
        "name": "Psychiatric Project Wing"
      }
    },
    {
      "type": "way",
      "id": 346789708,
      "center": {
        "lat": 12.9478582,
        "lon": 77.5999988
      },
      "tags": {
        "building": "yes",
        "name": "Karnataka Tailors",
        "shop": "tailor"
      }
    },
    {
      "type": "way",
      "id": 346789844,
      "center": {
        "lat": 12.9475435,
        "lon": 77.5998752
      },
      "tags": {
        "building": "yes",
        "name": "Mangaldeep Bankers and Jewellers",
        "shop": "jewelry"
      }
    },
    {
      "type": "way",
      "id": 346795143,
      "center": {
        "lat": 12.9457273,
        "lon": 77.5963562
      },
      "tags": {
        "building": "yes",
        "building:levels": "5",
        "check_date": "2024-09-08",
        "name": "TEXS Mart",
        "roof:shape": "flat",
        "shop": "clothes",
        "wheelchair": "no"
      }
    },
    {
      "type": "way",
      "id": 347074890,
      "center": {
        "lat": 12.9462798,
        "lon": 77.5947839
      },
      "tags": {
        "addr:district": "Bengaluru Urban",
        "addr:full": "17, Dr.M.H.Mari Gowda Road, Opp Wilson Garden",
        "addr:postcode": "560027",
        "addr:state": "Karnataka",
        "amenity": "hospital",
        "healthcare": "hospital",
        "healthcare:speciality": "Neuro Psychiatry; Neuro Surgery; Oncology; Orthopaedics; Joint Replacements; General Surgery",
        "name": "Abhaya Hospital",
        "name:kn": "ಅಭಯ ಆಸ್ಪತ್ರೆ",
        "operator:type": "private",
        "source": "OpenGovernmentData",
        "website": "https://www.abhayahospital.org/",
        "wheelchair": "yes"
      }
    },
    {
      "type": "way",
      "id": 639010029,
      "center": {
        "lat": 12.9457867,
        "lon": 77.5953339
      },
      "tags": {
        "amenity": "fuel",
        "brand": "Bharat Petroleum",
        "brand:wikidata": "Q854826",
        "name": "Nandini Filling Station",
        "name:kn": "ಭಾರತ್ ಪೆಟ್ರೋಲಿಯಂ"
      }
    },
    {
      "type": "way",
      "id": 1080795057,
      "center": {
        "lat": 12.9432398,
        "lon": 77.5970684
      },
      "tags": {
        "access": "permissive",
        "amenity": "motorcycle_parking",
        "parking": "surface"
      }
    },
    {
      "type": "way",
      "id": 1080795058,
      "center": {
        "lat": 12.9425717,
        "lon": 77.5970435
      },
      "tags": {
        "access": "permissive",
        "amenity": "parking",
        "parking": "surface"
      }
    },
    {
      "type": "way",
      "id": 1182963076,
      "center": {
        "lat": 12.9449898,
        "lon": 77.6017514
      },
      "tags": {
        "access": "permissive",
        "leisure": "swimming_pool"
      }
    },
    {
      "type": "way",
      "id": 1182963077,
      "center": {
        "lat": 12.9452647,
        "lon": 77.6015696
      },
      "tags": {
        "access": "permissive",
        "leisure": "swimming_pool"
      }
    },
    {
      "type": "way",
      "id": 1182963078,
      "center": {
        "lat": 12.9452186,
        "lon": 77.6015996
      },
      "tags": {
        "leisure": "sports_centre",
        "name": "Wilson Garden Swimming Pool"
      }
    },
    {
      "type": "way",
      "id": 1207541308,
      "center": {
        "lat": 12.9414429,
        "lon": 77.594589
      },
      "tags": {
        "amenity": "clinic",
        "building": "yes",
        "check_date": "2023-10-28",
        "healthcare": "counselling",
        "name": "Center for Addiction Medicine"
      }
    },
    {
      "type": "way",
      "id": 1207541336,
      "center": {
        "lat": 12.9439285,
        "lon": 77.5955112
      },
      "tags": {
        "access": "private",
        "leisure": "swimming_pool"
      }
    },
    {
      "type": "way",
      "id": 1207541343,
      "center": {
        "lat": 12.9430268,
        "lon": 77.5968506
      },
      "tags": {
        "leisure": "garden"
      }
    },
    {
      "type": "way",
      "id": 1207541345,
      "center": {
        "lat": 12.9409507,
        "lon": 77.5962163
      },
      "tags": {
        "leisure": "park"
      }
    },
    {
      "type": "way",
      "id": 1217537982,
      "center": {
        "lat": 12.9450003,
        "lon": 77.5966138
      },
      "tags": {
        "leisure": "park",
        "name": "Doctor Mujahid Pasha Park",
        "opening_hours": "mo-su 06:30-20:00"
      }
    },
    {
      "type": "way",
      "id": 1219039451,
      "center": {
        "lat": 12.9403315,
        "lon": 77.5950099
      },
      "tags": {
        "amenity": "shelter",
        "bench": "yes",
        "building": "roof",
        "building:prefabricated": "yes",
        "name": "Waiting Hall",
        "roof:shape": "gabled",
        "wheelchair": "yes"
      }
    },
    {
      "type": "way",
      "id": 1219039453,
      "center": {
        "lat": 12.9400617,
        "lon": 77.5964275
      },
      "tags": {
        "access": "private",
        "amenity": "parking"
      }
    },
    {
      "type": "way",
      "id": 1219039457,
      "center": {
        "lat": 12.9423768,
        "lon": 77.5950086
      },
      "tags": {
        "access": "yes",
        "amenity": "parking",
        "fee": "yes",
        "lit": "yes",
        "name": "Public Parking",
        "parking": "surface",
        "payment:cash": "yes",
        "smoothness": "intermediate",
        "supervised": "yes",
        "surface": "ground"
      }
    },
    {
      "type": "way",
      "id": 1219285692,
      "center": {
        "lat": 12.9431708,
        "lon": 77.5964791
      },
      "tags": {
        "alt_name": "NIMHANS Convention Center",
        "amenity": "events_venue",
        "amenity_1": "conference_centre",
        "building": "yes",
        "building:levels": "2",
        "check_date": "2025-09-22",
        "max_level": "1",
        "min_level": "0",
        "name": "Nimhans Convention Center",
        "name:bn": "নিমহান্স সম্মেলন কেন্দ্র",
        "name:hi": "निम्हान्स कन्वेंशन सेंटर",
        "name:ml": "നിംഹാൻസ് കൺവെൻഷൻ സെന്റർ",
        "name:ta": "நிம்ஹான்ஸ் மாநாட்டு மையம்",
        "roof:shape": "flat",
        "wheelchair": "yes"
      }
    },
    {
      "type": "way",
      "id": 1298074067,
      "center": {
        "lat": 12.9447394,
        "lon": 77.5964164
      },
      "tags": {
        "amenity": "hospital",
        "name": "Safa Medicure Hospital"
      }
    },
    {
      "type": "way",
      "id": 1298099603,
      "center": {
        "lat": 12.9429507,
        "lon": 77.5961536
      },
      "tags": {
        "amenity": "toilets",
        "check_date": "2024-09-07",
        "indoor": "room",
        "level": "0",
        "level_name": "0",
        "repeat_on": "1",
        "room": "toilets",
        "unisex": "yes",
        "wheelchair": "designated"
      }
    },
    {
      "type": "way",
      "id": 1298099607,
      "center": {
        "lat": 12.9432969,
        "lon": 77.5964207
      },
      "tags": {
        "amenity": "toilets",
        "check_date": "2024-09-07",
        "indoor": "room",
        "level": "0",
        "level_name": "0",
        "repeat_on": "1",
        "room": "toilets",
        "unisex": "yes",
        "wheelchair": "designated"
      }
    },
    {
      "type": "way",
      "id": 1298099609,
      "center": {
        "lat": 12.9432948,
        "lon": 77.5969351
      },
      "tags": {
        "amenity": "theatre",
        "capacity": "150",
        "check_date": "2025-09-22",
        "indoor": "room",
        "level": "0",
        "level_name": "0",
        "name": "Auditorium 3",
        "name:bn": "অডিটরিয়াম ৩",
        "ref": "A3",
        "room": "auditorium"
      }
    },
    {
      "type": "way",
      "id": 1298099610,
      "center": {
        "lat": 12.9432526,
        "lon": 77.596784
      },
      "tags": {
        "amenity": "theatre",
        "capacity": "200",
        "check_date": "2025-09-22",
        "indoor": "room",
        "level": "0",
        "level_name": "0",
        "name": "Auditorium 2",
        "name:bn": "অডিটরিয়াম ২",
        "ref": "A2",
        "room": "auditorium"
      }
    },
    {
      "type": "way",
      "id": 1298099618,
      "center": {
        "lat": 12.94321,
        "lon": 77.5962277
      },
      "tags": {
        "amenity": "theatre",
        "capacity": "800",
        "check_date": "2025-09-22",
        "indoor": "room",
        "level": "0",
        "level_name": "0",
        "name": "Auditorium 1",
        "name:bn": "অডিটরিয়াম ১",
        "ref": "A1",
        "repeat_on": "1",
        "room": "auditorium"
      }
    },
    {
      "type": "way",
      "id": 1313964260,
      "center": {
        "lat": 12.9451029,
        "lon": 77.5964436
      },
      "tags": {
        "leisure": "fitness_station",
        "wheelchair": "no"
      }
    },
    {
      "type": "way",
      "id": 1313964262,
      "center": {
        "lat": 12.9448302,
        "lon": 77.5966734
      },
      "tags": {
        "leisure": "fitness_station",
        "wheelchair": "no"
      }
    },
    {
      "type": "way",
      "id": 1313964263,
      "center": {
        "lat": 12.9448724,
        "lon": 77.5967342
      },
      "tags": {
        "leisure": "fitness_station",
        "wheelchair": "no"
      }
    },
    {
      "type": "way",
      "id": 1313964265,
      "center": {
        "lat": 12.9449858,
        "lon": 77.5966772
      },
      "tags": {
        "leisure": "fitness_station",
        "wheelchair": "no"
      }
    },
    {
      "type": "way",
      "id": 1313964266,
      "center": {
        "lat": 12.9449039,
        "lon": 77.5966126
      },
      "tags": {
        "amenity": "shelter",
        "shelter_type": "gazebo"
      }
    },
    {
      "type": "way",
      "id": 1314116678,
      "center": {
        "lat": 12.944281,
        "lon": 77.5973075
      },
      "tags": {
        "addr:full": "430/1, Hosur Main Road, 14th Cross, Willson Garden, Lakkasandra, Bangalore - 560 030",
        "addr:housenumber": "430/1",
        "addr:street": "Hosur Main Road",
        "air_conditioning": "yes",
        "amenity": "fast_food",
        "check_date": "2025-09-19",
        "cuisine": "indian;south_indian;north_indian;chinese",
        "diet:lacto_vegetarian": "yes",
        "image:menu": "41073199-c6ca-4d38-9883-3607bf24c8e8",
        "image:menu:0": "96c8691d-b4c0-426e-9670-a5d452411fce",
        "image:menu:1": "81d80f51-350c-4869-9701-a596af8eec67",
        "image:menu:10": "802820ce-eca9-450e-9c34-6b37a72cf573",
        "image:menu:11": "062db99d-c5c6-4ccf-b64a-1baa83d1c583",
        "image:menu:2": "f96a7a79-3776-4a09-979f-11ed40e49169",
        "image:menu:3": "c00cd16f-6990-4178-aa26-00d111adf4c5",
        "image:menu:4": "6284aa5e-ca69-4e10-8224-a0b0710d790c",
        "image:menu:5": "a588ca7d-d324-4222-a98b-1968c7813184",
        "image:menu:6": "49960351-6700-4bdc-be33-a17f5d27254b",
        "image:menu:7": "48c8cbcf-40bc-4f0a-8c1f-b96246002acb",
        "image:menu:8": "40d85c83-7aa0-4340-a752-56e02e75f896",
        "image:menu:9": "a390bbd7-39f1-46f6-b22f-0762439ec910",
        "indoor_seating": "yes",
        "level": "0",
        "name": "Udupi Upahar",
        "note": "There's a seating area with wait staff, and a standing area which is self-service. The two areas have separate (but overlapping) menus, with the self-service area being cheaper.",
        "outdoor_seating": "no",
        "payment:cash": "yes",
        "payment:upi": "yes",
        "smoking": "no",
        "takeaway": "yes",
        "toilets": "yes",
        "toilets:access": "customers",
        "wheelchair": "no",
        "wikimedia_commons": "Category:Udupi_Upahar,_Wilson_Garden,_Bangalore"
      }
    },
    {
      "type": "way",
      "id": 1431908648,
      "center": {
        "lat": 12.9426525,
        "lon": 77.6011642
      },
      "tags": {
        "addr:place": "Lakkasandra",
        "amenity": "school",
        "isced:level": "2",
        "name": "Corporation LPS Lakkasandra",
        "name:kn": "ಕಾರ್ಪೋರೇಶನ್ ಕಿರಿಯ ಪ್ರಾಥಮಿಕ ಶಾಲೆ ಲಕ್ಕಸಂದ್ರ",
        "operator": "Department of Education",
        "school": "primary"
      }
    },
    {
      "type": "way",
      "id": 1432018658,
      "center": {
        "lat": 12.9438635,
        "lon": 77.5969221
      },
      "tags": {
        "amenity": "hospital",
        "healthcare": "hospital",
        "name": "Vignan Hospital",
        "website": "https://bidsinstitution.com/"
      }
    }
  ]
}