{
  "area_name": "Soundarya Layout",
  "osm_id": 12257828361,
  "osm_type": "node",
  "place_type": "neighbourhood",
  "amenity_count": 46,
  "amenities": [
    {
      "type": "node",
      "id": 2641946757,
      "lat": 13.0706671,
      "lon": 77.4939828,
      "tags": {
        "amenity": "school",
        "name": "Soundarya Institute of Management"
      }
    },
    {
      "type": "node",
      "id": 3838936857,
      "lat": 13.066893,
      "lon": 77.5028392,
      "tags": {
        "amenity": "restaurant"
      }
    },
    {
      "type": "node",
      "id": 6808085050,
      "lat": 13.0669831,
      "lon": 77.5011166,
      "tags": {
        "amenity": "place_of_worship",
        "name": "ICRM City Church"
      }
    },
    {
      "type": "node",
      "id": 6809726316,
      "lat": 13.0702566,
      "lon": 77.5039621,
      "tags": {
        "name": "Bharani Medicals",
        "name:kn": "ಭರಣಿ ಮೆಡಿಕಲ್ಸ್",
        "shop": "medical_supply"
      }
    },
    {
      "type": "node",
      "id": 6809765553,
      "lat": 13.0682855,
      "lon": 77.5044244,
      "tags": {
        "amenity": "college",
        "name": "Academic Block Sapthagiri College"
      }
    },
    {
      "type": "node",
      "id": 6893117606,
      "lat": 13.070394,
      "lon": 77.502239,
      "tags": {
        "addr:city": "Bengaluru",
        "addr:district": "BENGALURU URBAN",
        "addr:full": "No. 15, Chikkasandra, Hesaraghatta Main Road",
        "addr:postcode": "560090",
        "addr:state": "Karnataka",
        "amenity": "blood_bank",
        "contact:mobile": "9986500570",
        "contact:phone": "8022791638",
        "name": "Sapthagiri Hospital Blood Bank",
        "opening_hours": "24/7",
        "operator:type": "private",
        "source": "OpenGovernmentData"
      }
    },
    {
      "type": "node",
      "id": 7346626226,
      "lat": 13.064719,
      "lon": 77.4963174,
      "tags": {
        "addr:city": "Bengaluru",
        "addr:postcode": "560073",
        "leisure": "park",
        "name": "Siddeshwara layout park",
        "opening_hours": "24/7",
        "operator": "BBMP"
      }
    },
    {
      "type": "node",
      "id": 7346651789,
      "lat": 13.0659184,
      "lon": 77.4952395,
      "tags": {
        "addr:city": "Bengaluru",
        "addr:postcode": "560073",
        "leisure": "park",
        "name": "Lawn area at Siddeshwara temple",
        "opening_hours": "24/7",
        "operator": "Siddeshwara temple trust"
      }
    },
    {
      "type": "node",
      "id": 8188038495,
      "lat": 13.0650144,
      "lon": 77.5041964,
      "tags": {
        "addr:full": "Bus Stop, Bus Stop, Bonemill, Hesarghatta Main Rd, Soundarya Layout, Bengaluru, Karnataka",
        "addr:state": "Karnataka",
        "amenity": "hospital",
        "healthcare": "hospital",
        "name": "Kruthika Hospital"
      }
    },
    {
      "type": "node",
      "id": 8276770962,
      "lat": 13.0651157,
      "lon": 77.503928,
      "tags": {
        "addr:city": "bangalore",
        "addr:postcode": "560073",
        "addr:street": "Hesaraghatta Main Road",
        "amenity": "restaurant",
        "diet:vegetarian": "yes",
        "name": "Himadri Veg",
        "name:kn": "ಹಿಮಾದ್ರಿ ವೆಜ್",
        "name:ml": "ഹിമാദ്രി വെജ്",
        "opening_hours": "Mo-Su 07:00-22:45",
        "phone": "+919606669222"
      }
    },
    {
      "type": "node",
      "id": 10763537811,
      "lat": 13.0688885,
      "lon": 77.4994742,
      "tags": {
        "amenity": "place_of_worship",
        "name": "Gowri Siddivinayaka Temple",
        "religion": "hindu"
      }
    },
    {
      "type": "node",
      "id": 12509153047,
      "lat": 13.0650701,
      "lon": 77.5046875,
      "tags": {
        "amenity": "veterinary",
        "name": "Br Pet Animal Clinic And Shop"
      }
    },
    {
      "type": "node",
      "id": 12518055367,
      "lat": 13.0668948,
      "lon": 77.5012273,
      "tags": {
        "addr:city": "Bengaluru",
        "addr:housenumber": "243",
        "addr:postcode": "560073",
        "addr:street": "3rd Main Rd, Kirloskar Layout, Siddeshwar Layout, Soundarya Layout,Sidedahalli",
        "amenity": "clinic",
        "healthcare": "clinic",
        "name": "Da Lives's Clinic"
      }
    },
    {
      "type": "node",
      "id": 13159621702,
      "lat": 13.0657974,
      "lon": 77.4956293,
      "tags": {
        "addr:street": "Siddeshwara layout 3rd cross",
        "amenity": "place_of_worship",
        "name": "Siddeshwara Temple"
      }
    },
    {
      "type": "way",
      "id": 142142415,
      "center": {
        "lat": 13.074814,
        "lon": 77.4992054
      },
      "tags": {
        "amenity": "college",
        "name": "Sri Krishna Institute of Technology"
      }
    },
    {
      "type": "way",
      "id": 373559560,
      "center": {
        "lat": 13.0709875,
        "lon": 77.4945382
      },
      "tags": {
        "addr:city": "Bengaluru",
        "addr:street": "Soundarya Nagara",
        "amenity": "college",
        "name": "Soundarya Institute of Management"
      }
    },
    {
      "type": "way",
      "id": 383578412,
      "center": {
        "lat": 13.0729563,
        "lon": 77.4943938
      },
      "tags": {
        "leisure": "pitch",
        "sport": "soccer"
      }
    },
    {
      "type": "way",
      "id": 726118921,
      "center": {
        "lat": 13.0731507,
        "lon": 77.5028748
      },
      "tags": {
        "amenity": "cafe",
        "brand": "Cafe Coffee Day",
        "brand:wikidata": "Q5017235",
        "brand:wikipedia": "en:Café Coffee Day",
        "building": "yes",
        "cuisine": "coffee_shop",
        "name": "Cafe Coffee Day",
        "name:kn": "ಕಫೆ ಕಾಫಿ ಡೇ",
        "takeaway": "yes"
      }
    },
    {
      "type": "way",
      "id": 726119799,
      "center": {
        "lat": 13.0725243,
        "lon": 77.5035875
      },
      "tags": {
        "addr:district": "Bengaluru Rural",
        "addr:full": "No.3 & 3A, Hesarghatta Main Road,Chikkasandra,Next To Janapriya Apartment,Near Chikkabanavara Railway Station",
        "addr:postcode": "560090",
        "addr:state": "Karnataka",
        "amenity": "hospital",
        "healthcare": "hospital",
        "name": "Nrr Hospital",
        "source": "OpenGovernmentData"
      }
    },
    {
      "type": "way",
      "id": 726158201,
      "center": {
        "lat": 13.0661209,
        "lon": 77.5040642
      },
      "tags": {
        "amenity": "restaurant",
        "building:part": "yes",
        "diet:vegetarian": "yes",
        "level": "1",
        "name": "Gayathri Grand",
        "opening_hours": "Mo-Su 06:30-22:30"
      }
    },
    {
      "type": "way",
      "id": 726508308,
      "center": {
        "lat": 13.0656133,
        "lon": 77.5043298
      },
      "tags": {
        "amenity": "pub",
        "building": "yes",
        "name": "Anubhav Pub and Bar"
      }
    },
    {
      "type": "way",
      "id": 784992170,
      "center": {
        "lat": 13.0625547,
        "lon": 77.5010855
      },
      "tags": {
        "addr:city": "Bangalore",
        "addr:postcode": "560073",
        "addr:street": "Kuduregere Main Road",
        "leisure": "park",
        "name": "MEI Layout Triangular Park",
        "opening_hours": "Mo-Su 07:00-22:00",
        "operator": "BBMP"
      }
    },
    {
      "type": "way",
      "id": 890520514,
      "center": {
        "lat": 13.0661209,
        "lon": 77.5040642
      },
      "tags": {
        "amenity": "restaurant",
        "building:part": "yes",
        "cuisine": "regional;andhra",
        "diet:non-vegetarian": "yes",
        "diet:vegetarian": "yes",
        "level": "2",
        "name": "Sarangi",
        "name:kn": "ಸಾರಂಗಿ"
      }
    },
    {
      "type": "way",
      "id": 1150420581,
      "center": {
        "lat": 13.0658903,
        "lon": 77.4953412
      },
      "tags": {
        "leisure": "park",
        "name": "Lawn Area At Siddeshwara Temple"
      }
    },
    {
      "type": "way",
      "id": 1150423432,
      "center": {
        "lat": 13.0622429,
        "lon": 77.4934227
      },
      "tags": {
        "leisure": "park"
      }
    },
    {
      "type": "way",
      "id": 1150425633,
      "center": {
        "lat": 13.0658352,
        "lon": 77.4959218
      },
      "tags": {
        "leisure": "park"
      }
    },
    {
      "type": "way",
      "id": 1253120652,
      "center": {
        "lat": 13.0629715,
        "lon": 77.5042486
      },
      "tags": {
        "access": "permissive",
        "leisure": "swimming_pool"
      }
    },
    {
      "type": "way",
      "id": 1253120653,
      "center": {
        "lat": 13.0624539,
        "lon": 77.5038746
      },
      "tags": {
        "leisure": "pitch",
        "sport": "basketball"
      }
    },
    {
      "type": "way",
      "id": 1253120657,
      "center": {
        "lat": 13.0626841,
        "lon": 77.5045082
      },
      "tags": {
        "amenity": "school",
        "name": "Nurture International School"
      }
    },
    {
      "type": "way",
      "id": 1253120662,
      "center": {
        "lat": 13.0661035,
        "lon": 77.5006597
      },
      "tags": {
        "leisure": "park"
      }
    },
    {
      "type": "way",
      "id": 1253120663,
      "center": {
        "lat": 13.0656937,
        "lon": 77.502016
      },
      "tags": {
        "leisure": "park"
      }
    },
    {
      "type": "way",
      "id": 1253120669,
      "center": {
        "lat": 13.0724307,
        "lon": 77.5014759
      },
      "tags": {
        "leisure": "pitch",
        "sport": "tennis"
      }
    },
    {
      "type": "way",
      "id": 1253120670,
      "center": {
        "lat": 13.0723928,
        "lon": 77.501311
      },
      "tags": {
        "leisure": "pitch",
        "sport": "basketball"
      }
    },
    {
      "type": "way",
      "id": 1253120671,
      "center": {
        "lat": 13.0722681,
        "lon": 77.5008732
      },
      "tags": {
        "leisure": "pitch",
        "sport": "soccer"
      }
    },
    {
      "type": "way",
      "id": 1253120672,
      "center": {
        "lat": 13.0727709,
        "lon": 77.5009673
      },
      "tags": {
        "amenity": "college",
        "name": "Sapthagiri Institute of Allied Health Sciences"
      }
    },
    {
      "type": "way",
      "id": 1253120673,
      "center": {
        "lat": 13.073856,
        "lon": 77.5015198
      },
      "tags": {
        "amenity": "school",
        "name": "KMV Red Hills High School"
      }
    },
    {
      "type": "way",
      "id": 1253120676,
      "center": {
        "lat": 13.0740179,
        "lon": 77.500558
      },
      "tags": {
        "amenity": "college",
        "name": "Sapthagiri School of Nursing"
      }
    },
    {
      "type": "way",
      "id": 1253120679,
      "center": {
        "lat": 13.0701164,
        "lon": 77.5028464
      },
      "tags": {
        "access": "permissive",
        "amenity": "parking",
        "parking": "surface"
      }
    },
    {
      "type": "way",
      "id": 1253120680,
      "center": {
        "lat": 13.0714031,
        "lon": 77.5029246
      },
      "tags": {
        "access": "permissive",
        "amenity": "parking",
        "parking": "surface"
      }
    },
    {
      "type": "way",
      "id": 1253120684,
      "center": {
        "lat": 13.0713894,
        "lon": 77.4942984
      },
      "tags": {
        "access": "permissive",
        "leisure": "swimming_pool"
      }
    },
    {
      "type": "way",
      "id": 1253120685,
      "center": {
        "lat": 13.0714365,
        "lon": 77.4947745
      },
      "tags": {
        "leisure": "pitch",
        "sport": "tennis"
      }
    },
    {
      "type": "way",
      "id": 1253120686,
      "center": {
        "lat": 13.0713124,
        "lon": 77.4938437
      },
      "tags": {
        "leisure": "pitch",
        "sport": "tennis"
      }
    },
    {
      "type": "way",
      "id": 1322942203,
      "center": {
        "lat": 13.068571,
        "lon": 77.5012479
      },
      "tags": {
        "leisure": "park"
      }
    },
    {
      "type": "way",
      "id": 1322942204,
      "center": {
        "lat": 13.0683215,
        "lon": 77.5017878
      },
      "tags": {
        "leisure": "park"
      }
    },
    {
      "type": "way",
      "id": 1322942426,
      "center": {
        "lat": 13.0642031,
        "lon": 77.4985444
      },
      "tags": {
        "leisure": "park"
      }
    },
    {
      "type": "way",
      "id": 1324619383,
      "center": {
        "lat": 13.0685491,
        "lon": 77.4966295
      },
      "tags": {
        "access": "private",
        "leisure": "swimming_pool"
      }
    }
  ]
}