{
  "area_name": "Sri Rama Layout",
  "osm_id": 2021561645,
  "osm_type": "node",
  "place_type": "neighbourhood",
  "amenity_count": 329,
  "amenities": [
    {
      "type": "node",
      "id": 1331946760,
      "lat": 12.895836,
      "lon": 77.5818445,
      "tags": {
        "amenity": "fuel",
        "brand": "Indian Oil",
        "brand:wikidata": "Q1289348",
        "brand:wikipedia": "en:Indian Oil Corporation",
        "name": "Indian Oil",
        "name:en": "Indian Oil Corporation",
        "name:kn": "ಇಂಡಿಯನ್ ಆಯಿಲ್",
        "operator": "Indian Oil"
      }
    },
    {
      "type": "node",
      "id": 1877193413,
      "lat": 12.8903823,
      "lon": 77.5819754,
      "tags": {
        "name": "Everfine Super Market",
        "shop": "supermarket",
        "source": "Bing, local knowledge"
      }
    },
    {
      "type": "node",
      "id": 1877209119,
      "lat": 12.8880679,
      "lon": 77.5810131,
      "tags": {
        "amenity": "school",
        "name": "Capitol Public School",
        "source": "Bing, local knowledge"
      }
    },
    {
      "type": "node",
      "id": 1877211861,
      "lat": 12.8922498,
      "lon": 77.5817101,
      "tags": {
        "amenity": "atm",
        "brand": "IndusInd Bank",
        "brand:wikidata": "Q2040323",
        "name": "IndusInd Bank",
        "operator": "IndusInd Bank",
        "operator:wikidata": "Q2040323",
        "source": "Bing, local knowledge"
      }
    },
    {
      "type": "node",
      "id": 1877233424,
      "lat": 12.8872149,
      "lon": 77.5817813,
      "tags": {
        "check_date": "2023-09-19",
        "name": "Smart Bazaar",
        "payment:mastercard": "yes",
        "payment:visa": "yes",
        "shop": "supermarket",
        "source": "Bing, local knowledge",
        "wheelchair": "yes"
      }
    },
    {
      "type": "node",
      "id": 1877608346,
      "lat": 12.8911059,
      "lon": 77.5794158,
      "tags": {
        "amenity": "post_box",
        "brand": "Desk to Desk Courier & Cargo",
        "brand:short": "DTDC",
        "brand:wikidata": "Q55608802",
        "name": "DTDC Courier",
        "operator": "Desk to Desk Courier & Cargo",
        "operator:short": "DTDC",
        "operator:wikidata": "Q55608802"
      }
    },
    {
      "type": "node",
      "id": 1922045869,
      "lat": 12.8908298,
      "lon": 77.5819384,
      "tags": {
        "name": "Melukote Iyengar's Bakery",
        "shop": "bakery"
      }
    },
    {
      "type": "node",
      "id": 1922055380,
      "lat": 12.9017004,
      "lon": 77.5823794,
      "tags": {
        "name": "Posh Little",
        "note": "Baby Store",
        "shop": "toys"
      }
    },
    {
      "type": "node",
      "id": 1923907402,
      "lat": 12.8925236,
      "lon": 77.5817104,
      "tags": {
        "name": "Multi Cakes",
        "shop": "bakery",
        "wheelchair": "limited"
      }
    },
    {
      "type": "node",
      "id": 1923909491,
      "lat": 12.8929275,
      "lon": 77.5816768,
      "tags": {
        "amenity": "restaurant",
        "cuisine": "indian",
        "name": "Aditya",
        "name:kn": "ಅದಿತ್ಯ",
        "wheelchair": "limited"
      }
    },
    {
      "type": "node",
      "id": 1923911570,
      "lat": 12.8950856,
      "lon": 77.581582,
      "tags": {
        "amenity": "atm",
        "brand": "Citibank",
        "brand:wikidata": "Q857063",
        "name": "Citibank",
        "operator": "Citibank",
        "operator:wikidata": "Q857063",
        "short_name": "Citi"
      }
    },
    {
      "type": "node",
      "id": 1923914071,
      "lat": 12.8909409,
      "lon": 77.5819291,
      "tags": {
        "name": "Classic Corner",
        "shop": "greengrocer"
      }
    },
    {
      "type": "node",
      "id": 1923914647,
      "lat": 12.8896649,
      "lon": 77.5817024,
      "tags": {
        "name": "Liquor Mart",
        "shop": "alcohol"
      }
    },
    {
      "type": "node",
      "id": 1923915481,
      "lat": 12.8894723,
      "lon": 77.5820065,
      "tags": {
        "amenity": "bank",
        "atm": "yes",
        "brand": "Andhra Bank",
        "brand:wikidata": "Q2003476",
        "brand:wikipedia": "en:Andhra Bank",
        "name": "Andhra Bank",
        "name:en": "Andhra Bank",
        "name:kn": "ಆಂಧ್ರ ಬ್ಯಾಂಕ್",
        "operator": "Andhra Bank",
        "website": "https://www.andhrabank.in"
      }
    },
    {
      "type": "node",
      "id": 1923915482,
      "lat": 12.8891563,
      "lon": 77.5820091,
      "tags": {
        "amenity": "bank",
        "atm": "yes",
        "brand": "State Bank of India",
        "brand:wikidata": "Q1340361",
        "brand:wikipedia": "en:State Bank of India",
        "name": "State Bank of India",
        "name:kn": "ಭಾರತೀಯ ಸ್ಟೇಟ್ ಬ್ಯಾಂಕ್",
        "short_name": "SBI",
        "website": "https://www.sbi.co.in"
      }
    },
    {
      "type": "node",
      "id": 1923916887,
      "lat": 12.8885876,
      "lon": 77.5820492,
      "tags": {
        "amenity": "doctors",
        "healthcare": "doctor",
        "name": "Kids Care Clinic"
      }
    },
    {
      "type": "node",
      "id": 1925650223,
      "lat": 12.8891417,
      "lon": 77.57816,
      "tags": {
        "leisure": "playground",
        "name": "Children's play area"
      }
    },
    {
      "type": "node",
      "id": 1925655676,
      "lat": 12.8902358,
      "lon": 77.581971,
      "tags": {
        "brand": "Bata",
        "brand:wikidata": "Q688082",
        "name": "Bata",
        "name:kn": "ಬಾಟಾ",
        "shop": "shoes"
      }
    },
    {
      "type": "node",
      "id": 1925679765,
      "lat": 12.8883173,
      "lon": 77.5816761,
      "tags": {
        "name": "Nandini Milk Products",
        "shop": "kiosk"
      }
    },
    {
      "type": "node",
      "id": 1932421590,
      "lat": 12.8868474,
      "lon": 77.5819283,
      "tags": {
        "amenity": "bank",
        "atm": "yes",
        "brand": "Axis Bank",
        "brand:wikidata": "Q2003549",
        "brand:wikipedia": "en:Axis Bank",
        "name": "Axis Bank",
        "name:en": "Axis Bank",
        "name:kn": "ಆಕ್ಸಿಸ್ ಬ್ಯಾಂಕ್",
        "operator": "Axis Bank",
        "website": "https://www.axisbank.com"
      }
    },
    {
      "type": "node",
      "id": 1932422774,
      "lat": 12.8865339,
      "lon": 77.5819949,
      "tags": {
        "addr:housenumber": "32",
        "addr:street": "Kothanoor Main road",
        "amenity": "restaurant",
        "cuisine": "indian",
        "name": "Kabab Mehal"
      }
    },
    {
      "type": "node",
      "id": 1946525330,
      "lat": 12.8931436,
      "lon": 77.5856019,
      "tags": {
        "name": "Arive",
        "shop": "clothes"
      }
    },
    {
      "type": "node",
      "id": 1949425620,
      "lat": 12.8900804,
      "lon": 77.581659,
      "tags": {
        "name": "Adishwar",
        "name:kn": "ಅದಿಶ್ವರ್",
        "shop": "electronics"
      }
    },
    {
      "type": "node",
      "id": 1949425628,
      "lat": 12.8889909,
      "lon": 77.5817111,
      "tags": {
        "name": "Pai International",
        "shop": "electronics"
      }
    },
    {
      "type": "node",
      "id": 1950848715,
      "lat": 12.8844534,
      "lon": 77.5825987,
      "tags": {
        "amenity": "bank",
        "atm": "yes",
        "brand": "HDFC Bank",
        "brand:wikidata": "Q631047",
        "brand:wikipedia": "en:HDFC Bank",
        "name": "HDFC Bank",
        "name:kn": "ಎಚ್ ಡಿ ಎಫ್ ಸಿ",
        "operator": "HDFC Bank",
        "short_name": "HDFC",
        "website": "https://www.hdfcbank.com"
      }
    },
    {
      "type": "node",
      "id": 1951179041,
      "lat": 12.8920021,
      "lon": 77.5789148,
      "tags": {
        "amenity": "driving_school",
        "name": "Manju Driving School"
      }
    },
    {
      "type": "node",
      "id": 1951179042,
      "lat": 12.8920083,
      "lon": 77.5789638,
      "tags": {
        "amenity": "pharmacy",
        "dispensing": "yes",
        "healthcare": "pharmacy",
        "name": "Nagashree Medicals"
      }
    },
    {
      "type": "node",
      "id": 1951182083,
      "lat": 12.8920259,
      "lon": 77.5791107,
      "tags": {
        "amenity": "restaurant",
        "cuisine": "indian;regional",
        "diet:vegetarian": "yes",
        "name": "Cafe Svarasya"
      }
    },
    {
      "type": "node",
      "id": 1951220184,
      "lat": 12.8908929,
      "lon": 77.5819348,
      "tags": {
        "amenity": "restaurant",
        "cuisine": "indian",
        "name": "SLV",
        "name:kn": "ಎಸ್ಎಲ್‌ವಿ"
      }
    },
    {
      "type": "node",
      "id": 1952895255,
      "lat": 12.8875651,
      "lon": 77.5820643,
      "tags": {
        "name": "Sangeetha",
        "name:kn": "ಸಂಗೀತ",
        "shop": "mobile_phone"
      }
    },
    {
      "type": "node",
      "id": 1952896921,
      "lat": 12.8872845,
      "lon": 77.5821065,
      "tags": {
        "addr:floor": "G",
        "amenity": "restaurant",
        "check_date": "2023-09-19",
        "cuisine": "indian",
        "diet:vegetarian": "yes",
        "name": "Kakal Kai Ruchi",
        "name:kn": "ಕಾಕಲ್ ಕೈ ರುಚಿ"
      }
    },
    {
      "type": "node",
      "id": 1952902143,
      "lat": 12.8855512,
      "lon": 77.5823969,
      "tags": {
        "amenity": "dentist",
        "healthcare": "dentist",
        "name": "Narayana Hrudayalaya Dental Clinic",
        "name:kn": "ನಾರಾಯಣ ಹೃದಯಾಲಯ ದಂತ ಆಸ್ಪತ್ರೆ"
      }
    },
    {
      "type": "node",
      "id": 1966181684,
      "lat": 12.8960869,
      "lon": 77.5860483,
      "tags": {
        "addr:street": "24th Main Road",
        "amenity": "restaurant",
        "cuisine": "indian;italian",
        "name": "Magadha",
        "name:kn": "ಮಗಧ"
      }
    },
    {
      "type": "node",
      "id": 1967262676,
      "lat": 12.8972071,
      "lon": 77.5818847,
      "tags": {
        "name": "Khadim's",
        "shop": "shoes"
      }
    },
    {
      "type": "node",
      "id": 2002207196,
      "lat": 12.8874469,
      "lon": 77.5824258,
      "tags": {
        "name": "Page World India",
        "shop": "books"
      }
    },
    {
      "type": "node",
      "id": 2002703954,
      "lat": 12.8849462,
      "lon": 77.5818317,
      "tags": {
        "amenity": "college",
        "name": "Capitol College of Nursing"
      }
    },
    {
      "type": "node",
      "id": 2010713146,
      "lat": 12.8899469,
      "lon": 77.5776761,
      "tags": {
        "amenity": "dentist",
        "healthcare": "dentist",
        "name": "Dental Art"
      }
    },
    {
      "type": "node",
      "id": 2010727464,
      "lat": 12.8906906,
      "lon": 77.5799648,
      "tags": {
        "amenity": "place_of_worship",
        "name": "Dr. P. Vivekananda layout mini temple"
      }
    },
    {
      "type": "node",
      "id": 2012122119,
      "lat": 12.891484,
      "lon": 77.5816961,
      "tags": {
        "amenity": "hospital",
        "emergency": "yes",
        "healthcare": "hospital",
        "name": "Rainbow Clinic and Diagnostic Laboratory"
      }
    },
    {
      "type": "node",
      "id": 2012546405,
      "lat": 12.886025,
      "lon": 77.5856544,
      "tags": {
        "addr:place": "Kothanur",
        "amenity": "school",
        "isced:level": "3",
        "name": "Cambridge School Kothanur",
        "name:kn": "ಕೇಂಬ್ರಿಜ್ ಶಾಲೆ,ಕೊತ್ತನೂರ್",
        "operator": "Private Un-Aided",
        "school": "Higher Secondary"
      }
    },
    {
      "type": "node",
      "id": 2015225682,
      "lat": 12.8871258,
      "lon": 77.5821622,
      "tags": {
        "name": "Popular Mutton Stall",
        "shop": "butcher"
      }
    },
    {
      "type": "node",
      "id": 2021552674,
      "lat": 12.8919438,
      "lon": 77.5801537,
      "tags": {
        "amenity": "dentist",
        "healthcare": "dentist",
        "name": "DenTotal"
      }
    },
    {
      "type": "node",
      "id": 2021556248,
      "lat": 12.892026,
      "lon": 77.5808384,
      "tags": {
        "amenity": "pharmacy",
        "brand": "Apollo Pharmacy",
        "brand:wikidata": "Q62562612",
        "dispensing": "yes",
        "healthcare": "pharmacy",
        "name": "Apollo Pharmacy",
        "name:kn": "ಅಪೋಲೋ ಫಾರ್ಮಸಿ"
      }
    },
    {
      "type": "node",
      "id": 2021562445,
      "lat": 12.8939006,
      "lon": 77.5818041,
      "tags": {
        "name": "Snow White",
        "shop": "laundry"
      }
    },
    {
      "type": "node",
      "id": 2021571840,
      "lat": 12.8943291,
      "lon": 77.5818071,
      "tags": {
        "amenity": "restaurant",
        "cuisine": "indian",
        "name": "Sarovara",
        "name:kn": "ರಿಲೈಯನ್ಸ್ ಫ್ರೆಶ್"
      }
    },
    {
      "type": "node",
      "id": 2021574669,
      "lat": 12.8904007,
      "lon": 77.5824633,
      "tags": {
        "amenity": "bank",
        "atm": "yes",
        "brand": "ICICI Bank",
        "brand:wikidata": "Q1653258",
        "name": "ICICI Bank",
        "name:en": "ICICI Bank",
        "name:kn": "ಐಸಿಐಸಿಐ ಬ್ಯಾಂಕು",
        "operator": "ICICI Bank",
        "short_name": "ICICI",
        "website": "https://www.icicibank.com"
      }
    },
    {
      "type": "node",
      "id": 2030147384,
      "lat": 12.8921693,
      "lon": 77.5836432,
      "tags": {
        "amenity": "atm",
        "operator": "Lakshmi Vilas Bank"
      }
    },
    {
      "type": "node",
      "id": 2030149958,
      "lat": 12.8932454,
      "lon": 77.5815782,
      "tags": {
        "brand": "Maruti",
        "name": "Om Cars",
        "shop": "car_repair"
      }
    },
    {
      "type": "node",
      "id": 2030152914,
      "lat": 12.8926333,
      "lon": 77.5812405,
      "tags": {
        "amenity": "veterinary",
        "name": "Royal Pet Care"
      }
    },
    {
      "type": "node",
      "id": 2032027880,
      "lat": 12.8850998,
      "lon": 77.5823163,
      "tags": {
        "amenity": "atm",
        "brand": "ICICI Bank",
        "brand:wikidata": "Q1653258",
        "name": "ICICI Bank",
        "operator": "ICICI Bank",
        "operator:wikidata": "Q1653258",
        "short_name": "ICICI"
      }
    },
    {
      "type": "node",
      "id": 2032034937,
      "lat": 12.8860743,
      "lon": 77.5821092,
      "tags": {
        "amenity": "atm",
        "brand": "Kotak Mahindra Bank",
        "brand:wikidata": "Q2040404",
        "name": "Kotak Mahindra Bank",
        "name:kn": "ಕೋಟಕ್ ಮಹಿಂದ್ರ ಬ್ಯಾಂಕ್",
        "operator": "Kotak Mahindra Bank",
        "operator:wikidata": "Q2040404"
      }
    },
    {
      "type": "node",
      "id": 2032038518,
      "lat": 12.8896231,
      "lon": 77.5823913,
      "tags": {
        "amenity": "kindergarten",
        "name": "Aura Montessori House of Children"
      }
    },
    {
      "type": "node",
      "id": 2032039489,
      "lat": 12.890184,
      "lon": 77.5823622,
      "tags": {
        "amenity": "bank",
        "brand": "UCO Bank",
        "brand:wikidata": "Q2005310",
        "brand:wikipedia": "en:UCO Bank",
        "name": "UCO Bank",
        "name:en": "UCO Bank",
        "name:kn": "ಯೂಕೊ ಬ್ಯಾಂಕ್",
        "old_name": "United Commercial Bank",
        "website": "https://www.ucobank.com"
      }
    },
    {
      "type": "node",
      "id": 2034338169,
      "lat": 12.8842357,
      "lon": 77.5826768,
      "tags": {
        "amenity": "bank",
        "atm": "yes",
        "brand": "Syndicate Bank",
        "brand:wikidata": "Q2004088",
        "name": "Syndicate Bank",
        "name:en": "Syndicate Bank",
        "name:kn": "ಸಿಂಡಿಕೇಟ್ ಬ್ಯಾಂಕ್",
        "website": "https://www.syndicatebank.in"
      }
    },
    {
      "type": "node",
      "id": 2034339048,
      "lat": 12.8874364,
      "lon": 77.5820602,
      "tags": {
        "name": "Optic Mall",
        "shop": "optician"
      }
    },
    {
      "type": "node",
      "id": 2034797465,
      "lat": 12.8913808,
      "lon": 77.5767986,
      "tags": {
        "amenity": "dentist",
        "healthcare": "dentist",
        "name": "Sri Dental Clinic"
      }
    },
    {
      "type": "node",
      "id": 2044301341,
      "lat": 12.8919415,
      "lon": 77.5817506,
      "tags": {
        "amenity": "atm",
        "brand": "Canara Bank",
        "brand:en": "Canara Bank",
        "brand:hi": "केनरा बैंक",
        "brand:kn": "ಕೆನರಾ ಬ್ಯಾಂಕ್",
        "brand:pa": "ਕੇਨਰਾ ਬੈਂਕ",
        "brand:pnb": "کینرا بینک",
        "brand:ur": "کینرا بینک",
        "brand:wikidata": "Q2003777",
        "name": "Canara Bank",
        "name:en": "Canara Bank",
        "name:hi": "केनरा बैंक",
        "name:kn": "ಕೆನರಾ ಬ್ಯಾಂಕ್",
        "name:pa": "ਕੇਨਰਾ ਬੈਂਕ",
        "name:pnb": "کینرا بینک",
        "name:ur": "کینرا بینک",
        "operator": "Canara Bank",
        "operator:wikidata": "Q2003777"
      }
    },
    {
      "type": "node",
      "id": 2046124407,
      "lat": 12.8958786,
      "lon": 77.5819849,
      "tags": {
        "amenity": "atm",
        "brand": "Central Bank of India",
        "brand:wikidata": "Q2007090",
        "name": "Central Bank of India",
        "operator": "Central Bank of India",
        "operator:wikidata": "Q2007090"
      }
    },
    {
      "type": "node",
      "id": 2063169232,
      "lat": 12.8887979,
      "lon": 77.5793878,
      "tags": {
        "amenity": "place_of_worship",
        "name": "Shri Varadanjaneya Swamy Temple",
        "name:kn": "ವಾರದ ಅಂಜನೆಯ ದೇವಸ್ಥಾನ",
        "religion": "hindu"
      }
    },
    {
      "type": "node",
      "id": 2123769731,
      "lat": 12.8883745,
      "lon": 77.5820587,
      "tags": {
        "amenity": "restaurant",
        "cuisine": "chinese;thai",
        "name": "Beiging Bites"
      }
    },
    {
      "type": "node",
      "id": 2123769736,
      "lat": 12.8883943,
      "lon": 77.5820546,
      "tags": {
        "name": "Kanti Sweets",
        "shop": "bakery"
      }
    },
    {
      "type": "node",
      "id": 2123773761,
      "lat": 12.891182,
      "lon": 77.5816478,
      "tags": {
        "addr:city": "Bangalore",
        "addr:housenumber": "536, VBV Plaza",
        "addr:postcode": "560068",
        "addr:street": "Puttenahalli Main Road",
        "amenity": "fast_food",
        "brand": "Papa John's",
        "brand:wikidata": "Q2759586",
        "cuisine": "pizza",
        "delivery": "yes",
        "name": "Papa John's",
        "opening_hours": "11:00 - 23:00",
        "phone": "080 41463111",
        "takeaway": "yes",
        "website": "https://www.papajohnspizza.in"
      }
    },
    {
      "type": "node",
      "id": 2125941074,
      "lat": 12.8953157,
      "lon": 77.5863222,
      "tags": {
        "name": "Ten Ten Nimma Supermarket",
        "shop": "supermarket",
        "wheelchair": "no"
      }
    },
    {
      "type": "node",
      "id": 2151955930,
      "lat": 12.8954376,
      "lon": 77.5818086,
      "tags": {
        "amenity": "post_box",
        "brand": "Desk to Desk Courier & Cargo",
        "brand:short": "DTDC",
        "brand:wikidata": "Q55608802",
        "name": "DTDC Courier",
        "operator": "Desk to Desk Courier & Cargo",
        "operator:short": "DTDC",
        "operator:wikidata": "Q55608802"
      }
    },
    {
      "type": "node",
      "id": 2151959564,
      "lat": 12.8961223,
      "lon": 77.5818579,
      "tags": {
        "brand": "Bajaj",
        "brand:wikidata": "Q10910065",
        "motorcycle:clothes": "no",
        "motorcycle:parts": "brand",
        "motorcycle:rental": "no",
        "motorcycle:repair": "brand",
        "motorcycle:sales": "brand",
        "name": "Perl Motors",
        "shop": "motorcycle"
      }
    },
    {
      "type": "node",
      "id": 2153030763,
      "lat": 12.8967177,
      "lon": 77.5858102,
      "tags": {
        "amenity": "atm",
        "brand": "Indian Overseas Bank",
        "brand:wikidata": "Q2003611",
        "name": "Indian Overseas Bank ATM",
        "operator": "Indian Overseas Bank",
        "operator:wikidata": "Q2003611"
      }
    },
    {
      "type": "node",
      "id": 2153030764,
      "lat": 12.8967847,
      "lon": 77.5858129,
      "tags": {
        "amenity": "atm",
        "name": "Indicash ATM",
        "operator": "ICICI Bank",
        "wheelchair": "limited"
      }
    },
    {
      "type": "node",
      "id": 2168885812,
      "lat": 12.895317,
      "lon": 77.5816317,
      "tags": {
        "amenity": "atm",
        "brand": "HDFC Bank",
        "brand:wikidata": "Q631047",
        "name": "HDFC Bank",
        "operator": "HDFC Bank",
        "operator:wikidata": "Q631047",
        "short_name": "HDFC"
      }
    },
    {
      "type": "node",
      "id": 2175121051,
      "lat": 12.8881605,
      "lon": 77.5820229,
      "tags": {
        "amenity": "bank",
        "atm": "yes",
        "brand": "Karnataka Bank",
        "brand:wikidata": "Q2042632",
        "name": "Karnataka Bank",
        "name:kn": "ಕರ್ನಾಟಕ ಬ್ಯಾಂಕ್",
        "operator": "Karnataka Bank",
        "source": "GPS"
      }
    },
    {
      "type": "node",
      "id": 2177250483,
      "lat": 12.8921409,
      "lon": 77.5721791,
      "tags": {
        "amenity": "atm",
        "brand": "HDFC Bank",
        "brand:wikidata": "Q631047",
        "name": "HDFC Bank",
        "operator": "HDFC Bank",
        "operator:wikidata": "Q631047",
        "short_name": "HDFC"
      }
    },
    {
      "type": "node",
      "id": 2194288983,
      "lat": 12.8920876,
      "lon": 77.5817631,
      "tags": {
        "amenity": "restaurant",
        "cuisine": "indian",
        "name": "Punjabi Food Corner",
        "source": "GPS"
      }
    },
    {
      "type": "node",
      "id": 2215727573,
      "lat": 12.8893056,
      "lon": 77.5817421,
      "tags": {
        "amenity": "fast_food",
        "brand": "Domino's",
        "brand:ks": "ڈومینوز",
        "brand:pa": "ਡੋਮੀਨੋਜ਼",
        "brand:ur": "ڈومینوز",
        "brand:wikidata": "Q839466",
        "brand:wikipedia": "en:Domino's Pizza",
        "cuisine": "pizza",
        "name": "Domino's",
        "name:kn": "ಡಾಮಿನೋಸ್",
        "name:ks": "ڈومینوز",
        "name:pa": "ਡੋਮੀਨੋਜ਼",
        "name:ur": "ڈومینوز",
        "takeaway": "yes"
      }
    },
    {
      "type": "node",
      "id": 2384193105,
      "lat": 12.9004538,
      "lon": 77.5859289,
      "tags": {
        "amenity": "restaurant",
        "name": "Grills and Rolls",
        "wheelchair": "no"
      }
    },
    {
      "type": "node",
      "id": 2505556376,
      "lat": 12.8918378,
      "lon": 77.5795358,
      "tags": {
        "amenity": "restaurant",
        "cuisine": "indian",
        "diet:vegetarian": "yes",
        "name": "Brahmins",
        "wheelchair": "no"
      }
    },
    {
      "type": "node",
      "id": 2512834837,
      "lat": 12.8894895,
      "lon": 77.5820031,
      "tags": {
        "name": "Evergreen Fruit and Vegetable Super Market",
        "shop": "greengrocer"
      }
    },
    {
      "type": "node",
      "id": 2512834838,
      "lat": 12.8901353,
      "lon": 77.5819686,
      "tags": {
        "name": "Instring",
        "shop": "clothes"
      }
    },
    {
      "type": "node",
      "id": 2512834840,
      "lat": 12.8896247,
      "lon": 77.5817501,
      "tags": {
        "name": "Vesture",
        "shop": "clothes"
      }
    },
    {
      "type": "node",
      "id": 2512836521,
      "lat": 12.8907146,
      "lon": 77.58194,
      "tags": {
        "amenity": "atm",
        "brand": "Andhra Bank",
        "brand:wikidata": "Q2003476",
        "name": "Andhra Bank",
        "operator": "Andhra Bank",
        "operator:wikidata": "Q2003476"
      }
    },
    {
      "type": "node",
      "id": 2512839901,
      "lat": 12.8906819,
      "lon": 77.5819411,
      "tags": {
        "amenity": "pharmacy",
        "dispensing": "yes",
        "healthcare": "pharmacy",
        "name": "Sri Laxmi Medicals"
      }
    },
    {
      "type": "node",
      "id": 2514116208,
      "lat": 12.8894521,
      "lon": 77.5820294,
      "tags": {
        "brand": "Thomas Cook",
        "brand:wikidata": "Q2141800",
        "name": "Thomas Cook",
        "name:kn": "ತೋಮಸ್ ಕುಕ್",
        "shop": "travel_agency"
      }
    },
    {
      "type": "node",
      "id": 2520891453,
      "lat": 12.8920933,
      "lon": 77.581684,
      "tags": {
        "amenity": "dentist",
        "healthcare": "dentist",
        "name": "Johnson Dental Clinic"
      }
    },
    {
      "type": "node",
      "id": 2520891454,
      "lat": 12.8920729,
      "lon": 77.5816893,
      "tags": {
        "amenity": "doctors",
        "healthcare": "doctor",
        "name": "Raga's Skin Care"
      }
    },
    {
      "type": "node",
      "id": 2520891455,
      "lat": 12.8920803,
      "lon": 77.5817326,
      "tags": {
        "name": "Snip & Streak",
        "shop": "hairdresser"
      }
    },
    {
      "type": "node",
      "id": 2520891456,
      "lat": 12.8920976,
      "lon": 77.5817297,
      "tags": {
        "name": "Vision Lab",
        "shop": "optician"
      }
    },
    {
      "type": "node",
      "id": 2619001683,
      "lat": 12.8917971,
      "lon": 77.5777119,
      "tags": {
        "name": "E K Retail",
        "shop": "supermarket",
        "source": "Local knowledge"
      }
    },
    {
      "type": "node",
      "id": 2621049953,
      "lat": 12.8875244,
      "lon": 77.582032,
      "tags": {
        "name": "FSquare",
        "second_hand": "no",
        "shop": "clothes"
      }
    },
    {
      "type": "node",
      "id": 2621049954,
      "lat": 12.887085,
      "lon": 77.5819484,
      "tags": {
        "addr:street": "Kothnur Main Road",
        "name": "Lakshmi Scotch Yard",
        "shop": "alcohol"
      }
    },
    {
      "type": "node",
      "id": 2621049955,
      "lat": 12.8861649,
      "lon": 77.5822896,
      "tags": {
        "amenity": "fast_food",
        "cuisine": "indian",
        "name": "Nandi Bidadi Thatte Idli"
      }
    },
    {
      "type": "node",
      "id": 2621193739,
      "lat": 12.8913374,
      "lon": 77.5819211,
      "tags": {
        "amenity": "post_box",
        "operator": "India Post",
        "operator:wikidata": "Q3519720"
      }
    },
    {
      "type": "node",
      "id": 2621198134,
      "lat": 12.8922631,
      "lon": 77.5814764,
      "tags": {
        "amenity": "restaurant",
        "cuisine": "indian",
        "name": "Green Chillies"
      }
    },
    {
      "type": "node",
      "id": 2638240793,
      "lat": 12.8902044,
      "lon": 77.5819669,
      "tags": {
        "name": "Everfine Vegetable and Fruit",
        "shop": "greengrocer"
      }
    },
    {
      "type": "node",
      "id": 2638241596,
      "lat": 12.8884857,
      "lon": 77.5820539,
      "tags": {
        "name": "Eden Fresh Fruits and Vegetables",
        "shop": "greengrocer"
      }
    },
    {
      "type": "node",
      "id": 2664957853,
      "lat": 12.8919779,
      "lon": 77.5787637,
      "tags": {
        "amenity": "doctors",
        "healthcare": "doctor",
        "healthcare:speciality": "ophthalmology",
        "name": "Nethradarshana Eye Clinic",
        "opening_hours": "Mo-Sa 17:00-21:00, Su 10:00-12:00",
        "source": "Survey"
      }
    },
    {
      "type": "node",
      "id": 2677269699,
      "lat": 12.8979332,
      "lon": 77.5859652,
      "tags": {
        "name": "Spritz & More",
        "shop": "alcohol",
        "wheelchair": "no"
      }
    },
    {
      "type": "node",
      "id": 2686093260,
      "lat": 12.8940622,
      "lon": 77.5817993,
      "tags": {
        "name": "Indian Tyre Center",
        "shop": "tyres"
      }
    },
    {
      "type": "node",
      "id": 2686093261,
      "lat": 12.8934343,
      "lon": 77.586476,
      "tags": {
        "name": "Iyengars Tyre care",
        "shop": "tyres"
      }
    },
    {
      "type": "node",
      "id": 2686938278,
      "lat": 12.8889981,
      "lon": 77.5820296,
      "tags": {
        "addr:city": "Bangalore",
        "addr:housenumber": "No.13",
        "addr:postcode": "560078",
        "addr:street": "Kothnur Main Road, J P Nagar, 7th Phase, Landmark - near Brigade Millennium Signal",
        "name": "First Baby Store",
        "opening_hours": "Mo-Su 10:00-21:00",
        "phone": "080 4127 3999",
        "shop": "baby_goods",
        "website": "https://firstbabystore.com/"
      }
    },
    {
      "type": "node",
      "id": 2686938279,
      "lat": 12.8890439,
      "lon": 77.582025,
      "tags": {
        "brand": "Liberty",
        "brand:wikidata": "Q6541947",
        "name": "Liberty Exclusive Showroom",
        "name:kn": "ಲಿಬರ್ಟಿ",
        "shop": "shoes"
      }
    },
    {
      "type": "node",
      "id": 2803277501,
      "lat": 12.8851987,
      "lon": 77.582368,
      "tags": {
        "name": "Mangalore Store",
        "shop": "bakery"
      }
    },
    {
      "type": "node",
      "id": 2850537681,
      "lat": 12.9017134,
      "lon": 77.5824365,
      "tags": {
        "amenity": "library",
        "name": "Just Books CLC",
        "name:kn": "ಜಸ್ಟ್ ಬುಕ್ಸ್"
      }
    },
    {
      "type": "node",
      "id": 2866046929,
      "lat": 12.8922391,
      "lon": 77.5816665,
      "tags": {
        "name": "Style & Smart",
        "shop": "hairdresser"
      }
    },
    {
      "type": "node",
      "id": 2866051040,
      "lat": 12.8885573,
      "lon": 77.5820556,
      "tags": {
        "name": "Toy Zone",
        "shop": "toys"
      }
    },
    {
      "type": "node",
      "id": 2905307839,
      "lat": 12.8940129,
      "lon": 77.5817977,
      "tags": {
        "name": "BSK Birthday Party Shop",
        "note": "Supplies for Birthday parties",
        "shop": "gift"
      }
    },
    {
      "type": "node",
      "id": 2905307840,
      "lat": 12.8924542,
      "lon": 77.581717,
      "tags": {
        "name": "Bloo",
        "note": "Fish & Aquarium supplies",
        "shop": "pet"
      }
    },
    {
      "type": "node",
      "id": 2905307841,
      "lat": 12.8922399,
      "lon": 77.5816934,
      "tags": {
        "amenity": "pharmacy",
        "dispensing": "yes",
        "healthcare": "pharmacy",
        "name": "Pavithra Medical & General Stores"
      }
    },
    {
      "type": "node",
      "id": 2915879117,
      "lat": 12.8923977,
      "lon": 77.5817117,
      "tags": {
        "amenity": "fast_food",
        "cuisine": "chicken",
        "name": "Five Star Chicken"
      }
    },
    {
      "type": "node",
      "id": 2915879118,
      "lat": 12.8923904,
      "lon": 77.5816956,
      "tags": {
        "name": "Mithilasmita Art Gallery",
        "shop": "art"
      }
    },
    {
      "type": "node",
      "id": 2915879119,
      "lat": 12.8923982,
      "lon": 77.5816954,
      "tags": {
        "name": "Modern Chinese Beauty Parlour",
        "shop": "beauty"
      }
    },
    {
      "type": "node",
      "id": 2915879120,
      "lat": 12.8923922,
      "lon": 77.5817134,
      "tags": {
        "name": "The United Opticals",
        "shop": "optician"
      }
    },
    {
      "type": "node",
      "id": 2915879121,
      "lat": 12.8924363,
      "lon": 77.5817108,
      "tags": {
        "name": "Abloom",
        "shop": "hairdresser"
      }
    },
    {
      "type": "node",
      "id": 2934092931,
      "lat": 12.8946083,
      "lon": 77.5817753,
      "tags": {
        "name": "Samsung Smart Cafe",
        "shop": "mobile_phone"
      }
    },
    {
      "type": "node",
      "id": 2951208679,
      "lat": 12.8913095,
      "lon": 77.5816605,
      "tags": {
        "name": "Blak",
        "shop": "shoes"
      }
    },
    {
      "type": "node",
      "id": 2951208680,
      "lat": 12.891268,
      "lon": 77.5816626,
      "tags": {
        "amenity": "restaurant",
        "cuisine": "chinese;indian",
        "name": "Clay Oven Restaurant"
      }
    },
    {
      "type": "node",
      "id": 2951208681,
      "lat": 12.8911526,
      "lon": 77.5816598,
      "tags": {
        "name": "Health & Glow",
        "shop": "cosmetics"
      }
    },
    {
      "type": "node",
      "id": 2951208682,
      "lat": 12.8914002,
      "lon": 77.5816698,
      "tags": {
        "name": "Raymonds",
        "shop": "clothes"
      }
    },
    {
      "type": "node",
      "id": 2954412605,
      "lat": 12.8919655,
      "lon": 77.5817555,
      "tags": {
        "amenity": "pharmacy",
        "brand": "Apollo Pharmacy",
        "brand:wikidata": "Q62562612",
        "dispensing": "yes",
        "healthcare": "pharmacy",
        "name": "Apollo Pharmacy",
        "name:kn": "ಅಪೋಲೋ ಫಾರ್ಮಸಿ"
      }
    },
    {
      "type": "node",
      "id": 2954412606,
      "lat": 12.8910593,
      "lon": 77.5816806,
      "tags": {
        "amenity": "bank",
        "atm": "yes",
        "brand": "Canara Bank",
        "brand:en": "Canara Bank",
        "brand:hi": "केनरा बैंक",
        "brand:kn": "ಕೆನರಾ ಬ್ಯಾಂಕ್",
        "brand:pa": "ਕੇਨਰਾ ਬੈਂਕ",
        "brand:pnb": "کینرا بینک",
        "brand:ur": "کینرا بینک",
        "brand:wikidata": "Q2003777",
        "brand:wikipedia": "en:Canara Bank",
        "brand:wikipedia:pa": "ਕੇਨਰਾ ਬੈਂਕ",
        "name": "Canara Bank",
        "name:en": "Canara Bank",
        "name:hi": "केनरा बैंक",
        "name:kn": "ಕೆನರಾ ಬ್ಯಾಂಕ್",
        "name:pa": "ਕੇਨਰਾ ਬੈਂਕ",
        "name:pnb": "کینرا بینک",
        "name:ur": "کینرا بینک",
        "website": "https://www.canarabank.com/"
      }
    },
    {
      "type": "node",
      "id": 2954412607,
      "lat": 12.891081,
      "lon": 77.5776033,
      "tags": {
        "name": "Chabili",
        "shop": "clothes"
      }
    },
    {
      "type": "node",
      "id": 2954412608,
      "lat": 12.887818,
      "lon": 77.5820311,
      "tags": {
        "name": "Cool Junction",
        "note": "Shop selling fresh fruit juice",
        "shop": "fruit_juice"
      }
    },
    {
      "type": "node",
      "id": 2954412609,
      "lat": 12.8886124,
      "lon": 77.5776022,
      "tags": {
        "amenity": "doctors",
        "healthcare": "doctor",
        "name": "Dr. Naline Jayaraj",
        "note": "pediatrician"
      }
    },
    {
      "type": "node",
      "id": 2954412610,
      "lat": 12.8919897,
      "lon": 77.5817621,
      "tags": {
        "name": "Drapes Nirakar",
        "shop": "curtain"
      }
    },
    {
      "type": "node",
      "id": 2954412611,
      "lat": 12.8849403,
      "lon": 77.5826306,
      "tags": {
        "amenity": "parking",
        "name": "Ennar Diagnostics & Healthcare",
        "note": "Health diagnostic tests",
        "operator": "Myles"
      }
    },
    {
      "type": "node",
      "id": 2954412612,
      "lat": 12.8867178,
      "lon": 77.581977,
      "tags": {
        "name": "Feet Fashion",
        "shop": "shoes"
      }
    },
    {
      "type": "node",
      "id": 2954412614,
      "lat": 12.8909616,
      "lon": 77.5816833,
      "tags": {
        "name": "Fresh Greens & Grains",
        "shop": "greengrocer"
      }
    },
    {
      "type": "node",
      "id": 2954412615,
      "lat": 12.8875853,
      "lon": 77.5820926,
      "tags": {
        "name": "G K Vale",
        "note": "Studio, photo prints, cameras",
        "shop": "photo"
      }
    },
    {
      "type": "node",
      "id": 2954412616,
      "lat": 12.8915407,
      "lon": 77.577761,
      "tags": {
        "name": "In Fresh",
        "shop": "curtain"
      }
    },
    {
      "type": "node",
      "id": 2954412617,
      "lat": 12.8886473,
      "lon": 77.5820373,
      "tags": {
        "name": "Karthik Fashions",
        "shop": "clothes"
      }
    },
    {
      "type": "node",
      "id": 2954412618,
      "lat": 12.8911686,
      "lon": 77.5816939,
      "tags": {
        "name": "Malabar Gifts",
        "shop": "gift"
      }
    },
    {
      "type": "node",
      "id": 2954412620,
      "lat": 12.8893554,
      "lon": 77.5817524,
      "tags": {
        "name": "Megamart",
        "shop": "clothes"
      }
    },
    {
      "type": "node",
      "id": 2954412621,
      "lat": 12.8911005,
      "lon": 77.5816814,
      "tags": {
        "name": "Miss World",
        "shop": "clothes"
      }
    },
    {
      "type": "node",
      "id": 2954412623,
      "lat": 12.8886352,
      "lon": 77.5820313,
      "tags": {
        "name": "Niharika Collections",
        "shop": "clothes"
      }
    },
    {
      "type": "node",
      "id": 2954412624,
      "lat": 12.8855103,
      "lon": 77.5824089,
      "tags": {
        "name": "PP Fashion",
        "shop": "clothes"
      }
    },
    {
      "type": "node",
      "id": 2954412625,
      "lat": 12.8857556,
      "lon": 77.5823701,
      "tags": {
        "amenity": "kindergarten",
        "name": "Podar Jumbo Kids"
      }
    },
    {
      "type": "node",
      "id": 2954412626,
      "lat": 12.8918806,
      "lon": 77.5817562,
      "tags": {
        "amenity": "fast_food",
        "cuisine": "punjabi",
        "name": "Punjabi Food Corner"
      }
    },
    {
      "type": "node",
      "id": 2954412627,
      "lat": 12.8848337,
      "lon": 77.5826781,
      "tags": {
        "name": "Rally Helmet Palace",
        "note": "Shop selling helmets for motorbikes",
        "shop": "helmets"
      }
    },
    {
      "type": "node",
      "id": 2954412628,
      "lat": 12.8920226,
      "lon": 77.5809341,
      "tags": {
        "name": "Sri Bhagyalakshmi Hardware and Paints",
        "shop": "hardware"
      }
    },
    {
      "type": "node",
      "id": 2954412629,
      "lat": 12.8920902,
      "lon": 77.5815631,
      "tags": {
        "name": "Sri Raghavendra Iyengar Bakery",
        "shop": "bakery"
      }
    },
    {
      "type": "node",
      "id": 2954412630,
      "lat": 12.8848113,
      "lon": 77.5826946,
      "tags": {
        "amenity": "fast_food",
        "cuisine": "biriyani",
        "name": "Star Biriyani Ambur"
      }
    },
    {
      "type": "node",
      "id": 2954412631,
      "lat": 12.8886588,
      "lon": 77.5821115,
      "tags": {
        "internet_access": "yes",
        "name": "VG Computers",
        "shop": "copyshop"
      }
    },
    {
      "type": "node",
      "id": 2954412632,
      "lat": 12.8910795,
      "lon": 77.5816822,
      "tags": {
        "name": "YLG",
        "shop": "beauty"
      }
    },
    {
      "type": "node",
      "id": 2954417233,
      "lat": 12.8856427,
      "lon": 77.5821812,
      "tags": {
        "shop": "tyres"
      }
    },
    {
      "type": "node",
      "id": 2954417234,
      "lat": 12.8904626,
      "lon": 77.5816995,
      "tags": {
        "name": "Tamara",
        "shop": "fashion_accessories"
      }
    },
    {
      "type": "node",
      "id": 2954417235,
      "lat": 12.8905611,
      "lon": 77.5817123,
      "tags": {
        "brand": "Exide",
        "name": "Sree Prashanthi Enterprises",
        "note": "Rechargeable automotive & UPS batteries",
        "shop": "rechargeable_battery",
        "source": "voice"
      }
    },
    {
      "type": "node",
      "id": 2954417236,
      "lat": 12.8917424,
      "lon": 77.5817749,
      "tags": {
        "name": "Hot Chips",
        "note": "Deep fried snacks",
        "shop": "snacks"
      }
    },
    {
      "type": "node",
      "id": 2957037182,
      "lat": 12.8922462,
      "lon": 77.5817355,
      "tags": {
        "amenity": "fast_food",
        "cuisine": "chicken",
        "name": "Rolls on Wheels"
      }
    },
    {
      "type": "node",
      "id": 2957037183,
      "lat": 12.8922542,
      "lon": 77.5817355,
      "tags": {
        "note": "Mobile phone repairs",
        "shop": "mobile_phone_repair"
      }
    },
    {
      "type": "node",
      "id": 2957037184,
      "lat": 12.8922509,
      "lon": 77.5817283,
      "tags": {
        "name": "Ushas Gifting Solutions",
        "shop": "gift"
      }
    },
    {
      "type": "node",
      "id": 2958334184,
      "lat": 12.8841397,
      "lon": 77.5827195,
      "tags": {
        "amenity": "kindergarten",
        "name": "Bachpan"
      }
    },
    {
      "type": "node",
      "id": 2958334185,
      "lat": 12.8846567,
      "lon": 77.5827576,
      "tags": {
        "name": "Excellent Mutton & Chicken Stall",
        "shop": "butcher"
      }
    },
    {
      "type": "node",
      "id": 2958334188,
      "lat": 12.8879862,
      "lon": 77.5820232,
      "tags": {
        "name": "People",
        "shop": "clothes"
      }
    },
    {
      "type": "node",
      "id": 2958334194,
      "lat": 12.8868724,
      "lon": 77.5821857,
      "tags": {
        "name": "xdrax",
        "shop": "shoes"
      }
    },
    {
      "type": "node",
      "id": 2961232504,
      "lat": 12.8962593,
      "lon": 77.5818602,
      "tags": {
        "name": "Bombay Dyeing",
        "name:kn": "ಬೊಂಬೆ ಡೈಯಿಂಗ್",
        "shop": "clothes"
      }
    },
    {
      "type": "node",
      "id": 2961232505,
      "lat": 12.8976922,
      "lon": 77.5825743,
      "tags": {
        "name": "The Cake Shop",
        "shop": "bakery"
      }
    },
    {
      "type": "node",
      "id": 2961232506,
      "lat": 12.891665,
      "lon": 77.5785483,
      "tags": {
        "amenity": "kindergarten",
        "name": "Touch Stone"
      }
    },
    {
      "type": "node",
      "id": 2964142634,
      "lat": 12.8920801,
      "lon": 77.5815212,
      "tags": {
        "amenity": "doctors",
        "healthcare": "doctor",
        "healthcare:speciality": "orthopaedics",
        "name": "Dr. Praveen's Orthopaedics Center"
      }
    },
    {
      "type": "node",
      "id": 2964142635,
      "lat": 12.8920738,
      "lon": 77.5814809,
      "tags": {
        "name": "Fusion Intimates",
        "shop": "clothes"
      }
    },
    {
      "type": "node",
      "id": 2964142636,
      "lat": 12.8922252,
      "lon": 77.5813723,
      "tags": {
        "name": "Ganesh Fancy and Gift Center",
        "shop": "gift"
      }
    },
    {
      "type": "node",
      "id": 2964142637,
      "lat": 12.8922282,
      "lon": 77.5814135,
      "tags": {
        "name": "Maharaja Stationery",
        "shop": "stationery"
      }
    },
    {
      "type": "node",
      "id": 2964142638,
      "lat": 12.892065,
      "lon": 77.581734,
      "tags": {
        "name": "SAT Sports",
        "shop": "sports"
      }
    },
    {
      "type": "node",
      "id": 2964142639,
      "lat": 12.8920613,
      "lon": 77.581495,
      "tags": {
        "name": "Vandana New Fashions",
        "shop": "clothes"
      }
    },
    {
      "type": "node",
      "id": 2964414615,
      "lat": 12.8902229,
      "lon": 77.5819872,
      "tags": {
        "name": "Royal Style Salon & Spa",
        "note": "Unisex Salon",
        "shop": "beauty"
      }
    },
    {
      "type": "node",
      "id": 2964414616,
      "lat": 12.8906339,
      "lon": 77.5819363,
      "tags": {
        "name": "S N Times",
        "note": "Shop selling watches",
        "shop": "watches",
        "source": "survey"
      }
    },
    {
      "type": "node",
      "id": 2964414617,
      "lat": 12.8907955,
      "lon": 77.5819391,
      "tags": {
        "name": "S V Provision Store",
        "shop": "convenience"
      }
    },
    {
      "type": "node",
      "id": 2964414619,
      "lat": 12.8883436,
      "lon": 77.5820577,
      "tags": {
        "name": "Sri Gajedndra Juice Center",
        "note": "Fresh fruit juice",
        "shop": "fruit_juice",
        "source": "survey"
      }
    },
    {
      "type": "node",
      "id": 2984082852,
      "lat": 12.8885561,
      "lon": 77.5790692,
      "tags": {
        "amenity": "kindergarten",
        "name": "Roots Montessori"
      }
    },
    {
      "type": "node",
      "id": 3010283555,
      "lat": 12.8938911,
      "lon": 77.5861752,
      "tags": {
        "brand": "Honda",
        "brand:wikidata": "Q9584",
        "motorcycle:clothes": "no",
        "motorcycle:parts": "brand",
        "motorcycle:rental": "no",
        "motorcycle:repair": "brand",
        "motorcycle:sales": "brand",
        "name": "Saphire Honda",
        "shop": "motorcycle",
        "source": "voice, GPS",
        "wheelchair": "limited"
      }
    },
    {
      "type": "node",
      "id": 3010283556,
      "lat": 12.8968779,
      "lon": 77.5862819,
      "tags": {
        "butcher": "poultry",
        "name": "Suguna Daily Fresh",
        "shop": "butcher",
        "source": "voice, GPS",
        "wheelchair": "yes"
      }
    },
    {
      "type": "node",
      "id": 3011822779,
      "lat": 12.8918423,
      "lon": 77.5782169,
      "tags": {
        "name": "Indian Art Gallery",
        "shop": "art",
        "source": "survey"
      }
    },
    {
      "type": "node",
      "id": 3011822780,
      "lat": 12.8917717,
      "lon": 77.579072,
      "tags": {
        "name": "Itsy Bitsy",
        "note": "Shop selling craft supplies",
        "shop": "craft_supplies",
        "source": "survey"
      }
    },
    {
      "type": "node",
      "id": 3015982857,
      "lat": 12.8920105,
      "lon": 77.5789782,
      "tags": {
        "amenity": "ultrasound_scanning",
        "name": "Sri Sai Ultrasound Scan Center",
        "note": "Ultrasound Scanning",
        "source": "survey"
      }
    },
    {
      "type": "node",
      "id": 3016090358,
      "lat": 12.8888998,
      "lon": 77.5791519,
      "tags": {
        "amenity": "arts_centre",
        "name": "Arty Facets"
      }
    },
    {
      "type": "node",
      "id": 3016090367,
      "lat": 12.8887777,
      "lon": 77.5791574,
      "tags": {
        "amenity": "kindergarten",
        "name": "Little Elly"
      }
    },
    {
      "type": "node",
      "id": 3016090368,
      "lat": 12.8899461,
      "lon": 77.5789701,
      "tags": {
        "amenity": "arts_centre",
        "name": "Magic Hive",
        "note": "Art classes for children"
      }
    },
    {
      "type": "node",
      "id": 3016587966,
      "lat": 12.901616,
      "lon": 77.5822469,
      "tags": {
        "name": "James Bond Dry Cleaners",
        "shop": "dry_cleaning"
      }
    },
    {
      "type": "node",
      "id": 3016590008,
      "lat": 12.8931345,
      "lon": 77.5816811,
      "tags": {
        "name": "Wood City",
        "shop": "furniture"
      }
    },
    {
      "type": "node",
      "id": 3022074188,
      "lat": 12.8944662,
      "lon": 77.5815515,
      "tags": {
        "name": "Prachi Fashion",
        "shop": "clothes"
      }
    },
    {
      "type": "node",
      "id": 3022113002,
      "lat": 12.8971318,
      "lon": 77.5858778,
      "tags": {
        "name": "The Big Market",
        "shop": "supermarket",
        "wheelchair": "no"
      }
    },
    {
      "type": "node",
      "id": 3034550567,
      "lat": 12.888391,
      "lon": 77.5821194,
      "tags": {
        "amenity": "car_wash",
        "name": "M R Car Wash"
      }
    },
    {
      "type": "node",
      "id": 3034550568,
      "lat": 12.8892751,
      "lon": 77.5817576,
      "tags": {
        "name": "MAC Unisex Salon",
        "shop": "hairdresser",
        "unisex": "yes"
      }
    },
    {
      "type": "node",
      "id": 3048433275,
      "lat": 12.8982318,
      "lon": 77.5827474,
      "tags": {
        "name": "Sri Basaweswara Cycle Mart",
        "service:bicycle:repair": "yes",
        "service:bicycle:retail": "yes",
        "shop": "bicycle",
        "source": "voice"
      }
    },
    {
      "type": "node",
      "id": 3058697531,
      "lat": 12.8943653,
      "lon": 77.5815509,
      "tags": {
        "amenity": "pharmacy",
        "dispensing": "yes",
        "healthcare": "pharmacy",
        "name": "Bankapura Medicals"
      }
    },
    {
      "type": "node",
      "id": 3058697532,
      "lat": 12.8944069,
      "lon": 77.5815499,
      "tags": {
        "name": "Mohan Wines",
        "shop": "alcohol"
      }
    },
    {
      "type": "node",
      "id": 3212034803,
      "lat": 12.8872703,
      "lon": 77.5817854,
      "tags": {
        "amenity": "college",
        "name": "Amaravathy PU College"
      }
    },
    {
      "type": "node",
      "id": 3217683308,
      "lat": 12.8917386,
      "lon": 77.5790448,
      "tags": {
        "check_date": "2023-11-11",
        "name": "Easy Take Retail",
        "shop": "department_store",
        "source": "survey"
      }
    },
    {
      "type": "node",
      "id": 3217683310,
      "lat": 12.9001563,
      "lon": 77.585937,
      "tags": {
        "amenity": "restaurant",
        "cuisine": "punjabi",
        "name": "Funky Punjab",
        "source": "survey",
        "wheelchair": "no"
      }
    },
    {
      "type": "node",
      "id": 3226809435,
      "lat": 12.8966309,
      "lon": 77.5862714,
      "tags": {
        "amenity": "pharmacy",
        "brand": "Apollo Pharmacy",
        "brand:wikidata": "Q62562612",
        "dispensing": "yes",
        "healthcare": "pharmacy",
        "name": "Apollo Pharmacy",
        "name:kn": "ಅಪೋಲೋ ಫಾರ್ಮಸಿ",
        "wheelchair": "limited"
      }
    },
    {
      "type": "node",
      "id": 3226809437,
      "lat": 12.8999259,
      "lon": 77.5859193,
      "tags": {
        "name": "Just Kids",
        "shop": "baby_goods",
        "wheelchair": "no"
      }
    },
    {
      "type": "node",
      "id": 3378187573,
      "lat": 12.8907997,
      "lon": 77.5817018,
      "tags": {
        "name": "Compete",
        "shop": "clothes"
      }
    },
    {
      "type": "node",
      "id": 3378187574,
      "lat": 12.8903606,
      "lon": 77.582483,
      "tags": {
        "amenity": "clinic",
        "healthcare": "clinic",
        "name": "Dr. Mradula's Skin Clinic"
      }
    },
    {
      "type": "node",
      "id": 3388710064,
      "lat": 12.8922269,
      "lon": 77.5811949,
      "tags": {
        "amenity": "bank",
        "atm": "yes",
        "brand": "State Bank of India",
        "brand:wikidata": "Q1340361",
        "brand:wikipedia": "en:State Bank of India",
        "name": "State Bank of India",
        "name:kn": "ಭಾರತೀಯ ಸ್ಟೇಟ್ ಬ್ಯಾಂಕ್",
        "operator": "State Bank of India",
        "short_name": "SBI",
        "source": "survey"
      }
    },
    {
      "type": "node",
      "id": 3721889726,
      "lat": 12.893592,
      "lon": 77.586205,
      "tags": {
        "addr:city": "Bengaluru",
        "addr:country": "IN",
        "addr:postcode": "560078",
        "addr:province": "JP Nagar 7th Phase",
        "addr:state": "KA",
        "addr:street": "24th Main",
        "name": "Reliance Smart Point",
        "operator": "Reliance Retail",
        "shop": "supermarket",
        "wheelchair": "no"
      }
    },
    {
      "type": "node",
      "id": 3769905375,
      "lat": 12.8865522,
      "lon": 77.5822712,
      "tags": {
        "name": "Classic Men's Parlour",
        "shop": "hairdresser"
      }
    },
    {
      "type": "node",
      "id": 3769908094,
      "lat": 12.8905953,
      "lon": 77.582004,
      "tags": {
        "name": "S P Enterprises",
        "shop": "copyshop"
      }
    },
    {
      "type": "node",
      "id": 3812492578,
      "lat": 12.8917806,
      "lon": 77.5792737,
      "tags": {
        "amenity": "restaurant",
        "cuisine": "indian",
        "description": "Chinese, Thai, Italian Restaurant",
        "name": "Chiah Hok",
        "source": "GPS"
      }
    },
    {
      "type": "node",
      "id": 4140907932,
      "lat": 12.8918925,
      "lon": 77.579749,
      "tags": {
        "amenity": "bank",
        "brand": "State Bank of India",
        "brand:wikidata": "Q1340361",
        "brand:wikipedia": "en:State Bank of India",
        "name": "State Bank of India",
        "name:kn": "ಭಾರತೀಯ ಸ್ಟೇಟ್ ಬ್ಯಾಂಕ್",
        "short_name": "SBI",
        "source": "gps",
        "website": "https://www.sbi.co.in"
      }
    },
    {
      "type": "node",
      "id": 4274764090,
      "lat": 12.8867108,
      "lon": 77.5821914,
      "tags": {
        "addr:street": "Kothnur Main Road",
        "amenity": "fast_food",
        "cuisine": "indian;local",
        "name": "Goli Vadapav"
      }
    },
    {
      "type": "node",
      "id": 4277617894,
      "lat": 12.8867949,
      "lon": 77.5820014,
      "tags": {
        "amenity": "atm",
        "brand": "Axis Bank",
        "brand:wikidata": "Q2003549",
        "name": "Axis Bank",
        "name:kn": "ಆಕ್ಸಿಸ್ ಬ್ಯಾಂಕ್",
        "opening_hours": "24/7",
        "operator": "Axis Bank",
        "operator:wikidata": "Q2003549"
      }
    },
    {
      "type": "node",
      "id": 4277617895,
      "lat": 12.8873668,
      "lon": 77.5821022,
      "tags": {
        "addr:street": "Kothnur Main Road",
        "name": "Lovely Fashion",
        "shop": "clothes"
      }
    },
    {
      "type": "node",
      "id": 4277617990,
      "lat": 12.8866632,
      "lon": 77.5822067,
      "tags": {
        "addr:street": "Kothnur Main Road",
        "amenity": "fast_food",
        "name": "Momo Jojo"
      }
    },
    {
      "type": "node",
      "id": 4279512290,
      "lat": 12.8862164,
      "lon": 77.5822787,
      "tags": {
        "name": "Fast Track",
        "shop": "car_parts"
      }
    },
    {
      "type": "node",
      "id": 4279536689,
      "lat": 12.8862711,
      "lon": 77.5822631,
      "tags": {
        "addr:street": "Kothnur Main Road",
        "name": "Delhi Sweets",
        "shop": "confectionery"
      }
    },
    {
      "type": "node",
      "id": 4302885789,
      "lat": 12.8866506,
      "lon": 77.5822279,
      "tags": {
        "addr:street": "Kothnur Main Road",
        "amenity": "restaurant",
        "cuisine": "indian",
        "name": "Athithi Gruha",
        "name:kn": "ಅತಿಥಿ ಗೃಹ"
      }
    },
    {
      "type": "node",
      "id": 4319002290,
      "lat": 12.88809,
      "lon": 77.5802594,
      "tags": {
        "addr:floor": "1;G",
        "addr:street": "5th Main Road",
        "amenity": "bank",
        "atm": "yes",
        "brand": "State Bank of India",
        "brand:wikidata": "Q1340361",
        "brand:wikipedia": "en:State Bank of India",
        "check_date": "2023-09-20",
        "description": "Puttenahalli Branch",
        "internet_access": "no",
        "name": "State Bank of India",
        "name:kn": "ಭಾರತೀಯ ಸ್ಟೇಟ್ ಬ್ಯಾಂಕ್",
        "opening_hours": "Mo-Sa 10:00-16:00",
        "short_name": "SBI",
        "website": "https://www.sbi.co.in",
        "wheelchair": "yes"
      }
    },
    {
      "type": "node",
      "id": 4445183051,
      "lat": 12.8963221,
      "lon": 77.5784799,
      "tags": {
        "addr:city": "BANGALORE",
        "addr:housenumber": "8 & 9",
        "addr:postcode": "560068",
        "addr:street": "Near R N S Motors, GB Palya, Hosur Road, Near Bommanahalli Signal, Bommasandra Industrial Area",
        "amenity": "school",
        "name": "Narayana e-Techno School",
        "phone": "+9170222 93935",
        "website": "narayanaetechnoschools.com"
      }
    },
    {
      "type": "node",
      "id": 4447319197,
      "lat": 12.8864701,
      "lon": 77.5867609,
      "tags": {
        "addr:city": "bangalore",
        "addr:housenumber": "94/95",
        "addr:postcode": "560078",
        "addr:street": "shop no 9, wilson garden society, opp.RBI layout, kothanur main road, j.p nagar 7th phase,",
        "amenity": "pharmacy",
        "healthcare": "pharmacy",
        "name": "Shree Lakshmi Medicals",
        "phone": "+9198454 32766"
      }
    },
    {
      "type": "node",
      "id": 4447380525,
      "lat": 12.8888667,
      "lon": 77.5820897,
      "tags": {
        "addr:city": "Bangalore",
        "addr:housenumber": "13/A",
        "addr:postcode": "560078",
        "addr:street": "Wilson Garden Housing Society,, Kothnur Village Main Rd, JP Nagar 7th Phase",
        "name": "Vita Plus Clinic",
        "phone": "080 4094 4115",
        "shop": "medical_supply",
        "source": "justdial"
      }
    },
    {
      "type": "node",
      "id": 4488140181,
      "lat": 12.8949497,
      "lon": 77.5815742,
      "tags": {
        "addr:city": "Bangalore",
        "addr:housenumber": "No. 21",
        "addr:postcode": "560078",
        "addr:street": "12th Main Road, Kothanur Main Road, J.P. Nagar, 7 Phase, Bengaluru",
        "name": "Cycle World",
        "opening_hours": "Mo-Su 09:30-21:00",
        "phone": "080 4092 1041",
        "shop": "sports"
      }
    },
    {
      "type": "node",
      "id": 4488456645,
      "lat": 12.9002999,
      "lon": 77.5860464,
      "tags": {
        "addr:city": "Bangalore",
        "addr:housenumber": "14/1",
        "addr:postcode": "560078",
        "addr:street": "23rd Main Rd, Nagaraja Garden, J P Nagar Phase 5, JP Nagar",
        "leisure": "sports_centre",
        "name": "WE Fitness, Health and Wellness Center",
        "opening_hours": "5:30-22:00",
        "phone": "080 8805 33338",
        "sport": "gymnastics",
        "website": "https://wefithealth.com/",
        "wheelchair": "limited"
      }
    },
    {
      "type": "node",
      "id": 4489776093,
      "lat": 12.8866699,
      "lon": 77.5819859,
      "tags": {
        "addr:housenumber": "NO.31",
        "addr:street": "KOTHANUR MAIN ROAD, NEXT TO BIG BAZAAR, RBI LAYOUT, JP NAGAR, 7TH PHASE, RBI East Layout, JP Nagar 7th Phase, JP Nagar,",
        "leisure": "sports_centre",
        "name": "Snap Fitness",
        "phone": "8041314822",
        "sport": "gymnasium",
        "website": "snapfitnessindia.com"
      }
    },
    {
      "type": "node",
      "id": 4489814074,
      "lat": 12.8915823,
      "lon": 77.5769612,
      "tags": {
        "addr:city": "bangalore",
        "addr:housenumber": "No. 724",
        "addr:postcode": "560078",
        "addr:street": ", Rini Pearl, 2nd Floor, Opposite To EK Retail, RBI Layout, Krishna Nagar, Elita Promenade, JP Nagar 7th Phase, JP Nagar, Kothnur, Karnataka",
        "leisure": "sports_centre",
        "name": "N-Gage Fitness Center",
        "opening_hours": "5:30-22:00",
        "phone": "080500 00016"
      }
    },
    {
      "type": "node",
      "id": 4574199494,
      "lat": 12.8940807,
      "lon": 77.5866165,
      "tags": {
        "addr:city": "Bengaluru",
        "addr:housenumber": "1231/35/2, 24th Main,",
        "addr:postcode": "560076",
        "addr:street": "Opposite Brigade Palm Springs, Brigade Millenium Rd, JP Nagar 7th Phase,",
        "amenity": "restaurant",
        "name": "Hakuna Matata",
        "name:en": "Hakuna Matata",
        "phone": "+919741133866",
        "wheelchair": "limited"
      }
    },
    {
      "type": "node",
      "id": 6073775977,
      "lat": 12.9004635,
      "lon": 77.5857728,
      "tags": {
        "addr:city": "Bangalore",
        "addr:postcode": "560078",
        "addr:street": "24th Main Road",
        "amenity": "cafe",
        "cuisine": "tea;sandwich;chicken;regional",
        "internet_access": "no",
        "name": "Paani kum Chai",
        "smoking": "no",
        "wheelchair": "no"
      }
    },
    {
      "type": "node",
      "id": 6074032575,
      "lat": 12.9001446,
      "lon": 77.5859196,
      "tags": {
        "addr:street": "24th Main, JP Nagar, 5th phase",
        "amenity": "cafe",
        "name": "Once In Nature (Organic Cafe)"
      }
    },
    {
      "type": "node",
      "id": 6075065398,
      "lat": 12.9005012,
      "lon": 77.5859088,
      "tags": {
        "addr:street": "24th main, JP Nagar, 5th Phase",
        "amenity": "pharmacy",
        "brand": "MedPlus",
        "brand:wikidata": "Q65684234",
        "healthcare": "pharmacy",
        "name": "MedPlus",
        "name:kn": "ಮೆಡ್‍ಪ್ಲಸ್"
      }
    },
    {
      "type": "node",
      "id": 6079457673,
      "lat": 12.9001036,
      "lon": 77.585916,
      "tags": {
        "addr:city": "Bangalore",
        "addr:postcode": "560078",
        "addr:street": "24th Main Road",
        "amenity": "restaurant",
        "name": "Hotel Sankaranarayana Tiffanes",
        "wheelchair": "no"
      }
    },
    {
      "type": "node",
      "id": 6081211670,
      "lat": 12.8999597,
      "lon": 77.5856543,
      "tags": {
        "amenity": "school",
        "name": "Tiny Angels English Primary School",
        "wheelchair": "limited"
      }
    },
    {
      "type": "node",
      "id": 6082612990,
      "lat": 12.8998226,
      "lon": 77.5859426,
      "tags": {
        "addr:street": "24th main road, 5th phase, JP Nagar",
        "amenity": "clinic",
        "healthcare": "clinic",
        "name": "Sahasrara Neurosciences Clinic",
        "wheelchair": "no"
      }
    },
    {
      "type": "node",
      "id": 6082618914,
      "lat": 12.8998179,
      "lon": 77.5859162,
      "tags": {
        "addr:street": "24th main road, 5th Phase, JP Nagar",
        "name": "Adam & Eve's Unisex Salon",
        "shop": "beauty"
      }
    },
    {
      "type": "node",
      "id": 6082627939,
      "lat": 12.899352,
      "lon": 77.5859233,
      "tags": {
        "addr:street": "24th main road, 5th phase, JP Nagar",
        "name": "Bright Go Nuts",
        "shop": "chocolate"
      }
    },
    {
      "type": "node",
      "id": 6082646035,
      "lat": 12.8995515,
      "lon": 77.5859527,
      "tags": {
        "addr:street": "24th main road, 5th phase, JP Nagar",
        "name": "Velvet Studio",
        "shop": "massage"
      }
    },
    {
      "type": "node",
      "id": 6082648286,
      "lat": 12.8994481,
      "lon": 77.5859306,
      "tags": {
        "addr:street": "24th main road, 5th phase, JP Nagar",
        "amenity": "ice_cream",
        "name": "Roll Over"
      }
    },
    {
      "type": "node",
      "id": 6082778308,
      "lat": 12.9001386,
      "lon": 77.5859319,
      "tags": {
        "addr:city": "Bangalore",
        "addr:postcode": "560078",
        "addr:street": "24th Main Road",
        "name": "Arogya Organic",
        "organic": "only",
        "shop": "supermarket"
      }
    },
    {
      "type": "node",
      "id": 6338071474,
      "lat": 12.899703,
      "lon": 77.5859281,
      "tags": {
        "amenity": "fast_food",
        "name": "Kolkata Famous Kati Roll",
        "wheelchair": "no"
      }
    },
    {
      "type": "node",
      "id": 6338071475,
      "lat": 12.8994281,
      "lon": 77.5858873,
      "tags": {
        "amenity": "fast_food",
        "name": "Chaatimes"
      }
    },
    {
      "type": "node",
      "id": 6338071926,
      "lat": 12.8996119,
      "lon": 77.5859158,
      "tags": {
        "brand": "Lenskart",
        "brand:wikidata": "Q17068753",
        "name": "Lenskart.com",
        "shop": "optician"
      }
    },
    {
      "type": "node",
      "id": 6341376490,
      "lat": 12.8973677,
      "lon": 77.5858738,
      "tags": {
        "addr:street": "JP Nagar 6th Phase, JP Nagar",
        "amenity": "restaurant",
        "name": "Kakal Kai Ruchi",
        "name:kn": "ಕಾಕಲ್ ಕೈ ರುಚಿ",
        "name:ta": "கக்கல் கை ருச்சி",
        "wheelchair": "limited"
      }
    },
    {
      "type": "node",
      "id": 6349500173,
      "lat": 12.8975384,
      "lon": 77.582022,
      "tags": {
        "addr:place": "Puttenhalli",
        "amenity": "school",
        "isced:level": "2",
        "name": "GMPS Puttenhalli",
        "name:kn": "ಸರ್ಕಾರಿ ಮಾದರಿ ಪ್ರಾಥಮಿಕ ಶಾಲೆ ಪುಟ್ಟೇನಹಳ್ಳಿ",
        "operator": "Department of Education",
        "school": "primary"
      }
    },
    {
      "type": "node",
      "id": 6438101117,
      "lat": 12.8898311,
      "lon": 77.5728954,
      "tags": {
        "addr:place": "Chunchanagatta",
        "amenity": "school",
        "isced:level": "3",
        "name": "Carmel Jyothi LPS, Chunchanagatta",
        "name:kn": "ಕಾರ್ಮೆಲ್ ಜ್ಯೋತಿ ಕಿರಿಯ ಪ್ರಾಥಮಿಕ ಶಾಲೆ , ಚುಂಚನಗಟ್ಟಾ",
        "operator": "Private Un-Aided",
        "school": "Higher Secondary"
      }
    },
    {
      "type": "node",
      "id": 6531910522,
      "lat": 12.8959609,
      "lon": 77.5886375,
      "tags": {
        "addr:place": "Jaraganahalli",
        "amenity": "school",
        "isced:level": "3",
        "name": "Holy Mother HPS J P Nagara, Jaragana Halli 1",
        "name:kn": "ಹೋಲಿ ಮದರ್ ಹಿರಿಯ ಪ್ರಾಥಮಿಕ ಶಾಲೆ ಜೆ.ಪಿ. ನಗರ,ಜರಗನ ಹಳ್ಳಿ",
        "operator": "Private Un-Aided",
        "school": "Higher Secondary"
      }
    },
    {
      "type": "node",
      "id": 6531954352,
      "lat": 12.8991056,
      "lon": 77.5763195,
      "tags": {
        "addr:place": "Jaraganahalli",
        "amenity": "school",
        "isced:level": "2",
        "name": "Vivekananda HPS, Jaragana Halli 1",
        "name:kn": "ವಿವೇಕಾನಂದ ಹಿರಿಯ ಪ್ರಾಥಮಿಕ ಶಾಲೆ,ಜರಗನ ಹಳ್ಳಿ",
        "operator": "Private Un-Aided",
        "school": "Higher Primary"
      }
    },
    {
      "type": "node",
      "id": 6536295717,
      "lat": 12.8996164,
      "lon": 77.5756288,
      "tags": {
        "addr:place": "Jaraganahalli",
        "amenity": "school",
        "isced:level": "2",
        "name": "Sincere Vidyalaya Jaraganahalli 1",
        "name:kn": "ಸಿನ್ಸೆರೆ  ವಿದ್ಯಾಲಯ ಜರಗನ ಹಳ್ಳಿ",
        "operator": "Private Un-Aided",
        "school": "Higher Primary"
      }
    },
    {
      "type": "node",
      "id": 6536296413,
      "lat": 12.9004587,
      "lon": 77.5851709,
      "tags": {
        "addr:place": "Jaraganahalli",
        "amenity": "school",
        "isced:level": "3",
        "name": "Image School J P Nagar, Jaraganahalli 2",
        "name:kn": "ಇಮೇಜ್ ಶಾಲೆ ಜೆ.ಪಿ.ನಗರ,ಜರಗನ ಹಳ್ಳಿ",
        "operator": "Private Un-Aided",
        "school": "Higher Secondary"
      }
    },
    {
      "type": "node",
      "id": 6938692472,
      "lat": 12.8919509,
      "lon": 77.5799654,
      "tags": {
        "addr:district": "Bengaluru Urban",
        "addr:full": "No.2, Chandra Complex,J.P.Nagar, 7Th Phase,Puttenahalli,OppositeRbi Cly",
        "addr:postcode": "560078",
        "addr:state": "Karnataka",
        "amenity": "hospital",
        "healthcare": "hospital",
        "name": "Supra South City Hospital",
        "source": "OpenGovernmentData"
      }
    },
    {
      "type": "node",
      "id": 6939068111,
      "lat": 12.8922411,
      "lon": 77.5814514,
      "tags": {
        "addr:district": "Bengaluru Urban",
        "addr:full": "No. 33, Om Tower, Kothnur Main Road, Gaurav Nagar, Jp Nagar, 7Th Phase",
        "addr:postcode": "560078",
        "addr:state": "Karnataka",
        "amenity": "clinic",
        "contact:phone": "06309937245",
        "name": "The Apollo Clinic For Health Check Up",
        "source": "OpenGovernmentData"
      }
    },
    {
      "type": "node",
      "id": 7633350176,
      "lat": 12.8856424,
      "lon": 77.5825719,
      "tags": {
        "name": "j.p.nagar pet shop",
        "opening_hours:covid19": "off",
        "operator:type": "private",
        "shop": "pet"
      }
    },
    {
      "type": "node",
      "id": 7633350177,
      "lat": 12.8856424,
      "lon": 77.5825349,
      "tags": {
        "name": "The Pets",
        "shop": "pet"
      }
    },
    {
      "type": "node",
      "id": 8122589859,
      "lat": 12.8917783,
      "lon": 77.577424,
      "tags": {
        "amenity": "fuel",
        "brand": "Indian Oil",
        "brand:wikidata": "Q1289348",
        "name": "Patel Fuel"
      }
    },
    {
      "type": "node",
      "id": 10687931404,
      "lat": 12.891779,
      "lon": 77.5771096,
      "tags": {
        "addr:street": "Nr Ragvendra Swami Layout",
        "amenity": "fuel",
        "brand": "Shell",
        "brand:wikidata": "Q110716465",
        "fuel:GTL_diesel": "yes",
        "fuel:octane_95": "yes",
        "fuel:octane_98": "yes",
        "name": "Shell Pertol Station",
        "operator": "Shell"
      }
    },
    {
      "type": "node",
      "id": 10889979200,
      "lat": 12.8919852,
      "lon": 77.5802555,
      "tags": {
        "amenity": "fast_food",
        "check_date": "2023-09-17",
        "name": "Bangarpet Chats"
      }
    },
    {
      "type": "node",
      "id": 11183717719,
      "lat": 12.8920864,
      "lon": 77.5817853,
      "tags": {
        "amenity": "pharmacy",
        "brand": "Wellness Forever",
        "check_date": "2023-09-11",
        "healthcare": "pharmacy",
        "name": "Wellness Forever",
        "opening_hours": "24/7",
        "wheelchair": "limited"
      }
    },
    {
      "type": "node",
      "id": 11196248277,
      "lat": 12.8917341,
      "lon": 77.5775977,
      "tags": {
        "amenity": "pharmacy",
        "check_date": "2023-09-16",
        "healthcare": "pharmacy",
        "name": "Life Care Medicals"
      }
    },
    {
      "type": "node",
      "id": 11196248278,
      "lat": 12.8915279,
      "lon": 77.5776152,
      "tags": {
        "check_date": "2023-09-16",
        "description": "Fruits and Vegetables",
        "name": "Fresho",
        "payment:cash": "yes",
        "payment:mastercard": "yes",
        "payment:upi": "yes",
        "payment:visa": "yes",
        "shop": "supermarket"
      }
    },
    {
      "type": "node",
      "id": 11196248279,
      "lat": 12.8919652,
      "lon": 77.5806493,
      "tags": {
        "amenity": "pharmacy",
        "brand": "MedPlus",
        "brand:wikidata": "Q65684234",
        "check_date": "2023-09-16",
        "healthcare": "pharmacy",
        "name": "MedPlus",
        "payment:mastercard": "yes",
        "payment:visa": "yes"
      }
    },
    {
      "type": "node",
      "id": 11198130054,
      "lat": 12.8919377,
      "lon": 77.580094,
      "tags": {
        "check_date": "2023-09-17",
        "name": "Everfine Supermarket",
        "payment:mastercard": "yes",
        "payment:visa": "yes",
        "shop": "supermarket"
      }
    },
    {
      "type": "node",
      "id": 11198130055,
      "lat": 12.8919781,
      "lon": 77.5804337,
      "tags": {
        "amenity": "ice_cream",
        "check_date": "2023-09-17",
        "name": "ibaco",
        "payment:mastercard": "yes",
        "payment:visa": "yes"
      }
    },
    {
      "type": "node",
      "id": 11201585563,
      "lat": 12.8882593,
      "lon": 77.5820636,
      "tags": {
        "check_date": "2023-09-19",
        "name": "Sunshine Dry Cleaners",
        "opening_hours": "10:00-21:00",
        "payment:cash": "yes",
        "payment:mastercard": "yes",
        "payment:upi": "yes",
        "payment:visa": "yes",
        "phone": "+91 80 4866 3227",
        "shop": "dry_cleaning"
      }
    },
    {
      "type": "node",
      "id": 11201648143,
      "lat": 12.8872931,
      "lon": 77.5821444,
      "tags": {
        "addr:floor": "1",
        "amenity": "restaurant",
        "check_date": "2023-09-19",
        "diet:vegetarian": "yes",
        "name": "Danapani",
        "payment:mastercard": "yes",
        "payment:visa": "yes",
        "wheelchair": "no"
      }
    },
    {
      "type": "node",
      "id": 11205380683,
      "lat": 12.8872081,
      "lon": 77.5818638,
      "tags": {
        "addr:floor": "3",
        "check_date": "2023-09-20",
        "leisure": "fitness_centre",
        "name": "iconic FITNESS",
        "opening_hours": "24/7",
        "payment:mastercard": "yes",
        "payment:visa": "yes",
        "phone": "+91 70263 22322",
        "website": "https://iconicfitnessindia.com"
      }
    },
    {
      "type": "node",
      "id": 11205380684,
      "lat": 12.8873978,
      "lon": 77.5818993,
      "tags": {
        "access": "yes",
        "addr:floor": "G",
        "amenity": "toilets",
        "check_date": "2023-09-20"
      }
    },
    {
      "type": "node",
      "id": 11205380685,
      "lat": 12.8880434,
      "lon": 77.5816502,
      "tags": {
        "amenity": "doctors",
        "check_date": "2023-09-20",
        "healthcare": "doctor",
        "healthcare:speciality": "ophthalmology",
        "name": "Lions Eye Hospital",
        "opening_hours": "Mo-Sa 09:30-19:30"
      }
    },
    {
      "type": "node",
      "id": 11205380686,
      "lat": 12.888287,
      "lon": 77.5795047,
      "tags": {
        "amenity": "pharmacy",
        "check_date": "2023-09-20",
        "healthcare": "pharmacy",
        "name": "Hoysala Medical Stores"
      }
    },
    {
      "type": "node",
      "id": 11212204420,
      "lat": 12.8869169,
      "lon": 77.5821685,
      "tags": {
        "check_date": "2023-09-22",
        "name": "The Cake Shop",
        "opening_hours": "10:00-22:00",
        "payment:upi": "yes",
        "shop": "pastry"
      }
    },
    {
      "type": "node",
      "id": 11255169451,
      "lat": 12.8896074,
      "lon": 77.5824523,
      "tags": {
        "check_date": "2023-10-11",
        "name": "Ojas Nisarga",
        "organic": "only",
        "phone": "+91 94498 48632",
        "shop": "supermarket"
      }
    },
    {
      "type": "node",
      "id": 11261890103,
      "lat": 12.8914742,
      "lon": 77.5816905,
      "tags": {
        "check_date": "2023-10-14",
        "name": "Organic Mandya",
        "organic": "only",
        "payment:cash": "yes",
        "payment:mastercard": "yes",
        "payment:upi": "yes",
        "payment:visa": "yes",
        "shop": "supermarket"
      }
    },
    {
      "type": "node",
      "id": 11261890104,
      "lat": 12.8914809,
      "lon": 77.5816776,
      "tags": {
        "check_date": "2023-10-14",
        "name": "Washing Hut",
        "phone": "+91 95383 35522",
        "shop": "laundry"
      }
    },
    {
      "type": "node",
      "id": 11261890105,
      "lat": 12.8882497,
      "lon": 77.577855,
      "tags": {
        "check_date": "2023-10-14",
        "name": "Garden Fresh Mart",
        "payment:cash": "yes",
        "payment:mastercard": "yes",
        "payment:upi": "yes",
        "payment:visa": "yes",
        "shop": "supermarket"
      }
    },
    {
      "type": "node",
      "id": 11305178269,
      "lat": 12.8932346,
      "lon": 77.5864718,
      "tags": {
        "addr:postcode": "560078",
        "addr:street": "24th Main Road",
        "amenity": "restaurant",
        "cuisine": "barbecue;burger;chinese;curry;deli;friture;indian",
        "name": "Brahma Brews",
        "wheelchair": "limited"
      }
    },
    {
      "type": "node",
      "id": 11341600707,
      "lat": 12.8917413,
      "lon": 77.5790745,
      "tags": {
        "check_date": "2023-11-11",
        "name": "Dry Fruit Gallery",
        "shop": "nuts"
      }
    },
    {
      "type": "node",
      "id": 11341600708,
      "lat": 12.891681,
      "lon": 77.5786041,
      "tags": {
        "check_date": "2023-11-11",
        "name": "Bindass Basket",
        "shop": "supermarket"
      }
    },
    {
      "type": "node",
      "id": 11341600710,
      "lat": 12.8895786,
      "lon": 77.5790231,
      "tags": {
        "check_date": "2023-11-11",
        "leisure": "fitness_centre",
        "name": "Rajyoga Meditation Center",
        "sport": "yoga"
      }
    },
    {
      "type": "node",
      "id": 11342817075,
      "lat": 12.894055,
      "lon": 77.5859173,
      "tags": {
        "access": "private",
        "amenity": "parking_entrance",
        "parking": "underground"
      }
    },
    {
      "type": "node",
      "id": 11799677682,
      "lat": 12.8919593,
      "lon": 77.5834972,
      "tags": {
        "access": "permissive",
        "amenity": "parking_entrance",
        "parking": "underground"
      }
    },
    {
      "type": "node",
      "id": 11799677685,
      "lat": 12.8917881,
      "lon": 77.583915,
      "tags": {
        "amenity": "cafe",
        "name": "Third Wave Coffee Roasters",
        "wheelchair": "limited"
      }
    },
    {
      "type": "node",
      "id": 12033502400,
      "lat": 12.8978992,
      "lon": 77.5859308,
      "tags": {
        "addr:street": "24th Main Road, JP Nagar 6th Phase, Puttenahalli, Bengaluru",
        "amenity": "fast_food",
        "description": "A Nepali street vendor offering Veg & Non-Veg Momos",
        "name": "Kathmandu Momos"
      }
    },
    {
      "type": "node",
      "id": 12069343569,
      "lat": 12.8870224,
      "lon": 77.5819791,
      "tags": {
        "amenity": "cafe",
        "name": "Coffee Stories"
      }
    },
    {
      "type": "node",
      "id": 12102864716,
      "lat": 12.8963113,
      "lon": 77.5810732,
      "tags": {
        "amenity": "pub",
        "name": "The Palms Brew & Kitchen"
      }
    },
    {
      "type": "node",
      "id": 12522542151,
      "lat": 12.8975646,
      "lon": 77.5858239,
      "tags": {
        "addr:city": "Bangalore",
        "addr:housenumber": "44/45",
        "addr:postcode": "560078",
        "addr:street": "24th Main Rd, Ramaiah Garden, JP Nagar 7th Phase, J. P. Nagar",
        "name": "Sana Super Mart",
        "shop": "supermarket",
        "wheelchair": "limited"
      }
    },
    {
      "type": "node",
      "id": 12553339185,
      "lat": 12.8880311,
      "lon": 77.5821301,
      "tags": {
        "addr:city": "Bengaluru",
        "addr:district": "Bengaluru Urban",
        "addr:full": "4th floor #18,Site 99/2A,Puttenhalli, Kothnur Main Rd, RBI Layout, JP Nagar 7th Phase",
        "addr:postcode": "560078",
        "addr:street": "Kothnur Main Road",
        "name": "Ziva spa JP Nagar",
        "opening_hours": "Mo-Su 10:00-21:00",
        "operator": "Mr. Bibin",
        "phone": "09110263455",
        "shop": "beauty",
        "website": "https://zivaspa.in/"
      }
    },
    {
      "type": "node",
      "id": 12553373583,
      "lat": 12.8914399,
      "lon": 77.577242,
      "tags": {
        "addr:city": "Bengaluru",
        "addr:district": "Bengaluru Urban",
        "addr:full": "720 opp Shell Service Station RBI Layout Chunchgatta Main Road Kothnur, JP Nagar 7th Phase",
        "addr:postcode": "560078",
        "addr:street": "Chunchagatta Main Road",
        "beauty": "spa;massage",
        "name": "Dhara Spa JP Nagar",
        "opening_hours": "Mo-Su 10:30-21:00",
        "operator": "Mr. Ajith",
        "phone": "08618560995",
        "shop": "beauty",
        "website": "https://dharaspa.com/spa-in-jp-nagar/"
      }
    },
    {
      "type": "node",
      "id": 12631801632,
      "lat": 12.8895956,
      "lon": 77.5817507,
      "tags": {
        "addr:city": "Bengaluru",
        "addr:district": "Bengaluru Urban",
        "addr:housenumber": "473",
        "addr:postcode": "560078",
        "addr:street": "Kothnur Main Road, Second Floor, Swathi Towers, Near Dominos Pizza and Bank of Baroda",
        "amenity": "restaurant",
        "cuisine": "south_indian",
        "delivery": "yes",
        "diet:pure_veg": "yes",
        "name": "The Kadubu Canteen",
        "opening_hours": "We-Mo 07:00-11:00",
        "phone": "+919840084449",
        "takeaway": "only",
        "website": "https://kadubucanteen.in"
      }
    },
    {
      "type": "node",
      "id": 12862846473,
      "lat": 12.8934013,
      "lon": 77.5862037,
      "tags": {
        "amenity": "fast_food",
        "contact:instagram": "goodflippin",
        "cuisine": "burger",
        "delivery": "yes",
        "name": "Good Flippin' Burgers",
        "takeaway": "yes",
        "website": "https://goodflippin.com/"
      }
    },
    {
      "type": "node",
      "id": 13131134797,
      "lat": 12.8979821,
      "lon": 77.5859322,
      "tags": {
        "amenity": "fast_food",
        "cuisine": "indian",
        "name": "Babu Vada Pav"
      }
    },
    {
      "type": "node",
      "id": 13288585472,
      "lat": 12.8980466,
      "lon": 77.585608,
      "tags": {
        "amenity": "fast_food",
        "delivery": "only",
        "name": "Kreid Ko",
        "takeaway": "only"
      }
    },
    {
      "type": "way",
      "id": 177266968,
      "center": {
        "lat": 12.8889766,
        "lon": 77.5784217
      },
      "tags": {
        "leisure": "park",
        "name": "BBMP Park",
        "name:kn": "ಬೃ. ಬೆ. ಮ. ಪಾ. ಉದ್ಯಾನವನ",
        "operator": "ಬೃಹತ್ ಬೆಂಗಳೂರು ಮಹಾನಗರ ಪಾಲಿಕೆ",
        "operator:en": "Bruhat Bengaluru Mahanagara Palike",
        "operator:ka": "ಬೃಹತ್ ಬೆಂಗಳೂರು ಮಹಾನಗರ ಪಾಲಿಕೆ",
        "operator:short": "BBMP",
        "operator:type": "government",
        "operator:wikidata": "Q4978693",
        "source": "Bing, local knowledge"
      }
    },
    {
      "type": "way",
      "id": 182218210,
      "center": {
        "lat": 12.88884,
        "lon": 77.5807644
      },
      "tags": {
        "landuse": "recreation_ground",
        "leisure": "pitch",
        "name": "RBI Layout Grounds"
      }
    },
    {
      "type": "way",
      "id": 182221986,
      "center": {
        "lat": 12.8880561,
        "lon": 77.5805909
      },
      "tags": {
        "leisure": "park"
      }
    },
    {
      "type": "way",
      "id": 184457975,
      "center": {
        "lat": 12.8909522,
        "lon": 77.5802609
      },
      "tags": {
        "leisure": "park"
      }
    },
    {
      "type": "way",
      "id": 184966375,
      "center": {
        "lat": 12.8870769,
        "lon": 77.5816341
      },
      "tags": {
        "leisure": "park"
      }
    },
    {
      "type": "way",
      "id": 191574181,
      "center": {
        "lat": 12.8883127,
        "lon": 77.5835148
      },
      "tags": {
        "leisure": "park"
      }
    },
    {
      "type": "way",
      "id": 206841897,
      "center": {
        "lat": 12.8975086,
        "lon": 77.5820337
      },
      "tags": {
        "amenity": "school"
      }
    },
    {
      "type": "way",
      "id": 314367623,
      "center": {
        "lat": 12.8877137,
        "lon": 77.5784927
      },
      "tags": {
        "addr:city": "Bengaluru",
        "addr:housename": "Augusta Club, Brigade Gardenia",
        "addr:place": "Brigade Gardania",
        "addr:postcode": "560078",
        "amenity": "public_building",
        "building": "yes",
        "name": "Augusta Club"
      }
    },
    {
      "type": "way",
      "id": 314368699,
      "center": {
        "lat": 12.8860335,
        "lon": 77.5789084
      },
      "tags": {
        "leisure": "playground"
      }
    },
    {
      "type": "way",
      "id": 314368700,
      "center": {
        "lat": 12.8878405,
        "lon": 77.578451
      },
      "tags": {
        "leisure": "park",
        "name": "Trees"
      }
    },
    {
      "type": "way",
      "id": 314368701,
      "center": {
        "lat": 12.8875921,
        "lon": 77.5784283
      },
      "tags": {
        "access": "private",
        "covered": "no",
        "leisure": "swimming_pool",
        "name": "Pool, Augusta Club",
        "sport": "swimming"
      }
    },
    {
      "type": "way",
      "id": 314368702,
      "center": {
        "lat": 12.8874841,
        "lon": 77.5779472
      },
      "tags": {
        "leisure": "park",
        "name": "Trees"
      }
    },
    {
      "type": "way",
      "id": 314368703,
      "center": {
        "lat": 12.8867528,
        "lon": 77.578667
      },
      "tags": {
        "leisure": "park",
        "name": "Trees"
      }
    },
    {
      "type": "way",
      "id": 314368704,
      "center": {
        "lat": 12.8859304,
        "lon": 77.5790196
      },
      "tags": {
        "leisure": "park"
      }
    },
    {
      "type": "way",
      "id": 347604056,
      "center": {
        "lat": 12.8926302,
        "lon": 77.5865551
      },
      "tags": {
        "building": "yes",
        "name": "New Mangalore Stores",
        "shop": "convenience"
      }
    },
    {
      "type": "way",
      "id": 348096775,
      "center": {
        "lat": 12.8864258,
        "lon": 77.5817222
      },
      "tags": {
        "amenity": "public_building",
        "building": "yes",
        "name": "BBMP Office",
        "name:kn": "ಬೃ. ಬೆಂ. ಮ. ಪಾ. ಕಛೇರಿ",
        "office": "government"
      }
    },
    {
      "type": "way",
      "id": 348097264,
      "center": {
        "lat": 12.8864253,
        "lon": 77.5815271
      },
      "tags": {
        "amenity": "public_building",
        "building": "yes",
        "name": "Bangalore One",
        "name:kn": "ಬೆಂಗಳೂರು ಓನ್"
      }
    },
    {
      "type": "way",
      "id": 362882089,
      "center": {
        "lat": 12.889091,
        "lon": 77.5904551
      },
      "tags": {
        "leisure": "park",
        "name": "South City Park"
      }
    },
    {
      "type": "way",
      "id": 439843203,
      "center": {
        "lat": 12.891643,
        "lon": 77.5843737
      },
      "tags": {
        "leisure": "park",
        "wheelchair": "limited"
      }
    },
    {
      "type": "way",
      "id": 439843207,
      "center": {
        "lat": 12.8917097,
        "lon": 77.5835354
      },
      "tags": {
        "amenity": "theatre",
        "check_date": "2024-04-06",
        "name": "Centre for Indian Music Experience",
        "theatre:genre": "musical",
        "wheelchair": "yes"
      }
    },
    {
      "type": "way",
      "id": 439843209,
      "center": {
        "lat": 12.8915907,
        "lon": 77.5851783
      },
      "tags": {
        "amenity": "events_venue",
        "check_date": "2023-04-08",
        "landuse": "commercial",
        "name": "MLR Convention Centre",
        "wheelchair": "limited"
      }
    },
    {
      "type": "way",
      "id": 439843210,
      "center": {
        "lat": 12.8923091,
        "lon": 77.5853171
      },
      "tags": {
        "amenity": "school",
        "name": "The Brigade School",
        "website": "https://www.brigadeschools.edu.in/",
        "wheelchair": "yes"
      }
    },
    {
      "type": "way",
      "id": 439843212,
      "center": {
        "lat": 12.8925366,
        "lon": 77.5834971
      },
      "tags": {
        "leisure": "swimming_pool",
        "name": "Woodrose Club",
        "wheelchair": "yes"
      }
    },
    {
      "type": "way",
      "id": 439843213,
      "center": {
        "lat": 12.8925228,
        "lon": 77.5839176
      },
      "tags": {
        "leisure": "sports_centre",
        "name": "Woodrose Club"
      }
    },
    {
      "type": "way",
      "id": 646422860,
      "center": {
        "lat": 12.9002738,
        "lon": 77.586036
      },
      "tags": {
        "addr:city": "Bangalore",
        "addr:postcode": "560078",
        "addr:street": "18th Cross Road",
        "building": "yes",
        "leisure": "fitness_centre",
        "name": "We Fitness and Health Center"
      }
    },
    {
      "type": "way",
      "id": 646663790,
      "center": {
        "lat": 12.8999451,
        "lon": 77.5855117
      },
      "tags": {
        "addr:city": "Bangalore",
        "addr:postcode": "560078",
        "addr:street": "24th Main Road",
        "amenity": "school",
        "name": "Royal High School"
      }
    },
    {
      "type": "way",
      "id": 677277511,
      "center": {
        "lat": 12.897561,
        "lon": 77.5857742
      },
      "tags": {
        "addr:city": "Bangalore",
        "addr:district": "24th Main Rd, next to Sobha Tulip Apartments, Ramaiah Garden, JP Nagar 7th Phase, J. P. Nagar, Bengaluru, Karnataka",
        "addr:postcode": "560078",
        "addr:street": "24th Main Road",
        "building": "yes",
        "name": "E.N.Rao Plaza",
        "shop": "supermarket"
      }
    },
    {
      "type": "way",
      "id": 699266156,
      "center": {
        "lat": 12.8934527,
        "lon": 77.5890757
      },
      "tags": {
        "access": "private",
        "leisure": "swimming_pool"
      }
    },
    {
      "type": "way",
      "id": 699270596,
      "center": {
        "lat": 12.8904843,
        "lon": 77.5859984
      },
      "tags": {
        "amenity": "parking"
      }
    },
    {
      "type": "way",
      "id": 699270597,
      "center": {
        "lat": 12.8910018,
        "lon": 77.585307
      },
      "tags": {
        "amenity": "events_venue",
        "landuse": "commercial",
        "name": "Samskruthi Brindavan Convention Centre",
        "website": "https://samskruthibrindavan.com/"
      }
    },
    {
      "type": "way",
      "id": 699270601,
      "center": {
        "lat": 12.8923911,
        "lon": 77.5849061
      },
      "tags": {
        "leisure": "track"
      }
    },
    {
      "type": "way",
      "id": 699270602,
      "center": {
        "lat": 12.8926928,
        "lon": 77.5837649
      },
      "tags": {
        "leisure": "pitch"
      }
    },
    {
      "type": "way",
      "id": 699270603,
      "center": {
        "lat": 12.8923838,
        "lon": 77.5845645
      },
      "tags": {
        "leisure": "pitch",
        "sport": "basketball"
      }
    },
    {
      "type": "way",
      "id": 699270606,
      "center": {
        "lat": 12.8924953,
        "lon": 77.5872933
      },
      "tags": {
        "amenity": "school",
        "wheelchair": "yes"
      }
    },
    {
      "type": "way",
      "id": 700738307,
      "center": {
        "lat": 12.8944202,
        "lon": 77.5771955
      },
      "tags": {
        "access": "residents",
        "leisure": "pitch",
        "name": "BPhase Basketball Court",
        "sport": "basketball",
        "surface": "concrete"
      }
    },
    {
      "type": "way",
      "id": 705294039,
      "center": {
        "lat": 12.8950396,
        "lon": 77.5767864
      },
      "tags": {
        "access": "private",
        "leisure": "swimming_pool",
        "lit": "yes",
        "location": "outdoor",
        "name": "Elita Wading Pool",
        "salt": "no"
      }
    },
    {
      "type": "way",
      "id": 705294093,
      "center": {
        "lat": 12.8947814,
        "lon": 77.577033
      },
      "tags": {
        "addr:city": "BANGALORE",
        "addr:postcode": "560068",
        "leisure": "park",
        "name": "B Phase Park 1",
        "opening_hours": "sunrise-sunset",
        "operator": "Elita Promenade"
      }
    },
    {
      "type": "way",
      "id": 705294094,
      "center": {
        "lat": 12.8947967,
        "lon": 77.5762675
      },
      "tags": {
        "addr:city": "BANGALORE",
        "addr:postcode": "560068",
        "leisure": "park",
        "name": "B Phase Park 2",
        "opening_hours": "sunrise-sunset",
        "operator": "Elita Promenade"
      }
    },
    {
      "type": "way",
      "id": 759837010,
      "center": {
        "lat": 12.8937593,
        "lon": 77.5814431
      },
      "tags": {
        "access": "customers",
        "amenity": "parking",
        "fee": "no",
        "operator": "Elaan Convention Centre",
        "operator:type": "private",
        "parking": "surface",
        "surface": "dirt"
      }
    },
    {
      "type": "way",
      "id": 777287806,
      "center": {
        "lat": 12.8933586,
        "lon": 77.586082
      },
      "tags": {
        "amenity": "restaurant",
        "building": "yes",
        "name": "kitches@ JP Nagar",
        "website": "https://kitchens-at.com/kitchens-at/"
      }
    },
    {
      "type": "way",
      "id": 777288192,
      "center": {
        "lat": 12.8914498,
        "lon": 77.5876943
      },
      "tags": {
        "amenity": "fuel",
        "brand": "Nayara",
        "brand:wikidata": "Q5399377",
        "compressed_air": "yes",
        "landuse": "retail",
        "name": "Nayara Petrol Pump",
        "self_service": "no",
        "wheelchair": "yes"
      }
    },
    {
      "type": "way",
      "id": 817302688,
      "center": {
        "lat": 12.896001,
        "lon": 77.5805193
      },
      "tags": {
        "leisure": "park"
      }
    },
    {
      "type": "way",
      "id": 817302689,
      "center": {
        "lat": 12.8958822,
        "lon": 77.5806477
      },
      "tags": {
        "leisure": "park"
      }
    },
    {
      "type": "way",
      "id": 817416250,
      "center": {
        "lat": 12.8968307,
        "lon": 77.5796261
      },
      "tags": {
        "amenity": "place_of_worship",
        "name": "Vinayaka Temple",
        "name:kn": "ವಿನಾಯಕ ದೇವಸ್ಥಾನ",
        "religion": "hindu"
      }
    },
    {
      "type": "way",
      "id": 817423820,
      "center": {
        "lat": 12.896926,
        "lon": 77.5797127
      },
      "tags": {
        "amenity": "place_of_worship",
        "name": "Angalaparameshwari Temple",
        "name:kn": "ಅಂಗಾಲಪರಮೇಶ್ವರಿ ದೇವಸ್ಥಾನ",
        "religion": "hindu"
      }
    },
    {
      "type": "way",
      "id": 1044433695,
      "center": {
        "lat": 12.8931598,
        "lon": 77.5815418
      },
      "tags": {
        "addr:city": "JP Nagar 7th Phase, Bengaluru",
        "addr:postcode": "560078",
        "addr:street": "18th Main Road",
        "building": "yes",
        "name": "Li-Ning Superstore",
        "opening_hours": "Mo-Su 09:00-21:00",
        "payment:cash": "yes",
        "payment:credit_cards": "yes",
        "payment:debit_cards": "yes",
        "payment:upi": "yes",
        "shop": "sports",
        "sport": "badminton"
      }
    },
    {
      "type": "way",
      "id": 1270788423,
      "center": {
        "lat": 12.8983062,
        "lon": 77.5778787
      },
      "tags": {
        "leisure": "park"
      }
    },
    {
      "type": "way",
      "id": 1337309972,
      "center": {
        "lat": 12.8954466,
        "lon": 77.5783762
      },
      "tags": {
        "landuse": "commercial",
        "leisure": "sports_centre"
      }
    },
    {
      "type": "way",
      "id": 1424148410,
      "center": {
        "lat": 12.8940765,
        "lon": 77.5795611
      },
      "tags": {
        "access": "private",
        "leisure": "swimming_pool"
      }
    },
    {
      "type": "way",
      "id": 1424148411,
      "center": {
        "lat": 12.894001,
        "lon": 77.5801113
      },
      "tags": {
        "access": "private",
        "leisure": "pitch"
      }
    },
    {
      "type": "way",
      "id": 1424148412,
      "center": {
        "lat": 12.8926948,
        "lon": 77.580351
      },
      "tags": {
        "access": "private",
        "leisure": "pitch",
        "sport": "tennis"
      }
    },
    {
      "type": "way",
      "id": 1424148415,
      "center": {
        "lat": 12.8957295,
        "lon": 77.5774266
      },
      "tags": {
        "access": "private",
        "amenity": "parking",
        "parking": "street_side"
      }
    },
    {
      "type": "way",
      "id": 1424148417,
      "center": {
        "lat": 12.8943168,
        "lon": 77.5762315
      },
      "tags": {
        "leisure": "pitch",
        "sport": "soccer"
      }
    },
    {
      "type": "way",
      "id": 1426267753,
      "center": {
        "lat": 12.8940312,
        "lon": 77.5865115
      },
      "tags": {
        "access": "customers",
        "amenity": "parking",
        "parking": "surface"
      }
    },
    {
      "type": "way",
      "id": 1426267758,
      "center": {
        "lat": 12.8949082,
        "lon": 77.5857347
      },
      "tags": {
        "access": "private",
        "leisure": "swimming_pool"
      }
    },
    {
      "type": "way",
      "id": 1426267766,
      "center": {
        "lat": 12.9018876,
        "lon": 77.5810495
      },
      "tags": {
        "amenity": "theatre",
        "name": "Amphitheatre",
        "theatre:type": "amphi"
      }
    }
  ]
}