{
  "area_name": "Sri Krishna Nagar",
  "osm_id": 597066208,
  "osm_type": "node",
  "place_type": "neighbourhood",
  "amenity_count": 61,
  "amenities": [
    {
      "type": "node",
      "id": 707256715,
      "lat": 13.0720405,
      "lon": 77.6574521,
      "tags": {
        "amenity": "toilets"
      }
    },
    {
      "type": "node",
      "id": 708335190,
      "lat": 13.0716936,
      "lon": 77.6575778,
      "tags": {
        "amenity": "telephone"
      }
    },
    {
      "type": "node",
      "id": 7227446794,
      "lat": 13.0695841,
      "lon": 77.6518339,
      "tags": {
        "amenity": "pub",
        "name": "Straight Up"
      }
    },
    {
      "type": "node",
      "id": 8117913037,
      "lat": 13.069536,
      "lon": 77.6518323,
      "tags": {
        "addr:city": "Bengaluru",
        "addr:housenumber": "237",
        "addr:postcode": "560077",
        "addr:street": "Hennur Bagalur Road",
        "amenity": "cafe",
        "cuisine": "coffee_shop;Hookah_Cafe;cafe/diner;cafe;chinese;fast_food;breakfast",
        "internet_access": "wlan",
        "internet_access:fee": "customers",
        "internet_access:ssid": "Sash cafe",
        "name": "Sash Cafe",
        "opening_hours": "Mo-Su 10:00-22:00",
        "outdoor_seating": "no",
        "phone": "+91 8880622622"
      }
    },
    {
      "type": "node",
      "id": 10946865113,
      "lat": 13.0737801,
      "lon": 77.6527029,
      "tags": {
        "amenity": "pub",
        "check_date": "2025-08-09",
        "name": "Oia"
      }
    },
    {
      "type": "node",
      "id": 11680831021,
      "lat": 13.071622,
      "lon": 77.6484811,
      "tags": {
        "addr:city": "Bengaluru",
        "addr:country": "IN",
        "addr:housenumber": "44",
        "addr:postcode": "560077",
        "addr:street": "Hennur Bagalur Road",
        "amenity": "music_school",
        "contact:instagram": "thebangaloreconservatory",
        "contact:youtube": "tbcmedia01",
        "email": "info@tbc.edu.in",
        "name": "The Bangalore Conservatory",
        "operator:type": "private",
        "phone": "+91 9845780016",
        "website": "https://thebangaloreconservatory.edu.in/"
      }
    },
    {
      "type": "node",
      "id": 12395928052,
      "lat": 13.0713032,
      "lon": 77.6518044,
      "tags": {
        "addr:city": "Bengaluru",
        "addr:country": "IN",
        "addr:postcode": "560077",
        "addr:street": "Hennur Bagalur Road",
        "addr:suburb": "Hennur",
        "amenity": "restaurant",
        "name": "Sawari North Indian Kitchen"
      }
    },
    {
      "type": "node",
      "id": 12532000094,
      "lat": 13.0695906,
      "lon": 77.6513176,
      "tags": {
        "amenity": "restaurant",
        "name": "1947"
      }
    },
    {
      "type": "node",
      "id": 12532000095,
      "lat": 13.069699,
      "lon": 77.6518299,
      "tags": {
        "amenity": "fast_food",
        "brand": "McDonald's",
        "brand:wikidata": "Q38076",
        "cuisine": "burger",
        "name": "McDonald's",
        "takeaway": "yes"
      }
    },
    {
      "type": "node",
      "id": 12532000096,
      "lat": 13.0696363,
      "lon": 77.6518312,
      "tags": {
        "amenity": "fast_food",
        "brand": "Domino's",
        "brand:wikidata": "Q839466",
        "cuisine": "pizza",
        "name": "Domino's",
        "takeaway": "yes"
      }
    },
    {
      "type": "node",
      "id": 12532000100,
      "lat": 13.0711112,
      "lon": 77.6518017,
      "tags": {
        "addr:city": "Bengaluru",
        "addr:country": "IN",
        "addr:postcode": "560077",
        "addr:street": "Hennur Bagalur Road",
        "amenity": "pub",
        "contact:facebook": "rotoblr",
        "contact:instagram": "rotoblr",
        "level": "4",
        "name": "Roto Rooftop Taproom",
        "opening_hours": "11:30-01:00",
        "website": "http://rotoblr.com/"
      }
    },
    {
      "type": "node",
      "id": 12532027901,
      "lat": 13.0711177,
      "lon": 77.6519807,
      "tags": {
        "addr:city": "Bengaluru",
        "addr:country": "IN",
        "addr:postcode": "560077",
        "addr:street": "Hennur Bagalur Road",
        "amenity": "fast_food",
        "name": "Leon's Burgers & Wings"
      }
    },
    {
      "type": "node",
      "id": 12532027902,
      "lat": 13.0711158,
      "lon": 77.6520753,
      "tags": {
        "addr:city": "Bengaluru",
        "addr:country": "IN",
        "addr:postcode": "560077",
        "addr:street": "Hennur Bagalur Road",
        "amenity": "restaurant",
        "name": "Kapoor's Cafe"
      }
    },
    {
      "type": "node",
      "id": 12532027903,
      "lat": 13.071219,
      "lon": 77.652078,
      "tags": {
        "addr:city": "Bengaluru",
        "addr:country": "IN",
        "addr:postcode": "560077",
        "addr:street": "Hennur Bagalur Road",
        "alt_name": "Kentucky Fried Chicken",
        "alt_name:en": "Kentucky Fried Chicken",
        "alt_name:hi": "केंटुकी फ्राइड चिकन",
        "alt_name:pa": "ਕੈਂਟੁਕੀ ਫ੍ਰਾਈਡ ਚਿਕਨ",
        "alt_name:pnb": "کینٹکی فرائیڈ چکن",
        "alt_name:ur": "کینٹکی فرائیڈ چکن",
        "amenity": "fast_food",
        "brand": "KFC",
        "brand:en": "KFC",
        "brand:hi": "केएफसी",
        "brand:pa": "ਕੇਐਫਸੀ",
        "brand:pnb": "کے ایف سی",
        "brand:ur": "کے ایف سی",
        "brand:wikidata": "Q524757",
        "cuisine": "chicken",
        "name": "KFC",
        "name:en": "KFC",
        "name:hi": "केएफसी",
        "name:pa": "ਕੇਐਫਸੀ",
        "name:pnb": "کے ایف سی",
        "name:ur": "کے ایف سی",
        "takeaway": "yes"
      }
    },
    {
      "type": "node",
      "id": 12532027904,
      "lat": 13.0712216,
      "lon": 77.6519754,
      "tags": {
        "amenity": "restaurant",
        "brand": "Pizza Hut",
        "brand:wikidata": "Q191615",
        "cuisine": "pizza",
        "name": "Pizza Hut"
      }
    },
    {
      "type": "node",
      "id": 12942093401,
      "lat": 13.0704713,
      "lon": 77.651709,
      "tags": {
        "addr:street": "Hennur Bagalur Road",
        "amenity": "restaurant",
        "contact:instagram": "kaliyodam_restaurant",
        "cuisine": "indian",
        "name": "Kaliyodam The Restaurant",
        "opening_hours": "Mo-Su 09:00-23:00"
      }
    },
    {
      "type": "node",
      "id": 13059997273,
      "lat": 13.0747566,
      "lon": 77.6517814,
      "tags": {
        "amenity": "cafe",
        "check_date": "2025-08-09",
        "name": "Glen's Bakehouse",
        "shop": "bakery"
      }
    },
    {
      "type": "node",
      "id": 13108989419,
      "lat": 13.0711158,
      "lon": 77.6519016,
      "tags": {
        "amenity": "fast_food",
        "brand": "Burger King",
        "brand:wikidata": "Q177054",
        "cuisine": "burger",
        "name": "Burger King",
        "takeaway": "yes"
      }
    },
    {
      "type": "node",
      "id": 13108989420,
      "lat": 13.071168,
      "lon": 77.6520733,
      "tags": {
        "brand": "Toni & Guy",
        "brand:wikidata": "Q324784",
        "name": "Toni & Guy",
        "shop": "hairdresser"
      }
    },
    {
      "type": "node",
      "id": 13108989421,
      "lat": 13.0711693,
      "lon": 77.6519714,
      "tags": {
        "name": "VLCC",
        "shop": "beauty"
      }
    },
    {
      "type": "node",
      "id": 13108989422,
      "lat": 13.0713888,
      "lon": 77.651801,
      "tags": {
        "amenity": "restaurant",
        "name": "Rasa Sangam"
      }
    },
    {
      "type": "node",
      "id": 13108989423,
      "lat": 13.071236,
      "lon": 77.6517997,
      "tags": {
        "beauty": "spa",
        "name": "Infinity",
        "shop": "beauty"
      }
    },
    {
      "type": "node",
      "id": 13108989424,
      "lat": 13.0711701,
      "lon": 77.6517999,
      "tags": {
        "leisure": "adult_gaming_centre",
        "name": "The Rig"
      }
    },
    {
      "type": "way",
      "id": 43102213,
      "center": {
        "lat": 13.0715402,
        "lon": 77.6503968
      },
      "tags": {
        "amenity": "college",
        "name": "Southern Asia Bible College"
      }
    },
    {
      "type": "way",
      "id": 56312276,
      "center": {
        "lat": 13.0722766,
        "lon": 77.6574607
      },
      "tags": {
        "amenity": "college",
        "name": "Visthar"
      }
    },
    {
      "type": "way",
      "id": 56434801,
      "center": {
        "lat": 13.0719396,
        "lon": 77.6574107
      },
      "tags": {
        "amenity": "library"
      }
    },
    {
      "type": "way",
      "id": 56435074,
      "center": {
        "lat": 13.0716793,
        "lon": 77.6574685
      },
      "tags": {
        "amenity": "restaurant",
        "name": "Food"
      }
    },
    {
      "type": "way",
      "id": 56631036,
      "center": {
        "lat": 13.0730637,
        "lon": 77.6575215
      },
      "tags": {
        "amenity": "toilets"
      }
    },
    {
      "type": "way",
      "id": 56735025,
      "center": {
        "lat": 13.0718007,
        "lon": 77.6580923
      },
      "tags": {
        "amenity": "parking"
      }
    },
    {
      "type": "way",
      "id": 730431932,
      "center": {
        "lat": 13.0702879,
        "lon": 77.6502208
      },
      "tags": {
        "addr:city": "Bengaluru",
        "addr:country": "IN",
        "addr:postcode": "560077",
        "addr:street": "Hennur Bagalur Road",
        "email": "enquiries@xlr8india.com",
        "fax": "+91 91489-46789",
        "leisure": "sports_centre",
        "name": "Balance The Club",
        "phone": "+91 91489 36789",
        "website": "https://www.xlr8india.com/"
      }
    },
    {
      "type": "way",
      "id": 730431935,
      "center": {
        "lat": 13.0708626,
        "lon": 77.6522528
      },
      "tags": {
        "addr:city": "Bengaluru",
        "addr:country": "IN",
        "addr:postcode": "560077",
        "addr:street": "Hennur Bagalur Road",
        "amenity": "pub",
        "email": "gm.hnr@bygbrewski.com",
        "landuse": "retail",
        "name": "Byg Brewsky",
        "outdoor_seating": "yes",
        "phone": "+91 080-46809796",
        "website": "https://www.bygbrewski.com/"
      }
    },
    {
      "type": "way",
      "id": 781780404,
      "center": {
        "lat": 13.085887,
        "lon": 77.6482673
      },
      "tags": {
        "leisure": "park"
      }
    },
    {
      "type": "way",
      "id": 844928287,
      "center": {
        "lat": 13.0829476,
        "lon": 77.6551558
      },
      "tags": {
        "amenity": "school",
        "name": "United International"
      }
    },
    {
      "type": "way",
      "id": 1128132030,
      "center": {
        "lat": 13.080707,
        "lon": 77.6465027
      },
      "tags": {
        "amenity": "school",
        "name": "Sri Chaitanya Future Pathways Global Schools Hennur"
      }
    },
    {
      "type": "way",
      "id": 1171511683,
      "center": {
        "lat": 13.072448,
        "lon": 77.6474056
      },
      "tags": {
        "leisure": "garden"
      }
    },
    {
      "type": "way",
      "id": 1171511684,
      "center": {
        "lat": 13.0715455,
        "lon": 77.6476767
      },
      "tags": {
        "leisure": "garden"
      }
    },
    {
      "type": "way",
      "id": 1178381001,
      "center": {
        "lat": 13.0836863,
        "lon": 77.6536819
      },
      "tags": {
        "amenity": "college",
        "name": "Faran Group of Institutions"
      }
    },
    {
      "type": "way",
      "id": 1178381006,
      "center": {
        "lat": 13.0770078,
        "lon": 77.6516864
      },
      "tags": {
        "leisure": "sports_centre",
        "name": "Skywalk Cricket Academy",
        "sport": "cricket"
      }
    },
    {
      "type": "way",
      "id": 1178381008,
      "center": {
        "lat": 13.0747859,
        "lon": 77.6509783
      },
      "tags": {
        "amenity": "school",
        "name": "Poornaprajna School",
        "name:kn": "ಪೂರ್ಣಪ್ರಜ್ಞ ಶಾಲೆ"
      }
    },
    {
      "type": "way",
      "id": 1178381009,
      "center": {
        "lat": 13.0728186,
        "lon": 77.6524293
      },
      "tags": {
        "amenity": "school",
        "name": "New Horizon International School"
      }
    },
    {
      "type": "way",
      "id": 1178381012,
      "center": {
        "lat": 13.0679923,
        "lon": 77.6526881
      },
      "tags": {
        "amenity": "community_centre",
        "community_centre:for": "senior",
        "name": "Holy Cross Mercy Old Age Home"
      }
    },
    {
      "type": "way",
      "id": 1187891473,
      "center": {
        "lat": 13.0725283,
        "lon": 77.6529324
      },
      "tags": {
        "leisure": "pitch",
        "sport": "tennis"
      }
    },
    {
      "type": "way",
      "id": 1187891474,
      "center": {
        "lat": 13.0725401,
        "lon": 77.6528231
      },
      "tags": {
        "leisure": "pitch",
        "sport": "tennis"
      }
    },
    {
      "type": "way",
      "id": 1187891475,
      "center": {
        "lat": 13.0729096,
        "lon": 77.6527273
      },
      "tags": {
        "leisure": "pitch",
        "sport": "basketball"
      }
    },
    {
      "type": "way",
      "id": 1187891476,
      "center": {
        "lat": 13.0726351,
        "lon": 77.6526961
      },
      "tags": {
        "leisure": "pitch",
        "sport": "basketball"
      }
    },
    {
      "type": "way",
      "id": 1187891477,
      "center": {
        "lat": 13.0728126,
        "lon": 77.6524832
      },
      "tags": {
        "leisure": "pitch",
        "sport": "soccer"
      }
    },
    {
      "type": "way",
      "id": 1240800573,
      "center": {
        "lat": 13.0737278,
        "lon": 77.6625667
      },
      "tags": {
        "amenity": "place_of_worship",
        "name": "St. Augustine Church",
        "religion": "christian"
      }
    },
    {
      "type": "way",
      "id": 1241266334,
      "center": {
        "lat": 13.0706901,
        "lon": 77.6494505
      },
      "tags": {
        "access": "private",
        "heating": "yes",
        "leisure": "swimming_pool"
      }
    },
    {
      "type": "way",
      "id": 1241266335,
      "center": {
        "lat": 13.0707709,
        "lon": 77.6492794
      },
      "tags": {
        "amenity": "dressing_room"
      }
    },
    {
      "type": "way",
      "id": 1241266336,
      "center": {
        "lat": 13.0704321,
        "lon": 77.6493517
      },
      "tags": {
        "access": "private",
        "building": "yes",
        "covered": "yes",
        "leisure": "pitch",
        "sport": "badminton",
        "surface": "wood"
      }
    },
    {
      "type": "way",
      "id": 1241266337,
      "center": {
        "lat": 13.0703795,
        "lon": 77.6496268
      },
      "tags": {
        "access": "private",
        "leisure": "pitch",
        "lit": "yes",
        "sport": "tennis",
        "surface": "clay"
      }
    },
    {
      "type": "way",
      "id": 1241266338,
      "center": {
        "lat": 13.0703279,
        "lon": 77.6497513
      },
      "tags": {
        "access": "private",
        "leisure": "pitch",
        "lit": "yes",
        "sport": "tennis",
        "surface": "clay"
      }
    },
    {
      "type": "way",
      "id": 1241266340,
      "center": {
        "lat": 13.0701093,
        "lon": 77.6502852
      },
      "tags": {
        "building": "yes",
        "leisure": "sports_centre",
        "name": "XLR8",
        "sport": "soccer;basketball;cricket"
      }
    },
    {
      "type": "way",
      "id": 1241266341,
      "center": {
        "lat": 13.0703041,
        "lon": 77.6511194
      },
      "tags": {
        "amenity": "events_venue",
        "building": "yes",
        "name": "Wings Arena Kothanur",
        "website": "https://wingsarenas.com/"
      }
    },
    {
      "type": "way",
      "id": 1252754265,
      "center": {
        "lat": 13.0804791,
        "lon": 77.6538379
      },
      "tags": {
        "access": "private",
        "leisure": "swimming_pool"
      }
    },
    {
      "type": "way",
      "id": 1256456744,
      "center": {
        "lat": 13.0835109,
        "lon": 77.6548569
      },
      "tags": {
        "access": "private",
        "leisure": "pitch",
        "sport": "basketball"
      }
    },
    {
      "type": "way",
      "id": 1284851839,
      "center": {
        "lat": 13.0679949,
        "lon": 77.6539457
      },
      "tags": {
        "amenity": "school"
      }
    },
    {
      "type": "way",
      "id": 1299785703,
      "center": {
        "lat": 13.0739546,
        "lon": 77.6519915
      },
      "tags": {
        "amenity": "fuel",
        "brand": "Shell",
        "brand:wikidata": "Q110716465",
        "landuse": "commercial",
        "name": "Shell",
        "name:kn": "ಶೆಲ್"
      }
    },
    {
      "type": "way",
      "id": 1299785704,
      "center": {
        "lat": 13.0729143,
        "lon": 77.6517063
      },
      "tags": {
        "access": "permissive",
        "amenity": "parking",
        "parking": "surface"
      }
    },
    {
      "type": "way",
      "id": 1354211500,
      "center": {
        "lat": 13.0696167,
        "lon": 77.6584046
      },
      "tags": {
        "amenity": "monastery",
        "landuse": "religious",
        "name": "India Campus Crusade for Christ",
        "short_name": "ICCfChrist"
      }
    },
    {
      "type": "way",
      "id": 1409487920,
      "center": {
        "lat": 13.0704348,
        "lon": 77.6479585
      },
      "tags": {
        "leisure": "sports_centre",
        "name": "Sports Web - BCFC"
      }
    }
  ]
}