{
  "area_name": "Srinivas Nagar",
  "osm_id": 13325951415,
  "osm_type": "node",
  "place_type": "neighbourhood",
  "amenity_count": 274,
  "amenities": [
    {
      "type": "node",
      "id": 951470704,
      "lat": 12.9387161,
      "lon": 77.5534116,
      "tags": {
        "addr:street": "80 Feet Road",
        "amenity": "restaurant",
        "cuisine": "regional",
        "name": "Udupi Upahar",
        "name:kn": "ಉಡುಪಿ ಉಪಹಾರ"
      }
    },
    {
      "type": "node",
      "id": 953635112,
      "lat": 12.9408732,
      "lon": 77.5471975,
      "tags": {
        "amenity": "place_of_worship",
        "name": "Sharadamba Temple",
        "name:kn": "ಶಾರದಾಂಬ ದೇವಸ್ಥಾನ",
        "religion": "hindu"
      }
    },
    {
      "type": "node",
      "id": 953636026,
      "lat": 12.9412393,
      "lon": 77.547176,
      "tags": {
        "amenity": "place_of_worship",
        "name": "Mahaganapathi Temple",
        "name:kn": "ಮಹಾಗಣಪತಿ ದೇವಸ್ಥಾನ",
        "religion": "hindu"
      }
    },
    {
      "type": "node",
      "id": 953687122,
      "lat": 12.9380085,
      "lon": 77.5496081,
      "tags": {
        "addr:street": "80 Feet Road",
        "amenity": "fuel",
        "brand": "IBP",
        "fuel:biodiesel": "no",
        "fuel:biogas": "no",
        "fuel:cng": "no",
        "fuel:diesel": "yes",
        "fuel:e10": "no",
        "fuel:e85": "no",
        "fuel:electricity": "no",
        "fuel:lpg": "no",
        "name": "IBP Petrol Station"
      }
    },
    {
      "type": "node",
      "id": 954610622,
      "lat": 12.9444378,
      "lon": 77.5546637,
      "tags": {
        "amenity": "bus_station",
        "building": "public",
        "name": "Srinagar Bus Station",
        "name:kn": "ಶ್ರೀನಗರ ಬಸ್ ನಿಲ್ದಾಣ"
      }
    },
    {
      "type": "node",
      "id": 954623054,
      "lat": 12.939058,
      "lon": 77.5510802,
      "tags": {
        "addr:city": "bangalore",
        "addr:housenumber": "8/45",
        "addr:postcode": "560050",
        "addr:street": "80 Feet Road, SBM Colony, Near-Bank Colony Bus Stop, Banashankari 1st Stage",
        "amenity": "hospital",
        "name": "Sri Vinayaka Poly Clinic",
        "phone": "080 2672 8455",
        "source": "justdial"
      }
    },
    {
      "type": "node",
      "id": 1464999434,
      "lat": 12.9414203,
      "lon": 77.553445,
      "tags": {
        "addr:postcode": "560050",
        "amenity": "restaurant",
        "name": "Dragons",
        "name:kn": "ಡ್ರಾಗನ್ಸ್"
      }
    },
    {
      "type": "node",
      "id": 1465008909,
      "lat": 12.9378526,
      "lon": 77.5581352,
      "tags": {
        "leisure": "sports_centre"
      }
    },
    {
      "type": "node",
      "id": 1465026171,
      "lat": 12.9293305,
      "lon": 77.5483881,
      "tags": {
        "leisure": "park"
      }
    },
    {
      "type": "node",
      "id": 1465032919,
      "lat": 12.9296912,
      "lon": 77.5519662,
      "tags": {
        "amenity": "atm",
        "brand": "State Bank of India",
        "brand:wikidata": "Q1340361",
        "operator": "State Bank of India",
        "operator:wikidata": "Q1340361",
        "short_name": "SBI"
      }
    },
    {
      "type": "node",
      "id": 1465033352,
      "lat": 12.9296755,
      "lon": 77.5519983,
      "tags": {
        "amenity": "bank",
        "atm": "yes",
        "brand": "State Bank of India",
        "brand:wikidata": "Q1340361",
        "brand:wikipedia": "en:State Bank of India",
        "name": "State Bank of India",
        "name:kn": "ಭಾರತೀಯ ಸ್ಟೇಟ್ ಬ್ಯಾಂಕ್",
        "short_name": "SBI",
        "website": "https://www.sbi.co.in"
      }
    },
    {
      "type": "node",
      "id": 1466724441,
      "lat": 12.9417187,
      "lon": 77.5601963,
      "tags": {
        "name": "Kaggi's Bakery",
        "shop": "bakery"
      }
    },
    {
      "type": "node",
      "id": 1468449594,
      "lat": 12.9366883,
      "lon": 77.5488033,
      "tags": {
        "amenity": "bank",
        "atm": "yes",
        "brand": "State Bank of India",
        "brand:wikidata": "Q1340361",
        "name": "State Bank of India",
        "name:kn": "ಭಾರತೀಯ ಸ್ಟೇಟ್ ಬ್ಯಾಂಕ್",
        "short_name": "SBI"
      }
    },
    {
      "type": "node",
      "id": 1470715777,
      "lat": 12.9435227,
      "lon": 77.5590375,
      "tags": {
        "name": "Ritu's designer sarees",
        "shop": "clothes"
      }
    },
    {
      "type": "node",
      "id": 1472981138,
      "lat": 12.9373897,
      "lon": 77.56002,
      "tags": {
        "amenity": "school",
        "name": "Holy Child Convent School"
      }
    },
    {
      "type": "node",
      "id": 1472981151,
      "lat": 12.9363435,
      "lon": 77.5615008,
      "tags": {
        "amenity": "police",
        "name": "Police Station",
        "name:kn": "ಆರಕ್ಷಕ ಠಾಣೆ",
        "operator": "Karnataka Police Department"
      }
    },
    {
      "type": "node",
      "id": 1472981411,
      "lat": 12.9348901,
      "lon": 77.560782,
      "tags": {
        "name": "SLV Bakery",
        "shop": "bakery"
      }
    },
    {
      "type": "node",
      "id": 1473775383,
      "lat": 12.9324223,
      "lon": 77.555718,
      "tags": {
        "amenity": "place_of_worship",
        "name": "Ganesha Temple",
        "name:kn": "ಗಣೇಶ ದೇವಸ್ಥಾನ",
        "religion": "hindu"
      }
    },
    {
      "type": "node",
      "id": 1473889273,
      "lat": 12.9279154,
      "lon": 77.5563831,
      "tags": {
        "amenity": "place_of_worship",
        "name": "Shiva Temple",
        "name:kn": "ಶಿವ ದೇವಸ್ಥಾನ",
        "religion": "hindu"
      }
    },
    {
      "type": "node",
      "id": 1566824494,
      "lat": 12.9391021,
      "lon": 77.5556301,
      "tags": {
        "amenity": "place_of_worship",
        "name": "Gondavalekar Sadgur"
      }
    },
    {
      "type": "node",
      "id": 1661812758,
      "lat": 12.9406461,
      "lon": 77.5477204,
      "tags": {
        "amenity": "atm",
        "brand": "Axis Bank",
        "brand:wikidata": "Q2003549",
        "name": "Axis Bank",
        "operator": "Axis Bank",
        "operator:wikidata": "Q2003549"
      }
    },
    {
      "type": "node",
      "id": 1661813636,
      "lat": 12.9403899,
      "lon": 77.5478867,
      "tags": {
        "amenity": "townhall",
        "name": "Avadhani Convention Center"
      }
    },
    {
      "type": "node",
      "id": 1741246216,
      "lat": 12.935471,
      "lon": 77.5608687,
      "tags": {
        "amenity": "atm",
        "brand": "ICICI Bank",
        "brand:wikidata": "Q1653258",
        "name": "ICICI Bank",
        "name:kn": "ಐಸಿಐಸಿಐ ಬ್ಯಾಂಕು",
        "operator": "ICICI Bank",
        "operator:wikidata": "Q1653258",
        "short_name": "ICICI"
      }
    },
    {
      "type": "node",
      "id": 1741466668,
      "lat": 12.9371253,
      "lon": 77.5585054,
      "tags": {
        "amenity": "bank",
        "atm": "yes",
        "brand": "Corporation Bank",
        "brand:wikidata": "Q2003387",
        "brand:wikipedia": "en:Corporation Bank",
        "name": "Corporation Bank",
        "name:en": "Corporation Bank",
        "name:kn": "ಕಾರ್ಪೋರೇಶನ್ ಬ್ಯಾಂಕ್",
        "website": "https://corpbank.com/"
      }
    },
    {
      "type": "node",
      "id": 1741564945,
      "lat": 12.9389525,
      "lon": 77.5566263,
      "tags": {
        "amenity": "library",
        "name": "Public Library",
        "name:kn": "ಸಾರ್ವಜನಿಕ ಗ್ರಂಥಾಲಯ"
      }
    },
    {
      "type": "node",
      "id": 1741794881,
      "lat": 12.933396,
      "lon": 77.5626216,
      "tags": {
        "amenity": "pharmacy"
      }
    },
    {
      "type": "node",
      "id": 1741797182,
      "lat": 12.9352471,
      "lon": 77.5607927,
      "tags": {
        "amenity": "pharmacy"
      }
    },
    {
      "type": "node",
      "id": 1741799823,
      "lat": 12.9357213,
      "lon": 77.5609969,
      "tags": {
        "amenity": "bank",
        "atm": "yes",
        "brand": "Andhra Bank",
        "brand:wikidata": "Q2003476",
        "brand:wikipedia": "en:Andhra Bank",
        "name": "Andhra Bank",
        "name:en": "Andhra Bank",
        "name:kn": "ಆಂಧ್ರ ಬ್ಯಾಂಕ್",
        "website": "https://www.andhrabank.in"
      }
    },
    {
      "type": "node",
      "id": 1741809315,
      "lat": 12.9340245,
      "lon": 77.5619702,
      "tags": {
        "amenity": "fast_food",
        "cuisine": "indian",
        "name": "Kabab and Biriyani"
      }
    },
    {
      "type": "node",
      "id": 1741809464,
      "lat": 12.9340167,
      "lon": 77.5623395,
      "tags": {
        "shop": "hairdresser"
      }
    },
    {
      "type": "node",
      "id": 1741824534,
      "lat": 12.93577,
      "lon": 77.5613294,
      "tags": {
        "amenity": "fast_food",
        "diet:vegetarian": "only",
        "name": "SLV Fast Food"
      }
    },
    {
      "type": "node",
      "id": 1792012371,
      "lat": 12.9432666,
      "lon": 77.5585119,
      "tags": {
        "amenity": "place_of_worship",
        "religion": "hindu"
      }
    },
    {
      "type": "node",
      "id": 1792027188,
      "lat": 12.9418539,
      "lon": 77.555564,
      "tags": {
        "amenity": "atm",
        "brand": "Indian Bank",
        "brand:wikidata": "Q2003789",
        "name": "Indian Bank",
        "operator": "Indian Bank",
        "operator:wikidata": "Q2003789"
      }
    },
    {
      "type": "node",
      "id": 1792041769,
      "lat": 12.9412355,
      "lon": 77.5578065,
      "tags": {
        "amenity": "post_box",
        "operator": "India Post",
        "operator:wikidata": "Q3519720"
      }
    },
    {
      "type": "node",
      "id": 1792044189,
      "lat": 12.9398411,
      "lon": 77.553976,
      "tags": {
        "amenity": "atm",
        "brand": "HDFC Bank",
        "brand:wikidata": "Q631047",
        "fee": "no",
        "name": "HDFC Bank",
        "operator": "HDFC Bank",
        "operator:wikidata": "Q631047",
        "short_name": "HDFC"
      }
    },
    {
      "type": "node",
      "id": 1792046973,
      "lat": 12.9396697,
      "lon": 77.5546603,
      "tags": {
        "amenity": "atm",
        "operator": "Ratnakar Bank"
      }
    },
    {
      "type": "node",
      "id": 1792719335,
      "lat": 12.9416816,
      "lon": 77.5555618,
      "tags": {
        "addr:street": "Hanumantha Nagar Main Road",
        "amenity": "bank",
        "atm": "no",
        "name": "Mahila Co-operative Bank"
      }
    },
    {
      "type": "node",
      "id": 1792719635,
      "lat": 12.9418698,
      "lon": 77.5563504,
      "tags": {
        "amenity": "atm",
        "brand": "ICICI Bank",
        "brand:wikidata": "Q1653258",
        "fee": "no",
        "name": "ICICI Bank",
        "operator": "ICICI Bank",
        "operator:wikidata": "Q1653258",
        "short_name": "ICICI"
      }
    },
    {
      "type": "node",
      "id": 1796670301,
      "lat": 12.9402637,
      "lon": 77.5577692,
      "tags": {
        "amenity": "atm",
        "brand": "HDFC Bank",
        "brand:wikidata": "Q631047",
        "fee": "no",
        "name": "HDFC Bank",
        "operator": "HDFC Bank",
        "operator:wikidata": "Q631047",
        "short_name": "HDFC"
      }
    },
    {
      "type": "node",
      "id": 1796708919,
      "lat": 12.9402254,
      "lon": 77.5535523,
      "tags": {
        "name": "Cake Palace",
        "shop": "bakery"
      }
    },
    {
      "type": "node",
      "id": 2331415122,
      "lat": 12.9373332,
      "lon": 77.5582484,
      "tags": {
        "amenity": "atm",
        "brand": "Canara Bank",
        "brand:en": "Canara Bank",
        "brand:hi": "केनरा बैंक",
        "brand:kn": "ಕೆನರಾ ಬ್ಯಾಂಕ್",
        "brand:pa": "ਕੇਨਰਾ ਬੈਂਕ",
        "brand:pnb": "کینرا بینک",
        "brand:ur": "کینرا بینک",
        "brand:wikidata": "Q2003777",
        "brand:wikipedia": "en:Canara Bank",
        "brand:wikipedia:pa": "ਕੇਨਰਾ ਬੈਂਕ",
        "name": "Canara Bank",
        "name:en": "Canara Bank",
        "name:hi": "केनरा बैंक",
        "name:kn": "ಕೆನರಾ ಬ್ಯಾಂಕ್",
        "name:pa": "ਕੇਨਰਾ ਬੈਂਕ",
        "name:pnb": "کینرا بینک",
        "name:ur": "کینرا بینک",
        "operator": "Canara Bank",
        "operator:wikidata": "Q2003777"
      }
    },
    {
      "type": "node",
      "id": 2331429506,
      "lat": 12.9381919,
      "lon": 77.556125,
      "tags": {
        "name": "Relience Fresh",
        "operator": "Relience",
        "shop": "supermarket"
      }
    },
    {
      "type": "node",
      "id": 2331429507,
      "lat": 12.9348094,
      "lon": 77.5556281,
      "tags": {
        "amenity": "atm",
        "brand": "HDFC Bank",
        "brand:wikidata": "Q631047",
        "name": "HDFC Bank",
        "name:kn": "ಎಚ್ ಡಿ ಎಫ್ ಸಿ",
        "operator": "HDFC Bank",
        "operator:wikidata": "Q631047",
        "short_name": "HDFC"
      }
    },
    {
      "type": "node",
      "id": 2331429508,
      "lat": 12.9347536,
      "lon": 77.5556142,
      "tags": {
        "amenity": "atm",
        "brand": "State Bank of India",
        "brand:wikidata": "Q1340361",
        "name": "State Bank of India",
        "name:kn": "ಭಾರತೀಯ ಸ್ಟೇಟ್ ಬ್ಯಾಂಕ್",
        "operator": "State Bank of India",
        "operator:wikidata": "Q1340361",
        "short_name": "SBI"
      }
    },
    {
      "type": "node",
      "id": 2331429509,
      "lat": 12.9381111,
      "lon": 77.5565458,
      "tags": {
        "amenity": "atm",
        "brand": "Bank of Baroda",
        "brand:wikidata": "Q2003797",
        "name": "Bank of Baroda",
        "name:kn": "ಬ್ಯಾಂಕ್ ಆಫ್ ಬರೊಡಾ",
        "operator": "Bank of Baroda",
        "operator:wikidata": "Q2003797"
      }
    },
    {
      "type": "node",
      "id": 2332679567,
      "lat": 12.9369041,
      "lon": 77.5577545,
      "tags": {
        "addr:city": "Bangalore",
        "addr:housename": "Vinayaka Vidya Samsthe",
        "addr:postcode": "560050",
        "addr:street": "1st Main Road, Srinivasa Nagar",
        "amenity": "school",
        "name": "Vinayaka Vidya Samsthe",
        "name:kn": "ವಿನಾಯಕ ವಿದ್ಯಾ ಸಂಸ್ಥೆ"
      }
    },
    {
      "type": "node",
      "id": 2587475453,
      "lat": 12.9307314,
      "lon": 77.5471958,
      "tags": {
        "amenity": "marketplace",
        "name": "Homemart"
      }
    },
    {
      "type": "node",
      "id": 2587475454,
      "lat": 12.9324534,
      "lon": 77.5486407,
      "tags": {
        "addr:housenumber": "752",
        "addr:street": "50 Feet Road",
        "amenity": "place_of_worship",
        "name": "Shri Chamundeshwari Temple",
        "name:kn": "ಚಾಮುಂಡೇಶ್ವರಿ ದೇವಸ್ಥಾನ",
        "religion": "hindu"
      }
    },
    {
      "type": "node",
      "id": 2587475455,
      "lat": 12.9307552,
      "lon": 77.5475178,
      "tags": {
        "amenity": "bank",
        "atm": "yes",
        "branch": "Kathriguppe",
        "brand:wikidata": "Q1340361",
        "brand:wikipedia": "en:State Bank of India",
        "name": "State Bank of India",
        "name:kn": "ಭಾರತೀಯ ಸ್ಟೇಟ್ ಬ್ಯಾಂಕ್",
        "opening_hours": "Mo-Fr 09:00-16:30",
        "short_name": "SBI",
        "website": "https://www.sbi.co.in"
      }
    },
    {
      "type": "node",
      "id": 2591242677,
      "lat": 12.9305998,
      "lon": 77.5471604,
      "tags": {
        "name": "Sai Dry Cleaners",
        "shop": "dry_cleaning"
      }
    },
    {
      "type": "node",
      "id": 3057166709,
      "lat": 12.9387638,
      "lon": 77.5511668,
      "tags": {
        "amenity": "school",
        "level": "2",
        "name": "KKN coaching classes"
      }
    },
    {
      "type": "node",
      "id": 3118754073,
      "lat": 12.9416718,
      "lon": 77.5605078,
      "tags": {
        "amenity": "fast_food",
        "cuisine": "indian",
        "name": "Shiva's Chats"
      }
    },
    {
      "type": "node",
      "id": 4246843765,
      "lat": 12.9392188,
      "lon": 77.5600997,
      "tags": {
        "amenity": "cafe",
        "cuisine": "ice_cream",
        "name": "Prasad Icecream Parlour"
      }
    },
    {
      "type": "node",
      "id": 4278117690,
      "lat": 12.9382756,
      "lon": 77.5572939,
      "tags": {
        "addr:housenumber": "1706",
        "addr:postcode": "560050",
        "addr:street": "10th Main Road",
        "email": "akshaymeda@gmail.com",
        "internet_access": "wlan",
        "name": "Gaayathri coffee",
        "opening_hours": "Mo-Su 09:30-21:30",
        "phone": "9986552253",
        "shop": "beverages"
      }
    },
    {
      "type": "node",
      "id": 4444115045,
      "lat": 12.9301326,
      "lon": 77.5606044,
      "tags": {
        "addr:city": "Bengaluru",
        "addr:postcode": "560085",
        "addr:street": "8th Cross Rd, Vidyapeeta Layout, Banashankari 3rd Stage",
        "amenity": "police",
        "name": "Chennamanakere Achukattu Police Station",
        "name:kn": "ಚೆನ್ನಮ್ಮಕೆರೆ ಅಚ್ಚುಕಟ್ಟು",
        "phone": "080 2294 3483",
        "website": "ksp.gov.in"
      }
    },
    {
      "type": "node",
      "id": 4444989840,
      "lat": 12.9390944,
      "lon": 77.5619057,
      "tags": {
        "addr:city": "bangalore",
        "addr:housenumber": "11/2",
        "addr:postcode": "560079",
        "addr:street": "Magadi Main Road",
        "amenity": "hospital",
        "name": "Sarvodaya Hospital",
        "name:kn": "ಸರ್ವೋದಯ ಆಸ್ಪತ್ರೆ",
        "phone": "098440 74946"
      }
    },
    {
      "type": "node",
      "id": 4445208559,
      "lat": 12.9402569,
      "lon": 77.5533988,
      "tags": {
        "addr:city": "Banashankari,Bangalore",
        "addr:housenumber": "89",
        "addr:postcode": "560070",
        "addr:street": "22nd Main Road",
        "amenity": "restaurant",
        "cuisine": "indian",
        "name": "Hotel New Karavali",
        "opening_hours": "11:00-23:00",
        "phone": "+91 8971171462",
        "takeaway": "yes"
      }
    },
    {
      "type": "node",
      "id": 4445597227,
      "lat": 12.9306311,
      "lon": 77.5535559,
      "tags": {
        "addr:city": "Banashankari,Bangalore",
        "addr:housenumber": "45",
        "addr:postcode": "560085",
        "addr:street": "Kathriguppe Main Road",
        "amenity": "restaurant",
        "cuisine": "indian",
        "name": "Karavali Lunch Home",
        "opening_hours": "12:00-16:00,18:30-23:00",
        "phone": "080 2669 1046",
        "takeaway": "yes"
      }
    },
    {
      "type": "node",
      "id": 4446323202,
      "lat": 12.9349664,
      "lon": 77.5469781,
      "tags": {
        "addr:city": "Banashankari,Banglore",
        "addr:housenumber": "4001/4002",
        "addr:postcode": "560070",
        "addr:street": "80 Feet Road",
        "amenity": "restaurant",
        "cuisine": "indian",
        "name": "Bengaluru Coffee House",
        "opening_hours": "06:30-22:30",
        "phone": "+91 95381 98222",
        "takeaway": "yes"
      }
    },
    {
      "type": "node",
      "id": 4446409048,
      "lat": 12.9279866,
      "lon": 77.5519145,
      "tags": {
        "addr:city": "Banashankari,bangalore",
        "addr:housenumber": "119",
        "addr:postcode": "560085",
        "addr:street": "Kathriguppe Main Road",
        "amenity": "restaurant",
        "cuisine": "regional",
        "name": "Janahaar",
        "opening_hours": "09:00-21:00",
        "phone": "+91 90351 04559",
        "takeaway": "yes"
      }
    },
    {
      "type": "node",
      "id": 4446411830,
      "lat": 12.9416198,
      "lon": 77.5573584,
      "tags": {
        "addr:city": "Banashankari,Bangalore",
        "addr:housenumber": "544/14",
        "addr:postcode": "560050",
        "addr:street": "Hanumantha Nagar Main Road / 50 Feet Road",
        "amenity": "restaurant",
        "cuisine": "regional",
        "name": "New Sri Banashankari Donne Biriyani Corner",
        "opening_hours": "12:30-16:00,19:00-22:00",
        "phone": "+91 99455 50255",
        "takeaway": "yes"
      }
    },
    {
      "type": "node",
      "id": 4446439565,
      "lat": 12.9415734,
      "lon": 77.5578002,
      "tags": {
        "addr:city": "Banashankari,Bangalore",
        "addr:postcode": "560050",
        "addr:street": "10th Main Road,",
        "amenity": "restaurant",
        "cuisine": "fast_food",
        "name": "Coffee Bytes",
        "opening_hours": "07:00-12:00,16:00-20:30",
        "phone": "+91 88846 80081",
        "takeaway": "yes"
      }
    },
    {
      "type": "node",
      "id": 4446881168,
      "lat": 12.9378359,
      "lon": 77.5573329,
      "tags": {
        "addr:city": "Bangalore",
        "addr:housenumber": "5",
        "addr:postcode": "560050",
        "addr:street": "80 Feet Road, 1st Stage, Srinivasa Nagar, Banashankari",
        "amenity": "hospital",
        "name": "\" NRS Medical & Dental Specialists Centre\"",
        "phone": "080-26696054"
      }
    },
    {
      "type": "node",
      "id": 4446891375,
      "lat": 12.9386994,
      "lon": 77.5518394,
      "tags": {
        "addr:city": "bangalore",
        "addr:district": "Bengaluru Urban",
        "addr:housenumber": "60",
        "addr:postcode": "560050",
        "addr:state": "Karnataka",
        "addr:street": "2nd Main, Bsk 1st Stage, 80 Feet Road, Srinivasa Nagar,Sree Manjunatha Temple Street",
        "amenity": "hospital",
        "name": "Chiranjeevi Hospital & Maternity Home",
        "phone": "080 2691 7676",
        "source": "OpenGovernmentData"
      }
    },
    {
      "type": "node",
      "id": 4446893667,
      "lat": 12.9373748,
      "lon": 77.5494778,
      "tags": {
        "addr:city": "bangalore",
        "addr:district": "Bengaluru Urban",
        "addr:full": "110, 1st Main, Sbm Colony, Bsk 1st Stage Hanumantha Nagar",
        "addr:housenumber": "110",
        "addr:postcode": "560050",
        "addr:state": "Karnataka",
        "addr:street": "State Bank Of Mysore Colony, 1st Stage,80 Feet Road,, Banashankari",
        "amenity": "hospital",
        "name": "Vinayaka Hospital, Hanumantha Nagar",
        "operator:type": "private",
        "phone": "080 2679 6167",
        "source": "OpenGovernmentData",
        "website": "http://dpal.kar.nic.in/Kanunu%20padakosha%20PDF%20Files/Recognised%20Hospitals.pdf"
      }
    },
    {
      "type": "node",
      "id": 4446894388,
      "lat": 12.9354293,
      "lon": 77.5477956,
      "tags": {
        "addr:city": "Banglore",
        "addr:housenumber": "788",
        "addr:postcode": "560050",
        "addr:street": "11th Cross, 2nd Main, 80ft Main Road, SBM Colony, Giri Nagar 4th Phase",
        "amenity": "hospital",
        "name": "Diavista Diabetes & Multispeciality Hospital",
        "phone": "080 4096 9392",
        "source": "justdail",
        "website": "diavista.co.in"
      }
    },
    {
      "type": "node",
      "id": 4446897063,
      "lat": 12.9420715,
      "lon": 77.553698,
      "tags": {
        "addr:city": "Bengaluru",
        "addr:housenumber": "979/A",
        "addr:postcode": "560085",
        "addr:street": "50 Feet Road",
        "amenity": "hospital",
        "name": "Meenakshi Hospital",
        "name:kn": "ಮೀನಾಕ್ಷಿ ಆಸ್ಪತ್ರೆ",
        "phone": "+918026755800"
      }
    },
    {
      "type": "node",
      "id": 4446899253,
      "lat": 12.9408667,
      "lon": 77.5603657,
      "tags": {
        "addr:city": "bangalore",
        "addr:district": "Bengaluru Urban",
        "addr:full": "#795/1, 9Th Main ,Bsk 1st, Stage,2nd Block,Hanumantha Nagar",
        "addr:housenumber": "795/1",
        "addr:postcode": "560050",
        "addr:state": "Karnataka",
        "addr:street": "9th Main, 2nd Block, Hanumantha Nagar, Near-Shaneshwara Temple Road, Banashankari 1st Stage",
        "amenity": "hospital",
        "name": "Medi-Tech Multi Speciality Hospital",
        "phone": "080 2660 2910",
        "source": "OpenGovernmentData"
      }
    },
    {
      "type": "node",
      "id": 4446900247,
      "lat": 12.9420124,
      "lon": 77.5506918,
      "tags": {
        "addr:city": "bangalore",
        "addr:housenumber": "237/37",
        "addr:postcode": "560050",
        "addr:street": "Nagendra Block, 50ft Road, 10th Main Rd, Srinagar, Banashankari",
        "amenity": "hospital",
        "name": "Kusuma Hospital",
        "phone": "080 2642 1177",
        "source": "justdail"
      }
    },
    {
      "type": "node",
      "id": 4446905394,
      "lat": 12.943838,
      "lon": 77.5537472,
      "tags": {
        "addr:city": "bangalore",
        "addr:district": "Bengaluru Urban",
        "addr:full": "No-22/2, 13Th Main, Banashankari,1st Stage, 3Road block, Shrinagar",
        "addr:housenumber": "22/2",
        "addr:postcode": "560050",
        "addr:state": "Karnataka",
        "addr:street": "13th Main Srinagar, Banashankari",
        "amenity": "clinic",
        "name": "Trinetraalaya Eye Care and Surgical Centre",
        "phone": "080 2599 0004",
        "source": "OpenGovernmentData"
      }
    },
    {
      "type": "node",
      "id": 4446915143,
      "lat": 12.9383428,
      "lon": 77.5598834,
      "tags": {
        "addr:city": "bangalore",
        "addr:housenumber": "786",
        "addr:postcode": "560050",
        "addr:street": "10th Main, BSK 1st Stage, Banashankari Stage 1, Banashankari,",
        "amenity": "pharmacy",
        "name": "Shakti Medicals & Generals",
        "phone": "080 2667 4045",
        "source": "just dial"
      }
    },
    {
      "type": "node",
      "id": 4446915945,
      "lat": 12.93599,
      "lon": 77.5534094,
      "tags": {
        "addr:city": "bangalore",
        "addr:housenumber": "84/1",
        "addr:postcode": "560050",
        "addr:street": "9th Main, Dr. Raj Road, Srinivasnagar, Banashankari",
        "name": "Mathrushree Medicals",
        "phone": "+9188847 85707",
        "shop": "medical_supply",
        "source": "justdial"
      }
    },
    {
      "type": "node",
      "id": 4446919819,
      "lat": 12.9385917,
      "lon": 77.5545138,
      "tags": {
        "addr:city": "Bangalore",
        "addr:housenumber": "203",
        "addr:postcode": "560050",
        "addr:street": "BSK 1st Stage, Bank Colony, 80 Feet Rd, Srinivasnagar, Banashankari",
        "name": "Bhagyalakshmi Medicals",
        "phone": "080 2669 7488",
        "shop": "medical_supply",
        "source": "just dial"
      }
    },
    {
      "type": "node",
      "id": 4446923444,
      "lat": 12.9383175,
      "lon": 77.5549076,
      "tags": {
        "addr:city": "Bangalore",
        "addr:housenumber": "207",
        "addr:postcode": "560050",
        "addr:street": "7th Main, Near Panchami Chats, 80 Feet Rd, Banashankari Stage I, Srinivasnagar, Banashankari",
        "amenity": "pharmacy",
        "brand": "Apollo Pharmacy",
        "brand:wikidata": "Q62562612",
        "healthcare": "pharmacy",
        "name": "Apollo Pharmacy",
        "name:kn": "ಅಪೋಲೋ ಫಾರ್ಮಸಿ",
        "phone": "080 2295 7428",
        "source": "justdial",
        "website": "https://apollopharmacy.in/"
      }
    },
    {
      "type": "node",
      "id": 4446923878,
      "lat": 12.9394245,
      "lon": 77.5510448,
      "tags": {
        "addr:city": "bangalore",
        "addr:housenumber": "16",
        "addr:postcode": "560050",
        "addr:street": "Sbm Colony, 80 Feet Road, Banashankari I Stage, Banashankari I Stage, 80 Feet Rd, Banashankari",
        "name": "Gupta Medicals",
        "phone": "080 2669 6188",
        "shop": "medical_supply",
        "source": "justdial"
      }
    },
    {
      "type": "node",
      "id": 4446978212,
      "lat": 12.9360789,
      "lon": 77.5601504,
      "tags": {
        "addr:city": "bangalore",
        "addr:housenumber": "47/1",
        "addr:postcode": "560050",
        "addr:street": "11th Cross, Ashok Nagar, Near-Vidya Peeta Circle, Banashankari 1st Stage",
        "amenity": "pharmacy",
        "name": "Mahaveer medicals",
        "phone": "+91 80 2242 7245",
        "source": "www.justdial.com"
      }
    },
    {
      "type": "node",
      "id": 4446983586,
      "lat": 12.94167,
      "lon": 77.5564774,
      "tags": {
        "addr:city": "Banashankari,Bangalore",
        "addr:housenumber": "Subhashree Complex",
        "addr:postcode": "560050",
        "addr:street": "Hanumantha Nagar Main Road / 50 Feet Road",
        "amenity": "restaurant",
        "cuisine": "indian",
        "name": "Matru Sagar",
        "opening_hours": "07:00-22:00",
        "phone": "+91 7411860439",
        "takeaway": "yes"
      }
    },
    {
      "type": "node",
      "id": 4446989153,
      "lat": 12.9334596,
      "lon": 77.5463009,
      "tags": {
        "addr:city": "Banashankari,Banglore",
        "addr:housenumber": "91/2",
        "addr:postcode": "560070",
        "addr:street": "80 Feet Road",
        "amenity": "restaurant",
        "cuisine": "indian",
        "name": "Halli Dhaba",
        "opening_hours": "00:00-23:59",
        "phone": "+91 9844560214",
        "takeaway": "yes"
      }
    },
    {
      "type": "node",
      "id": 4446992064,
      "lat": 12.9385698,
      "lon": 77.5531314,
      "tags": {
        "addr:city": "Bangalore",
        "addr:housenumber": "415/A",
        "addr:postcode": "560050",
        "addr:street": "12th Main Road, Bank Colony Circle, Beside NIIT, BSK 1st Stage, 80 Feet Rd, Banashankari",
        "amenity": "pharmacy",
        "name": "Sri Swaraj Medicals",
        "phone": "+9198864 58232",
        "shop": "medical_supply",
        "source": "justdial"
      }
    },
    {
      "type": "node",
      "id": 4446992573,
      "lat": 12.9447368,
      "lon": 77.5537072,
      "tags": {
        "addr:city": "Banashankari,Bangalore",
        "addr:housenumber": "1043",
        "addr:postcode": "560050",
        "addr:street": "Ramanjaneya Road",
        "amenity": "restaurant",
        "cuisine": "regional",
        "name": "Rao's Biryani Center",
        "opening_hours": "12:00-22:30",
        "phone": "+91 99642 56007",
        "takeaway": "yes"
      }
    },
    {
      "type": "node",
      "id": 4446999694,
      "lat": 12.9384167,
      "lon": 77.5572651,
      "tags": {
        "addr:city": "Bangalore",
        "addr:housenumber": "281/B",
        "addr:postcode": "560050",
        "addr:street": "1st Floor, 10th Main, 2nd Block, Srinivas Nagar, Near Ayyappaswamy Temple, Banashankari Stage I, Banashankari",
        "amenity": "clinic",
        "name": "Malathi Polyclinic",
        "phone": "080 2660 3366",
        "source": "justdial",
        "website": "malathipolyclinic.com"
      }
    },
    {
      "type": "node",
      "id": 4487985719,
      "lat": 12.9417055,
      "lon": 77.5560577,
      "tags": {
        "addr:city": "Banashankari,Bangalore",
        "addr:housenumber": "173/A",
        "addr:postcode": "560050",
        "addr:street": "Hanumantha Nagar Main Road / 50 Feet Road",
        "name": "Yemkay Supermarket",
        "phone": "(91)-80-33518340",
        "shop": "supermarket"
      }
    },
    {
      "type": "node",
      "id": 4488106563,
      "lat": 12.9378082,
      "lon": 77.5579522,
      "tags": {
        "addr:city": "Bangalore",
        "addr:housenumber": "648",
        "addr:postcode": "560050",
        "addr:street": "10th Main Road, 5th Cross, 2nd Block, Near-Post Office Road, Banashankari 1st Stage",
        "name": "Arjuna Sports",
        "opening_hours": "10:00-22:00",
        "phone": "080 2691 4346",
        "shop": "sports"
      }
    },
    {
      "type": "node",
      "id": 4488117260,
      "lat": 12.9406795,
      "lon": 77.5534344,
      "tags": {
        "addr:city": "Banashankari,Bangalore",
        "addr:housenumber": "#1262",
        "addr:postcode": "560085",
        "addr:street": "80 Feet Road, 100 feet Road, BSK 3st Stage, Hosakerehalli",
        "name": "World Sports & Fitness",
        "opening_hours": "09:00-21:00",
        "phone": "9342869647",
        "shop": "sports"
      }
    },
    {
      "type": "node",
      "id": 4489407129,
      "lat": 12.9379298,
      "lon": 77.5570137,
      "tags": {
        "addr:city": "Bengaluru",
        "addr:housenumber": "7",
        "addr:postcode": "560050",
        "addr:street": "80 Feet Rd, Srinivasnagar, Banashankari",
        "name": "Winners Sports And Mementos",
        "opening_hours": "08:00-22:00",
        "phone": "+919738110190",
        "shop": "sports"
      }
    },
    {
      "type": "node",
      "id": 4489855033,
      "lat": 12.9373987,
      "lon": 77.5582675,
      "tags": {
        "addr:city": "Bangalore",
        "addr:postcode": "560050",
        "addr:street": "80 Feet Rd, Srinivasnagar, Banashankari,",
        "name": "Cycle City",
        "phone": "094481 93498",
        "shop": "sports"
      }
    },
    {
      "type": "node",
      "id": 4489941583,
      "lat": 12.9401558,
      "lon": 77.5478441,
      "tags": {
        "addr:city": "Bengaluru",
        "addr:housenumber": "4,",
        "addr:postcode": "560085",
        "addr:street": "Vivekananda Park Road, Nagendra Block, Banashankari Stage I, Banashankari,, Karnataka",
        "leisure": "fitness_centre",
        "name": "Body Image Fitness Center",
        "opening_hours": "5:30-22:00"
      }
    },
    {
      "type": "node",
      "id": 4701113489,
      "lat": 12.9314007,
      "lon": 77.5577461,
      "tags": {
        "addr:postcode": "560085",
        "amenity": "school",
        "name": "ಶ್ರೀ ಕೃಷ್ಣ ಪಿ ಯು ಕಾಲೇಜು",
        "name:en": "Sri Krishna PU College",
        "name:kn": "ಶ್ರೀ ಕೃಷ್ಣ ಪಿ ಯು ಕಾಲೇಜು"
      }
    },
    {
      "type": "node",
      "id": 4797659571,
      "lat": 12.9293898,
      "lon": 77.5519618,
      "tags": {
        "addr:city": "Bengaluru",
        "addr:postcode": "560085",
        "addr:street": "Kathriguppe Main Road",
        "amenity": "restaurant",
        "brand": "Adyar Ananda Bhavan",
        "brand:wikidata": "Q15178238",
        "cuisine": "regional",
        "name": "Adyar Ananda Bhavan",
        "name:kn": "ಆದ್ಯಾರ್ ಆನಂದ ಭವನ",
        "phone": "919886823031",
        "shop": "confectionery",
        "website": "https://aabsweets.com"
      }
    },
    {
      "type": "node",
      "id": 5234779662,
      "lat": 12.9417109,
      "lon": 77.5562111,
      "tags": {
        "name": "Medplus",
        "name:kn": "ಮೆಡ್‍ಪ್ಲಸ್",
        "shop": "medical_supply"
      }
    },
    {
      "type": "node",
      "id": 5249129421,
      "lat": 12.9334146,
      "lon": 77.5626612,
      "tags": {
        "amenity": "pharmacy",
        "name": "ಬಾಲಾಜಿ ಮೆಡಿಕಲ್ಸ್"
      }
    },
    {
      "type": "node",
      "id": 5302772310,
      "lat": 12.9309162,
      "lon": 77.5473845,
      "tags": {
        "amenity": "restaurant",
        "level": "0",
        "name": "Bengaluru Coffee House",
        "opening_hours": "06:30-12:30,16:00-20:30"
      }
    },
    {
      "type": "node",
      "id": 5302772311,
      "lat": 12.9306675,
      "lon": 77.5474147,
      "tags": {
        "amenity": "clinic",
        "level": "-1",
        "name": "Shekhar Clinic",
        "opening_hours": "10:00-13:00,18:00-21:00"
      }
    },
    {
      "type": "node",
      "id": 5302772312,
      "lat": 12.9306773,
      "lon": 77.5474666,
      "tags": {
        "amenity": "bank",
        "branch": "Banashankari 3rd Stage",
        "level": "1",
        "name": "Karnataka State Co-Operative Apex Bank Ltd",
        "opening_hours": "Mo-Fr 09:00-13:30,14:00-17:00",
        "short_name": "Apex Bank"
      }
    },
    {
      "type": "node",
      "id": 5302772313,
      "lat": 12.9306492,
      "lon": 77.547441,
      "tags": {
        "amenity": "pharmacy",
        "brand": "MedPlus",
        "brand:wikidata": "Q65684234",
        "healthcare": "pharmacy",
        "level": "0",
        "name": "MedPlus"
      }
    },
    {
      "type": "node",
      "id": 5302772314,
      "lat": 12.9306982,
      "lon": 77.5474396,
      "tags": {
        "amenity": "restaurant",
        "level": "-1",
        "name": "Davanagere Bajji Centre"
      }
    },
    {
      "type": "node",
      "id": 5302831862,
      "lat": 12.9364676,
      "lon": 77.5507803,
      "tags": {
        "name": "Srinivasa Dry Cleaners",
        "shop": "dry_cleaning"
      }
    },
    {
      "type": "node",
      "id": 5302831866,
      "lat": 12.9368035,
      "lon": 77.5511894,
      "tags": {
        "name": "Ullas Ladies Tailor",
        "shop": "tailor"
      }
    },
    {
      "type": "node",
      "id": 5304601828,
      "lat": 12.9390746,
      "lon": 77.5480968,
      "tags": {
        "amenity": "community_centre",
        "name": "Sri Srinivasa Nilaya Dharmika Sabha Mandira"
      }
    },
    {
      "type": "node",
      "id": 5304601829,
      "lat": 12.9354259,
      "lon": 77.5473967,
      "tags": {
        "name": "Annapoorneshwari Cars",
        "shop": "car"
      }
    },
    {
      "type": "node",
      "id": 5304601834,
      "lat": 12.9355043,
      "lon": 77.5474745,
      "tags": {
        "name": "Sarvesh Enterprises",
        "shop": "hardware"
      }
    },
    {
      "type": "node",
      "id": 5304601836,
      "lat": 12.935505,
      "lon": 77.5478306,
      "tags": {
        "name": "U Trust Cars",
        "shop": "car"
      }
    },
    {
      "type": "node",
      "id": 5304601837,
      "lat": 12.9355376,
      "lon": 77.5478534,
      "tags": {
        "name": "Repose Sleep Station",
        "shop": "mattress"
      }
    },
    {
      "type": "node",
      "id": 5304601843,
      "lat": 12.9358062,
      "lon": 77.5480552,
      "tags": {
        "name": "Sam Tours and Travels",
        "office": "yes",
        "shop": "travel_agency"
      }
    },
    {
      "type": "node",
      "id": 5304601844,
      "lat": 12.9358925,
      "lon": 77.5477749,
      "tags": {
        "amenity": "bank",
        "atm": "yes",
        "branch": "Hosakerehalli",
        "brand": "HDFC Bank",
        "brand:wikidata": "Q631047",
        "name": "HDFC Bank",
        "name:kn": "ಎಚ್ ಡಿ ಎಫ್ ಸಿ",
        "short_name": "HDFC"
      }
    },
    {
      "type": "node",
      "id": 5304601846,
      "lat": 12.9360376,
      "lon": 77.5479197,
      "tags": {
        "name": "Zoyo Wholesale Center",
        "shop": "clothes"
      }
    },
    {
      "type": "node",
      "id": 5304601852,
      "lat": 12.9363794,
      "lon": 77.5482564,
      "tags": {
        "brand": "Maruti Suzuki",
        "name": "Bimal Auto Agency",
        "shop": "car"
      }
    },
    {
      "type": "node",
      "id": 5304601862,
      "lat": 12.9366134,
      "lon": 77.5483683,
      "tags": {
        "amenity": "school",
        "name": "MediBase"
      }
    },
    {
      "type": "node",
      "id": 5304601865,
      "lat": 12.9369584,
      "lon": 77.5486218,
      "tags": {
        "amenity": "school",
        "name": "KKN coaching classes"
      }
    },
    {
      "type": "node",
      "id": 5304601866,
      "lat": 12.9369447,
      "lon": 77.54865,
      "tags": {
        "name": "My Shoppe",
        "shop": "gift"
      }
    },
    {
      "type": "node",
      "id": 5304601867,
      "lat": 12.9370957,
      "lon": 77.5486674,
      "tags": {
        "amenity": "community_centre",
        "name": "Souharda Mini Hall"
      }
    },
    {
      "type": "node",
      "id": 5304601868,
      "lat": 12.9370832,
      "lon": 77.5487177,
      "tags": {
        "amenity": "community_centre",
        "name": "Sapthapadi Kalyana Mantapa"
      }
    },
    {
      "type": "node",
      "id": 5304601869,
      "lat": 12.9371917,
      "lon": 77.5488136,
      "tags": {
        "name": "Alankar Family Salon",
        "shop": "beauty"
      }
    },
    {
      "type": "node",
      "id": 5304601870,
      "lat": 12.9374172,
      "lon": 77.5490235,
      "tags": {
        "name": "Epitome Skin and Laser Center",
        "shop": "cosmetics"
      }
    },
    {
      "type": "node",
      "id": 5304601871,
      "lat": 12.937429,
      "lon": 77.5490711,
      "tags": {
        "amenity": "dentist",
        "name": "Classic Smiles"
      }
    },
    {
      "type": "node",
      "id": 5304601872,
      "lat": 12.9373819,
      "lon": 77.5490738,
      "tags": {
        "amenity": "ice_cream",
        "brand": "Polar Bear",
        "brand:wikidata": "Q124374249",
        "delivery": "yes",
        "name": "Polar Bear",
        "takeaway": "yes"
      }
    },
    {
      "type": "node",
      "id": 5304601873,
      "lat": 12.9374505,
      "lon": 77.5491321,
      "tags": {
        "name": "Just Bake",
        "shop": "bakery"
      }
    },
    {
      "type": "node",
      "id": 5304601878,
      "lat": 12.9373192,
      "lon": 77.549336,
      "tags": {
        "amenity": "restaurant",
        "name": "Aahar Utsav"
      }
    },
    {
      "type": "node",
      "id": 5304601881,
      "lat": 12.9376675,
      "lon": 77.5492313,
      "tags": {
        "name": "KBS Family Mart",
        "shop": "supermarket"
      }
    },
    {
      "type": "node",
      "id": 5304601882,
      "lat": 12.9377041,
      "lon": 77.5492421,
      "tags": {
        "amenity": "restaurant",
        "name": "Havyaka Mess"
      }
    },
    {
      "type": "node",
      "id": 5304601883,
      "lat": 12.9377198,
      "lon": 77.5493212,
      "tags": {
        "name": "Oven Fresh",
        "shop": "bakery"
      }
    },
    {
      "type": "node",
      "id": 5304601884,
      "lat": 12.9388308,
      "lon": 77.5490148,
      "tags": {
        "name": "SL Bike Center",
        "shop": "car_repair"
      }
    },
    {
      "type": "node",
      "id": 5304601885,
      "lat": 12.9388367,
      "lon": 77.5489343,
      "tags": {
        "name": "Sri Manjunatha Material Suppliers",
        "shop": "hardware"
      }
    },
    {
      "type": "node",
      "id": 5304601886,
      "lat": 12.9388399,
      "lon": 77.5488753,
      "tags": {
        "name": "MM King Tyres",
        "shop": "car_repair"
      }
    },
    {
      "type": "node",
      "id": 5304601888,
      "lat": 12.9388615,
      "lon": 77.5486191,
      "tags": {
        "name": "Cake Bites",
        "shop": "bakery"
      }
    },
    {
      "type": "node",
      "id": 5304601890,
      "lat": 12.9388844,
      "lon": 77.5486641,
      "tags": {
        "leisure": "fitness_centre",
        "name": "Raghavas Fitness"
      }
    },
    {
      "type": "node",
      "id": 5304601891,
      "lat": 12.9390478,
      "lon": 77.5480928,
      "tags": {
        "amenity": "community_centre",
        "name": "Kamalanaga Party Hall"
      }
    },
    {
      "type": "node",
      "id": 5304601902,
      "lat": 12.9393634,
      "lon": 77.5501453,
      "tags": {
        "shop": "convenience"
      }
    },
    {
      "type": "node",
      "id": 5304601903,
      "lat": 12.9393291,
      "lon": 77.5505329,
      "tags": {
        "shop": "tailor"
      }
    },
    {
      "type": "node",
      "id": 5304601908,
      "lat": 12.9392817,
      "lon": 77.550667,
      "tags": {
        "name": "Yashaswini Beauty Parlor",
        "shop": "beauty"
      }
    },
    {
      "type": "node",
      "id": 5304601909,
      "lat": 12.9392595,
      "lon": 77.5507401,
      "tags": {
        "name": "Nivedita Dry Cleaners",
        "shop": "dry_cleaning"
      }
    },
    {
      "type": "node",
      "id": 5304601910,
      "lat": 12.939136,
      "lon": 77.5507843,
      "tags": {
        "name": "Sri Janani Motors",
        "shop": "car_repair"
      }
    },
    {
      "type": "node",
      "id": 5304601911,
      "lat": 12.938535,
      "lon": 77.5494412,
      "tags": {
        "name": "Desi Shop",
        "shop": "boutique"
      }
    },
    {
      "type": "node",
      "id": 5304601922,
      "lat": 12.9386007,
      "lon": 77.549108,
      "tags": {
        "name": "Nandini Milk Parlor",
        "name:kn": "ನಂದಿನಿ ಹಾಲಿನ ಅಂಗಡಿ",
        "shop": "dairy"
      }
    },
    {
      "type": "node",
      "id": 5304601923,
      "lat": 12.9386661,
      "lon": 77.549057,
      "tags": {
        "amenity": "cafe",
        "name": "coffee bite"
      }
    },
    {
      "type": "node",
      "id": 5304601924,
      "lat": 12.9385197,
      "lon": 77.5491576,
      "tags": {
        "amenity": "clinic",
        "name": "Fracture and Ortho Clinic"
      }
    },
    {
      "type": "node",
      "id": 5304601928,
      "lat": 12.938604,
      "lon": 77.5508722,
      "tags": {
        "name": "Sharath Optical",
        "shop": "optician"
      }
    },
    {
      "type": "node",
      "id": 5304601929,
      "lat": 12.9386295,
      "lon": 77.5509205,
      "tags": {
        "name": "Nut Xpress",
        "shop": "spices"
      }
    },
    {
      "type": "node",
      "id": 5304601930,
      "lat": 12.9389981,
      "lon": 77.5509755,
      "tags": {
        "amenity": "dentist",
        "name": "Ganesh Dental Care"
      }
    },
    {
      "type": "node",
      "id": 5304601931,
      "lat": 12.9387922,
      "lon": 77.5511491,
      "tags": {
        "name": "Mahaveer Ply and Hardware",
        "shop": "hardware"
      }
    },
    {
      "type": "node",
      "id": 5304601932,
      "lat": 12.9389386,
      "lon": 77.5517171,
      "tags": {
        "name": "Mument Fashion Zone",
        "shop": "clothes"
      }
    },
    {
      "type": "node",
      "id": 5304601933,
      "lat": 12.9391628,
      "lon": 77.5513114,
      "tags": {
        "addr:district": "Bengaluru Urban",
        "addr:full": "#8/45, 80 Feet Road, ,S.B.M. Colony,Banashankari 1 St Stage",
        "addr:postcode": "560050",
        "addr:state": "Karnataka",
        "amenity": "clinic",
        "name": "Dr. Natesh E.N.T and Surgical Care Centre",
        "source": "OpenGovernmentData"
      }
    },
    {
      "type": "node",
      "id": 5304601934,
      "lat": 12.9391798,
      "lon": 77.551355,
      "tags": {
        "amenity": "pharmacy",
        "name": "Seetha Medicals"
      }
    },
    {
      "type": "node",
      "id": 5304601935,
      "lat": 12.9391902,
      "lon": 77.5513852,
      "tags": {
        "name": "Prashanth Diagnostics",
        "shop": "yes"
      }
    },
    {
      "type": "node",
      "id": 5304601936,
      "lat": 12.9389255,
      "lon": 77.5514227,
      "tags": {
        "name": "Light House",
        "shop": "electrical"
      }
    },
    {
      "type": "node",
      "id": 5304601937,
      "lat": 12.9388955,
      "lon": 77.5513516,
      "tags": {
        "name": "Happy Enterprises",
        "shop": "electrical"
      }
    },
    {
      "type": "node",
      "id": 5304601938,
      "lat": 12.9388818,
      "lon": 77.5513121,
      "tags": {
        "name": "Chinmayi Enterprises",
        "shop": "mobile_phone"
      }
    },
    {
      "type": "node",
      "id": 5304601939,
      "lat": 12.9389282,
      "lon": 77.5515602,
      "tags": {
        "amenity": "restaurant",
        "name": "New Sagar Fast Food"
      }
    },
    {
      "type": "node",
      "id": 5304601946,
      "lat": 12.9392131,
      "lon": 77.5517895,
      "tags": {
        "amenity": "dentist",
        "name": "Pushkal Multi-Specialty Dental Care"
      }
    },
    {
      "type": "node",
      "id": 5304601947,
      "lat": 12.9391987,
      "lon": 77.5517587,
      "tags": {
        "name": "Prince Selections",
        "shop": "clothes"
      }
    },
    {
      "type": "node",
      "id": 5304601949,
      "lat": 12.9391909,
      "lon": 77.5517929,
      "tags": {
        "name": "Lalith Fashions",
        "shop": "jewelry"
      }
    },
    {
      "type": "node",
      "id": 5304601950,
      "lat": 12.939166,
      "lon": 77.5520041,
      "tags": {
        "leisure": "fitness_centre",
        "level": "1",
        "name": "Versatile Fitness"
      }
    },
    {
      "type": "node",
      "id": 5304601951,
      "lat": 12.9391196,
      "lon": 77.5519927,
      "tags": {
        "name": "Punjab Handloom World",
        "shop": "mattress"
      }
    },
    {
      "type": "node",
      "id": 5304601953,
      "lat": 12.939083,
      "lon": 77.5521583,
      "tags": {
        "name": "Sharma Ayurveda Bhavan",
        "shop": "medical_supply"
      }
    },
    {
      "type": "node",
      "id": 5304601954,
      "lat": 12.9389157,
      "lon": 77.5518525,
      "tags": {
        "amenity": "restaurant",
        "name": "Bunt's Biriyani Palace"
      }
    },
    {
      "type": "node",
      "id": 5304601955,
      "lat": 12.9388589,
      "lon": 77.5520356,
      "tags": {
        "amenity": "doctors",
        "name": "Chiranjeevi Clinic"
      }
    },
    {
      "type": "node",
      "id": 5304601956,
      "lat": 12.9388223,
      "lon": 77.5521241,
      "tags": {
        "name": "K.M. Fashions",
        "shop": "clothes"
      }
    },
    {
      "type": "node",
      "id": 5304601957,
      "lat": 12.9388399,
      "lon": 77.5520805,
      "tags": {
        "name": "Fresh Filter Coffee",
        "shop": "coffee"
      }
    },
    {
      "type": "node",
      "id": 5304601958,
      "lat": 12.9386711,
      "lon": 77.5523947,
      "tags": {
        "amenity": "doctors",
        "healthcare": "doctor",
        "level": "1",
        "name": "Padmashree Clinic"
      }
    },
    {
      "type": "node",
      "id": 5304601959,
      "lat": 12.9387045,
      "lon": 77.5523961,
      "tags": {
        "name": "Nag Stationery and Xerox",
        "shop": "copyshop"
      }
    },
    {
      "type": "node",
      "id": 5304601960,
      "lat": 12.9386698,
      "lon": 77.5524175,
      "tags": {
        "level": "1",
        "name": "House of Supplements",
        "shop": "yes"
      }
    },
    {
      "type": "node",
      "id": 5304601961,
      "lat": 12.9387032,
      "lon": 77.5524202,
      "tags": {
        "amenity": "atm",
        "brand": "Kotak Mahindra Bank",
        "brand:wikidata": "Q2040404",
        "name": "Kotak Mahindra Bank",
        "name:kn": "ಕೋಟಕ್ ಮಹಿಂದ್ರ ಬ್ಯಾಂಕ್",
        "operator": "Kotak Mahindra Bank",
        "operator:wikidata": "Q2040404"
      }
    },
    {
      "type": "node",
      "id": 5304601962,
      "lat": 12.9386666,
      "lon": 77.552445,
      "tags": {
        "name": "Kushi Mobiles",
        "shop": "mobile_phone"
      }
    },
    {
      "type": "node",
      "id": 5304601963,
      "lat": 12.9387019,
      "lon": 77.5524477,
      "tags": {
        "name": "Five Star Chicken",
        "shop": "butcher"
      }
    },
    {
      "type": "node",
      "id": 5304601964,
      "lat": 12.9386785,
      "lon": 77.5525989,
      "tags": {
        "name": "T.N.T. Jewellery Works",
        "shop": "jewelry"
      }
    },
    {
      "type": "node",
      "id": 5304601965,
      "lat": 12.9386733,
      "lon": 77.5526257,
      "tags": {
        "amenity": "pharmacy",
        "name": "Jaganni Medicals and General Stores"
      }
    },
    {
      "type": "node",
      "id": 5304601966,
      "lat": 12.9386132,
      "lon": 77.5527256,
      "tags": {
        "amenity": "clinic",
        "level": "2",
        "name": "Basava Natural Healing Center"
      }
    },
    {
      "type": "node",
      "id": 5304601968,
      "lat": 12.938623,
      "lon": 77.5527886,
      "tags": {
        "name": "Sri Lalitha Photoframe Works",
        "shop": "frame"
      }
    },
    {
      "type": "node",
      "id": 5304601969,
      "lat": 12.9386602,
      "lon": 77.5526706,
      "tags": {
        "name": "Inder Jewels",
        "shop": "jewelry"
      }
    },
    {
      "type": "node",
      "id": 5304601970,
      "lat": 12.9386504,
      "lon": 77.5527357,
      "tags": {
        "name": "Babusingh Thakur Pedha",
        "shop": "confectionery"
      }
    },
    {
      "type": "node",
      "id": 5304601971,
      "lat": 12.9386426,
      "lon": 77.5527913,
      "tags": {
        "name": "Mahalakshmi Jewellers",
        "shop": "jewelry"
      }
    },
    {
      "type": "node",
      "id": 5304601972,
      "lat": 12.9385864,
      "lon": 77.5528838,
      "tags": {
        "name": "Sri Gowri Ganesha Travel Links",
        "shop": "travel_agency"
      }
    },
    {
      "type": "node",
      "id": 5304601973,
      "lat": 12.9385877,
      "lon": 77.5528631,
      "tags": {
        "name": "Sri Gowri Ganesha Jewellery Works",
        "shop": "jewelry"
      }
    },
    {
      "type": "node",
      "id": 5304601974,
      "lat": 12.9385824,
      "lon": 77.5529046,
      "tags": {
        "name": "Sri Sharada Enterprises",
        "shop": "convenience"
      }
    },
    {
      "type": "node",
      "id": 5304601975,
      "lat": 12.9385785,
      "lon": 77.5529442,
      "tags": {
        "name": "Sushreema Xerox, DTP",
        "shop": "copyshop"
      }
    },
    {
      "type": "node",
      "id": 5304601976,
      "lat": 12.9386125,
      "lon": 77.5528785,
      "tags": {
        "name": "Pushpa Fancy and Bangle Stores",
        "shop": "convenience"
      }
    },
    {
      "type": "node",
      "id": 5304601977,
      "lat": 12.9386079,
      "lon": 77.552908,
      "tags": {
        "name": "Maruthi Textile Showroom",
        "shop": "clothes"
      }
    },
    {
      "type": "node",
      "id": 5304601978,
      "lat": 12.9386047,
      "lon": 77.5529496,
      "tags": {
        "name": "Meenakshi Textiles",
        "shop": "clothes"
      }
    },
    {
      "type": "node",
      "id": 5304601979,
      "lat": 12.9386001,
      "lon": 77.5529777,
      "tags": {
        "name": "Kasthuri Garments",
        "shop": "clothes"
      }
    },
    {
      "type": "node",
      "id": 5304601980,
      "lat": 12.9385922,
      "lon": 77.553024,
      "tags": {
        "name": "Sri Krishna Wholesale Point",
        "shop": "snacks"
      }
    },
    {
      "type": "node",
      "id": 5304601981,
      "lat": 12.9385903,
      "lon": 77.5530441,
      "tags": {
        "description:kn": "ಗ್ರಂಥಿಗೆ ಅಂಗಡಿ",
        "name": "Meenatshi",
        "shop": "convenience"
      }
    },
    {
      "type": "node",
      "id": 5304601982,
      "lat": 12.938587,
      "lon": 77.5530642,
      "tags": {
        "name": "Sri Mahalakshmi Ghee Center",
        "shop": "convenience"
      }
    },
    {
      "type": "node",
      "id": 5304601984,
      "lat": 12.9387765,
      "lon": 77.5531259,
      "tags": {
        "name": "Sri Sangameshwara Power Tools and Services",
        "shop": "hardware"
      }
    },
    {
      "type": "node",
      "id": 5304601985,
      "lat": 12.9387354,
      "lon": 77.5532091,
      "tags": {
        "name": "Shoe Planet",
        "shop": "shoes"
      }
    },
    {
      "type": "node",
      "id": 5304601986,
      "lat": 12.9387478,
      "lon": 77.5531514,
      "tags": {
        "name": "Mahaveer Electricals",
        "shop": "electrical"
      }
    },
    {
      "type": "node",
      "id": 5304601987,
      "lat": 12.9387517,
      "lon": 77.5531299,
      "tags": {
        "name": "Sri Kalikamba Jyotishyalaya",
        "shop": "yes"
      }
    },
    {
      "type": "node",
      "id": 5304601988,
      "lat": 12.938755,
      "lon": 77.5531071,
      "tags": {
        "level": "0",
        "name": "Rajaram Fancy and Gift Center",
        "shop": "gift"
      }
    },
    {
      "type": "node",
      "id": 5304601989,
      "lat": 12.9387596,
      "lon": 77.5530776,
      "tags": {
        "level": "0",
        "name": "Praveen Kumar Textiles",
        "shop": "clothes"
      }
    },
    {
      "type": "node",
      "id": 5304601990,
      "lat": 12.9387648,
      "lon": 77.5530495,
      "tags": {
        "amenity": "pharmacy",
        "level": "0",
        "name": "Suraksha Medicals"
      }
    },
    {
      "type": "node",
      "id": 5304601991,
      "lat": 12.938804,
      "lon": 77.5529925,
      "tags": {
        "name": "Dhanalakshmi Departmental Stores",
        "shop": "supermarket"
      }
    },
    {
      "type": "node",
      "id": 5304601992,
      "lat": 12.9388112,
      "lon": 77.5529268,
      "tags": {
        "name": "Ambika Jewellers",
        "shop": "jewelry"
      }
    },
    {
      "type": "node",
      "id": 5304601993,
      "lat": 12.9388177,
      "lon": 77.5528852,
      "tags": {
        "amenity": "pharmacy",
        "brand": "MedPlus",
        "brand:wikidata": "Q65684234",
        "healthcare": "pharmacy",
        "name": "MedPlus",
        "name:kn": "ಮೆಡ್‍ಪ್ಲಸ್"
      }
    },
    {
      "type": "node",
      "id": 5304601994,
      "lat": 12.9388491,
      "lon": 77.5527685,
      "tags": {
        "name": "J.K. Traders",
        "shop": "supermarket"
      }
    },
    {
      "type": "node",
      "id": 5304601995,
      "lat": 12.9388733,
      "lon": 77.5526901,
      "tags": {
        "name": "L.J. Iyengar's Bakery",
        "shop": "bakery"
      }
    },
    {
      "type": "node",
      "id": 5304601996,
      "lat": 12.9389288,
      "lon": 77.5525844,
      "tags": {
        "name": "Susri Autoparts",
        "shop": "car_parts"
      }
    },
    {
      "type": "node",
      "id": 5304601997,
      "lat": 12.9389249,
      "lon": 77.5526136,
      "tags": {
        "level": "1",
        "name": "Travel Point",
        "shop": "travel_agency"
      }
    },
    {
      "type": "node",
      "id": 5304601998,
      "lat": 12.9389229,
      "lon": 77.5526364,
      "tags": {
        "amenity": "dentist",
        "level": "1",
        "name": "Namratha Dental Clinic"
      }
    },
    {
      "type": "node",
      "id": 5304601999,
      "lat": 12.9389216,
      "lon": 77.5526545,
      "tags": {
        "level": "1",
        "name": "Belwaki Beauty Parlor",
        "shop": "beauty"
      }
    },
    {
      "type": "node",
      "id": 5304602000,
      "lat": 12.938902,
      "lon": 77.5526518,
      "tags": {
        "level": "0",
        "name": "Rank Opticians",
        "shop": "optician"
      }
    },
    {
      "type": "node",
      "id": 5304602001,
      "lat": 12.9389092,
      "lon": 77.5526096,
      "tags": {
        "level": "0",
        "name": "Saanvi Creations",
        "shop": "boutique"
      }
    },
    {
      "type": "node",
      "id": 5304602002,
      "lat": 12.9389135,
      "lon": 77.5525787,
      "tags": {
        "amenity": "pharmacy",
        "level": "0"
      }
    },
    {
      "type": "node",
      "id": 5304602003,
      "lat": 12.9389125,
      "lon": 77.5525077,
      "tags": {
        "amenity": "bar",
        "name": "Millenium Bar and Restaurant"
      }
    },
    {
      "type": "node",
      "id": 5304602004,
      "lat": 12.9389275,
      "lon": 77.5524614,
      "tags": {
        "description:kn": "ಗ್ರಂಥಿಗೆ ಅಂಗಡಿ",
        "name": "Saptagiri Kumkum Stores",
        "shop": "yes"
      }
    },
    {
      "type": "node",
      "id": 5304602010,
      "lat": 12.9389713,
      "lon": 77.5523052,
      "tags": {
        "name": "4th Main",
        "name:kn": "೪ನೇ ಮುಖ್ಯ ರಸ್ತೆ",
        "shop": "hardware"
      }
    },
    {
      "type": "node",
      "id": 5304602012,
      "lat": 12.9386112,
      "lon": 77.5522723,
      "tags": {
        "amenity": "clinic",
        "level": "2",
        "name": "Virile Men's Health Clinic"
      }
    },
    {
      "type": "node",
      "id": 5304602013,
      "lat": 12.9386517,
      "lon": 77.5522656,
      "tags": {
        "amenity": "ice_cream",
        "level": "-1",
        "name": "Cream n Bites"
      }
    },
    {
      "type": "node",
      "id": 5304602014,
      "lat": 12.9386302,
      "lon": 77.5523058,
      "tags": {
        "level": "1",
        "name": "Soy Salon and Spa",
        "shop": "beauty"
      }
    },
    {
      "type": "node",
      "id": 5304602015,
      "lat": 12.938672,
      "lon": 77.5523172,
      "tags": {
        "description": "Children's Garments",
        "level": "-1",
        "name": "Rose Art",
        "shop": "clothes"
      }
    },
    {
      "type": "node",
      "id": 5304602016,
      "lat": 12.9386805,
      "lon": 77.5523454,
      "tags": {
        "amenity": "restaurant",
        "level": "0",
        "name": "Manoor Maiya's South Kitchen"
      }
    },
    {
      "type": "node",
      "id": 5304602017,
      "lat": 12.9387811,
      "lon": 77.5521845,
      "tags": {
        "amenity": "restaurant",
        "name": "Venkateswara Chats"
      }
    },
    {
      "type": "node",
      "id": 5304602018,
      "lat": 12.9387445,
      "lon": 77.552102,
      "tags": {
        "name": "Sharath Books and Stationaries",
        "shop": "stationery"
      }
    },
    {
      "type": "node",
      "id": 5304602019,
      "lat": 12.9387151,
      "lon": 77.5520336,
      "tags": {
        "amenity": "restaurant",
        "name": "Brahmin Cafe"
      }
    },
    {
      "type": "node",
      "id": 5304602020,
      "lat": 12.9386903,
      "lon": 77.5518841,
      "tags": {
        "amenity": "pharmacy",
        "name": "Adarsh Medical Center",
        "shop": "medical_supply"
      }
    },
    {
      "type": "node",
      "id": 5304602025,
      "lat": 12.9361997,
      "lon": 77.5510016,
      "tags": {
        "name": "Ganesh Traders",
        "shop": "convenience"
      }
    },
    {
      "type": "node",
      "id": 6938775855,
      "lat": 12.9404548,
      "lon": 77.5578493,
      "tags": {
        "addr:district": "Bengaluru Urban",
        "addr:full": "No 519/34, 2nd Cross 10Th Main, Bsk 1st Stage Banashankari",
        "addr:postcode": "560050",
        "addr:state": "Karnataka",
        "amenity": "hospital",
        "name": "Sunetra Eye Hospital, Bengaluru Urban",
        "source": "OpenGovernmentData"
      }
    },
    {
      "type": "node",
      "id": 6938783140,
      "lat": 12.9278657,
      "lon": 77.5519297,
      "tags": {
        "addr:district": "Bengaluru Urban",
        "addr:full": "#129, 1 Main Road, Kattriguppe, Banashankari Iii Stage",
        "addr:postcode": "560085",
        "addr:state": "Karnataka",
        "amenity": "hospital",
        "name": "Ring Road Hospital",
        "source": "OpenGovernmentData"
      }
    },
    {
      "type": "node",
      "id": 6944234456,
      "lat": 12.9443766,
      "lon": 77.5551899,
      "tags": {
        "addr:district": "Bengaluru Urban",
        "addr:full": "No. 855/856, Ramanjaneya Main Road, Near Bus Stand Sreenagar",
        "addr:postcode": "560050",
        "addr:state": "Karnataka",
        "amenity": "clinic",
        "name": "Sreenagar Nursing Home",
        "source": "OpenGovernmentData"
      }
    },
    {
      "type": "node",
      "id": 6947701108,
      "lat": 12.9421036,
      "lon": 77.5584649,
      "tags": {
        "addr:district": "Bengaluru Urban",
        "addr:full": "26, 13Th `A` Main, 50 Feet Road, (Near A.P.S.R.T.C. Booking Counter) Hanumanthanagar",
        "addr:postcode": "560019",
        "addr:state": "Karnataka",
        "amenity": "clinic",
        "name": "Vignesha Ayurvedic Clinic",
        "source": "OpenGovernmentData"
      }
    },
    {
      "type": "node",
      "id": 6948627241,
      "lat": 12.9403953,
      "lon": 77.558544,
      "tags": {
        "addr:district": "Bengaluru Urban",
        "addr:full": "# 513, 8Th Main, 2nd Cross, Dsk 1st Stage, 2nd Block",
        "addr:postcode": "560050",
        "addr:state": "Karnataka",
        "amenity": "clinic",
        "name": "Varna Nursing Home",
        "source": "OpenGovernmentData"
      }
    },
    {
      "type": "node",
      "id": 7213565704,
      "lat": 12.942159,
      "lon": 77.551764,
      "tags": {
        "addr:district": "Bengaluru Urban",
        "addr:full": "743, 1st Block, Dasarhalli, Banashankari Stage I, Banashankari",
        "addr:postcode": "560050",
        "addr:state": "Karnataka",
        "amenity": "clinic",
        "name": "Sri Ram Nursing Home, Bengaluru Urban",
        "source": "OpenGovernmentData"
      }
    },
    {
      "type": "node",
      "id": 7576958022,
      "lat": 12.9432518,
      "lon": 77.5560648,
      "tags": {
        "addr:district": "Bengaluru Urban",
        "addr:full": "Dasarhalli, Banashankari, Bengaluru",
        "addr:state": "Karnataka",
        "amenity": "doctors",
        "name": "Dr. Srivatsa",
        "source": "Local Knowledge"
      }
    },
    {
      "type": "node",
      "id": 7576958025,
      "lat": 12.93753,
      "lon": 77.549675,
      "tags": {
        "addr:district": "Bengaluru Urban",
        "addr:full": "Srinivasnagar, Banashankari, Bengaluru",
        "addr:state": "Karnataka",
        "amenity": "hospital",
        "name": "Vinayaka Hospital",
        "source": "Local Knowledge"
      }
    },
    {
      "type": "node",
      "id": 7576958039,
      "lat": 12.9417439,
      "lon": 77.5601782,
      "tags": {
        "addr:district": "Bengaluru Urban",
        "addr:full": "50 Feet Road, Basavanagadi, Banashankari, Bengaluru",
        "addr:postcode": "560019",
        "addr:state": "Karnataka",
        "amenity": "hospital",
        "name": "Sumanjara Hospital",
        "source": "Local Knowledge"
      }
    },
    {
      "type": "node",
      "id": 7576958040,
      "lat": 12.9440703,
      "lon": 77.5545986,
      "tags": {
        "addr:district": "Bengaluru Urban",
        "addr:full": "Dasarhalli, Banashankari, Bengaluru",
        "addr:state": "Karnataka",
        "amenity": "dentist",
        "name": "S J Dental Square",
        "source": "Local Knowledge"
      }
    },
    {
      "type": "node",
      "id": 7576958048,
      "lat": 12.942076,
      "lon": 77.553598,
      "tags": {
        "addr:district": "Bengaluru Urban",
        "addr:full": "Dasarhalli, Srinagar, Banashankari, Bengaluru",
        "addr:state": "Karnataka",
        "amenity": "hospital",
        "name": "People Tree Hospitals",
        "source": "Local Knowledge"
      }
    },
    {
      "type": "node",
      "id": 7576958059,
      "lat": 12.9422555,
      "lon": 77.5482906,
      "tags": {
        "addr:district": "Bengaluru Urban",
        "addr:full": "Nagendra Block, Muneshwara Block, Banashankari, Bengaluru",
        "addr:state": "Karnataka",
        "amenity": "clinic",
        "name": "Kidney Care Centre",
        "source": "Local Knowledge"
      }
    },
    {
      "type": "node",
      "id": 7576958060,
      "lat": 12.940404,
      "lon": 77.5580361,
      "tags": {
        "addr:district": "Bengaluru Urban",
        "addr:full": "SBM Colony, Banashankari, Bengaluru",
        "addr:postcode": "560050",
        "addr:state": "Karnataka",
        "amenity": "hospital",
        "name": "Verna Hospital",
        "source": "Local Knowledge"
      }
    },
    {
      "type": "node",
      "id": 7576958071,
      "lat": 12.938787,
      "lon": 77.554296,
      "tags": {
        "addr:district": "Bengaluru Urban",
        "addr:full": "Banashankari, Bengaluru",
        "addr:state": "Karnataka",
        "amenity": "hospital",
        "name": "Raghavendra Hospital",
        "source": "Local Knowledge"
      }
    },
    {
      "type": "node",
      "id": 7576958074,
      "lat": 12.938453,
      "lon": 77.551329,
      "tags": {
        "addr:district": "Bengaluru Urban",
        "addr:full": "Srinivasnagar, Banashankari, Bengaluru",
        "addr:state": "Karnataka",
        "amenity": "hospital",
        "name": "Apaara Multi Speciality",
        "source": "Local Knowledge"
      }
    },
    {
      "type": "node",
      "id": 7576958079,
      "lat": 12.9366813,
      "lon": 77.5539425,
      "tags": {
        "addr:district": "Bengaluru Urban",
        "addr:full": "Mysore Bank Colony, Srinivasnagar, Banashankari, Bengaluru",
        "addr:postcode": "560050",
        "addr:state": "Karnataka",
        "amenity": "clinic",
        "name": "Ganesha Clinic",
        "source": "Local Knowledge"
      }
    },
    {
      "type": "node",
      "id": 7576958083,
      "lat": 12.9422541,
      "lon": 77.5506328,
      "tags": {
        "addr:district": "Bengaluru Urban",
        "addr:full": "Giri Nagar, Banashankari, Bengaluru",
        "addr:state": "Karnataka",
        "amenity": "hospital",
        "name": "Drishti Nethralaya",
        "name:kn": "ದೃಷ್ಟಿ ನೇತ್ರಾಲಯ",
        "source": "Local Knowledge"
      }
    },
    {
      "type": "node",
      "id": 7576958097,
      "lat": 12.9386485,
      "lon": 77.5545065,
      "tags": {
        "addr:district": "Bengaluru Urban",
        "addr:full": "SBM Colony, Banashankari Stage I, Banashankari, Bengaluru",
        "addr:state": "Karnataka",
        "amenity": "clinic",
        "name": "Novel Hearing Care Centre",
        "source": "Local Knowledge"
      }
    },
    {
      "type": "node",
      "id": 7576958119,
      "lat": 12.939257,
      "lon": 77.555911,
      "tags": {
        "addr:district": "Bengaluru Urban",
        "addr:full": "Banashankari, Banglore",
        "addr:postcode": "560050",
        "addr:state": "Karnataka",
        "amenity": "clinic",
        "name": "Parimala Childrens Nursing Home",
        "source": "Local Knowledge"
      }
    },
    {
      "type": "node",
      "id": 7579924719,
      "lat": 12.9318184,
      "lon": 77.5556681,
      "tags": {
        "addr:district": "Bengaluru Urban",
        "addr:full": "Srinivasnagar, Banashankari, Bengaluru",
        "addr:postcode": "560085",
        "addr:state": "Karnataka",
        "amenity": "dentist",
        "name": "Niramaya Dental care",
        "source": "Local Knowledge"
      }
    },
    {
      "type": "node",
      "id": 7579924732,
      "lat": 12.9334096,
      "lon": 77.5622345,
      "tags": {
        "addr:district": "Bengaluru Urban",
        "addr:full": "Vidyapeeta Layout, Basavanagudi, Bengaluru",
        "addr:postcode": "560050",
        "addr:state": "Karnataka",
        "amenity": "hospital",
        "name": "Bharathi Hospitals",
        "source": "Local Knowledge"
      }
    },
    {
      "type": "node",
      "id": 8727014188,
      "lat": 12.9337223,
      "lon": 77.5623383,
      "tags": {
        "addr:city": "Bengaluru",
        "addr:housenumber": "408",
        "addr:postcode": "560028",
        "addr:street": "2nd main Vidya Peetha Layout",
        "amenity": "place_of_worship",
        "name": "Sri SIdhi Subrahmanya Temple",
        "religion": "hindu",
        "service_times": "Subrahmanya Temple"
      }
    },
    {
      "type": "node",
      "id": 8727018101,
      "lat": 12.9357431,
      "lon": 77.5613135,
      "tags": {
        "amenity": "atm",
        "brand": "State Bank of India",
        "brand:wikidata": "Q1340361",
        "currency:INR": "yes",
        "name": "State Bank of India",
        "name:kn": "ಎಸ್ ಬಿ ಐ",
        "network": "State Bank of India",
        "opening_hours": "Mo-Su 06:00-22:00",
        "operator": "State Bank of India",
        "operator:wikidata": "Q1340361",
        "short_name": "SBI"
      }
    },
    {
      "type": "node",
      "id": 8727018102,
      "lat": 12.9356558,
      "lon": 77.5609792,
      "tags": {
        "amenity": "atm",
        "currency:INR": "yes",
        "network": "Andhra Bank",
        "operator": "Andhra Bank ATM"
      }
    },
    {
      "type": "node",
      "id": 8727018103,
      "lat": 12.9363701,
      "lon": 77.561999,
      "tags": {
        "amenity": "place_of_worship",
        "name": "Narasimha Swamy Temple",
        "opening_hours:covid19": "closed",
        "religion": "hindu"
      }
    },
    {
      "type": "node",
      "id": 9134314453,
      "lat": 12.9398699,
      "lon": 77.5624828,
      "tags": {
        "amenity": "place_of_worship",
        "name": "Kumaraswami temple"
      }
    },
    {
      "type": "node",
      "id": 12388462222,
      "lat": 12.9397569,
      "lon": 77.5484359,
      "tags": {
        "addr:city": "Bengaluru",
        "addr:district": "Bengaluru",
        "addr:postcode": "560050",
        "addr:street": "2D Cross Rd, opposite to Martin Luther Public School,, 1st phase Girinagar,",
        "amenity": "conference_centre",
        "name": "Sambrama Party Hall"
      }
    },
    {
      "type": "way",
      "id": 132924556,
      "center": {
        "lat": 12.9296424,
        "lon": 77.5479735
      },
      "tags": {
        "designation": "BBMP Park - mysore mallige KS narasimhaswamy park",
        "leisure": "park"
      }
    },
    {
      "type": "way",
      "id": 132924564,
      "center": {
        "lat": 12.9295491,
        "lon": 77.5507012
      },
      "tags": {
        "leisure": "pitch",
        "name": "Rama Rao Layout BBMP Sports Ground",
        "note": "'playground' in OSM is a children's playground with swings et.c."
      }
    },
    {
      "type": "way",
      "id": 133144337,
      "center": {
        "lat": 12.9374012,
        "lon": 77.5594608
      },
      "tags": {
        "leisure": "stadium",
        "name": "Donkana Field",
        "name:kn": "ಕೊಂಕಣ ಮೈದಾನ",
        "sport": "kabbadi,Cricket;tennis;volleyball"
      }
    },
    {
      "type": "way",
      "id": 133145563,
      "center": {
        "lat": 12.9275531,
        "lon": 77.5552342
      },
      "tags": {
        "leisure": "stadium",
        "name": "Basket ball, shuttle court"
      }
    },
    {
      "type": "way",
      "id": 133378267,
      "center": {
        "lat": 12.9394835,
        "lon": 77.5472653
      },
      "tags": {
        "leisure": "park",
        "name": "Vivekananda Park",
        "name:kn": "ವಿವೇಕಾನಂದ ಉದ್ಯಾನವನ"
      }
    },
    {
      "type": "way",
      "id": 172845875,
      "center": {
        "lat": 12.9402185,
        "lon": 77.5623647
      },
      "tags": {
        "amenity": "place_of_worship",
        "landuse": "religious",
        "religion": "hindu"
      }
    },
    {
      "type": "way",
      "id": 172845880,
      "center": {
        "lat": 12.9378089,
        "lon": 77.5583328
      },
      "tags": {
        "amenity": "college"
      }
    },
    {
      "type": "way",
      "id": 224321403,
      "center": {
        "lat": 12.937686,
        "lon": 77.5589287
      },
      "tags": {
        "leisure": "park",
        "name": "Hanumanthanagar Park",
        "name:kn": "ಹನುಮಂತನಗರ ಉದ್ಯಾನವನ"
      }
    },
    {
      "type": "way",
      "id": 224445485,
      "center": {
        "lat": 12.9372234,
        "lon": 77.5588279
      },
      "tags": {
        "amenity": "library",
        "building": "yes",
        "name": "E-Library",
        "operator": "BBMP"
      }
    },
    {
      "type": "way",
      "id": 335739977,
      "center": {
        "lat": 12.9399725,
        "lon": 77.5622203
      },
      "tags": {
        "amenity": "place_of_worship",
        "building": "yes",
        "man_made": "reservoir_covered",
        "religion": "hindu"
      }
    },
    {
      "type": "way",
      "id": 347079448,
      "center": {
        "lat": 12.9337875,
        "lon": 77.5609759
      },
      "tags": {
        "addr:city": "Bengaluru",
        "addr:district": "Bengaluru Urban",
        "addr:housenumber": "440",
        "addr:postcode": "560050",
        "addr:street": "2nd Cross Rd, Vidyapeeta Layout, Banashankari",
        "amenity": "place_of_worship",
        "building": "yes",
        "name": "Udupi Krishna Raghavendra temple, Vidyapeeta",
        "note": "Shri Madhwacharya & Shri Raghavendra Swamy on either sides of Shree Krishna idol. Also houses the office to register all the services (sevas).",
        "religion": "hindu"
      }
    },
    {
      "type": "way",
      "id": 347174216,
      "center": {
        "lat": 12.9387063,
        "lon": 77.5482737
      },
      "tags": {
        "building": "yes",
        "name": "Om Cars",
        "shop": "car"
      }
    },
    {
      "type": "way",
      "id": 348272691,
      "center": {
        "lat": 12.9401419,
        "lon": 77.5485244
      },
      "tags": {
        "amenity": "school",
        "building": "yes",
        "name": "Martin Luther School",
        "name:kn": "ಮಾರ್ಟಿನ್ ಲೂಥರ್ ಶಾಲೆ"
      }
    },
    {
      "type": "way",
      "id": 348273191,
      "center": {
        "lat": 12.939932,
        "lon": 77.5488064
      },
      "tags": {
        "amenity": "school",
        "building": "yes",
        "name": "Martin Luther School",
        "name:kn": "ಮಾರ್ಟಿನ್ ಲೂಥರ್ ಶಾಲೆ"
      }
    },
    {
      "type": "way",
      "id": 348287598,
      "center": {
        "lat": 12.9391883,
        "lon": 77.5513126
      },
      "tags": {
        "addr:district": "Bengaluru Urban",
        "addr:full": "SBM Colony, Banashankari, Bengaluru",
        "addr:state": "Karnataka",
        "amenity": "hospital",
        "building": "yes",
        "name": "Prashanth Hospitals",
        "name:kn": "ಪಿಇಎಸ್ ವಿಶ್ವವಿದ್ಯಾಲಯ ಕ್ರಿಕೆಟ್ ಮೈದಾನ",
        "source": "Local Knowledge"
      }
    },
    {
      "type": "way",
      "id": 348287603,
      "center": {
        "lat": 12.93628,
        "lon": 77.5480299
      },
      "tags": {
        "building": "yes",
        "name": "Sri Rajeswari Stones",
        "shop": "hardware"
      }
    },
    {
      "type": "way",
      "id": 348287689,
      "center": {
        "lat": 12.935815,
        "lon": 77.547652
      },
      "tags": {
        "amenity": "fuel",
        "brand": "Nayara",
        "brand:wikidata": "Q5399377",
        "building": "yes",
        "name": "Mamtha Petroleum"
      }
    },
    {
      "type": "way",
      "id": 348287808,
      "center": {
        "lat": 12.9352746,
        "lon": 77.5476721
      },
      "tags": {
        "amenity": "community_centre",
        "building": "yes",
        "name": "Saligrama Party Hall"
      }
    },
    {
      "type": "way",
      "id": 348287929,
      "center": {
        "lat": 12.9351361,
        "lon": 77.5477728
      },
      "tags": {
        "amenity": "place_of_worship",
        "building": "yes",
        "name": "Subramanya Swami Temple",
        "name:kn": "ಸುಬ್ರಮಣ್ಯಸ್ವಾಮಿ ದೇವಾಲಯ",
        "religion": "hindu"
      }
    },
    {
      "type": "way",
      "id": 348459952,
      "center": {
        "lat": 12.9415238,
        "lon": 77.5543245
      },
      "tags": {
        "amenity": "college",
        "name:en": "PES Pre-University College",
        "phone": "+918026600648"
      }
    },
    {
      "type": "way",
      "id": 348459990,
      "center": {
        "lat": 12.9410637,
        "lon": 77.5543987
      },
      "tags": {
        "amenity": "school",
        "name:en": "Vivekananda School",
        "name:kn": "ವಿವೇಕಾನಂದ ಶಾಲೆ"
      }
    },
    {
      "type": "way",
      "id": 348460058,
      "center": {
        "lat": 12.9354912,
        "lon": 77.550587
      },
      "tags": {
        "amenity": "school",
        "building": "yes",
        "name": "Holy Saint High School"
      }
    },
    {
      "type": "way",
      "id": 348460459,
      "center": {
        "lat": 12.9373127,
        "lon": 77.5503892
      },
      "tags": {
        "amenity": "school",
        "building": "yes",
        "name": "JHS school"
      }
    },
    {
      "type": "way",
      "id": 348460564,
      "center": {
        "lat": 12.9367447,
        "lon": 77.5495935
      },
      "tags": {
        "amenity": "place_of_worship",
        "building": "yes",
        "name": "Manjunathswamy Temple",
        "name:kn": "ಮಂಜುನಾಥಸ್ವಾಮಿ ದೇವಸ್ಥಾನ",
        "religion": "hindu"
      }
    },
    {
      "type": "way",
      "id": 348478873,
      "center": {
        "lat": 12.9380298,
        "lon": 77.5523133
      },
      "tags": {
        "amenity": "school",
        "building": "yes",
        "name": "Vidyashankari English School",
        "name:kn": "ವಿದ್ಯಾಶಂಕರಿ ಇಂಗ್ಲಿಷ್ ಶಾಲೆ"
      }
    },
    {
      "type": "way",
      "id": 348478886,
      "center": {
        "lat": 12.9380628,
        "lon": 77.5515971
      },
      "tags": {
        "amenity": "school",
        "building": "yes",
        "name": "VSS Public School"
      }
    },
    {
      "type": "way",
      "id": 349819116,
      "center": {
        "lat": 12.9411519,
        "lon": 77.5605776
      },
      "tags": {
        "amenity": "place_of_worship",
        "building": "yes",
        "name": "Shanimahatma Temple",
        "name:kn": "ಶನಿ ಮಹಾತ್ಮ ದೇವಸ್ಥಾನ",
        "religion": "hindu"
      }
    },
    {
      "type": "way",
      "id": 350555620,
      "center": {
        "lat": 12.93464,
        "lon": 77.5554274
      },
      "tags": {
        "amenity": "place_of_worship",
        "building": "yes",
        "name": "Renuka Yellamma Temple",
        "name:kn": "ರೇಣುಕಾ ಯಲ್ಲಮ್ಮ ದೇವಸ್ಥಾನ",
        "religion": "hindu"
      }
    },
    {
      "type": "way",
      "id": 351135758,
      "center": {
        "lat": 12.9355631,
        "lon": 77.5617033
      },
      "tags": {
        "addr:city": "Bengaluru",
        "amenity": "cinema",
        "building": "yes",
        "name": "Chandrodaya Theatre",
        "name:kn": "ಚಂದ್ರೋದಯ ಚಿತ್ರಮಂದಿರ",
        "screen": "1"
      }
    },
    {
      "type": "way",
      "id": 362894271,
      "center": {
        "lat": 12.9322491,
        "lon": 77.5490336
      },
      "tags": {
        "leisure": "park"
      }
    },
    {
      "type": "way",
      "id": 548937690,
      "center": {
        "lat": 12.9368784,
        "lon": 77.5503602
      },
      "tags": {
        "amenity": "place_of_worship",
        "name": "Sri Muthu Maramma Temple",
        "name:kn": "ಶ್ರೀ ಮುತ್ತು ಮಾರಮ್ಮ",
        "religion": "hindu"
      }
    },
    {
      "type": "way",
      "id": 737361889,
      "center": {
        "lat": 12.9344285,
        "lon": 77.5507627
      },
      "tags": {
        "leisure": "park",
        "name": "Banni Mantapa",
        "name:kn": "ಬನ್ನಿ ಮಂಟಪ"
      }
    },
    {
      "type": "way",
      "id": 1134091914,
      "center": {
        "lat": 12.9399324,
        "lon": 77.5624801
      },
      "tags": {
        "amenity": "place_of_worship",
        "religion": "hindu"
      }
    }
  ]
}