{
  "area_name": "Subbayanapalya",
  "osm_id": 12657922333,
  "osm_type": "node",
  "place_type": "neighbourhood",
  "amenity_count": 139,
  "amenities": [
    {
      "type": "node",
      "id": 1474863994,
      "lat": 13.0032065,
      "lon": 77.6358178,
      "tags": {
        "amenity": "cinema",
        "check_date": "2024-10-13",
        "name": "Mukunda Theatre",
        "name:kn": "ಮುಕುಂದ ಥೇಟರ್",
        "toilets:wheelchair": "no",
        "wheelchair": "no"
      }
    },
    {
      "type": "node",
      "id": 1742635196,
      "lat": 13.0149612,
      "lon": 77.6438861,
      "tags": {
        "amenity": "fast_food",
        "cuisine": "coffee_shop",
        "name": "Cuppa"
      }
    },
    {
      "type": "node",
      "id": 1742635612,
      "lat": 13.0150344,
      "lon": 77.6437466,
      "tags": {
        "name": "Pacer Yamaha showroom",
        "shop": "motorcycle"
      }
    },
    {
      "type": "node",
      "id": 1742637590,
      "lat": 13.0155149,
      "lon": 77.6430312,
      "tags": {
        "amenity": "place_of_worship",
        "check_date": "2024-07-10",
        "name": "Om Shakthi Temple",
        "name:kn": "ಓಂ ಶಕ್ತಿ ದೇವಸ್ಥಾನ",
        "religion": "hindu"
      }
    },
    {
      "type": "node",
      "id": 1742639143,
      "lat": 13.0159282,
      "lon": 77.6430921,
      "tags": {
        "name": "City Honda",
        "shop": "motorcycle"
      }
    },
    {
      "type": "node",
      "id": 1742640276,
      "lat": 13.0151076,
      "lon": 77.645262,
      "tags": {
        "amenity": "bank",
        "atm": "yes",
        "name": "Vijaya Bank",
        "name:kn": "ವಿಜಯ ಬ್ಯಾಂಕು"
      }
    },
    {
      "type": "node",
      "id": 1742641132,
      "lat": 13.0145928,
      "lon": 77.6462464,
      "tags": {
        "amenity": "bank",
        "atm": "yes",
        "brand": "Bank of Maharashtra",
        "brand:wikidata": "Q2004304",
        "brand:wikipedia": "en:Bank of Maharashtra",
        "name": "Bank of Maharashtra",
        "name:en": "Bank of Maharashtra",
        "website": "https://www.bankofmaharashtra.in/"
      }
    },
    {
      "type": "node",
      "id": 1742641459,
      "lat": 13.0147104,
      "lon": 77.6462571,
      "tags": {
        "amenity": "library",
        "name": "Just Books"
      }
    },
    {
      "type": "node",
      "id": 1742654255,
      "lat": 13.0163724,
      "lon": 77.6428346,
      "tags": {
        "amenity": "bank",
        "atm": "yes",
        "brand": "State Bank of India",
        "brand:wikidata": "Q1340361",
        "brand:wikipedia": "en:State Bank of India",
        "name": "State Bank of India",
        "name:kn": "ಮೈಸೂರು ಬ್ಯಾಂಕ್‌",
        "short_name": "SBI",
        "website": "https://www.sbi.co.in"
      }
    },
    {
      "type": "node",
      "id": 1742670069,
      "lat": 13.0143184,
      "lon": 77.6423518,
      "tags": {
        "amenity": "school",
        "check_date": "2024-07-06",
        "name": "Patel Public School"
      }
    },
    {
      "type": "node",
      "id": 1742670267,
      "lat": 13.0140832,
      "lon": 77.6423465,
      "tags": {
        "name": "Bake Fields",
        "shop": "bakery"
      }
    },
    {
      "type": "node",
      "id": 1743937707,
      "lat": 13.0095498,
      "lon": 77.6434526,
      "tags": {
        "amenity": "restaurant",
        "cuisine": "indian",
        "name": "Uttam Sagar",
        "name:kn": "ಉತ್ತಮ್ ಸಾಗರ್"
      }
    },
    {
      "type": "node",
      "id": 1743937742,
      "lat": 13.0144106,
      "lon": 77.6427176,
      "tags": {
        "amenity": "restaurant",
        "cuisine": "indian",
        "name": "Adigas Annapoorna",
        "name:kn": "ಅಡಿಗಾಸ್ ಅನ್ನಪೂರ್ಣ"
      }
    },
    {
      "type": "node",
      "id": 1743937872,
      "lat": 13.0127328,
      "lon": 77.6481357,
      "tags": {
        "brand": "More",
        "brand:wikidata": "Q6910891",
        "name": "More",
        "shop": "supermarket"
      }
    },
    {
      "type": "node",
      "id": 1743939029,
      "lat": 13.0119854,
      "lon": 77.6475134,
      "tags": {
        "amenity": "restaurant",
        "cuisine": "indian",
        "name": "Srinidhi Upchaar",
        "name:kn": "ಶ್ರೀನಿಧಿ ಉಪಚಾರ್"
      }
    },
    {
      "type": "node",
      "id": 1743939200,
      "lat": 13.0126649,
      "lon": 77.6474598,
      "tags": {
        "amenity": "bar",
        "name": "Sreeraj Lassi Bar"
      }
    },
    {
      "type": "node",
      "id": 2211056425,
      "lat": 13.0145004,
      "lon": 77.635717,
      "tags": {
        "amenity": "restaurant",
        "cuisine": "indian",
        "name": "Empire Restaurant"
      }
    },
    {
      "type": "node",
      "id": 2211056431,
      "lat": 13.0144977,
      "lon": 77.6357519,
      "tags": {
        "name": "Bakey and Joy",
        "shop": "bakery"
      }
    },
    {
      "type": "node",
      "id": 2466510949,
      "lat": 13.0030286,
      "lon": 77.6349993,
      "tags": {
        "amenity": "fuel",
        "brand": "Hindustan Petroleum",
        "brand:wikidata": "Q1619375",
        "name": "Srinivasa Petrol / Gas Station",
        "official_name": "Hindustan Petroleum",
        "operator": "HP"
      }
    },
    {
      "type": "node",
      "id": 2473242531,
      "lat": 13.0054674,
      "lon": 77.6482717,
      "tags": {
        "amenity": "school",
        "name": "Mother Mary English School"
      }
    },
    {
      "type": "node",
      "id": 2475354324,
      "lat": 13.0155815,
      "lon": 77.6426558,
      "tags": {
        "addr:city": "Kalyan Nagar, Bangalore",
        "addr:street": "7 Main Road",
        "amenity": "college",
        "check_date": "2024-07-06",
        "name": "East Point College"
      }
    },
    {
      "type": "node",
      "id": 4349391290,
      "lat": 13.0047906,
      "lon": 77.636936,
      "tags": {
        "amenity": "fuel",
        "brand": "Indian Oil",
        "brand:wikidata": "Q1289348",
        "brand:wikipedia": "en:Indian Oil Corporation",
        "name": "Indianoil"
      }
    },
    {
      "type": "node",
      "id": 4349394091,
      "lat": 13.0086727,
      "lon": 77.6429248,
      "tags": {
        "amenity": "bank",
        "brand": "Indian Overseas Bank",
        "brand:wikidata": "Q2003611",
        "brand:wikipedia": "en:Indian Overseas Bank",
        "name": "Indian Overseas Bank",
        "name:en": "Indian Overseas Bank",
        "name:kn": "ಐ ಓ ಬಿ",
        "short_name": "IOB",
        "website": "https://www.iob.in"
      }
    },
    {
      "type": "node",
      "id": 4349394092,
      "lat": 13.0099795,
      "lon": 77.6434028,
      "tags": {
        "amenity": "bank",
        "brand:wikidata": "Q1340361",
        "brand:wikipedia": "en:State Bank of India",
        "name": "State Bank of India",
        "name:kn": "ಎಸ್ ಬಿ ಐ",
        "short_name": "SBI",
        "website": "https://www.sbi.co.in"
      }
    },
    {
      "type": "node",
      "id": 4349396789,
      "lat": 13.0042413,
      "lon": 77.6358455,
      "tags": {
        "amenity": "place_of_worship",
        "name": "Temple",
        "name:kn": "ದೇವಸ್ಥಾನ",
        "religion": "hindu"
      }
    },
    {
      "type": "node",
      "id": 4349443891,
      "lat": 13.0169826,
      "lon": 77.6432959,
      "tags": {
        "addr:district": "Bengaluru Urban",
        "addr:full": "Kalyan Nagar, Bengaluru",
        "addr:postcode": "560043",
        "addr:state": "Karnataka",
        "amenity": "hospital",
        "name": "Trilife Hospital",
        "source": "Local Knowledge"
      }
    },
    {
      "type": "node",
      "id": 4426126391,
      "lat": 13.0155316,
      "lon": 77.6394955,
      "tags": {
        "amenity": "cafe",
        "name": "Al Amanah Cafe",
        "name:en": "Al amanah cafe"
      }
    },
    {
      "type": "node",
      "id": 4446897124,
      "lat": 13.013929,
      "lon": 77.6389286,
      "tags": {
        "addr:city": "bangalore",
        "addr:housenumber": "8",
        "addr:postcode": "560033",
        "addr:street": "Nehru Road, Kullappa Road, Near-Kullapa Circle, Kammanahalli, PNS Layout, Subbayianiah Palyam, Banswadi",
        "amenity": "pharmacy",
        "name": "Royal Medicals",
        "phone": "08033792698"
      }
    },
    {
      "type": "node",
      "id": 4446981238,
      "lat": 13.0155944,
      "lon": 77.6397049,
      "tags": {
        "addr:city": "bangalore",
        "addr:housenumber": "20, 5th Avenue",
        "addr:postcode": "560043",
        "addr:street": "PNS Layout, Kalyan Nagar,",
        "amenity": "restaurant",
        "cuisine": "regional",
        "delivery": "yes",
        "name": "Al Amanah Cafe",
        "opening_hours": "16:00-23:30",
        "smoking": "no",
        "takeaway": "yes"
      }
    },
    {
      "type": "node",
      "id": 4447317940,
      "lat": 13.0149162,
      "lon": 77.6466021,
      "tags": {
        "addr:city": "Bangalore",
        "addr:country": "IN",
        "addr:hamlet": "HRBR Layout",
        "addr:housenumber": "309",
        "addr:postcode": "560043",
        "addr:street": "7th Main Road",
        "addr:suburb": "Kalyan Nagar",
        "amenity": "restaurant",
        "check_date": "2025-03-17",
        "cuisine": "korean",
        "delivery": "yes",
        "microbrewery": "no",
        "name": "Hi Seoul",
        "opening_hours": "11:30-15:00,17:30-22:00",
        "outdoor_seating": "no",
        "phone": "098457 71657",
        "reservation": "recommended",
        "smoking": "no",
        "takeaway": "yes"
      }
    },
    {
      "type": "node",
      "id": 4489336845,
      "lat": 13.0142127,
      "lon": 77.6361981,
      "tags": {
        "addr:city": "bengalore",
        "addr:housenumber": "48, 49",
        "addr:postcode": "560084",
        "addr:street": "3rd Main Nehru Rd, MEG Layout, A Narayanapura, Kammanahalli,",
        "name": "Falcon Sports",
        "opening_hours": "10:30-22:30",
        "phone": "+919901541131",
        "shop": "sports"
      }
    },
    {
      "type": "node",
      "id": 4489749852,
      "lat": 13.0151194,
      "lon": 77.6368067,
      "tags": {
        "addr:city": "bangalore",
        "addr:housenumber": "218",
        "addr:postcode": "560043",
        "addr:street": "Sunshine Complex, 3rd Floor, Kammanahalli Main Road, Kalyan Nagar Post, HRBR Layout",
        "name": "Hair Do Salon And Spa",
        "opening_hours": "09:00-21:30",
        "phone": "080-25448677",
        "shop": "beauty"
      }
    },
    {
      "type": "node",
      "id": 4489754229,
      "lat": 13.0133693,
      "lon": 77.6355793,
      "tags": {
        "addr:city": "bangalore",
        "addr:housenumber": "36",
        "addr:postcode": "560084",
        "addr:street": "1st Floor, Kammanahalli Main Road, Kammanahalli",
        "leisure": "sports_centre",
        "name": "Leon Maestro De Fitness",
        "opening_hours": "05:00-23:00",
        "phone": "(91)-80-33537002",
        "sport": "gymnastics",
        "website": "https://www.fitternity.com/"
      }
    },
    {
      "type": "node",
      "id": 4489763428,
      "lat": 13.0131486,
      "lon": 77.6481052,
      "tags": {
        "addr:city": "bangalore",
        "addr:housenumber": "6",
        "addr:postcode": "560043",
        "addr:street": "1st Floor, 1st Cross, Banswadi Main Road, Dodda Banaswadi",
        "name": "Venus Unisex Salon",
        "opening_hours": "11:00-21:00",
        "phone": "9916248091",
        "shop": "beauty"
      }
    },
    {
      "type": "node",
      "id": 4489887189,
      "lat": 13.0106898,
      "lon": 77.6367534,
      "tags": {
        "addr:city": "bangalore",
        "addr:housenumber": "44",
        "addr:postcode": "560084",
        "addr:street": "Kammanahalli Main Road",
        "name": "Sensia Salon And Spa",
        "opening_hours": "09:00-21:00",
        "phone": "9611995786",
        "shop": "beauty"
      }
    },
    {
      "type": "node",
      "id": 4506375513,
      "lat": 13.0030193,
      "lon": 77.6353183,
      "tags": {
        "amenity": "atm",
        "brand": "Canara Bank",
        "brand:en": "Canara Bank",
        "brand:hi": "केनरा बैंक",
        "brand:kn": "ಕೆನರಾ ಬ್ಯಾಂಕ್",
        "brand:pa": "ਕੇਨਰਾ ਬੈਂਕ",
        "brand:pnb": "کینرا بینک",
        "brand:ur": "کینرا بینک",
        "brand:wikidata": "Q2003777",
        "name": "Canara Bank",
        "name:en": "Canara Bank",
        "name:hi": "केनरा बैंक",
        "name:kn": "ಕೆನರಾ ಬ್ಯಾಂಕ್",
        "name:pa": "ਕੇਨਰਾ ਬੈਂਕ",
        "name:pnb": "کینرا بینک",
        "name:ur": "کینرا بینک",
        "operator": "Canara Bank",
        "operator:wikidata": "Q2003777"
      }
    },
    {
      "type": "node",
      "id": 4506380485,
      "lat": 13.0030191,
      "lon": 77.6353049,
      "tags": {
        "amenity": "fast_food",
        "name": "Hot dum biryani"
      }
    },
    {
      "type": "node",
      "id": 4506393240,
      "lat": 13.0027302,
      "lon": 77.6348876,
      "tags": {
        "amenity": "pharmacy",
        "brand": "Apollo Pharmacy",
        "brand:wikidata": "Q62562612",
        "healthcare": "pharmacy",
        "name": "Apollo Pharmacy",
        "name:kn": "ಅಪೊಲೋ ಫಾರ್ಮಸಿ"
      }
    },
    {
      "type": "node",
      "id": 4586355539,
      "lat": 13.0148983,
      "lon": 77.646793,
      "tags": {
        "addr:city": "bangalore",
        "addr:housenumber": "201",
        "addr:postcode": "560043",
        "addr:street": "9th Main Road",
        "amenity": "ice_cream",
        "check_date": "2025-03-17",
        "name": "Ibaco",
        "opening_hours": "11:00 - 23:00",
        "phone": "+91 9900038530"
      }
    },
    {
      "type": "node",
      "id": 4702180791,
      "lat": 13.0151589,
      "lon": 77.6451446,
      "tags": {
        "addr:housenumber": "805",
        "addr:street": "2nd Cross Road",
        "amenity": "clinic",
        "name": "Express Clinic",
        "name:en": "Express Clinic",
        "phone": "+91-080-42234552"
      }
    },
    {
      "type": "node",
      "id": 4784848418,
      "lat": 13.0097185,
      "lon": 77.6444698,
      "tags": {
        "addr:city": "Bangalore",
        "addr:full": "586, 3rd Cross Road, Near Maruthi School Bus Stop, Erappa Layout, Subbaiahna Palya, Banaswadi, Bangalore - 560043",
        "addr:housenumber": "586",
        "addr:postcode": "560043",
        "addr:street": "3rd Cross Road",
        "amenity": "bank",
        "atm": "yes",
        "brand": "Syndicate Bank",
        "brand:wikidata": "Q2004088",
        "name": "Syndicate Bank",
        "name:en": "Syndicate Bank",
        "name:kn": "ಸಿಂಡಿಕೇಟ್ ಬ್ಯಾಂಕ್",
        "website": "https://www.syndicatebank.in"
      }
    },
    {
      "type": "node",
      "id": 4844863325,
      "lat": 13.0028658,
      "lon": 77.6347877,
      "tags": {
        "amenity": "pharmacy",
        "healthcare": "pharmacy",
        "name": "Maruti Medicals",
        "name:en": "Maruti Medicals"
      }
    },
    {
      "type": "node",
      "id": 4844863326,
      "lat": 13.00594,
      "lon": 77.6386489,
      "tags": {
        "amenity": "atm",
        "brand": "Axis Bank",
        "brand:wikidata": "Q2003549",
        "name": "Axis Bank",
        "name:kn": "ಆಕ್ಸಿಸ್ ಬ್ಯಾಂಕ್",
        "operator": "Axis Bank",
        "operator:wikidata": "Q2003549"
      }
    },
    {
      "type": "node",
      "id": 4844863327,
      "lat": 13.0085671,
      "lon": 77.6420845,
      "tags": {
        "name": "Multiplex",
        "name:en": "Multiplex",
        "shop": "supermarket"
      }
    },
    {
      "type": "node",
      "id": 4844863328,
      "lat": 13.0106572,
      "lon": 77.6454963,
      "tags": {
        "name": "Digital world",
        "name:en": "Digital world",
        "shop": "electronics"
      }
    },
    {
      "type": "node",
      "id": 4844863329,
      "lat": 13.0118637,
      "lon": 77.6474039,
      "tags": {
        "leisure": "fitness_centre",
        "name": "Fitness World",
        "name:en": "Fitness World"
      }
    },
    {
      "type": "node",
      "id": 4844863330,
      "lat": 13.0129746,
      "lon": 77.6479687,
      "tags": {
        "amenity": "restaurant",
        "name": "New Shanti sagar",
        "name:en": "New Shanti sagar"
      }
    },
    {
      "type": "node",
      "id": 4844863375,
      "lat": 13.0027812,
      "lon": 77.6345924,
      "tags": {
        "amenity": "pharmacy",
        "healthcare": "pharmacy",
        "name": "Primecare",
        "name:en": "Primecare",
        "name:kn": "ಪ್ರೈಮ ಕೇರ್"
      }
    },
    {
      "type": "node",
      "id": 4844863377,
      "lat": 13.0050546,
      "lon": 77.6372707,
      "tags": {
        "name": "Hi speed printing",
        "name:en": "Hi speed printing",
        "shop": "computer"
      }
    },
    {
      "type": "node",
      "id": 4844863378,
      "lat": 13.0089466,
      "lon": 77.6427801,
      "tags": {
        "name": "Happy shoppy",
        "name:en": "Happy shoppy",
        "shop": "supermarket"
      }
    },
    {
      "type": "node",
      "id": 4844863379,
      "lat": 13.0093391,
      "lon": 77.6432232,
      "tags": {
        "amenity": "bank",
        "brand": "Punjab National Bank",
        "brand:wikidata": "Q2743499",
        "name": "Punjab National Bank",
        "name:en": "Punjab National Bank",
        "name:kn": "ಪಂಜಾಬ ರಾಷ್ಟ್ರೀಯ ಬ್ಯಾಂಕ್",
        "short_name": "PNB",
        "website": "https://www.pnbindia.in"
      }
    },
    {
      "type": "node",
      "id": 4844863380,
      "lat": 13.0140839,
      "lon": 77.6406622,
      "tags": {
        "name": "Kamakshi",
        "name:en": "Kamakshi",
        "name:kn": "ಕಾಮಾಕ್ಷಿ",
        "shop": "clothes"
      }
    },
    {
      "type": "node",
      "id": 4844863382,
      "lat": 13.0143953,
      "lon": 77.6363195,
      "tags": {
        "name": "Vivo",
        "name:en": "Vivo",
        "shop": "mobile_phone"
      }
    },
    {
      "type": "node",
      "id": 4844863383,
      "lat": 13.0143717,
      "lon": 77.6363708,
      "tags": {
        "shop": "optician"
      }
    },
    {
      "type": "node",
      "id": 4844865026,
      "lat": 13.0076445,
      "lon": 77.6407572,
      "tags": {
        "name": "China bazaar",
        "name:en": "China bazaar",
        "shop": "supermarket"
      }
    },
    {
      "type": "node",
      "id": 4844865027,
      "lat": 13.0103924,
      "lon": 77.6484101,
      "tags": {
        "amenity": "clinic",
        "name": "Health and hijama clinic",
        "name:en": "Health and hijama clinic"
      }
    },
    {
      "type": "node",
      "id": 4844865049,
      "lat": 13.0057651,
      "lon": 77.6383622,
      "tags": {
        "name": "My fashion shoes",
        "name:en": "My fashion shoes",
        "shop": "shoes"
      }
    },
    {
      "type": "node",
      "id": 4844865050,
      "lat": 13.0072315,
      "lon": 77.6403015,
      "tags": {
        "amenity": "pharmacy",
        "name": "Manjunatha",
        "name:en": "Manjunatha"
      }
    },
    {
      "type": "node",
      "id": 4844865051,
      "lat": 13.0079259,
      "lon": 77.6412745,
      "tags": {
        "amenity": "atm",
        "brand": "Axis Bank",
        "brand:wikidata": "Q2003549",
        "name": "Axis Bank",
        "name:kn": "ಆಕ್ಸಿಸ್ ಬ್ಯಾಂಕ್",
        "operator": "Axis Bank",
        "operator:wikidata": "Q2003549"
      }
    },
    {
      "type": "node",
      "id": 4844865053,
      "lat": 13.0100548,
      "lon": 77.6431061,
      "tags": {
        "amenity": "bank",
        "brand": "IDBI",
        "brand:wikidata": "Q3633485",
        "brand:wikipedia": "en:IDBI Bank",
        "check_date": "2024-07-10",
        "name": "IDBI Bank",
        "name:en": "IDBI Bank",
        "name:kn": "ಐಡಿಬಿಐ ಬ್ಯಾಂಕ್",
        "old_name": "Industrial Development Bank of India",
        "short_name": "IDBI",
        "website": "https://www.idbi.com"
      }
    },
    {
      "type": "node",
      "id": 4844865054,
      "lat": 13.0140126,
      "lon": 77.6395774,
      "tags": {
        "name": "Ty engar",
        "name:en": "Ty engar",
        "shop": "bakery"
      }
    },
    {
      "type": "node",
      "id": 4844865056,
      "lat": 13.0142154,
      "lon": 77.6363852,
      "tags": {
        "amenity": "restaurant",
        "name": "Kairali",
        "name:en": "Kairali",
        "name:kn": "ಕೈರಲಿ"
      }
    },
    {
      "type": "node",
      "id": 4844865057,
      "lat": 13.014746,
      "lon": 77.6357881,
      "tags": {
        "amenity": "hospital",
        "name": "Doctor's diagnostics Centre",
        "name:en": "Doctor's diagnostics Centre"
      }
    },
    {
      "type": "node",
      "id": 4844867424,
      "lat": 13.0069226,
      "lon": 77.6399189,
      "tags": {
        "amenity": "bank",
        "brand": "Canara Bank",
        "brand:pa": "ਕੇਨਰਾ ਬੈਂਕ",
        "brand:ur": "کینرا بینک",
        "brand:wikidata": "Q2003777",
        "brand:wikipedia": "en:Canara Bank",
        "brand:wikipedia:pa": "ਕੇਨਰਾ ਬੈਂਕ",
        "name": "Canara Bank",
        "name:kn": "ಕೆನರಾ ಬ್ಯಾಂಕ್",
        "name:pa": "ਕੇਨਰਾ ਬੈਂਕ",
        "name:ur": "کینرا بینک",
        "website": "https://www.canarabank.com/"
      }
    },
    {
      "type": "node",
      "id": 4844867425,
      "lat": 13.0139843,
      "lon": 77.642086,
      "tags": {
        "name": "Regal furniture",
        "name:en": "Regal furniture",
        "shop": "furniture"
      }
    },
    {
      "type": "node",
      "id": 4844867426,
      "lat": 13.0141702,
      "lon": 77.6362532,
      "tags": {
        "name": "IPhone Final desicion",
        "name:en": "IPhone Final desicion",
        "shop": "mobile_phone"
      }
    },
    {
      "type": "node",
      "id": 4945660322,
      "lat": 13.0124591,
      "lon": 77.6483105,
      "tags": {
        "amenity": "bank",
        "brand": "Federal Bank",
        "brand:wikidata": "Q2044983",
        "name": "Federal Bank",
        "name:en": "Federal Bank",
        "name:kn": "ಫೆಡೆರಲ್ ಬ್ಯಾಂಕ್"
      }
    },
    {
      "type": "node",
      "id": 5080786067,
      "lat": 13.006508,
      "lon": 77.6452745,
      "tags": {
        "amenity": "school"
      }
    },
    {
      "type": "node",
      "id": 5080801905,
      "lat": 13.0085915,
      "lon": 77.64736,
      "tags": {
        "amenity": "school"
      }
    },
    {
      "type": "node",
      "id": 6938900156,
      "lat": 13.0086882,
      "lon": 77.6431717,
      "tags": {
        "addr:district": "Bengaluru Urban",
        "addr:full": "J. Ramgopal Layout, Subbannapalya, Banaswadi Main Road",
        "addr:postcode": "560033",
        "addr:state": "Karnataka",
        "amenity": "clinic",
        "name": "Dewans Maternity and Nursing Home",
        "source": "OpenGovernmentData"
      }
    },
    {
      "type": "node",
      "id": 6939069014,
      "lat": 13.0144467,
      "lon": 77.6427305,
      "tags": {
        "addr:district": "Bengaluru Urban",
        "addr:full": "# 924, 80 Feet Road, Kalyan Nagar, Next To Adigas Hotel",
        "addr:postcode": "560033",
        "addr:state": "Karnataka",
        "amenity": "clinic",
        "name": "Pratham Ent and Child Care Centre",
        "source": "OpenGovernmentData"
      }
    },
    {
      "type": "node",
      "id": 6944525274,
      "lat": 13.0138123,
      "lon": 77.6354731,
      "tags": {
        "addr:district": "Bengaluru Urban",
        "addr:full": "No. 31, Kammanahalli Main Road Near Venkateswara Ent",
        "addr:postcode": "560084",
        "addr:state": "Karnataka",
        "amenity": "hospital",
        "name": "R K Hospital, Bengaluru Urban",
        "source": "OpenGovernmentData"
      }
    },
    {
      "type": "node",
      "id": 6944926403,
      "lat": 13.0028473,
      "lon": 77.635349,
      "tags": {
        "addr:district": "Bengaluru Urban",
        "addr:full": "# 1, Venkatram Layout Banaswadi Main Road Maruthi Sevanagar",
        "addr:postcode": "560033",
        "addr:state": "Karnataka",
        "amenity": "clinic",
        "healthcare": "clinic",
        "name": "Kamath Nursing Home",
        "source": "OpenGovernmentData"
      }
    },
    {
      "type": "node",
      "id": 6947526185,
      "lat": 13.0139391,
      "lon": 77.6388192,
      "tags": {
        "addr:housenumber": "2nd floor",
        "addr:street": "Nehru Road",
        "amenity": "bureau_de_change",
        "name": "Currency Exchange",
        "opening_hours": "Mo-Su 09:00-18:00"
      }
    },
    {
      "type": "node",
      "id": 7484790943,
      "lat": 13.0080895,
      "lon": 77.6416085,
      "tags": {
        "name": "Books and fancy",
        "name:en": "Books and fancy",
        "shop": "bookmaker"
      }
    },
    {
      "type": "node",
      "id": 7577248181,
      "lat": 13.012005,
      "lon": 77.647777,
      "tags": {
        "addr:district": "Bengaluru Urban",
        "addr:full": "Banaswadi, Bengaluru",
        "addr:postcode": "560043",
        "addr:state": "Karnataka",
        "amenity": "clinic",
        "name": "Poorna Heart and Women's Clinic",
        "source": "Local Knowledge"
      }
    },
    {
      "type": "node",
      "id": 7577248200,
      "lat": 13.0120265,
      "lon": 77.6477552,
      "tags": {
        "addr:district": "Bengaluru Urban",
        "addr:full": "Banaswadi, Bengaluru",
        "addr:postcode": "560043",
        "addr:state": "Karnataka",
        "amenity": "clinic",
        "name": "Nainda Advanced Eye Care Centre",
        "source": "Local Knowledge"
      }
    },
    {
      "type": "node",
      "id": 7577248202,
      "lat": 13.0116786,
      "lon": 77.6470294,
      "tags": {
        "addr:district": "Bengaluru Urban",
        "addr:full": "Balaji Layout, OMBR Layout, Banaswadi, Bengaluru",
        "addr:postcode": "560043",
        "addr:state": "Karnataka",
        "amenity": "clinic",
        "name": "Roots Skin Clinic"
      }
    },
    {
      "type": "node",
      "id": 7577248219,
      "lat": 13.013776,
      "lon": 77.646793,
      "tags": {
        "addr:district": "Bengaluru Urban",
        "addr:full": "Balaji Layout, Subbaiahnapalya, Banaswadi, Bengaluru",
        "addr:postcode": "560043",
        "addr:state": "Karnataka",
        "amenity": "clinic",
        "name": "Krupa Homeopathic Clinic",
        "source": "Local Knowledge"
      }
    },
    {
      "type": "node",
      "id": 7577248222,
      "lat": 13.0161535,
      "lon": 77.6428067,
      "tags": {
        "addr:district": "Bengaluru Urban",
        "addr:full": "Kalyan Nagar, Bengaluru",
        "addr:postcode": "560043",
        "addr:state": "Karnataka",
        "amenity": "clinic",
        "name": "Dr. Dinakar's Child Care",
        "source": "Local Knowledge"
      }
    },
    {
      "type": "node",
      "id": 7577248225,
      "lat": 13.01213,
      "lon": 77.647984,
      "tags": {
        "addr:district": "Bengaluru Urban",
        "addr:full": "Banaswadi, Bengaluru",
        "addr:postcode": "560043",
        "addr:state": "Karnataka",
        "amenity": "clinic",
        "name": "Vardhan Fertility",
        "source": "Local Knowledge"
      }
    },
    {
      "type": "node",
      "id": 7577248260,
      "lat": 13.013761,
      "lon": 77.648529,
      "tags": {
        "addr:district": "Bengaluru Urban",
        "addr:full": "Balaji Layout, Subbaiahnapalya, Banaswadi, Bengaluru",
        "addr:postcode": "560043",
        "addr:state": "Karnataka",
        "amenity": "hospital",
        "name": "Endocrine Speciality Centre",
        "source": "Local Knowledge"
      }
    },
    {
      "type": "node",
      "id": 7577248278,
      "lat": 13.0109537,
      "lon": 77.6476418,
      "tags": {
        "addr:district": "Bengaluru Urban",
        "addr:full": "Chikka Banaswadi, Banaswadi, Bengaluru",
        "addr:postcode": "560043",
        "addr:state": "Karnataka",
        "amenity": "hospital",
        "name": "Milaan Hospital",
        "source": "Local Knowledge"
      }
    },
    {
      "type": "node",
      "id": 9271698481,
      "lat": 13.0131524,
      "lon": 77.6483783,
      "tags": {
        "beauty": "nails",
        "name": "Shaakya",
        "shop": "beauty"
      }
    },
    {
      "type": "node",
      "id": 10309324765,
      "lat": 12.9997072,
      "lon": 77.6408081,
      "tags": {
        "addr:city": "Bengaluru",
        "addr:postcode": "560033",
        "addr:street": "Baiyappanahalli Rd, Sathya Nagar",
        "amenity": "food_court",
        "name": "SMVT Food Court"
      }
    },
    {
      "type": "node",
      "id": 11219451413,
      "lat": 13.014037,
      "lon": 77.6423838,
      "tags": {
        "amenity": "restaurant",
        "check_date": "2023-09-26",
        "name": "Bandipura Donne Biriyaani"
      }
    },
    {
      "type": "node",
      "id": 11219451414,
      "lat": 13.0139282,
      "lon": 77.6423538,
      "tags": {
        "amenity": "clinic",
        "check_date": "2023-09-26",
        "healthcare": "clinic",
        "name": "Smile 365 Dental Clinic",
        "name:kn": "ಸ್ಮೈಲ್ ೩೬೫ ದಂತ ಚಿಕಿತ್ಸಾಲಯ"
      }
    },
    {
      "type": "node",
      "id": 11219451415,
      "lat": 13.0139139,
      "lon": 77.6423634,
      "tags": {
        "check_date": "2023-09-26",
        "name": "Apollo Pharmacy",
        "name:kn": "ಅಪೊಲೊ ಫಾರ್ಮ್‌ಸಿ",
        "payment:mastercard": "yes",
        "payment:visa": "yes",
        "shop": "chemist"
      }
    },
    {
      "type": "node",
      "id": 11250389086,
      "lat": 13.0113802,
      "lon": 77.6465207,
      "tags": {
        "brand": "Snack Shop",
        "check_date": "2023-10-09",
        "description": "Sweets and Savouries",
        "name": "Sri Bharani Mixtures",
        "shop": "convenience"
      }
    },
    {
      "type": "node",
      "id": 11575753883,
      "lat": 13.0117532,
      "lon": 77.6470108,
      "tags": {
        "name": "IFB Point",
        "shop": "electronics",
        "wheelchair": "no"
      }
    },
    {
      "type": "node",
      "id": 11575755772,
      "lat": 13.0126685,
      "lon": 77.6466543,
      "tags": {
        "amenity": "car_wash",
        "name": "Smart Car Wash",
        "wheelchair": "yes"
      }
    },
    {
      "type": "node",
      "id": 11575755773,
      "lat": 13.0127702,
      "lon": 77.6466864,
      "tags": {
        "brand": "cult.fit",
        "leisure": "fitness_centre",
        "name": "cult.fit",
        "sport": "fitness"
      }
    },
    {
      "type": "node",
      "id": 12178421101,
      "lat": 13.0128114,
      "lon": 77.6483893,
      "tags": {
        "amenity": "restaurant",
        "contact:instagram": "theshokudorestaurant",
        "cuisine": "asian",
        "email": "info@shokudo.in",
        "name": "Shokudo Select",
        "opening_hours": "12:00-23:00",
        "phone": "+91 7019013088",
        "website": "https://shokudo.in/"
      }
    },
    {
      "type": "node",
      "id": 12538079771,
      "lat": 13.0146398,
      "lon": 77.6462474,
      "tags": {
        "amenity": "place_of_worship",
        "name": "Vision Immanuel - Bangalore Korean Community",
        "religion": "christian"
      }
    },
    {
      "type": "node",
      "id": 12538079772,
      "lat": 13.0153582,
      "lon": 77.646874,
      "tags": {
        "amenity": "cafe",
        "name": "The Lit Caffe"
      }
    },
    {
      "type": "node",
      "id": 12638457255,
      "lat": 13.0063802,
      "lon": 77.6504432,
      "tags": {
        "amenity": "fast_food",
        "fast_food": "cafeteria",
        "name": "CMR Collage cafeteria"
      }
    },
    {
      "type": "node",
      "id": 12638457280,
      "lat": 13.0062138,
      "lon": 77.6508142,
      "tags": {
        "amenity": "conference_centre",
        "name": "CMRU Auditorium"
      }
    },
    {
      "type": "node",
      "id": 12638482899,
      "lat": 13.0062045,
      "lon": 77.6506157,
      "tags": {
        "amenity": "conference_centre",
        "name": "AV Hall"
      }
    },
    {
      "type": "node",
      "id": 12712362611,
      "lat": 13.0062323,
      "lon": 77.6422061,
      "tags": {
        "amenity": "post_box",
        "operator": "India Post"
      }
    },
    {
      "type": "node",
      "id": 12959840781,
      "lat": 13.0170153,
      "lon": 77.6429262,
      "tags": {
        "amenity": "hospital",
        "check_date": "2025-06-29",
        "healthcare": "hospital",
        "name": "Trilife Hospital",
        "name:en": "Trilife Hospital",
        "operator:type": "private"
      }
    },
    {
      "type": "node",
      "id": 13168786889,
      "lat": 13.0155835,
      "lon": 77.6403473,
      "tags": {
        "contact:instagram": "luxemisu",
        "name": "Luxemisu",
        "shop": "pastry"
      }
    },
    {
      "type": "node",
      "id": 13267106089,
      "lat": 13.0061753,
      "lon": 77.6408332,
      "tags": {
        "check_date": "2025-10-29",
        "name": "Vedic Weaves Silks And Sarees",
        "name:en": "Vedic Weaves Silks And Sarees",
        "shop": "clothes"
      }
    },
    {
      "type": "way",
      "id": 46953029,
      "center": {
        "lat": 13.0115276,
        "lon": 77.6504879
      },
      "tags": {
        "amenity": "school",
        "name": "Mariam Nilaya High School"
      }
    },
    {
      "type": "way",
      "id": 160470308,
      "center": {
        "lat": 13.0129862,
        "lon": 77.6475998
      },
      "tags": {
        "building": "yes",
        "name": "Food World",
        "name:kn": "ಫುಡ್ ವರ್ಲ್ಡ್",
        "shop": "supermarket"
      }
    },
    {
      "type": "way",
      "id": 160470310,
      "center": {
        "lat": 13.0127079,
        "lon": 77.6475927
      },
      "tags": {
        "amenity": "restaurant",
        "building": "yes",
        "name": "Tamarind"
      }
    },
    {
      "type": "way",
      "id": 168712748,
      "center": {
        "lat": 13.0163415,
        "lon": 77.6407229
      },
      "tags": {
        "leisure": "park",
        "name": "Dr. Rajkumar Park",
        "name:etymology:wikidata": "Q984634",
        "name:kn": "ರಾಜ್ಕುಮಾರ್ ಉದ್ಯಾನ"
      }
    },
    {
      "type": "way",
      "id": 175063893,
      "center": {
        "lat": 13.0097626,
        "lon": 77.6402272
      },
      "tags": {
        "amenity": "school"
      }
    },
    {
      "type": "way",
      "id": 213349498,
      "center": {
        "lat": 13.0074665,
        "lon": 77.6409907
      },
      "tags": {
        "amenity": "place_of_worship",
        "check_date": "2025-08-17",
        "name": "Ayyappa Temple",
        "name:kn": "ಅಯ್ಯಪ್ಪ ದೇವಸ್ಥಾನ",
        "religion": "hindu",
        "toilets:wheelchair": "no",
        "wheelchair": "no"
      }
    },
    {
      "type": "way",
      "id": 213350081,
      "center": {
        "lat": 13.0075596,
        "lon": 77.6412505
      },
      "tags": {
        "amenity": "fuel",
        "brand": "Indian Oil",
        "brand:wikidata": "Q1289348",
        "brand:wikipedia": "en:Indian Oil Corporation",
        "name": "Indian Oil Fuel",
        "operator": "IOC",
        "toilets:wheelchair": "no",
        "wheelchair": "limited"
      }
    },
    {
      "type": "way",
      "id": 239547642,
      "center": {
        "lat": 13.0061592,
        "lon": 77.6507354
      },
      "tags": {
        "addr:housenumber": "CA 2",
        "addr:postcode": "560043",
        "addr:street": "3rd Cross, 6th 'A' Ma, 4th Main Road, East of NGEF Layout, Bennigana Halli",
        "amenity": "college",
        "name": "CMR College",
        "operator": "CMR University"
      }
    },
    {
      "type": "way",
      "id": 346521829,
      "center": {
        "lat": 13.0146094,
        "lon": 77.6464563
      },
      "tags": {
        "addr:postcode": "560043",
        "addr:street": "2nd Cross Road",
        "amenity": "hospital",
        "building:levels": "2",
        "healthcare": "hospital",
        "name": "Indicus"
      }
    },
    {
      "type": "way",
      "id": 347192813,
      "center": {
        "lat": 13.0104363,
        "lon": 77.6432265
      },
      "tags": {
        "addr:city": "Bangalore",
        "addr:housenumber": "11",
        "addr:postcode": "560043",
        "addr:street": "7th Main Road",
        "beauty": "nails",
        "building": "yes",
        "building:levels": "2",
        "name": "Shaakya Salon & Spa",
        "payment:cash": "yes",
        "payment:credit_cards": "yes",
        "payment:debit_cards": "yes",
        "payment:visa": "yes",
        "phone": "+91 9741117707",
        "shop": "beauty",
        "website": "https://shaakyaspa.com/"
      }
    },
    {
      "type": "way",
      "id": 348631787,
      "center": {
        "lat": 13.01372,
        "lon": 77.635789
      },
      "tags": {
        "addr:city": "bangalore",
        "addr:district": "Bengaluru Urban",
        "addr:housenumber": "36",
        "addr:postcode": "560084",
        "addr:street": "Kammanahalli Main Road",
        "alt_name": "Mohan Stores",
        "amenity": "bank",
        "brand": "HDFC Bank",
        "brand:wikidata": "Q631047",
        "building": "yes",
        "name": "HDFC Bank",
        "short_name": "HDFC"
      }
    },
    {
      "type": "way",
      "id": 363870191,
      "center": {
        "lat": 13.0152635,
        "lon": 77.6467105
      },
      "tags": {
        "addr:postcode": "560043",
        "addr:street": "8th E Main Road",
        "amenity": "hospital",
        "healthcare": "hospital",
        "healthcare:speciality": "general",
        "name": "Sharada Medicals"
      }
    },
    {
      "type": "way",
      "id": 675933723,
      "center": {
        "lat": 13.0082525,
        "lon": 77.6381999
      },
      "tags": {
        "leisure": "park"
      }
    },
    {
      "type": "way",
      "id": 675933724,
      "center": {
        "lat": 13.0084618,
        "lon": 77.6373261
      },
      "tags": {
        "leisure": "playground"
      }
    },
    {
      "type": "way",
      "id": 675933725,
      "center": {
        "lat": 13.0082593,
        "lon": 77.6377878
      },
      "tags": {
        "leisure": "park"
      }
    },
    {
      "type": "way",
      "id": 917882290,
      "center": {
        "lat": 13.0008873,
        "lon": 77.6391603
      },
      "tags": {
        "amenity": "school",
        "name": "St. Jude's English High School"
      }
    },
    {
      "type": "way",
      "id": 1065306086,
      "center": {
        "lat": 13.0019707,
        "lon": 77.6392044
      },
      "tags": {
        "leisure": "garden"
      }
    },
    {
      "type": "way",
      "id": 1065306093,
      "center": {
        "lat": 13.0010579,
        "lon": 77.6398329
      },
      "tags": {
        "access": "customers",
        "amenity": "parking",
        "fee": "yes",
        "parking": "surface"
      }
    },
    {
      "type": "way",
      "id": 1263380580,
      "center": {
        "lat": 13.0119515,
        "lon": 77.6466304
      },
      "tags": {
        "amenity": "fuel",
        "brand": "Bharat Petroleum",
        "brand:wikidata": "Q854826",
        "name": "Bharat Petroleum"
      }
    },
    {
      "type": "way",
      "id": 1278777823,
      "center": {
        "lat": 13.0000461,
        "lon": 77.6403996
      },
      "tags": {
        "access": "customers",
        "amenity": "parking",
        "fee": "yes",
        "parking": "surface"
      }
    },
    {
      "type": "way",
      "id": 1278784818,
      "center": {
        "lat": 13.0007897,
        "lon": 77.6392329
      },
      "tags": {
        "amenity": "place_of_worship",
        "name": "St. Jude's Church",
        "religion": "christian"
      }
    },
    {
      "type": "way",
      "id": 1278822701,
      "center": {
        "lat": 13.0018031,
        "lon": 77.6388626
      },
      "tags": {
        "leisure": "park"
      }
    },
    {
      "type": "way",
      "id": 1364481598,
      "center": {
        "lat": 13.0095735,
        "lon": 77.6483665
      },
      "tags": {
        "addr:city": "Bangalore",
        "addr:postcode": "560043",
        "addr:street": "Banaswadi",
        "amenity": "place_of_worship",
        "check_date": "2024-09-18",
        "denomination": "catholic",
        "name": "St. Vincent Pallotti Church",
        "religion": "christian"
      }
    },
    {
      "type": "way",
      "id": 1364481599,
      "center": {
        "lat": 13.0116118,
        "lon": 77.6459969
      },
      "tags": {
        "amenity": "fire_station",
        "landuse": "commercial",
        "name": "Banaswadi Fire Station",
        "name:kn": "ಬಾಣಸವಾಡಿ ಅಗ್ನಿಶಾಮಕ ಠಾಣೆ"
      }
    },
    {
      "type": "way",
      "id": 1364481614,
      "center": {
        "lat": 13.0128418,
        "lon": 77.6428309
      },
      "tags": {
        "amenity": "fuel",
        "brand": "Bharat Petroleum",
        "brand:wikidata": "Q854826",
        "compressed_air": "yes",
        "name": "Matrushree Petrol / Gas Station",
        "operator": "Bharat Petroleum"
      }
    },
    {
      "type": "way",
      "id": 1364670944,
      "center": {
        "lat": 13.0132839,
        "lon": 77.6356805
      },
      "tags": {
        "amenity": "fuel"
      }
    },
    {
      "type": "way",
      "id": 1364697717,
      "center": {
        "lat": 13.009651,
        "lon": 77.6436983
      },
      "tags": {
        "amenity": "events_venue",
        "landuse": "commercial"
      }
    },
    {
      "type": "way",
      "id": 1364736446,
      "center": {
        "lat": 13.0063417,
        "lon": 77.6506168
      },
      "tags": {
        "leisure": "playground",
        "name": "CMRU Playground & Basket ball court"
      }
    },
    {
      "type": "way",
      "id": 1364921398,
      "center": {
        "lat": 13.0084402,
        "lon": 77.6419715
      },
      "tags": {
        "amenity": "place_of_worship",
        "building": "yes",
        "name": "Sree Panchamukhi Ganapthy Temple",
        "name:kn": "ಶ್ರೀ ಪಂಚಮುಖಿ ಗಣಪತಿ ದೇವಸ್ಥಾನ",
        "religion": "hindu"
      }
    },
    {
      "type": "way",
      "id": 1364921400,
      "center": {
        "lat": 13.0085366,
        "lon": 77.6427566
      },
      "tags": {
        "amenity": "fuel"
      }
    },
    {
      "type": "way",
      "id": 1365966052,
      "center": {
        "lat": 13.0087166,
        "lon": 77.6372472
      },
      "tags": {
        "leisure": "pitch"
      }
    },
    {
      "type": "way",
      "id": 1366023291,
      "center": {
        "lat": 13.0087502,
        "lon": 77.6444553
      },
      "tags": {
        "amenity": "school",
        "education": "school",
        "name": "Maruthi Vidyalaya",
        "name:kn": "ಮಾರುತಿ ವಿದ್ಯಾಲಯ"
      }
    },
    {
      "type": "way",
      "id": 1366744185,
      "center": {
        "lat": 13.0110872,
        "lon": 77.6463117
      },
      "tags": {
        "addr:postcode": "560043",
        "addr:street": "Banaswadi Main Road",
        "amenity": "fuel",
        "brand": "Hindustan Petroleum",
        "brand:wikidata": "Q1619375",
        "name": "HP Petrol Pump",
        "name:en": "HP Petrol Pump",
        "name:kn": "ಹಿಂದುಸ್ತಾನ್ ಪೆಟ್ರೋಲಿಯಂ",
        "official_name": "Hindustan Petroleum"
      }
    },
    {
      "type": "way",
      "id": 1366744186,
      "center": {
        "lat": 13.0107611,
        "lon": 77.6465591
      },
      "tags": {
        "leisure": "park",
        "name": "OMBR Layout Park"
      }
    },
    {
      "type": "way",
      "id": 1371961980,
      "center": {
        "lat": 13.0085667,
        "lon": 77.650975
      },
      "tags": {
        "addr:postcode": "560043",
        "addr:street": "B Channasandra Main Road",
        "amenity": "school",
        "name": "St. George College of Management, Science & Nursing",
        "website": "http://www.stgeorgecollege.org"
      }
    },
    {
      "type": "way",
      "id": 1410597948,
      "center": {
        "lat": 13.0103596,
        "lon": 77.644748
      },
      "tags": {
        "amenity": "marketplace",
        "landuse": "retail",
        "shop": "greengrocer"
      }
    },
    {
      "type": "way",
      "id": 1410597951,
      "center": {
        "lat": 13.0098523,
        "lon": 77.6439029
      },
      "tags": {
        "amenity": "fuel"
      }
    }
  ]
}