{
  "area_name": "Sudhama Nagara",
  "osm_id": 7984684415,
  "osm_type": "node",
  "place_type": "neighbourhood",
  "amenity_count": 551,
  "amenities": [
    {
      "type": "node",
      "id": 315207084,
      "lat": 12.9537994,
      "lon": 77.5925553,
      "tags": {
        "amenity": "toilets",
        "survey:date": "2024-02-01"
      }
    },
    {
      "type": "node",
      "id": 317119985,
      "lat": 12.9543746,
      "lon": 77.5930172,
      "tags": {
        "amenity": "restaurant",
        "brand": "Adyar Ananda Bhavan",
        "brand:wikidata": "Q15178238",
        "name": "Adyar Ananda Bhavan",
        "name:kn": "ಕದಂಬ ವೆಜ್",
        "opening_hours": "PH,Mo-Su 07:00-22:30",
        "shop": "confectionery",
        "survey:date": "2024-02-01"
      }
    },
    {
      "type": "node",
      "id": 429833271,
      "lat": 12.9550389,
      "lon": 77.5854279,
      "tags": {
        "addr:housenumber": "14",
        "addr:postcode": "560027",
        "addr:street": "Lalbagh Road",
        "alt_name": "MTR",
        "amenity": "restaurant",
        "name": "Mavalli Tiffin Rooms",
        "name:kn": "ಮಾವಳ್ಳಿ ಟಿಫಿನ್ ರೂಮ್ಸ್ - ಎಂಟಿಆರ್",
        "opening_hours": "Tu-Su 06:30-11:00, 12:30-21:00",
        "phone": "+918022220022",
        "short_name": "MTR",
        "start_date": "1924",
        "website": "http://www.mavallitiffinrooms.com",
        "wheelchair": "no",
        "wikidata": "Q6794121",
        "wikimedia_commons": "Category:Mavalli Tiffin Room",
        "wikipedia": "en:Mavalli Tiffin Room"
      }
    },
    {
      "type": "node",
      "id": 459471357,
      "lat": 12.954643,
      "lon": 77.5858156,
      "tags": {
        "amenity": "parking"
      }
    },
    {
      "type": "node",
      "id": 517874464,
      "lat": 12.9522306,
      "lon": 77.5897955,
      "tags": {
        "amenity": "restaurant"
      }
    },
    {
      "type": "node",
      "id": 577393706,
      "lat": 12.9547341,
      "lon": 77.593073,
      "tags": {
        "amenity": "taxi",
        "auto_rickshaw": "yes",
        "fee": "yes"
      }
    },
    {
      "type": "node",
      "id": 577394250,
      "lat": 12.9511843,
      "lon": 77.5919036,
      "tags": {
        "amenity": "toilets"
      }
    },
    {
      "type": "node",
      "id": 594206377,
      "lat": 12.9571863,
      "lon": 77.5862334,
      "tags": {
        "addr:street": "Lalbagh Road",
        "amenity": "fuel",
        "brand": "Indian Oil",
        "brand:wikidata": "Q1289348",
        "brand:wikipedia": "en:Indian Oil Corporation",
        "name": "Indian Oil",
        "name:kn": "ಇಂಡಿಯನ್ ಆಯಿಲ್"
      }
    },
    {
      "type": "node",
      "id": 646739373,
      "lat": 12.9601639,
      "lon": 77.5945806,
      "tags": {
        "addr:street": "Shanti Road",
        "amenity": "restaurant",
        "name": "Utsav",
        "name:kn": "ಉತ್ಸವ್"
      }
    },
    {
      "type": "node",
      "id": 665871266,
      "lat": 12.9641674,
      "lon": 77.5819272,
      "tags": {
        "name": "Karnakata Hardware Store",
        "shop": "hardware"
      }
    },
    {
      "type": "node",
      "id": 676872668,
      "lat": 12.9538673,
      "lon": 77.5849624,
      "tags": {
        "amenity": "toilets",
        "fee": "yes",
        "wheelchair": "no"
      }
    },
    {
      "type": "node",
      "id": 677286824,
      "lat": 12.9554112,
      "lon": 77.5918509,
      "tags": {
        "addr:street": "KH Road (Double Road)",
        "name": "Mysore Resham Emporium",
        "shop": "clothes"
      }
    },
    {
      "type": "node",
      "id": 683352668,
      "lat": 12.9576358,
      "lon": 77.5822053,
      "tags": {
        "addr:street": "Jayachamaraja Wodeyar Road",
        "amenity": "toilets"
      }
    },
    {
      "type": "node",
      "id": 683352686,
      "lat": 12.950253,
      "lon": 77.5868038,
      "tags": {
        "amenity": "toilets"
      }
    },
    {
      "type": "node",
      "id": 1121420612,
      "lat": 12.9578638,
      "lon": 77.5932147,
      "tags": {
        "amenity": "restaurant",
        "name": "Foody's",
        "name:kn": "ಫುಡೀಸ್"
      }
    },
    {
      "type": "node",
      "id": 1342910456,
      "lat": 12.9516439,
      "lon": 77.5950678,
      "tags": {
        "shop": "motorcycle"
      }
    },
    {
      "type": "node",
      "id": 1389204316,
      "lat": 12.9655848,
      "lon": 77.584288,
      "tags": {
        "amenity": "parking",
        "name": "Two-Wheeler Parking"
      }
    },
    {
      "type": "node",
      "id": 1389206600,
      "lat": 12.965161,
      "lon": 77.584016,
      "tags": {
        "addr:city": "Bangalore",
        "addr:street": "S P Road",
        "name": "Arihant Computers",
        "shop": "computer"
      }
    },
    {
      "type": "node",
      "id": 1389210293,
      "lat": 12.9655798,
      "lon": 77.5845651,
      "tags": {
        "addr:street": "Dharmaraya Temple Road",
        "amenity": "atm",
        "brand": "ICICI Bank",
        "brand:wikidata": "Q1653258",
        "check_date": "2023-06-11",
        "network": "ICICI Bank",
        "operator": "ICICI Bank",
        "operator:wikidata": "Q1653258",
        "short_name": "ICICI",
        "source": "survey"
      }
    },
    {
      "type": "node",
      "id": 1466731141,
      "lat": 12.9518933,
      "lon": 77.5848336,
      "tags": {
        "amenity": "fountain"
      }
    },
    {
      "type": "node",
      "id": 1577582017,
      "lat": 12.964223,
      "lon": 77.5866456,
      "tags": {
        "amenity": "restaurant",
        "diet:vegetarian": "only",
        "name": "Kamat",
        "name:kn": "ಕಾಮತ್"
      }
    },
    {
      "type": "node",
      "id": 1589557488,
      "lat": 12.9647793,
      "lon": 77.5836994,
      "tags": {
        "name": "Om Electronics",
        "shop": "electronics"
      }
    },
    {
      "type": "node",
      "id": 1617398461,
      "lat": 12.9554704,
      "lon": 77.5801737,
      "tags": {
        "amenity": "restaurant",
        "cuisine": "indian",
        "name": "Kamat Minerva",
        "name:kn": "ಕಾಮತ್ ಮಿನರ್ವ"
      }
    },
    {
      "type": "node",
      "id": 1617398481,
      "lat": 12.9596642,
      "lon": 77.5829322,
      "tags": {
        "amenity": "fuel",
        "brand": "BP"
      }
    },
    {
      "type": "node",
      "id": 1650296747,
      "lat": 12.9634626,
      "lon": 77.5910392,
      "tags": {
        "name": "Stanley Automotive Leather Seating",
        "shop": "car_parts"
      }
    },
    {
      "type": "node",
      "id": 1652785557,
      "lat": 12.9655419,
      "lon": 77.5898511,
      "tags": {
        "amenity": "restaurant",
        "name": "V T Paradise",
        "name:kn": "ವಿ ಟಿ ಪ್ಯಾರಡೈಸ್"
      }
    },
    {
      "type": "node",
      "id": 1652785558,
      "lat": 12.962625,
      "lon": 77.5899443,
      "tags": {
        "amenity": "place_of_worship",
        "name": "Mahabaleshwar Temple",
        "name:kn": "ಮಹಾಬಲೇಶ್ವರ",
        "religion": "hindu"
      }
    },
    {
      "type": "node",
      "id": 1739362309,
      "lat": 12.9656908,
      "lon": 77.5860177,
      "tags": {
        "amenity": "toilets"
      }
    },
    {
      "type": "node",
      "id": 1739362359,
      "lat": 12.9658764,
      "lon": 77.5860284,
      "tags": {
        "amenity": "restaurant",
        "diet:vegetarian": "only",
        "name": "Pai Vihar",
        "name:kn": "ಪೈ ವಿಹಾರ್"
      }
    },
    {
      "type": "node",
      "id": 1739366972,
      "lat": 12.9646442,
      "lon": 77.5841683,
      "tags": {
        "amenity": "toilets"
      }
    },
    {
      "type": "node",
      "id": 1739366982,
      "lat": 12.9661927,
      "lon": 77.5893034,
      "tags": {
        "amenity": "toilets"
      }
    },
    {
      "type": "node",
      "id": 1791944697,
      "lat": 12.9587388,
      "lon": 77.5789933,
      "tags": {
        "amenity": "place_of_worship",
        "name": "Mariswamy Matha",
        "name:kn": "ಮರಿಸ್ವಾಮಿ ಮಠ",
        "religion": "hindu"
      }
    },
    {
      "type": "node",
      "id": 2405795045,
      "lat": 12.9494818,
      "lon": 77.5916049,
      "tags": {
        "amenity": "toilets"
      }
    },
    {
      "type": "node",
      "id": 2405795060,
      "lat": 12.9511502,
      "lon": 77.5869158,
      "tags": {
        "amenity": "bench"
      }
    },
    {
      "type": "node",
      "id": 2405795064,
      "lat": 12.9512344,
      "lon": 77.5870455,
      "tags": {
        "amenity": "bench"
      }
    },
    {
      "type": "node",
      "id": 2405795081,
      "lat": 12.9514672,
      "lon": 77.5869825,
      "tags": {
        "amenity": "bench"
      }
    },
    {
      "type": "node",
      "id": 2405795088,
      "lat": 12.9515214,
      "lon": 77.5863056,
      "tags": {
        "amenity": "bench"
      }
    },
    {
      "type": "node",
      "id": 2405795096,
      "lat": 12.9515785,
      "lon": 77.5869766,
      "tags": {
        "amenity": "bench"
      }
    },
    {
      "type": "node",
      "id": 2405795103,
      "lat": 12.9516947,
      "lon": 77.5876117,
      "tags": {
        "amenity": "bench",
        "source": "survey"
      }
    },
    {
      "type": "node",
      "id": 2405795104,
      "lat": 12.9517501,
      "lon": 77.5874235,
      "tags": {
        "amenity": "bench",
        "source": "survey"
      }
    },
    {
      "type": "node",
      "id": 2405795106,
      "lat": 12.9518415,
      "lon": 77.5874529,
      "tags": {
        "amenity": "bench",
        "source": "survey"
      }
    },
    {
      "type": "node",
      "id": 2405795107,
      "lat": 12.951798,
      "lon": 77.5871966,
      "tags": {
        "amenity": "bench",
        "source": "survey"
      }
    },
    {
      "type": "node",
      "id": 2405825815,
      "lat": 12.9508018,
      "lon": 77.5827007,
      "tags": {
        "amenity": "waste_basket",
        "source": "survey"
      }
    },
    {
      "type": "node",
      "id": 2405825820,
      "lat": 12.9510578,
      "lon": 77.5829803,
      "tags": {
        "amenity": "place_of_worship",
        "religion": "hindu"
      }
    },
    {
      "type": "node",
      "id": 2405825822,
      "lat": 12.9511577,
      "lon": 77.5830201,
      "tags": {
        "amenity": "waste_basket",
        "source": "survey"
      }
    },
    {
      "type": "node",
      "id": 2405825827,
      "lat": 12.9517776,
      "lon": 77.5832251,
      "tags": {
        "amenity": "waste_basket",
        "source": "survey"
      }
    },
    {
      "type": "node",
      "id": 2405825830,
      "lat": 12.9521119,
      "lon": 77.5834209,
      "tags": {
        "amenity": "waste_basket",
        "source": "survey"
      }
    },
    {
      "type": "node",
      "id": 2405873559,
      "lat": 12.95148,
      "lon": 77.5863456,
      "tags": {
        "amenity": "waste_basket",
        "source": "survey"
      }
    },
    {
      "type": "node",
      "id": 2405873562,
      "lat": 12.9515158,
      "lon": 77.5861858,
      "tags": {
        "amenity": "bench"
      }
    },
    {
      "type": "node",
      "id": 2405873568,
      "lat": 12.951628,
      "lon": 77.5861083,
      "tags": {
        "amenity": "waste_basket",
        "source": "survey"
      }
    },
    {
      "type": "node",
      "id": 2405873570,
      "lat": 12.9516584,
      "lon": 77.5860843,
      "tags": {
        "amenity": "bench"
      }
    },
    {
      "type": "node",
      "id": 2405873588,
      "lat": 12.9521776,
      "lon": 77.5856078,
      "tags": {
        "amenity": "waste_basket",
        "source": "survey"
      }
    },
    {
      "type": "node",
      "id": 2405873593,
      "lat": 12.9522688,
      "lon": 77.5835284,
      "tags": {
        "amenity": "bench",
        "source": "survey"
      }
    },
    {
      "type": "node",
      "id": 2405873600,
      "lat": 12.9524849,
      "lon": 77.5855716,
      "tags": {
        "amenity": "waste_basket",
        "source": "survey"
      }
    },
    {
      "type": "node",
      "id": 2405873611,
      "lat": 12.9528197,
      "lon": 77.5855106,
      "tags": {
        "amenity": "waste_basket",
        "source": "survey"
      }
    },
    {
      "type": "node",
      "id": 2405873618,
      "lat": 12.9529213,
      "lon": 77.5838722,
      "tags": {
        "amenity": "bench",
        "source": "survey"
      }
    },
    {
      "type": "node",
      "id": 2405873621,
      "lat": 12.9530637,
      "lon": 77.5854007,
      "tags": {
        "amenity": "waste_basket",
        "source": "survey"
      }
    },
    {
      "type": "node",
      "id": 2405873635,
      "lat": 12.953689,
      "lon": 77.584188,
      "tags": {
        "amenity": "waste_basket",
        "source": "survey"
      }
    },
    {
      "type": "node",
      "id": 2577231853,
      "lat": 12.9632542,
      "lon": 77.5920638,
      "tags": {
        "addr:city": "Bangalore",
        "addr:housenumber": "16",
        "addr:postcode": "560027",
        "addr:street": "Mission Road (Kalinga Rao Road)",
        "amenity": "police",
        "name": "Sampangi Rama Nagar Police Station",
        "name:bn": "সম্পাঙ্গী রাম নগর থানা"
      }
    },
    {
      "type": "node",
      "id": 2600851625,
      "lat": 12.954627,
      "lon": 77.5905488,
      "tags": {
        "addr:city": "Bangalore",
        "addr:housename": "Nyaya Degula",
        "addr:housenumber": "6/69",
        "addr:postcode": "560027",
        "addr:street": "H. Siddiah Road",
        "amenity": "courthouse",
        "name": "Family & Labour Courts",
        "operator": "Government of Karnataka",
        "phone": "00918022221526",
        "website": "http://karnatakajudiciary.kar.nic.in",
        "wheelchair": "yes"
      }
    },
    {
      "type": "node",
      "id": 2600852209,
      "lat": 12.9547787,
      "lon": 77.5906007,
      "tags": {
        "addr:city": "Bangalore",
        "addr:housename": "Nyaya Degula",
        "addr:housenumber": "6/69",
        "addr:postcode": "560027",
        "addr:street": "H. Siddiah Road",
        "amenity": "courthouse",
        "check_date": "2023-04-05",
        "name": "Karnataka State Legal Services Authority",
        "source": "survey",
        "website": "http://www.kslsa.kar.nic.in/",
        "wheelchair": "yes"
      }
    },
    {
      "type": "node",
      "id": 2868502488,
      "lat": 12.9573933,
      "lon": 77.582077,
      "tags": {
        "amenity": "bank",
        "atm": "yes",
        "brand": "Dena Bank",
        "brand:wikidata": "Q3595747",
        "brand:wikipedia": "en:Dena Bank",
        "name": "Dena Bank",
        "name:en": "Dena Bank",
        "name:kn": "ದೇನ ಬ್ಯಾಂಕ್",
        "operator": "Dena Bank",
        "website": "http://www.denabank.com"
      }
    },
    {
      "type": "node",
      "id": 2945482647,
      "lat": 12.9656807,
      "lon": 77.5897827,
      "tags": {
        "addr:city": "Bangalore",
        "addr:postcode": "560027",
        "addr:street": "Devanga Hostel Road",
        "amenity": "place_of_worship",
        "religion": "hindu",
        "toilets:wheelchair": "no",
        "wheelchair": "limited"
      }
    },
    {
      "type": "node",
      "id": 2945483873,
      "lat": 12.9653566,
      "lon": 77.5897586,
      "tags": {
        "shop": "bakery"
      }
    },
    {
      "type": "node",
      "id": 3010263823,
      "lat": 12.9540038,
      "lon": 77.5801262,
      "tags": {
        "amenity": "bank",
        "atm": "yes",
        "brand": "Karnataka Bank",
        "brand:wikidata": "Q2042632",
        "name": "Karnataka Bank",
        "name:kn": "ಕರ್ನಾಟಕ ಬ್ಯಾಂಕ್",
        "operator": "Karnataka Bank",
        "source": "voice, GPS"
      }
    },
    {
      "type": "node",
      "id": 3010263824,
      "lat": 12.9606096,
      "lon": 77.5835432,
      "tags": {
        "amenity": "bank",
        "brand": "State Bank of India",
        "brand:wikidata": "Q1340361",
        "brand:wikipedia": "en:State Bank of India",
        "name": "State Bank of India",
        "name:kn": "ಭಾರತೀಯ ಸ್ಟೇಟ್ ಬ್ಯಾಂಕ್",
        "short_name": "SBI",
        "source": "voice, GPS",
        "website": "https://www.sbi.co.in"
      }
    },
    {
      "type": "node",
      "id": 3010263825,
      "lat": 12.9579091,
      "lon": 77.5823797,
      "tags": {
        "amenity": "bank",
        "atm": "no",
        "brand": "State Bank of India",
        "brand:wikidata": "Q1340361",
        "brand:wikipedia": "en:State Bank of India",
        "name": "State Bank of India",
        "name:kn": "ಭಾರತೀಯ ಸ್ಟೇಟ್ ಬ್ಯಾಂಕ್",
        "operator": "State Bank of India",
        "short_name": "SBI",
        "source": "voice, GPS"
      }
    },
    {
      "type": "node",
      "id": 3010283558,
      "lat": 12.9651176,
      "lon": 77.5897462,
      "tags": {
        "amenity": "atm",
        "brand": "ICICI Bank",
        "brand:wikidata": "Q1653258",
        "name": "ICICI Bank",
        "operator": "ICICI Bank",
        "operator:wikidata": "Q1653258",
        "short_name": "ICICI",
        "source": "voice, GPS"
      }
    },
    {
      "type": "node",
      "id": 3019588216,
      "lat": 12.962382,
      "lon": 77.5939054,
      "tags": {
        "amenity": "fast_food",
        "name": "Darshini",
        "name:kn": "ದರ್ಶಿನಿ"
      }
    },
    {
      "type": "node",
      "id": 3019593147,
      "lat": 12.9624238,
      "lon": 77.5942112,
      "tags": {
        "name": "Surya Bakery",
        "name:kn": "ಸೂರ್ಯ ಬೇಕರಿ",
        "shop": "bakery"
      }
    },
    {
      "type": "node",
      "id": 3237664290,
      "lat": 12.9657388,
      "lon": 77.5884001,
      "tags": {
        "amenity": "parking"
      }
    },
    {
      "type": "node",
      "id": 3237664467,
      "lat": 12.9654427,
      "lon": 77.5875548,
      "tags": {
        "amenity": "parking"
      }
    },
    {
      "type": "node",
      "id": 3237664468,
      "lat": 12.9658185,
      "lon": 77.5879442,
      "tags": {
        "amenity": "parking"
      }
    },
    {
      "type": "node",
      "id": 3237664469,
      "lat": 12.9651767,
      "lon": 77.5884754,
      "tags": {
        "amenity": "parking"
      }
    },
    {
      "type": "node",
      "id": 3237687378,
      "lat": 12.965693,
      "lon": 77.5872423,
      "tags": {
        "amenity": "parking"
      }
    },
    {
      "type": "node",
      "id": 3241164396,
      "lat": 12.9659324,
      "lon": 77.5883414,
      "tags": {
        "amenity": "parking"
      }
    },
    {
      "type": "node",
      "id": 3391134548,
      "lat": 12.9554901,
      "lon": 77.5854638,
      "tags": {
        "name": "Helmet Paradise",
        "shop": "variety_store"
      }
    },
    {
      "type": "node",
      "id": 3535926312,
      "lat": 12.9540627,
      "lon": 77.5918908,
      "tags": {
        "amenity": "parking_entrance",
        "parking": "multi-storey"
      }
    },
    {
      "type": "node",
      "id": 3546180331,
      "lat": 12.9644469,
      "lon": 77.5882194,
      "tags": {
        "amenity": "toilets"
      }
    },
    {
      "type": "node",
      "id": 3546180333,
      "lat": 12.9629426,
      "lon": 77.5875693,
      "tags": {
        "addr:street": "3rd Cross Road",
        "amenity": "cafe"
      }
    },
    {
      "type": "node",
      "id": 3603007803,
      "lat": 12.9632721,
      "lon": 77.5856887,
      "tags": {
        "amenity": "parking"
      }
    },
    {
      "type": "node",
      "id": 3773028057,
      "lat": 12.9603157,
      "lon": 77.5930493,
      "tags": {
        "addr:city": "Bengaluru",
        "addr:district": "Bengaluru Urban",
        "addr:full": "44-45/2, 2nd Cross Raja Rammohan Roy Extn Off Lalbagh Double Road",
        "addr:postcode": "560027",
        "addr:state": "Karnataka",
        "amenity": "hospital",
        "building": "hospital",
        "name": "HCG Cancer Hospital",
        "source": "OpenGovernmentData",
        "website": "https://www.hcgoncology.com/"
      }
    },
    {
      "type": "node",
      "id": 3773028984,
      "lat": 12.9609168,
      "lon": 77.5879444,
      "tags": {
        "addr:city": "Bengaluru",
        "addr:street": "Lalbagh Road",
        "name": "Jayalakshmi Bakery",
        "shop": "bakery"
      }
    },
    {
      "type": "node",
      "id": 3826353777,
      "lat": 12.9650562,
      "lon": 77.5897367,
      "tags": {
        "amenity": "atm",
        "brand": "Canara Bank",
        "brand:en": "Canara Bank",
        "brand:hi": "केनरा बैंक",
        "brand:kn": "ಕೆನರಾ ಬ್ಯಾಂಕ್",
        "brand:pa": "ਕੇਨਰਾ ਬੈਂਕ",
        "brand:pnb": "کینرا بینک",
        "brand:ur": "کینرا بینک",
        "brand:wikidata": "Q2003777",
        "brand:wikipedia": "en:Canara Bank",
        "brand:wikipedia:pa": "ਕੇਨਰਾ ਬੈਂਕ",
        "check_date": "2024-03-02",
        "drive_through": "no",
        "name": "Canara Bank",
        "name:en": "Canara Bank",
        "name:hi": "केनरा बैंक",
        "name:kn": "ಕೆನರಾ ಬ್ಯಾಂಕ್",
        "name:pa": "ਕੇਨਰਾ ਬੈਂਕ",
        "name:pnb": "کینرا بینک",
        "name:ur": "کینرا بینک",
        "operator": "Canara Bank",
        "operator:wikidata": "Q2003777"
      }
    },
    {
      "type": "node",
      "id": 3922280181,
      "lat": 12.9584755,
      "lon": 77.5919279,
      "tags": {
        "amenity": "hospital",
        "name": "Health Care Global"
      }
    },
    {
      "type": "node",
      "id": 4130960494,
      "lat": 12.9613262,
      "lon": 77.5820185,
      "tags": {
        "amenity": "place_of_worship",
        "name:kn": "ಮಸೀದಿ",
        "religion": "muslim"
      }
    },
    {
      "type": "node",
      "id": 4130960995,
      "lat": 12.9615699,
      "lon": 77.5804526,
      "tags": {
        "amenity": "school",
        "name": "Government School",
        "name:kn": "ಸರ್ಕಾರಿ ಶಾಲೆ"
      }
    },
    {
      "type": "node",
      "id": 4172563290,
      "lat": 12.9636036,
      "lon": 77.5940552,
      "tags": {
        "addr:housenumber": "1 Main Road",
        "addr:street": "Sri Ram Mandir Road",
        "email": "rk@orinova.org",
        "internet_access": "wlan",
        "name": "Kasseva",
        "opening_hours": "Mo-Sa 10:30-17:45",
        "phone": "9379796333",
        "shop": "chemist",
        "website": "www.kasseva.com"
      }
    },
    {
      "type": "node",
      "id": 4172591489,
      "lat": 12.9627136,
      "lon": 77.5949225,
      "tags": {
        "addr:housenumber": "1 Main Road ",
        "addr:street": "Sampangi Ram Nagar ",
        "email": "rk@orinova.org",
        "internet_access": "wlan",
        "name": "Origo Cosmeceuticals Private Limited",
        "opening_hours": "24/7",
        "phone": "+918022241789",
        "shop": "chemist",
        "website": "https://www.origopharma.com/"
      }
    },
    {
      "type": "node",
      "id": 4308190209,
      "lat": 12.965498,
      "lon": 77.5839472,
      "tags": {
        "amenity": "events_venue",
        "name": "Shree Prasanna gangadhareshwara samudaya bhavana"
      }
    },
    {
      "type": "node",
      "id": 4314392992,
      "lat": 12.9541378,
      "lon": 77.5920058,
      "tags": {
        "addr:floor": "G",
        "amenity": "restaurant",
        "check_date": "2025-02-21",
        "cuisine": "indian",
        "diet:non-vegetarian": "yes",
        "diet:vegetarian": "yes",
        "indoor_seating": "yes",
        "level": "0",
        "name": "Swathi Deluxe",
        "name:kn": "ಸ್ವಾತಿ ಡಿಲಕ್ಸ್",
        "outdoor_seating": "no",
        "source": "survey"
      }
    },
    {
      "type": "node",
      "id": 4314394189,
      "lat": 12.9540285,
      "lon": 77.5912583,
      "tags": {
        "amenity": "fast_food",
        "name": "Take a Break"
      }
    },
    {
      "type": "node",
      "id": 4349257796,
      "lat": 12.9515064,
      "lon": 77.5902414,
      "tags": {
        "amenity": "bicycle_parking"
      }
    },
    {
      "type": "node",
      "id": 4349307190,
      "lat": 12.9532485,
      "lon": 77.5873773,
      "tags": {
        "amenity": "place_of_worship",
        "name": "Dargah Hazrat Atulla Shah",
        "place_of_worship": "shrine",
        "religion": "muslim"
      }
    },
    {
      "type": "node",
      "id": 4349317390,
      "lat": 12.954324,
      "lon": 77.5850242,
      "tags": {
        "amenity": "restaurant",
        "name": "Anand Bhavan",
        "name:en": "New Udupi Anand Bhavan",
        "name:kn": "ಆನಂದ್ ಭಾವನ್"
      }
    },
    {
      "type": "node",
      "id": 4362780090,
      "lat": 12.9550185,
      "lon": 77.5811729,
      "tags": {
        "amenity": "place_of_worship",
        "name": "Temple"
      }
    },
    {
      "type": "node",
      "id": 4414944194,
      "lat": 12.9650385,
      "lon": 77.5838344,
      "tags": {
        "name": "Nextgen Technologies",
        "name:en": "NEXTGEN TECHNOLOGIES",
        "shop": "computer"
      }
    },
    {
      "type": "node",
      "id": 4488175690,
      "lat": 12.9551847,
      "lon": 77.5894021,
      "tags": {
        "addr:city": "Bangalore",
        "addr:housenumber": "Plot B 204",
        "addr:postcode": "560017",
        "addr:street": "6th Cross Road",
        "name": "Jmv Enterprises",
        "phone": "09035759524",
        "shop": "sports"
      }
    },
    {
      "type": "node",
      "id": 4488473860,
      "lat": 12.9604211,
      "lon": 77.5937215,
      "tags": {
        "addr:city": "Bangalore",
        "addr:housenumber": "No. 126",
        "addr:postcode": "560027",
        "addr:street": "Chabria Square, KH Road, Bhadrappa Layout, Srinivas Colony, Sudhama Nagar,",
        "leisure": "sports_centre",
        "name": "i-fitness",
        "opening_hours": "5:30-22:00",
        "phone": "080 4151 8000",
        "sport": "gymnastics",
        "website": "https://i-fitness.in/"
      }
    },
    {
      "type": "node",
      "id": 4489828265,
      "lat": 12.9584561,
      "lon": 77.5857024,
      "tags": {
        "addr:city": "Bangalore",
        "addr:housenumber": "# 16",
        "addr:postcode": "560027",
        "addr:street": "Fathima Elegance, 2nd cross, SGN layout, Lalbagh Main Road, Bangalore-27, 2nd Cross Rd, Bhadrappa Layout, SGN Layout, Doddamavalli, Sudhama Nagar",
        "leisure": "sports_centre",
        "name": "Alliance Fitness & Wellness",
        "opening_hours": "06:00-22:00",
        "phone": "9742882266",
        "sport": "gymnastics",
        "website": "alliancefitness.net"
      }
    },
    {
      "type": "node",
      "id": 4489902735,
      "lat": 12.9554408,
      "lon": 77.5918122,
      "tags": {
        "addr:city": "Bangalore",
        "addr:housenumber": "Abhishtha, # 63, M.V.S. Building",
        "addr:postcode": "560027",
        "addr:street": "K.H. Road",
        "name": "Beauty Saloon & SPA",
        "opening_hours": "10:00-21:30",
        "phone": "080 6570 9570",
        "shop": "beauty",
        "website": "abhishtha.com"
      }
    },
    {
      "type": "node",
      "id": 4489908738,
      "lat": 12.9642449,
      "lon": 77.5923432,
      "tags": {
        "addr:city": "Bangalore",
        "addr:housenumber": "# 112, 566",
        "addr:postcode": "560027",
        "addr:street": "ms plaza Opposite Telephone Exchange, Near S R Nagar Police Station, 4th Main Rd, Sampangi Rama Nagar",
        "leisure": "sports_centre",
        "name": "Eternal Fitness",
        "opening_hours": "06:00-22:00",
        "phone": "098860 08976",
        "sport": "gymnastics"
      }
    },
    {
      "type": "node",
      "id": 4562950692,
      "lat": 12.9646857,
      "lon": 77.5825373,
      "tags": {
        "addr:housenumber": "134-138, K K",
        "addr:postcode": "560002",
        "addr:street": "Sadar Patrappa Road",
        "email": "jagadish@amarradio.com",
        "name": "Amar Radio Corporation",
        "name:en": "Amar Radio Corporation",
        "opening_hours": "Mo-Sa 10:00-18:30",
        "phone": "08046480000",
        "shop": "electronics",
        "website": "https://www.amarradio.com/"
      }
    },
    {
      "type": "node",
      "id": 4563140390,
      "lat": 12.9640976,
      "lon": 77.5828518,
      "tags": {
        "addr:housenumber": "82/1",
        "addr:postcode": "560002",
        "addr:street": "S J P Road",
        "email": "burhanipolymer@gmail.com",
        "name": "Burhani Rubber & Polymer",
        "name:en": "Burhani Rubber & Polymer",
        "opening_hours": "Mo-Sa 10:00-19:00",
        "phone": "08041145417",
        "shop": "electronics"
      }
    },
    {
      "type": "node",
      "id": 4703298136,
      "lat": 12.9499469,
      "lon": 77.5860202,
      "tags": {
        "amenity": "fountain"
      }
    },
    {
      "type": "node",
      "id": 4763212133,
      "lat": 12.9502621,
      "lon": 77.5867696,
      "tags": {
        "amenity": "drinking_water"
      }
    },
    {
      "type": "node",
      "id": 4824906934,
      "lat": 12.9489409,
      "lon": 77.5862685,
      "tags": {
        "amenity": "drinking_water"
      }
    },
    {
      "type": "node",
      "id": 4843099624,
      "lat": 12.9549893,
      "lon": 77.5915906,
      "tags": {
        "amenity": "atm",
        "brand": "State Bank of India",
        "brand:wikidata": "Q1340361",
        "name": "State Bank of India",
        "operator": "State Bank of India",
        "operator:wikidata": "Q1340361",
        "short_name": "SBI"
      }
    },
    {
      "type": "node",
      "id": 4843099625,
      "lat": 12.956397,
      "lon": 77.5921935,
      "tags": {
        "amenity": "restaurant",
        "name": "Ambur Dum Biryani",
        "name:en": "Ambur dum biryani"
      }
    },
    {
      "type": "node",
      "id": 4843099626,
      "lat": 12.957338,
      "lon": 77.5925388,
      "tags": {
        "name": "Sri Srinivas Silk House",
        "name:en": "Sri Srinivas silk house",
        "shop": "clothes"
      }
    },
    {
      "type": "node",
      "id": 4843099627,
      "lat": 12.9594205,
      "lon": 77.5937772,
      "tags": {
        "amenity": "restaurant",
        "name": "Sea Pearl",
        "name:en": "Sea Pearl"
      }
    },
    {
      "type": "node",
      "id": 4843099628,
      "lat": 12.9614843,
      "lon": 77.5940764,
      "tags": {
        "leisure": "fitness_centre",
        "name": "Pure Life Gym",
        "name:en": "Pure life gym"
      }
    },
    {
      "type": "node",
      "id": 4843100123,
      "lat": 12.9593325,
      "lon": 77.5932644,
      "tags": {
        "name": "Furniture Forum",
        "name:en": "Furniture Forum",
        "shop": "furniture"
      }
    },
    {
      "type": "node",
      "id": 4843100425,
      "lat": 12.9588237,
      "lon": 77.5936181,
      "tags": {
        "amenity": "school",
        "name": "Cambridge School",
        "name:en": "Cambridge School",
        "name:kn": "ಕೇಂಬ್ರಿಜ್ ಶಾಲೆ"
      }
    },
    {
      "type": "node",
      "id": 4843104321,
      "lat": 12.9555357,
      "lon": 77.5918347,
      "tags": {
        "amenity": "hospital",
        "name": "Respigen healthcare",
        "name:en": "Respigen healthcare"
      }
    },
    {
      "type": "node",
      "id": 4843105721,
      "lat": 12.9580965,
      "lon": 77.593251,
      "tags": {
        "amenity": "restaurant",
        "name": "Rahhams",
        "name:en": "Rahhams"
      }
    },
    {
      "type": "node",
      "id": 4843105722,
      "lat": 12.9586318,
      "lon": 77.5934793,
      "tags": {
        "name": "Prince dry cleaners",
        "name:en": "Prince dry cleaners",
        "shop": "dry_cleaning"
      }
    },
    {
      "type": "node",
      "id": 4843116021,
      "lat": 12.9578168,
      "lon": 77.593057,
      "tags": {
        "amenity": "bank",
        "brand": "Bank of Baroda",
        "brand:wikidata": "Q2003797",
        "brand:wikipedia": "en:Bank of Baroda",
        "name": "Bank of Baroda",
        "name:en": "Bank of Baroda",
        "name:kn": "ಬ್ಯಾಂಕ್ ಆಫ್ ಬರೋಡ",
        "short_name": "BoB",
        "website": "http://www.bankofbaroda.com"
      }
    },
    {
      "type": "node",
      "id": 4843123822,
      "lat": 12.9584406,
      "lon": 77.593372,
      "tags": {
        "amenity": "bank",
        "brand": "Union Bank of India",
        "brand:wikidata": "Q2004078",
        "brand:wikipedia": "en:Union Bank of India",
        "name": "Union Bank of India",
        "name:en": "Union Bank of India",
        "name:kn": "ಯೂನಿಯನ್ ಬ್ಯಾಂಕ್",
        "website": "https://www.unionbankofindia.co.in/"
      }
    },
    {
      "type": "node",
      "id": 4843123823,
      "lat": 12.9584582,
      "lon": 77.5934393,
      "tags": {
        "amenity": "cafe",
        "name": "Samsung smartcafe",
        "name:en": "Samsung smartcafe"
      }
    },
    {
      "type": "node",
      "id": 4843123824,
      "lat": 12.9589729,
      "lon": 77.593575,
      "tags": {
        "name": "Cox and Kings",
        "name:en": "Cox and Kings",
        "shop": "travel_agency"
      }
    },
    {
      "type": "node",
      "id": 4843125821,
      "lat": 12.9575014,
      "lon": 77.5930278,
      "tags": {
        "name": "Butterfly",
        "name:en": "Butterfly",
        "shop": "electronics"
      }
    },
    {
      "type": "node",
      "id": 4843125822,
      "lat": 12.9593625,
      "lon": 77.5937351,
      "tags": {
        "amenity": "restaurant",
        "name": "Parijatha",
        "name:en": "Parijatha"
      }
    },
    {
      "type": "node",
      "id": 4843126221,
      "lat": 12.9597445,
      "lon": 77.5939951,
      "tags": {
        "name": "Tulasi",
        "name:en": "Tulasi",
        "name:kn": "ತುಲಸಿ",
        "shop": "beverages"
      }
    },
    {
      "type": "node",
      "id": 4843126321,
      "lat": 12.9604187,
      "lon": 77.5941492,
      "tags": {
        "amenity": "bank",
        "brand": "Axis Bank",
        "brand:wikidata": "Q2003549",
        "brand:wikipedia": "en:Axis Bank",
        "name": "Axis Bank",
        "name:en": "Axis Bank",
        "name:kn": "ಆಕ್ಸಿಸ್ ಬ್ಯಾಂಕ್",
        "website": "https://www.axisbank.com",
        "wheelchair": "no"
      }
    },
    {
      "type": "node",
      "id": 4846787922,
      "lat": 12.9615604,
      "lon": 77.5941029,
      "tags": {
        "name": "Olympic toys and sport wears",
        "name:en": "Olympic toys and sport wears",
        "shop": "sports"
      }
    },
    {
      "type": "node",
      "id": 4847294840,
      "lat": 12.9622636,
      "lon": 77.5951894,
      "tags": {
        "check_date": "2024-08-10",
        "name": "Kawasaki",
        "name:en": "Kawasaki",
        "name:kn": "ಕವಸಕಿ",
        "shop": "motorcycle"
      }
    },
    {
      "type": "node",
      "id": 4847294841,
      "lat": 12.9598633,
      "lon": 77.593474,
      "tags": {
        "amenity": "restaurant",
        "name": "Tiffany's",
        "name:en": "Tiffany's"
      }
    },
    {
      "type": "node",
      "id": 4847294842,
      "lat": 12.9580518,
      "lon": 77.5928392,
      "tags": {
        "amenity": "bank",
        "brand": "HDFC Bank",
        "brand:wikidata": "Q631047",
        "name": "HDFC Bank",
        "name:en": "HDFC Bank",
        "name:kn": "ಎಚ್ ಡಿ ಎಫ್ ಸಿ",
        "short_name": "HDFC"
      }
    },
    {
      "type": "node",
      "id": 4847824923,
      "lat": 12.9549365,
      "lon": 77.5915735,
      "tags": {
        "amenity": "restaurant",
        "name": "Bacardi",
        "name:en": "Bacardi"
      }
    },
    {
      "type": "node",
      "id": 4847824924,
      "lat": 12.9500152,
      "lon": 77.5929905,
      "tags": {
        "leisure": "fitness_centre",
        "name": "Mara fitness",
        "name:en": "Mara fitness"
      }
    },
    {
      "type": "node",
      "id": 4847827721,
      "lat": 12.9560009,
      "lon": 77.5920884,
      "tags": {
        "amenity": "restaurant",
        "name": "Hotel Revoli",
        "name:en": "Hotel Revoli"
      }
    },
    {
      "type": "node",
      "id": 4849094831,
      "lat": 12.9539546,
      "lon": 77.5857915,
      "tags": {
        "amenity": "restaurant"
      }
    },
    {
      "type": "node",
      "id": 4849094832,
      "lat": 12.9547083,
      "lon": 77.582635,
      "tags": {
        "name": "New car designer",
        "name:en": "New car designer",
        "shop": "car"
      }
    },
    {
      "type": "node",
      "id": 4849094833,
      "lat": 12.9647047,
      "lon": 77.5864795,
      "tags": {
        "name": "Lenovo",
        "name:en": "Lenovo",
        "shop": "computer"
      }
    },
    {
      "type": "node",
      "id": 4849094834,
      "lat": 12.9652861,
      "lon": 77.5864103,
      "tags": {
        "amenity": "atm"
      }
    },
    {
      "type": "node",
      "id": 4849107925,
      "lat": 12.9549066,
      "lon": 77.5803975,
      "tags": {
        "name": "Prakash form and fabric",
        "name:en": "Prakash foam and fabric",
        "shop": "hardware"
      }
    },
    {
      "type": "node",
      "id": 4849108026,
      "lat": 12.9555428,
      "lon": 77.5802105,
      "tags": {
        "amenity": "bank",
        "brand": "Axis Bank",
        "brand:wikidata": "Q2003549",
        "brand:wikipedia": "en:Axis Bank",
        "name": "Axis Bank",
        "name:en": "Axis Bank",
        "name:kn": "ಆಕ್ಸಿಸ್ ಬ್ಯಾಂಕ್",
        "website": "https://www.axisbank.com"
      }
    },
    {
      "type": "node",
      "id": 4849108027,
      "lat": 12.9572315,
      "lon": 77.5816713,
      "tags": {
        "name": "Goodyear",
        "name:en": "Goodyear",
        "shop": "tyres"
      }
    },
    {
      "type": "node",
      "id": 4849108028,
      "lat": 12.9599553,
      "lon": 77.5832139,
      "tags": {
        "name": "Ceat",
        "name:en": "Ceat",
        "shop": "tyres"
      }
    },
    {
      "type": "node",
      "id": 4849108029,
      "lat": 12.9648678,
      "lon": 77.5866235,
      "tags": {
        "name": "Shakti silk rose",
        "name:en": "Shakti silk rose",
        "shop": "clothes"
      }
    },
    {
      "type": "node",
      "id": 4849108630,
      "lat": 12.9543469,
      "lon": 77.5840455,
      "tags": {
        "name": "Surya carz",
        "name:en": "Surya carz",
        "shop": "car"
      }
    },
    {
      "type": "node",
      "id": 4988321488,
      "lat": 12.9631272,
      "lon": 77.594174,
      "tags": {
        "addr:city": "Bengaluru",
        "addr:housenumber": "18/7",
        "addr:postcode": "560027",
        "addr:street": "1st Main Road",
        "amenity": "place_of_worship",
        "denomination": "sunni",
        "name": "Masjid-e-Rahimia",
        "name:bn": "মসজিদ-ই-রহিমিয়া",
        "name:kn": "ಮಸ್ಜಿದ್ ಎ ರಹೀಮ",
        "religion": "muslim"
      }
    },
    {
      "type": "node",
      "id": 4993784521,
      "lat": 12.9616605,
      "lon": 77.5891542,
      "tags": {
        "amenity": "community_centre",
        "name": "Huq Building",
        "name:en": "Huq Building"
      }
    },
    {
      "type": "node",
      "id": 5239936021,
      "lat": 12.9540847,
      "lon": 77.5800757,
      "tags": {
        "name:ko": "빵집",
        "shop": "bakery"
      }
    },
    {
      "type": "node",
      "id": 5385728022,
      "lat": 12.9562285,
      "lon": 77.5919414,
      "tags": {
        "amenity": "place_of_worship",
        "name": "Maari Amma Temple",
        "religion": "hindu"
      }
    },
    {
      "type": "node",
      "id": 5402307929,
      "lat": 12.962196,
      "lon": 77.5950696,
      "tags": {
        "brand": "KTM",
        "brand:wikidata": "Q215657",
        "name": "KTM",
        "shop": "motorcycle"
      }
    },
    {
      "type": "node",
      "id": 5402308124,
      "lat": 12.9622025,
      "lon": 77.5950041,
      "tags": {
        "branch": "Tyre Center",
        "brand": "Pirelli",
        "brand:wikidata": "Q207770",
        "name": "Pirelli",
        "shop": "tyres"
      }
    },
    {
      "type": "node",
      "id": 5786021053,
      "lat": 12.9646134,
      "lon": 77.5824437,
      "tags": {
        "addr:housenumber": "68/1",
        "addr:postcode": "560002",
        "addr:street": "Sadar Patrappa Road",
        "name": "Navdeep Electronics",
        "opening_hours": "Mo-Sa 10:00-20:30; Su 10:00-15:00",
        "operator": "Navin Jain",
        "phone": "08041225559",
        "shop": "electronics"
      }
    },
    {
      "type": "node",
      "id": 5964506929,
      "lat": 12.959495,
      "lon": 77.5933412,
      "tags": {
        "amenity": "bank",
        "brand": "Karnataka Bank",
        "brand:wikidata": "Q2042632",
        "name": "Karnataka Bank",
        "name:kn": "ಕರ್ನಾಟಕ ಬ್ಯಾಂಕ್"
      }
    },
    {
      "type": "node",
      "id": 5983455178,
      "lat": 12.9631282,
      "lon": 77.5891892,
      "tags": {
        "amenity": "bank",
        "check_date": "2024-03-02",
        "name": "J&K Bank"
      }
    },
    {
      "type": "node",
      "id": 5983455179,
      "lat": 12.9588104,
      "lon": 77.5868782,
      "tags": {
        "amenity": "fuel",
        "check_date": "2023-04-05",
        "name": "Gogas",
        "source": "survey"
      }
    },
    {
      "type": "node",
      "id": 6248981887,
      "lat": 12.9611012,
      "lon": 77.5887564,
      "tags": {
        "amenity": "restaurant",
        "cuisine": "tea;chicken;noodles;coffee_shop;curry;indian;local",
        "diet:vegetarian": "yes",
        "name": "Vyshali Food Corner"
      }
    },
    {
      "type": "node",
      "id": 6349285856,
      "lat": 12.9523143,
      "lon": 77.5817969,
      "tags": {
        "addr:place": "V V Puram",
        "amenity": "school",
        "isced:level": "2",
        "name": "Ganapathi Vidyamandir V V Puram",
        "name:kn": "ಗಣಪತಿ ವಿದ್ಯಾಮಂದಿರ ವಿ.ವಿ. ಪುರಂ",
        "operator": "Pvt. Aided",
        "school": "primary"
      }
    },
    {
      "type": "node",
      "id": 6349451119,
      "lat": 12.9544133,
      "lon": 77.5821593,
      "tags": {
        "addr:place": "V V Puram",
        "amenity": "school",
        "name": "GUHPS V V Puram",
        "name:kn": "ಸರ್ಕಾರಿ ಉರ್ದು ಹಿರಿಯ ಪ್ರಾಥಮಿಕ ಶಾಲೆ ವಿ.ವಿ. ಪುರಂ",
        "operator": "Pvt. Aided",
        "school": "primary"
      }
    },
    {
      "type": "node",
      "id": 6552306254,
      "lat": 12.9636997,
      "lon": 77.5923663,
      "tags": {
        "addr:city": "Bengaluru",
        "addr:postcode": "560027",
        "addr:street": "Chidananda Maharashi Ashram Road",
        "amenity": "restaurant",
        "cuisine": "regional",
        "name": "Devi Upahara",
        "name:kn": "ದೇವಿ ಉಪಹಾರ"
      }
    },
    {
      "type": "node",
      "id": 6745868123,
      "lat": 12.9592835,
      "lon": 77.5945482,
      "tags": {
        "addr:place": "Shanthinagar",
        "amenity": "school",
        "isced:level": "1",
        "name": "Morning Glory LPS",
        "name:kn": "ಮಾರ್ನಿಂಗ್ ಗ್ಲೋರಿ ಕಿರಿಯ ಪ್ರಾಥಮಿಕ ಶಾಲೆ ಶಾಂತಿನಗರ",
        "operator": "Private Un-Aided",
        "school": "primary"
      }
    },
    {
      "type": "node",
      "id": 6886594853,
      "lat": 12.9643654,
      "lon": 77.5897381,
      "tags": {
        "addr:city": "Bengaluru",
        "addr:district": "BENGALURU URBAN",
        "addr:full": "No. 8, P. Kalinga Rao Road, Sampangiram Nagar",
        "addr:postcode": "560002",
        "addr:state": "Karnataka",
        "amenity": "blood_bank",
        "contact:mobile": "9008255888",
        "contact:phone": "8040206121",
        "name": "Bangalore Institute of Oncology Blood Bank",
        "opening_hours": "24/7",
        "operator:type": "private",
        "source": "OpenGovernmentData"
      }
    },
    {
      "type": "node",
      "id": 6939048258,
      "lat": 12.9605309,
      "lon": 77.592659,
      "tags": {
        "addr:district": "Bengaluru Urban",
        "addr:full": "No 44-45/2, 2nd Cross, Raja Rammohan Roy Extension, Opposite Double Road",
        "addr:postcode": "560027",
        "addr:state": "Karnataka",
        "amenity": "hospital",
        "name": "HCG",
        "source": "OpenGovernmentData"
      }
    },
    {
      "type": "node",
      "id": 6939719899,
      "lat": 12.9608027,
      "lon": 77.5911717,
      "tags": {
        "addr:district": "Bengaluru Urban",
        "addr:full": "26, 1st Main, 2nd Cross, Ckc Garden Off Mission Road",
        "addr:postcode": "560027",
        "addr:state": "Karnataka",
        "amenity": "hospital",
        "name": "Phoenix Hospital, Bengaluru Urban",
        "source": "OpenGovernmentData"
      }
    },
    {
      "type": "node",
      "id": 6944925493,
      "lat": 12.9563042,
      "lon": 77.5830996,
      "tags": {
        "addr:district": "Bengaluru Urban",
        "addr:full": "J.C.Road",
        "addr:postcode": "560002",
        "addr:state": "Karnataka",
        "amenity": "hospital",
        "name": "Bengaluru West Lions Hospital",
        "operator:type": "private",
        "source": "OpenGovernmentData",
        "website": "http://dpal.kar.nic.in/Kanunu%20padakosha%20PDF%20Files/Recognised%20Hospitals.pdf"
      }
    },
    {
      "type": "node",
      "id": 6947915400,
      "lat": 12.9646359,
      "lon": 77.5926509,
      "tags": {
        "addr:district": "Bengaluru Urban",
        "addr:full": "Sindhi Hospital Road Sampangiramnagar S R Nagar",
        "addr:postcode": "560027",
        "addr:state": "Karnataka",
        "amenity": "hospital",
        "name": "Pd Hinduja Sindhi Hospital",
        "source": "OpenGovernmentData"
      }
    },
    {
      "type": "node",
      "id": 7043229686,
      "lat": 12.9550956,
      "lon": 77.5858088,
      "tags": {
        "name": "Megha Enterprises",
        "shop": "motorcycle"
      }
    },
    {
      "type": "node",
      "id": 7043229687,
      "lat": 12.9552795,
      "lon": 77.5858224,
      "tags": {
        "name": "Chethan's Helmet World",
        "shop": "motorcycle"
      }
    },
    {
      "type": "node",
      "id": 7043229688,
      "lat": 12.9549086,
      "lon": 77.5857588,
      "tags": {
        "amenity": "restaurant",
        "name": "New Ambur Biriyani"
      }
    },
    {
      "type": "node",
      "id": 7043245785,
      "lat": 12.9550094,
      "lon": 77.5857787,
      "tags": {
        "name": "Moto Nation",
        "shop": "motorcycle"
      }
    },
    {
      "type": "node",
      "id": 7043255185,
      "lat": 12.9554304,
      "lon": 77.585944,
      "tags": {
        "amenity": "restaurant",
        "cuisine": "indian",
        "name": "Hotel Nandeshwara Lunch Home"
      }
    },
    {
      "type": "node",
      "id": 7043262185,
      "lat": 12.9553721,
      "lon": 77.5855419,
      "tags": {
        "addr:housenumber": "120/1",
        "addr:street": "Lalbagh Road",
        "amenity": "pharmacy",
        "name": "Sapthagiri Medicals"
      }
    },
    {
      "type": "node",
      "id": 7043262385,
      "lat": 12.9550862,
      "lon": 77.5858696,
      "tags": {
        "name": "Babu Auto Garage",
        "shop": "car_repair"
      }
    },
    {
      "type": "node",
      "id": 7043262485,
      "lat": 12.9549325,
      "lon": 77.5857756,
      "tags": {
        "name": "The Car Shopp",
        "shop": "car_parts"
      }
    },
    {
      "type": "node",
      "id": 7043519087,
      "lat": 12.9524178,
      "lon": 77.5889783,
      "tags": {
        "addr:housenumber": "2",
        "addr:postcode": "560027",
        "addr:street": "Dr. M. H. Marigowda Road",
        "name": "Prakash S. M. Kannappa Automobiles Pvt. Ltd.",
        "name:en": "S.M. Kannappa Automobiles Pvt. Ltd.",
        "shop": "car"
      }
    },
    {
      "type": "node",
      "id": 7043533585,
      "lat": 12.9522659,
      "lon": 77.5897266,
      "tags": {
        "amenity": "childcare",
        "name": "Sri Maruthi Nursery"
      }
    },
    {
      "type": "node",
      "id": 7043568487,
      "lat": 12.9635112,
      "lon": 77.5848109,
      "tags": {
        "name": "Ganapathy and Company",
        "shop": "convenience"
      }
    },
    {
      "type": "node",
      "id": 7043568691,
      "lat": 12.9548308,
      "lon": 77.580673,
      "tags": {
        "name": "Yousuff Glass Shop",
        "shop": "hardware"
      }
    },
    {
      "type": "node",
      "id": 7043568692,
      "lat": 12.9577674,
      "lon": 77.5823666,
      "tags": {
        "name": "Popular Traders",
        "shop": "car_parts"
      }
    },
    {
      "type": "node",
      "id": 7043991885,
      "lat": 12.9652756,
      "lon": 77.5897462,
      "tags": {
        "name": "R.K. Trader's Helmets and Accessories",
        "shop": "motorcycle"
      }
    },
    {
      "type": "node",
      "id": 7043991985,
      "lat": 12.962044,
      "lon": 77.5933871,
      "tags": {
        "amenity": "bank",
        "brand": "IDBI Bank",
        "brand:wikidata": "Q3633485",
        "name": "IDBI Bank",
        "name:kn": "ಐಡಿಬಿಐ ಬ್ಯಾಂಕ್",
        "short_name": "IDBI"
      }
    },
    {
      "type": "node",
      "id": 7056166958,
      "lat": 12.9645263,
      "lon": 77.5826626,
      "tags": {
        "addr:city": "Bengaluru",
        "addr:postcode": "560002",
        "addr:street": "P. P. Lane",
        "name": "Computer Mega Mart",
        "shop": "computer"
      }
    },
    {
      "type": "node",
      "id": 7293719482,
      "lat": 12.9622109,
      "lon": 77.5954049,
      "tags": {
        "addr:floor": "G",
        "check_date": "2024-08-10",
        "level": "0",
        "name": "Ashoka Tyres And Service",
        "name:hi": "Ashoka Tyres And Service",
        "shop": "tyres",
        "wheelchair": "no"
      }
    },
    {
      "type": "node",
      "id": 7293719483,
      "lat": 12.9620404,
      "lon": 77.5937144,
      "tags": {
        "amenity": "bank",
        "atm": "yes",
        "brand": "State Bank of India",
        "brand:wikidata": "Q1340361",
        "name": "State Bank of India",
        "name:kn": "ಭಾರತೀಯ ಸ್ಟೇಟ್ ಬ್ಯಾಂಕ್",
        "operator": "State Bank of India",
        "short_name": "SBI"
      }
    },
    {
      "type": "node",
      "id": 7576958055,
      "lat": 12.9626783,
      "lon": 77.5949614,
      "tags": {
        "addr:district": "Bengaluru Urban",
        "addr:full": "Sampangi Rama Nagar, Bengaluru",
        "addr:postcode": "560027",
        "addr:state": "Karnataka",
        "amenity": "clinic",
        "name": "Dr. Shankar Desai Clinic",
        "source": "Local Knowledge"
      }
    },
    {
      "type": "node",
      "id": 7576958063,
      "lat": 12.961178,
      "lon": 77.593184,
      "tags": {
        "addr:district": "Bengaluru Urban",
        "addr:full": "Srinivas Colony, Sudhama Nagar, Bengaluru",
        "addr:postcode": "560027",
        "addr:state": "Karnataka",
        "amenity": "clinic",
        "name": "Ashwini Medical Specialist Centre",
        "source": "Local Knowledge"
      }
    },
    {
      "type": "node",
      "id": 7576958084,
      "lat": 12.9654649,
      "lon": 77.5894756,
      "tags": {
        "addr:district": "Bengaluru Urban",
        "addr:full": "Sampangi Rama Nagar, Bengaluru",
        "addr:postcode": "560002",
        "addr:state": "Karnataka",
        "amenity": "hospital",
        "name": "Furtde Hospital",
        "source": "Local Knowledge"
      }
    },
    {
      "type": "node",
      "id": 7576958103,
      "lat": 12.9593021,
      "lon": 77.5927413,
      "tags": {
        "addr:district": "Bengaluru Urban",
        "addr:full": "Srinivas Colony, Sudhama Nagar, Bengaluru",
        "addr:postcode": "560027",
        "addr:state": "Karnataka",
        "amenity": "clinic",
        "name": "Yeshaswi Clinics",
        "source": "Local Knowledge"
      }
    },
    {
      "type": "node",
      "id": 7576958116,
      "lat": 12.9658901,
      "lon": 77.589928,
      "tags": {
        "addr:district": "Bengaluru Urban",
        "addr:full": "Ashwath Nagar, Sampangi Rama Nagara, Bengaluru",
        "addr:postcode": "560002",
        "addr:state": "Karnataka",
        "amenity": "hospital",
        "name": "Punarjyoti Eye Hospital",
        "source": "Local Knowledge"
      }
    },
    {
      "type": "node",
      "id": 8170392717,
      "lat": 12.9564805,
      "lon": 77.5828736,
      "tags": {
        "amenity": "pharmacy",
        "name": "Max Medicals"
      }
    },
    {
      "type": "node",
      "id": 8292562199,
      "lat": 12.9605614,
      "lon": 77.5948658,
      "tags": {
        "addr:city": "Bengaluru",
        "addr:country": "IN",
        "addr:housenumber": "1",
        "addr:postcode": "560027",
        "addr:street": "Shanthi Road",
        "addr:suburb": "Shanthinagar",
        "amenity": "arts_centre",
        "name": "1Shanthiroad Studio/Gallery",
        "website": "http://1shanthiroad.com/"
      }
    },
    {
      "type": "node",
      "id": 9140200239,
      "lat": 12.9601375,
      "lon": 77.595942,
      "tags": {
        "addr:floor": "G",
        "air_conditioning": "no",
        "alt_name": "YDH Canteen",
        "amenity": "fast_food",
        "check_date": "2024-08-11",
        "cuisine": "regional",
        "delivery": "no",
        "diet:vegetarian": "yes",
        "drive_through": "no",
        "level": "0",
        "name": "Yelamma Dasappa Canteen",
        "takeaway": "yes"
      }
    },
    {
      "type": "node",
      "id": 9289356417,
      "lat": 12.9580517,
      "lon": 77.5824765,
      "tags": {
        "amenity": "restaurant",
        "name": "Udupi Sagar Veg Restaurant"
      }
    },
    {
      "type": "node",
      "id": 9292386641,
      "lat": 12.9493948,
      "lon": 77.5888026,
      "tags": {
        "amenity": "bench",
        "backrest": "yes",
        "material": "wood",
        "seats": "3"
      }
    },
    {
      "type": "node",
      "id": 9292386642,
      "lat": 12.949434,
      "lon": 77.5889307,
      "tags": {
        "amenity": "bench",
        "backrest": "yes",
        "material": "wood",
        "seats": "3"
      }
    },
    {
      "type": "node",
      "id": 9292386643,
      "lat": 12.9494785,
      "lon": 77.5890313,
      "tags": {
        "amenity": "bench",
        "backrest": "yes",
        "material": "wood",
        "seats": "3"
      }
    },
    {
      "type": "node",
      "id": 9292386644,
      "lat": 12.9495379,
      "lon": 77.5891614,
      "tags": {
        "amenity": "bench",
        "backrest": "yes",
        "material": "wood",
        "seats": "3"
      }
    },
    {
      "type": "node",
      "id": 9292386645,
      "lat": 12.9495896,
      "lon": 77.5892814,
      "tags": {
        "amenity": "bench",
        "backrest": "yes",
        "material": "wood",
        "seats": "3"
      }
    },
    {
      "type": "node",
      "id": 9292386646,
      "lat": 12.9496516,
      "lon": 77.5893934,
      "tags": {
        "amenity": "bench",
        "backrest": "yes",
        "material": "wood",
        "seats": "3"
      }
    },
    {
      "type": "node",
      "id": 9292386647,
      "lat": 12.9497046,
      "lon": 77.5895101,
      "tags": {
        "amenity": "bench",
        "backrest": "yes",
        "material": "wood",
        "seats": "3"
      }
    },
    {
      "type": "node",
      "id": 9292386648,
      "lat": 12.9495262,
      "lon": 77.5894202,
      "tags": {
        "amenity": "waste_basket"
      }
    },
    {
      "type": "node",
      "id": 9292386649,
      "lat": 12.9497418,
      "lon": 77.5895376,
      "tags": {
        "amenity": "waste_basket"
      }
    },
    {
      "type": "node",
      "id": 9296258308,
      "lat": 12.9590684,
      "lon": 77.5930989,
      "tags": {
        "brand": "Suzuki",
        "name": "Suzuki",
        "shop": "car"
      }
    },
    {
      "type": "node",
      "id": 9296258309,
      "lat": 12.9592631,
      "lon": 77.5931659,
      "tags": {
        "amenity": "clinic",
        "name": "Magnum Onco Care"
      }
    },
    {
      "type": "node",
      "id": 9296258312,
      "lat": 12.9596526,
      "lon": 77.5938318,
      "tags": {
        "amenity": "bank",
        "atm": "yes",
        "brand": "Canara Bank",
        "brand:en": "Canara Bank",
        "brand:hi": "केनरा बैंक",
        "brand:kn": "ಕೆನರಾ ಬ್ಯಾಂಕ್",
        "brand:pa": "ਕੇਨਰਾ ਬੈਂਕ",
        "brand:pnb": "کینرا بینک",
        "brand:ur": "کینرا بینک",
        "brand:wikidata": "Q2003777",
        "brand:wikipedia": "en:Canara Bank",
        "brand:wikipedia:pa": "ਕੇਨਰਾ ਬੈਂਕ",
        "name": "Canara Bank",
        "name:en": "Canara Bank",
        "name:hi": "केनरा बैंक",
        "name:kn": "ಕೆನರಾ ಬ್ಯಾಂಕ್",
        "name:pa": "ਕੇਨਰਾ ਬੈਂਕ",
        "name:pnb": "کینرا بینک",
        "name:ur": "کینرا بینک"
      }
    },
    {
      "type": "node",
      "id": 9296258313,
      "lat": 12.959039,
      "lon": 77.5936943,
      "tags": {
        "name": "Prasiddhi Stores",
        "shop": "fabric"
      }
    },
    {
      "type": "node",
      "id": 9296258314,
      "lat": 12.9590854,
      "lon": 77.5936373,
      "tags": {
        "amenity": "bank",
        "atm": "yes",
        "brand": "Karnataka Bank",
        "brand:wikidata": "Q2042632",
        "name": "Karnataka Bank",
        "name:kn": "ಕರ್ನಾಟಕ ಬ್ಯಾಂಕ್"
      }
    },
    {
      "type": "node",
      "id": 9296258316,
      "lat": 12.958609,
      "lon": 77.5934523,
      "tags": {
        "name": "Kaff",
        "shop": "kitchen"
      }
    },
    {
      "type": "node",
      "id": 9531680758,
      "lat": 12.9559991,
      "lon": 77.5806662,
      "tags": {
        "amenity": "restaurant",
        "cuisine": "indian",
        "diet:non-vegetarian": "yes",
        "name": "Mayuri"
      }
    },
    {
      "type": "node",
      "id": 9538903561,
      "lat": 12.9646068,
      "lon": 77.5839621,
      "tags": {
        "name": "Tab core computers",
        "shop": "computer"
      }
    },
    {
      "type": "node",
      "id": 9841611231,
      "lat": 12.9642862,
      "lon": 77.5834718,
      "tags": {
        "name": "Kaveri computers",
        "shop": "computer"
      }
    },
    {
      "type": "node",
      "id": 9922802663,
      "lat": 12.9501718,
      "lon": 77.5861922,
      "tags": {
        "amenity": "drinking_water"
      }
    },
    {
      "type": "node",
      "id": 9922802664,
      "lat": 12.9502137,
      "lon": 77.5853258,
      "tags": {
        "amenity": "drinking_water"
      }
    },
    {
      "type": "node",
      "id": 9924452289,
      "lat": 12.9584471,
      "lon": 77.5927218,
      "tags": {
        "amenity": "toilets"
      }
    },
    {
      "type": "node",
      "id": 9924452290,
      "lat": 12.9585493,
      "lon": 77.5927576,
      "tags": {
        "amenity": "toilets"
      }
    },
    {
      "type": "node",
      "id": 9924452291,
      "lat": 12.9584054,
      "lon": 77.5928903,
      "tags": {
        "addr:city": "Bengaluru",
        "addr:housenumber": "105",
        "addr:postcode": "560027",
        "addr:street": "Kengal Hanumanthaiah Road",
        "addr:suburb": "Shantinagar",
        "amenity": "restaurant",
        "capacity": "20",
        "check_date": "2024-05-11",
        "contact:instagram": "eatnaru",
        "contact:twitter": "eatnaru",
        "cuisine": "ramen",
        "delivery": "no",
        "email": "info@narunoodlebar.com",
        "name": "Naru Noodle Bar",
        "opening_hours": "Tu 18:30-20:30; We-Su 12:30-14:30,18:30-20:30",
        "outdoor_seating": "yes",
        "phone": "+91 98867 91733",
        "reservation": "only",
        "takeaway": "no",
        "toilets": "yes",
        "toilets:access": "customers",
        "website": "https://www.narunoodlebar.com/"
      }
    },
    {
      "type": "node",
      "id": 9924452292,
      "lat": 12.9584446,
      "lon": 77.5929034,
      "tags": {
        "amenity": "events_venue",
        "name": "The Conservatory"
      }
    },
    {
      "type": "node",
      "id": 10032117247,
      "lat": 12.9567642,
      "lon": 77.5926107,
      "tags": {
        "access": "yes",
        "amenity": "bicycle_rental",
        "brand": "Yulu",
        "brand:wikidata": "Q104871276",
        "capacity": "10",
        "fee": "no",
        "network": "Yulu",
        "network:wikidata": "Q104871276",
        "operator": "Yulu"
      }
    },
    {
      "type": "node",
      "id": 10045910454,
      "lat": 12.9549456,
      "lon": 77.588287,
      "tags": {
        "name": "MRS Enterprises",
        "shop": "car_parts"
      }
    },
    {
      "type": "node",
      "id": 10289145777,
      "lat": 12.9555473,
      "lon": 77.5925404,
      "tags": {
        "amenity": "bench",
        "backrest": "no",
        "material": "stone"
      }
    },
    {
      "type": "node",
      "id": 10289145794,
      "lat": 12.9554494,
      "lon": 77.5926661,
      "tags": {
        "amenity": "bench",
        "backrest": "no",
        "material": "stone"
      }
    },
    {
      "type": "node",
      "id": 10697561504,
      "lat": 12.9633163,
      "lon": 77.5889106,
      "tags": {
        "amenity": "bank",
        "brand": "State Bank of India",
        "brand:wikidata": "Q1340361",
        "name": "State Bank of India",
        "short_name": "SBI"
      }
    },
    {
      "type": "node",
      "id": 10792887305,
      "lat": 12.9585496,
      "lon": 77.5867635,
      "tags": {
        "access": "private",
        "amenity": "parking",
        "covered": "no",
        "fee": "yes",
        "parking": "surface",
        "payment:cash": "yes",
        "source": "survey",
        "supervised": "yes",
        "surface": "ground"
      }
    },
    {
      "type": "node",
      "id": 10853089401,
      "lat": 12.9634257,
      "lon": 77.5842141,
      "tags": {
        "amenity": "bank",
        "atm": "yes",
        "brand": "Union Bank",
        "name": "Union Bank",
        "operator": "Union Bank"
      }
    },
    {
      "type": "node",
      "id": 10895966356,
      "lat": 12.9578594,
      "lon": 77.5926986,
      "tags": {
        "amenity": "bank",
        "atm": "yes",
        "brand": "ICICI Bank",
        "brand:wikidata": "Q1653258",
        "name": "ICICI Bank",
        "name:kn": "ಐಸಿಐಸಿಐ ಬ್ಯಾಂಕು",
        "operator": "ICICI Bank",
        "short_name": "ICICI"
      }
    },
    {
      "type": "node",
      "id": 10969398448,
      "lat": 12.965565,
      "lon": 77.5844677,
      "tags": {
        "amenity": "atm",
        "cash_in": "no",
        "check_date": "2023-06-11",
        "network": "DCB Bank",
        "operator": "DCB Bank",
        "source": "survey"
      }
    },
    {
      "type": "node",
      "id": 11064985066,
      "lat": 12.9543709,
      "lon": 77.5905051,
      "tags": {
        "amenity": "courthouse",
        "name": "Bangalore Mediation Centre"
      }
    },
    {
      "type": "node",
      "id": 11295469699,
      "lat": 12.9519038,
      "lon": 77.5944072,
      "tags": {
        "amenity": "pharmacy",
        "healthcare": "pharmacy",
        "level": "0",
        "name": "Primecare Pharma",
        "opening_hours": "Mo-Su 08:00-23:00,13:30-18:30; PH open"
      }
    },
    {
      "type": "node",
      "id": 11295714523,
      "lat": 12.9540945,
      "lon": 77.5913153,
      "tags": {
        "amenity": "cafe",
        "level": "0",
        "name": "Murugan Cafe",
        "opening_hours": "Mo-Su 05:00-23:00; PH open"
      }
    },
    {
      "type": "node",
      "id": 11295718722,
      "lat": 12.9547702,
      "lon": 77.5915257,
      "tags": {
        "level": "0",
        "name": "Black & White",
        "shop": "alcohol"
      }
    },
    {
      "type": "node",
      "id": 11295814509,
      "lat": 12.9566336,
      "lon": 77.5922681,
      "tags": {
        "alt_name": "Kentucky Fried Chicken",
        "alt_name:en": "Kentucky Fried Chicken",
        "alt_name:hi": "केंटुकी फ्राइड चिकन",
        "alt_name:pa": "ਕੈਂਟੁਕੀ ਫ੍ਰਾਈਡ ਚਿਕਨ",
        "alt_name:pnb": "کینٹکی فرائیڈ چکن",
        "alt_name:ur": "کینٹکی فرائیڈ چکن",
        "amenity": "fast_food",
        "brand": "KFC",
        "brand:en": "KFC",
        "brand:hi": "केएफसी",
        "brand:pa": "ਕੇਐਫਸੀ",
        "brand:pnb": "کے ایف سی",
        "brand:ur": "کے ایف سی",
        "brand:wikidata": "Q524757",
        "cuisine": "chicken",
        "level": "0",
        "name": "KFC",
        "name:en": "KFC",
        "name:hi": "केएफसी",
        "name:pa": "ਕੇਐਫਸੀ",
        "name:pnb": "کے ایف سی",
        "name:ur": "کے ایف سی",
        "takeaway": "yes"
      }
    },
    {
      "type": "node",
      "id": 11295814512,
      "lat": 12.9565308,
      "lon": 77.5911058,
      "tags": {
        "level": "0",
        "name": "Sri Manjunatha Bakery & Cool Joint",
        "shop": "bakery"
      }
    },
    {
      "type": "node",
      "id": 11295826654,
      "lat": 12.9550118,
      "lon": 77.5925388,
      "tags": {
        "amenity": "restaurant",
        "level": "0",
        "name": "Sri Vishnu Bhavan",
        "survey:date": "2024-02-01"
      }
    },
    {
      "type": "node",
      "id": 11295826656,
      "lat": 12.9547541,
      "lon": 77.5929871,
      "tags": {
        "amenity": "atm",
        "brand": "Karnataka Bank",
        "brand:wikidata": "Q2042632",
        "cash_in": "no",
        "level": "0",
        "operator": "Karnataka Bank",
        "operator:wikidata": "Q2042632"
      }
    },
    {
      "type": "node",
      "id": 11295833796,
      "lat": 12.9551335,
      "lon": 77.592631,
      "tags": {
        "amenity": "waste_basket",
        "waste": "trash"
      }
    },
    {
      "type": "node",
      "id": 11296585667,
      "lat": 12.9552812,
      "lon": 77.5799043,
      "tags": {
        "amenity": "waste_basket"
      }
    },
    {
      "type": "node",
      "id": 11296585668,
      "lat": 12.9554251,
      "lon": 77.5800148,
      "tags": {
        "amenity": "fast_food",
        "check_date": "2023-10-29",
        "name": "Coastrica Bar & Rest"
      }
    },
    {
      "type": "node",
      "id": 11298161566,
      "lat": 12.9541005,
      "lon": 77.5913286,
      "tags": {
        "access": "permissive",
        "amenity": "drinking_water",
        "bottle": "yes",
        "indoor": "yes",
        "level": "0"
      }
    },
    {
      "type": "node",
      "id": 11331558610,
      "lat": 12.9589981,
      "lon": 77.5825067,
      "tags": {
        "amenity": "bank",
        "brand": "Union Bank of India",
        "brand:wikidata": "Q2004078",
        "name": "Union Bank of India"
      }
    },
    {
      "type": "node",
      "id": 11355711181,
      "lat": 12.963518,
      "lon": 77.5846258,
      "tags": {
        "check_date": "2023-11-16",
        "name": "Presidency Cycle",
        "shop": "bicycle"
      }
    },
    {
      "type": "node",
      "id": 11355730137,
      "lat": 12.9547863,
      "lon": 77.5808837,
      "tags": {
        "check_date": "2023-11-16",
        "name": "Royal Foam and Furnishings",
        "shop": "interior_decoration"
      }
    },
    {
      "type": "node",
      "id": 11355730140,
      "lat": 12.9596838,
      "lon": 77.5829494,
      "tags": {
        "amenity": "bank",
        "brand": "Yes Bank",
        "brand:wikidata": "Q2040394",
        "check_date": "2023-11-16",
        "name": "Yes Bank"
      }
    },
    {
      "type": "node",
      "id": 11355730141,
      "lat": 12.9607154,
      "lon": 77.5835644,
      "tags": {
        "amenity": "bank",
        "brand": "State Bank of India",
        "brand:wikidata": "Q1340361",
        "check_date": "2023-11-16",
        "name": "State Bank of India",
        "name:kn": "ಎಸ್ ಬಿ ಐ",
        "short_name": "SBI"
      }
    },
    {
      "type": "node",
      "id": 11355730142,
      "lat": 12.9630918,
      "lon": 77.5847915,
      "tags": {
        "amenity": "post_box",
        "operator": "India Post",
        "operator:wikidata": "Q3519720"
      }
    },
    {
      "type": "node",
      "id": 11371236634,
      "lat": 12.9539626,
      "lon": 77.5851182,
      "tags": {
        "brand": "Nandini",
        "check_date": "2023-11-23",
        "name": "Nandini",
        "shop": "dairy"
      }
    },
    {
      "type": "node",
      "id": 11371236635,
      "lat": 12.9545088,
      "lon": 77.5833551,
      "tags": {
        "brand": "Apollo Tyres",
        "brand:wikidata": "Q4780362",
        "check_date": "2023-11-23",
        "name": "Apollo Tyres",
        "shop": "tyres"
      }
    },
    {
      "type": "node",
      "id": 11371245260,
      "lat": 12.9510527,
      "lon": 77.5911638,
      "tags": {
        "check_date": "2023-11-23",
        "name": "Nandini",
        "shop": "dairy"
      }
    },
    {
      "type": "node",
      "id": 11416992093,
      "lat": 12.9596245,
      "lon": 77.5832707,
      "tags": {
        "amenity": "bank",
        "brand": "HDFC Bank",
        "brand:wikidata": "Q631047",
        "check_date": "2023-12-14",
        "name": "HDFC Bank",
        "name:kn": "ಎಚ್ ಡಿ ಎಫ್ ಸಿ",
        "short_name": "HDFC"
      }
    },
    {
      "type": "node",
      "id": 11417001861,
      "lat": 12.9637807,
      "lon": 77.582047,
      "tags": {
        "access": "yes",
        "amenity": "toilets",
        "check_date": "2023-12-14",
        "fee": "yes",
        "operator": "BBMP"
      }
    },
    {
      "type": "node",
      "id": 11417003459,
      "lat": 12.9500234,
      "lon": 77.593064,
      "tags": {
        "brand": "Tata",
        "brand:wikidata": "Q188514",
        "check_date": "2023-12-14",
        "name": "Tata",
        "shop": "car"
      }
    },
    {
      "type": "node",
      "id": 11496819756,
      "lat": 12.9644222,
      "lon": 77.5822003,
      "tags": {
        "addr:city": "Bangalore",
        "addr:district": "Bangalore Urban",
        "addr:postcode": "560002",
        "name": "The IT Gear",
        "shop": "computer",
        "website": "https://theitgear.com/"
      }
    },
    {
      "type": "node",
      "id": 11557028551,
      "lat": 12.9584724,
      "lon": 77.5929147,
      "tags": {
        "addr:floor": "G",
        "addr:housenumber": "105",
        "addr:street": "Kengal Hanumanthaiah Road",
        "amenity": "bar",
        "check_date": "2024-01-29",
        "contact:instagram": "https://www.instagram.com/wineinprogressblr",
        "level": "0",
        "name": "Wine In Progress",
        "opening_hours": "17:00-23:00",
        "start_date": "2024-01-31",
        "website": "https://wip.thecourtyard.in/"
      }
    },
    {
      "type": "node",
      "id": 11577096069,
      "lat": 12.9538309,
      "lon": 77.5926163,
      "tags": {
        "amenity": "shelter",
        "bench": "yes",
        "lit": "yes",
        "name": "Airavat Passengers Waiting Lounge",
        "shelter_type": "public_transport",
        "survey:date": "2024-02-01"
      }
    },
    {
      "type": "node",
      "id": 11687235829,
      "lat": 12.9648401,
      "lon": 77.5897122,
      "tags": {
        "check_date": "2024-03-03",
        "name": "Chikpet Saree Udyog",
        "shop": "clothes"
      }
    },
    {
      "type": "node",
      "id": 11687235830,
      "lat": 12.9625546,
      "lon": 77.5922966,
      "tags": {
        "check_date": "2024-03-03",
        "name": "Nandini",
        "shop": "dairy"
      }
    },
    {
      "type": "node",
      "id": 11963070622,
      "lat": 12.9536988,
      "lon": 77.59234,
      "tags": {
        "amenity": "atm",
        "brand": "Karnataka Bank",
        "brand:wikidata": "Q2042632",
        "cash_in": "no",
        "check_date": "2024-06-07",
        "currency:INR": "yes",
        "drive_through": "no",
        "indoor": "no",
        "operator": "Karnataka Bank",
        "operator:wikidata": "Q2042632"
      }
    },
    {
      "type": "node",
      "id": 11981271373,
      "lat": 12.953587,
      "lon": 77.5927559,
      "tags": {
        "addr:floor": "G",
        "brand": "METRO",
        "brand:wikidata": "Q13610282",
        "check_date": "2024-06-14",
        "level": "0",
        "name": "Metro",
        "name:en": "METRO",
        "shop": "wholesale"
      }
    },
    {
      "type": "node",
      "id": 12000027568,
      "lat": 12.9494589,
      "lon": 77.58495,
      "tags": {
        "amenity": "bench",
        "backrest": "yes",
        "seats": "3"
      }
    },
    {
      "type": "node",
      "id": 12000048464,
      "lat": 12.9499556,
      "lon": 77.5832852,
      "tags": {
        "amenity": "waste_basket",
        "material": "plastic"
      }
    },
    {
      "type": "node",
      "id": 12000048468,
      "lat": 12.9533931,
      "lon": 77.5850082,
      "tags": {
        "amenity": "waste_basket"
      }
    },
    {
      "type": "node",
      "id": 12000078223,
      "lat": 12.9511021,
      "lon": 77.58344,
      "tags": {
        "amenity": "bench",
        "backrest": "yes",
        "colour": "green",
        "material": "concrete",
        "seats": "3"
      }
    },
    {
      "type": "node",
      "id": 12000078224,
      "lat": 12.9511129,
      "lon": 77.5834439,
      "tags": {
        "amenity": "waste_basket",
        "colour": "green",
        "waste": "organic"
      }
    },
    {
      "type": "node",
      "id": 12000078225,
      "lat": 12.9511196,
      "lon": 77.5834463,
      "tags": {
        "amenity": "waste_basket",
        "colour": "blue",
        "waste": "recycling"
      }
    },
    {
      "type": "node",
      "id": 12000085312,
      "lat": 12.9509026,
      "lon": 77.5833921,
      "tags": {
        "access": "yes",
        "amenity": "drinking_water",
        "fee": "no",
        "wheelchair": "yes"
      }
    },
    {
      "type": "node",
      "id": 12000085313,
      "lat": 12.9509248,
      "lon": 77.5833982,
      "tags": {
        "amenity": "bench",
        "backrest": "yes",
        "colour": "green",
        "material": "concrete",
        "seats": "3"
      }
    },
    {
      "type": "node",
      "id": 12000091023,
      "lat": 12.9489204,
      "lon": 77.585728,
      "tags": {
        "amenity": "bench",
        "backrest": "yes",
        "material": "wood",
        "seats": "3"
      }
    },
    {
      "type": "node",
      "id": 12000093289,
      "lat": 12.9503107,
      "lon": 77.5832383,
      "tags": {
        "amenity": "bench",
        "backrest": "yes",
        "material": "wood",
        "seats": "3"
      }
    },
    {
      "type": "node",
      "id": 12000095351,
      "lat": 12.9514406,
      "lon": 77.5835265,
      "tags": {
        "amenity": "bench",
        "backrest": "yes",
        "material": "stone",
        "seats": "3"
      }
    },
    {
      "type": "node",
      "id": 12000095352,
      "lat": 12.9515001,
      "lon": 77.5836554,
      "tags": {
        "amenity": "bench",
        "backrest": "yes",
        "colour": "green",
        "material": "concrete",
        "seats": "3"
      }
    },
    {
      "type": "node",
      "id": 12000095353,
      "lat": 12.9514716,
      "lon": 77.5836507,
      "tags": {
        "amenity": "waste_basket",
        "colour": "blue",
        "waste": "recycling"
      }
    },
    {
      "type": "node",
      "id": 12000095354,
      "lat": 12.9514523,
      "lon": 77.5836481,
      "tags": {
        "amenity": "waste_basket",
        "colour": "green",
        "waste": "organic"
      }
    },
    {
      "type": "node",
      "id": 12000095496,
      "lat": 12.9494982,
      "lon": 77.5845087,
      "tags": {
        "amenity": "waste_basket",
        "colour": "brown"
      }
    },
    {
      "type": "node",
      "id": 12000095497,
      "lat": 12.9494406,
      "lon": 77.5845919,
      "tags": {
        "amenity": "bench",
        "lit": "yes"
      }
    },
    {
      "type": "node",
      "id": 12000095498,
      "lat": 12.9494132,
      "lon": 77.5846938,
      "tags": {
        "amenity": "bench",
        "backrest": "yes",
        "material": "stone"
      }
    },
    {
      "type": "node",
      "id": 12000095499,
      "lat": 12.949418,
      "lon": 77.5847239,
      "tags": {
        "amenity": "bench",
        "backrest": "yes",
        "material": "stone"
      }
    },
    {
      "type": "node",
      "id": 12000095500,
      "lat": 12.9494089,
      "lon": 77.5848058,
      "tags": {
        "amenity": "bench",
        "backrest": "yes",
        "material": "stone"
      }
    },
    {
      "type": "node",
      "id": 12000095501,
      "lat": 12.9494216,
      "lon": 77.5848413,
      "tags": {
        "amenity": "waste_basket",
        "colour": "brown"
      }
    },
    {
      "type": "node",
      "id": 12000101352,
      "lat": 12.9500151,
      "lon": 77.5832921,
      "tags": {
        "amenity": "bench",
        "backrest": "yes",
        "colour": "green",
        "material": "concrete",
        "seats": "2"
      }
    },
    {
      "type": "node",
      "id": 12000103764,
      "lat": 12.9515979,
      "lon": 77.5835711,
      "tags": {
        "amenity": "bench",
        "backrest": "no",
        "material": "stone",
        "seats": "3"
      }
    },
    {
      "type": "node",
      "id": 12000103765,
      "lat": 12.9516136,
      "lon": 77.583575,
      "tags": {
        "amenity": "waste_basket",
        "waste": "mixed"
      }
    },
    {
      "type": "node",
      "id": 12000103915,
      "lat": 12.9509502,
      "lon": 77.5830348,
      "tags": {
        "amenity": "bench",
        "backrest": "yes",
        "seats": "2"
      }
    },
    {
      "type": "node",
      "id": 12000103916,
      "lat": 12.9510058,
      "lon": 77.5829578,
      "tags": {
        "amenity": "bench",
        "backrest": "yes",
        "material": "stone",
        "seats": "2"
      }
    },
    {
      "type": "node",
      "id": 12000103918,
      "lat": 12.9513388,
      "lon": 77.5830781,
      "tags": {
        "amenity": "shelter",
        "bench": "no",
        "lit": "no",
        "shelter_type": "gazebo"
      }
    },
    {
      "type": "node",
      "id": 12000105613,
      "lat": 12.9512843,
      "lon": 77.5834874,
      "tags": {
        "amenity": "bench",
        "backrest": "yes",
        "colour": "green",
        "material": "concrete",
        "seats": "3"
      }
    },
    {
      "type": "node",
      "id": 12000106443,
      "lat": 12.9494228,
      "lon": 77.5850459,
      "tags": {
        "amenity": "waste_basket",
        "material": "plastic"
      }
    },
    {
      "type": "node",
      "id": 12000106446,
      "lat": 12.9508354,
      "lon": 77.5835162,
      "tags": {
        "amenity": "bench",
        "backrest": "no",
        "material": "stone"
      }
    },
    {
      "type": "node",
      "id": 12000106447,
      "lat": 12.9508996,
      "lon": 77.5835348,
      "tags": {
        "amenity": "bench",
        "backrest": "no",
        "material": "stone"
      }
    },
    {
      "type": "node",
      "id": 12000107758,
      "lat": 12.9535803,
      "lon": 77.5849908,
      "tags": {
        "amenity": "waste_basket"
      }
    },
    {
      "type": "node",
      "id": 12000108477,
      "lat": 12.9492162,
      "lon": 77.585193,
      "tags": {
        "amenity": "bench",
        "backrest": "yes",
        "seats": "3"
      }
    },
    {
      "type": "node",
      "id": 12000108478,
      "lat": 12.9491696,
      "lon": 77.5853015,
      "tags": {
        "amenity": "bench",
        "backrest": "yes",
        "seats": "3"
      }
    },
    {
      "type": "node",
      "id": 12000108675,
      "lat": 12.9501342,
      "lon": 77.5834318,
      "tags": {
        "amenity": "bench",
        "backrest": "no",
        "material": "stone",
        "seats": "3"
      }
    },
    {
      "type": "node",
      "id": 12000108676,
      "lat": 12.9501303,
      "lon": 77.5834791,
      "tags": {
        "amenity": "bench",
        "backrest": "no",
        "material": "stone",
        "seats": "3"
      }
    },
    {
      "type": "node",
      "id": 12000108779,
      "lat": 12.9504113,
      "lon": 77.5833837,
      "tags": {
        "amenity": "waste_basket",
        "colour": "blue",
        "waste": "recycling"
      }
    },
    {
      "type": "node",
      "id": 12000108780,
      "lat": 12.9503965,
      "lon": 77.5833821,
      "tags": {
        "amenity": "waste_basket",
        "colour": "green",
        "waste": "organic"
      }
    },
    {
      "type": "node",
      "id": 12000108969,
      "lat": 12.9494393,
      "lon": 77.5850413,
      "tags": {
        "amenity": "bench",
        "backrest": "yes",
        "seats": "3"
      }
    },
    {
      "type": "node",
      "id": 12000108970,
      "lat": 12.949401,
      "lon": 77.5851211,
      "tags": {
        "amenity": "bench",
        "backrest": "yes",
        "seats": "3"
      }
    },
    {
      "type": "node",
      "id": 12000109175,
      "lat": 12.9532948,
      "lon": 77.5851274,
      "tags": {
        "amenity": "drinking_water"
      }
    },
    {
      "type": "node",
      "id": 12000109176,
      "lat": 12.953211,
      "lon": 77.585119,
      "tags": {
        "amenity": "waste_basket"
      }
    },
    {
      "type": "node",
      "id": 12000113010,
      "lat": 12.9493673,
      "lon": 77.5852288,
      "tags": {
        "amenity": "waste_basket",
        "colour": "brown"
      }
    },
    {
      "type": "node",
      "id": 12000120030,
      "lat": 12.9510886,
      "lon": 77.5837854,
      "tags": {
        "amenity": "bench",
        "backrest": "no",
        "material": "stone",
        "seats": "3"
      }
    },
    {
      "type": "node",
      "id": 12000120031,
      "lat": 12.9511454,
      "lon": 77.583799,
      "tags": {
        "amenity": "bench",
        "backrest": "no",
        "material": "stone",
        "seats": "3"
      }
    },
    {
      "type": "node",
      "id": 12000126769,
      "lat": 12.9518909,
      "lon": 77.5848763,
      "tags": {
        "amenity": "clock"
      }
    },
    {
      "type": "node",
      "id": 12000126770,
      "lat": 12.9511255,
      "lon": 77.5847047,
      "tags": {
        "amenity": "fountain"
      }
    },
    {
      "type": "node",
      "id": 12000126771,
      "lat": 12.9509424,
      "lon": 77.5845687,
      "tags": {
        "brand": "HOPCOMS",
        "brand:wikidata": "Q22908959",
        "check_date": "2024-06-22",
        "name": "HOPCOMS",
        "shop": "greengrocer"
      }
    },
    {
      "type": "node",
      "id": 12000126772,
      "lat": 12.9500557,
      "lon": 77.5843326,
      "tags": {
        "amenity": "waste_basket"
      }
    },
    {
      "type": "node",
      "id": 12000126773,
      "lat": 12.9497285,
      "lon": 77.5839621,
      "tags": {
        "amenity": "fountain"
      }
    },
    {
      "type": "node",
      "id": 12000333846,
      "lat": 12.9499774,
      "lon": 77.5832663,
      "tags": {
        "amenity": "waste_basket"
      }
    },
    {
      "type": "node",
      "id": 12000333847,
      "lat": 12.9500179,
      "lon": 77.583282,
      "tags": {
        "amenity": "bench",
        "backrest": "yes",
        "colour": "green",
        "material": "stone"
      }
    },
    {
      "type": "node",
      "id": 12000333848,
      "lat": 12.9501188,
      "lon": 77.5834491,
      "tags": {
        "amenity": "bench",
        "backrest": "no",
        "material": "stone"
      }
    },
    {
      "type": "node",
      "id": 12000333849,
      "lat": 12.9501128,
      "lon": 77.5834673,
      "tags": {
        "amenity": "bench",
        "backrest": "no",
        "material": "stone"
      }
    },
    {
      "type": "node",
      "id": 12000333850,
      "lat": 12.9511324,
      "lon": 77.5834435,
      "tags": {
        "amenity": "waste_basket"
      }
    },
    {
      "type": "node",
      "id": 12000333851,
      "lat": 12.9513197,
      "lon": 77.5836359,
      "tags": {
        "amenity": "bench",
        "backrest": "no",
        "material": "stone"
      }
    },
    {
      "type": "node",
      "id": 12000333852,
      "lat": 12.9514036,
      "lon": 77.5835121,
      "tags": {
        "amenity": "bench",
        "backrest": "yes",
        "material": "concrete"
      }
    },
    {
      "type": "node",
      "id": 12000333853,
      "lat": 12.9512665,
      "lon": 77.5834608,
      "tags": {
        "amenity": "bench",
        "backrest": "yes",
        "material": "concrete"
      }
    },
    {
      "type": "node",
      "id": 12000333854,
      "lat": 12.9510703,
      "lon": 77.5834289,
      "tags": {
        "amenity": "bench",
        "backrest": "yes",
        "material": "concrete"
      }
    },
    {
      "type": "node",
      "id": 12000333855,
      "lat": 12.9510243,
      "lon": 77.5835594,
      "tags": {
        "amenity": "bench",
        "backrest": "no"
      }
    },
    {
      "type": "node",
      "id": 12000333856,
      "lat": 12.9509138,
      "lon": 77.5835384,
      "tags": {
        "amenity": "bench",
        "backrest": "no"
      }
    },
    {
      "type": "node",
      "id": 12000333857,
      "lat": 12.9509549,
      "lon": 77.5835467,
      "tags": {
        "amenity": "bench",
        "backrest": "no"
      }
    },
    {
      "type": "node",
      "id": 12000333858,
      "lat": 12.9515319,
      "lon": 77.5835405,
      "tags": {
        "amenity": "bench",
        "backrest": "no",
        "material": "stone"
      }
    },
    {
      "type": "node",
      "id": 12000333859,
      "lat": 12.9515851,
      "lon": 77.5835592,
      "tags": {
        "amenity": "waste_basket"
      }
    },
    {
      "type": "node",
      "id": 12000333860,
      "lat": 12.9535837,
      "lon": 77.5849067,
      "tags": {
        "amenity": "waste_basket"
      }
    },
    {
      "type": "node",
      "id": 12000333861,
      "lat": 12.9517936,
      "lon": 77.5837218,
      "tags": {
        "amenity": "bench",
        "backrest": "yes"
      }
    },
    {
      "type": "node",
      "id": 12000333862,
      "lat": 12.9519076,
      "lon": 77.5836322,
      "tags": {
        "amenity": "waste_basket"
      }
    },
    {
      "type": "node",
      "id": 12000333863,
      "lat": 12.9518996,
      "lon": 77.5837484,
      "tags": {
        "amenity": "waste_basket"
      }
    },
    {
      "type": "node",
      "id": 12000333864,
      "lat": 12.9522123,
      "lon": 77.5838239,
      "tags": {
        "amenity": "bench",
        "backrest": "yes"
      }
    },
    {
      "type": "node",
      "id": 12000333865,
      "lat": 12.9522509,
      "lon": 77.5838309,
      "tags": {
        "amenity": "waste_basket"
      }
    },
    {
      "type": "node",
      "id": 12000333866,
      "lat": 12.9523954,
      "lon": 77.5838654,
      "tags": {
        "amenity": "bench",
        "backrest": "yes"
      }
    },
    {
      "type": "node",
      "id": 12000333867,
      "lat": 12.9523299,
      "lon": 77.5837435,
      "tags": {
        "amenity": "bench",
        "backrest": "yes"
      }
    },
    {
      "type": "node",
      "id": 12000333868,
      "lat": 12.9523508,
      "lon": 77.5841706,
      "tags": {
        "amenity": "bench",
        "backrest": "yes"
      }
    },
    {
      "type": "node",
      "id": 12000359669,
      "lat": 12.9524939,
      "lon": 77.5837914,
      "tags": {
        "amenity": "waste_basket"
      }
    },
    {
      "type": "node",
      "id": 12000359670,
      "lat": 12.9529697,
      "lon": 77.5839233,
      "tags": {
        "amenity": "waste_basket"
      }
    },
    {
      "type": "node",
      "id": 12000359671,
      "lat": 12.9531516,
      "lon": 77.5841746,
      "tags": {
        "amenity": "waste_basket"
      }
    },
    {
      "type": "node",
      "id": 12000359672,
      "lat": 12.9532353,
      "lon": 77.5841196,
      "tags": {
        "amenity": "bench",
        "backrest": "yes"
      }
    },
    {
      "type": "node",
      "id": 12000359673,
      "lat": 12.9534505,
      "lon": 77.5846776,
      "tags": {
        "amenity": "bench",
        "backrest": "yes"
      }
    },
    {
      "type": "node",
      "id": 12000359674,
      "lat": 12.9534355,
      "lon": 77.5846438,
      "tags": {
        "amenity": "bench",
        "backrest": "yes"
      }
    },
    {
      "type": "node",
      "id": 12000359675,
      "lat": 12.9535811,
      "lon": 77.5847475,
      "tags": {
        "amenity": "waste_basket"
      }
    },
    {
      "type": "node",
      "id": 12000359676,
      "lat": 12.9518218,
      "lon": 77.5836145,
      "tags": {
        "amenity": "bench",
        "backrest": "yes"
      }
    },
    {
      "type": "node",
      "id": 12036211740,
      "lat": 12.9543622,
      "lon": 77.5929328,
      "tags": {
        "addr:floor": "G",
        "check_date": "2024-07-05",
        "level": "0",
        "name": "Sri Vari Stationary & Conditiments",
        "name:en": "Sri Vari Stationary & Conditiments",
        "shop": "convenience"
      }
    },
    {
      "type": "node",
      "id": 12061117156,
      "lat": 12.9563963,
      "lon": 77.5862865,
      "tags": {
        "addr:floor": "G",
        "brand": "Volkswagen",
        "brand:wikidata": "Q246",
        "check_date": "2024-07-18",
        "level": "0",
        "name": "Volkswagen Bengaluru Central",
        "name:en": "Volkswagen Bengaluru Central",
        "shop": "car"
      }
    },
    {
      "type": "node",
      "id": 12061117157,
      "lat": 12.9568208,
      "lon": 77.5862981,
      "tags": {
        "addr:floor": "G",
        "brand": "Kia",
        "brand:wikidata": "Q35349",
        "check_date": "2024-07-18",
        "level": "0",
        "name": "Advaith Kia",
        "name:en": "Advaith Kia",
        "shop": "car"
      }
    },
    {
      "type": "node",
      "id": 12078423950,
      "lat": 12.9539684,
      "lon": 77.5920517,
      "tags": {
        "access": "yes",
        "amenity": "toilets",
        "check_date": "2024-07-28",
        "fee": "no",
        "payment:cash": "yes",
        "payment:upi": "yes",
        "source": "survey"
      }
    },
    {
      "type": "node",
      "id": 12078423951,
      "lat": 12.9538065,
      "lon": 77.5922406,
      "tags": {
        "check_date": "2024-07-28",
        "name": "Venkatadri Condiments",
        "payment:cash": "yes",
        "payment:upi": "yes",
        "shop": "convenience",
        "source": "survey"
      }
    },
    {
      "type": "node",
      "id": 12078423952,
      "lat": 12.9540507,
      "lon": 77.5921812,
      "tags": {
        "check_date": "2024-07-28",
        "name": "Sri Sai Sweets & Coffee Point",
        "payment:cash": "yes",
        "payment:upi": "yes",
        "shop": "convenience",
        "source": "survey"
      }
    },
    {
      "type": "node",
      "id": 12101659684,
      "lat": 12.9618739,
      "lon": 77.5946931,
      "tags": {
        "check_date": "2024-08-10",
        "name": "Designer Light Gallery",
        "shop": "lighting"
      }
    },
    {
      "type": "node",
      "id": 12101659685,
      "lat": 12.9615765,
      "lon": 77.5946056,
      "tags": {
        "addr:floor": "G",
        "amenity": "cafe",
        "check_date": "2024-08-10",
        "level": "0",
        "name": "The Bangalore Cafe"
      }
    },
    {
      "type": "node",
      "id": 12101659686,
      "lat": 12.9614801,
      "lon": 77.5945241,
      "tags": {
        "addr:floor": "G",
        "check_date": "2024-08-10",
        "level": "0",
        "name": "Crava",
        "shop": "flooring"
      }
    },
    {
      "type": "node",
      "id": 12101659687,
      "lat": 12.9613636,
      "lon": 77.5944811,
      "tags": {
        "amenity": "bank",
        "atm": "yes",
        "brand": "Indian Overseas Bank",
        "brand:wikidata": "Q2003611",
        "check_date": "2024-08-10",
        "name": "Indian Overseas Bank",
        "wheelchair": "limited"
      }
    },
    {
      "type": "node",
      "id": 12101733055,
      "lat": 12.9622172,
      "lon": 77.5955424,
      "tags": {
        "amenity": "music_school",
        "check_date": "2024-08-10",
        "name": "The Music School Bangalore"
      }
    },
    {
      "type": "node",
      "id": 12101783870,
      "lat": 12.9595341,
      "lon": 77.5946237,
      "tags": {
        "amenity": "post_box",
        "operator": "India Post"
      }
    },
    {
      "type": "node",
      "id": 12102995495,
      "lat": 12.9559235,
      "lon": 77.5923618,
      "tags": {
        "amenity": "bench",
        "backrest": "no",
        "material": "stone"
      }
    },
    {
      "type": "node",
      "id": 12103665088,
      "lat": 12.9546902,
      "lon": 77.5929698,
      "tags": {
        "amenity": "bicycle_parking",
        "brand": "Trin",
        "operator": "DULT",
        "operator:type": "government"
      }
    },
    {
      "type": "node",
      "id": 12103707817,
      "lat": 12.9568092,
      "lon": 77.5926544,
      "tags": {
        "amenity": "post_box",
        "operator": "India Post",
        "operator:wikidata": "Q3519720"
      }
    },
    {
      "type": "node",
      "id": 12109772459,
      "lat": 12.9617175,
      "lon": 77.5960641,
      "tags": {
        "amenity": "food_court",
        "name": "St. Joseph's University Food Court"
      }
    },
    {
      "type": "node",
      "id": 12109773379,
      "lat": 12.9594748,
      "lon": 77.5947203,
      "tags": {
        "amenity": "school",
        "name": "EuroKids Shantinagar"
      }
    },
    {
      "type": "node",
      "id": 12133368719,
      "lat": 12.96458,
      "lon": 77.5860918,
      "tags": {
        "amenity": "post_box",
        "operator": "India Post",
        "operator:wikidata": "Q3519720"
      }
    },
    {
      "type": "node",
      "id": 12135035072,
      "lat": 12.9647659,
      "lon": 77.5865284,
      "tags": {
        "level": "0",
        "name": "Sri Rajalakshmi Gold Palace",
        "shop": "jewelry"
      }
    },
    {
      "type": "node",
      "id": 12135035073,
      "lat": 12.9647406,
      "lon": 77.5865522,
      "tags": {
        "level": "1",
        "name": "Gemini International",
        "shop": "travel_agency"
      }
    },
    {
      "type": "node",
      "id": 12135138829,
      "lat": 12.9634762,
      "lon": 77.585227,
      "tags": {
        "amenity": "bench",
        "material": "stone"
      }
    },
    {
      "type": "node",
      "id": 12135983648,
      "lat": 12.9635197,
      "lon": 77.5852417,
      "tags": {
        "amenity": "bench",
        "backrest": "no",
        "material": "stone",
        "seats": "3"
      }
    },
    {
      "type": "node",
      "id": 12135983649,
      "lat": 12.9635649,
      "lon": 77.5852581,
      "tags": {
        "amenity": "bench",
        "backrest": "no",
        "material": "stone",
        "seats": "3"
      }
    },
    {
      "type": "node",
      "id": 12135983650,
      "lat": 12.9633215,
      "lon": 77.5852136,
      "tags": {
        "amenity": "bench",
        "backrest": "no",
        "material": "stone",
        "seats": "3"
      }
    },
    {
      "type": "node",
      "id": 12135983651,
      "lat": 12.9633058,
      "lon": 77.5851945,
      "tags": {
        "amenity": "bench",
        "backrest": "no",
        "material": "stone",
        "seats": "3"
      }
    },
    {
      "type": "node",
      "id": 12135983652,
      "lat": 12.9632909,
      "lon": 77.5851773,
      "tags": {
        "amenity": "bench",
        "backrest": "no",
        "material": "stone",
        "seats": "3"
      }
    },
    {
      "type": "node",
      "id": 12135983653,
      "lat": 12.9632716,
      "lon": 77.585162,
      "tags": {
        "amenity": "bench",
        "backrest": "no",
        "material": "stone",
        "seats": "3"
      }
    },
    {
      "type": "node",
      "id": 12135983654,
      "lat": 12.9632384,
      "lon": 77.5851459,
      "tags": {
        "amenity": "bench",
        "backrest": "no",
        "material": "stone",
        "seats": "3"
      }
    },
    {
      "type": "node",
      "id": 12135983655,
      "lat": 12.9632647,
      "lon": 77.5846291,
      "tags": {
        "amenity": "place_of_worship",
        "religion": "hindu"
      }
    },
    {
      "type": "node",
      "id": 12135983669,
      "lat": 12.9622079,
      "lon": 77.5842821,
      "tags": {
        "amenity": "theatre",
        "name": "ADA Ranga Mandira"
      }
    },
    {
      "type": "node",
      "id": 12135983674,
      "lat": 12.9613041,
      "lon": 77.5837721,
      "tags": {
        "amenity": "bank",
        "brand": "Dhanlaxmi Bank",
        "brand:wikidata": "Q2040440",
        "name": "Dhanlaxmi Bank",
        "name:kn": "ಧನಲಕ್ಷ್ಮಿ ಬ್ಯಾಂಕ್"
      }
    },
    {
      "type": "node",
      "id": 12135983693,
      "lat": 12.9626393,
      "lon": 77.5857113,
      "tags": {
        "amenity": "fast_food",
        "name": "Ravindra Kalakshetra Canteen"
      }
    },
    {
      "type": "node",
      "id": 12135993230,
      "lat": 12.9617443,
      "lon": 77.5848647,
      "tags": {
        "amenity": "theatre",
        "name": "Nayana Auditorium"
      }
    },
    {
      "type": "node",
      "id": 12137671756,
      "lat": 12.9659692,
      "lon": 77.5869947,
      "tags": {
        "amenity": "bench",
        "backrest": "no",
        "seats": "2"
      }
    },
    {
      "type": "node",
      "id": 12137671757,
      "lat": 12.9659343,
      "lon": 77.586999,
      "tags": {
        "amenity": "bench",
        "backrest": "no",
        "seats": "2"
      }
    },
    {
      "type": "node",
      "id": 12137671758,
      "lat": 12.9658789,
      "lon": 77.5869494,
      "tags": {
        "amenity": "bench",
        "backrest": "no",
        "seats": "2"
      }
    },
    {
      "type": "node",
      "id": 12137671759,
      "lat": 12.9660018,
      "lon": 77.5869083,
      "tags": {
        "amenity": "bench",
        "backrest": "no",
        "seats": "2"
      }
    },
    {
      "type": "node",
      "id": 12137671760,
      "lat": 12.965952,
      "lon": 77.5868682,
      "tags": {
        "amenity": "bench",
        "backrest": "no",
        "seats": "2"
      }
    },
    {
      "type": "node",
      "id": 12137671762,
      "lat": 12.9659631,
      "lon": 77.586509,
      "tags": {
        "amenity": "waste_basket"
      }
    },
    {
      "type": "node",
      "id": 12137671763,
      "lat": 12.9659629,
      "lon": 77.586517,
      "tags": {
        "amenity": "waste_basket"
      }
    },
    {
      "type": "node",
      "id": 12137671824,
      "lat": 12.9650338,
      "lon": 77.5868102,
      "tags": {
        "amenity": "fountain"
      }
    },
    {
      "type": "node",
      "id": 12149279048,
      "lat": 12.9584959,
      "lon": 77.5927545,
      "tags": {
        "addr:city": "Bengaluru",
        "addr:housenumber": "105",
        "addr:postcode": "560027",
        "addr:street": "Kengal Hanumanthaiah Road",
        "addr:suburb": "Shantinagar",
        "amenity": "cafe",
        "cuisine": "coffee_shop",
        "delivery": "yes",
        "name": "Ajji House by Subko",
        "operator": "Subko Coffee Roasters",
        "shop": "chocolate",
        "smoking": "separated",
        "takeaway": "yes",
        "toilets": "yes",
        "toilets:access": "customers",
        "website": "https://www.subko.coffee"
      }
    },
    {
      "type": "node",
      "id": 12168410900,
      "lat": 12.9532918,
      "lon": 77.5930251,
      "tags": {
        "addr:floor": "G",
        "check_date": "2024-09-10",
        "level": "0",
        "name": "SRS Travels",
        "name:en": "SRS Travels",
        "shop": "travel_agency"
      }
    },
    {
      "type": "node",
      "id": 12229231972,
      "lat": 12.950408,
      "lon": 77.5841621,
      "tags": {
        "amenity": "fountain"
      }
    },
    {
      "type": "node",
      "id": 12522402163,
      "lat": 12.9646234,
      "lon": 77.5824537,
      "tags": {
        "check_date": "2025-01-21",
        "description": "sells first hand electronics at lower than MRP, to both resellers and individual buys",
        "name": "Sagar Computer World",
        "shop": "computer"
      }
    },
    {
      "type": "node",
      "id": 12541779301,
      "lat": 12.9569057,
      "lon": 77.5824398,
      "tags": {
        "amenity": "hospital",
        "name": "H Siddiah Referral Hospital"
      }
    },
    {
      "type": "node",
      "id": 12558309901,
      "lat": 12.9571022,
      "lon": 77.5838084,
      "tags": {
        "amenity": "community_centre",
        "name": "Bangalore City Dr Ambedkar Youth Welfare Association"
      }
    },
    {
      "type": "node",
      "id": 12606911679,
      "lat": 12.965757,
      "lon": 77.5904035,
      "tags": {
        "amenity": "fast_food",
        "check_date": "2025-02-21",
        "name": "Mandarthi Durga Parameshwari"
      }
    },
    {
      "type": "node",
      "id": 12655645187,
      "lat": 12.957077,
      "lon": 77.5819551,
      "tags": {
        "amenity": "social_facility",
        "brand": "Indira Canteen",
        "cuisine": "south_indian",
        "indoor_seating": "bar_table",
        "level": "0",
        "name": "Indira Canteen",
        "opening_hours": "Mo-Su 07:30-09:30,13:00-14:30,19:30-21:30",
        "operator": "BBMP",
        "social_facility": "food_bank",
        "takeaway": "no",
        "toilets": "no",
        "wheelchair": "no"
      }
    },
    {
      "type": "node",
      "id": 12698412006,
      "lat": 12.964859,
      "lon": 77.5837001,
      "tags": {
        "addr:city": "Bengaluru",
        "addr:country": "IN",
        "addr:district": "Bengaluru Urban",
        "addr:housenumber": "1st Floor, Ashok Tower, 88/1",
        "addr:postcode": "560002",
        "addr:street": "Sadar Patrappa Rd",
        "air_conditioning": "yes",
        "alt_name": "ibuypc",
        "brand": "iBUYPC",
        "contact:facebook": "https://www.facebook.com/ibuypc",
        "currency:INR": "yes",
        "description": "iBUYPC designs and delivers custom-built PCs and branded components for gamers, creators, and businesses. The company offers systems for individual users (B2C) and scalable configurations with bulk procurement for businesses (B2B).",
        "email": "support@ibuypc.in",
        "image": "https://ibuypc.in/cdn/shop/files/iBUYPC-brand-logo.png?v=1741330759",
        "internet_access": "wlan",
        "internet_access:fee": "no",
        "internet_access:ssid": "iBUYPC 5G",
        "level": "1",
        "mobile": "+919694699991",
        "name": "iBUYPC",
        "official_name": "IBUYPC",
        "opening_hours": "Mo-Sa 10:30-20:30",
        "operator": "Rudra Prosad Sen",
        "payment:american_express": "yes",
        "payment:apple_pay": "yes",
        "payment:bank_transfer": "yes",
        "payment:cash": "yes",
        "payment:contactless": "yes",
        "payment:credit_cards": "yes",
        "payment:debit_cards": "yes",
        "payment:diners_club": "yes",
        "payment:discover_card": "yes",
        "payment:google_pay": "yes",
        "payment:imps": "yes",
        "payment:jcb": "yes",
        "payment:mastercard": "yes",
        "payment:mastercard_contactless": "yes",
        "payment:neft": "yes",
        "payment:net_banking": "yes",
        "payment:paytm": "yes",
        "payment:phonepe": "yes",
        "payment:upi": "yes",
        "payment:upi_qr": "yes",
        "payment:visa": "yes",
        "payment:visa_debit": "yes",
        "phone": "+919694699991",
        "ref:vatin": "29CCMPR7908C1Z5",
        "shop": "computer",
        "start_date": "2025-01-10",
        "website": "https://ibuypc.in/"
      }
    },
    {
      "type": "node",
      "id": 12811493359,
      "lat": 12.9552932,
      "lon": 77.5800239,
      "tags": {
        "amenity": "atm",
        "name": "Kotak Mahindra Bank ATM"
      }
    },
    {
      "type": "node",
      "id": 12925347032,
      "lat": 12.9546952,
      "lon": 77.5822366,
      "tags": {
        "check_date": "2025-06-19",
        "name": "AS Auto Sparts",
        "shop": "car_repair"
      }
    },
    {
      "type": "node",
      "id": 12925347033,
      "lat": 12.9546874,
      "lon": 77.5821725,
      "tags": {
        "amenity": "fast_food",
        "check_date": "2025-06-19",
        "name": "Shahi Tandoor"
      }
    },
    {
      "type": "node",
      "id": 12925347034,
      "lat": 12.9548787,
      "lon": 77.5819959,
      "tags": {
        "amenity": "fast_food",
        "check_date": "2025-06-19",
        "name": "Mithai Ghar"
      }
    },
    {
      "type": "node",
      "id": 12925347035,
      "lat": 12.9548621,
      "lon": 77.5821271,
      "tags": {
        "check_date": "2025-06-19",
        "name": "National Poultry Centre",
        "shop": "butcher"
      }
    },
    {
      "type": "node",
      "id": 12925347036,
      "lat": 12.9549018,
      "lon": 77.5816313,
      "tags": {
        "check_date": "2025-06-19",
        "name": "Nakoda Jewelers",
        "shop": "jewelry"
      }
    },
    {
      "type": "node",
      "id": 12966576918,
      "lat": 12.9514233,
      "lon": 77.5830916,
      "tags": {
        "amenity": "shelter",
        "shelter_type": "gazebo"
      }
    },
    {
      "type": "node",
      "id": 13023090264,
      "lat": 12.9572298,
      "lon": 77.5943978,
      "tags": {
        "amenity": "cafe",
        "check_date": "2025-07-25",
        "name": "The Green Door Coffee House"
      }
    },
    {
      "type": "node",
      "id": 13163010608,
      "lat": 12.9573961,
      "lon": 77.5925814,
      "tags": {
        "addr:floor": "G",
        "amenity": "bank",
        "atm": "yes",
        "brand": "HDFC Bank",
        "brand:wikidata": "Q631047",
        "check_date": "2025-09-22",
        "level": "0",
        "name": "HDFC Bank",
        "name:en": "HDFC Bank",
        "short_name": "HDFC"
      }
    },
    {
      "type": "node",
      "id": 13163010609,
      "lat": 12.95751,
      "lon": 77.5926367,
      "tags": {
        "addr:floor": "G",
        "amenity": "bank",
        "check_date": "2025-09-22",
        "level": "0",
        "name": "Bharat Bank",
        "name:en": "Bharat Bank"
      }
    },
    {
      "type": "node",
      "id": 13163010610,
      "lat": 12.9570781,
      "lon": 77.5924413,
      "tags": {
        "addr:floor": "G",
        "amenity": "bank",
        "atm": "yes",
        "brand": "Kotak Mahindra Bank",
        "brand:wikidata": "Q2040404",
        "check_date": "2025-11-30",
        "level": "0",
        "name": "Kotak Mahindra Bank",
        "name:en": "Kotak Mahindra Bank",
        "wheelchair": "no"
      }
    },
    {
      "type": "node",
      "id": 13195197468,
      "lat": 12.9510042,
      "lon": 77.5874497,
      "tags": {
        "amenity": "bench"
      }
    },
    {
      "type": "node",
      "id": 13195211142,
      "lat": 12.9509978,
      "lon": 77.587449,
      "tags": {
        "amenity": "bench"
      }
    },
    {
      "type": "node",
      "id": 13236852613,
      "lat": 12.9538537,
      "lon": 77.5924088,
      "tags": {
        "addr:floor": "G",
        "check_date": "2025-10-16",
        "level": "0",
        "name": "Sree Devi Condiments",
        "name:en": "Sree Devi Condiments",
        "shop": "convenience"
      }
    },
    {
      "type": "node",
      "id": 13327801914,
      "lat": 12.964823,
      "lon": 77.5840248,
      "tags": {
        "addr:city": "Bengaluru",
        "addr:district": "Bengaluru Urban",
        "addr:housenumber": "No.91, 2nd floor, Shop No, 222-223, Balaji Complex",
        "addr:postcode": "560002",
        "addr:street": "SP Road",
        "alt_name": "pcbuildz",
        "brand": "PCBuildz",
        "contact:facebook": "https://facebook.com/PCBuildz/",
        "currency:INR": "yes",
        "description": "PCBuildz is a custom PC builder in Bangalore that designs and delivers systems and components for gamers, creators, and businesses. It offers custom systems for individual users (B2C) and scalable configurations with bulk procurement for businesses (B2B).",
        "email": "support@pcbuildz.in",
        "image": "https://cdn.shopify.com/s/files/1/0653/4060/4505/files/PCBuildz-Icon.png?v=1752500113",
        "internet_access": "wlan",
        "name": "PCBuildz (Nextgen IT Solutions) - Bangalore's Best Custom PC Shop for Gaming, Editing, 3D Animation & AI Workstation PC Build",
        "opening_hours": "Mo-Sa 10:30-20:00",
        "operator": "Govind Kumar Teja Ram",
        "payment:american_express": "yes",
        "payment:apple_pay": "yes",
        "payment:cash": "yes",
        "payment:contactless": "yes",
        "payment:credit_cards": "yes",
        "payment:debit_cards": "yes",
        "payment:diners_club": "yes",
        "payment:discover_card": "yes",
        "payment:google_pay": "yes",
        "payment:jcb": "yes",
        "payment:maestro": "yes",
        "payment:mastercard": "yes",
        "payment:mastercard_contactless": "yes",
        "payment:unionpay": "yes",
        "payment:upi": "yes",
        "payment:upi_qr": "yes",
        "payment:visa": "yes",
        "phone": "+91-9510-9510-19",
        "shop": "computer",
        "website": "https://pcbuildz.in/"
      }
    },
    {
      "type": "node",
      "id": 13341775165,
      "lat": 12.950955,
      "lon": 77.5938177,
      "tags": {
        "access": "yes",
        "amenity": "bench",
        "armrest": "no",
        "backrest": "yes",
        "material": "stone",
        "seats": "3"
      }
    },
    {
      "type": "node",
      "id": 13341775166,
      "lat": 12.9506612,
      "lon": 77.5919149,
      "tags": {
        "addr:floor": "2",
        "amenity": "restaurant",
        "check_date": "2025-11-30",
        "internet_access": "no",
        "name": "Alankaaram",
        "wheelchair": "no"
      }
    },
    {
      "type": "node",
      "id": 13341775173,
      "lat": 12.9502461,
      "lon": 77.5929829,
      "tags": {
        "addr:housenumber": "1",
        "addr:street": "3rd Cross Road",
        "amenity": "place_of_worship",
        "check_date": "2025-11-30",
        "name": "Ahmadiyya Masjid",
        "phone": "18001032131",
        "religion": "muslim",
        "website": "https://alislam.org"
      }
    },
    {
      "type": "node",
      "id": 13341775174,
      "lat": 12.9512757,
      "lon": 77.5941291,
      "tags": {
        "access": "yes",
        "amenity": "bench",
        "armrest": "no",
        "backrest": "yes",
        "material": "stone",
        "seats": "3"
      }
    },
    {
      "type": "node",
      "id": 13341775175,
      "lat": 12.9512355,
      "lon": 77.5940951,
      "tags": {
        "access": "yes",
        "amenity": "bench",
        "armrest": "no",
        "backrest": "yes",
        "material": "stone",
        "seats": "3"
      }
    },
    {
      "type": "node",
      "id": 13341775176,
      "lat": 12.9512041,
      "lon": 77.5940552,
      "tags": {
        "access": "yes",
        "amenity": "bench",
        "armrest": "no",
        "backrest": "no",
        "material": "stone",
        "seats": "3"
      }
    },
    {
      "type": "node",
      "id": 13341775177,
      "lat": 12.9511623,
      "lon": 77.5940154,
      "tags": {
        "access": "yes",
        "amenity": "bench",
        "armrest": "no",
        "backrest": "yes",
        "material": "stone",
        "seats": "4"
      }
    },
    {
      "type": "node",
      "id": 13341775178,
      "lat": 12.9510987,
      "lon": 77.5939516,
      "tags": {
        "access": "yes",
        "amenity": "bench",
        "armrest": "no",
        "backrest": "no",
        "material": "stone",
        "seats": "3"
      }
    },
    {
      "type": "node",
      "id": 13341775179,
      "lat": 12.9510585,
      "lon": 77.5939167,
      "tags": {
        "access": "yes",
        "amenity": "bench",
        "armrest": "no",
        "backrest": "yes",
        "material": "stone",
        "seats": "3"
      }
    },
    {
      "type": "node",
      "id": 13341775180,
      "lat": 12.9506612,
      "lon": 77.5919149,
      "tags": {
        "addr:floor": "G",
        "amenity": "fixme",
        "check_date": "2025-11-30",
        "fixme": "type",
        "fixme:type": "bike showroom",
        "internet_access": "no",
        "level": "0",
        "name": "Honda Big Wing",
        "wheelchair": "no"
      }
    },
    {
      "type": "node",
      "id": 13341775181,
      "lat": 12.9508398,
      "lon": 77.5937107,
      "tags": {
        "access": "yes",
        "amenity": "bench",
        "armrest": "no",
        "backrest": "yes",
        "material": "stone",
        "seats": "3"
      }
    },
    {
      "type": "node",
      "id": 13341775182,
      "lat": 12.9507637,
      "lon": 77.5936396,
      "tags": {
        "access": "yes",
        "amenity": "bench",
        "armrest": "no",
        "backrest": "yes",
        "material": "stone",
        "seats": "3"
      }
    },
    {
      "type": "node",
      "id": 13341775183,
      "lat": 12.9507045,
      "lon": 77.5935782,
      "tags": {
        "access": "yes",
        "amenity": "bench",
        "armrest": "no",
        "backrest": "yes",
        "material": "stone",
        "seats": "3"
      }
    },
    {
      "type": "node",
      "id": 13341775184,
      "lat": 12.9506327,
      "lon": 77.5935171,
      "tags": {
        "access": "yes",
        "amenity": "bench",
        "armrest": "no",
        "backrest": "yes",
        "material": "stone",
        "seats": "3"
      }
    },
    {
      "type": "node",
      "id": 13341775185,
      "lat": 12.9505504,
      "lon": 77.5934449,
      "tags": {
        "access": "yes",
        "amenity": "bench",
        "armrest": "no",
        "backrest": "yes",
        "material": "stone",
        "seats": "3"
      }
    },
    {
      "type": "node",
      "id": 13341775186,
      "lat": 12.9503847,
      "lon": 77.5933052,
      "tags": {
        "access": "yes",
        "amenity": "bench",
        "armrest": "no",
        "backrest": "yes",
        "material": "stone",
        "seats": "3"
      }
    },
    {
      "type": "node",
      "id": 13341775187,
      "lat": 12.9504496,
      "lon": 77.5935075,
      "tags": {
        "access": "yes",
        "amenity": "bench",
        "armrest": "no",
        "backrest": "yes",
        "material": "stone",
        "seats": "3"
      }
    },
    {
      "type": "node",
      "id": 13341775188,
      "lat": 12.9504677,
      "lon": 77.5935778,
      "tags": {
        "amenity": "waste_basket",
        "colour": "Green and Blue",
        "material": "plastic",
        "operator": "BBMP",
        "waste": "mixed"
      }
    },
    {
      "type": "node",
      "id": 13341775189,
      "lat": 12.9504829,
      "lon": 77.5936337,
      "tags": {
        "access": "yes",
        "amenity": "bench",
        "armrest": "no",
        "backrest": "yes",
        "material": "stone",
        "seats": "3"
      }
    },
    {
      "type": "node",
      "id": 13341775190,
      "lat": 12.9505083,
      "lon": 77.5936882,
      "tags": {
        "access": "yes",
        "amenity": "bench",
        "armrest": "no",
        "backrest": "yes",
        "material": "stone",
        "seats": "3"
      }
    },
    {
      "type": "node",
      "id": 13341775191,
      "lat": 12.9505426,
      "lon": 77.5937699,
      "tags": {
        "access": "yes",
        "amenity": "bench",
        "armrest": "no",
        "backrest": "yes",
        "material": "stone",
        "seats": "3"
      }
    },
    {
      "type": "node",
      "id": 13341775192,
      "lat": 12.9505884,
      "lon": 77.5938736,
      "tags": {
        "access": "yes",
        "amenity": "bench",
        "armrest": "no",
        "material": "stone",
        "seats": "3"
      }
    },
    {
      "type": "node",
      "id": 13341775193,
      "lat": 12.9506357,
      "lon": 77.5939583,
      "tags": {
        "access": "yes",
        "amenity": "bench",
        "armrest": "no",
        "backrest": "yes",
        "material": "stone",
        "seats": "3"
      }
    },
    {
      "type": "node",
      "id": 13341775194,
      "lat": 12.9506573,
      "lon": 77.5940061,
      "tags": {
        "access": "yes",
        "amenity": "bench",
        "armrest": "no",
        "backrest": "no",
        "material": "stone",
        "seats": "3"
      }
    },
    {
      "type": "node",
      "id": 13341775195,
      "lat": 12.9506997,
      "lon": 77.5940911,
      "tags": {
        "access": "yes",
        "amenity": "bench",
        "armrest": "no",
        "backrest": "yes",
        "material": "stone",
        "seats": "3"
      }
    },
    {
      "type": "node",
      "id": 13341775197,
      "lat": 12.9507483,
      "lon": 77.5941885,
      "tags": {
        "access": "yes",
        "amenity": "bench",
        "armrest": "no",
        "backrest": "yes",
        "material": "stone",
        "seats": "3"
      }
    },
    {
      "type": "node",
      "id": 13341789489,
      "lat": 12.9510827,
      "lon": 77.5942784,
      "tags": {
        "amenity": "shelter",
        "bench": "yes",
        "name": "Gaze P",
        "shelter_type": "gazebo"
      }
    },
    {
      "type": "node",
      "id": 13341800382,
      "lat": 12.9509376,
      "lon": 77.5921354,
      "tags": {
        "level": "0",
        "name": "Elica",
        "shop": "appliance"
      }
    },
    {
      "type": "node",
      "id": 13341800391,
      "lat": 12.9509903,
      "lon": 77.592186,
      "tags": {
        "level": "2",
        "name": "Double Two",
        "shop": "clothes"
      }
    },
    {
      "type": "node",
      "id": 13341800392,
      "lat": 12.9512697,
      "lon": 77.5945254,
      "tags": {
        "amenity": "shelter",
        "shelter_type": "gazebo"
      }
    },
    {
      "type": "node",
      "id": 13341812877,
      "lat": 12.951213,
      "lon": 77.5941732,
      "tags": {
        "amenity": "shelter",
        "bench": "yes",
        "name": "Gazebo",
        "shelter_type": "gazebo"
      }
    },
    {
      "type": "node",
      "id": 13341818309,
      "lat": 12.9507263,
      "lon": 77.594144,
      "tags": {
        "access": "yes",
        "amenity": "bench",
        "armrest": "no",
        "backrest": "no",
        "material": "stone",
        "seats": "3"
      }
    },
    {
      "type": "node",
      "id": 13341823601,
      "lat": 12.9512445,
      "lon": 77.5941483,
      "tags": {
        "amenity": "waste_basket",
        "manufacturer": "aristo"
      }
    },
    {
      "type": "node",
      "id": 13342377538,
      "lat": 12.9552799,
      "lon": 77.592933,
      "tags": {
        "amenity": "bench"
      }
    },
    {
      "type": "node",
      "id": 13342464189,
      "lat": 12.955353,
      "lon": 77.5927762,
      "tags": {
        "amenity": "bench"
      }
    },
    {
      "type": "node",
      "id": 13342464190,
      "lat": 12.9552689,
      "lon": 77.5930082,
      "tags": {
        "amenity": "bench"
      }
    },
    {
      "type": "node",
      "id": 13342466241,
      "lat": 12.9552446,
      "lon": 77.5930388,
      "tags": {
        "amenity": "bench"
      }
    },
    {
      "type": "node",
      "id": 13342467443,
      "lat": 12.9551831,
      "lon": 77.5930617,
      "tags": {
        "amenity": "bench"
      }
    },
    {
      "type": "node",
      "id": 13342467572,
      "lat": 12.9551639,
      "lon": 77.5930683,
      "tags": {
        "amenity": "bench"
      }
    },
    {
      "type": "node",
      "id": 13342471978,
      "lat": 12.9552575,
      "lon": 77.5930235,
      "tags": {
        "amenity": "bench"
      }
    },
    {
      "type": "node",
      "id": 13342479152,
      "lat": 12.9553263,
      "lon": 77.592815,
      "tags": {
        "amenity": "bench"
      }
    },
    {
      "type": "node",
      "id": 13342480857,
      "lat": 12.955204,
      "lon": 77.5930607,
      "tags": {
        "amenity": "bench"
      }
    },
    {
      "type": "node",
      "id": 13342482275,
      "lat": 12.9552804,
      "lon": 77.5929511,
      "tags": {
        "amenity": "bench"
      }
    },
    {
      "type": "node",
      "id": 13342485808,
      "lat": 12.9552798,
      "lon": 77.5929697,
      "tags": {
        "amenity": "bench"
      }
    },
    {
      "type": "node",
      "id": 13343543419,
      "lat": 12.9550869,
      "lon": 77.5925863,
      "tags": {
        "amenity": "parking_entrance",
        "parking": "multi-storey"
      }
    },
    {
      "type": "node",
      "id": 13343543420,
      "lat": 12.9536152,
      "lon": 77.5925145,
      "tags": {
        "amenity": "parking_entrance",
        "parking": "multi-storey"
      }
    },
    {
      "type": "way",
      "id": 15802464,
      "center": {
        "lat": 12.9488929,
        "lon": 77.5866687
      },
      "tags": {
        "leisure": "park",
        "name": "Lalbagh Botanical Gardens",
        "name:kn": "ಲಾಲ್‌ಬಾಗ್ ಸಸ್ಯೋದ್ಯಾನ",
        "name:te": "లాల్‌బాగ్ వృక్షశాస్త్ర ఉద్యానవనం",
        "tourism": "attraction",
        "wikidata": "Q200711",
        "wikimedia_commons": "Category:Lalbagh Botanical Garden",
        "wikipedia": "en:Lal Bagh"
      }
    },
    {
      "type": "way",
      "id": 23494412,
      "center": {
        "lat": 12.9638755,
        "lon": 77.5805412
      },
      "tags": {
        "leisure": "park",
        "name": "Silver Jubilee Park"
      }
    },
    {
      "type": "way",
      "id": 36897682,
      "center": {
        "lat": 12.9636973,
        "lon": 77.582866
      },
      "tags": {
        "alt_name": "Sri Krishnarajendra Silver Subilee Park",
        "leisure": "park",
        "name": "Silver Jubilee Park"
      }
    },
    {
      "type": "way",
      "id": 36965410,
      "center": {
        "lat": 12.9566385,
        "lon": 77.5819567
      },
      "tags": {
        "access": "yes",
        "amenity": "parking",
        "building": "yes",
        "fee": "yes",
        "lit": "yes",
        "name": "BBMP JC road multi level car and bike parking",
        "opening_hours": "24/7",
        "operator": "BBMP",
        "park_ride": "no",
        "parking": "multi-storey"
      }
    },
    {
      "type": "way",
      "id": 38758706,
      "center": {
        "lat": 12.9641582,
        "lon": 77.5873338
      },
      "tags": {
        "alt_name": "United Mission High School",
        "amenity": "college",
        "name": "United Mission PUC and Degree College"
      }
    },
    {
      "type": "way",
      "id": 38758707,
      "center": {
        "lat": 12.9646803,
        "lon": 77.588875
      },
      "tags": {
        "addr:city": "Bangalore",
        "addr:postcode": "560002",
        "addr:street": "Sampangi Rama Nagar",
        "amenity": "school",
        "name": "Mitralaya Girls College",
        "name:bn": "মিত্রালয়া মহিলা কলেজ"
      }
    },
    {
      "type": "way",
      "id": 129888684,
      "center": {
        "lat": 12.9541534,
        "lon": 77.5884604
      },
      "tags": {
        "amenity": "grave_yard",
        "landuse": "cemetery",
        "name": "Bada Makan",
        "name:kn": "ಬಡ ಮಕಾನ್",
        "religion": "muslim"
      }
    },
    {
      "type": "way",
      "id": 129888685,
      "center": {
        "lat": 12.9530904,
        "lon": 77.5873952
      },
      "tags": {
        "amenity": "grave_yard",
        "landuse": "cemetery",
        "religion": "muslim"
      }
    },
    {
      "type": "way",
      "id": 131442463,
      "center": {
        "lat": 12.9506553,
        "lon": 77.5912883
      },
      "tags": {
        "amenity": "marketplace",
        "name": "HOPCOMS",
        "name:kn": "ಹಾಪ್ ಕಾಮ್ಸ್"
      }
    },
    {
      "type": "way",
      "id": 131443354,
      "center": {
        "lat": 12.9626697,
        "lon": 77.586985
      },
      "tags": {
        "addr:city": "Bangalore",
        "addr:housenumber": "19",
        "addr:postcode": "560027",
        "addr:street": "3rd Cross Road",
        "amenity": "college",
        "name": "Bishop Cotton's Women's Christian College",
        "phone": "+91 080 22121898"
      }
    },
    {
      "type": "way",
      "id": 131487139,
      "center": {
        "lat": 12.9533813,
        "lon": 77.5867976
      },
      "tags": {
        "amenity": "place_of_worship",
        "denomination": "sunni",
        "name": "Al-Ameen Mosque",
        "name:kn": "ಆಲ್-ಆಮೀನ್ ಮಸೀದಿ",
        "religion": "muslim"
      }
    },
    {
      "type": "way",
      "id": 131487203,
      "center": {
        "lat": 12.9545884,
        "lon": 77.58246
      },
      "tags": {
        "amenity": "place_of_worship",
        "check_date": "2023-11-23",
        "denomination": "sunni",
        "name": "Masjid-e-Abul Qasim",
        "name:kn": "ಮಾವಳ್ಳಿ ಮಸೀದಿ",
        "religion": "muslim"
      }
    },
    {
      "type": "way",
      "id": 138991403,
      "center": {
        "lat": 12.9545969,
        "lon": 77.5919117
      },
      "tags": {
        "amenity": "transportation",
        "building": "shed"
      }
    },
    {
      "type": "way",
      "id": 138991404,
      "center": {
        "lat": 12.9560946,
        "lon": 77.5929001
      },
      "tags": {
        "amenity": "place_of_worship",
        "landuse": "religious",
        "name": "Ishwara Temple",
        "name:kn": "ಈಶ್ವರ ದೇವಸ್ಥಾನ",
        "religion": "hindu"
      }
    },
    {
      "type": "way",
      "id": 138991405,
      "center": {
        "lat": 12.9612179,
        "lon": 77.5904079
      },
      "tags": {
        "addr:city": "Bengaluru",
        "addr:postcode": "560027",
        "addr:street": "Mission Road (Kalinga Rao Road)",
        "amenity": "college",
        "name": "Government Pharmacy College",
        "wikidata": "Q5589028",
        "wikipedia": "en:Government Pharmacy College, Bangalore"
      }
    },
    {
      "type": "way",
      "id": 143368253,
      "center": {
        "lat": 12.9643631,
        "lon": 77.5853424
      },
      "tags": {
        "addr:city": "Bangalore",
        "addr:postcode": "560002",
        "addr:street": "Silver Jubilee Park Road",
        "amenity": "bank",
        "atm": "yes",
        "brand": "Canara Bank",
        "brand:en": "Canara Bank",
        "brand:hi": "केनरा बैंक",
        "brand:kn": "ಕೆನರಾ ಬ್ಯಾಂಕ್",
        "brand:pa": "ਕੇਨਰਾ ਬੈਂਕ",
        "brand:pnb": "کینرا بینک",
        "brand:ur": "کینرا بینک",
        "brand:wikidata": "Q2003777",
        "brand:wikipedia": "en:Canara Bank",
        "brand:wikipedia:pa": "ਕੇਨਰਾ ਬੈਂਕ",
        "building": "yes",
        "building:levels": "6",
        "name": "Canara Bank",
        "name:en": "Canara Bank",
        "name:hi": "केनरा बैंक",
        "name:kn": "ಕೆನರಾ ಬ್ಯಾಂಕ್",
        "name:pa": "ਕੇਨਰਾ ਬੈਂਕ",
        "name:pnb": "کینرا بینک",
        "name:ur": "کینرا بینک",
        "website": "https://www.canarabank.com/"
      }
    },
    {
      "type": "way",
      "id": 147124751,
      "center": {
        "lat": 12.9510783,
        "lon": 77.594223
      },
      "tags": {
        "leisure": "park",
        "name": "Kitturu Rani Chennamma Park",
        "name:etymology:wikidata": "Q3536979",
        "name:kn": "ಕಿತ್ತೂರು ರಾಣಿ ಚೆನ್ನಮ್ಮ ಉದ್ಯಾನವನ",
        "old_name": "Wilson Garden Park"
      }
    },
    {
      "type": "way",
      "id": 148016869,
      "center": {
        "lat": 12.9622512,
        "lon": 77.5851078
      },
      "tags": {
        "addr:street": "Jayachamaraja Wodeyar Road",
        "amenity": "theatre",
        "building": "public",
        "name": "Ravindra Kalakshetra",
        "name:etymology:wikidata": "Q7241",
        "name:kn": "ರವೀಂದ್ರ ಕಲಾಕ್ಷೇತ್ರ"
      }
    },
    {
      "type": "way",
      "id": 148016872,
      "center": {
        "lat": 12.963771,
        "lon": 77.5857941
      },
      "tags": {
        "amenity": "conference_centre",
        "building": "yes",
        "building:architecture": "neoclassicism",
        "building:levels": "2",
        "building:material": "stone",
        "height": "10",
        "heritage": "2",
        "heritage:operator": "nmma",
        "heritage:website": "https://nmma.nic.in/nmma/exploreBuiltState.do?state=29",
        "name": "Sir Puttanna Chetty Town Hall",
        "name:etymology:wikidata": "Q6323746",
        "name:kn": "ಪುಟ್ಟಣ್ಣ ಚೆಟ್ಟಿ ನಗರಸಭೆ",
        "ref:nmma": "KR20010330",
        "start_date": "1935-09-11",
        "wikidata": "Q4855080"
      }
    },
    {
      "type": "way",
      "id": 152193863,
      "center": {
        "lat": 12.9639243,
        "lon": 77.5912829
      },
      "tags": {
        "building": "yes",
        "name": "Advaith Hyundai Service",
        "name:kn": "ಅದ್ವೈತ ಹ್ಯುಂಡೈ",
        "shop": "car_repair"
      }
    },
    {
      "type": "way",
      "id": 152193875,
      "center": {
        "lat": 12.9626143,
        "lon": 77.5896924
      },
      "tags": {
        "leisure": "garden"
      }
    },
    {
      "type": "way",
      "id": 152462759,
      "center": {
        "lat": 12.9515662,
        "lon": 77.5905178
      },
      "tags": {
        "leisure": "garden"
      }
    },
    {
      "type": "way",
      "id": 152462761,
      "center": {
        "lat": 12.9568141,
        "lon": 77.5932416
      },
      "tags": {
        "leisure": "garden"
      }
    },
    {
      "type": "way",
      "id": 161984944,
      "center": {
        "lat": 12.9654636,
        "lon": 77.5833357
      },
      "tags": {
        "amenity": "place_of_worship",
        "name": "Dharmaraya Swamy Temple",
        "name:kn": "ಧರ್ಮರಾಯ ಸ್ವಾಮಿ ದೇವಸ್ಥಾನ",
        "religion": "hindu",
        "wikidata": "Q2065042",
        "wikimedia_commons": "Category:Dharmaraya Swamy Temple",
        "wikipedia": "en:Dharmaraya Swamy Temple"
      }
    },
    {
      "type": "way",
      "id": 161984945,
      "center": {
        "lat": 12.9643477,
        "lon": 77.5845256
      },
      "tags": {
        "addr:district": "Bengaluru Urban",
        "addr:full": "Near Town Hall, Sjp Road , South",
        "addr:postcode": "560002",
        "addr:state": "Karnataka",
        "amenity": "hospital",
        "emergency": "yes",
        "healthcare": "hospital",
        "name": "Dasappa Maternity Hospital",
        "name:kn": "ದಾಸಪ್ಪ ತಿರುಮಲಮ್ಮ ಆಸ್ಪತ್ರೆ",
        "source": "OpenGovernmentData"
      }
    },
    {
      "type": "way",
      "id": 172899266,
      "center": {
        "lat": 12.9537421,
        "lon": 77.5938108
      },
      "tags": {
        "amenity": "school",
        "name": "Outreach School"
      }
    },
    {
      "type": "way",
      "id": 172899341,
      "center": {
        "lat": 12.953617,
        "lon": 77.5948769
      },
      "tags": {
        "amenity": "school"
      }
    },
    {
      "type": "way",
      "id": 208697526,
      "center": {
        "lat": 12.9626389,
        "lon": 77.5899774
      },
      "tags": {
        "amenity": "place_of_worship",
        "name": "Mahabaleshwara Temple",
        "name:kn": "ಮಹಾಬಲೇಶ್ವರ ದೇವಸ್ಥಾನ",
        "religion": "hindu"
      }
    },
    {
      "type": "way",
      "id": 208827398,
      "center": {
        "lat": 12.9665425,
        "lon": 77.5870156
      },
      "tags": {
        "addr:city": "Bangalore",
        "addr:postcode": "560002",
        "addr:street": "Cubbon Park Road, Opposite-BBMP Office, Cubbonpet,",
        "amenity": "police",
        "landuse": "commercial",
        "name": "Halasuru Gate Traffic Police Station",
        "phone": "080 2294 2660",
        "website": "NA"
      }
    },
    {
      "type": "way",
      "id": 225712324,
      "center": {
        "lat": 12.963161,
        "lon": 77.5899217
      },
      "tags": {
        "amenity": "public_building",
        "building": "yes",
        "name": "Food Corporation of India",
        "name:kn": "ಭಾರತ ಆಹಾರ ನಿಗಮ"
      }
    },
    {
      "type": "way",
      "id": 232207307,
      "center": {
        "lat": 12.9492451,
        "lon": 77.5908599
      },
      "tags": {
        "access": "customers",
        "amenity": "parking",
        "fee": "yes",
        "parking": "surface"
      }
    },
    {
      "type": "way",
      "id": 256703169,
      "center": {
        "lat": 12.9644217,
        "lon": 77.5926381
      },
      "tags": {
        "addr:district": "Bengaluru Urban",
        "addr:full": "1215 A Cross Sindhi Hospital Road, Sampangiramnagar",
        "addr:postcode": "560027",
        "addr:state": "Karnataka",
        "amenity": "hospital",
        "emergency": "yes",
        "name": "P.D. Hinduja Sindhi Hospital",
        "name:kn": "ಸಿಂಧಿ ಆಸ್ಪತ್ರೆ",
        "operator:type": "private",
        "source": "OpenGovernmentData",
        "website": "https://www.hindujasindhihospital.com/"
      }
    },
    {
      "type": "way",
      "id": 272533335,
      "center": {
        "lat": 12.9663167,
        "lon": 77.5906945
      },
      "tags": {
        "amenity": "place_of_worship",
        "name": "Panchalingeshwara Temple",
        "name:kn": "ಪಂಚಲಿಂಗೇಶ್ವರ ದೇವಸ್ಥಾನ",
        "religion": "hindu"
      }
    },
    {
      "type": "way",
      "id": 317489528,
      "center": {
        "lat": 12.9657504,
        "lon": 77.5888387
      },
      "tags": {
        "amenity": "theatre",
        "building": "yes",
        "building:material": "glass",
        "name": "BBMP Glass House",
        "official_name": "Dr. Rajkumar Memorial Hall",
        "start_date": "2008-09-09"
      }
    },
    {
      "type": "way",
      "id": 317490362,
      "center": {
        "lat": 12.9661914,
        "lon": 77.5880205
      },
      "tags": {
        "amenity": "place_of_worship",
        "building": "yes",
        "religion": "hindu"
      }
    },
    {
      "type": "way",
      "id": 317494478,
      "center": {
        "lat": 12.9666924,
        "lon": 77.5886314
      },
      "tags": {
        "leisure": "garden"
      }
    },
    {
      "type": "way",
      "id": 317802893,
      "center": {
        "lat": 12.9657231,
        "lon": 77.5877507
      },
      "tags": {
        "leisure": "garden"
      }
    },
    {
      "type": "way",
      "id": 323852398,
      "center": {
        "lat": 12.9560886,
        "lon": 77.5854402
      },
      "tags": {
        "addr:street": "Lalbagh Road",
        "amenity": "cinema",
        "landuse": "commercial",
        "name": "Urvashi",
        "name:kn": "ಊರ್ವಶಿ",
        "name:ta": "ஊர்வசி திரையரங்கம்",
        "opening_hours": "Mo-Su 11:00-19:45"
      }
    },
    {
      "type": "way",
      "id": 335369723,
      "center": {
        "lat": 12.9529705,
        "lon": 77.5881572
      },
      "tags": {
        "addr:street": "MariGowda Road",
        "amenity": "college",
        "name": "Al Ameen Pre and Degree College",
        "name:kn": "ಆಲ್‌-ಆಮೀನ್‌ ಕಾಲೇಜು"
      }
    },
    {
      "type": "way",
      "id": 335369725,
      "center": {
        "lat": 12.9492563,
        "lon": 77.5878311
      },
      "tags": {
        "amenity": "parking",
        "wheelchair": "yes"
      }
    },
    {
      "type": "way",
      "id": 335369726,
      "center": {
        "lat": 12.9500526,
        "lon": 77.5893375
      },
      "tags": {
        "leisure": "garden",
        "name": "Bonsai Park",
        "name:kn": "ಬೊನ್ಸಾಯಿ ಉದ್ಯಾನ",
        "source": "knowledge"
      }
    },
    {
      "type": "way",
      "id": 335369765,
      "center": {
        "lat": 12.9497939,
        "lon": 77.5856218
      },
      "tags": {
        "leisure": "garden"
      }
    },
    {
      "type": "way",
      "id": 335369766,
      "center": {
        "lat": 12.9503285,
        "lon": 77.5857108
      },
      "tags": {
        "leisure": "garden"
      }
    },
    {
      "type": "way",
      "id": 335704458,
      "center": {
        "lat": 12.9506906,
        "lon": 77.5829999
      },
      "tags": {
        "leisure": "garden"
      }
    },
    {
      "type": "way",
      "id": 335704459,
      "center": {
        "lat": 12.9503038,
        "lon": 77.5847757
      },
      "tags": {
        "leisure": "garden"
      }
    },
    {
      "type": "way",
      "id": 335704460,
      "center": {
        "lat": 12.9504212,
        "lon": 77.58397
      },
      "tags": {
        "leisure": "garden"
      }
    },
    {
      "type": "way",
      "id": 335704462,
      "center": {
        "lat": 12.949771,
        "lon": 77.5839702
      },
      "tags": {
        "leisure": "garden"
      }
    },
    {
      "type": "way",
      "id": 345892554,
      "center": {
        "lat": 12.9622681,
        "lon": 77.5888874
      },
      "tags": {
        "amenity": "place_of_worship",
        "building": "yes",
        "name": "CSI St. Peters Telugu Church",
        "religion": "christian"
      }
    },
    {
      "type": "way",
      "id": 345924045,
      "center": {
        "lat": 12.9595629,
        "lon": 77.5877705
      },
      "tags": {
        "addr:city": "Bengaluru",
        "addr:housenumber": "37",
        "addr:postcode": "560027",
        "addr:street": "Lalbagh Road",
        "amenity": "arts_centre",
        "building": "yes",
        "name": "Shoonya - Centre for Art and Somatic Practices",
        "website": "http://shoonyaspace.com/"
      }
    },
    {
      "type": "way",
      "id": 347076931,
      "center": {
        "lat": 12.9500332,
        "lon": 77.5922164
      },
      "tags": {
        "building": "yes",
        "name": "HMG Stones",
        "shop": "jewelry"
      }
    },
    {
      "type": "way",
      "id": 347234063,
      "center": {
        "lat": 12.9538875,
        "lon": 77.5922444
      },
      "tags": {
        "alt_name": "TTMC Shanthinagara MLCP",
        "amenity": "parking",
        "building": "parking",
        "building:levels": "7",
        "name": "Multi Level Car Park",
        "parking": "multi-storey",
        "roof:shape": "flat"
      }
    },
    {
      "type": "way",
      "id": 347425037,
      "center": {
        "lat": 12.9609483,
        "lon": 77.5831297
      },
      "tags": {
        "amenity": "police",
        "building": "yes",
        "name": "S.J. Park Police"
      }
    },
    {
      "type": "way",
      "id": 347436881,
      "center": {
        "lat": 12.961751,
        "lon": 77.5809915
      },
      "tags": {
        "amenity": "place_of_worship",
        "building": "mosque",
        "name:kn": "ಮಸೀದಿ",
        "religion": "muslim"
      }
    },
    {
      "type": "way",
      "id": 363142561,
      "center": {
        "lat": 12.958053,
        "lon": 77.5805763
      },
      "tags": {
        "leisure": "park",
        "name": "Journalist Colony Garden"
      }
    },
    {
      "type": "way",
      "id": 393699912,
      "center": {
        "lat": 12.9540365,
        "lon": 77.5930748
      },
      "tags": {
        "alt_name": "TTMC Shanthinagara 'A' Block",
        "amenity": "office",
        "building": "yes",
        "building:levels": "6",
        "name": "'A' Block",
        "roof:shape": "flat"
      }
    },
    {
      "type": "way",
      "id": 408248117,
      "center": {
        "lat": 12.9646129,
        "lon": 77.5920177
      },
      "tags": {
        "amenity": "parking",
        "parking": "surface"
      }
    },
    {
      "type": "way",
      "id": 421114577,
      "center": {
        "lat": 12.9659442,
        "lon": 77.5869345
      },
      "tags": {
        "amenity": "fountain"
      }
    },
    {
      "type": "way",
      "id": 421114578,
      "center": {
        "lat": 12.9664344,
        "lon": 77.5873876
      },
      "tags": {
        "amenity": "fountain",
        "fountain": "decorative"
      }
    },
    {
      "type": "way",
      "id": 421114579,
      "center": {
        "lat": 12.9641474,
        "lon": 77.5875533
      },
      "tags": {
        "landuse": "recreation_ground",
        "leisure": "pitch"
      }
    },
    {
      "type": "way",
      "id": 421114580,
      "center": {
        "lat": 12.9661896,
        "lon": 77.5871683
      },
      "tags": {
        "leisure": "park"
      }
    },
    {
      "type": "way",
      "id": 421114582,
      "center": {
        "lat": 12.9662043,
        "lon": 77.585701
      },
      "tags": {
        "amenity": "college",
        "name": "Abbas Khan College",
        "name:kn": "ಅಬ್ಬಾಸ್ ಖಾನ್ ಕಾಲೇಜು"
      }
    },
    {
      "type": "way",
      "id": 509638758,
      "center": {
        "lat": 12.9637737,
        "lon": 77.5896833
      },
      "tags": {
        "addr:city": "Bengaluru",
        "addr:country": "IN",
        "addr:district": "Bengaluru Urban",
        "addr:full": "No 8, HCG Towers, P. Kalinga Rao Road, Sampangi Ram Nagar, Bengaluru",
        "addr:hamlet": "Sampangi Ram Nagar",
        "addr:housenumber": "8",
        "addr:postcode": "560027",
        "addr:state": "Karnataka",
        "addr:street": "P. Kalinga Rao Road",
        "amenity": "hospital",
        "fax": "+918022485962",
        "name": "HCG Cancer Hospital",
        "name:bn": "এইচসিজি ক্যান্সার হাসপাতাল",
        "name:en": "HealthCare Global Enterprises Ltd",
        "operator:type": "private",
        "phone": "+918040206000",
        "source": "OpenGovernmentData",
        "website": "https://www.hcgoncology.com/"
      }
    },
    {
      "type": "way",
      "id": 635256290,
      "center": {
        "lat": 12.9522929,
        "lon": 77.5892459
      },
      "tags": {
        "amenity": "fuel",
        "compressed_air": "yes"
      }
    },
    {
      "type": "way",
      "id": 639010024,
      "center": {
        "lat": 12.9620228,
        "lon": 77.5942366
      },
      "tags": {
        "amenity": "fuel",
        "brand": "Bharath Petroleum",
        "opening_hours": "Mo-Su 06:30-22:30",
        "operator": "Bharath Petroleum"
      }
    },
    {
      "type": "way",
      "id": 688824197,
      "center": {
        "lat": 12.9557902,
        "lon": 77.5807763
      },
      "tags": {
        "amenity": "fuel",
        "brand": "Hindustan Petroleum",
        "brand:wikidata": "Q1619375",
        "brand:wikipedia": "en:Hindustan Petroleum",
        "name": "Hindustan Petroleum",
        "name:kn": "ಹಿಂದುಸ್ತಾನ್ ಪೆಟ್ರೋಲಿಯಂ",
        "official_name": "Hindustan Petroleum"
      }
    },
    {
      "type": "way",
      "id": 712309876,
      "center": {
        "lat": 12.9504783,
        "lon": 77.5838806
      },
      "tags": {
        "description": "A 20 million year old petrified wood fossil from Thiruvakkarai, Tamil Nadu, India",
        "leisure": "park",
        "name": "Fossilized Tree",
        "wikidata": "Q6972778",
        "wikimedia_commons": "Category:National Fossil Wood Park, Tiruvakkarai",
        "wikipedia": "en:National Fossil Wood Park, Tiruvakkarai"
      }
    },
    {
      "type": "way",
      "id": 781182600,
      "center": {
        "lat": 12.9650465,
        "lon": 77.5893848
      },
      "tags": {
        "amenity": "place_of_worship",
        "religion": "hindu"
      }
    },
    {
      "type": "way",
      "id": 1007640514,
      "center": {
        "lat": 12.9584034,
        "lon": 77.5929594
      },
      "tags": {
        "access": "customers",
        "amenity": "parking",
        "capacity": "6",
        "parking": "surface"
      }
    },
    {
      "type": "way",
      "id": 1007640516,
      "center": {
        "lat": 12.958464,
        "lon": 77.5928624
      },
      "tags": {
        "addr:housenumber": "105",
        "addr:street": "Kengal Hanumanthaiah Road",
        "amenity": "events_venue",
        "check_date": "2024-01-29",
        "contact:instagram": "https://www.instagram.com/thecourtyardcommunity",
        "email": "info@thecourtyard.in",
        "landuse": "commercial",
        "name": "The Courtyard",
        "phone": "+91 73386 77996",
        "website": "https://thecourtyard.in"
      }
    },
    {
      "type": "way",
      "id": 1079087278,
      "center": {
        "lat": 12.9542208,
        "lon": 77.5867157
      },
      "tags": {
        "amenity": "college",
        "name": "Al-Ameen Arts and Science College",
        "name:kn": "ಆಲ್-ಆಮೀನ್ ಕಾಲೇಜು"
      }
    },
    {
      "type": "way",
      "id": 1082449594,
      "center": {
        "lat": 12.9620358,
        "lon": 77.5888834
      },
      "tags": {
        "amenity": "place_of_worship",
        "religion": "christian"
      }
    },
    {
      "type": "way",
      "id": 1082449597,
      "center": {
        "lat": 12.963063,
        "lon": 77.5852852
      },
      "tags": {
        "leisure": "park",
        "name": "Canara Bank Park"
      }
    },
    {
      "type": "way",
      "id": 1082722307,
      "center": {
        "lat": 12.9498179,
        "lon": 77.586695
      },
      "tags": {
        "leisure": "garden"
      }
    },
    {
      "type": "way",
      "id": 1100674383,
      "center": {
        "lat": 12.9559596,
        "lon": 77.5970977
      },
      "tags": {
        "amenity": "place_of_worship",
        "denomination": "catholic",
        "name": "St. Michael's Church",
        "name:kn": "ಸೇಂಟ್ ಮೈಕೇಲ್ಸ್ ಚರ್ಚ್",
        "religion": "christian"
      }
    },
    {
      "type": "way",
      "id": 1125144619,
      "center": {
        "lat": 12.9556473,
        "lon": 77.5924648
      },
      "tags": {
        "leisure": "garden"
      }
    },
    {
      "type": "way",
      "id": 1125144620,
      "center": {
        "lat": 12.9552802,
        "lon": 77.592935
      },
      "tags": {
        "leisure": "garden"
      }
    },
    {
      "type": "way",
      "id": 1125144623,
      "center": {
        "lat": 12.9558173,
        "lon": 77.592403
      },
      "tags": {
        "amenity": "shelter",
        "building": "yes",
        "shelter_type": "gazebo"
      }
    },
    {
      "type": "way",
      "id": 1172707221,
      "center": {
        "lat": 12.9514665,
        "lon": 77.5947664
      },
      "tags": {
        "access": "yes",
        "leisure": "playground"
      }
    },
    {
      "type": "way",
      "id": 1186431410,
      "center": {
        "lat": 12.9603662,
        "lon": 77.5871967
      },
      "tags": {
        "amenity": "college",
        "name": "Jain Centre for Management Studies"
      }
    },
    {
      "type": "way",
      "id": 1186431416,
      "center": {
        "lat": 12.9622763,
        "lon": 77.5885958
      },
      "tags": {
        "leisure": "park"
      }
    },
    {
      "type": "way",
      "id": 1186431418,
      "center": {
        "lat": 12.9609075,
        "lon": 77.5872111
      },
      "tags": {
        "amenity": "cinema",
        "name": "Swagath Poornima"
      }
    },
    {
      "type": "way",
      "id": 1186431423,
      "center": {
        "lat": 12.9609027,
        "lon": 77.5853359
      },
      "tags": {
        "amenity": "college",
        "name": "Jain University",
        "name:kn": "ಜೈನ ವಿಶ್ವವಿದ್ಯಾಲಯ"
      }
    },
    {
      "type": "way",
      "id": 1186431425,
      "center": {
        "lat": 12.961114,
        "lon": 77.5845032
      },
      "tags": {
        "amenity": "place_of_worship",
        "denomination": "catholic",
        "name": "St. Theresa's Church",
        "name:kn": "ಸೈಂಟ್ ತೆರೇಸ ಚರ್ಚ್",
        "religion": "christian"
      }
    },
    {
      "type": "way",
      "id": 1267610352,
      "center": {
        "lat": 12.9600528,
        "lon": 77.586529
      },
      "tags": {
        "amenity": "events_venue",
        "name": "Sri Godwad Bhavana"
      }
    },
    {
      "type": "way",
      "id": 1302418861,
      "center": {
        "lat": 12.9653345,
        "lon": 77.5857148
      },
      "tags": {
        "access": "permissive",
        "amenity": "parking",
        "parking": "surface"
      }
    },
    {
      "type": "way",
      "id": 1302418874,
      "center": {
        "lat": 12.9666047,
        "lon": 77.585933
      },
      "tags": {
        "access": "permissive",
        "amenity": "parking",
        "parking": "surface"
      }
    },
    {
      "type": "way",
      "id": 1306894664,
      "center": {
        "lat": 12.9575231,
        "lon": 77.5933605
      },
      "tags": {
        "amenity": "parking",
        "parking": "surface"
      }
    },
    {
      "type": "way",
      "id": 1309994351,
      "center": {
        "lat": 12.9599111,
        "lon": 77.5835708
      },
      "tags": {
        "amenity": "fuel",
        "brand": "Shell",
        "name": "Shell",
        "name:kn": "ಶೆಲ್",
        "operator": "Shell"
      }
    },
    {
      "type": "way",
      "id": 1311064537,
      "center": {
        "lat": 12.9620085,
        "lon": 77.5854566
      },
      "tags": {
        "amenity": "theatre",
        "name": "Samsa Bayalu Ranga Mandira",
        "theatre:type": "audi"
      }
    },
    {
      "type": "way",
      "id": 1311064544,
      "center": {
        "lat": 12.9615128,
        "lon": 77.5856889
      },
      "tags": {
        "amenity": "fuel"
      }
    },
    {
      "type": "way",
      "id": 1311064545,
      "center": {
        "lat": 12.9617765,
        "lon": 77.5844335
      },
      "tags": {
        "leisure": "park"
      }
    },
    {
      "type": "way",
      "id": 1311064546,
      "center": {
        "lat": 12.9616031,
        "lon": 77.5847155
      },
      "tags": {
        "access": "customers",
        "amenity": "parking",
        "parking": "surface"
      }
    },
    {
      "type": "way",
      "id": 1311064547,
      "center": {
        "lat": 12.9623591,
        "lon": 77.584866
      },
      "tags": {
        "access": "customers",
        "amenity": "parking",
        "parking": "surface"
      }
    },
    {
      "type": "way",
      "id": 1311064558,
      "center": {
        "lat": 12.9606538,
        "lon": 77.5840403
      },
      "tags": {
        "addr:district": "Bengaluru Urban",
        "addr:full": "Chandrika Tower, JC Road, Bengaluru",
        "addr:postcode": "560002",
        "addr:state": "Karnataka",
        "addr:street": "Jayachamaraja Wodeyar Road",
        "amenity": "hospital",
        "healthcare": "hospital",
        "name": "Trustwell Hospitals",
        "source": "Local Knowledge",
        "website": "https://trustwellhospitals.com/"
      }
    },
    {
      "type": "way",
      "id": 1311064569,
      "center": {
        "lat": 12.9588488,
        "lon": 77.5825323
      },
      "tags": {
        "amenity": "fuel",
        "brand": "Bharat Petroleum",
        "brand:wikidata": "Q854826",
        "name": "Bharat Petroleum",
        "name:kn": "ಭಾರತ್ ಪೆಟ್ರೋಲಿಯಂ",
        "operator": "Bharat Petroleum",
        "source": "voice, GPS"
      }
    },
    {
      "type": "way",
      "id": 1311251836,
      "center": {
        "lat": 12.9654882,
        "lon": 77.587199
      },
      "tags": {
        "leisure": "park"
      }
    },
    {
      "type": "way",
      "id": 1311251844,
      "center": {
        "lat": 12.9647904,
        "lon": 77.5856322
      },
      "tags": {
        "access": "private",
        "amenity": "parking",
        "parking": "street_side"
      }
    },
    {
      "type": "way",
      "id": 1311251851,
      "center": {
        "lat": 12.9651459,
        "lon": 77.5870284
      },
      "tags": {
        "access": "permissive",
        "amenity": "parking",
        "parking": "street_side"
      }
    },
    {
      "type": "way",
      "id": 1311251852,
      "center": {
        "lat": 12.9634265,
        "lon": 77.5868185
      },
      "tags": {
        "access": "permissive",
        "amenity": "parking",
        "parking": "street_side"
      }
    },
    {
      "type": "way",
      "id": 1311251853,
      "center": {
        "lat": 12.9641667,
        "lon": 77.5862478
      },
      "tags": {
        "access": "permissive",
        "amenity": "parking",
        "parking": "street_side"
      }
    },
    {
      "type": "way",
      "id": 1311251854,
      "center": {
        "lat": 12.9650787,
        "lon": 77.5866015
      },
      "tags": {
        "access": "permissive",
        "amenity": "parking",
        "parking": "street_side"
      }
    },
    {
      "type": "way",
      "id": 1311251855,
      "center": {
        "lat": 12.964725,
        "lon": 77.586279
      },
      "tags": {
        "access": "permissive",
        "amenity": "parking",
        "parking": "street_side"
      }
    },
    {
      "type": "way",
      "id": 1351859098,
      "center": {
        "lat": 12.9552124,
        "lon": 77.5921494
      },
      "tags": {
        "leisure": "garden"
      }
    },
    {
      "type": "way",
      "id": 1396547228,
      "center": {
        "lat": 12.9546653,
        "lon": 77.5796194
      },
      "tags": {
        "amenity": "school",
        "name": "Karnataka Public School"
      }
    },
    {
      "type": "way",
      "id": 1418860511,
      "center": {
        "lat": 12.9621435,
        "lon": 77.5901163
      },
      "tags": {
        "addr:city": "Bengaluru",
        "addr:postcode": "560027",
        "addr:street": "Mission Road (Kalinga Rao Road)",
        "amenity": "college",
        "name": "Government Pharmacy College",
        "wikidata": "Q5589028",
        "wikipedia": "en:Government Pharmacy College, Bangalore"
      }
    },
    {
      "type": "way",
      "id": 1455412266,
      "center": {
        "lat": 12.9544737,
        "lon": 77.5926291
      },
      "tags": {
        "alt_name": "TTMC Shantinagara 'B' Block; Shanthinagar TTMC;Shanthi nagar TTMC",
        "amenity": "transportation",
        "building": "yes",
        "building:levels": "6",
        "bus": "yes",
        "full_name": "Atal Bihari Vajpayee Traffic and Transit Management Center",
        "name": "Shantinagara Bus Station",
        "name:kn": "ಶಾಂತಿನಗರ ಬಸ್ ನಿಲ್ದಾಣ",
        "official_name": "Atal Bihari Vajpayee TTMC",
        "phone": "7760991061",
        "public_transport": "station",
        "roof:shape": "flat",
        "short_name": "SBS",
        "start_date": "2005",
        "wikidata": "Q7489090",
        "wikipedia": "en:Atal Bihari Vajpayee TTMC"
      }
    },
    {
      "type": "way",
      "id": 1455412267,
      "center": {
        "lat": 12.9546736,
        "lon": 77.592278
      },
      "tags": {
        "alt_name": "Shanthinagar TTMC 'C' Block;Shanthi nagar TTMC 'C' block",
        "amenity": "office",
        "building": "yes",
        "building:levels": "7",
        "name": "Shanthinagara 'C' Block",
        "roof:shape": "flat"
      }
    }
  ]
}