{
  "area_name": "Sunkadakatte",
  "osm_id": 19883428,
  "osm_type": "relation",
  "place_type": "administrative",
  "amenity_count": 9,
  "amenities": [
    {
      "type": "node",
      "id": 1794163355,
      "lat": 12.9986487,
      "lon": 77.5036725,
      "tags": {
        "amenity": "cinema",
        "name": "Mohan Cinema"
      }
    },
    {
      "type": "node",
      "id": 6938777962,
      "lat": 12.9957177,
      "lon": 77.5031644,
      "tags": {
        "addr:district": "Bengaluru Rural",
        "addr:full": "# 1/3, Heggenanalli Main Road, Opposite Ganesh Temple, Near Peenya 2nd Stage, , Last Bus Stop",
        "addr:postcode": "560091",
        "addr:state": "Karnataka",
        "amenity": "hospital",
        "name": "Panchamukhi Specialityu Hospital",
        "source": "OpenGovernmentData"
      }
    },
    {
      "type": "node",
      "id": 6944586994,
      "lat": 12.9916367,
      "lon": 77.5044787,
      "tags": {
        "addr:district": "Bengaluru Rural",
        "addr:full": "H V Rangappa Building ,Gollarahatti, Hosahalli Cross, Magadi Main Road",
        "addr:postcode": "560091",
        "addr:state": "Karnataka",
        "amenity": "clinic",
        "name": "Anand Nursing Home and Lab",
        "source": "OpenGovernmentData"
      }
    },
    {
      "type": "way",
      "id": 1122444429,
      "center": {
        "lat": 12.9898255,
        "lon": 77.5005412
      },
      "tags": {
        "amenity": "cinema",
        "name": "Miraj Cinemas"
      }
    },
    {
      "type": "way",
      "id": 1353420078,
      "center": {
        "lat": 12.9909598,
        "lon": 77.504771
      },
      "tags": {
        "leisure": "park"
      }
    },
    {
      "type": "way",
      "id": 1353420080,
      "center": {
        "lat": 12.991143,
        "lon": 77.5025955
      },
      "tags": {
        "leisure": "park"
      }
    },
    {
      "type": "way",
      "id": 1353420081,
      "center": {
        "lat": 12.9903828,
        "lon": 77.5003622
      },
      "tags": {
        "leisure": "park"
      }
    },
    {
      "type": "way",
      "id": 1393102041,
      "center": {
        "lat": 12.9889597,
        "lon": 77.4972585
      },
      "tags": {
        "amenity": "fuel"
      }
    },
    {
      "type": "way",
      "id": 1393102042,
      "center": {
        "lat": 12.9892009,
        "lon": 77.497977
      },
      "tags": {
        "amenity": "college"
      }
    }
  ]
}