{
  "area_name": "Swatantra Palya Ward",
  "osm_id": 19883284,
  "osm_type": "relation",
  "place_type": "administrative",
  "amenity_count": 25,
  "amenities": [
    {
      "type": "node",
      "id": 577030466,
      "lat": 12.9867764,
      "lon": 77.5671966,
      "tags": {
        "amenity": "theatre",
        "name": "Aruna Theatre",
        "wheelchair": "no"
      }
    },
    {
      "type": "node",
      "id": 663604676,
      "lat": 12.9857544,
      "lon": 77.570503,
      "tags": {
        "amenity": "place_of_worship",
        "name:kn": "ಚರ್ಚ್",
        "religion": "christian",
        "ups_other": "church"
      }
    },
    {
      "type": "node",
      "id": 663604681,
      "lat": 12.9862367,
      "lon": 77.5707724,
      "tags": {
        "amenity": "community_centre",
        "name": "Dr.b R Ambedkar Samudaya Bavan(bbmp)",
        "ups_community": "community_centre"
      }
    },
    {
      "type": "node",
      "id": 663604682,
      "lat": 12.9861118,
      "lon": 77.570748,
      "tags": {
        "amenity": "community_centre",
        "name": "Youth welfare association",
        "ups_community": "youth club"
      }
    },
    {
      "type": "node",
      "id": 663604683,
      "lat": 12.9863991,
      "lon": 77.5707542,
      "tags": {
        "amenity": "place_of_worship",
        "religion": "christian",
        "ups_other": "church"
      }
    },
    {
      "type": "node",
      "id": 663604685,
      "lat": 12.9884301,
      "lon": 77.5713911,
      "tags": {
        "amenity": "place_of_worship",
        "name": "Mariyamma temple",
        "name:kn": "ಮಾರಿಯಮ್ಮ ದೇವಸ್ಥಾನ",
        "religion": "hindu",
        "ups_other": "temple"
      }
    },
    {
      "type": "node",
      "id": 663604686,
      "lat": 12.9885784,
      "lon": 77.5705925,
      "tags": {
        "name": "sri lakshmi venkteshwara flower decoraters",
        "shop": "garden_centre",
        "ups_other": "shop"
      }
    },
    {
      "type": "node",
      "id": 663604690,
      "lat": 12.9887069,
      "lon": 77.5708345,
      "tags": {
        "amenity": "place_of_worship",
        "name": "Temple",
        "religion": "hindu",
        "ups_other": "temple"
      }
    },
    {
      "type": "node",
      "id": 663604691,
      "lat": 12.9895905,
      "lon": 77.5708543,
      "tags": {
        "amenity": "place_of_worship",
        "name": "Sri Jada Muneshwara Swamy Temple",
        "religion": "hindu",
        "ups_other": "temple"
      }
    },
    {
      "type": "node",
      "id": 663604692,
      "lat": 12.9908918,
      "lon": 77.5696342,
      "tags": {
        "amenity": "place_of_worship",
        "name": "Muttumariyamma temple",
        "name:kn": "ಮುತ್ತುಮಾರಿಯಮ್ಮ ದೇವಸ್ಥಾನ",
        "religion": "hindu",
        "ups_other": "temple"
      }
    },
    {
      "type": "node",
      "id": 663604694,
      "lat": 12.9922759,
      "lon": 77.568733,
      "tags": {
        "amenity": "place_of_worship",
        "name": "Anjaneya temple",
        "name:kn": "ಆಂಜನೇಯ ದೇವಸ್ಥಾನ",
        "religion": "hindu",
        "ups_other": "temple",
        "wheelchair": "yes"
      }
    },
    {
      "type": "node",
      "id": 663604695,
      "lat": 12.9921674,
      "lon": 77.5683888,
      "tags": {
        "amenity": "school",
        "name": "Deccan school",
        "ups_school": "school",
        "wheelchair": "no"
      }
    },
    {
      "type": "node",
      "id": 663604696,
      "lat": 12.9917534,
      "lon": 77.5680966,
      "tags": {
        "amenity": "place_of_worship",
        "name": "Rama Temple",
        "name:kn": "ರಾಮ ದೇವಸ್ಥಾನ",
        "religion": "hindu",
        "ups_other": "temple",
        "wheelchair": "no"
      }
    },
    {
      "type": "node",
      "id": 663604697,
      "lat": 12.9916519,
      "lon": 77.5681858,
      "tags": {
        "amenity": "community_centre",
        "name": "V.R.naidu Abimanigala sanga",
        "ups_school": "school"
      }
    },
    {
      "type": "node",
      "id": 663604698,
      "lat": 12.991587,
      "lon": 77.5684205,
      "tags": {
        "amenity": "school",
        "name": "Anganavadi",
        "name:kn": "ಅಂಗನವಾಡಿ",
        "ups_school": "school",
        "wheelchair": "no"
      }
    },
    {
      "type": "node",
      "id": 663604701,
      "lat": 12.9919371,
      "lon": 77.5696913,
      "tags": {
        "amenity": "toilets",
        "name": "Public Toilet",
        "name:kn": "ಸಾರ್ವಜನಿಕ ಶೌಚಾಲಯ",
        "ups_other": "toilet"
      }
    },
    {
      "type": "node",
      "id": 4446572478,
      "lat": 12.9858304,
      "lon": 77.5708651,
      "tags": {
        "addr:city": "560009",
        "addr:housenumber": "15",
        "addr:street": "Tank Bund Rd, RK Puram, Gandhi Nagar",
        "amenity": "pharmacy",
        "name": "Gururaja Pharma",
        "phone": "+91 80 2235 0038"
      }
    },
    {
      "type": "node",
      "id": 11478107293,
      "lat": 12.9932856,
      "lon": 77.568192,
      "tags": {
        "check_date": "2024-01-02",
        "name": "Stylo Boutique",
        "shop": "clothes"
      }
    },
    {
      "type": "node",
      "id": 11949532605,
      "lat": 12.990666,
      "lon": 77.5705972,
      "tags": {
        "addr:floor": "0",
        "amenity": "vending_machine",
        "check_date": "2024-06-01"
      }
    },
    {
      "type": "node",
      "id": 11949532606,
      "lat": 12.9905405,
      "lon": 77.5706858,
      "tags": {
        "addr:floor": "0",
        "check_date": "2024-06-01",
        "name": "Schmitten Chocolates",
        "shop": "chocolate"
      }
    },
    {
      "type": "node",
      "id": 11949532608,
      "lat": 12.9902985,
      "lon": 77.5708444,
      "tags": {
        "addr:floor": "0",
        "check_date": "2024-06-01",
        "name": "Go Desi",
        "shop": "kiosk"
      }
    },
    {
      "type": "way",
      "id": 38538397,
      "center": {
        "lat": 12.9880709,
        "lon": 77.5675841
      },
      "tags": {
        "leisure": "park"
      }
    },
    {
      "type": "way",
      "id": 1164850489,
      "center": {
        "lat": 12.9893456,
        "lon": 77.5717545
      },
      "tags": {
        "amenity": "fast_food",
        "brand": "Indira Canteen",
        "brand:wikidata": "Q36164828",
        "cuisine": "south_indian",
        "name": "Indira Canteen",
        "operator": "BBMP",
        "takeaway": "yes"
      }
    },
    {
      "type": "way",
      "id": 1210469155,
      "center": {
        "lat": 12.9932943,
        "lon": 77.5683067
      },
      "tags": {
        "amenity": "place_of_worship",
        "religion": "hindu"
      }
    },
    {
      "type": "way",
      "id": 1338331415,
      "center": {
        "lat": 12.9868665,
        "lon": 77.5720624
      },
      "tags": {
        "amenity": "parking"
      }
    }
  ]
}