{
  "area_name": "Thubarahalli",
  "osm_id": 1459472864,
  "osm_type": "node",
  "place_type": "neighbourhood",
  "amenity_count": 613,
  "amenities": [
    {
      "type": "node",
      "id": 413363132,
      "lat": 12.9566296,
      "lon": 77.7152069,
      "tags": {
        "addr:city": "Bangalore",
        "addr:street": "ITPL Main Road",
        "amenity": "restaurant",
        "cuisine": "indian",
        "name": "M M A Kababs",
        "name:kn": "ಎಂ ಎಂ ಎ ಕಬಾಬ್ಸ್"
      }
    },
    {
      "type": "node",
      "id": 413369368,
      "lat": 12.9556119,
      "lon": 77.7205897,
      "tags": {
        "name": "New Frosties",
        "shop": "butcher"
      }
    },
    {
      "type": "node",
      "id": 518616440,
      "lat": 12.9610755,
      "lon": 77.71672,
      "tags": {
        "addr:street": "ITPL Main Road",
        "beauty": "hair;spa",
        "brand": "Naturals",
        "brand:wikidata": "Q125728261",
        "name": "Naturals",
        "shop": "beauty"
      }
    },
    {
      "type": "node",
      "id": 518616443,
      "lat": 12.9601296,
      "lon": 77.7160629,
      "tags": {
        "addr:street": "ITPL Main Road",
        "fixme": "Place no longer exists",
        "name": "Reliance Fresh",
        "name:kn": "ರಿಲಾಯನ್ಸ್ ಫ್ರೆಶ್",
        "shop": "convenience"
      }
    },
    {
      "type": "node",
      "id": 518616448,
      "lat": 12.9598856,
      "lon": 77.7160093,
      "tags": {
        "addr:street": "ITPL Main Road",
        "brand": "Bata",
        "brand:wikidata": "Q688082",
        "name": "Bata",
        "name:kn": "ಬಾಟಾ",
        "shop": "shoes"
      }
    },
    {
      "type": "node",
      "id": 585148096,
      "lat": 12.9558807,
      "lon": 77.7127803,
      "tags": {
        "amenity": "restaurant",
        "check_date": "2025-09-03",
        "cuisine": "indian",
        "name": "Golconda Chimney",
        "name:kn": "ಗೊಲ್ಕೊಂಡ ಚಿಮಿನಿ",
        "phone": "+91 80 30623434"
      }
    },
    {
      "type": "node",
      "id": 671185204,
      "lat": 12.9568547,
      "lon": 77.7148261,
      "tags": {
        "amenity": "pharmacy",
        "name": "A K Medicals"
      }
    },
    {
      "type": "node",
      "id": 1123348991,
      "lat": 12.9592574,
      "lon": 77.7163915,
      "tags": {
        "amenity": "parking",
        "name": "HDFC Bank Parking"
      }
    },
    {
      "type": "node",
      "id": 1123348993,
      "lat": 12.9593703,
      "lon": 77.7163361,
      "tags": {
        "addr:street": "ITPL Main Road",
        "amenity": "bank",
        "brand": "HDFC Bank",
        "brand:wikidata": "Q631047",
        "check_date": "2025-09-03",
        "name": "HDFC Bank",
        "name:kn": "ಎಚ್ ಡಿ ಎಫ್ ಸಿ",
        "short_name": "HDFC"
      }
    },
    {
      "type": "node",
      "id": 1328612812,
      "lat": 12.9564144,
      "lon": 77.7147259,
      "tags": {
        "amenity": "atm",
        "operator": "Axis Bank ATM"
      }
    },
    {
      "type": "node",
      "id": 1363278488,
      "lat": 12.9578153,
      "lon": 77.7158152,
      "tags": {
        "alt_name": "Kentucky Fried Chicken",
        "alt_name:en": "Kentucky Fried Chicken",
        "alt_name:hi": "केंटुकी फ्राइड चिकन",
        "alt_name:pa": "ਕੈਂਟੁਕੀ ਫ੍ਰਾਈਡ ਚਿਕਨ",
        "alt_name:pnb": "کینٹکی فرائیڈ چکن",
        "alt_name:ur": "کینٹکی فرائیڈ چکن",
        "amenity": "fast_food",
        "brand": "KFC",
        "brand:en": "KFC",
        "brand:hi": "केएफसी",
        "brand:pa": "ਕੇਐਫਸੀ",
        "brand:pnb": "کے ایف سی",
        "brand:ur": "کے ایف سی",
        "brand:wikidata": "Q524757",
        "brand:wikipedia": "en:KFC",
        "brand:wikipedia:pa": "ਕੇਐਫਸੀ",
        "brand:wikipedia:ur": "کینٹکی فرائیڈ چکن",
        "cuisine": "chicken",
        "name": "KFC",
        "name:en": "KFC",
        "name:hi": "केएफसी",
        "name:pa": "ਕੇਐਫਸੀ",
        "name:pnb": "کے ایف سی",
        "name:ur": "کے ایف سی",
        "takeaway": "yes"
      }
    },
    {
      "type": "node",
      "id": 1365660975,
      "lat": 12.9568655,
      "lon": 77.7153884,
      "tags": {
        "amenity": "restaurant",
        "name": "Bhagini",
        "name:kn": "ಭಗಿನಿ"
      }
    },
    {
      "type": "node",
      "id": 1370194017,
      "lat": 12.9561352,
      "lon": 77.7165979,
      "tags": {
        "amenity": "restaurant",
        "check_date": "2025-08-17",
        "cuisine": "biryani",
        "indoor_seating": "yes",
        "name": "Biryani Zone",
        "name:kn": "ಬಿರಿಯಾನಿ ಜೋನ್",
        "outdoor_seating": "no"
      }
    },
    {
      "type": "node",
      "id": 1370194102,
      "lat": 12.9559117,
      "lon": 77.7167634,
      "tags": {
        "amenity": "cafe",
        "check_date": "2025-08-17",
        "indoor_seating": "no",
        "name": "Wok The Way",
        "outdoor_seating": "yes"
      }
    },
    {
      "type": "node",
      "id": 1645172338,
      "lat": 12.9554376,
      "lon": 77.7167625,
      "tags": {
        "amenity": "fountain"
      }
    },
    {
      "type": "node",
      "id": 1683088877,
      "lat": 12.9559175,
      "lon": 77.7296068,
      "tags": {
        "check_date": "2025-04-14",
        "name": "Barrels",
        "shop": "alcohol"
      }
    },
    {
      "type": "node",
      "id": 1683088879,
      "lat": 12.9556064,
      "lon": 77.720658,
      "tags": {
        "addr:housenumber": "5",
        "amenity": "veterinary",
        "name": "Bangalore Pet Hospital"
      }
    },
    {
      "type": "node",
      "id": 1683088883,
      "lat": 12.9558315,
      "lon": 77.729344,
      "tags": {
        "amenity": "restaurant",
        "check_date": "2025-04-14",
        "name": "Bhagini Iris"
      }
    },
    {
      "type": "node",
      "id": 1852671175,
      "lat": 12.9550393,
      "lon": 77.7297525,
      "tags": {
        "addr:city": "Bengaluru",
        "addr:country": "IN",
        "addr:hamlet": "Siddapura",
        "addr:postcode": "560066",
        "addr:street": "Varthur Road",
        "addr:suburb": "Whitefield",
        "amenity": "restaurant",
        "cuisine": "international",
        "name": "Chez Mariannick"
      }
    },
    {
      "type": "node",
      "id": 2061052079,
      "lat": 12.9556191,
      "lon": 77.7251708,
      "tags": {
        "amenity": "restaurant",
        "cuisine": "chinese",
        "name": "Mainland China"
      }
    },
    {
      "type": "node",
      "id": 2510960095,
      "lat": 12.9546737,
      "lon": 77.7152773,
      "tags": {
        "amenity": "restaurant",
        "cuisine": "Bengali",
        "name": "Deckers Lane"
      }
    },
    {
      "type": "node",
      "id": 2570171971,
      "lat": 12.955716,
      "lon": 77.7249856,
      "tags": {
        "amenity": "parking"
      }
    },
    {
      "type": "node",
      "id": 2614426550,
      "lat": 12.9584438,
      "lon": 77.7188999,
      "tags": {
        "amenity": "restaurant",
        "capacity": "40",
        "cuisine": "indian",
        "name": "Karma Foods"
      }
    },
    {
      "type": "node",
      "id": 2614427986,
      "lat": 12.956305,
      "lon": 77.7199388,
      "tags": {
        "amenity": "restaurant",
        "name": "Cheeky Bites",
        "wheelchair": "limited"
      }
    },
    {
      "type": "node",
      "id": 2720459297,
      "lat": 12.9555976,
      "lon": 77.7198567,
      "tags": {
        "amenity": "cafe",
        "brand": "Cafe Coffee Day",
        "brand:wikidata": "Q5017235",
        "cuisine": "coffee_shop",
        "indoor_seating": "yes",
        "name": "Cafe Coffee Day",
        "name:kn": "ಕಫೆ ಕಾಫಿ ಡೇ",
        "outdoor_seating": "no",
        "takeaway": "yes"
      }
    },
    {
      "type": "node",
      "id": 2720459298,
      "lat": 12.9555887,
      "lon": 77.7196162,
      "tags": {
        "amenity": "clinic",
        "healthcare": "clinic",
        "healthcare:speciality": "audiology;speech_therapist",
        "name": "Hear2Speak Clinic"
      }
    },
    {
      "type": "node",
      "id": 2841277911,
      "lat": 12.956785,
      "lon": 77.714966,
      "tags": {
        "addr:city": "Marathhalli",
        "addr:street": "I T P L Main Road",
        "amenity": "fast_food",
        "branch": "And New Zealand Naturals Icecream",
        "brand": "Subway",
        "brand:wikidata": "Q244457",
        "cuisine": "sandwich",
        "drive_in": "no",
        "drive_through": "no",
        "internet_access": "no",
        "internet_access:fee": "no",
        "name": "Subway",
        "takeaway": "yes",
        "wheelchair": "no"
      }
    },
    {
      "type": "node",
      "id": 3207060491,
      "lat": 12.9555858,
      "lon": 77.7221034,
      "tags": {
        "amenity": "place_of_worship",
        "religion": "hindu"
      }
    },
    {
      "type": "node",
      "id": 3207060698,
      "lat": 12.9556817,
      "lon": 77.7212326,
      "tags": {
        "amenity": "place_of_worship",
        "religion": "hindu"
      }
    },
    {
      "type": "node",
      "id": 3261284861,
      "lat": 12.9556751,
      "lon": 77.7124115,
      "tags": {
        "brand": "Westside",
        "brand:wikidata": "Q123376384",
        "level": "2",
        "name": "Westside",
        "shop": "clothes"
      }
    },
    {
      "type": "node",
      "id": 4142109789,
      "lat": 12.9556735,
      "lon": 77.7219462,
      "tags": {
        "addr:street": "Varthur Road",
        "amenity": "bank",
        "atm": "yes",
        "brand": "Karur Vysya Bank",
        "brand:wikidata": "Q6373724",
        "brand:wikipedia": "en:Karur Vysya Bank",
        "check_date": "2025-07-05",
        "name": "Karur Vysya Bank",
        "name:en": "Karur Vysya Bank",
        "name:kn": "ಕರೂರು ವೈಶ್ಯ ಬ್ಯಾಂಕ್",
        "short_name": "KVB",
        "website": "https://www.kvb.co.in"
      }
    },
    {
      "type": "node",
      "id": 4215372892,
      "lat": 12.9588231,
      "lon": 77.7216062,
      "tags": {
        "addr:floor": "G",
        "amenity": "fast_food",
        "check_date": "2025-08-29",
        "cuisine": "juice",
        "indoor_seating": "no",
        "level": "0",
        "name": "Coffee Beans",
        "outdoor_seating": "yes"
      }
    },
    {
      "type": "node",
      "id": 4270177795,
      "lat": 12.9533824,
      "lon": 77.7211731,
      "tags": {
        "addr:postcode": "560066",
        "addr:street": "thubarahalli extended road",
        "amenity": "place_of_worship",
        "name": "Venkateshwara Temple",
        "name:kn": "ವೆಂಕಟೇಶ್ವರ ದೇವಸ್ಥಾನ",
        "religion": "hindu"
      }
    },
    {
      "type": "node",
      "id": 4270189594,
      "lat": 12.9557961,
      "lon": 77.7130228,
      "tags": {
        "addr:street": "Varthur Road",
        "check_date": "2025-09-03",
        "name": "Reliance trends",
        "shop": "clothes"
      }
    },
    {
      "type": "node",
      "id": 4270196994,
      "lat": 12.9555803,
      "lon": 77.7130382,
      "tags": {
        "addr:street": "I T P L Main Road",
        "amenity": "restaurant",
        "name": "Kritunga restaurant"
      }
    },
    {
      "type": "node",
      "id": 4270232595,
      "lat": 12.9564532,
      "lon": 77.7168776,
      "tags": {
        "addr:housenumber": "5/2",
        "addr:street": "Varthur Road",
        "amenity": "prep_school",
        "branch": "Whitefield",
        "brand": "Aakash",
        "check_date": "2025-10-21",
        "contact:phone": "+91 88000 13049",
        "description": "A coaching institute for JEE NEET KCET ...",
        "internet_access": "wlan",
        "internet_access:fee": "customers",
        "level": "2;3",
        "name": "Aakash",
        "opening_hours": "Mo-Tu,Th-Su 08:00-20:00; We off",
        "payment:cash": "yes",
        "payment:credit_cards": "yes",
        "payment:debit_cards": "yes",
        "website": "https://aakash.ac.in/",
        "wheelchair": "limited"
      }
    },
    {
      "type": "node",
      "id": 4270238689,
      "lat": 12.9553742,
      "lon": 77.7124418,
      "tags": {
        "addr:street": "I T P L Main Road",
        "check_date": "2025-06-25",
        "name": "Star Bazar",
        "shop": "supermarket"
      }
    },
    {
      "type": "node",
      "id": 4270238892,
      "lat": 12.9556171,
      "lon": 77.7201044,
      "tags": {
        "addr:street": "Varthur Road",
        "amenity": "fast_food",
        "name": "Wokanaka"
      }
    },
    {
      "type": "node",
      "id": 4270322989,
      "lat": 12.9561408,
      "lon": 77.715053,
      "tags": {
        "addr:street": "I T P L Main Road",
        "amenity": "fast_food",
        "name": "Basaveshwara Khanavali",
        "name:kn": "ಬಸವೇಶ್ವರ ಖಾನಾವಳಿ"
      }
    },
    {
      "type": "node",
      "id": 4325331196,
      "lat": 12.9599306,
      "lon": 77.7160447,
      "tags": {
        "amenity": "hospital",
        "healthcare": "hospital",
        "name": "SRL Diagnostics"
      }
    },
    {
      "type": "node",
      "id": 4446170725,
      "lat": 12.9556301,
      "lon": 77.7222569,
      "tags": {
        "addr:city": "Bengaluru",
        "addr:housenumber": "100, 4",
        "addr:postcode": "560066",
        "addr:street": "Varthur Main Rd, Thubarahalli, Brookefield, Karnataka",
        "amenity": "pharmacy",
        "healthcare": "pharmacy",
        "name": "Rajeshwari Pharma Shop",
        "phone": "088842 24028"
      }
    },
    {
      "type": "node",
      "id": 4446186788,
      "lat": 12.954963,
      "lon": 77.7252993,
      "tags": {
        "addr:city": "Bangalore",
        "addr:postcode": "560066",
        "addr:street": "Vurthur Road, Siddapura, Whitefield",
        "amenity": "restaurant",
        "cuisine": "regional",
        "delivery": "yes",
        "name": "Chez Mariannick Bakery & Restaurant",
        "opening_hours": "12:45-16:00, 18:45-22:00",
        "phone": "097394 06536",
        "smoking": "no",
        "takeaway": "yes"
      }
    },
    {
      "type": "node",
      "id": 4446863533,
      "lat": 12.955617,
      "lon": 77.7193679,
      "tags": {
        "addr:city": "bangalore",
        "addr:postcode": "560037",
        "addr:street": "3rd Floor,Saroj Studio, Varthur Main Road, Marathahalli",
        "amenity": "clinic",
        "healthcare": "clinic",
        "name": "Sofiyacare Skin And Hair Clinic",
        "phone": "+9198458 36519",
        "website": "sofiyacare.com"
      }
    },
    {
      "type": "node",
      "id": 4448066406,
      "lat": 12.9553005,
      "lon": 77.7181579,
      "tags": {
        "addr:city": "bangalore",
        "addr:postcode": "560066",
        "addr:street": "Thubarahalli, Whitefield",
        "amenity": "pharmacy",
        "healthcare": "pharmacy",
        "name": "Trust Chemist and Drugs",
        "phone": "080 4087 5300",
        "source": "http://yellowpages.sulekha.com/",
        "website": "https://www.trustpharmacy.co.in/"
      }
    },
    {
      "type": "node",
      "id": 4487971421,
      "lat": 12.9570437,
      "lon": 77.7149827,
      "tags": {
        "addr:city": "Bangalore",
        "addr:postcode": "560037",
        "addr:street": "Opp.Nandini restaurent near hyper city ITPL main road, Lakshminarayana Pura, Munnekollal",
        "leisure": "sports_centre",
        "name": "Chak De Sports"
      }
    },
    {
      "type": "node",
      "id": 4488201880,
      "lat": 12.9560845,
      "lon": 77.7168358,
      "tags": {
        "addr:city": "bangalore",
        "addr:housenumber": "5/2",
        "addr:postcode": "560066",
        "addr:street": "Varthur Road",
        "check_date": "2025-08-17",
        "internet_access": "no",
        "level": "0",
        "name": "City Super Bazaar",
        "opening_hours": "08:00-22:00",
        "payment:cash": "yes",
        "payment:credit_cards": "yes",
        "payment:debit_cards": "yes",
        "phone": "+91 80-41485991; +91 72597 45991; +91 87468 48080",
        "shop": "supermarket",
        "wheelchair": "no"
      }
    },
    {
      "type": "node",
      "id": 4488473950,
      "lat": 12.9509399,
      "lon": 77.7150958,
      "tags": {
        "addr:city": "Bangalore",
        "addr:housenumber": "154",
        "addr:postcode": "560037",
        "addr:street": "Shiridi Sai Nagar Main Road, 10th Cross, Kundalahalli",
        "name": "Relation Super Market",
        "phone": "(91)-80-65778575",
        "shop": "supermarket"
      }
    },
    {
      "type": "node",
      "id": 4488896816,
      "lat": 12.958029,
      "lon": 77.7161841,
      "tags": {
        "addr:city": "Bengaluru",
        "addr:postcode": "560037",
        "addr:street": "Embassy Paragon, Ground Floor, Near Kundalahalli Gate, ITPL Road,Karnataka",
        "email": "https://www.bigbazaar.com",
        "name": "Big Bazaar",
        "opening_hours": "10:00-22:00",
        "phone": "018002097172",
        "shop": "supermarket"
      }
    },
    {
      "type": "node",
      "id": 4488928245,
      "lat": 12.9562047,
      "lon": 77.7256289,
      "tags": {
        "addr:city": "Bangalore",
        "addr:postcode": "560066",
        "addr:street": "Varthur Main Rd, Chaitanya La Grove, Brookefield",
        "name": "Sports Lite",
        "opening_hours": "10:00-20:00",
        "phone": "+91990254868",
        "shop": "sports"
      }
    },
    {
      "type": "node",
      "id": 4489797164,
      "lat": 12.9577604,
      "lon": 77.7161091,
      "tags": {
        "addr:city": "Bengaluru",
        "addr:postcode": "560037",
        "addr:street": "I T P L Main Road",
        "name": "Enrich Salon",
        "phone": "080-33293745",
        "shop": "beauty",
        "website": "www.enrichsalon.com"
      }
    },
    {
      "type": "node",
      "id": 4489868918,
      "lat": 12.9610235,
      "lon": 77.7167541,
      "tags": {
        "addr:city": "bangalore",
        "addr:housenumber": "#4",
        "addr:postcode": "560037",
        "addr:street": "ASK Towers, ITPL Main Road, Kundalahalli, E Block, AECS Layout, Brookefield,",
        "leisure": "fitness_centre",
        "level": "1",
        "name": "Klub Fit",
        "opening_hours": "5:30-21:00",
        "phone": "9741493939",
        "sport": "gym",
        "website": "klubfit.co.in"
      }
    },
    {
      "type": "node",
      "id": 4489960691,
      "lat": 12.9612069,
      "lon": 77.716738,
      "tags": {
        "addr:city": "Bengaluru",
        "addr:housenumber": "8/2, ITPL Main Rd, BEML Layout",
        "addr:postcode": "56006",
        "addr:street": "I T P L Main Road",
        "name": "Lakmé Salon",
        "opening_hours": "12:00-24:00",
        "phone": "080 4152 7733",
        "shop": "beauty",
        "website": "080 4152 7733"
      }
    },
    {
      "type": "node",
      "id": 4490259047,
      "lat": 12.9606108,
      "lon": 77.7154452,
      "tags": {
        "addr:city": "bangalore",
        "addr:postcode": "560037",
        "addr:street": "Fitness One Brookefield, AECS Layout - C Block, AECS Layout, Brookefield,",
        "leisure": "sports_centre",
        "name": "Fitness One Gym",
        "opening_hours": "6:00-21:00",
        "sport": "gymnasium",
        "website": "https://www.fitnessone.in/"
      }
    },
    {
      "type": "node",
      "id": 4564481189,
      "lat": 12.9578822,
      "lon": 77.7160787,
      "tags": {
        "name": "HyperCity",
        "name:en": "Big Bazaar",
        "shop": "mall",
        "toilets": "yes"
      }
    },
    {
      "type": "node",
      "id": 4635146995,
      "lat": 12.9564176,
      "lon": 77.7148938,
      "tags": {
        "name": "Silver line bakery",
        "shop": "bakery"
      }
    },
    {
      "type": "node",
      "id": 4635147131,
      "lat": 12.9568624,
      "lon": 77.7149748,
      "tags": {
        "amenity": "fast_food",
        "name": "Gusto pizza"
      }
    },
    {
      "type": "node",
      "id": 4937042321,
      "lat": 12.9607841,
      "lon": 77.7148673,
      "tags": {
        "name": "Nina Beauty Parlour",
        "shop": "beauty;hairdresser"
      }
    },
    {
      "type": "node",
      "id": 5283774965,
      "lat": 12.9486296,
      "lon": 77.7156074,
      "tags": {
        "amenity": "restaurant",
        "name": "Sri Lakshmi Vaibav Hotel"
      }
    },
    {
      "type": "node",
      "id": 5535915950,
      "lat": 12.9618349,
      "lon": 77.7169157,
      "tags": {
        "addr:city": "Bengaluru",
        "addr:postcode": "560066",
        "addr:street": "I T P L Main Road",
        "amenity": "restaurant",
        "capacity": "15",
        "cuisine": "indian",
        "delivery": "yes",
        "name": "Litti House",
        "opening_hours": "Mo-Su 10:00-23:00",
        "outdoor_seating": "yes",
        "phone": "+9190355 31777",
        "smoking": "no",
        "takeaway": "yes"
      }
    },
    {
      "type": "node",
      "id": 5535917289,
      "lat": 12.9617437,
      "lon": 77.7168019,
      "tags": {
        "amenity": "smoking_area",
        "bench": "no",
        "bin": "yes",
        "name": "Om Jai Pan Stall",
        "shelter": "no"
      }
    },
    {
      "type": "node",
      "id": 5888589109,
      "lat": 12.9618076,
      "lon": 77.7169139,
      "tags": {
        "addr:city": "Bengaluru",
        "addr:postcode": "560037",
        "addr:street": "I T P L Main Road",
        "name": "Ayur Central",
        "shop": "medical_supply"
      }
    },
    {
      "type": "node",
      "id": 5925930406,
      "lat": 12.9587611,
      "lon": 77.7142528,
      "tags": {
        "access": "private",
        "amenity": "parking_entrance",
        "parking": "underground"
      }
    },
    {
      "type": "node",
      "id": 5927292344,
      "lat": 12.9561311,
      "lon": 77.7185632,
      "tags": {
        "brand": "Reliance Digital",
        "brand:wikidata": "Q7311012",
        "name": "Reliance Digital",
        "name:kn": "ರಿಲಾಯನ್ಸ್ ಡಿಜಿಟಲ್",
        "operator": "Reliance",
        "shop": "electronics",
        "website": "https://www.reliancedigital.in/"
      }
    },
    {
      "type": "node",
      "id": 5967273100,
      "lat": 12.9555768,
      "lon": 77.7144617,
      "tags": {
        "addr:street": "Varthur Road",
        "brand": "Bhima Jewellers",
        "brand:wikidata": "Q17004889",
        "name": "Bhima Jewellers",
        "operator": "Bhima",
        "shop": "jewelry",
        "website": "https://www.bhima.in"
      }
    },
    {
      "type": "node",
      "id": 6087270862,
      "lat": 12.9616345,
      "lon": 77.7168007,
      "tags": {
        "amenity": "place_of_worship",
        "religion": "hindu"
      }
    },
    {
      "type": "node",
      "id": 6114925247,
      "lat": 12.9622817,
      "lon": 77.7165739,
      "tags": {
        "amenity": "restaurant",
        "name": "Imperio hotel"
      }
    },
    {
      "type": "node",
      "id": 6299411988,
      "lat": 12.9603202,
      "lon": 77.7172283,
      "tags": {
        "amenity": "restaurant",
        "name": "Sri Gajanana Juice Center"
      }
    },
    {
      "type": "node",
      "id": 6690503514,
      "lat": 12.9498694,
      "lon": 77.7158059,
      "tags": {
        "amenity": "fast_food",
        "cuisine": "sandwich",
        "name": "Den Bakery",
        "operator": "Private"
      }
    },
    {
      "type": "node",
      "id": 6690503515,
      "lat": 12.9496403,
      "lon": 77.7158051,
      "tags": {
        "brand": "More",
        "brand:wikidata": "Q6910891",
        "brand:wikipedia": "en:More (store)",
        "name": "More",
        "opening_hours": "Mo-Su 09:00-21:00",
        "payment:cash": "yes",
        "payment:credit_cards": "yes",
        "shop": "supermarket",
        "wheelchair": "no"
      }
    },
    {
      "type": "node",
      "id": 6690503516,
      "lat": 12.949846,
      "lon": 77.715934,
      "tags": {
        "amenity": "restaurant",
        "cuisine": "indian;Punjabi",
        "name": "Punjabi Khanna",
        "opening_hours": "Mo-Su 08:00-22:00"
      }
    },
    {
      "type": "node",
      "id": 6690503525,
      "lat": 12.9509966,
      "lon": 77.7156459,
      "tags": {
        "addr:city": "Bangalore",
        "addr:postcode": "560037",
        "addr:street": "Sai Baba Temple Road",
        "amenity": "pharmacy",
        "brand": "Apollo Pharmacy",
        "brand:wikidata": "Q62562612",
        "dispensing": "yes",
        "drive_through": "no",
        "healthcare": "pharmacy",
        "name": "Apollo Pharmacy"
      }
    },
    {
      "type": "node",
      "id": 6690503526,
      "lat": 12.9511526,
      "lon": 77.7156178,
      "tags": {
        "addr:city": "Bangalore",
        "addr:postcode": "560037",
        "addr:street": "Sai Baba Temple Road",
        "name": "Patanjali Pharmacy",
        "opening_hours": "Mo-Su 09:00-21:00",
        "payment:cash": "yes",
        "shop": "supermarket"
      }
    },
    {
      "type": "node",
      "id": 6690503527,
      "lat": 12.9512385,
      "lon": 77.7154097,
      "tags": {
        "addr:city": "Bangalore",
        "addr:postcode": "560037",
        "addr:street": "SAi Baba Temple Road",
        "amenity": "cafe",
        "cuisine": "sandwich;ice_cream",
        "internet_access": "no",
        "name": "Lassi Corner",
        "outdoor_seating": "yes"
      }
    },
    {
      "type": "node",
      "id": 6690503528,
      "lat": 12.9504896,
      "lon": 77.7156859,
      "tags": {
        "addr:city": "Bangalore",
        "addr:postcode": "560037",
        "addr:street": "Sai Baba Temple Road",
        "amenity": "bar",
        "brewery": "various",
        "name": "Sura Whine Shop",
        "outdoor_seating": "no"
      }
    },
    {
      "type": "node",
      "id": 6690503529,
      "lat": 12.9504428,
      "lon": 77.7156939,
      "tags": {
        "addr:city": "Bangalore",
        "addr:postcode": "560037",
        "addr:street": "Sai Baba Temple Road",
        "amenity": "restaurant",
        "cuisine": "North_Indian;chinese",
        "name": "Eatoz",
        "opening_hours": "Mo-Su 09:00-21:00",
        "phone": "08040955733"
      }
    },
    {
      "type": "node",
      "id": 6690503530,
      "lat": 12.9502438,
      "lon": 77.7155138,
      "tags": {
        "addr:city": "Bangalore",
        "addr:postcode": "560037",
        "addr:street": "Sai Baba Temple Road",
        "amenity": "cafe",
        "cuisine": "juice",
        "internet_access": "no",
        "name": "Energizer",
        "outdoor_seating": "no"
      }
    },
    {
      "type": "node",
      "id": 6690507097,
      "lat": 12.9496783,
      "lon": 77.7155698,
      "tags": {
        "addr:city": "Bangalore",
        "addr:postcode": "560037",
        "addr:street": "Sai Baba temple Road",
        "leisure": "fitness_centre",
        "name": "BurnOut Fitness",
        "sport": "Zumba;gym"
      }
    },
    {
      "type": "node",
      "id": 6690509588,
      "lat": 12.9491647,
      "lon": 77.7161846,
      "tags": {
        "addr:city": "Bangalore",
        "addr:postcode": "560037",
        "addr:street": "Sai Baba temple Road",
        "amenity": "restaurant",
        "cuisine": "indian",
        "name": "Nila Bhima Restaurant;",
        "opening_hours": "Mo-Su 09:00-21:00"
      }
    },
    {
      "type": "node",
      "id": 6938777946,
      "lat": 12.963001,
      "lon": 77.7179866,
      "tags": {
        "addr:district": "Bengaluru Urban",
        "addr:full": "Srit House #1113/1B ,Itpl Main Road ,Kundalahalli",
        "addr:postcode": "560037",
        "addr:state": "Karnataka",
        "amenity": "clinic",
        "name": "Ojus Healthcare (Nirmaya Clinic)",
        "source": "OpenGovernmentData"
      }
    },
    {
      "type": "node",
      "id": 7172910969,
      "lat": 12.957558,
      "lon": 77.722342,
      "tags": {
        "amenity": "parking_entrance",
        "parking": "underground"
      }
    },
    {
      "type": "node",
      "id": 9841433906,
      "lat": 12.9561089,
      "lon": 77.721453,
      "tags": {
        "amenity": "restaurant",
        "check_date": "2025-06-28",
        "contact:facebook": "pastastreet",
        "contact:instagram": "pasta.street",
        "cuisine": "pasta",
        "email": "info@pastastreet.co.in",
        "indoor_seating": "yes",
        "name": "Pasta Street",
        "outdoor_seating": "no",
        "phone": "+91 9266844026",
        "website": "https://pastastreet.co.in/"
      }
    },
    {
      "type": "node",
      "id": 9841433907,
      "lat": 12.9556074,
      "lon": 77.7216631,
      "tags": {
        "amenity": "hospital",
        "check_date": "2025-06-28",
        "healthcare": "hospital",
        "healthcare:speciality": "ophthalmology",
        "name": "Devi Eye Hospital"
      }
    },
    {
      "type": "node",
      "id": 9841485158,
      "lat": 12.9558503,
      "lon": 77.7301227,
      "tags": {
        "amenity": "veterinary",
        "check_date": "2025-06-29",
        "name": "Bangalore Pet Hospital"
      }
    },
    {
      "type": "node",
      "id": 9862573404,
      "lat": 12.9561848,
      "lon": 77.7292307,
      "tags": {
        "branch": "Milk Parlour",
        "brand": "Nandini",
        "brand:wikidata": "Q124374212",
        "check_date": "2025-07-06",
        "name": "Nandini",
        "shop": "dairy"
      }
    },
    {
      "type": "node",
      "id": 9866316216,
      "lat": 12.9513056,
      "lon": 77.7174058,
      "tags": {
        "name": "Chef Baker's Express",
        "shop": "bakery"
      }
    },
    {
      "type": "node",
      "id": 9866316430,
      "lat": 12.9510316,
      "lon": 77.7174858,
      "tags": {
        "name": "Bangalore Horticulture",
        "shop": "greengrocer"
      }
    },
    {
      "type": "node",
      "id": 9874558790,
      "lat": 12.9556234,
      "lon": 77.7217798,
      "tags": {
        "name": "Maa Vaishnodevi",
        "shop": "furniture"
      }
    },
    {
      "type": "node",
      "id": 9874558791,
      "lat": 12.9555826,
      "lon": 77.7215706,
      "tags": {
        "amenity": "clinic",
        "healthcare": "clinic",
        "healthcare:speciality": "dermatology",
        "name": "Kosmoderma dermatologist"
      }
    },
    {
      "type": "node",
      "id": 9874558792,
      "lat": 12.9555812,
      "lon": 77.7214813,
      "tags": {
        "addr:floor": "1",
        "amenity": "clinic",
        "check_date": "2025-07-05",
        "healthcare": "clinic",
        "healthcare:speciality": "dentist",
        "level": "1",
        "name": "Clove Dental",
        "operator:type": "private",
        "wheelchair": "limited"
      }
    },
    {
      "type": "node",
      "id": 9874558801,
      "lat": 12.9555866,
      "lon": 77.7208103,
      "tags": {
        "name": "Health & Glow",
        "shop": "beauty"
      }
    },
    {
      "type": "node",
      "id": 9874558802,
      "lat": 12.955602,
      "lon": 77.7205278,
      "tags": {
        "amenity": "bank",
        "brand": "ICICI Bank",
        "brand:wikidata": "Q1653258",
        "name": "ICICI Bank",
        "short_name": "ICICI"
      }
    },
    {
      "type": "node",
      "id": 9874588942,
      "lat": 12.9559356,
      "lon": 77.7165587,
      "tags": {
        "amenity": "fast_food",
        "cuisine": "pizza",
        "name": "Mojo Pizza"
      }
    },
    {
      "type": "node",
      "id": 9874628855,
      "lat": 12.9529429,
      "lon": 77.7176448,
      "tags": {
        "amenity": "restaurant",
        "name": "51 Indian"
      }
    },
    {
      "type": "node",
      "id": 9876018983,
      "lat": 12.9588463,
      "lon": 77.7214487,
      "tags": {
        "addr:street": "8th Main Road",
        "name": "Faso Supershoppe",
        "payment:cash": "yes",
        "payment:upi": "yes",
        "phone": "+91 8904780053",
        "shop": "supermarket"
      }
    },
    {
      "type": "node",
      "id": 9876031948,
      "lat": 12.9557389,
      "lon": 77.7281052,
      "tags": {
        "cuisine": "sweets;chaat",
        "diet:vegetarian": "yes",
        "name": "Anand Sweets",
        "shop": "confectionery"
      }
    },
    {
      "type": "node",
      "id": 9876035819,
      "lat": 12.9559635,
      "lon": 77.7207388,
      "tags": {
        "amenity": "pharmacy",
        "check_date": "2025-07-05",
        "dispensing": "yes",
        "healthcare": "pharmacy",
        "name": "Dhanalaxmi General Stores"
      }
    },
    {
      "type": "node",
      "id": 9876035820,
      "lat": 12.9556707,
      "lon": 77.7223553,
      "tags": {
        "addr:housenumber": "200/B",
        "name": "S. B Stores",
        "shop": "convenience"
      }
    },
    {
      "type": "node",
      "id": 9876035821,
      "lat": 12.955667,
      "lon": 77.7223827,
      "tags": {
        "addr:housenumber": "200/C",
        "name": "Star Tools & Hardware",
        "shop": "hardware"
      }
    },
    {
      "type": "node",
      "id": 9876035822,
      "lat": 12.9556072,
      "lon": 77.7208536,
      "tags": {
        "name": "Galaxy Furniture",
        "shop": "furniture"
      }
    },
    {
      "type": "node",
      "id": 9876035823,
      "lat": 12.955693,
      "lon": 77.7204456,
      "tags": {
        "amenity": "restaurant",
        "cuisine": "south_indian;chinese",
        "diet:non-vegetarian": "yes",
        "diet:vegetarian": "yes",
        "name": "Shri Udupi Veg"
      }
    },
    {
      "type": "node",
      "id": 9876035824,
      "lat": 12.9559587,
      "lon": 77.7209907,
      "tags": {
        "addr:housenumber": "308",
        "name": "Sri Rama Appliances",
        "shop": "electrical"
      }
    },
    {
      "type": "node",
      "id": 9876035825,
      "lat": 12.9557182,
      "lon": 77.7243611,
      "tags": {
        "check_date": "2025-07-26",
        "name": "Nandhi",
        "shop": "hardware"
      }
    },
    {
      "type": "node",
      "id": 9876035835,
      "lat": 12.9557775,
      "lon": 77.7262792,
      "tags": {
        "name": "Laundrokart",
        "shop": "laundry"
      }
    },
    {
      "type": "node",
      "id": 9876716065,
      "lat": 12.9562163,
      "lon": 77.7215216,
      "tags": {
        "amenity": "prep_school",
        "name": "Narayana IIT Academy"
      }
    },
    {
      "type": "node",
      "id": 9878421689,
      "lat": 12.9588166,
      "lon": 77.7216835,
      "tags": {
        "name": "My Karnataka Appliances",
        "shop": "houseware"
      }
    },
    {
      "type": "node",
      "id": 9878421690,
      "lat": 12.955593,
      "lon": 77.7199535,
      "tags": {
        "name": "Saphire Handicrafts Emporium",
        "shop": "yes"
      }
    },
    {
      "type": "node",
      "id": 9878421691,
      "lat": 12.955606,
      "lon": 77.7198722,
      "tags": {
        "name": "IFB Point",
        "shop": "appliance"
      }
    },
    {
      "type": "node",
      "id": 9878421692,
      "lat": 12.9556086,
      "lon": 77.7192622,
      "tags": {
        "name": "Crompton",
        "shop": "electrical",
        "website": "https://www.crompton.co.in/"
      }
    },
    {
      "type": "node",
      "id": 9883496077,
      "lat": 12.9556575,
      "lon": 77.7214693,
      "tags": {
        "check_date": "2025-07-05",
        "name": "Itsy Bitsy",
        "shop": "craft",
        "website": "https://itsybitsy.in/"
      }
    },
    {
      "type": "node",
      "id": 9883496078,
      "lat": 12.9556071,
      "lon": 77.7195074,
      "tags": {
        "amenity": "bank",
        "atm": "yes",
        "brand": "HDFC Bank",
        "brand:wikidata": "Q631047",
        "check_date": "2025-10-28",
        "name": "HDFC Bank",
        "name:kn": "ಎಚ್ ಡಿ ಎಫ್ ಸಿ",
        "short_name": "HDFC"
      }
    },
    {
      "type": "node",
      "id": 9883496079,
      "lat": 12.9555925,
      "lon": 77.7197781,
      "tags": {
        "amenity": "bank",
        "brand": "Kotak Mahindra Bank",
        "brand:wikidata": "Q2040404",
        "name": "Kotak Mahindra Bank",
        "name:kn": "ಕೋಟಕ್ ಮಹಿಂದ್ರ ಬ್ಯಾಂಕ್"
      }
    },
    {
      "type": "node",
      "id": 9883496080,
      "lat": 12.9556015,
      "lon": 77.7222312,
      "tags": {
        "name": "Gombe Mane",
        "shop": "furniture"
      }
    },
    {
      "type": "node",
      "id": 9883497014,
      "lat": 12.9602743,
      "lon": 77.7199662,
      "tags": {
        "amenity": "fast_food",
        "name": "Bangarpet Chats"
      }
    },
    {
      "type": "node",
      "id": 9883497015,
      "lat": 12.9602848,
      "lon": 77.719736,
      "tags": {
        "amenity": "ice_cream",
        "name": "Creamchillz"
      }
    },
    {
      "type": "node",
      "id": 9883497016,
      "lat": 12.9602911,
      "lon": 77.7197954,
      "tags": {
        "name": "Classic Botique",
        "shop": "tailor"
      }
    },
    {
      "type": "node",
      "id": 9883500517,
      "lat": 12.9603343,
      "lon": 77.7193382,
      "tags": {
        "addr:street": "4th Main Road",
        "amenity": "pharmacy",
        "brand": "MedPlus",
        "brand:wikidata": "Q65684234",
        "dispensing": "yes",
        "healthcare": "pharmacy",
        "name": "MedPlus"
      }
    },
    {
      "type": "node",
      "id": 9883500518,
      "lat": 12.9604502,
      "lon": 77.7197835,
      "tags": {
        "addr:city": "Bengaluru",
        "addr:housenumber": "142",
        "addr:postcode": "560066",
        "addr:street": "4th Main Rd, BEML Layout, Brookefield",
        "name": "Dhruv Bakery",
        "shop": "bakery"
      }
    },
    {
      "type": "node",
      "id": 9883500547,
      "lat": 12.9604205,
      "lon": 77.7201528,
      "tags": {
        "name": "Bangalore Horticulture",
        "shop": "greengrocer"
      }
    },
    {
      "type": "node",
      "id": 9883500548,
      "lat": 12.9604186,
      "lon": 77.7201826,
      "tags": {
        "amenity": "pharmacy",
        "dispensing": "yes",
        "healthcare": "pharmacy",
        "name": "Medpolo"
      }
    },
    {
      "type": "node",
      "id": 9883500549,
      "lat": 12.9604205,
      "lon": 77.7202263,
      "tags": {
        "name": "R. R. Bakery",
        "shop": "bakery"
      }
    },
    {
      "type": "node",
      "id": 9883500562,
      "lat": 12.9596388,
      "lon": 77.7209646,
      "tags": {
        "leisure": "fitness_centre",
        "name": "Burnout Fitness"
      }
    },
    {
      "type": "node",
      "id": 9883500563,
      "lat": 12.9588783,
      "lon": 77.7221042,
      "tags": {
        "name": "Sri Lakshmi Mens Salon",
        "shop": "hairdresser"
      }
    },
    {
      "type": "node",
      "id": 9883500644,
      "lat": 12.9601881,
      "lon": 77.7210266,
      "tags": {
        "check_date": "2025-07-06",
        "name": "Pooja Electronics And Electricals",
        "shop": "electrical"
      }
    },
    {
      "type": "node",
      "id": 9884929792,
      "lat": 12.960334,
      "lon": 77.7187368,
      "tags": {
        "amenity": "clinic",
        "healthcare": "clinic",
        "name": "Health Bloom Poly Clinic"
      }
    },
    {
      "type": "node",
      "id": 9884929793,
      "lat": 12.9603516,
      "lon": 77.7187819,
      "tags": {
        "amenity": "pharmacy",
        "dispensing": "yes",
        "healthcare": "pharmacy",
        "name": "Health Bloom"
      }
    },
    {
      "type": "node",
      "id": 9884929794,
      "lat": 12.9605713,
      "lon": 77.7184324,
      "tags": {
        "name": "RK Farm Fresh",
        "shop": "greengrocer"
      }
    },
    {
      "type": "node",
      "id": 9884929795,
      "lat": 12.9604109,
      "lon": 77.7183512,
      "tags": {
        "name": "Jyothi Provisions Store",
        "shop": "convenience"
      }
    },
    {
      "type": "node",
      "id": 9884929800,
      "lat": 12.9604284,
      "lon": 77.7180829,
      "tags": {
        "amenity": "atm",
        "brand": "ICICI Bank",
        "brand:wikidata": "Q1653258",
        "name": "ICICI Bank",
        "name:kn": "ಐಸಿಐಸಿಐ ಬ್ಯಾಂಕು",
        "operator": "ICICI Bank",
        "operator:wikidata": "Q1653258",
        "short_name": "ICICI"
      }
    },
    {
      "type": "node",
      "id": 9884929802,
      "lat": 12.9604763,
      "lon": 77.7174445,
      "tags": {
        "amenity": "pharmacy",
        "brand": "Apollo Pharmacy",
        "brand:wikidata": "Q62562612",
        "dispensing": "yes",
        "healthcare": "pharmacy",
        "name": "Apollo Pharmacy"
      }
    },
    {
      "type": "node",
      "id": 9884964459,
      "lat": 12.9591815,
      "lon": 77.7192054,
      "tags": {
        "amenity": "restaurant",
        "name": "Ramdev Sagar"
      }
    },
    {
      "type": "node",
      "id": 9884964460,
      "lat": 12.958903,
      "lon": 77.7193628,
      "tags": {
        "name": "Green Choice",
        "shop": "greengrocer"
      }
    },
    {
      "type": "node",
      "id": 9884967524,
      "lat": 12.9559422,
      "lon": 77.7201222,
      "tags": {
        "name": "Ghar Ki Kharigan",
        "shop": "handicraft"
      }
    },
    {
      "type": "node",
      "id": 9884967525,
      "lat": 12.9558998,
      "lon": 77.7202061,
      "tags": {
        "amenity": "fast_food",
        "name": "Ambur Hot Dum Biryani"
      }
    },
    {
      "type": "node",
      "id": 9884967526,
      "lat": 12.955561,
      "lon": 77.7202018,
      "tags": {
        "amenity": "ice_cream",
        "name": "New Frostys"
      }
    },
    {
      "type": "node",
      "id": 9884967527,
      "lat": 12.9559694,
      "lon": 77.7208487,
      "tags": {
        "check_date": "2025-08-30",
        "name": "Raj Fruits And Vegetables",
        "shop": "greengrocer"
      }
    },
    {
      "type": "node",
      "id": 9884967529,
      "lat": 12.9559539,
      "lon": 77.7211511,
      "tags": {
        "name": "Kamala Provisions Store",
        "shop": "convenience"
      }
    },
    {
      "type": "node",
      "id": 9884967530,
      "lat": 12.9556558,
      "lon": 77.7213933,
      "tags": {
        "name": "Racket Kart",
        "shop": "sports",
        "sport": "badminton"
      }
    },
    {
      "type": "node",
      "id": 9884967531,
      "lat": 12.9555785,
      "lon": 77.7197673,
      "tags": {
        "amenity": "clinic",
        "healthcare": "clinic",
        "name": "Whitefield Spine Clinic"
      }
    },
    {
      "type": "node",
      "id": 9884967532,
      "lat": 12.9555949,
      "lon": 77.7189922,
      "tags": {
        "amenity": "fast_food",
        "check_date": "2025-10-18",
        "cuisine": "sweets",
        "name": "Amma's Pastries"
      }
    },
    {
      "type": "node",
      "id": 9894683309,
      "lat": 12.9556079,
      "lon": 77.7252082,
      "tags": {
        "amenity": "restaurant",
        "name": "Oh Calcutta"
      }
    },
    {
      "type": "node",
      "id": 9907331456,
      "lat": 12.9603592,
      "lon": 77.7207237,
      "tags": {
        "name": "Gayathri Rice Corner",
        "shop": "convenience"
      }
    },
    {
      "type": "node",
      "id": 9907376814,
      "lat": 12.9605451,
      "lon": 77.7167875,
      "tags": {
        "addr:floor": "G",
        "air_conditioning": "yes",
        "check_date": "2025-08-29",
        "internet_access": "no",
        "level": "0",
        "name": "Ant's Mens Salon",
        "payment:cards": "no",
        "payment:cash": "yes",
        "payment:credit_cards": "no",
        "payment:debit_cards": "no",
        "shop": "beauty",
        "wheelchair": "no"
      }
    },
    {
      "type": "node",
      "id": 9907446630,
      "lat": 12.9557262,
      "lon": 77.722126,
      "tags": {
        "name": "Dharani Arts and Handicraft Emporium",
        "shop": "handicraft"
      }
    },
    {
      "type": "node",
      "id": 9907446631,
      "lat": 12.9557192,
      "lon": 77.7220254,
      "tags": {
        "name": "Shiva Battery Point",
        "shop": "car_parts"
      }
    },
    {
      "type": "node",
      "id": 9907446644,
      "lat": 12.9605321,
      "lon": 77.718705,
      "tags": {
        "clothes": "underwear",
        "name": "Sri Ganesh Fasions",
        "shop": "clothes"
      }
    },
    {
      "type": "node",
      "id": 9907446645,
      "lat": 12.9605553,
      "lon": 77.7185366,
      "tags": {
        "clothes": "underwear",
        "shop": "clothes"
      }
    },
    {
      "type": "node",
      "id": 9907630895,
      "lat": 12.9556256,
      "lon": 77.7143746,
      "tags": {
        "amenity": "pub",
        "check_date": "2025-09-03",
        "name": "Gilly's",
        "wheelchair": "no"
      }
    },
    {
      "type": "node",
      "id": 9917364996,
      "lat": 12.958953,
      "lon": 77.71794,
      "tags": {
        "amenity": "fast_food",
        "check_date": "2023-09-22",
        "check_date:opening_hours": "2023-09-22",
        "name": "Hiyar Mahje Kolkata",
        "opening_hours:signed": "no"
      }
    },
    {
      "type": "node",
      "id": 9917384680,
      "lat": 12.9589189,
      "lon": 77.7183818,
      "tags": {
        "amenity": "pharmacy",
        "healthcare": "pharmacy",
        "name": "Srinivasa Medicals"
      }
    },
    {
      "type": "node",
      "id": 9917513504,
      "lat": 12.9589685,
      "lon": 77.7175748,
      "tags": {
        "leisure": "fitness_centre",
        "name": "Vera Fitness"
      }
    },
    {
      "type": "node",
      "id": 9917513505,
      "lat": 12.958822,
      "lon": 77.7208001,
      "tags": {
        "amenity": "atm",
        "brand": "State Bank of India",
        "brand:wikidata": "Q1340361",
        "name": "State Bank of India",
        "name:kn": "ಎಸ್ ಬಿ ಐ",
        "operator": "State Bank of India",
        "operator:wikidata": "Q1340361",
        "short_name": "SBI"
      }
    },
    {
      "type": "node",
      "id": 9920825248,
      "lat": 12.9557749,
      "lon": 77.712302,
      "tags": {
        "amenity": "bureau_de_change",
        "name": "Oak Forex"
      }
    },
    {
      "type": "node",
      "id": 9937608442,
      "lat": 12.9603763,
      "lon": 77.717235,
      "tags": {
        "name": "My Phone Mobile",
        "shop": "mobile_phone"
      }
    },
    {
      "type": "node",
      "id": 9937608447,
      "lat": 12.9591071,
      "lon": 77.7197839,
      "tags": {
        "dispensing": "yes",
        "name": "CleanGenie",
        "shop": "laundry",
        "website": "https://www.cleangenie.com/"
      }
    },
    {
      "type": "node",
      "id": 9945555274,
      "lat": 12.961145,
      "lon": 77.7167347,
      "tags": {
        "name": "Tyre Empire",
        "shop": "tyres"
      }
    },
    {
      "type": "node",
      "id": 9945555278,
      "lat": 12.9594686,
      "lon": 77.7184595,
      "tags": {
        "amenity": "clinic",
        "healthcare": "clinic",
        "name": "G. S. Clinic"
      }
    },
    {
      "type": "node",
      "id": 9945555279,
      "lat": 12.9594016,
      "lon": 77.7184562,
      "tags": {
        "amenity": "pharmacy",
        "dispensing": "yes",
        "healthcare": "pharmacy",
        "name": "G. S. Pharmacy"
      }
    },
    {
      "type": "node",
      "id": 9975346481,
      "lat": 12.9598498,
      "lon": 77.7173096,
      "tags": {
        "leisure": "fitness_centre",
        "name": "Vera Yoga",
        "sport": "yoga"
      }
    },
    {
      "type": "node",
      "id": 9977407777,
      "lat": 12.959163,
      "lon": 77.7182265,
      "tags": {
        "name": "Magnolia",
        "phone": "+91 9916690209",
        "shop": "bakery"
      }
    },
    {
      "type": "node",
      "id": 9977574061,
      "lat": 12.9594039,
      "lon": 77.71718,
      "tags": {
        "shop": "supermarket",
        "wheelchair": "no"
      }
    },
    {
      "type": "node",
      "id": 9977574064,
      "lat": 12.9591403,
      "lon": 77.7189406,
      "tags": {
        "amenity": "fast_food",
        "name": "Bangarpet Chats"
      }
    },
    {
      "type": "node",
      "id": 9977771291,
      "lat": 12.9591054,
      "lon": 77.7197576,
      "tags": {
        "name": "Diamond Stationery",
        "shop": "stationery"
      }
    },
    {
      "type": "node",
      "id": 9977771293,
      "lat": 12.96005,
      "lon": 77.7172358,
      "tags": {
        "amenity": "e-stamp",
        "name": "Sri Skanda Enterprises;Sri Balaji Ladies PG",
        "shop": "copyshop",
        "tourism": "hostel"
      }
    },
    {
      "type": "node",
      "id": 9977771298,
      "lat": 12.9590664,
      "lon": 77.7221235,
      "tags": {
        "name": "Citizens Point",
        "shop": "motorcycle_repair"
      }
    },
    {
      "type": "node",
      "id": 9980205159,
      "lat": 12.9606461,
      "lon": 77.7179215,
      "tags": {
        "amenity": "music_school",
        "name": "Trishan School of Music",
        "website": "https://www.trishanschool.com/"
      }
    },
    {
      "type": "node",
      "id": 9980205160,
      "lat": 12.9594664,
      "lon": 77.7183037,
      "tags": {
        "name": "Apsara City Botique",
        "shop": "tailor"
      }
    },
    {
      "type": "node",
      "id": 9980205161,
      "lat": 12.9605563,
      "lon": 77.716857,
      "tags": {
        "name": "Zoom Mobile",
        "shop": "mobile_phone"
      }
    },
    {
      "type": "node",
      "id": 9980205162,
      "lat": 12.9605613,
      "lon": 77.7165984,
      "tags": {
        "amenity": "post_office",
        "brand": "Desk to Desk Courier & Cargo",
        "brand:short": "DTDC",
        "brand:wikidata": "Q55608802",
        "name": "DTDC",
        "operator": "Desk to Desk Courier & Cargo",
        "operator:short": "DTDC",
        "operator:wikidata": "Q55608802"
      }
    },
    {
      "type": "node",
      "id": 9980205163,
      "lat": 12.9605626,
      "lon": 77.7166395,
      "tags": {
        "name": "Srinivasa Laundry",
        "shop": "laundry"
      }
    },
    {
      "type": "node",
      "id": 9981114352,
      "lat": 12.9584017,
      "lon": 77.7188803,
      "tags": {
        "clothes": "women;wedding",
        "name": "Vyjayanti Arts Studio",
        "shop": "clothes"
      }
    },
    {
      "type": "node",
      "id": 9981114383,
      "lat": 12.9600968,
      "lon": 77.7185121,
      "tags": {
        "name": "S. V. Stores",
        "shop": "convenience"
      }
    },
    {
      "type": "node",
      "id": 10029197634,
      "lat": 12.958917,
      "lon": 77.71894,
      "tags": {
        "amenity": "fast_food",
        "name": "Ambur Hot Dum Biryani"
      }
    },
    {
      "type": "node",
      "id": 10046469624,
      "lat": 12.9556271,
      "lon": 77.7151774,
      "tags": {
        "name": "Brand Box",
        "phone": "08028475480",
        "shop": "laundry"
      }
    },
    {
      "type": "node",
      "id": 10049206551,
      "lat": 12.9566047,
      "lon": 77.7148895,
      "tags": {
        "name": "Wham!",
        "shop": "mobile_phone"
      }
    },
    {
      "type": "node",
      "id": 10049206552,
      "lat": 12.9566815,
      "lon": 77.7149137,
      "tags": {
        "amenity": "restaurant",
        "name": "Flavours of Andhra"
      }
    },
    {
      "type": "node",
      "id": 10049206553,
      "lat": 12.9593465,
      "lon": 77.7162306,
      "tags": {
        "amenity": "fast_food",
        "check_date": "2024-05-07",
        "name": "Mandya Gowdru Hotel"
      }
    },
    {
      "type": "node",
      "id": 10051271577,
      "lat": 12.9562803,
      "lon": 77.729345,
      "tags": {
        "amenity": "restaurant",
        "check_date": "2025-06-28",
        "name": "Kabab Genie"
      }
    },
    {
      "type": "node",
      "id": 10051271578,
      "lat": 12.9562585,
      "lon": 77.7296193,
      "tags": {
        "amenity": "ice_cream",
        "check_date": "2025-06-29",
        "indoor_seating": "yes",
        "name": "Apsara",
        "outdoor_seating": "no"
      }
    },
    {
      "type": "node",
      "id": 10051271587,
      "lat": 12.9557045,
      "lon": 77.7266148,
      "tags": {
        "name": "Tyres Xpress",
        "shop": "tyres"
      }
    },
    {
      "type": "node",
      "id": 10051271593,
      "lat": 12.9560473,
      "lon": 77.725739,
      "tags": {
        "check_date": "2025-03-27",
        "name": "Pawan Electricals and Lamps",
        "shop": "electrical"
      }
    },
    {
      "type": "node",
      "id": 10051271594,
      "lat": 12.9560405,
      "lon": 77.7259541,
      "tags": {
        "check_date": "2025-03-27",
        "name": "Fabric Spa",
        "shop": "laundry"
      }
    },
    {
      "type": "node",
      "id": 10051271595,
      "lat": 12.9560348,
      "lon": 77.7252677,
      "tags": {
        "check_date": "2025-03-27",
        "indoor_seating": "no",
        "name": "Mayura Bakery and Sweets",
        "outdoor_seating": "no",
        "shop": "bakery",
        "takeaway": "only"
      }
    },
    {
      "type": "node",
      "id": 10052847588,
      "lat": 12.9591633,
      "lon": 77.7181758,
      "tags": {
        "male": "yes",
        "name": "Macho Mens",
        "opening_hours": "Mo-Su 07:00-21:00",
        "shop": "hairdresser"
      }
    },
    {
      "type": "node",
      "id": 10059214636,
      "lat": 12.9567804,
      "lon": 77.7148696,
      "tags": {
        "amenity": "restaurant",
        "cuisine": "chinese",
        "name": "Chowman"
      }
    },
    {
      "type": "node",
      "id": 10084788446,
      "lat": 12.9617787,
      "lon": 77.7169176,
      "tags": {
        "check_date": "2023-11-04",
        "name": "Wheelie",
        "phone": "+91 99801 33609",
        "shop": "bicycle"
      }
    },
    {
      "type": "node",
      "id": 10092631068,
      "lat": 12.960411,
      "lon": 77.7183914,
      "tags": {
        "name": "SLV Xerox",
        "shop": "copyshop"
      }
    },
    {
      "type": "node",
      "id": 10111815185,
      "lat": 12.9560556,
      "lon": 77.7165947,
      "tags": {
        "amenity": "restaurant",
        "check_date": "2025-06-28",
        "indoor_seating": "yes",
        "level": "5",
        "name": "Dhaba Social",
        "outdoor_seating": "no"
      }
    },
    {
      "type": "node",
      "id": 10151991203,
      "lat": 12.955928,
      "lon": 77.7214242,
      "tags": {
        "amenity": "post_box",
        "drive_through": "no",
        "operator": "India Post",
        "operator:wikidata": "Q3519720"
      }
    },
    {
      "type": "node",
      "id": 10284845772,
      "lat": 12.9557519,
      "lon": 77.7281366,
      "tags": {
        "leisure": "fitness_centre",
        "name": "Rock's Gym"
      }
    },
    {
      "type": "node",
      "id": 10284845773,
      "lat": 12.9557697,
      "lon": 77.730186,
      "tags": {
        "addr:city": "Bengaluru",
        "addr:postcode": "560066",
        "amenity": "dentist",
        "email": "smayasdentocare@gmail.com",
        "healthcare": "dentist",
        "level": "1",
        "name": "Smaya's Dento Care",
        "opening_hours": "Mo-Su 10:00-20:00",
        "phone": "+91 9959759477",
        "website": "https://www.smayasdentocare.com/"
      }
    },
    {
      "type": "node",
      "id": 10540073651,
      "lat": 12.9560731,
      "lon": 77.7164372,
      "tags": {
        "addr:floor": "G",
        "addr:housename": "VMR Complex",
        "addr:street": "Varthur Road",
        "amenity": "bank",
        "branch": "Kundalahalli Gate",
        "brand": "Axis Bank",
        "brand:wikidata": "Q2003549",
        "check_date": "2025-10-04",
        "level": "0",
        "name": "Axis Bank",
        "operator": "Axis Bank",
        "operator:wikidata": "Q2003549"
      }
    },
    {
      "type": "node",
      "id": 10540073663,
      "lat": 12.9559668,
      "lon": 77.7176586,
      "tags": {
        "amenity": "fast_food",
        "name": "Chat Lane"
      }
    },
    {
      "type": "node",
      "id": 10540073664,
      "lat": 12.9559654,
      "lon": 77.7177081,
      "tags": {
        "amenity": "restaurant",
        "name": "Kolkata Biryani"
      }
    },
    {
      "type": "node",
      "id": 10540073669,
      "lat": 12.9555945,
      "lon": 77.7185117,
      "tags": {
        "amenity": "restaurant",
        "check_date": "2025-08-17",
        "cuisine": "indian;udupi",
        "diet:vegetarian": "only",
        "indoor_seating": "yes",
        "name": "Sri Udupi Veg",
        "outdoor_seating": "no",
        "self_service": "yes"
      }
    },
    {
      "type": "node",
      "id": 10540073670,
      "lat": 12.9556166,
      "lon": 77.7186914,
      "tags": {
        "name": "Sufyan Dates & Nuts",
        "shop": "greengrocer"
      }
    },
    {
      "type": "node",
      "id": 10550697164,
      "lat": 12.9588498,
      "lon": 77.7202575,
      "tags": {
        "amenity": "pharmacy",
        "healthcare": "pharmacy",
        "name": "Ganesh Medicals and General Store"
      }
    },
    {
      "type": "node",
      "id": 10550697165,
      "lat": 12.9589283,
      "lon": 77.7190398,
      "tags": {
        "name": "Milan Fancy & Gift Shop",
        "shop": "gift"
      }
    },
    {
      "type": "node",
      "id": 10550697166,
      "lat": 12.9591478,
      "lon": 77.7188467,
      "tags": {
        "amenity": "fast_food",
        "name": "Curries and PIckles"
      }
    },
    {
      "type": "node",
      "id": 10550697167,
      "lat": 12.9588786,
      "lon": 77.7184873,
      "tags": {
        "name": "Snip & Style Beauty Salon",
        "shop": "hairdresser"
      }
    },
    {
      "type": "node",
      "id": 10550697168,
      "lat": 12.9605567,
      "lon": 77.716688,
      "tags": {
        "amenity": "pharmacy",
        "healthcare": "pharmacy",
        "name": "Manish Medicals"
      }
    },
    {
      "type": "node",
      "id": 10550697169,
      "lat": 12.9605516,
      "lon": 77.7169138,
      "tags": {
        "amenity": "fast_food",
        "check_date": "2024-02-12",
        "cuisine": "juice",
        "name": "Nanda Food Center"
      }
    },
    {
      "type": "node",
      "id": 10550697170,
      "lat": 12.9604958,
      "lon": 77.7172455,
      "tags": {
        "amenity": "cafe",
        "check_date": "2023-10-30",
        "cuisine": "tea",
        "name": "Chai Venue",
        "takeaway": "only"
      }
    },
    {
      "type": "node",
      "id": 10550697171,
      "lat": 12.9604438,
      "lon": 77.7177919,
      "tags": {
        "check_date": "2025-03-16",
        "name": "Sakhi Botique",
        "shop": "tailor"
      }
    },
    {
      "type": "node",
      "id": 10550697172,
      "lat": 12.9605719,
      "lon": 77.7182511,
      "tags": {
        "name": "Matrix Hair and Beauty Salon",
        "shop": "hairdresser"
      }
    },
    {
      "type": "node",
      "id": 10569448422,
      "lat": 12.9555632,
      "lon": 77.7206676,
      "tags": {
        "clothes": "women",
        "name": "Atriante",
        "shop": "clothes"
      }
    },
    {
      "type": "node",
      "id": 10569448423,
      "lat": 12.9556136,
      "lon": 77.7202264,
      "tags": {
        "brand": "Hero",
        "brand:wikidata": "Q1613763",
        "name": "Shree Motors",
        "shop": "motorcycle"
      }
    },
    {
      "type": "node",
      "id": 10574674485,
      "lat": 12.9606488,
      "lon": 77.7202352,
      "tags": {
        "name": "Divas",
        "shop": "hairdresser"
      }
    },
    {
      "type": "node",
      "id": 10606091757,
      "lat": 12.961617,
      "lon": 77.7205123,
      "tags": {
        "email": "info@makcautomations.com",
        "name": "MAKc Automation and Solutions",
        "phone": "+91 7338504442",
        "shop": "lighting",
        "website": "https://makcautomations.com/"
      }
    },
    {
      "type": "node",
      "id": 10651101665,
      "lat": 12.9574758,
      "lon": 77.7195272,
      "tags": {
        "amenity": "bench",
        "backrest": "yes",
        "material": "concrete",
        "seats": "3"
      }
    },
    {
      "type": "node",
      "id": 10651101674,
      "lat": 12.9588832,
      "lon": 77.7192399,
      "tags": {
        "amenity": "kindergarten",
        "name": "Kangaroo Kids Preschool"
      }
    },
    {
      "type": "node",
      "id": 10651101676,
      "lat": 12.9591714,
      "lon": 77.7182546,
      "tags": {
        "name": "Upcycled Wonder",
        "shop": "craft",
        "website": "https://upcycledwonder.in"
      }
    },
    {
      "type": "node",
      "id": 10651602436,
      "lat": 12.9608058,
      "lon": 77.7201818,
      "tags": {
        "name": "Neelsmons Beauty and Hair Salon",
        "opening_hours": "Mo-Su 10:00-20:00",
        "phone": "+91 9739956902",
        "shop": "hairdresser"
      }
    },
    {
      "type": "node",
      "id": 10651602437,
      "lat": 12.9601208,
      "lon": 77.720208,
      "tags": {
        "name": "JBD Sweets and Savories",
        "shop": "bakery"
      }
    },
    {
      "type": "node",
      "id": 10651602438,
      "lat": 12.9605971,
      "lon": 77.7180123,
      "tags": {
        "clothes": "underwear",
        "name": "Mahadev Textiles",
        "shop": "clothes"
      }
    },
    {
      "type": "node",
      "id": 10651602439,
      "lat": 12.960426,
      "lon": 77.7179478,
      "tags": {
        "name": "Rex Cafe",
        "shop": "general"
      }
    },
    {
      "type": "node",
      "id": 10651602442,
      "lat": 12.9603654,
      "lon": 77.7204849,
      "tags": {
        "amenity": "driving_school",
        "name": "Drivekool"
      }
    },
    {
      "type": "node",
      "id": 10651602443,
      "lat": 12.959086,
      "lon": 77.7204888,
      "tags": {
        "name": "Line Touch LLP",
        "shop": "mobile_phone"
      }
    },
    {
      "type": "node",
      "id": 10676221168,
      "lat": 12.9556822,
      "lon": 77.7125439,
      "tags": {
        "brand": "Zudio",
        "brand:wikidata": "Q123375926",
        "check_date": "2025-09-03",
        "name": "Zudio",
        "shop": "clothes"
      }
    },
    {
      "type": "node",
      "id": 10676226620,
      "lat": 12.9587793,
      "lon": 77.7200019,
      "tags": {
        "amenity": "doctors",
        "check_date:opening_hours": "2023-09-22",
        "healthcare": "doctor",
        "healthcare:speciality": "dermatology",
        "name": "Dr. Raj's",
        "opening_hours:signed": "no",
        "phone": "+91 9606230460",
        "website": "http://www.drrajskin.in/"
      }
    },
    {
      "type": "node",
      "id": 10676226622,
      "lat": 12.9591645,
      "lon": 77.7221034,
      "tags": {
        "air_conditioning": "yes",
        "male": "yes",
        "name": "Modern Men's AC Salon",
        "shop": "hairdresser"
      }
    },
    {
      "type": "node",
      "id": 10678401073,
      "lat": 12.9592199,
      "lon": 77.7198491,
      "tags": {
        "amenity": "cafe",
        "cuisine": "ice_cream;sandwich",
        "name": "Pluto Ice Creams & Sandwiches"
      }
    },
    {
      "type": "node",
      "id": 10699991483,
      "lat": 12.957262,
      "lon": 77.7218164,
      "tags": {
        "amenity": "car_wash",
        "automated": "no",
        "name": "Pay n Spray",
        "self_service": "no"
      }
    },
    {
      "type": "node",
      "id": 10716013983,
      "lat": 12.9602026,
      "lon": 77.7172218,
      "tags": {
        "name": "Bani Thani",
        "shop": "tailor"
      }
    },
    {
      "type": "node",
      "id": 10760918381,
      "lat": 12.9560749,
      "lon": 77.7216065,
      "tags": {
        "amenity": "bank",
        "brand": "IDFC First Bank",
        "brand:wikidata": "Q22031467",
        "check_date": "2025-09-27",
        "name": "IDFC First Bank",
        "operator": "IDFC First Bank"
      }
    },
    {
      "type": "node",
      "id": 10760918385,
      "lat": 12.9592212,
      "lon": 77.7182084,
      "tags": {
        "amenity": "fast_food",
        "name": "Jawari Roti Mane"
      }
    },
    {
      "type": "node",
      "id": 10814735741,
      "lat": 12.955567,
      "lon": 77.7188744,
      "tags": {
        "amenity": "ice_cream",
        "indoor_seating": "yes",
        "name": "Giani",
        "outdoor_seating": "no"
      }
    },
    {
      "type": "node",
      "id": 10814735749,
      "lat": 12.9602198,
      "lon": 77.7185351,
      "tags": {
        "name": "Mobile Corner",
        "shop": "mobile_phone"
      }
    },
    {
      "type": "node",
      "id": 10814735750,
      "lat": 12.9610719,
      "lon": 77.7198011,
      "tags": {
        "amenity": "fast_food",
        "name": "Flavours"
      }
    },
    {
      "type": "node",
      "id": 10820700295,
      "lat": 12.9601121,
      "lon": 77.7161352,
      "tags": {
        "addr:city": "Bengaluru",
        "addr:housenumber": "ASK Tower",
        "addr:postcode": "560037",
        "addr:street": "I T P L Main Road",
        "amenity": "restaurant",
        "brand": "Empire",
        "cuisine": "indian",
        "delivery": "yes",
        "indoor_seating": "yes",
        "name": "Empire",
        "outdoor_seating": "yes",
        "phone": "+918040414141",
        "takeaway": "yes",
        "website": "https://www.hotelempire.in/"
      }
    },
    {
      "type": "node",
      "id": 10894000216,
      "lat": 12.9556389,
      "lon": 77.7155296,
      "tags": {
        "name": "Hosa Gadi",
        "shop": "motorcycle"
      }
    },
    {
      "type": "node",
      "id": 10894000217,
      "lat": 12.9556428,
      "lon": 77.7154894,
      "tags": {
        "amenity": "cafe",
        "level": "1",
        "name": "Chai Stories"
      }
    },
    {
      "type": "node",
      "id": 10894000280,
      "lat": 12.9496804,
      "lon": 77.7154773,
      "tags": {
        "name": "Pepper Leaf",
        "shop": "furniture"
      }
    },
    {
      "type": "node",
      "id": 10894030132,
      "lat": 12.9516788,
      "lon": 77.7173944,
      "tags": {
        "amenity": "pharmacy",
        "healthcare": "pharmacy",
        "name": "Rana Ramdev Medicals"
      }
    },
    {
      "type": "node",
      "id": 11074666914,
      "lat": 12.9612736,
      "lon": 77.7154735,
      "tags": {
        "name": "Purity Paryag",
        "shop": "greengrocer"
      }
    },
    {
      "type": "node",
      "id": 11077220070,
      "lat": 12.9594806,
      "lon": 77.7171768,
      "tags": {
        "addr:street": "1st Cross Road",
        "name": "Family Fruits and Vegetables",
        "shop": "greengrocer",
        "wheelchair": "no"
      }
    },
    {
      "type": "node",
      "id": 11078702995,
      "lat": 12.9555509,
      "lon": 77.7203145,
      "tags": {
        "name": "Hair Glimmer Studio",
        "shop": "hairdresser"
      }
    },
    {
      "type": "node",
      "id": 11078702996,
      "lat": 12.955605,
      "lon": 77.7203081,
      "tags": {
        "name": "Jai Plywoods",
        "shop": "hardware"
      }
    },
    {
      "type": "node",
      "id": 11078702997,
      "lat": 12.9555925,
      "lon": 77.7203102,
      "tags": {
        "name": "Vijayalakshmi Hardware",
        "shop": "hardware"
      }
    },
    {
      "type": "node",
      "id": 11078702998,
      "lat": 12.9555717,
      "lon": 77.7200867,
      "tags": {
        "amenity": "dentist",
        "healthcare": "dentist",
        "name": "Blossoms Dental Clinic"
      }
    },
    {
      "type": "node",
      "id": 11078702999,
      "lat": 12.9555415,
      "lon": 77.7200825,
      "tags": {
        "name": "Blossoms Dental",
        "shop": "copyshop"
      }
    },
    {
      "type": "node",
      "id": 11078703000,
      "lat": 12.955628,
      "lon": 77.7200664,
      "tags": {
        "amenity": "pharmacy",
        "brand": "MedPlus",
        "brand:wikidata": "Q65684234",
        "healthcare": "pharmacy",
        "name": "MedPlus"
      }
    },
    {
      "type": "node",
      "id": 11177303844,
      "lat": 12.9560453,
      "lon": 77.7216245,
      "tags": {
        "amenity": "parking_entrance",
        "parking": "underground"
      }
    },
    {
      "type": "node",
      "id": 11192491325,
      "lat": 12.9608263,
      "lon": 77.7161067,
      "tags": {
        "amenity": "fast_food",
        "check_date": "2023-09-15",
        "name": "Kapoor's Chaat Bhandaar"
      }
    },
    {
      "type": "node",
      "id": 11192491328,
      "lat": 12.960682,
      "lon": 77.7155172,
      "tags": {
        "amenity": "fast_food",
        "check_date": "2023-09-15",
        "name": "Indoori Junction"
      }
    },
    {
      "type": "node",
      "id": 11193554728,
      "lat": 12.959352,
      "lon": 77.7184653,
      "tags": {
        "name": "Sri Lakshmi",
        "shop": "convenience"
      }
    },
    {
      "type": "node",
      "id": 11197046336,
      "lat": 12.9561944,
      "lon": 77.7276653,
      "tags": {
        "amenity": "clock",
        "display": "analog",
        "support": "pole",
        "visibility": "street"
      }
    },
    {
      "type": "node",
      "id": 11197082951,
      "lat": 12.956793,
      "lon": 77.7292116,
      "tags": {
        "amenity": "parking_entrance",
        "parking": "underground"
      }
    },
    {
      "type": "node",
      "id": 11197082957,
      "lat": 12.9565054,
      "lon": 77.7291539,
      "tags": {
        "amenity": "parking_entrance",
        "parking": "underground"
      }
    },
    {
      "type": "node",
      "id": 11197491845,
      "lat": 12.9637197,
      "lon": 77.7213455,
      "tags": {
        "amenity": "parking_entrance",
        "parking": "underground"
      }
    },
    {
      "type": "node",
      "id": 11197491861,
      "lat": 12.9631444,
      "lon": 77.7221916,
      "tags": {
        "amenity": "parking_entrance",
        "parking": "underground"
      }
    },
    {
      "type": "node",
      "id": 11197491864,
      "lat": 12.9627134,
      "lon": 77.7212141,
      "tags": {
        "amenity": "parking_entrance",
        "parking": "underground"
      }
    },
    {
      "type": "node",
      "id": 11197877906,
      "lat": 12.9570165,
      "lon": 77.7187161,
      "tags": {
        "amenity": "parking_entrance",
        "parking": "underground"
      }
    },
    {
      "type": "node",
      "id": 11197877916,
      "lat": 12.9564813,
      "lon": 77.7185062,
      "tags": {
        "amenity": "parking_entrance",
        "parking": "underground"
      }
    },
    {
      "type": "node",
      "id": 11197877917,
      "lat": 12.9564506,
      "lon": 77.7185035,
      "tags": {
        "amenity": "parking_entrance",
        "parking": "underground"
      }
    },
    {
      "type": "node",
      "id": 11197977746,
      "lat": 12.9567034,
      "lon": 77.7175795,
      "tags": {
        "amenity": "parking_entrance",
        "parking": "underground"
      }
    },
    {
      "type": "node",
      "id": 11197977747,
      "lat": 12.9565113,
      "lon": 77.7171645,
      "tags": {
        "amenity": "parking_entrance",
        "parking": "underground"
      }
    },
    {
      "type": "node",
      "id": 11209525663,
      "lat": 12.9589518,
      "lon": 77.7179132,
      "tags": {
        "amenity": "dentist",
        "check_date": "2023-09-22",
        "healthcare": "dentist",
        "name": "Smiles On",
        "phone": "+91 97380 18755"
      }
    },
    {
      "type": "node",
      "id": 11209525664,
      "lat": 12.9588803,
      "lon": 77.7196135,
      "tags": {
        "amenity": "restaurant",
        "check_date": "2023-09-22",
        "name": "Puliyogre Point"
      }
    },
    {
      "type": "node",
      "id": 11219295677,
      "lat": 12.9514073,
      "lon": 77.7155749,
      "tags": {
        "amenity": "fast_food",
        "cuisine": "indian",
        "diet:vegetarian": "yes",
        "name": "Ladoos"
      }
    },
    {
      "type": "node",
      "id": 11285171250,
      "lat": 12.9543092,
      "lon": 77.7175737,
      "tags": {
        "amenity": "fast_food",
        "brand": "Domino's",
        "brand:wikidata": "Q839466",
        "check_date": "2023-10-24",
        "cuisine": "pizza",
        "name": "Domino's",
        "name:kn": "ಡಾಮಿನೋಸ್",
        "takeaway": "yes"
      }
    },
    {
      "type": "node",
      "id": 11285171251,
      "lat": 12.9541196,
      "lon": 77.7175775,
      "tags": {
        "amenity": "fast_food",
        "check_date": "2023-10-24",
        "name": "Crave Waves"
      }
    },
    {
      "type": "node",
      "id": 11285171252,
      "lat": 12.9540025,
      "lon": 77.7175756,
      "tags": {
        "check_date": "2023-10-24",
        "name": "Jawed Habib",
        "shop": "hairdresser"
      }
    },
    {
      "type": "node",
      "id": 11285171253,
      "lat": 12.9540395,
      "lon": 77.7175462,
      "tags": {
        "check_date": "2023-10-24",
        "clothes": "underwear",
        "name": "Van Heusen",
        "shop": "clothes"
      }
    },
    {
      "type": "node",
      "id": 11308977986,
      "lat": 12.9606217,
      "lon": 77.7150048,
      "tags": {
        "amenity": "fast_food",
        "check_date": "2023-11-03",
        "name": "Sindh Punjab"
      }
    },
    {
      "type": "node",
      "id": 11308977988,
      "lat": 12.9605852,
      "lon": 77.7146395,
      "tags": {
        "check_date": "2023-11-03",
        "name": "Midas Bites",
        "shop": "bakery"
      }
    },
    {
      "type": "node",
      "id": 11308977989,
      "lat": 12.9605938,
      "lon": 77.7146898,
      "tags": {
        "amenity": "fast_food",
        "check_date": "2023-11-03",
        "name": "Midas Fresh"
      }
    },
    {
      "type": "node",
      "id": 11313855108,
      "lat": 12.9624568,
      "lon": 77.7167158,
      "tags": {
        "amenity": "parking_entrance",
        "parking": "underground"
      }
    },
    {
      "type": "node",
      "id": 11313855113,
      "lat": 12.962564,
      "lon": 77.7167581,
      "tags": {
        "amenity": "parking_entrance",
        "parking": "underground"
      }
    },
    {
      "type": "node",
      "id": 11313893183,
      "lat": 12.9565029,
      "lon": 77.7218263,
      "tags": {
        "amenity": "parking_entrance",
        "parking": "underground"
      }
    },
    {
      "type": "node",
      "id": 11421651324,
      "lat": 12.9591319,
      "lon": 77.7190036,
      "tags": {
        "amenity": "fast_food",
        "check_date": "2023-12-15",
        "cuisine": "juice",
        "name": "Sri Manjunatha Sugarcane"
      }
    },
    {
      "type": "node",
      "id": 11428052187,
      "lat": 12.9539412,
      "lon": 77.7178699,
      "tags": {
        "name": "Fresh Green",
        "shop": "greengrocer"
      }
    },
    {
      "type": "node",
      "id": 11428052188,
      "lat": 12.9539425,
      "lon": 77.717831,
      "tags": {
        "amenity": "cafe",
        "name": "Teaday"
      }
    },
    {
      "type": "node",
      "id": 11428052196,
      "lat": 12.9545698,
      "lon": 77.7179161,
      "tags": {
        "access": "private",
        "amenity": "parking_entrance",
        "parking": "underground"
      }
    },
    {
      "type": "node",
      "id": 11521286949,
      "lat": 12.947564,
      "lon": 77.7176206,
      "tags": {
        "access": "private",
        "amenity": "parking_entrance",
        "parking": "underground"
      }
    },
    {
      "type": "node",
      "id": 11521289842,
      "lat": 12.9491261,
      "lon": 77.717527,
      "tags": {
        "access": "private",
        "amenity": "parking_entrance",
        "parking": "underground"
      }
    },
    {
      "type": "node",
      "id": 11612699443,
      "lat": 12.9604798,
      "lon": 77.7194142,
      "tags": {
        "amenity": "cafe",
        "check_date": "2024-02-12",
        "indoor_seating": "yes",
        "name": "Baithak The Kitchen",
        "outdoor_seating": "no"
      }
    },
    {
      "type": "node",
      "id": 11612699444,
      "lat": 12.9605867,
      "lon": 77.7181125,
      "tags": {
        "amenity": "fast_food",
        "check_date": "2024-02-12",
        "cuisine": "juice",
        "name": "Juice Land"
      }
    },
    {
      "type": "node",
      "id": 11612699445,
      "lat": 12.960575,
      "lon": 77.7181435,
      "tags": {
        "check_date": "2024-02-12",
        "name": "Great White",
        "shop": "lighting"
      }
    },
    {
      "type": "node",
      "id": 11621681374,
      "lat": 12.9566646,
      "lon": 77.7148148,
      "tags": {
        "amenity": "fast_food",
        "check_date": "2024-02-14",
        "drive_through": "no",
        "name": "Sharief Bhai's"
      }
    },
    {
      "type": "node",
      "id": 11684036783,
      "lat": 12.9588501,
      "lon": 77.7161351,
      "tags": {
        "amenity": "cafe",
        "brand": "Starbucks",
        "brand:wikidata": "Q37158",
        "cuisine": "coffee_shop",
        "name": "Starbucks",
        "official_name": "Starbucks Coffee",
        "takeaway": "yes"
      }
    },
    {
      "type": "node",
      "id": 11701441603,
      "lat": 12.9597923,
      "lon": 77.7160524,
      "tags": {
        "amenity": "restaurant",
        "indoor_seating": "no",
        "name": "Desi Masala",
        "outdoor_seating": "no",
        "takeaway": "only"
      }
    },
    {
      "type": "node",
      "id": 11734831545,
      "lat": 12.9543888,
      "lon": 77.7209752,
      "tags": {
        "name": "Life Auto Center",
        "repair": "yes",
        "shop": "motorcycle"
      }
    },
    {
      "type": "node",
      "id": 11734831552,
      "lat": 12.9544561,
      "lon": 77.7209752,
      "tags": {
        "amenity": "fast_food",
        "name": "Bihari Chicken Wala",
        "phone": "+91 9606401587"
      }
    },
    {
      "type": "node",
      "id": 11734847570,
      "lat": 12.9546025,
      "lon": 77.7209806,
      "tags": {
        "name": "Om Shakti Store",
        "shop": "convenience"
      }
    },
    {
      "type": "node",
      "id": 11734847572,
      "lat": 12.9549096,
      "lon": 77.721061,
      "tags": {
        "amenity": "clinic",
        "name": "Cosmo Clinic and Diagnostic Centre",
        "opening_hours": "Mo-Sa 10:00-13:00,17:00-19:00",
        "phone": "+91 9845860225"
      }
    },
    {
      "type": "node",
      "id": 11734847591,
      "lat": 12.9549384,
      "lon": 77.720939,
      "tags": {
        "name": "S L N Store",
        "shop": "convenience"
      }
    },
    {
      "type": "node",
      "id": 11734847600,
      "lat": 12.9550305,
      "lon": 77.7210436,
      "tags": {
        "name": "Sagar Mobile",
        "phone": "+91 7367995501",
        "shop": "mobile_phone"
      }
    },
    {
      "type": "node",
      "id": 11734847601,
      "lat": 12.9550717,
      "lon": 77.7210443,
      "tags": {
        "name": "Shree Naganeshi Maa Toys & Novelty",
        "shop": "toys"
      }
    },
    {
      "type": "node",
      "id": 11734847605,
      "lat": 12.9551429,
      "lon": 77.7209316,
      "tags": {
        "name": "Manjula Milk Agency",
        "shop": "dairy"
      }
    },
    {
      "type": "node",
      "id": 11734847625,
      "lat": 12.9553004,
      "lon": 77.7209048,
      "tags": {
        "name": "S L Fruits & Vegetables",
        "phone": "+91 99728557712",
        "shop": "greengrocer"
      }
    },
    {
      "type": "node",
      "id": 11734847626,
      "lat": 12.9553436,
      "lon": 77.7209014,
      "tags": {
        "amenity": "clinic",
        "name": "Ashwini Clinic",
        "name:kn": "ಅಶ್ವಿನಿ ಚಿಕಿತ್ಸಾಲಯ"
      }
    },
    {
      "type": "node",
      "id": 11734847627,
      "lat": 12.9553775,
      "lon": 77.7208994,
      "tags": {
        "amenity": "pharmacy",
        "name": "Amrutha Medicals",
        "name:kn": "ಅಮೃತ ಮೆಡಿಕಲ್ಸ್",
        "shop": "medical_supply"
      }
    },
    {
      "type": "node",
      "id": 11734847628,
      "lat": 12.955454,
      "lon": 77.7209202,
      "tags": {
        "name": "Raza Traders",
        "phone": "+91 8970290607",
        "shop": "supermarket"
      }
    },
    {
      "type": "node",
      "id": 11736162281,
      "lat": 12.950611,
      "lon": 77.7220816,
      "tags": {
        "mobile": "+91 7848089950",
        "name": "Royalty Fashion Botique",
        "shop": "boutique"
      }
    },
    {
      "type": "node",
      "id": 11736162306,
      "lat": 12.9518239,
      "lon": 77.7219649,
      "tags": {
        "name": "Maa Gayatri Veriety Store",
        "shop": "convenience"
      }
    },
    {
      "type": "node",
      "id": 11736162307,
      "lat": 12.9517749,
      "lon": 77.721969,
      "tags": {
        "name": "S. V. K. Boutique",
        "shop": "boutique"
      }
    },
    {
      "type": "node",
      "id": 11736162308,
      "lat": 12.9517494,
      "lon": 77.7219696,
      "tags": {
        "amenity": "fast_food",
        "name": "Maa Gayatri Roti Tadaka"
      }
    },
    {
      "type": "node",
      "id": 11736162356,
      "lat": 12.9523271,
      "lon": 77.7221292,
      "tags": {
        "access": "private",
        "amenity": "parking_entrance",
        "parking": "underground"
      }
    },
    {
      "type": "node",
      "id": 11736162361,
      "lat": 12.9533922,
      "lon": 77.7220957,
      "tags": {
        "access": "private",
        "amenity": "parking_entrance",
        "parking": "underground"
      }
    },
    {
      "type": "node",
      "id": 11736162390,
      "lat": 12.9535713,
      "lon": 77.7208592,
      "tags": {
        "name": "The Quick Laundry Point",
        "shop": "laundry"
      }
    },
    {
      "type": "node",
      "id": 11736162391,
      "lat": 12.9535308,
      "lon": 77.7208485,
      "tags": {
        "male": "yes",
        "name": "Lakshmi Mens Salon",
        "shop": "hairdresser"
      }
    },
    {
      "type": "node",
      "id": 11736162405,
      "lat": 12.953619,
      "lon": 77.7210905,
      "tags": {
        "name": "My Karnataka Home Appliances",
        "phone": "+91 8050509160",
        "shop": "kitchen"
      }
    },
    {
      "type": "node",
      "id": 11736162406,
      "lat": 12.9536745,
      "lon": 77.7210959,
      "tags": {
        "name": "Sri Venkateshwara Laundry",
        "phone": "+91 9731808903",
        "shop": "laundry"
      }
    },
    {
      "type": "node",
      "id": 11736162409,
      "lat": 12.9538569,
      "lon": 77.7210771,
      "tags": {
        "name": "Arya Bake's",
        "shop": "bakery"
      }
    },
    {
      "type": "node",
      "id": 11736162414,
      "lat": 12.9540967,
      "lon": 77.7210698,
      "tags": {
        "name": "Rajasthani Sweets",
        "shop": "confectionery"
      }
    },
    {
      "type": "node",
      "id": 11736162415,
      "lat": 12.9539993,
      "lon": 77.7209651,
      "tags": {
        "name": "Thahaveer",
        "shop": "butcher"
      }
    },
    {
      "type": "node",
      "id": 11736162419,
      "lat": 12.9541568,
      "lon": 77.7210711,
      "tags": {
        "addr:housenumber": "117",
        "amenity": "pharmacy",
        "name": "Sri Veer Teja Medical & Generalist Store",
        "phone": "+91 8302284646"
      }
    },
    {
      "type": "node",
      "id": 11736403568,
      "lat": 12.9469383,
      "lon": 77.7222607,
      "tags": {
        "name": "Gowtham General Store",
        "shop": "convenience"
      }
    },
    {
      "type": "node",
      "id": 11736419369,
      "lat": 12.9469501,
      "lon": 77.7222995,
      "tags": {
        "name": "Tip Top Mens Salon",
        "shop": "hairdresser"
      }
    },
    {
      "type": "node",
      "id": 11736419370,
      "lat": 12.9469618,
      "lon": 77.7223532,
      "tags": {
        "amenity": "pharmacy",
        "name": "Nakkshatra Pharma"
      }
    },
    {
      "type": "node",
      "id": 11736419371,
      "lat": 12.9469762,
      "lon": 77.722384,
      "tags": {
        "amenity": "clinic",
        "name": "Nakkshatra Clinic"
      }
    },
    {
      "type": "node",
      "id": 11736419386,
      "lat": 12.9471755,
      "lon": 77.7223988,
      "tags": {
        "name": "Fresh Bismillah",
        "shop": "butcher"
      }
    },
    {
      "type": "node",
      "id": 11736419387,
      "lat": 12.947103,
      "lon": 77.7224028,
      "tags": {
        "name": "Sri Vinayaka Old Paper Scrap Shop",
        "shop": "scrap"
      }
    },
    {
      "type": "node",
      "id": 11738548025,
      "lat": 12.9557376,
      "lon": 77.7147202,
      "tags": {
        "amenity": "post_box",
        "operator": "India Post",
        "operator:wikidata": "Q3519720"
      }
    },
    {
      "type": "node",
      "id": 11738557021,
      "lat": 12.9584688,
      "lon": 77.7155513,
      "tags": {
        "amenity": "bank",
        "atm": "yes",
        "brand": "Equitas Small Finance Bank",
        "brand:wikidata": "Q29467249",
        "check_date": "2024-03-17",
        "name": "Equitas Small Finance Bank"
      }
    },
    {
      "type": "node",
      "id": 11738576634,
      "lat": 12.9608055,
      "lon": 77.715968,
      "tags": {
        "amenity": "cafe",
        "check_date": "2024-03-17",
        "name": "Grill Smith"
      }
    },
    {
      "type": "node",
      "id": 11740252631,
      "lat": 12.9556583,
      "lon": 77.7213322,
      "tags": {
        "amenity": "post_office",
        "brand": "Desk to Desk Courier & Cargo",
        "brand:short": "DTDC",
        "brand:wikidata": "Q55608802",
        "check_date": "2024-03-18",
        "operator": "Desk to Desk Courier & Cargo",
        "operator:short": "DTDC",
        "operator:wikidata": "Q55608802"
      }
    },
    {
      "type": "node",
      "id": 11740374722,
      "lat": 12.9584902,
      "lon": 77.7156514,
      "tags": {
        "access": "customers",
        "amenity": "parking_entrance",
        "parking": "underground"
      }
    },
    {
      "type": "node",
      "id": 11818132206,
      "lat": 12.9470569,
      "lon": 77.7181742,
      "tags": {
        "amenity": "restaurant",
        "name": "Udupi Grand"
      }
    },
    {
      "type": "node",
      "id": 11818132207,
      "lat": 12.947094,
      "lon": 77.7181977,
      "tags": {
        "leisure": "fitness_centre",
        "name": "Falcon Fitness"
      }
    },
    {
      "type": "node",
      "id": 11818132221,
      "lat": 12.9511385,
      "lon": 77.7174902,
      "tags": {
        "check_date": "2025-09-07",
        "name": "Mayur Fashion & Novelty",
        "shop": "gift"
      }
    },
    {
      "type": "node",
      "id": 11818132233,
      "lat": 12.9513581,
      "lon": 77.7174326,
      "tags": {
        "amenity": "cafe",
        "name": "F Square Cafe"
      }
    },
    {
      "type": "node",
      "id": 11818132242,
      "lat": 12.9514973,
      "lon": 77.7174226,
      "tags": {
        "check_date": "2025-09-07",
        "name": "Highland Supermarket",
        "shop": "supermarket"
      }
    },
    {
      "type": "node",
      "id": 11818132243,
      "lat": 12.9517762,
      "lon": 77.7173751,
      "tags": {
        "name": "Bangalore Horticulture",
        "shop": "greengrocer"
      }
    },
    {
      "type": "node",
      "id": 11818132244,
      "lat": 12.9521023,
      "lon": 77.717395,
      "tags": {
        "check_date": "2025-09-07",
        "name": "My Phone",
        "shop": "mobile_phone"
      }
    },
    {
      "type": "node",
      "id": 11818132259,
      "lat": 12.9539775,
      "lon": 77.7175446,
      "tags": {
        "brand": "Lenskart",
        "brand:wikidata": "Q17068753",
        "name": "Lenskart",
        "shop": "optician"
      }
    },
    {
      "type": "node",
      "id": 11818142869,
      "lat": 12.953912,
      "lon": 77.7182615,
      "tags": {
        "amenity": "cafe",
        "name": "Teaday"
      }
    },
    {
      "type": "node",
      "id": 11818142870,
      "lat": 12.9539108,
      "lon": 77.7183101,
      "tags": {
        "name": "Daily Mart",
        "shop": "greengrocer"
      }
    },
    {
      "type": "node",
      "id": 11818142873,
      "lat": 12.9537025,
      "lon": 77.7195663,
      "tags": {
        "amenity": "parking_entrance",
        "parking": "underground"
      }
    },
    {
      "type": "node",
      "id": 11818181222,
      "lat": 12.9501311,
      "lon": 77.7182014,
      "tags": {
        "access": "private",
        "amenity": "parking_entrance",
        "parking": "underground"
      }
    },
    {
      "type": "node",
      "id": 11818189266,
      "lat": 12.950922,
      "lon": 77.7181015,
      "tags": {
        "access": "private",
        "amenity": "parking_entrance",
        "parking": "underground"
      }
    },
    {
      "type": "node",
      "id": 11818213865,
      "lat": 12.9498617,
      "lon": 77.7190701,
      "tags": {
        "access": "private",
        "amenity": "parking_entrance",
        "parking": "underground"
      }
    },
    {
      "type": "node",
      "id": 11866830596,
      "lat": 12.9590452,
      "lon": 77.7175099,
      "tags": {
        "access": "customers",
        "amenity": "parking_entrance",
        "parking": "underground"
      }
    },
    {
      "type": "node",
      "id": 11887025470,
      "lat": 12.9573855,
      "lon": 77.7155825,
      "tags": {
        "amenity": "fast_food",
        "check_date": "2024-05-07",
        "cuisine": "juice",
        "name": "Cool Land"
      }
    },
    {
      "type": "node",
      "id": 11933299454,
      "lat": 12.9591794,
      "lon": 77.7178613,
      "tags": {
        "amenity": "parking_entrance",
        "parking": "underground"
      }
    },
    {
      "type": "node",
      "id": 11998838055,
      "lat": 12.9515867,
      "lon": 77.7155866,
      "tags": {
        "amenity": "restaurant",
        "name": "Asha Tiffins",
        "wheelchair": "no"
      }
    },
    {
      "type": "node",
      "id": 12050437104,
      "lat": 12.9607921,
      "lon": 77.7145103,
      "tags": {
        "check_date": "2024-07-13",
        "name": "Nice Cut Mens Salon",
        "phone": "+91 98456 62273",
        "shop": "hairdresser"
      }
    },
    {
      "type": "node",
      "id": 12050446747,
      "lat": 12.9605747,
      "lon": 77.7145265,
      "tags": {
        "amenity": "internet_cafe",
        "check_date": "2024-07-13",
        "name": "Cyber Joint"
      }
    },
    {
      "type": "node",
      "id": 12050460785,
      "lat": 12.9607015,
      "lon": 77.7145185,
      "tags": {
        "check_date": "2024-07-13",
        "name": "Midas Fresh",
        "shop": "bakery"
      }
    },
    {
      "type": "node",
      "id": 12050499481,
      "lat": 12.961768,
      "lon": 77.7168971,
      "tags": {
        "amenity": "restaurant",
        "check_date": "2025-09-03",
        "name": "Thalassery Cafe"
      }
    },
    {
      "type": "node",
      "id": 12050499482,
      "lat": 12.961805,
      "lon": 77.7168978,
      "tags": {
        "check_date": "2024-07-13",
        "shop": "mobile_phone"
      }
    },
    {
      "type": "node",
      "id": 12050499483,
      "lat": 12.9625654,
      "lon": 77.7171063,
      "tags": {
        "check_date": "2024-07-13",
        "name": "Delhi 6 Mattress World",
        "shop": "bed"
      }
    },
    {
      "type": "node",
      "id": 12050499485,
      "lat": 12.9627258,
      "lon": 77.7173585,
      "tags": {
        "check_date": "2024-07-13",
        "name": "Yonex",
        "shop": "sports"
      }
    },
    {
      "type": "node",
      "id": 12050499487,
      "lat": 12.9627627,
      "lon": 77.7173725,
      "tags": {
        "check_date": "2024-07-13",
        "name": "Rx Vision",
        "shop": "optician"
      }
    },
    {
      "type": "node",
      "id": 12050499488,
      "lat": 12.9624739,
      "lon": 77.7171,
      "tags": {
        "check_date": "2024-07-13",
        "shop": "garden_centre"
      }
    },
    {
      "type": "node",
      "id": 12050499489,
      "lat": 12.9626858,
      "lon": 77.7173611,
      "tags": {
        "check_date": "2024-07-13",
        "leisure": "fitness_centre"
      }
    },
    {
      "type": "node",
      "id": 12050533223,
      "lat": 12.9623415,
      "lon": 77.716613,
      "tags": {
        "amenity": "spa",
        "check_date": "2024-07-13",
        "name": "The Capital International Spa"
      }
    },
    {
      "type": "node",
      "id": 12050535773,
      "lat": 12.9624578,
      "lon": 77.7166665,
      "tags": {
        "amenity": "restaurant",
        "check_date": "2024-07-13",
        "cuisine": "barbecue",
        "name": "Kebarbiq"
      }
    },
    {
      "type": "node",
      "id": 12136201085,
      "lat": 12.9563867,
      "lon": 77.7168678,
      "tags": {
        "addr:housenumber": "5/2",
        "addr:street": "Varthur Road",
        "check_date": "2025-09-20",
        "contact:phone": "+91 98869 27151",
        "level": "1",
        "name": "Bakingo",
        "shop": "pastry",
        "takeaway": "only"
      }
    },
    {
      "type": "node",
      "id": 12145301110,
      "lat": 12.9623762,
      "lon": 77.7165261,
      "tags": {
        "amenity": "restaurant",
        "name": "The Bench"
      }
    },
    {
      "type": "node",
      "id": 12199610193,
      "lat": 12.959992,
      "lon": 77.7239828,
      "tags": {
        "amenity": "childcare",
        "name": "Sri Sri Academy Daycare"
      }
    },
    {
      "type": "node",
      "id": 12213897957,
      "lat": 12.9560341,
      "lon": 77.7171016,
      "tags": {
        "check_date": "2025-09-14",
        "name": "Tussker",
        "shop": "kitchen",
        "website": "www.tusskerkitchens.in"
      }
    },
    {
      "type": "node",
      "id": 12214018439,
      "lat": 12.9563199,
      "lon": 77.71481,
      "tags": {
        "amenity": "cafe",
        "name": "Mr biriyani"
      }
    },
    {
      "type": "node",
      "id": 12237245975,
      "lat": 12.9602548,
      "lon": 77.7213856,
      "tags": {
        "amenity": "pharmacy",
        "healthcare": "pharmacy",
        "name": "Dalvkot"
      }
    },
    {
      "type": "node",
      "id": 12248581694,
      "lat": 12.9555958,
      "lon": 77.7198894,
      "tags": {
        "amenity": "restaurant",
        "check_date": "2024-10-13",
        "name": "Lots Of Litti"
      }
    },
    {
      "type": "node",
      "id": 12258194385,
      "lat": 12.9577928,
      "lon": 77.721834,
      "tags": {
        "addr:floor": "G",
        "addr:housenumber": "627",
        "addr:street": "17th Cross Road",
        "amenity": "e-stamp",
        "check_date": "2025-11-21",
        "internet_access": "no",
        "level": "0",
        "name": "Ayanka Enterprises",
        "phone": "+91 87921 23548",
        "shop": "copyshop",
        "wheelchair": "yes"
      }
    },
    {
      "type": "node",
      "id": 12277915320,
      "lat": 12.9561417,
      "lon": 77.7215418,
      "tags": {
        "amenity": "prep_school",
        "check_date": "2025-09-27",
        "name": "Physics Wallah"
      }
    },
    {
      "type": "node",
      "id": 12277915321,
      "lat": 12.9561587,
      "lon": 77.7215998,
      "tags": {
        "brand": "cult.fit",
        "brand:wikidata": "Q121289250",
        "check_date": "2025-06-28",
        "leisure": "fitness_centre",
        "name": "cult.fit"
      }
    },
    {
      "type": "node",
      "id": 12310866390,
      "lat": 12.9592516,
      "lon": 77.7223188,
      "tags": {
        "check_date": "2025-07-11",
        "name": "Appaji Stores",
        "shop": "greengrocer"
      }
    },
    {
      "type": "node",
      "id": 12310866391,
      "lat": 12.9592108,
      "lon": 77.7221051,
      "tags": {
        "shop": "butcher"
      }
    },
    {
      "type": "node",
      "id": 12354141450,
      "lat": 12.9591474,
      "lon": 77.7193187,
      "tags": {
        "addr:city": "Bengaluru",
        "addr:floor": "G",
        "addr:hamlet": "Kundalahalli",
        "addr:housenumber": "270",
        "addr:neighbourhood": "BEML Layout 6th Stage",
        "addr:street": "8th Main Road",
        "check_date": "2025-11-29",
        "level": "0",
        "name": "Monkey Music",
        "phone": "+91 7338372408",
        "shop": "musical_instrument",
        "website": "https://www.monkeymusicstore.com/",
        "wheelchair": "no"
      }
    },
    {
      "type": "node",
      "id": 12354141451,
      "lat": 12.9592227,
      "lon": 77.7193233,
      "tags": {
        "amenity": "music_school",
        "name": "Trishan School of Music"
      }
    },
    {
      "type": "node",
      "id": 12367749690,
      "lat": 12.9559605,
      "lon": 77.7166218,
      "tags": {
        "check_date": "2025-08-10",
        "name": "Luggage Lounge",
        "phone": "+91 81500 14141",
        "shop": "bag"
      }
    },
    {
      "type": "node",
      "id": 12373115053,
      "lat": 12.9556939,
      "lon": 77.717046,
      "tags": {
        "check_date": "2024-11-23",
        "name": "MK Foot Ware",
        "shop": "shoe_repair"
      }
    },
    {
      "type": "node",
      "id": 12462593730,
      "lat": 12.9556189,
      "lon": 77.7156088,
      "tags": {
        "check_date": "2025-10-28",
        "diet:vegetarian": "only",
        "name": "True Cakes",
        "shop": "pastry"
      }
    },
    {
      "type": "node",
      "id": 12495704267,
      "lat": 12.9545315,
      "lon": 77.7234526,
      "tags": {
        "amenity": "restaurant",
        "cuisine": "pizza;pasta;steak_house;burger",
        "diet:vegetarian": "yes",
        "name": "The Fat Chef",
        "opening_hours": "Tu-Fri 11:00-15:30,18:00-23:00; Sa-Su 11:00-23:00",
        "phone": "080 4099 2981",
        "website": "https://thefatchef.co.in"
      }
    },
    {
      "type": "node",
      "id": 12504252126,
      "lat": 12.9561338,
      "lon": 77.7170501,
      "tags": {
        "addr:city": "Bengaluru, Karnataka",
        "addr:door": "14",
        "addr:postcode": "560066",
        "addr:street": "Varthur Main Road",
        "amenity": "pharmacy",
        "brand": "Apollo Pharmacy",
        "brand:wikidata": "Q62562612",
        "check_date": "2025-09-14",
        "description": "Pharmacy is inside the clinic",
        "healthcare": "pharmacy",
        "level": "0",
        "name": "Apollo Pharmacy"
      }
    },
    {
      "type": "node",
      "id": 12504252127,
      "lat": 12.9560244,
      "lon": 77.717073,
      "tags": {
        "addr:city": "Bengaluru, Karnataka",
        "addr:postcode": "560066",
        "addr:street": "Near Kundanahalli Gate, Varthur Main Road, Thubarahalli, Whitefield",
        "amenity": "clinic",
        "check_date": "2025-09-14",
        "healthcare": "clinic",
        "level": "0",
        "name": "Apollo Medical Center",
        "opening_hours": "08:00-21:00"
      }
    },
    {
      "type": "node",
      "id": 12506342830,
      "lat": 12.9563494,
      "lon": 77.7284867,
      "tags": {
        "addr:city": "Bengaluru",
        "addr:housenumber": "115",
        "addr:postcode": "560066",
        "addr:street": "Varthur Main Road, Brookefield, Opposite D Mart, Whitefield",
        "amenity": "clinic",
        "healthcare": "clinic",
        "healthcare:speciality": "fertility",
        "name": "Baby Sciences IVF Clinic Pvt Ltd"
      }
    },
    {
      "type": "node",
      "id": 12506480655,
      "lat": 12.9532625,
      "lon": 77.7151999,
      "tags": {
        "amenity": "bank",
        "atm": "yes",
        "brand": "HDFC Bank",
        "brand:wikidata": "Q631047",
        "name": "HDFC Bank",
        "name:kn": "ಎಚ್ ಡಿ ಎಫ್ ಸಿ",
        "short_name": "HDFC"
      }
    },
    {
      "type": "node",
      "id": 12520301007,
      "lat": 12.9584375,
      "lon": 77.7155081,
      "tags": {
        "air_conditioning": "yes",
        "amenity": "restaurant",
        "name": "Miso Hungry",
        "website": "https://www.misohungry.co.in"
      }
    },
    {
      "type": "node",
      "id": 12520301008,
      "lat": 12.9583367,
      "lon": 77.7154806,
      "tags": {
        "amenity": "cafe",
        "name": "Matcha Cafe"
      }
    },
    {
      "type": "node",
      "id": 12539126236,
      "lat": 12.9590688,
      "lon": 77.7162436,
      "tags": {
        "amenity": "cafe",
        "name": "Cafe Amudham",
        "website": "https://www.cafeamudham.com/"
      }
    },
    {
      "type": "node",
      "id": 12551032332,
      "lat": 12.956499,
      "lon": 77.7168607,
      "tags": {
        "addr:housenumber": "5/2",
        "addr:street": "Varthur Road",
        "amenity": "clinic",
        "check_date": "2025-07-05",
        "healthcare": "clinic",
        "level": "0",
        "name": "Apollo Medical Center"
      }
    },
    {
      "type": "node",
      "id": 12578044120,
      "lat": 12.9512115,
      "lon": 77.7155874,
      "tags": {
        "air_conditioning": "yes",
        "amenity": "restaurant",
        "cuisine": "biryani;indian",
        "diet:vegetarian": "yes",
        "name": "Advaitha Donne Biryani",
        "wheelchair": "limited"
      }
    },
    {
      "type": "node",
      "id": 12632398382,
      "lat": 12.960365,
      "lon": 77.7226778,
      "tags": {
        "name": "Qureshi Mutton and Chicken Shop",
        "shop": "butcher"
      }
    },
    {
      "type": "node",
      "id": 12670226714,
      "lat": 12.9604534,
      "lon": 77.7177514,
      "tags": {
        "brand": "Nandini",
        "brand:wikidata": "Q124374212",
        "check_date": "2025-03-16",
        "name": "Nandini",
        "shop": "dairy"
      }
    },
    {
      "type": "node",
      "id": 12704367682,
      "lat": 12.9562713,
      "lon": 77.7284743,
      "tags": {
        "amenity": "restaurant",
        "changing_table": "no",
        "check_date": "2025-08-10",
        "cuisine": "indian",
        "diet:vegetarian": "only",
        "indoor_seating": "yes",
        "name": "Udupi Gokarna",
        "outdoor_seating": "no"
      }
    },
    {
      "type": "node",
      "id": 12704367683,
      "lat": 12.9561851,
      "lon": 77.7289605,
      "tags": {
        "check_date": "2025-10-04",
        "name": "Sai Creations",
        "shop": "curtain"
      }
    },
    {
      "type": "node",
      "id": 12704367685,
      "lat": 12.9561818,
      "lon": 77.7290745,
      "tags": {
        "check_date": "2025-07-26",
        "name": "Hindware",
        "shop": "appliance"
      }
    },
    {
      "type": "node",
      "id": 12704367686,
      "lat": 12.9561874,
      "lon": 77.729108,
      "tags": {
        "check_date": "2025-07-26",
        "name": "Sai Enterprises",
        "shop": "tailor"
      }
    },
    {
      "type": "node",
      "id": 12704367687,
      "lat": 12.9561818,
      "lon": 77.7291322,
      "tags": {
        "check_date": "2025-07-26",
        "hairdresser": "barber",
        "name": "The Best Little Hair House",
        "shop": "hairdresser"
      }
    },
    {
      "type": "node",
      "id": 12704367688,
      "lat": 12.9561751,
      "lon": 77.7291725,
      "tags": {
        "amenity": "fast_food",
        "brand": "Five Star Chicken",
        "brand:wikidata": "Q127784422",
        "check_date": "2025-06-28",
        "cuisine": "chicken",
        "delivery": "yes",
        "name": "Five Star Chicken",
        "takeaway": "yes"
      }
    },
    {
      "type": "node",
      "id": 12704376179,
      "lat": 12.9560619,
      "lon": 77.7259342,
      "tags": {
        "amenity": "restaurant",
        "check_date": "2025-03-27",
        "diet:vegetarian": "yes",
        "name": "Swad"
      }
    },
    {
      "type": "node",
      "id": 12704376180,
      "lat": 12.9560339,
      "lon": 77.7253817,
      "tags": {
        "check_date": "2025-03-27",
        "name": "Sleepwell",
        "shop": "bed"
      }
    },
    {
      "type": "node",
      "id": 12704376182,
      "lat": 12.9560365,
      "lon": 77.7258421,
      "tags": {
        "check_date": "2025-03-27",
        "name": "Omkar Interiors",
        "shop": "interior_decoration"
      }
    },
    {
      "type": "node",
      "id": 12704376183,
      "lat": 12.9560435,
      "lon": 77.7257864,
      "tags": {
        "check_date": "2025-03-27",
        "shop": "clothes"
      }
    },
    {
      "type": "node",
      "id": 12704376184,
      "lat": 12.9560496,
      "lon": 77.7256244,
      "tags": {
        "check_date": "2025-06-28",
        "name": "Luxe Living",
        "shop": "carpet"
      }
    },
    {
      "type": "node",
      "id": 12704387224,
      "lat": 12.9561059,
      "lon": 77.728155,
      "tags": {
        "check_date": "2025-03-27",
        "name": "Moto Care",
        "shop": "motorcycle_parts"
      }
    },
    {
      "type": "node",
      "id": 12704387225,
      "lat": 12.956103,
      "lon": 77.7282138,
      "tags": {
        "check_date": "2025-03-27",
        "name": "Featherwood",
        "shop": "furniture"
      }
    },
    {
      "type": "node",
      "id": 12704387227,
      "lat": 12.9561059,
      "lon": 77.7280271,
      "tags": {
        "check_date": "2025-04-22",
        "name": "Wallpaper Studio",
        "shop": "interior_decoration"
      }
    },
    {
      "type": "node",
      "id": 12704387228,
      "lat": 12.9561109,
      "lon": 77.7280017,
      "tags": {
        "check_date": "2025-03-27",
        "name": "Bhavani Hardware",
        "shop": "hardware"
      }
    },
    {
      "type": "node",
      "id": 12704387229,
      "lat": 12.956102,
      "lon": 77.727955,
      "tags": {
        "check_date": "2025-03-27",
        "name": "Bhavani Electricals",
        "shop": "electrical"
      }
    },
    {
      "type": "node",
      "id": 12704428627,
      "lat": 12.9562633,
      "lon": 77.7295136,
      "tags": {
        "brand": "Bosch Car Service",
        "brand:wikidata": "Q894368",
        "check_date": "2025-07-26",
        "name": "Bosch Car Service",
        "shop": "car_repair"
      }
    },
    {
      "type": "node",
      "id": 12704428628,
      "lat": 12.9562554,
      "lon": 77.7295399,
      "tags": {
        "amenity": "pharmacy",
        "check_date": "2025-07-26",
        "healthcare": "pharmacy",
        "name": "Orange Health Labs"
      }
    },
    {
      "type": "node",
      "id": 12704428629,
      "lat": 12.9562539,
      "lon": 77.7295699,
      "tags": {
        "check_date": "2025-07-26",
        "name": "Luxurious Carpet And Decor",
        "shop": "carpet"
      }
    },
    {
      "type": "node",
      "id": 12704428630,
      "lat": 12.9562782,
      "lon": 77.7297587,
      "tags": {
        "check_date": "2025-07-26",
        "name": "Sri Lakshmi Plywood And Hardware",
        "shop": "hardware"
      }
    },
    {
      "type": "node",
      "id": 12704428631,
      "lat": 12.9562739,
      "lon": 77.7298531,
      "tags": {
        "check_date": "2025-07-26",
        "name": "The Complete Furniture Showroom",
        "shop": "furniture"
      }
    },
    {
      "type": "node",
      "id": 12704428632,
      "lat": 12.9562696,
      "lon": 77.7299438,
      "tags": {
        "check_date": "2025-03-27",
        "name": "Kavery Electricals And Hardware",
        "shop": "electrical"
      }
    },
    {
      "type": "node",
      "id": 12704428633,
      "lat": 12.9562612,
      "lon": 77.7299842,
      "tags": {
        "check_date": "2025-03-27",
        "shop": "furniture"
      }
    },
    {
      "type": "node",
      "id": 12704428634,
      "lat": 12.956267,
      "lon": 77.7301988,
      "tags": {
        "check_date": "2025-07-26",
        "name": "Fixperts",
        "second_hand": "only",
        "shop": "motorcycle"
      }
    },
    {
      "type": "node",
      "id": 12704428635,
      "lat": 12.9563102,
      "lon": 77.7302947,
      "tags": {
        "check_date": "2025-03-27",
        "shop": "copyshop"
      }
    },
    {
      "type": "node",
      "id": 12754042630,
      "lat": 12.9557176,
      "lon": 77.7274914,
      "tags": {
        "check_date": "2025-06-29",
        "name": "Maharaja Carpets",
        "shop": "carpet"
      }
    },
    {
      "type": "node",
      "id": 12809380566,
      "lat": 12.956084,
      "lon": 77.7168995,
      "tags": {
        "addr:housenumber": "5/2",
        "addr:street": "Varthur Road",
        "check_date": "2025-09-14",
        "leisure": "fitness_centre",
        "level": "0",
        "name": "Welcare"
      }
    },
    {
      "type": "node",
      "id": 12809380567,
      "lat": 12.9561366,
      "lon": 77.7168989,
      "tags": {
        "addr:housenumber": "5/2",
        "addr:street": "Varthur Road",
        "amenity": "dentist",
        "check_date": "2025-09-14",
        "contact:phone": "+91 73385 09922",
        "contact:website": "https://thedentalcrafts.com",
        "email": "smile@thedentalcrafts.com",
        "healthcare": "dentist",
        "level": "2",
        "name": "The Dental Crafts"
      }
    },
    {
      "type": "node",
      "id": 12845313437,
      "lat": 12.9557117,
      "lon": 77.7277054,
      "tags": {
        "check_date": "2025-05-17",
        "name": "Friends Furniture Store",
        "shop": "furniture"
      }
    },
    {
      "type": "node",
      "id": 12845313438,
      "lat": 12.9557234,
      "lon": 77.7276504,
      "tags": {
        "check_date": "2025-05-17",
        "name": "Ifran Axle And Power Steering Works",
        "shop": "car_parts"
      }
    },
    {
      "type": "node",
      "id": 12862846476,
      "lat": 12.9560768,
      "lon": 77.7215733,
      "tags": {
        "amenity": "fast_food",
        "contact:instagram": "goodflippin",
        "cuisine": "burger",
        "delivery": "yes",
        "name": "Good Flippin' Burgers",
        "takeaway": "yes",
        "website": "https://goodflippin.com/"
      }
    },
    {
      "type": "node",
      "id": 12862846479,
      "lat": 12.9571107,
      "lon": 77.7145245,
      "tags": {
        "amenity": "restaurant",
        "cuisine": "american;burger",
        "name": "ARLOS"
      }
    },
    {
      "type": "node",
      "id": 12888074675,
      "lat": 12.9600601,
      "lon": 77.7206298,
      "tags": {
        "amenity": "bench",
        "armrest": "yes",
        "backrest": "yes",
        "material": "concrete",
        "seats": "2"
      }
    },
    {
      "type": "node",
      "id": 12888074676,
      "lat": 12.9601995,
      "lon": 77.7206392,
      "tags": {
        "amenity": "bench",
        "armrest": "yes",
        "backrest": "yes",
        "material": "concrete",
        "seats": "2"
      }
    },
    {
      "type": "node",
      "id": 12927251208,
      "lat": 12.9570073,
      "lon": 77.7195412,
      "tags": {
        "amenity": "bench",
        "backrest": "yes",
        "material": "concrete",
        "seats": "2"
      }
    },
    {
      "type": "node",
      "id": 12927251209,
      "lat": 12.9570057,
      "lon": 77.7195724,
      "tags": {
        "amenity": "bench",
        "backrest": "yes",
        "material": "concrete",
        "seats": "2"
      }
    },
    {
      "type": "node",
      "id": 12927251210,
      "lat": 12.9574409,
      "lon": 77.7194896,
      "tags": {
        "amenity": "bench",
        "backrest": "yes",
        "material": "concrete",
        "seats": "2"
      }
    },
    {
      "type": "node",
      "id": 12957926202,
      "lat": 12.9591418,
      "lon": 77.7196702,
      "tags": {
        "amenity": "fast_food",
        "brand": "Domino's",
        "brand:wikidata": "Q839466",
        "check_date": "2025-06-28",
        "cuisine": "pizza",
        "name": "Domino's",
        "takeaway": "yes"
      }
    },
    {
      "type": "node",
      "id": 12979734602,
      "lat": 12.9559665,
      "lon": 77.7208251,
      "tags": {
        "check_date": "2025-07-05",
        "name": "Sri Sai Hot Chips",
        "shop": "snack",
        "snack": "chips"
      }
    },
    {
      "type": "node",
      "id": 12981456024,
      "lat": 12.960262,
      "lon": 77.7200497,
      "tags": {
        "amenity": "fast_food",
        "check_date": "2025-07-06",
        "cuisine": "juice",
        "name": "Chaiwai"
      }
    },
    {
      "type": "node",
      "id": 12981456025,
      "lat": 12.9602677,
      "lon": 77.7199245,
      "tags": {
        "check_date": "2025-07-06",
        "name": "Print Works",
        "shop": "copyshop"
      }
    },
    {
      "type": "node",
      "id": 12981456026,
      "lat": 12.9603162,
      "lon": 77.7196769,
      "tags": {
        "check_date": "2025-07-06",
        "name": "Friends Salon",
        "shop": "hairdresser"
      }
    },
    {
      "type": "node",
      "id": 12990822278,
      "lat": 12.9601847,
      "lon": 77.7226122,
      "tags": {
        "check_date": "2025-07-10",
        "name": "Shri Sai Provisions Store",
        "shop": "convenience"
      }
    },
    {
      "type": "node",
      "id": 12990822279,
      "lat": 12.9602074,
      "lon": 77.7222172,
      "tags": {
        "check_date": "2025-07-10",
        "name": "Well Done Men's Salon",
        "shop": "hairdresser"
      }
    },
    {
      "type": "node",
      "id": 13013381750,
      "lat": 12.9561115,
      "lon": 77.7168981,
      "tags": {
        "addr:housenumber": "5/2",
        "addr:street": "Varthur Road",
        "amenity": "doctors",
        "check_date": "2025-10-08",
        "contact:phone": "+91 81002 77610",
        "healthcare": "doctor",
        "healthcare:speciality": "neuropsychiatry",
        "level": "1",
        "name": "Dr HK's Neuro and Parkinson's Clinic"
      }
    },
    {
      "type": "node",
      "id": 13061599858,
      "lat": 12.9562542,
      "lon": 77.7296447,
      "tags": {
        "check_date": "2025-08-10",
        "name": "FB Cakes",
        "shop": "pastry"
      }
    },
    {
      "type": "node",
      "id": 13071984335,
      "lat": 12.9508138,
      "lon": 77.7156575,
      "tags": {
        "addr:floor": "G",
        "amenity": "restaurant",
        "check_date": "2025-08-09",
        "level": "0",
        "name": "Advaita",
        "wheelchair": "limited"
      }
    },
    {
      "type": "node",
      "id": 13071984336,
      "lat": 12.9507765,
      "lon": 77.7154034,
      "tags": {
        "amenity": "fast_food",
        "check_date": "2025-08-09",
        "name": "Kalinga"
      }
    },
    {
      "type": "node",
      "id": 13071984337,
      "lat": 12.9505546,
      "lon": 77.7154416,
      "tags": {
        "check_date": "2025-08-09",
        "name": "KPN Fresh",
        "shop": "greengrocer"
      }
    },
    {
      "type": "node",
      "id": 13076291753,
      "lat": 12.9528921,
      "lon": 77.7180152,
      "tags": {
        "air_conditioning": "no",
        "amenity": "fast_food",
        "check_date": "2025-08-17",
        "cuisine": "indian",
        "diet:vegetarian": "yes",
        "drive_through": "no",
        "name": "Mr. Professor",
        "wheelchair": "yes"
      }
    },
    {
      "type": "node",
      "id": 13076291754,
      "lat": 12.953493,
      "lon": 77.7180598,
      "tags": {
        "addr:floor": "G",
        "amenity": "fast_food",
        "check_date": "2025-08-17",
        "cuisine": "juice",
        "diet:vegetarian": "yes",
        "highchair": "yes",
        "level": "0",
        "name": "Chai 365",
        "outdoor_seating": "yes",
        "smoking": "no",
        "takeaway": "yes",
        "toilets": "no",
        "wheelchair": "no"
      }
    },
    {
      "type": "node",
      "id": 13108688249,
      "lat": 12.9559587,
      "lon": 77.7209088,
      "tags": {
        "check_date": "2025-08-30",
        "name": "New Choice",
        "shop": "bakery"
      }
    },
    {
      "type": "node",
      "id": 13108688250,
      "lat": 12.9556355,
      "lon": 77.7214896,
      "tags": {
        "check_date": "2025-08-30",
        "name": "Shuchi",
        "shop": "dry_cleaning"
      }
    },
    {
      "type": "node",
      "id": 13116007577,
      "lat": 12.9556172,
      "lon": 77.7148511,
      "tags": {
        "amenity": "restaurant",
        "check_date": "2025-09-03",
        "level": "1",
        "name": "Theerath"
      }
    },
    {
      "type": "node",
      "id": 13116007578,
      "lat": 12.9556421,
      "lon": 77.7148285,
      "tags": {
        "addr:floor": "G",
        "check_date": "2025-09-03",
        "level": "0",
        "name": "Parco Bakers",
        "shop": "bakery"
      }
    },
    {
      "type": "node",
      "id": 13128777701,
      "lat": 12.9502519,
      "lon": 77.7173864,
      "tags": {
        "addr:city": "Bengaluru",
        "addr:district": "Karnataka",
        "addr:postcode": "560066",
        "addr:street": "Vibgyor High School Road",
        "amenity": "place_of_worship",
        "denomination": "digamber",
        "name": "Shri Gyanodhaya Digamber Jain Temple",
        "religion": "jain"
      }
    },
    {
      "type": "node",
      "id": 13158234649,
      "lat": 12.9556657,
      "lon": 77.7224145,
      "tags": {
        "name": "PVKR Co",
        "shop": "dairy"
      }
    },
    {
      "type": "node",
      "id": 13158234651,
      "lat": 12.9557206,
      "lon": 77.7229171,
      "tags": {
        "check_date": "2025-10-28",
        "name": "3M Car Care",
        "shop": "car_parts"
      }
    },
    {
      "type": "node",
      "id": 13167189679,
      "lat": 12.9555919,
      "lon": 77.7207693,
      "tags": {
        "amenity": "pharmacy",
        "check_date": "2025-09-27",
        "name": "Ramdev Medicals"
      }
    },
    {
      "type": "node",
      "id": 13168786888,
      "lat": 12.9570583,
      "lon": 77.7154398,
      "tags": {
        "amenity": "pub",
        "name": "Jamming Goat 3.0"
      }
    },
    {
      "type": "node",
      "id": 13175465713,
      "lat": 12.9542063,
      "lon": 77.717574,
      "tags": {
        "addr:floor": "1",
        "amenity": "restaurant",
        "check_date": "2025-09-27",
        "cuisine": "kashmiri",
        "internet_access": "no",
        "level": "1",
        "name": "Orzuv",
        "payment:cash": "yes",
        "payment:credit_cards": "yes",
        "payment:debit_cards": "yes",
        "phone": "+91 80 3160 5783",
        "website": "https://www.orzu.co",
        "wheelchair": "no"
      }
    },
    {
      "type": "node",
      "id": 13175465714,
      "lat": 12.9541309,
      "lon": 77.7175389,
      "tags": {
        "amenity": "pharmacy",
        "check_date": "2025-09-27",
        "healthcare": "pharmacy",
        "name": "Frank Ross"
      }
    },
    {
      "type": "node",
      "id": 13178436958,
      "lat": 12.9516658,
      "lon": 77.7163268,
      "tags": {
        "amenity": "fast_food",
        "check_date": "2025-09-28",
        "cuisine": "juice",
        "name": "Panda Chai"
      }
    },
    {
      "type": "node",
      "id": 13178436959,
      "lat": 12.9516551,
      "lon": 77.7169068,
      "tags": {
        "addr:floor": "G",
        "check_date": "2025-09-28",
        "level": "0",
        "name": "Makkhan Malai",
        "shop": "confectionery",
        "wheelchair": "no"
      }
    },
    {
      "type": "node",
      "id": 13192856700,
      "lat": 12.95607,
      "lon": 77.7164684,
      "tags": {
        "amenity": "doctors",
        "check_date": "2025-10-04",
        "healthcare": "doctor",
        "healthcare:speciality": "dermatology",
        "name": "Kushal Skin Clinic"
      }
    },
    {
      "type": "node",
      "id": 13193073830,
      "lat": 12.9561729,
      "lon": 77.7290122,
      "tags": {
        "check_date": "2025-10-04",
        "name": "VR Enterprises",
        "shop": "yes"
      }
    },
    {
      "type": "node",
      "id": 13198389311,
      "lat": 12.9583064,
      "lon": 77.7190594,
      "tags": {
        "addr:housenumber": "394",
        "addr:street": "7th Cross Road",
        "amenity": "cafe",
        "cuisine": "coffee_shop",
        "diet:vegetarian": "yes",
        "drink:coffee": "yes",
        "indoor_seating": "yes",
        "internet_access": "wlan",
        "internet_access:fee": "customers",
        "level": "0",
        "name": "Demitasse Coffee",
        "opening_hours": "Tu-Su 15:00-23:45,Sa-Su 11:00-13:00",
        "outdoor_seating": "yes",
        "self_service": "no",
        "takeaway": "yes"
      }
    },
    {
      "type": "node",
      "id": 13214046707,
      "lat": 12.9594115,
      "lon": 77.7193699,
      "tags": {
        "addr:floor": "G",
        "addr:housenumber": "260",
        "addr:street": "7th Main Road",
        "amenity": "ice_cream",
        "check_date": "2025-11-21",
        "level": "0",
        "name": "Melody Moon",
        "phone": "+91 86087 07062",
        "wheelchair": "yes"
      }
    },
    {
      "type": "node",
      "id": 13214046763,
      "lat": 12.9596147,
      "lon": 77.7183761,
      "tags": {
        "name": "KVR Rice Depot",
        "shop": "wholesale",
        "wholesale": "food"
      }
    },
    {
      "type": "node",
      "id": 13214046800,
      "lat": 12.9590435,
      "lon": 77.7171611,
      "tags": {
        "name": "MU Unisex Salon",
        "phone": "+91 9538792029",
        "shop": "hairdresser",
        "unisex": "yes"
      }
    },
    {
      "type": "node",
      "id": 13228842897,
      "lat": 12.9541246,
      "lon": 77.7152294,
      "tags": {
        "addr:floor": "G",
        "check_date": "2025-10-12",
        "level": "0",
        "name": "Best & Cheap",
        "shop": "hairdresser"
      }
    },
    {
      "type": "node",
      "id": 13228842898,
      "lat": 12.9521992,
      "lon": 77.7154613,
      "tags": {
        "addr:floor": "G",
        "check_date": "2025-10-12",
        "level": "0",
        "name": "Mayura",
        "shop": "bakery",
        "wheelchair": "limited"
      }
    },
    {
      "type": "node",
      "id": 13228842899,
      "lat": 12.9523171,
      "lon": 77.7154382,
      "tags": {
        "addr:floor": "G",
        "air_conditioning": "no",
        "amenity": "cafe",
        "bar": "no",
        "check_date": "2025-10-12",
        "cuisine": "indian;marathi",
        "diet:vegetarian": "yes",
        "internet_access": "no",
        "level": "0",
        "name": "1966",
        "outdoor_seating": "no",
        "phone": "+91 83870 81111",
        "reservation": "no",
        "toilets": "no",
        "wheelchair": "no"
      }
    },
    {
      "type": "node",
      "id": 13228842900,
      "lat": 12.9524717,
      "lon": 77.7154209,
      "tags": {
        "amenity": "ice_cream",
        "check_date": "2025-10-12",
        "internet_access": "no",
        "name": "Creamy Millet",
        "wheelchair": "no"
      }
    },
    {
      "type": "node",
      "id": 13232104980,
      "lat": 12.9594958,
      "lon": 77.7209611,
      "tags": {
        "amenity": "driving_school",
        "name": "Drive On"
      }
    },
    {
      "type": "node",
      "id": 13264656179,
      "lat": 12.9556111,
      "lon": 77.7159249,
      "tags": {
        "check_date": "2025-10-28",
        "shop": "kitchen"
      }
    },
    {
      "type": "node",
      "id": 13321341605,
      "lat": 12.9603457,
      "lon": 77.7172297,
      "tags": {
        "check_date": "2025-11-21",
        "name": "Mani Shree",
        "shop": "greengrocer"
      }
    },
    {
      "type": "node",
      "id": 13321349873,
      "lat": 12.9589238,
      "lon": 77.7188567,
      "tags": {
        "addr:city": "Bengaluru",
        "addr:housenumber": "302",
        "addr:postcode": "560066",
        "addr:street": "8th Main Road",
        "check_date": "2025-11-21",
        "email": "asanagroups@gmail.com",
        "instagram": "asana.yoga.cafe",
        "leisure": "fitness_centre",
        "name": "Asana",
        "opening_hours": "Mo-Fri 06:00-21:00",
        "phone": "+91 99867 17738",
        "sport": "yoga",
        "website": "https://asanayogacafe.com/"
      }
    },
    {
      "type": "node",
      "id": 13321349874,
      "lat": 12.9588581,
      "lon": 77.7200381,
      "tags": {
        "addr:floor": "G",
        "addr:housenumber": "520",
        "addr:street": "8th Main Road",
        "check_date": "2025-11-21",
        "level": "0",
        "name": "Aimoreen Digital Solutions",
        "shop": "copyshop",
        "wheelchair": "no"
      }
    },
    {
      "type": "node",
      "id": 13337671043,
      "lat": 12.9560746,
      "lon": 77.7167824,
      "tags": {
        "amenity": "cafe",
        "check_date": "2025-11-28",
        "name": "NH Cafe"
      }
    },
    {
      "type": "node",
      "id": 13340064695,
      "lat": 12.9591817,
      "lon": 77.7193501,
      "tags": {
        "addr:floor": "5",
        "addr:housenumber": "270",
        "addr:street": "8th Main Road",
        "amenity": "cafe",
        "bakery": "yes",
        "check_date": "2025-11-29",
        "cuisine": "pasta;pizza;burger",
        "level": "4",
        "name": "Wild Rabbit",
        "opening_hours": "Mo-Su 10:30-22:30",
        "phone": "+91 73383 72421",
        "wheelchair": "no"
      }
    },
    {
      "type": "way",
      "id": 90292782,
      "center": {
        "lat": 12.9486572,
        "lon": 77.718715
      },
      "tags": {
        "addr:housenumber": "58/1",
        "addr:postcode": "560066",
        "addr:street": "Vibgyor High School Road",
        "amenity": "school",
        "check_date": "2025-09-07",
        "email": "helpdesk.bangalore40@vibgyorhigh.com",
        "name": "Vibgyor High School",
        "name:kn": "ವಿಬ್ಗ್ಯೋರ್ ಪ್ರೌಡಶಾಲೆ",
        "phone": "+91 80 4277 7000",
        "school:gender": "mixed",
        "website": "https://www.vibgyorhigh.com/"
      }
    },
    {
      "type": "way",
      "id": 122157597,
      "center": {
        "lat": 12.9574104,
        "lon": 77.7134875
      },
      "tags": {
        "amenity": "hospital",
        "healthcare": "hospital",
        "name": "Karunashraya",
        "name:kn": "ಕರುಣಾಶ್ರಯ",
        "website": "https://www.karunashraya.org/"
      }
    },
    {
      "type": "way",
      "id": 122270535,
      "center": {
        "lat": 12.9631906,
        "lon": 77.7244012
      },
      "tags": {
        "amenity": "place_of_worship",
        "name": "Satya Sai Seva Khetra",
        "name:kn": "ಸತ್ಯ ಸಾಯಿ ಸೇವಾ ಕ್ಷೇತ್ರ",
        "religion": "hindu"
      }
    },
    {
      "type": "way",
      "id": 124013166,
      "center": {
        "lat": 12.9550883,
        "lon": 77.7168064
      },
      "tags": {
        "amenity": "events_venue",
        "building": "yes",
        "name": "SKR Convention Centre"
      }
    },
    {
      "type": "way",
      "id": 124013168,
      "center": {
        "lat": 12.9571436,
        "lon": 77.7128215
      },
      "tags": {
        "addr:city": "Bengaluru",
        "addr:district": "Bengaluru Urban",
        "addr:full": "Varthur Main Road, Kundalahalli Gate, Marahahalli-White Field Road",
        "addr:postcode": "560037",
        "addr:state": "Karnataka",
        "addr:street": "Varthur Road",
        "amenity": "hospital",
        "boundary": "wall",
        "check_date": "2025-09-03",
        "email": "bangalore@sankaraeye.com",
        "healthcare": "hospital",
        "healthcare:speciality": "ophthalmology",
        "name": "Sankara Eye Hospital",
        "name:kn": "ಶಂಕರ ನೇತ್ರಾಲಯ",
        "website": "https://www.sankaraeye.com"
      }
    },
    {
      "type": "way",
      "id": 130126844,
      "center": {
        "lat": 12.9550548,
        "lon": 77.7168393
      },
      "tags": {
        "amenity": "events_venue",
        "name": "SKR Convention Centre"
      }
    },
    {
      "type": "way",
      "id": 140997492,
      "center": {
        "lat": 12.955008,
        "lon": 77.7130862
      },
      "tags": {
        "building": "retail",
        "name": "LightsPro",
        "shop": "gift"
      }
    },
    {
      "type": "way",
      "id": 151675949,
      "center": {
        "lat": 12.9554367,
        "lon": 77.7167605
      },
      "tags": {
        "leisure": "garden"
      }
    },
    {
      "type": "way",
      "id": 156133056,
      "center": {
        "lat": 12.9529318,
        "lon": 77.721249
      },
      "tags": {
        "access": "customers",
        "leisure": "pitch",
        "name": "True Bounce Tennis Academy",
        "sport": "tennis",
        "surface": "clay"
      }
    },
    {
      "type": "way",
      "id": 157858174,
      "center": {
        "lat": 12.9554384,
        "lon": 77.7293747
      },
      "tags": {
        "access": "customers",
        "amenity": "parking",
        "fee": "no",
        "name": "Bhagini Iris Parking",
        "park_ride": "yes",
        "parking": "surface"
      }
    },
    {
      "type": "way",
      "id": 249353657,
      "center": {
        "lat": 12.9555232,
        "lon": 77.7286983
      },
      "tags": {
        "brand": "DMart",
        "brand:wikidata": "Q5203271",
        "check_date": "2025-10-25",
        "internet_access": "no",
        "name": "DMart",
        "payment:cash": "yes",
        "payment:coins": "yes",
        "payment:credit_cards": "yes",
        "payment:debit_cards": "yes",
        "payment:notes": "yes",
        "payment:upi": "yes",
        "shop": "supermarket",
        "wheelchair": "yes"
      }
    },
    {
      "type": "way",
      "id": 259894700,
      "center": {
        "lat": 12.9533244,
        "lon": 77.7149448
      },
      "tags": {
        "amenity": "school",
        "building": "yes",
        "name": "Sarah Montessori"
      }
    },
    {
      "type": "way",
      "id": 346714642,
      "center": {
        "lat": 12.9607164,
        "lon": 77.7183415
      },
      "tags": {
        "addr:housenumber": "12",
        "amenity": "kindergarten",
        "building": "school",
        "name": "SparrowS",
        "preschool": "yes"
      }
    },
    {
      "type": "way",
      "id": 346740441,
      "center": {
        "lat": 12.958738,
        "lon": 77.7183904
      },
      "tags": {
        "addr:housenumber": "308",
        "addr:street": "9th Main Road",
        "amenity": "kindergarten",
        "building": "house",
        "building:levels": "2",
        "name": "Sishu Vihar"
      }
    },
    {
      "type": "way",
      "id": 346777493,
      "center": {
        "lat": 12.9567993,
        "lon": 77.715449
      },
      "tags": {
        "amenity": "restaurant",
        "building": "yes",
        "check_date": "2025-08-17",
        "name": "Telugu Villas",
        "payment:cash": "yes",
        "payment:credit_cards": "yes",
        "payment:debit_cards": "yes"
      }
    },
    {
      "type": "way",
      "id": 346821689,
      "center": {
        "lat": 12.9602104,
        "lon": 77.7204893
      },
      "tags": {
        "amenity": "place_of_worship",
        "building": "temple",
        "religion": "hindu"
      }
    },
    {
      "type": "way",
      "id": 346821828,
      "center": {
        "lat": 12.957675,
        "lon": 77.7208265
      },
      "tags": {
        "addr:housenumber": "460",
        "addr:street": "15th Cross Road",
        "amenity": "kindergarten",
        "building": "house",
        "building:levels": "2",
        "name": "FirstCry Intellitots Pre-school and Daycare",
        "opening_hours": "Mo-Sa 09:00-17:00",
        "operator": "FirstCry",
        "phone": "+91 8867312153"
      }
    },
    {
      "type": "way",
      "id": 346833312,
      "center": {
        "lat": 12.9561384,
        "lon": 77.7196882
      },
      "tags": {
        "building": "retail",
        "building:levels": "1",
        "building:material": "metal",
        "name": "VK Fruits",
        "roof:levels": "0",
        "roof:shape": "flat",
        "shop": "greengrocer"
      }
    },
    {
      "type": "way",
      "id": 346833388,
      "center": {
        "lat": 12.956196,
        "lon": 77.7199638
      },
      "tags": {
        "amenity": "restaurant",
        "building": "yes",
        "cuisine": "punjabi",
        "diet:vegetarian": "yes",
        "name": "Kapoor's Cafe"
      }
    },
    {
      "type": "way",
      "id": 346833466,
      "center": {
        "lat": 12.9566481,
        "lon": 77.720129
      },
      "tags": {
        "building": "yes",
        "leisure": "sports_centre",
        "name": "Gurukul Sports Academy",
        "sport": "badminton;pool;table_tennis"
      }
    },
    {
      "type": "way",
      "id": 346833474,
      "center": {
        "lat": 12.9592415,
        "lon": 77.7225481
      },
      "tags": {
        "amenity": "place_of_worship",
        "building": "yes",
        "religion": "hindu"
      }
    },
    {
      "type": "way",
      "id": 346841751,
      "center": {
        "lat": 12.9611991,
        "lon": 77.7261486
      },
      "tags": {
        "leisure": "pitch",
        "name": "Dream Medows Basketball Court",
        "sport": "basketball"
      }
    },
    {
      "type": "way",
      "id": 347030417,
      "center": {
        "lat": 12.9609247,
        "lon": 77.7183562
      },
      "tags": {
        "addr:housenumber": "10",
        "amenity": "kindergarten",
        "building": "school",
        "name": "Sparrows Montessori",
        "preschool": "yes",
        "website": "https://sparrows.co.in/"
      }
    },
    {
      "type": "way",
      "id": 638634903,
      "center": {
        "lat": 12.9563436,
        "lon": 77.7132017
      },
      "tags": {
        "access": "customers",
        "amenity": "parking",
        "parking": "surface"
      }
    },
    {
      "type": "way",
      "id": 638675501,
      "center": {
        "lat": 12.9570104,
        "lon": 77.7132455
      },
      "tags": {
        "access": "customers",
        "amenity": "parking",
        "parking": "surface",
        "surface": "paving_stones"
      }
    },
    {
      "type": "way",
      "id": 648375603,
      "center": {
        "lat": 12.9559863,
        "lon": 77.7167836
      },
      "tags": {
        "amenity": "parking",
        "parking": "street_side"
      }
    },
    {
      "type": "way",
      "id": 648375605,
      "center": {
        "lat": 12.9559528,
        "lon": 77.7168583
      },
      "tags": {
        "amenity": "parking",
        "parking": "surface"
      }
    },
    {
      "type": "way",
      "id": 648496932,
      "center": {
        "lat": 12.9618086,
        "lon": 77.7164865
      },
      "tags": {
        "amenity": "parking"
      }
    },
    {
      "type": "way",
      "id": 672691192,
      "center": {
        "lat": 12.9591869,
        "lon": 77.7170009
      },
      "tags": {
        "building": "yes",
        "building:levels": "1",
        "shop": "tailor"
      }
    },
    {
      "type": "way",
      "id": 672691193,
      "center": {
        "lat": 12.9591746,
        "lon": 77.7169901
      },
      "tags": {
        "building": "yes",
        "building:levels": "1",
        "shop": "laundry"
      }
    },
    {
      "type": "way",
      "id": 757666950,
      "center": {
        "lat": 12.9600503,
        "lon": 77.7207621
      },
      "tags": {
        "barrier": "fence",
        "leisure": "park",
        "name": "BDA Park"
      }
    },
    {
      "type": "way",
      "id": 768730155,
      "center": {
        "lat": 12.9505215,
        "lon": 77.7182705
      },
      "tags": {
        "access": "private",
        "leisure": "swimming_pool"
      }
    },
    {
      "type": "way",
      "id": 768730157,
      "center": {
        "lat": 12.9484956,
        "lon": 77.7192405
      },
      "tags": {
        "access": "private",
        "leisure": "swimming_pool"
      }
    },
    {
      "type": "way",
      "id": 1072561537,
      "center": {
        "lat": 12.9561737,
        "lon": 77.7227553
      },
      "tags": {
        "access": "yes",
        "addr:city": "Bengaluru",
        "addr:postcode": "560066",
        "addr:street": "Varthur Road",
        "amenity": "library",
        "building": "yes",
        "building:levels": "2",
        "check_date": "2025-06-13",
        "internet_access": "terminal",
        "internet_access:fee": "customers",
        "name": "Tubarahalli Digital Library",
        "opening_hours": "Tu-Su 08:00-20:00; PH off; Sa[4] off; Tu[2] off",
        "operator": "Department of Public Libraries",
        "operator:type": "government",
        "toilets": "yes"
      }
    },
    {
      "type": "way",
      "id": 1076871259,
      "center": {
        "lat": 12.9496528,
        "lon": 77.7188799
      },
      "tags": {
        "leisure": "swimming_pool"
      }
    },
    {
      "type": "way",
      "id": 1076871260,
      "center": {
        "lat": 12.9470051,
        "lon": 77.7187081
      },
      "tags": {
        "leisure": "sports_centre",
        "name": "MKR Sports Arena",
        "sport": "swimming;soccer;tennis"
      }
    },
    {
      "type": "way",
      "id": 1076871261,
      "center": {
        "lat": 12.9470872,
        "lon": 77.7183058
      },
      "tags": {
        "access": "customers",
        "amenity": "parking",
        "parking": "surface"
      }
    },
    {
      "type": "way",
      "id": 1076871262,
      "center": {
        "lat": 12.9472504,
        "lon": 77.7190767
      },
      "tags": {
        "leisure": "swimming_pool"
      }
    },
    {
      "type": "way",
      "id": 1076871263,
      "center": {
        "lat": 12.9470681,
        "lon": 77.7184908
      },
      "tags": {
        "leisure": "pitch",
        "sport": "tennis"
      }
    },
    {
      "type": "way",
      "id": 1076871264,
      "center": {
        "lat": 12.9470747,
        "lon": 77.7186535
      },
      "tags": {
        "leisure": "pitch",
        "sport": "tennis"
      }
    },
    {
      "type": "way",
      "id": 1076871265,
      "center": {
        "lat": 12.9469499,
        "lon": 77.719069
      },
      "tags": {
        "leisure": "pitch",
        "sport": "soccer"
      }
    },
    {
      "type": "way",
      "id": 1077053845,
      "center": {
        "lat": 12.9549554,
        "lon": 77.7283192
      },
      "tags": {
        "access": "customers",
        "amenity": "parking",
        "parking": "surface"
      }
    },
    {
      "type": "way",
      "id": 1077580399,
      "center": {
        "lat": 12.955517,
        "lon": 77.7211816
      },
      "tags": {
        "amenity": "school",
        "name": "Government Lower Primary School, Thubarahalli",
        "name:kn": "ಸರ್ಕಾರಿ ಶಾಲೆ, ತೂಬರಹಳ್ಳಿ",
        "operator": "Government of Karnataka",
        "operator:type": "government"
      }
    },
    {
      "type": "way",
      "id": 1079266919,
      "center": {
        "lat": 12.9624274,
        "lon": 77.719164
      },
      "tags": {
        "amenity": "cafe",
        "building": "yes",
        "name": "Brookefield Cafe",
        "outdoor_seating": "no"
      }
    },
    {
      "type": "way",
      "id": 1080712544,
      "center": {
        "lat": 12.9576216,
        "lon": 77.7223458
      },
      "tags": {
        "leisure": "swimming_pool"
      }
    },
    {
      "type": "way",
      "id": 1080933018,
      "center": {
        "lat": 12.9546856,
        "lon": 77.7168547
      },
      "tags": {
        "amenity": "parking",
        "name": "SKRCC Parking",
        "parking": "surface"
      }
    },
    {
      "type": "way",
      "id": 1083283658,
      "center": {
        "lat": 12.9581311,
        "lon": 77.7192394
      },
      "tags": {
        "barrier": "fence",
        "leisure": "park"
      }
    },
    {
      "type": "way",
      "id": 1085409205,
      "center": {
        "lat": 12.9534504,
        "lon": 77.7124313
      },
      "tags": {
        "leisure": "swimming_pool"
      }
    },
    {
      "type": "way",
      "id": 1085409208,
      "center": {
        "lat": 12.9528571,
        "lon": 77.7124862
      },
      "tags": {
        "access": "private",
        "leisure": "swimming_pool"
      }
    },
    {
      "type": "way",
      "id": 1085652635,
      "center": {
        "lat": 12.9595947,
        "lon": 77.7198336
      },
      "tags": {
        "amenity": "school",
        "check_date": "2025-11-21",
        "grades": "0-5",
        "name": "Little Explorers Academy"
      }
    },
    {
      "type": "way",
      "id": 1085863379,
      "center": {
        "lat": 12.9619947,
        "lon": 77.7164589
      },
      "tags": {
        "amenity": "fuel",
        "brand": "Shell",
        "brand:wikidata": "Q110716465",
        "compressed_air": "yes",
        "name": "Shell",
        "name:kn": "ಶೆಲ್"
      }
    },
    {
      "type": "way",
      "id": 1085870714,
      "center": {
        "lat": 12.9627408,
        "lon": 77.7243428
      },
      "tags": {
        "access": "private",
        "leisure": "swimming_pool",
        "location": "outdoor"
      }
    },
    {
      "type": "way",
      "id": 1086229570,
      "center": {
        "lat": 12.9571738,
        "lon": 77.71853
      },
      "tags": {
        "access": "yes",
        "barrier": "fence",
        "leisure": "pitch",
        "sport": "badminton"
      }
    },
    {
      "type": "way",
      "id": 1086335536,
      "center": {
        "lat": 12.9555743,
        "lon": 77.7228833
      },
      "tags": {
        "amenity": "kindergarten",
        "name": "Prishti Pre School"
      }
    },
    {
      "type": "way",
      "id": 1088225545,
      "center": {
        "lat": 12.959639,
        "lon": 77.7184927
      },
      "tags": {
        "amenity": "kindergarten",
        "name": "Little Millenium Pre School"
      }
    },
    {
      "type": "way",
      "id": 1088225547,
      "center": {
        "lat": 12.959834,
        "lon": 77.7174833
      },
      "tags": {
        "addr:housenumber": "225",
        "addr:street": "6th Main Road",
        "building": "yes",
        "dance:style": "bharatanatyam;mohiniyattam;kalaripayattu;contemporary;zumba;freestyle",
        "dance:teaching": "yes",
        "leisure": "dance",
        "name": "Satvas Dance Company",
        "phone": "+91 96062 57775",
        "website": "https://satvasdance.com/"
      }
    },
    {
      "type": "way",
      "id": 1088864451,
      "center": {
        "lat": 12.9605714,
        "lon": 77.7167206
      },
      "tags": {
        "amenity": "place_of_worship",
        "building": "yes",
        "religion": "hindu"
      }
    },
    {
      "type": "way",
      "id": 1144270142,
      "center": {
        "lat": 12.9574997,
        "lon": 77.7194852
      },
      "tags": {
        "leisure": "garden"
      }
    },
    {
      "type": "way",
      "id": 1144270145,
      "center": {
        "lat": 12.9604793,
        "lon": 77.7204449
      },
      "tags": {
        "addr:city": "Bengaluru",
        "addr:housenumber": "156",
        "addr:postcode": "560066",
        "addr:street": "4th Main Rd, Tigalarpalya, Brookefield",
        "amenity": "place_of_worship",
        "building": "yes",
        "name": "Shri Anjaneya Swamy Temple",
        "religion": "hindu"
      }
    },
    {
      "type": "way",
      "id": 1150220532,
      "center": {
        "lat": 12.9608641,
        "lon": 77.720036
      },
      "tags": {
        "addr:housenumber": "116",
        "amenity": "kindergarten",
        "name": "Little Genie Montessori",
        "preschool": "yes",
        "school": "yes"
      }
    },
    {
      "type": "way",
      "id": 1150220533,
      "center": {
        "lat": 12.9594116,
        "lon": 77.7212545
      },
      "tags": {
        "addr:housenumber": "564",
        "addr:street": "15th Cross Road",
        "amenity": "kindergarten",
        "name": "Kites"
      }
    },
    {
      "type": "way",
      "id": 1154805390,
      "center": {
        "lat": 12.9612128,
        "lon": 77.7174008
      },
      "tags": {
        "amenity": "school",
        "name": "Narayana"
      }
    },
    {
      "type": "way",
      "id": 1154805391,
      "center": {
        "lat": 12.9612046,
        "lon": 77.7171802
      },
      "tags": {
        "leisure": "pitch"
      }
    },
    {
      "type": "way",
      "id": 1154805392,
      "center": {
        "lat": 12.9610413,
        "lon": 77.7171971
      },
      "tags": {
        "amenity": "parking",
        "parking": "surface"
      }
    },
    {
      "type": "way",
      "id": 1157152189,
      "center": {
        "lat": 12.955101,
        "lon": 77.7301509
      },
      "tags": {
        "building": "yes",
        "leisure": "sports_centre",
        "name": "Bangalore Sports Academy",
        "sport": "swimming;badminton;table_tennis"
      }
    },
    {
      "type": "way",
      "id": 1172526868,
      "center": {
        "lat": 12.9550657,
        "lon": 77.7175366
      },
      "tags": {
        "amenity": "cafe",
        "building": "commercial",
        "building:levels": "2",
        "check_date": "2025-09-27",
        "name": "Sagar's Cafe",
        "outdoor_seating": "yes"
      }
    },
    {
      "type": "way",
      "id": 1193082971,
      "center": {
        "lat": 12.961356,
        "lon": 77.715199
      },
      "tags": {
        "amenity": "parking",
        "parking": "surface",
        "surface": "ground"
      }
    },
    {
      "type": "way",
      "id": 1193373898,
      "center": {
        "lat": 12.9562436,
        "lon": 77.7188278
      },
      "tags": {
        "addr:street": "Varthur Road",
        "building": "retail",
        "building:levels": "2",
        "name": "Li Ning Superstore",
        "roof:levels": "0",
        "roof:shape": "flat",
        "shop": "sports",
        "sport": "badminton"
      }
    },
    {
      "type": "way",
      "id": 1193373899,
      "center": {
        "lat": 12.9567672,
        "lon": 77.7202118
      },
      "tags": {
        "access": "customers",
        "leisure": "swimming_pool",
        "location": "outdoor",
        "swimming_pool": "outdoor"
      }
    },
    {
      "type": "way",
      "id": 1193373901,
      "center": {
        "lat": 12.9586638,
        "lon": 77.7285702
      },
      "tags": {
        "leisure": "pitch",
        "name": "Pure Stroke Tennis Academy",
        "sport": "tennis"
      }
    },
    {
      "type": "way",
      "id": 1193373906,
      "center": {
        "lat": 12.9556144,
        "lon": 77.723197
      },
      "tags": {
        "amenity": "fuel",
        "brand": "Bharat Petroleum",
        "brand:wikidata": "Q854826",
        "check_date": "2025-07-05",
        "compressed_air": "yes",
        "name": "Bharat Petroleum",
        "official_name": "Hindustan Petroleum"
      }
    },
    {
      "type": "way",
      "id": 1193373907,
      "center": {
        "lat": 12.9557543,
        "lon": 77.7302216
      },
      "tags": {
        "access": "customers",
        "amenity": "parking",
        "parking": "surface",
        "surface": "ground"
      }
    },
    {
      "type": "way",
      "id": 1193379654,
      "center": {
        "lat": 12.9523269,
        "lon": 77.724753
      },
      "tags": {
        "building": "yes",
        "description": "Swimming Academy with twin pools",
        "leisure": "sports_centre",
        "name": "Gurukul Swimming Academy",
        "sport": "swimming"
      }
    },
    {
      "type": "way",
      "id": 1193379668,
      "center": {
        "lat": 12.9547235,
        "lon": 77.7279621
      },
      "tags": {
        "leisure": "pitch",
        "sport": "tennis"
      }
    },
    {
      "type": "way",
      "id": 1193379675,
      "center": {
        "lat": 12.954717,
        "lon": 77.7280974
      },
      "tags": {
        "leisure": "pitch",
        "sport": "tennis"
      }
    },
    {
      "type": "way",
      "id": 1193379676,
      "center": {
        "lat": 12.9550745,
        "lon": 77.7281122
      },
      "tags": {
        "leisure": "pitch",
        "sport": "tennis"
      }
    },
    {
      "type": "way",
      "id": 1193379677,
      "center": {
        "lat": 12.9550778,
        "lon": 77.7279855
      },
      "tags": {
        "leisure": "pitch",
        "sport": "tennis"
      }
    },
    {
      "type": "way",
      "id": 1193379678,
      "center": {
        "lat": 12.9543755,
        "lon": 77.727951
      },
      "tags": {
        "leisure": "pitch",
        "sport": "tennis"
      }
    },
    {
      "type": "way",
      "id": 1193379679,
      "center": {
        "lat": 12.9543739,
        "lon": 77.728076
      },
      "tags": {
        "leisure": "pitch",
        "sport": "tennis"
      }
    },
    {
      "type": "way",
      "id": 1193379680,
      "center": {
        "lat": 12.9547266,
        "lon": 77.7285285
      },
      "tags": {
        "leisure": "pitch",
        "sport": "tennis"
      }
    },
    {
      "type": "way",
      "id": 1193379681,
      "center": {
        "lat": 12.954717,
        "lon": 77.7286568
      },
      "tags": {
        "leisure": "pitch",
        "sport": "tennis"
      }
    },
    {
      "type": "way",
      "id": 1193379682,
      "center": {
        "lat": 12.9547074,
        "lon": 77.7287917
      },
      "tags": {
        "leisure": "pitch",
        "sport": "tennis"
      }
    },
    {
      "type": "way",
      "id": 1193379683,
      "center": {
        "lat": 12.954701,
        "lon": 77.7289316
      },
      "tags": {
        "leisure": "pitch",
        "sport": "tennis"
      }
    },
    {
      "type": "way",
      "id": 1193379684,
      "center": {
        "lat": 12.9549319,
        "lon": 77.7287358
      },
      "tags": {
        "leisure": "pitch",
        "sport": "tennis"
      }
    },
    {
      "type": "way",
      "id": 1193379685,
      "center": {
        "lat": 12.9550489,
        "lon": 77.7287391
      },
      "tags": {
        "leisure": "pitch",
        "sport": "tennis"
      }
    },
    {
      "type": "way",
      "id": 1193379686,
      "center": {
        "lat": 12.9548355,
        "lon": 77.7287276
      },
      "tags": {
        "check_date": "2025-10-25",
        "leisure": "sports_centre",
        "name": "Tams Tennis Academy & Club"
      }
    },
    {
      "type": "way",
      "id": 1193379687,
      "center": {
        "lat": 12.9547212,
        "lon": 77.7280305
      },
      "tags": {
        "leisure": "sports_centre"
      }
    },
    {
      "type": "way",
      "id": 1203852514,
      "center": {
        "lat": 12.9628507,
        "lon": 77.718199
      },
      "tags": {
        "amenity": "parking"
      }
    },
    {
      "type": "way",
      "id": 1206209606,
      "center": {
        "lat": 12.9560043,
        "lon": 77.7215015
      },
      "tags": {
        "access": "customers",
        "amenity": "parking",
        "parking": "surface"
      }
    },
    {
      "type": "way",
      "id": 1208415943,
      "center": {
        "lat": 12.9563355,
        "lon": 77.7286752
      },
      "tags": {
        "access": "private",
        "amenity": "parking",
        "parking": "carports"
      }
    },
    {
      "type": "way",
      "id": 1208415944,
      "center": {
        "lat": 12.9563313,
        "lon": 77.7288384
      },
      "tags": {
        "access": "private",
        "amenity": "parking",
        "parking": "carports"
      }
    },
    {
      "type": "way",
      "id": 1208465171,
      "center": {
        "lat": 12.9629434,
        "lon": 77.7224812
      },
      "tags": {
        "access": "private",
        "amenity": "parking",
        "parking": "surface"
      }
    },
    {
      "type": "way",
      "id": 1208517407,
      "center": {
        "lat": 12.9565649,
        "lon": 77.7182641
      },
      "tags": {
        "access": "private",
        "leisure": "swimming_pool"
      }
    },
    {
      "type": "way",
      "id": 1208517414,
      "center": {
        "lat": 12.9571266,
        "lon": 77.7174313
      },
      "tags": {
        "access": "private",
        "leisure": "swimming_pool"
      }
    },
    {
      "type": "way",
      "id": 1209278252,
      "center": {
        "lat": 12.9475892,
        "lon": 77.7161012
      },
      "tags": {
        "leisure": "pitch",
        "sport": "cricket_nets"
      }
    },
    {
      "type": "way",
      "id": 1209278253,
      "center": {
        "lat": 12.9478285,
        "lon": 77.7161806
      },
      "tags": {
        "leisure": "pitch",
        "sport": "cricket"
      }
    },
    {
      "type": "way",
      "id": 1209278254,
      "center": {
        "lat": 12.9477539,
        "lon": 77.7159578
      },
      "tags": {
        "building": "sports_hall",
        "leisure": "sports_hall",
        "sport": "badminton"
      }
    },
    {
      "type": "way",
      "id": 1209278255,
      "center": {
        "lat": 12.9476607,
        "lon": 77.7160098
      },
      "tags": {
        "landuse": "commercial",
        "leisure": "sports_centre",
        "name": "PlayTM Sports Arena"
      }
    },
    {
      "type": "way",
      "id": 1210108248,
      "center": {
        "lat": 12.9591546,
        "lon": 77.7202956
      },
      "tags": {
        "addr:housenumber": "533",
        "addr:street": "8th Main Road",
        "building": "retail",
        "building:levels": "1",
        "check_date": "2025-11-21",
        "name": "Sree Amman",
        "shop": "greengrocer"
      }
    },
    {
      "type": "way",
      "id": 1217554963,
      "center": {
        "lat": 12.9553496,
        "lon": 77.7175403
      },
      "tags": {
        "amenity": "parking"
      }
    },
    {
      "type": "way",
      "id": 1220972836,
      "center": {
        "lat": 12.9617902,
        "lon": 77.7168356
      },
      "tags": {
        "amenity": "parking",
        "parking": "surface"
      }
    },
    {
      "type": "way",
      "id": 1232081760,
      "center": {
        "lat": 12.9548805,
        "lon": 77.7180115
      },
      "tags": {
        "access": "private",
        "leisure": "swimming_pool"
      }
    },
    {
      "type": "way",
      "id": 1232081763,
      "center": {
        "lat": 12.9546249,
        "lon": 77.7182165
      },
      "tags": {
        "access": "private",
        "layer": "1",
        "leisure": "swimming_pool",
        "location": "roof",
        "outdoor": "yes"
      }
    },
    {
      "type": "way",
      "id": 1233541867,
      "center": {
        "lat": 12.9591671,
        "lon": 77.7269049
      },
      "tags": {
        "access": "customers",
        "amenity": "parking",
        "parking": "surface"
      }
    },
    {
      "type": "way",
      "id": 1240091186,
      "center": {
        "lat": 12.949089,
        "lon": 77.7172932
      },
      "tags": {
        "access": "private",
        "leisure": "pitch",
        "sport": "tennis"
      }
    },
    {
      "type": "way",
      "id": 1240091187,
      "center": {
        "lat": 12.948681,
        "lon": 77.7173165
      },
      "tags": {
        "access": "private",
        "leisure": "swimming_pool",
        "location": "outdoor"
      }
    },
    {
      "type": "way",
      "id": 1240091198,
      "center": {
        "lat": 12.9488437,
        "lon": 77.7175258
      },
      "tags": {
        "access": "private",
        "amenity": "parking",
        "orientation": "perpendicular",
        "parking": "street_side"
      }
    },
    {
      "type": "way",
      "id": 1240091199,
      "center": {
        "lat": 12.9494406,
        "lon": 77.717359
      },
      "tags": {
        "access": "private",
        "leisure": "park"
      }
    },
    {
      "type": "way",
      "id": 1240091215,
      "center": {
        "lat": 12.9488639,
        "lon": 77.7173137
      },
      "tags": {
        "leisure": "playground"
      }
    },
    {
      "type": "way",
      "id": 1258329948,
      "center": {
        "lat": 12.9562858,
        "lon": 77.7194265
      },
      "tags": {
        "access": "customers",
        "amenity": "parking",
        "fee": "no",
        "parking": "surface",
        "surface": "dirt"
      }
    },
    {
      "type": "way",
      "id": 1258329949,
      "center": {
        "lat": 12.9559925,
        "lon": 77.7188092
      },
      "tags": {
        "access": "customers",
        "amenity": "parking",
        "fee": "no",
        "parking": "surface",
        "surface": "paving_stones"
      }
    },
    {
      "type": "way",
      "id": 1259449682,
      "center": {
        "lat": 12.9543987,
        "lon": 77.7198516
      },
      "tags": {
        "amenity": "school",
        "landuse": "education",
        "name": "Narayana e-techno School"
      }
    },
    {
      "type": "way",
      "id": 1259449683,
      "center": {
        "lat": 12.9544126,
        "lon": 77.7197945
      },
      "tags": {
        "leisure": "pitch",
        "sport": "basketball"
      }
    },
    {
      "type": "way",
      "id": 1261371952,
      "center": {
        "lat": 12.9528214,
        "lon": 77.716966
      },
      "tags": {
        "leisure": "pitch",
        "sport": "tennis"
      }
    },
    {
      "type": "way",
      "id": 1261374497,
      "center": {
        "lat": 12.9519803,
        "lon": 77.7201521
      },
      "tags": {
        "access": "private",
        "leisure": "swimming_pool"
      }
    },
    {
      "type": "way",
      "id": 1262043647,
      "center": {
        "lat": 12.9556461,
        "lon": 77.7150288
      },
      "tags": {
        "access": "customers",
        "amenity": "parking",
        "parking": "surface"
      }
    },
    {
      "type": "way",
      "id": 1262043648,
      "center": {
        "lat": 12.9549405,
        "lon": 77.7147246
      },
      "tags": {
        "access": "private",
        "leisure": "swimming_pool"
      }
    },
    {
      "type": "way",
      "id": 1263143678,
      "center": {
        "lat": 12.9520885,
        "lon": 77.7241556
      },
      "tags": {
        "access": "customers",
        "amenity": "parking",
        "parking": "surface"
      }
    },
    {
      "type": "way",
      "id": 1263173338,
      "center": {
        "lat": 12.9466403,
        "lon": 77.7220628
      },
      "tags": {
        "addr:housenumber": "328",
        "addr:street": "Thubarahalli Temple Road",
        "building": "yes",
        "email": "contact@nyestilo.com",
        "name": "NY Interiors",
        "phone": "+918139990005",
        "shop": "interior_decoration",
        "website": "https://www.nyestilo.com/"
      }
    },
    {
      "type": "way",
      "id": 1263173362,
      "center": {
        "lat": 12.9489612,
        "lon": 77.7227625
      },
      "tags": {
        "access": "private",
        "leisure": "swimming_pool"
      }
    },
    {
      "type": "way",
      "id": 1263615405,
      "center": {
        "lat": 12.9474634,
        "lon": 77.7175699
      },
      "tags": {
        "leisure": "pitch"
      }
    },
    {
      "type": "way",
      "id": 1266008889,
      "center": {
        "lat": 12.9532426,
        "lon": 77.7167407
      },
      "tags": {
        "access": "private",
        "leisure": "swimming_pool",
        "location": "outdoor",
        "swimming_pool": "wading"
      }
    },
    {
      "type": "way",
      "id": 1266008890,
      "center": {
        "lat": 12.9533436,
        "lon": 77.7165181
      },
      "tags": {
        "access": "private",
        "leisure": "swimming_pool",
        "location": "outdoor",
        "swimming_pool": "wading"
      }
    },
    {
      "type": "way",
      "id": 1269085015,
      "center": {
        "lat": 12.9625409,
        "lon": 77.7206298
      },
      "tags": {
        "access": "private",
        "amenity": "parking",
        "parking": "surface"
      }
    },
    {
      "type": "way",
      "id": 1269085016,
      "center": {
        "lat": 12.9624919,
        "lon": 77.720416
      },
      "tags": {
        "access": "private",
        "amenity": "parking",
        "parking": "surface"
      }
    },
    {
      "type": "way",
      "id": 1269085017,
      "center": {
        "lat": 12.9626767,
        "lon": 77.7201414
      },
      "tags": {
        "access": "private",
        "amenity": "parking",
        "parking": "surface"
      }
    },
    {
      "type": "way",
      "id": 1269085020,
      "center": {
        "lat": 12.9637263,
        "lon": 77.7201323
      },
      "tags": {
        "leisure": "park"
      }
    },
    {
      "type": "way",
      "id": 1272698799,
      "center": {
        "lat": 12.9509597,
        "lon": 77.7183904
      },
      "tags": {
        "access": "private",
        "amenity": "parking",
        "orientation": "perpendicular",
        "parking": "street_side"
      }
    },
    {
      "type": "way",
      "id": 1272698800,
      "center": {
        "lat": 12.9501528,
        "lon": 77.7183337
      },
      "tags": {
        "access": "private",
        "amenity": "parking",
        "orientation": "perpendicular",
        "parking": "street_side"
      }
    },
    {
      "type": "way",
      "id": 1274389109,
      "center": {
        "lat": 12.9617966,
        "lon": 77.7270484
      },
      "tags": {
        "leisure": "playground",
        "name": "Dream Medows Childrens' Park"
      }
    },
    {
      "type": "way",
      "id": 1274389126,
      "center": {
        "lat": 12.9631628,
        "lon": 77.7246771
      },
      "tags": {
        "amenity": "kindergarten",
        "building": "yes",
        "name": "Creations Montessori"
      }
    },
    {
      "type": "way",
      "id": 1276287616,
      "center": {
        "lat": 12.9553959,
        "lon": 77.7212674
      },
      "tags": {
        "amenity": "toilets",
        "building": "yes"
      }
    },
    {
      "type": "way",
      "id": 1278238553,
      "center": {
        "lat": 12.9590533,
        "lon": 77.7175991
      },
      "tags": {
        "access": "customers",
        "amenity": "parking",
        "parking": "surface"
      }
    },
    {
      "type": "way",
      "id": 1286532669,
      "center": {
        "lat": 12.9560017,
        "lon": 77.7164636
      },
      "tags": {
        "amenity": "parking",
        "parking": "surface"
      }
    },
    {
      "type": "way",
      "id": 1311086024,
      "center": {
        "lat": 12.9559284,
        "lon": 77.7170104
      },
      "tags": {
        "amenity": "parking",
        "parking": "surface"
      }
    },
    {
      "type": "way",
      "id": 1312137075,
      "center": {
        "lat": 12.95969,
        "lon": 77.7169397
      },
      "tags": {
        "amenity": "restaurant",
        "building": "retail",
        "building:levels": "1",
        "name": "Aadvitha's Spice"
      }
    },
    {
      "type": "way",
      "id": 1347724899,
      "center": {
        "lat": 12.9566836,
        "lon": 77.712382
      },
      "tags": {
        "amenity": "hospital",
        "emergency": "yes",
        "healthcare": "hospital",
        "name": "Sri Vishveshathirtha Memorial Hospital",
        "short_name": "SVM Hospital"
      }
    },
    {
      "type": "way",
      "id": 1423240813,
      "center": {
        "lat": 12.9546335,
        "lon": 77.7195356
      },
      "tags": {
        "access": "private",
        "leisure": "playground",
        "max_age": "12"
      }
    },
    {
      "type": "way",
      "id": 1423240814,
      "center": {
        "lat": 12.9547453,
        "lon": 77.7195399
      },
      "tags": {
        "access": "private",
        "leisure": "pitch",
        "sport": "volleyball;basketball"
      }
    },
    {
      "type": "way",
      "id": 1428082958,
      "center": {
        "lat": 12.9503106,
        "lon": 77.7172552
      },
      "tags": {
        "access": "private",
        "leisure": "pitch",
        "lit": "yes",
        "name": "Vaswani Brentwood Apartments Tennis court",
        "sport": "tennis"
      }
    },
    {
      "type": "way",
      "id": 1428082959,
      "center": {
        "lat": 12.950102,
        "lon": 77.7172885
      },
      "tags": {
        "access": "private",
        "hoops": "1",
        "leisure": "pitch",
        "lit": "yes",
        "name": "Vaswani Brentwood Apartments Basketball Court",
        "sport": "basketball"
      }
    },
    {
      "type": "way",
      "id": 1431535060,
      "center": {
        "lat": 12.9556857,
        "lon": 77.7207935
      },
      "tags": {
        "amenity": "place_of_worship",
        "building": "shrine",
        "building:levels": "1",
        "name": "Sree Kaveramma Temple",
        "religion": "hindu"
      }
    },
    {
      "type": "way",
      "id": 1431535061,
      "center": {
        "lat": 12.9557111,
        "lon": 77.7219904
      },
      "tags": {
        "amenity": "place_of_worship",
        "building": "temple",
        "building:levels": "1",
        "religion": "hindu"
      }
    },
    {
      "type": "way",
      "id": 1432497737,
      "center": {
        "lat": 12.9571275,
        "lon": 77.7212907
      },
      "tags": {
        "access": "private",
        "leisure": "swimming_pool",
        "location": "outdoor"
      }
    },
    {
      "type": "way",
      "id": 1432497758,
      "center": {
        "lat": 12.9549353,
        "lon": 77.7182175
      },
      "tags": {
        "access": "private",
        "leisure": "playground"
      }
    },
    {
      "type": "way",
      "id": 1434285699,
      "center": {
        "lat": 12.9629313,
        "lon": 77.7242863
      },
      "tags": {
        "access": "private",
        "leisure": "playground"
      }
    },
    {
      "type": "way",
      "id": 1441753659,
      "center": {
        "lat": 12.9520818,
        "lon": 77.7156068
      },
      "tags": {
        "amenity": "place_of_worship",
        "check_date": "2025-10-12",
        "landuse": "religious",
        "name": "Saint George Church",
        "religion": "christian"
      }
    },
    {
      "type": "way",
      "id": 1441753879,
      "center": {
        "lat": 12.9542811,
        "lon": 77.7163886
      },
      "tags": {
        "access": "private",
        "leisure": "playground"
      }
    },
    {
      "type": "way",
      "id": 1441753880,
      "center": {
        "lat": 12.9542674,
        "lon": 77.7164932
      },
      "tags": {
        "access": "private",
        "leisure": "swimming_pool"
      }
    },
    {
      "type": "way",
      "id": 1442060611,
      "center": {
        "lat": 12.9601311,
        "lon": 77.7208302
      },
      "tags": {
        "leisure": "playground"
      }
    },
    {
      "type": "way",
      "id": 1443415945,
      "center": {
        "lat": 12.9515265,
        "lon": 77.7165528
      },
      "tags": {
        "access": "private",
        "leisure": "playground"
      }
    },
    {
      "type": "way",
      "id": 1443415946,
      "center": {
        "lat": 12.9506636,
        "lon": 77.7169506
      },
      "tags": {
        "access": "private",
        "leisure": "swimming_pool"
      }
    },
    {
      "type": "way",
      "id": 1443415979,
      "center": {
        "lat": 12.952273,
        "lon": 77.7147319
      },
      "tags": {
        "access": "private",
        "leisure": "playground"
      }
    },
    {
      "type": "way",
      "id": 1453799691,
      "center": {
        "lat": 12.9503169,
        "lon": 77.7194299
      },
      "tags": {
        "access": "customers",
        "leisure": "pitch",
        "sport": "soccer"
      }
    },
    {
      "type": "way",
      "id": 1453799692,
      "center": {
        "lat": 12.9495758,
        "lon": 77.7194578
      },
      "tags": {
        "leisure": "sports_centre"
      }
    }
  ]
}