{
  "area_name": "Thyagarajnagar",
  "osm_id": 19883389,
  "osm_type": "relation",
  "place_type": "administrative",
  "amenity_count": 17,
  "amenities": [
    {
      "type": "node",
      "id": 1085578890,
      "lat": 12.9318576,
      "lon": 77.5648659,
      "tags": {
        "amenity": "place_of_worship",
        "name": "Muneshwara Temple",
        "name:kn": "ಮುನೇಶ್ವರ ದೇವಸ್ಥಾನ",
        "religion": "hindu"
      }
    },
    {
      "type": "node",
      "id": 1467778590,
      "lat": 12.9333966,
      "lon": 77.5660039,
      "tags": {
        "addr:housename": "'Omkara Nilaya'",
        "addr:housenumber": "161",
        "addr:postcode": "560028",
        "addr:street": "3rd Block, T. R. Nagar, 6th Cross, 6th Main",
        "name": "Sri Lakshmi Venkateshwara Provision Stores",
        "shop": "convenience"
      }
    },
    {
      "type": "node",
      "id": 1467794468,
      "lat": 12.9321898,
      "lon": 77.5656194,
      "tags": {
        "amenity": "place_of_worship",
        "name": "Sharadamba Temple",
        "name:kn": "ಶಾರದಾಂಬ ದೇವಸ್ಥಾನ",
        "religion": "hindu"
      }
    },
    {
      "type": "node",
      "id": 1467794476,
      "lat": 12.9327754,
      "lon": 77.5660244,
      "tags": {
        "amenity": "place_of_worship",
        "name": "Abhaya Lakshmi Narasimha Temple",
        "name:kn": "ಅಭಯ ಲಕ್ಷ್ಮಿ ನರಸಿಂಹ",
        "religion": "hindu"
      }
    },
    {
      "type": "node",
      "id": 1467794482,
      "lat": 12.9332872,
      "lon": 77.5679132,
      "tags": {
        "amenity": "place_of_worship",
        "name": "Plague Ammana Temple",
        "religion": "hindu"
      }
    },
    {
      "type": "node",
      "id": 1467794502,
      "lat": 12.9327937,
      "lon": 77.5677437,
      "tags": {
        "addr:postcode": "560028",
        "addr:street": "2nd Main",
        "amenity": "pharmacy",
        "dispensing": "yes",
        "name": "T R Medicals"
      }
    },
    {
      "type": "node",
      "id": 1467794510,
      "lat": 12.9318604,
      "lon": 77.5672556,
      "tags": {
        "amenity": "place_of_worship",
        "name": "Shanimahatma Temple",
        "name:kn": "ಶನಿ ಮಹಾತ್ಮ ದೇವಸ್ಥಾನ",
        "religion": "hindu"
      }
    },
    {
      "type": "node",
      "id": 1470553353,
      "lat": 12.9323571,
      "lon": 77.5676123,
      "tags": {
        "addr:postcode": "560028",
        "addr:street": "2nd Main Road",
        "amenity": "pharmacy",
        "brand": "Apollo Pharmacy",
        "brand:wikidata": "Q62562612",
        "dispensing": "yes",
        "healthcare": "pharmacy",
        "name": "Apollo Pharmacy",
        "name:kn": "ಅಪೋಲೋ ಫಾರ್ಮಸಿ"
      }
    },
    {
      "type": "node",
      "id": 1741456815,
      "lat": 12.931931,
      "lon": 77.5640576,
      "tags": {
        "amenity": "atm",
        "operator": "HDFC Bank"
      }
    },
    {
      "type": "node",
      "id": 1741810626,
      "lat": 12.9321266,
      "lon": 77.5641271,
      "tags": {
        "shop": "toys"
      }
    },
    {
      "type": "node",
      "id": 4443420825,
      "lat": 12.9326403,
      "lon": 77.5656287,
      "tags": {
        "addr:city": "Bangalore",
        "addr:housenumber": "147/1",
        "addr:postcode": "560004",
        "addr:street": "Basavangudi",
        "amenity": "restaurant",
        "cuisine": "regional",
        "delivery": "yes",
        "name": "Koli Mane",
        "name:kn": "ಕೋಳಿಮನೆ",
        "phone": "080 2676 5670",
        "smoking": "no"
      }
    },
    {
      "type": "node",
      "id": 4446310318,
      "lat": 12.9303018,
      "lon": 77.5666608,
      "tags": {
        "addr:city": "Banashankari,Bangalore",
        "addr:housenumber": "43/2",
        "addr:postcode": "560070",
        "addr:street": "2nd Main Road",
        "amenity": "restaurant",
        "cuisine": "regional",
        "name": "New Prashanth Hotel",
        "opening_hours": "12:30-16:00,19:30-23:00",
        "phone": "080 49569558",
        "takeaway": "yes"
      }
    },
    {
      "type": "node",
      "id": 7579924719,
      "lat": 12.9318184,
      "lon": 77.5556681,
      "tags": {
        "addr:district": "Bengaluru Urban",
        "addr:full": "Srinivasnagar, Banashankari, Bengaluru",
        "addr:postcode": "560085",
        "addr:state": "Karnataka",
        "amenity": "dentist",
        "name": "Niramaya Dental care",
        "source": "Local Knowledge"
      }
    },
    {
      "type": "node",
      "id": 8727014189,
      "lat": 12.9322882,
      "lon": 77.5641817,
      "tags": {
        "addr:city": "Bengaluru",
        "addr:postcode": "560085",
        "addr:street": "CHENNAMMANAKERE main road",
        "amenity": "bank",
        "atm": "yes",
        "brand": "State Bank of India",
        "brand:wikidata": "Q1340361",
        "name": "State Bank of India",
        "name:kn": "ಎಸ್ ಬಿ ಐ",
        "opening_hours": "Mo-Su 06:00-22:00",
        "short_name": "SBI"
      }
    },
    {
      "type": "way",
      "id": 162259161,
      "center": {
        "lat": 12.9310077,
        "lon": 77.5630314
      },
      "tags": {
        "leisure": "track",
        "name": "Roller Skating Track"
      }
    },
    {
      "type": "way",
      "id": 162259366,
      "center": {
        "lat": 12.9315108,
        "lon": 77.5636909
      },
      "tags": {
        "addr:city": "Bangalore",
        "addr:postcode": "560085",
        "addr:street": "Chennammanakere main road",
        "leisure": "park",
        "name": "SSM park (Chennammanakere park)",
        "name:kn": "ಚನ್ನಮ್ಮನಕೆರೆ ಅಚ್ಚುಕಟ್ಟು",
        "opening_hours": "sunrise-sunset",
        "opening_hours:covid19": "Park mainly for walking, but small portion also has play equipments for kids to play",
        "operator": "SSM School"
      }
    },
    {
      "type": "way",
      "id": 1263807443,
      "center": {
        "lat": 12.9314129,
        "lon": 77.5631508
      },
      "tags": {
        "addr:city": "Bangalore",
        "addr:postcode": "560085",
        "addr:street": "Vidya Peetha Layout Main Road",
        "leisure": "pitch",
        "name": "Channammana Kere Grounds",
        "name:kn": "ಚನ್ನಮ್ಮನ ಕೆರೆ",
        "operator": "SSM School",
        "source": "GPS"
      }
    }
  ]
}