{
  "area_name": "Tilak Nagar",
  "osm_id": 493538976,
  "osm_type": "node",
  "place_type": "neighbourhood",
  "amenity_count": 380,
  "amenities": [
    {
      "type": "node",
      "id": 307413315,
      "lat": 12.9314045,
      "lon": 77.5924636,
      "tags": {
        "amenity": "pharmacy",
        "healthcare": "pharmacy"
      }
    },
    {
      "type": "node",
      "id": 364645835,
      "lat": 12.932868,
      "lon": 77.5872561,
      "tags": {
        "amenity": "place_of_worship",
        "name": "Ganesha Temple",
        "name:kn": "ಗಣೇಶ ದೇವಸ್ಥಾನ",
        "religion": "hindu"
      }
    },
    {
      "type": "node",
      "id": 493530632,
      "lat": 12.9233773,
      "lon": 77.598919,
      "tags": {
        "amenity": "cinema",
        "name": "Maheshwari",
        "name:kn": "ಮಹೇಶ್ವರಿ"
      }
    },
    {
      "type": "node",
      "id": 595409791,
      "lat": 12.9269294,
      "lon": 77.5861832,
      "tags": {
        "alt_name": "Kentucky Fried Chicken",
        "alt_name:en": "Kentucky Fried Chicken",
        "alt_name:hi": "केंटुकी फ्राइड चिकन",
        "alt_name:pa": "ਕੈਂਟੁਕੀ ਫ੍ਰਾਈਡ ਚਿਕਨ",
        "alt_name:pnb": "کینٹکی فرائیڈ چکن",
        "alt_name:ur": "کینٹکی فرائیڈ چکن",
        "amenity": "fast_food",
        "brand": "KFC",
        "brand:en": "KFC",
        "brand:hi": "केएफसी",
        "brand:pa": "ਕੇਐਫਸੀ",
        "brand:pnb": "کے ایف سی",
        "brand:ur": "کے ایف سی",
        "brand:wikidata": "Q524757",
        "brand:wikipedia": "en:KFC",
        "brand:wikipedia:pa": "ਕੇਐਫਸੀ",
        "brand:wikipedia:ur": "کینٹکی فرائیڈ چکن",
        "cuisine": "chicken",
        "name": "KFC",
        "name:en": "KFC",
        "name:hi": "केएफसी",
        "name:kn": "ಕೆಎಫ್‌ಸಿ",
        "name:pa": "ਕੇਐਫਸੀ",
        "name:pnb": "کے ایف سی",
        "name:ur": "کے ایف سی",
        "takeaway": "yes"
      }
    },
    {
      "type": "node",
      "id": 691164726,
      "lat": 12.928367,
      "lon": 77.5905691,
      "tags": {
        "addr:street": "Tilak Nagar Main Road",
        "amenity": "police",
        "name": "Tilaknagar Police Station",
        "name:kn": "ತಿಲಕ್ ನಗರ ಪೋಲಿಸ್ ಟಾಣೆ"
      }
    },
    {
      "type": "node",
      "id": 691930445,
      "lat": 12.9234317,
      "lon": 77.5923374,
      "tags": {
        "amenity": "hospital",
        "check_date": "2024-08-18",
        "name": "BMTC Hospital",
        "name:kn": "ಬಿಎಂಟಿಸಿ ಆಸ್ಪತ್ರೆ",
        "wheelchair": "yes"
      }
    },
    {
      "type": "node",
      "id": 691930449,
      "lat": 12.9241534,
      "lon": 77.5870587,
      "tags": {
        "amenity": "place_of_worship",
        "name": "Raghavendra Swamy Mutt",
        "name:kn": "ರಾಘವೇಂದ್ರ ಸ್ವಾಮಿ ಮಠ",
        "religion": "hindu"
      }
    },
    {
      "type": "node",
      "id": 691930460,
      "lat": 12.9255101,
      "lon": 77.591876,
      "tags": {
        "amenity": "post_box",
        "name": "Tilaknagar Post Office",
        "name:kn": "ತಿಲಕ್ ನಗರ ಅಂಚೆ ಕಛೇರಿ"
      }
    },
    {
      "type": "node",
      "id": 922289018,
      "lat": 12.924695,
      "lon": 77.6012962,
      "tags": {
        "amenity": "Office Space",
        "name": "Subramanya Arcade"
      }
    },
    {
      "type": "node",
      "id": 1015924225,
      "lat": 12.9279136,
      "lon": 77.5866159,
      "tags": {
        "amenity": "college",
        "name": "Vijaya Pre-University College",
        "name:kn": "ವಿಜಯ ಪದವಿಪೂರ್ವ ಕಾಲೇಜು"
      }
    },
    {
      "type": "node",
      "id": 1015924248,
      "lat": 12.9217736,
      "lon": 77.5925109,
      "tags": {
        "amenity": "school",
        "name": "Holy Saint English School",
        "name:kn": "ಹೊಲಿ ಸೆಂಟ್ ಆಂಗ್ಲ ಶಾಲೆ"
      }
    },
    {
      "type": "node",
      "id": 1070254109,
      "lat": 12.9276723,
      "lon": 77.5998977,
      "tags": {
        "amenity": "parking",
        "name": "Sagar Hospital Parking"
      }
    },
    {
      "type": "node",
      "id": 1307555240,
      "lat": 12.9308436,
      "lon": 77.5955007,
      "tags": {
        "name": "Sagar Automobiles",
        "shop": "car"
      }
    },
    {
      "type": "node",
      "id": 1438209102,
      "lat": 12.9332952,
      "lon": 77.591203,
      "tags": {
        "amenity": "place_of_worship",
        "denomination": "sunni",
        "name": "Masjid Umar Farooq (Byrasandra)",
        "religion": "muslim"
      }
    },
    {
      "type": "node",
      "id": 1440356371,
      "lat": 12.9354499,
      "lon": 77.5925943,
      "tags": {
        "amenity": "pharmacy",
        "healthcare": "pharmacy",
        "name": "Ramdev Medicals"
      }
    },
    {
      "type": "node",
      "id": 1440356373,
      "lat": 12.9358054,
      "lon": 77.5927686,
      "tags": {
        "amenity": "pharmacy",
        "brand": "Wellness Forever",
        "brand:wikidata": "Q123114721",
        "healthcare": "pharmacy",
        "name": "Wellness Forever",
        "name:en": "Wellness forever"
      }
    },
    {
      "type": "node",
      "id": 1465122321,
      "lat": 12.9190717,
      "lon": 77.5936093,
      "tags": {
        "amenity": "marketplace",
        "name": "Jayanagar 9th Block market"
      }
    },
    {
      "type": "node",
      "id": 1465131843,
      "lat": 12.9231515,
      "lon": 77.5893938,
      "tags": {
        "addr:street": "36 Cross",
        "amenity": "fast_food",
        "cuisine": "regional",
        "name": "Shanthi Sagar",
        "name:kn": "ಶಾಂತಿ ಸಾಗರ",
        "opening_hours": "Mo-Su 07:00-23:00"
      }
    },
    {
      "type": "node",
      "id": 1465146871,
      "lat": 12.9198321,
      "lon": 77.5927344,
      "tags": {
        "amenity": "atm",
        "operator": "State Bank"
      }
    },
    {
      "type": "node",
      "id": 1465146874,
      "lat": 12.9226921,
      "lon": 77.5935766,
      "tags": {
        "amenity": "bank",
        "atm": "yes",
        "brand": "ICICI Bank",
        "brand:wikidata": "Q1653258",
        "name": "ICICI Bank",
        "name:en": "ICICI Bank",
        "name:kn": "ಐಸಿಐಸಿಐ ಬ್ಯಾಂಕು",
        "short_name": "ICICI",
        "website": "https://www.icicibank.com"
      }
    },
    {
      "type": "node",
      "id": 1466661277,
      "lat": 12.9193402,
      "lon": 77.5926135,
      "tags": {
        "addr:postcode": "560041",
        "amenity": "post_office",
        "name": "Post Office, Jayanagar 9th Block"
      }
    },
    {
      "type": "node",
      "id": 1466684135,
      "lat": 12.9309662,
      "lon": 77.6004616,
      "tags": {
        "amenity": "fuel",
        "brand": "Auto LPG",
        "fuel:cng": "yes",
        "fuel:lpg": "yes",
        "name": "Classic Auto Gas"
      }
    },
    {
      "type": "node",
      "id": 1466688325,
      "lat": 12.9301626,
      "lon": 77.6011209,
      "tags": {
        "addr:city": "Bangalore",
        "addr:housename": "Spar Hyper Market",
        "addr:housenumber": "39/3",
        "addr:postcode": "560029",
        "addr:street": "Bannerghatta Road",
        "branch": "Hypermarket",
        "brand": "Spar",
        "brand:wikidata": "Q610492",
        "name": "Spar",
        "phone": "(91)-80-41811600",
        "shop": "supermarket"
      }
    },
    {
      "type": "node",
      "id": 1466690355,
      "lat": 12.9284409,
      "lon": 77.5899078,
      "tags": {
        "shop": "bakery"
      }
    },
    {
      "type": "node",
      "id": 1466690713,
      "lat": 12.9284331,
      "lon": 77.5900599,
      "tags": {
        "amenity": "cafe",
        "name": "Brews & Bites"
      }
    },
    {
      "type": "node",
      "id": 1466726396,
      "lat": 12.9309732,
      "lon": 77.5901342,
      "tags": {
        "addr:street": "2nd Cross LIC Colony",
        "name": "Nandini Milk Diary",
        "shop": "convenience"
      }
    },
    {
      "type": "node",
      "id": 1466728973,
      "lat": 12.9307824,
      "lon": 77.5905204,
      "tags": {
        "name": "Hopcoms",
        "name:kn": "ಹಾಪ್ ಕಾಮ್ಸ್",
        "shop": "convenience"
      }
    },
    {
      "type": "node",
      "id": 1467501709,
      "lat": 12.9305893,
      "lon": 77.5862057,
      "tags": {
        "addr:street": "11th main",
        "designation": "she",
        "name": "she",
        "shop": "clothes",
        "source": "survey"
      }
    },
    {
      "type": "node",
      "id": 1473296715,
      "lat": 12.9293288,
      "lon": 77.5877091,
      "tags": {
        "addr:district": "Bengaluru Urban",
        "addr:full": "24/1-1, 14Th Main, 4Th Block East Jayanagar",
        "addr:postcode": "560041",
        "addr:state": "Karnataka",
        "amenity": "hospital",
        "emergency": "no",
        "name": "Jayanagar Orthopaedic Centre",
        "source": "OpenGovernmentData"
      }
    },
    {
      "type": "node",
      "id": 1473299194,
      "lat": 12.930445,
      "lon": 77.5896349,
      "tags": {
        "amenity": "atm",
        "operator": "Axis Bank ATM"
      }
    },
    {
      "type": "node",
      "id": 1473299378,
      "lat": 12.9318149,
      "lon": 77.5889456,
      "tags": {
        "shop": "convenience"
      }
    },
    {
      "type": "node",
      "id": 1473305828,
      "lat": 12.9284223,
      "lon": 77.589782,
      "tags": {
        "addr:street": "Tilak Nagar Main Road",
        "amenity": "fast_food",
        "diet:vegetarian": "only",
        "name": "SLV Swagath"
      }
    },
    {
      "type": "node",
      "id": 1473306667,
      "lat": 12.9286469,
      "lon": 77.5923821,
      "tags": {
        "amenity": "place_of_worship",
        "name": "Mahashakti Mari Amma Temple",
        "religion": "hindu"
      }
    },
    {
      "type": "node",
      "id": 1473309603,
      "lat": 12.9285393,
      "lon": 77.6001599,
      "tags": {
        "amenity": "bank",
        "atm": "yes",
        "brand": "ICICI Bank",
        "brand:wikidata": "Q1653258",
        "name": "ICICI Bank",
        "name:en": "ICICI Bank",
        "name:kn": "ಐಸಿಐಸಿಐ ಬ್ಯಾಂಕು",
        "short_name": "ICICI",
        "website": "https://www.icicibank.com"
      }
    },
    {
      "type": "node",
      "id": 1473311719,
      "lat": 12.9279589,
      "lon": 77.6008251,
      "tags": {
        "name": "Popular Bajaj",
        "shop": "motorcycle"
      }
    },
    {
      "type": "node",
      "id": 1473314929,
      "lat": 12.9277289,
      "lon": 77.6007983,
      "tags": {
        "name": "Popular Motor Corporation, Bajaj RE Commercial vehicle sales",
        "shop": "car"
      }
    },
    {
      "type": "node",
      "id": 1473315750,
      "lat": 12.9271381,
      "lon": 77.6006588,
      "tags": {
        "name": "Mahindra 2 Wheelers",
        "shop": "motorcycle"
      }
    },
    {
      "type": "node",
      "id": 1473874115,
      "lat": 12.9288216,
      "lon": 77.5861538,
      "tags": {
        "name": "Reliance jewellery",
        "name:kn": "ರಿಲಯನ್ಸ್ ಜಿವುಲೆರಿ",
        "shop": "jewelry"
      }
    },
    {
      "type": "node",
      "id": 1473876346,
      "lat": 12.9271168,
      "lon": 77.5861609,
      "tags": {
        "name": "Kalamandir",
        "shop": "clothes"
      }
    },
    {
      "type": "node",
      "id": 1473876451,
      "lat": 12.9287808,
      "lon": 77.5856675,
      "tags": {
        "amenity": "restaurant",
        "diet:vegetarian": "only",
        "name": "Shanti Sagara",
        "name:kn": "ಶಾಂತಿ ಸಾಗರ್"
      }
    },
    {
      "type": "node",
      "id": 1474090661,
      "lat": 12.9288447,
      "lon": 77.5857791,
      "tags": {
        "amenity": "restaurant",
        "diet:vegetarian": "only",
        "name": "Basaveshwar Khanavali"
      }
    },
    {
      "type": "node",
      "id": 1474091077,
      "lat": 12.9277143,
      "lon": 77.5861502,
      "tags": {
        "amenity": "restaurant",
        "diet:vegetarian": "only",
        "name": "1947",
        "name:kn": "೧೯೪೭"
      }
    },
    {
      "type": "node",
      "id": 1474091078,
      "lat": 12.9279957,
      "lon": 77.5861533,
      "tags": {
        "amenity": "fast_food",
        "brand": "McDonald's",
        "brand:pa": "ਮੈਕਡੋਨਲਡ’ਜ਼",
        "brand:ur": "مکڈونلڈز",
        "brand:wikidata": "Q38076",
        "brand:wikipedia": "en:McDonald's",
        "brand:wikipedia:pa": "ਮੈਕਡੋਨਲਡ’ਜ਼",
        "brand:wikipedia:ur": "مکڈونلڈز",
        "check_date": "2024-01-27",
        "cuisine": "burger",
        "name": "McDonald's",
        "name:kn": "ಮ್ಯಾಕ್‌ಡೊನಾಲ್ಡ್ಸ್",
        "name:pa": "ਮੈਕਡੋਨਲਡ’ਜ਼",
        "name:ur": "مکڈونلڈز",
        "takeaway": "yes"
      }
    },
    {
      "type": "node",
      "id": 1474266766,
      "lat": 12.9294525,
      "lon": 77.5861468,
      "tags": {
        "name": "Boots Bazaaar",
        "shop": "shoes"
      }
    },
    {
      "type": "node",
      "id": 1474270538,
      "lat": 12.9306365,
      "lon": 77.5862902,
      "tags": {
        "amenity": "fast_food",
        "name": "Vasudev Adigas",
        "name:kn": "ಅಡಿಗಾಸ್"
      }
    },
    {
      "type": "node",
      "id": 1474270539,
      "lat": 12.9287567,
      "lon": 77.586467,
      "tags": {
        "name": "GKB Opticals",
        "shop": "optician"
      }
    },
    {
      "type": "node",
      "id": 1474270540,
      "lat": 12.926201,
      "lon": 77.5864559,
      "tags": {
        "name": "Iyengar bakers",
        "shop": "bakery"
      }
    },
    {
      "type": "node",
      "id": 1474270542,
      "lat": 12.9306417,
      "lon": 77.5864695,
      "tags": {
        "name": "Pulla Reddy Sweets",
        "shop": "confectionery"
      }
    },
    {
      "type": "node",
      "id": 1474270927,
      "lat": 12.9258312,
      "lon": 77.5858477,
      "tags": {
        "name": "Kalanjali",
        "shop": "clothes"
      }
    },
    {
      "type": "node",
      "id": 1474291159,
      "lat": 12.9287644,
      "lon": 77.5858624,
      "tags": {
        "amenity": "fast_food",
        "cuisine": "ice_cream",
        "name": "Cool joint"
      }
    },
    {
      "type": "node",
      "id": 1474291160,
      "lat": 12.928945,
      "lon": 77.5859387,
      "tags": {
        "name": "Kalaniketan",
        "name:kn": "ಕಳಾನಿಕೇತನ್",
        "shop": "clothes"
      }
    },
    {
      "type": "node",
      "id": 1474291161,
      "lat": 12.9298539,
      "lon": 77.5861419,
      "tags": {
        "brand": "Raymond",
        "brand:wikidata": "Q3537018",
        "name": "Raymond",
        "shop": "clothes"
      }
    },
    {
      "type": "node",
      "id": 1474291163,
      "lat": 12.9290329,
      "lon": 77.5859122,
      "tags": {
        "name": "Roop sangam",
        "name:kn": "ರೂಪ ಸಂಗಮ",
        "shop": "clothes"
      }
    },
    {
      "type": "node",
      "id": 1474291164,
      "lat": 12.9292972,
      "lon": 77.5861487,
      "tags": {
        "name": "Titan Eye +",
        "shop": "optician"
      }
    },
    {
      "type": "node",
      "id": 1474291165,
      "lat": 12.9295627,
      "lon": 77.5861454,
      "tags": {
        "brand": "Van Heusen",
        "brand:wikidata": "Q67551865",
        "clothes": "men",
        "name": "Van Heusen",
        "shop": "clothes"
      }
    },
    {
      "type": "node",
      "id": 1474298490,
      "lat": 12.9283859,
      "lon": 77.5860867,
      "tags": {
        "name": "Book World",
        "name:kn": "ಬುಕ್ ವರ್ಲ್ಡ್",
        "shop": "books"
      }
    },
    {
      "type": "node",
      "id": 1491765447,
      "lat": 12.9322462,
      "lon": 77.5894525,
      "tags": {
        "amenity": "pharmacy"
      }
    },
    {
      "type": "node",
      "id": 1604968794,
      "lat": 12.9233957,
      "lon": 77.588428,
      "tags": {
        "amenity": "pharmacy",
        "dispensing": "no",
        "healthcare": "pharmacy",
        "name": "Lakshmi Medicals",
        "name:kn": "ಲಕ್ಷ್ಮೀ ಮೆಡಿಕಲ್ಸ್"
      }
    },
    {
      "type": "node",
      "id": 1604968795,
      "lat": 12.922965,
      "lon": 77.5893788,
      "tags": {
        "amenity": "community_centre",
        "name": "Partik Convention Hall",
        "name:kn": "ಪಾರ್ತಿಕ್ ಕನ್ವೆನ್ಶನ್ ಹಾಲ್"
      }
    },
    {
      "type": "node",
      "id": 1604968798,
      "lat": 12.9261942,
      "lon": 77.5861855,
      "tags": {
        "name": "Sun Times",
        "shop": "mobile_phone"
      }
    },
    {
      "type": "node",
      "id": 1604968800,
      "lat": 12.9236001,
      "lon": 77.5879513,
      "tags": {
        "amenity": "atm",
        "brand": "Corporation Bank",
        "brand:wikidata": "Q2003387",
        "name": "Corporation Bank",
        "name:kn": "ಕಾರ್ಪರೇಷನ್ ಬ್ಯಾಂಕ್",
        "operator": "Corporation Bank",
        "operator:wikidata": "Q2003387"
      }
    },
    {
      "type": "node",
      "id": 1657121854,
      "lat": 12.9269543,
      "lon": 77.5885571,
      "tags": {
        "amenity": "school",
        "designation": "College",
        "name": "Bangalore Educational Society",
        "name:kn": "ಬೆಂಗಳೂರು ಎಜುಕೇಶನಲ್ ಸೊಸೈಟಿ"
      }
    },
    {
      "type": "node",
      "id": 1657124481,
      "lat": 12.9308154,
      "lon": 77.5862906,
      "tags": {
        "amenity": "bank",
        "atm": "yes",
        "name": "Vijaya Bank",
        "name:kn": "ವಿಜಯ ಬ್ಯಾಂಕು"
      }
    },
    {
      "type": "node",
      "id": 1657124482,
      "lat": 12.9282849,
      "lon": 77.5868566,
      "tags": {
        "amenity": "school",
        "name": "Bangalore High School(BHS)",
        "name:kn": "ಬೆಂಗಳೂರು ಪ್ರೌಡ ಶಾಲೆ"
      }
    },
    {
      "type": "node",
      "id": 1657124483,
      "lat": 12.9307984,
      "lon": 77.5865311,
      "tags": {
        "amenity": "bank",
        "atm": "yes",
        "brand": "Karur Vysya Bank",
        "brand:wikidata": "Q6373724",
        "brand:wikipedia": "en:Karur Vysya Bank",
        "name": "Karur Vysya Bank",
        "name:en": "Karur Vysya Bank",
        "name:kn": "ಕರೂರು ವೈಶ್ಯ ಬ್ಯಾಂಕ್",
        "short_name": "KVB",
        "website": "https://www.kvb.co.in"
      }
    },
    {
      "type": "node",
      "id": 1657125038,
      "lat": 12.9209676,
      "lon": 77.5892115,
      "tags": {
        "leisure": "pitch"
      }
    },
    {
      "type": "node",
      "id": 1669903424,
      "lat": 12.9255356,
      "lon": 77.6012383,
      "tags": {
        "amenity": "bank",
        "atm": "yes",
        "brand": "State Bank of India",
        "brand:wikidata": "Q1340361",
        "brand:wikipedia": "en:State Bank of India",
        "name": "State Bank of India",
        "name:kn": "ಭಾರತೀಯ ಸ್ಟೇಟ್ ಬ್ಯಾಂಕ್",
        "short_name": "SBI"
      }
    },
    {
      "type": "node",
      "id": 1674625846,
      "lat": 12.9221307,
      "lon": 77.5952856,
      "tags": {
        "amenity": "marketplace",
        "name": "Sri Shakthi Medicals"
      }
    },
    {
      "type": "node",
      "id": 1674647382,
      "lat": 12.9223393,
      "lon": 77.5953285,
      "tags": {
        "amenity": "atm",
        "brand": "State Bank of India",
        "brand:wikidata": "Q1340361",
        "name": "State Bank of India",
        "operator": "State Bank of India",
        "operator:wikidata": "Q1340361",
        "short_name": "SBI"
      }
    },
    {
      "type": "node",
      "id": 1704074523,
      "lat": 12.934392,
      "lon": 77.5895053,
      "tags": {
        "addr:housename": "Amrutesh Darshini",
        "addr:postcode": "560011",
        "addr:street": "Byrasandra Main Road",
        "amenity": "restaurant",
        "name": "Amrutesh Darshini",
        "name:kn": "ಅಮೃತೇಶ್ ದರ್ಶಿನಿ"
      }
    },
    {
      "type": "node",
      "id": 1719357865,
      "lat": 12.9345803,
      "lon": 77.5893442,
      "tags": {
        "addr:postcode": "560011",
        "addr:street": "Byrasandra Main Road",
        "amenity": "bank",
        "atm": "yes",
        "branch": "Byrasandra Branch",
        "brand": "State Bank of India",
        "brand:wikidata": "Q1340361",
        "brand:wikipedia": "en:State Bank of India",
        "name": "State Bank of India",
        "name:kn": "ಸ್ಟೇಟ್ ಬ್ಯಾಂಕ್ ಆಫ್ ಇಂಡಿಯಾ",
        "short_name": "SBI"
      }
    },
    {
      "type": "node",
      "id": 1719595655,
      "lat": 12.9345466,
      "lon": 77.5895421,
      "tags": {
        "amenity": "pharmacy",
        "dispensing": "yes",
        "name": "Sudha Parimala Medical Store"
      }
    },
    {
      "type": "node",
      "id": 1818494188,
      "lat": 12.9306129,
      "lon": 77.5862225,
      "tags": {
        "name": "Luois Phillepe",
        "shop": "clothes"
      }
    },
    {
      "type": "node",
      "id": 1818494740,
      "lat": 12.9291985,
      "lon": 77.5861975,
      "tags": {
        "brand": "Allen Solly",
        "brand:wikidata": "Q110036995",
        "name": "Allen Solly",
        "name:kn": "ಅಲೆನ್ ಸೊಲಿ",
        "shop": "clothes"
      }
    },
    {
      "type": "node",
      "id": 1825081552,
      "lat": 12.9219463,
      "lon": 77.5934768,
      "tags": {
        "amenity": "restaurant",
        "name": "Tahini Garden",
        "name:kn": "ತಹಿನಿ ಗಾರ್ಡೆನ್"
      }
    },
    {
      "type": "node",
      "id": 1825082767,
      "lat": 12.9218974,
      "lon": 77.5934723,
      "tags": {
        "amenity": "cafe",
        "brand": "Cafe Coffee Day",
        "brand:wikidata": "Q5017235",
        "cuisine": "coffee_shop",
        "name": "Cafe Coffee Day",
        "name:kn": "ಕಫೆ ಕಾಫಿ ಡೇ",
        "takeaway": "yes"
      }
    },
    {
      "type": "node",
      "id": 1825083221,
      "lat": 12.9220228,
      "lon": 77.59341,
      "tags": {
        "amenity": "bank",
        "brand": "Corporation Bank",
        "brand:wikidata": "Q2003387",
        "brand:wikipedia": "en:Corporation Bank",
        "name": "Corporation Bank",
        "name:en": "Corporation Bank",
        "name:kn": "ಕಾರ್ಪರೇಷನ್ ಬ್ಯಾಂಕ್",
        "website": "https://corpbank.com/"
      }
    },
    {
      "type": "node",
      "id": 1825094198,
      "lat": 12.9230771,
      "lon": 77.5932944,
      "tags": {
        "name": "Cakewalla",
        "shop": "bakery"
      }
    },
    {
      "type": "node",
      "id": 1825094241,
      "lat": 12.9230467,
      "lon": 77.593202,
      "tags": {
        "amenity": "restaurant",
        "level": "5",
        "name": "Eeshanya",
        "name:kn": "ಈಶಾನ್ಯ"
      }
    },
    {
      "type": "node",
      "id": 1825094757,
      "lat": 12.9214393,
      "lon": 77.5933817,
      "tags": {
        "amenity": "bank",
        "brand": "State Bank of India",
        "brand:wikidata": "Q1340361",
        "brand:wikipedia": "en:State Bank of India",
        "name": "State Bank of India",
        "name:kn": "ಭಾರತೀಯ ಸ್ಟೇಟ್ ಬ್ಯಾಂಕ್",
        "short_name": "SBI"
      }
    },
    {
      "type": "node",
      "id": 1825094796,
      "lat": 12.9215211,
      "lon": 77.5935613,
      "tags": {
        "amenity": "pharmacy",
        "healthcare": "pharmacy",
        "name": "Shakti Medicals"
      }
    },
    {
      "type": "node",
      "id": 2523956870,
      "lat": 12.9322822,
      "lon": 77.5981308,
      "tags": {
        "addr:city": "Bengaluru",
        "addr:postcode": "560041",
        "amenity": "school",
        "name": "New Baldwin School",
        "name:kn": "ನ್ಯೂ ಬಾಲ್ಡ್ ವಿನ್ ಶಾಲೆ"
      }
    },
    {
      "type": "node",
      "id": 2629857312,
      "lat": 12.9263326,
      "lon": 77.5870601,
      "tags": {
        "addr:city": "Bangalore",
        "addr:housenumber": "20",
        "addr:postcode": "5600011",
        "addr:street": "33 Cross",
        "amenity": "fast_food",
        "cuisine": "ice_cream",
        "name": "ibaco",
        "name:kn": "ಐಬ್ಯಕೊ"
      }
    },
    {
      "type": "node",
      "id": 2638243343,
      "lat": 12.9237751,
      "lon": 77.5969146,
      "tags": {
        "amenity": "restaurant",
        "cuisine": "indian",
        "name": "Chefmaster"
      }
    },
    {
      "type": "node",
      "id": 2649085508,
      "lat": 12.9275016,
      "lon": 77.5861432,
      "tags": {
        "branch": "Smart Store",
        "brand": "Samsung",
        "brand:wikidata": "Q20718",
        "name": "Samsung",
        "name:kn": "ಸ್ಯಾಮ್‌ಸಂಗ್",
        "shop": "electronics"
      }
    },
    {
      "type": "node",
      "id": 2649089251,
      "lat": 12.9198922,
      "lon": 77.5900138,
      "tags": {
        "amenity": "fast_food",
        "cuisine": "indian",
        "name": "Ace Iyengar"
      }
    },
    {
      "type": "node",
      "id": 2649089254,
      "lat": 12.9218091,
      "lon": 77.5893861,
      "tags": {
        "amenity": "cafe",
        "brand": "Cafe Coffee Day",
        "brand:wikidata": "Q5017235",
        "cuisine": "coffee_shop",
        "name": "Cafe Coffee Day",
        "name:kn": "ಕಫೆ ಕಾಫಿ ಡೇ",
        "takeaway": "yes"
      }
    },
    {
      "type": "node",
      "id": 2664857108,
      "lat": 12.9302745,
      "lon": 77.5878322,
      "tags": {
        "addr:housename": "guru krupa",
        "addr:housenumber": "#253",
        "addr:postcode": "560064",
        "addr:street": "10th cross",
        "name": "Big Bazar",
        "name:kn": "ಬಿಗ್ ಬಜಾರ್",
        "shop": "supermarket",
        "website": "https://www.bigbazar.com/"
      }
    },
    {
      "type": "node",
      "id": 2721781523,
      "lat": 12.9249951,
      "lon": 77.5882111,
      "tags": {
        "name": "Ample Mart Supermarket",
        "shop": "supermarket"
      }
    },
    {
      "type": "node",
      "id": 2721781524,
      "lat": 12.9245669,
      "lon": 77.5882045,
      "tags": {
        "amenity": "bank",
        "atm": "yes",
        "brand": "Canara Bank",
        "brand:en": "Canara Bank",
        "brand:hi": "केनरा बैंक",
        "brand:kn": "ಕೆನರಾ ಬ್ಯಾಂಕ್",
        "brand:pa": "ਕੇਨਰਾ ਬੈਂਕ",
        "brand:pnb": "کینرا بینک",
        "brand:ur": "کینرا بینک",
        "brand:wikidata": "Q2003777",
        "brand:wikipedia": "en:Canara Bank",
        "brand:wikipedia:pa": "ਕੇਨਰਾ ਬੈਂਕ",
        "name": "Canara Bank",
        "name:en": "Canara Bank",
        "name:hi": "केनरा बैंक",
        "name:kn": "ಕೆನರಾ ಬ್ಯಾಂಕ್",
        "name:pa": "ਕੇਨਰਾ ਬੈਂਕ",
        "name:pnb": "کینرا بینک",
        "name:ur": "کینرا بینک",
        "website": "https://www.canarabank.com/"
      }
    },
    {
      "type": "node",
      "id": 2721781525,
      "lat": 12.9245755,
      "lon": 77.588035,
      "tags": {
        "amenity": "atm",
        "brand": "ICICI Bank",
        "brand:wikidata": "Q1653258",
        "name": "ICICI Bank",
        "name:kn": "ಐಸಿಐಸಿಐ ಬ್ಯಾಂಕು",
        "operator": "ICICI Bank",
        "operator:wikidata": "Q1653258",
        "short_name": "ICICI"
      }
    },
    {
      "type": "node",
      "id": 2721781526,
      "lat": 12.9246342,
      "lon": 77.5880408,
      "tags": {
        "amenity": "atm",
        "brand": "Canara Bank",
        "brand:en": "Canara Bank",
        "brand:hi": "केनरा बैंक",
        "brand:kn": "ಕೆನರಾ ಬ್ಯಾಂಕ್",
        "brand:pa": "ਕੇਨਰਾ ਬੈਂਕ",
        "brand:pnb": "کینرا بینک",
        "brand:ur": "کینرا بینک",
        "brand:wikidata": "Q2003777",
        "name": "Canara Bank",
        "name:en": "Canara Bank",
        "name:hi": "केनरा बैंक",
        "name:kn": "ಕೆನರಾ ಬ್ಯಾಂಕ್",
        "name:pa": "ਕੇਨਰਾ ਬੈਂਕ",
        "name:pnb": "کینرا بینک",
        "name:ur": "کینرا بینک",
        "operator": "Canara Bank",
        "operator:wikidata": "Q2003777"
      }
    },
    {
      "type": "node",
      "id": 2927776238,
      "lat": 12.9297035,
      "lon": 77.5859202,
      "tags": {
        "amenity": "atm",
        "brand": "South Indian Bank",
        "brand:wikidata": "Q2044973",
        "name": "South Indian Bank",
        "operator": "South Indian Bank",
        "operator:wikidata": "Q2044973"
      }
    },
    {
      "type": "node",
      "id": 2975319678,
      "lat": 12.9245786,
      "lon": 77.5866621,
      "tags": {
        "amenity": "place_of_worship",
        "name": "Pattabhirama Temple",
        "name:kn": "ಪಟ್ಟಭಿರಾಮ ದೇವಸ್ಥಾನ",
        "religion": "hindu"
      }
    },
    {
      "type": "node",
      "id": 2994439771,
      "lat": 12.9287313,
      "lon": 77.589322,
      "tags": {
        "amenity": "place_of_worship",
        "religion": "christian"
      }
    },
    {
      "type": "node",
      "id": 3003000363,
      "lat": 12.9282038,
      "lon": 77.5894361,
      "tags": {
        "brand": "HOPCOMS",
        "brand:wikidata": "Q22908959",
        "name": "HOPCOMS",
        "name:kn": "ಹಾಪ್ ಕಾಮ್ಸ್",
        "shop": "greengrocer"
      }
    },
    {
      "type": "node",
      "id": 3003173104,
      "lat": 12.9290557,
      "lon": 77.5913715,
      "tags": {
        "amenity": "cinema",
        "brand": "INOX Leisure",
        "brand:wikidata": "Q5972349",
        "level": "3;4",
        "name": "Inox",
        "short_name": "INOX"
      }
    },
    {
      "type": "node",
      "id": 3003173105,
      "lat": 12.9290557,
      "lon": 77.5914755,
      "tags": {
        "leisure": "sports_centre",
        "level": "7",
        "name": "Vriddhi"
      }
    },
    {
      "type": "node",
      "id": 3004782362,
      "lat": 12.9271848,
      "lon": 77.5910268,
      "tags": {
        "amenity": "bank",
        "atm": "yes",
        "brand": "Axis Bank",
        "brand:wikidata": "Q2003549",
        "brand:wikipedia": "en:Axis Bank",
        "name": "Axis Bank",
        "name:en": "Axis Bank",
        "name:kn": "ಆಕ್ಸಿಸ್ ಬ್ಯಾಂಕ್",
        "website": "https://www.axisbank.com"
      }
    },
    {
      "type": "node",
      "id": 3004782363,
      "lat": 12.9270197,
      "lon": 77.5903523,
      "tags": {
        "amenity": "bank",
        "atm": "yes",
        "brand": "Andhra Bank",
        "brand:wikidata": "Q2003476",
        "brand:wikipedia": "en:Andhra Bank",
        "name": "Andhra Bank",
        "name:en": "Andhra Bank",
        "name:kn": "ಆಂಧ್ರ ಬ್ಯಾಂಕ್",
        "opening_hours": "Mo-Sa 09:30-16:00",
        "website": "https://www.andhrabank.in"
      }
    },
    {
      "type": "node",
      "id": 3004782369,
      "lat": 12.9288646,
      "lon": 77.5913626,
      "tags": {
        "brand": "DMart",
        "brand:wikidata": "Q5203271",
        "level": "0;1",
        "name": "DMart",
        "shop": "supermarket"
      }
    },
    {
      "type": "node",
      "id": 3004782370,
      "lat": 12.9287251,
      "lon": 77.5912567,
      "tags": {
        "amenity": "cafe",
        "brand": "Cafe Coffee Day",
        "brand:wikidata": "Q5017235",
        "cuisine": "coffee_shop",
        "name": "Cafe Coffee Day",
        "name:kn": "ಕಫೆ ಕಾಫಿ ಡೇ",
        "takeaway": "yes"
      }
    },
    {
      "type": "node",
      "id": 3004782371,
      "lat": 12.9287251,
      "lon": 77.5911273,
      "tags": {
        "amenity": "atm",
        "operator": "HSBC ATM"
      }
    },
    {
      "type": "node",
      "id": 3004839852,
      "lat": 12.9310772,
      "lon": 77.5888627,
      "tags": {
        "amenity": "place_of_worship",
        "name": "Sri Lakshmi Venkateshwara Temple",
        "name:kn": "ಶ್ರೀ ಲಕ್ಷ್ಮಿ ವೆಂಕಟೇಶ್ವರ ದೇವಸ್ಥಾನ",
        "religion": "hindu"
      }
    },
    {
      "type": "node",
      "id": 3072185614,
      "lat": 12.9215034,
      "lon": 77.5950833,
      "tags": {
        "amenity": "atm",
        "brand": "HDFC Bank",
        "brand:wikidata": "Q631047",
        "name": "HDFC Bank",
        "name:kn": "ಎಚ್ ಡಿ ಎಫ್ ಸಿ",
        "operator": "HDFC Bank",
        "operator:wikidata": "Q631047",
        "short_name": "HDFC"
      }
    },
    {
      "type": "node",
      "id": 3161170468,
      "lat": 12.9245905,
      "lon": 77.5867571,
      "tags": {
        "name": "Uttara Karnataka Speciality Food Stores",
        "shop": "convenience"
      }
    },
    {
      "type": "node",
      "id": 3208547242,
      "lat": 12.9226172,
      "lon": 77.5932227,
      "tags": {
        "amenity": "fast_food",
        "cuisine": "regional",
        "name": "Taaza Tindi"
      }
    },
    {
      "type": "node",
      "id": 3221387165,
      "lat": 12.9298056,
      "lon": 77.6008877,
      "tags": {
        "brand": "Hyundai",
        "brand:wikidata": "Q55931",
        "name": "Advaith Hyundai",
        "name:kn": "ಅದ್ವೈತ ಹ್ಯುಂಡೈ",
        "shop": "car"
      }
    },
    {
      "type": "node",
      "id": 3329121036,
      "lat": 12.9302178,
      "lon": 77.5890874,
      "tags": {
        "addr:postcode": "560011",
        "addr:street": "2nd Cross KV Colony",
        "name": "provision store",
        "operator": "provision store",
        "shop": "supermarket"
      }
    },
    {
      "type": "node",
      "id": 3391135052,
      "lat": 12.9280697,
      "lon": 77.6007661,
      "tags": {
        "name": "all car service",
        "shop": "mechanic"
      }
    },
    {
      "type": "node",
      "id": 3395246646,
      "lat": 12.9263525,
      "lon": 77.5970518,
      "tags": {
        "name": "Branded Sale",
        "shop": "furniture"
      }
    },
    {
      "type": "node",
      "id": 3400223630,
      "lat": 12.9296663,
      "lon": 77.6009087,
      "tags": {
        "amenity": "kindergarten",
        "name": "Your kids r our kids"
      }
    },
    {
      "type": "node",
      "id": 3402009750,
      "lat": 12.9289855,
      "lon": 77.5862015,
      "tags": {
        "name": "Cakewalla",
        "shop": "bakery"
      }
    },
    {
      "type": "node",
      "id": 3402009751,
      "lat": 12.9289123,
      "lon": 77.5859132,
      "tags": {
        "name": "Cane-O-La",
        "shop": "Sugarcane_juice"
      }
    },
    {
      "type": "node",
      "id": 3702210813,
      "lat": 12.9311314,
      "lon": 77.6007942,
      "tags": {
        "amenity": "restaurant",
        "cuisine": "Multi-cuisne",
        "name": "Seashell Savoury",
        "note": "Halal Restaurant"
      }
    },
    {
      "type": "node",
      "id": 3702268573,
      "lat": 12.9307235,
      "lon": 77.6004442,
      "tags": {
        "amenity": "restaurant",
        "cuisine": "indian",
        "name": "Chicken County",
        "note": "Halal Restaurant"
      }
    },
    {
      "type": "node",
      "id": 3995048781,
      "lat": 12.9204156,
      "lon": 77.5973219,
      "tags": {
        "addr:city": "Bangalore",
        "addr:housenumber": "1669",
        "addr:postcode": "560069",
        "addr:street": "39 Cross",
        "name": "Jago Supermarket",
        "name:kn": "ನಾವು ಮಾರ್ಟ್ ಸೂಪರ್ ಮಾರುಕಟ್ಟೆ",
        "opening_hours": "08:00-22:30",
        "operator": "Private",
        "phone": "080 2653 0306",
        "shop": "department_store",
        "wheelchair": "no"
      }
    },
    {
      "type": "node",
      "id": 3995050517,
      "lat": 12.9202957,
      "lon": 77.59682,
      "tags": {
        "branch": "Jayanagar",
        "contact:email": "jn1.blr@printo.in",
        "contact:mobile": "+91-7899-934-267",
        "contact:website": "https://printo.in/",
        "name": "Printo",
        "opening_hours": "Mo-Sa 10:00-20:00, Su 12:30-20:00",
        "shop": "printing",
        "wheelchair": "limited"
      }
    },
    {
      "type": "node",
      "id": 4097027897,
      "lat": 12.9292418,
      "lon": 77.5893625,
      "tags": {
        "addr:city": "Bangalore",
        "addr:district": "Bengaluru Urban",
        "addr:housenumber": "32/29",
        "addr:postcode": "560011",
        "addr:street": "4th Cross Road, KV Layout, Jayanagar 4th Block",
        "amenity": "hospital",
        "healthcare": "hospital",
        "healthcare:speciality": "dental_oral_maxillo_facial_surgery",
        "mobile": "+919481404000",
        "name": "Gulecha Dental Care",
        "operator": "Dr. Preeti",
        "operator:type": "private",
        "website": "https://www.gulechadental.com/"
      }
    },
    {
      "type": "node",
      "id": 4172906593,
      "lat": 12.9286014,
      "lon": 77.5928375,
      "tags": {
        "addr:street": "Tilak Nagar Main Road",
        "amenity": "fast_food",
        "name": "Paani Kum Chai"
      }
    },
    {
      "type": "node",
      "id": 4197719559,
      "lat": 12.9189327,
      "lon": 77.5964279,
      "tags": {
        "amenity": "fast_food",
        "cuisine": "chicken;indian",
        "internet_access": "no",
        "name": "Street side food",
        "smoking": "yes",
        "takeaway": "no",
        "wheelchair": "no"
      }
    },
    {
      "type": "node",
      "id": 4197719562,
      "lat": 12.9189101,
      "lon": 77.5958772,
      "tags": {
        "amenity": "waste_disposal"
      }
    },
    {
      "type": "node",
      "id": 4197757507,
      "lat": 12.9189411,
      "lon": 77.5958321,
      "tags": {
        "motorcycle:repair": "yes",
        "motorcycle:sales": "yes",
        "name": "AF Motors",
        "shop": "motorcycle",
        "wheelchair": "no"
      }
    },
    {
      "type": "node",
      "id": 4197757508,
      "lat": 12.9204886,
      "lon": 77.5956678,
      "tags": {
        "brand": "BMW",
        "brand:wikidata": "Q249173",
        "motorcycle:parts": "yes",
        "motorcycle:repair": "yes",
        "name": "BMW Motorcycle Works",
        "shop": "motorcycle"
      }
    },
    {
      "type": "node",
      "id": 4197757509,
      "lat": 12.9189814,
      "lon": 77.5958851,
      "tags": {
        "name": "Bangles Store",
        "shop": "beauty"
      }
    },
    {
      "type": "node",
      "id": 4197757510,
      "lat": 12.9204794,
      "lon": 77.5956182,
      "tags": {
        "amenity": "restaurant",
        "cuisine": "chicken;regional",
        "internet_access": "no",
        "name": "Donne Biriyani Hotel",
        "smoking": "yes"
      }
    },
    {
      "type": "node",
      "id": 4197757511,
      "lat": 12.9188764,
      "lon": 77.5958387,
      "tags": {
        "name": "JMR Pasha",
        "shop": "clothes"
      }
    },
    {
      "type": "node",
      "id": 4197757512,
      "lat": 12.9204847,
      "lon": 77.5957496,
      "tags": {
        "name": "Mahesh Condiments",
        "shop": "confectionery"
      }
    },
    {
      "type": "node",
      "id": 4197757513,
      "lat": 12.9204873,
      "lon": 77.5957966,
      "tags": {
        "amenity": "recycling",
        "name": "Mahesh Waste Paper Mart",
        "recycling:paper": "yes",
        "recycling_type": "centre"
      }
    },
    {
      "type": "node",
      "id": 4197757514,
      "lat": 12.9204402,
      "lon": 77.5956155,
      "tags": {
        "name": "My Ride Car Accessories",
        "shop": "car_parts"
      }
    },
    {
      "type": "node",
      "id": 4197757516,
      "lat": 12.9204873,
      "lon": 77.5957,
      "tags": {
        "name": "Public Distribution Shop",
        "name:kn": "ನ್ಯಾಯ ಬೆಲೆ ಅಂಗಡಿ",
        "shop": "convenience"
      }
    },
    {
      "type": "node",
      "id": 4197757517,
      "lat": 12.9203644,
      "lon": 77.5956075,
      "tags": {
        "name": "Safa Furniture",
        "shop": "furniture"
      }
    },
    {
      "type": "node",
      "id": 4197757518,
      "lat": 12.9204899,
      "lon": 77.5958314,
      "tags": {
        "name": "Suchitra Graphics",
        "shop": "bookmaker"
      }
    },
    {
      "type": "node",
      "id": 4197757522,
      "lat": 12.9199487,
      "lon": 77.595865,
      "tags": {
        "amenity": "place_of_worship",
        "denomination": "shaktism",
        "religion": "hindu"
      }
    },
    {
      "type": "node",
      "id": 4197758133,
      "lat": 12.918988,
      "lon": 77.5956262,
      "tags": {
        "name": "Cel net Communications",
        "shop": "mobile_phone"
      }
    },
    {
      "type": "node",
      "id": 4197758134,
      "lat": 12.9189801,
      "lon": 77.5956678,
      "tags": {
        "name": "MPS Bakery",
        "shop": "bakery"
      }
    },
    {
      "type": "node",
      "id": 4197758135,
      "lat": 12.9189814,
      "lon": 77.59559,
      "tags": {
        "name": "S N Printers",
        "shop": "bookmaker"
      }
    },
    {
      "type": "node",
      "id": 4254383391,
      "lat": 12.9230018,
      "lon": 77.5972171,
      "tags": {
        "addr:street": "East End Main Road",
        "amenity": "restaurant",
        "cuisine": "indian",
        "name": "Curry Leaves"
      }
    },
    {
      "type": "node",
      "id": 4254428890,
      "lat": 12.9238477,
      "lon": 77.5972198,
      "tags": {
        "addr:street": "East End Main Road",
        "amenity": "money_transfer",
        "brand": "Western Union",
        "brand:wikidata": "Q861042",
        "name": "Western Union"
      }
    },
    {
      "type": "node",
      "id": 4254482289,
      "lat": 12.9239069,
      "lon": 77.5969076,
      "tags": {
        "addr:street": "East End Main Road",
        "name": "Parimala",
        "name:kn": "ಪರಿಮಳ",
        "shop": "supermarket"
      }
    },
    {
      "type": "node",
      "id": 4318377694,
      "lat": 12.9197304,
      "lon": 77.592326,
      "tags": {
        "addr:street": "39 Cross",
        "name": "Hercules Cycle Showroom",
        "shop": "bicycle"
      }
    },
    {
      "type": "node",
      "id": 4369804689,
      "lat": 12.9269106,
      "lon": 77.5934508,
      "tags": {
        "amenity": "toilets"
      }
    },
    {
      "type": "node",
      "id": 4445200414,
      "lat": 12.927082,
      "lon": 77.6034417,
      "tags": {
        "addr:city": "Bangalore",
        "addr:housenumber": "No.26/10",
        "addr:postcode": "560029",
        "addr:street": "Bismillanagar, BTM Layout 1st Stage",
        "amenity": "clinic",
        "name": "Kubra Maternity And Nursing Home",
        "phone": "+9198444 56346"
      }
    },
    {
      "type": "node",
      "id": 4446323286,
      "lat": 12.9257866,
      "lon": 77.5861651,
      "tags": {
        "addr:city": "Bangalore",
        "addr:housenumber": "#16/47/1-C",
        "addr:postcode": "560011",
        "addr:street": "34th Cross Road,Jaya Nagar",
        "amenity": "pharmacy",
        "name": "Shriniwas Medicals",
        "name:kn": "ಶ್ರೀನಿವಾಸ್ ಮೆಡಿಕಲ್ಸ್",
        "phone": "08026632258",
        "source": "http://bestofhealthindia.com/"
      }
    },
    {
      "type": "node",
      "id": 4446978240,
      "lat": 12.9258133,
      "lon": 77.5936851,
      "tags": {
        "addr:city": "Bangalore",
        "addr:housenumber": "# 1333",
        "addr:postcode": "560041",
        "addr:street": "26th Main Road, 4th Block, Jayanagar",
        "amenity": "pharmacy",
        "drive_through": "yes",
        "healthcare": "pharmacy",
        "name": "Upadhya Ayurveda Bhandara",
        "phone": "080 2663 9321",
        "source": "http://www.bangalorehospital.co.in/"
      }
    },
    {
      "type": "node",
      "id": 4446987269,
      "lat": 12.9255939,
      "lon": 77.5861537,
      "tags": {
        "addr:city": "Bangalore",
        "addr:housenumber": "# 49",
        "addr:postcode": "560041",
        "addr:street": "34th Cross Road, 34th T Block East, Pattabhirama Nagar",
        "amenity": "pharmacy",
        "drive_through": "yes",
        "healthcare": "pharmacy",
        "name": "Himalaya Health Care",
        "name:kn": "ಹಿಮಾಲಯ ಹೆಲ್ತ್ ಕೇರ್",
        "phone": "080 2244 0364",
        "source": "http://www.bangalorehospital.co.in/",
        "website": "https://www.himalayawellness.com/"
      }
    },
    {
      "type": "node",
      "id": 4446991305,
      "lat": 12.9231418,
      "lon": 77.590042,
      "tags": {
        "addr:city": "Bangalore",
        "addr:housenumber": "#1524/29",
        "addr:postcode": "560069",
        "addr:street": "36 A Cross Road, 4th T Block East, Jayanagara",
        "amenity": "pharmacy",
        "drive_through": "yes",
        "healthcare": "pharmacy",
        "name": "Lifeken Medicines",
        "name:kn": "ಲೈಫ್‌ಕೆನ್ ಮೆಡಿಸಿನ್ಸ್",
        "phone": "080 2295 6229",
        "source": "http://bestofhealthindia.com/"
      }
    },
    {
      "type": "node",
      "id": 4446992539,
      "lat": 12.9226321,
      "lon": 77.5935954,
      "tags": {
        "addr:city": "Banagalore",
        "addr:housenumber": "#174/148",
        "addr:postcode": "560041",
        "addr:street": "26th Main Road, 4th T Block East, Jayanagara 9th Block",
        "amenity": "clinic",
        "drive_through": "yes",
        "name": "Amplifon",
        "phone": "080 4219 8047",
        "source": "http://www.bangalorehospital.co.in/",
        "website": "https://www.amplifon.in/"
      }
    },
    {
      "type": "node",
      "id": 4447007998,
      "lat": 12.926767,
      "lon": 77.5965015,
      "tags": {
        "addr:city": "Bangalore",
        "addr:housenumber": "32nd \"E\" Cross",
        "addr:postcode": "560041",
        "addr:street": "28th Main Road, 4th T Block East, Jayanagara Jaya",
        "amenity": "clinic",
        "healthcare": "clinic",
        "name": "Sunrise Diagnostics",
        "phone": "081529 44944",
        "source": "http://www.justdial.com/"
      }
    },
    {
      "type": "node",
      "id": 4447013606,
      "lat": 12.9322647,
      "lon": 77.5890953,
      "tags": {
        "addr:city": "Bangalore",
        "addr:housenumber": "#79",
        "addr:postcode": "560011",
        "addr:street": "4th Cross LIC Colony, KV Layout, Jayanagara",
        "amenity": "clinic",
        "name": "Shreyaas Diagnostics",
        "phone": "080 2664 2106",
        "source": "http://www.justdial.com/"
      }
    },
    {
      "type": "node",
      "id": 4447329235,
      "lat": 12.9314177,
      "lon": 77.5913754,
      "tags": {
        "addr:city": "bangalore",
        "addr:housenumber": "72",
        "addr:postcode": "560078",
        "addr:street": "73 24th Main End Puttenahalli J. P Nagar 7th Phase,",
        "amenity": "pharmacy",
        "healthcare": "pharmacy",
        "name": "Sri Balaji medicals",
        "phone": "080 2653 5363"
      }
    },
    {
      "type": "node",
      "id": 4448107135,
      "lat": 12.927672,
      "lon": 77.6012024,
      "tags": {
        "addr:city": "Bangalore",
        "addr:housenumber": "26/10",
        "addr:postcode": "560029",
        "addr:street": "Mosque Road, Bismillanagar, BTM Layout 1st Stage",
        "amenity": "clinic",
        "healthcare": "clinic",
        "name": "Kubra Maternity And Nursing Home",
        "phone": "080 2678 2728",
        "source": "http://www.justdial.com/Bangalore/"
      }
    },
    {
      "type": "node",
      "id": 4456801277,
      "lat": 12.9240616,
      "lon": 77.6021808,
      "tags": {
        "amenity": "community_centre",
        "name": "Ambedkar Community Computer Center(AC3)",
        "website": "https://slumdweller.wikispaces.com/"
      }
    },
    {
      "type": "node",
      "id": 4488513390,
      "lat": 12.9215816,
      "lon": 77.6003237,
      "tags": {
        "addr:city": "Bangalore",
        "addr:housenumber": "Studio: 55, 2nd Floor",
        "addr:postcode": "560076",
        "addr:street": "Bannerghatta Road",
        "leisure": "sports_centre",
        "name": "Indian Combat Sports Academy",
        "opening_hours": "5:30-22:00",
        "phone": "086870 08888",
        "sport": "gymnastics"
      }
    },
    {
      "type": "node",
      "id": 4488816716,
      "lat": 12.9261819,
      "lon": 77.5973726,
      "tags": {
        "addr:city": "Bangalore",
        "addr:postcode": "560029",
        "addr:street": "East End Main Road",
        "motorcycle:repair": "yes",
        "name": "Silicon Honda Service Center",
        "phone": "096632 99621",
        "shop": "motorcycle",
        "website": "https://siliconhonda.com/"
      }
    },
    {
      "type": "node",
      "id": 4489389589,
      "lat": 12.9261791,
      "lon": 77.5858636,
      "tags": {
        "addr:city": "Bangalore",
        "addr:housenumber": "1",
        "addr:postcode": "560011",
        "addr:street": "1st Floor, Lakshmi Venkateshwara Arcade, 11th Main Road, Off 33rd Cross Road, Opp. KFC, Jayanagar 4th Block",
        "name": "Shama Sports",
        "opening_hours": "10:30-21:00",
        "phone": "+919880149509",
        "shop": "sports"
      }
    },
    {
      "type": "node",
      "id": 4490342589,
      "lat": 12.9238145,
      "lon": 77.5897622,
      "tags": {
        "addr:city": "Bangalore",
        "addr:housenumber": "458/459",
        "addr:postcode": "560069",
        "addr:street": "458/459, First Floor, 18th Main Road, 4th T Block, Jayanagar, Above DCB Bank, Near Shanthi Upahar, T Block, 4th T Block East, Pattabhirama Nagar, Jayanagara",
        "leisure": "sports_centre",
        "name": "Apple Fitness",
        "opening_hours": "4:30-23:30",
        "phone": "9901635555",
        "sport": "gymnasium",
        "website": "applefitnessindia.com"
      }
    },
    {
      "type": "node",
      "id": 4490388050,
      "lat": 12.9245655,
      "lon": 77.5882464,
      "tags": {
        "addr:city": "Bangalore",
        "addr:full": "364, Aswath Lakshmi Mansion, 16 Main, 35th Cross, Above Canara Bank, 4th Block East,, 4th T Block East, Pattabhirama Nagar, Jayanagara Jaya Nagar",
        "addr:housenumber": "364",
        "addr:street": "16th Main Road",
        "brand": "Talwalkars",
        "brand:wikidata": "Q7680402",
        "leisure": "fitness_centre",
        "name": "Talwalkars",
        "opening_hours": "5:30-22:30",
        "phone": "8041210990",
        "sport": "gymnasium"
      }
    },
    {
      "type": "node",
      "id": 4545893192,
      "lat": 12.9205227,
      "lon": 77.5951235,
      "tags": {
        "amenity": "bank",
        "brand": "Karnataka Bank",
        "brand:wikidata": "Q2042632",
        "name": "Karnataka Bank",
        "name:en": "Karnataka Bank",
        "name:kn": "ಕರ್ನಾಟಕ ಬ್ಯಾಂಕ್"
      }
    },
    {
      "type": "node",
      "id": 4545893490,
      "lat": 12.924386,
      "lon": 77.6000893,
      "tags": {
        "amenity": "atm",
        "brand": "Union Bank of India",
        "brand:wikidata": "Q2004078",
        "name": "Union Bank of India",
        "operator": "Union Bank of India",
        "operator:wikidata": "Q2004078"
      }
    },
    {
      "type": "node",
      "id": 4545906690,
      "lat": 12.9205305,
      "lon": 77.5930437,
      "tags": {
        "name": "Bunny Bakers and Sweets",
        "name:en": "Bunny Bakers and Sweets",
        "shop": "bakery"
      }
    },
    {
      "type": "node",
      "id": 4545906691,
      "lat": 12.9205691,
      "lon": 77.5951275,
      "tags": {
        "amenity": "atm",
        "operator": "Karnataka Bank ATM"
      }
    },
    {
      "type": "node",
      "id": 4545906692,
      "lat": 12.9231214,
      "lon": 77.5970987,
      "tags": {
        "amenity": "restaurant",
        "cuisine": "chicken",
        "name": "Curry Leaves Andhra Restaurant",
        "name:en": "Curry Leaves Andhra Restaurant"
      }
    },
    {
      "type": "node",
      "id": 4822135789,
      "lat": 12.919343,
      "lon": 77.5915357,
      "tags": {
        "name": "Chips Shop",
        "shop": "yes"
      }
    },
    {
      "type": "node",
      "id": 4847845822,
      "lat": 12.9359972,
      "lon": 77.5926337,
      "tags": {
        "amenity": "pharmacy",
        "healthcare": "pharmacy",
        "name": "Jaisheel",
        "name:en": "Jaisheel"
      }
    },
    {
      "type": "node",
      "id": 4847845823,
      "lat": 12.935905,
      "lon": 77.5928069,
      "tags": {
        "amenity": "pharmacy",
        "healthcare": "pharmacy",
        "name": "Prasad medicals",
        "name:en": "Prasad medicals"
      }
    },
    {
      "type": "node",
      "id": 4847845824,
      "lat": 12.9357029,
      "lon": 77.59262,
      "tags": {
        "amenity": "pharmacy",
        "healthcare": "pharmacy",
        "name": "Guru medicals",
        "name:en": "Guru medicals"
      }
    },
    {
      "type": "node",
      "id": 4847850822,
      "lat": 12.9360687,
      "lon": 77.5926009,
      "tags": {
        "name": "New juice junction",
        "name:en": "New juice junction",
        "shop": "beverages"
      }
    },
    {
      "type": "node",
      "id": 4849094822,
      "lat": 12.9358353,
      "lon": 77.5927038,
      "tags": {
        "name": "Deevas touch - Beauty care center",
        "name:en": "Deevas touch - Beauty care center",
        "shop": "cosmetics"
      }
    },
    {
      "type": "node",
      "id": 4859545955,
      "lat": 12.9283944,
      "lon": 77.5902973,
      "tags": {
        "brand": "Godrej",
        "shop": "furniture"
      }
    },
    {
      "type": "node",
      "id": 4859545957,
      "lat": 12.9284127,
      "lon": 77.5899272,
      "tags": {
        "shop": "travel_agency"
      }
    },
    {
      "type": "node",
      "id": 4859545958,
      "lat": 12.9284441,
      "lon": 77.5899513,
      "tags": {
        "shop": "clothes"
      }
    },
    {
      "type": "node",
      "id": 4859545959,
      "lat": 12.9284362,
      "lon": 77.5895061,
      "tags": {
        "name": "Nandini Milk Diary",
        "name:kn": "ನಂದಿನಿ ಹಾಲಿನ ಅಂಗಡಿ",
        "shop": "diary"
      }
    },
    {
      "type": "node",
      "id": 4859555724,
      "lat": 12.9290086,
      "lon": 77.5894098,
      "tags": {
        "amenity": "school"
      }
    },
    {
      "type": "node",
      "id": 4875557994,
      "lat": 12.9194713,
      "lon": 77.5967266,
      "tags": {
        "addr:housenumber": "480",
        "addr:street": "East End A Main Road",
        "name": "Cadence90",
        "service:bicycle:retail": "yes",
        "shop": "bicycle"
      }
    },
    {
      "type": "node",
      "id": 4935027477,
      "lat": 12.9280186,
      "lon": 77.5890058,
      "tags": {
        "amenity": "post_box"
      }
    },
    {
      "type": "node",
      "id": 4935027478,
      "lat": 12.9289101,
      "lon": 77.5914708,
      "tags": {
        "amenity": "pub",
        "level": "5",
        "name": "Jimmys"
      }
    },
    {
      "type": "node",
      "id": 4935037439,
      "lat": 12.92519,
      "lon": 77.5880201,
      "tags": {
        "name": "Chowdeshwari",
        "name:kn": "ಚೌಡೇಶ್ವರಿ",
        "shop": "grocery"
      }
    },
    {
      "type": "node",
      "id": 4935037440,
      "lat": 12.9246005,
      "lon": 77.5880335,
      "tags": {
        "shop": "clocks"
      }
    },
    {
      "type": "node",
      "id": 4935037441,
      "lat": 12.9245155,
      "lon": 77.5882374,
      "tags": {
        "shop": "greengrocer"
      }
    },
    {
      "type": "node",
      "id": 4935037442,
      "lat": 12.9244724,
      "lon": 77.5882387,
      "tags": {
        "shop": "copyshop"
      }
    },
    {
      "type": "node",
      "id": 4966811521,
      "lat": 12.9192929,
      "lon": 77.5926382,
      "tags": {
        "amenity": "atm",
        "operator": "Dhanalakshmi Bank ATM"
      }
    },
    {
      "type": "node",
      "id": 5004237649,
      "lat": 12.9219428,
      "lon": 77.589423,
      "tags": {
        "amenity": "clinic",
        "building": "yes",
        "name": "Dr. Satish skin & ENT clinic"
      }
    },
    {
      "type": "node",
      "id": 5081907157,
      "lat": 12.9290157,
      "lon": 77.5912224,
      "tags": {
        "amenity": "restaurant",
        "level": "3",
        "name": "Kobe Sizzlers"
      }
    },
    {
      "type": "node",
      "id": 5081989202,
      "lat": 12.9231241,
      "lon": 77.5894363,
      "tags": {
        "amenity": "pharmacy",
        "healthcare": "pharmacy",
        "name": "Satya Medicals",
        "name:kn": "ಸತ್ಯ ಮೆಡಿಕಲ್ಸ್"
      }
    },
    {
      "type": "node",
      "id": 5081989204,
      "lat": 12.9215366,
      "lon": 77.5896053,
      "tags": {
        "amenity": "toilets"
      }
    },
    {
      "type": "node",
      "id": 5082019738,
      "lat": 12.9269553,
      "lon": 77.588051,
      "tags": {
        "shop": "beverages"
      }
    },
    {
      "type": "node",
      "id": 5082019739,
      "lat": 12.9269958,
      "lon": 77.5880496,
      "tags": {
        "name": "Sri Lakshmi Devi Xerox",
        "shop": "copyshop"
      }
    },
    {
      "type": "node",
      "id": 5082019740,
      "lat": 12.9270337,
      "lon": 77.588053,
      "tags": {
        "name": "Mataji Electricals",
        "shop": "electrical"
      }
    },
    {
      "type": "node",
      "id": 5082019741,
      "lat": 12.9264403,
      "lon": 77.5880677,
      "tags": {
        "amenity": "doctors",
        "name": "Indrani Clinic"
      }
    },
    {
      "type": "node",
      "id": 5082019746,
      "lat": 12.9263847,
      "lon": 77.588066,
      "tags": {
        "shop": "bakery"
      }
    },
    {
      "type": "node",
      "id": 5082019747,
      "lat": 12.9263533,
      "lon": 77.5880432,
      "tags": {
        "amenity": "pharmacy",
        "name": "Manish Pharmacy",
        "name:kn": "ಮನಿಷ್ ಫಾರ್ಮಸಿ"
      }
    },
    {
      "type": "node",
      "id": 5082019748,
      "lat": 12.9263527,
      "lon": 77.5880054,
      "tags": {
        "craft": "tailor",
        "shop": "tailor"
      }
    },
    {
      "type": "node",
      "id": 5082019749,
      "lat": 12.926352,
      "lon": 77.5879715,
      "tags": {
        "amenity": "doctors",
        "name": "Sharada Clinic",
        "name:kn": "ಶಾರದ ಕ್ಲಿನಿಕ್",
        "opening_hours": "09:00-13:00,17:00-21:00, Th closed",
        "operator": "Dr. Giri Rao Kolar"
      }
    },
    {
      "type": "node",
      "id": 5234718115,
      "lat": 12.9284958,
      "lon": 77.5856981,
      "tags": {
        "brand": "Ramraj Cotton",
        "brand:wikidata": "Q119161281",
        "name": "Ramraj Cotton",
        "shop": "clothes"
      }
    },
    {
      "type": "node",
      "id": 5234722031,
      "lat": 12.9288378,
      "lon": 77.5868945,
      "tags": {
        "amenity": "clinic",
        "healthcare": "clinic",
        "name": "Eye Care Clinic"
      }
    },
    {
      "type": "node",
      "id": 5234739446,
      "lat": 12.9252748,
      "lon": 77.58825,
      "tags": {
        "name": "Patanjali Mega Store",
        "shop": "convenience"
      }
    },
    {
      "type": "node",
      "id": 5234747382,
      "lat": 12.9231873,
      "lon": 77.5893315,
      "tags": {
        "amenity": "dentist",
        "healthcare": "clinic"
      }
    },
    {
      "type": "node",
      "id": 5234750783,
      "lat": 12.925788,
      "lon": 77.5880661,
      "tags": {
        "name": "Vitarag Jewels",
        "shop": "jewelry"
      }
    },
    {
      "type": "node",
      "id": 5234753100,
      "lat": 12.9253672,
      "lon": 77.5882291,
      "tags": {
        "name": "Cotton Blossom",
        "shop": "clothes"
      }
    },
    {
      "type": "node",
      "id": 5234765970,
      "lat": 12.925098,
      "lon": 77.5882684,
      "tags": {
        "name": "Ample Mart",
        "name:kn": "ಆಂಪಲ್ ಮಾರ್ಟ್",
        "shop": "supermarket"
      }
    },
    {
      "type": "node",
      "id": 5234777582,
      "lat": 12.9271618,
      "lon": 77.5934225,
      "tags": {
        "name": "Krishna Bakery",
        "shop": "bakery"
      }
    },
    {
      "type": "node",
      "id": 5234777600,
      "lat": 12.9269123,
      "lon": 77.5907502,
      "tags": {
        "amenity": "atm",
        "brand": "Canara Bank",
        "brand:en": "Canara Bank",
        "brand:hi": "केनरा बैंक",
        "brand:kn": "ಕೆನರಾ ಬ್ಯಾಂಕ್",
        "brand:pa": "ਕੇਨਰਾ ਬੈਂਕ",
        "brand:pnb": "کینرا بینک",
        "brand:ur": "کینرا بینک",
        "brand:wikidata": "Q2003777",
        "name": "Canara Bank",
        "name:en": "Canara Bank",
        "name:hi": "केनरा बैंक",
        "name:kn": "ಕೆನರಾ ಬ್ಯಾಂಕ್",
        "name:pa": "ਕੇਨਰਾ ਬੈਂਕ",
        "name:pnb": "کینرا بینک",
        "name:ur": "کینرا بینک",
        "operator": "Canara Bank",
        "operator:wikidata": "Q2003777"
      }
    },
    {
      "type": "node",
      "id": 5234782692,
      "lat": 12.9268254,
      "lon": 77.5946896,
      "tags": {
        "amenity": "car_wash"
      }
    },
    {
      "type": "node",
      "id": 5234787595,
      "lat": 12.9329075,
      "lon": 77.5896812,
      "tags": {
        "amenity": "place_of_worship",
        "religion": "hindu"
      }
    },
    {
      "type": "node",
      "id": 5234789471,
      "lat": 12.9270213,
      "lon": 77.5920261,
      "tags": {
        "amenity": "atm",
        "brand": "State Bank of India",
        "brand:wikidata": "Q1340361",
        "name": "State Bank of India",
        "operator": "State Bank of India",
        "operator:wikidata": "Q1340361",
        "short_name": "SBI"
      }
    },
    {
      "type": "node",
      "id": 5234797803,
      "lat": 12.9284598,
      "lon": 77.592774,
      "tags": {
        "amenity": "fast_food",
        "brand": "Five Star Chicken",
        "brand:wikidata": "Q127784422",
        "cuisine": "chicken",
        "delivery": "yes",
        "name": "Five Star Chicken",
        "takeaway": "yes"
      }
    },
    {
      "type": "node",
      "id": 5234798352,
      "lat": 12.9305734,
      "lon": 77.5862262,
      "tags": {
        "name": "Planet Fashion",
        "shop": "clothes"
      }
    },
    {
      "type": "node",
      "id": 5234798353,
      "lat": 12.9306435,
      "lon": 77.5863284,
      "tags": {
        "amenity": "restaurant",
        "name": "Vakulaa Veg Restaurant"
      }
    },
    {
      "type": "node",
      "id": 5234798355,
      "lat": 12.9318665,
      "lon": 77.5890475,
      "tags": {
        "name": "Choice Fancy And Stationary",
        "shop": "stationery"
      }
    },
    {
      "type": "node",
      "id": 5234798356,
      "lat": 12.9318362,
      "lon": 77.5890273,
      "tags": {
        "name": "Srushti Boutique",
        "shop": "clothes"
      }
    },
    {
      "type": "node",
      "id": 5234798357,
      "lat": 12.9318107,
      "lon": 77.5890029,
      "tags": {
        "name": "Sri Sai Lalitha Traders",
        "shop": "trade"
      }
    },
    {
      "type": "node",
      "id": 5234798358,
      "lat": 12.9318977,
      "lon": 77.5890661,
      "tags": {
        "amenity": "ice_cream",
        "name": "Joy Ice Creams"
      }
    },
    {
      "type": "node",
      "id": 5234799277,
      "lat": 12.9283464,
      "lon": 77.595684,
      "tags": {
        "amenity": "restaurant",
        "name": "Al Dubai Family Restaurant"
      }
    },
    {
      "type": "node",
      "id": 5234803135,
      "lat": 12.928555,
      "lon": 77.599351,
      "tags": {
        "amenity": "restaurant",
        "name": "4 Seasons Multi Cuisine Restaurant"
      }
    },
    {
      "type": "node",
      "id": 5234805899,
      "lat": 12.9285254,
      "lon": 77.6000608,
      "tags": {
        "amenity": "restaurant",
        "name": "Vijayalakshmi Veg"
      }
    },
    {
      "type": "node",
      "id": 5234807614,
      "lat": 12.9285122,
      "lon": 77.6001778,
      "tags": {
        "amenity": "bank",
        "brand": "Muthoot Finance",
        "brand:wikidata": "Q6943861",
        "name": "Muthoot Finance",
        "office": "financial"
      }
    },
    {
      "type": "node",
      "id": 5234810897,
      "lat": 12.9320963,
      "lon": 77.5892378,
      "tags": {
        "amenity": "fast_food",
        "name": "Hot Chips"
      }
    },
    {
      "type": "node",
      "id": 5234810898,
      "lat": 12.9322848,
      "lon": 77.589363,
      "tags": {
        "name": "Sri Bharani Medical and General Store",
        "shop": "medical_supply"
      }
    },
    {
      "type": "node",
      "id": 5234810899,
      "lat": 12.9323172,
      "lon": 77.5893906,
      "tags": {
        "name": "Lakshmi Provisions Store",
        "shop": "greengrocer"
      }
    },
    {
      "type": "node",
      "id": 5492915021,
      "lat": 12.9326212,
      "lon": 77.5894298,
      "tags": {
        "amenity": "toilets"
      }
    },
    {
      "type": "node",
      "id": 5492915022,
      "lat": 12.9328804,
      "lon": 77.5874138,
      "tags": {
        "amenity": "place_of_worship",
        "name": "Temple"
      }
    },
    {
      "type": "node",
      "id": 6349067615,
      "lat": 12.9296754,
      "lon": 77.5965327,
      "tags": {
        "amenity": "school",
        "isced:level": "2",
        "name": "Government Urdu Higher Primary School",
        "name:kn": "ಸರ್ಕಾರಿ ಉರ್ದು ಹಿರಿಯ ಪ್ರಾಥಮಿಕ ಶಾಲೆ ಎಸ್‌.ರ್.ಕೆ ಗಾರ್ಡನ್",
        "operator": "Department of Education",
        "school": "primary"
      }
    },
    {
      "type": "node",
      "id": 6349168143,
      "lat": 12.9274871,
      "lon": 77.5888165,
      "tags": {
        "addr:place": "Jayanagar",
        "amenity": "school",
        "isced:level": "2",
        "name": "Panchavati Vidyamandira Jayanagar",
        "name:kn": "ಪಂಚವಟಿ ವಿದ್ಯಾಮಂದಿರ ಜಯನಗರ",
        "operator": "Department of Education",
        "school": "primary"
      }
    },
    {
      "type": "node",
      "id": 6349228135,
      "lat": 12.9197208,
      "lon": 77.5940053,
      "tags": {
        "addr:place": "Puttayyana Palya",
        "amenity": "school",
        "isced:level": "2",
        "name": "GHPS Puttayyana Palya",
        "name:kn": "ಸರ್ಕಾರಿ ಹಿರಿಯ ಪ್ರಾಥಮಿಕ ಶಾಲೆ ಪುಟ್ಟಯ್ಯನಪಾಳ್ಯ",
        "operator": "Department of Education",
        "school": "primary"
      }
    },
    {
      "type": "node",
      "id": 6349268338,
      "lat": 12.9264405,
      "lon": 77.6000111,
      "tags": {
        "addr:place": "Gurappana Palya",
        "amenity": "school",
        "isced:level": "2",
        "name": "Saint Anthony Higher Primary School",
        "name:kn": "ಸೆಂಟ್‌ ಅಂಥೋನಿ ಹಿರಿಯ ಪ್ರಾಥಮಿಕ ಶಾಲೆ ಗುರಪ್ಪನಪಾಳ್ಯ",
        "operator": "Pvt. Aided",
        "school": "primary"
      }
    },
    {
      "type": "node",
      "id": 6349293094,
      "lat": 12.9314978,
      "lon": 77.5995415,
      "tags": {
        "addr:place": "Tilak Nagar",
        "amenity": "school",
        "isced:level": "2",
        "name": "GHPS Tilak Nagar",
        "name:kn": "ಸರ್ಕಾರಿ ಹಿರಿಯ ಪ್ರಾಥಮಿಕ ಶಾಲೆ ತಿಲಕ್ ನಗರ",
        "operator": "Department of Education",
        "school": "primary"
      }
    },
    {
      "type": "node",
      "id": 6349346578,
      "lat": 12.933863,
      "lon": 77.5910009,
      "tags": {
        "addr:place": "Byrasandra",
        "amenity": "school",
        "isced:level": "2",
        "name": "GHPS Byrasandra",
        "name:kn": "ಸರ್ಕಾರಿ ಹಿರಿಯ ಪ್ರಾಥಮಿಕ ಶಾಲೆ ಬೈರಸಂದ್ರ",
        "operator": "Department of Education",
        "school": "primary"
      }
    },
    {
      "type": "node",
      "id": 6349356487,
      "lat": 12.9329465,
      "lon": 77.5918045,
      "tags": {
        "addr:place": "Byrasandra",
        "amenity": "school",
        "isced:level": "2",
        "name": "GHPS(U) Byrasandra",
        "name:kn": "ಸರ್ಕಾರಿ ಹಿರಿಯ ಪ್ರಾಥಮಿಕ ಶಾಲೆ (ಯು) ಬೈರಸಂದ್ರ",
        "operator": "Department of Education",
        "school": "primary"
      }
    },
    {
      "type": "node",
      "id": 6349390139,
      "lat": 12.9308366,
      "lon": 77.5882379,
      "tags": {
        "addr:place": "Yadiyur",
        "amenity": "school",
        "isced:level": "2",
        "name": "Tejaswini KHPS Yadiyur",
        "name:kn": "ತೇಜಸ್ವಿನಿ ಕನ್ನಡ ಹಿರಿಯ ಪ್ರಾಥಮಿಕ ಶಾಲೆ ಯಡಿಯೂರು",
        "operator": "Pvt. Aided",
        "school": "primary"
      }
    },
    {
      "type": "node",
      "id": 6349412964,
      "lat": 12.9306021,
      "lon": 77.589132,
      "tags": {
        "amenity": "school",
        "isced:level": "2",
        "name": "Adarsh KHPS",
        "name:kn": "ಆದರ್ಶ್ ಕನ್ನಡ ಹಿರಿಯ ಪ್ರಾಥಮಿಕ ಶಾಲೆ",
        "operator": "Pvt. Aided",
        "school": "primary"
      }
    },
    {
      "type": "node",
      "id": 6349430485,
      "lat": 12.9339884,
      "lon": 77.5906546,
      "tags": {
        "addr:place": "Byrasandra",
        "amenity": "school",
        "isced:level": "2",
        "name": "Shree Sangameshwara KHPS Byrasandra",
        "name:kn": "ಶ್ರೀ ಸಂಗಮೇಶ್ವರ ಕನ್ನಡ ಹಿರಿಯ ಪ್ರಾಥಮಿಕ ಶಾಲೆ ಬೈರಸಂದ್ರ",
        "operator": "Pvt. Aided",
        "school": "primary"
      }
    },
    {
      "type": "node",
      "id": 6782613735,
      "lat": 12.9223,
      "lon": 77.5935751,
      "tags": {
        "name": "Juice Junction",
        "shop": "greengrocer"
      }
    },
    {
      "type": "node",
      "id": 6783332954,
      "lat": 12.9220603,
      "lon": 77.593564,
      "tags": {
        "name": "Wat-a-Burger",
        "shop": "bakery"
      }
    },
    {
      "type": "node",
      "id": 6783369236,
      "lat": 12.9222012,
      "lon": 77.5934861,
      "tags": {
        "name": "Suchitra Electronics",
        "shop": "electronics"
      }
    },
    {
      "type": "node",
      "id": 6882713319,
      "lat": 12.9279951,
      "lon": 77.5996596,
      "tags": {
        "addr:city": "Bengaluru",
        "addr:district": "BENGALURU URBAN",
        "addr:full": "44/54, 30th Cross, Tilak Nagar, Jayangar Extension",
        "addr:postcode": "560041",
        "addr:state": "Karnataka",
        "amenity": "blood_bank",
        "contact:mobile": "9448004502",
        "contact:phone": "8026536712",
        "name": "Sagar Hospital Blood Bank",
        "name:kn": "ಸಾಗರ ಆಸ್ಪತ್ರೆ ರಕ್ತ ಸಂಗ್ರಹ",
        "operator:type": "private",
        "source": "OpenGovernmentData"
      }
    },
    {
      "type": "node",
      "id": 6882713322,
      "lat": 12.9357448,
      "lon": 77.5938244,
      "tags": {
        "addr:city": "Bengaluru",
        "addr:district": "BENGALURU URBAN",
        "addr:full": "Jayanagar East, Byrasandra",
        "addr:postcode": "560011",
        "addr:state": "Karnataka",
        "amenity": "blood_bank",
        "contact:mobile": "9036586966",
        "contact:phone": "8026564516",
        "name": "Sanjaya Gandhi Accident Hospital and Research Institute Blood Bank",
        "opening_hours": "24/7",
        "operator:type": "government",
        "source": "OpenGovernmentData",
        "website": "http://www.sgito.org"
      }
    },
    {
      "type": "node",
      "id": 6937718217,
      "lat": 12.9230293,
      "lon": 77.5867903,
      "tags": {
        "addr:city": "Bengaluru",
        "addr:district": "Bengaluru Urban",
        "addr:full": "No.679, 11Th Main Road , 36Th Cross 4Th Block Jayanagar",
        "addr:housenumber": "679",
        "addr:postcode": "560011",
        "addr:state": "Karnataka",
        "addr:street": "11 Main Road",
        "amenity": "clinic",
        "healthcare": "clinic",
        "name": "Shanthi Nursing Home, Bengaluru Urban",
        "source": "OpenGovernmentData"
      }
    },
    {
      "type": "node",
      "id": 6938912267,
      "lat": 12.9255233,
      "lon": 77.5937748,
      "tags": {
        "addr:district": "Bengaluru Urban",
        "addr:full": "No.1156, 26th Main, 4th `T` Block, Jayanagar (Opposite 4th `T` BlockBus Depot)",
        "addr:postcode": "560041",
        "addr:state": "Karnataka",
        "amenity": "hospital",
        "email": "info@sunayanaeyehospital.com",
        "healthcare": "hospital",
        "name": "Sunayana Eye Hospital",
        "operator:type": "private",
        "source": "OpenGovernmentData",
        "website": "https://sunayanaeyehospital.com/"
      }
    },
    {
      "type": "node",
      "id": 6945045472,
      "lat": 12.9265324,
      "lon": 77.6006922,
      "tags": {
        "addr:district": "Bengaluru Urban",
        "addr:full": "No 1 Uma Admiralty First Floor Bannerghatta Road",
        "addr:postcode": "560029",
        "addr:state": "Karnataka",
        "amenity": "clinic",
        "healthcare": "clinic",
        "name": "Dr Patil Fertility And Endoscopy Clinic",
        "source": "OpenGovernmentData"
      }
    },
    {
      "type": "node",
      "id": 7059564160,
      "lat": 12.9197711,
      "lon": 77.5952734,
      "tags": {
        "name": "Maa Janki Ceramics",
        "opening_hours": "Mo-Su 08:00-20:00",
        "shop": "interior_decoration",
        "website": "https://www.concretewalltexture.com/"
      }
    },
    {
      "type": "node",
      "id": 7166208723,
      "lat": 12.9218617,
      "lon": 77.5936184,
      "tags": {
        "name": "Cafe Coffee Day",
        "name:kn": "ಕಫೆ ಕಾಫಿ ಡೇ",
        "shop": "beverages"
      }
    },
    {
      "type": "node",
      "id": 7166240064,
      "lat": 12.920788,
      "lon": 77.5936239,
      "tags": {
        "name": "Appearance Hair & Beauty Salon",
        "shop": "beauty"
      }
    },
    {
      "type": "node",
      "id": 7166248953,
      "lat": 12.9208567,
      "lon": 77.5935675,
      "tags": {
        "name": "Suhas Telecom",
        "shop": "electronics"
      }
    },
    {
      "type": "node",
      "id": 7166273310,
      "lat": 12.9209009,
      "lon": 77.5932917,
      "tags": {
        "name": "Lotus Salon",
        "shop": "beauty"
      }
    },
    {
      "type": "node",
      "id": 7579924705,
      "lat": 12.9238004,
      "lon": 77.6024467,
      "tags": {
        "addr:district": "Bengaluru Urban",
        "addr:full": "Bannerghatta Main Road, Bengaluru",
        "addr:postcode": "560029",
        "addr:state": "Karnataka",
        "amenity": "clinic",
        "name": "Safa Health care",
        "source": "Local Knowledge"
      }
    },
    {
      "type": "node",
      "id": 7579924708,
      "lat": 12.9264311,
      "lon": 77.6016717,
      "tags": {
        "addr:district": "Bengaluru Urban",
        "addr:full": "Bismillahnagar, BTM Layout, Bengaluru",
        "addr:postcode": "560029",
        "addr:state": "Karnataka",
        "amenity": "clinic",
        "healthcare": "clinic",
        "name": "Usha Clinic",
        "source": "Local Knowledge"
      }
    },
    {
      "type": "node",
      "id": 7579924743,
      "lat": 12.9232355,
      "lon": 77.6021539,
      "tags": {
        "addr:district": "Bengaluru Urban",
        "addr:full": "BTM Layout, Bengaluru",
        "addr:postcode": "560029",
        "addr:state": "Karnataka",
        "amenity": "clinic",
        "name": "Dr. Seema Sultana's Women's Clinic",
        "source": "Local Knowledge"
      }
    },
    {
      "type": "node",
      "id": 8279529784,
      "lat": 12.9357161,
      "lon": 77.594267,
      "tags": {
        "amenity": "clinic",
        "healthcare": "clinic",
        "name": "Outpatients"
      }
    },
    {
      "type": "node",
      "id": 8559578719,
      "lat": 12.9263406,
      "lon": 77.6037971,
      "tags": {
        "addr:postcode": "560030",
        "addr:street": "F cross, Bismillah Nagar , Bannerghatta Road, Bangalore",
        "amenity": "school",
        "name": "Lilly Rose English High School"
      }
    },
    {
      "type": "node",
      "id": 9730853893,
      "lat": 12.9355966,
      "lon": 77.5971575,
      "tags": {
        "amenity": "hospital",
        "healthcare": "hospital",
        "name": "Kidwai Cancer Institute Radiation Block"
      }
    },
    {
      "type": "node",
      "id": 9904130017,
      "lat": 12.9205157,
      "lon": 77.5896751,
      "tags": {
        "amenity": "cafe",
        "name": "Just Coffee",
        "shop": "coffee"
      }
    },
    {
      "type": "node",
      "id": 10058077317,
      "lat": 12.9215629,
      "lon": 77.5911575,
      "tags": {
        "addr:housenumber": "909, 1st Floor",
        "addr:postcode": "566041",
        "addr:street": "38th Cross Road",
        "amenity": "college",
        "email": "admissions@rangdebharat.org",
        "name": "Rang De Bharat Foundation",
        "opening_hours": "Tu-Su 10:00-20:00",
        "phone": "7676006006",
        "website": "https://www.rangdebharat.org/"
      }
    },
    {
      "type": "node",
      "id": 10058078817,
      "lat": 12.921552,
      "lon": 77.5911015,
      "tags": {
        "addr:housenumber": "909, 1st Floor, 38th Cross, 21st Main, Jayanagar",
        "addr:postcode": "560041",
        "addr:street": "38th Cross Road",
        "amenity": "college",
        "email": "admissions@sampratishta.org",
        "name": "Sampratishta School of Fine Arts & Design",
        "opening_hours": "Tu-Su 10:00-20:00",
        "phone": "7676006006",
        "website": "https://www.sampratishta.org/"
      }
    },
    {
      "type": "node",
      "id": 10269214110,
      "lat": 12.9236267,
      "lon": 77.5936767,
      "tags": {
        "amenity": "restaurant",
        "name": "Pathyam Paakam",
        "wheelchair": "limited"
      }
    },
    {
      "type": "node",
      "id": 10293629606,
      "lat": 12.9231483,
      "lon": 77.5984338,
      "tags": {
        "access": "yes",
        "amenity": "toilets"
      }
    },
    {
      "type": "node",
      "id": 10293686911,
      "lat": 12.9203767,
      "lon": 77.5971434,
      "tags": {
        "amenity": "bank",
        "atm": "yes",
        "brand": "Punjab & Sind Bank",
        "brand:en": "Punjab & Sind Bank",
        "brand:hi": "पंजाब एण्ड सिंध बैंक",
        "brand:wikidata": "Q2003302",
        "name": "Punjab & Sind Bank",
        "name:en": "Punjab & Sind Bank",
        "name:hi": "पंजाब एण्ड सिंध बैंक",
        "operator": "Punjab & Sind Bank"
      }
    },
    {
      "type": "node",
      "id": 10293686919,
      "lat": 12.9206882,
      "lon": 77.5951038,
      "tags": {
        "amenity": "fast_food",
        "name": "Hotel Prashanth"
      }
    },
    {
      "type": "node",
      "id": 10293686920,
      "lat": 12.9209967,
      "lon": 77.5897783,
      "tags": {
        "amenity": "shelter",
        "shelter_type": "gazebo"
      }
    },
    {
      "type": "node",
      "id": 10554508510,
      "lat": 12.920554,
      "lon": 77.5915324,
      "tags": {
        "amenity": "clinic",
        "name": "Turning Point Therapists"
      }
    },
    {
      "type": "node",
      "id": 11013472860,
      "lat": 12.9244226,
      "lon": 77.5973974,
      "tags": {
        "amenity": "community_centre",
        "name": "Samudaya Bhavan",
        "name:kn": "ಸಮುದಾಯ ಭವನ"
      }
    },
    {
      "type": "node",
      "id": 11013472861,
      "lat": 12.9243354,
      "lon": 77.5973974,
      "tags": {
        "amenity": "place_of_worship",
        "name": "Kaurmariyamma temple",
        "religion": "hindu"
      }
    },
    {
      "type": "node",
      "id": 11013472862,
      "lat": 12.924161,
      "lon": 77.5971697,
      "tags": {
        "amenity": "pharmacy",
        "healthcare": "pharmacy",
        "name": "Leaf pharma"
      }
    },
    {
      "type": "node",
      "id": 11126552283,
      "lat": 12.9242018,
      "lon": 77.598808,
      "tags": {
        "amenity": "car_wash"
      }
    },
    {
      "type": "node",
      "id": 11126563764,
      "lat": 12.9237169,
      "lon": 77.5988844,
      "tags": {
        "shop": "car_repair"
      }
    },
    {
      "type": "node",
      "id": 11294646338,
      "lat": 12.9195785,
      "lon": 77.5950152,
      "tags": {
        "amenity": "atm"
      }
    },
    {
      "type": "node",
      "id": 11294646342,
      "lat": 12.936353,
      "lon": 77.5927568,
      "tags": {
        "amenity": "public_bath",
        "fee": "yes"
      }
    },
    {
      "type": "node",
      "id": 11294646349,
      "lat": 12.9293283,
      "lon": 77.5926046,
      "tags": {
        "amenity": "dentist",
        "healthcare": "dentist",
        "name": "HTM Dental Care Center"
      }
    },
    {
      "type": "node",
      "id": 11294646350,
      "lat": 12.9243224,
      "lon": 77.5951283,
      "tags": {
        "amenity": "kindergarten",
        "name": "Sudarshan Vidya Mandir Pre Primary School"
      }
    },
    {
      "type": "node",
      "id": 11294646362,
      "lat": 12.9307369,
      "lon": 77.5926549,
      "tags": {
        "amenity": "atm",
        "brand": "Karnataka Bank",
        "brand:wikidata": "Q2042632",
        "operator": "Karnataka Bank",
        "operator:wikidata": "Q2042632"
      }
    },
    {
      "type": "node",
      "id": 11294646363,
      "lat": 12.9363445,
      "lon": 77.5927599,
      "tags": {
        "access": "yes",
        "amenity": "toilets",
        "fee": "yes"
      }
    },
    {
      "type": "node",
      "id": 11296933565,
      "lat": 12.9273812,
      "lon": 77.6001621,
      "tags": {
        "amenity": "theatre",
        "name": "Mother Veronica Auditorium"
      }
    },
    {
      "type": "node",
      "id": 11475762991,
      "lat": 12.9265197,
      "lon": 77.6006498,
      "tags": {
        "amenity": "bank",
        "atm": "yes",
        "brand": "HDFC Bank",
        "brand:wikidata": "Q631047",
        "name": "HDFC Bank",
        "name:kn": "ಎಚ್ ಡಿ ಎಫ್ ಸಿ",
        "short_name": "HDFC"
      }
    },
    {
      "type": "node",
      "id": 11557032415,
      "lat": 12.9273559,
      "lon": 77.5861504,
      "tags": {
        "addr:housenumber": "62",
        "addr:street": "11th Main Road",
        "amenity": "cafe",
        "check_date": "2024-01-27",
        "contact:instagram": "https://www.instagram.com/kongsiteabar.in",
        "cuisine": "bubble_tea",
        "delivery": "yes",
        "name": "Kongsi Tea Bar",
        "opening_hours": "11:00-23:00"
      }
    },
    {
      "type": "node",
      "id": 11982395298,
      "lat": 12.9219633,
      "lon": 77.5896562,
      "tags": {
        "brand": "Nandini",
        "brand:wikidata": "Q124374212",
        "check_date": "2024-06-15",
        "name": "Nandini",
        "shop": "dairy"
      }
    },
    {
      "type": "node",
      "id": 11982395299,
      "lat": 12.9222167,
      "lon": 77.5893948,
      "tags": {
        "amenity": "ice_cream",
        "brand": "Polar Bear Ice Creams",
        "brand:wikidata": "Q124374249",
        "check_date": "2024-06-15",
        "delivery": "yes",
        "name": "Polar Bear Ice Creams",
        "takeaway": "yes"
      }
    },
    {
      "type": "node",
      "id": 12030632870,
      "lat": 12.9218007,
      "lon": 77.5933109,
      "tags": {
        "amenity": "clinic",
        "name": "Oncquest Laboratories",
        "opening_hours": "24/7"
      }
    },
    {
      "type": "node",
      "id": 12050930674,
      "lat": 12.9222167,
      "lon": 77.5893947,
      "tags": {
        "addr:floor": "1",
        "check_date": "2024-06-15",
        "level": "1",
        "name": "Flaunt Salon and Spa",
        "shop": "beauty"
      }
    },
    {
      "type": "node",
      "id": 12079472253,
      "lat": 12.926426,
      "lon": 77.5856558,
      "tags": {
        "addr:city": "Bengaluru",
        "addr:district": "Bengaluru",
        "addr:housenumber": "529",
        "addr:postcode": "560011",
        "addr:street": "11 Main Road, Jayanagar",
        "branch": "jayanagar",
        "name": "GRT Jewellers",
        "name:kn": "ಜಿ ಆರ್ ಟಿ ಜ್ಯುವೆಲ್ಲರ್ಸ",
        "opening_hours": "Mo-Su 10:00-21:00",
        "phone": "080 2665 1515",
        "shop": "jewelry"
      }
    },
    {
      "type": "node",
      "id": 12118830314,
      "lat": 12.9287517,
      "lon": 77.586393,
      "tags": {
        "addr:street": "30th Cross Road",
        "name": "Amma's Pastries",
        "shop": "pastry"
      }
    },
    {
      "type": "node",
      "id": 12161830069,
      "lat": 12.9208893,
      "lon": 77.5971712,
      "tags": {
        "contact:email": "info@i-print.in",
        "contact:mobile": "+91-97434-20444;+91-98454-48001;+91-80-4147-2255",
        "name": "i-Print",
        "shop": "printing"
      }
    },
    {
      "type": "node",
      "id": 12161830085,
      "lat": 12.9207582,
      "lon": 77.5967675,
      "tags": {
        "amenity": "drinking_water",
        "indoor": "yes"
      }
    },
    {
      "type": "node",
      "id": 12161830093,
      "lat": 12.9204166,
      "lon": 77.5972503,
      "tags": {
        "amenity": "atm",
        "brand": "Punjab & Sind Bank",
        "brand:en": "Punjab & Sind Bank",
        "brand:hi": "पंजाब एण्ड सिंध बैंक",
        "brand:wikidata": "Q2003302",
        "level": "0",
        "name": "Punjab & Sind Bank",
        "name:en": "Punjab & Sind Bank",
        "name:hi": "पंजाब एण्ड सिंध बैंक",
        "operator": "Punjab & Sind Bank",
        "operator:wikidata": "Q2003302"
      }
    },
    {
      "type": "node",
      "id": 12161877005,
      "lat": 12.920204,
      "lon": 77.597169,
      "tags": {
        "addr:block": "9",
        "addr:city": "Bangalore",
        "addr:housenumber": "1588/42",
        "addr:place": "Jayanagar",
        "addr:postcode": "560069",
        "addr:street": "East End Main Road",
        "name": "Khan Motors",
        "note": "\"Advisor for sellers and buyers of all kinds of two and four wheelers.\"",
        "second_hand": "only",
        "shop": "car"
      }
    },
    {
      "type": "node",
      "id": 12252356228,
      "lat": 12.9255563,
      "lon": 77.5952012,
      "tags": {
        "check_date": "2024-10-15",
        "contact:instagram": "junysbakehouse",
        "delivery": "only",
        "name": "Juny's Bakehouse",
        "shop": "pastry",
        "takeaway": "only"
      }
    },
    {
      "type": "node",
      "id": 12309075244,
      "lat": 12.9258756,
      "lon": 77.5894258,
      "tags": {
        "addr:housenumber": "425",
        "addr:street": "18th Main Road",
        "amenity": "cafe",
        "check_date": "2024-11-03",
        "contact:instagram": "https://www.instagram.com/katte.kulture",
        "cuisine": "coffee_shop",
        "internet_access": "yes",
        "name": "Katte Kulture",
        "opening_hours": "10:00-21:00",
        "outdoor_seating": "yes",
        "smoking": "yes",
        "toilets": "yes"
      }
    },
    {
      "type": "node",
      "id": 12520149567,
      "lat": 12.9341449,
      "lon": 77.5898434,
      "tags": {
        "addr:city": "Bengaluru",
        "addr:housenumber": "9/10",
        "addr:postcode": "560011",
        "addr:street": "5th Cross, 1st Block, jayanagar East",
        "amenity": "dentist",
        "healthcare": "dentist",
        "name": "D.A Dental lab"
      }
    },
    {
      "type": "node",
      "id": 12520149568,
      "lat": 12.9341191,
      "lon": 77.5898449,
      "tags": {
        "addr:city": "Bengaluru",
        "addr:housenumber": "9/10",
        "addr:postcode": "560011",
        "addr:street": "5th Cross, 1st Block, jayanagar East",
        "name": "New Tawakal Provision Store",
        "shop": "department_store"
      }
    },
    {
      "type": "node",
      "id": 12666413603,
      "lat": 12.9190531,
      "lon": 77.5970575,
      "tags": {
        "addr:city": "Jayanagar",
        "addr:district": "Bengaluru Urban",
        "addr:street": "East End Main Road",
        "amenity": "restaurant",
        "check_date": "2025-03-15",
        "cuisine": "indian;chinese;coffee_shop;regional;noodle",
        "diet:vegetarian": "yes",
        "name": "Udupi Garden"
      }
    },
    {
      "type": "node",
      "id": 12684804806,
      "lat": 12.9261107,
      "lon": 77.5898357,
      "tags": {
        "amenity": "cafe",
        "cuisine": "coffee_shop",
        "name": "The Bloom",
        "outdoor_seating": "yes"
      }
    },
    {
      "type": "node",
      "id": 12684804807,
      "lat": 12.9257978,
      "lon": 77.5897874,
      "tags": {
        "amenity": "bank",
        "atm": "yes",
        "brand": "Punjab National Bank",
        "brand:wikidata": "Q2743499",
        "name": "Punjab National Bank"
      }
    },
    {
      "type": "node",
      "id": 12917043437,
      "lat": 12.9268984,
      "lon": 77.5864711,
      "tags": {
        "amenity": "fast_food",
        "brand": "Krispy Kreme",
        "brand:wikidata": "Q1192805",
        "cuisine": "donut",
        "name": "Krispy Kreme",
        "takeaway": "yes"
      }
    },
    {
      "type": "node",
      "id": 12917043440,
      "lat": 12.926488,
      "lon": 77.5858261,
      "tags": {
        "brand": "Joyalukkas",
        "brand:wikidata": "Q6297357",
        "name": "Joyalukkas",
        "shop": "jewelry"
      }
    },
    {
      "type": "node",
      "id": 13072830363,
      "lat": 12.9204248,
      "lon": 77.5896784,
      "tags": {
        "amenity": "cafe",
        "name": "Aarell Cafe"
      }
    },
    {
      "type": "way",
      "id": 27446379,
      "center": {
        "lat": 12.9308657,
        "lon": 77.5902721
      },
      "tags": {
        "created_by": "Potlatch 0.10d",
        "leisure": "garden",
        "name": "LIC Colony Park"
      }
    },
    {
      "type": "way",
      "id": 32425211,
      "center": {
        "lat": 12.9211732,
        "lon": 77.5892009
      },
      "tags": {
        "created_by": "Potlatch 0.10f",
        "leisure": "garden"
      }
    },
    {
      "type": "way",
      "id": 32425217,
      "center": {
        "lat": 12.9211481,
        "lon": 77.5898414
      },
      "tags": {
        "leisure": "park"
      }
    },
    {
      "type": "way",
      "id": 32426424,
      "center": {
        "lat": 12.9210822,
        "lon": 77.5962995
      },
      "tags": {
        "amenity": "college",
        "name": "ME & WA College"
      }
    },
    {
      "type": "way",
      "id": 32426679,
      "center": {
        "lat": 12.925172,
        "lon": 77.5901626
      },
      "tags": {
        "created_by": "Potlatch 0.10f",
        "leisure": "garden"
      }
    },
    {
      "type": "way",
      "id": 40631131,
      "center": {
        "lat": 12.9261175,
        "lon": 77.592549
      },
      "tags": {
        "addr:district": "Mysore",
        "addr:full": "Near Balodhyana school Mysore, Jayanagara town Mysore, Jayanagara Main Road Mysore",
        "addr:postcode": "570014",
        "addr:state": "Karnataka",
        "amenity": "hospital",
        "contact:phone": "0821-2461158",
        "healthcare": "hospital",
        "name": "Jayanagar General Hospital",
        "name:kn": "ಸಂಜಯ್ ಗಾಂಧಿ ಆಸ್ಪತ್ರೆ",
        "operator:type": "government",
        "source": "OpenGovernmentData"
      }
    },
    {
      "type": "way",
      "id": 40631636,
      "center": {
        "lat": 12.9268815,
        "lon": 77.5996431
      },
      "tags": {
        "addr:street": "Bannerghatta Road",
        "amenity": "college",
        "landuse": "education",
        "name": "Carmel Convent PU College",
        "name:en": "Carmel Convent PU College",
        "name:kn": "ಕಾರ್ಮೆಲ್ ಕಾನ್ವೆಂಟ್"
      }
    },
    {
      "type": "way",
      "id": 40631651,
      "center": {
        "lat": 12.9251084,
        "lon": 77.5957927
      },
      "tags": {
        "leisure": "park"
      }
    },
    {
      "type": "way",
      "id": 40631652,
      "center": {
        "lat": 12.9251027,
        "lon": 77.594732
      },
      "tags": {
        "leisure": "park",
        "name": "Vishnuvardhan Park",
        "name:kn": "ವಿಷ್ಣುವರ್ಧನ ಉದ್ಯಾನವನ"
      }
    },
    {
      "type": "way",
      "id": 40631657,
      "center": {
        "lat": 12.9382871,
        "lon": 77.5899069
      },
      "tags": {
        "amenity": "hospital",
        "comment": "land reserved for building hospitals",
        "healthcare": "hospital",
        "name": "Hospital Complex"
      }
    },
    {
      "type": "way",
      "id": 40633846,
      "center": {
        "lat": 12.9270063,
        "lon": 77.5888743
      },
      "tags": {
        "amenity": "college",
        "name": "BES Educational Institutions"
      }
    },
    {
      "type": "way",
      "id": 40633850,
      "center": {
        "lat": 12.9225159,
        "lon": 77.5927214
      },
      "tags": {
        "amenity": "college",
        "name": "RV Institute of Management",
        "name:kn": "ಶಿವಾನಂದ ಶರ್ಮ ಸ್ಮಾರಕ ರಾಷ್ಟ್ರೀಯ ವಿದ್ಯಾಲಯ",
        "old_name": "Sivananda Sharma Memorial RV",
        "short_name": "SSMRV"
      }
    },
    {
      "type": "way",
      "id": 40678727,
      "center": {
        "lat": 12.9185194,
        "lon": 77.599254
      },
      "tags": {
        "addr:district": "Bengaluru Urban",
        "addr:full": "Jayanagar 9Th Block, B.G. Road, Banglore",
        "addr:postcode": "560041",
        "addr:state": "Karnataka",
        "addr:street": "Bannerghatta Road",
        "amenity": "hospital",
        "emergency": "yes",
        "healthcare": "hospital",
        "healthcare:speciality": "cardiology",
        "name": "Sri Jayadeva Institute Of Cardiology",
        "name:kn": "ಜಯದೇವ ಹೃದ್ರೋಗ ಸಂಸ್ಥೆ",
        "name:ta": "ஸ்ரீ ஜெயதேவா இருதய மருத்துவமனை",
        "source": "OpenGovernmentData"
      }
    },
    {
      "type": "way",
      "id": 55675141,
      "center": {
        "lat": 12.9288196,
        "lon": 77.5876667
      },
      "tags": {
        "amenity": "school",
        "name": "Vivekananda School",
        "name:kn": "ವಿವೇಕಾನಂದ ಶಾಲೆ"
      }
    },
    {
      "type": "way",
      "id": 55675143,
      "center": {
        "lat": 12.9280149,
        "lon": 77.5870065
      },
      "tags": {
        "amenity": "college",
        "name": "Vijaya College",
        "name:kn": "ವಿಜಯ ಕಾಲೇಜು"
      }
    },
    {
      "type": "way",
      "id": 130871138,
      "center": {
        "lat": 12.9336401,
        "lon": 77.5892339
      },
      "tags": {
        "leisure": "park"
      }
    },
    {
      "type": "way",
      "id": 131608822,
      "center": {
        "lat": 12.9313367,
        "lon": 77.6028731
      },
      "tags": {
        "addr:city": "Bangalore",
        "addr:housenumber": "St. Thomas Parish Hall",
        "addr:postcode": "560029",
        "addr:street": "Christ School Road, SaddaguntePalya, Dairy Circle",
        "amenity": "community_centre",
        "building": "yes",
        "name": "St. Thomas Parish Hall",
        "name:kn": "ಸೇಂಟ್ ತೋಮಸ್ ಭವನ"
      }
    },
    {
      "type": "way",
      "id": 131608823,
      "center": {
        "lat": 12.9313556,
        "lon": 77.6020313
      },
      "tags": {
        "amenity": "community_centre",
        "building": "yes",
        "name": "Chandrodaya",
        "name:kn": "ಚಂದ್ರೋದಯ"
      }
    },
    {
      "type": "way",
      "id": 131608824,
      "center": {
        "lat": 12.9314529,
        "lon": 77.6017526
      },
      "tags": {
        "addr:city": "Bengaluru",
        "addr:housenumber": "39",
        "addr:postcode": "560029",
        "addr:street": "Bannerghatta Rd, Bhavani Nagar, Hombegowda Nagar",
        "alt_name": "Chandrodaya Convention Center",
        "amenity": "community_centre",
        "building": "yes",
        "name": "Chandrodaya",
        "name:kn": "ಅರುಣೋದಯ"
      }
    },
    {
      "type": "way",
      "id": 131610640,
      "center": {
        "lat": 12.9288628,
        "lon": 77.5955361
      },
      "tags": {
        "amenity": "place_of_worship",
        "denomination": "sunni",
        "religion": "muslim"
      }
    },
    {
      "type": "way",
      "id": 131610641,
      "center": {
        "lat": 12.9278275,
        "lon": 77.5938058
      },
      "tags": {
        "amenity": "place_of_worship",
        "denomination": "sunni",
        "religion": "muslim"
      }
    },
    {
      "type": "way",
      "id": 131610643,
      "center": {
        "lat": 12.9318533,
        "lon": 77.6017138
      },
      "tags": {
        "amenity": "office",
        "building": "office",
        "name": "Adobe India",
        "name:kn": "ಅಡೋಬಿ ಇಂಡ್ಯ"
      }
    },
    {
      "type": "way",
      "id": 131610644,
      "center": {
        "lat": 12.9286346,
        "lon": 77.6025375
      },
      "tags": {
        "leisure": "park",
        "name": "BBMP Thavarkere Park",
        "name:kn": "ತಾವರೆಕೆರೆ ಉದ್ಯಾನವನ",
        "operator": "ಬೃಹತ್ ಬೆಂಗಳೂರು ಮಹಾನಗರ ಪಾಲಿಕೆ",
        "operator:en": "Bruhat Bengaluru Mahanagara Palike",
        "operator:ka": "ಬೃಹತ್ ಬೆಂಗಳೂರು ಮಹಾನಗರ ಪಾಲಿಕೆ",
        "operator:short": "BBMP",
        "operator:type": "government",
        "operator:wikidata": "Q4978693"
      }
    },
    {
      "type": "way",
      "id": 131610645,
      "center": {
        "lat": 12.9204169,
        "lon": 77.5939909
      },
      "tags": {
        "amenity": "place_of_worship",
        "denomination": "sunni",
        "religion": "muslim"
      }
    },
    {
      "type": "way",
      "id": 133256306,
      "center": {
        "lat": 12.9301392,
        "lon": 77.6012683
      },
      "tags": {
        "addr:city": "Bangalore",
        "addr:housename": "39/3 &44 SR Krishnappa Garden",
        "addr:housenumber": "Hombegowda Nagar",
        "addr:postcode": "560029",
        "addr:street": "Bannerghatta Road",
        "brand": "Spar",
        "brand:wikidata": "Q610492",
        "building": "yes",
        "landuse": "commercial",
        "layer": "-1",
        "name": "Spar",
        "name:kn": "ಸ್ಪಾರ್",
        "organic": "yes",
        "shop": "supermarket",
        "website": "https://www.sparindia.com/"
      }
    },
    {
      "type": "way",
      "id": 133260584,
      "center": {
        "lat": 12.9304815,
        "lon": 77.5910291
      },
      "tags": {
        "amenity": "public_building",
        "building": "yes",
        "name": "BBMP Contact Center"
      }
    },
    {
      "type": "way",
      "id": 133260676,
      "center": {
        "lat": 12.9306049,
        "lon": 77.5908028
      },
      "tags": {
        "amenity": "library",
        "name": "Central Library Bangalore South Zone",
        "name:kn": "ಕೇಂದ್ರ ಗ್ರಂಥಾಲಯ"
      }
    },
    {
      "type": "way",
      "id": 133524191,
      "center": {
        "lat": 12.9313292,
        "lon": 77.6021955
      },
      "tags": {
        "amenity": "community_centre",
        "building": "yes",
        "name": "Suryodhaya",
        "name:kn": "ಸುರ್ಯೋದಯ"
      }
    },
    {
      "type": "way",
      "id": 239738394,
      "center": {
        "lat": 12.9357539,
        "lon": 77.6001395
      },
      "tags": {
        "amenity": "college",
        "name": "Government Technical Industrial Institute"
      }
    },
    {
      "type": "way",
      "id": 239738396,
      "center": {
        "lat": 12.9331301,
        "lon": 77.5980883
      },
      "tags": {
        "amenity": "college",
        "name": "Fire Service Campus",
        "name:kn": "ಅಗ್ನಿ ಸೇವಾ ಆವರಣ"
      }
    },
    {
      "type": "way",
      "id": 239738408,
      "center": {
        "lat": 12.936526,
        "lon": 77.5981388
      },
      "tags": {
        "addr:district": "Bengaluru Urban",
        "addr:full": "Dr.M.H Marigowda Road",
        "addr:postcode": "560 029",
        "addr:state": "Karnataka",
        "amenity": "hospital",
        "emergency": "yes",
        "healthcare": "hospital",
        "healthcare:speciality": "oncology",
        "name": "Kidwai Memorial Institute of Oncology",
        "name:etymology:wikidata": "Q7282619",
        "operator:type": "private",
        "source": "OpenGovernmentData",
        "website": "https://www.kidwai.kar.nic.in/",
        "wikidata": "Q6405058",
        "wikipedia": "en:Kidwai Memorial Institute of Oncology"
      }
    },
    {
      "type": "way",
      "id": 296669392,
      "center": {
        "lat": 12.9251618,
        "lon": 77.5913106
      },
      "tags": {
        "landuse": "recreation_ground",
        "leisure": "park"
      }
    },
    {
      "type": "way",
      "id": 334493050,
      "center": {
        "lat": 12.9356389,
        "lon": 77.5935945
      },
      "tags": {
        "amenity": "hospital",
        "emergency": "yes",
        "healthcare": "hospital",
        "name": "Sanjay Gandhi Accident and Trauma Hospital",
        "name:etymology:wikidata": "Q730045",
        "name:kn": "ಸಂಜಯ ಗಾಂಧಿ ಆಸ್ಪತ್ರೆ"
      }
    },
    {
      "type": "way",
      "id": 334493056,
      "center": {
        "lat": 12.9357711,
        "lon": 77.5939433
      },
      "tags": {
        "amenity": "hospital",
        "building": "yes",
        "emergency": "yes",
        "healthcare": "hospital",
        "name": "Sanjay Gandhi Accident and Trauma Hospital",
        "name:etymology:wikidata": "Q730045",
        "name:kn": "ಸಂಜಯ ಗಾಂಧಿ ಆಸ್ಪತ್ರೆ"
      }
    },
    {
      "type": "way",
      "id": 347186904,
      "center": {
        "lat": 12.925159,
        "lon": 77.5898394
      },
      "tags": {
        "building": "yes",
        "leisure": "sports_centre",
        "sport": "badminton"
      }
    },
    {
      "type": "way",
      "id": 347187218,
      "center": {
        "lat": 12.925168,
        "lon": 77.590854
      },
      "tags": {
        "amenity": "place_of_worship",
        "building": "yes",
        "denomination": "shaivism",
        "name": "Shakti Ganapathi Temple",
        "name:kn": "ಗಣಪತಿ ದೇವಸ್ಥಾನ",
        "religion": "hindu"
      }
    },
    {
      "type": "way",
      "id": 347187398,
      "center": {
        "lat": 12.9278436,
        "lon": 77.5914508
      },
      "tags": {
        "amenity": "place_of_worship",
        "building": "yes",
        "denomination": "shaivism",
        "religion": "hindu"
      }
    },
    {
      "type": "way",
      "id": 347187836,
      "center": {
        "lat": 12.9279948,
        "lon": 77.5894064
      },
      "tags": {
        "amenity": "hospital",
        "building": "yes",
        "name": "ESI Hospital",
        "name:kn": "ಇಎಸ್ಐ ಆಸ್ಪತ್ರೆ"
      }
    },
    {
      "type": "way",
      "id": 347208595,
      "center": {
        "lat": 12.9272428,
        "lon": 77.5918053
      },
      "tags": {
        "amenity": "place_of_worship",
        "building": "yes",
        "religion": "christian"
      }
    },
    {
      "type": "way",
      "id": 347209599,
      "center": {
        "lat": 12.9259714,
        "lon": 77.5987129
      },
      "tags": {
        "addr:city": "Bangalore",
        "addr:postcode": "560041",
        "amenity": "community_centre",
        "building": "yes",
        "building:levels": "1",
        "community_centre": "events_centre",
        "name": "Kashmir Bhavan",
        "name:kn": "ಕಾಶ್ಮೀರ ಭವನ"
      }
    },
    {
      "type": "way",
      "id": 347449274,
      "center": {
        "lat": 12.9343637,
        "lon": 77.589961
      },
      "tags": {
        "amenity": "clinic",
        "building": "yes",
        "name": "Dental Clinic"
      }
    },
    {
      "type": "way",
      "id": 347482780,
      "center": {
        "lat": 12.9307596,
        "lon": 77.6030109
      },
      "tags": {
        "amenity": "restaurant",
        "building": "yes",
        "building:levels": "1",
        "name": "Hotel delight"
      }
    },
    {
      "type": "way",
      "id": 347482919,
      "center": {
        "lat": 12.9295624,
        "lon": 77.6031531
      },
      "tags": {
        "addr:city": "Bengaluru",
        "addr:street": "Christ School Road",
        "amenity": "cafe",
        "building": "yes",
        "cuisine": "regional;teax-mex",
        "internet_access": "wlan",
        "name": "juice magic"
      }
    },
    {
      "type": "way",
      "id": 347484379,
      "center": {
        "lat": 12.9310555,
        "lon": 77.600919
      },
      "tags": {
        "addr:city": "Bangalore",
        "addr:housenumber": "#10, Bhavani Layout",
        "addr:postcode": "560029",
        "addr:street": "Bannerghatta Road",
        "amenity": "cafe",
        "building": "commercial",
        "cuisine": "international",
        "internet_access": "yes",
        "name": "Savoury - Sea Shell Restaurant",
        "opening_hours": "24/7",
        "smoking": "isolated"
      }
    },
    {
      "type": "way",
      "id": 347488024,
      "center": {
        "lat": 12.9288456,
        "lon": 77.5971454
      },
      "tags": {
        "addr:city": "Bengaluru",
        "addr:postcode": "560029",
        "addr:street": "SR Krishnappa Garden, Hombegowda Nagar,",
        "amenity": "place_of_worship",
        "building": "yes",
        "denomination": "sunni",
        "name": "Masjid-e-Husna",
        "name:kn": "ಮಸ್ಜಿದ್ ಎ ಹುಸ್ನ",
        "religion": "muslim"
      }
    },
    {
      "type": "way",
      "id": 347520080,
      "center": {
        "lat": 12.9256655,
        "lon": 77.6001167
      },
      "tags": {
        "amenity": "fuel",
        "brand": "Bharat Petroleum",
        "brand:wikidata": "Q854826",
        "name": "Bharat Petroleum",
        "name:en": "Bharat Petroleum",
        "name:kn": "ಭಾರತ ಪೆಟ್ರೋಲಿಯಂ"
      }
    },
    {
      "type": "way",
      "id": 347533784,
      "center": {
        "lat": 12.9285064,
        "lon": 77.5879817
      },
      "tags": {
        "amenity": "school",
        "name": "National Public School Jayanagar",
        "name:kn": "ರಾಷ್ಟ್ರೀಯ ಸಾರ್ವಜನಿಕ ಶಾಲೆ ಜಯನಗರ"
      }
    },
    {
      "type": "way",
      "id": 347534357,
      "center": {
        "lat": 12.927462,
        "lon": 77.5879362
      },
      "tags": {
        "amenity": "place_of_worship",
        "name": "Christha Prabhalaya Epiphany Church",
        "name:kn": "ಪ್ರಭಾಲಯ ಚರ್ಚ್",
        "religion": "christian"
      }
    },
    {
      "type": "way",
      "id": 349513121,
      "center": {
        "lat": 12.9226076,
        "lon": 77.5932038
      },
      "tags": {
        "amenity": "restaurant",
        "building": "yes",
        "cuisine": "south_Indian",
        "name": "Taaza Tindi"
      }
    },
    {
      "type": "way",
      "id": 349513455,
      "center": {
        "lat": 12.9208583,
        "lon": 77.5990246
      },
      "tags": {
        "addr:city": "Bangalore",
        "addr:postcode": "560076",
        "amenity": "place_of_worship",
        "denomination": "sunni",
        "name": "Masjid-e-eidgah Bilal",
        "name:kn": "ಮಸ್ಜೀದ್ ಎ ಬಿಲಾಲ್",
        "religion": "muslim"
      }
    },
    {
      "type": "way",
      "id": 349513865,
      "center": {
        "lat": 12.9227465,
        "lon": 77.5932002
      },
      "tags": {
        "amenity": "bank",
        "brand": "HDFC Bank",
        "brand:wikidata": "Q631047",
        "brand:wikipedia": "en:HDFC Bank",
        "building": "yes",
        "name": "HDFC Bank",
        "name:kn": "ಎಚ್ ಡಿ ಎಫ್ ಸಿ",
        "short_name": "HDFC",
        "website": "https://www.hdfcbank.com"
      }
    },
    {
      "type": "way",
      "id": 419771780,
      "center": {
        "lat": 12.9188156,
        "lon": 77.5960357
      },
      "tags": {
        "access": "yes",
        "amenity": "parking_space",
        "fee": "no",
        "lit": "no",
        "opening_hours": "24/7",
        "parking": "surface",
        "supervised": "no",
        "surface": "ground"
      }
    },
    {
      "type": "way",
      "id": 442048030,
      "center": {
        "lat": 12.9279005,
        "lon": 77.5998446
      },
      "tags": {
        "addr:district": "Bengaluru Urban",
        "addr:full": "#44, 54, 30th Cross Rd, Bannerughatta Approach Road Layout, 4th T Block East, Tilak Nagar, Jayanagar,",
        "addr:postcode": "560041",
        "addr:state": "Karnataka",
        "amenity": "hospital",
        "email": "infojnr@sagarhospitals.in",
        "emergency": "yes",
        "healthcare": "hospital",
        "name": "Sagar Hospitals",
        "name:kn": "ಸಾಗರ್ ಆಸ್ಪತ್ರೆ",
        "operator:type": "private",
        "phone": "08042888888",
        "source": "OpenGovernmentData",
        "website": "http://www.sagarhospitals.in/"
      }
    },
    {
      "type": "way",
      "id": 511623036,
      "center": {
        "lat": 12.9213666,
        "lon": 77.5892011
      },
      "tags": {
        "leisure": "park",
        "name": "Nandanvan Childrens play Park",
        "note": "Paid Entry"
      }
    },
    {
      "type": "way",
      "id": 521582239,
      "center": {
        "lat": 12.9283983,
        "lon": 77.591163
      },
      "tags": {
        "amenity": "toilets"
      }
    },
    {
      "type": "way",
      "id": 521592163,
      "center": {
        "lat": 12.925358,
        "lon": 77.5940216
      },
      "tags": {
        "amenity": "school",
        "name": "Sudarshan Vidya Mandir"
      }
    },
    {
      "type": "way",
      "id": 581851110,
      "center": {
        "lat": 12.9251058,
        "lon": 77.6010535
      },
      "tags": {
        "addr:city": "Bangalore",
        "addr:housenumber": "12",
        "addr:postcode": "560029",
        "addr:street": "Bannerghatta Road",
        "amenity": "place_of_worship",
        "building": "temple",
        "name": "Subramanya Swamy Temple",
        "name:kn": "ಸುಬ್ರಮಣ್ಯ ಸ್ವಾಮಿ ದೇವಸ್ಥಾನ",
        "religion": "hindu"
      }
    },
    {
      "type": "way",
      "id": 585820761,
      "center": {
        "lat": 12.9325791,
        "lon": 77.6018233
      },
      "tags": {
        "leisure": "park",
        "name": "IBC Evacuation area park"
      }
    },
    {
      "type": "way",
      "id": 755819914,
      "center": {
        "lat": 12.9244961,
        "lon": 77.5988297
      },
      "tags": {
        "leisure": "park"
      }
    },
    {
      "type": "way",
      "id": 755819915,
      "center": {
        "lat": 12.9251535,
        "lon": 77.5989584
      },
      "tags": {
        "leisure": "park"
      }
    },
    {
      "type": "way",
      "id": 755819916,
      "center": {
        "lat": 12.9259469,
        "lon": 77.5989654
      },
      "tags": {
        "leisure": "park"
      }
    },
    {
      "type": "way",
      "id": 755819917,
      "center": {
        "lat": 12.9239658,
        "lon": 77.5982758
      },
      "tags": {
        "amenity": "grave_yard",
        "religion": "hindu"
      }
    },
    {
      "type": "way",
      "id": 755822416,
      "center": {
        "lat": 12.9260471,
        "lon": 77.5981082
      },
      "tags": {
        "leisure": "park"
      }
    },
    {
      "type": "way",
      "id": 788256779,
      "center": {
        "lat": 12.9337951,
        "lon": 77.600289
      },
      "tags": {
        "amenity": "fire_station",
        "name": "Jayanagara Fire Station",
        "name:kn": "ಫೈರ್ ಅಂಡ್ ತುರ್ತು ಸೇವೆಗಳು ಅಕಾಡೆಮಿ",
        "name:ta": "ஜெயாநகர் தீயணைப்பு நிலையம்"
      }
    },
    {
      "type": "way",
      "id": 1042760930,
      "center": {
        "lat": 12.9220598,
        "lon": 77.5926631
      },
      "tags": {
        "leisure": "pitch",
        "sport": "cricket"
      }
    },
    {
      "type": "way",
      "id": 1062025932,
      "center": {
        "lat": 12.9251683,
        "lon": 77.5899996
      },
      "tags": {
        "leisure": "pitch",
        "name": "Basket Ball Training",
        "sport": "basketball"
      }
    },
    {
      "type": "way",
      "id": 1085952669,
      "center": {
        "lat": 12.9208561,
        "lon": 77.5996654
      },
      "tags": {
        "amenity": "place_of_worship",
        "religion": "muslim"
      }
    },
    {
      "type": "way",
      "id": 1125669868,
      "center": {
        "lat": 12.9213587,
        "lon": 77.5955111
      },
      "tags": {
        "leisure": "park"
      }
    },
    {
      "type": "way",
      "id": 1199655576,
      "center": {
        "lat": 12.9267471,
        "lon": 77.596997
      },
      "tags": {
        "amenity": "bank",
        "atm": "yes",
        "brand": "Bank of Baroda",
        "brand:wikidata": "Q2003797",
        "brand:wikipedia": "en:Bank of Baroda",
        "name": "Bank of Baroda",
        "name:en": "Bank of Baroda",
        "name:kn": "ಬ್ಯಾಂಕ್ ಆಫ್ ಬರೊಡಾ",
        "short_name": "BOB",
        "website": "http://www.bankofbaroda.com"
      }
    },
    {
      "type": "way",
      "id": 1199657418,
      "center": {
        "lat": 12.9252406,
        "lon": 77.5961825
      },
      "tags": {
        "name": "Nandini",
        "name:kn": "ನಂದಿನಿ",
        "shop": "dairy"
      }
    },
    {
      "type": "way",
      "id": 1199657419,
      "center": {
        "lat": 12.925006,
        "lon": 77.5953767
      },
      "tags": {
        "amenity": "toilets",
        "fee": "yes"
      }
    },
    {
      "type": "way",
      "id": 1242203373,
      "center": {
        "lat": 12.9196286,
        "lon": 77.5993316
      },
      "tags": {
        "access": "permissive",
        "amenity": "parking",
        "parking": "surface"
      }
    },
    {
      "type": "way",
      "id": 1242203386,
      "center": {
        "lat": 12.9264705,
        "lon": 77.5978168
      },
      "tags": {
        "addr:street": "Bannerghatta Road",
        "amenity": "school",
        "landuse": "education",
        "name": "Lourdes Convent School"
      }
    },
    {
      "type": "way",
      "id": 1242203388,
      "center": {
        "lat": 12.9272459,
        "lon": 77.5980996
      },
      "tags": {
        "addr:street": "Bannerghatta Road",
        "amenity": "school",
        "landuse": "education",
        "name": "Carmel Convent School",
        "name:kn": "ಕಾರ್ಮೆಲ್ ಕಾನ್ವೆಂಟ್ ಶಾಲೆ"
      }
    },
    {
      "type": "way",
      "id": 1242203390,
      "center": {
        "lat": 12.9286828,
        "lon": 77.6018722
      },
      "tags": {
        "leisure": "playground"
      }
    },
    {
      "type": "way",
      "id": 1242203393,
      "center": {
        "lat": 12.9311623,
        "lon": 77.5976836
      },
      "tags": {
        "leisure": "park"
      }
    },
    {
      "type": "way",
      "id": 1242203419,
      "center": {
        "lat": 12.9289418,
        "lon": 77.5913637
      },
      "tags": {
        "name": "Garuda Swagath Mall",
        "name:kn": "ಗರುಡ ಸ್ವಾಗತ್ ಮಾಲ್",
        "shop": "mall"
      }
    },
    {
      "type": "way",
      "id": 1242203428,
      "center": {
        "lat": 12.9304914,
        "lon": 77.5954162
      },
      "tags": {
        "leisure": "park",
        "name": "Byrasandra Lake Park"
      }
    },
    {
      "type": "way",
      "id": 1256457833,
      "center": {
        "lat": 12.9273417,
        "lon": 77.5865998
      },
      "tags": {
        "amenity": "school",
        "name": "Geeta HPS",
        "name:kn": "ಗೀತ ಹಿರಿಯ ಪ್ರಾಥಮಿಕ ಶಾಲೆ"
      }
    },
    {
      "type": "way",
      "id": 1274548649,
      "center": {
        "lat": 12.9213761,
        "lon": 77.6004341
      },
      "tags": {
        "amenity": "fuel",
        "brand": "Totalgaz",
        "fuel:cng": "yes",
        "name": "Totalgaz"
      }
    },
    {
      "type": "way",
      "id": 1274548654,
      "center": {
        "lat": 12.9268126,
        "lon": 77.600711
      },
      "tags": {
        "amenity": "fuel",
        "name": "Go Gas",
        "name:en": "Go Gas"
      }
    },
    {
      "type": "way",
      "id": 1274548656,
      "center": {
        "lat": 12.9271233,
        "lon": 77.6018707
      },
      "tags": {
        "amenity": "college"
      }
    },
    {
      "type": "way",
      "id": 1313972719,
      "center": {
        "lat": 12.9206935,
        "lon": 77.5967678
      },
      "tags": {
        "addr:block": "9",
        "addr:city": "Bengaluru",
        "addr:parentstreet": "East End Main Road",
        "addr:place": "Jayanagar",
        "addr:postcode": "560069",
        "addr:street": "38th Cross",
        "amenity": "restaurant",
        "building": "yes",
        "building:levels": "2",
        "contact:email": "cafekrishnam1983@gmail.com",
        "contact:mobile": "+91-76768-69139;+91-63611-01075;+91-80884-06229",
        "cuisine": "north_indian;south_indian;chinese",
        "diet:lacto_vegetarian": "yes",
        "diet:vegan": "yes",
        "level": "0",
        "name": "Cafe Krishnam",
        "wheelchair": "no"
      }
    },
    {
      "type": "way",
      "id": 1354228613,
      "center": {
        "lat": 12.9284892,
        "lon": 77.6008072
      },
      "tags": {
        "addr:street": "Bannerghatta Road",
        "amenity": "fuel",
        "brand": "Indian Oil",
        "brand:wikidata": "Q1289348",
        "brand:wikipedia": "en:Indian Oil Corporation",
        "name": "Indian Oil Petrol Bunk",
        "name:kn": "ಇಂಡಿಯನ್ ಆಯಿಲ್",
        "operator": "Indian Oil"
      }
    },
    {
      "type": "way",
      "id": 1390995568,
      "center": {
        "lat": 12.9231956,
        "lon": 77.6015123
      },
      "tags": {
        "access": "private",
        "leisure": "pitch",
        "sport": "tennis"
      }
    },
    {
      "type": "way",
      "id": 1422508733,
      "center": {
        "lat": 12.9274853,
        "lon": 77.5894444
      },
      "tags": {
        "amenity": "fuel",
        "brand": "Hindustan Petoleum",
        "fuel": "lpg",
        "fuel:lpg": "yes",
        "name": "Advaitha Petrol Bunk",
        "name:kn": "ಅಧ್ವೈತ ಪೆಟ್ರೊಲ್ ಬಂಕ್",
        "note": "non functional"
      }
    }
  ]
}