{
  "area_name": "Tirumala Nagar",
  "osm_id": 13325810058,
  "osm_type": "node",
  "place_type": "neighbourhood",
  "amenity_count": 109,
  "amenities": [
    {
      "type": "node",
      "id": 3642585038,
      "lat": 13.0982955,
      "lon": 77.5727826,
      "tags": {
        "brand": "Maruti Suzuki",
        "brand:wikidata": "Q963718",
        "name": "Mandovi Motors",
        "name:kn": "ಮಂಡೋವಿ ಮೋಟರ್ಸ್",
        "shop": "car"
      }
    },
    {
      "type": "node",
      "id": 3690989936,
      "lat": 13.093793,
      "lon": 77.5712363,
      "tags": {
        "name": "Royal Mart",
        "shop": "supermarket"
      }
    },
    {
      "type": "node",
      "id": 6948243837,
      "lat": 13.1047489,
      "lon": 77.5663546,
      "tags": {
        "addr:district": "Bengaluru Urban",
        "addr:full": "# 33/34,2nd Stage,Balaji Avenue, Attur Main Road, Yelahanka New Town",
        "addr:postcode": "560064",
        "addr:state": "Karnataka",
        "amenity": "clinic",
        "name": "Akshaya Nursing Home, Yelahanka",
        "source": "OpenGovernmentData"
      }
    },
    {
      "type": "node",
      "id": 7220757408,
      "lat": 13.0979031,
      "lon": 77.5662138,
      "tags": {
        "amenity": "bank",
        "atm": "yes",
        "brand": "State Bank of India",
        "brand:wikidata": "Q1340361",
        "name": "State Bank of India",
        "operator": "State Bank of India",
        "short_name": "SBI"
      }
    },
    {
      "type": "node",
      "id": 7220757433,
      "lat": 13.0982036,
      "lon": 77.5691333,
      "tags": {
        "amenity": "bank",
        "atm": "yes",
        "brand": "Axis Bank",
        "brand:wikidata": "Q2003549",
        "name": "Axis Bank",
        "name:kn": "ಆಕ್ಸಿಸ್ ಬ್ಯಾಂಕ್",
        "operator": "Axis Bank"
      }
    },
    {
      "type": "node",
      "id": 7227496280,
      "lat": 13.0932229,
      "lon": 77.5602257,
      "tags": {
        "name": "Rashmi Wines",
        "shop": "wine"
      }
    },
    {
      "type": "node",
      "id": 9415762917,
      "lat": 13.103222,
      "lon": 77.5716133,
      "tags": {
        "name": "Belleza boutique",
        "opening_hours": "Mo-Su 10:00-14:00, 15:00-22:00",
        "phone": "8296641365",
        "shop": "clothes"
      }
    },
    {
      "type": "node",
      "id": 9649217040,
      "lat": 13.1012054,
      "lon": 77.5716623,
      "tags": {
        "amenity": "cafe",
        "name": "Cafe 64",
        "opening_hours": "Mo-Su 11:00-22:30",
        "source": "Eshwar"
      }
    },
    {
      "type": "node",
      "id": 9659361970,
      "lat": 13.1025457,
      "lon": 77.5717503,
      "tags": {
        "check_date": "2025-03-07",
        "name": "Fresh Mart Super Bazar",
        "opening_hours": "Mo-Th 07:30-22:00; Su 07:30-22:00; Fr-Sa 07:30-13:00,15:00-22:00",
        "shop": "supermarket"
      }
    },
    {
      "type": "node",
      "id": 9659410170,
      "lat": 13.1013396,
      "lon": 77.5716414,
      "tags": {
        "name": "Sri Guru Raghavendra Car Care",
        "opening_hours": "Mo-Su 09:00-19:00",
        "shop": "car_repair"
      }
    },
    {
      "type": "node",
      "id": 9659412265,
      "lat": 13.102683,
      "lon": 77.5715176,
      "tags": {
        "name": "Mahid Western Botique",
        "opening_hours": "Mo-Sa 10:30-20:30",
        "shop": "clothes"
      }
    },
    {
      "type": "node",
      "id": 9659423912,
      "lat": 13.1013535,
      "lon": 77.5718208,
      "tags": {
        "name": "Fine Dot",
        "opening_hours": "Mo-Su 07:00-21:00",
        "shop": "convenience"
      }
    },
    {
      "type": "node",
      "id": 9659430920,
      "lat": 13.1015775,
      "lon": 77.5717756,
      "tags": {
        "amenity": "kindergarten",
        "name": "Little Milennium School",
        "opening_hours": "Mo-Fr 22:00-13:00"
      }
    },
    {
      "type": "node",
      "id": 9659439339,
      "lat": 13.1013594,
      "lon": 77.5719933,
      "tags": {
        "name": "Welcome Mens Parlour",
        "opening_hours": "Mo-Su 07:00-9:00,9:30-13:00,13:30-21:00",
        "shop": "hairdresser"
      }
    },
    {
      "type": "node",
      "id": 9659460867,
      "lat": 13.1012136,
      "lon": 77.5717751,
      "tags": {
        "amenity": "restaurant",
        "cuisine": "indian",
        "name": "Balle Balle Punjab"
      }
    },
    {
      "type": "node",
      "id": 9659499565,
      "lat": 13.1010044,
      "lon": 77.5713573,
      "tags": {
        "name": "Yank Beauty Parlour",
        "opening_hours": "Mo-Su 22:30-14:00, 14:30-20:30",
        "shop": "beauty"
      }
    },
    {
      "type": "node",
      "id": 9659501818,
      "lat": 13.1010344,
      "lon": 77.5713972,
      "tags": {
        "name": "Nihal HP Gas",
        "opening_hours": "Mo-Su 08:30-20:30",
        "shop": "gas"
      }
    },
    {
      "type": "node",
      "id": 9659508272,
      "lat": 13.1026854,
      "lon": 77.5714591,
      "tags": {
        "name": "A.R dry cleaners",
        "shop": "dry_cleaning"
      }
    },
    {
      "type": "node",
      "id": 9659511177,
      "lat": 13.1005987,
      "lon": 77.5706839,
      "tags": {
        "name": "Patel Brand Cold Pressed Oil",
        "opening_hours": "Mo-Su 09:00-21:00",
        "shop": "oil_dealer",
        "substance": "oil"
      }
    },
    {
      "type": "node",
      "id": 9659511363,
      "lat": 13.1011111,
      "lon": 77.571551,
      "tags": {
        "name": "Cross Stitch",
        "opening_hours": "Mo-Su 09:30-19:30",
        "shop": "tailor"
      }
    },
    {
      "type": "node",
      "id": 9659513315,
      "lat": 13.1025097,
      "lon": 77.5712728,
      "tags": {
        "amenity": "clinic",
        "healthcare": "clinic",
        "name": "Sri Badri Clinic",
        "opening_hours": "Mo-Sa 10:00-13:00, 16:30-21:00; Su 10:00-13:00"
      }
    },
    {
      "type": "node",
      "id": 9659526118,
      "lat": 13.1028191,
      "lon": 77.5716462,
      "tags": {
        "amenity": "restaurant",
        "name": "Purple Box",
        "opening_hours": "Mo-Su 10:00-22:00; Tu 14:00-22:00"
      }
    },
    {
      "type": "node",
      "id": 9659534493,
      "lat": 13.1027638,
      "lon": 77.5716387,
      "tags": {
        "name": "Parul Beauty World",
        "opening_hours": "Mo-Su 08:00-21:00",
        "shop": "beauty"
      }
    },
    {
      "type": "node",
      "id": 9659576235,
      "lat": 13.1027795,
      "lon": 77.5716423,
      "tags": {
        "name": "Blossoms women collection",
        "opening_hours": "Mo-Su 10:00-14:00, 16:00-20:00",
        "shop": "clothes"
      }
    },
    {
      "type": "node",
      "id": 9659585064,
      "lat": 13.1029193,
      "lon": 77.5716543,
      "tags": {
        "amenity": "food_court",
        "check_date": "2025-03-07",
        "name": "club 46",
        "opening_hours": "Mo-Su 09:30-22:30"
      }
    },
    {
      "type": "node",
      "id": 9659619370,
      "lat": 13.1038165,
      "lon": 77.5712409,
      "tags": {
        "name": "Raj Medical and General stores.",
        "opening_hours": "Mo-Su 10:00-14:00, 16:00-21:00",
        "shop": "medical_supply"
      }
    },
    {
      "type": "node",
      "id": 9659630613,
      "lat": 13.1041105,
      "lon": 77.5705109,
      "tags": {
        "name": "Colours Ladies Fashion Designer Boutique",
        "opening_hours": "Mo-Su 11:00-21:00",
        "shop": "clothes",
        "survey:date": "2022-04-22"
      }
    },
    {
      "type": "node",
      "id": 9659684644,
      "lat": 13.1040859,
      "lon": 77.5705554,
      "tags": {
        "name": "Veerabadreshwera enterprises",
        "opening_hours": "Mo-Su 09:00-21:00",
        "shop": "copyshop"
      }
    },
    {
      "type": "node",
      "id": 9659706898,
      "lat": 13.1040242,
      "lon": 77.5709721,
      "tags": {
        "amenity": "fast_food",
        "name": "Sri Arunachala Hot Chips",
        "opening_hours": "Mo-Su 08:00-22:00"
      }
    },
    {
      "type": "node",
      "id": 9659707362,
      "lat": 13.1041055,
      "lon": 77.5703926,
      "tags": {
        "amenity": "food_court",
        "name": "Malabar food court",
        "opening_hours": "Mo-Su 10:00-22:30"
      }
    },
    {
      "type": "node",
      "id": 9659719676,
      "lat": 13.1040884,
      "lon": 77.5706223,
      "tags": {
        "amenity": "fast_food",
        "name": "Bombay Vada Pav Center",
        "opening_hours": "Mo-Su 11:00-23:00",
        "survey:date": "2022-04-22"
      }
    },
    {
      "type": "node",
      "id": 9659720700,
      "lat": 13.1040333,
      "lon": 77.5709423,
      "tags": {
        "amenity": "fast_food",
        "cuisine": "juice",
        "name": "Sri Ganesh Fruit Juice center",
        "opening_hours": "Mo-Su 8:00-15:00, 15:30-21:00"
      }
    },
    {
      "type": "node",
      "id": 9659722362,
      "lat": 13.1040974,
      "lon": 77.5706648,
      "tags": {
        "amenity": "fast_food",
        "cuisine": "fastfood",
        "name": "Kuns Roll",
        "opening_hours": "Mo-Su 12:00-22:30",
        "source": "Eshwar",
        "survey:date": "2022-04-22"
      }
    },
    {
      "type": "node",
      "id": 9659725772,
      "lat": 13.1040977,
      "lon": 77.5704907,
      "tags": {
        "amenity": "fast_food",
        "name": "Kolkata chats and panipuri bhandar",
        "opening_hours": "Mo-Su 14:30-22:00"
      }
    },
    {
      "type": "node",
      "id": 9659728000,
      "lat": 13.1040493,
      "lon": 77.5708898,
      "tags": {
        "name": "Devanshi farm fresh",
        "opening_hours": "Mo-Su 06:00-22:30",
        "shop": "farm"
      }
    },
    {
      "type": "node",
      "id": 9659732250,
      "lat": 13.1041074,
      "lon": 77.5705422,
      "tags": {
        "amenity": "fast_food",
        "name": "Rolls Corner",
        "opening_hours": "Mo-Su 11:00-22:00",
        "survey:date": "2022-04-22"
      }
    },
    {
      "type": "node",
      "id": 9659741550,
      "lat": 13.1041084,
      "lon": 77.5703675,
      "tags": {
        "amenity": "fast_food",
        "name": "Five star Chicken",
        "opening_hours": "Mo-Su 11:00-22:30"
      }
    },
    {
      "type": "node",
      "id": 9659865058,
      "lat": 13.1041336,
      "lon": 77.5702487,
      "tags": {
        "check_date": "2025-11-01",
        "name": "Fidha Bakery",
        "opening_hours": "Mo-Su 07:00-23:00",
        "shop": "bakery"
      }
    },
    {
      "type": "node",
      "id": 9659871864,
      "lat": 13.1041336,
      "lon": 77.5702836,
      "tags": {
        "amenity": "fast_food",
        "name": "Bangarpete Chats",
        "opening_hours": "Mo-Su 14:30-21:00"
      }
    },
    {
      "type": "node",
      "id": 9659877132,
      "lat": 13.1042581,
      "lon": 77.5704346,
      "tags": {
        "amenity": "food_court",
        "name": "Sri Devi Grand",
        "opening_hours": "Mo-Su 07:30-22:00"
      }
    },
    {
      "type": "node",
      "id": 9659877296,
      "lat": 13.1042644,
      "lon": 77.5703701,
      "tags": {
        "addr:floor": "G",
        "amenity": "fast_food",
        "check_date": "2025-11-01",
        "level": "0",
        "name": "The Taste Buds",
        "opening_hours": "Mo-Su 12:00-20:00"
      }
    },
    {
      "type": "node",
      "id": 10558971064,
      "lat": 13.1012712,
      "lon": 77.5717578,
      "tags": {
        "amenity": "fast_food",
        "name": "Stopover",
        "source": "Eshwar"
      }
    },
    {
      "type": "node",
      "id": 10694997437,
      "lat": 13.0981244,
      "lon": 77.5728089,
      "tags": {
        "amenity": "driving_school",
        "name": "Maruti Driving School",
        "operator": "Mandovi Motors"
      }
    },
    {
      "type": "node",
      "id": 11425006378,
      "lat": 13.0995712,
      "lon": 77.5727476,
      "tags": {
        "amenity": "shelter",
        "shelter_type": "gazebo"
      }
    },
    {
      "type": "node",
      "id": 11425006379,
      "lat": 13.0987887,
      "lon": 77.5728817,
      "tags": {
        "amenity": "shelter",
        "shelter_type": "gazebo"
      }
    },
    {
      "type": "node",
      "id": 11445409855,
      "lat": 13.0982341,
      "lon": 77.5705332,
      "tags": {
        "amenity": "bench"
      }
    },
    {
      "type": "node",
      "id": 11503759307,
      "lat": 13.1005521,
      "lon": 77.5717632,
      "tags": {
        "amenity": "shelter",
        "shelter_type": "gazebo"
      }
    },
    {
      "type": "node",
      "id": 11919727044,
      "lat": 13.0976563,
      "lon": 77.57052,
      "tags": {
        "access": "private",
        "amenity": "parking_entrance",
        "parking": "underground"
      }
    },
    {
      "type": "node",
      "id": 11932360083,
      "lat": 13.0926232,
      "lon": 77.5595933,
      "tags": {
        "check_date": "2024-05-25",
        "shop": "hairdresser"
      }
    },
    {
      "type": "node",
      "id": 11932360086,
      "lat": 13.0978647,
      "lon": 77.5634022,
      "tags": {
        "check_date": "2024-05-25",
        "name": "Green City Supermarket",
        "shop": "supermarket"
      }
    },
    {
      "type": "node",
      "id": 11932360087,
      "lat": 13.0979485,
      "lon": 77.5666617,
      "tags": {
        "amenity": "pharmacy",
        "check_date": "2024-05-25",
        "healthcare": "pharmacy",
        "name": "Sri Ramdev Chemist"
      }
    },
    {
      "type": "node",
      "id": 11932360088,
      "lat": 13.0979611,
      "lon": 77.5669306,
      "tags": {
        "amenity": "place_of_worship",
        "check_date": "2024-05-25",
        "religion": "hindu"
      }
    },
    {
      "type": "node",
      "id": 11932360089,
      "lat": 13.098072,
      "lon": 77.567378,
      "tags": {
        "amenity": "hospital",
        "check_date": "2024-05-25",
        "healthcare": "hospital",
        "name": "Esha Hospital"
      }
    },
    {
      "type": "node",
      "id": 11932360090,
      "lat": 13.0980644,
      "lon": 77.5678896,
      "tags": {
        "check_date": "2024-05-25",
        "shop": "greengrocer"
      }
    },
    {
      "type": "node",
      "id": 11932360091,
      "lat": 13.0981977,
      "lon": 77.5690055,
      "tags": {
        "amenity": "pharmacy",
        "check_date": "2024-05-25",
        "healthcare": "pharmacy",
        "name": "Organic Health Labs"
      }
    },
    {
      "type": "node",
      "id": 12412556329,
      "lat": 13.0995211,
      "lon": 77.5705185,
      "tags": {
        "amenity": "kindergarten",
        "check_date": "2024-12-11",
        "name": "Bright Kid Montessori House",
        "operator:type": "private",
        "phone": "+91 93425 33377",
        "preschool": "yes"
      }
    },
    {
      "type": "node",
      "id": 12412556330,
      "lat": 13.0994063,
      "lon": 77.5709905,
      "tags": {
        "amenity": "kindergarten",
        "check_date": "2024-12-11",
        "name": "Beginners World",
        "operator:type": "private",
        "phone": "+91 89389 32929",
        "preschool": "yes"
      }
    },
    {
      "type": "node",
      "id": 12412564742,
      "lat": 13.0983626,
      "lon": 77.5708541,
      "tags": {
        "check_date": "2024-12-11",
        "internet_access": "no",
        "name": "Your Dream Garden",
        "payment:account_cards": "yes",
        "payment:cash": "yes",
        "payment:credit_cards": "yes",
        "payment:debit_cards": "yes",
        "shop": "garden_centre",
        "wheelchair": "yes"
      }
    },
    {
      "type": "node",
      "id": 12412564743,
      "lat": 13.097981,
      "lon": 77.5696584,
      "tags": {
        "amenity": "clinic",
        "check_date": "2024-12-11",
        "healthcare": "clinic",
        "name": "Namma Clinic",
        "operator": "BBMP",
        "operator:type": "government",
        "wheelchair": "no"
      }
    },
    {
      "type": "node",
      "id": 12412564744,
      "lat": 13.0982886,
      "lon": 77.5694643,
      "tags": {
        "amenity": "restaurant",
        "check_date": "2024-12-11",
        "cuisine": "indian;chinese;juice;coffee_shop;regional;curry",
        "diet:vegetarian": "yes",
        "name": "Sri Udupi Food Hub",
        "payment:cash": "yes",
        "payment:credit_cards": "yes",
        "payment:debit_cards": "yes",
        "wheelchair": "no"
      }
    },
    {
      "type": "node",
      "id": 12412564746,
      "lat": 13.0982707,
      "lon": 77.5693824,
      "tags": {
        "amenity": "pub",
        "brewery": "various",
        "check_date": "2024-12-11",
        "name": "Quarter Adda Rooftop Pub",
        "payment:cash": "yes",
        "payment:credit_cards": "yes",
        "payment:debit_cards": "yes",
        "smoking": "separated",
        "wheelchair": "no"
      }
    },
    {
      "type": "node",
      "id": 12584979212,
      "lat": 13.105914,
      "lon": 77.5678264,
      "tags": {
        "amenity": "clinic",
        "name": "AnK Senior Citizen Healthcare Home"
      }
    },
    {
      "type": "node",
      "id": 12584979235,
      "lat": 13.1055509,
      "lon": 77.5678968,
      "tags": {
        "amenity": "school",
        "name": "Kallavar Public School"
      }
    },
    {
      "type": "node",
      "id": 12584979236,
      "lat": 13.1047985,
      "lon": 77.56833,
      "tags": {
        "name": "Zoom Men's Salon",
        "shop": "hairdresser"
      }
    },
    {
      "type": "node",
      "id": 12584979237,
      "lat": 13.1046627,
      "lon": 77.5692675,
      "tags": {
        "amenity": "fast_food",
        "name": "Subbu Tiffin Center"
      }
    },
    {
      "type": "node",
      "id": 12584979315,
      "lat": 13.0982728,
      "lon": 77.5696839,
      "tags": {
        "name": "Farm Fresh Bazaar",
        "shop": "greengrocer"
      }
    },
    {
      "type": "node",
      "id": 12584979316,
      "lat": 13.0980873,
      "lon": 77.5676819,
      "tags": {
        "amenity": "restaurant",
        "name": "Swaad Ki Dolchi",
        "wheelchair": "yes"
      }
    },
    {
      "type": "node",
      "id": 12791348846,
      "lat": 13.0940531,
      "lon": 77.5604928,
      "tags": {
        "access": "private",
        "amenity": "parking_entrance",
        "parking": "underground"
      }
    },
    {
      "type": "node",
      "id": 12955633201,
      "lat": 13.1005968,
      "lon": 77.5698876,
      "tags": {
        "amenity": "restaurant",
        "name": "Cafe Zero",
        "phone": "+91 90196 92921"
      }
    },
    {
      "type": "node",
      "id": 13048161553,
      "lat": 13.098727,
      "lon": 77.5630402,
      "tags": {
        "amenity": "place_of_worship",
        "name": "ECI St. Peter's Church",
        "religion": "christian"
      }
    },
    {
      "type": "node",
      "id": 13048230843,
      "lat": 13.0978883,
      "lon": 77.563176,
      "tags": {
        "amenity": "pharmacy",
        "brand": "MedPlus",
        "brand:wikidata": "Q65684234",
        "healthcare": "pharmacy",
        "name": "MedPlus",
        "wheelchair": "yes"
      }
    },
    {
      "type": "node",
      "id": 13130332994,
      "lat": 13.0954873,
      "lon": 77.5614837,
      "tags": {
        "shop": "alcohol"
      }
    },
    {
      "type": "node",
      "id": 13130332995,
      "lat": 13.0979018,
      "lon": 77.5627738,
      "tags": {
        "amenity": "fast_food",
        "name": "Shree Udupi Sagar"
      }
    },
    {
      "type": "node",
      "id": 13130333014,
      "lat": 13.0979149,
      "lon": 77.5626759,
      "tags": {
        "amenity": "restaurant",
        "name": "Tirumala Dreams"
      }
    },
    {
      "type": "node",
      "id": 13130333015,
      "lat": 13.0979528,
      "lon": 77.5630662,
      "tags": {
        "name": "Royal Cycle World",
        "shop": "bicycle"
      }
    },
    {
      "type": "way",
      "id": 145719856,
      "center": {
        "lat": 13.0994014,
        "lon": 77.5721929
      },
      "tags": {
        "leisure": "park"
      }
    },
    {
      "type": "way",
      "id": 145759864,
      "center": {
        "lat": 13.1001694,
        "lon": 77.571951
      },
      "tags": {
        "leisure": "park"
      }
    },
    {
      "type": "way",
      "id": 145891266,
      "center": {
        "lat": 13.1033671,
        "lon": 77.5724178
      },
      "tags": {
        "addr:city": "yelahanka new town",
        "addr:housenumber": "208 colony",
        "addr:postcode": "560064",
        "addr:street": "3rd Cross Road",
        "leisure": "park",
        "name": "Swamy Vivekananda Park",
        "name:etymology:wikidata": "Q47478",
        "name:kn": "ಸ್ವಾಮಿ ವಿವೇಕಾನಂದ ಉದ್ಯಾನವನ"
      }
    },
    {
      "type": "way",
      "id": 227014069,
      "center": {
        "lat": 13.098686,
        "lon": 77.571803
      },
      "tags": {
        "leisure": "park"
      }
    },
    {
      "type": "way",
      "id": 346128896,
      "center": {
        "lat": 13.1068567,
        "lon": 77.5608013
      },
      "tags": {
        "leisure": "park"
      }
    },
    {
      "type": "way",
      "id": 515235865,
      "center": {
        "lat": 13.0937426,
        "lon": 77.5705515
      },
      "tags": {
        "leisure": "park"
      }
    },
    {
      "type": "way",
      "id": 515236150,
      "center": {
        "lat": 13.0969608,
        "lon": 77.5699925
      },
      "tags": {
        "leisure": "park"
      }
    },
    {
      "type": "way",
      "id": 515236619,
      "center": {
        "lat": 13.0960682,
        "lon": 77.5703292
      },
      "tags": {
        "leisure": "park"
      }
    },
    {
      "type": "way",
      "id": 515236620,
      "center": {
        "lat": 13.0950415,
        "lon": 77.5706829
      },
      "tags": {
        "leisure": "park"
      }
    },
    {
      "type": "way",
      "id": 773577264,
      "center": {
        "lat": 13.0976735,
        "lon": 77.5625421
      },
      "tags": {
        "name": "True Value",
        "shop": "car_repair"
      }
    },
    {
      "type": "way",
      "id": 773577269,
      "center": {
        "lat": 13.0999022,
        "lon": 77.5705421
      },
      "tags": {
        "leisure": "park"
      }
    },
    {
      "type": "way",
      "id": 1231838384,
      "center": {
        "lat": 13.094524,
        "lon": 77.5716099
      },
      "tags": {
        "access": "private",
        "leisure": "pitch",
        "sport": "basketball"
      }
    },
    {
      "type": "way",
      "id": 1231838386,
      "center": {
        "lat": 13.0971133,
        "lon": 77.5717297
      },
      "tags": {
        "leisure": "park"
      }
    },
    {
      "type": "way",
      "id": 1231838387,
      "center": {
        "lat": 13.0972435,
        "lon": 77.5716362
      },
      "tags": {
        "access": "private",
        "leisure": "swimming_pool"
      }
    },
    {
      "type": "way",
      "id": 1271957555,
      "center": {
        "lat": 13.1034937,
        "lon": 77.5663606
      },
      "tags": {
        "amenity": "school"
      }
    },
    {
      "type": "way",
      "id": 1271957619,
      "center": {
        "lat": 13.09805,
        "lon": 77.5657615
      },
      "tags": {
        "amenity": "fuel",
        "brand": "Shell",
        "check_date": "2023-12-23",
        "landuse": "retail",
        "name": "Shell",
        "name:kn": "ಶೆಲ್"
      }
    },
    {
      "type": "way",
      "id": 1284355505,
      "center": {
        "lat": 13.1005155,
        "lon": 77.5715809
      },
      "tags": {
        "leisure": "playground"
      }
    },
    {
      "type": "way",
      "id": 1284811024,
      "center": {
        "lat": 13.0978208,
        "lon": 77.5637622
      },
      "tags": {
        "amenity": "fuel",
        "brand": "Indian Oil",
        "brand:wikidata": "Q1289348",
        "compressed_air": "yes",
        "landuse": "retail",
        "name": "Indian Oil",
        "wheelchair": "limited"
      }
    },
    {
      "type": "way",
      "id": 1284859048,
      "center": {
        "lat": 13.0976181,
        "lon": 77.5708392
      },
      "tags": {
        "access": "private",
        "leisure": "swimming_pool"
      }
    },
    {
      "type": "way",
      "id": 1284859052,
      "center": {
        "lat": 13.0955803,
        "lon": 77.5697788
      },
      "tags": {
        "leisure": "playground"
      }
    },
    {
      "type": "way",
      "id": 1284859053,
      "center": {
        "lat": 13.0945057,
        "lon": 77.5697
      },
      "tags": {
        "leisure": "playground"
      }
    },
    {
      "type": "way",
      "id": 1284859054,
      "center": {
        "lat": 13.0925831,
        "lon": 77.5699919
      },
      "tags": {
        "leisure": "pitch",
        "sport": "tennis"
      }
    },
    {
      "type": "way",
      "id": 1284859055,
      "center": {
        "lat": 13.0944808,
        "lon": 77.570473
      },
      "tags": {
        "access": "private",
        "leisure": "swimming_pool"
      }
    },
    {
      "type": "way",
      "id": 1308259601,
      "center": {
        "lat": 13.0984736,
        "lon": 77.5593038
      },
      "tags": {
        "amenity": "school"
      }
    },
    {
      "type": "way",
      "id": 1359580730,
      "center": {
        "lat": 13.1003787,
        "lon": 77.570143
      },
      "tags": {
        "amenity": "kindergarten",
        "name": "New Age PreSchool"
      }
    },
    {
      "type": "way",
      "id": 1359580742,
      "center": {
        "lat": 13.1056977,
        "lon": 77.5676809
      },
      "tags": {
        "amenity": "college",
        "name": "Indira Priyadarshini College of Law"
      }
    },
    {
      "type": "way",
      "id": 1359580746,
      "center": {
        "lat": 13.1004887,
        "lon": 77.5659656
      },
      "tags": {
        "amenity": "events_venue",
        "landuse": "commercial",
        "name": "Ranganatha Swamy Kalyana Mantapa"
      }
    },
    {
      "type": "way",
      "id": 1428214541,
      "center": {
        "lat": 13.0973264,
        "lon": 77.563205
      },
      "tags": {
        "access": "private",
        "amenity": "parking",
        "parking": "surface"
      }
    },
    {
      "type": "way",
      "id": 1428214542,
      "center": {
        "lat": 13.0964225,
        "lon": 77.563321
      },
      "tags": {
        "leisure": "garden"
      }
    },
    {
      "type": "way",
      "id": 1428214543,
      "center": {
        "lat": 13.0962353,
        "lon": 77.5631412
      },
      "tags": {
        "leisure": "garden"
      }
    },
    {
      "type": "way",
      "id": 1428214545,
      "center": {
        "lat": 13.097041,
        "lon": 77.5634283
      },
      "tags": {
        "leisure": "garden"
      }
    },
    {
      "type": "way",
      "id": 1428214546,
      "center": {
        "lat": 13.0967257,
        "lon": 77.5633756
      },
      "tags": {
        "leisure": "garden"
      }
    },
    {
      "type": "way",
      "id": 1428214587,
      "center": {
        "lat": 13.0928447,
        "lon": 77.5606978
      },
      "tags": {
        "leisure": "garden"
      }
    },
    {
      "type": "way",
      "id": 1428214660,
      "center": {
        "lat": 13.0977549,
        "lon": 77.5622434
      },
      "tags": {
        "amenity": "fuel"
      }
    }
  ]
}