{
  "area_name": "Uday Nagar",
  "osm_id": 19883369,
  "osm_type": "relation",
  "place_type": "administrative",
  "amenity_count": 27,
  "amenities": [
    {
      "type": "node",
      "id": 4686175590,
      "lat": 12.9861596,
      "lon": 77.6700732,
      "tags": {
        "amenity": "pharmacy",
        "name": "Cure and Care",
        "name:en": "Cure and Care"
      }
    },
    {
      "type": "node",
      "id": 4686180789,
      "lat": 12.9861566,
      "lon": 77.670012,
      "tags": {
        "name": "Sport Trendz",
        "name:en": "Sport Trendz",
        "shop": "sports"
      }
    },
    {
      "type": "node",
      "id": 4686180790,
      "lat": 12.9861507,
      "lon": 77.6702891,
      "tags": {
        "name": "Max Bakery",
        "name:en": "Max Bakery",
        "shop": "bakery"
      }
    },
    {
      "type": "node",
      "id": 4686184889,
      "lat": 12.9860914,
      "lon": 77.670399,
      "tags": {
        "name": "SK Motors Bajaj",
        "name:en": "SK Motors Bajaj",
        "shop": "car_repair"
      }
    },
    {
      "type": "node",
      "id": 4688842193,
      "lat": 12.9861537,
      "lon": 77.6708546,
      "tags": {
        "amenity": "clinic",
        "name": "Kottakkal Aryavaidyasala",
        "name:en": "Kottakkal Aryavaidyasala",
        "name:kn": "ಕೊಟ್ಟಕಲ್ ಆರ್ಯ ವೈದ್ಯಶಾಲ"
      }
    },
    {
      "type": "node",
      "id": 4688860290,
      "lat": 12.9861348,
      "lon": 77.670909,
      "tags": {
        "name": "Ratna Electrical",
        "name:en": "Ratna Electrical",
        "shop": "electronics"
      }
    },
    {
      "type": "node",
      "id": 4688875789,
      "lat": 12.9861123,
      "lon": 77.6709562,
      "tags": {
        "amenity": "car_wash",
        "automated": "no",
        "name": "Mobiccarspa",
        "name:en": "Mobiccarspa",
        "self_service": "no"
      }
    },
    {
      "type": "node",
      "id": 4689032589,
      "lat": 12.9860689,
      "lon": 77.6705963,
      "tags": {
        "amenity": "restaurant",
        "name": "HotPot",
        "name:en": "HotPot"
      }
    },
    {
      "type": "node",
      "id": 4886691121,
      "lat": 12.9908387,
      "lon": 77.6703063,
      "tags": {
        "name": "Mini bazaar",
        "name:en": "Mini bazaar",
        "shop": "supermarket"
      }
    },
    {
      "type": "node",
      "id": 7572131819,
      "lat": 12.9901305,
      "lon": 77.6713322,
      "tags": {
        "addr:district": "Bengaluru Urban",
        "addr:full": "Udayanagar Extension, Mahadevapura, Bengaluru",
        "addr:postcode": "560013",
        "addr:state": "Karnataka",
        "amenity": "hospital",
        "name": "Jeevan Hospital",
        "source": "Local Knowledge"
      }
    },
    {
      "type": "node",
      "id": 7572131846,
      "lat": 12.9930144,
      "lon": 77.6728775,
      "tags": {
        "addr:district": "Bengaluru Urban",
        "addr:full": "NMR Layout, Udaya Nagar, Bengaluru",
        "addr:postcode": "560016",
        "addr:state": "Karnataka",
        "amenity": "clinic",
        "name": "Sri Vinayaka Clinic",
        "source": "Local Knowledge"
      }
    },
    {
      "type": "node",
      "id": 7572131866,
      "lat": 12.9895049,
      "lon": 77.6741439,
      "tags": {
        "addr:district": "Bengaluru Urban",
        "addr:full": "Udaya Nagar, Mahadevapura, Bengaluru",
        "addr:postcode": "560016",
        "addr:state": "Karnataka",
        "amenity": "hospital",
        "name": "Mahaveer Hospitals",
        "source": "Local Knowledge"
      }
    },
    {
      "type": "node",
      "id": 7572131885,
      "lat": 12.9939085,
      "lon": 77.6753552,
      "tags": {
        "addr:district": "Bengaluru Urban",
        "addr:full": "ITI Employess Housing Colony, Mahadevapura, Bengaluru",
        "addr:postcode": "560016",
        "addr:state": "Karnataka",
        "amenity": "dentist",
        "name": "CS Dental Clinic",
        "source": "Local Knowledge"
      }
    },
    {
      "type": "node",
      "id": 7572131916,
      "lat": 12.9954417,
      "lon": 77.6724794,
      "tags": {
        "addr:district": "Bengaluru Urban",
        "addr:full": "Narayanapura, Mahadevapura, Bengaluru",
        "addr:postcode": "560016",
        "addr:state": "Karnataka",
        "amenity": "clinic",
        "name": "Heal & Comfort Homeopathic Clinic",
        "source": "Local Knowledge"
      }
    },
    {
      "type": "node",
      "id": 7572131921,
      "lat": 12.992589,
      "lon": 77.672821,
      "tags": {
        "addr:district": "Bengaluru Urban",
        "addr:full": "Udaya Nagar, Mahadevapura, Bengaluru",
        "addr:postcode": "560016",
        "addr:state": "Karnataka",
        "amenity": "clinic",
        "name": "Matrusree Clinic",
        "source": "Local Knowledge"
      }
    },
    {
      "type": "node",
      "id": 7572131923,
      "lat": 12.991561,
      "lon": 77.6757833,
      "tags": {
        "addr:district": "Bengaluru Urban",
        "addr:full": "Udaya Nagar, Bengaluru",
        "addr:postcode": "560016",
        "addr:state": "Karnataka",
        "amenity": "hospital",
        "name": "Prakruti Hospital",
        "source": "Local Knowledge"
      }
    },
    {
      "type": "node",
      "id": 7572131928,
      "lat": 12.990029,
      "lon": 77.670352,
      "tags": {
        "addr:district": "Bengaluru Urban",
        "addr:full": "Mahadevapura, Bengaluru",
        "addr:postcode": "560016",
        "addr:state": "Karnataka",
        "amenity": "dentist",
        "name": "Feather Touch Dental Care",
        "source": "Local Knowledge"
      }
    },
    {
      "type": "node",
      "id": 11281361293,
      "lat": 12.986976,
      "lon": 77.6703418,
      "tags": {
        "amenity": "bicycle_rental",
        "name": "Yulu"
      }
    },
    {
      "type": "way",
      "id": 346163701,
      "center": {
        "lat": 12.9861901,
        "lon": 77.6678754
      },
      "tags": {
        "amenity": "parking",
        "building": "yes",
        "name": "CAIR Parking",
        "parking": "multi-storey"
      }
    },
    {
      "type": "way",
      "id": 346694945,
      "center": {
        "lat": 12.9910594,
        "lon": 77.6723954
      },
      "tags": {
        "amenity": "bank",
        "atm": "yes",
        "brand": "Karnataka Bank",
        "brand:wikidata": "Q2042632",
        "building": "yes",
        "name": "Karnataka Bank",
        "name:kn": "ಕರ್ನಾಟಕ ಬ್ಯಾಂಕ್"
      }
    },
    {
      "type": "way",
      "id": 346819206,
      "center": {
        "lat": 12.9899026,
        "lon": 77.6724821
      },
      "tags": {
        "addr:city": "Bengaluru",
        "addr:postcode": "560016",
        "addr:street": "Shiva Mandir Road",
        "amenity": "place_of_worship",
        "building": "yes",
        "name": "Shiva Devasthana",
        "name:kn": "ಶಿವ ದೇವಸ್ಥಾನ",
        "religion": "hindu"
      }
    },
    {
      "type": "way",
      "id": 1053353597,
      "center": {
        "lat": 12.9879573,
        "lon": 77.670647
      },
      "tags": {
        "leisure": "park"
      }
    },
    {
      "type": "way",
      "id": 1053353598,
      "center": {
        "lat": 12.9881291,
        "lon": 77.6710331
      },
      "tags": {
        "access": "private",
        "leisure": "swimming_pool"
      }
    },
    {
      "type": "way",
      "id": 1053353599,
      "center": {
        "lat": 12.9883336,
        "lon": 77.6709752
      },
      "tags": {
        "leisure": "playground"
      }
    },
    {
      "type": "way",
      "id": 1053353600,
      "center": {
        "lat": 12.9881888,
        "lon": 77.6713563
      },
      "tags": {
        "leisure": "pitch",
        "sport": "tennis"
      }
    },
    {
      "type": "way",
      "id": 1190960741,
      "center": {
        "lat": 12.9863174,
        "lon": 77.6688109
      },
      "tags": {
        "amenity": "childcare",
        "building": "yes",
        "name": "CAIR Creche"
      }
    },
    {
      "type": "way",
      "id": 1217530866,
      "center": {
        "lat": 12.9875258,
        "lon": 77.6699596
      },
      "tags": {
        "amenity": "school"
      }
    }
  ]
}