{
  "area_name": "Upper Palace Orchard",
  "osm_id": 11652617765,
  "osm_type": "node",
  "place_type": "neighbourhood",
  "amenity_count": 300,
  "amenities": [
    {
      "type": "node",
      "id": 573333532,
      "lat": 13.0064539,
      "lon": 77.5780313,
      "tags": {
        "addr:street": "Sankey Tank Road",
        "amenity": "school",
        "name": "Stella Maris School",
        "name:kn": "ಸ್ಟೆಲ್ಲಾ ಮಾರಿಸ್ ಶಾಲೆ"
      }
    },
    {
      "type": "node",
      "id": 648956433,
      "lat": 13.014482,
      "lon": 77.5761323,
      "tags": {
        "addr:street": "CV Raman Avenue",
        "amenity": "place_of_worship",
        "denomination": "theravada",
        "name": "International Buddhist Seminary",
        "religion": "buddhist",
        "service_times": "Su Mo Tu We Th Fr Sa 06:00-12:00, 16:00-20:00"
      }
    },
    {
      "type": "node",
      "id": 659639936,
      "lat": 13.0092311,
      "lon": 77.5728206,
      "tags": {
        "amenity": "toilets"
      }
    },
    {
      "type": "node",
      "id": 659639952,
      "lat": 13.0118139,
      "lon": 77.5751111,
      "tags": {
        "amenity": "toilets"
      }
    },
    {
      "type": "node",
      "id": 660345442,
      "lat": 13.0068412,
      "lon": 77.5789439,
      "tags": {
        "amenity": "restaurant"
      }
    },
    {
      "type": "node",
      "id": 661056774,
      "lat": 13.0076434,
      "lon": 77.5779662,
      "tags": {
        "amenity": "atm",
        "operator": "CorpBank"
      }
    },
    {
      "type": "node",
      "id": 661056775,
      "lat": 13.0075667,
      "lon": 77.5780609,
      "tags": {
        "name": "Naturals Unisex Salon",
        "shop": "hairdresser"
      }
    },
    {
      "type": "node",
      "id": 661056776,
      "lat": 13.0074878,
      "lon": 77.5781867,
      "tags": {
        "name": "Regal Voyages",
        "shop": "travel_agency"
      }
    },
    {
      "type": "node",
      "id": 661056780,
      "lat": 13.010717,
      "lon": 77.5755578,
      "tags": {
        "addr:street": "Jeevaraj Alva Road",
        "amenity": "doctors",
        "healthcare": "doctor",
        "name": "Dr. S. Shetty"
      }
    },
    {
      "type": "node",
      "id": 661056809,
      "lat": 13.0126247,
      "lon": 77.5750928,
      "tags": {
        "amenity": "toilets",
        "fee": "yes",
        "note": "located inside park (requires fee)"
      }
    },
    {
      "type": "node",
      "id": 661059074,
      "lat": 13.0069868,
      "lon": 77.5788699,
      "tags": {
        "addr:street": "Jeevaraj Alva Road",
        "amenity": "restaurant",
        "diet:vegetarian": "only",
        "name": "Mint Masala",
        "name:kn": "ಮಿಂಟ್ ಮಸಾಲ"
      }
    },
    {
      "type": "node",
      "id": 661059077,
      "lat": 13.0067463,
      "lon": 77.5788817,
      "tags": {
        "amenity": "atm",
        "operator": "DhanlaxmliBank"
      }
    },
    {
      "type": "node",
      "id": 663334482,
      "lat": 13.0074751,
      "lon": 77.5793045,
      "tags": {
        "amenity": "bank",
        "atm": "yes",
        "brand": "State Bank of India",
        "brand:wikidata": "Q1340361",
        "brand:wikipedia": "en:State Bank of India",
        "name": "State Bank of India",
        "name:kn": "ಭಾರತೀಯ ಸ್ಟೇಟ್ ಬ್ಯಾಂಕ್",
        "short_name": "SBI"
      }
    },
    {
      "type": "node",
      "id": 663334483,
      "lat": 13.0079864,
      "lon": 77.5796612,
      "tags": {
        "amenity": "gymnasium",
        "name": "Figurine Fitness"
      }
    },
    {
      "type": "node",
      "id": 663334484,
      "lat": 13.0078677,
      "lon": 77.5795899,
      "tags": {
        "addr:street": "13th Cross Sadashivanagar",
        "name": "Fernspetals",
        "shop": "florist"
      }
    },
    {
      "type": "node",
      "id": 663920339,
      "lat": 13.0140892,
      "lon": 77.5760778,
      "tags": {
        "addr:street": "CV Raman Avenue",
        "amenity": "school",
        "name": "Nagasena Vidyalaya",
        "name:kn": "ನಾಗಸೇನ ವಿದ್ಯಾಲಯ"
      }
    },
    {
      "type": "node",
      "id": 663920340,
      "lat": 13.0139649,
      "lon": 77.57891,
      "tags": {
        "amenity": "bank",
        "atm": "yes",
        "brand": "State Bank of India",
        "brand:wikidata": "Q1340361",
        "brand:wikipedia": "en:State Bank of India",
        "name": "State Bank of India",
        "name:kn": "ಭಾರತೀಯ ಸ್ಟೇಟ್ ಬ್ಯಾಂಕ್",
        "short_name": "SBI"
      }
    },
    {
      "type": "node",
      "id": 664332016,
      "lat": 13.0059079,
      "lon": 77.578507,
      "tags": {
        "amenity": "pharmacy",
        "healthcare": "pharmacy",
        "name": "Keshava Medical & General Stores"
      }
    },
    {
      "type": "node",
      "id": 664332017,
      "lat": 13.0077699,
      "lon": 77.5794951,
      "tags": {
        "amenity": "bank",
        "atm": "no",
        "brand": "Punjab National Bank",
        "brand:wikidata": "Q2743499",
        "name": "Punjab National Bank",
        "name:en": "Punjab National Bank",
        "name:kn": "ಪಂಜಾಬ ರಾಷ್ಟ್ರೀಯ ಬ್ಯಾಂಕ್",
        "short_name": "PNB",
        "website": "https://www.pnbindia.in"
      }
    },
    {
      "type": "node",
      "id": 664332018,
      "lat": 13.0076197,
      "lon": 77.5793977,
      "tags": {
        "amenity": "cafe",
        "brand": "Cafe Coffee Day",
        "brand:wikidata": "Q5017235",
        "cuisine": "coffee_shop",
        "name": "Cafe Coffee Day",
        "name:kn": "ಕಫೆ ಕಾಫಿ ಡೇ",
        "takeaway": "yes"
      }
    },
    {
      "type": "node",
      "id": 664332019,
      "lat": 13.0071676,
      "lon": 77.5790958,
      "tags": {
        "amenity": "bank",
        "atm": "yes",
        "brand": "Bank of Baroda",
        "brand:wikidata": "Q2003797",
        "brand:wikipedia": "en:Bank of Baroda",
        "name": "Bank of Baroda",
        "name:en": "Bank of Baroda",
        "name:kn": "ಬ್ಯಾಂಕ್ ಆಫ್ ಬರೋಡ",
        "short_name": "BoB",
        "website": "http://www.bankofbaroda.com"
      }
    },
    {
      "type": "node",
      "id": 664332020,
      "lat": 13.0080052,
      "lon": 77.5796762,
      "tags": {
        "amenity": "bank",
        "atm": "yes",
        "brand": "Karnataka Bank",
        "brand:wikidata": "Q2042632",
        "name": "Karnataka Bank",
        "name:kn": "ಕರ್ನಾಟಕ ಬ್ಯಾಂಕ್"
      }
    },
    {
      "type": "node",
      "id": 664332021,
      "lat": 13.0080972,
      "lon": 77.5797261,
      "tags": {
        "amenity": "bank",
        "atm": "no",
        "brand": "Syndicate Bank",
        "brand:wikidata": "Q2004088",
        "name": "Syndicate Bank",
        "name:en": "Syndicate Bank",
        "name:kn": "ಸಿಂಡಿಕೇಟ್ ಬ್ಯಾಂಕ್",
        "website": "https://www.syndicatebank.in"
      }
    },
    {
      "type": "node",
      "id": 664332022,
      "lat": 13.0089647,
      "lon": 77.580665,
      "tags": {
        "amenity": "school",
        "name": "Advanced Animation Academy"
      }
    },
    {
      "type": "node",
      "id": 665338930,
      "lat": 13.0068707,
      "lon": 77.5789709,
      "tags": {
        "name": "Regal Palace Men's Salon",
        "shop": "hairdresser"
      }
    },
    {
      "type": "node",
      "id": 665871314,
      "lat": 13.0143993,
      "lon": 77.5835124,
      "tags": {
        "amenity": "atm",
        "brand": "Standard Chartered",
        "brand:wikidata": "Q548278",
        "name": "Standard Chartered",
        "operator": "Standard Chartered",
        "operator:wikidata": "Q548278"
      }
    },
    {
      "type": "node",
      "id": 673377218,
      "lat": 13.0068753,
      "lon": 77.5789296,
      "tags": {
        "name": "Lakme Salon",
        "shop": "hairdresser"
      }
    },
    {
      "type": "node",
      "id": 673377221,
      "lat": 13.0075715,
      "lon": 77.5793658,
      "tags": {
        "addr:street": "13th Cross Sadashivanagar",
        "amenity": "cafe",
        "name": "Pure & Natural"
      }
    },
    {
      "type": "node",
      "id": 673860151,
      "lat": 13.0068023,
      "lon": 77.5789171,
      "tags": {
        "name": "Touch of Joy Womens' Beauty Parlor",
        "shop": "hairdresser"
      }
    },
    {
      "type": "node",
      "id": 673860152,
      "lat": 13.0068783,
      "lon": 77.5790907,
      "tags": {
        "amenity": "restaurant",
        "cuisine": "indian",
        "diet:vegetarian": "yes",
        "name": "New Shanthi Sagar",
        "name:kn": "ನ್ಯೂ ಶಾಂತಿ ಸಾಗರ್"
      }
    },
    {
      "type": "node",
      "id": 673860153,
      "lat": 13.0129089,
      "lon": 77.5742856,
      "tags": {
        "amenity": "pharmacy",
        "name": "Saisudha Medical"
      }
    },
    {
      "type": "node",
      "id": 674755220,
      "lat": 13.0137034,
      "lon": 77.5816225,
      "tags": {
        "amenity": "college",
        "name": "Light and Matter Physics"
      }
    },
    {
      "type": "node",
      "id": 674755223,
      "lat": 13.0133937,
      "lon": 77.58161,
      "tags": {
        "amenity": "library",
        "name": "RRI Library"
      }
    },
    {
      "type": "node",
      "id": 683352697,
      "lat": 13.0039957,
      "lon": 77.5834595,
      "tags": {
        "amenity": "ice_cream",
        "brand": "Baskin-Robbins",
        "brand:wikidata": "Q584601",
        "cuisine": "ice_cream",
        "name": "Baskin-Robbins"
      }
    },
    {
      "type": "node",
      "id": 1101622501,
      "lat": 12.9988604,
      "lon": 77.5817424,
      "tags": {
        "amenity": "hospital",
        "name": "Government Maternity Hospital",
        "name:kn": "ಸರಕಾರಿ ಹೆರಿಗೆ ಆಸ್ಪತ್ರೆ"
      }
    },
    {
      "type": "node",
      "id": 1101831257,
      "lat": 13.0065656,
      "lon": 77.5837018,
      "tags": {
        "addr:street": "Ramana Maharshi Road",
        "brand": "Škoda",
        "brand:wikidata": "Q29637",
        "name": "Škoda",
        "shop": "car"
      }
    },
    {
      "type": "node",
      "id": 1289850490,
      "lat": 13.0047163,
      "lon": 77.5755228,
      "tags": {
        "amenity": "place_of_worship",
        "name": "Ram Mandir",
        "name:kn": "ರಾಮ ಮಂದಿರ",
        "religion": "hindu"
      }
    },
    {
      "type": "node",
      "id": 1289949439,
      "lat": 13.0073402,
      "lon": 77.5764133,
      "tags": {
        "amenity": "place_of_worship",
        "name": "Gayathri Devi Temple",
        "name:kn": "ಗಾಯತ್ರಿ ದೇವಿ ದೇವಸ್ಥಾನ",
        "religion": "hindu"
      }
    },
    {
      "type": "node",
      "id": 1290203335,
      "lat": 13.0043393,
      "lon": 77.5743495,
      "tags": {
        "shop": "laundry"
      }
    },
    {
      "type": "node",
      "id": 1462530129,
      "lat": 13.0055106,
      "lon": 77.5787567,
      "tags": {
        "addr:street": "1st Main Road",
        "amenity": "restaurant",
        "check_date": "2024-01-13",
        "name": "Sri Udupi Swaadista",
        "name:kn": "ಸ್ವಾದಿಷ್ಟ ರೆಸ್ಟೊರೆಂಟ್"
      }
    },
    {
      "type": "node",
      "id": 1462540475,
      "lat": 13.0049266,
      "lon": 77.5787343,
      "tags": {
        "name": "Maha Bazaar",
        "shop": "supermarket"
      }
    },
    {
      "type": "node",
      "id": 1462686365,
      "lat": 13.0015732,
      "lon": 77.578628,
      "tags": {
        "amenity": "police",
        "name": "Vyali Kaval Police Station",
        "name:kn": "ಆರಕ್ಷಕ ಠಾಣೆ"
      }
    },
    {
      "type": "node",
      "id": 1462688051,
      "lat": 13.0019182,
      "lon": 77.5790414,
      "tags": {
        "amenity": "post_office",
        "name": "Vyali Kaval Post Office"
      }
    },
    {
      "type": "node",
      "id": 1462691613,
      "lat": 13.002535,
      "lon": 77.578333,
      "tags": {
        "amenity": "bank",
        "atm": "yes",
        "brand": "State Bank of India",
        "brand:wikidata": "Q1340361",
        "brand:wikipedia": "en:State Bank of India",
        "name": "State Bank of India",
        "name:kn": "ಎಸ್ ಬಿ ಐ",
        "short_name": "SBI",
        "website": "https://www.sbi.co.in"
      }
    },
    {
      "type": "node",
      "id": 1462692195,
      "lat": 13.0022031,
      "lon": 77.5783102,
      "tags": {
        "amenity": "bank",
        "atm": "yes",
        "brand": "Canara Bank",
        "brand:en": "Canara Bank",
        "brand:hi": "केनरा बैंक",
        "brand:kn": "ಕೆನರಾ ಬ್ಯಾಂಕ್",
        "brand:pa": "ਕੇਨਰਾ ਬੈਂਕ",
        "brand:pnb": "کینرا بینک",
        "brand:ur": "کینرا بینک",
        "brand:wikidata": "Q2003777",
        "brand:wikipedia": "en:Canara Bank",
        "brand:wikipedia:pa": "ਕੇਨਰਾ ਬੈਂਕ",
        "name": "Canara Bank",
        "name:en": "Canara Bank",
        "name:hi": "केनरा बैंक",
        "name:kn": "ಕೆನರಾ ಬ್ಯಾಂಕ್",
        "name:pa": "ਕੇਨਰਾ ਬੈਂਕ",
        "name:pnb": "کینرا بینک",
        "name:ur": "کینرا بینک",
        "website": "https://www.canarabank.com/"
      }
    },
    {
      "type": "node",
      "id": 1462708215,
      "lat": 13.0046183,
      "lon": 77.5784554,
      "tags": {
        "amenity": "restaurant",
        "name": "Rajesh Hotel",
        "name:kn": "ರಾಜೇಶ್ ಹೋಟೆಲ್"
      }
    },
    {
      "type": "node",
      "id": 1525978311,
      "lat": 13.0129231,
      "lon": 77.5756959,
      "tags": {
        "amenity": "fountain"
      }
    },
    {
      "type": "node",
      "id": 1526002073,
      "lat": 13.0123595,
      "lon": 77.5753327,
      "tags": {
        "amenity": "waste_basket"
      }
    },
    {
      "type": "node",
      "id": 1526048619,
      "lat": 13.012224,
      "lon": 77.5755205,
      "tags": {
        "leisure": "park"
      }
    },
    {
      "type": "node",
      "id": 2019364212,
      "lat": 13.000713,
      "lon": 77.5757942,
      "tags": {
        "leisure": "park",
        "name": "BBMP Park, Swimming Pool Extension",
        "name:kn": "ಬೃ. ಬೆ. ಮ. ಪಾ. ಉದ್ಯಾನವನ"
      }
    },
    {
      "type": "node",
      "id": 2019367760,
      "lat": 13.0050766,
      "lon": 77.5806041,
      "tags": {
        "amenity": "bank",
        "atm": "no",
        "brand": "Indian Bank",
        "brand:wikidata": "Q2003789",
        "brand:wikipedia": "en:Indian Bank",
        "name": "Indian Bank",
        "name:en": "Indian Bank",
        "name:kn": "ಇಂಡಿಯನ್ ಬ್ಯಾಂಕ್",
        "website": "https://www.indianbank.in/"
      }
    },
    {
      "type": "node",
      "id": 2026091417,
      "lat": 13.0031595,
      "lon": 77.5837029,
      "tags": {
        "brand": "Hyundai",
        "brand:wikidata": "Q55931",
        "check_date": "2025-09-19",
        "name": "Hyundai",
        "name:kn": "ಹ್ಯುಂಡೈ",
        "opening_hours": "Mo-Sa 08:00-20:00",
        "operator": "Trident Hyundai",
        "shop": "car"
      }
    },
    {
      "type": "node",
      "id": 2298050805,
      "lat": 13.0045164,
      "lon": 77.5785881,
      "tags": {
        "addr:housename": "Janhavi Medicals",
        "amenity": "pharmacy",
        "designation": "Pharmacy",
        "healthcare": "pharmacy",
        "name": "Janhavi Medicals"
      }
    },
    {
      "type": "node",
      "id": 2303827881,
      "lat": 13.0057592,
      "lon": 77.5804279,
      "tags": {
        "amenity": "restaurant",
        "cuisine": "indian",
        "name": "Sattvam",
        "name:kn": "ಸತ್ವಂ",
        "phone": "080 2360 8000",
        "website": "www.sattvamrestaurant.com/"
      }
    },
    {
      "type": "node",
      "id": 2303827882,
      "lat": 13.0058027,
      "lon": 77.5806656,
      "tags": {
        "leisure": "fitness_centre",
        "name": "Snapfitness Gym"
      }
    },
    {
      "type": "node",
      "id": 2314538270,
      "lat": 13.0012808,
      "lon": 77.5783329,
      "tags": {
        "amenity": "bank",
        "atm": "yes",
        "brand": "ICICI Bank",
        "brand:wikidata": "Q1653258",
        "name": "ICICI Bank",
        "name:kn": "ಐಸಿಐಸಿಐ",
        "short_name": "ICICI"
      }
    },
    {
      "type": "node",
      "id": 2314538271,
      "lat": 13.001239,
      "lon": 77.5783221,
      "tags": {
        "amenity": "bank",
        "atm": "yes",
        "brand": "HDFC Bank",
        "brand:wikidata": "Q631047",
        "name": "HDFC Bank",
        "short_name": "HDFC"
      }
    },
    {
      "type": "node",
      "id": 2314538273,
      "lat": 13.0002354,
      "lon": 77.5781558,
      "tags": {
        "amenity": "bank",
        "atm": "yes",
        "brand": "Karnataka Bank",
        "brand:wikidata": "Q2042632",
        "name": "Karnataka Bank",
        "name:kn": "ಕರ್ನಾಟಕ ಬ್ಯಾಂಕ್"
      }
    },
    {
      "type": "node",
      "id": 2630925143,
      "lat": 13.0039535,
      "lon": 77.5836175,
      "tags": {
        "amenity": "atm",
        "brand": "Citibank",
        "brand:wikidata": "Q857063",
        "name": "Citibank",
        "name:kn": "ಸಿಟಿಬ್ಯಾಂಕ್",
        "operator": "Citibank",
        "operator:wikidata": "Q857063",
        "short_name": "Citi",
        "wheelchair": "no"
      }
    },
    {
      "type": "node",
      "id": 2821271866,
      "lat": 13.0144365,
      "lon": 77.5831503,
      "tags": {
        "addr:full": "Achaiah Chetty Arcade, No.19,1st Cross, Achaiah Chetty Lay out, RMV Extension, Sadashiva Nagar, Mekhri Circle Junction, Karnataka 560080 Bengaluru",
        "addr:street": "CV Raman Road",
        "brand": "KTM",
        "brand:wikidata": "Q215657",
        "check_date": "2025-08-08",
        "contact:email": "mekhricircle_mgr@ktmindia.com",
        "contact:phone": "+91802361474",
        "name": "Mekhri Circle KTM",
        "shop": "motorcycle"
      }
    },
    {
      "type": "node",
      "id": 2821271870,
      "lat": 13.014439,
      "lon": 77.5829545,
      "tags": {
        "addr:street": "CV Raman Road",
        "name": "Classic Automotives",
        "shop": "car"
      }
    },
    {
      "type": "node",
      "id": 3193511367,
      "lat": 13.0053577,
      "lon": 77.5810409,
      "tags": {
        "amenity": "cafe",
        "brand": "Cafe Coffee Day",
        "brand:wikidata": "Q5017235",
        "brand:wikipedia": "en:Café Coffee Day",
        "cuisine": "coffee_shop",
        "name": "Cafe Coffee Day",
        "name:kn": "ಕಫೆ ಕಾಫಿ ಡೇ",
        "takeaway": "yes"
      }
    },
    {
      "type": "node",
      "id": 3399331050,
      "lat": 13.0019334,
      "lon": 77.5784395,
      "tags": {
        "amenity": "restaurant",
        "name": "Aditya Hotel"
      }
    },
    {
      "type": "node",
      "id": 3399331051,
      "lat": 13.0019072,
      "lon": 77.5775638,
      "tags": {
        "amenity": "library",
        "name": "Government Central Library",
        "name:kn": "ಸರ್ಕಾರಿ ಗ್ರಂಥಾಲಯ"
      }
    },
    {
      "type": "node",
      "id": 3399331052,
      "lat": 13.0019405,
      "lon": 77.5777151,
      "tags": {
        "amenity": "place_of_worship",
        "religion": "hindu"
      }
    },
    {
      "type": "node",
      "id": 3666005764,
      "lat": 13.0070488,
      "lon": 77.5790404,
      "tags": {
        "name": "JSS Boutique",
        "shop": "boutique"
      }
    },
    {
      "type": "node",
      "id": 3742215657,
      "lat": 13.0017604,
      "lon": 77.5783235,
      "tags": {
        "amenity": "restaurant",
        "cuisine": "chats",
        "name": "Atithis"
      }
    },
    {
      "type": "node",
      "id": 4044365775,
      "lat": 13.0056797,
      "lon": 77.5806627,
      "tags": {
        "addr:city": "bangalore",
        "addr:postcode": "560080",
        "addr:street": "16th Cross Street",
        "amenity": "ice_cream",
        "brand": "Nature's Basket",
        "brand:wikidata": "Q28174237",
        "name": "Nature's Basket",
        "organic": "yes",
        "shop": "supermarket",
        "website": "https://www.naturesbasket.co.in/"
      }
    },
    {
      "type": "node",
      "id": 4173824529,
      "lat": 13.0051746,
      "lon": 77.5787373,
      "tags": {
        "amenity": "public_bookcase",
        "name": "Sapna Book House",
        "name:kn": "ಸಪ್ನ ಬುಕ್ ಹೌಸ್"
      }
    },
    {
      "type": "node",
      "id": 4173839908,
      "lat": 13.0033921,
      "lon": 77.5783685,
      "tags": {
        "addr:postcode": "560003",
        "amenity": "restaurant",
        "cuisine": "indian",
        "name": "Pakvan"
      }
    },
    {
      "type": "node",
      "id": 4173847693,
      "lat": 13.0041697,
      "lon": 77.5822694,
      "tags": {
        "amenity": "bank",
        "atm": "yes",
        "brand": "HDFC Bank",
        "brand:wikidata": "Q631047",
        "brand:wikipedia": "en:HDFC Bank",
        "name": "HDFC Bank",
        "name:kn": "ಎಚ್ ಡಿ ಎಫ್ ಸಿ",
        "operator": "HDFC Bank",
        "short_name": "HDFC",
        "website": "https://www.hdfcbank.com"
      }
    },
    {
      "type": "node",
      "id": 4444162516,
      "lat": 13.0018939,
      "lon": 77.5784746,
      "tags": {
        "addr:city": "Bangalore",
        "addr:housenumber": "Opposite Vyatikal Police Station",
        "addr:postcode": "560003",
        "addr:street": "Vyalikaval Main Road",
        "amenity": "restaurant",
        "cuisine": "indian,chinese",
        "name": "Hotel Ayodhya Upahar",
        "opening_hours": "07:00-22:30",
        "phone": "+91 96200 56546",
        "takeaway": "yes"
      }
    },
    {
      "type": "node",
      "id": 4444983153,
      "lat": 13.0044531,
      "lon": 77.5783579,
      "tags": {
        "addr:city": "Bangalore",
        "addr:housenumber": "48",
        "addr:postcode": "560003",
        "addr:street": "Vyalikaval Main Road",
        "amenity": "restaurant",
        "cuisine": "chinese",
        "name": "Chung Wah",
        "name:kn": "ಚುಂಗ್ ವಾ",
        "opening_hours": "12:00-23:00",
        "phone": "080 23567888",
        "takeaway": "yes",
        "website": "www.chungwah.in/"
      }
    },
    {
      "type": "node",
      "id": 4445192526,
      "lat": 12.999009,
      "lon": 77.5797442,
      "tags": {
        "addr:city": "Bangalore",
        "addr:postcode": "560003",
        "addr:street": "Palace Guttahalli Main Road, No 21 And 22, 2nd Main Road",
        "amenity": "clinic",
        "name": "Bilva Hospital",
        "name:kn": "ಬಿಲ್ವಾ ಆಸ್ಪತ್ರೆ",
        "phone": "+9198444 56346"
      }
    },
    {
      "type": "node",
      "id": 4445433675,
      "lat": 13.0057354,
      "lon": 77.5763934,
      "tags": {
        "addr:city": "bangalore",
        "addr:housenumber": "33",
        "addr:postcode": "560003",
        "addr:street": "2nd Main Road, Near-Pizza Hut, Vyalikaval",
        "amenity": "pharmacy",
        "healthcare": "pharmacy",
        "name": "Keshava Medicals And General Stores",
        "phone": "080 4113 8233"
      }
    },
    {
      "type": "node",
      "id": 4446632255,
      "lat": 13.0021664,
      "lon": 77.5742095,
      "tags": {
        "addr:city": "Bangalore",
        "addr:housenumber": "812",
        "addr:postcode": "560003",
        "addr:street": "11th Cross, Vyalikaval, Near-Sukruthi Eye Care",
        "amenity": "clinic",
        "healthcare": "clinic",
        "name": "Sri Manjunatha Clinic",
        "phone": "+918023448987"
      }
    },
    {
      "type": "node",
      "id": 4447006919,
      "lat": 13.0026859,
      "lon": 77.5738983,
      "tags": {
        "addr:city": "Bangalore",
        "addr:housenumber": "40",
        "addr:postcode": "560003",
        "addr:street": "12th Cross, Kodandarampura, Near-Prasidh Clinic, Malleshwaram",
        "amenity": "pharmacy",
        "healthcare": "pharmacy",
        "name": "Megha Medicals",
        "name:kn": "ಮೇಘ ಮೆಡಿಕಲ್ಸ್",
        "phone": "080 2334 7034"
      }
    },
    {
      "type": "node",
      "id": 4447013196,
      "lat": 13.005882,
      "lon": 77.5761593,
      "tags": {
        "addr:city": "bangalore",
        "addr:postcode": "560003",
        "addr:street": "Gayathri Devi Park Extension, Kodandarampura",
        "amenity": "pharmacy",
        "healthcare": "pharmacy",
        "name": "Medall Clumax Diagnostics",
        "phone": "+9180 4933 7777",
        "source": "www.justdial.com",
        "website": "https://www.medall.in/"
      }
    },
    {
      "type": "node",
      "id": 4447076790,
      "lat": 13.0022281,
      "lon": 77.5739218,
      "tags": {
        "addr:city": "Bangalore",
        "addr:housenumber": "16",
        "addr:postcode": "560003",
        "addr:street": "12th cross, Palace Guttahalli main road, Malleshwaram",
        "amenity": "pharmacy",
        "healthcare": "pharmacy",
        "name": "Roots Advanced Hair Transplant Center",
        "phone": "+9194821 66333",
        "source": "www.asklaila.com",
        "website": "rootshairclinic.com"
      }
    },
    {
      "type": "node",
      "id": 4488025977,
      "lat": 13.0062209,
      "lon": 77.574224,
      "tags": {
        "addr:city": "bangalore",
        "addr:housenumber": "72/4",
        "addr:postcode": "560003",
        "addr:street": "16th Cross, Vyalikaval, Malleswaram, Near Sankey Tank And Chowdiah Memorial Hall, Bhadrappa Layout, Vyalikaval, Kodandarampura, Malleshwaram, Bengaluru, Karnataka 560003",
        "name": "Rakhra Sports House",
        "opening_hours": "10:30-20:30",
        "phone": "080 2334 2909",
        "shop": "sports"
      }
    },
    {
      "type": "node",
      "id": 4489750489,
      "lat": 13.0043391,
      "lon": 77.583804,
      "tags": {
        "addr:city": "Bengaluru",
        "addr:housenumber": "212/4,",
        "addr:postcode": "560080",
        "addr:street": "2nd Floor, Near-Palace Ground, Bellary Rd, Bhadrappa Layout, Sadashiva Nagar, Armane Nagar, Karnataka",
        "branch": "Better Value Fitness Pvt Ltd",
        "brand": "Talkwalkars",
        "brand:wikidata": "Q7680402",
        "leisure": "fitness_centre",
        "name": "Talwalkars",
        "opening_hours": "5:00-22:00"
      }
    },
    {
      "type": "node",
      "id": 4489829045,
      "lat": 13.0077061,
      "lon": 77.5793938,
      "tags": {
        "addr:city": "Bangalore",
        "addr:housenumber": "No.393",
        "addr:postcode": "560009",
        "addr:street": "13th Cross Sadashivanagar",
        "name": "O2 Spa",
        "opening_hours": "10:00-20:00",
        "phone": "+919247020202",
        "shop": "beauty",
        "website": "https://www.o2spa.org/"
      }
    },
    {
      "type": "node",
      "id": 4552286367,
      "lat": 13.0130826,
      "lon": 77.5761449,
      "tags": {
        "amenity": "hospital",
        "name": "Ramana Rao's clinic"
      }
    },
    {
      "type": "node",
      "id": 4552303417,
      "lat": 13.009057,
      "lon": 77.5803021,
      "tags": {
        "addr:city": "Bangalore",
        "addr:postcode": "560080",
        "addr:street": "13th Cross Sadashivanagar",
        "air_conditioning": "yes",
        "amenity": "cafe",
        "brand": "Starbucks",
        "brand:pa": "ਸਟਾਰਬਕਸ",
        "brand:ur": "اسٹاربکس",
        "brand:wikidata": "Q37158",
        "brand:wikipedia": "en:Starbucks",
        "check_date": "2024-11-26",
        "cuisine": "coffee_shop",
        "indoor_seating": "yes",
        "internet_access": "yes",
        "name": "Starbucks",
        "name:pa": "ਸਟਾਰਬਕਸ",
        "name:ur": "اسٹاربکس",
        "official_name": "Starbucks Coffee",
        "official_name:pa": "ਸਟਾਰਬਕਸ ਕੌਫੀ",
        "official_name:ur": "اسٹاربکس کافی",
        "outdoor_seating": "no",
        "takeaway": "yes",
        "toilets": "yes"
      }
    },
    {
      "type": "node",
      "id": 4554240208,
      "lat": 13.0056782,
      "lon": 77.5806895,
      "tags": {
        "amenity": "bank",
        "atm": "yes",
        "brand": "Axis Bank",
        "brand:wikidata": "Q2003549",
        "brand:wikipedia": "en:Axis Bank",
        "name": "Axis Bank",
        "name:en": "Axis Bank",
        "name:kn": "ಆಕ್ಸಿಸ್ ಬ್ಯಾಂಕ್",
        "website": "https://www.axisbank.com"
      }
    },
    {
      "type": "node",
      "id": 4578768492,
      "lat": 13.006013,
      "lon": 77.5785274,
      "tags": {
        "addr:housenumber": "1",
        "addr:postcode": "560003",
        "addr:street": "Vyalikaval Main Road",
        "amenity": "doctors",
        "healthcare": "doctor",
        "name": "Medall Clumax Diagnostics",
        "name:en": "MEDALL CLUMAX DIAGNOSTICS",
        "opening_hours": "Mo-Su 08:00-21:00",
        "phone": "08049337777",
        "website": "https://www.medall.in/"
      }
    },
    {
      "type": "node",
      "id": 4849094835,
      "lat": 13.0099632,
      "lon": 77.5836378,
      "tags": {
        "name": "Laxmi Auto",
        "name:en": "Laxmi Auto",
        "shop": "car"
      }
    },
    {
      "type": "node",
      "id": 4849107926,
      "lat": 13.0080001,
      "lon": 77.5837482,
      "tags": {
        "amenity": "hospital",
        "check_date": "2025-03-01",
        "name": "Hosmat Hospital"
      }
    },
    {
      "type": "node",
      "id": 4849108631,
      "lat": 13.0052564,
      "lon": 77.5838805,
      "tags": {
        "name": "Nexa",
        "name:en": "Nexa",
        "shop": "car"
      }
    },
    {
      "type": "node",
      "id": 5174700153,
      "lat": 13.0145985,
      "lon": 77.5768381,
      "tags": {
        "amenity": "childcare",
        "name": "KLAY Prep Schools and Day Care"
      }
    },
    {
      "type": "node",
      "id": 5174700154,
      "lat": 13.0144068,
      "lon": 77.5834035,
      "tags": {
        "brand": "Honda",
        "brand:wikidata": "Q9584",
        "name": "Honda",
        "name:kn": "ಹೊಂಡಾ",
        "shop": "motorcycle"
      }
    },
    {
      "type": "node",
      "id": 5295212542,
      "lat": 13.0146472,
      "lon": 77.5782943,
      "tags": {
        "name": "Lalco Interiors",
        "shop": "interior_decoration"
      }
    },
    {
      "type": "node",
      "id": 5983380596,
      "lat": 13.0097251,
      "lon": 77.5834036,
      "tags": {
        "name": "Woods and Metal",
        "shop": "doityourself"
      }
    },
    {
      "type": "node",
      "id": 5983383925,
      "lat": 13.0041918,
      "lon": 77.583798,
      "tags": {
        "brand": "Renault",
        "brand:wikidata": "Q6686",
        "name": "Renault",
        "shop": "car"
      }
    },
    {
      "type": "node",
      "id": 6690499039,
      "lat": 13.0071836,
      "lon": 77.5794783,
      "tags": {
        "addr:housenumber": "383/31",
        "addr:street": "13th Cross, Sadashiva Nagar",
        "amenity": "restaurant",
        "check_date:opening_hours": "2024-09-09",
        "diet:vegan": "only",
        "diet:vegetarian": "only",
        "happycow:id": "95514",
        "name": "Justbe Resto Cafe",
        "opening_hours": "Tu-Th 11:00-22:00; Fr-Su 11:00-23:00",
        "phone": "+91 80 48538672",
        "toilets": "yes",
        "website": "https://www.justbeyou.in"
      }
    },
    {
      "type": "node",
      "id": 6938690611,
      "lat": 13.0020083,
      "lon": 77.5763887,
      "tags": {
        "addr:district": "Bengaluru Urban",
        "addr:full": "148, Vyalikval Malleswaram Xi Cross Malleshwaram",
        "addr:postcode": "560003",
        "addr:state": "Karnataka",
        "amenity": "clinic",
        "name": "Sukruthi Eye Care Microsurgical Centre",
        "source": "OpenGovernmentData"
      }
    },
    {
      "type": "node",
      "id": 6938717993,
      "lat": 12.9989833,
      "lon": 77.5802015,
      "tags": {
        "addr:district": "Bengaluru Urban",
        "addr:full": "No.21,22,2nd Main Road, Palace Guttahalli",
        "addr:postcode": "560003",
        "addr:state": "Karnataka",
        "amenity": "hospital",
        "name": "Bilva Hospital",
        "name:kn": "ಬಿಲ್ವಾ ಆಸ್ಪತ್ರೆ",
        "source": "OpenGovernmentData"
      }
    },
    {
      "type": "node",
      "id": 6939699617,
      "lat": 12.9988238,
      "lon": 77.5819892,
      "tags": {
        "addr:district": "Bengaluru Urban",
        "addr:full": "Near Nti Qtrs, Jataka Stand, P.G.Halli, East",
        "addr:postcode": "560003",
        "addr:state": "Karnataka",
        "amenity": "hospital",
        "name": "Place Guttahalli Maternity Home",
        "source": "OpenGovernmentData"
      }
    },
    {
      "type": "node",
      "id": 6948582739,
      "lat": 13.0059324,
      "lon": 77.57696,
      "tags": {
        "addr:district": "Bengaluru Urban",
        "addr:full": "#79/18, 1st Cross , Vith Main Road, Gayathridevi Park Extn. Vylikaval",
        "addr:postcode": "560003",
        "addr:state": "Karnataka",
        "amenity": "social_facility",
        "name": "Ramakrishna Nursing Home, Bengaluru Urban",
        "social_facility": "nursing_home",
        "social_facility:for": "senior",
        "source": "OpenGovernmentData"
      }
    },
    {
      "type": "node",
      "id": 7087593340,
      "lat": 12.9991179,
      "lon": 77.5810423,
      "tags": {
        "amenity": "place_of_worship",
        "religion": "hindu"
      }
    },
    {
      "type": "node",
      "id": 7192992580,
      "lat": 13.0063463,
      "lon": 77.5823289,
      "tags": {
        "amenity": "cafe",
        "cuisine": "coffee_shop;indian;burger",
        "name": "Nature's Cafe",
        "outdoor_seating": "yes"
      }
    },
    {
      "type": "node",
      "id": 7192995422,
      "lat": 13.0063618,
      "lon": 77.5823659,
      "tags": {
        "name": "HOPCOMS",
        "name:kn": "ಹಾಪ್ ಕಾಮ್ಸ್",
        "operator": "HOPCOMS",
        "shop": "greengrocer"
      }
    },
    {
      "type": "node",
      "id": 7320793122,
      "lat": 13.0111037,
      "lon": 77.5789387,
      "tags": {
        "addr:city": "Bangalore",
        "addr:postcode": "560080",
        "addr:street": "6th A Cross Road",
        "amenity": "bank",
        "brand": "State Bank of India",
        "brand:wikidata": "Q1340361",
        "brand:wikipedia": "en:State Bank of India",
        "name": "State Bank of India",
        "short_name": "SBI"
      }
    },
    {
      "type": "node",
      "id": 8187962349,
      "lat": 13.0063435,
      "lon": 77.5760173,
      "tags": {
        "addr:full": "No 7/A, Vagdevi Mane, 2nd Main Rd, Vyalikaval, Kodandarampura, Malleshwaram, Bengaluru, Karnataka",
        "addr:state": "Karnataka",
        "amenity": "bank",
        "brand": "State Bank of India",
        "brand:wikidata": "Q1340361",
        "brand:wikipedia": "en:State Bank of India",
        "name": "State Bank of India",
        "short_name": "SBI"
      }
    },
    {
      "type": "node",
      "id": 8187986324,
      "lat": 13.0096996,
      "lon": 77.5760799,
      "tags": {
        "addr:full": "3rd Main Rd, Sadashiva Nagar, Armane Nagar, Bengaluru, Karnataka",
        "addr:state": "Karnataka",
        "amenity": "clinic",
        "healthcare": "clinic",
        "name": "Richfeel Hair And Scalp Clinic"
      }
    },
    {
      "type": "node",
      "id": 8187986339,
      "lat": 13.0055162,
      "lon": 77.5739831,
      "tags": {
        "addr:full": "Vyalikaval, Kodandarampura, Malleshwaram, Bengaluru, Karnataka",
        "addr:state": "Karnataka",
        "amenity": "clinic",
        "healthcare": "clinic",
        "name": "Dhanvanthri Clinic"
      }
    },
    {
      "type": "node",
      "id": 8187986340,
      "lat": 13.0056853,
      "lon": 77.5805903,
      "tags": {
        "addr:full": "above Natures basket, 35, JM plaza, Sankey Road, 2nd Main Rd, Sadashiva Nagar, Armane Nagar, Bengaluru, Karnataka",
        "addr:state": "Karnataka",
        "amenity": "clinic",
        "healthcare": "clinic",
        "level": "2",
        "name": "Alleviate Pain Management Clinic"
      }
    },
    {
      "type": "node",
      "id": 8188018370,
      "lat": 13.007049,
      "lon": 77.578793,
      "tags": {
        "addr:full": "Sadashiva Nagar, Armane Nagar, Bengaluru, Karnataka",
        "addr:state": "Karnataka",
        "amenity": "dentist",
        "healthcare": "dentist",
        "name": "Koushik Dental Care Orthodontic And Implantology Center"
      }
    },
    {
      "type": "node",
      "id": 8188038670,
      "lat": 13.005821,
      "lon": 77.5725746,
      "tags": {
        "addr:full": "17, 3rd, 15th-16th Cross, Temple Road, Malleshwaram Bengaluru, Vyalikaval, Kodandarampura, Malleshwaram, Bengaluru, Karnataka",
        "addr:state": "Karnataka",
        "amenity": "hospital",
        "healthcare": "hospital",
        "name": "Srinidhi Health Centre"
      }
    },
    {
      "type": "node",
      "id": 8188038683,
      "lat": 13.0044307,
      "lon": 77.5785238,
      "tags": {
        "addr:full": "5/19, 1st Main, Vyalikaval, Lower Palace Orchards, Guttahalli, Bengaluru, Karnataka",
        "addr:state": "Karnataka",
        "amenity": "hospital",
        "healthcare": "hospital",
        "healthcare:speciality": "orthopaedics",
        "name": "Ramani Orthopaedic Hospital"
      }
    },
    {
      "type": "node",
      "id": 8188058188,
      "lat": 13.004777,
      "lon": 77.581093,
      "tags": {
        "addr:full": "15, Sankey Main Rd, Lower Palace Orchards, Sadashivanagar, Lower Palace Orchards, Guttahalli, Bengaluru, Karnataka",
        "addr:state": "Karnataka",
        "amenity": "restaurant",
        "diet:vegetarian": "only",
        "name": "The Orchard Vegetarian Indian Restaurant"
      }
    },
    {
      "type": "node",
      "id": 8252549787,
      "lat": 13.0044097,
      "lon": 77.581653,
      "tags": {
        "addr:city": "Bangalore",
        "addr:country": "IN",
        "addr:housenumber": "12",
        "addr:postcode": "560003",
        "addr:street": "Sankey Road",
        "addr:suburb": "Sadashivanagara",
        "amenity": "restaurant",
        "cuisine": "regional",
        "delivery": "yes",
        "level": "1;2",
        "name": "Go Native Sadashivnagar",
        "organic": "yes",
        "takeaway": "yes",
        "website": "https://gonative.in/"
      }
    },
    {
      "type": "node",
      "id": 8254993098,
      "lat": 13.0055947,
      "lon": 77.5783104,
      "tags": {
        "brand": "Dell",
        "shop": "computer"
      }
    },
    {
      "type": "node",
      "id": 8254999683,
      "lat": 13.0060868,
      "lon": 77.5785404,
      "tags": {
        "brand": "Wildcraft",
        "shop": "sports"
      }
    },
    {
      "type": "node",
      "id": 8378264282,
      "lat": 13.0045656,
      "lon": 77.5780202,
      "tags": {
        "name": "Nandini",
        "shop": "diary"
      }
    },
    {
      "type": "node",
      "id": 8378282226,
      "lat": 13.0056969,
      "lon": 77.5721063,
      "tags": {
        "name": "Nandini",
        "shop": "diary"
      }
    },
    {
      "type": "node",
      "id": 8442191506,
      "lat": 13.0151954,
      "lon": 77.58375,
      "tags": {
        "amenity": "bench",
        "backrest": "yes"
      }
    },
    {
      "type": "node",
      "id": 9583428972,
      "lat": 13.0139397,
      "lon": 77.5787263,
      "tags": {
        "amenity": "bank",
        "atm": "yes",
        "brand": "HDFC Bank",
        "brand:wikidata": "Q631047",
        "name": "HDFC Bank",
        "name:kn": "ಎಚ್ ಡಿ ಎಫ್ ಸಿ",
        "operator": "HDFC Bank",
        "short_name": "HDFC"
      }
    },
    {
      "type": "node",
      "id": 9759746748,
      "lat": 13.0060252,
      "lon": 77.5780946,
      "tags": {
        "amenity": "kindergarten"
      }
    },
    {
      "type": "node",
      "id": 9759746753,
      "lat": 13.0063525,
      "lon": 77.5794444,
      "tags": {
        "name": "SS Jewels",
        "shop": "jewelry"
      }
    },
    {
      "type": "node",
      "id": 9759746758,
      "lat": 13.0056345,
      "lon": 77.5797777,
      "tags": {
        "name": "Amma's Pastries",
        "shop": "pastry"
      }
    },
    {
      "type": "node",
      "id": 9759746759,
      "lat": 13.0059239,
      "lon": 77.5801988,
      "tags": {
        "name": "Armadio",
        "shop": "boutique"
      }
    },
    {
      "type": "node",
      "id": 9759746760,
      "lat": 13.0044375,
      "lon": 77.5816016,
      "tags": {
        "addr:city": "Bangalore",
        "addr:country": "IN",
        "addr:housenumber": "12",
        "addr:postcode": "560003",
        "addr:street": "Sankey Road",
        "addr:suburb": "Sadashivanagara",
        "brand": "beruru",
        "name": "Beruru",
        "shop": "garden_centre",
        "shop_1": "furniture",
        "website": "https://beruru.com/"
      }
    },
    {
      "type": "node",
      "id": 9759746780,
      "lat": 13.0068,
      "lon": 77.5825497,
      "tags": {
        "addr:city": "Bangalore",
        "addr:country": "IN",
        "addr:housenumber": "269",
        "addr:postcode": "560080",
        "addr:street": "17th Cross Road",
        "addr:suburb": "Sadashivanagara",
        "amenity": "arts_centre",
        "contact:facebook": "peepletree",
        "contact:instagram": "peepletree",
        "fee": "no",
        "name": "Peepletree",
        "tourism": "gallery",
        "website": "http://www.peepletree.in/"
      }
    },
    {
      "type": "node",
      "id": 9759746798,
      "lat": 13.0055887,
      "lon": 77.5817545,
      "tags": {
        "addr:city": "Bangalore",
        "addr:country": "IN",
        "addr:housenumber": "344/8",
        "addr:postcode": "560080",
        "addr:street": "4th Main Road",
        "addr:suburb": "Sadashivanagara",
        "amenity": "arts_centre",
        "check_date": "2024-08-26",
        "name": "ArtCollective",
        "website": "https://www.artcollective.com"
      }
    },
    {
      "type": "node",
      "id": 9759746800,
      "lat": 13.0055404,
      "lon": 77.5817277,
      "tags": {
        "amenity": "bank",
        "atm": "yes",
        "brand": "Bank of Baroda",
        "brand:wikidata": "Q2003797",
        "name": "Bank of Baroda",
        "name:kn": "ಬ್ಯಾಂಕ್ ಆಫ್ ಬರೋಡ",
        "operator": "Bank of Baroda"
      }
    },
    {
      "type": "node",
      "id": 9938657067,
      "lat": 13.0044855,
      "lon": 77.5839037,
      "tags": {
        "name": "Labonel",
        "shop": "bakery"
      }
    },
    {
      "type": "node",
      "id": 9938657068,
      "lat": 13.0038422,
      "lon": 77.5838648,
      "tags": {
        "amenity": "bank",
        "brand": "Punjab National Bank",
        "brand:wikidata": "Q2743499",
        "name": "Punjab National Bank",
        "name:kn": "ಪಂಜಾಬ ರಾಷ್ಟ್ರೀಯ ಬ್ಯಾಂಕ್"
      }
    },
    {
      "type": "node",
      "id": 9938657069,
      "lat": 13.0069739,
      "lon": 77.583774,
      "tags": {
        "amenity": "community_centre",
        "name": "All India Veerashiva Mahasabha"
      }
    },
    {
      "type": "node",
      "id": 10124399211,
      "lat": 13.0146179,
      "lon": 77.5781925,
      "tags": {
        "name": "Sculpu",
        "shop": "interior_decoration"
      }
    },
    {
      "type": "node",
      "id": 10572417835,
      "lat": 13.0078663,
      "lon": 77.5799668,
      "tags": {
        "addr:floor": "0",
        "amenity": "restaurant",
        "check_date": "2025-04-25",
        "cuisine": "regional",
        "diet:vegetarian": "yes",
        "level": "0",
        "name": "Kailash Parbat",
        "name:kn": "ಕೈಲಸ ಪರ್ವತ"
      }
    },
    {
      "type": "node",
      "id": 10676117962,
      "lat": 13.0090515,
      "lon": 77.5807017,
      "tags": {
        "amenity": "cafe",
        "brand": "Barista",
        "brand:wikidata": "Q644735",
        "cuisine": "coffee_shop",
        "name": "Barista",
        "takeaway": "yes"
      }
    },
    {
      "type": "node",
      "id": 10676117963,
      "lat": 13.0083014,
      "lon": 77.5798273,
      "tags": {
        "amenity": "cafe",
        "name": "Third Wave Coffee Roasters",
        "operator": "Third Wave Coffee Roasters"
      }
    },
    {
      "type": "node",
      "id": 10676117967,
      "lat": 13.0085941,
      "lon": 77.5778887,
      "tags": {
        "name": "HOPCOMS",
        "shop": "greengrocer"
      }
    },
    {
      "type": "node",
      "id": 10676117976,
      "lat": 13.0092501,
      "lon": 77.5767515,
      "tags": {
        "amenity": "post_office",
        "check_date": "2025-01-03",
        "internet_access": "no",
        "name": "Sadashivanagar Post Office",
        "name:kn": "ಅಂಚೆ ಕಛೇರಿ",
        "opening_hours": "Mo-Fr 09:00-17:00; Su off",
        "operator": "India Post",
        "operator:wikidata": "Q3519720",
        "wheelchair": "yes"
      }
    },
    {
      "type": "node",
      "id": 10676117988,
      "lat": 13.007424,
      "lon": 77.578393,
      "tags": {
        "name": "Honey Bee Bakers",
        "shop": "bakery"
      }
    },
    {
      "type": "node",
      "id": 10676117989,
      "lat": 13.0073991,
      "lon": 77.5784399,
      "tags": {
        "name": "Sweet Chariot",
        "shop": "bakery"
      }
    },
    {
      "type": "node",
      "id": 10727992297,
      "lat": 13.0095245,
      "lon": 77.5757772,
      "tags": {
        "addr:city": "Bangalore",
        "addr:country": "IN",
        "addr:postcode": "560080",
        "addr:street": "8th Main Road",
        "addr:suburb": "Sadashivanagar",
        "contact:instagram": "paintbarblr",
        "contact:youtube": "paintbarblr",
        "name": "Paint Bar",
        "shop": "paint",
        "website": "https://paintbarblr.com/"
      }
    },
    {
      "type": "node",
      "id": 10924790337,
      "lat": 13.0076095,
      "lon": 77.5797973,
      "tags": {
        "name": "Truefitt & Hill",
        "payment:credit_cards": "yes",
        "payment:debit_cards": "yes",
        "shop": "hairdresser",
        "website": "https://www.truefittandhill.in/",
        "wheelchair": "no"
      }
    },
    {
      "type": "node",
      "id": 10934276525,
      "lat": 13.003153,
      "lon": 77.5782663,
      "tags": {
        "name": "Namdhari's Fresh",
        "shop": "supermarket"
      }
    },
    {
      "type": "node",
      "id": 10934276526,
      "lat": 13.0014948,
      "lon": 77.578336,
      "tags": {
        "name": "Fresho Choice",
        "shop": "butcher"
      }
    },
    {
      "type": "node",
      "id": 10934276528,
      "lat": 13.0004102,
      "lon": 77.5781985,
      "tags": {
        "amenity": "place_of_worship",
        "religion": "hindu"
      }
    },
    {
      "type": "node",
      "id": 10941504378,
      "lat": 13.0057338,
      "lon": 77.5788406,
      "tags": {
        "amenity": "restaurant",
        "check_date": "2024-12-13",
        "diet:vegetarian": "yes",
        "name": "My La Pure"
      }
    },
    {
      "type": "node",
      "id": 10941531361,
      "lat": 13.0074059,
      "lon": 77.5819464,
      "tags": {
        "amenity": "college",
        "name": "IIHS, Bengaluru City Campus Annexe - I",
        "opening_hours": "Mo-Fr 09:00-18:00",
        "operator": "Indian Institute for Human Settlements",
        "short_name": "IIHS Annex",
        "website": "https://www.iihs.co.in/"
      }
    },
    {
      "type": "node",
      "id": 11248572521,
      "lat": 13.0081132,
      "lon": 77.5723864,
      "tags": {
        "amenity": "drinking_water"
      }
    },
    {
      "type": "node",
      "id": 11361272140,
      "lat": 13.0056806,
      "lon": 77.581023,
      "tags": {
        "access": "permissive",
        "amenity": "parking_entrance",
        "bicycle": "yes",
        "maxheight:signed": "no",
        "motorcar": "no",
        "motorcycle": "yes",
        "parking": "underground"
      }
    },
    {
      "type": "node",
      "id": 11420703842,
      "lat": 13.0092154,
      "lon": 77.5836361,
      "tags": {
        "check_date": "2025-08-08",
        "name": "BoConcept",
        "shop": "interior_decoration"
      }
    },
    {
      "type": "node",
      "id": 11454494922,
      "lat": 13.0086529,
      "lon": 77.5718825,
      "tags": {
        "amenity": "clinic",
        "check_date": "2023-12-25",
        "healthcare": "clinic",
        "name": "Namma Clinic",
        "opening_hours": "Mo-Fr 06:45-10:15,16:00-20:00"
      }
    },
    {
      "type": "node",
      "id": 11458986884,
      "lat": 13.0063511,
      "lon": 77.5794141,
      "tags": {
        "check_date": "2023-12-27",
        "name": "VLCC",
        "shop": "beauty"
      }
    },
    {
      "type": "node",
      "id": 11470047334,
      "lat": 13.0055742,
      "lon": 77.5809194,
      "tags": {
        "access": "yes",
        "air_conditioning": "yes",
        "amenity": "library",
        "internet_access": "yes",
        "internet_access:fee": "no",
        "name": "IIHS Library",
        "opening_hours": "Mo-Sa 08:00-18:00",
        "operator": "IIHS",
        "operator:type": "open_to_public"
      }
    },
    {
      "type": "node",
      "id": 11512935332,
      "lat": 13.0091522,
      "lon": 77.5787543,
      "tags": {
        "amenity": "pharmacy",
        "check_date": "2024-01-13",
        "healthcare": "pharmacy"
      }
    },
    {
      "type": "node",
      "id": 11513112487,
      "lat": 13.0084667,
      "lon": 77.5718717,
      "tags": {
        "amenity": "toilets",
        "check_date": "2024-01-13"
      }
    },
    {
      "type": "node",
      "id": 11513112488,
      "lat": 13.0084286,
      "lon": 77.5719157,
      "tags": {
        "amenity": "toilets",
        "check_date": "2024-01-13"
      }
    },
    {
      "type": "node",
      "id": 11513112489,
      "lat": 13.0082967,
      "lon": 77.5720912,
      "tags": {
        "amenity": "shelter",
        "shelter_type": "gazebo"
      }
    },
    {
      "type": "node",
      "id": 11513175533,
      "lat": 13.0093245,
      "lon": 77.5798606,
      "tags": {
        "amenity": "clinic",
        "check_date": "2024-01-13",
        "healthcare": "clinic",
        "name": "Tenet Diagnostics"
      }
    },
    {
      "type": "node",
      "id": 11513175534,
      "lat": 13.0093226,
      "lon": 77.5800439,
      "tags": {
        "check_date": "2024-01-13",
        "name": "Vurve",
        "shop": "beauty"
      }
    },
    {
      "type": "node",
      "id": 11513175535,
      "lat": 13.0093598,
      "lon": 77.5800587,
      "tags": {
        "amenity": "college",
        "check_date": "2024-01-13",
        "name": "IIHS, Bengaluru City Campus - Annexe II"
      }
    },
    {
      "type": "node",
      "id": 11513441177,
      "lat": 13.0093896,
      "lon": 77.5800142,
      "tags": {
        "access": "private",
        "addr:floor": "1",
        "amenity": "toilets",
        "check_date": "2024-01-13",
        "fee": "no",
        "level": "1"
      }
    },
    {
      "type": "node",
      "id": 11513441178,
      "lat": 13.009398,
      "lon": 77.5800144,
      "tags": {
        "access": "private",
        "addr:floor": "1",
        "amenity": "toilets",
        "check_date": "2024-01-13",
        "level": "1"
      }
    },
    {
      "type": "node",
      "id": 11513735749,
      "lat": 13.0051852,
      "lon": 77.5793774,
      "tags": {
        "leisure": "fitness_station",
        "sport": "fitness"
      }
    },
    {
      "type": "node",
      "id": 11897867148,
      "lat": 13.0081188,
      "lon": 77.5724458,
      "tags": {
        "amenity": "bench",
        "backrest": "yes",
        "material": "stone",
        "seats": "3"
      }
    },
    {
      "type": "node",
      "id": 11949210772,
      "lat": 12.9993431,
      "lon": 77.5780212,
      "tags": {
        "check_date": "2024-06-01",
        "shop": "tailor"
      }
    },
    {
      "type": "node",
      "id": 11949210773,
      "lat": 12.9998483,
      "lon": 77.5781152,
      "tags": {
        "amenity": "drinking_water"
      }
    },
    {
      "type": "node",
      "id": 11982693081,
      "lat": 12.999271,
      "lon": 77.5784967,
      "tags": {
        "amenity": "place_of_worship",
        "check_date": "2024-06-15",
        "religion": "hindu"
      }
    },
    {
      "type": "node",
      "id": 11982693082,
      "lat": 12.9991289,
      "lon": 77.5783048,
      "tags": {
        "amenity": "fast_food",
        "check_date": "2024-06-15",
        "name": "Ayodhya Sagar"
      }
    },
    {
      "type": "node",
      "id": 11986964511,
      "lat": 12.9988056,
      "lon": 77.5821957,
      "tags": {
        "brand": "Nandini",
        "name": "Nandini",
        "name:kn": "ನಂದಿನಿ",
        "shop": "dairy"
      }
    },
    {
      "type": "node",
      "id": 12090331811,
      "lat": 13.0062304,
      "lon": 77.574335,
      "tags": {
        "amenity": "fast_food",
        "check_date": "2024-08-03",
        "name": "Acharyas Amruth Tea And Coffee"
      }
    },
    {
      "type": "node",
      "id": 12103825757,
      "lat": 12.9991829,
      "lon": 77.5825259,
      "tags": {
        "amenity": "toilets",
        "check_date": "2024-08-11"
      }
    },
    {
      "type": "node",
      "id": 12103968909,
      "lat": 12.9991112,
      "lon": 77.5781651,
      "tags": {
        "amenity": "bar",
        "check_date": "2024-08-11",
        "name": "Srinivasa Bar & Restaurant"
      }
    },
    {
      "type": "node",
      "id": 12103968917,
      "lat": 12.9989667,
      "lon": 77.5800117,
      "tags": {
        "amenity": "pharmacy",
        "check_date": "2024-08-11",
        "healthcare": "pharmacy",
        "name": "The Drug Hut"
      }
    },
    {
      "type": "node",
      "id": 12103968933,
      "lat": 12.9989823,
      "lon": 77.5802854,
      "tags": {
        "amenity": "pharmacy",
        "check_date": "2024-08-11",
        "healthcare": "pharmacy",
        "name": "Bilva Pharmacy"
      }
    },
    {
      "type": "node",
      "id": 12103968935,
      "lat": 12.9988703,
      "lon": 77.5813139,
      "tags": {
        "amenity": "fast_food",
        "check_date": "2024-08-11",
        "name": "Palace Cafe"
      }
    },
    {
      "type": "node",
      "id": 12103968936,
      "lat": 12.9989,
      "lon": 77.5811516,
      "tags": {
        "amenity": "bank",
        "brand": "Central Bank of India",
        "brand:wikidata": "Q2007090",
        "check_date": "2024-08-11",
        "name": "Central Bank of India",
        "name:kn": "ಸೆಂಟ್ರಲ್ ಬ್ಯಾಂಕ್"
      }
    },
    {
      "type": "node",
      "id": 12103968937,
      "lat": 12.9988904,
      "lon": 77.5812055,
      "tags": {
        "check_date": "2024-08-11",
        "name": "NS Enterprises",
        "shop": "hardware"
      }
    },
    {
      "type": "node",
      "id": 12103968938,
      "lat": 12.9989603,
      "lon": 77.5808423,
      "tags": {
        "amenity": "atm",
        "brand": "IDFC First Bank",
        "brand:wikidata": "Q22031467",
        "check_date": "2024-08-11",
        "operator": "IDFC First Bank",
        "operator:wikidata": "Q22031467"
      }
    },
    {
      "type": "node",
      "id": 12291308526,
      "lat": 13.0077805,
      "lon": 77.5779394,
      "tags": {
        "addr:housenumber": "601",
        "addr:street": "3rd Main Road",
        "amenity": "cafe",
        "capacity": "5",
        "check_date": "2024-12-13",
        "contact:instagram": "https://www.instagram.com/kerbsidebistro",
        "name": "Kerbside Bistro",
        "outdoor_seating": "no"
      }
    },
    {
      "type": "node",
      "id": 12378818542,
      "lat": 13.0063638,
      "lon": 77.574993,
      "tags": {
        "shop": "car_repair"
      }
    },
    {
      "type": "node",
      "id": 12378818543,
      "lat": 13.0077426,
      "lon": 77.5798357,
      "tags": {
        "amenity": "cafe",
        "name": "Smoor"
      }
    },
    {
      "type": "node",
      "id": 12378818548,
      "lat": 13.0083098,
      "lon": 77.5801356,
      "tags": {
        "name": "Halli Organics and naturals",
        "organic": "only",
        "shop": "supermarket"
      }
    },
    {
      "type": "node",
      "id": 12378818549,
      "lat": 13.0083963,
      "lon": 77.5798773,
      "tags": {
        "amenity": "bank",
        "atm": "yes",
        "brand": "State Bank of India",
        "brand:wikidata": "Q1340361",
        "name": "State Bank of India",
        "short_name": "SBI"
      }
    },
    {
      "type": "node",
      "id": 12412376090,
      "lat": 13.007551,
      "lon": 77.5793716,
      "tags": {
        "addr:city": "Bengaluru",
        "addr:district": "Bengaluru Urban",
        "addr:housenumber": "390, Ground Floor",
        "addr:postcode": "560080",
        "addr:street": "Fortuna Urbanscape, 13th Cross Sadashivanagar",
        "air_conditioning": "yes",
        "amenity": "cafe",
        "bar": "no",
        "branch": "Quattro Bistro",
        "brand": "Quattro Bistro",
        "capacity": "100",
        "cuisine": "coffee_shop;italian;mexican",
        "delivery": "yes",
        "description": "Immerse yourself in a delightful gastronomic journey at Quattro Bistro, our newly opened pure vegetarian haven located in the heart of Sadhashivnagar, Bangalore.",
        "diet:gluten_free": "yes",
        "diet:jain": "yes",
        "diet:vegan": "yes",
        "diet:vegetarian": "yes",
        "drive_through": "no",
        "highchair": "yes",
        "internet_access": "wlan",
        "internet_access:fee": "customers",
        "level": "0",
        "mobile": "+91 948 042 2365",
        "name": "Quattro Bistro",
        "opening_hours": "Mo-Su 11:00-00:30",
        "payment:american_express": "yes",
        "payment:app": "yes",
        "payment:cash": "yes",
        "payment:contactless": "yes",
        "payment:credit_cards": "yes",
        "payment:debit_cards": "yes",
        "payment:discover_card": "yes",
        "payment:google_pay": "yes",
        "payment:maestro": "yes",
        "payment:mastercard": "yes",
        "payment:mastercard_contactless": "yes",
        "payment:visa": "yes",
        "phone": "+91 948 042 2365",
        "reservation": "yes",
        "smoking": "no",
        "start_date": "2024-11-11",
        "takeaway": "yes",
        "toilets": "yes",
        "website:menu": "https://www.zomato.com/bangalore/quattro-bistro-sadashiv-nagar-bangalore/menu",
        "wheelchair": "yes"
      }
    },
    {
      "type": "node",
      "id": 12414199211,
      "lat": 13.0064414,
      "lon": 77.5756719,
      "tags": {
        "access": "customers",
        "amenity": "toilets",
        "fee": "no",
        "female": "yes"
      }
    },
    {
      "type": "node",
      "id": 12414199212,
      "lat": 13.0064499,
      "lon": 77.5753782,
      "tags": {
        "access": "customers",
        "amenity": "toilets",
        "fee": "no",
        "male": "yes"
      }
    },
    {
      "type": "node",
      "id": 12414199254,
      "lat": 13.0069307,
      "lon": 77.5754305,
      "tags": {
        "amenity": "drinking_water"
      }
    },
    {
      "type": "node",
      "id": 12420181108,
      "lat": 13.0045713,
      "lon": 77.5787232,
      "tags": {
        "air_conditioning": "yes",
        "amenity": "cafe",
        "capacity": "25",
        "check_date": "2024-12-13",
        "name": "aubree",
        "outdoor_seating": "no"
      }
    },
    {
      "type": "node",
      "id": 12420181109,
      "lat": 13.0051836,
      "lon": 77.5788632,
      "tags": {
        "amenity": "restaurant",
        "brand": "California Burrito",
        "brand:wikidata": "Q124374596",
        "check_date": "2024-12-13",
        "cuisine": "mexican",
        "name": "California Burrito"
      }
    },
    {
      "type": "node",
      "id": 12422100663,
      "lat": 13.0069207,
      "lon": 77.5789754,
      "tags": {
        "amenity": "cafe",
        "brand": "Blue Tokai Coffee Roasters",
        "brand:wikidata": "Q124374362",
        "check_date": "2024-12-13",
        "cuisine": "coffee_shop",
        "delivery": "yes",
        "internet_access": "yes",
        "internet_access:fee": "no",
        "name": "Blue Tokai Coffee Roasters",
        "takeaway": "yes",
        "toilets": "yes"
      }
    },
    {
      "type": "node",
      "id": 12422127903,
      "lat": 13.0054907,
      "lon": 77.5783078,
      "tags": {
        "name": "BBlunt",
        "shop": "beauty"
      }
    },
    {
      "type": "node",
      "id": 12441467484,
      "lat": 12.9992069,
      "lon": 77.5838573,
      "tags": {
        "check_date": "2024-12-22",
        "name": "Gajraj",
        "shop": "jewelry"
      }
    },
    {
      "type": "node",
      "id": 12441467485,
      "lat": 12.9990256,
      "lon": 77.5839077,
      "tags": {
        "amenity": "bank",
        "brand": "Kotak Mahindra Bank",
        "brand:wikidata": "Q2040404",
        "check_date": "2025-08-08",
        "name": "Kotak Mahindra Bank"
      }
    },
    {
      "type": "node",
      "id": 12441539349,
      "lat": 13.0038834,
      "lon": 77.5839787,
      "tags": {
        "brand": "Royal Enfield",
        "brand:wikidata": "Q2668720",
        "check_date": "2024-12-22",
        "name": "Royal Enfield",
        "shop": "motorcycle"
      }
    },
    {
      "type": "node",
      "id": 12441539350,
      "lat": 13.0040413,
      "lon": 77.5839602,
      "tags": {
        "check_date": "2024-12-22",
        "name": "Ovion",
        "shop": "furniture"
      }
    },
    {
      "type": "node",
      "id": 12441836117,
      "lat": 13.0093084,
      "lon": 77.5806326,
      "tags": {
        "check_date": "2024-12-22",
        "name": "Enrich",
        "shop": "hairdresser"
      }
    },
    {
      "type": "node",
      "id": 12470758935,
      "lat": 13.0092422,
      "lon": 77.5772807,
      "tags": {
        "amenity": "internet_cafe",
        "check_date": "2025-01-03",
        "internet_access": "no",
        "name": "Net Junction",
        "opening_hours": "Mo-Sa 08:00-20:00; Su off",
        "operator:type": "private",
        "wheelchair": "yes"
      }
    },
    {
      "type": "node",
      "id": 12491962062,
      "lat": 13.0069665,
      "lon": 77.5789097,
      "tags": {
        "amenity": "restaurant",
        "check_date": "2025-01-07",
        "cuisine": "regional;coffee_shop;indian",
        "diet:vegetarian": "yes",
        "internet_access": "no",
        "name": "Dakshin Express",
        "wheelchair": "no"
      }
    },
    {
      "type": "node",
      "id": 12508867414,
      "lat": 13.0073876,
      "lon": 77.57846,
      "tags": {
        "air_conditioning": "no",
        "check_date": "2025-01-17",
        "cuisine": "indian",
        "delivery": "no",
        "diet:vegetarian": "yes",
        "drive_through": "no",
        "highchair": "no",
        "internet_access": "no",
        "name": "Gurukrupa",
        "opening_hours": "Mo-Sa 09:00-20:00",
        "outdoor_seating": "no",
        "shop": "convenience",
        "smoking": "no",
        "wheelchair": "yes"
      }
    },
    {
      "type": "node",
      "id": 12508867415,
      "lat": 13.0073707,
      "lon": 77.5784902,
      "tags": {
        "amenity": "post_office",
        "check_date": "2025-01-17",
        "name": "DTDC",
        "wheelchair": "yes"
      }
    },
    {
      "type": "node",
      "id": 12628597302,
      "lat": 13.0045175,
      "lon": 77.5837857,
      "tags": {
        "check_date": "2025-03-01",
        "name": "Modulo",
        "shop": "interior_decoration"
      }
    },
    {
      "type": "node",
      "id": 12628597303,
      "lat": 13.0131163,
      "lon": 77.5837035,
      "tags": {
        "brand": "Bajaj",
        "brand:wikidata": "Q10910065",
        "check_date": "2025-08-08",
        "name": "Bajaj",
        "shop": "motorcycle"
      }
    },
    {
      "type": "node",
      "id": 12628597304,
      "lat": 13.0132839,
      "lon": 77.5836479,
      "tags": {
        "brand": "Honda",
        "brand:wikidata": "Q9584",
        "check_date": "2025-08-08",
        "name": "Honda",
        "shop": "car"
      }
    },
    {
      "type": "node",
      "id": 12648710693,
      "lat": 13.0056661,
      "lon": 77.5806713,
      "tags": {
        "amenity": "restaurant",
        "check_date": "2025-04-12",
        "name": "Pulimunchi Restaurant",
        "payment:cash": "yes",
        "payment:credit_cards": "yes",
        "payment:debit_cards": "yes",
        "wheelchair": "limited"
      }
    },
    {
      "type": "node",
      "id": 12648717953,
      "lat": 13.0046704,
      "lon": 77.5784545,
      "tags": {
        "name": "Namdhari",
        "shop": "supermarket"
      }
    },
    {
      "type": "node",
      "id": 13033883599,
      "lat": 13.015249,
      "lon": 77.583746,
      "tags": {
        "amenity": "place_of_worship",
        "religion": "hindu"
      }
    },
    {
      "type": "node",
      "id": 13057916461,
      "lat": 13.0037684,
      "lon": 77.5837594,
      "tags": {
        "check_date": "2025-08-08",
        "name": "OLA",
        "shop": "motorcycle"
      }
    },
    {
      "type": "node",
      "id": 13057916463,
      "lat": 13.0037882,
      "lon": 77.5838385,
      "tags": {
        "check_date": "2025-08-08",
        "name": "Girias",
        "shop": "appliance"
      }
    },
    {
      "type": "node",
      "id": 13057916465,
      "lat": 13.0136244,
      "lon": 77.583658,
      "tags": {
        "check_date": "2025-08-08",
        "name": "Tata Motors",
        "shop": "car"
      }
    },
    {
      "type": "node",
      "id": 13057916467,
      "lat": 13.0039101,
      "lon": 77.5836059,
      "tags": {
        "amenity": "atm",
        "brand": "Axis Bank",
        "brand:wikidata": "Q2003549",
        "check_date": "2025-08-08",
        "operator": "Axis Bank",
        "operator:wikidata": "Q2003549"
      }
    },
    {
      "type": "node",
      "id": 13173217403,
      "lat": 13.00902,
      "lon": 77.5782952,
      "tags": {
        "leisure": "fitness_centre",
        "name": "Patanjali Yogamandira",
        "sport": "yoga"
      }
    },
    {
      "type": "node",
      "id": 13227760612,
      "lat": 13.0050569,
      "lon": 77.5783253,
      "tags": {
        "amenity": "restaurant",
        "name": "The Filter Coffee"
      }
    },
    {
      "type": "node",
      "id": 13227760613,
      "lat": 13.0050491,
      "lon": 77.5787196,
      "tags": {
        "amenity": "restaurant",
        "brand": "California Burrito",
        "brand:wikidata": "Q124374596",
        "cuisine": "mexican",
        "name": "California Burrito"
      }
    },
    {
      "type": "node",
      "id": 13227760614,
      "lat": 13.0055731,
      "lon": 77.5787571,
      "tags": {
        "amenity": "bar",
        "name": "Shetty Lunch Home"
      }
    },
    {
      "type": "node",
      "id": 13227760615,
      "lat": 13.0074096,
      "lon": 77.5784178,
      "tags": {
        "amenity": "fast_food",
        "cuisine": "juice",
        "name": "The Lassi Corner"
      }
    },
    {
      "type": "node",
      "id": 13228016712,
      "lat": 13.0044381,
      "lon": 77.5786929,
      "tags": {
        "amenity": "restaurant",
        "name": "The Indies Cafe"
      }
    },
    {
      "type": "way",
      "id": 37107603,
      "center": {
        "lat": 13.0159059,
        "lon": 77.5756278
      },
      "tags": {
        "addr:city": "Bengaluru",
        "addr:housename": "KV Hebbal",
        "addr:postcode": "560 080",
        "addr:street": "Dr. CV Raman Road",
        "amenity": "school",
        "brand": "Kendriya Vidyalaya",
        "brand:wikidata": "Q1156653",
        "name": "Kendriya Vidyalaya Hebbal",
        "name:kn": "ಕೇಂದ್ರೀಯ ವಿದ್ಯಾಲಯ ಹೆಬ್ಬಾಳ",
        "operator:type": "government_non_profit",
        "wheelchair": "limited"
      }
    },
    {
      "type": "way",
      "id": 38858169,
      "center": {
        "lat": 13.0074764,
        "lon": 77.5775306
      },
      "tags": {
        "leisure": "sports_centre",
        "name": "Global Swim Centre Swimming Pool",
        "sport": "swimming"
      }
    },
    {
      "type": "way",
      "id": 38858195,
      "center": {
        "lat": 13.0144188,
        "lon": 77.575357
      },
      "tags": {
        "leisure": "pitch",
        "name": "Nagasena Vidyalaya",
        "name:kn": "ನಾಗಸೇನ ವಿದ್ಯಾಲಯ"
      }
    },
    {
      "type": "way",
      "id": 38858198,
      "center": {
        "lat": 13.0121051,
        "lon": 77.5828364
      },
      "tags": {
        "leisure": "park",
        "name": "Ramana Maharshi Park",
        "name:etymology:wikidata": "Q288441",
        "name:kn": "ರಮಣ ಮಹರ್ಷಿ ಉದ್ಯಾನವನ"
      }
    },
    {
      "type": "way",
      "id": 38858222,
      "center": {
        "lat": 13.0130745,
        "lon": 77.5811095
      },
      "tags": {
        "amenity": "college",
        "name": "Raman Research Institute",
        "name:etymology:wikidata": "Q60429",
        "short_name": "RRI",
        "start_date": "1948",
        "website": "https://rri.res.in",
        "wikidata": "Q1259644",
        "wikipedia": "en:Raman Research Institute"
      }
    },
    {
      "type": "way",
      "id": 38858223,
      "center": {
        "lat": 13.0066816,
        "lon": 77.580846
      },
      "tags": {
        "addr:street": "15th Cross Road",
        "amenity": "school",
        "check_date": "2024-07-17",
        "name": "Poorna Pragna School",
        "name:kn": "ಪೂರ್ಣ ಪ್ರಜ್ಞ ಶಾಲೆ"
      }
    },
    {
      "type": "way",
      "id": 38858233,
      "center": {
        "lat": 13.0124497,
        "lon": 77.5754611
      },
      "tags": {
        "alt_name": "Bangalore Mahanagarapalike Park",
        "leisure": "park",
        "name": "Sadashivanagar Low Level Park",
        "name:kn": "ಪಾಲಿಕೆ ಉದ್ಯಾನವನ",
        "official_name": "Lower Level Park"
      }
    },
    {
      "type": "way",
      "id": 38858241,
      "center": {
        "lat": 13.0135247,
        "lon": 77.5753732
      },
      "tags": {
        "addr:city": "Bengaluru",
        "addr:housenumber": "HKES, 14 A",
        "addr:postcode": "560080",
        "addr:street": "13th Main Road",
        "alt_name": "HKES National Public School",
        "amenity": "school",
        "loc_name": "HKES NPS",
        "name": "National Public School Sadashivanagar",
        "name:kn": "ರಾಷ್ಟ್ರೀಯ ಸಾರ್ವಜನಿಕ ಶಾಲೆ",
        "office": "educational_institution",
        "official_name": "HKES NPS National Public School",
        "phone": "08029906571",
        "short_name": "NPS Sadashivanagar",
        "website": "https://npssadashivanagar.com/"
      }
    },
    {
      "type": "way",
      "id": 38858245,
      "center": {
        "lat": 13.0059394,
        "lon": 77.5821459
      },
      "tags": {
        "leisure": "park"
      }
    },
    {
      "type": "way",
      "id": 38870504,
      "center": {
        "lat": 13.0009049,
        "lon": 77.5829668
      },
      "tags": {
        "addr:housenumber": "8",
        "addr:street": "Bellary Road",
        "amenity": "college",
        "emergency": "no",
        "heritage": "2",
        "heritage:operator": "nmma",
        "heritage:website": "https://nmma.nic.in/nmma/exploreBuiltState.do?state=29",
        "historic:name": "Avalon",
        "name": "National Tuberculosis Institute",
        "ref:nmma": "KR20010698"
      }
    },
    {
      "type": "way",
      "id": 46950393,
      "center": {
        "lat": 13.0066409,
        "lon": 77.5777065
      },
      "tags": {
        "addr:street": "Sankey Tank Road",
        "amenity": "school",
        "landuse": "education",
        "name": "Stella Maris Convent",
        "name:kn": "ಸ್ಟೆಲ್ಲಾ ಮಾರಿಸ್ ಕಾನ್ವೆಂಟ್"
      }
    },
    {
      "type": "way",
      "id": 51140711,
      "center": {
        "lat": 13.0068759,
        "lon": 77.5742642
      },
      "tags": {
        "amenity": "school",
        "name": "VES School"
      }
    },
    {
      "type": "way",
      "id": 113782048,
      "center": {
        "lat": 13.0070777,
        "lon": 77.5782525
      },
      "tags": {
        "leisure": "park"
      }
    },
    {
      "type": "way",
      "id": 132928199,
      "center": {
        "lat": 13.0059914,
        "lon": 77.5755633
      },
      "tags": {
        "leisure": "park",
        "name": "Jogger's Park",
        "name:kn": "ಜೋಗರ್ಸ್ ಪಾರ್ಕ್"
      }
    },
    {
      "type": "way",
      "id": 132928282,
      "center": {
        "lat": 13.0064078,
        "lon": 77.5765461
      },
      "tags": {
        "amenity": "place_of_worship",
        "name": "Tirumala Tirupathi Devasthanam",
        "name:kn": "ತಿರುಮಲ ತಿರುಪತಿ ದೇವಸ್ಥಾನ",
        "religion": "hindu"
      }
    },
    {
      "type": "way",
      "id": 139216933,
      "center": {
        "lat": 13.0144945,
        "lon": 77.576137
      },
      "tags": {
        "addr:city": "Bangalore",
        "addr:housenumber": "CV Raman Road",
        "addr:postcode": "560080",
        "addr:street": "9th Cross Road",
        "amenity": "place_of_worship",
        "building": "yes",
        "denomination": "theravada",
        "name": "Buddhist Temple",
        "name:kn": "ಬುದ್ಧ ವಿಹಾರ",
        "religion": "buddhist"
      }
    },
    {
      "type": "way",
      "id": 139217425,
      "center": {
        "lat": 13.0126844,
        "lon": 77.5746448
      },
      "tags": {
        "leisure": "park",
        "name": "Island Park"
      }
    },
    {
      "type": "way",
      "id": 139218455,
      "center": {
        "lat": 13.0126844,
        "lon": 77.5746448
      },
      "tags": {
        "leisure": "park"
      }
    },
    {
      "type": "way",
      "id": 221353983,
      "center": {
        "lat": 13.0069761,
        "lon": 77.5819162
      },
      "tags": {
        "access": "yes",
        "leisure": "playground",
        "name": "Janatha Bazaar Park"
      }
    },
    {
      "type": "way",
      "id": 221353984,
      "center": {
        "lat": 13.0066717,
        "lon": 77.5821335
      },
      "tags": {
        "amenity": "marketplace",
        "name": "Janatha Bazaar",
        "name:kn": "ಜನತಾ ಬಜಾರ್",
        "opening_hours": "Mo-Sa 10:00-19:00",
        "shop": "supermarket"
      }
    },
    {
      "type": "way",
      "id": 222965540,
      "center": {
        "lat": 13.0059246,
        "lon": 77.5789837
      },
      "tags": {
        "amenity": "fast_food",
        "name": "Sangam",
        "name:kn": "ಸಂಗಮ್"
      }
    },
    {
      "type": "way",
      "id": 335169246,
      "center": {
        "lat": 13.0067115,
        "lon": 77.5756134
      },
      "tags": {
        "amenity": "theatre",
        "capacity": "1100",
        "landuse": "commercial",
        "name": "Chowdiah Memorial Hall",
        "name:kn": "ಚೌಡಯ್ಯ ಸ್ಮಾರಕ ಭವನ",
        "wikidata": "Q5105548",
        "wikipedia": "en:Chowdiah Memorial Hall"
      }
    },
    {
      "type": "way",
      "id": 335169248,
      "center": {
        "lat": 12.9984002,
        "lon": 77.5823983
      },
      "tags": {
        "amenity": "place_of_worship",
        "name": "Shri Anjaneya Swamy Temple",
        "name:kn": "ಅಂಜನೇಯ ಸ್ವಾಮಿ ದೇವಸ್ಥಾನ",
        "religion": "hindu"
      }
    },
    {
      "type": "way",
      "id": 335169251,
      "center": {
        "lat": 13.0046703,
        "lon": 77.5746195
      },
      "tags": {
        "landuse": "industrial",
        "name": "Vyalikaval Dhobi Ghat",
        "shop": "laundry"
      }
    },
    {
      "type": "way",
      "id": 344351449,
      "center": {
        "lat": 13.0119717,
        "lon": 77.588618
      },
      "tags": {
        "leisure": "pitch",
        "sport": "tennis"
      }
    },
    {
      "type": "way",
      "id": 344351451,
      "center": {
        "lat": 13.0114593,
        "lon": 77.5882881
      },
      "tags": {
        "leisure": "pitch",
        "sport": "tennis"
      }
    },
    {
      "type": "way",
      "id": 344351452,
      "center": {
        "lat": 13.0117766,
        "lon": 77.5834933
      },
      "tags": {
        "amenity": "place_of_worship",
        "name": "Ramana Maharshi Shrine and Meditation Hall",
        "religion": "hindu"
      }
    },
    {
      "type": "way",
      "id": 345958934,
      "center": {
        "lat": 13.008233,
        "lon": 77.5809358
      },
      "tags": {
        "amenity": "place_of_worship",
        "building": "temple",
        "check_date": "2024-08-29",
        "name": "Ganapati Temple",
        "name:kn": "ಗಣಪತಿ ದೇವಸ್ಥಾನ",
        "religion": "hindu"
      }
    },
    {
      "type": "way",
      "id": 346266426,
      "center": {
        "lat": 12.9990241,
        "lon": 77.5821232
      },
      "tags": {
        "addr:city": "Bangalore",
        "addr:postcode": "560003",
        "addr:street": "Palace Guttahalli Main Road",
        "amenity": "post_office",
        "building": "yes",
        "name": "Palace Guttahalli Post office",
        "name:kn": "ಅಂಚೆ ಕಛೇರಿ"
      }
    },
    {
      "type": "way",
      "id": 346433811,
      "center": {
        "lat": 13.0070898,
        "lon": 77.5815822
      },
      "tags": {
        "amenity": "place_of_worship",
        "building": "temple",
        "check_date": "2024-08-29",
        "name": "Eshwara Temple",
        "name:kn": "ಈಶ್ವರ ದೇವಸ್ಥಾನ",
        "religion": "hindu"
      }
    },
    {
      "type": "way",
      "id": 346518876,
      "center": {
        "lat": 13.0043944,
        "lon": 77.5724822
      },
      "tags": {
        "amenity": "place_of_worship",
        "building": "yes",
        "name": "Sri Nandishwara Theertha",
        "name:en": "Sri Nandishwara Theertha",
        "name:kn": "ಶ್ರೀ ನಂದೀಶ್ವರ ತೀರ್ಥ",
        "religion": "hindu"
      }
    },
    {
      "type": "way",
      "id": 347104511,
      "center": {
        "lat": 13.0059731,
        "lon": 77.5885394
      },
      "tags": {
        "access": "private",
        "leisure": "pitch",
        "sport": "tennis"
      }
    },
    {
      "type": "way",
      "id": 400433081,
      "center": {
        "lat": 13.0122025,
        "lon": 77.5822333
      },
      "tags": {
        "leisure": "garden"
      }
    },
    {
      "type": "way",
      "id": 400433083,
      "center": {
        "lat": 13.0125785,
        "lon": 77.5827177
      },
      "tags": {
        "leisure": "garden"
      }
    },
    {
      "type": "way",
      "id": 400433085,
      "center": {
        "lat": 13.012166,
        "lon": 77.5826921
      },
      "tags": {
        "leisure": "garden"
      }
    },
    {
      "type": "way",
      "id": 400433087,
      "center": {
        "lat": 13.0124164,
        "lon": 77.5824439
      },
      "tags": {
        "leisure": "garden"
      }
    },
    {
      "type": "way",
      "id": 400433095,
      "center": {
        "lat": 13.0117665,
        "lon": 77.5834725
      },
      "tags": {
        "amenity": "place_of_worship",
        "building": "yes",
        "name": "Sri Ramana Maharshi Shrine and Meditation Hall",
        "religion": "hindu"
      }
    },
    {
      "type": "way",
      "id": 400448361,
      "center": {
        "lat": 13.0026608,
        "lon": 77.5837858
      },
      "tags": {
        "addr:floor": "G",
        "addr:street": "Sankey Road",
        "amenity": "fuel",
        "brand": "Hindustan Petroleum",
        "brand:wikidata": "Q1619375",
        "check_date": "2025-08-08",
        "compressed_air": "yes",
        "fuel:diesel": "yes",
        "fuel:petrol": "yes",
        "level": "0",
        "name": "HP",
        "name:kn": "ಹಿಂದುಸ್ತಾನ್ ಪೆಟ್ರೋಲಿಯಂ",
        "official_name": "Hindustan Petroleum",
        "opening_hours": "24/7",
        "self_service": "no"
      }
    },
    {
      "type": "way",
      "id": 402008728,
      "center": {
        "lat": 13.0085379,
        "lon": 77.5722286
      },
      "tags": {
        "leisure": "playground",
        "opening_hours": "Mo-Su 05:00-10:00, 16:30-20:00"
      }
    },
    {
      "type": "way",
      "id": 402011848,
      "center": {
        "lat": 13.0050551,
        "lon": 77.5796771
      },
      "tags": {
        "leisure": "park"
      }
    },
    {
      "type": "way",
      "id": 402011853,
      "center": {
        "lat": 13.005556,
        "lon": 77.5809082
      },
      "tags": {
        "addr:city": "Bengaluru",
        "addr:country": "IN",
        "addr:hamlet": "Lower Palace Orchards",
        "addr:housenumber": "197/36",
        "addr:postcode": "560080",
        "addr:street": "16th Cross Road",
        "addr:suburb": "Sadashivanagar",
        "alt_name": "Indian Institute for Human Settlements Bangalore City Campus",
        "amenity": "college",
        "full_name": "Indian Institute for Human Settlements Bengaluru City Campus, Sadashivanagar",
        "landuse": "education",
        "name": "IIHS, Bengaluru City Campus",
        "official_name": "IIHS Bengaluru City Campus, Sadashivanagara",
        "opening_hours": "Mo-Fr 09:00-18:00",
        "operator": "Indian Institute for Human Settlements",
        "phone": "+91 80 6760 6666",
        "short_name": "IIHS",
        "website": "https://iihs.co.in"
      }
    },
    {
      "type": "way",
      "id": 696150489,
      "center": {
        "lat": 13.0074534,
        "lon": 77.5775773
      },
      "tags": {
        "access": "permissive",
        "leisure": "swimming_pool",
        "location": "outdoor"
      }
    },
    {
      "type": "way",
      "id": 696150490,
      "center": {
        "lat": 13.0077151,
        "lon": 77.5773074
      },
      "tags": {
        "access": "permissive",
        "leisure": "swimming_pool"
      }
    },
    {
      "type": "way",
      "id": 1040899000,
      "center": {
        "lat": 13.0138956,
        "lon": 77.5761248
      },
      "tags": {
        "addr:street": "CV Raman Avenue",
        "amenity": "school",
        "name": "Nagasena Vidyalaya",
        "name:kn": "ನಾಗಸೇನ ವಿದ್ಯಾಲಯ"
      }
    },
    {
      "type": "way",
      "id": 1062359635,
      "center": {
        "lat": 13.0053007,
        "lon": 77.5813072
      },
      "tags": {
        "amenity": "place_of_worship",
        "check_date": "2024-07-16",
        "denomination": "anglican",
        "name": "CSI Ascension Church",
        "religion": "christian"
      }
    },
    {
      "type": "way",
      "id": 1062359636,
      "center": {
        "lat": 13.004881,
        "lon": 77.5808184
      },
      "tags": {
        "amenity": "fuel",
        "brand": "Shell",
        "brand:wikidata": "Q110716465",
        "compressed_air": "yes",
        "name": "Shell",
        "name:kn": "ಶೆಲ್",
        "operator": "Shell"
      }
    },
    {
      "type": "way",
      "id": 1062372961,
      "center": {
        "lat": 13.0050762,
        "lon": 77.5717397
      },
      "tags": {
        "amenity": "place_of_worship",
        "description": "State protected ancient monument",
        "landuse": "religious",
        "name": "Kadu Malleshwara Temple",
        "name:kn": "ಕಾಡು ಮಲ್ಲೇಶ್ವರ ದೇವಸ್ಥಾನ",
        "religion": "hindu",
        "wheelchair": "no",
        "wikidata": "Q6345722",
        "wikimedia_commons": "Category:Kadu Malleshwara Temple",
        "wikipedia": "en:Kadu Malleshwara Temple"
      }
    },
    {
      "type": "way",
      "id": 1062372964,
      "center": {
        "lat": 13.0067942,
        "lon": 77.5765549
      },
      "tags": {
        "amenity": "community_centre",
        "name": "Tirumala Tirupathi Devasthanam Kalyana Mantapa"
      }
    },
    {
      "type": "way",
      "id": 1065048410,
      "center": {
        "lat": 13.0150203,
        "lon": 77.581429
      },
      "tags": {
        "leisure": "garden"
      }
    },
    {
      "type": "way",
      "id": 1106402201,
      "center": {
        "lat": 13.0084582,
        "lon": 77.5776722
      },
      "tags": {
        "leisure": "park"
      }
    },
    {
      "type": "way",
      "id": 1106402207,
      "center": {
        "lat": 13.0120786,
        "lon": 77.5709861
      },
      "tags": {
        "addr:city": "Bengaluru",
        "addr:country": "IN",
        "addr:place": "Malleswaram",
        "addr:postcode": "560003",
        "amenity": "college",
        "email": "dir_iwst@icfre.org",
        "name": "Institute of Wood Science and Technology",
        "office": "research",
        "operator": "ICFRE",
        "website": "https://iwst.icfre.gov.in/",
        "wikipedia": "en:Institute of Wood Science and Technology"
      }
    },
    {
      "type": "way",
      "id": 1147342239,
      "center": {
        "lat": 13.0091893,
        "lon": 77.5759099
      },
      "tags": {
        "leisure": "park"
      }
    },
    {
      "type": "way",
      "id": 1148302623,
      "center": {
        "lat": 13.0060297,
        "lon": 77.5789027
      },
      "tags": {
        "addr:street": "Vyalikaval Main Road",
        "amenity": "fuel",
        "brand": "Bharat Petroleum",
        "brand:wikidata": "Q854826",
        "check_date": "2024-12-13",
        "compressed_air": "yes",
        "landuse": "commercial",
        "name": "Bharath Petroleum",
        "name:kn": "ಭಾರತ್ ಪೆಟ್ರೋಲಿಯಂ",
        "operator": "Bharat Petroleum"
      }
    },
    {
      "type": "way",
      "id": 1176949707,
      "center": {
        "lat": 13.0072848,
        "lon": 77.5730668
      },
      "tags": {
        "amenity": "place_of_worship",
        "religion": "hindu"
      }
    },
    {
      "type": "way",
      "id": 1176949708,
      "center": {
        "lat": 13.0025183,
        "lon": 77.5767216
      },
      "tags": {
        "leisure": "park"
      }
    },
    {
      "type": "way",
      "id": 1176949709,
      "center": {
        "lat": 13.0008545,
        "lon": 77.5762586
      },
      "tags": {
        "leisure": "fitness_station"
      }
    },
    {
      "type": "way",
      "id": 1195571013,
      "center": {
        "lat": 12.9990806,
        "lon": 77.5823861
      },
      "tags": {
        "amenity": "place_of_worship",
        "religion": "hindu"
      }
    },
    {
      "type": "way",
      "id": 1214107287,
      "center": {
        "lat": 13.010085,
        "lon": 77.5752071
      },
      "tags": {
        "amenity": "shelter",
        "building": "yes",
        "shelter_type": "gazebo"
      }
    },
    {
      "type": "way",
      "id": 1214107288,
      "center": {
        "lat": 13.009111,
        "lon": 77.5729313
      },
      "tags": {
        "amenity": "shelter",
        "building": "yes",
        "shelter_type": "gazebo"
      }
    },
    {
      "type": "way",
      "id": 1214107304,
      "center": {
        "lat": 13.0115823,
        "lon": 77.5752823
      },
      "tags": {
        "leisure": "fitness_station",
        "sport": "fitness"
      }
    },
    {
      "type": "way",
      "id": 1214107305,
      "center": {
        "lat": 13.0094688,
        "lon": 77.5755041
      },
      "tags": {
        "leisure": "fitness_station",
        "sport": "fitness"
      }
    },
    {
      "type": "way",
      "id": 1214107309,
      "center": {
        "lat": 13.0109002,
        "lon": 77.5728868
      },
      "tags": {
        "amenity": "shelter",
        "building": "yes",
        "shelter_type": "gazebo"
      }
    },
    {
      "type": "way",
      "id": 1267895430,
      "center": {
        "lat": 13.0030694,
        "lon": 77.5829689
      },
      "tags": {
        "amenity": "place_of_worship",
        "landuse": "religious",
        "name": "Mahalakshmi Temple",
        "name:kn": "ಮಹಾಲಕ್ಷ್ಮಿ ದೇವಸ್ಥಾನ",
        "religion": "hindu"
      }
    },
    {
      "type": "way",
      "id": 1289175416,
      "center": {
        "lat": 13.0151607,
        "lon": 77.5779033
      },
      "tags": {
        "access": "no",
        "leisure": "pitch",
        "sport": "soccer"
      }
    },
    {
      "type": "way",
      "id": 1337917261,
      "center": {
        "lat": 13.0100573,
        "lon": 77.5776393
      },
      "tags": {
        "access": "private",
        "leisure": "swimming_pool"
      }
    },
    {
      "type": "way",
      "id": 1338154676,
      "center": {
        "lat": 13.0113226,
        "lon": 77.5880668
      },
      "tags": {
        "amenity": "events_venue",
        "name": "The Gardenia"
      }
    },
    {
      "type": "way",
      "id": 1338154677,
      "center": {
        "lat": 13.0105561,
        "lon": 77.588105
      },
      "tags": {
        "addr:place": "Palace Grounds",
        "amenity": "events_venue",
        "name": "The Banquet Hall"
      }
    },
    {
      "type": "way",
      "id": 1338239585,
      "center": {
        "lat": 13.0108293,
        "lon": 77.5884256
      },
      "tags": {
        "addr:place": "Palace Grounds",
        "amenity": "events_venue",
        "full_name": "Tripua Vasini White Petals",
        "name": "White Petals"
      }
    },
    {
      "type": "way",
      "id": 1338239598,
      "center": {
        "lat": 13.0114205,
        "lon": 77.5888633
      },
      "tags": {
        "access": "private",
        "amenity": "parking",
        "parking": "surface"
      }
    },
    {
      "type": "way",
      "id": 1338239599,
      "center": {
        "lat": 13.0106499,
        "lon": 77.5890105
      },
      "tags": {
        "access": "private",
        "amenity": "parking",
        "parking": "surface"
      }
    },
    {
      "type": "way",
      "id": 1338239604,
      "center": {
        "lat": 13.0102567,
        "lon": 77.5866441
      },
      "tags": {
        "access": "private",
        "leisure": "pitch",
        "sport": "tennis"
      }
    },
    {
      "type": "way",
      "id": 1338260810,
      "center": {
        "lat": 13.0045562,
        "lon": 77.5881003
      },
      "tags": {
        "addr:place": "Palace Grounds",
        "amenity": "events_venue",
        "name": "Princess Golf"
      }
    },
    {
      "type": "way",
      "id": 1338260811,
      "center": {
        "lat": 13.0046284,
        "lon": 77.5895866
      },
      "tags": {
        "addr:place": "Palace Grounds",
        "amenity": "events_venue",
        "name": "Anantya"
      }
    },
    {
      "type": "way",
      "id": 1338260824,
      "center": {
        "lat": 13.0046242,
        "lon": 77.5873025
      },
      "tags": {
        "addr:place": "Palace Grounds",
        "amenity": "events_venue",
        "name": "Princess Shrine"
      }
    },
    {
      "type": "way",
      "id": 1338260825,
      "center": {
        "lat": 13.0060195,
        "lon": 77.5877498
      },
      "tags": {
        "leisure": "pitch",
        "name": "BPCA Cricket Ground",
        "sport": "cricket"
      }
    },
    {
      "type": "way",
      "id": 1338260826,
      "center": {
        "lat": 13.0059948,
        "lon": 77.5858702
      },
      "tags": {
        "addr:place": "Palace Grounds",
        "amenity": "events_venue",
        "name": "Shringar Palace Garden"
      }
    },
    {
      "type": "way",
      "id": 1338260828,
      "center": {
        "lat": 13.0062941,
        "lon": 77.5851183
      },
      "tags": {
        "addr:place": "Palace Grounds",
        "amenity": "events_venue",
        "name": "Palace Sheesh Mahal"
      }
    },
    {
      "type": "way",
      "id": 1338260831,
      "center": {
        "lat": 13.007397,
        "lon": 77.5865362
      },
      "tags": {
        "addr:place": "Palace Grounds",
        "alt_name": "The Grand Castle",
        "amenity": "events_venue",
        "name": "The Royal Senate"
      }
    },
    {
      "type": "way",
      "id": 1338260832,
      "center": {
        "lat": 13.0075322,
        "lon": 77.5853999
      },
      "tags": {
        "addr:place": "Palace Grounds",
        "alt_name": "Nalapad Pavilion",
        "amenity": "events_venue",
        "name": "Kings Court"
      }
    },
    {
      "type": "way",
      "id": 1338260833,
      "center": {
        "lat": 13.0090543,
        "lon": 77.5860711
      },
      "tags": {
        "addr:place": "Palace Grounds",
        "amenity": "events_venue",
        "name": "Gayatri Vihar"
      }
    },
    {
      "type": "way",
      "id": 1338260834,
      "center": {
        "lat": 13.0107933,
        "lon": 77.5844434
      },
      "tags": {
        "access": "private",
        "amenity": "parking",
        "parking": "surface"
      }
    },
    {
      "type": "way",
      "id": 1338260835,
      "center": {
        "lat": 13.0040743,
        "lon": 77.5852936
      },
      "tags": {
        "access": "private",
        "amenity": "parking",
        "parking": "surface"
      }
    },
    {
      "type": "way",
      "id": 1338260836,
      "center": {
        "lat": 13.0062527,
        "lon": 77.5844561
      },
      "tags": {
        "access": "private",
        "amenity": "parking",
        "parking": "surface"
      }
    },
    {
      "type": "way",
      "id": 1338293518,
      "center": {
        "lat": 13.0060942,
        "lon": 77.5747049
      },
      "tags": {
        "leisure": "stadium",
        "name": "Malleshwaram Indoor Stadium"
      }
    },
    {
      "type": "way",
      "id": 1341981938,
      "center": {
        "lat": 13.0064507,
        "lon": 77.5757274
      },
      "tags": {
        "access": "customers",
        "amenity": "parking",
        "parking": "surface"
      }
    },
    {
      "type": "way",
      "id": 1341981948,
      "center": {
        "lat": 13.0067089,
        "lon": 77.5758455
      },
      "tags": {
        "access": "customers",
        "amenity": "parking",
        "parking": "surface"
      }
    },
    {
      "type": "way",
      "id": 1441634659,
      "center": {
        "lat": 13.0047913,
        "lon": 77.5800992
      },
      "tags": {
        "leisure": "playground"
      }
    }
  ]
}