{
  "area_name": "V.V Puram",
  "osm_id": 19884594,
  "osm_type": "relation",
  "place_type": "administrative",
  "amenity_count": 171,
  "amenities": [
    {
      "type": "node",
      "id": 517874448,
      "lat": 12.9514719,
      "lon": 77.5774905,
      "tags": {
        "amenity": "fast_food",
        "name": "Rajasthani Parotha Point"
      }
    },
    {
      "type": "node",
      "id": 517874452,
      "lat": 12.9510029,
      "lon": 77.5776381,
      "tags": {
        "amenity": "fast_food",
        "name": "Arya Vysya Refreshments"
      }
    },
    {
      "type": "node",
      "id": 517874453,
      "lat": 12.9506894,
      "lon": 77.5786753,
      "tags": {
        "amenity": "restaurant"
      }
    },
    {
      "type": "node",
      "id": 517874458,
      "lat": 12.9505258,
      "lon": 77.5785913,
      "tags": {
        "amenity": "restaurant"
      }
    },
    {
      "type": "node",
      "id": 517874459,
      "lat": 12.9507057,
      "lon": 77.5784906,
      "tags": {
        "amenity": "restaurant"
      }
    },
    {
      "type": "node",
      "id": 517874462,
      "lat": 12.9510696,
      "lon": 77.5775371,
      "tags": {
        "name": "Mumbai Badam & Lassi Center",
        "shop": "beverages"
      }
    },
    {
      "type": "node",
      "id": 517874463,
      "lat": 12.9512912,
      "lon": 77.5774906,
      "tags": {
        "amenity": "fast_food"
      }
    },
    {
      "type": "node",
      "id": 517874468,
      "lat": 12.9532525,
      "lon": 77.57754,
      "tags": {
        "amenity": "atm",
        "brand": "Canara Bank",
        "brand:en": "Canara Bank",
        "brand:hi": "केनरा बैंक",
        "brand:kn": "ಕೆನರಾ ಬ್ಯಾಂಕ್",
        "brand:pa": "ਕੇਨਰਾ ਬੈਂਕ",
        "brand:pnb": "کینرا بینک",
        "brand:ur": "کینرا بینک",
        "brand:wikidata": "Q2003777",
        "name": "Canara Bank",
        "name:en": "Canara Bank",
        "name:hi": "केनरा बैंक",
        "name:kn": "ಕೆನರಾ ಬ್ಯಾಂಕ್",
        "name:pa": "ਕੇਨਰਾ ਬੈਂਕ",
        "name:pnb": "کینرا بینک",
        "name:ur": "کینرا بینک",
        "operator": "Canara Bank",
        "operator:wikidata": "Q2003777"
      }
    },
    {
      "type": "node",
      "id": 683352653,
      "lat": 12.9484631,
      "lon": 77.5798653,
      "tags": {
        "amenity": "atm",
        "brand": "Citibank",
        "brand:wikidata": "Q857063",
        "name": "Citibank",
        "name:kn": "ಸಿಟಿಬ್ಯಾಂಕ್",
        "operator": "Citibank",
        "operator:wikidata": "Q857063",
        "short_name": "Citi",
        "wheelchair": "no"
      }
    },
    {
      "type": "node",
      "id": 683352668,
      "lat": 12.9576358,
      "lon": 77.5822053,
      "tags": {
        "addr:street": "Jayachamaraja Wodeyar Road",
        "amenity": "toilets"
      }
    },
    {
      "type": "node",
      "id": 762086049,
      "lat": 12.9489556,
      "lon": 77.5762549,
      "tags": {
        "amenity": "public_building",
        "name": "Kanyaka Parameshwari Nilaya"
      }
    },
    {
      "type": "node",
      "id": 1058171422,
      "lat": 12.9447608,
      "lon": 77.5740606,
      "tags": {
        "addr:city": "Bangalore",
        "addr:street": "Krishna Rajendra Road",
        "amenity": "post_office",
        "name": "Basawanagudi Post Office",
        "name:kn": "ಬಸವನಗುಡಿ ಅಂಚೆ ಕಛೇರಿ"
      }
    },
    {
      "type": "node",
      "id": 1323652934,
      "lat": 12.9551259,
      "lon": 77.5741985,
      "tags": {
        "addr:city": "V V Puram, Bangalore",
        "addr:postcode": "560004",
        "addr:street": "Krishna Rajendra Road",
        "amenity": "college",
        "email": "chairman_bit@yahoo.in",
        "fax": "+91-80-26526796",
        "name": "Bangalore Institute of Technology",
        "name:kn": "ಬೆಂಗಳೂರು ತಂತ್ರಿಕ ಮಹಾವಿದ್ಯಾಲಯ",
        "phone": "+91-80-26615865;+91-80-26613237",
        "website": "http://www.bit-bangalore.org",
        "wheelchair": "no",
        "wikidata": "Q4855053",
        "wikimedia_commons": "Category:Bangalore Institute of Technology",
        "wikipedia": "en:Bangalore Institute of Technology"
      }
    },
    {
      "type": "node",
      "id": 1323663813,
      "lat": 12.9564316,
      "lon": 77.5741194,
      "tags": {
        "addr:city": "V V Puram, Bangalore",
        "addr:postcode": "560004",
        "addr:street": "Krishna Rajendra Road",
        "amenity": "college",
        "name": "Kempegowda Institute of Medical Sciences",
        "wikidata": "Q6387052",
        "wikipedia": "en:Kempegowda Institute of Medical Sciences"
      }
    },
    {
      "type": "node",
      "id": 1323663819,
      "lat": 12.9541058,
      "lon": 77.5741524,
      "tags": {
        "addr:city": "V V Puram, Bangalore",
        "addr:postcode": "560004",
        "addr:street": "Krishna Rajendra Road",
        "amenity": "college",
        "name": "VV Puram College of Arts and Commerce",
        "wheelchair": "limited"
      }
    },
    {
      "type": "node",
      "id": 1617398461,
      "lat": 12.9554704,
      "lon": 77.5801737,
      "tags": {
        "amenity": "restaurant",
        "cuisine": "indian",
        "name": "Kamat Minerva",
        "name:kn": "ಕಾಮತ್ ಮಿನರ್ವ"
      }
    },
    {
      "type": "node",
      "id": 1791962125,
      "lat": 12.9552387,
      "lon": 77.5790523,
      "tags": {
        "amenity": "restaurant",
        "cuisine": "indian",
        "name": "Nandini",
        "name:kn": "ನಂದಿನಿ",
        "wheelchair": "no"
      }
    },
    {
      "type": "node",
      "id": 1791962421,
      "lat": 12.9526875,
      "lon": 77.5767885,
      "tags": {
        "addr:city": "Bengaluru",
        "addr:postcode": "560004",
        "addr:street": "Sajjan Rao Circle",
        "amenity": "place_of_worship",
        "name": "Sri Shanidevara Temple",
        "name:kn": "ಶನಿದೇವರ ದೇವಸ್ಥಾನ",
        "religion": "hindu"
      }
    },
    {
      "type": "node",
      "id": 1791971124,
      "lat": 12.952102,
      "lon": 77.5763325,
      "tags": {
        "amenity": "place_of_worship",
        "name": "Satyanarayana Temple",
        "name:kn": "ಸತ್ಯನಾರಾಯಣ ಗುಡಿ",
        "religion": "hindu"
      }
    },
    {
      "type": "node",
      "id": 1794017010,
      "lat": 12.9452338,
      "lon": 77.579897,
      "tags": {
        "addr:street": "Rashtriya Vidyalaya Road",
        "name": "Madhiraa",
        "shop": "alcohol"
      }
    },
    {
      "type": "node",
      "id": 1916532789,
      "lat": 12.9543124,
      "lon": 77.5786901,
      "tags": {
        "name": "NMH Bakery",
        "shop": "bakery"
      }
    },
    {
      "type": "node",
      "id": 1916533478,
      "lat": 12.9535215,
      "lon": 77.5780606,
      "tags": {
        "amenity": "pharmacy",
        "healthcare": "pharmacy",
        "name": "Kasturi Medicals"
      }
    },
    {
      "type": "node",
      "id": 1916600665,
      "lat": 12.9489694,
      "lon": 77.577188,
      "tags": {
        "amenity": "fast_food",
        "name": "Sri Vasavi Condiments",
        "name:kn": "ಬಸವನಗುಡಿ ಟಿಫಿನ್ ರೂಮ್",
        "wheelchair": "no"
      }
    },
    {
      "type": "node",
      "id": 2057197440,
      "lat": 12.9491655,
      "lon": 77.5798273,
      "tags": {
        "amenity": "restaurant",
        "cuisine": "indian",
        "name": "Kamat",
        "name:kn": "ಕಾಮತ್",
        "operator": "Kamat",
        "wheelchair": "no"
      }
    },
    {
      "type": "node",
      "id": 2057197603,
      "lat": 12.9479149,
      "lon": 77.5794869,
      "tags": {
        "amenity": "fuel",
        "brand": "Bharat Petroleum",
        "brand:wikidata": "Q854826",
        "name": "Bharat Petroleum",
        "name:kn": "ಭಾರತ್ ಪೆಟ್ರೋಲಿಯಂ",
        "operator": "Bharat Petroleum"
      }
    },
    {
      "type": "node",
      "id": 2868502488,
      "lat": 12.9573933,
      "lon": 77.582077,
      "tags": {
        "amenity": "bank",
        "atm": "yes",
        "brand": "Dena Bank",
        "brand:wikidata": "Q3595747",
        "brand:wikipedia": "en:Dena Bank",
        "name": "Dena Bank",
        "name:en": "Dena Bank",
        "name:kn": "ದೇನ ಬ್ಯಾಂಕ್",
        "operator": "Dena Bank",
        "website": "http://www.denabank.com"
      }
    },
    {
      "type": "node",
      "id": 3010263826,
      "lat": 12.9503526,
      "lon": 77.579806,
      "tags": {
        "amenity": "bank",
        "atm": "no",
        "branch": "Zonal Office",
        "brand": "Syndicate Bank",
        "brand:wikidata": "Q2004088",
        "name": "Syndicate Bank",
        "name:en": "Syndicate Bank",
        "name:kn": "ಸಿಂಡಿಕೇಟ್ ಬ್ಯಾಂಕ್",
        "source": "voice, GPS",
        "website": "https://www.syndicatebank.in",
        "wikimedia_commons": "Category:Syndicate Bank"
      }
    },
    {
      "type": "node",
      "id": 3602709124,
      "lat": 12.9524597,
      "lon": 77.5773297,
      "tags": {
        "addr:city": "Bengaluru",
        "addr:housenumber": "53-58, 3rd Floor, Chakravarthi Complex",
        "addr:postcode": "560004",
        "addr:street": "Sajjan Rao Circle",
        "name": "Asus / Dell Service Center",
        "name:en": "Regenersis India Private Limited",
        "phone": "00918041205444",
        "shop": "electronics",
        "website": "http://www.regenersis.in"
      }
    },
    {
      "type": "node",
      "id": 3602709659,
      "lat": 12.9526217,
      "lon": 77.5773377,
      "tags": {
        "addr:city": "Bengaluru",
        "addr:postcode": "560004",
        "addr:street": "Sajjan Rao Circle",
        "name": "Maiyas Store",
        "operator": "Maiyas",
        "shop": "department_store"
      }
    },
    {
      "type": "node",
      "id": 3602713244,
      "lat": 12.9522009,
      "lon": 77.5773216,
      "tags": {
        "addr:city": "Bengaluru",
        "addr:postcode": "560004",
        "addr:street": "Sajjan Rao Circle",
        "amenity": "atm",
        "brand": "ICICI Bank",
        "brand:wikidata": "Q1653258",
        "drive_through": "no",
        "name": "ICICI Bank",
        "name:kn": "ಐಸಿಐಸಿಐ ಬ್ಯಾಂಕು",
        "operator": "ICICI Bank",
        "operator:wikidata": "Q1653258",
        "short_name": "ICICI"
      }
    },
    {
      "type": "node",
      "id": 3602725890,
      "lat": 12.9517068,
      "lon": 77.5769729,
      "tags": {
        "addr:city": "Bengaluru",
        "addr:postcode": "560004",
        "addr:street": "Sajjan Rao Circle",
        "name": "Harsha Enterprises",
        "opening_hours": "Mo-Fr 10:00-17:30",
        "operator": "Bharath Gas",
        "shop": "energy"
      }
    },
    {
      "type": "node",
      "id": 3602728203,
      "lat": 12.9508789,
      "lon": 77.5770446,
      "tags": {
        "addr:city": "Bengaluru",
        "addr:postcode": "560004",
        "addr:street": "Vasavi Temple Road",
        "amenity": "place_of_worship",
        "name": "Vasavi Temple",
        "name:kn": "ವಾಸವಿ ದೇವಸ್ಥಾನ",
        "religion": "hindu"
      }
    },
    {
      "type": "node",
      "id": 3602945368,
      "lat": 12.9506501,
      "lon": 77.5779992,
      "tags": {
        "addr:postcode": "560004",
        "name": "Nandini Milk Parlour",
        "name:kn": "ನಂದಿನಿ ಹಾಲಿನ ಅಂಗಡಿ",
        "operator": "Karnataka Milk Federation",
        "shop": "dairy"
      }
    },
    {
      "type": "node",
      "id": 3603077928,
      "lat": 12.9516486,
      "lon": 77.5770722,
      "tags": {
        "addr:city": "Bengaluru",
        "addr:postcode": "560004",
        "addr:street": "Old Market Street",
        "name": "V B Bakery",
        "shop": "bakery"
      }
    },
    {
      "type": "node",
      "id": 4128058314,
      "lat": 12.9554504,
      "lon": 77.574569,
      "tags": {
        "amenity": "theatre"
      }
    },
    {
      "type": "node",
      "id": 4173858166,
      "lat": 12.9476142,
      "lon": 77.5797544,
      "tags": {
        "amenity": "restaurant",
        "cuisine": "indian",
        "name": "Meera Delicacy"
      }
    },
    {
      "type": "node",
      "id": 4349307192,
      "lat": 12.9485535,
      "lon": 77.5748248,
      "tags": {
        "amenity": "hospital",
        "check_date": "2024-03-09",
        "healthcare:speciality": "gynaecology",
        "name": "Sagar Chandramma Hospitals",
        "name:en": "Sagar Chandramma Hospitals"
      }
    },
    {
      "type": "node",
      "id": 4362723794,
      "lat": 12.9453043,
      "lon": 77.5798656,
      "tags": {
        "amenity": "pharmacy",
        "healthcare": "pharmacy",
        "name": "Basavangudi Medical Centre"
      }
    },
    {
      "type": "node",
      "id": 4362762990,
      "lat": 12.9437347,
      "lon": 77.5799634,
      "tags": {
        "amenity": "atm",
        "operator": "Lakshmi Nivas Bank"
      }
    },
    {
      "type": "node",
      "id": 4362765797,
      "lat": 12.9472769,
      "lon": 77.5799705,
      "tags": {
        "amenity": "atm",
        "brand": "Bank of Baroda",
        "brand:wikidata": "Q2003797",
        "name": "Bank of Baroda",
        "operator": "Bank of Baroda",
        "operator:wikidata": "Q2003797"
      }
    },
    {
      "type": "node",
      "id": 4362780090,
      "lat": 12.9550185,
      "lon": 77.5811729,
      "tags": {
        "amenity": "place_of_worship",
        "name": "Temple"
      }
    },
    {
      "type": "node",
      "id": 4362807789,
      "lat": 12.947717,
      "lon": 77.5798294,
      "tags": {
        "amenity": "atm",
        "operator": "Lakshmi Vilas Bank"
      }
    },
    {
      "type": "node",
      "id": 4445291691,
      "lat": 12.947549,
      "lon": 77.5739319,
      "tags": {
        "addr:city": "Bangalore",
        "addr:postcode": "560004",
        "addr:street": "K R Road, Basavangudi",
        "amenity": "restaurant",
        "cuisine": "regional",
        "delivery": "yes",
        "name": "Cool corner",
        "opening_hours": "08:00-22:00",
        "phone": "080 2691 6505",
        "smoking": "no",
        "takeaway": "yes"
      }
    },
    {
      "type": "node",
      "id": 4445799119,
      "lat": 12.9488056,
      "lon": 77.5743239,
      "tags": {
        "addr:city": "Bangalore",
        "addr:postcode": "560004",
        "addr:street": "Kavi Lakshmisha Rd, Vishweshwarapura, Shankarapura",
        "amenity": "restaurant",
        "cuisine": "regional",
        "delivery": "yes",
        "name": "Bakery World",
        "opening_hours": "07:00-22:00",
        "phone": "080 4093 7384",
        "smoking": "no",
        "takeaway": "yes"
      }
    },
    {
      "type": "node",
      "id": 4446525169,
      "lat": 12.9464613,
      "lon": 77.57609,
      "tags": {
        "addr:full": "80 Feet Road, 5th Cross Road, Chandra Layout, Vijay Nagar, Bangalore - 560040",
        "alt_name": "Goli Vada Pav No.1",
        "amenity": "fast_food",
        "brand": "Goli Vada Pav",
        "brand:wikidata": "Q5580697",
        "cuisine": "indian",
        "name": "Goli Vada Pav",
        "name:kn": "ಗೋಲಿ ವಡ ಪಾವ್",
        "opening_hours": "10:00-22:00",
        "phone": "+91 9845315071",
        "takeaway": "yes",
        "website": "https://www.golivadapav.com/"
      }
    },
    {
      "type": "node",
      "id": 4447108639,
      "lat": 12.9543124,
      "lon": 77.5786901,
      "tags": {
        "addr:city": "Bengaluru",
        "addr:postcode": "560004",
        "addr:street": "V V Puram College of Science, Parvathipuram, Basavanagudi",
        "amenity": "restaurant",
        "cuisine": "regional",
        "delivery": "yes",
        "name": "New Modern Hotel",
        "phone": "080 2661 2625",
        "smoking": "no",
        "takeaway": "yes",
        "website": "https://newmodernhotel.com/"
      }
    },
    {
      "type": "node",
      "id": 4849108026,
      "lat": 12.9555428,
      "lon": 77.5802105,
      "tags": {
        "amenity": "bank",
        "brand": "Axis Bank",
        "brand:wikidata": "Q2003549",
        "brand:wikipedia": "en:Axis Bank",
        "name": "Axis Bank",
        "name:en": "Axis Bank",
        "name:kn": "ಆಕ್ಸಿಸ್ ಬ್ಯಾಂಕ್",
        "website": "https://www.axisbank.com"
      }
    },
    {
      "type": "node",
      "id": 4849108027,
      "lat": 12.9572315,
      "lon": 77.5816713,
      "tags": {
        "name": "Goodyear",
        "name:en": "Goodyear",
        "shop": "tyres"
      }
    },
    {
      "type": "node",
      "id": 5234745850,
      "lat": 12.9501743,
      "lon": 77.5798156,
      "tags": {
        "addr:housenumber": "106",
        "amenity": "bank",
        "atm": "yes",
        "name": "Sree Subramanya Co-Operative Bank",
        "short_name": "Subco Bank"
      }
    },
    {
      "type": "node",
      "id": 5234750135,
      "lat": 12.946047,
      "lon": 77.5784123,
      "tags": {
        "amenity": "bank",
        "brand": "Canara Bank",
        "brand:en": "Canara Bank",
        "brand:hi": "केनरा बैंक",
        "brand:kn": "ಕೆನರಾ ಬ್ಯಾಂಕ್",
        "brand:pa": "ਕੇਨਰਾ ਬੈਂਕ",
        "brand:pnb": "کینرا بینک",
        "brand:ur": "کینرا بینک",
        "brand:wikidata": "Q2003777",
        "brand:wikipedia": "en:Canara Bank",
        "brand:wikipedia:pa": "ਕੇਨਰਾ ਬੈਂਕ",
        "name": "Canara Bank",
        "name:en": "Canara Bank",
        "name:hi": "केनरा बैंक",
        "name:kn": "ಕೆನರಾ ಬ್ಯಾಂಕ್",
        "name:pa": "ਕੇਨਰਾ ਬੈਂਕ",
        "name:pnb": "کینرا بینک",
        "name:ur": "کینرا بینک"
      }
    },
    {
      "type": "node",
      "id": 5283520150,
      "lat": 12.9542603,
      "lon": 77.5755467,
      "tags": {
        "amenity": "place_of_worship",
        "name": "Maramma Temple",
        "name:kn": "ಮಾರಮ್ಮ ದೇವಸ್ಥಾನ",
        "religion": "hindu"
      }
    },
    {
      "type": "node",
      "id": 5306746586,
      "lat": 12.9492282,
      "lon": 77.5798434,
      "tags": {
        "amenity": "doctors",
        "healthcare": "doctor",
        "name": "Srinivasa Clinic"
      }
    },
    {
      "type": "node",
      "id": 5306746589,
      "lat": 12.9495157,
      "lon": 77.5797871,
      "tags": {
        "name": "Ramya Beauty Parlor",
        "shop": "beauty"
      }
    },
    {
      "type": "node",
      "id": 5306746590,
      "lat": 12.9495419,
      "lon": 77.5798273,
      "tags": {
        "amenity": "atm",
        "brand": "HDFC Bank",
        "brand:wikidata": "Q631047",
        "name": "HDFC Bank",
        "name:kn": "ಎಚ್ ಡಿ ಎಫ್ ಸಿ",
        "operator": "HDFC Bank",
        "operator:wikidata": "Q631047",
        "short_name": "HDFC"
      }
    },
    {
      "type": "node",
      "id": 5306746602,
      "lat": 12.9506371,
      "lon": 77.5798769,
      "tags": {
        "name": "New Seat Cover Centre",
        "shop": "car_parts"
      }
    },
    {
      "type": "node",
      "id": 5306746603,
      "lat": 12.9506391,
      "lon": 77.5799219,
      "tags": {
        "addr:housenumber": "112",
        "amenity": "bank",
        "atm": "no",
        "level": "1",
        "name": "Koteshwara Co-Op Bank"
      }
    },
    {
      "type": "node",
      "id": 5306746608,
      "lat": 12.9508907,
      "lon": 77.5777332,
      "tags": {
        "name": "Book My Ballons",
        "shop": "gift"
      }
    },
    {
      "type": "node",
      "id": 5306746609,
      "lat": 12.9508763,
      "lon": 77.5777949,
      "tags": {
        "amenity": "fast_food",
        "name": "Dev Sagar"
      }
    },
    {
      "type": "node",
      "id": 5306746610,
      "lat": 12.9508933,
      "lon": 77.5777694,
      "tags": {
        "name": "Sree Ganesha Fruit Juice Centre",
        "shop": "beverages"
      }
    },
    {
      "type": "node",
      "id": 5306746611,
      "lat": 12.9509129,
      "lon": 77.5777399,
      "tags": {
        "amenity": "fast_food",
        "name": "Chinese Corner"
      }
    },
    {
      "type": "node",
      "id": 5306746612,
      "lat": 12.9509312,
      "lon": 77.5777198,
      "tags": {
        "amenity": "fast_food",
        "name": "Sandwich Hut"
      }
    },
    {
      "type": "node",
      "id": 5306746617,
      "lat": 12.9510815,
      "lon": 77.5777084,
      "tags": {
        "amenity": "fast_food",
        "name": "Sai Fast Food"
      }
    },
    {
      "type": "node",
      "id": 5306746618,
      "lat": 12.9509841,
      "lon": 77.5778009,
      "tags": {
        "amenity": "fast_food",
        "name": "Gurudeva Eating House"
      }
    },
    {
      "type": "node",
      "id": 5306746619,
      "lat": 12.9510057,
      "lon": 77.5777808,
      "tags": {
        "amenity": "fast_food",
        "name": "Swami Bajji Center"
      }
    },
    {
      "type": "node",
      "id": 5306751724,
      "lat": 12.9510407,
      "lon": 77.5776041,
      "tags": {
        "amenity": "fast_food",
        "name": "Arya Vysya Chats"
      }
    },
    {
      "type": "node",
      "id": 5306751725,
      "lat": 12.9510995,
      "lon": 77.5776916,
      "tags": {
        "amenity": "fast_food",
        "name": "Vasavi Mane Thindi"
      }
    },
    {
      "type": "node",
      "id": 5306751726,
      "lat": 12.9511194,
      "lon": 77.5776742,
      "tags": {
        "amenity": "fast_food",
        "name": "Vasavi Dose Camp"
      }
    },
    {
      "type": "node",
      "id": 5306751727,
      "lat": 12.9511478,
      "lon": 77.5776467,
      "tags": {
        "amenity": "fast_food",
        "name": "The Chat Shop"
      }
    },
    {
      "type": "node",
      "id": 5306751734,
      "lat": 12.9510776,
      "lon": 77.5774924,
      "tags": {
        "description": "Dealers in Agmark Coorg Honey",
        "name": "Sapthagiri Industries",
        "shop": "convenience",
        "vending": "honey"
      }
    },
    {
      "type": "node",
      "id": 5306751735,
      "lat": 12.9511142,
      "lon": 77.5774831,
      "tags": {
        "amenity": "fast_food",
        "name": "Sangameshwara Gulkand & Chats Center"
      }
    },
    {
      "type": "node",
      "id": 5306751736,
      "lat": 12.9510933,
      "lon": 77.5775126,
      "tags": {
        "amenity": "fast_food",
        "name": "Anuradha Snacks"
      }
    },
    {
      "type": "node",
      "id": 5306751741,
      "lat": 12.9511952,
      "lon": 77.5774603,
      "tags": {
        "amenity": "ice_cream",
        "name": "Arctic Bites"
      }
    },
    {
      "type": "node",
      "id": 5306751742,
      "lat": 12.9511978,
      "lon": 77.5774106,
      "tags": {
        "amenity": "dentist",
        "name": "Destination Dentale"
      }
    },
    {
      "type": "node",
      "id": 5306751743,
      "lat": 12.9512527,
      "lon": 77.5774267,
      "tags": {
        "amenity": "restaurant",
        "name": "Ramu Tiffin Center"
      }
    },
    {
      "type": "node",
      "id": 5306751748,
      "lat": 12.9515233,
      "lon": 77.5774536,
      "tags": {
        "amenity": "fast_food",
        "name": "By2Coffee"
      }
    },
    {
      "type": "node",
      "id": 5306751753,
      "lat": 12.9513663,
      "lon": 77.5772912,
      "tags": {
        "amenity": "fast_food",
        "name": "Bangarpet Chat Express"
      }
    },
    {
      "type": "node",
      "id": 5306751754,
      "lat": 12.9513445,
      "lon": 77.5773058,
      "tags": {
        "name": "Vinayaka Juice Center",
        "shop": "beverages"
      }
    },
    {
      "type": "node",
      "id": 5306751755,
      "lat": 12.9513943,
      "lon": 77.5772636,
      "tags": {
        "name": "Srirama Watch Works",
        "shop": "watches"
      }
    },
    {
      "type": "node",
      "id": 5306751756,
      "lat": 12.9516278,
      "lon": 77.5773986,
      "tags": {
        "amenity": "fast_food",
        "name": "Annapoorneshwari Hithukida Avare Kendra"
      }
    },
    {
      "type": "node",
      "id": 5306751757,
      "lat": 12.9515978,
      "lon": 77.5773999,
      "tags": {
        "amenity": "fast_food",
        "name": "Vasavi Vaisista Thindi"
      }
    },
    {
      "type": "node",
      "id": 5306751758,
      "lat": 12.9522467,
      "lon": 77.5773751,
      "tags": {
        "name": "New Point Stationery World",
        "shop": "stationery"
      }
    },
    {
      "type": "node",
      "id": 5306751759,
      "lat": 12.9522486,
      "lon": 77.5773168,
      "tags": {
        "name": "Preethi Juice Corner",
        "shop": "beverages"
      }
    },
    {
      "type": "node",
      "id": 5306751760,
      "lat": 12.9523571,
      "lon": 77.5773644,
      "tags": {
        "amenity": "school",
        "level": "1",
        "name": "Raghav's Coaching Centre"
      }
    },
    {
      "type": "node",
      "id": 5306751761,
      "lat": 12.9523578,
      "lon": 77.5773074,
      "tags": {
        "level": "0",
        "name": "Sri Rajalakshmi Bakery and Sweets",
        "shop": "bakery"
      }
    },
    {
      "type": "node",
      "id": 5306751762,
      "lat": 12.9524087,
      "lon": 77.5773617,
      "tags": {
        "amenity": "dentist",
        "level": "1",
        "name": "All Care Dental Centre"
      }
    },
    {
      "type": "node",
      "id": 5306751763,
      "lat": 12.9524087,
      "lon": 77.5773087,
      "tags": {
        "amenity": "restaurant",
        "name": "Sri Krishna Darshini"
      }
    },
    {
      "type": "node",
      "id": 5306751768,
      "lat": 12.952479,
      "lon": 77.5774381,
      "tags": {
        "amenity": "bank",
        "brand": "Kotak Mahindra Bank",
        "brand:wikidata": "Q2040404",
        "level": "1",
        "name": "Kotak Mahindra Bank",
        "name:kn": "ಕೋಟಕ್ ಮಹಿಂದ್ರ ಬ್ಯಾಂಕ್"
      }
    },
    {
      "type": "node",
      "id": 5306751771,
      "lat": 12.9524904,
      "lon": 77.5773248,
      "tags": {
        "amenity": "pharmacy",
        "level": "0",
        "name": "Nagashri Medicals"
      }
    },
    {
      "type": "node",
      "id": 5306751772,
      "lat": 12.9525453,
      "lon": 77.5773261,
      "tags": {
        "level": "0",
        "name": "Fudge",
        "shop": "chocolate"
      }
    },
    {
      "type": "node",
      "id": 5306751773,
      "lat": 12.9526492,
      "lon": 77.5773228,
      "tags": {
        "name": "Ramesh Nethralaya",
        "shop": "optician"
      }
    },
    {
      "type": "node",
      "id": 5306751774,
      "lat": 12.9526192,
      "lon": 77.5773778,
      "tags": {
        "name": "The United Dental Supply Co.",
        "shop": "medical_supply"
      }
    },
    {
      "type": "node",
      "id": 5306751775,
      "lat": 12.9527054,
      "lon": 77.5772946,
      "tags": {
        "level": "0",
        "name": "Shri Vasanth Coffee Works",
        "shop": "coffee"
      }
    },
    {
      "type": "node",
      "id": 5306751780,
      "lat": 12.9528048,
      "lon": 77.5773704,
      "tags": {
        "level": "0",
        "name": "Shimla Dry Cleaners",
        "shop": "dry_cleaning"
      }
    },
    {
      "type": "node",
      "id": 5306751781,
      "lat": 12.9527603,
      "lon": 77.5773221,
      "tags": {
        "level": "0",
        "name": "Sri Sai Electricals",
        "shop": "electrical"
      }
    },
    {
      "type": "node",
      "id": 5306751782,
      "lat": 12.9527838,
      "lon": 77.5773469,
      "tags": {
        "level": "0",
        "name": "Laxmi Home Needs",
        "shop": "convenience"
      }
    },
    {
      "type": "node",
      "id": 5306751785,
      "lat": 12.9528329,
      "lon": 77.5773999,
      "tags": {
        "level": "0",
        "name": "Vardhaman Fashions",
        "shop": "clothes"
      }
    },
    {
      "type": "node",
      "id": 5306751786,
      "lat": 12.9528597,
      "lon": 77.577424,
      "tags": {
        "level": "0",
        "name": "New Omega Seat Covers",
        "shop": "car_parts"
      }
    },
    {
      "type": "node",
      "id": 5306751787,
      "lat": 12.9528897,
      "lon": 77.5774489,
      "tags": {
        "level": "0",
        "name": "Sree Padmavathi Collections",
        "shop": "dairy"
      }
    },
    {
      "type": "node",
      "id": 5306751788,
      "lat": 12.9529139,
      "lon": 77.5774723,
      "tags": {
        "level": "0",
        "name": "V Fashion",
        "shop": "clothes"
      }
    },
    {
      "type": "node",
      "id": 5306751789,
      "lat": 12.9529361,
      "lon": 77.5774938,
      "tags": {
        "level": "0",
        "name": "Kuberan Ladies Designer",
        "shop": "tailor"
      }
    },
    {
      "type": "node",
      "id": 5306751790,
      "lat": 12.9529603,
      "lon": 77.5775152,
      "tags": {
        "level": "0",
        "name": "Popular Tyre Company",
        "shop": "tyres"
      }
    },
    {
      "type": "node",
      "id": 5306751794,
      "lat": 12.9532746,
      "lon": 77.5774911,
      "tags": {
        "name": "Rank Opticians",
        "shop": "optician"
      }
    },
    {
      "type": "node",
      "id": 5423093132,
      "lat": 12.9543375,
      "lon": 77.5755417,
      "tags": {
        "amenity": "place_of_worship",
        "denomination": "sunni",
        "name": "Masjid E A'ala",
        "religion": "muslim"
      }
    },
    {
      "type": "node",
      "id": 5423106786,
      "lat": 12.9527142,
      "lon": 77.5762337,
      "tags": {
        "amenity": "place_of_worship",
        "name": "Subramanya Swamy Temple",
        "name:kn": "ಸುಬ್ರಮಣ್ಯ ಸ್ವಾಮಿ ದೇವಸ್ಥಾನ",
        "religion": "hindu"
      }
    },
    {
      "type": "node",
      "id": 5423114340,
      "lat": 12.9517621,
      "lon": 77.5750763,
      "tags": {
        "amenity": "place_of_worship",
        "name": "Jain Temple",
        "name:kn": "ಜೈನ ದೇವಸ್ಥಾನ",
        "religion": "jain"
      }
    },
    {
      "type": "node",
      "id": 6882713296,
      "lat": 12.9566858,
      "lon": 77.5742,
      "tags": {
        "addr:city": "Bengaluru",
        "addr:district": "BENGALURU URBAN",
        "addr:full": "K. R. Road, Visveswarapuram, Near Makkala Koota Bus Stop",
        "addr:postcode": "560004",
        "addr:state": "Karnataka",
        "amenity": "blood_bank",
        "contact:mobile": "9448559664",
        "contact:phone": "8026613225",
        "fax": "9180 26712798",
        "name": "KIMS Hospital Blood Bank",
        "opening_hours": "24/7",
        "operator:type": "private",
        "source": "OpenGovernmentData",
        "website": "http://www.kimsbangalore.edu.in"
      }
    },
    {
      "type": "node",
      "id": 6938775853,
      "lat": 12.9463129,
      "lon": 77.5796349,
      "tags": {
        "addr:district": "Bengaluru Urban",
        "addr:full": "No-9/91, Govindappa Road, Basavana Gudi",
        "addr:postcode": "560004",
        "addr:state": "Karnataka",
        "amenity": "clinic",
        "healthcare": "clinic",
        "name": "Medikeris Superspecaility Ent Centre",
        "operator:type": "private",
        "source": "OpenGovernmentData",
        "website": "http://www.medikerihospital.com/"
      }
    },
    {
      "type": "node",
      "id": 6939649022,
      "lat": 12.9544587,
      "lon": 77.578733,
      "tags": {
        "addr:district": "Bengaluru Urban",
        "addr:full": "No. 4/1, Diagonal Road, Opposite To N.M.H. Hotel, V.V. Puram",
        "addr:postcode": "560004",
        "addr:state": "Karnataka",
        "amenity": "dentist",
        "name": "Shree Sai Dental Care",
        "source": "OpenGovernmentData"
      }
    },
    {
      "type": "node",
      "id": 6944128588,
      "lat": 12.9563016,
      "lon": 77.5747874,
      "tags": {
        "addr:district": "Bengaluru Urban",
        "addr:full": "K. R. Road, V. V. Puram",
        "addr:postcode": "560004",
        "addr:state": "Karnataka",
        "amenity": "hospital",
        "name": "Kims Hospital and Research Centre",
        "source": "OpenGovernmentData"
      }
    },
    {
      "type": "node",
      "id": 6944888150,
      "lat": 12.9496114,
      "lon": 77.5790786,
      "tags": {
        "addr:district": "Bengaluru Urban",
        "addr:full": "37, M.N. Krishna Rao Road, Opp Lalbagh West Gate",
        "addr:postcode": "560004",
        "addr:state": "Karnataka",
        "amenity": "hospital",
        "healthcare": "hospital",
        "name": "Jyothi The Lasik Vision Centre",
        "source": "OpenGovernmentData"
      }
    },
    {
      "type": "node",
      "id": 6948030639,
      "lat": 12.9409351,
      "lon": 77.5787075,
      "tags": {
        "addr:district": "Bengaluru Urban",
        "addr:full": "88/3, K.R.Road,Basavanagudi",
        "addr:postcode": "560004",
        "addr:state": "Karnataka",
        "amenity": "clinic",
        "name": "B.M.S. Nursing Home",
        "source": "OpenGovernmentData"
      }
    },
    {
      "type": "node",
      "id": 6948483268,
      "lat": 12.9527146,
      "lon": 77.5774026,
      "tags": {
        "addr:district": "Bengaluru Urban",
        "addr:full": "No.26, Sajjan Rao Road, V.V.Puram",
        "addr:postcode": "560004",
        "addr:state": "Karnataka",
        "amenity": "clinic",
        "name": "Ramesh Eye Clinic and Ophthalmic Microsurgical Centre",
        "source": "OpenGovernmentData"
      }
    },
    {
      "type": "node",
      "id": 6950124308,
      "lat": 12.9543465,
      "lon": 77.5755649,
      "tags": {
        "addr:district": "Bengaluru Urban",
        "addr:full": "506, Aswathankatte Road V V Puram",
        "addr:postcode": "560004",
        "addr:state": "Karnataka",
        "amenity": "hospital",
        "name": "Venkateswara Hospital, Bengaluru Urban",
        "name:kn": "ವೆಂಕಟೇಶ್ವರ ಆಸ್ಪತ್ರೆ",
        "source": "OpenGovernmentData"
      }
    },
    {
      "type": "node",
      "id": 7043198419,
      "lat": 12.9487805,
      "lon": 77.5798256,
      "tags": {
        "name": "Kamat Tourist",
        "shop": "ticket"
      }
    },
    {
      "type": "node",
      "id": 7576958021,
      "lat": 12.9479573,
      "lon": 77.5798704,
      "tags": {
        "addr:district": "Bengaluru Urban",
        "addr:full": "MN Krishna Rao Road, Basavanagudi, Bengaluru",
        "addr:postcode": "560004",
        "addr:state": "Karnataka",
        "amenity": "clinic",
        "healthcare": "clinic",
        "name": "Life is Beautiful Clinic",
        "source": "Local Knowledge"
      }
    },
    {
      "type": "node",
      "id": 7576958037,
      "lat": 12.953049,
      "lon": 77.574203,
      "tags": {
        "addr:district": "Bengaluru Urban",
        "addr:full": "S.S. Temple Street, V V Puram, Bengaluru",
        "addr:postcode": "560004",
        "addr:state": "Karnataka",
        "amenity": "hospital",
        "name": "Medcare Hospital",
        "source": "Local Knowledge"
      }
    },
    {
      "type": "node",
      "id": 7576958047,
      "lat": 12.949269,
      "lon": 77.579839,
      "tags": {
        "addr:district": "Bengaluru Urban",
        "addr:full": "RV Road, Upparahalli, Basavanagudi, Bengaluru",
        "addr:postcode": "560004",
        "addr:state": "Karnataka",
        "amenity": "clinic",
        "healthcare": "clinic",
        "name": "Srinivasa Clinic",
        "source": "Local Knowledge"
      }
    },
    {
      "type": "node",
      "id": 7576958053,
      "lat": 12.9489343,
      "lon": 77.5795464,
      "tags": {
        "addr:district": "Bengaluru Urban",
        "addr:full": "Rashtriya Vidyalaya Road, Vishweshwarapura, Basavanagudi, Bengaluru",
        "addr:postcode": "560004",
        "addr:state": "Karnataka",
        "amenity": "clinic",
        "name": "Taranatha Ayurveda Mandira",
        "source": "Local Knowledge"
      }
    },
    {
      "type": "node",
      "id": 7576958089,
      "lat": 12.9434996,
      "lon": 77.5796583,
      "tags": {
        "addr:district": "Bengaluru Urban",
        "addr:full": "Basavanagudi, Bengaluru",
        "addr:postcode": "560004",
        "addr:state": "Karnataka",
        "amenity": "hospital",
        "healthcare": "hospital",
        "name": "Trinity Hospital and Heart Foundation",
        "source": "Local Knowledge"
      }
    },
    {
      "type": "node",
      "id": 7576958111,
      "lat": 12.9487692,
      "lon": 77.5793662,
      "tags": {
        "addr:district": "Bengaluru Urban",
        "addr:full": "R.V. Road, V.V. Puram, Bengaluru",
        "addr:postcode": "560004",
        "addr:state": "Karnataka",
        "amenity": "clinic",
        "name": "Synergy Diabetes Clinic",
        "source": "Local Knowledge"
      }
    },
    {
      "type": "node",
      "id": 7576958115,
      "lat": 12.948062,
      "lon": 77.577411,
      "tags": {
        "addr:district": "Bengaluru Urban",
        "addr:full": "Vanivilas Road, Kanakapura, Visvesvarapuram, Basavanagudi, Bengaluru",
        "addr:postcode": "560004",
        "addr:state": "Karnataka",
        "amenity": "clinic",
        "healthcare": "clinic",
        "name": "Sri Sri Ayurveda Clinic",
        "source": "Local Knowledge"
      }
    },
    {
      "type": "node",
      "id": 7576958118,
      "lat": 12.9458294,
      "lon": 77.5799015,
      "tags": {
        "addr:district": "Bengaluru Urban",
        "addr:full": "Rashtriya Vidyalaya Road, Basavanagudi, Bengaluru",
        "addr:postcode": "560004",
        "addr:state": "Karnataka",
        "amenity": "hospital",
        "healthcare": "hospital",
        "name": "Dave Gray Hospital",
        "source": "Local Knowledge"
      }
    },
    {
      "type": "node",
      "id": 9531680758,
      "lat": 12.9559991,
      "lon": 77.5806662,
      "tags": {
        "amenity": "restaurant",
        "cuisine": "indian",
        "diet:non-vegetarian": "yes",
        "name": "Mayuri"
      }
    },
    {
      "type": "node",
      "id": 10202015117,
      "lat": 12.9516832,
      "lon": 77.5767383,
      "tags": {
        "amenity": "toilets"
      }
    },
    {
      "type": "node",
      "id": 10853093227,
      "lat": 12.9472886,
      "lon": 77.5798621,
      "tags": {
        "amenity": "fuel",
        "brand": "Go Gas",
        "name": "Go Gas"
      }
    },
    {
      "type": "node",
      "id": 11215990965,
      "lat": 12.9478552,
      "lon": 77.579887,
      "tags": {
        "amenity": "bench",
        "backrest": "yes",
        "material": "stone"
      }
    },
    {
      "type": "node",
      "id": 11215990966,
      "lat": 12.9478695,
      "lon": 77.5798863,
      "tags": {
        "amenity": "bench",
        "backrest": "yes",
        "material": "stone"
      }
    },
    {
      "type": "node",
      "id": 11215990973,
      "lat": 12.9475467,
      "lon": 77.5797314,
      "tags": {
        "amenity": "restaurant",
        "cuisine": "indian",
        "name": "Lalbagh Grand"
      }
    },
    {
      "type": "node",
      "id": 11215990978,
      "lat": 12.947648,
      "lon": 77.5798005,
      "tags": {
        "amenity": "ice_cream",
        "name": "Ibaco"
      }
    },
    {
      "type": "node",
      "id": 11215991026,
      "lat": 12.9458365,
      "lon": 77.576673,
      "tags": {
        "name": "Continental",
        "shop": "tyres"
      }
    },
    {
      "type": "node",
      "id": 11296585667,
      "lat": 12.9552812,
      "lon": 77.5799043,
      "tags": {
        "amenity": "waste_basket"
      }
    },
    {
      "type": "node",
      "id": 11296585668,
      "lat": 12.9554251,
      "lon": 77.5800148,
      "tags": {
        "amenity": "fast_food",
        "check_date": "2023-10-29",
        "name": "Coastrica Bar & Rest"
      }
    },
    {
      "type": "node",
      "id": 11827173636,
      "lat": 12.9477417,
      "lon": 77.5793843,
      "tags": {
        "addr:postcode": "560004",
        "amenity": "doctors",
        "check_date": "2024-04-18",
        "email": "jyothilasikvision@gmail.com",
        "healthcare": "doctor",
        "healthcare:speciality": "ophthalmology",
        "name": "Jyothi The Lasik Vision Centre",
        "opening_hours": "Mo-Sa 10:00-18:00; Su off",
        "phone": "+91 80 2656 7878; +91 80 4096 7878; +91 93800 65139",
        "website": "https://www.jyothilasik.com"
      }
    },
    {
      "type": "node",
      "id": 12000217925,
      "lat": 12.9503,
      "lon": 77.5738513,
      "tags": {
        "access": "permissive",
        "amenity": "toilets",
        "check_date": "2024-06-22",
        "female": "yes",
        "level": "1",
        "male": "yes",
        "operator": "BMRCL",
        "toilets:handwashing": "yes",
        "toilets:position": "urinal"
      }
    },
    {
      "type": "node",
      "id": 12000298579,
      "lat": 12.9464586,
      "lon": 77.5789472,
      "tags": {
        "name": "Nandini",
        "shop": "milk"
      }
    },
    {
      "type": "node",
      "id": 12000301387,
      "lat": 12.9462618,
      "lon": 77.579768,
      "tags": {
        "name": "Sree Bhagvan Traders",
        "shop": "wholesale"
      }
    },
    {
      "type": "node",
      "id": 12161153128,
      "lat": 12.9461746,
      "lon": 77.5799556,
      "tags": {
        "access": "customers",
        "amenity": "drinking_water",
        "fee": "no",
        "indoor": "yes",
        "level": "1",
        "operator": "BMRCL"
      }
    },
    {
      "type": "node",
      "id": 12541779301,
      "lat": 12.9569057,
      "lon": 77.5824398,
      "tags": {
        "amenity": "hospital",
        "name": "H Siddiah Referral Hospital"
      }
    },
    {
      "type": "node",
      "id": 12655645187,
      "lat": 12.957077,
      "lon": 77.5819551,
      "tags": {
        "amenity": "social_facility",
        "brand": "Indira Canteen",
        "cuisine": "south_indian",
        "indoor_seating": "bar_table",
        "level": "0",
        "name": "Indira Canteen",
        "opening_hours": "Mo-Su 07:30-09:30,13:00-14:30,19:30-21:30",
        "operator": "BBMP",
        "social_facility": "food_bank",
        "takeaway": "no",
        "toilets": "no",
        "wheelchair": "no"
      }
    },
    {
      "type": "node",
      "id": 12811493359,
      "lat": 12.9552932,
      "lon": 77.5800239,
      "tags": {
        "amenity": "atm",
        "name": "Kotak Mahindra Bank ATM"
      }
    },
    {
      "type": "node",
      "id": 12856900605,
      "lat": 12.9461567,
      "lon": 77.579999,
      "tags": {
        "access": "permissive",
        "addr:floor": "1",
        "amenity": "toilets",
        "female": "yes",
        "fixme": "Accurate location within station",
        "level": "1",
        "male": "yes",
        "operator": "BMRCL",
        "toilets:handwashing": "yes",
        "toilets:position": "urinal"
      }
    },
    {
      "type": "node",
      "id": 12925347034,
      "lat": 12.9548787,
      "lon": 77.5819959,
      "tags": {
        "amenity": "fast_food",
        "check_date": "2025-06-19",
        "name": "Mithai Ghar"
      }
    },
    {
      "type": "node",
      "id": 12925347035,
      "lat": 12.9548621,
      "lon": 77.5821271,
      "tags": {
        "check_date": "2025-06-19",
        "name": "National Poultry Centre",
        "shop": "butcher"
      }
    },
    {
      "type": "node",
      "id": 12925347036,
      "lat": 12.9549018,
      "lon": 77.5816313,
      "tags": {
        "check_date": "2025-06-19",
        "name": "Nakoda Jewelers",
        "shop": "jewelry"
      }
    },
    {
      "type": "node",
      "id": 13288507189,
      "lat": 12.9453221,
      "lon": 77.577083,
      "tags": {
        "amenity": "restaurant",
        "name": "Moonstone"
      }
    },
    {
      "type": "node",
      "id": 13294460164,
      "lat": 12.9446046,
      "lon": 77.5791252,
      "tags": {
        "amenity": "place_of_worship",
        "religion": "hindu"
      }
    },
    {
      "type": "way",
      "id": 36958500,
      "center": {
        "lat": 12.952325,
        "lon": 77.5768001
      },
      "tags": {
        "leisure": "park",
        "name": "Sajjan Rao Park",
        "name:etymology:wikidata": "Q55418995",
        "name:kn": "ಸಜ್ಜನ ರಾವ ಉದ್ಯಾನವನ"
      }
    },
    {
      "type": "way",
      "id": 36965410,
      "center": {
        "lat": 12.9566385,
        "lon": 77.5819567
      },
      "tags": {
        "access": "yes",
        "amenity": "parking",
        "building": "yes",
        "fee": "yes",
        "lit": "yes",
        "name": "BBMP JC road multi level car and bike parking",
        "opening_hours": "24/7",
        "operator": "BBMP",
        "park_ride": "no",
        "parking": "multi-storey"
      }
    },
    {
      "type": "way",
      "id": 38751027,
      "center": {
        "lat": 12.9551191,
        "lon": 77.5745838
      },
      "tags": {
        "amenity": "college"
      }
    },
    {
      "type": "way",
      "id": 40629056,
      "center": {
        "lat": 12.9511038,
        "lon": 77.5739205
      },
      "tags": {
        "leisure": "park"
      }
    },
    {
      "type": "way",
      "id": 133115272,
      "center": {
        "lat": 12.9486891,
        "lon": 77.5756679
      },
      "tags": {
        "amenity": "school",
        "check_date": "2024-04-08",
        "name": "Vasavi Vidya Nikethan School",
        "name:kn": "ವಾಸವಿ ವಿದ್ಯಾನಿಕೇತನ ಶಾಲೆ"
      }
    },
    {
      "type": "way",
      "id": 150351526,
      "center": {
        "lat": 12.9543874,
        "lon": 77.5748847
      },
      "tags": {
        "alt_name": "V S Dental College",
        "amenity": "college",
        "building": "yes",
        "name": "Vokkaligara Sangha Dental College"
      }
    },
    {
      "type": "way",
      "id": 172937189,
      "center": {
        "lat": 12.9521538,
        "lon": 77.5748728
      },
      "tags": {
        "amenity": "school",
        "name": "Sajjan Rao School",
        "name:etymology:wikidata": "Q55418995",
        "name:kn": "ಸಜ್ಜನ ರಾವ ಶಾಲೆ"
      }
    },
    {
      "type": "way",
      "id": 338316411,
      "center": {
        "lat": 12.9428019,
        "lon": 77.5797641
      },
      "tags": {
        "addr:city": "Bangalore",
        "addr:postcode": "560004",
        "addr:street": "Rashtriya Vidyalaya Road",
        "building": "yes",
        "name": "Silicon Honda Service Station and Dealership",
        "shop": "motorcycle"
      }
    },
    {
      "type": "way",
      "id": 347528840,
      "center": {
        "lat": 12.9509155,
        "lon": 77.5781813
      },
      "tags": {
        "addr:postcode": "560004",
        "addr:street": "Old Market Street",
        "amenity": "place_of_worship",
        "building": "yes",
        "name": "Arya Samaja - Swami Shraddhananda Bhavana",
        "name:kn": "ಆರ್ಯ ಸಮಾಜ - ಸ್ವಾಮಿ ಶ್ರದ್ಧಾನಂದ ಭವನ",
        "religion": "hindu"
      }
    },
    {
      "type": "way",
      "id": 347528875,
      "center": {
        "lat": 12.9506642,
        "lon": 77.5778323
      },
      "tags": {
        "amenity": "school",
        "building": "school",
        "name": "Sree Saraswathi Vidya Mandira",
        "name:kn": "ಶ್ರೀ ಸರಸ್ವತಿ ವಿದ್ಯಾ ಮಂದಿರ"
      }
    },
    {
      "type": "way",
      "id": 347528939,
      "center": {
        "lat": 12.95134,
        "lon": 77.577216
      },
      "tags": {
        "amenity": "place_of_worship",
        "building": "yes",
        "name": "Valmiki Sri Anjaneya Temple",
        "name:kn": "ವಾಲ್ಮೀಕಿ ಶ್ರೀ ಆಂಜನೇಯ ದೇವಸ್ಥಾನ",
        "religion": "hindu"
      }
    },
    {
      "type": "way",
      "id": 347533983,
      "center": {
        "lat": 12.9520621,
        "lon": 77.5774153
      },
      "tags": {
        "amenity": "place_of_worship",
        "building": "yes",
        "name": "Kota Venkataramana Swamy Temple",
        "name:ko": "코타 벤카타라마나 스와미 템플",
        "religion": "hindu"
      }
    },
    {
      "type": "way",
      "id": 351633147,
      "center": {
        "lat": 12.952713,
        "lon": 77.5761998
      },
      "tags": {
        "addr:city": "Bengaluru",
        "addr:postcode": "560004",
        "addr:street": "Sajjan Rao Circle",
        "amenity": "place_of_worship",
        "building": "yes",
        "religion": "hindu"
      }
    },
    {
      "type": "way",
      "id": 363142561,
      "center": {
        "lat": 12.958053,
        "lon": 77.5805763
      },
      "tags": {
        "leisure": "park",
        "name": "Journalist Colony Garden"
      }
    },
    {
      "type": "way",
      "id": 549373062,
      "center": {
        "lat": 12.9529953,
        "lon": 77.5771085
      },
      "tags": {
        "brand": "HOPCOMS",
        "brand:wikidata": "Q22908959",
        "name": "HOPCOMS",
        "name:kn": "ಹಾಪ್ ಕಾಮ್ಸ್",
        "shop": "greengrocer"
      }
    },
    {
      "type": "way",
      "id": 562561061,
      "center": {
        "lat": 12.954538,
        "lon": 77.5776485
      },
      "tags": {
        "leisure": "park"
      }
    },
    {
      "type": "way",
      "id": 688824197,
      "center": {
        "lat": 12.9557902,
        "lon": 77.5807763
      },
      "tags": {
        "amenity": "fuel",
        "brand": "Hindustan Petroleum",
        "brand:wikidata": "Q1619375",
        "brand:wikipedia": "en:Hindustan Petroleum",
        "name": "Hindustan Petroleum",
        "name:kn": "ಹಿಂದುಸ್ತಾನ್ ಪೆಟ್ರೋಲಿಯಂ",
        "official_name": "Hindustan Petroleum"
      }
    },
    {
      "type": "way",
      "id": 977371897,
      "center": {
        "lat": 12.950672,
        "lon": 77.577026
      },
      "tags": {
        "amenity": "place_of_worship",
        "building": "temple",
        "denomination": "swethambar",
        "name": "Simandhar Swami Shanti Suriji Dadawadi Jain Temple",
        "religion": "jain"
      }
    },
    {
      "type": "way",
      "id": 1134063891,
      "center": {
        "lat": 12.9467942,
        "lon": 77.5798276
      },
      "tags": {
        "amenity": "restaurant",
        "building": "yes"
      }
    },
    {
      "type": "way",
      "id": 1167155057,
      "center": {
        "lat": 12.943176,
        "lon": 77.5797756
      },
      "tags": {
        "amenity": "fuel",
        "brand": "Total",
        "brand:wikidata": "Q154037",
        "name": "Total"
      }
    },
    {
      "type": "way",
      "id": 1210592626,
      "center": {
        "lat": 12.9473878,
        "lon": 77.5797003
      },
      "tags": {
        "amenity": "fuel",
        "brand": "Gail Gas",
        "fuel:cng": "yes",
        "self_service": "no"
      }
    },
    {
      "type": "way",
      "id": 1301985510,
      "center": {
        "lat": 12.9546705,
        "lon": 77.574485
      },
      "tags": {
        "access": "permissive",
        "amenity": "parking",
        "parking": "surface"
      }
    },
    {
      "type": "way",
      "id": 1301985511,
      "center": {
        "lat": 12.955734,
        "lon": 77.5744596
      },
      "tags": {
        "access": "permissive",
        "amenity": "parking",
        "parking": "surface"
      }
    },
    {
      "type": "way",
      "id": 1312140915,
      "center": {
        "lat": 12.9561783,
        "lon": 77.5768519
      },
      "tags": {
        "amenity": "fuel"
      }
    },
    {
      "type": "way",
      "id": 1396547228,
      "center": {
        "lat": 12.9546653,
        "lon": 77.5796194
      },
      "tags": {
        "amenity": "school",
        "name": "Karnataka Public School"
      }
    }
  ]
}