{
  "area_name": "Vaishnavi Layout",
  "osm_id": 12794021936,
  "osm_type": "node",
  "place_type": "neighbourhood",
  "amenity_count": 240,
  "amenities": [
    {
      "type": "node",
      "id": 1462230328,
      "lat": 13.0815389,
      "lon": 77.5475289,
      "tags": {
        "amenity": "place_of_worship",
        "name": "Noorani Masjid",
        "name:kn": "ನೂರಾನಿ ಮಸೀದಿ",
        "religion": "muslim"
      }
    },
    {
      "type": "node",
      "id": 1462231357,
      "lat": 13.0813926,
      "lon": 77.5483765,
      "tags": {
        "amenity": "pharmacy",
        "dispensing": "yes",
        "name": "MedPlus Pharmacy"
      }
    },
    {
      "type": "node",
      "id": 1462232206,
      "lat": 13.0806193,
      "lon": 77.5482263,
      "tags": {
        "amenity": "hospital",
        "name": "London Hospital"
      }
    },
    {
      "type": "node",
      "id": 1463452754,
      "lat": 13.0829889,
      "lon": 77.5489026,
      "tags": {
        "addr:district": "Bengaluru Urban",
        "addr:full": "M S Palya, Bharath Nagar,Hesaraghatta Main Road,Vidyaranyapura Post",
        "addr:postcode": "560097",
        "addr:state": "Karnataka",
        "amenity": "hospital",
        "name": "Nagappa Hadli Hospital",
        "name:kn": "ನಾಗಪ್ಪ ಹದ್ಲಿ",
        "source": "OpenGovernmentData"
      }
    },
    {
      "type": "node",
      "id": 1463453140,
      "lat": 13.0827434,
      "lon": 77.5484962,
      "tags": {
        "amenity": "pharmacy",
        "dispensing": "yes",
        "name": "Maruti Medicals"
      }
    },
    {
      "type": "node",
      "id": 1463453722,
      "lat": 13.0816565,
      "lon": 77.5480509,
      "tags": {
        "name": "City Lights Supermarket",
        "shop": "supermarket"
      }
    },
    {
      "type": "node",
      "id": 1463455209,
      "lat": 13.0813456,
      "lon": 77.5482816,
      "tags": {
        "amenity": "atm",
        "brand": "State Bank of India",
        "brand:wikidata": "Q1340361",
        "operator": "State Bank of India",
        "operator:wikidata": "Q1340361",
        "short_name": "SBI"
      }
    },
    {
      "type": "node",
      "id": 1463623742,
      "lat": 13.0813561,
      "lon": 77.5597829,
      "tags": {
        "amenity": "atm",
        "brand": "ICICI Bank",
        "brand:wikidata": "Q1653258",
        "name": "ICICI Bank",
        "operator": "ICICI Bank",
        "operator:wikidata": "Q1653258",
        "short_name": "ICICI"
      }
    },
    {
      "type": "node",
      "id": 1463624305,
      "lat": 13.0803293,
      "lon": 77.5591419,
      "tags": {
        "brand": "Reliance Fresh",
        "brand:wikidata": "Q7311014",
        "name": "Reliance Fresh",
        "name:kn": "ರಿಲಾಯನ್ಸ್ ಫ್ರೆಶ್",
        "shop": "supermarket"
      }
    },
    {
      "type": "node",
      "id": 1463640923,
      "lat": 13.0797112,
      "lon": 77.5591265,
      "tags": {
        "addr:city": "Bangalore",
        "addr:postcode": "560097",
        "addr:street": "Vidyaranyapura Road",
        "alt_name": "A2B",
        "amenity": "restaurant",
        "brand": "Adyar Ananda Bhavan",
        "brand:wikidata": "Q15178238",
        "cuisine": "regional",
        "diet:vegetarian": "only",
        "name": "Adyar Ananda Bhavan",
        "name:kn": "ಆದ್ಯಾರ್ ಆನಂದ ಭವನ",
        "operator": "Adyar Ananda Bhavan",
        "phone": "+91 99029 90811",
        "smoking": "no",
        "website": "https://aabsweets.com"
      }
    },
    {
      "type": "node",
      "id": 1463641277,
      "lat": 13.0790883,
      "lon": 77.5588656,
      "tags": {
        "name": "Food World",
        "shop": "supermarket"
      }
    },
    {
      "type": "node",
      "id": 1463642683,
      "lat": 13.0775498,
      "lon": 77.5587667,
      "tags": {
        "amenity": "restaurant",
        "name": "Sri Krishna Upahar",
        "name:kn": "ಶ್ರೀ ಕೃಷ್ಣ ಉಪಹಾರ"
      }
    },
    {
      "type": "node",
      "id": 1463643684,
      "lat": 13.0767862,
      "lon": 77.558223,
      "tags": {
        "amenity": "bank",
        "atm": "yes",
        "brand:wikidata": "Q1340361",
        "brand:wikipedia": "en:State Bank of India",
        "name": "State Bank of India",
        "name:kn": "ಭಾರತೀಯ ಸ್ಟೇಟ್ ಬ್ಯಾಂಕ್",
        "short_name": "SBI",
        "website": "https://www.sbi.co.in"
      }
    },
    {
      "type": "node",
      "id": 1463643963,
      "lat": 13.0769096,
      "lon": 77.558535,
      "tags": {
        "name": "Mythri Bazaar",
        "shop": "convenience"
      }
    },
    {
      "type": "node",
      "id": 1463644516,
      "lat": 13.0757912,
      "lon": 77.5577739,
      "tags": {
        "amenity": "post_office",
        "name": "Vidyaranyapura",
        "name:kn": "ವಿದ್ಯಾರಣ್ಯಪುರ"
      }
    },
    {
      "type": "node",
      "id": 1463645024,
      "lat": 13.0757025,
      "lon": 77.558427,
      "tags": {
        "amenity": "bank",
        "atm": "yes",
        "brand": "Syndicate Bank",
        "brand:wikidata": "Q2004088",
        "name": "Syndicate Bank",
        "name:en": "Syndicate Bank",
        "name:kn": "ಸಿಂಡಿಕೇಟ್ ಬ್ಯಾಂಕ್",
        "website": "https://www.syndicatebank.in",
        "wikimedia_commons": "Category:Syndicate Bank"
      }
    },
    {
      "type": "node",
      "id": 1463645518,
      "lat": 13.0753105,
      "lon": 77.5579778,
      "tags": {
        "amenity": "cafe",
        "name": "Cafe Coffee Day",
        "name:kn": "ಕಫೆ ಕಾಫಿ ಡೇ"
      }
    },
    {
      "type": "node",
      "id": 1463786356,
      "lat": 13.0823148,
      "lon": 77.5483971,
      "tags": {
        "amenity": "atm",
        "fee": "HDFC"
      }
    },
    {
      "type": "node",
      "id": 1463790590,
      "lat": 13.0721308,
      "lon": 77.5492982,
      "tags": {
        "amenity": "school",
        "name": "Air Force School"
      }
    },
    {
      "type": "node",
      "id": 1463790763,
      "lat": 13.0730662,
      "lon": 77.5463531,
      "tags": {
        "amenity": "bank",
        "atm": "yes",
        "brand:wikidata": "Q1340361",
        "brand:wikipedia": "en:State Bank of India",
        "name": "State Bank of India",
        "name:kn": "ಭಾರತೀಯ ಸ್ಟೇಟ್ ಬ್ಯಾಂಕ್",
        "short_name": "SBI"
      }
    },
    {
      "type": "node",
      "id": 1463791267,
      "lat": 13.0721909,
      "lon": 77.5464364,
      "tags": {
        "amenity": "theatre",
        "name": "Air Force Theatre"
      }
    },
    {
      "type": "node",
      "id": 2335438253,
      "lat": 13.0712887,
      "lon": 77.5560963,
      "tags": {
        "amenity": "bank",
        "atm": "yes",
        "brand": "ICICI Bank",
        "brand:wikidata": "Q1653258",
        "name": "ICICI Bank",
        "name:en": "ICICI Bank",
        "name:kn": "ಐಸಿಐಸಿಐ ಬ್ಯಾಂಕು",
        "short_name": "ICICI",
        "website": "https://www.icicibank.com"
      }
    },
    {
      "type": "node",
      "id": 2335438254,
      "lat": 13.0722173,
      "lon": 77.5561443,
      "tags": {
        "amenity": "bar",
        "check_date": "2025-04-22",
        "name": "Shiva Bar and Restaurant"
      }
    },
    {
      "type": "node",
      "id": 2335438255,
      "lat": 13.0721802,
      "lon": 77.5565373,
      "tags": {
        "amenity": "bank",
        "atm": "yes",
        "brand": "Canara Bank",
        "brand:pa": "ਕੇਨਰਾ ਬੈਂਕ",
        "brand:ur": "کینرا بینک",
        "brand:wikidata": "Q2003777",
        "brand:wikipedia": "en:Canara Bank",
        "brand:wikipedia:pa": "ਕੇਨਰਾ ਬੈਂਕ",
        "name": "Canara Bank",
        "name:kn": "ಕೆನರಾ ಬ್ಯಾಂಕ್",
        "name:pa": "ਕੇਨਰਾ ਬੈਂਕ",
        "name:ur": "کینرا بینک",
        "website": "https://www.canarabank.com/"
      }
    },
    {
      "type": "node",
      "id": 2335438256,
      "lat": 13.0724465,
      "lon": 77.556674,
      "tags": {
        "amenity": "restaurant",
        "check_date": "2025-04-22",
        "diet:vegetarian": "yes",
        "name": "Pakashala"
      }
    },
    {
      "type": "node",
      "id": 2335452268,
      "lat": 13.0763182,
      "lon": 77.5569872,
      "tags": {
        "amenity": "school",
        "name": "Little Lilly's chool"
      }
    },
    {
      "type": "node",
      "id": 2337745748,
      "lat": 13.0725169,
      "lon": 77.5564198,
      "tags": {
        "amenity": "atm",
        "brand": "IndusInd Bank",
        "brand:wikidata": "Q2040323",
        "name": "Indus Ind Bank ATM",
        "name:kn": "ಐಯ್ಯಂಗಾರ್ ಬೇಕರಿ",
        "operator": "IndusInd Bank",
        "operator:wikidata": "Q2040323"
      }
    },
    {
      "type": "node",
      "id": 2340693306,
      "lat": 13.0701469,
      "lon": 77.5555323,
      "tags": {
        "amenity": "bank",
        "atm": "yes",
        "brand": "Bank of India",
        "brand:wikidata": "Q2004439",
        "brand:wikipedia": "en:Bank of India",
        "name": "Bank of India",
        "name:en": "Bank of India",
        "short_name": "BoI",
        "website": "http://www.bankofindia.co.in"
      }
    },
    {
      "type": "node",
      "id": 2342910389,
      "lat": 13.0753507,
      "lon": 77.5580493,
      "tags": {
        "amenity": "fast_food",
        "brand": "Beijing Bites",
        "brand:wikidata": "Q124374289",
        "cuisine": "chinese",
        "delivery": "yes",
        "name": "Beijing Bites",
        "name:kn": "ಬೀಜಿಂಗ್ ಬೈಟ್ಸ್",
        "takeaway": "yes"
      }
    },
    {
      "type": "node",
      "id": 2343099977,
      "lat": 13.0774744,
      "lon": 77.5587548,
      "tags": {
        "addr:district": "Bengaluru Urban",
        "addr:full": "17, Nti Layout, Vidyaranyapura",
        "addr:postcode": "560097",
        "addr:state": "Karnataka",
        "amenity": "hospital",
        "healthcare": "hospital",
        "name": "Soukya Hospital",
        "source": "OpenGovernmentData"
      }
    },
    {
      "type": "node",
      "id": 2343099978,
      "lat": 13.0770166,
      "lon": 77.5585772,
      "tags": {
        "amenity": "bank",
        "atm": "yes",
        "brand": "HDFC Bank",
        "brand:wikidata": "Q631047",
        "brand:wikipedia": "en:HDFC Bank",
        "name": "HDFC Bank",
        "name:kn": "ಎಚ್ ಡಿ ಎಫ್ ಸಿ",
        "short_name": "HDFC",
        "website": "https://www.hdfcbank.com"
      }
    },
    {
      "type": "node",
      "id": 2343101606,
      "lat": 13.0703574,
      "lon": 77.5556092,
      "tags": {
        "brand": "Just Bake",
        "brand:wikidata": "Q124374121",
        "delivery": "yes",
        "name": "Just Bake",
        "name:kn": "ಜಸ್ಟ್ ಬೇಕ್",
        "shop": "pastry",
        "takeaway": "yes"
      }
    },
    {
      "type": "node",
      "id": 2344097516,
      "lat": 13.0814716,
      "lon": 77.559567,
      "tags": {
        "name": "Easy Day",
        "shop": "supermarket"
      }
    },
    {
      "type": "node",
      "id": 2349466963,
      "lat": 13.0754182,
      "lon": 77.5577982,
      "tags": {
        "amenity": "atm",
        "name": "ING Bank"
      }
    },
    {
      "type": "node",
      "id": 2351851714,
      "lat": 13.0795306,
      "lon": 77.5590352,
      "tags": {
        "amenity": "bank",
        "atm": "yes",
        "brand": "Karnataka Bank",
        "brand:wikidata": "Q2042632",
        "name": "Karnataka Bank",
        "name:kn": "ಕರ್ನಾಟಕ ಬ್ಯಾಂಕ್"
      }
    },
    {
      "type": "node",
      "id": 2351851719,
      "lat": 13.0782069,
      "lon": 77.558981,
      "tags": {
        "amenity": "atm",
        "name": "DCB Bank"
      }
    },
    {
      "type": "node",
      "id": 2351851722,
      "lat": 13.0785089,
      "lon": 77.5590898,
      "tags": {
        "amenity": "bank",
        "atm": "yes",
        "brand:wikidata": "Q2003611",
        "brand:wikipedia": "en:Indian Overseas Bank",
        "name": "Indian Overseas Bank",
        "name:en": "Indian Overseas Bank",
        "short_name": "IOB",
        "website": "https://www.iob.in"
      }
    },
    {
      "type": "node",
      "id": 2351851726,
      "lat": 13.0789222,
      "lon": 77.5592094,
      "tags": {
        "amenity": "library",
        "name": "Just Books CLC"
      }
    },
    {
      "type": "node",
      "id": 2351851729,
      "lat": 13.0788692,
      "lon": 77.5591795,
      "tags": {
        "amenity": "fast_food",
        "brand": "Domino's",
        "brand:ks": "ڈومینوز",
        "brand:pa": "ਡੋਮੀਨੋਜ਼",
        "brand:ur": "ڈومینوز",
        "brand:wikidata": "Q839466",
        "brand:wikipedia": "en:Domino's Pizza",
        "cuisine": "pizza",
        "name": "Domino's",
        "name:kn": "ಡಾಮಿನೋಸ್",
        "name:ks": "ڈومینوز",
        "name:pa": "ਡੋਮੀਨੋਜ਼",
        "name:ur": "ڈومینوز"
      }
    },
    {
      "type": "node",
      "id": 2351894384,
      "lat": 13.0812236,
      "lon": 77.5594805,
      "tags": {
        "amenity": "bank",
        "atm": "no",
        "brand": "Corporation Bank",
        "brand:wikidata": "Q2003387",
        "brand:wikipedia": "en:Corporation Bank",
        "name": "Corporation Bank",
        "name:en": "Corporation Bank",
        "name:kn": "ಕಾರ್ಪರೇಷನ್ ಬ್ಯಾಂಕ್",
        "website": "https://corpbank.com/"
      }
    },
    {
      "type": "node",
      "id": 2353259146,
      "lat": 13.0802741,
      "lon": 77.5594981,
      "tags": {
        "amenity": "library",
        "name": "City Central Library",
        "name:kn": "ಕೇಂದ್ರಿಯ ಗ್ರಂಥಾಲಯ"
      }
    },
    {
      "type": "node",
      "id": 4469903721,
      "lat": 13.0788541,
      "lon": 77.5591782,
      "tags": {
        "addr:city": "Bangalore",
        "addr:postcode": "560097",
        "addr:street": "Vidyaranyapura Road",
        "amenity": "cafe",
        "cuisine": "pastry",
        "internet_access": "no",
        "name": "Amma's Pastry"
      }
    },
    {
      "type": "node",
      "id": 4489712082,
      "lat": 13.0713707,
      "lon": 77.5561124,
      "tags": {
        "addr:city": "bangalore",
        "addr:housenumber": "969",
        "addr:postcode": "560097",
        "addr:street": "kempaiah complex, 4th mian bel lyout, Vidyaranyapura",
        "leisure": "sports_centre",
        "name": "Cosmos Fitness 365",
        "opening_hours": "05:00-10:00",
        "phone": "(91)-80-33531618",
        "sport": "gymnastics"
      }
    },
    {
      "type": "node",
      "id": 7227496251,
      "lat": 13.0817003,
      "lon": 77.5486667,
      "tags": {
        "name": "Cloud 8",
        "shop": "clothes"
      }
    },
    {
      "type": "node",
      "id": 7227496252,
      "lat": 13.0820883,
      "lon": 77.5486372,
      "tags": {
        "amenity": "fast_food",
        "name": "Oyalo Pizza"
      }
    },
    {
      "type": "node",
      "id": 7227496253,
      "lat": 13.0823012,
      "lon": 77.5490677,
      "tags": {
        "name": "Sangeetha",
        "name:kn": "ಸಂಗೀತ",
        "shop": "electronics"
      }
    },
    {
      "type": "node",
      "id": 7227496270,
      "lat": 13.0825154,
      "lon": 77.550201,
      "tags": {
        "name": "Red Rose Furnitures",
        "shop": "furniture"
      }
    },
    {
      "type": "node",
      "id": 7227496271,
      "lat": 13.0845049,
      "lon": 77.5527571,
      "tags": {
        "amenity": "bank",
        "atm": "yes",
        "brand": "State Bank of India",
        "brand:wikidata": "Q1340361",
        "name": "State Bank of India",
        "name:kn": "ಭಾರತೀಯ ಸ್ಟೇಟ್ ಬ್ಯಾಂಕ್",
        "operator": "State Bank of India",
        "short_name": "SBI"
      }
    },
    {
      "type": "node",
      "id": 7227496273,
      "lat": 13.0852599,
      "lon": 77.5541224,
      "tags": {
        "brand": "Toyota",
        "name": "Toyota",
        "shop": "car"
      }
    },
    {
      "type": "node",
      "id": 7577248179,
      "lat": 13.072736,
      "lon": 77.556482,
      "tags": {
        "addr:district": "Bengaluru Urban",
        "addr:full": "BEL Layout, Vidyaranyapura, Bengaluru",
        "addr:postcode": "560097",
        "addr:state": "Karnataka",
        "amenity": "clinic",
        "name": "Shekar Super Speciality Eye Centre",
        "source": "Local Knowledge"
      }
    },
    {
      "type": "node",
      "id": 7577248183,
      "lat": 13.083354,
      "lon": 77.553461,
      "tags": {
        "addr:district": "Bengaluru Urban",
        "addr:full": "Vidyaranyapura, Bengaluru",
        "addr:postcode": "560097",
        "addr:state": "Karnataka",
        "amenity": "clinic",
        "name": "Shama Charitable Clinic",
        "source": "Local Knowledge"
      }
    },
    {
      "type": "node",
      "id": 7577248187,
      "lat": 13.0754731,
      "lon": 77.5581028,
      "tags": {
        "addr:district": "Bengaluru Urban",
        "addr:full": "Vidyaranyapura, Bengaluru",
        "addr:postcode": "560097",
        "addr:state": "Karnataka",
        "amenity": "clinic",
        "name": "Anugraha Children's Clinic",
        "source": "Local Knowledge"
      }
    },
    {
      "type": "node",
      "id": 7577248190,
      "lat": 13.0817852,
      "lon": 77.5476581,
      "tags": {
        "addr:district": "Bengaluru Urban",
        "addr:full": "Vinayak Nagar, Vidyaranyapura, Bengaluru",
        "addr:postcode": "560097",
        "addr:state": "Karnataka",
        "amenity": "clinic",
        "name": "Om Sai Clinic",
        "source": "Local Knowledge"
      }
    },
    {
      "type": "node",
      "id": 7577248191,
      "lat": 13.0825795,
      "lon": 77.5546587,
      "tags": {
        "addr:district": "Bengaluru Urban",
        "addr:full": "Raghavendra Colony, Vidyaranyapura, Bengaluru",
        "addr:postcode": "560097",
        "addr:state": "Karnataka",
        "amenity": "clinic",
        "name": "Rishi Acupuncture Clinic",
        "source": "Local Knowledge"
      }
    },
    {
      "type": "node",
      "id": 7577248201,
      "lat": 13.0769985,
      "lon": 77.5581801,
      "tags": {
        "addr:district": "Bengaluru Urban",
        "addr:full": "Vidyaranyapura, Bengaluru",
        "addr:postcode": "560097",
        "addr:state": "Karnataka",
        "amenity": "clinic",
        "name": "Bangalore Healthcare Centre",
        "source": "Local Knowledge"
      }
    },
    {
      "type": "node",
      "id": 7577248206,
      "lat": 13.0810569,
      "lon": 77.5597552,
      "tags": {
        "addr:district": "Bengaluru Urban",
        "addr:full": "Vidyaranyapura, Bengaluru",
        "addr:postcode": "560097",
        "addr:state": "Karnataka",
        "amenity": "dentist",
        "name": "Partha Dental Clinic",
        "source": "Local Knowledge"
      }
    },
    {
      "type": "node",
      "id": 7577248209,
      "lat": 13.0832219,
      "lon": 77.5484278,
      "tags": {
        "addr:district": "Bengaluru Urban",
        "addr:full": "Vidyaranyapura, Bengaluru",
        "addr:postcode": "560097",
        "addr:state": "Karnataka",
        "amenity": "clinic",
        "name": "Honey Homeopathy Clinic",
        "source": "Local Knowledge"
      }
    },
    {
      "type": "node",
      "id": 7577248213,
      "lat": 13.0813479,
      "lon": 77.5483953,
      "tags": {
        "addr:district": "Bengaluru Urban",
        "addr:full": "Vidyaranyapura, Bengaluru",
        "addr:postcode": "560097",
        "addr:state": "Karnataka",
        "amenity": "clinic",
        "name": "Global Health Centre",
        "source": "Local Knowledge"
      }
    },
    {
      "type": "node",
      "id": 7577248215,
      "lat": 13.079901,
      "lon": 77.554396,
      "tags": {
        "addr:district": "Bengaluru Urban",
        "addr:full": "Balaji Layout, Vidyaranyapura, Bengaluru",
        "addr:postcode": "560097",
        "addr:state": "Karnataka",
        "amenity": "clinic",
        "name": "Oskas Clinic",
        "source": "Local Knowledge"
      }
    },
    {
      "type": "node",
      "id": 7577248220,
      "lat": 13.0847291,
      "lon": 77.5522358,
      "tags": {
        "addr:district": "Bengaluru Urban",
        "addr:full": "Chikkabettahalli, Adityanagar, Vidyaranyapura, Bengaluru",
        "addr:postcode": "560097",
        "addr:state": "Karnataka",
        "amenity": "clinic",
        "name": "Sarwari Poly Clinic",
        "source": "Local Knowledge"
      }
    },
    {
      "type": "node",
      "id": 7577248223,
      "lat": 13.0732835,
      "lon": 77.5540883,
      "tags": {
        "addr:district": "Bengaluru Urban",
        "addr:full": "BEL Layout , Vidyaranyapura, Bengaluru",
        "addr:postcode": "560097",
        "addr:state": "Karnataka",
        "amenity": "clinic",
        "name": "Dr. Josephs Holistic Health Care Clinic",
        "source": "Local Knowledge"
      }
    },
    {
      "type": "node",
      "id": 7577248226,
      "lat": 13.0722197,
      "lon": 77.5547945,
      "tags": {
        "addr:district": "Bengaluru Urban",
        "addr:full": "BEL Layout, Jalahalli East, Bengaluru",
        "addr:postcode": "560097",
        "addr:state": "Karnataka",
        "amenity": "clinic",
        "name": "Radhika clinic",
        "source": "Local Knowledge"
      }
    },
    {
      "type": "node",
      "id": 7577248229,
      "lat": 13.0779282,
      "lon": 77.559589,
      "tags": {
        "addr:district": "Bengaluru Urban",
        "addr:full": "Vidyaranyapura, Bengaluru",
        "addr:postcode": "560097",
        "addr:state": "Karnataka",
        "amenity": "clinic",
        "healthcare": "clinic",
        "name": "Ortho Care Clinic",
        "source": "Local Knowledge"
      }
    },
    {
      "type": "node",
      "id": 7577248230,
      "lat": 13.0689228,
      "lon": 77.5572213,
      "tags": {
        "addr:district": "Bengaluru Urban",
        "addr:full": "Vidyaranyapura, Bengaluru",
        "addr:postcode": "560097",
        "addr:state": "Karnataka",
        "amenity": "clinic",
        "name": "Revive Skin and Hair Clinic",
        "source": "Local Knowledge"
      }
    },
    {
      "type": "node",
      "id": 7577248237,
      "lat": 13.0799891,
      "lon": 77.5595232,
      "tags": {
        "addr:district": "Bengaluru Urban",
        "addr:full": "Vidyaranyapura, Bengaluru",
        "addr:postcode": "560097",
        "addr:state": "Karnataka",
        "amenity": "dentist",
        "name": "SDM Dental clinic",
        "source": "Local Knowledge"
      }
    },
    {
      "type": "node",
      "id": 7577248242,
      "lat": 13.0705041,
      "lon": 77.555381,
      "tags": {
        "addr:district": "Bengaluru Urban",
        "addr:full": "BEL Layout, Vidyaranyapura, Bengaluru",
        "addr:postcode": "560097",
        "addr:state": "Karnataka",
        "amenity": "clinic",
        "healthcare": "clinic",
        "name": "Spandana Clinic",
        "source": "Local Knowledge"
      }
    },
    {
      "type": "node",
      "id": 7577248247,
      "lat": 13.0702809,
      "lon": 77.555649,
      "tags": {
        "addr:district": "Bengaluru Urban",
        "addr:full": "Vidyaranyapura, Bengaluru",
        "addr:postcode": "560097",
        "addr:state": "Karnataka",
        "amenity": "dentist",
        "name": "Clove Dental",
        "source": "Local Knowledge"
      }
    },
    {
      "type": "node",
      "id": 7577248249,
      "lat": 13.07827,
      "lon": 77.5605008,
      "tags": {
        "addr:district": "Bengaluru Urban",
        "addr:full": "HMT Layout, Vidyaranyapura, Bengaluru",
        "addr:postcode": "560097",
        "addr:state": "Karnataka",
        "amenity": "clinic",
        "healthcare": "clinic",
        "name": "Mangala Gowri Clinic",
        "source": "Local Knowledge"
      }
    },
    {
      "type": "node",
      "id": 7577248259,
      "lat": 13.0819154,
      "lon": 77.5489331,
      "tags": {
        "addr:district": "Bengaluru Urban",
        "addr:full": "Vidyaranyapura, Yelahanka, Bengaluru",
        "addr:postcode": "560097",
        "addr:state": "Karnataka",
        "amenity": "clinic",
        "name": "Satish Poly Clinic",
        "source": "Local Knowledge"
      }
    },
    {
      "type": "node",
      "id": 7577248270,
      "lat": 13.0752791,
      "lon": 77.5595187,
      "tags": {
        "addr:district": "Bengaluru Urban",
        "addr:full": "Vidyaranyapura, Bengaluru",
        "addr:postcode": "560097",
        "addr:state": "Karnataka",
        "amenity": "clinic",
        "healthcare": "clinic",
        "name": "Swarnarani Clinic",
        "source": "Local Knowledge"
      }
    },
    {
      "type": "node",
      "id": 7577248271,
      "lat": 13.0708071,
      "lon": 77.5558747,
      "tags": {
        "addr:district": "Bengaluru Urban",
        "addr:full": "V.K. Arcade, Vidyaranyapura Road, Bengaluru",
        "addr:postcode": "560097",
        "addr:state": "Karnataka",
        "amenity": "dentist",
        "check_date": "2025-04-23",
        "name": "Olive Dental",
        "source": "Local Knowledge"
      }
    },
    {
      "type": "node",
      "id": 7577248273,
      "lat": 13.075606,
      "lon": 77.55955,
      "tags": {
        "addr:district": "Bengaluru Urban",
        "addr:full": "BEL Layout, Vidyaranyapura, Bengaluru",
        "addr:postcode": "560097",
        "addr:state": "Karnataka",
        "amenity": "clinic",
        "healthcare": "clinic",
        "name": "Kanive Clinic",
        "source": "Local Knowledge"
      }
    },
    {
      "type": "node",
      "id": 7577248276,
      "lat": 13.0755182,
      "lon": 77.5585689,
      "tags": {
        "addr:district": "Bengaluru Urban",
        "addr:full": "BEL Layout, Vidyaranyapura, Bengaluru",
        "addr:postcode": "560097",
        "addr:state": "Karnataka",
        "amenity": "clinic",
        "healthcare": "clinic",
        "name": "Sree Rajeshwari Homeo Clinic",
        "source": "Local Knowledge"
      }
    },
    {
      "type": "node",
      "id": 7577248283,
      "lat": 13.0712257,
      "lon": 77.5560637,
      "tags": {
        "addr:district": "Bengaluru Urban",
        "addr:full": "Chamundeswari Layout, Vidyaranyapura, Bengaluru",
        "addr:postcode": "560097",
        "addr:state": "Karnataka",
        "amenity": "clinic",
        "name": "Kempaiah Clinic",
        "source": "Local Knowledge"
      }
    },
    {
      "type": "node",
      "id": 8188038457,
      "lat": 13.0803204,
      "lon": 77.5535057,
      "tags": {
        "addr:full": "Jamia Masjid Rd, Mohammed Sab Palya, Vidyaranyapura, Bengaluru, Karnataka",
        "addr:state": "Karnataka",
        "amenity": "hospital",
        "name": "Government Hospital",
        "name:kn": "ಸರ್ಕಾರಿ ಆಸ್ಪತ್ರೆ"
      }
    },
    {
      "type": "node",
      "id": 8188038463,
      "lat": 13.0770012,
      "lon": 77.5581038,
      "tags": {
        "addr:full": "OPP HDFC BANK,VIDYARANYAPURA Main Road, Opposite HDFC Bank, Vidyaranyapura Main Road Near NTI Ground, NTI Layout, Vidyaranyapura, Bengaluru, Karnataka",
        "addr:state": "Karnataka",
        "amenity": "hospital",
        "name": "Bangalore Healthcare Center Pranav Ayurveda Hospital"
      }
    },
    {
      "type": "node",
      "id": 8188056969,
      "lat": 13.0845693,
      "lon": 77.551989,
      "tags": {
        "addr:full": "9, Yelahanka Rd, Eshwari Layout C.B Halli, Mohammed Sab Palya, Vidyaranyapura, Bengaluru, Karnataka",
        "addr:state": "Karnataka",
        "amenity": "restaurant",
        "name": "Bismillah Hotel",
        "name:kn": "ಬಿಸ್ಮಿಲ್ಲಾ"
      }
    },
    {
      "type": "node",
      "id": 8188057016,
      "lat": 13.0721671,
      "lon": 77.546269,
      "tags": {
        "addr:full": "Major Sandeep Unnikrishnan Rd, Govindayyanapalya, Jalahalli East, Bengaluru, Karnataka",
        "addr:state": "Karnataka",
        "amenity": "restaurant",
        "name": "Chilli Shots Restaurant"
      }
    },
    {
      "type": "node",
      "id": 8324005246,
      "lat": 13.0813664,
      "lon": 77.5598113,
      "tags": {
        "name": "Sangeetha Mobile Pvt. Ltd.",
        "opening_hours": "10:00-22:00",
        "shop": "mobile_phone"
      }
    },
    {
      "type": "node",
      "id": 11445466244,
      "lat": 13.0713606,
      "lon": 77.5557797,
      "tags": {
        "check_date": "2023-12-23",
        "name": "Mascot Dry Cleaners",
        "shop": "dry_cleaning"
      }
    },
    {
      "type": "node",
      "id": 11445466245,
      "lat": 13.0726452,
      "lon": 77.5564497,
      "tags": {
        "check_date": "2023-12-23",
        "name": "Pantaloons",
        "shop": "clothes"
      }
    },
    {
      "type": "node",
      "id": 11445466246,
      "lat": 13.0752074,
      "lon": 77.5576357,
      "tags": {
        "brand": "Vishal Mega Mart",
        "brand:wikidata": "Q124374377",
        "check_date": "2025-08-09",
        "name": "Vishal Mega Mart",
        "shop": "supermarket"
      }
    },
    {
      "type": "node",
      "id": 11445466250,
      "lat": 13.0770798,
      "lon": 77.558288,
      "tags": {
        "amenity": "fast_food",
        "check_date": "2023-12-23",
        "name": "Annapoorna Refreshments and Sweets"
      }
    },
    {
      "type": "node",
      "id": 11445466251,
      "lat": 13.078783,
      "lon": 77.5588275,
      "tags": {
        "check_date": "2023-12-23",
        "name": "Dharuvesh Honda",
        "shop": "motorcycle"
      }
    },
    {
      "type": "node",
      "id": 11445466254,
      "lat": 13.0816847,
      "lon": 77.5596415,
      "tags": {
        "check_date": "2023-12-23",
        "name": "Sri Murugan Vegetables and Fruits Mandi",
        "shop": "greengrocer"
      }
    },
    {
      "type": "node",
      "id": 11496080745,
      "lat": 13.0691052,
      "lon": 77.556616,
      "tags": {
        "amenity": "fast_food",
        "check_date": "2024-01-07",
        "name": "Sri Durga Veg"
      }
    },
    {
      "type": "node",
      "id": 11496080746,
      "lat": 13.069397,
      "lon": 77.5559973,
      "tags": {
        "amenity": "bank",
        "brand": "Yes Bank",
        "brand:wikidata": "Q2040394",
        "check_date": "2024-01-07",
        "name": "Yes Bank",
        "name:kn": "ಯಸ್ ಬ್ಯಾಂಕ್"
      }
    },
    {
      "type": "node",
      "id": 11496080747,
      "lat": 13.0703184,
      "lon": 77.5553198,
      "tags": {
        "brand": "Honda",
        "brand:wikidata": "Q9584",
        "check_date": "2024-01-07",
        "name": "Honda",
        "name:kn": "ಹೊಂಡ",
        "shop": "motorcycle"
      }
    },
    {
      "type": "node",
      "id": 11496080748,
      "lat": 13.0718355,
      "lon": 77.5560569,
      "tags": {
        "check_date": "2024-01-07",
        "name": "G2 Salon",
        "shop": "hairdresser"
      }
    },
    {
      "type": "node",
      "id": 11655480377,
      "lat": 13.0758637,
      "lon": 77.5594245,
      "tags": {
        "access": "private",
        "amenity": "parking",
        "layer": "-1",
        "parking": "underground"
      }
    },
    {
      "type": "node",
      "id": 11655480380,
      "lat": 13.0760544,
      "lon": 77.558943,
      "tags": {
        "access": "private",
        "amenity": "parking",
        "layer": "-1",
        "parking": "underground"
      }
    },
    {
      "type": "node",
      "id": 11655480381,
      "lat": 13.0770119,
      "lon": 77.5603692,
      "tags": {
        "access": "private",
        "amenity": "parking",
        "layer": "-1",
        "parking": "underground"
      }
    },
    {
      "type": "node",
      "id": 11750333399,
      "lat": 13.0834779,
      "lon": 77.5572231,
      "tags": {
        "amenity": "shelter",
        "shelter_type": "gazebo"
      }
    },
    {
      "type": "node",
      "id": 11751057343,
      "lat": 13.0710799,
      "lon": 77.5568622,
      "tags": {
        "amenity": "shelter",
        "shelter_type": "gazebo"
      }
    },
    {
      "type": "node",
      "id": 11932321166,
      "lat": 13.0775559,
      "lon": 77.5584635,
      "tags": {
        "check_date": "2024-05-25",
        "name": "Reliance Trends",
        "shop": "clothes"
      }
    },
    {
      "type": "node",
      "id": 11932321167,
      "lat": 13.077362,
      "lon": 77.5584342,
      "tags": {
        "check_date": "2024-05-25",
        "name": "Fast Fashion",
        "shop": "clothes"
      }
    },
    {
      "type": "node",
      "id": 11932321168,
      "lat": 13.0788455,
      "lon": 77.5588573,
      "tags": {
        "amenity": "fast_food",
        "check_date": "2024-05-25",
        "name": "Majaa Thindi"
      }
    },
    {
      "type": "node",
      "id": 11932321845,
      "lat": 13.0692664,
      "lon": 77.5561334,
      "tags": {
        "alt_name": "Kentucky Fried Chicken",
        "alt_name:en": "Kentucky Fried Chicken",
        "alt_name:hi": "केंटुकी फ्राइड चिकन",
        "alt_name:pa": "ਕੈਂਟੁਕੀ ਫ੍ਰਾਈਡ ਚਿਕਨ",
        "alt_name:pnb": "کینٹکی فرائیڈ چکن",
        "alt_name:ur": "کینٹکی فرائیڈ چکن",
        "amenity": "fast_food",
        "brand": "KFC",
        "brand:en": "KFC",
        "brand:hi": "केएफसी",
        "brand:pa": "ਕੇਐਫਸੀ",
        "brand:pnb": "کے ایف سی",
        "brand:ur": "کے ایف سی",
        "brand:wikidata": "Q524757",
        "check_date": "2024-05-25",
        "cuisine": "chicken",
        "indoor_seating": "yes",
        "name": "KFC",
        "name:en": "KFC",
        "name:hi": "केएफसी",
        "name:pa": "ਕੇਐਫਸੀ",
        "name:pnb": "کے ایف سی",
        "name:ur": "کے ایف سی",
        "outdoor_seating": "no",
        "takeaway": "yes"
      }
    },
    {
      "type": "node",
      "id": 11932321846,
      "lat": 13.0694936,
      "lon": 77.5557911,
      "tags": {
        "check_date": "2024-05-25",
        "shop": "greengrocer"
      }
    },
    {
      "type": "node",
      "id": 11932321847,
      "lat": 13.0695199,
      "lon": 77.5557104,
      "tags": {
        "check_date": "2024-05-25",
        "name": "Nandini",
        "name:kn": "ನಂದಿನಿ",
        "shop": "dairy"
      }
    },
    {
      "type": "node",
      "id": 11932360069,
      "lat": 13.0793863,
      "lon": 77.5589985,
      "tags": {
        "amenity": "ice_cream",
        "check_date": "2024-05-25",
        "name": "ibaco"
      }
    },
    {
      "type": "node",
      "id": 11932360070,
      "lat": 13.0794214,
      "lon": 77.5590078,
      "tags": {
        "amenity": "bank",
        "brand": "IDFC First Bank",
        "brand:wikidata": "Q22031467",
        "check_date": "2024-05-25",
        "name": "IDFC First Bank"
      }
    },
    {
      "type": "node",
      "id": 11932360071,
      "lat": 13.0802878,
      "lon": 77.5592291,
      "tags": {
        "check_date": "2024-05-25",
        "name": "iPlanet",
        "shop": "electronics"
      }
    },
    {
      "type": "node",
      "id": 11932360072,
      "lat": 13.0803434,
      "lon": 77.5592571,
      "tags": {
        "check_date": "2024-05-25",
        "name": "Soch",
        "shop": "clothes"
      }
    },
    {
      "type": "node",
      "id": 11932360073,
      "lat": 13.0813906,
      "lon": 77.5594806,
      "tags": {
        "check_date": "2024-05-25",
        "name": "Khadim",
        "shop": "clothes"
      }
    },
    {
      "type": "node",
      "id": 11932360074,
      "lat": 13.0821039,
      "lon": 77.5597423,
      "tags": {
        "check_date": "2024-05-25",
        "name": "Nandu's",
        "shop": "butcher"
      }
    },
    {
      "type": "node",
      "id": 12032711265,
      "lat": 13.080117,
      "lon": 77.5595202,
      "tags": {
        "name": "Pai Electronics",
        "shop": "appliance"
      }
    },
    {
      "type": "node",
      "id": 12457999544,
      "lat": 13.0690768,
      "lon": 77.5549978,
      "tags": {
        "check_date": "2025-04-19",
        "hairdresser": "barber",
        "internet_access": "no",
        "level": "0",
        "name": "Royal Shine",
        "payment:cards": "no",
        "payment:cash": "yes",
        "payment:credit_cards": "no",
        "payment:debit_cards": "no",
        "shop": "hairdresser",
        "wheelchair": "no"
      }
    },
    {
      "type": "node",
      "id": 12757331350,
      "lat": 13.0697041,
      "lon": 77.5552289,
      "tags": {
        "check_date": "2025-04-19",
        "level": "0",
        "shop": "greengrocer"
      }
    },
    {
      "type": "node",
      "id": 12757331351,
      "lat": 13.0696526,
      "lon": 77.5553534,
      "tags": {
        "amenity": "cafe",
        "check_date": "2025-04-19",
        "level": "0",
        "name": "kl. 58 Cafe"
      }
    },
    {
      "type": "node",
      "id": 12757331352,
      "lat": 13.0699171,
      "lon": 77.5554327,
      "tags": {
        "alt_name": "New Life Opto Sight",
        "check_date": "2025-04-15",
        "name": "Life Opto Care",
        "shop": "optician"
      }
    },
    {
      "type": "node",
      "id": 12757331353,
      "lat": 13.0698844,
      "lon": 77.5554771,
      "tags": {
        "check_date": "2025-04-15",
        "name": "Sagar Collection",
        "shop": "clothes"
      }
    },
    {
      "type": "node",
      "id": 12757331354,
      "lat": 13.069843,
      "lon": 77.5555215,
      "tags": {
        "brand": "Bata",
        "brand:wikidata": "Q688082",
        "check_date": "2025-04-15",
        "name": "Bata",
        "shop": "shoes"
      }
    },
    {
      "type": "node",
      "id": 12757331355,
      "lat": 13.070003,
      "lon": 77.5551752,
      "tags": {
        "check_date": "2025-08-09",
        "name": "Tattoo",
        "shop": "tattoo"
      }
    },
    {
      "type": "node",
      "id": 12757331356,
      "lat": 13.0699145,
      "lon": 77.5551314,
      "tags": {
        "amenity": "place_of_worship",
        "check_date": "2025-04-15",
        "religion": "hindu"
      }
    },
    {
      "type": "node",
      "id": 12758227210,
      "lat": 13.0691148,
      "lon": 77.5549059,
      "tags": {
        "check_date": "2025-04-19",
        "level": "0",
        "name": "RR Iyengars Cake Palace",
        "name:kn": "ಆರ್ ಆರ್ ಐಯ್ಯಂಗಾರ್ಸ್ ಕೇಕ್ ಪಾಲೆಸ್",
        "shop": "bakery"
      }
    },
    {
      "type": "node",
      "id": 12758722551,
      "lat": 13.0687676,
      "lon": 77.5547451,
      "tags": {
        "addr:floor": "1",
        "addr:housenumber": "10",
        "addr:street": "Ramachandrapura Main Road",
        "alt_name": "Bloom Beauty Skin Care",
        "check_date": "2025-04-23",
        "description": "Skin and hair care",
        "level": "1",
        "name": "Bloom Skin And Hair Care",
        "shop": "hairdresser"
      }
    },
    {
      "type": "node",
      "id": 12758722552,
      "lat": 13.0686865,
      "lon": 77.5547595,
      "tags": {
        "addr:floor": "2",
        "addr:housenumber": "10",
        "addr:street": "Ramachandrapura Main Road",
        "check_date": "2025-04-23",
        "level": "2",
        "name": "AS Pest Control Services",
        "phone": "+91 96115 18026; +91 96115 07026",
        "shop": "pest_control"
      }
    },
    {
      "type": "node",
      "id": 12758722555,
      "lat": 13.0688957,
      "lon": 77.5550153,
      "tags": {
        "check_date": "2025-04-16",
        "shop": "garden_centre"
      }
    },
    {
      "type": "node",
      "id": 12758722556,
      "lat": 13.0689086,
      "lon": 77.5549983,
      "tags": {
        "check_date": "2025-04-16",
        "shop": "pottery"
      }
    },
    {
      "type": "node",
      "id": 12758812324,
      "lat": 13.0680994,
      "lon": 77.5542103,
      "tags": {
        "addr:housenumber": "24/2",
        "addr:street": "Ramachandrapura Main Road",
        "amenity": "doctors",
        "check_date": "2025-04-20",
        "healthcare": "doctor",
        "level": "0",
        "name": "Krishna Clinic"
      }
    },
    {
      "type": "node",
      "id": 12758812325,
      "lat": 13.0683185,
      "lon": 77.5543299,
      "tags": {
        "check_date": "2025-04-16",
        "name": "Sree VN Enterprises",
        "shop": "water_filter"
      }
    },
    {
      "type": "node",
      "id": 12758812326,
      "lat": 13.0683507,
      "lon": 77.5543466,
      "tags": {
        "check_date": "2025-04-19",
        "shop": "copyshop"
      }
    },
    {
      "type": "node",
      "id": 12758812327,
      "lat": 13.0683882,
      "lon": 77.5543601,
      "tags": {
        "check_date": "2025-04-16",
        "name": "Maruthi IT Solutions",
        "shop": "computer"
      }
    },
    {
      "type": "node",
      "id": 12759264205,
      "lat": 13.0692197,
      "lon": 77.5562578,
      "tags": {
        "check_date": "2025-04-16",
        "name": "Tha Loyal Bazaar",
        "shop": "greengrocer"
      }
    },
    {
      "type": "node",
      "id": 12759264206,
      "lat": 13.06925,
      "lon": 77.5562415,
      "tags": {
        "check_date": "2025-04-16",
        "name": "Eshwar Enterprises",
        "shop": "bed"
      }
    },
    {
      "type": "node",
      "id": 12759264207,
      "lat": 13.0692518,
      "lon": 77.5562178,
      "tags": {
        "check_date": "2025-04-16",
        "name": "Meera Prem",
        "shop": "clothes"
      }
    },
    {
      "type": "node",
      "id": 12759264208,
      "lat": 13.0692537,
      "lon": 77.5562051,
      "tags": {
        "amenity": "post_office",
        "brand": "Desk to Desk Courier & Cargo",
        "brand:short": "DTDC",
        "brand:wikidata": "Q55608802",
        "check_date": "2025-04-16",
        "operator": "Desk to Desk Courier & Cargo",
        "operator:short": "DTDC",
        "operator:wikidata": "Q55608802"
      }
    },
    {
      "type": "node",
      "id": 12759264209,
      "lat": 13.0692173,
      "lon": 77.5561774,
      "tags": {
        "amenity": "clinic",
        "check_date": "2025-04-16",
        "healthcare": "clinic",
        "name": "Metier"
      }
    },
    {
      "type": "node",
      "id": 12759264210,
      "lat": 13.0692587,
      "lon": 77.556181,
      "tags": {
        "check_date": "2025-04-16",
        "name": "Highlighter Stationer",
        "shop": "stationery"
      }
    },
    {
      "type": "node",
      "id": 12759732188,
      "lat": 13.0695633,
      "lon": 77.5561449,
      "tags": {
        "amenity": "fast_food",
        "brand": "Subway",
        "brand:wikidata": "Q244457",
        "check_date": "2025-04-16",
        "cuisine": "sandwich",
        "diet:vegetarian": "yes",
        "drive_through": "no",
        "level": "0",
        "name": "Subway",
        "takeaway": "yes"
      }
    },
    {
      "type": "node",
      "id": 12759732189,
      "lat": 13.0695298,
      "lon": 77.5561337,
      "tags": {
        "check_date": "2025-04-16",
        "level": "-1",
        "name": "Party Blasters",
        "shop": "party"
      }
    },
    {
      "type": "node",
      "id": 12759732191,
      "lat": 13.0696181,
      "lon": 77.5559925,
      "tags": {
        "check_date": "2025-04-16",
        "shop": "garden_centre"
      }
    },
    {
      "type": "node",
      "id": 12759732192,
      "lat": 13.069575,
      "lon": 77.5560445,
      "tags": {
        "check_date": "2025-04-16",
        "name": "Any Beauty Parlour",
        "shop": "beauty"
      }
    },
    {
      "type": "node",
      "id": 12759732193,
      "lat": 13.0695592,
      "lon": 77.5560754,
      "tags": {
        "amenity": "cafe",
        "check_date": "2025-04-16",
        "name": "Iyengar's Tatte Idli Vada"
      }
    },
    {
      "type": "node",
      "id": 12760135032,
      "lat": 13.0757131,
      "lon": 77.5581831,
      "tags": {
        "check_date": "2025-04-24",
        "name": "Specs Maart",
        "shop": "optician"
      }
    },
    {
      "type": "node",
      "id": 12761895572,
      "lat": 13.0690158,
      "lon": 77.5555451,
      "tags": {
        "check_date": "2025-04-17",
        "name": "Manyasri Impex",
        "shop": "carpet"
      }
    },
    {
      "type": "node",
      "id": 12766655518,
      "lat": 13.0681448,
      "lon": 77.5544251,
      "tags": {
        "check_date": "2025-04-19",
        "name": "Radhika Fashion",
        "shop": "clothes"
      }
    },
    {
      "type": "node",
      "id": 12766655519,
      "lat": 13.0681864,
      "lon": 77.5544422,
      "tags": {
        "check_date": "2025-04-19",
        "name": "Dhruthi Fashion Boutique",
        "shop": "clothes"
      }
    },
    {
      "type": "node",
      "id": 12766655520,
      "lat": 13.0682422,
      "lon": 77.5544543,
      "tags": {
        "check_date": "2025-04-19",
        "name": "Sri Bhiraveshwara Stationey & General Stores",
        "shop": "stationery"
      }
    },
    {
      "type": "node",
      "id": 12766655521,
      "lat": 13.0682653,
      "lon": 77.5544631,
      "tags": {
        "check_date": "2025-04-19",
        "name": "FN Motors",
        "shop": "motorcycle_repair"
      }
    },
    {
      "type": "node",
      "id": 12766655522,
      "lat": 13.0682937,
      "lon": 77.5544678,
      "tags": {
        "check_date": "2025-04-19",
        "name": "Sri Viniyaka Battery Center",
        "shop": "car_parts"
      }
    },
    {
      "type": "node",
      "id": 12766655523,
      "lat": 13.0683485,
      "lon": 77.5544945,
      "tags": {
        "amenity": "cafe",
        "check_date": "2025-04-19",
        "name": "Hotel Kiran"
      }
    },
    {
      "type": "node",
      "id": 12766655524,
      "lat": 13.0683644,
      "lon": 77.5544956,
      "tags": {
        "check_date": "2025-04-19",
        "name": "HH Boutique",
        "shop": "clothes"
      }
    },
    {
      "type": "node",
      "id": 12766655525,
      "lat": 13.0683883,
      "lon": 77.5545057,
      "tags": {
        "check_date": "2025-04-19",
        "shop": "motorcycle_repair"
      }
    },
    {
      "type": "node",
      "id": 12766655526,
      "lat": 13.0684435,
      "lon": 77.5545673,
      "tags": {
        "check_date": "2025-04-19",
        "name": "Rajeshwari Traders",
        "shop": "trade"
      }
    },
    {
      "type": "node",
      "id": 12766655527,
      "lat": 13.0685551,
      "lon": 77.5546256,
      "tags": {
        "check_date": "2025-04-19",
        "craft": "signmaker",
        "name": "Print Magic",
        "shop": "copyshop"
      }
    },
    {
      "type": "node",
      "id": 12766655528,
      "lat": 13.0686281,
      "lon": 77.5546705,
      "tags": {
        "check_date": "2025-04-19",
        "name": "JK Mart",
        "shop": "furniture"
      }
    },
    {
      "type": "node",
      "id": 12766683171,
      "lat": 13.0688458,
      "lon": 77.5547506,
      "tags": {
        "check_date": "2025-04-23",
        "level": "0",
        "name": "Mahalakshmi Traders Steel & Cement",
        "shop": "trade"
      }
    },
    {
      "type": "node",
      "id": 12766683172,
      "lat": 13.0691717,
      "lon": 77.5549354,
      "tags": {
        "check_date": "2025-04-19",
        "level": "0",
        "name": "Monika Hardware",
        "name:kn": "ಮೋನಿಕಾ ಹಾರ್ಡ್ವೇರ್",
        "shop": "hardware"
      }
    },
    {
      "type": "node",
      "id": 12766683173,
      "lat": 13.0691394,
      "lon": 77.5549819,
      "tags": {
        "check_date": "2025-04-19",
        "level": "1",
        "name": "Velabh Technologies PVT LTD",
        "shop": "yes"
      }
    },
    {
      "type": "node",
      "id": 12766683174,
      "lat": 13.0692411,
      "lon": 77.5549661,
      "tags": {
        "check_date": "2025-04-19",
        "level": "0",
        "name": "Ganesh Fancy & Gift Center",
        "shop": "gift"
      }
    },
    {
      "type": "node",
      "id": 12766683175,
      "lat": 13.0692153,
      "lon": 77.555005,
      "tags": {
        "amenity": "fixme",
        "check_date": "2025-04-19",
        "fixme": "type",
        "fixme:type": "lab",
        "level": "1",
        "name": "Global Analytical Laboratory Water & Food Testing"
      }
    },
    {
      "type": "node",
      "id": 12766683176,
      "lat": 13.0692693,
      "lon": 77.5549903,
      "tags": {
        "check_date": "2025-04-19",
        "level": "0",
        "name": "Hanuman Home Appliances",
        "name:kn": "ಹನುಮಾನ್ ಹೊಮ್ ಆಪ್ಪಲೈಯ್ನಸೆಸ್",
        "shop": "appliance"
      }
    },
    {
      "type": "node",
      "id": 12766683177,
      "lat": 13.0693258,
      "lon": 77.5550084,
      "tags": {
        "check_date": "2025-04-19",
        "level": "0",
        "name": "Sri Manjunatha Arts",
        "shop": "craft"
      }
    },
    {
      "type": "node",
      "id": 12766683178,
      "lat": 13.0693666,
      "lon": 77.5550299,
      "tags": {
        "check_date": "2025-04-19",
        "level": "0",
        "name": "Karnataka Fish & Chicken Center",
        "shop": "butcher"
      }
    },
    {
      "type": "node",
      "id": 12766683179,
      "lat": 13.0694674,
      "lon": 77.5550707,
      "tags": {
        "amenity": "fast_food",
        "check_date": "2025-04-19",
        "cuisine": "juice",
        "level": "0",
        "name": "KA 44 Juice Center"
      }
    },
    {
      "type": "node",
      "id": 12766683180,
      "lat": 13.0694394,
      "lon": 77.555058,
      "tags": {
        "check_date": "2025-04-19",
        "level": "0",
        "shop": "pet"
      }
    },
    {
      "type": "node",
      "id": 12766683181,
      "lat": 13.0694938,
      "lon": 77.5550399,
      "tags": {
        "amenity": "fast_food",
        "check_date": "2025-04-19",
        "level": "0",
        "name": "KA 44 Chats Center"
      }
    },
    {
      "type": "node",
      "id": 12766683182,
      "lat": 13.0694917,
      "lon": 77.5550848,
      "tags": {
        "amenity": "cafe",
        "check_date": "2025-04-19",
        "level": "0",
        "name": "Delights"
      }
    },
    {
      "type": "node",
      "id": 12766683183,
      "lat": 13.0695139,
      "lon": 77.5550918,
      "tags": {
        "amenity": "fixme",
        "check_date": "2025-04-19",
        "fixme": "type",
        "fixme:type": "condiments",
        "level": "0",
        "name": "Bhrama Lingeshwara Condiments",
        "name:kn": "ಭ್ರಂಹ ಲಿಂಗೇಶ್ವರ ಕೊನ್ಡಿಮಿನ್ಟಸ್"
      }
    },
    {
      "type": "node",
      "id": 12766683184,
      "lat": 13.0696606,
      "lon": 77.5551499,
      "tags": {
        "amenity": "fast_food",
        "check_date": "2025-04-19",
        "level": "0",
        "name": "Kolkata Hot Rolls"
      }
    },
    {
      "type": "node",
      "id": 12771456850,
      "lat": 13.0686685,
      "lon": 77.5546738,
      "tags": {
        "amenity": "bank",
        "name": "Vidyaranyapura Credit Co-Operative Society Limited (R)"
      }
    },
    {
      "type": "node",
      "id": 12776185934,
      "lat": 13.0719995,
      "lon": 77.5561432,
      "tags": {
        "check_date": "2025-04-22",
        "name": "Thomas Scott",
        "shop": "clothes"
      }
    },
    {
      "type": "node",
      "id": 12776185935,
      "lat": 13.0720195,
      "lon": 77.5560831,
      "tags": {
        "check_date": "2025-04-22",
        "name": "Tarang Tattoo & Telecom",
        "shop": "tattoo"
      }
    },
    {
      "type": "node",
      "id": 12776185936,
      "lat": 13.0719161,
      "lon": 77.5564029,
      "tags": {
        "amenity": "cafe",
        "check_date": "2025-04-22",
        "name": "Sri Bhramalingeshwara Tiffin Center"
      }
    },
    {
      "type": "node",
      "id": 12776435639,
      "lat": 13.0719935,
      "lon": 77.5561904,
      "tags": {
        "amenity": "fast_food",
        "check_date": "2025-04-28",
        "cuisine": "chaat",
        "name": "SLV Chats",
        "street_vendor": "yes"
      }
    },
    {
      "type": "node",
      "id": 12776435640,
      "lat": 13.0718029,
      "lon": 77.556033,
      "tags": {
        "brand": "Fastrack",
        "brand:wikidata": "Q28164179",
        "check_date": "2025-04-22",
        "name": "Fastrack",
        "shop": "watches"
      }
    },
    {
      "type": "node",
      "id": 12776435641,
      "lat": 13.0718794,
      "lon": 77.5560732,
      "tags": {
        "check_date": "2025-04-22",
        "name": "Titan",
        "shop": "watches",
        "wikidata": "Q3536932"
      }
    },
    {
      "type": "node",
      "id": 12776869899,
      "lat": 13.0704843,
      "lon": 77.5556614,
      "tags": {
        "brand": "Lenskart",
        "brand:wikidata": "Q17068753",
        "check_date": "2025-04-23",
        "name": "Lenskart",
        "shop": "optician"
      }
    },
    {
      "type": "node",
      "id": 12776869900,
      "lat": 13.0704394,
      "lon": 77.5556463,
      "tags": {
        "brand": "Peter England",
        "brand:wikidata": "Q19573665",
        "check_date": "2025-04-23",
        "clothes": "men",
        "name": "Peter England",
        "shop": "clothes"
      }
    },
    {
      "type": "node",
      "id": 12776887224,
      "lat": 13.0707172,
      "lon": 77.5557899,
      "tags": {
        "brand": "Kanti Sweets",
        "brand:wikidata": "Q124374180",
        "check_date": "2025-04-23",
        "name": "Kanti Sweets",
        "shop": "confectionery"
      }
    },
    {
      "type": "node",
      "id": 12776887225,
      "lat": 13.0706738,
      "lon": 77.555777,
      "tags": {
        "amenity": "atm",
        "brand": "Axis Bank",
        "brand:wikidata": "Q2003549",
        "check_date": "2025-04-23",
        "operator": "Axis Bank",
        "operator:wikidata": "Q2003549"
      }
    },
    {
      "type": "node",
      "id": 12778938419,
      "lat": 13.0686995,
      "lon": 77.5547263,
      "tags": {
        "addr:floor": "1",
        "addr:housenumber": "10",
        "addr:street": "Ramachandrapura Main Road",
        "check_date": "2025-04-23",
        "level": "1",
        "name": "Sanctuary Castle Solutions",
        "shop": "yes"
      }
    },
    {
      "type": "node",
      "id": 12778938420,
      "lat": 13.0687118,
      "lon": 77.5547017,
      "tags": {
        "addr:floor": "0",
        "addr:housenumber": "10",
        "addr:street": "Ramachandrapura Main Road",
        "check_date": "2025-04-30",
        "level": "0",
        "name": "Seven Heaven",
        "shop": "pastry"
      }
    },
    {
      "type": "node",
      "id": 12778938421,
      "lat": 13.0687529,
      "lon": 77.5547173,
      "tags": {
        "addr:floor": "0",
        "addr:housenumber": "10",
        "addr:street": "Ramachandrapura Main Road",
        "check_date": "2025-04-23",
        "level": "0",
        "name": "Rashee Enterprises",
        "shop": "yes"
      }
    },
    {
      "type": "node",
      "id": 12778938422,
      "lat": 13.0687706,
      "lon": 77.5547261,
      "tags": {
        "addr:floor": "0",
        "addr:housenumber": "10",
        "addr:street": "Ramachandrapura Main Road",
        "check_date": "2025-04-23",
        "level": "0",
        "name": "Mini Store",
        "shop": "telecommunication"
      }
    },
    {
      "type": "node",
      "id": 12783823548,
      "lat": 13.0704343,
      "lon": 77.5553668,
      "tags": {
        "amenity": "fast_food",
        "check_date": "2025-04-24",
        "cuisine": "chicken",
        "name": "Uncle Chicken"
      }
    },
    {
      "type": "node",
      "id": 12790987432,
      "lat": 13.0734872,
      "lon": 77.5595071,
      "tags": {
        "amenity": "bench",
        "armrest": "yes",
        "backrest": "yes",
        "note": "scary one",
        "seats": "3"
      }
    },
    {
      "type": "node",
      "id": 12791013872,
      "lat": 13.0728327,
      "lon": 77.5575832,
      "tags": {
        "amenity": "bench",
        "armrest": "yes",
        "backrest": "yes",
        "seats": "3"
      }
    },
    {
      "type": "node",
      "id": 12791013874,
      "lat": 13.0736508,
      "lon": 77.55891,
      "tags": {
        "amenity": "bench",
        "armrest": "yes",
        "backrest": "yes",
        "seats": "3"
      }
    },
    {
      "type": "node",
      "id": 12791025774,
      "lat": 13.0726536,
      "lon": 77.5596293,
      "tags": {
        "amenity": "bench",
        "armrest": "yes",
        "backrest": "yes",
        "description": "scary one",
        "seats": "3"
      }
    },
    {
      "type": "node",
      "id": 12794021959,
      "lat": 13.0721671,
      "lon": 77.5575732,
      "tags": {
        "amenity": "bench",
        "backrest": "yes",
        "material": "stone"
      }
    },
    {
      "type": "node",
      "id": 12794021960,
      "lat": 13.0721638,
      "lon": 77.5575828,
      "tags": {
        "amenity": "bench",
        "backrest": "yes",
        "material": "stone"
      }
    },
    {
      "type": "node",
      "id": 12794021961,
      "lat": 13.0721713,
      "lon": 77.5575903,
      "tags": {
        "amenity": "bench",
        "backrest": "yes",
        "material": "stone"
      }
    },
    {
      "type": "node",
      "id": 12794021962,
      "lat": 13.0721805,
      "lon": 77.5575839,
      "tags": {
        "amenity": "bench",
        "backrest": "yes",
        "material": "stone"
      }
    },
    {
      "type": "node",
      "id": 12794021963,
      "lat": 13.0721757,
      "lon": 77.5575732,
      "tags": {
        "amenity": "bench",
        "backrest": "yes",
        "material": "stone"
      }
    },
    {
      "type": "node",
      "id": 12794021964,
      "lat": 13.0721736,
      "lon": 77.5575812,
      "tags": {
        "amenity": "shelter",
        "shelter_type": "gazebo"
      }
    },
    {
      "type": "node",
      "id": 12794021965,
      "lat": 13.0737226,
      "lon": 77.5571586,
      "tags": {
        "amenity": "bench",
        "backrest": "yes",
        "material": "stone"
      }
    },
    {
      "type": "node",
      "id": 12794021966,
      "lat": 13.0740871,
      "lon": 77.5574456,
      "tags": {
        "amenity": "bench",
        "backrest": "yes",
        "material": "stone"
      }
    },
    {
      "type": "node",
      "id": 12794021988,
      "lat": 13.0714006,
      "lon": 77.5566684,
      "tags": {
        "amenity": "shelter",
        "shelter_type": "gazebo"
      }
    },
    {
      "type": "node",
      "id": 13059317105,
      "lat": 13.0701182,
      "lon": 77.5552235,
      "tags": {
        "amenity": "photo_booth",
        "check_date": "2025-08-09",
        "name": "Photo Jumction"
      }
    },
    {
      "type": "way",
      "id": 52025453,
      "center": {
        "lat": 13.0731055,
        "lon": 77.5530927
      },
      "tags": {
        "amenity": "school",
        "dress_code": "uniform",
        "language:en": "yes",
        "name": "MES KK Public School",
        "name:kn": "ಎಮ್ಇಎಸ್ ಕೇಕೇ ಪಬ್ಲಿಕ್ ಶಾಲೆ",
        "school:gender": "mixed"
      }
    },
    {
      "type": "way",
      "id": 224733814,
      "center": {
        "lat": 13.0712418,
        "lon": 77.5567277
      },
      "tags": {
        "leisure": "park",
        "name": "Vidyaranyapura II Block Park"
      }
    },
    {
      "type": "way",
      "id": 224733815,
      "center": {
        "lat": 13.0725874,
        "lon": 77.5555335
      },
      "tags": {
        "landuse": "recreation_ground",
        "leisure": "playground",
        "name": "Vidyaranyapura III Block Recreation Ground"
      }
    },
    {
      "type": "way",
      "id": 225194405,
      "center": {
        "lat": 13.0814687,
        "lon": 77.5580647
      },
      "tags": {
        "amenity": "school",
        "name": "Sri Sri Ravishankar Vidya Mandir"
      }
    },
    {
      "type": "way",
      "id": 225194406,
      "center": {
        "lat": 13.0802475,
        "lon": 77.5565485
      },
      "tags": {
        "leisure": "park"
      }
    },
    {
      "type": "way",
      "id": 225519655,
      "center": {
        "lat": 13.0760072,
        "lon": 77.558426
      },
      "tags": {
        "description": "Playground Containing Flagpole",
        "leisure": "playground",
        "name": "BBMP Playground"
      }
    },
    {
      "type": "way",
      "id": 225648956,
      "center": {
        "lat": 13.08364,
        "lon": 77.5575438
      },
      "tags": {
        "leisure": "park"
      }
    },
    {
      "type": "way",
      "id": 225648957,
      "center": {
        "lat": 13.0839628,
        "lon": 77.55714
      },
      "tags": {
        "amenity": "school",
        "landuse": "education",
        "name": "Deva Matha Central School"
      }
    },
    {
      "type": "way",
      "id": 413529796,
      "center": {
        "lat": 13.0848132,
        "lon": 77.5490275
      },
      "tags": {
        "amenity": "school",
        "check_date": "2024-12-24",
        "name": "National Public School, Vidyaranyapura"
      }
    },
    {
      "type": "way",
      "id": 469890908,
      "center": {
        "lat": 13.0759988,
        "lon": 77.5560553
      },
      "tags": {
        "amenity": "place_of_worship",
        "landuse": "religious",
        "name": "Sri Vidya Ganapati Temple",
        "name:kn": "ವಿದ್ಯ ಗಣಪತಿ ದೇವಸ್ಥಾನ",
        "religion": "hindu"
      }
    },
    {
      "type": "way",
      "id": 469892595,
      "center": {
        "lat": 13.0753062,
        "lon": 77.5556869
      },
      "tags": {
        "check_date": "2025-04-24",
        "landuse": "recreation_ground",
        "leisure": "sports_centre",
        "name": "Vidyaranyapura BBMP Sports Complex"
      }
    },
    {
      "type": "way",
      "id": 594563629,
      "center": {
        "lat": 13.078531,
        "lon": 77.5555057
      },
      "tags": {
        "leisure": "park",
        "name": "NTI Park"
      }
    },
    {
      "type": "way",
      "id": 594563630,
      "center": {
        "lat": 13.0716771,
        "lon": 77.5516646
      },
      "tags": {
        "leisure": "park"
      }
    },
    {
      "type": "way",
      "id": 594566318,
      "center": {
        "lat": 13.0781781,
        "lon": 77.559992
      },
      "tags": {
        "leisure": "park"
      }
    },
    {
      "type": "way",
      "id": 594566322,
      "center": {
        "lat": 13.0778903,
        "lon": 77.5599071
      },
      "tags": {
        "amenity": "place_of_worship",
        "building": "yes",
        "name": "Veeranjaneyaswamy temple",
        "name:kn": "ವೀರಾಂಜನೇಯ ಸ್ವಾಮಿ ದೇವಸ್ಥಾನ",
        "religion": "hindu"
      }
    },
    {
      "type": "way",
      "id": 675649183,
      "center": {
        "lat": 13.069829,
        "lon": 77.5590965
      },
      "tags": {
        "amenity": "school",
        "name": "Narayana PU College"
      }
    },
    {
      "type": "way",
      "id": 675649185,
      "center": {
        "lat": 13.0808972,
        "lon": 77.5497211
      },
      "tags": {
        "leisure": "park"
      }
    },
    {
      "type": "way",
      "id": 774649685,
      "center": {
        "lat": 13.0811284,
        "lon": 77.548344
      },
      "tags": {
        "amenity": "fuel",
        "brand": "Indian Oil",
        "fuel:diesel": "yes",
        "name": "Indian Oil",
        "name:kn": "ಇಂಡಿಯನ್ ಆಯಿಲ್",
        "operator": "Indian Oil"
      }
    },
    {
      "type": "way",
      "id": 1218027507,
      "center": {
        "lat": 13.0806092,
        "lon": 77.5528965
      },
      "tags": {
        "addr:city": "Bangalore",
        "addr:district": "Bengaluru Urban",
        "addr:postcode": "560097",
        "addr:street": "Jamia Masjid Rd",
        "amenity": "place_of_worship",
        "building": "yes",
        "denomination": "sunni",
        "name": "Jama Masjid MS Palya",
        "name:kn": "ಜಮ ಮಸ್ಜಿದ್",
        "religion": "muslim"
      }
    },
    {
      "type": "way",
      "id": 1232959694,
      "center": {
        "lat": 13.0766519,
        "lon": 77.5593588
      },
      "tags": {
        "access": "private",
        "leisure": "swimming_pool"
      }
    },
    {
      "type": "way",
      "id": 1232959725,
      "center": {
        "lat": 13.0752659,
        "lon": 77.5556347
      },
      "tags": {
        "access": "permissive",
        "leisure": "pitch",
        "sport": "tennis"
      }
    },
    {
      "type": "way",
      "id": 1232959726,
      "center": {
        "lat": 13.0749507,
        "lon": 77.555464
      },
      "tags": {
        "access": "permissive",
        "leisure": "pitch",
        "sport": "basketball"
      }
    },
    {
      "type": "way",
      "id": 1232959727,
      "center": {
        "lat": 13.0749639,
        "lon": 77.5558036
      },
      "tags": {
        "access": "permissive",
        "leisure": "swimming_pool"
      }
    },
    {
      "type": "way",
      "id": 1232959772,
      "center": {
        "lat": 13.0804436,
        "lon": 77.5608721
      },
      "tags": {
        "amenity": "school"
      }
    },
    {
      "type": "way",
      "id": 1253845473,
      "center": {
        "lat": 13.0770636,
        "lon": 77.5595094
      },
      "tags": {
        "leisure": "park"
      }
    },
    {
      "type": "way",
      "id": 1253845481,
      "center": {
        "lat": 13.0776069,
        "lon": 77.559411
      },
      "tags": {
        "access": "private",
        "leisure": "pitch",
        "sport": "basketball"
      }
    },
    {
      "type": "way",
      "id": 1264795486,
      "center": {
        "lat": 13.0840125,
        "lon": 77.5579649
      },
      "tags": {
        "leisure": "playground"
      }
    },
    {
      "type": "way",
      "id": 1265424326,
      "center": {
        "lat": 13.0755876,
        "lon": 77.5539816
      },
      "tags": {
        "leisure": "pitch",
        "sport": "volleyball",
        "surface": "sand"
      }
    },
    {
      "type": "way",
      "id": 1265424327,
      "center": {
        "lat": 13.0753844,
        "lon": 77.5542908
      },
      "tags": {
        "amenity": "place_of_worship",
        "check_date": "2025-04-24",
        "name": "Sri Raghavendra Swami Matha",
        "name:kn": "ಶ್ರೀ ರಾಘವೇಂದ್ರ ಸ್ವಾಮಿ ಮಠ",
        "religion": "hindu"
      }
    },
    {
      "type": "way",
      "id": 1265439019,
      "center": {
        "lat": 13.0736929,
        "lon": 77.5592718
      },
      "tags": {
        "amenity": "place_of_worship",
        "check_date": "2025-04-27",
        "landuse": "religious",
        "religion": "hindu"
      }
    },
    {
      "type": "way",
      "id": 1266072938,
      "center": {
        "lat": 13.0761798,
        "lon": 77.5620087
      },
      "tags": {
        "amenity": "school"
      }
    },
    {
      "type": "way",
      "id": 1307698420,
      "center": {
        "lat": 13.0677362,
        "lon": 77.5545247
      },
      "tags": {
        "amenity": "school",
        "check_date": "2025-04-23",
        "dress_code": "uniform",
        "name": "Sri Chitanya Pre University College",
        "name:kn": "ಶ್ರಿ ಚೈತನ್ಯ",
        "religion": "no",
        "school:gender": "mixed",
        "website": "https://srichaitanyaschool.net/"
      }
    },
    {
      "type": "way",
      "id": 1307698454,
      "center": {
        "lat": 13.0696177,
        "lon": 77.5552682
      },
      "tags": {
        "building": "retail",
        "check_date": "2025-08-09",
        "name": "All Seasons Supermart",
        "name:kn": "ಆಲ್ ಸೀಸನ್ಸ್ ಸೂಪರ್ಮಾರ್ಟ್",
        "shop": "supermarket"
      }
    },
    {
      "type": "way",
      "id": 1346876982,
      "center": {
        "lat": 13.0730575,
        "lon": 77.553018
      },
      "tags": {
        "leisure": "pitch"
      }
    },
    {
      "type": "way",
      "id": 1346878957,
      "center": {
        "lat": 13.0713914,
        "lon": 77.5509415
      },
      "tags": {
        "leisure": "pitch",
        "sport": "soccer"
      }
    },
    {
      "type": "way",
      "id": 1346878958,
      "center": {
        "lat": 13.070773,
        "lon": 77.5508318
      },
      "tags": {
        "leisure": "pitch",
        "sport": "basketball"
      }
    },
    {
      "type": "way",
      "id": 1346878970,
      "center": {
        "lat": 13.0712761,
        "lon": 77.5481731
      },
      "tags": {
        "leisure": "pitch",
        "sport": "basketball"
      }
    },
    {
      "type": "way",
      "id": 1346878971,
      "center": {
        "lat": 13.0708357,
        "lon": 77.5480203
      },
      "tags": {
        "leisure": "pitch"
      }
    },
    {
      "type": "way",
      "id": 1346885375,
      "center": {
        "lat": 13.0762221,
        "lon": 77.5587515
      },
      "tags": {
        "access": "private",
        "leisure": "pitch",
        "sport": "basketball"
      }
    },
    {
      "type": "way",
      "id": 1377946742,
      "center": {
        "lat": 13.0693758,
        "lon": 77.5552218
      },
      "tags": {
        "access": "customers",
        "amenity": "parking",
        "fee": "no",
        "operator": "All Seasons Supermart",
        "parking": "surface"
      }
    },
    {
      "type": "way",
      "id": 1381888157,
      "center": {
        "lat": 13.0745208,
        "lon": 77.5568706
      },
      "tags": {
        "access": "private",
        "leisure": "swimming_pool"
      }
    },
    {
      "type": "way",
      "id": 1383201558,
      "center": {
        "lat": 13.0847527,
        "lon": 77.5532305
      },
      "tags": {
        "amenity": "fuel",
        "brand": "Hindustan Petroleum",
        "name": "Hindustan Petroleum",
        "operator": "Hindustan Petroleum"
      }
    },
    {
      "type": "way",
      "id": 1383201559,
      "center": {
        "lat": 13.0849784,
        "lon": 77.553489
      },
      "tags": {
        "amenity": "fuel"
      }
    },
    {
      "type": "way",
      "id": 1383284326,
      "center": {
        "lat": 13.0787531,
        "lon": 77.557502
      },
      "tags": {
        "leisure": "pitch",
        "sport": "basketball"
      }
    },
    {
      "type": "way",
      "id": 1383284329,
      "center": {
        "lat": 13.0750695,
        "lon": 77.5552039
      },
      "tags": {
        "leisure": "pitch"
      }
    },
    {
      "type": "way",
      "id": 1383284353,
      "center": {
        "lat": 13.0715781,
        "lon": 77.5592051
      },
      "tags": {
        "amenity": "place_of_worship",
        "building": "yes",
        "religion": "hindu"
      }
    },
    {
      "type": "way",
      "id": 1383284354,
      "center": {
        "lat": 13.0731165,
        "lon": 77.5600615
      },
      "tags": {
        "leisure": "playground"
      }
    },
    {
      "type": "way",
      "id": 1395453047,
      "center": {
        "lat": 13.0688696,
        "lon": 77.5558648
      },
      "tags": {
        "access": "private",
        "garden:type": "residential",
        "leisure": "garden"
      }
    }
  ]
}