{
  "area_name": "Vannarapete",
  "osm_id": 718385669,
  "osm_type": "node",
  "place_type": "neighbourhood",
  "amenity_count": 182,
  "amenities": [
    {
      "type": "node",
      "id": 317118536,
      "lat": 12.956044,
      "lon": 77.6119244,
      "tags": {
        "amenity": "place_of_worship",
        "fixme": "location",
        "name:kn": "ಮಸೀದಿ",
        "religion": "muslim"
      }
    },
    {
      "type": "node",
      "id": 429876582,
      "lat": 12.9665538,
      "lon": 77.6141032,
      "tags": {
        "addr:housename": "#8",
        "addr:street": "Victoria Road",
        "amenity": "restaurant",
        "level": "0,1",
        "name": "Hyderbad Biryani House",
        "name:kn": "ಹೈದರಾಬಾದ್ ಬಿರಿಯಾನಿ ಹೌಸ್"
      }
    },
    {
      "type": "node",
      "id": 671960254,
      "lat": 12.952612,
      "lon": 77.6145588,
      "tags": {
        "amenity": "recycling",
        "name": "Nazeer Aahamad"
      }
    },
    {
      "type": "node",
      "id": 671960262,
      "lat": 12.9528804,
      "lon": 77.6152377,
      "tags": {
        "amenity": "recycling",
        "name": "Chinni Raju"
      }
    },
    {
      "type": "node",
      "id": 672011694,
      "lat": 12.9511406,
      "lon": 77.6174732,
      "tags": {
        "amenity": "recycling",
        "name": "Kumar"
      }
    },
    {
      "type": "node",
      "id": 672011697,
      "lat": 12.95132,
      "lon": 77.6171638,
      "tags": {
        "amenity": "recycling",
        "description": "dumpsite"
      }
    },
    {
      "type": "node",
      "id": 672011699,
      "lat": 12.9518495,
      "lon": 77.6179311,
      "tags": {
        "amenity": "recycling",
        "description": "dumpsite"
      }
    },
    {
      "type": "node",
      "id": 672011700,
      "lat": 12.9527732,
      "lon": 77.6173961,
      "tags": {
        "amenity": "recycling",
        "description": "dumpsite"
      }
    },
    {
      "type": "node",
      "id": 672011704,
      "lat": 12.9530481,
      "lon": 77.6159168,
      "tags": {
        "amenity": "recycling",
        "name": "Sapha"
      }
    },
    {
      "type": "node",
      "id": 672011707,
      "lat": 12.9537341,
      "lon": 77.6168951,
      "tags": {
        "amenity": "recycling",
        "name": "Palani"
      }
    },
    {
      "type": "node",
      "id": 672011711,
      "lat": 12.9529841,
      "lon": 77.6175394,
      "tags": {
        "amenity": "recycling",
        "name": "Muniswamy"
      }
    },
    {
      "type": "node",
      "id": 672055799,
      "lat": 12.9519474,
      "lon": 77.6196686,
      "tags": {
        "amenity": "recycling",
        "name": "Vinayakai"
      }
    },
    {
      "type": "node",
      "id": 1460720496,
      "lat": 12.96527,
      "lon": 77.6172392,
      "tags": {
        "name": "India Garage",
        "shop": "car_repair"
      }
    },
    {
      "type": "node",
      "id": 3361649542,
      "lat": 12.9582479,
      "lon": 77.6146254,
      "tags": {
        "amenity": "restaurant",
        "cuisine": "regional",
        "delivery": "no",
        "name": "Kavya Sagar",
        "takeaway": "yes"
      }
    },
    {
      "type": "node",
      "id": 4292885994,
      "lat": 12.9581905,
      "lon": 77.6169398,
      "tags": {
        "amenity": "school",
        "name": "Reliance",
        "name:kn": "ರಿಲಾಯನ್ಸ್"
      }
    },
    {
      "type": "node",
      "id": 4314330392,
      "lat": 12.966707,
      "lon": 77.6118198,
      "tags": {
        "name": "Homecentre",
        "shop": "department_store"
      }
    },
    {
      "type": "node",
      "id": 4314392990,
      "lat": 12.9665522,
      "lon": 77.6127824,
      "tags": {
        "addr:city": "Bengaluru",
        "addr:country": "IN",
        "addr:housenumber": "33/12",
        "addr:postcode": "560047",
        "addr:street": "Victoria Road",
        "name": "Artefacts",
        "shop": "gift"
      }
    },
    {
      "type": "node",
      "id": 4489711219,
      "lat": 12.9540446,
      "lon": 77.617207,
      "tags": {
        "addr:city": "Bangalore",
        "addr:housenumber": "No.639, 100 Feet Road",
        "addr:postcode": "560095",
        "addr:street": "Koramangala",
        "name": "Aurora Thai",
        "opening_hours": "09:30-22:00",
        "phone": "9632201133",
        "shop": "beauty",
        "website": "www.aurorathai.com"
      }
    },
    {
      "type": "node",
      "id": 4489814075,
      "lat": 12.9618472,
      "lon": 77.6126582,
      "tags": {
        "addr:city": "Bangalore",
        "addr:postcode": "560047",
        "addr:street": "Mother Teresa Road",
        "name": "Aina Lounge",
        "opening_hours": "10:00-20:30",
        "phone": "096320 37895",
        "shop": "beauty"
      }
    },
    {
      "type": "node",
      "id": 4548857590,
      "lat": 12.9563091,
      "lon": 77.6208965,
      "tags": {
        "amenity": "place_of_worship",
        "name": "Ranganathar Andal Temple",
        "name:en": "Ranganathar Andal Temple",
        "religion": "hindu"
      }
    },
    {
      "type": "node",
      "id": 4548858192,
      "lat": 12.9568231,
      "lon": 77.6188771,
      "tags": {
        "amenity": "place_of_worship",
        "historic": "yes",
        "name": "Sri Kasi Vishwanathar Temple",
        "name:en": "Sri Kasi Vishwanathar Temple",
        "religion": "hindu",
        "start_date": "1887"
      }
    },
    {
      "type": "node",
      "id": 4548858194,
      "lat": 12.9580553,
      "lon": 77.6186029,
      "tags": {
        "amenity": "place_of_worship",
        "name": "Shakti Kaliamman Temple",
        "name:en": "Shakti Kaliamman Temple",
        "religion": "hindu"
      }
    },
    {
      "type": "node",
      "id": 4548885790,
      "lat": 12.9564486,
      "lon": 77.6207504,
      "tags": {
        "amenity": "place_of_worship",
        "name": "Karumariamman Temple",
        "name:en": "Karumariamman Temple",
        "name:kn": "ಕರುಮರಿಯಮ್ಮನ್ ದೇವಸ್ಥಾನ",
        "religion": "hindu"
      }
    },
    {
      "type": "node",
      "id": 4548885791,
      "lat": 12.9585945,
      "lon": 77.6185583,
      "tags": {
        "amenity": "place_of_worship",
        "name": "Dhrowpathiamman Temple",
        "name:en": "Dhrowpathiamman Temple",
        "religion": "hindu"
      }
    },
    {
      "type": "node",
      "id": 4548888989,
      "lat": 12.9564566,
      "lon": 77.6209088,
      "tags": {
        "amenity": "place_of_worship",
        "name": "Murugan Temple",
        "name:en": "Murugan Temple",
        "name:kn": "ಮುರುಗನ್ ದೇವಸ್ಥಾನ",
        "religion": "hindu"
      }
    },
    {
      "type": "node",
      "id": 4548898589,
      "lat": 12.9618069,
      "lon": 77.6169696,
      "tags": {
        "amenity": "place_of_worship",
        "name": "Nagamman Koil",
        "name:en": "Nagamman Koil",
        "religion": "hindu"
      }
    },
    {
      "type": "node",
      "id": 5061395362,
      "lat": 12.9659404,
      "lon": 77.6144089,
      "tags": {
        "amenity": "bank",
        "atm": "yes",
        "brand": "Axis Bank",
        "brand:wikidata": "Q2003549",
        "name": "Axis Bank",
        "name:kn": "ಆಕ್ಸಿಸ್ ಬ್ಯಾಂಕ್"
      }
    },
    {
      "type": "node",
      "id": 5168668845,
      "lat": 12.9664558,
      "lon": 77.6137032,
      "tags": {
        "leisure": "fitness_centre",
        "name": "Zion Fitness"
      }
    },
    {
      "type": "node",
      "id": 5168668848,
      "lat": 12.9646721,
      "lon": 77.6143585,
      "tags": {
        "name": "Reeta Enterprises",
        "note": "snacks, phone recharge",
        "shop": "stationery"
      }
    },
    {
      "type": "node",
      "id": 5168668849,
      "lat": 12.9646664,
      "lon": 77.6143244,
      "tags": {
        "name": "Sai Stores",
        "shop": "stationery"
      }
    },
    {
      "type": "node",
      "id": 5168668858,
      "lat": 12.9646365,
      "lon": 77.614174,
      "tags": {
        "name": "Lusitania Meat Shop",
        "shop": "butcher"
      }
    },
    {
      "type": "node",
      "id": 5168668859,
      "lat": 12.9646363,
      "lon": 77.6141291,
      "tags": {
        "amenity": "bicycle_repair_station",
        "operator": "Thunder Bird - Bike Servicing"
      }
    },
    {
      "type": "node",
      "id": 5168668860,
      "lat": 12.9646225,
      "lon": 77.6139894,
      "tags": {
        "name": "Coorg Products",
        "organic": "only",
        "shop": "convenience",
        "survey:date": "2023-09-23"
      }
    },
    {
      "type": "node",
      "id": 5168668873,
      "lat": 12.9646268,
      "lon": 77.6139096,
      "tags": {
        "amenity": "restaurant",
        "name": "MS Restaurant",
        "old_name": "Backyard - Roasted Chicken on Fire; Backyard Boys Kitchen"
      }
    },
    {
      "type": "node",
      "id": 5168668874,
      "lat": 12.9646066,
      "lon": 77.6138001,
      "tags": {
        "amenity": "dentist",
        "healthcare": "dentist",
        "name": "My Smile Dentist"
      }
    },
    {
      "type": "node",
      "id": 5168668875,
      "lat": 12.9644942,
      "lon": 77.6135414,
      "tags": {
        "name": "Kamath Stores",
        "shop": "supermarket",
        "survey:date": "2023-09-23"
      }
    },
    {
      "type": "node",
      "id": 6347074655,
      "lat": 12.9552253,
      "lon": 77.6210383,
      "tags": {
        "addr:place": "Vivekangara",
        "amenity": "school",
        "isced:level": "2",
        "name": "GKHPS Vivekangara",
        "name:kn": "ಸರ್ಕಾರಿ ಹಿರಿಯ ಕನ್ನಡ ಪ್ರಾಥಮಿಕ ಶಾಲೆ ವಿವೇಕನಗರ",
        "operator": "Department of Education",
        "school": "primary"
      }
    },
    {
      "type": "node",
      "id": 6347080518,
      "lat": 12.9551126,
      "lon": 77.6210785,
      "tags": {
        "addr:place": "Vivekanagara",
        "amenity": "school",
        "isced:level": "2",
        "name": "GTELPS Vivekanagara",
        "name:kn": "ಸರ್ಕಾರಿ ತೆಲುಗು ಪ್ರಾಥಮಿಕ ಶಾಲೆ ವಿವೇಕನಗರ",
        "operator": "Department of Education",
        "school": "primary"
      }
    },
    {
      "type": "node",
      "id": 6349011311,
      "lat": 12.9547967,
      "lon": 77.6116127,
      "tags": {
        "addr:suburb": "Neelasandra",
        "amenity": "school",
        "isced:level": "2",
        "name": "Mahanagara Palike HPS Neelasandra",
        "name:kn": "ಮಹಾನಗರ ಪಾಲಿಕೆ ಹಿರಿಯ ಪ್ರಾಥಮಿಕ ಶಾಲೆನೀಲಸಂದ್ರ",
        "operator": "Department of Primary and Secondary Education",
        "operator:wikidata": "Q111467381",
        "school": "primary"
      }
    },
    {
      "type": "node",
      "id": 6349045454,
      "lat": 12.9639537,
      "lon": 77.6161707,
      "tags": {
        "addr:place": "Yalagondana Palya",
        "amenity": "school",
        "isced:level": "2",
        "name": "GKHPS Yalagondana Palya",
        "name:kn": "ಸರ್ಕಾರಿ ಕನ್ನಡ ಹಿರಿಯ ಪ್ರಾಥಮಿಕ ಶಾಲೆ ಯಳಗೊಂಡನ ಪಾಳ್ಯ",
        "operator": "Department of Education",
        "school": "primary"
      }
    },
    {
      "type": "node",
      "id": 6357798985,
      "lat": 12.9614197,
      "lon": 77.6144093,
      "tags": {
        "amenity": "place_of_worship",
        "name": "Sri Kaliamma Temple",
        "religion": "hindu"
      }
    },
    {
      "type": "node",
      "id": 6408981408,
      "lat": 12.9572323,
      "lon": 77.6179802,
      "tags": {
        "addr:place": "Vivekanagar, Austin Town W",
        "amenity": "school",
        "isced:level": "3",
        "name": "Babymirror HPS Vivekanagar, Austin Town W No 71",
        "name:kn": "ಬೇಬಿ ಮಿರರ್ ಹಿರಿಯ ಪ್ರಾಥಮಿಕ ಶಾಲೆ ವಿವೇಕನಗರ ಆಸ್ಟಿನ್‌ಟೌನ್‌",
        "operator": "Private Un-Aided",
        "school": "Higher Secondary"
      }
    },
    {
      "type": "node",
      "id": 6408995812,
      "lat": 12.9541946,
      "lon": 77.6185446,
      "tags": {
        "addr:place": "Viveka, Austin Town",
        "amenity": "school",
        "isced:level": "2",
        "name": "Bala Aesu Vidyalaya HPS Viveka, Austin Town W No 71",
        "name:kn": "ಬಾಲಾ ಏಸು ವಿದ್ಯಾಲಯ ಹಿರಿಯ ಪ್ರಾಥಮಿಕ ಶಾಲೆ ವಿವೇಕನಗರ,ಆಸ್ಟಿನ್‌ಟೌನ್‌",
        "operator": "Private Un-Aided",
        "school": "Higher Primary"
      }
    },
    {
      "type": "node",
      "id": 6409085052,
      "lat": 12.9566503,
      "lon": 77.6154402,
      "tags": {
        "addr:place": "Vivekanagar, Austin Town",
        "amenity": "school",
        "isced:level": "3",
        "name": "Infant Indian HPS Neelasandra, Austin Town W No 71",
        "name:kn": "ಇನ್ಫ್ಯಾಂಟ್ ಭಾರತೀಯ ಹಿರಿಯ ಪ್ರಾಥಮಿಕ ಶಾಲೆ, ನೀಲಸಂದ್ರ, ಆಸ್ಟಿನ್‌ಟೌನ್‌",
        "operator": "Private Un-Aided",
        "school": "Higher Secondary"
      }
    },
    {
      "type": "node",
      "id": 6410768087,
      "lat": 12.9575753,
      "lon": 77.6140476,
      "tags": {
        "addr:place": "Austin Town",
        "amenity": "school",
        "isced:level": "3",
        "name": "Karnataka Vidya Shala (KVS)HPS, Austin Town W No 71",
        "name:kn": "ಕರ್ನಾಟಕ ವಿದ್ಯಾ ಶಾಲಾ (ಕೆವಿಎಸ್) ಹಿರಿಯ ಪ್ರಾಥಮಿಕ ಶಾಲೆ, ಆಸ್ಟಿನ್‌ಟೌನ್‌",
        "operator": "Private Un-Aided",
        "school": "Higher Secondary"
      }
    },
    {
      "type": "node",
      "id": 6420770985,
      "lat": 12.9531262,
      "lon": 77.6204588,
      "tags": {
        "addr:place": "Austin Town",
        "amenity": "school",
        "isced:level": "3",
        "name": "Shanthinikethan HPS Vivekanag, Austin Town W No 71",
        "name:kn": "ಶಾಂತಿನಿಕೇತನ ಹಿರಿಯ ಪ್ರಾಥಮಿಕ ಶಾಲೆ ವಿವೇಕನಗರ, ಆಸ್ಟಿನ್‌ಟೌನ್‌",
        "operator": "Private Un-Aided",
        "school": "Higher Secondary"
      }
    },
    {
      "type": "node",
      "id": 6422297356,
      "lat": 12.9568361,
      "lon": 77.6137517,
      "tags": {
        "addr:place": "Austin Town",
        "amenity": "school",
        "isced:level": "3",
        "name": "Reliance School, Austin Town W No 71",
        "name:kn": "ರಿಲಯನ್ಸ್ ಶಾಲೆ ,ಆಸ್ಟಿನ್‌ಟೌನ್‌",
        "operator": "Private Un-Aided",
        "school": "Higher Secondary"
      }
    },
    {
      "type": "node",
      "id": 6536319890,
      "lat": 12.9515543,
      "lon": 77.6190638,
      "tags": {
        "addr:place": "Koramangala",
        "amenity": "school",
        "isced:level": "3",
        "name": "Sunshine HPS Lr Nagar, Koramangala",
        "name:kn": "ಸನ್ಶೈನ್ ಹಿರಿಯ ಪ್ರಾಥಮಿಕ ಶಾಲೆ ಎಲ್.ಆರ್.ನಗರ, ಕೋರಮಂಗಲ",
        "operator": "Private Un-Aided",
        "school": "Higher Secondary"
      }
    },
    {
      "type": "node",
      "id": 6579780092,
      "lat": 12.9643575,
      "lon": 77.6135306,
      "tags": {
        "amenity": "fast_food",
        "cuisine": "chinese",
        "name": "Little Chef"
      }
    },
    {
      "type": "node",
      "id": 6681215534,
      "lat": 12.964466,
      "lon": 77.6136929,
      "tags": {
        "shop": "copyshop",
        "survey:date": "2023-09-23"
      }
    },
    {
      "type": "node",
      "id": 6681215536,
      "lat": 12.9638217,
      "lon": 77.6144908,
      "tags": {
        "amenity": "fast_food",
        "cuisine": "indian",
        "name": "Chaitanya Delicacy",
        "takeaway": "yes"
      }
    },
    {
      "type": "node",
      "id": 6702845916,
      "lat": 12.9568937,
      "lon": 77.6178658,
      "tags": {
        "addr:place": "Eegipura",
        "amenity": "school",
        "isced:level": "3",
        "name": "Holy Christ HPS Eegipura",
        "name:kn": "ಹೋಲಿ ಕ್ರೈಸ್ಟ್ ಹಿರಿಯ ಪ್ರಾಥಮಿಕ ಶಾಲೆ ಈಜಿಪುರ",
        "operator": "Private Un-Aided",
        "school": "Higher Secondary"
      }
    },
    {
      "type": "node",
      "id": 6745434947,
      "lat": 12.9538525,
      "lon": 77.613761,
      "tags": {
        "addr:place": "Neelasandra",
        "amenity": "school",
        "isced:level": "1",
        "name": "Credence Public school",
        "name:kn": "ಕ್ರೆಡೆನ್ಸ್ ಪಬ್ಲಿಕ್ ನೀಲಸಂದ್ರ, ನೀಲಸಂದ್ರ",
        "operator": "Private Un-Aided",
        "school": "primary"
      }
    },
    {
      "type": "node",
      "id": 6882713303,
      "lat": 12.96539,
      "lon": 77.6105627,
      "tags": {
        "addr:city": "Bengaluru",
        "addr:district": "BENGALURU URBAN",
        "addr:full": "No.1, Nilsandra Road",
        "addr:postcode": "560047",
        "addr:state": "Karnataka",
        "amenity": "blood_bank",
        "contact:mobile": "9916065305",
        "contact:phone": "8040164348",
        "name": "Saint Philomena Blood Bank",
        "opening_hours": "24/7",
        "operator:type": "private",
        "source": "OpenGovernmentData"
      }
    },
    {
      "type": "node",
      "id": 6947674447,
      "lat": 12.9543777,
      "lon": 77.6209764,
      "tags": {
        "addr:district": "Bengaluru Urban",
        "addr:full": "No.162, 4Th Main, Opposite Post Office, Viveknagar, 20Yds, Viveknagar Bus Stand",
        "addr:postcode": "560047",
        "addr:state": "Karnataka",
        "amenity": "hospital",
        "name": "Sri Ram Speciality Hospital",
        "source": "OpenGovernmentData"
      }
    },
    {
      "type": "node",
      "id": 6948552667,
      "lat": 12.9526616,
      "lon": 77.61503,
      "tags": {
        "addr:district": "Bengaluru Urban",
        "addr:full": "#20, 7Th Cross Rosegarden, Neelasandra",
        "addr:postcode": "560047",
        "addr:state": "Karnataka",
        "amenity": "hospital",
        "name": "Get Well Hospital",
        "source": "OpenGovernmentData"
      }
    },
    {
      "type": "node",
      "id": 7007323121,
      "lat": 12.9652972,
      "lon": 77.6163818,
      "tags": {
        "addr:city": "Bengaluru",
        "addr:housenumber": "20",
        "addr:postcode": "560047",
        "addr:street": "2nd Cross Road",
        "name": "Begum Victoria",
        "shop": "cheese"
      }
    },
    {
      "type": "node",
      "id": 7448743126,
      "lat": 12.9639432,
      "lon": 77.6118784,
      "tags": {
        "amenity": "place_of_worship",
        "name": "Anjaneya Temple",
        "name:kn": "ಆಂಜನೇಯ ದೇವಸ್ಥಾನ",
        "religion": "hindu",
        "survey:date": "2023-09-26"
      }
    },
    {
      "type": "node",
      "id": 7576958026,
      "lat": 12.958244,
      "lon": 77.615077,
      "tags": {
        "addr:district": "Bengaluru Urban",
        "addr:full": "Austin Town, Neelasandra, Bengaluru",
        "addr:postcode": "560047",
        "addr:state": "Karnataka",
        "amenity": "clinic",
        "name": "Happy Heart Cardiac & Diabetes Clinic",
        "source": "Local Knowledge"
      }
    },
    {
      "type": "node",
      "id": 7576958030,
      "lat": 12.9638518,
      "lon": 77.6126513,
      "tags": {
        "addr:district": "Bengaluru Urban",
        "addr:full": "Ashok Nagar, Bengaluru",
        "addr:postcode": "560047",
        "addr:state": "Karnataka",
        "amenity": "dentist",
        "name": "Sai Speciality Dental Clinic",
        "source": "Local Knowledge"
      }
    },
    {
      "type": "node",
      "id": 7576958032,
      "lat": 12.9596227,
      "lon": 77.6146819,
      "tags": {
        "addr:district": "Bengaluru Urban",
        "addr:full": "Austin Town, Neelasandra, Bengaluru",
        "addr:postcode": "560047",
        "addr:state": "Karnataka",
        "amenity": "hospital",
        "name": "Rahul Maternity & Child Health Centre",
        "source": "Local Knowledge"
      }
    },
    {
      "type": "node",
      "id": 7576958036,
      "lat": 12.9598702,
      "lon": 77.6147257,
      "tags": {
        "addr:district": "Bengaluru Urban",
        "addr:full": "Austin Town, Neelasandra, Bengaluru",
        "addr:postcode": "560047",
        "addr:state": "Karnataka",
        "amenity": "clinic",
        "name": "Zama Health Care",
        "source": "Local Knowledge"
      }
    },
    {
      "type": "node",
      "id": 7576958064,
      "lat": 12.9652304,
      "lon": 77.6104334,
      "tags": {
        "addr:district": "Bengaluru Urban",
        "addr:full": "Campbell Road, Bangalore",
        "addr:postcode": "560047",
        "addr:state": "Karnataka",
        "amenity": "hospital",
        "name": "Alisa Eye Hospital",
        "source": "Local Knowledge"
      }
    },
    {
      "type": "node",
      "id": 7576958076,
      "lat": 12.9604446,
      "lon": 77.6147984,
      "tags": {
        "addr:district": "Bengaluru Urban",
        "addr:full": "Austin Town, Bengaluru",
        "addr:postcode": "560047",
        "addr:state": "Karnataka",
        "amenity": "clinic",
        "name": "Zak Eye Clinic",
        "source": "Local Knowledge"
      }
    },
    {
      "type": "node",
      "id": 7576958092,
      "lat": 12.960296,
      "lon": 77.614714,
      "tags": {
        "addr:district": "Bengaluru Urban",
        "addr:full": "Victoria Layout, Bengaluru",
        "addr:postcode": "560047",
        "addr:state": "Karnataka",
        "amenity": "hospital",
        "name": "Shas Eye Care",
        "source": "Local Knowledge"
      }
    },
    {
      "type": "node",
      "id": 7658290121,
      "lat": 12.9554808,
      "lon": 77.6157475,
      "tags": {
        "amenity": "post_office",
        "name": "Austin Town Post Office"
      }
    },
    {
      "type": "node",
      "id": 7843602199,
      "lat": 12.9647571,
      "lon": 77.6158916,
      "tags": {
        "name": "HOPCOMS",
        "shop": "greengrocer"
      }
    },
    {
      "type": "node",
      "id": 9108633819,
      "lat": 12.9616055,
      "lon": 77.614252,
      "tags": {
        "name": "Iyengers Bakery",
        "shop": "bakery"
      }
    },
    {
      "type": "node",
      "id": 9140200219,
      "lat": 12.9609373,
      "lon": 77.6146075,
      "tags": {
        "amenity": "place_of_worship",
        "religion": "hindu"
      }
    },
    {
      "type": "node",
      "id": 9140200220,
      "lat": 12.9588096,
      "lon": 77.6177216,
      "tags": {
        "amenity": "school"
      }
    },
    {
      "type": "node",
      "id": 9140200226,
      "lat": 12.9588488,
      "lon": 77.6171704,
      "tags": {
        "amenity": "place_of_worship",
        "religion": "hindu"
      }
    },
    {
      "type": "node",
      "id": 9175932899,
      "lat": 12.9639968,
      "lon": 77.6112507,
      "tags": {
        "amenity": "waste_disposal"
      }
    },
    {
      "type": "node",
      "id": 9175932903,
      "lat": 12.9654384,
      "lon": 77.6144426,
      "tags": {
        "amenity": "restaurant",
        "cuisine": "japanese",
        "name": "Miyajima Bento",
        "takeaway": "only"
      }
    },
    {
      "type": "node",
      "id": 9214580823,
      "lat": 12.9671413,
      "lon": 77.6141207,
      "tags": {
        "amenity": "place_of_worship",
        "religion": "christian"
      }
    },
    {
      "type": "node",
      "id": 9214580875,
      "lat": 12.9642974,
      "lon": 77.6146317,
      "tags": {
        "amenity": "bank",
        "atm": "yes",
        "brand": "HDFC Bank",
        "brand:wikidata": "Q631047",
        "name": "HDFC Bank",
        "name:kn": "ಎಚ್ ಡಿ ಎಫ್ ಸಿ",
        "operator": "HDFC Bank",
        "short_name": "HDFC"
      }
    },
    {
      "type": "node",
      "id": 9214580885,
      "lat": 12.9669962,
      "lon": 77.6140576,
      "tags": {
        "amenity": "atm"
      }
    },
    {
      "type": "node",
      "id": 9214580886,
      "lat": 12.9674327,
      "lon": 77.6142883,
      "tags": {
        "amenity": "place_of_worship",
        "religion": "hindu"
      }
    },
    {
      "type": "node",
      "id": 9654351739,
      "lat": 12.9645876,
      "lon": 77.6167801,
      "tags": {
        "name": "Vimor",
        "shop": "fabric"
      }
    },
    {
      "type": "node",
      "id": 9870805421,
      "lat": 12.9665205,
      "lon": 77.6131355,
      "tags": {
        "name": "Ravindu Toyota",
        "name:kn": "ರವಿಂದು ಟೋಯೋಟಾ",
        "shop": "car",
        "survey:date": "2023-09-14"
      }
    },
    {
      "type": "node",
      "id": 9870805422,
      "lat": 12.9654206,
      "lon": 77.617057,
      "tags": {
        "brand": "Ducati",
        "name": "VST Ducati",
        "shop": "motorcycle"
      }
    },
    {
      "type": "node",
      "id": 9930165080,
      "lat": 12.9568165,
      "lon": 77.6167023,
      "tags": {
        "amenity": "fast_food",
        "brand": "Indira Canteen",
        "brand:wikidata": "Q36164828",
        "cuisine": "south_indian",
        "name": "Indira Canteen",
        "operator": "BBMP",
        "takeaway": "yes"
      }
    },
    {
      "type": "node",
      "id": 9930197165,
      "lat": 12.9614287,
      "lon": 77.615675,
      "tags": {
        "name": "Nandini Milk Parlour",
        "shop": "dairy"
      }
    },
    {
      "type": "node",
      "id": 9930197208,
      "lat": 12.9648895,
      "lon": 77.6122136,
      "tags": {
        "amenity": "community_centre",
        "name": "Shree Shwetambar Sthanakvasi Jain",
        "survey:date": "2023-09-15"
      }
    },
    {
      "type": "node",
      "id": 9952087679,
      "lat": 12.955073,
      "lon": 77.6145042,
      "tags": {
        "amenity": "place_of_worship",
        "religion": "muslim"
      }
    },
    {
      "type": "node",
      "id": 10047367417,
      "lat": 12.9551097,
      "lon": 77.6207198,
      "tags": {
        "name": "Epson Service Centre",
        "shop": "computer"
      }
    },
    {
      "type": "node",
      "id": 10314122714,
      "lat": 12.9523754,
      "lon": 77.618828,
      "tags": {
        "amenity": "place_of_worship",
        "religion": "hindu"
      }
    },
    {
      "type": "node",
      "id": 10314122715,
      "lat": 12.9524002,
      "lon": 77.6190586,
      "tags": {
        "amenity": "community_centre",
        "name": "Samata Sainik Dal",
        "name:kn": "ಸಮತ ಸೈನಿಕ ದಳ",
        "ups_community": "community_centre",
        "website": "https://ssdindia.org/"
      }
    },
    {
      "type": "node",
      "id": 10600743037,
      "lat": 12.9648058,
      "lon": 77.6100169,
      "tags": {
        "amenity": "place_of_worship",
        "religion": "hindu"
      }
    },
    {
      "type": "node",
      "id": 10727947513,
      "lat": 12.958211,
      "lon": 77.6152351,
      "tags": {
        "amenity": "restaurant",
        "contact:instagram": "amdotibetanrestaurant",
        "cuisine": "tibetan",
        "name": "Amdo's Corner"
      }
    },
    {
      "type": "node",
      "id": 10729766614,
      "lat": 12.9575366,
      "lon": 77.6160559,
      "tags": {
        "amenity": "shelter",
        "shelter_type": "gazebo"
      }
    },
    {
      "type": "node",
      "id": 10729766615,
      "lat": 12.9561669,
      "lon": 77.6166098,
      "tags": {
        "amenity": "shelter",
        "shelter_type": "gazebo"
      }
    },
    {
      "type": "node",
      "id": 10833856110,
      "lat": 12.9646464,
      "lon": 77.6130532,
      "tags": {
        "name": "Shear Genius",
        "shop": "beauty",
        "survey:date": "2023-09-15"
      }
    },
    {
      "type": "node",
      "id": 10833856111,
      "lat": 12.9643497,
      "lon": 77.6134743,
      "tags": {
        "name": "Sunrise Mart",
        "shop": "supermarket"
      }
    },
    {
      "type": "node",
      "id": 10833856112,
      "lat": 12.9644738,
      "lon": 77.613721,
      "tags": {
        "name": "Daily Needs",
        "shop": "supermarket",
        "survey:date": "2023-09-23"
      }
    },
    {
      "type": "node",
      "id": 10839457962,
      "lat": 12.9662514,
      "lon": 77.6128872,
      "tags": {
        "access": "private",
        "amenity": "parking_entrance",
        "parking": "underground",
        "survey:date": "2023-09-23"
      }
    },
    {
      "type": "node",
      "id": 10839457966,
      "lat": 12.9658458,
      "lon": 77.6129135,
      "tags": {
        "access": "private",
        "amenity": "parking_entrance",
        "parking": "underground"
      }
    },
    {
      "type": "node",
      "id": 10873245745,
      "lat": 12.9560395,
      "lon": 77.6210998,
      "tags": {
        "amenity": "bank",
        "atm": "yes",
        "brand": "Canara Bank",
        "brand:en": "Canara Bank",
        "brand:hi": "केनरा बैंक",
        "brand:kn": "ಕೆನರಾ ಬ್ಯಾಂಕ್",
        "brand:pa": "ਕੇਨਰਾ ਬੈਂਕ",
        "brand:pnb": "کینرا بینک",
        "brand:ur": "کینرا بینک",
        "brand:wikidata": "Q2003777",
        "name": "Canara Bank",
        "name:en": "Canara Bank",
        "name:hi": "केनरा बैंक",
        "name:kn": "ಕೆನರಾ ಬ್ಯಾಂಕ್",
        "name:pa": "ਕੇਨਰਾ ਬੈਂਕ",
        "name:pnb": "کینرا بینک",
        "name:ur": "کینرا بینک",
        "operator": "Canara Bank"
      }
    },
    {
      "type": "node",
      "id": 11185188346,
      "lat": 12.9662977,
      "lon": 77.6129784,
      "tags": {
        "amenity": "post_box",
        "operator": "India Post",
        "operator:wikidata": "Q3519720"
      }
    },
    {
      "type": "node",
      "id": 11190377756,
      "lat": 12.966298,
      "lon": 77.6124588,
      "tags": {
        "access": "private",
        "amenity": "parking_entrance",
        "parking": "underground"
      }
    },
    {
      "type": "node",
      "id": 11192186089,
      "lat": 12.9659546,
      "lon": 77.6122545,
      "tags": {
        "leisure": "pitch",
        "sport": "badminton",
        "survey:date": "2023-09-14"
      }
    },
    {
      "type": "node",
      "id": 11211862352,
      "lat": 12.964373,
      "lon": 77.6145777,
      "tags": {
        "addr:street": "Palm Grove Road",
        "name": "Nesto Fresh Mart",
        "shop": "supermarket",
        "survey:date": "2023-09-23"
      }
    },
    {
      "type": "node",
      "id": 11391159326,
      "lat": 12.9672311,
      "lon": 77.6141651,
      "tags": {
        "amenity": "fast_food",
        "check_date": "2023-12-03",
        "name": "Shanti Hotel"
      }
    },
    {
      "type": "node",
      "id": 11505830446,
      "lat": 12.9537213,
      "lon": 77.6203916,
      "tags": {
        "access": "yes",
        "amenity": "drinking_water",
        "fee": "yes"
      }
    },
    {
      "type": "node",
      "id": 11505830447,
      "lat": 12.9552768,
      "lon": 77.6207566,
      "tags": {
        "amenity": "pharmacy",
        "check_date": "2024-01-10",
        "healthcare": "pharmacy",
        "name": "Sundeep Pharma"
      }
    },
    {
      "type": "node",
      "id": 11505830448,
      "lat": 12.9560508,
      "lon": 77.6208156,
      "tags": {
        "amenity": "fast_food",
        "check_date": "2024-01-10",
        "name": "Sri Annapoorneshwari Hotel"
      }
    },
    {
      "type": "node",
      "id": 12260448999,
      "lat": 12.9664693,
      "lon": 77.6126813,
      "tags": {
        "addr:housenumber": "33/12",
        "addr:street": "Victoria Road",
        "amenity": "cafe",
        "check_date": "2024-10-18",
        "contact:instagram": "https://www.instagram.com/sakuramatchabar",
        "name": "Sakura Matcha Bar"
      }
    },
    {
      "type": "node",
      "id": 12389587601,
      "lat": 12.9658506,
      "lon": 77.6109015,
      "tags": {
        "addr:housenumber": "4",
        "addr:postcode": "560047",
        "addr:street": "Mother Teresa Road",
        "amenity": "hospital",
        "name": "St Philomenas Hospital OPD Building",
        "phone": "08040164346;08040164300",
        "website": "https://www.stphilomenashospital.com/",
        "wheelchair": "yes"
      }
    },
    {
      "type": "node",
      "id": 12737013801,
      "lat": 12.9644726,
      "lon": 77.6143018,
      "tags": {
        "addr:housenumber": "13",
        "addr:postcode": "560047",
        "addr:street": "Palmgrove Road, Stage 2, Xavier Layout, Victoria Layout",
        "amenity": "hospital",
        "name": "Hosmat Hospitals",
        "phone": "+918025593796",
        "website": "https://www.hosmathospitals.com/"
      }
    },
    {
      "type": "way",
      "id": 28126732,
      "center": {
        "lat": 12.966753,
        "lon": 77.6116928
      },
      "tags": {
        "brand": "Lifestyle",
        "brand:wikidata": "Q6545496",
        "building": "commercial",
        "building:levels": "4",
        "name": "Lifestyle",
        "roof:levels": "0",
        "roof:shape": "flat",
        "shop": "clothes"
      }
    },
    {
      "type": "way",
      "id": 37763936,
      "center": {
        "lat": 12.9674658,
        "lon": 77.6127266
      },
      "tags": {
        "amenity": "school",
        "brand": "Kendriya Vidyalaya",
        "brand:wikidata": "Q1156653",
        "name": "Kendriya Vidyalaya - ASC",
        "name:kn": "ಕೇಂದ್ರಿಯ ವಿದ್ಯಾಲಯ",
        "operator:type": "government_non_profit"
      }
    },
    {
      "type": "way",
      "id": 53264747,
      "center": {
        "lat": 12.9683854,
        "lon": 77.6165638
      },
      "tags": {
        "leisure": "pitch"
      }
    },
    {
      "type": "way",
      "id": 112580278,
      "center": {
        "lat": 12.9536356,
        "lon": 77.6188074
      },
      "tags": {
        "amenity": "place_of_worship",
        "name": "Infant Jesus Church",
        "religion": "christian",
        "wikidata": "Q15378772",
        "wikimedia_commons": "Category:Infant Jesus Church, Bangalore",
        "wikipedia": "en:Infant Jesus Church, Bangalore"
      }
    },
    {
      "type": "way",
      "id": 143182749,
      "center": {
        "lat": 12.9624657,
        "lon": 77.6137344
      },
      "tags": {
        "leisure": "park"
      }
    },
    {
      "type": "way",
      "id": 326201186,
      "center": {
        "lat": 12.9543449,
        "lon": 77.6226955
      },
      "tags": {
        "amenity": "bus_station",
        "name": "Viveknagar Bus Station",
        "name:kn": "ವಿವೇಕನಗರ ಬಸ್ ನಿಲ್ದಾಣ",
        "wheelchair": "no"
      }
    },
    {
      "type": "way",
      "id": 346821156,
      "center": {
        "lat": 12.9544178,
        "lon": 77.6237098
      },
      "tags": {
        "addr:district": "Bangalore",
        "addr:postcode": "560047",
        "amenity": "place_of_worship",
        "building": "yes",
        "denomination": "sunni",
        "name": "Masjid E Mairaj",
        "name:kn": "ಮಸ್ಜಿದ್ ಇ ಮೈರಾಜ್",
        "religion": "muslim"
      }
    },
    {
      "type": "way",
      "id": 348850034,
      "center": {
        "lat": 12.9632645,
        "lon": 77.6122331
      },
      "tags": {
        "amenity": "place_of_worship",
        "building": "yes",
        "name": "Masjid e Munnawara",
        "name:kn": "ಮಸ್ಜಿದ್ ಇ ಮುನ್ನವರ",
        "religion": "muslim"
      }
    },
    {
      "type": "way",
      "id": 348929160,
      "center": {
        "lat": 12.9661393,
        "lon": 77.613648
      },
      "tags": {
        "amenity": "monastery",
        "building": "convent",
        "community:gender": "female",
        "denomination": "catholic",
        "name": "Assisi Nilaya",
        "religion": "christian"
      }
    },
    {
      "type": "way",
      "id": 348929257,
      "center": {
        "lat": 12.964398,
        "lon": 77.6131786
      },
      "tags": {
        "amenity": "place_of_worship",
        "building": "yes",
        "name": "Sri Maruthi Seva Mandal",
        "religion": "hindu"
      }
    },
    {
      "type": "way",
      "id": 401993914,
      "center": {
        "lat": 12.9626625,
        "lon": 77.6143919
      },
      "tags": {
        "leisure": "park"
      }
    },
    {
      "type": "way",
      "id": 401993915,
      "center": {
        "lat": 12.9596992,
        "lon": 77.6151708
      },
      "tags": {
        "leisure": "playground"
      }
    },
    {
      "type": "way",
      "id": 401993916,
      "center": {
        "lat": 12.9595889,
        "lon": 77.6141447
      },
      "tags": {
        "leisure": "playground"
      }
    },
    {
      "type": "way",
      "id": 401993921,
      "center": {
        "lat": 12.9576398,
        "lon": 77.6141529
      },
      "tags": {
        "amenity": "bus_station",
        "name": "Neelasandra",
        "name:kn": "ನೀಲಸಂದ್ರ"
      }
    },
    {
      "type": "way",
      "id": 403474874,
      "center": {
        "lat": 12.9651012,
        "lon": 77.6189349
      },
      "tags": {
        "leisure": "park",
        "name": "ASC War Memorial",
        "tourism": "attraction"
      }
    },
    {
      "type": "way",
      "id": 403474875,
      "center": {
        "lat": 12.9666035,
        "lon": 77.6219418
      },
      "tags": {
        "amenity": "place_of_worship",
        "building": "church",
        "religion": "christian"
      }
    },
    {
      "type": "way",
      "id": 411057597,
      "center": {
        "lat": 12.9548113,
        "lon": 77.6164088
      },
      "tags": {
        "leisure": "park"
      }
    },
    {
      "type": "way",
      "id": 411057598,
      "center": {
        "lat": 12.9556588,
        "lon": 77.615102
      },
      "tags": {
        "leisure": "playground"
      }
    },
    {
      "type": "way",
      "id": 411057599,
      "center": {
        "lat": 12.95618,
        "lon": 77.6164388
      },
      "tags": {
        "leisure": "park"
      }
    },
    {
      "type": "way",
      "id": 411057600,
      "center": {
        "lat": 12.9535915,
        "lon": 77.6174661
      },
      "tags": {
        "amenity": "parking"
      }
    },
    {
      "type": "way",
      "id": 411057602,
      "center": {
        "lat": 12.9552973,
        "lon": 77.6162142
      },
      "tags": {
        "leisure": "park"
      }
    },
    {
      "type": "way",
      "id": 411057603,
      "center": {
        "lat": 12.9575563,
        "lon": 77.6159889
      },
      "tags": {
        "leisure": "playground"
      }
    },
    {
      "type": "way",
      "id": 411057604,
      "center": {
        "lat": 12.9537758,
        "lon": 77.6188132
      },
      "tags": {
        "amenity": "place_of_worship",
        "building": "church",
        "name": "Infant Jesus Church",
        "religion": "christian"
      }
    },
    {
      "type": "way",
      "id": 442014335,
      "center": {
        "lat": 12.959741,
        "lon": 77.6086465
      },
      "tags": {
        "access": "private",
        "leisure": "swimming_pool"
      }
    },
    {
      "type": "way",
      "id": 487956085,
      "center": {
        "lat": 12.9662375,
        "lon": 77.611533
      },
      "tags": {
        "amenity": "school",
        "name": "St. Henriettas English Primary School"
      }
    },
    {
      "type": "way",
      "id": 487956103,
      "center": {
        "lat": 12.9649568,
        "lon": 77.6111375
      },
      "tags": {
        "addr:city": "bangalore",
        "addr:district": "Bengaluru Urban",
        "addr:full": "No. 4, Mother Theresa Road, Campbell Road",
        "addr:housenumber": "4",
        "addr:postcode": "560047",
        "addr:state": "Karnataka",
        "addr:street": "Mother Theresa Rd, Vivek Nagar Post, Near Life Style, Xavier Layout, Victoria Layout",
        "amenity": "hospital",
        "name": "St. Philomena's Hospital",
        "name:kn": "ಸೇಂಟ್ ಫಿಲೋಮೇನ ಆಸ್ಪತ್ರೆ",
        "phone": "080 4016 4433",
        "source": "OpenGovernmentData",
        "website": "stphilomenashospital.org",
        "wheelchair": "yes"
      }
    },
    {
      "type": "way",
      "id": 487959492,
      "center": {
        "lat": 12.9613583,
        "lon": 77.6168058
      },
      "tags": {
        "amenity": "school",
        "operator": "BBMP Girls High School"
      }
    },
    {
      "type": "way",
      "id": 635317786,
      "center": {
        "lat": 12.9656813,
        "lon": 77.6181865
      },
      "tags": {
        "access": "private",
        "hoops": "2",
        "leisure": "pitch",
        "sport": "basketball"
      }
    },
    {
      "type": "way",
      "id": 689141921,
      "center": {
        "lat": 12.9665309,
        "lon": 77.6123774
      },
      "tags": {
        "amenity": "school",
        "name": "Shree Dhanraj Phoolchand Hindi High School",
        "survey:date": "2023-09-26"
      }
    },
    {
      "type": "way",
      "id": 796458046,
      "center": {
        "lat": 12.9625927,
        "lon": 77.6096003
      },
      "tags": {
        "addr:city": "Bengaluru",
        "addr:postcode": "560025",
        "addr:street": "Hosur Road",
        "alt_name": "Bangalore Military School",
        "alt_name_1": "Rashtriya Military School, Bengaluru",
        "amenity": "school",
        "email": "rmsbengaluru@gmail.com",
        "fax": "+91 080- 25308191",
        "landuse": "military",
        "name": "Rashtriya Military School",
        "old_name": "King George Royal Indian Military College",
        "operator": "Ministry of Defence, Government of India",
        "phone": "+91 080-29602555;+91 080- 25554972",
        "short_name": "CMP",
        "start_date": "1946-01-01",
        "website": "https://www.rashtriyamilitaryschools.edu.in/rmsbengaluru/",
        "wikidata": "Q4855064",
        "wikipedia": "en:Bangalore Military School"
      }
    },
    {
      "type": "way",
      "id": 796458056,
      "center": {
        "lat": 12.9667632,
        "lon": 77.6141253
      },
      "tags": {
        "amenity": "recycling",
        "name": "BBMP Waste Transfer Station",
        "name:kn": "ಒಣ ತ್ಯಾಜ್ಯ ನಿರ್ವಹಣ",
        "office": "government",
        "recycling_type": "centre"
      }
    },
    {
      "type": "way",
      "id": 820141172,
      "center": {
        "lat": 12.9585254,
        "lon": 77.6141502
      },
      "tags": {
        "amenity": "community_centre",
        "name": "Jasma Mandir Kalyana Mantapa"
      }
    },
    {
      "type": "way",
      "id": 891226347,
      "center": {
        "lat": 12.9611575,
        "lon": 77.6160391
      },
      "tags": {
        "amenity": "school",
        "isced:level": "2",
        "name": "GTHPS Austintown",
        "name:kn": "ಸರ್ಕಾರಿ ತೆಲುಗು ಹಿರಿಯ ಪ್ರಾಥಮಿಕ ಶಾಲೆ ಆಸ್ಟಿನ್‌ಟೌನ್‌",
        "operator": "BBMP",
        "school": "primary"
      }
    },
    {
      "type": "way",
      "id": 891226349,
      "center": {
        "lat": 12.9593532,
        "lon": 77.6190318
      },
      "tags": {
        "amenity": "school",
        "isced:level": "2",
        "name": "Mahanagar Palike HPS Austin Town",
        "name:kn": "ಮಹಾನಗರ್ ಪಾಲಿಕೆ ಹಿರಿಯ ಪ್ರಾಥಮಿಕ ಶಾಲೆ ಆಸ್ಟಿನ್‌ಟೌನ್‌",
        "operator": "Department of Education",
        "school": "primary"
      }
    },
    {
      "type": "way",
      "id": 988901286,
      "center": {
        "lat": 12.9595938,
        "lon": 77.6160888
      },
      "tags": {
        "leisure": "park"
      }
    },
    {
      "type": "way",
      "id": 1050589709,
      "center": {
        "lat": 12.964343,
        "lon": 77.6190484
      },
      "tags": {
        "amenity": "school",
        "name": "Army Public School ASC C&C"
      }
    },
    {
      "type": "way",
      "id": 1050589710,
      "center": {
        "lat": 12.964579,
        "lon": 77.615788
      },
      "tags": {
        "leisure": "park"
      }
    },
    {
      "type": "way",
      "id": 1050589711,
      "center": {
        "lat": 12.9632309,
        "lon": 77.6130612
      },
      "tags": {
        "amenity": "school",
        "full_name": "Government Urdu Model Primary School, Yellagondanapalya",
        "isced:level": "2",
        "name": "GUMPS Yalagondana Palya",
        "name:kn": "ಸರ್ಕಾರಿ ಉರ್ದು ಪ್ರಾಥಮಿಕ ಮಾದರಿ ಶಾಲೆ ಯಳಗೊಂಡನ ಪಾಳ್ಯ",
        "operator": "Department of Education",
        "school": "primary"
      }
    },
    {
      "type": "way",
      "id": 1050589713,
      "center": {
        "lat": 12.9607001,
        "lon": 77.6142662
      },
      "tags": {
        "leisure": "park"
      }
    },
    {
      "type": "way",
      "id": 1050589714,
      "center": {
        "lat": 12.9606664,
        "lon": 77.6152191
      },
      "tags": {
        "amenity": "clinic",
        "name": "Austin Town Maternity Home",
        "name:kn": "ಮಾತೃತ್ವ ಮನೆ"
      }
    },
    {
      "type": "way",
      "id": 1050589715,
      "center": {
        "lat": 12.9613784,
        "lon": 77.6139631
      },
      "tags": {
        "amenity": "marketplace",
        "landuse": "commercial",
        "name": "BMP Market"
      }
    },
    {
      "type": "way",
      "id": 1064840025,
      "center": {
        "lat": 12.9654835,
        "lon": 77.6107585
      },
      "tags": {
        "access": "customers",
        "amenity": "parking",
        "name": "St Philomena's Parking Lot",
        "parking": "surface",
        "survey:date": "2023-09-26"
      }
    },
    {
      "type": "way",
      "id": 1064840027,
      "center": {
        "lat": 12.9670656,
        "lon": 77.6125534
      },
      "tags": {
        "addr:city": "Bengaluru",
        "addr:country": "IN",
        "addr:housenumber": "5",
        "addr:postcode": "560047",
        "addr:street": "Victoria Road",
        "brand": "Ovion Lifestyle",
        "building": "commercial",
        "contact:facebook": "ovionlifestyle",
        "contact:instagram": "ovion_lifestyle",
        "contact:linkedin": "ovion",
        "contact:twitter": "ovionofficial",
        "contact:youtube": "https://www.youtube.com/channel/UCUQkIjDjFPoVNnhnlhHY3pQ",
        "email": "digital@ovionlifestyle.in",
        "name": "Ovion Lifestyle",
        "opening_hours": "Mo-Sa 10:30-19:30",
        "operator": "Ovion Lifestyle",
        "payment:cash": "yes",
        "payment:credit_cards": "yes",
        "payment:debit_cards": "yes",
        "payment:upi": "yes",
        "phone": "9900012218",
        "shop": "furniture",
        "website": "https://ovion.in/"
      }
    },
    {
      "type": "way",
      "id": 1064840030,
      "center": {
        "lat": 12.9669479,
        "lon": 77.6117469
      },
      "tags": {
        "access": "customers",
        "amenity": "parking",
        "fee": "no",
        "parking": "surface"
      }
    },
    {
      "type": "way",
      "id": 1067951549,
      "center": {
        "lat": 12.9553325,
        "lon": 77.621075
      },
      "tags": {
        "amenity": "school",
        "name": "Seva Bhat Telugu High School"
      }
    },
    {
      "type": "way",
      "id": 1067951550,
      "center": {
        "lat": 12.9577314,
        "lon": 77.6123209
      },
      "tags": {
        "amenity": "school"
      }
    },
    {
      "type": "way",
      "id": 1067951551,
      "center": {
        "lat": 12.9570047,
        "lon": 77.6122804
      },
      "tags": {
        "amenity": "place_of_worship",
        "religion": "muslim"
      }
    },
    {
      "type": "way",
      "id": 1083590209,
      "center": {
        "lat": 12.9618003,
        "lon": 77.6169608
      },
      "tags": {
        "amenity": "place_of_worship",
        "religion": "hindu"
      }
    },
    {
      "type": "way",
      "id": 1083590211,
      "center": {
        "lat": 12.9618534,
        "lon": 77.6158708
      },
      "tags": {
        "access": "private",
        "amenity": "motorcycle_parking",
        "parking": "surface"
      }
    },
    {
      "type": "way",
      "id": 1083590213,
      "center": {
        "lat": 12.9618732,
        "lon": 77.6161142
      },
      "tags": {
        "access": "private",
        "amenity": "parking",
        "parking": "surface"
      }
    },
    {
      "type": "way",
      "id": 1083590216,
      "center": {
        "lat": 12.9613307,
        "lon": 77.6125592
      },
      "tags": {
        "leisure": "playground",
        "name": "Cement Line Playground"
      }
    },
    {
      "type": "way",
      "id": 1083590220,
      "center": {
        "lat": 12.9639717,
        "lon": 77.611857
      },
      "tags": {
        "amenity": "place_of_worship",
        "religion": "hindu"
      }
    },
    {
      "type": "way",
      "id": 1086134448,
      "center": {
        "lat": 12.9571311,
        "lon": 77.6141597
      },
      "tags": {
        "amenity": "school"
      }
    },
    {
      "type": "way",
      "id": 1086134449,
      "center": {
        "lat": 12.9575581,
        "lon": 77.6146887
      },
      "tags": {
        "access": "customers",
        "amenity": "parking",
        "parking": "surface"
      }
    },
    {
      "type": "way",
      "id": 1086134450,
      "center": {
        "lat": 12.9589711,
        "lon": 77.6168498
      },
      "tags": {
        "amenity": "school"
      }
    },
    {
      "type": "way",
      "id": 1086134454,
      "center": {
        "lat": 12.957604,
        "lon": 77.6151191
      },
      "tags": {
        "access": "customers",
        "amenity": "parking",
        "parking": "surface"
      }
    },
    {
      "type": "way",
      "id": 1093290443,
      "center": {
        "lat": 12.9639991,
        "lon": 77.6161533
      },
      "tags": {
        "amenity": "school"
      }
    },
    {
      "type": "way",
      "id": 1095462045,
      "center": {
        "lat": 12.9587565,
        "lon": 77.6174079
      },
      "tags": {
        "alt_name": "Maitreya Temple",
        "amenity": "monastery",
        "community:gender": "mixed",
        "contact:facebook": "maitreyact",
        "denomination": "yiguandao",
        "email": "maitreya.ct@gmail.com",
        "landuse": "religious",
        "name": "Hong Ci Monastery",
        "religion": "taoist"
      }
    },
    {
      "type": "way",
      "id": 1119896626,
      "center": {
        "lat": 12.9646757,
        "lon": 77.6145565
      },
      "tags": {
        "amenity": "recycling",
        "landuse": "commercial",
        "name": "BBMP Dry Waste Collection Center",
        "name:kn": "ಒಣ ತ್ಯಾಜ್ಯ ನಿರ್ವಹಣೆಗೆ ಸ್ಥಳ",
        "recycling_type": "centre"
      }
    },
    {
      "type": "way",
      "id": 1137187609,
      "center": {
        "lat": 12.964601,
        "lon": 77.6108833
      },
      "tags": {
        "amenity": "college",
        "name": "St. Philomena's College of Nursing",
        "website": "https://philomenasnursingcollege.com/"
      }
    },
    {
      "type": "way",
      "id": 1137187612,
      "center": {
        "lat": 12.9660531,
        "lon": 77.6138981
      },
      "tags": {
        "access": "permissive",
        "amenity": "parking",
        "parking": "surface"
      }
    },
    {
      "type": "way",
      "id": 1153736759,
      "center": {
        "lat": 12.9546763,
        "lon": 77.620947
      },
      "tags": {
        "amenity": "post_office",
        "name": "India Post",
        "name:kn": "ಅಂಚೆ ಕಛೇರಿ",
        "operator": "India Post",
        "operator:wikidata": "Q3519720",
        "wheelchair": "no"
      }
    },
    {
      "type": "way",
      "id": 1153736764,
      "center": {
        "lat": 12.9518683,
        "lon": 77.622351
      },
      "tags": {
        "amenity": "police",
        "name": "Viveknagar Police Station",
        "name:kn": "ವಿವೇಕನಗರ ಆರಕ್ಷಕ ಠಾಣೆ"
      }
    },
    {
      "type": "way",
      "id": 1157161753,
      "center": {
        "lat": 12.9569422,
        "lon": 77.6195084
      },
      "tags": {
        "amenity": "cinema",
        "landuse": "commercial",
        "name": "Sri Balaji",
        "name:en": "Sri Balaji"
      }
    },
    {
      "type": "way",
      "id": 1169301033,
      "center": {
        "lat": 12.956232,
        "lon": 77.6207994
      },
      "tags": {
        "amenity": "clinic",
        "healthcare": "clinic",
        "name": "Namma Clinic"
      }
    },
    {
      "type": "way",
      "id": 1207728484,
      "center": {
        "lat": 12.9663622,
        "lon": 77.6130966
      },
      "tags": {
        "access": "permissive",
        "amenity": "motorcycle_parking",
        "parking": "surface"
      }
    },
    {
      "type": "way",
      "id": 1218033510,
      "center": {
        "lat": 12.954134,
        "lon": 77.623748
      },
      "tags": {
        "addr:city": "Bengaluru",
        "addr:postcode": "560047",
        "addr:street": "4th Main Rd, Viveka Nagar",
        "branch": "Milk Parlour",
        "brand": "Nandini",
        "brand:wikidata": "Q124374212",
        "building": "yes",
        "name": "Nandini Shoppe",
        "name:kn": "ನಂದಿನಿ ಹಾಲಿನ ಅಂಗಡಿ",
        "shop": "dairy"
      }
    },
    {
      "type": "way",
      "id": 1305606100,
      "center": {
        "lat": 12.956049,
        "lon": 77.6247013
      },
      "tags": {
        "access": "private",
        "leisure": "track",
        "sport": "athletics"
      }
    },
    {
      "type": "way",
      "id": 1305606101,
      "center": {
        "lat": 12.956348,
        "lon": 77.6260777
      },
      "tags": {
        "access": "private",
        "leisure": "swimming_pool"
      }
    },
    {
      "type": "way",
      "id": 1328147336,
      "center": {
        "lat": 12.9552168,
        "lon": 77.6169635
      },
      "tags": {
        "leisure": "park"
      }
    },
    {
      "type": "way",
      "id": 1328147337,
      "center": {
        "lat": 12.9556536,
        "lon": 77.6166956
      },
      "tags": {
        "leisure": "park"
      }
    },
    {
      "type": "way",
      "id": 1328147338,
      "center": {
        "lat": 12.9565969,
        "lon": 77.6164009
      },
      "tags": {
        "leisure": "park"
      }
    },
    {
      "type": "way",
      "id": 1333459030,
      "center": {
        "lat": 12.9561861,
        "lon": 77.6163355
      },
      "tags": {
        "leisure": "playground"
      }
    },
    {
      "type": "way",
      "id": 1347077896,
      "center": {
        "lat": 12.9683722,
        "lon": 77.6145679
      },
      "tags": {
        "leisure": "garden"
      }
    }
  ]
}