{
  "area_name": "Varanasi",
  "osm_id": 2477505097,
  "osm_type": "node",
  "place_type": "neighbourhood",
  "amenity_count": 29,
  "amenities": [
    {
      "type": "node",
      "id": 4448082148,
      "lat": 13.0241512,
      "lon": 77.6899413,
      "tags": {
        "addr:city": "Bangalore",
        "addr:housenumber": "#23",
        "addr:postcode": "560036",
        "addr:street": "Shop No.2,T.C.Playa, Opp.Bharath Petroleum, Sonnathammanahalli K.R.Puram, Anandapura, Battarahalli",
        "amenity": "pharmacy",
        "name": "Sree Manjunatha Medicals",
        "phone": "+9199004 94039",
        "source": "http://bestofhealthindia.com/"
      }
    },
    {
      "type": "node",
      "id": 4844865034,
      "lat": 13.0377467,
      "lon": 77.6837046,
      "tags": {
        "name": "Shri's Balaji",
        "name:en": "Shri's Balaji",
        "shop": "greengrocer"
      }
    },
    {
      "type": "node",
      "id": 7572131865,
      "lat": 13.0281472,
      "lon": 77.67947,
      "tags": {
        "addr:district": "Bengaluru Urban",
        "addr:full": "Ramamurthy Nagar, Bengaluru",
        "addr:postcode": "560043",
        "addr:state": "Karnataka",
        "amenity": "dentist",
        "name": "Healthy smiles dental clinic",
        "source": "Local Knowledge"
      }
    },
    {
      "type": "node",
      "id": 7572131890,
      "lat": 13.0241655,
      "lon": 77.6915736,
      "tags": {
        "addr:district": "Bengaluru Urban",
        "addr:full": "Krishnarajapura, Bengaluru",
        "addr:postcode": "560036",
        "addr:state": "Karnataka",
        "amenity": "clinic",
        "name": "Sri Krishna Ayurvedic Clinic",
        "source": "Local Knowledge"
      }
    },
    {
      "type": "node",
      "id": 7572131895,
      "lat": 13.024184,
      "lon": 77.691392,
      "tags": {
        "addr:district": "Bengaluru Urban",
        "addr:full": "Anandpura, Krishnarajapura, Bengaluru",
        "addr:postcode": "560036",
        "addr:state": "Karnataka",
        "amenity": "dentist",
        "name": "Smart Dental Clinic",
        "source": "Local Knowledge"
      }
    },
    {
      "type": "node",
      "id": 7572131902,
      "lat": 13.028101,
      "lon": 77.6812547,
      "tags": {
        "addr:district": "Bengaluru Urban",
        "addr:full": "NRI Layout, Bengaluru",
        "addr:postcode": "560016",
        "addr:state": "Karnataka",
        "amenity": "clinic",
        "name": "Niswaras Homeopathy Clinic",
        "source": "Local Knowledge"
      }
    },
    {
      "type": "node",
      "id": 7572131911,
      "lat": 13.0239661,
      "lon": 77.691932,
      "tags": {
        "addr:district": "Bengaluru Urban",
        "addr:full": "Anandapura, Battarahalli, Bengaluru",
        "addr:postcode": "560036",
        "addr:state": "Karnataka",
        "amenity": "clinic",
        "name": "GSR Dental & Health Care",
        "source": "Local Knowledge"
      }
    },
    {
      "type": "node",
      "id": 7572131912,
      "lat": 13.0239342,
      "lon": 77.6917622,
      "tags": {
        "addr:district": "Bengaluru Urban",
        "addr:full": "Anandapura, Battarahalli, Bengaluru",
        "addr:postcode": "560036",
        "addr:state": "Karnataka",
        "amenity": "clinic",
        "name": "Amma Poly Clinic",
        "source": "Local Knowledge"
      }
    },
    {
      "type": "node",
      "id": 7572131917,
      "lat": 13.0301944,
      "lon": 77.682325,
      "tags": {
        "addr:district": "Bengaluru Urban",
        "addr:full": "Bengaluru",
        "addr:postcode": "560016",
        "addr:state": "Karnataka",
        "amenity": "clinic",
        "name": "Shree Clinic",
        "source": "Local Knowledge"
      }
    },
    {
      "type": "node",
      "id": 7572131933,
      "lat": 13.0233824,
      "lon": 77.6905904,
      "tags": {
        "addr:district": "Bengaluru Urban",
        "addr:full": "P and T Layout, Jinkethimmanahalli, Battarahalli, Bengaluru",
        "addr:postcode": "560049",
        "addr:state": "Karnataka",
        "amenity": "clinic",
        "name": "Sri Vinayaka Child Care Clinic",
        "source": "Local Knowledge"
      }
    },
    {
      "type": "node",
      "id": 12960370743,
      "lat": 13.0239786,
      "lon": 77.6919984,
      "tags": {
        "brand": "Kanti Sweets",
        "brand:wikidata": "Q124374180",
        "check_date": "2025-06-29",
        "name": "Kanti Sweets",
        "shop": "confectionery"
      }
    },
    {
      "type": "way",
      "id": 1313244894,
      "center": {
        "lat": 13.0222409,
        "lon": 77.689256
      },
      "tags": {
        "amenity": "fuel"
      }
    },
    {
      "type": "way",
      "id": 1410389202,
      "center": {
        "lat": 13.0302581,
        "lon": 77.6776616
      },
      "tags": {
        "amenity": "place_of_worship",
        "building": "yes",
        "religion": "hindu"
      }
    },
    {
      "type": "way",
      "id": 1410389516,
      "center": {
        "lat": 13.0241587,
        "lon": 77.6867509
      },
      "tags": {
        "amenity": "school"
      }
    },
    {
      "type": "way",
      "id": 1414809493,
      "center": {
        "lat": 13.0375657,
        "lon": 77.6865278
      },
      "tags": {
        "amenity": "place_of_worship",
        "building": "yes",
        "religion": "hindu"
      }
    },
    {
      "type": "way",
      "id": 1414809637,
      "center": {
        "lat": 13.0371852,
        "lon": 77.6883553
      },
      "tags": {
        "access": "private",
        "leisure": "swimming_pool"
      }
    },
    {
      "type": "way",
      "id": 1414809650,
      "center": {
        "lat": 13.0365756,
        "lon": 77.68845
      },
      "tags": {
        "leisure": "pitch"
      }
    },
    {
      "type": "way",
      "id": 1414809651,
      "center": {
        "lat": 13.036684,
        "lon": 77.6880607
      },
      "tags": {
        "leisure": "pitch",
        "sport": "basketball"
      }
    },
    {
      "type": "way",
      "id": 1414809669,
      "center": {
        "lat": 13.0365759,
        "lon": 77.6880793
      },
      "tags": {
        "amenity": "school"
      }
    },
    {
      "type": "way",
      "id": 1414843305,
      "center": {
        "lat": 13.0276262,
        "lon": 77.6783264
      },
      "tags": {
        "leisure": "swimming_pool"
      }
    },
    {
      "type": "way",
      "id": 1415083458,
      "center": {
        "lat": 13.0278252,
        "lon": 77.6867612
      },
      "tags": {
        "leisure": "sports_centre"
      }
    },
    {
      "type": "way",
      "id": 1415083462,
      "center": {
        "lat": 13.0309649,
        "lon": 77.6837623
      },
      "tags": {
        "amenity": "school"
      }
    },
    {
      "type": "way",
      "id": 1415083463,
      "center": {
        "lat": 13.0287843,
        "lon": 77.6866349
      },
      "tags": {
        "amenity": "school"
      }
    },
    {
      "type": "way",
      "id": 1415322381,
      "center": {
        "lat": 13.0341453,
        "lon": 77.6937577
      },
      "tags": {
        "amenity": "school"
      }
    },
    {
      "type": "way",
      "id": 1415343635,
      "center": {
        "lat": 13.0318508,
        "lon": 77.6884711
      },
      "tags": {
        "amenity": "school"
      }
    },
    {
      "type": "way",
      "id": 1415585356,
      "center": {
        "lat": 13.0227806,
        "lon": 77.6882936
      },
      "tags": {
        "leisure": "pitch"
      }
    },
    {
      "type": "way",
      "id": 1415585387,
      "center": {
        "lat": 13.0238407,
        "lon": 77.6873624
      },
      "tags": {
        "leisure": "pitch"
      }
    },
    {
      "type": "way",
      "id": 1421302393,
      "center": {
        "lat": 13.0267472,
        "lon": 77.6813442
      },
      "tags": {
        "access": "private",
        "leisure": "swimming_pool"
      }
    },
    {
      "type": "way",
      "id": 1422967205,
      "center": {
        "lat": 13.0289174,
        "lon": 77.6869684
      },
      "tags": {
        "leisure": "pitch",
        "sport": "basketball"
      }
    }
  ]
}