{
  "area_name": "Varthur Kodi",
  "osm_id": 3304315699,
  "osm_type": "node",
  "place_type": "neighbourhood",
  "amenity_count": 315,
  "amenities": [
    {
      "type": "node",
      "id": 821379632,
      "lat": 12.9597284,
      "lon": 77.748507,
      "tags": {
        "addr:floor": "2",
        "air_conditioning": "yes",
        "amenity": "cinema",
        "brand": "INOX Leisure",
        "brand:short": "INOX",
        "brand:wikidata": "Q5972349",
        "check_date": "2025-06-25",
        "level": "2",
        "name": "Inox Cinemas",
        "payment:mastercard": "yes",
        "payment:visa": "yes",
        "short_name": "INOX",
        "source": "survey",
        "wheelchair": "no"
      }
    },
    {
      "type": "node",
      "id": 1078316967,
      "lat": 12.9625721,
      "lon": 77.7476906,
      "tags": {
        "amenity": "school",
        "check_date": "2025-05-24",
        "name": "Neev School"
      }
    },
    {
      "type": "node",
      "id": 1147232581,
      "lat": 12.9598295,
      "lon": 77.7475972,
      "tags": {
        "addr:street": "Forum Value Mall",
        "amenity": "cafe",
        "name": "5 Centrigrade"
      }
    },
    {
      "type": "node",
      "id": 1147232586,
      "lat": 12.9595349,
      "lon": 77.7481547,
      "tags": {
        "addr:floor": "G",
        "addr:street": "Forum Value Mall",
        "brand": "Adidas",
        "brand:wikidata": "Q3895",
        "brand:wikipedia": "en:Adidas",
        "check_date": "2023-06-30",
        "level": "0",
        "name": "Adidas",
        "payment:mastercard": "yes",
        "payment:visa": "yes",
        "shop": "sports",
        "source": "survey"
      }
    },
    {
      "type": "node",
      "id": 1147232591,
      "lat": 12.9595457,
      "lon": 77.7476967,
      "tags": {
        "addr:floor": "1",
        "addr:street": "Forum Value Mall",
        "brand": "Metro",
        "brand:wikidata": "Q16938284",
        "check_date": "2023-06-30",
        "level": "1",
        "name": "Metro",
        "payment:mastercard": "yes",
        "payment:visa": "yes",
        "shop": "shoes",
        "source": "survey",
        "wheelchair": "yes"
      }
    },
    {
      "type": "node",
      "id": 1147232594,
      "lat": 12.9593998,
      "lon": 77.7482732,
      "tags": {
        "addr:street": "Forum Value Mall",
        "name": "Sisley Outlet Clothes",
        "shop": "clothes"
      }
    },
    {
      "type": "node",
      "id": 1147232596,
      "lat": 12.9594702,
      "lon": 77.7476973,
      "tags": {
        "addr:street": "Forum Value Mall",
        "brand": "Reebok",
        "brand:wikidata": "Q466183",
        "name": "Reebok",
        "shop": "clothes"
      }
    },
    {
      "type": "node",
      "id": 1147232598,
      "lat": 12.9598156,
      "lon": 77.7483032,
      "tags": {
        "addr:street": "Forum Value Mall",
        "amenity": "fast_food",
        "brand": "Subway",
        "brand:pa": "ਸਬਵੇਅ",
        "brand:ur": "سب وے",
        "brand:wikidata": "Q244457",
        "brand:wikipedia": "en:Subway (restaurant)",
        "cuisine": "sandwich",
        "name": "Subway",
        "name:pa": "ਸਬਵੇਅ",
        "name:ur": "سب وے",
        "takeaway": "yes",
        "wheelchair": "yes"
      }
    },
    {
      "type": "node",
      "id": 1147232605,
      "lat": 12.9594754,
      "lon": 77.7478958,
      "tags": {
        "addr:street": "Forum Value Mall",
        "check_date": "2025-06-25",
        "clothes": "women;men;children",
        "name": "Pantaloon",
        "payment:mastercard": "yes",
        "payment:visa": "yes",
        "shop": "clothes",
        "source": "survey",
        "wheelchair": "yes"
      }
    },
    {
      "type": "node",
      "id": 1147232606,
      "lat": 12.9599378,
      "lon": 77.7478941,
      "tags": {
        "addr:street": "Forum Value Mall",
        "name": "Lee",
        "shop": "clothes"
      }
    },
    {
      "type": "node",
      "id": 1147232608,
      "lat": 12.9598156,
      "lon": 77.7481385,
      "tags": {
        "addr:street": "Forum Value Mall",
        "amenity": "restaurant",
        "name": "MTR",
        "name:kn": "ಎಂಟಿಆರ್"
      }
    },
    {
      "type": "node",
      "id": 1147232614,
      "lat": 12.9599834,
      "lon": 77.7480636,
      "tags": {
        "addr:street": "Forum Value Mall",
        "brand": "Sony Centre",
        "brand:wikidata": "Q3437496",
        "name": "Sony Centre",
        "shop": "electronics"
      }
    },
    {
      "type": "node",
      "id": 1147232621,
      "lat": 12.9599543,
      "lon": 77.7482882,
      "tags": {
        "addr:floor": "G",
        "addr:street": "Forum Value Mall",
        "check_date": "2023-06-30",
        "level": "0",
        "name": "Crossword",
        "payment:mastercard": "yes",
        "payment:visa": "yes",
        "second_hand": "no",
        "shop": "books",
        "source": "survey",
        "toilets": "no",
        "wheelchair": "yes"
      }
    },
    {
      "type": "node",
      "id": 1147232624,
      "lat": 12.9599141,
      "lon": 77.748448,
      "tags": {
        "addr:street": "Forum Value Mall",
        "amenity": "cafe",
        "cuisine": "ice_cream",
        "name": "Cream n Desserts"
      }
    },
    {
      "type": "node",
      "id": 1147232630,
      "lat": 12.9598101,
      "lon": 77.748238,
      "tags": {
        "addr:street": "Forum Value Mall",
        "amenity": "fast_food",
        "brand": "McDonald's",
        "brand:pa": "ਮੈਕਡੋਨਲਡ’ਜ਼",
        "brand:ur": "مکڈونلڈز",
        "brand:wikidata": "Q38076",
        "brand:wikipedia": "en:McDonald's",
        "brand:wikipedia:pa": "ਮੈਕਡੋਨਲਡ’ਜ਼",
        "brand:wikipedia:ur": "مکڈونلڈز",
        "cuisine": "burger",
        "name": "McDonald's",
        "name:pa": "ਮੈਕਡੋਨਲਡ’ਜ਼",
        "name:ur": "مکڈونلڈز",
        "takeaway": "yes",
        "wheelchair": "yes"
      }
    },
    {
      "type": "node",
      "id": 1147232632,
      "lat": 12.9598302,
      "lon": 77.7474647,
      "tags": {
        "addr:street": "Forum Value Mall",
        "amenity": "fast_food",
        "cuisine": "thai",
        "name": "Taj Express"
      }
    },
    {
      "type": "node",
      "id": 1147232633,
      "lat": 12.9596189,
      "lon": 77.7480604,
      "tags": {
        "addr:street": "Forum Value Mall",
        "name": "Eye Sense",
        "shop": "jewelry"
      }
    },
    {
      "type": "node",
      "id": 1147232639,
      "lat": 12.9595457,
      "lon": 77.747547,
      "tags": {
        "addr:street": "Forum Value Mall",
        "name": "Loot Mart",
        "shop": "clothes"
      }
    },
    {
      "type": "node",
      "id": 1147232642,
      "lat": 12.9595311,
      "lon": 77.7480711,
      "tags": {
        "addr:street": "Forum Value Mall",
        "name": "Liberty Silks",
        "shop": "clothes"
      }
    },
    {
      "type": "node",
      "id": 1147232643,
      "lat": 12.9599473,
      "lon": 77.7476376,
      "tags": {
        "addr:street": "Forum Value Mall",
        "name": "Diya",
        "shop": "jewelry"
      }
    },
    {
      "type": "node",
      "id": 1147232646,
      "lat": 12.9595384,
      "lon": 77.7482657,
      "tags": {
        "addr:street": "Forum Value Mall",
        "name": "Espirit",
        "shop": "clothes"
      }
    },
    {
      "type": "node",
      "id": 1147232651,
      "lat": 12.9598316,
      "lon": 77.7473381,
      "tags": {
        "addr:street": "Forum Value Mall",
        "amenity": "restaurant",
        "name": "Chettinadu Palate",
        "name:kn": "ಚೆಟ್ಟಿನಾಡು ಪಲೆಟ್"
      }
    },
    {
      "type": "node",
      "id": 1147232653,
      "lat": 12.9594016,
      "lon": 77.7484054,
      "tags": {
        "addr:street": "Forum Value Mall",
        "brand": "Blackberrys",
        "brand:wikidata": "Q4922570",
        "name": "Blackberrys",
        "shop": "clothes"
      }
    },
    {
      "type": "node",
      "id": 1147232654,
      "lat": 12.9595311,
      "lon": 77.7473898,
      "tags": {
        "addr:street": "Forum Value Mall",
        "name": "Affinity Salon",
        "shop": "hairdresser",
        "wheelchair": "yes"
      }
    },
    {
      "type": "node",
      "id": 1147232660,
      "lat": 12.9598156,
      "lon": 77.7485602,
      "tags": {
        "addr:street": "Forum Value Mall",
        "amenity": "fast_food",
        "name": "Rajdhani Snacklet"
      }
    },
    {
      "type": "node",
      "id": 1147232664,
      "lat": 12.9595384,
      "lon": 77.7485203,
      "tags": {
        "addr:street": "Forum Value Mall",
        "name": "The Time Factory",
        "shop": "clothes"
      }
    },
    {
      "type": "node",
      "id": 1147232667,
      "lat": 12.9598375,
      "lon": 77.7476967,
      "tags": {
        "addr:street": "Forum Value Mall",
        "amenity": "fast_food",
        "brand": "Beijing Bites",
        "brand:wikidata": "Q124374289",
        "cuisine": "chinese",
        "delivery": "yes",
        "name": "Beijing Bites",
        "name:kn": "ಬೀಜಿಂಗ್ ಬೈಟ್ಸ್",
        "takeaway": "yes"
      }
    },
    {
      "type": "node",
      "id": 1147232669,
      "lat": 12.9599543,
      "lon": 77.7484903,
      "tags": {
        "addr:street": "Forum Value Mall",
        "name": "Sportxs",
        "shop": "gift"
      }
    },
    {
      "type": "node",
      "id": 1147232674,
      "lat": 12.9598229,
      "lon": 77.7479363,
      "tags": {
        "addr:street": "Forum Value Mall",
        "amenity": "restaurant",
        "name": "Namma Sagar",
        "name:kn": "ನಮ್ಮ ಸಾಗರ್"
      }
    },
    {
      "type": "node",
      "id": 1147232676,
      "lat": 12.9596115,
      "lon": 77.7473085,
      "tags": {
        "addr:street": "Forum Value Mall",
        "alt_name": "Kentucky Fried Chicken",
        "alt_name:en": "Kentucky Fried Chicken",
        "alt_name:hi": "केंटुकी फ्राइड चिकन",
        "alt_name:pa": "ਕੈਂਟੁਕੀ ਫ੍ਰਾਈਡ ਚਿਕਨ",
        "alt_name:pnb": "کینٹکی فرائیڈ چکن",
        "alt_name:ur": "کینٹکی فرائیڈ چکن",
        "amenity": "fast_food",
        "brand": "KFC",
        "brand:en": "KFC",
        "brand:hi": "केएफसी",
        "brand:pa": "ਕੇਐਫਸੀ",
        "brand:pnb": "کے ایف سی",
        "brand:ur": "کے ایف سی",
        "brand:wikidata": "Q524757",
        "brand:wikipedia": "en:KFC",
        "brand:wikipedia:pa": "ਕੇਐਫਸੀ",
        "brand:wikipedia:ur": "کینٹکی فرائیڈ چکن",
        "cuisine": "chicken",
        "name": "KFC",
        "name:en": "KFC",
        "name:hi": "केएफसी",
        "name:pa": "ਕੇਐਫਸੀ",
        "name:pnb": "کے ایف سی",
        "name:ur": "کے ایف سی",
        "takeaway": "yes",
        "wheelchair": "yes"
      }
    },
    {
      "type": "node",
      "id": 1147232679,
      "lat": 12.9598068,
      "lon": 77.7484572,
      "tags": {
        "addr:floor": "2",
        "addr:street": "Forum Value Mall",
        "air_conditioning": "yes",
        "amenity": "fast_food",
        "check_date": "2023-06-30",
        "cuisine": "pizza",
        "diet:halal": "yes",
        "drive_through": "no",
        "level": "2",
        "name": "GoPizza",
        "outdoor_seating": "no",
        "payment:mastercard": "yes",
        "payment:visa": "yes",
        "smoking": "no",
        "source": "survey",
        "takeaway": "yes"
      }
    },
    {
      "type": "node",
      "id": 1147232681,
      "lat": 12.959465,
      "lon": 77.7474184,
      "tags": {
        "addr:street": "Forum Value Mall",
        "brand": "Calvin Klein",
        "brand:wikidata": "Q1068628",
        "name": "Calvin Klein",
        "name:kn": "ಕಾಲ್ವಿನ್ ಕ್ಲೈನ್",
        "shop": "clothes"
      }
    },
    {
      "type": "node",
      "id": 1147232686,
      "lat": 12.9599907,
      "lon": 77.7477941,
      "tags": {
        "addr:street": "Forum Value Mall",
        "name": "Access 2 Future",
        "shop": "hifi"
      }
    },
    {
      "type": "node",
      "id": 1147232687,
      "lat": 12.9594676,
      "lon": 77.7475497,
      "tags": {
        "addr:street": "Forum Value Mall",
        "brand": "Nike Factory Store",
        "brand:wikidata": "Q483915",
        "name": "Nike Factory Store",
        "shop": "clothes",
        "wheelchair": "yes"
      }
    },
    {
      "type": "node",
      "id": 1147232688,
      "lat": 12.9595384,
      "lon": 77.7478764,
      "tags": {
        "addr:floor": "1",
        "addr:street": "Forum Value Mall",
        "brand": "Bata",
        "brand:wikidata": "Q688082",
        "check_date": "2023-06-30",
        "level": "1",
        "name": "Bata",
        "payment:mastercard": "yes",
        "payment:visa": "yes",
        "shoes": "children;women;men",
        "shop": "shoes",
        "source": "survey",
        "wheelchair": "yes"
      }
    },
    {
      "type": "node",
      "id": 1147277937,
      "lat": 12.9594578,
      "lon": 77.747309,
      "tags": {
        "addr:street": "Forum Value Mall",
        "brand": "Pepe Jeans",
        "brand:wikidata": "Q426992",
        "name": "Pepe Jeans",
        "shop": "clothes",
        "wheelchair": "yes"
      }
    },
    {
      "type": "node",
      "id": 1147277938,
      "lat": 12.9594131,
      "lon": 77.7483032,
      "tags": {
        "addr:floor": "G",
        "addr:street": "Forum Value Mall",
        "brand": "Puma",
        "brand:wikidata": "Q157064",
        "check_date": "2023-06-30",
        "level": "0",
        "name": "Puma",
        "payment:mastercard": "yes",
        "payment:visa": "yes",
        "shop": "clothes",
        "source": "survey"
      }
    },
    {
      "type": "node",
      "id": 1147277940,
      "lat": 12.9599518,
      "lon": 77.7483908,
      "tags": {
        "addr:street": "Forum Value Mall",
        "name": "The Book Shelf",
        "shop": "books"
      }
    },
    {
      "type": "node",
      "id": 1147277942,
      "lat": 12.9594081,
      "lon": 77.7483956,
      "tags": {
        "addr:street": "Forum Value Mall",
        "name": "Jute Cottage",
        "shop": "clothes"
      }
    },
    {
      "type": "node",
      "id": 1147277944,
      "lat": 12.9593994,
      "lon": 77.748519,
      "tags": {
        "addr:street": "Forum Value Mall",
        "name": "Mega Mart",
        "shop": "clothes"
      }
    },
    {
      "type": "node",
      "id": 1147277947,
      "lat": 12.9595419,
      "lon": 77.748401,
      "tags": {
        "addr:city": "Whitefield, Bangalore",
        "addr:housename": "Forum Value Mall",
        "addr:housenumber": "62",
        "addr:postcode": "560066",
        "name": "Rattrap",
        "phone": "+91-80-41521236",
        "shop": "clothes"
      }
    },
    {
      "type": "node",
      "id": 1147277964,
      "lat": 12.9597243,
      "lon": 77.7474596,
      "tags": {
        "addr:street": "Forum Value Mall",
        "name": "Favourite Shop",
        "shop": "clothes",
        "wheelchair": "yes"
      }
    },
    {
      "type": "node",
      "id": 1147281300,
      "lat": 12.9597193,
      "lon": 77.7477444,
      "tags": {
        "addr:street": "Forum Value Mall",
        "name": "Sanskruti Silks",
        "shop": "clothes"
      }
    },
    {
      "type": "node",
      "id": 1147281301,
      "lat": 12.9594807,
      "lon": 77.7477912,
      "tags": {
        "addr:street": "Forum Value Mall",
        "name": "Rare",
        "shop": "clothes"
      }
    },
    {
      "type": "node",
      "id": 1147281303,
      "lat": 12.9597218,
      "lon": 77.7478598,
      "tags": {
        "addr:floor": "1",
        "addr:street": "Forum Value Mall",
        "brand": "Peter England",
        "brand:wikidata": "Q19573665",
        "check_date": "2023-06-30",
        "clothes": "men",
        "level": "1",
        "name": "Peter England",
        "payment:mastercard": "yes",
        "payment:visa": "yes",
        "shop": "clothes",
        "source": "survey",
        "wheelchair": "yes"
      }
    },
    {
      "type": "node",
      "id": 1147281304,
      "lat": 12.9596342,
      "lon": 77.7485167,
      "tags": {
        "addr:street": "Forum Value Mall",
        "name": "Vivah",
        "shop": "clothes"
      }
    },
    {
      "type": "node",
      "id": 1147281305,
      "lat": 12.9597218,
      "lon": 77.7475981,
      "tags": {
        "addr:street": "Forum Value Mall",
        "name": "Neeru’S Fashion",
        "shop": "clothes"
      }
    },
    {
      "type": "node",
      "id": 1147281306,
      "lat": 12.9596244,
      "lon": 77.7484878,
      "tags": {
        "addr:street": "Forum Value Mall",
        "name": "Stanza",
        "shop": "clothes"
      }
    },
    {
      "type": "node",
      "id": 1147281307,
      "lat": 12.9595344,
      "lon": 77.7479804,
      "tags": {
        "addr:street": "Forum Value Mall",
        "name": "Soles",
        "shop": "shoes"
      }
    },
    {
      "type": "node",
      "id": 1147282670,
      "lat": 12.9599805,
      "lon": 77.7483366,
      "tags": {
        "addr:street": "Forum Value Mall",
        "brand": "Archies",
        "brand:wikidata": "Q4786843",
        "name": "Archies",
        "shop": "gift"
      }
    },
    {
      "type": "node",
      "id": 1147294837,
      "lat": 12.9597243,
      "lon": 77.747947,
      "tags": {
        "addr:street": "Forum Value Mall",
        "name": "Bulchee",
        "shop": "clothes"
      }
    },
    {
      "type": "node",
      "id": 1147294839,
      "lat": 12.9599793,
      "lon": 77.7481599,
      "tags": {
        "addr:street": "Forum Value Mall",
        "name": "WHIZZ",
        "shop": "hifi"
      }
    },
    {
      "type": "node",
      "id": 1147294842,
      "lat": 12.9595225,
      "lon": 77.7472977,
      "tags": {
        "addr:street": "Forum Value Mall",
        "brand": "Levi's",
        "brand:wikidata": "Q127962",
        "clothes": "denim;men;women",
        "name": "Levi's",
        "shop": "clothes",
        "wheelchair": "yes"
      }
    },
    {
      "type": "node",
      "id": 1147294844,
      "lat": 12.9599793,
      "lon": 77.7482446,
      "tags": {
        "addr:street": "Forum Value Mall",
        "name": "ONKYO",
        "shop": "hifi"
      }
    },
    {
      "type": "node",
      "id": 1147294847,
      "lat": 12.9594565,
      "lon": 77.7482378,
      "tags": {
        "addr:street": "Forum Value Mall",
        "brand": "Tommy Hilfiger",
        "brand:wikidata": "Q634881",
        "name": "Tommy Hilfiger",
        "shop": "clothes"
      }
    },
    {
      "type": "node",
      "id": 1147294849,
      "lat": 12.9597243,
      "lon": 77.7484523,
      "tags": {
        "addr:street": "Forum Value Mall",
        "amenity": "cafe",
        "name": "Kalmane Koffee"
      }
    },
    {
      "type": "node",
      "id": 1147294852,
      "lat": 12.9597318,
      "lon": 77.7480573,
      "tags": {
        "addr:street": "Forum Value Mall",
        "name": "Zaari",
        "shop": "clothes"
      }
    },
    {
      "type": "node",
      "id": 1147294855,
      "lat": 12.9594153,
      "lon": 77.7483382,
      "tags": {
        "addr:street": "Forum Value Mall",
        "brand": "United Colors of Benetton",
        "brand:wikidata": "Q817139",
        "name": "United Colors of Benetton",
        "shop": "clothes",
        "short_name": "Benetton"
      }
    },
    {
      "type": "node",
      "id": 1147294863,
      "lat": 12.959938,
      "lon": 77.7483391,
      "tags": {
        "addr:street": "Forum Value Mall",
        "name": "Maheen",
        "shop": "gift"
      }
    },
    {
      "type": "node",
      "id": 1147294865,
      "lat": 12.9598943,
      "lon": 77.7481291,
      "tags": {
        "addr:street": "Forum Value Mall",
        "amenity": "restaurant",
        "name": "Toscano's",
        "name:kn": "ಟೊಸ್ಕನೊಸ್",
        "wheelchair": "yes"
      }
    },
    {
      "type": "node",
      "id": 1147294866,
      "lat": 12.9598218,
      "lon": 77.7478418,
      "tags": {
        "addr:floor": "1",
        "addr:street": "Forum Value Mall",
        "check_date": "2023-06-30",
        "level": "1",
        "name": "Soulmate",
        "payment:mastercard": "yes",
        "payment:visa": "yes",
        "shop": "alcohol",
        "smoking": "no",
        "source": "survey"
      }
    },
    {
      "type": "node",
      "id": 1147294867,
      "lat": 12.9597243,
      "lon": 77.7473237,
      "tags": {
        "addr:street": "Forum Value Mall",
        "brand": "Rockport",
        "brand:wikidata": "Q4048384",
        "name": "Rockport",
        "shop": "shoes",
        "wheelchair": "yes"
      }
    },
    {
      "type": "node",
      "id": 1147294870,
      "lat": 12.9597343,
      "lon": 77.7481599,
      "tags": {
        "addr:street": "Forum Value Mall",
        "brand": "Van Heusen",
        "brand:wikidata": "Q67551865",
        "check_date": "2023-06-30",
        "clothes": "men",
        "name": "Van Heusen",
        "name:kn": "ವ್ಯಾನ್ ಹುಸೇನ್",
        "shop": "clothes",
        "wheelchair": "yes"
      }
    },
    {
      "type": "node",
      "id": 1147294877,
      "lat": 12.9597243,
      "lon": 77.748301,
      "tags": {
        "addr:floor": "1",
        "addr:street": "Forum Value Mall",
        "check_date": "2023-06-30",
        "level": "1",
        "name": "Alen Solly",
        "payment:mastercard": "yes",
        "payment:visa": "yes",
        "shop": "clothes",
        "source": "survey",
        "wheelchair": "yes"
      }
    },
    {
      "type": "node",
      "id": 1186904262,
      "lat": 12.9637486,
      "lon": 77.747755,
      "tags": {
        "leisure": "playground",
        "name": "Sanctuary"
      }
    },
    {
      "type": "node",
      "id": 1434548918,
      "lat": 12.957157,
      "lon": 77.7386411,
      "tags": {
        "addr:street": "Varthur Road",
        "amenity": "fast_food",
        "brand": "Domino's",
        "brand:ks": "ڈومینوز",
        "brand:pa": "ਡੋਮੀਨੋਜ਼",
        "brand:ur": "ڈومینوز",
        "brand:wikidata": "Q839466",
        "brand:wikipedia": "en:Domino's Pizza",
        "check_date": "2025-06-29",
        "cuisine": "pizza",
        "name": "Domino's",
        "name:kn": "ಡಾಮಿನೋಸ್",
        "name:ks": "ڈومینوز",
        "name:pa": "ਡੋਮੀਨੋਜ਼",
        "name:ur": "ڈومینوز",
        "takeaway": "yes"
      }
    },
    {
      "type": "node",
      "id": 1434548937,
      "lat": 12.9595127,
      "lon": 77.7484702,
      "tags": {
        "amenity": "parking",
        "capacity": "700"
      }
    },
    {
      "type": "node",
      "id": 1435072304,
      "lat": 12.9575682,
      "lon": 77.7409586,
      "tags": {
        "addr:street": "Varthur Road",
        "amenity": "restaurant",
        "cuisine": "international",
        "name": "The Fat Chef",
        "name:kn": "ದಿ ಫ್ಯಾಟ್ ಶೆಫ್",
        "website": "https://www.thefatchef.co.in/"
      }
    },
    {
      "type": "node",
      "id": 1437206304,
      "lat": 12.9639,
      "lon": 77.7485355,
      "tags": {
        "addr:street": "Whitefield Main Road",
        "amenity": "cafe",
        "brand": "Cafe Coffee Day",
        "brand:wikidata": "Q5017235",
        "cuisine": "coffee_shop",
        "name": "Cafe Coffee Day",
        "name:kn": "ಕಫೆ ಕಾಫಿ ಡೇ",
        "takeaway": "yes",
        "wheelchair": "no"
      }
    },
    {
      "type": "node",
      "id": 1437206305,
      "lat": 12.9632258,
      "lon": 77.7482429,
      "tags": {
        "amenity": "restaurant",
        "name": "Bhagini Park",
        "name:kn": "ಭಾಗಿನಿ ಪಾರ್ಕ್"
      }
    },
    {
      "type": "node",
      "id": 1437209536,
      "lat": 12.9564558,
      "lon": 77.7427026,
      "tags": {
        "addr:street": "Varthur Road",
        "amenity": "restaurant",
        "cuisine": "indian",
        "name": "Saffron Patch",
        "name:kn": "ಸಾಫ್ರನ್ ಪ್ಯಾಚ್"
      }
    },
    {
      "type": "node",
      "id": 1437209538,
      "lat": 12.9612629,
      "lon": 77.749029,
      "tags": {
        "amenity": "place_of_worship",
        "name": "St. Theresa Novitiate",
        "religion": "christian"
      }
    },
    {
      "type": "node",
      "id": 1438153814,
      "lat": 12.959229,
      "lon": 77.7468726,
      "tags": {
        "amenity": "parking",
        "name": "Visitors'Parking"
      }
    },
    {
      "type": "node",
      "id": 1438153832,
      "lat": 12.9592342,
      "lon": 77.7469318,
      "tags": {
        "amenity": "bicycle_parking"
      }
    },
    {
      "type": "node",
      "id": 1438172010,
      "lat": 12.9598626,
      "lon": 77.747425,
      "tags": {
        "amenity": "atm",
        "brand": "Citibank",
        "brand:wikidata": "Q857063",
        "operator": "Citibank",
        "operator:wikidata": "Q857063",
        "short_name": "Citi"
      }
    },
    {
      "type": "node",
      "id": 1466430490,
      "lat": 12.963978,
      "lon": 77.7487116,
      "tags": {
        "amenity": "restaurant",
        "cuisine": "regional",
        "name": "Kolkata's",
        "name:kn": "ಕೊಲ್ಕತ್ತಾಸ್"
      }
    },
    {
      "type": "node",
      "id": 1472800108,
      "lat": 12.9636019,
      "lon": 77.7481495,
      "tags": {
        "amenity": "pharmacy",
        "check_date": "2025-05-24",
        "dispensing": "yes",
        "healthcare": "pharmacy",
        "name": "Medi House Pharma"
      }
    },
    {
      "type": "node",
      "id": 1483713528,
      "lat": 12.9575795,
      "lon": 77.7408479,
      "tags": {
        "amenity": "theatre",
        "name": "Jagriti Theatre",
        "name:kn": "ಜಾಗೃತಿ ಚಿತ್ರಮಂದಿರ"
      }
    },
    {
      "type": "node",
      "id": 1585793501,
      "lat": 12.96465,
      "lon": 77.7488204,
      "tags": {
        "amenity": "parking",
        "name": "Visitor's Car Park"
      }
    },
    {
      "type": "node",
      "id": 2195873984,
      "lat": 12.9614804,
      "lon": 77.7397504,
      "tags": {
        "leisure": "playground"
      }
    },
    {
      "type": "node",
      "id": 2195873986,
      "lat": 12.961125,
      "lon": 77.7410111,
      "tags": {
        "shop": "supermarket",
        "wheelchair": "yes"
      }
    },
    {
      "type": "node",
      "id": 2578488041,
      "lat": 12.9566336,
      "lon": 77.7442523,
      "tags": {
        "check_date": "2025-07-12",
        "name": "Tyre Empire",
        "shop": "car_repair"
      }
    },
    {
      "type": "node",
      "id": 2623251181,
      "lat": 12.958655,
      "lon": 77.7465652,
      "tags": {
        "amenity": "bank",
        "atm": "yes",
        "brand": "ICICI Bank",
        "brand:wikidata": "Q1653258",
        "check_date": "2025-06-03",
        "name": "ICICI Bank",
        "name:en": "ICICI Bank",
        "name:kn": "ಐಸಿಐಸಿಐ ಬ್ಯಾಂಕು",
        "short_name": "ICICI",
        "website": "https://www.icicibank.com"
      }
    },
    {
      "type": "node",
      "id": 2623251197,
      "lat": 12.9596154,
      "lon": 77.7475746,
      "tags": {
        "amenity": "cafe",
        "cuisine": "coffee_shop",
        "name": "Bliss Chocolate Lounge"
      }
    },
    {
      "type": "node",
      "id": 2623251201,
      "lat": 12.9597697,
      "lon": 77.7476631,
      "tags": {
        "name": "Krspy Kreme Doughnuts",
        "shop": "bakery",
        "wheelchair": "yes"
      }
    },
    {
      "type": "node",
      "id": 2696072361,
      "lat": 12.9592423,
      "lon": 77.7463002,
      "tags": {
        "addr:city": "Bengaluru",
        "addr:postcode": "560066",
        "addr:street": "Whitefield Main Road",
        "amenity": "bank",
        "atm": "yes",
        "brand": "State Bank of India",
        "brand:wikidata": "Q1340361",
        "brand:wikipedia": "en:State Bank of India",
        "check_date": "2025-05-24",
        "name": "State Bank of India",
        "name:kn": "ಭಾರತೀಯ ಸ್ಟೇಟ್ ಬ್ಯಾಂಕ್",
        "short_name": "SBI",
        "website": "https://www.sbi.co.in"
      }
    },
    {
      "type": "node",
      "id": 2696072363,
      "lat": 12.9626309,
      "lon": 77.7507675,
      "tags": {
        "addr:city": "Bangalore",
        "addr:postcode": "560066",
        "addr:street": "Whitefield Main Road",
        "alt_name": "The Biere Club",
        "amenity": "pub",
        "microbrewery": "yes",
        "name": "The Biere Street",
        "phone": "+91 9845887454",
        "website": "http://www.thebiereclub.com/"
      }
    },
    {
      "type": "node",
      "id": 3118034347,
      "lat": 12.9586331,
      "lon": 77.7464693,
      "tags": {
        "addr:city": "Whitefield, Bangalore",
        "addr:postcode": "560066",
        "addr:street": "Whitefield Main Road",
        "name": "Bodycraft",
        "shop": "beauty",
        "wheelchair": "no"
      }
    },
    {
      "type": "node",
      "id": 3118034348,
      "lat": 12.9583012,
      "lon": 77.7466303,
      "tags": {
        "addr:city": "Whitefield, Bangalore",
        "addr:postcode": "560066",
        "addr:street": "off Whitefield Main Road",
        "name": "Mangala Bakery",
        "shop": "bakery"
      }
    },
    {
      "type": "node",
      "id": 3349525358,
      "lat": 12.9636312,
      "lon": 77.7481543,
      "tags": {
        "brand": "Just Bake",
        "brand:wikidata": "Q124374121",
        "check_date": "2025-05-24",
        "delivery": "yes",
        "name": "Just Bake",
        "name:kn": "ಜಸ್ಟ್ ಬೇಕ್",
        "shop": "pastry",
        "takeaway": "yes"
      }
    },
    {
      "type": "node",
      "id": 3510695832,
      "lat": 12.9584291,
      "lon": 77.7482278,
      "tags": {
        "leisure": "playground"
      }
    },
    {
      "type": "node",
      "id": 3510695836,
      "lat": 12.9629006,
      "lon": 77.7505684,
      "tags": {
        "amenity": "atm"
      }
    },
    {
      "type": "node",
      "id": 4445697807,
      "lat": 12.9640704,
      "lon": 77.7495412,
      "tags": {
        "addr:city": "bangalore",
        "addr:housenumber": "188",
        "addr:postcode": "560037",
        "addr:street": "Sita Lakshmi ITPL Rd, AECS Layout - A Block, AECS Layout, Brookefield",
        "amenity": "school",
        "name": "Chrysalis Kids",
        "phone": "+9189515 11406",
        "website": "https://chrysaliskids.com/"
      }
    },
    {
      "type": "node",
      "id": 4446112113,
      "lat": 12.957136,
      "lon": 77.7392761,
      "tags": {
        "addr:city": "Bengaluru",
        "addr:housenumber": "682",
        "addr:postcode": "560066",
        "addr:street": "Shop No 5 Varthur Main Road, Ramagondanahalli, Whitefield, Karnataka",
        "amenity": "pharmacy",
        "healthcare": "pharmacy",
        "name": "Vignesh Medicals",
        "phone": "+9199865 96899"
      }
    },
    {
      "type": "node",
      "id": 4446228003,
      "lat": 12.9598095,
      "lon": 77.7483757,
      "tags": {
        "addr:city": "Bengaluru",
        "addr:housenumber": "302",
        "addr:postcode": "560066",
        "addr:street": "The Oasis Club, Prestige Ozone, Whitefield Main Road",
        "amenity": "restaurant",
        "cuisine": "regional",
        "delivery": "yes",
        "name": "Salt Mango Tree",
        "opening_hours": "12:30-23:00",
        "phone": "098860 37105",
        "smoking": "no",
        "takeaway": "yes"
      }
    },
    {
      "type": "node",
      "id": 4446865302,
      "lat": 12.9567879,
      "lon": 77.7413601,
      "tags": {
        "addr:city": "Bengaluru",
        "addr:housenumber": "1/1",
        "addr:postcode": "560066",
        "addr:street": "Opp. Jagrithi Apartment,, Varthur Main Road, Whitefield Main Rd, Ramagondanahalli, Whitefield",
        "amenity": "clinic",
        "healthcare": "clinic",
        "name": "Revive Aesthetic Clinic Skin Hair And Laser Center",
        "phone": "080 4095 3301",
        "website": "reviveclinic.in"
      }
    },
    {
      "type": "node",
      "id": 4446915481,
      "lat": 12.9593576,
      "lon": 77.7461682,
      "tags": {
        "addr:city": "Bengaluru",
        "addr:full": "Sai Harsha Towers, 2nd floor, Opp Forum Value Mall, Above HDFC Bank,, Whitefield Main Road",
        "addr:housenumber": "#183",
        "addr:postcode": "560066",
        "addr:street": "Whitefield Main Road",
        "amenity": "hospital",
        "emergency": "yes",
        "healthcare": "hospital",
        "name": "Wellness Ever",
        "phone": "095919 89220",
        "source": "http://bestofhealthindia.com/",
        "website": "https://wellnessever.com/"
      }
    },
    {
      "type": "node",
      "id": 4446919794,
      "lat": 12.9566858,
      "lon": 77.7419283,
      "tags": {
        "addr:city": "Bengaluru",
        "addr:housenumber": "32",
        "addr:postcode": "560066",
        "addr:street": "MCC Tower, Opposite Sigma Tech Park, Varthur Kodi, Varthur Main Rd, Ramagondanahalli, Whitefield",
        "amenity": "hospital",
        "emergency": "yes",
        "healthcare": "hospital",
        "name": "Hair Loss Treatment in Bangalore - Hairline International",
        "phone": "091488 74972",
        "source": "http://www.bangalorean.co.in/",
        "website": "hairline.in"
      }
    },
    {
      "type": "node",
      "id": 4489395500,
      "lat": 12.9599075,
      "lon": 77.7482562,
      "tags": {
        "addr:city": "Bengaluru",
        "addr:housenumber": "25",
        "addr:postcode": "560066",
        "addr:street": "Forum Value Mall, Whitefield Main Road, Near-B B M P Whitefild, Whitefield, Prestige Ozone, Whitefield",
        "name": "goodwill enterprises",
        "phone": "08040961202",
        "shop": "sports",
        "website": "https://goodwill.in/"
      }
    },
    {
      "type": "node",
      "id": 4489784911,
      "lat": 12.9592714,
      "lon": 77.7461779,
      "tags": {
        "addr:city": "Bengaluru",
        "addr:postcode": "560066",
        "addr:street": "3rd Floor, Sai Harsha Towers, SH 35, Whitefield, Palm Meadows, Whitefield, Karnataka",
        "check_date": "2025-05-24",
        "leisure": "sports_centre",
        "name": "Snap Fitness",
        "opening_hours": "5:00-22:00",
        "phone": "078290 18888",
        "website": "snapfitnessindia.com"
      }
    },
    {
      "type": "node",
      "id": 5112185095,
      "lat": 12.9595912,
      "lon": 77.7474103,
      "tags": {
        "check_date": "2023-06-30",
        "name": "Loyal World Market",
        "payment:mastercard": "yes",
        "payment:visa": "yes",
        "shop": "supermarket",
        "source": "survey",
        "wheelchair": "yes"
      }
    },
    {
      "type": "node",
      "id": 5356991435,
      "lat": 12.9629499,
      "lon": 77.7507243,
      "tags": {
        "amenity": "restaurant",
        "cuisine": "asian",
        "name": "Chin Chin"
      }
    },
    {
      "type": "node",
      "id": 6043189035,
      "lat": 12.9649795,
      "lon": 77.7454613,
      "tags": {
        "amenity": "shelter"
      }
    },
    {
      "type": "node",
      "id": 6043189192,
      "lat": 12.9651802,
      "lon": 77.7451632,
      "tags": {
        "leisure": "playground"
      }
    },
    {
      "type": "node",
      "id": 8187963652,
      "lat": 12.9587404,
      "lon": 77.7476544,
      "tags": {
        "addr:full": "Wealth Branch Bangalore - Branch & ATM, 32, Whitefield Main Rd, Chaitanya Ananya, Pattandur Agrahara, Whitefield, Bengaluru, Karnataka",
        "addr:state": "Karnataka",
        "amenity": "bank",
        "branch": "Whitefield",
        "brand": "ICICI Bank",
        "brand:wikidata": "Q1653258",
        "name": "ICICI Bank",
        "name:kn": "ಐಸಿಐಸಿಐ ಬ್ಯಾಂಕು",
        "short_name": "ICICI"
      }
    },
    {
      "type": "node",
      "id": 8889472867,
      "lat": 12.9587668,
      "lon": 77.7466114,
      "tags": {
        "addr:city": "Whitefield, Bangalore",
        "addr:housenumber": "33, Sundari Armadale, First Floor",
        "addr:postcode": "560066",
        "addr:street": "Whitefield Main Road",
        "air_conditioning": "yes",
        "amenity": "restaurant",
        "cuisine": "Bengali;Odia;Mughlai;Kolkata_Biryani",
        "delivery": "yes",
        "diet:halal": "yes",
        "diet:non-vegetarian": "yes",
        "diet:seafood": "yes",
        "diet:vegetarian": "yes",
        "email": "info@sorse.in",
        "image": "https://sorse.in/img/brand/sorse-badge.png",
        "name": "Sorse",
        "phone": "+919620456616",
        "reservation": "recommended",
        "takeaway": "yes",
        "website": "https://sorse.in"
      }
    },
    {
      "type": "node",
      "id": 9838632466,
      "lat": 12.9617173,
      "lon": 77.7479186,
      "tags": {
        "amenity": "bank",
        "brand": "Bank of India",
        "brand:wikidata": "Q2004439",
        "check_date": "2025-07-03",
        "name": "Bank of India",
        "wheelchair": "no"
      }
    },
    {
      "type": "node",
      "id": 9838632467,
      "lat": 12.9617854,
      "lon": 77.7479183,
      "tags": {
        "amenity": "restaurant",
        "check_date": "2025-06-25",
        "cuisine": "south_indian",
        "diet:vegetarian": "yes",
        "indoor_seating": "yes",
        "name": "Udupi Adithya",
        "outdoor_seating": "no",
        "wheelchair": "limited"
      }
    },
    {
      "type": "node",
      "id": 9862517210,
      "lat": 12.9578019,
      "lon": 77.7454789,
      "tags": {
        "amenity": "restaurant",
        "cuisine": "biryani",
        "name": "Paradise"
      }
    },
    {
      "type": "node",
      "id": 9862517211,
      "lat": 12.9577393,
      "lon": 77.7454721,
      "tags": {
        "amenity": "restaurant",
        "brand": "Barbeque Nation",
        "brand:wikidata": "Q4859568",
        "check_date": "2025-07-29",
        "cuisine": "barbecue",
        "name": "Barbeque Nation"
      }
    },
    {
      "type": "node",
      "id": 9862517212,
      "lat": 12.9597011,
      "lon": 77.7473973,
      "tags": {
        "addr:floor": "G",
        "brand": "Decathlon",
        "brand:wikidata": "Q509349",
        "check_date": "2023-06-30",
        "level": "0",
        "name": "Decathlon",
        "name:kn": "ಡೆಕಾತ್ಲಾನ್",
        "payment:mastercard": "yes",
        "payment:visa": "yes",
        "shop": "sports",
        "source": "survey",
        "wheelchair": "yes"
      }
    },
    {
      "type": "node",
      "id": 9862517213,
      "lat": 12.9595145,
      "lon": 77.7483651,
      "tags": {
        "amenity": "cafe",
        "brand:wikidata": "Q111943225",
        "cuisine": "south_indian",
        "name": "Mitti Cafe",
        "website": "https://www.mitticafe.org/"
      }
    },
    {
      "type": "node",
      "id": 9862559218,
      "lat": 12.9566918,
      "lon": 77.7458024,
      "tags": {
        "check_date": "2025-08-06",
        "email": "whitefield@cycleworld.in",
        "level": "1",
        "name": "Cycleworld Whitefield",
        "opening_hours": "Mo-Su 10:00-21:00",
        "operator": "Cycleworld",
        "payment:upi": "yes",
        "phone": "+91 84970 00097",
        "service:bicycle:repair": "yes",
        "service:bicycle:retail": "yes",
        "shop": "bicycle",
        "website": "https://cycleworld.in",
        "wheelchair": "no"
      }
    },
    {
      "type": "node",
      "id": 9892036254,
      "lat": 12.9596042,
      "lon": 77.7478811,
      "tags": {
        "amenity": "cafe",
        "brand": "Gloria Jean's",
        "brand:wikidata": "Q2666365",
        "cuisine": "coffee_shop",
        "delivery": "yes",
        "name": "Gloria Jean's",
        "official_name": "Gloria Jean's Coffees",
        "takeaway": "yes"
      }
    },
    {
      "type": "node",
      "id": 9900960153,
      "lat": 12.9568015,
      "lon": 77.7400011,
      "tags": {
        "amenity": "bank",
        "brand": "State Bank of India",
        "brand:wikidata": "Q1340361",
        "check_date": "2025-06-29",
        "name": "State Bank of India",
        "name:kn": "ಎಸ್ ಬಿ ಐ",
        "short_name": "SBI"
      }
    },
    {
      "type": "node",
      "id": 10051271536,
      "lat": 12.957308,
      "lon": 77.7366851,
      "tags": {
        "amenity": "cafe",
        "check_date": "2025-10-04",
        "name": "Third Wave Coffee"
      }
    },
    {
      "type": "node",
      "id": 10284858513,
      "lat": 12.9568108,
      "lon": 77.7365507,
      "tags": {
        "brand": "Honda",
        "brand:wikidata": "Q9584",
        "check_date": "2025-06-29",
        "name": "Tanvi Honda",
        "shop": "motorcycle"
      }
    },
    {
      "type": "node",
      "id": 10284858514,
      "lat": 12.9572927,
      "lon": 77.7366407,
      "tags": {
        "check_date": "2025-10-04",
        "name": "Urban Ladder",
        "shop": "furniture"
      }
    },
    {
      "type": "node",
      "id": 10284858592,
      "lat": 12.9571764,
      "lon": 77.7435018,
      "tags": {
        "amenity": "restaurant",
        "check_date": "2025-06-01",
        "name": "Hyderabadi Biryani",
        "name:kn": "ಹೈದರಾಬಾದ್ ಬಿರಿಯಾನಿ"
      }
    },
    {
      "type": "node",
      "id": 10284858593,
      "lat": 12.9568148,
      "lon": 77.7433686,
      "tags": {
        "name": "Bakes n More",
        "shop": "bakery"
      }
    },
    {
      "type": "node",
      "id": 10284858594,
      "lat": 12.9567764,
      "lon": 77.7436396,
      "tags": {
        "brand": "LG",
        "brand:wikidata": "Q162345",
        "check_date": "2025-06-29",
        "name": "LG",
        "shop": "electronics",
        "wheelchair": "no"
      }
    },
    {
      "type": "node",
      "id": 10284858621,
      "lat": 12.9582124,
      "lon": 77.746742,
      "tags": {
        "amenity": "restaurant",
        "name": "Orbis",
        "wheelchair": "limited"
      }
    },
    {
      "type": "node",
      "id": 10284858622,
      "lat": 12.9599424,
      "lon": 77.7473279,
      "tags": {
        "amenity": "bicycle_parking",
        "capacity": "10",
        "covered": "no",
        "fee": "no"
      }
    },
    {
      "type": "node",
      "id": 10716772888,
      "lat": 12.9621665,
      "lon": 77.7475563,
      "tags": {
        "amenity": "kindergarten",
        "check_date": "2025-06-14",
        "name": "Klay Preschool"
      }
    },
    {
      "type": "node",
      "id": 10716772889,
      "lat": 12.962909,
      "lon": 77.7477379,
      "tags": {
        "addr:street": "Whitefield Main Road",
        "amenity": "restaurant",
        "cuisine": "kashmiri",
        "diet:vegetarian": "yes",
        "name": "Orzuv",
        "phone": "+91 9755-564656",
        "website": "https://orzuv.co"
      }
    },
    {
      "type": "node",
      "id": 10716772890,
      "lat": 12.9630185,
      "lon": 77.7482642,
      "tags": {
        "amenity": "post_office",
        "brand": "Desk to Desk Courier & Cargo",
        "brand:short": "DTDC",
        "brand:wikidata": "Q55608802",
        "check_date": "2025-06-25",
        "name": "DTDC",
        "operator": "Desk to Desk Courier & Cargo",
        "operator:short": "DTDC",
        "operator:wikidata": "Q55608802",
        "wheelchair": "limited"
      }
    },
    {
      "type": "node",
      "id": 10716772891,
      "lat": 12.962873,
      "lon": 77.7482365,
      "tags": {
        "brand": "Yamaha",
        "brand:wikidata": "Q158888",
        "check_date": "2025-06-10",
        "name": "Whitefield Motors",
        "shop": "motorcycle"
      }
    },
    {
      "type": "node",
      "id": 10738521365,
      "lat": 12.960406,
      "lon": 77.7422215,
      "tags": {
        "name": "Loyal City Supermarket",
        "shop": "supermarket"
      }
    },
    {
      "type": "node",
      "id": 10796920905,
      "lat": 12.9582606,
      "lon": 77.7467035,
      "tags": {
        "amenity": "restaurant",
        "name": "Orbis Restaurant",
        "survey:date": "2023-04-09",
        "wheelchair": "no"
      }
    },
    {
      "type": "node",
      "id": 11292517912,
      "lat": 12.9584853,
      "lon": 77.7454283,
      "tags": {
        "building": "yes",
        "name": "Third Wave Coffee",
        "shop": "coffee"
      }
    },
    {
      "type": "node",
      "id": 11822465876,
      "lat": 12.9599156,
      "lon": 77.7487496,
      "tags": {
        "amenity": "place_of_worship",
        "denomination": "protestant",
        "level": "9",
        "name": "Ashraya Bangalore East",
        "phone": "+91 96633 95276",
        "religion": "christian",
        "service_times": "Su 10:30-12:15"
      }
    },
    {
      "type": "node",
      "id": 11941429831,
      "lat": 12.9582386,
      "lon": 77.7449411,
      "tags": {
        "amenity": "parking_entrance",
        "parking": "underground"
      }
    },
    {
      "type": "node",
      "id": 12037752775,
      "lat": 12.9622752,
      "lon": 77.7488416,
      "tags": {
        "amenity": "restaurant",
        "check_date": "2024-07-06",
        "cuisine": "indian",
        "diet:vegan": "yes",
        "diet:vegetarian": "yes",
        "email": "info@herbsnspices.in",
        "name": "Herbs & Spices",
        "opening_hours": "Mo-Su 12:00-15:00,19:00-23:00",
        "payment:cash": "yes",
        "payment:credit_cards": "yes",
        "payment:debit_cards": "yes",
        "phone": "+91 9036691010",
        "website": "https://www.herbsnspices.in/",
        "wheelchair": "no"
      }
    },
    {
      "type": "node",
      "id": 12037918434,
      "lat": 12.9622366,
      "lon": 77.7489062,
      "tags": {
        "access": "customers",
        "amenity": "parking_entrance",
        "parking": "underground"
      }
    },
    {
      "type": "node",
      "id": 12140445494,
      "lat": 12.9559905,
      "lon": 77.7432543,
      "tags": {
        "leisure": "swimming_pool"
      }
    },
    {
      "type": "node",
      "id": 12211532895,
      "lat": 12.9565696,
      "lon": 77.7456904,
      "tags": {
        "check_date": "2025-06-29",
        "indoor_seating": "no",
        "name": "Trevini Bakery",
        "outdoor_seating": "no",
        "shop": "bakery",
        "takeaway": "only",
        "wheelchair": "limited"
      }
    },
    {
      "type": "node",
      "id": 12211634995,
      "lat": 12.9568336,
      "lon": 77.7408114,
      "tags": {
        "amenity": "restaurant",
        "brand": "Pizza Hut",
        "brand:wikidata": "Q191615",
        "check_date": "2025-06-29",
        "cuisine": "pizza",
        "name": "Pizza Hut"
      }
    },
    {
      "type": "node",
      "id": 12211668056,
      "lat": 12.9571546,
      "lon": 77.7388836,
      "tags": {
        "amenity": "pharmacy",
        "brand": "MedPlus",
        "brand:wikidata": "Q65684234",
        "check_date": "2025-06-29",
        "healthcare": "pharmacy",
        "name": "MedPlus"
      }
    },
    {
      "type": "node",
      "id": 12211668057,
      "lat": 12.9571608,
      "lon": 77.7390545,
      "tags": {
        "brand": "Bajaj",
        "brand:wikidata": "Q10910065",
        "name": "SLN Motors",
        "shop": "motorcycle"
      }
    },
    {
      "type": "node",
      "id": 12211669706,
      "lat": 12.956801,
      "lon": 77.7419198,
      "tags": {
        "amenity": "restaurant",
        "check_date": "2025-05-31",
        "cuisine": "indian",
        "diet:vegetarian": "yes",
        "name": "New Udupi Upahar"
      }
    },
    {
      "type": "node",
      "id": 12218473094,
      "lat": 12.9567448,
      "lon": 77.7457644,
      "tags": {
        "amenity": "pharmacy",
        "check_date": "2025-08-06",
        "healthcare": "pharmacy",
        "level": "0",
        "name": "Ramdev medicals",
        "wheelchair": "limited"
      }
    },
    {
      "type": "node",
      "id": 12224096358,
      "lat": 12.9507663,
      "lon": 77.7454448,
      "tags": {
        "check_date": "2025-09-10",
        "name": "Safvi Nursery",
        "shop": "garden_centre"
      }
    },
    {
      "type": "node",
      "id": 12224096359,
      "lat": 12.9502095,
      "lon": 77.7456747,
      "tags": {
        "check_date": "2025-07-12",
        "name": "JMJ Tiles & Ceramics",
        "shop": "trade",
        "trade": "tiles"
      }
    },
    {
      "type": "node",
      "id": 12224096363,
      "lat": 12.9482673,
      "lon": 77.7463384,
      "tags": {
        "check_date": "2025-07-26",
        "name": "Well Furnishing",
        "shop": "furniture"
      }
    },
    {
      "type": "node",
      "id": 12224096364,
      "lat": 12.9480564,
      "lon": 77.7463814,
      "tags": {
        "check_date": "2025-07-12",
        "name": "Ambika Marbles & Granites",
        "shop": "trade",
        "trade": "marble"
      }
    },
    {
      "type": "node",
      "id": 12224096365,
      "lat": 12.9479348,
      "lon": 77.7465118,
      "tags": {
        "check_date": "2025-07-12",
        "name": "Vinayaka Granites",
        "shop": "trade",
        "trade": "marble",
        "wheelchair": "limited"
      }
    },
    {
      "type": "node",
      "id": 12241219036,
      "lat": 12.9568467,
      "lon": 77.7402255,
      "tags": {
        "amenity": "clinic",
        "check_date": "2025-06-28",
        "name": "RK Multispeciality center"
      }
    },
    {
      "type": "node",
      "id": 12247713062,
      "lat": 12.9568587,
      "lon": 77.7411055,
      "tags": {
        "amenity": "fast_food",
        "check_date": "2024-10-13",
        "name": "Ocean Cake"
      }
    },
    {
      "type": "node",
      "id": 12247713063,
      "lat": 12.9568177,
      "lon": 77.7411209,
      "tags": {
        "amenity": "dentist",
        "check_date": "2024-10-13",
        "healthcare": "dentist",
        "name": "White Pearls Dental"
      }
    },
    {
      "type": "node",
      "id": 12339250474,
      "lat": 12.9571357,
      "lon": 77.7458193,
      "tags": {
        "check_date": "2025-07-03",
        "name": "Sri Gowri Jodhpur Sweets",
        "shop": "confectionery"
      }
    },
    {
      "type": "node",
      "id": 12405269401,
      "lat": 12.9567069,
      "lon": 77.7457518,
      "tags": {
        "check_date": "2025-08-06",
        "level": "1",
        "name": "MCC Tyres",
        "shop": "tyres",
        "wheelchair": "limited"
      }
    },
    {
      "type": "node",
      "id": 12548751834,
      "lat": 12.9565969,
      "lon": 77.744719,
      "tags": {
        "check_date": "2025-07-19",
        "shop": "shoe_repair"
      }
    },
    {
      "type": "node",
      "id": 12570258677,
      "lat": 12.9568677,
      "lon": 77.7396015,
      "tags": {
        "brand": "Nandini",
        "brand:wikidata": "Q124374212",
        "check_date": "2025-10-18",
        "name": "Nandini",
        "shop": "dairy"
      }
    },
    {
      "type": "node",
      "id": 12630600146,
      "lat": 12.9578077,
      "lon": 77.7420336,
      "tags": {
        "check_date": "2025-03-01",
        "shop": "garden_centre"
      }
    },
    {
      "type": "node",
      "id": 12651832968,
      "lat": 12.9567481,
      "lon": 77.7367231,
      "tags": {
        "check_date": "2025-03-11",
        "name": "Anu Furniture Mall",
        "shop": "furniture"
      }
    },
    {
      "type": "node",
      "id": 12651832969,
      "lat": 12.9566829,
      "lon": 77.7414284,
      "tags": {
        "amenity": "hospital",
        "check_date": "2025-03-11",
        "healthcare": "hospital",
        "name": "Cloud Nine"
      }
    },
    {
      "type": "node",
      "id": 12651832972,
      "lat": 12.9482121,
      "lon": 77.7463571,
      "tags": {
        "check_date": "2025-07-26",
        "name": "A.H Auto Empire",
        "shop": "car_repair"
      }
    },
    {
      "type": "node",
      "id": 12651854708,
      "lat": 12.9500871,
      "lon": 77.7456299,
      "tags": {
        "check_date": "2025-06-13",
        "name": "MI Auto Garage",
        "shop": "repair"
      }
    },
    {
      "type": "node",
      "id": 12704522760,
      "lat": 12.9572056,
      "lon": 77.7371941,
      "tags": {
        "name": "White Care",
        "shop": "dry_cleaning"
      }
    },
    {
      "type": "node",
      "id": 12704522761,
      "lat": 12.9572076,
      "lon": 77.7371732,
      "tags": {
        "name": "Hiteshini Tiles Park",
        "shop": "tiles"
      }
    },
    {
      "type": "node",
      "id": 12704522762,
      "lat": 12.9572071,
      "lon": 77.7372155,
      "tags": {
        "name": "Navdurga Electricals",
        "shop": "electronics"
      }
    },
    {
      "type": "node",
      "id": 12704522763,
      "lat": 12.9572153,
      "lon": 77.7373158,
      "tags": {
        "check_date": "2025-07-05",
        "name": "Prakash Ceramics",
        "shop": "tiles"
      }
    },
    {
      "type": "node",
      "id": 12704522766,
      "lat": 12.9572097,
      "lon": 77.7374626,
      "tags": {
        "check_date": "2025-07-05",
        "name": "London Line Furnishings",
        "shop": "furniture"
      }
    },
    {
      "type": "node",
      "id": 12704522777,
      "lat": 12.957173,
      "lon": 77.7375611,
      "tags": {
        "check_date": "2025-05-13",
        "name": "Home Concept",
        "shop": "yes"
      }
    },
    {
      "type": "node",
      "id": 12704522786,
      "lat": 12.9571655,
      "lon": 77.737872,
      "tags": {
        "name": "Mahalakshmi Enterprises",
        "shop": "wholesale"
      }
    },
    {
      "type": "node",
      "id": 12704522787,
      "lat": 12.9572061,
      "lon": 77.7378459,
      "tags": {
        "female": "yes",
        "name": "Gem Herbal Beauty Parlour",
        "shop": "hairdresser"
      }
    },
    {
      "type": "node",
      "id": 12704522788,
      "lat": 12.9572163,
      "lon": 77.7378737,
      "tags": {
        "name": "Luxury Tatoo Zone",
        "shop": "tattoo"
      }
    },
    {
      "type": "node",
      "id": 12704522789,
      "lat": 12.9571937,
      "lon": 77.7380363,
      "tags": {
        "name": "Springwel",
        "shop": "bed"
      }
    },
    {
      "type": "node",
      "id": 12704522790,
      "lat": 12.9572025,
      "lon": 77.7381425,
      "tags": {
        "check_date": "2025-07-05",
        "name": "Lakshmi Enterprises",
        "shop": "bed"
      }
    },
    {
      "type": "node",
      "id": 12704522791,
      "lat": 12.9571937,
      "lon": 77.7382947,
      "tags": {
        "check_date": "2025-06-28",
        "name": "The Drift",
        "shop": "car_parts"
      }
    },
    {
      "type": "node",
      "id": 12704522792,
      "lat": 12.9571976,
      "lon": 77.7383247,
      "tags": {
        "name": "DHM Tailoring",
        "shop": "tailor"
      }
    },
    {
      "type": "node",
      "id": 12704522793,
      "lat": 12.9571991,
      "lon": 77.738507,
      "tags": {
        "amenity": "fast_food",
        "check_date": "2025-10-04",
        "name": "Sai Ram Hot Chips"
      }
    },
    {
      "type": "node",
      "id": 12704522794,
      "lat": 12.9571969,
      "lon": 77.7384633,
      "tags": {
        "name": "Bhavani Enterprises",
        "shop": "energy"
      }
    },
    {
      "type": "node",
      "id": 12704522795,
      "lat": 12.9571606,
      "lon": 77.7387642,
      "tags": {
        "amenity": "cafe",
        "name": "Sri Viniyaka Mess"
      }
    },
    {
      "type": "node",
      "id": 12714938776,
      "lat": 12.9568754,
      "lon": 77.739068,
      "tags": {
        "check_date": "2025-03-31",
        "name": "Fresh Choice",
        "shop": "yes"
      }
    },
    {
      "type": "node",
      "id": 12714938777,
      "lat": 12.9568717,
      "lon": 77.7391303,
      "tags": {
        "check_date": "2025-03-31",
        "name": "Bike Service Center",
        "shop": "motorcycle_repair"
      }
    },
    {
      "type": "node",
      "id": 12715076175,
      "lat": 12.9566954,
      "lon": 77.7427967,
      "tags": {
        "check_date": "2025-03-31",
        "name": "Printing",
        "shop": "yes"
      }
    },
    {
      "type": "node",
      "id": 12715076176,
      "lat": 12.9566813,
      "lon": 77.7428277,
      "tags": {
        "brand": "TVS",
        "brand:wikidata": "Q3300084",
        "check_date": "2025-07-05",
        "name": "Trijal TVS",
        "shop": "motorcycle"
      }
    },
    {
      "type": "node",
      "id": 12715076177,
      "lat": 12.956638,
      "lon": 77.7427947,
      "tags": {
        "beauty": "hair;spa",
        "brand": "Naturals",
        "brand:wikidata": "Q125728261",
        "check_date": "2025-07-05",
        "name": "Naturals",
        "shop": "beauty"
      }
    },
    {
      "type": "node",
      "id": 12715076178,
      "lat": 12.9567064,
      "lon": 77.7430223,
      "tags": {
        "brand": "Suzuki",
        "brand:wikidata": "Q181642",
        "check_date": "2025-06-29",
        "name": "Aryan Suzuki",
        "shop": "motorcycle"
      }
    },
    {
      "type": "node",
      "id": 12715087993,
      "lat": 12.9567347,
      "lon": 77.7425652,
      "tags": {
        "check_date": "2025-03-31",
        "name": "Laundrology",
        "shop": "laundry"
      }
    },
    {
      "type": "node",
      "id": 12715087995,
      "lat": 12.9567667,
      "lon": 77.7425694,
      "tags": {
        "amenity": "fast_food",
        "check_date": "2025-03-31",
        "cuisine": "juice",
        "name": "Sri Ganesh Fruit Juice Center"
      }
    },
    {
      "type": "node",
      "id": 12715087996,
      "lat": 12.956782,
      "lon": 77.7425394,
      "tags": {
        "check_date": "2025-03-31",
        "hairdresser": "barber",
        "name": "Style Touch Men's Salon",
        "shop": "hairdresser"
      }
    },
    {
      "type": "node",
      "id": 12715087997,
      "lat": 12.9568087,
      "lon": 77.7423673,
      "tags": {
        "check_date": "2025-03-31",
        "name": "Maxim Motors",
        "shop": "car_repair"
      }
    },
    {
      "type": "node",
      "id": 12715087998,
      "lat": 12.9568137,
      "lon": 77.7418407,
      "tags": {
        "check_date": "2025-03-31",
        "name": "Sri Annapurneshwari Enterprises",
        "shop": "mobile_phone"
      }
    },
    {
      "type": "node",
      "id": 12715087999,
      "lat": 12.95677,
      "lon": 77.7394672,
      "tags": {
        "check_date": "2025-03-31",
        "shop": "massage"
      }
    },
    {
      "type": "node",
      "id": 12715088000,
      "lat": 12.9568671,
      "lon": 77.7392132,
      "tags": {
        "amenity": "fast_food",
        "check_date": "2025-06-29",
        "name": "Viniyaka Hot Chips"
      }
    },
    {
      "type": "node",
      "id": 12715098601,
      "lat": 12.9568705,
      "lon": 77.7391916,
      "tags": {
        "check_date": "2025-03-31",
        "name": "Sri Rama Electronics",
        "shop": "electronics"
      }
    },
    {
      "type": "node",
      "id": 12715098602,
      "lat": 12.9568659,
      "lon": 77.7392665,
      "tags": {
        "check_date": "2025-03-31",
        "shop": "toys"
      }
    },
    {
      "type": "node",
      "id": 12715098603,
      "lat": 12.956796,
      "lon": 77.7395257,
      "tags": {
        "amenity": "music_school;library",
        "check_date": "2025-03-31",
        "name": "Neptunes Music Hub"
      }
    },
    {
      "type": "node",
      "id": 12715098604,
      "lat": 12.9568318,
      "lon": 77.7395335,
      "tags": {
        "check_date": "2025-06-29",
        "name": "My Decor",
        "shop": "interior_decoration"
      }
    },
    {
      "type": "node",
      "id": 12715098606,
      "lat": 12.9568023,
      "lon": 77.7415774,
      "tags": {
        "check_date": "2025-03-31",
        "hairdresser": "barber",
        "name": "Sri Manjunatha Beauty Salon",
        "shop": "hairdresser"
      }
    },
    {
      "type": "node",
      "id": 12715098607,
      "lat": 12.9568381,
      "lon": 77.7393829,
      "tags": {
        "check_date": "2025-03-31",
        "name": "True Life",
        "shop": "nutrition_supplements"
      }
    },
    {
      "type": "node",
      "id": 12715098608,
      "lat": 12.9568292,
      "lon": 77.739353,
      "tags": {
        "check_date": "2025-10-04",
        "name": "Tripty",
        "shop": "confectionery"
      }
    },
    {
      "type": "node",
      "id": 12715098609,
      "lat": 12.9568054,
      "lon": 77.739353,
      "tags": {
        "check_date": "2025-03-31",
        "name": "Adapt Tours & Travels Private Limited",
        "shop": "travel_agency"
      }
    },
    {
      "type": "node",
      "id": 12715098610,
      "lat": 12.9568072,
      "lon": 77.7393185,
      "tags": {
        "amenity": "fixme",
        "check_date": "2025-03-31",
        "fixme": "type",
        "fixme:type": "institute",
        "name": "Vishwaleela Group Of Institutions"
      }
    },
    {
      "type": "node",
      "id": 12715098612,
      "lat": 12.9568734,
      "lon": 77.7397611,
      "tags": {
        "amenity": "arts_centre",
        "check_date": "2025-03-31",
        "name": "Nandhini Arts And Craft Center"
      }
    },
    {
      "type": "node",
      "id": 12715098613,
      "lat": 12.9568341,
      "lon": 77.740717,
      "tags": {
        "amenity": "restaurant",
        "check_date": "2025-03-31",
        "name": "MCC"
      }
    },
    {
      "type": "node",
      "id": 12715098614,
      "lat": 12.9568125,
      "lon": 77.7401974,
      "tags": {
        "amenity": "dentist",
        "check_date": "2025-10-28",
        "healthcare": "dentist",
        "name": "Dental Clinic"
      }
    },
    {
      "type": "node",
      "id": 12715098616,
      "lat": 12.9568266,
      "lon": 77.7404078,
      "tags": {
        "check_date": "2025-06-29",
        "name": "Mataji Home Appliances",
        "shop": "appliance"
      }
    },
    {
      "type": "node",
      "id": 12715098617,
      "lat": 12.9568347,
      "lon": 77.7405836,
      "tags": {
        "amenity": "ice_cream",
        "check_date": "2025-03-31",
        "name": "Ice N Spice"
      }
    },
    {
      "type": "node",
      "id": 12715098619,
      "lat": 12.9568255,
      "lon": 77.7406781,
      "tags": {
        "check_date": "2025-03-31",
        "name": "Stylo Furniture",
        "shop": "furniture"
      }
    },
    {
      "type": "node",
      "id": 12715098620,
      "lat": 12.9567075,
      "lon": 77.7426862,
      "tags": {
        "check_date": "2025-03-31",
        "name": "Adishwar",
        "shop": "appliance"
      }
    },
    {
      "type": "node",
      "id": 12715098621,
      "lat": 12.9568252,
      "lon": 77.7408435,
      "tags": {
        "amenity": "clinic",
        "check_date": "2025-03-31",
        "healthcare": "clinic",
        "name": "Niyamh Health"
      }
    },
    {
      "type": "node",
      "id": 12715098622,
      "lat": 12.9568036,
      "lon": 77.7409386,
      "tags": {
        "check_date": "2025-10-28",
        "name": "Zigly",
        "shop": "pet"
      }
    },
    {
      "type": "node",
      "id": 12715098623,
      "lat": 12.9567896,
      "lon": 77.7409738,
      "tags": {
        "check_date": "2025-03-31",
        "name": "Vcare",
        "shop": "yes"
      }
    },
    {
      "type": "node",
      "id": 12715098625,
      "lat": 12.9567985,
      "lon": 77.7415409,
      "tags": {
        "check_date": "2025-03-31",
        "name": "Bottle Shop",
        "shop": "alcohol"
      }
    },
    {
      "type": "node",
      "id": 12715098626,
      "lat": 12.9567756,
      "lon": 77.7415278,
      "tags": {
        "check_date": "2025-03-31",
        "name": "Grace Multi Services",
        "shop": "yes"
      }
    },
    {
      "type": "node",
      "id": 12715098627,
      "lat": 12.9567998,
      "lon": 77.741709,
      "tags": {
        "check_date": "2025-03-31",
        "name": "Angles Fashion Boutique",
        "shop": "fashion_accessories"
      }
    },
    {
      "type": "node",
      "id": 12723978268,
      "lat": 12.956663,
      "lon": 77.7430033,
      "tags": {
        "check_date": "2025-04-03",
        "name": "Slaak Kitchen Studio",
        "shop": "kitchen"
      }
    },
    {
      "type": "node",
      "id": 12723978269,
      "lat": 12.9567616,
      "lon": 77.7431687,
      "tags": {
        "check_date": "2025-04-03",
        "name": "Blue Interior",
        "shop": "interior_decoration"
      }
    },
    {
      "type": "node",
      "id": 12723978270,
      "lat": 12.9568323,
      "lon": 77.743208,
      "tags": {
        "check_date": "2025-04-03",
        "name": "Bluemax Opticals",
        "shop": "optician"
      }
    },
    {
      "type": "node",
      "id": 12723978271,
      "lat": 12.9567859,
      "lon": 77.7432012,
      "tags": {
        "check_date": "2025-04-03",
        "name": "Haffle",
        "shop": "furniture"
      }
    },
    {
      "type": "node",
      "id": 12723978272,
      "lat": 12.9566586,
      "lon": 77.7432134,
      "tags": {
        "amenity": "dentist",
        "check_date": "2025-04-03",
        "healthcare": "dentist",
        "name": "Smile Stories"
      }
    },
    {
      "type": "node",
      "id": 12723978273,
      "lat": 12.9566128,
      "lon": 77.7434012,
      "tags": {
        "amenity": "car_wash",
        "check_date": "2025-10-03",
        "name": "Sai Ram Service Station"
      }
    },
    {
      "type": "node",
      "id": 12723978275,
      "lat": 12.9566479,
      "lon": 77.7440623,
      "tags": {
        "check_date": "2025-04-03",
        "name": "Om Sai Fashion",
        "shop": "clothes"
      }
    },
    {
      "type": "node",
      "id": 12723978276,
      "lat": 12.9566131,
      "lon": 77.7440565,
      "tags": {
        "amenity": "cafe",
        "check_date": "2025-04-03",
        "name": "Nellore Mess"
      }
    },
    {
      "type": "node",
      "id": 12723978277,
      "lat": 12.9565832,
      "lon": 77.7442159,
      "tags": {
        "check_date": "2025-04-03",
        "name": "Hair Cosmos",
        "shop": "hairdresser"
      }
    },
    {
      "type": "node",
      "id": 12724760173,
      "lat": 12.9566777,
      "lon": 77.7430675,
      "tags": {
        "name": "Sangreh Home Studio",
        "shop": "furniture"
      }
    },
    {
      "type": "node",
      "id": 12729304400,
      "lat": 12.9571584,
      "lon": 77.7387239,
      "tags": {
        "name": "Pavithra Hardware & Electricals",
        "shop": "hardware"
      }
    },
    {
      "type": "node",
      "id": 12729312301,
      "lat": 12.9571587,
      "lon": 77.7389165,
      "tags": {
        "check_date": "2025-06-29",
        "name": "Sparsh",
        "shop": "hairdresser"
      }
    },
    {
      "type": "node",
      "id": 12729312323,
      "lat": 12.9571524,
      "lon": 77.7391894,
      "tags": {
        "name": "Ansari Paan",
        "shop": "kiosk"
      }
    },
    {
      "type": "node",
      "id": 12729312324,
      "lat": 12.9571352,
      "lon": 77.7392316,
      "tags": {
        "shop": "florist"
      }
    },
    {
      "type": "node",
      "id": 12729312325,
      "lat": 12.9571315,
      "lon": 77.7393367,
      "tags": {
        "shop": "appliance"
      }
    },
    {
      "type": "node",
      "id": 12729312326,
      "lat": 12.9571301,
      "lon": 77.7393666,
      "tags": {
        "check_date": "2025-07-05",
        "hairdresser": "barber",
        "name": "New Mens Beauty Saloon",
        "shop": "hairdresser"
      }
    },
    {
      "type": "node",
      "id": 12729312327,
      "lat": 12.9571328,
      "lon": 77.739402,
      "tags": {
        "shop": "clothes"
      }
    },
    {
      "type": "node",
      "id": 12729312328,
      "lat": 12.9571371,
      "lon": 77.7395912,
      "tags": {
        "check_date": "2025-10-18",
        "name": "New RMP Electricals",
        "shop": "electrical"
      }
    },
    {
      "type": "node",
      "id": 12729312329,
      "lat": 12.9571397,
      "lon": 77.7396169,
      "tags": {
        "check_date": "2025-10-18",
        "name": "Maruthi Stores",
        "shop": "yes"
      }
    },
    {
      "type": "node",
      "id": 12729312330,
      "lat": 12.9571437,
      "lon": 77.7396562,
      "tags": {
        "check_date": "2025-10-18",
        "name": "Preeti Provision Store",
        "shop": "greengrocer"
      }
    },
    {
      "type": "node",
      "id": 12729312331,
      "lat": 12.9571155,
      "lon": 77.7397446,
      "tags": {
        "check_date": "2025-10-18",
        "name": "Cartech Accessories",
        "shop": "car_parts"
      }
    },
    {
      "type": "node",
      "id": 12729312333,
      "lat": 12.9571039,
      "lon": 77.7403227,
      "tags": {
        "shop": "kiosk"
      }
    },
    {
      "type": "node",
      "id": 12729312334,
      "lat": 12.9571225,
      "lon": 77.7418535,
      "tags": {
        "shop": "general"
      }
    },
    {
      "type": "node",
      "id": 12729312335,
      "lat": 12.9571179,
      "lon": 77.7419194,
      "tags": {
        "name": "Art Glass & Hardware",
        "shop": "craft;hardware"
      }
    },
    {
      "type": "node",
      "id": 12729312338,
      "lat": 12.9567326,
      "lon": 77.7458115,
      "tags": {
        "check_date": "2025-08-06",
        "leisure": "fitness_centre",
        "level": "1",
        "name": "Whitefield Total Fitness"
      }
    },
    {
      "type": "node",
      "id": 12729312339,
      "lat": 12.9566809,
      "lon": 77.7457408,
      "tags": {
        "brand": "Sleepwell",
        "check_date": "2025-06-28",
        "level": "0",
        "name": "Sleepwell Shoppe",
        "shop": "bed"
      }
    },
    {
      "type": "node",
      "id": 12729312340,
      "lat": 12.9566454,
      "lon": 77.7457267,
      "tags": {
        "check_date": "2025-06-28",
        "name": "Avaran House Of Furnishing",
        "shop": "interior_decoration"
      }
    },
    {
      "type": "node",
      "id": 12729312343,
      "lat": 12.9565025,
      "lon": 77.7455903,
      "tags": {
        "check_date": "2025-06-29",
        "shop": "kiosk"
      }
    },
    {
      "type": "node",
      "id": 12729312344,
      "lat": 12.956363,
      "lon": 77.7455152,
      "tags": {
        "check_date": "2025-06-29",
        "name": "Chickpet Donne Biriyani",
        "shop": "vacant"
      }
    },
    {
      "type": "node",
      "id": 12730620931,
      "lat": 12.9568026,
      "lon": 77.7423896,
      "tags": {
        "amenity": "restaurant",
        "check_date": "2025-04-05",
        "diet:vegetarian": "yes",
        "name": "Udupi Upahar Veg"
      }
    },
    {
      "type": "node",
      "id": 12860980654,
      "lat": 12.9648136,
      "lon": 77.7485341,
      "tags": {
        "amenity": "shelter"
      }
    },
    {
      "type": "node",
      "id": 12860980655,
      "lat": 12.9636501,
      "lon": 77.7481288,
      "tags": {
        "check_date": "2025-05-24",
        "name": "Laptop Service",
        "repair": "computer",
        "shop": "repair"
      }
    },
    {
      "type": "node",
      "id": 12860980656,
      "lat": 12.9636609,
      "lon": 77.7481587,
      "tags": {
        "check_date": "2025-05-24",
        "name": "Shutter Square",
        "shop": "photo"
      }
    },
    {
      "type": "node",
      "id": 12860980657,
      "lat": 12.9636886,
      "lon": 77.7481632,
      "tags": {
        "check_date": "2025-05-24",
        "name": "Vision World",
        "shop": "optician"
      }
    },
    {
      "type": "node",
      "id": 12860980658,
      "lat": 12.9636825,
      "lon": 77.7481329,
      "tags": {
        "check_date": "2025-05-24",
        "name": "Fit Muscle",
        "shop": "nutrition_supplements"
      }
    },
    {
      "type": "node",
      "id": 12860980659,
      "lat": 12.9635773,
      "lon": 77.7481446,
      "tags": {
        "check_date": "2025-05-24",
        "shop": "trade"
      }
    },
    {
      "type": "node",
      "id": 12860980660,
      "lat": 12.9635859,
      "lon": 77.7481184,
      "tags": {
        "brand:website": "fabricspa.com",
        "check_date": "2025-05-24",
        "name": "Fabric Spa",
        "shop": "laundry"
      }
    },
    {
      "type": "node",
      "id": 12860980661,
      "lat": 12.9636168,
      "lon": 77.7484588,
      "tags": {
        "check_date": "2025-05-24;2025-06-10",
        "male": "yes",
        "name": "Liviu;Raju Men's Salon",
        "shop": "clothes;hairdresser"
      }
    },
    {
      "type": "node",
      "id": 12860980662,
      "lat": 12.9608198,
      "lon": 77.7470624,
      "tags": {
        "amenity": "doctors",
        "check_date": "2025-05-24",
        "healthcare": "doctor",
        "healthcare:speciality": "ophthalmology",
        "name": "Whitefield Eye Clinic"
      }
    },
    {
      "type": "node",
      "id": 12860980663,
      "lat": 12.9592975,
      "lon": 77.7463342,
      "tags": {
        "check_date": "2025-06-16",
        "contact:phone": "+91 88670 38743",
        "level": "0",
        "name": "green trends",
        "shop": "beauty"
      }
    },
    {
      "type": "node",
      "id": 12860980665,
      "lat": 12.9592471,
      "lon": 77.7462681,
      "tags": {
        "amenity": "bank",
        "brand": "HDFC Bank",
        "brand:wikidata": "Q631047",
        "check_date": "2025-05-24",
        "name": "HDFC Bank",
        "short_name": "HDFC"
      }
    },
    {
      "type": "node",
      "id": 12860980667,
      "lat": 12.9592566,
      "lon": 77.7462434,
      "tags": {
        "amenity": "dentist",
        "check_date": "2025-05-24",
        "healthcare": "dentist",
        "name": "Mouth Marvels"
      }
    },
    {
      "type": "node",
      "id": 12860980668,
      "lat": 12.9592241,
      "lon": 77.7462486,
      "tags": {
        "addr:city": "Bengaluru",
        "addr:street": "Whitefield Main Road",
        "amenity": "doctors",
        "check_date": "2025-05-24",
        "healthcare": "doctor",
        "healthcare:speciality": "dermatology",
        "name": "Dr Rai's Skin And Hair Clinic"
      }
    },
    {
      "type": "node",
      "id": 12860980669,
      "lat": 12.9593354,
      "lon": 77.7462696,
      "tags": {
        "addr:city": "Bengaluru",
        "addr:floor": "4",
        "addr:street": "Whitefield Main Road",
        "check_date": "2025-06-16",
        "name": "Sravana",
        "shop": "hearing_aids"
      }
    },
    {
      "type": "node",
      "id": 12877246635,
      "lat": 12.9572927,
      "lon": 77.7451871,
      "tags": {
        "check_date": "2025-08-18",
        "name": "Sling",
        "shop": "alcohol"
      }
    },
    {
      "type": "node",
      "id": 12877246636,
      "lat": 12.9572629,
      "lon": 77.745105,
      "tags": {
        "check_date": "2025-05-31",
        "leisure": "fitness_centre",
        "name": "Stayfit"
      }
    },
    {
      "type": "node",
      "id": 12882822826,
      "lat": 12.9587212,
      "lon": 77.7466092,
      "tags": {
        "amenity": "atm",
        "brand": "Axis Bank",
        "brand:wikidata": "Q2003549",
        "check_date": "2025-06-03",
        "operator": "Axis Bank",
        "operator:wikidata": "Q2003549"
      }
    },
    {
      "type": "node",
      "id": 12901470582,
      "lat": 12.9643385,
      "lon": 77.7487181,
      "tags": {
        "check_date": "2025-06-10",
        "name": "Titan Eye",
        "shop": "optician"
      }
    },
    {
      "type": "node",
      "id": 12901470585,
      "lat": 12.9598092,
      "lon": 77.7473442,
      "tags": {
        "alt_name": "Dunkin' Donuts",
        "amenity": "fast_food",
        "brand": "Dunkin'",
        "brand:wikidata": "Q847743",
        "check_date": "2025-06-10",
        "cuisine": "donut;coffee_shop",
        "name": "Dunkin'",
        "takeaway": "yes"
      }
    },
    {
      "type": "node",
      "id": 12918784601,
      "lat": 12.9591049,
      "lon": 77.7463607,
      "tags": {
        "amenity": "atm",
        "brand": "HDFC Bank",
        "brand:wikidata": "Q631047",
        "check_date": "2025-05-24",
        "operator": "HDFC Bank",
        "operator:wikidata": "Q631047",
        "short_name": "HDFC"
      }
    },
    {
      "type": "node",
      "id": 12918784607,
      "lat": 12.9592902,
      "lon": 77.746302,
      "tags": {
        "brand": "Lakmé",
        "brand:wikidata": "Q6479731",
        "name": "Lakmé Academy",
        "shop": "cosmetics"
      }
    },
    {
      "type": "node",
      "id": 12918784608,
      "lat": 12.9592301,
      "lon": 77.7462313,
      "tags": {
        "amenity": "clinic",
        "healthcare": "clinic",
        "healthcare:speciality": "cardiology",
        "name": "Heart Clinic & Pharmacy"
      }
    },
    {
      "type": "node",
      "id": 12918784609,
      "lat": 12.9592805,
      "lon": 77.7462612,
      "tags": {
        "name": "Artz N Colours",
        "shop": "craft"
      }
    },
    {
      "type": "node",
      "id": 12918784612,
      "lat": 12.9592679,
      "lon": 77.7462283,
      "tags": {
        "amenity": "art_school",
        "name": "Global Art"
      }
    },
    {
      "type": "node",
      "id": 12955936251,
      "lat": 12.9499826,
      "lon": 77.7455297,
      "tags": {
        "check_date": "2025-06-27",
        "name": "Mukesh Kumar Nursery",
        "shop": "garden_centre"
      }
    },
    {
      "type": "node",
      "id": 12955936252,
      "lat": 12.950062,
      "lon": 77.7454866,
      "tags": {
        "check_date": "2025-06-27",
        "shop": "pottery"
      }
    },
    {
      "type": "node",
      "id": 12965791637,
      "lat": 12.962565,
      "lon": 77.7482224,
      "tags": {
        "brand": "Tanishq",
        "brand:en": "Tanishq",
        "brand:wikidata": "Q13117711",
        "check_date": "2025-07-03",
        "name": "Tanishq",
        "name:en": "Tanishq",
        "shop": "jewelry"
      }
    },
    {
      "type": "node",
      "id": 12965791638,
      "lat": 12.9625188,
      "lon": 77.7482173,
      "tags": {
        "amenity": "atm",
        "brand": "Union Bank of India",
        "brand:wikidata": "Q2004078",
        "check_date": "2025-07-03",
        "operator": "Union Bank of India",
        "operator:wikidata": "Q2004078"
      }
    },
    {
      "type": "node",
      "id": 12972973409,
      "lat": 12.9641837,
      "lon": 77.7486991,
      "tags": {
        "amenity": "bank",
        "brand": "Kotak Mahindra Bank",
        "brand:wikidata": "Q2040404",
        "check_date": "2025-07-03",
        "name": "Kotak Mahindra Bank"
      }
    },
    {
      "type": "node",
      "id": 12972973410,
      "lat": 12.9624611,
      "lon": 77.7480771,
      "tags": {
        "amenity": "ice_cream",
        "check_date": "2025-07-03",
        "name": "ibaco"
      }
    },
    {
      "type": "node",
      "id": 12976459556,
      "lat": 12.9615234,
      "lon": 77.747819,
      "tags": {
        "check_date": "2025-07-04",
        "shop": "copyshop"
      }
    },
    {
      "type": "node",
      "id": 12979333358,
      "lat": 12.9571579,
      "lon": 77.7458144,
      "tags": {
        "check_date": "2025-07-05",
        "name": "Swathi Spa",
        "shop": "massage"
      }
    },
    {
      "type": "node",
      "id": 12991350616,
      "lat": 12.957147,
      "lon": 77.7458386,
      "tags": {
        "check_date": "2025-07-10",
        "name": "Kaff",
        "shop": "kitchen"
      }
    },
    {
      "type": "node",
      "id": 13011777229,
      "lat": 12.9566083,
      "lon": 77.7443268,
      "tags": {
        "brand": "Michelin",
        "brand:wikidata": "Q151107",
        "check_date": "2025-07-19",
        "name": "Michelin",
        "shop": "tyres"
      }
    },
    {
      "type": "node",
      "id": 13200227930,
      "lat": 12.9497906,
      "lon": 77.7456609,
      "tags": {
        "amenity": "cafe",
        "check_date": "2025-10-07",
        "name": "The Prosper's Cafe"
      }
    },
    {
      "type": "node",
      "id": 13286922703,
      "lat": 12.9568496,
      "lon": 77.7401522,
      "tags": {
        "check_date": "2025-11-07",
        "name": "SMR Enterprises",
        "shop": "travel_agency"
      }
    },
    {
      "type": "way",
      "id": 99178891,
      "center": {
        "lat": 12.9596554,
        "lon": 77.7478463
      },
      "tags": {
        "addr:city": "Whitefield, Bangalore",
        "addr:housenumber": "62",
        "addr:postcode": "560066",
        "addr:street": "Whitefield Main Road",
        "check_date": "2025-06-14",
        "email": "infodesk.fvm@crpmm.com",
        "landuse": "retail",
        "name": "Nexus Whitefield",
        "old_name": "Forum Neighbourdhood Mall",
        "phone": "+91-80-25043800;+91-80-25043700",
        "shop": "mall",
        "website": "http://www.forumvaluemall.com/"
      }
    },
    {
      "type": "way",
      "id": 124013167,
      "center": {
        "lat": 12.9565549,
        "lon": 77.7379526
      },
      "tags": {
        "amenity": "school",
        "check_date": "2025-10-28",
        "name": "Government School",
        "name:kn": "ಸರ್ಕಾರಿ ಶಾಲೆ"
      }
    },
    {
      "type": "way",
      "id": 130631237,
      "center": {
        "lat": 12.9587882,
        "lon": 77.747039
      },
      "tags": {
        "leisure": "swimming_pool"
      }
    },
    {
      "type": "way",
      "id": 145130459,
      "center": {
        "lat": 12.964412,
        "lon": 77.7498733
      },
      "tags": {
        "leisure": "swimming_pool"
      }
    },
    {
      "type": "way",
      "id": 173167554,
      "center": {
        "lat": 12.9595833,
        "lon": 77.7469597
      },
      "tags": {
        "leisure": "garden"
      }
    },
    {
      "type": "way",
      "id": 176774250,
      "center": {
        "lat": 12.9589657,
        "lon": 77.7469929
      },
      "tags": {
        "building": "house",
        "building:levels": "2",
        "leisure": "sports_centre",
        "name": "Armadale Club House",
        "roof:levels": "1",
        "roof:shape": "hipped"
      }
    },
    {
      "type": "way",
      "id": 251666164,
      "center": {
        "lat": 12.9598753,
        "lon": 77.7464368
      },
      "tags": {
        "check_date": "2025-05-24",
        "name": "Bimal Maruthi",
        "name:kn": "ಬಿಮಲ್ ಮಾರುತಿ",
        "shop": "car"
      }
    },
    {
      "type": "way",
      "id": 256685818,
      "center": {
        "lat": 12.9571465,
        "lon": 77.7500488
      },
      "tags": {
        "leisure": "garden"
      }
    },
    {
      "type": "way",
      "id": 344322136,
      "center": {
        "lat": 12.9603704,
        "lon": 77.7499322
      },
      "tags": {
        "leisure": "pitch",
        "sport": "tennis"
      }
    },
    {
      "type": "way",
      "id": 347024466,
      "center": {
        "lat": 12.963159,
        "lon": 77.7469189
      },
      "tags": {
        "amenity": "kindergarten",
        "building": "yes",
        "name": "Kangaroo Kids"
      }
    },
    {
      "type": "way",
      "id": 347115205,
      "center": {
        "lat": 12.9575237,
        "lon": 77.7414883
      },
      "tags": {
        "leisure": "swimming_pool"
      }
    },
    {
      "type": "way",
      "id": 347169575,
      "center": {
        "lat": 12.9594598,
        "lon": 77.7499249
      },
      "tags": {
        "leisure": "swimming_pool",
        "location": "outdoor"
      }
    },
    {
      "type": "way",
      "id": 351082462,
      "center": {
        "lat": 12.9555504,
        "lon": 77.7435545
      },
      "tags": {
        "leisure": "swimming_pool"
      }
    },
    {
      "type": "way",
      "id": 360342803,
      "center": {
        "lat": 12.9583496,
        "lon": 77.7454332
      },
      "tags": {
        "amenity": "hospital",
        "check_date": "2025-06-03",
        "emergency": "yes",
        "healthcare": "hospital",
        "healthcare:speciality": "general;paediatrics;emergency;gynaecology",
        "name": "Manipal Hospitals",
        "name:kn": "ಮಣಿಪಾಲ ಆಸ್ಪತ್ರೆ",
        "old_name": "Columbia Asia Whitefield"
      }
    },
    {
      "type": "way",
      "id": 470510882,
      "center": {
        "lat": 12.9571619,
        "lon": 77.7439194
      },
      "tags": {
        "leisure": "park",
        "name": "Sigma Park"
      }
    },
    {
      "type": "way",
      "id": 527188348,
      "center": {
        "lat": 12.9585868,
        "lon": 77.7456717
      },
      "tags": {
        "amenity": "parking"
      }
    },
    {
      "type": "way",
      "id": 527188349,
      "center": {
        "lat": 12.9575859,
        "lon": 77.745227
      },
      "tags": {
        "leisure": "pitch",
        "sport": "soccer"
      }
    },
    {
      "type": "way",
      "id": 527188352,
      "center": {
        "lat": 12.9577918,
        "lon": 77.7452536
      },
      "tags": {
        "leisure": "pitch",
        "sport": "soccer"
      }
    },
    {
      "type": "way",
      "id": 629939948,
      "center": {
        "lat": 12.9643213,
        "lon": 77.7475796
      },
      "tags": {
        "leisure": "garden"
      }
    },
    {
      "type": "way",
      "id": 629939949,
      "center": {
        "lat": 12.9645178,
        "lon": 77.7469423
      },
      "tags": {
        "leisure": "garden"
      }
    },
    {
      "type": "way",
      "id": 641761930,
      "center": {
        "lat": 12.9650829,
        "lon": 77.7452603
      },
      "tags": {
        "leisure": "garden"
      }
    },
    {
      "type": "way",
      "id": 641761936,
      "center": {
        "lat": 12.9644197,
        "lon": 77.7437158
      },
      "tags": {
        "barrier": "fence",
        "leisure": "park",
        "opening_hours": "Mo-Su 06:00-12:00"
      }
    },
    {
      "type": "way",
      "id": 1075362335,
      "center": {
        "lat": 12.9589657,
        "lon": 77.7467194
      },
      "tags": {
        "amenity": "hospital",
        "check_date": "2025-06-23",
        "healthcare": "hospital",
        "healthcare:speciality": "maternity;gynaecology;paediatrics",
        "name": "Motherhood Whitefield",
        "phone": "18002585727",
        "website": "https://femiinthealth.com/"
      }
    },
    {
      "type": "way",
      "id": 1087678572,
      "center": {
        "lat": 12.9560395,
        "lon": 77.7421973
      },
      "tags": {
        "leisure": "swimming_pool"
      }
    },
    {
      "type": "way",
      "id": 1088209024,
      "center": {
        "lat": 12.9622675,
        "lon": 77.7496675
      },
      "tags": {
        "amenity": "school",
        "check_date": "2025-08-01",
        "name": "Carmel Teresa School"
      }
    },
    {
      "type": "way",
      "id": 1123787582,
      "center": {
        "lat": 12.9620299,
        "lon": 77.7472022
      },
      "tags": {
        "access": "private",
        "leisure": "pitch",
        "sport": "tennis"
      }
    },
    {
      "type": "way",
      "id": 1130957364,
      "center": {
        "lat": 12.9587808,
        "lon": 77.7411552
      },
      "tags": {
        "leisure": "swimming_pool"
      }
    },
    {
      "type": "way",
      "id": 1152016896,
      "center": {
        "lat": 12.9602554,
        "lon": 77.7466303
      },
      "tags": {
        "addr:housenumber": "816/A",
        "addr:street": "Whitefield Main Road",
        "amenity": "kindergarten",
        "check_date": "2025-05-24",
        "name": "The Sommer School"
      }
    },
    {
      "type": "way",
      "id": 1215933840,
      "center": {
        "lat": 12.9566754,
        "lon": 77.7459982
      },
      "tags": {
        "access": "customers",
        "amenity": "parking",
        "fee": "no",
        "parking": "surface",
        "surface": "ground"
      }
    },
    {
      "type": "way",
      "id": 1241625385,
      "center": {
        "lat": 12.9572092,
        "lon": 77.7367052
      },
      "tags": {
        "access": "customers",
        "amenity": "parking",
        "parking": "surface"
      }
    },
    {
      "type": "way",
      "id": 1295718900,
      "center": {
        "lat": 12.9591157,
        "lon": 77.7446056
      },
      "tags": {
        "amenity": "social_facility",
        "name": "Athulya Senior Care Services",
        "social_facility": "assisted_living",
        "social_facility:for": "senior",
        "website": "https://www.athulyaseniorcare.com/whitefield.php",
        "wheelchair": "yes"
      }
    },
    {
      "type": "way",
      "id": 1295718902,
      "center": {
        "lat": 12.9585828,
        "lon": 77.7451274
      },
      "tags": {
        "amenity": "motorcycle_parking"
      }
    },
    {
      "type": "way",
      "id": 1305436498,
      "center": {
        "lat": 12.9646256,
        "lon": 77.7476291
      },
      "tags": {
        "access": "private",
        "amenity": "parking",
        "parking": "surface"
      }
    },
    {
      "type": "way",
      "id": 1410000965,
      "center": {
        "lat": 12.9486335,
        "lon": 77.7461703
      },
      "tags": {
        "addr:housenumber": "339/5",
        "check_date": "2025-08-13",
        "landuse": "commercial",
        "name": "Sri Salsar Marble",
        "shop": "trade",
        "trade": "marble"
      }
    },
    {
      "type": "way",
      "id": 1410000970,
      "center": {
        "lat": 12.9490308,
        "lon": 77.7459157
      },
      "tags": {
        "building": "roof",
        "building:levels": "1",
        "check_date": "2025-07-26",
        "shop": "garden_centre"
      }
    },
    {
      "type": "way",
      "id": 1410000971,
      "center": {
        "lat": 12.9489074,
        "lon": 77.7459445
      },
      "tags": {
        "building": "roof",
        "building:levels": "1",
        "check_date": "2025-07-26",
        "name": "Paras Kumar Terracotta Handwork",
        "roof:levels": "0",
        "shop": "pottery"
      }
    },
    {
      "type": "way",
      "id": 1415395892,
      "center": {
        "lat": 12.9511085,
        "lon": 77.7453695
      },
      "tags": {
        "amenity": "fuel",
        "check_date": "2025-08-14",
        "check_date:compressed_air": "2025-04-08",
        "compressed_air": "no",
        "fuel:cng": "yes",
        "landuse": "retail",
        "name": "Indian Auto Gas",
        "self_service": "no",
        "wheelchair": "yes"
      }
    },
    {
      "type": "way",
      "id": 1420862330,
      "center": {
        "lat": 12.9520086,
        "lon": 77.7446897
      },
      "tags": {
        "addr:floor": "-1",
        "addr:street": "Varthur Lake Road",
        "amenity": "place_of_worship",
        "check_date": "2025-02-09",
        "level": "-1",
        "polling_station": "no",
        "religion": "hindu",
        "wheelchair": "no"
      }
    },
    {
      "type": "way",
      "id": 1433995779,
      "center": {
        "lat": 12.9595902,
        "lon": 77.7500486
      },
      "tags": {
        "leisure": "swimming_pool",
        "location": "outdoor",
        "swimming_pool": "kids"
      }
    },
    {
      "type": "way",
      "id": 1443878787,
      "center": {
        "lat": 12.9576701,
        "lon": 77.7383915
      },
      "tags": {
        "access": "private",
        "hoops": "2",
        "leisure": "pitch",
        "sport": "basketball"
      }
    }
  ]
}