{
  "area_name": "Vasanthapura",
  "osm_id": 12511863424,
  "osm_type": "node",
  "place_type": "neighbourhood",
  "amenity_count": 57,
  "amenities": [
    {
      "type": "node",
      "id": 435688317,
      "lat": 12.8986538,
      "lon": 77.5578162,
      "tags": {
        "amenity": "bank",
        "atm": "no",
        "brand": "State Bank of India",
        "brand:wikidata": "Q1340361",
        "brand:wikipedia": "en:State Bank of India",
        "name": "State Bank of India",
        "name:kn": "ಭಾರತೀಯ ಸ್ಟೇಟ್ ಬ್ಯಾಂಕ್",
        "short_name": "SBI"
      }
    },
    {
      "type": "node",
      "id": 435688319,
      "lat": 12.8989528,
      "lon": 77.5575938,
      "tags": {
        "amenity": "bank",
        "atm": "yes",
        "brand": "Karur Vysya Bank",
        "brand:wikidata": "Q6373724",
        "brand:wikipedia": "en:Karur Vysya Bank",
        "name": "Karur Vysya Bank",
        "name:en": "Karur Vysya Bank",
        "short_name": "KVB",
        "website": "https://www.kvb.co.in"
      }
    },
    {
      "type": "node",
      "id": 435688321,
      "lat": 12.8986874,
      "lon": 77.5577817,
      "tags": {
        "addr:housename": "M K Ahmed",
        "shop": "convenience"
      }
    },
    {
      "type": "node",
      "id": 435688323,
      "lat": 12.8983313,
      "lon": 77.5582799,
      "tags": {
        "addr:housename": "Shop and save",
        "name": "Shop and save",
        "shop": "convenience"
      }
    },
    {
      "type": "node",
      "id": 1334443054,
      "lat": 12.8980464,
      "lon": 77.5551298,
      "tags": {
        "amenity": "place_of_worship",
        "name": "Devarakere Venkataramana Temple",
        "name:kn": "ದೇವಾರೆಕೆರೆ ವೆಂಕಟರಮಣ ದೇವಸ್ಥಾನ",
        "religion": "hindu"
      }
    },
    {
      "type": "node",
      "id": 1334443060,
      "lat": 12.8988366,
      "lon": 77.5572943,
      "tags": {
        "amenity": "place_of_worship",
        "denomination": "Shaivism",
        "name:kn": "ವಿನಾಯಕ ದೇವಸ್ಥಾನ",
        "religion": "hindu"
      }
    },
    {
      "type": "node",
      "id": 1463591629,
      "lat": 12.9048588,
      "lon": 77.5442073,
      "tags": {
        "amenity": "place_of_worship",
        "name": "St Anthony",
        "religion": "christian"
      }
    },
    {
      "type": "node",
      "id": 1463592177,
      "lat": 12.903508,
      "lon": 77.5442237,
      "tags": {
        "amenity": "cinema",
        "name": "Vaishnavi"
      }
    },
    {
      "type": "node",
      "id": 1466619661,
      "lat": 12.9003434,
      "lon": 77.5436207,
      "tags": {
        "amenity": "place_of_worship",
        "name": "Subramanya Temple",
        "name:kn": "ಸುಬ್ರಮಣ್ಯ ದೇವಸ್ಥಾನ",
        "religion": "hindu"
      }
    },
    {
      "type": "node",
      "id": 1466620448,
      "lat": 12.8988689,
      "lon": 77.5441625,
      "tags": {
        "amenity": "post_office",
        "name": "Uttarahalli Post Office",
        "name:kn": "ಉತ್ತರಹಳ್ಳಿ ಆಂಚೆ ಕಛೇರಿ"
      }
    },
    {
      "type": "node",
      "id": 2127406148,
      "lat": 12.9036309,
      "lon": 77.5440956,
      "tags": {
        "amenity": "cinema",
        "name": "Vaibhavi"
      }
    },
    {
      "type": "node",
      "id": 2472270417,
      "lat": 12.8960028,
      "lon": 77.5542251,
      "tags": {
        "amenity": "community_centre",
        "community_centre": "cultural_centre",
        "name": "Purandara Dasa Trust Hall"
      }
    },
    {
      "type": "node",
      "id": 4426080989,
      "lat": 12.9017851,
      "lon": 77.5563991,
      "tags": {
        "addr:housenumber": "14",
        "addr:postcode": "560078",
        "addr:street": "2nd Cross Road",
        "amenity": "place_of_worship",
        "name": "Shanmukh Dixit Astrologer",
        "name:en": "Shanmukh Dixit Astrologer",
        "opening_hours": "Fr-Su 10:00-22:00",
        "phone": "+91 80 2666 1959"
      }
    },
    {
      "type": "node",
      "id": 4463206796,
      "lat": 12.9053331,
      "lon": 77.5533196,
      "tags": {
        "addr:postcode": "560061",
        "addr:street": "12th main road , BHCS layout",
        "amenity": "school",
        "name": "Bright Way School",
        "name:en": "Bright Way School",
        "opening_hours": "Mo-Sa 08:00-16:00"
      }
    },
    {
      "type": "node",
      "id": 4463224992,
      "lat": 12.9070086,
      "lon": 77.5488113,
      "tags": {
        "amenity": "cafe",
        "name": "Kona Kafe",
        "name:en": "Kona Kafe"
      }
    },
    {
      "type": "node",
      "id": 4546027013,
      "lat": 12.9040828,
      "lon": 77.5441927,
      "tags": {
        "name": "Kanva Mart",
        "operator": "Kanva Group",
        "shop": "clothes"
      }
    },
    {
      "type": "node",
      "id": 4925250030,
      "lat": 12.8973448,
      "lon": 77.557338,
      "tags": {
        "leisure": "park",
        "name": "ISRO Layout Children's Park"
      }
    },
    {
      "type": "node",
      "id": 4925257513,
      "lat": 12.8968227,
      "lon": 77.5569403,
      "tags": {
        "amenity": "place_of_worship",
        "denomination": "hindu",
        "name": "Sacred Neem tree",
        "religion": "hindu"
      }
    },
    {
      "type": "node",
      "id": 5103929761,
      "lat": 12.8938836,
      "lon": 77.556381,
      "tags": {
        "amenity": "school",
        "name": "Rays Academy For Learning"
      }
    },
    {
      "type": "node",
      "id": 6947375064,
      "lat": 12.89708,
      "lon": 77.5473364,
      "tags": {
        "addr:district": "Bengaluru Urban",
        "addr:full": "No.4, Sagar Complex,Gopalakrishna Layout,Vasanthapura Main Road,Subramanyapura Post,Uttarahalli Hobli",
        "addr:postcode": "560061",
        "addr:state": "Karnataka",
        "amenity": "hospital",
        "name": "Samastha Hospitals Pvt Ltd",
        "source": "OpenGovernmentData"
      }
    },
    {
      "type": "node",
      "id": 11195729745,
      "lat": 12.9005351,
      "lon": 77.5583911,
      "tags": {
        "amenity": "shelter",
        "shelter_type": "gazebo"
      }
    },
    {
      "type": "node",
      "id": 12964476366,
      "lat": 12.9011693,
      "lon": 77.5579422,
      "tags": {
        "description": "Vegetable shop with home delivery within 2 KMs for bill above ₹400",
        "name": "Hasiru Thota",
        "opening_hours": "06:00-21:00",
        "phone": "7795502240",
        "shop": "greengrocer"
      }
    },
    {
      "type": "way",
      "id": 117075291,
      "center": {
        "lat": 12.8954144,
        "lon": 77.5518455
      },
      "tags": {
        "amenity": "place_of_worship",
        "building": "yes",
        "name": "Vasantha Vallabharayar Temple",
        "name:kn": "ವಸಂತಪುರ ದೇವಸ್ಥಾನ",
        "religion": "hindu"
      }
    },
    {
      "type": "way",
      "id": 117076683,
      "center": {
        "lat": 12.8946945,
        "lon": 77.5530524
      },
      "tags": {
        "amenity": "place_of_worship",
        "name": "Sai Baba Temple",
        "name:kn": "ಸಾಯಿಬಾಬಾ ದೇವಸ್ಥಾನ",
        "religion": "hindu"
      }
    },
    {
      "type": "way",
      "id": 118414979,
      "center": {
        "lat": 12.8887443,
        "lon": 77.5506312
      },
      "tags": {
        "amenity": "college",
        "name": "City Engineering College",
        "name:kn": "ಸಿಟಿ ಇಂಜಿನಿಯರಿಂಗ್ ಕಾಲೇಜು",
        "wikidata": "Q5123156",
        "wikimedia_commons": "Category:City Engineering College",
        "wikipedia": "en:City Engineering College"
      }
    },
    {
      "type": "way",
      "id": 239449057,
      "center": {
        "lat": 12.8952439,
        "lon": 77.5590033
      },
      "tags": {
        "leisure": "park",
        "name": "Dr Abdul Kalam Park",
        "name:etymology:wikidata": "Q9513",
        "name:kn": "ಅಬ್ದುಲ್ ಕಲಾಂ ಉದ್ಯಾನವನ",
        "name:ta": "அப்துல் கலாம் பூங்கா"
      }
    },
    {
      "type": "way",
      "id": 239449580,
      "center": {
        "lat": 12.8965422,
        "lon": 77.5583021
      },
      "tags": {
        "leisure": "park",
        "name": "Dr Satish Dhawan Park",
        "name:en": "Dr Satish Dhawan Park",
        "name:etymology:wikidata": "Q325393",
        "operator": "ಬೃಹತ್ ಬೆಂಗಳೂರು ಮಹಾನಗರ ಪಾಲಿಕೆ",
        "operator:en": "Bruhat Bengaluru Mahanagara Palike",
        "operator:ka": "ಬೃಹತ್ ಬೆಂಗಳೂರು ಮಹಾನಗರ ಪಾಲಿಕೆ",
        "operator:short": "BBMP",
        "operator:type": "government",
        "operator:wikidata": "Q4978693"
      }
    },
    {
      "type": "way",
      "id": 239555420,
      "center": {
        "lat": 12.90134,
        "lon": 77.5579681
      },
      "tags": {
        "amenity": "bank",
        "brand": "Canara Bank",
        "brand:en": "Canara Bank",
        "brand:hi": "केनरा बैंक",
        "brand:kn": "ಕೆನರಾ ಬ್ಯಾಂಕ್",
        "brand:pa": "ਕੇਨਰਾ ਬੈਂਕ",
        "brand:pnb": "کینرا بینک",
        "brand:ur": "کینرا بینک",
        "brand:wikidata": "Q2003777",
        "brand:wikipedia": "en:Canara Bank",
        "brand:wikipedia:pa": "ਕੇਨਰਾ ਬੈਂਕ",
        "building": "yes",
        "name": "Canara Bank",
        "name:en": "Canara Bank",
        "name:hi": "केनरा बैंक",
        "name:kn": "ಕೆನರಾ ಬ್ಯಾಂಕ್",
        "name:pa": "ਕੇਨਰਾ ਬੈਂਕ",
        "name:pnb": "کینرا بینک",
        "name:ur": "کینرا بینک",
        "website": "https://www.canarabank.com/"
      }
    },
    {
      "type": "way",
      "id": 239555460,
      "center": {
        "lat": 12.900548,
        "lon": 77.5584899
      },
      "tags": {
        "leisure": "park",
        "name": "Triangle Park ISRO Layout"
      }
    },
    {
      "type": "way",
      "id": 259878361,
      "center": {
        "lat": 12.8995957,
        "lon": 77.5575497
      },
      "tags": {
        "leisure": "park",
        "name": "Children's Park",
        "operator": "ಬೃಹತ್ ಬೆಂಗಳೂರು ಮಹಾನಗರ ಪಾಲಿಕೆ",
        "operator:en": "Bruhat Bengaluru Mahanagara Palike",
        "operator:ka": "ಬೃಹತ್ ಬೆಂಗಳೂರು ಮಹಾನಗರ ಪಾಲಿಕೆ",
        "operator:short": "BBMP",
        "operator:type": "government",
        "operator:wikidata": "Q4978693"
      }
    },
    {
      "type": "way",
      "id": 259879354,
      "center": {
        "lat": 12.8994801,
        "lon": 77.558449
      },
      "tags": {
        "amenity": "bus_station",
        "bus": "yes",
        "internet_access": "yes",
        "internet_access:fee": "customers",
        "name": "ISRO Layout Bus Stand",
        "name:kn": "ಬಸ್ ನಿಲ್ದಾಣ",
        "public_transport": "station"
      }
    },
    {
      "type": "way",
      "id": 259879355,
      "center": {
        "lat": 12.8988397,
        "lon": 77.5572958
      },
      "tags": {
        "amenity": "place_of_worship",
        "denomination": "Shaivism",
        "name": "Vinayaka Temple",
        "name:kn": "ವಿನಾಯಕ ದೇವಸ್ಥಾನ",
        "religion": "hindu"
      }
    },
    {
      "type": "way",
      "id": 320372650,
      "center": {
        "lat": 12.8983871,
        "lon": 77.555736
      },
      "tags": {
        "highway": "footway",
        "leisure": "track",
        "name": "Devarakere jogging track",
        "surface": "paved"
      }
    },
    {
      "type": "way",
      "id": 347536226,
      "center": {
        "lat": 12.8961793,
        "lon": 77.5522955
      },
      "tags": {
        "amenity": "community_centre",
        "building": "yes"
      }
    },
    {
      "type": "way",
      "id": 445480312,
      "center": {
        "lat": 12.8944062,
        "lon": 77.5557923
      },
      "tags": {
        "amenity": "school",
        "name": "Indira Vidya Mandir School",
        "name:kn": "ಇಂದಿರಾ ವಿದ್ಯಾ ಮಂದಿರ",
        "operator": "DAV Public School"
      }
    },
    {
      "type": "way",
      "id": 501844307,
      "center": {
        "lat": 12.8972527,
        "lon": 77.5576668
      },
      "tags": {
        "leisure": "park",
        "name": "ISRO Layout Children's Park",
        "name:en": "Dr. U.R. Rao Park"
      }
    },
    {
      "type": "way",
      "id": 585450310,
      "center": {
        "lat": 12.9068214,
        "lon": 77.5504097
      },
      "tags": {
        "leisure": "park",
        "name": "BHCS Park",
        "opening_hours": "Mo-Su 05:00-09:00,16:00-20:00"
      }
    },
    {
      "type": "way",
      "id": 585450311,
      "center": {
        "lat": 12.9061278,
        "lon": 77.551345
      },
      "tags": {
        "leisure": "park",
        "opening_hours": "Mo-Su 05:00-09:00,16:00-20:00"
      }
    },
    {
      "type": "way",
      "id": 585450314,
      "center": {
        "lat": 12.9048542,
        "lon": 77.5502474
      },
      "tags": {
        "access": "yes",
        "leisure": "pitch",
        "service_times": "24/7",
        "surface": "dirt"
      }
    },
    {
      "type": "way",
      "id": 585450316,
      "center": {
        "lat": 12.9052898,
        "lon": 77.5505199
      },
      "tags": {
        "access": "yes",
        "leisure": "playground",
        "max_age": "14",
        "name": "Kids Playground",
        "operator": "BBMP",
        "surface": "paved"
      }
    },
    {
      "type": "way",
      "id": 1118946170,
      "center": {
        "lat": 12.8907999,
        "lon": 77.5486118
      },
      "tags": {
        "amenity": "place_of_worship",
        "landuse": "religious",
        "name": "Krishna Leela Park, ISCKON",
        "name:kn": "ಕೃಷ್ಣ ಲೀಲಾ ಉದ್ಯಾನವನ",
        "religion": "hindu"
      }
    },
    {
      "type": "way",
      "id": 1203175499,
      "center": {
        "lat": 12.8951147,
        "lon": 77.5416053
      },
      "tags": {
        "leisure": "pitch",
        "sport": "basketball"
      }
    },
    {
      "type": "way",
      "id": 1203175500,
      "center": {
        "lat": 12.8955827,
        "lon": 77.5403851
      },
      "tags": {
        "leisure": "park"
      }
    },
    {
      "type": "way",
      "id": 1203175539,
      "center": {
        "lat": 12.9035215,
        "lon": 77.5574108
      },
      "tags": {
        "leisure": "park"
      }
    },
    {
      "type": "way",
      "id": 1208265166,
      "center": {
        "lat": 12.8940511,
        "lon": 77.5576803
      },
      "tags": {
        "leisure": "sports_centre"
      }
    },
    {
      "type": "way",
      "id": 1217710843,
      "center": {
        "lat": 12.894346,
        "lon": 77.5416961
      },
      "tags": {
        "amenity": "theatre",
        "building": "yes",
        "lit": "yes",
        "name": "PLRD Amphitheatre",
        "operator": "Prestige Lake Ridge",
        "theatre:type": "amphi"
      }
    },
    {
      "type": "way",
      "id": 1217945456,
      "center": {
        "lat": 12.8946561,
        "lon": 77.5418142
      },
      "tags": {
        "leisure": "pitch",
        "sport": "cricket"
      }
    },
    {
      "type": "way",
      "id": 1217945458,
      "center": {
        "lat": 12.8956782,
        "lon": 77.5405107
      },
      "tags": {
        "amenity": "parking",
        "building:levels": "2",
        "fee": "no",
        "layer": "-1",
        "operator": "Prestige Lake Ridge",
        "operator:type": "private",
        "parking": "underground",
        "surface": "concrete"
      }
    },
    {
      "type": "way",
      "id": 1217945460,
      "center": {
        "lat": 12.8961039,
        "lon": 77.5411418
      },
      "tags": {
        "amenity": "parking",
        "capacity": "8",
        "fee": "no",
        "operator": "Prestige Lake Ridge",
        "operator:type": "private",
        "orientation": "parallel",
        "parking": "street_side",
        "surface": "concrete"
      }
    },
    {
      "type": "way",
      "id": 1217945461,
      "center": {
        "lat": 12.8956994,
        "lon": 77.5412124
      },
      "tags": {
        "access": "private",
        "amenity": "parking",
        "capacity": "10",
        "fee": "no",
        "operator": "Prestige Lake Ridge",
        "operator:type": "private",
        "orientation": "parallel",
        "parking": "street_side",
        "surface": "concrete"
      }
    },
    {
      "type": "way",
      "id": 1217945471,
      "center": {
        "lat": 12.8956873,
        "lon": 77.5413956
      },
      "tags": {
        "fitness_station": "fitness_station",
        "leisure": "fitness_station",
        "sport": "fitness"
      }
    },
    {
      "type": "way",
      "id": 1270860707,
      "center": {
        "lat": 12.9027273,
        "lon": 77.5508723
      },
      "tags": {
        "leisure": "park"
      }
    },
    {
      "type": "way",
      "id": 1272148166,
      "center": {
        "lat": 12.8995204,
        "lon": 77.5580505
      },
      "tags": {
        "addr:city": "Bengaluru",
        "addr:district": "Bengaluru Urban",
        "addr:housenumber": "259",
        "addr:postcode": "560078",
        "addr:street": "3rd Main Road",
        "alt_name": "Mojro",
        "amenity": "bank",
        "atm": "yes",
        "brand": "State Bank of India",
        "brand:wikidata": "Q1340361",
        "building": "yes",
        "building:levels": "4",
        "name": "State Bank of India",
        "operator": "SBI",
        "short_name": "SBI"
      }
    },
    {
      "type": "way",
      "id": 1290631846,
      "center": {
        "lat": 12.8929509,
        "lon": 77.5532627
      },
      "tags": {
        "leisure": "park",
        "operator": "ಬೃಹತ್ ಬೆಂಗಳೂರು ಮಹಾನಗರ ಪಾಲಿಕೆ",
        "operator:en": "Bruhat Bengaluru Mahanagara Palike",
        "operator:ka": "ಬೃಹತ್ ಬೆಂಗಳೂರು ಮಹಾನಗರ ಪಾಲಿಕೆ",
        "operator:short": "BBMP",
        "operator:type": "government"
      }
    },
    {
      "type": "way",
      "id": 1337111934,
      "center": {
        "lat": 12.9038855,
        "lon": 77.5472231
      },
      "tags": {
        "amenity": "school"
      }
    },
    {
      "type": "way",
      "id": 1416231938,
      "center": {
        "lat": 12.9005514,
        "lon": 77.5525787
      },
      "tags": {
        "leisure": "park"
      }
    },
    {
      "type": "way",
      "id": 1429694636,
      "center": {
        "lat": 12.899026,
        "lon": 77.5572529
      },
      "tags": {
        "amenity": "drinking_water",
        "name": "Reverse Osmosis Plant"
      }
    }
  ]
}