{
  "area_name": "Vijaya Nagar",
  "osm_id": 429857524,
  "osm_type": "node",
  "place_type": "suburb",
  "amenity_count": 604,
  "amenities": [
    {
      "type": "node",
      "id": 1107936763,
      "lat": 12.9681074,
      "lon": 77.5413652,
      "tags": {
        "amenity": "place_of_worship",
        "name": "Sri Ganesha Temple",
        "name:kn": "ಗಣೇಶ ದೇವಸ್ಥಾನ",
        "religion": "hindu"
      }
    },
    {
      "type": "node",
      "id": 1107942103,
      "lat": 12.9690223,
      "lon": 77.5433246,
      "tags": {
        "amenity": "place_of_worship",
        "name": "Sri Mariamma Temple",
        "religion": "hindu"
      }
    },
    {
      "type": "node",
      "id": 1107947488,
      "lat": 12.9694039,
      "lon": 77.5436196,
      "tags": {
        "amenity": "place_of_worship",
        "name": "Rama Mandira",
        "name:kn": "ರಾಮ ಮಂದಿರ",
        "religion": "hindu"
      }
    },
    {
      "type": "node",
      "id": 1107984443,
      "lat": 12.9672449,
      "lon": 77.5427653,
      "tags": {
        "amenity": "pharmacy",
        "name": "Vikas Medicals"
      }
    },
    {
      "type": "node",
      "id": 1107986012,
      "lat": 12.9670358,
      "lon": 77.5428833,
      "tags": {
        "amenity": "pharmacy",
        "brand": "MedPlus",
        "brand:wikidata": "Q65684234",
        "healthcare": "pharmacy",
        "name": "MedPlus",
        "name:kn": "ಮೆಡ್‍ಪ್ಲಸ್"
      }
    },
    {
      "type": "node",
      "id": 1107989981,
      "lat": 12.9672919,
      "lon": 77.5426111,
      "tags": {
        "amenity": "fast_food",
        "name": "SLV Fast Food"
      }
    },
    {
      "type": "node",
      "id": 1107989988,
      "lat": 12.9724264,
      "lon": 77.5388651,
      "tags": {
        "amenity": "fast_food",
        "name": "Durga Chats"
      }
    },
    {
      "type": "node",
      "id": 1107995720,
      "lat": 12.9673775,
      "lon": 77.5418993,
      "tags": {
        "name": "Bansuri Sweets",
        "shop": "confectionery"
      }
    },
    {
      "type": "node",
      "id": 1107995725,
      "lat": 12.9672031,
      "lon": 77.541844,
      "tags": {
        "amenity": "fast_food",
        "name": "Paratha Point"
      }
    },
    {
      "type": "node",
      "id": 1107995731,
      "lat": 12.9676187,
      "lon": 77.541608,
      "tags": {
        "amenity": "fast_food",
        "name": "LJB Iyengar's Bakery"
      }
    },
    {
      "type": "node",
      "id": 1107995737,
      "lat": 12.9673021,
      "lon": 77.5421438,
      "tags": {
        "amenity": "cafe",
        "name": "Nature Fresh"
      }
    },
    {
      "type": "node",
      "id": 1107998731,
      "lat": 12.9670358,
      "lon": 77.5433138,
      "tags": {
        "amenity": "place_of_worship",
        "name": "Shakthi Ganapathi Temple",
        "name:kn": "ಶಕ್ತಿ ಗಣಪತಿ",
        "religion": "hindu"
      }
    },
    {
      "type": "node",
      "id": 1107998748,
      "lat": 12.9673129,
      "lon": 77.5417077,
      "tags": {
        "name": "Mamatha Departmental Store",
        "shop": "convenience"
      }
    },
    {
      "type": "node",
      "id": 1108003748,
      "lat": 12.9655564,
      "lon": 77.5417627,
      "tags": {
        "amenity": "school",
        "name": "The New Cambridge High School"
      }
    },
    {
      "type": "node",
      "id": 1108014134,
      "lat": 12.9681189,
      "lon": 77.54325,
      "tags": {
        "amenity": "hospital",
        "emergency": "no",
        "name": "Soujanya Clinic"
      }
    },
    {
      "type": "node",
      "id": 1108016253,
      "lat": 12.9676709,
      "lon": 77.5415073,
      "tags": {
        "amenity": "taxi",
        "name": "Autorickshaw stand",
        "name:kn": "ಆಟೋ ನಿಲ್ದಾಣ"
      }
    },
    {
      "type": "node",
      "id": 1108040901,
      "lat": 12.967291,
      "lon": 77.5429164,
      "tags": {
        "amenity": "hospital",
        "name": "Kanva Diagnostics Collection Centre"
      }
    },
    {
      "type": "node",
      "id": 1108046797,
      "lat": 12.9671974,
      "lon": 77.5428831,
      "tags": {
        "name": "Vodafone",
        "name:kn": "ವೋಡಫೋನ್",
        "shop": "convenience"
      }
    },
    {
      "type": "node",
      "id": 1108055614,
      "lat": 12.9673076,
      "lon": 77.5425508,
      "tags": {
        "name": "Seetha General Store",
        "shop": "convenience"
      }
    },
    {
      "type": "node",
      "id": 1120055861,
      "lat": 12.9685151,
      "lon": 77.5371276,
      "tags": {
        "amenity": "bank"
      }
    },
    {
      "type": "node",
      "id": 1445333653,
      "lat": 12.962267,
      "lon": 77.530001,
      "tags": {
        "amenity": "school",
        "description": "Behind BHEL Township vijaynagar",
        "name": "Global Chess Academy India",
        "phone": "+919845872499"
      }
    },
    {
      "type": "node",
      "id": 1474835633,
      "lat": 12.9719282,
      "lon": 77.5380966,
      "tags": {
        "name": "Sai Kamala Abharans",
        "shop": "jewelry"
      }
    },
    {
      "type": "node",
      "id": 1474835634,
      "lat": 12.9706632,
      "lon": 77.5368842,
      "tags": {
        "amenity": "bank",
        "brand": "ICICI Bank",
        "brand:wikidata": "Q1653258",
        "name": "ICICI Bank",
        "name:kn": "ಐಸಿಐಸಿಐ",
        "short_name": "ICICI"
      }
    },
    {
      "type": "node",
      "id": 1474835641,
      "lat": 12.9716571,
      "lon": 77.537278,
      "tags": {
        "amenity": "restaurant",
        "check_date": "2024-12-21",
        "diet:vegetarian": "yes",
        "internet_access": "no",
        "name": "Indraprastha",
        "name:kn": "ಇಂದ್ರಪ್ರಸ್ಥ",
        "outdoor_seating": "yes",
        "smoking": "outside",
        "wheelchair": "limited"
      }
    },
    {
      "type": "node",
      "id": 1474835642,
      "lat": 12.9734314,
      "lon": 77.5385798,
      "tags": {
        "amenity": "library",
        "name": "Vijaynagar Central Library"
      }
    },
    {
      "type": "node",
      "id": 1474835643,
      "lat": 12.9722157,
      "lon": 77.5383702,
      "tags": {
        "addr:postcode": "560040",
        "name": "GoldMine Jewellery",
        "shop": "jewelry"
      }
    },
    {
      "type": "node",
      "id": 1474835645,
      "lat": 12.9723673,
      "lon": 77.5375011,
      "tags": {
        "amenity": "place_of_worship",
        "name": "Hanuman Temple",
        "name:kn": "ಹನುಮಂತ ದೇವಸ್ಥಾನ",
        "religion": "hindu"
      }
    },
    {
      "type": "node",
      "id": 1474835886,
      "lat": 12.9686453,
      "lon": 77.5362586,
      "tags": {
        "amenity": "bank",
        "brand": "City Union Bank",
        "brand:en": "City Union Bank",
        "brand:fa": "سیتی یونیون بنک",
        "brand:hi": "सिटी यूनियन बैंक",
        "brand:mr": "सिटी युनियन बँक",
        "brand:ta": "சிட்டி யூனியன் வங்கி",
        "brand:ur": "سٹی یونین بینک",
        "brand:website": "https://www.cityunionbank.com",
        "brand:wikidata": "Q2040264",
        "name": "City Union Bank",
        "name:en": "City Union Bank",
        "name:fa": "سیتی یونیون بنک",
        "name:hi": "सिटी यूनियन बैंक",
        "name:mr": "सिटी युनियन बँक",
        "name:ta": "சிட்டி யூனியன் வங்கி",
        "name:ur": "سٹی یونین بینک",
        "short_name": "CUB",
        "short_name:pa": "ਸੀ ਯੂ ਬੀ",
        "short_name:ur": "سی یو بی"
      }
    },
    {
      "type": "node",
      "id": 1474835887,
      "lat": 12.9684833,
      "lon": 77.5361547,
      "tags": {
        "amenity": "bank",
        "brand": "Federal Bank",
        "brand:wikidata": "Q2044983",
        "brand:wikipedia": "en:Federal Bank",
        "check_date": "2024-12-21",
        "name": "Federal Bank",
        "name:en": "Federal Bank",
        "name:kn": "ಫೆಡೆರಲ್ ಬ್ಯಾಂಕ್",
        "website": "https://www.federalbank.co.in"
      }
    },
    {
      "type": "node",
      "id": 1474854776,
      "lat": 12.9619713,
      "lon": 77.5327333,
      "tags": {
        "amenity": "school",
        "check_date": "2024-03-27",
        "name": "RNS Vidyaniketan School"
      }
    },
    {
      "type": "node",
      "id": 1474854779,
      "lat": 12.9599025,
      "lon": 77.5328566,
      "tags": {
        "amenity": "fuel",
        "check_date": "2025-05-27",
        "name": "Bharat Petrol Pump"
      }
    },
    {
      "type": "node",
      "id": 1474854792,
      "lat": 12.9646688,
      "lon": 77.5330893,
      "tags": {
        "amenity": "school",
        "name": "KVV High School"
      }
    },
    {
      "type": "node",
      "id": 1568753846,
      "lat": 12.9678784,
      "lon": 77.5438967,
      "tags": {
        "brand": "HOPCOMS",
        "brand:wikidata": "Q22908959",
        "name": "HOPCOMS",
        "name:kn": "ಹಾಪ್ ಕಾಮ್ಸ್",
        "shop": "greengrocer"
      }
    },
    {
      "type": "node",
      "id": 1568758585,
      "lat": 12.9672761,
      "lon": 77.5422857,
      "tags": {
        "amenity": "fast_food",
        "name": "Ganga Sagar"
      }
    },
    {
      "type": "node",
      "id": 1568765286,
      "lat": 12.9655182,
      "lon": 77.541311,
      "tags": {
        "amenity": "school",
        "name": "St. Johns High School",
        "wheelchair": "limited"
      }
    },
    {
      "type": "node",
      "id": 1575706224,
      "lat": 12.9674654,
      "lon": 77.5413752,
      "tags": {
        "amenity": "pharmacy",
        "name": "Devi Medicals",
        "wheelchair": "no"
      }
    },
    {
      "type": "node",
      "id": 1778850359,
      "lat": 12.9683294,
      "lon": 77.5380482,
      "tags": {
        "amenity": "restaurant",
        "cuisine": "indian",
        "name": "Nisarga Andhra Style",
        "name:kn": "ನಿಸರ್ಗ ಆಂಧ್ರಶೈಲಿ"
      }
    },
    {
      "type": "node",
      "id": 1778852317,
      "lat": 12.9659432,
      "lon": 77.5347345,
      "tags": {
        "addr:housename": "Vijayanagar TTMC",
        "addr:postcode": "560040",
        "name": "Reliance Mart",
        "shop": "supermarket",
        "wheelchair": "no"
      }
    },
    {
      "type": "node",
      "id": 1778896354,
      "lat": 12.9732095,
      "lon": 77.5295873,
      "tags": {
        "amenity": "place_of_worship",
        "name": "Prasanna Ganapathi Temple",
        "name:kn": "ಪ್ರಸನ್ನ ಗಣಪತಿ ದೇವಸ್ಥಾನ",
        "religion": "hindu",
        "source": "Survey"
      }
    },
    {
      "type": "node",
      "id": 1778899718,
      "lat": 12.9727782,
      "lon": 77.5296785,
      "tags": {
        "addr:street": "Nagarbhavi Main Road",
        "amenity": "bank",
        "atm": "no",
        "brand": "Allahabad Bank",
        "brand:wikidata": "Q2018840",
        "brand:wikipedia": "en:Allahabad Bank",
        "name": "Allahabad Bank",
        "name:en": "Allahabad Bank",
        "name:kn": "ಅಲ್ಲಹಾಬಾದ್ ಬ್ಯಾಂಕ್",
        "source": "Survey",
        "website": "https://www.allahabadbank.in"
      }
    },
    {
      "type": "node",
      "id": 1778917090,
      "lat": 12.9707264,
      "lon": 77.5377251,
      "tags": {
        "amenity": "police",
        "designation": "Vijayangar Police Station",
        "name": "Vijayanagar Police Station",
        "name:kn": "ವಿಜಯನಗರ ಆರಕ್ಷಕ ಠಾಣೆ"
      }
    },
    {
      "type": "node",
      "id": 1778947641,
      "lat": 12.9645291,
      "lon": 77.5387819,
      "tags": {
        "amenity": "place_of_worship",
        "name": "Ganesha Temple (RPC Layout)",
        "name:kn": "ಗಣೇಶ ದೇವಸ್ಥಾನ",
        "religion": "hindu"
      }
    },
    {
      "type": "node",
      "id": 1809619291,
      "lat": 12.9711631,
      "lon": 77.5364993,
      "tags": {
        "addr:city": "Bangaloreroad_leaved",
        "addr:housename": "Opp Vijayanagar Post Office",
        "addr:postcode": "560040",
        "addr:street": "Chord Road",
        "amenity": "bank",
        "brand": "Bank of Baroda",
        "brand:wikidata": "Q2003797",
        "brand:wikipedia": "en:Bank of Baroda",
        "name": "Bank of Baroda",
        "name:en": "Bank of Baroda",
        "name:kn": "ಬ್ಯಾಂಕ್ ಆಫ್ ಬರೊಡಾ",
        "short_name": "BoB",
        "website": "http://www.bankofbaroda.com",
        "wheelchair": "no"
      }
    },
    {
      "type": "node",
      "id": 1809619293,
      "lat": 12.9739442,
      "lon": 77.5373335,
      "tags": {
        "amenity": "atm",
        "fee": "no",
        "operator": "Corporation Bank ATM",
        "wheelchair": "no"
      }
    },
    {
      "type": "node",
      "id": 1809619296,
      "lat": 12.9713043,
      "lon": 77.5365288,
      "tags": {
        "addr:city": "Bangalore",
        "addr:housename": "Opp Vijayanagar Post office, Vijayanagar",
        "addr:postcode": "560040",
        "addr:street": "Chord Road",
        "check_date": "2024-12-21",
        "name": "Baker's Pride",
        "shop": "bakery"
      }
    },
    {
      "type": "node",
      "id": 1809694399,
      "lat": 12.9604728,
      "lon": 77.5294531,
      "tags": {
        "check_date": "2025-03-14",
        "name": "Spirit Junction",
        "shop": "alcohol"
      }
    },
    {
      "type": "node",
      "id": 1809698917,
      "lat": 12.9656038,
      "lon": 77.5363115,
      "tags": {
        "amenity": "cafe",
        "brand": "Cafe Coffee Day",
        "brand:wikidata": "Q5017235",
        "cuisine": "coffee_shop",
        "name": "Cafe Coffee Day",
        "name:kn": "ಕಫೆ ಕಾಫಿ ಡೇ",
        "takeaway": "yes",
        "wheelchair": "no"
      }
    },
    {
      "type": "node",
      "id": 1809705963,
      "lat": 12.9685025,
      "lon": 77.537261,
      "tags": {
        "amenity": "atm",
        "brand": "HDFC Bank",
        "brand:wikidata": "Q631047",
        "fee": "no",
        "name": "HDFC Bank",
        "operator": "HDFC Bank",
        "operator:wikidata": "Q631047",
        "short_name": "HDFC",
        "wheelchair": "no"
      }
    },
    {
      "type": "node",
      "id": 1809705983,
      "lat": 12.968448,
      "lon": 77.5371909,
      "tags": {
        "name": "World of Titan",
        "shop": "gift"
      }
    },
    {
      "type": "node",
      "id": 1809706027,
      "lat": 12.9731576,
      "lon": 77.5413648,
      "tags": {
        "amenity": "atm",
        "brand": "HDFC Bank",
        "brand:wikidata": "Q631047",
        "fee": "no",
        "name": "HDFC Bank",
        "name:kn": "ಎಚ್ ಡಿ ಎಫ್ ಸಿ",
        "operator": "HDFC Bank",
        "operator:wikidata": "Q631047",
        "short_name": "HDFC",
        "wheelchair": "no"
      }
    },
    {
      "type": "node",
      "id": 1809707904,
      "lat": 12.973074,
      "lon": 77.5385163,
      "tags": {
        "amenity": "toilets",
        "wheelchair": "no"
      }
    },
    {
      "type": "node",
      "id": 1811327699,
      "lat": 12.9729823,
      "lon": 77.5294961,
      "tags": {
        "addr:street": "Nagarbhavi Main Road",
        "name": "Amarland Departmental",
        "shop": "convenience",
        "source": "Survey"
      }
    },
    {
      "type": "node",
      "id": 1811327746,
      "lat": 12.9728027,
      "lon": 77.5296137,
      "tags": {
        "addr:street": "Nagarbhavi Main Road",
        "name": "Go Green Vegetables",
        "shop": "greengrocer",
        "source": "Survey"
      }
    },
    {
      "type": "node",
      "id": 1843646937,
      "lat": 12.9706452,
      "lon": 77.5369759,
      "tags": {
        "amenity": "atm",
        "brand": "ICICI Bank",
        "brand:wikidata": "Q1653258",
        "fee": "no",
        "name": "ICICI Bank",
        "operator": "ICICI Bank",
        "operator:wikidata": "Q1653258",
        "short_name": "ICICI"
      }
    },
    {
      "type": "node",
      "id": 1843646953,
      "lat": 12.9691501,
      "lon": 77.5364636,
      "tags": {
        "amenity": "atm",
        "brand": "State Bank of India",
        "brand:wikidata": "Q1340361",
        "fee": "no",
        "name": "State Bank of India",
        "operator": "State Bank of India",
        "operator:wikidata": "Q1340361",
        "short_name": "SBI",
        "source": "Survey"
      }
    },
    {
      "type": "node",
      "id": 1843678521,
      "lat": 12.9745579,
      "lon": 77.5327836,
      "tags": {
        "amenity": "atm",
        "brand": "ICICI Bank",
        "brand:wikidata": "Q1653258",
        "fee": "no",
        "name": "ICICI Bank",
        "name:kn": "ಐಸಿಐಸಿಐ ಬ್ಯಾಂಕು",
        "operator": "ICICI Bank",
        "operator:wikidata": "Q1653258",
        "short_name": "ICICI",
        "source": "Survey"
      }
    },
    {
      "type": "node",
      "id": 1843719309,
      "lat": 12.972957,
      "lon": 77.5397309,
      "tags": {
        "amenity": "restaurant",
        "name": "Akshata Nati Style"
      }
    },
    {
      "type": "node",
      "id": 1843719312,
      "lat": 12.9729139,
      "lon": 77.5395347,
      "tags": {
        "amenity": "restaurant",
        "name": "Park View Bar & Restaurant"
      }
    },
    {
      "type": "node",
      "id": 1843719342,
      "lat": 12.9676863,
      "lon": 77.5366433,
      "tags": {
        "amenity": "atm",
        "brand": "Axis Bank",
        "brand:wikidata": "Q2003549",
        "fee": "no",
        "name": "Axis Bank",
        "name:kn": "ಆಕ್ಸಿಸ್ ಬ್ಯಾಂಕ್",
        "operator": "Axis Bank",
        "operator:wikidata": "Q2003549",
        "source": "Survey"
      }
    },
    {
      "type": "node",
      "id": 1843719349,
      "lat": 12.96777,
      "lon": 77.536697,
      "tags": {
        "amenity": "bank",
        "brand": "Axis Bank",
        "brand:wikidata": "Q2003549",
        "brand:wikipedia": "en:Axis Bank",
        "name": "Axis Bank",
        "name:en": "Axis Bank",
        "name:kn": "ಆಕ್ಸಿಸ್ ಬ್ಯಾಂಕ್",
        "source": "Survey",
        "website": "https://www.axisbank.com"
      }
    },
    {
      "type": "node",
      "id": 1843724025,
      "lat": 12.972595,
      "lon": 77.5395133,
      "tags": {
        "addr:city": "Bangalore",
        "addr:postcode": "560040",
        "addr:street": "6th Main Road",
        "name": "M K Ahmed Super Shoppy",
        "organic": "yes",
        "shop": "supermarket",
        "website": "https://www.mkretail.com/"
      }
    },
    {
      "type": "node",
      "id": 1930100783,
      "lat": 12.9674027,
      "lon": 77.5364911,
      "tags": {
        "name": "Prime Honda",
        "shop": "bicycle"
      }
    },
    {
      "type": "node",
      "id": 1930100794,
      "lat": 12.9686831,
      "lon": 77.5369098,
      "tags": {
        "amenity": "fast_food",
        "brand": "McDonald's",
        "brand:pa": "ਮੈਕਡੋਨਲਡ’ਜ਼",
        "brand:ur": "مکڈونلڈز",
        "brand:wikidata": "Q38076",
        "brand:wikipedia": "en:McDonald's",
        "brand:wikipedia:pa": "ਮੈਕਡੋਨਲਡ’ਜ਼",
        "brand:wikipedia:ur": "مکڈونلڈز",
        "cuisine": "burger",
        "name": "McDonald's",
        "name:kn": "ಮ್ಯಾಕ್‌ಡೊನಾಲ್ಡ್ಸ್",
        "name:pa": "ਮੈਕਡੋਨਲਡ’ਜ਼",
        "name:ur": "مکڈونلڈز",
        "opening_hours": "Mo-Su 10:00-23:00",
        "takeaway": "yes"
      }
    },
    {
      "type": "node",
      "id": 1930110069,
      "lat": 12.9613203,
      "lon": 77.5329636,
      "tags": {
        "amenity": "parking",
        "name": "Bunt's Sangha Car Parking",
        "parking": "surface"
      }
    },
    {
      "type": "node",
      "id": 1979046479,
      "lat": 12.9729863,
      "lon": 77.5398479,
      "tags": {
        "name": "Just Bake",
        "name:kn": "ಜಸ್ಟ್ ಬೇಕ್",
        "shop": "bakery"
      }
    },
    {
      "type": "node",
      "id": 1979046485,
      "lat": 12.9729492,
      "lon": 77.5396154,
      "tags": {
        "name": "Anjali Flowers",
        "shop": "florist"
      }
    },
    {
      "type": "node",
      "id": 1979048417,
      "lat": 12.9605279,
      "lon": 77.5302714,
      "tags": {
        "name": "Just Bake",
        "name:kn": "ಜಸ್ಟ್ ಬೇಕ್",
        "shop": "bakery"
      }
    },
    {
      "type": "node",
      "id": 2017962169,
      "lat": 12.965712,
      "lon": 77.5363,
      "tags": {
        "amenity": "fast_food"
      }
    },
    {
      "type": "node",
      "id": 2059788756,
      "lat": 12.9683807,
      "lon": 77.5384895,
      "tags": {
        "shop": "florist"
      }
    },
    {
      "type": "node",
      "id": 2245734445,
      "lat": 12.9731634,
      "lon": 77.5410962,
      "tags": {
        "amenity": "school",
        "name": "BSVP School"
      }
    },
    {
      "type": "node",
      "id": 2480869556,
      "lat": 12.9736839,
      "lon": 77.5304612,
      "tags": {
        "addr:city": "Bangalore",
        "addr:housename": "Amarjyothi nagar",
        "addr:postcode": "560040",
        "addr:street": "Nagarabhavi Road",
        "amenity": "bar",
        "name": "New Priya Bar & Restaurant"
      }
    },
    {
      "type": "node",
      "id": 2480870842,
      "lat": 12.9746645,
      "lon": 77.5324339,
      "tags": {
        "addr:city": "Bangalore",
        "addr:housename": "Near Priyadarshini School, Vijayanagar",
        "addr:postcode": "560040",
        "addr:street": "Vijayanagar Water Tank Road",
        "name": "Mylara Home Appliances",
        "shop": "electronics"
      }
    },
    {
      "type": "node",
      "id": 2480870848,
      "lat": 12.9744193,
      "lon": 77.5336479,
      "tags": {
        "addr:city": "Bangalore",
        "addr:postcode": "560040",
        "addr:street": "Vijayanagar Water Tank Road",
        "amenity": "hospital",
        "emergency": "no",
        "name": "Happy Tooth"
      }
    },
    {
      "type": "node",
      "id": 2480884727,
      "lat": 12.9719476,
      "lon": 77.5320111,
      "tags": {
        "addr:city": "Bangalore",
        "addr:housename": "Vijayanagar",
        "addr:postcode": "560040",
        "addr:street": "2nd cross",
        "name": "Divashree General Stores",
        "shop": "department_store"
      }
    },
    {
      "type": "node",
      "id": 2480884728,
      "lat": 12.972547,
      "lon": 77.529541,
      "tags": {
        "addr:city": "Bangalore",
        "addr:housename": "Opp Sarasvati nagar Bus Stop",
        "addr:postcode": "560040",
        "addr:street": "3rd Main Saraswathi nagar",
        "brand": "HOPCOMS",
        "brand:wikidata": "Q22908959",
        "name": "HOPCOMS Vegetables Store",
        "name:kn": "ಹಾಪ್‌ಕಾಮ್ಸ್",
        "shop": "greengrocer"
      }
    },
    {
      "type": "node",
      "id": 2480884731,
      "lat": 12.9720271,
      "lon": 77.5283808,
      "tags": {
        "amenity": "atm",
        "brand": "HDFC Bank",
        "brand:wikidata": "Q631047",
        "name": "HDFC Bank",
        "name:kn": "ಎಚ್. ಡಿ. ಎಫ್. ಸಿ..",
        "operator": "HDFC Bank",
        "operator:wikidata": "Q631047",
        "short_name": "HDFC"
      }
    },
    {
      "type": "node",
      "id": 2480884768,
      "lat": 12.9744756,
      "lon": 77.5334818,
      "tags": {
        "addr:city": "Bangalore",
        "addr:housename": "Vijayanagar",
        "addr:postcode": "560040",
        "addr:street": "Vijayanagar Water Tank Road",
        "name": "Piggy Wiggy",
        "shop": "toys"
      }
    },
    {
      "type": "node",
      "id": 2480884777,
      "lat": 12.9745812,
      "lon": 77.532699,
      "tags": {
        "addr:city": "Bangalore",
        "addr:housename": "Vijayanagar",
        "addr:postcode": "560040",
        "addr:street": "Vijayanagar Water Tank Road",
        "amenity": "hospital",
        "name": "Rishi Women and Child Clinic"
      }
    },
    {
      "type": "node",
      "id": 2480884783,
      "lat": 12.974626,
      "lon": 77.5326702,
      "tags": {
        "addr:city": "Bangalore",
        "addr:housename": "Vijayanagar",
        "addr:postcode": "560040",
        "addr:street": "Vijayanagar Water Tank Road",
        "amenity": "pharmacy",
        "name": "Rishi Medicals"
      }
    },
    {
      "type": "node",
      "id": 2480884792,
      "lat": 12.9744507,
      "lon": 77.5335676,
      "tags": {
        "addr:city": "Bangalore",
        "addr:housename": "Vijayanagar",
        "addr:postcode": "560040",
        "addr:street": "Vijayanagar Water Tank Road",
        "name": "Kiran Traders",
        "shop": "department_store"
      }
    },
    {
      "type": "node",
      "id": 2483622553,
      "lat": 12.9683417,
      "lon": 77.5379567,
      "tags": {
        "addr:city": "Bangalore",
        "addr:housename": "Near Nisarga Andhra Style, Vijayangar",
        "addr:postcode": "560040",
        "addr:street": "20th Main",
        "name": "Baby's Planet",
        "shop": "baby_goods"
      }
    },
    {
      "type": "node",
      "id": 2483622555,
      "lat": 12.9686867,
      "lon": 77.5373687,
      "tags": {
        "addr:city": "Bangalore",
        "addr:housename": "Near McDonalds, Maruti Mandri, Vijayanagar",
        "addr:postcode": "560040",
        "addr:street": "Chord Road",
        "name": "Prestige Smart Kitchen",
        "name:en": "PSK-Vijayanagar",
        "shop": "yes",
        "type": "home_appliances"
      }
    },
    {
      "type": "node",
      "id": 2483622557,
      "lat": 12.968556,
      "lon": 77.5380801,
      "tags": {
        "amenity": "atm",
        "brand": "Union Bank of India",
        "brand:wikidata": "Q2004078",
        "name": "Union Bank of India",
        "name:kn": "ಯೂನಿಯನ್ ಬ್ಯಾಂಕ್",
        "operator": "Union Bank of India",
        "operator:wikidata": "Q2004078"
      }
    },
    {
      "type": "node",
      "id": 2483744030,
      "lat": 12.97037,
      "lon": 77.5368838,
      "tags": {
        "addr:city": "Bangalore",
        "addr:housename": "Service road, near  Metro Station, Vijayanagar",
        "addr:postcode": "560040",
        "addr:street": "Chord Road",
        "clothes": "babies",
        "name": "Mom & Me",
        "shop": "clothes"
      }
    },
    {
      "type": "node",
      "id": 2483744038,
      "lat": 12.970877,
      "lon": 77.5364976,
      "tags": {
        "addr:city": "Bangalore",
        "addr:housename": "Near Bank of Baroda, Vijayanagar",
        "addr:postcode": "560040",
        "addr:street": "Chord Road",
        "name": "New L M Silks",
        "shop": "clothes"
      }
    },
    {
      "type": "node",
      "id": 2483744043,
      "lat": 12.9709607,
      "lon": 77.5370233,
      "tags": {
        "addr:city": "Bangalore",
        "addr:housename": "Service road, Near Metro Station",
        "addr:postcode": "560040",
        "addr:street": "Chord Road",
        "amenity": "pharmacy",
        "healthcare": "pharmacy",
        "name": "Frank Ross Pharmacy"
      }
    },
    {
      "type": "node",
      "id": 2483744049,
      "lat": 12.9700505,
      "lon": 77.5367565,
      "tags": {
        "addr:city": "Bangalore",
        "addr:housename": "Sercice Road, Near Metro Station, Vijayanagar",
        "addr:postcode": "560040",
        "addr:street": "Chord Road",
        "name": "Aadishwar",
        "shop": "electronics"
      }
    },
    {
      "type": "node",
      "id": 2483744054,
      "lat": 12.9708823,
      "lon": 77.5367282,
      "tags": {
        "addr:city": "Bangalore",
        "addr:housename": "Near Bank of Baroda, Vijayanagar",
        "addr:postcode": "560040",
        "addr:street": "Chord Road",
        "amenity": "dentist",
        "name": "Prashanth Dental Clinic"
      }
    },
    {
      "type": "node",
      "id": 2483744059,
      "lat": 12.97106,
      "lon": 77.5366692,
      "tags": {
        "addr:city": "Bangalore",
        "addr:housename": "Near Bank of Baroda",
        "addr:postcode": "560040",
        "addr:street": "Chord Road",
        "name": "Sheema's Shop Right",
        "shop": "grocery"
      }
    },
    {
      "type": "node",
      "id": 2483744065,
      "lat": 12.9710025,
      "lon": 77.5369321,
      "tags": {
        "addr:city": "Bangalore",
        "addr:housename": "Service road, near Metro Station, Vijaynagar",
        "addr:postcode": "560040",
        "addr:street": "Chord Road",
        "name": "Nanjudeshwara Stationary",
        "shop": "stationery"
      }
    },
    {
      "type": "node",
      "id": 2483744070,
      "lat": 12.9710286,
      "lon": 77.536798,
      "tags": {
        "addr:city": "Bangalore",
        "addr:housename": "Near, Bank of Baroda",
        "addr:postcode": "560040",
        "addr:street": "Chord Road",
        "amenity": "fast_food",
        "name": "Saviruchi Fast Food"
      }
    },
    {
      "type": "node",
      "id": 2483744075,
      "lat": 12.9709921,
      "lon": 77.5368677,
      "tags": {
        "addr:city": "Bangalore",
        "addr:housename": "Near Metro Station, Vijaynagar",
        "addr:postcode": "560040",
        "addr:street": "Chord Road",
        "amenity": "cafe",
        "name": "Royal's Coffe House"
      }
    },
    {
      "type": "node",
      "id": 2483744080,
      "lat": 12.9709711,
      "lon": 77.5369589,
      "tags": {
        "addr:city": "Bangalore",
        "addr:housename": "Near Metro Station, Vijanagar",
        "addr:postcode": "560040",
        "addr:street": "Chord Road",
        "name": "Travel Hut Bag Shop",
        "shop": "bag"
      }
    },
    {
      "type": "node",
      "id": 2483779674,
      "lat": 12.9730072,
      "lon": 77.5293951,
      "tags": {
        "addr:city": "Bangalore",
        "addr:housename": "Near Prasanna Ganapathi Temple, Amarjyothi Nagar",
        "addr:postcode": "560040",
        "addr:street": "Nagarabhavi Road",
        "amenity": "dentist",
        "name": "Sanjeevani Dental Clinic"
      }
    },
    {
      "type": "node",
      "id": 2483779677,
      "lat": 12.9687286,
      "lon": 77.5371939,
      "tags": {
        "addr:city": "Bangalore",
        "addr:housename": "Near Maruti Mandir, Opp McDonalds",
        "addr:postcode": "560040",
        "addr:street": "Chord Road",
        "name": "Sunny Wines",
        "shop": "wine"
      }
    },
    {
      "type": "node",
      "id": 2483779678,
      "lat": 12.9685194,
      "lon": 77.5382142,
      "tags": {
        "addr:city": "Bangalore",
        "addr:housename": "Near Maruthi Mandir, Vijayanagar",
        "addr:postcode": "560040",
        "addr:street": "Chord Road",
        "amenity": "atm",
        "name": "Dhanalakshmi Bank ATM",
        "name:kn": "ಧನಲಕ್ಷ್ಮಿ ಬ್ಯಾಂಕ್"
      }
    },
    {
      "type": "node",
      "id": 2483779679,
      "lat": 12.9736894,
      "lon": 77.5369482,
      "tags": {
        "addr:city": "Bangalore",
        "addr:housename": "Near Ganapathi Temple",
        "addr:postcode": "560040",
        "addr:street": "Vijayanagar Water Tank Road",
        "amenity": "hospital",
        "name": "Penta Care Ayurvedic Hospital"
      }
    },
    {
      "type": "node",
      "id": 2485930884,
      "lat": 12.9604935,
      "lon": 77.5294107,
      "tags": {
        "addr:city": "Bangalore",
        "addr:housename": "Below Spirit Junction, Chandra Layout, Vijayanagar",
        "addr:postcode": "560040",
        "name": "Bunny Bakes",
        "shop": "bakery"
      }
    },
    {
      "type": "node",
      "id": 2485930885,
      "lat": 12.9606776,
      "lon": 77.5286519,
      "tags": {
        "amenity": "fast_food",
        "name": "Goli Vada Paav",
        "name:kn": "ಗೋಲಿ ವಡ ಪಾವ್"
      }
    },
    {
      "type": "node",
      "id": 2485930886,
      "lat": 12.9607284,
      "lon": 77.5284077,
      "tags": {
        "addr:city": "Bangalore",
        "addr:housename": "Opp HP Petrol Pump, Chandra Layout, Vijayanagar",
        "addr:postcode": "560040",
        "addr:street": "4th Main Road",
        "amenity": "restaurant",
        "name": "Ammi's Biryani",
        "name:kn": "ಅಮ್ಮಿ ಬಿರಿಯಾನಿ"
      }
    },
    {
      "type": "node",
      "id": 2486108498,
      "lat": 12.9597604,
      "lon": 77.5292414,
      "tags": {
        "addr:city": "Bangalore",
        "addr:housename": "Near, Ganapathi Temple, Chandra Layout",
        "addr:postcode": "560040",
        "addr:street": "4th Main Road",
        "name:en": "Grameen Organic",
        "shop": "greengrocer"
      }
    },
    {
      "type": "node",
      "id": 2486108499,
      "lat": 12.9599952,
      "lon": 77.5293195,
      "tags": {
        "amenity": "atm",
        "brand": "ICICI Bank",
        "brand:wikidata": "Q1653258",
        "name": "ICICI Bank",
        "name:kn": "ಐಸಿಐಸಿಐ ಬ್ಯಾಂಕು",
        "operator": "ICICI Bank",
        "operator:wikidata": "Q1653258",
        "short_name": "ICICI"
      }
    },
    {
      "type": "node",
      "id": 2486109003,
      "lat": 12.9602967,
      "lon": 77.5302803,
      "tags": {
        "addr:city": "Bangalore",
        "addr:housename": "Near Attiguppe Bus Stop, Chandra Layout",
        "addr:postcode": "560040",
        "amenity": "cafe",
        "check_date": "2025-03-14",
        "cuisine": "ice_cream",
        "name": "Polar Bear"
      }
    },
    {
      "type": "node",
      "id": 2487524450,
      "lat": 12.9683779,
      "lon": 77.5380113,
      "tags": {
        "addr:city": "Bangalore",
        "addr:housename": "Near World of Titan, Maruti Mandir, Vijayanagar",
        "addr:postcode": "560040",
        "addr:street": "20th Main",
        "name": "Blak",
        "shop": "shoes"
      }
    },
    {
      "type": "node",
      "id": 2487524456,
      "lat": 12.9684412,
      "lon": 77.5373058,
      "tags": {
        "addr:city": "Bangalore",
        "addr:housename": "Near World of Titan, Maruti Mandir, Vijayanagar",
        "addr:postcode": "560040",
        "addr:street": "20th Main",
        "branch": "Show Room",
        "brand": "Liberty",
        "brand:wikidata": "Q6541947",
        "name": "Liberty Exclusive Showroom",
        "shop": "shoes"
      }
    },
    {
      "type": "node",
      "id": 2487524460,
      "lat": 12.9664835,
      "lon": 77.5443788,
      "tags": {
        "addr:city": "Bangalore",
        "addr:housename": "Vijayanagar",
        "addr:postcode": "560040",
        "addr:street": "Pipeline Road",
        "name": "Panchamukhi Motors, Bajar Service Station",
        "shop": "motorcycle"
      }
    },
    {
      "type": "node",
      "id": 2487658328,
      "lat": 12.9737726,
      "lon": 77.5360981,
      "tags": {
        "addr:city": "Bangalore",
        "addr:housename": "Vijaynagar",
        "addr:postcode": "560040",
        "addr:street": "Vijayanagar Water Tank Road",
        "amenity": "pharmacy",
        "name": "Patanjali Arogya Kendra",
        "name:kn": "ಪತಂಜಲಿ ಆರೋಗ್ಯ ಕೇಂದ್ರ"
      }
    },
    {
      "type": "node",
      "id": 2487658329,
      "lat": 12.9738549,
      "lon": 77.5359264,
      "tags": {
        "addr:city": "Bangalore",
        "addr:housename": "Vijayanagar",
        "addr:postcode": "560040",
        "addr:street": "Vijayanagar Water Tank Road",
        "amenity": "pharmacy",
        "name": "Kottkkal Arya Vaidya Shala",
        "name:en": "Kottakkal Arya Vaidya Sala",
        "opening_hours": "Mo-Sa 09:00-13:00, 16:00-20:30"
      }
    },
    {
      "type": "node",
      "id": 2487658330,
      "lat": 12.9726552,
      "lon": 77.5378281,
      "tags": {
        "addr:city": "Bangalore",
        "addr:housename": "Service Road, Near Indraprastha Hotel, Vijayanagar",
        "addr:postcode": "560040",
        "addr:street": "Chord Road",
        "name": "Benaka Sweets",
        "shop": "bakery"
      }
    },
    {
      "type": "node",
      "id": 2487658331,
      "lat": 12.9728225,
      "lon": 77.537934,
      "tags": {
        "addr:city": "Bangalore",
        "addr:housename": "Service Road, Near Vijayanagar Bus Stop, Vijayanagar",
        "addr:postcode": "560040",
        "addr:street": "Chord Road",
        "amenity": "restaurant",
        "cuisine": "Andhra",
        "name": "Panchavati",
        "name:kn": "ಪಂಚವತಿ"
      }
    },
    {
      "type": "node",
      "id": 2487658332,
      "lat": 12.9727546,
      "lon": 77.5378992,
      "tags": {
        "addr:city": "Bangalore",
        "addr:housename": "Service Road, near Vijayanagar Bus Stop",
        "addr:postcode": "560040",
        "addr:street": "Chord Road",
        "amenity": "bank",
        "brand": "Canara Bank",
        "brand:en": "Canara Bank",
        "brand:hi": "केनरा बैंक",
        "brand:kn": "ಕೆನರಾ ಬ್ಯಾಂಕ್",
        "brand:pa": "ਕੇਨਰਾ ਬੈਂਕ",
        "brand:pnb": "کینرا بینک",
        "brand:ur": "کینرا بینک",
        "brand:wikidata": "Q2003777",
        "brand:wikipedia": "en:Canara Bank",
        "brand:wikipedia:pa": "ਕੇਨਰਾ ਬੈਂਕ",
        "name": "Canara Bank",
        "name:en": "Canara Bank",
        "name:hi": "केनरा बैंक",
        "name:kn": "ಕೆನರಾ ಬ್ಯಾಂಕ್",
        "name:pa": "ਕੇਨਰਾ ਬੈਂਕ",
        "name:pnb": "کینرا بینک",
        "name:ur": "کینرا بینک",
        "website": "https://www.canarabank.com/"
      }
    },
    {
      "type": "node",
      "id": 2487658334,
      "lat": 12.9728818,
      "lon": 77.5400131,
      "tags": {
        "addr:city": "Bangalore",
        "addr:housename": "Vijayanagar",
        "addr:postcode": "560040",
        "addr:street": "5th Main",
        "amenity": "restaurant",
        "cuisine": "regional",
        "name": "Hotel Karavali"
      }
    },
    {
      "type": "node",
      "id": 2487658335,
      "lat": 12.9728604,
      "lon": 77.5392872,
      "tags": {
        "amenity": "cafe",
        "name": "Alemane Cane Juice"
      }
    },
    {
      "type": "node",
      "id": 2487658336,
      "lat": 12.9727493,
      "lon": 77.5389814,
      "tags": {
        "addr:city": "Bangalore",
        "addr:housename": "Above Food World, Vijayanagar",
        "addr:postcode": "560040",
        "addr:street": "Service Road",
        "amenity": "restaurant",
        "cuisine": "regional",
        "name": "Gokul Veg"
      }
    },
    {
      "type": "node",
      "id": 2487658337,
      "lat": 12.9730643,
      "lon": 77.5400637,
      "tags": {
        "addr:city": "Bangalore",
        "addr:housename": "Service Road, Vijayanagar",
        "addr:postcode": "560040",
        "addr:street": "5th Main",
        "name": "Titan Eye+",
        "shop": "beauty"
      }
    },
    {
      "type": "node",
      "id": 2487658338,
      "lat": 12.9729127,
      "lon": 77.5394723,
      "tags": {
        "addr:city": "Bangalore",
        "addr:housename": "Service Road, Near Park View, Vijayanagar",
        "addr:postcode": "560040",
        "addr:street": "6th Main",
        "amenity": "hospital",
        "name": "Shreya Poly Clinic"
      }
    },
    {
      "type": "node",
      "id": 2489009755,
      "lat": 12.9668706,
      "lon": 77.543321,
      "tags": {
        "addr:city": "Bangalore",
        "addr:housename": "RPC Layout, Vijayanagar",
        "addr:street": "2nd Cross",
        "brand": "Vision Express",
        "brand:wikidata": "Q7936150",
        "name": "Vision Express",
        "shop": "optician"
      }
    },
    {
      "type": "node",
      "id": 2489009756,
      "lat": 12.9669804,
      "lon": 77.5430045,
      "tags": {
        "addr:city": "Bangalore",
        "addr:housename": "RPC Layout, Vijayanagar",
        "addr:street": "2 Cross, Ram Mandir Road",
        "name": "IFB Point",
        "shop": "electronics"
      }
    },
    {
      "type": "node",
      "id": 2513711725,
      "lat": 12.9729829,
      "lon": 77.5372409,
      "tags": {
        "addr:city": "Bangalore",
        "addr:housename": "Vijayanagar",
        "addr:postcode": "560040",
        "addr:street": "9th Main",
        "amenity": "ice_cream",
        "brand": "Polar Bear",
        "brand:wikidata": "Q124374249",
        "cuisine": "ice_cream",
        "delivery": "yes",
        "name": "Polar Bear",
        "takeaway": "yes"
      }
    },
    {
      "type": "node",
      "id": 2513711728,
      "lat": 12.9727738,
      "lon": 77.5371175,
      "tags": {
        "addr:city": "Bangalore",
        "addr:housename": "Vijayanagar",
        "addr:postcode": "560040",
        "addr:street": "10th Main Road",
        "amenity": "pharmacy",
        "healthcare": "pharmacy",
        "name": "Tejas Ayurvedic Center"
      }
    },
    {
      "type": "node",
      "id": 2514705825,
      "lat": 12.9606817,
      "lon": 77.5288446,
      "tags": {
        "addr:city": "Bangalore",
        "addr:housename": "Chandra Layout",
        "addr:street": "4th Main Road",
        "name": "Sangeeta",
        "shop": "mobile_phone"
      }
    },
    {
      "type": "node",
      "id": 2514705826,
      "lat": 12.9606895,
      "lon": 77.5287669,
      "tags": {
        "addr:city": "Bangalore",
        "addr:housename": "Chandra Layout",
        "addr:street": "4th Main Road",
        "amenity": "restaurant",
        "cuisine": "chinese",
        "name": "Beijing Bites",
        "name:kn": "ಬೀಜಿಂಗ್ ಬೈಟ್ಸ್"
      }
    },
    {
      "type": "node",
      "id": 2514705827,
      "lat": 12.9607235,
      "lon": 77.5285201,
      "tags": {
        "addr:city": "Bangalore",
        "addr:housename": "Chandra Layout",
        "addr:street": "4th Main Road",
        "name": "Inky Pinky",
        "shop": "clothes"
      }
    },
    {
      "type": "node",
      "id": 2514705836,
      "lat": 12.9603863,
      "lon": 77.5294186,
      "tags": {
        "addr:city": "Bangalore",
        "addr:housename": "Chandra Layout",
        "addr:street": "4th Main Road",
        "name": "Anu Opticles",
        "shop": "optician"
      }
    },
    {
      "type": "node",
      "id": 2514705837,
      "lat": 12.9602661,
      "lon": 77.5294025,
      "tags": {
        "addr:city": "Bangalore",
        "addr:housename": "Chandra Layout",
        "addr:street": "4th Main Road",
        "name": "Sri Bhagyalakshmi Jewellers",
        "shop": "jewelry"
      }
    },
    {
      "type": "node",
      "id": 2514705838,
      "lat": 12.9603575,
      "lon": 77.5294267,
      "tags": {
        "addr:city": "Bangalore",
        "addr:housename": "Chandra Layout",
        "addr:street": "4th Main Road",
        "name": "The Curves N Curls Beauty Center",
        "shop": "beauty"
      }
    },
    {
      "type": "node",
      "id": 2514705839,
      "lat": 12.9602112,
      "lon": 77.5293891,
      "tags": {
        "addr:city": "Bangalore",
        "addr:housename": "Chandra Layout",
        "addr:street": "4th Main Road",
        "name": "Royal Canin Pet shop",
        "shop": "pet"
      }
    },
    {
      "type": "node",
      "id": 2514705840,
      "lat": 12.9605849,
      "lon": 77.5301348,
      "tags": {
        "addr:city": "Bangalore",
        "addr:housename": "Near Attiguppe Bus Stop, Chandra Layout",
        "addr:street": "4th Main Road",
        "name": "Eye Gallery",
        "shop": "optician"
      }
    },
    {
      "type": "node",
      "id": 2514705841,
      "lat": 12.960679,
      "lon": 77.5298263,
      "tags": {
        "addr:city": "Bangalore",
        "addr:housename": "Attiguppe, Chandra Layout",
        "addr:street": "4th Main Road",
        "name": "Poohlala Musical Mings",
        "shop": "music"
      }
    },
    {
      "type": "node",
      "id": 2514705842,
      "lat": 12.9605536,
      "lon": 77.530226,
      "tags": {
        "addr:city": "Bangalore",
        "addr:housename": "Near Attiguppe Bus Stop, Chandra Layout",
        "addr:street": "4th Main Road",
        "name": "Just Books",
        "shop": "books"
      }
    },
    {
      "type": "node",
      "id": 2514705843,
      "lat": 12.9605719,
      "lon": 77.5301723,
      "tags": {
        "addr:city": "Bangalore",
        "addr:housename": "Near Attiguppe Bus Stop, Chandra Layout",
        "addr:street": "4th Main Road",
        "name": "Baskin Robbins",
        "shop": "ice_cream"
      }
    },
    {
      "type": "node",
      "id": 2514705846,
      "lat": 12.964903,
      "lon": 77.5302716,
      "tags": {
        "addr:city": "Bangalore",
        "addr:housename": "Vinayaka Layout, Vijayanagar",
        "addr:street": "Vinayaka Layout Main Road",
        "name": "Adalia Boutique",
        "shop": "clothes"
      }
    },
    {
      "type": "node",
      "id": 2514705847,
      "lat": 12.9682121,
      "lon": 77.5303413,
      "tags": {
        "addr:city": "Bangalore",
        "addr:housename": "Vinayaka Layout, Vijayanagar",
        "addr:street": "Marenhalli Main Road",
        "name": "Behtar Super Market",
        "shop": "supermarket"
      }
    },
    {
      "type": "node",
      "id": 2514705848,
      "lat": 12.9681781,
      "lon": 77.5304191,
      "tags": {
        "addr:city": "Bangalore",
        "addr:housename": "Vinayaka Layout, Vijayanagar",
        "addr:street": "Marenhalli Main Road",
        "name": "Zil Mil",
        "shop": "boutique"
      }
    },
    {
      "type": "node",
      "id": 2914178500,
      "lat": 12.9580924,
      "lon": 77.5341659,
      "tags": {
        "addr:housename": "Poornima Complex",
        "addr:housenumber": "1st Floor",
        "addr:street": "RPC Layout",
        "amenity": "bank",
        "atm": "yes",
        "name": "Gandharva Sip & Dine;ICICI Bank"
      }
    },
    {
      "type": "node",
      "id": 2914181101,
      "lat": 12.9578735,
      "lon": 77.5342317,
      "tags": {
        "amenity": "bank",
        "branch": "RPC Layout Branch",
        "brand": "State Bank of India",
        "brand:wikidata": "Q1340361",
        "brand:wikipedia": "en:State Bank of India",
        "name": "State Bank of India",
        "name:kn": "ಭಾರತೀಯ ಸ್ಟೇಟ್ ಬ್ಯಾಂಕ್",
        "short_name": "SBI"
      }
    },
    {
      "type": "node",
      "id": 2914218960,
      "lat": 12.9649244,
      "lon": 77.5387391,
      "tags": {
        "addr:city": "Bangalore",
        "addr:postcode": "560040",
        "addr:street": "5th Main, Vijayanagar",
        "amenity": "cafe",
        "cuisine": "South_Indian",
        "description": "Holige, Idli, Dose available",
        "internet_access": "no",
        "name": "By-two Coffee",
        "opening_hours": "Mo-Su 09:30-21:00",
        "phone": "9844086711/9880428819",
        "smoking": "no"
      }
    },
    {
      "type": "node",
      "id": 2914229342,
      "lat": 12.9651023,
      "lon": 77.5380182,
      "tags": {
        "addr:city": "Bangalore",
        "addr:postcode": "560040",
        "amenity": "post_office",
        "name": "Hampi Nagar Post Office",
        "operator": "India Post",
        "operator:wikidata": "Q3519720"
      }
    },
    {
      "type": "node",
      "id": 2914260121,
      "lat": 12.9623406,
      "lon": 77.5342853,
      "tags": {
        "addr:district": "Bengaluru Urban",
        "addr:full": "No.1133/F,30 Ft.Service Road, R.P.C. Layout,Vijaynagar",
        "addr:postcode": "560040",
        "addr:state": "Karnataka",
        "amenity": "hospital",
        "healthcare": "hospital",
        "name": "Sharavathi Hospitals (P) Ltd.",
        "source": "OpenGovernmentData"
      }
    },
    {
      "type": "node",
      "id": 2914302319,
      "lat": 12.9681257,
      "lon": 77.538885,
      "tags": {
        "amenity": "clinic",
        "name": "Ayush Children's Clinic (Dr.Murli)",
        "opening_hours": "07:30-08:00; 18:30-21:30"
      }
    },
    {
      "type": "node",
      "id": 2914344547,
      "lat": 12.96021,
      "lon": 77.5347682,
      "tags": {
        "amenity": "library",
        "name": "Public Library",
        "name:kn": "ಸಾರ್ವಜನಿಕ ಗ್ರಂಥಾಲಯ"
      }
    },
    {
      "type": "node",
      "id": 2914344557,
      "lat": 12.9606854,
      "lon": 77.5286993,
      "tags": {
        "name": "Akshaya Super Market",
        "shop": "supermarket"
      }
    },
    {
      "type": "node",
      "id": 2914384312,
      "lat": 12.9642991,
      "lon": 77.5406633,
      "tags": {
        "addr:city": "Bangalore",
        "addr:postcode": "560040",
        "addr:street": "vijayanagar",
        "name": "Butter Sponge",
        "shop": "bakery"
      }
    },
    {
      "type": "node",
      "id": 2914384313,
      "lat": 12.9576285,
      "lon": 77.5339363,
      "tags": {
        "addr:city": "Bangalore",
        "addr:postcode": "560040",
        "addr:street": "Attiguppe, Chord Road, Vijayanagar",
        "amenity": "bank",
        "brand": "Syndicate Bank",
        "brand:wikidata": "Q2004088",
        "name": "Syndicate Bank",
        "name:en": "Syndicate Bank",
        "name:kn": "ಸಿಂಡಿಕೇಟ್ ಬ್ಯಾಂಕ್",
        "website": "https://www.syndicatebank.in"
      }
    },
    {
      "type": "node",
      "id": 2962224266,
      "lat": 12.965202,
      "lon": 77.5380586,
      "tags": {
        "addr:city": "Bangalore",
        "addr:postcode": "560040",
        "amenity": "kindergarten",
        "name": "Holy Saint High School"
      }
    },
    {
      "type": "node",
      "id": 2975331590,
      "lat": 12.9700741,
      "lon": 77.5361839,
      "tags": {
        "amenity": "school",
        "name": "Udaya School",
        "name:kn": "ಉದಯ ಶಾಲೆ"
      }
    },
    {
      "type": "node",
      "id": 3861909159,
      "lat": 12.9746432,
      "lon": 77.5325331,
      "tags": {
        "addr:street": "Vijayanagar Water Tank Road",
        "name": "Aspen Chinese Beauty Parlour",
        "shop": "beauty"
      }
    },
    {
      "type": "node",
      "id": 3861909160,
      "lat": 12.9744657,
      "lon": 77.533511,
      "tags": {
        "addr:street": "Vijayanagar Water Tank Road",
        "name": "Viseage",
        "shop": "medical_supply"
      }
    },
    {
      "type": "node",
      "id": 3861909161,
      "lat": 12.9735567,
      "lon": 77.5372187,
      "tags": {
        "addr:city": "Bangalore",
        "addr:postcode": "560040",
        "addr:street": "Vijayanagar Water Tank Road",
        "name": "Maruthi Gift Center",
        "shop": "gift"
      }
    },
    {
      "type": "node",
      "id": 3861909162,
      "lat": 12.9739096,
      "lon": 77.5358485,
      "tags": {
        "addr:city": "Bangalore",
        "addr:postcode": "560040",
        "addr:street": "Vijayanagar Water Tank Road",
        "name": "Sweet Chariot",
        "shop": "bakery"
      }
    },
    {
      "type": "node",
      "id": 3861909163,
      "lat": 12.9742654,
      "lon": 77.534553,
      "tags": {
        "addr:city": "Bangalore",
        "addr:postcode": "560040",
        "addr:street": "Vijayanagar Water Tank Road",
        "amenity": "pharmacy",
        "name": "Sri Raghavendra Medicals"
      }
    },
    {
      "type": "node",
      "id": 3861909164,
      "lat": 12.9739047,
      "lon": 77.5305291,
      "tags": {
        "addr:city": "Bangalore",
        "addr:postcode": "560040",
        "addr:street": "Nagarabhavi Road",
        "amenity": "pharmacy",
        "name": "Megha Medicals and General Stores"
      }
    },
    {
      "type": "node",
      "id": 3861909168,
      "lat": 12.9727202,
      "lon": 77.5294725,
      "tags": {
        "addr:city": "Bangalore",
        "addr:postcode": "560040",
        "addr:street": "3rd Main Saraswathi nagar",
        "name": "Iyengar Bakery",
        "name:kn": "ಐಯ್ಯಂಗಾರ್ ಬೇಕರಿ",
        "shop": "bakery"
      }
    },
    {
      "type": "node",
      "id": 3861909169,
      "lat": 12.9724688,
      "lon": 77.5295366,
      "tags": {
        "addr:city": "Bangalore",
        "addr:postcode": "560040",
        "addr:street": "3rd Main Saraswathi nagar",
        "amenity": "pharmacy",
        "name": "Saraswati Medicals"
      }
    },
    {
      "type": "node",
      "id": 3861909170,
      "lat": 12.9728708,
      "lon": 77.529675,
      "tags": {
        "addr:city": "Bangalore",
        "addr:postcode": "560040",
        "addr:street": "Nagarabhavi Road",
        "leisure": "sports_centre",
        "name": "Oxyfit Gym",
        "sport": "gym"
      }
    },
    {
      "type": "node",
      "id": 3957979017,
      "lat": 12.9647608,
      "lon": 77.5324347,
      "tags": {
        "addr:city": "Bangalore",
        "addr:postcode": "560040",
        "addr:street": "Subbanna Garden Main Road",
        "amenity": "atm",
        "brand": "Canara Bank",
        "brand:en": "Canara Bank",
        "brand:hi": "केनरा बैंक",
        "brand:kn": "ಕೆನರಾ ಬ್ಯಾಂಕ್",
        "brand:pa": "ਕੇਨਰਾ ਬੈਂਕ",
        "brand:pnb": "کینرا بینک",
        "brand:ur": "کینرا بینک",
        "brand:wikidata": "Q2003777",
        "drive_through": "no",
        "name": "Canara Bank",
        "name:en": "Canara Bank",
        "name:hi": "केनरा बैंक",
        "name:kn": "ಕೆನರಾ ಬ್ಯಾಂಕ್",
        "name:pa": "ਕੇਨਰਾ ਬੈਂਕ",
        "name:pnb": "کینرا بینک",
        "name:ur": "کینرا بینک",
        "operator": "Canara Bank",
        "operator:wikidata": "Q2003777"
      }
    },
    {
      "type": "node",
      "id": 3957986963,
      "lat": 12.9645889,
      "lon": 77.5307793,
      "tags": {
        "amenity": "atm",
        "branch": "Subbanna Garden ATM",
        "brand": "ICICI Bank",
        "brand:wikidata": "Q1653258",
        "name": "ICICI Bank",
        "operator": "ICICI Bank",
        "operator:wikidata": "Q1653258",
        "short_name": "ICICI"
      }
    },
    {
      "type": "node",
      "id": 3957993459,
      "lat": 12.9645916,
      "lon": 77.5308035,
      "tags": {
        "addr:city": "Bangalore",
        "addr:postcode": "560040",
        "addr:street": "Subbanna Garden Main road",
        "amenity": "dentist",
        "name": "SN Dental Avenue"
      }
    },
    {
      "type": "node",
      "id": 3957994139,
      "lat": 12.964602,
      "lon": 77.5306989,
      "tags": {
        "addr:city": "Bangalore",
        "addr:postcode": "560040",
        "addr:street": "Subbanna Garden Main road",
        "amenity": "pharmacy",
        "name": "Apollo",
        "name:kn": "ಅಪೊಲೋ",
        "operator": "Apollo"
      }
    },
    {
      "type": "node",
      "id": 3957994140,
      "lat": 12.9647458,
      "lon": 77.5311092,
      "tags": {
        "amenity": "atm",
        "brand": "State Bank of India",
        "brand:wikidata": "Q1340361",
        "name": "State Bank of India",
        "name:kn": "ಭಾರತೀಯ ಸ್ಟೇಟ್ ಬ್ಯಾಂಕ್",
        "operator": "State Bank of India",
        "operator:wikidata": "Q1340361",
        "short_name": "SBI"
      }
    },
    {
      "type": "node",
      "id": 4101094993,
      "lat": 12.9630364,
      "lon": 77.5439374,
      "tags": {
        "addr:street": "Pipeline Road",
        "amenity": "cinema",
        "name": "santosh talkies"
      }
    },
    {
      "type": "node",
      "id": 4104244613,
      "lat": 12.9580745,
      "lon": 77.5341292,
      "tags": {
        "addr:city": "Bangalore",
        "addr:housenumber": "998/20",
        "addr:postcode": "560040",
        "addr:street": "Chord Road",
        "amenity": "bank",
        "atm": "yes",
        "brand": "ICICI Bank",
        "brand:wikidata": "Q1653258",
        "drive_through": "no",
        "name": "ICICI Bank",
        "name:en": "ICICI Bank",
        "name:kn": "ಐಸಿಐಸಿಐ ಬ್ಯಾಂಕು",
        "opening_hours": "8:00-20:00",
        "short_name": "ICICI",
        "website": "https://www.icicibank.com"
      }
    },
    {
      "type": "node",
      "id": 4130961390,
      "lat": 12.9671968,
      "lon": 77.5402087,
      "tags": {
        "name": "Car Garage",
        "shop": "car_repair"
      }
    },
    {
      "type": "node",
      "id": 4198807695,
      "lat": 12.9695967,
      "lon": 77.5372592,
      "tags": {
        "name": "Muthoot Finance Corp",
        "name:kn": "ಮುತೂಟ್ ಫೈನಾನ್ಸ್",
        "shop": "money_lender"
      }
    },
    {
      "type": "node",
      "id": 4444371825,
      "lat": 12.9682261,
      "lon": 77.5375793,
      "tags": {
        "addr:city": "Bangalore",
        "addr:housenumber": "111",
        "addr:postcode": "560040",
        "addr:street": "1st Main, Club Road, Near Food World, Hampi Nagar, RPC Layout,Vijay Nagar",
        "amenity": "restaurant",
        "cuisine": "regional",
        "name": "Nisarga restaurant",
        "opening_hours": "11:30-15:00,19:00-22:30",
        "phone": "080 23400974"
      }
    },
    {
      "type": "node",
      "id": 4444374773,
      "lat": 12.9604112,
      "lon": 77.529879,
      "tags": {
        "addr:city": "Bangalore",
        "addr:housenumber": "109",
        "addr:postcode": "560040",
        "addr:street": "1st Main, Widia Layout, Chandra Layout, Vijay Nagar",
        "amenity": "restaurant",
        "cuisine": "regional",
        "name": "Sandwich Guru",
        "name:kn": "ಕೋಳಿಮನೆ",
        "opening_hours": "12:00-23:00",
        "phone": "+91 7829190119"
      }
    },
    {
      "type": "node",
      "id": 4445356902,
      "lat": 12.966771,
      "lon": 77.5349228,
      "tags": {
        "addr:city": "Bangalore",
        "addr:postcode": "560040",
        "addr:street": "17th Cross Rd, Service Road, Opp. Maruthi Mandir, TTMC Bus Stop, Govindaraja Nagar Ward, PF Layout, Vijayanagar",
        "amenity": "hospital",
        "healthcare": "hospital",
        "name": "Employees State Insurance Dispensary",
        "operator": "Employees' State Insurance",
        "operator:short": "ESI",
        "operator:type": "private",
        "operator:wikidata": "Q3595726",
        "phone": "080 2845 2785",
        "website": "globalhospitalsindia.com"
      }
    },
    {
      "type": "node",
      "id": 4446363950,
      "lat": 12.9728679,
      "lon": 77.5391454,
      "tags": {
        "addr:city": "Bangalore",
        "addr:housenumber": "906",
        "addr:postcode": "560040",
        "addr:street": "6th Main, Near Reliance Web World, Vijay Nagar",
        "amenity": "restaurant",
        "cuisine": "regional",
        "name": "Park View",
        "opening_hours": "10:00-23:00",
        "phone": "080 23209082"
      }
    },
    {
      "type": "node",
      "id": 4446374048,
      "lat": 12.9643262,
      "lon": 77.5404059,
      "tags": {
        "addr:city": "Bangalore",
        "addr:housenumber": "15",
        "addr:postcode": "560040",
        "addr:street": "5th Main Road Rpc Layout, Vijayanagar",
        "amenity": "restaurant",
        "cuisine": "regional",
        "name": "Sai Prasadam",
        "opening_hours": "10:00-22:00",
        "phone": "80-23200916"
      }
    },
    {
      "type": "node",
      "id": 4446403278,
      "lat": 12.9606425,
      "lon": 77.5300492,
      "tags": {
        "addr:city": "Bangalore",
        "addr:housenumber": "109",
        "addr:postcode": "560040",
        "addr:street": "1st Main, Widia Layout, Chandra Layout, Vijay Naga",
        "amenity": "restaurant",
        "cuisine": "regional",
        "name": "Koli Mane",
        "name:kn": "ಕೋಳಿಮನೆ",
        "opening_hours": "12:00-23:00",
        "phone": "+91 7829190119"
      }
    },
    {
      "type": "node",
      "id": 4446411046,
      "lat": 12.9698886,
      "lon": 77.5327543,
      "tags": {
        "addr:city": "bangalore",
        "addr:housenumber": "210",
        "addr:postcode": "560040",
        "addr:street": "20th Main Road, Vijay Naga",
        "amenity": "restaurant",
        "cuisine": "regional",
        "name": "Classic inn veg and non veg",
        "opening_hours": "10:00-22:00",
        "phone": "+91 8023505748"
      }
    },
    {
      "type": "node",
      "id": 4446414071,
      "lat": 12.9731233,
      "lon": 77.5403966,
      "tags": {
        "addr:city": "Bangalore",
        "addr:housenumber": "827",
        "addr:postcode": "560040",
        "addr:street": "Vijay Nagar Main Road, Vijay Nagar",
        "amenity": "restaurant",
        "cuisine": "regional",
        "name": "Sagar Restaurant",
        "opening_hours": "07:00-23:00",
        "phone": "+91 8880803832"
      }
    },
    {
      "type": "node",
      "id": 4446440859,
      "lat": 12.9677845,
      "lon": 77.535901,
      "tags": {
        "addr:city": "Bangalore",
        "addr:housenumber": "16",
        "addr:postcode": "560040",
        "addr:street": "17th Cross, 21st Main Road, M.C Layout, Vijay Nagar",
        "amenity": "restaurant",
        "brand": "Pizza Hut",
        "brand:wikidata": "Q191615",
        "cuisine": "pizza",
        "delivery": "yes",
        "name": "Pizza Hut",
        "name:kn": "ಪಿಟ್ಸ ಹಟ್",
        "opening_hours": "11:00-11:00",
        "phone": "080 49653186",
        "website": "https://restaurants.pizzahut.co.in/"
      }
    },
    {
      "type": "node",
      "id": 4446447400,
      "lat": 12.9673836,
      "lon": 77.5357039,
      "tags": {
        "addr:city": "Bangalore",
        "addr:housenumber": "1714",
        "addr:postcode": "560040",
        "addr:street": "17th Cross, 21st Main, Maruthi Mandir, Vijay Nagar",
        "amenity": "fast_food",
        "cuisine": "regional",
        "name": "Big Bite",
        "opening_hours": "11:00-23:00",
        "phone": "080 49653144"
      }
    },
    {
      "type": "node",
      "id": 4446483162,
      "lat": 12.969586,
      "lon": 77.5346634,
      "tags": {
        "addr:city": "Bangalore",
        "addr:housenumber": "1590",
        "addr:postcode": "560040",
        "addr:street": "I Main, 'A' Cross, III Main Road, Chandra Layout, Near Adishwara TV Showroom, Vijay Nagar",
        "amenity": "restaurant",
        "cuisine": "regional",
        "name": "Rotti Mane",
        "opening_hours": "12:00-16:00,18:00-22:00",
        "phone": "+91 9916556311"
      }
    },
    {
      "type": "node",
      "id": 4446528556,
      "lat": 12.961017,
      "lon": 77.5281275,
      "tags": {
        "addr:city": "Bangalore",
        "addr:full": "96, Ground Floor, Next to HP Petrol Pump, Chandra Layout, Vijay Nagar, Bangalore - 560040",
        "addr:housenumber": "96",
        "addr:postcode": "560040",
        "alt_name": "Kentucky Fried Chicken",
        "alt_name:en": "Kentucky Fried Chicken",
        "alt_name:hi": "केंटुकी फ्राइड चिकन",
        "alt_name:pa": "ਕੈਂਟੁਕੀ ਫ੍ਰਾਈਡ ਚਿਕਨ",
        "alt_name:pnb": "کینٹکی فرائیڈ چکن",
        "alt_name:ur": "کینٹکی فرائیڈ چکن",
        "amenity": "fast_food",
        "brand": "KFC",
        "brand:en": "KFC",
        "brand:hi": "केएफसी",
        "brand:pa": "ਕੇਐਫਸੀ",
        "brand:pnb": "کے ایف سی",
        "brand:ur": "کے ایف سی",
        "brand:wikidata": "Q524757",
        "brand:wikipedia": "en:KFC",
        "brand:wikipedia:pa": "ਕੇਐਫਸੀ",
        "brand:wikipedia:ur": "کینٹکی فرائیڈ چکن",
        "cuisine": "chicken",
        "name": "KFC",
        "name:en": "KFC",
        "name:hi": "केएफसी",
        "name:pa": "ਕੇਐਫਸੀ",
        "name:pnb": "کے ایف سی",
        "name:ur": "کے ایف سی",
        "opening_hours": "11:00-23:00",
        "phone": "080 45128591",
        "takeaway": "yes",
        "website": "https://online.kfc.co.in/"
      }
    },
    {
      "type": "node",
      "id": 4447075424,
      "lat": 12.9644231,
      "lon": 77.5333324,
      "tags": {
        "addr:city": "Bangalore",
        "addr:housenumber": "3437",
        "addr:postcode": "560040",
        "addr:street": "7 Subbanna Garden Vijaynagar, Attiguppe",
        "amenity": "hospital",
        "healthcare": "hospital",
        "name": "Venkat Charmalaya",
        "phone": "+918023392788"
      }
    },
    {
      "type": "node",
      "id": 4447079172,
      "lat": 12.9691657,
      "lon": 77.5351921,
      "tags": {
        "addr:city": "Bangalore",
        "addr:district": "Vijayapura",
        "addr:full": "20th B Cross, Marenahalli Main Road, Vijayanagar",
        "addr:housenumber": "51/88",
        "addr:postcode": "560040",
        "addr:state": "Karnataka",
        "addr:street": "20th B Cross, Marenahalli Main Road, Govindaraja Nagar Ward, Vijayanagar",
        "amenity": "hospital",
        "name": "Saikrupa Hospital For Women's and Surgical Centre",
        "operator:type": "private",
        "phone": "+91080 2311 9592",
        "source": "OpenGovernmentData",
        "website": "http://dpal.kar.nic.in/Kanunu%20padakosha%20PDF%20Files/Recognised%20Hospitals.pdf"
      }
    },
    {
      "type": "node",
      "id": 4447081794,
      "lat": 12.9744268,
      "lon": 77.5377158,
      "tags": {
        "addr:city": "Bangalore",
        "addr:housenumber": "15",
        "addr:postcode": "560040",
        "addr:street": ", Balu Arcade, 8th Main Road,19th Cross, CHBS Layout, Vijayanagar, CHBS Layout, MC Layout, Vijayanagar, Bengaluru, Karnataka 560040\"",
        "amenity": "pharmacy",
        "name": "Anand Diagnostic Laboratory",
        "phone": "080 2311 9138"
      }
    },
    {
      "type": "node",
      "id": 4447083784,
      "lat": 12.9621516,
      "lon": 77.533401,
      "tags": {
        "addr:city": "Bangalore",
        "addr:postcode": "560040",
        "addr:street": "Chord Road",
        "amenity": "hospital",
        "healthcare": "hospital",
        "name": "Shreya Hearing Clinic",
        "phone": "\" 080 2318 0012\""
      }
    },
    {
      "type": "node",
      "id": 4447088630,
      "lat": 12.9603312,
      "lon": 77.5300796,
      "tags": {
        "addr:city": "Bangalore",
        "addr:housenumber": "NO.105",
        "addr:postcode": "560040",
        "addr:street": "Widia Layout, Chandra Layout Main Road, Govindaraja Nagar Ward, Widia Layout, Vijayanagar",
        "amenity": "hospital",
        "name": "Prasad Nethralaya",
        "phone": "080 2339 2807"
      }
    },
    {
      "type": "node",
      "id": 4447094596,
      "lat": 12.9675638,
      "lon": 77.539088,
      "tags": {
        "addr:city": "Bangalore",
        "addr:housenumber": "2260",
        "addr:postcode": "560040",
        "addr:street": "4th 'A' cross, 1st Main Road Vijayanagar, Club Ave, Vijay nagar, Hosahalli Extension, Vijayanagar",
        "amenity": "pharmacy",
        "name": "Health Heal Physio",
        "phone": "+91 88800 04422"
      }
    },
    {
      "type": "node",
      "id": 4447097087,
      "lat": 12.9717905,
      "lon": 77.5372864,
      "tags": {
        "addr:city": "Bangalore",
        "addr:housenumber": "46",
        "addr:postcode": "560040",
        "addr:street": "17th Cross, Near Main Bus Stand, M.C. Road, Vijayanagar",
        "amenity": "hospital",
        "name": "Vijayanagar Global Hospital",
        "phone": "080 4240 8200"
      }
    },
    {
      "type": "node",
      "id": 4447100075,
      "lat": 12.9649703,
      "lon": 77.5389842,
      "tags": {
        "addr:city": "Bangalore",
        "addr:housenumber": "221",
        "addr:postcode": "560040",
        "addr:street": "1st Floor, Next to Sai Prasadam Hotel, 5th Main Rd, Hampi Nagar 2nd Stage, RPC Layout",
        "amenity": "hospital",
        "healthcare": "hospital",
        "name": "Blossom Infertility Center",
        "phone": "+91 99009 99116"
      }
    },
    {
      "type": "node",
      "id": 4447102993,
      "lat": 12.9683009,
      "lon": 77.5377378,
      "tags": {
        "addr:city": "Bangalore",
        "addr:postcode": "560040",
        "addr:street": "1st Main Rd, Hosahalli Extension, Vijayanagar",
        "amenity": "clinic",
        "ele": "1",
        "name": "Nirmal Skin & Hair Clinic",
        "phone": "080 2338 0138"
      }
    },
    {
      "type": "node",
      "id": 4447104812,
      "lat": 12.9699062,
      "lon": 77.5331512,
      "tags": {
        "addr:city": "Bangalore",
        "addr:housenumber": "315/H",
        "addr:postcode": "560040",
        "addr:street": "9k, Vijaya Nagar, Vijaya Nagar, MRCR Layout, MC Layout",
        "amenity": "pharmacy",
        "name": "Khema Medical Corporation",
        "phone": "080 2311 6416"
      }
    },
    {
      "type": "node",
      "id": 4447105332,
      "lat": 12.958321,
      "lon": 77.5350434,
      "tags": {
        "addr:city": "Bangalore",
        "addr:housenumber": "30",
        "addr:postcode": "560040",
        "addr:street": "1108/30 10Th Main 4Th Cross, Rpc Layout, Vijayanagar",
        "amenity": "hospital",
        "name": "Padmashree Nursing Home and Maternity Home",
        "phone": "080 2311 8372"
      }
    },
    {
      "type": "node",
      "id": 4447111786,
      "lat": 12.973491,
      "lon": 77.5374834,
      "tags": {
        "addr:city": "Bangalore",
        "addr:housenumber": "141",
        "addr:postcode": "560040",
        "addr:street": "Chbs Layout, 8th Main, Vijaya Nagar, CHBS Layout, MC Layout,",
        "amenity": "pharmacy",
        "name": "Sri Ganesh Gandhi Medicals",
        "phone": "080 2338 2668"
      }
    },
    {
      "type": "node",
      "id": 4447116935,
      "lat": 12.9703808,
      "lon": 77.5375679,
      "tags": {
        "addr:city": "Bangalore",
        "addr:housenumber": "2",
        "addr:postcode": "560040",
        "addr:street": "1st Floor, 14th Main, Next To Kodandaram Temple, Vijayanagar, SBI Staff Colony, Hoshalli Extension, RPC Layout",
        "amenity": "pharmacy",
        "name": "Arvind Homoeo Medicals",
        "phone": "080 2350 3413"
      }
    },
    {
      "type": "node",
      "id": 4447119911,
      "lat": 12.9639998,
      "lon": 77.5302683,
      "tags": {
        "addr:city": "Bangalore",
        "addr:housenumber": "17",
        "addr:postcode": "560040p",
        "addr:street": "1st Main Rd, Kaveri Layout, Govindaraja Nagar Ward, Anubhav Nagar, Vijayanagar",
        "amenity": "hospital",
        "healthcare": "hospital",
        "phone": "080 2335 2200"
      }
    },
    {
      "type": "node",
      "id": 4447213952,
      "lat": 12.9698405,
      "lon": 77.5327211,
      "tags": {
        "addr:city": "Bangalore",
        "addr:housenumber": "17",
        "addr:postcode": "560040",
        "addr:street": "1st Main Rd, Kaveri Layout, Govindaraja Nagar Ward, Anubhav Nagar, Vijayanagar,",
        "amenity": "hospital",
        "name": "Modern Family Doctor Pvt Ltd",
        "phone": "080 2335 2200"
      }
    },
    {
      "type": "node",
      "id": 4447398721,
      "lat": 12.9608763,
      "lon": 77.5306651,
      "tags": {
        "addr:city": "Bangalore",
        "addr:housenumber": "20/A",
        "addr:postcode": "560040",
        "addr:street": "2nd cross near hp petrol pump, Govindaraja Nagar Ward, Widia Layout, Vijayanagar",
        "amenity": "pharmacy",
        "name": "Ritecure Pharmacy",
        "phone": "+9181518 34646",
        "source": "justdial"
      }
    },
    {
      "type": "node",
      "id": 4447436362,
      "lat": 12.9724461,
      "lon": 77.5386676,
      "tags": {
        "addr:city": "Bangalore",
        "addr:postcode": "560040",
        "addr:street": "BMTC Building, Vijayanagar Service Road, 8th Main Road, Hoshalli Extension, RPC Layout, Vijayanagar,",
        "amenity": "police",
        "name": "Traffic Police Station",
        "name:kn": "ವಿಜಯನಗರ ಸಂಚಾರ ಪೊಲೀಸ್ ಠಾಣೆ",
        "phone": "080 2294 2809",
        "website": "NA"
      }
    },
    {
      "type": "node",
      "id": 4488409689,
      "lat": 12.9609474,
      "lon": 77.5286711,
      "tags": {
        "addr:city": "Bangalore",
        "addr:housenumber": "No.92",
        "addr:postcode": "560040",
        "addr:street": "4th Main Road",
        "name": "Green Trends Hair And Style Salon",
        "opening_hours": "09:00-21:00",
        "phone": "+91-80-33091924",
        "shop": "beauty"
      }
    },
    {
      "type": "node",
      "id": 4490214038,
      "lat": 12.9684633,
      "lon": 77.5405727,
      "tags": {
        "addr:city": "Bangalore",
        "addr:housenumber": "No 2420/B",
        "addr:postcode": "560040",
        "addr:street": "1st Main Road,SBI Staff Colony, Vijayanagar,",
        "name": "Green Trends Unisex Hair and Style Salon",
        "opening_hours": "10:00  - 21:00",
        "phone": "91)-80-33532031",
        "shop": "beauty",
        "website": "https://www.mygreentrends.in/"
      }
    },
    {
      "type": "node",
      "id": 4490224004,
      "lat": 12.9697885,
      "lon": 77.5365544,
      "tags": {
        "addr:city": "Bangalore",
        "addr:housenumber": "#28",
        "addr:postcode": "560040",
        "addr:street": "17th Cross, Chord Road, Vijayanaga",
        "name": "Naturals Unisex Salon and spa",
        "opening_hours": "08:00  - 21:00",
        "phone": "91)-80-30832363",
        "shop": "beauty"
      }
    },
    {
      "type": "node",
      "id": 4513110189,
      "lat": 12.9601779,
      "lon": 77.5345169,
      "tags": {
        "amenity": "library",
        "name": "RPC Layout Central Library",
        "name:en": "RPC Layout Central Library"
      }
    },
    {
      "type": "node",
      "id": 4520918289,
      "lat": 12.9663276,
      "lon": 77.5443481,
      "tags": {
        "amenity": "atm",
        "operator": "Vijaya Bank"
      }
    },
    {
      "type": "node",
      "id": 4533766191,
      "lat": 12.9641822,
      "lon": 77.5424512,
      "tags": {
        "addr:street": "5th Main",
        "amenity": "bank",
        "name": "Panjab National Bank",
        "name:en": "Panjab national Bank"
      }
    },
    {
      "type": "node",
      "id": 4533766192,
      "lat": 12.964348,
      "lon": 77.5402052,
      "tags": {
        "amenity": "atm",
        "brand": "State Bank of India",
        "brand:wikidata": "Q1340361",
        "name": "State Bank of India",
        "operator": "State Bank of India",
        "operator:wikidata": "Q1340361",
        "short_name": "SBI"
      }
    },
    {
      "type": "node",
      "id": 4533776989,
      "lat": 12.965614,
      "lon": 77.5432765,
      "tags": {
        "brand": "HOPCOMS",
        "brand:wikidata": "Q22908959",
        "name": "HOPCOMS",
        "name:en": "HOPCOMS",
        "name:kn": "ಹಾಪ್ ಕಾಮ್ಸ್",
        "shop": "greengrocer"
      }
    },
    {
      "type": "node",
      "id": 4534106991,
      "lat": 12.9727428,
      "lon": 77.5391705,
      "tags": {
        "addr:city": "Bangalore",
        "addr:postcode": "560040",
        "addr:street": "6th Main Road",
        "name": "M K Retail",
        "name:en": "M K Retail",
        "organic": "yes",
        "shop": "supermarket",
        "website": "https://www.spencers.in/"
      }
    },
    {
      "type": "node",
      "id": 4541328991,
      "lat": 12.9701135,
      "lon": 77.5437369,
      "tags": {
        "brand": "HOPCOMS",
        "brand:wikidata": "Q22908959",
        "name": "HOPCOMS",
        "name:en": "HOPCOMS",
        "name:kn": "ಹಾಪ್ ಕಾಮ್ಸ್",
        "shop": "greengrocer"
      }
    },
    {
      "type": "node",
      "id": 4619897393,
      "lat": 12.9582106,
      "lon": 77.5348921,
      "tags": {
        "amenity": "atm",
        "operator": "SBI E-lobby"
      }
    },
    {
      "type": "node",
      "id": 4620010389,
      "lat": 12.9584059,
      "lon": 77.5356011,
      "tags": {
        "amenity": "atm",
        "brand": "State Bank of India",
        "brand:wikidata": "Q1340361",
        "name": "State Bank of India",
        "operator": "State Bank of India",
        "operator:wikidata": "Q1340361",
        "short_name": "SBI"
      }
    },
    {
      "type": "node",
      "id": 4620010489,
      "lat": 12.9582945,
      "lon": 77.5351343,
      "tags": {
        "amenity": "atm",
        "operator": "Union Bank"
      }
    },
    {
      "type": "node",
      "id": 4681664946,
      "lat": 12.9647338,
      "lon": 77.5313573,
      "tags": {
        "addr:housenumber": "#75, 7th main",
        "addr:postcode": "560040",
        "addr:street": "Subbanna Garden Main road",
        "email": "Kamala.rbd@gmail.com",
        "name": "Modicare DP Vijayanagar",
        "opening_hours": "Mo-Su 10:00-21:00",
        "operator": "Kamalamma",
        "phone": "9164258999",
        "shop": "convenience",
        "website": "http://www.modicare.com"
      }
    },
    {
      "type": "node",
      "id": 4719715794,
      "lat": 12.9714983,
      "lon": 77.5372344,
      "tags": {
        "addr:city": "Bangalore",
        "addr:housenumber": "45",
        "addr:postcode": "560040",
        "addr:street": "Chord Road",
        "amenity": "fast_food",
        "brand": "Papa John's",
        "brand:wikidata": "Q2759586",
        "cuisine": "pizza",
        "delivery": "yes",
        "name": "Papa John's",
        "name:kn": "ಪಪ ಜಾನ್ಸ್",
        "opening_hours": "11:00 - 23:00",
        "phone": "080 41642697",
        "takeaway": "yes",
        "website": "https://www.papajohnspizza.in/"
      }
    },
    {
      "type": "node",
      "id": 5147958922,
      "lat": 12.9665385,
      "lon": 77.544607,
      "tags": {
        "addr:postcode": "560040",
        "addr:street": "Church Service Road",
        "amenity": "fast_food",
        "brand": "Indira Canteen",
        "brand:wikidata": "Q36164828",
        "cuisine": "south_indian",
        "name": "Indira Canteen",
        "operator": "BBMP",
        "takeaway": "yes"
      }
    },
    {
      "type": "node",
      "id": 5307972739,
      "lat": 12.9605675,
      "lon": 77.5350542,
      "tags": {
        "name": "Aravind Book Store",
        "shop": "books"
      }
    },
    {
      "type": "node",
      "id": 5307982275,
      "lat": 12.9622239,
      "lon": 77.5332587,
      "tags": {
        "amenity": "restaurant"
      }
    },
    {
      "type": "node",
      "id": 5335214813,
      "lat": 12.9609545,
      "lon": 77.5284088,
      "tags": {
        "amenity": "fuel",
        "brand": "Hindustan Petroleum",
        "brand:wikidata": "Q1619375",
        "fuel:petrol": "yes",
        "name": "Hindustan Petroleum",
        "name:kn": "ಹಿಂದುಸ್ತಾನ್ ಪೆಟ್ರೋಲಿಯಂ",
        "official_name": "Hindustan Petroleum"
      }
    },
    {
      "type": "node",
      "id": 5342559932,
      "lat": 12.9657251,
      "lon": 77.5350046,
      "tags": {
        "amenity": "atm",
        "brand": "Karnataka Bank",
        "brand:wikidata": "Q2042632",
        "name": "Karnataka Bank",
        "name:kn": "ಕರ್ನಾಟಕ ಬ್ಯಾಂಕ್",
        "operator": "Karnataka Bank",
        "operator:wikidata": "Q2042632"
      }
    },
    {
      "type": "node",
      "id": 5342565525,
      "lat": 12.9657135,
      "lon": 77.5350296,
      "tags": {
        "amenity": "waste_basket",
        "waste": "*"
      }
    },
    {
      "type": "node",
      "id": 5342605763,
      "lat": 12.9659481,
      "lon": 77.5349805,
      "tags": {
        "amenity": "waste_basket",
        "waste": "dry"
      }
    },
    {
      "type": "node",
      "id": 5342607077,
      "lat": 12.9659522,
      "lon": 77.5351704,
      "tags": {
        "addr:housenumber": "Vijayanagar TTMC",
        "amenity": "waste_basket",
        "description": "Dry waste trash can"
      }
    },
    {
      "type": "node",
      "id": 5342607127,
      "lat": 12.9653025,
      "lon": 77.5348628,
      "tags": {
        "amenity": "waste_basket",
        "description": "Wet and Solid waste can's",
        "name": "Trash Cans"
      }
    },
    {
      "type": "node",
      "id": 5342616794,
      "lat": 12.9650746,
      "lon": 77.5347572,
      "tags": {
        "amenity": "atm",
        "brand": "Canara Bank",
        "brand:en": "Canara Bank",
        "brand:hi": "केनरा बैंक",
        "brand:kn": "ಕೆನರಾ ಬ್ಯಾಂಕ್",
        "brand:pa": "ਕੇਨਰਾ ਬੈਂਕ",
        "brand:pnb": "کینرا بینک",
        "brand:ur": "کینرا بینک",
        "brand:wikidata": "Q2003777",
        "description": "Vijayanagar TTMC",
        "name": "Canara Bank",
        "name:en": "Canara Bank",
        "name:hi": "केनरा बैंक",
        "name:kn": "ಕೆನರಾ ಬ್ಯಾಂಕ್",
        "name:pa": "ਕੇਨਰਾ ਬੈਂਕ",
        "name:pnb": "کینرا بینک",
        "name:ur": "کینرا بینک",
        "operator": "Canara Bank",
        "operator:wikidata": "Q2003777"
      }
    },
    {
      "type": "node",
      "id": 5342617527,
      "lat": 12.9651373,
      "lon": 77.5346487,
      "tags": {
        "amenity": "waste_basket",
        "name": "Trash cans"
      }
    },
    {
      "type": "node",
      "id": 5342617615,
      "lat": 12.9652059,
      "lon": 77.5346742,
      "tags": {
        "amenity": "waste_basket"
      }
    },
    {
      "type": "node",
      "id": 5342617617,
      "lat": 12.9656321,
      "lon": 77.5348594,
      "tags": {
        "amenity": "waste_basket",
        "waste": "wet"
      }
    },
    {
      "type": "node",
      "id": 5342617619,
      "lat": 12.9656408,
      "lon": 77.5348628,
      "tags": {
        "amenity": "waste_basket",
        "waste": "dry"
      }
    },
    {
      "type": "node",
      "id": 5342618709,
      "lat": 12.9652398,
      "lon": 77.5346811,
      "tags": {
        "amenity": "waste_basket"
      }
    },
    {
      "type": "node",
      "id": 5342619747,
      "lat": 12.9659691,
      "lon": 77.5349971,
      "tags": {
        "amenity": "atm",
        "brand": "Axis Bank",
        "brand:wikidata": "Q2003549",
        "name": "Axis Bank",
        "name:kn": "ಆಕ್ಸಿಸ್ ಬ್ಯಾಂಕ್",
        "operator": "Axis Bank",
        "operator:wikidata": "Q2003549"
      }
    },
    {
      "type": "node",
      "id": 5342619783,
      "lat": 12.9652097,
      "lon": 77.5346461,
      "tags": {
        "amenity": "waste_basket",
        "description": "Wet and solid trash cans",
        "name": "Trash cans"
      }
    },
    {
      "type": "node",
      "id": 5342619784,
      "lat": 12.9659442,
      "lon": 77.5349808,
      "tags": {
        "amenity": "waste_basket",
        "waste": "wet"
      }
    },
    {
      "type": "node",
      "id": 5342623079,
      "lat": 12.9654108,
      "lon": 77.5347758,
      "tags": {
        "amenity": "waste_basket",
        "waste": "wet"
      }
    },
    {
      "type": "node",
      "id": 5342623830,
      "lat": 12.9651903,
      "lon": 77.5346826,
      "tags": {
        "amenity": "waste_basket",
        "waste": "dry"
      }
    },
    {
      "type": "node",
      "id": 5342624149,
      "lat": 12.9654174,
      "lon": 77.53478,
      "tags": {
        "amenity": "waste_basket",
        "waste": "dry"
      }
    },
    {
      "type": "node",
      "id": 5342624449,
      "lat": 12.9651815,
      "lon": 77.5346787,
      "tags": {
        "amenity": "waste_basket",
        "waste": "wet"
      }
    },
    {
      "type": "node",
      "id": 5342625354,
      "lat": 12.9655852,
      "lon": 77.5346554,
      "tags": {
        "amenity": "toilets",
        "description": "Unisex toilets"
      }
    },
    {
      "type": "node",
      "id": 5342635679,
      "lat": 12.9652864,
      "lon": 77.5345868,
      "tags": {
        "amenity": "waste_basket"
      }
    },
    {
      "type": "node",
      "id": 5342636578,
      "lat": 12.9654177,
      "lon": 77.5346022,
      "tags": {
        "amenity": "waste_basket",
        "name": "Wet and Solid Trash cans"
      }
    },
    {
      "type": "node",
      "id": 5342641170,
      "lat": 12.9652842,
      "lon": 77.5345532,
      "tags": {
        "amenity": "waste_basket"
      }
    },
    {
      "type": "node",
      "id": 5342642368,
      "lat": 12.9652212,
      "lon": 77.5346031,
      "tags": {
        "amenity": "waste_basket",
        "waste": "dry"
      }
    },
    {
      "type": "node",
      "id": 5342644776,
      "lat": 12.965222,
      "lon": 77.5345993,
      "tags": {
        "amenity": "waste_disposal",
        "waste": "wet"
      }
    },
    {
      "type": "node",
      "id": 5342646021,
      "lat": 12.9651046,
      "lon": 77.5345131,
      "tags": {
        "amenity": "waste_disposal",
        "name": "Trash cans"
      }
    },
    {
      "type": "node",
      "id": 5342647147,
      "lat": 12.9659467,
      "lon": 77.5348846,
      "tags": {
        "amenity": "waste_basket",
        "waste": "wet"
      }
    },
    {
      "type": "node",
      "id": 5342647148,
      "lat": 12.9659568,
      "lon": 77.5348979,
      "tags": {
        "amenity": "waste_basket",
        "waste": "dry"
      }
    },
    {
      "type": "node",
      "id": 5342648481,
      "lat": 12.9658602,
      "lon": 77.534798,
      "tags": {
        "amenity": "toilets"
      }
    },
    {
      "type": "node",
      "id": 5342648714,
      "lat": 12.9658991,
      "lon": 77.5348151,
      "tags": {
        "amenity": "drinking_water"
      }
    },
    {
      "type": "node",
      "id": 5342649371,
      "lat": 12.9658859,
      "lon": 77.5348572,
      "tags": {
        "amenity": "waste_basket"
      }
    },
    {
      "type": "node",
      "id": 5342668560,
      "lat": 12.9651565,
      "lon": 77.5379718,
      "tags": {
        "amenity": "atm",
        "brand": "India Post Payments Bank",
        "brand:en": "India Post Payments Bank",
        "brand:hi": "भारतीय डाक भुगतान बैंक",
        "brand:wikidata": "Q2003302",
        "name": "India Post Payments Bank",
        "name:en": "India Post Payments Bank",
        "name:hi": "भारतीय डाक भुगतान बैंक",
        "operator": "India Post Payments Bank",
        "operator:wikidata": "Q2003302"
      }
    },
    {
      "type": "node",
      "id": 5349554920,
      "lat": 12.9662347,
      "lon": 77.5351942,
      "tags": {
        "amenity": "restaurant",
        "check_date": "2024-01-06",
        "cuisine": "regional",
        "diet:vegetarian": "yes",
        "name": "Vijayanagar Vaibhav"
      }
    },
    {
      "type": "node",
      "id": 5390195363,
      "lat": 12.9608314,
      "lon": 77.528917,
      "tags": {
        "amenity": "restaurant",
        "name": "Brahmin's cafe"
      }
    },
    {
      "type": "node",
      "id": 5412441733,
      "lat": 12.9635234,
      "lon": 77.5378026,
      "tags": {
        "amenity": "toilets"
      }
    },
    {
      "type": "node",
      "id": 5614863421,
      "lat": 12.966938,
      "lon": 77.5386653,
      "tags": {
        "amenity": "kindergarten",
        "name": "Apple kids",
        "opening_hours": "Mo-Sa 09:00-19:00"
      }
    },
    {
      "type": "node",
      "id": 5614863422,
      "lat": 12.9671648,
      "lon": 77.5386866,
      "tags": {
        "amenity": "kindergarten",
        "name": "Times school"
      }
    },
    {
      "type": "node",
      "id": 5678058124,
      "lat": 12.9642911,
      "lon": 77.5416866,
      "tags": {
        "amenity": "drinking_water",
        "name": "RO Center"
      }
    },
    {
      "type": "node",
      "id": 5678058126,
      "lat": 12.9672282,
      "lon": 77.5412711,
      "tags": {
        "amenity": "drinking_water",
        "name": "RO center"
      }
    },
    {
      "type": "node",
      "id": 5879132707,
      "lat": 12.9677607,
      "lon": 77.5413282,
      "tags": {
        "addr:district": "Bengaluru Urban",
        "addr:full": "No.14 , Maruthi Nagar , Near Maruthi Temple , Nagarbhavi Main Road",
        "addr:postcode": "560072",
        "addr:state": "Karnataka",
        "amenity": "hospital",
        "name": "Maruthi Hospital",
        "name:kn": "ಮಾರುತಿ ಆಸ್ಪತ್ರೆ",
        "source": "OpenGovernmentData"
      }
    },
    {
      "type": "node",
      "id": 5882253510,
      "lat": 12.9678888,
      "lon": 77.5350867,
      "tags": {
        "name": "Sim City",
        "shop": "mobile_phone"
      }
    },
    {
      "type": "node",
      "id": 5921847685,
      "lat": 12.96482,
      "lon": 77.5352602,
      "tags": {
        "addr:housenumber": "39/2",
        "addr:postcode": "560040",
        "addr:street": "Sha Shi Marulayya Road",
        "name": "Sri Sai Telecom Carl",
        "name:en": "Sri Sai Tele communication (CarlCare Centre)",
        "opening_hours": "Mo-Sa 10:00-18:30",
        "phone": "+918048658105",
        "shop": "mobile_phone"
      }
    },
    {
      "type": "node",
      "id": 6209428549,
      "lat": 12.9585898,
      "lon": 77.5392625,
      "tags": {
        "amenity": "restaurant",
        "name": "New Sagar Hotel"
      }
    },
    {
      "type": "node",
      "id": 6209440473,
      "lat": 12.9592702,
      "lon": 77.539807,
      "tags": {
        "amenity": "place_of_worship",
        "name": "Devi Maramma",
        "religion": "hindu"
      }
    },
    {
      "type": "node",
      "id": 6209457584,
      "lat": 12.9615935,
      "lon": 77.5403059,
      "tags": {
        "amenity": "fast_food",
        "name": "condiments"
      }
    },
    {
      "type": "node",
      "id": 6886594802,
      "lat": 12.9718121,
      "lon": 77.5372486,
      "tags": {
        "addr:city": "Bengaluru",
        "addr:district": "BENGALURU URBAN",
        "addr:full": "No. 27, 17th Cross, M. C. Layout, Vijayanagar",
        "addr:postcode": "560040",
        "addr:state": "Karnataka",
        "amenity": "blood_bank",
        "contact:mobile": "9901155344",
        "contact:phone": "8023358800",
        "email": "vijayanagarabloodbank@gmail.com",
        "name": "Vijayanagar Hospital Blood Bank",
        "opening_hours": "24/7",
        "operator:type": "private",
        "source": "OpenGovernmentData"
      }
    },
    {
      "type": "node",
      "id": 6905172504,
      "lat": 12.9683462,
      "lon": 77.5270066,
      "tags": {
        "leisure": "fitness_centre",
        "name": "Santhosh Gym",
        "sport": "gymnastics"
      }
    },
    {
      "type": "node",
      "id": 6905172505,
      "lat": 12.9678509,
      "lon": 77.5285193,
      "tags": {
        "amenity": "fast_food",
        "brand": "Indira Canteen",
        "brand:wikidata": "Q36164828",
        "cuisine": "south_indian",
        "name": "Indira Canteen",
        "operator": "BBMP",
        "takeaway": "yes"
      }
    },
    {
      "type": "node",
      "id": 6908926514,
      "lat": 12.9680666,
      "lon": 77.5301763,
      "tags": {
        "amenity": "pharmacy",
        "brand": "MedPlus",
        "brand:wikidata": "Q65684234",
        "dispensing": "yes",
        "healthcare": "pharmacy",
        "name": "MedPlus",
        "name:kn": "ಮೆಡ್‍ಪ್ಲಸ್"
      }
    },
    {
      "type": "node",
      "id": 6908926515,
      "lat": 12.9682052,
      "lon": 77.5301358,
      "tags": {
        "amenity": "atm",
        "brand": "Axis Bank",
        "brand:wikidata": "Q2003549",
        "name": "Axis Bank",
        "operator": "Axis Bank",
        "operator:wikidata": "Q2003549"
      }
    },
    {
      "type": "node",
      "id": 6912968485,
      "lat": 12.9683899,
      "lon": 77.5287202,
      "tags": {
        "amenity": "atm",
        "brand": "State Bank of India",
        "brand:wikidata": "Q1340361",
        "name": "State Bank of India",
        "name:kn": "ಎಸ್ ಬಿ ಐ",
        "operator": "State Bank of India",
        "operator:wikidata": "Q1340361",
        "short_name": "SBI"
      }
    },
    {
      "type": "node",
      "id": 6927679728,
      "lat": 12.9586968,
      "lon": 77.53347,
      "tags": {
        "addr:city": "Bengaluru",
        "addr:housenumber": "36/2",
        "addr:postcode": "560040",
        "addr:street": "Chord Road",
        "amenity": "restaurant",
        "cuisine": "pizza;burger;italian;ice_cream;MILK_SHAKE;american",
        "name": "Addiction",
        "opening_hours": "Mo-Su 11:00-23:00",
        "phone": "+919538172727"
      }
    },
    {
      "type": "node",
      "id": 6938774143,
      "lat": 12.9650437,
      "lon": 77.5435022,
      "tags": {
        "addr:district": "Bengaluru Urban",
        "addr:full": "No.10, Pipeline Road, RPC Layout, Vijayanagar, 2nd Stage",
        "addr:postcode": "560104",
        "addr:state": "Karnataka",
        "amenity": "hospital",
        "email": "skamcBengaluru@gmail.com",
        "healthcare": "hospital",
        "name": "Sri Kalabyraveshwara Swamy Ayurvedic Medical College hospital",
        "operator:type": "private",
        "source": "OpenGovernmentData",
        "website": "http://skayurvediccollegeandhospital.com/"
      }
    },
    {
      "type": "node",
      "id": 6944309977,
      "lat": 12.9645006,
      "lon": 77.5427189,
      "tags": {
        "addr:district": "Bengaluru Urban",
        "addr:full": "No. 1869, 5Th Main, 13Th Cross, R.P.C. Lay Out, Vijayanagar",
        "addr:postcode": "560040",
        "addr:state": "Karnataka",
        "amenity": "hospital",
        "healthcare": "hospital",
        "name": "Susheel Hospital",
        "source": "OpenGovernmentData"
      }
    },
    {
      "type": "node",
      "id": 6944983789,
      "lat": 12.9716291,
      "lon": 77.5371969,
      "tags": {
        "addr:district": "Bengaluru Urban",
        "addr:full": "17th Cross, Near Main Bus Stand, MC Road, Vijayanagar",
        "addr:postcode": "560040",
        "addr:state": "Karnataka",
        "amenity": "hospital",
        "check_date": "2024-12-21",
        "healthcare": "hospital",
        "name": "Vijayanagar Hospital",
        "operator:type": "private",
        "source": "OpenGovernmentData",
        "website": "http://dpal.kar.nic.in/Kanunu%20padakosha%20PDF%20Files/Recognised%20Hospitals.pdf"
      }
    },
    {
      "type": "node",
      "id": 6945309984,
      "lat": 12.9601022,
      "lon": 77.5315556,
      "tags": {
        "addr:district": "Bengaluru Urban",
        "addr:full": "No.20/1, 2nd Cross, Widia Layout, Chandra Layout Main Road,Vijayanagar",
        "addr:postcode": "560040",
        "addr:state": "Karnataka",
        "amenity": "hospital",
        "healthcare": "hospital",
        "name": "A.M. Hospital",
        "source": "OpenGovernmentData"
      }
    },
    {
      "type": "node",
      "id": 6945348721,
      "lat": 12.9586907,
      "lon": 77.5352668,
      "tags": {
        "addr:district": "Bengaluru Urban",
        "addr:full": "#966/ 22, Service Road, RPC Layout, Vijayanagar, Opposite Syndicate Bank",
        "addr:postcode": "560104",
        "addr:state": "Karnataka",
        "amenity": "hospital",
        "healthcare": "hospital",
        "healthcare:speciality": "Cataract Treatment; Cornea Clinic; Retina Clinic; Glaucoma Clinic",
        "name": "Divya Drishti Eye Hospital, Vijayanagar",
        "operator:type": "private",
        "source": "OpenGovernmentData",
        "website": "http://divyadrishtieyehospital.com/"
      }
    },
    {
      "type": "node",
      "id": 6947499749,
      "lat": 12.9742612,
      "lon": 77.5392227,
      "tags": {
        "addr:district": "Bengaluru Urban",
        "addr:full": "#3420, 1st Floor, Service Road, Rpc Layout,Opp Maruthi Medicals Vijaya Nagar Ii Stage",
        "addr:postcode": "560040",
        "addr:state": "Karnataka",
        "amenity": "doctors",
        "name": "Dr. Satyaprakash Centre For Digestive and Liver Dise",
        "source": "OpenGovernmentData"
      }
    },
    {
      "type": "node",
      "id": 6947707894,
      "lat": 12.9597937,
      "lon": 77.5319794,
      "tags": {
        "addr:district": "Bengaluru Urban",
        "addr:full": "23, Ist Floor, Iii Main Road, Chandra Layout, Vijayanagar",
        "addr:postcode": "560040",
        "addr:state": "Karnataka",
        "amenity": "clinic",
        "healthcare": "clinic",
        "name": "Kids Care Clinic",
        "source": "OpenGovernmentData"
      }
    },
    {
      "type": "node",
      "id": 7013294086,
      "lat": 12.9608277,
      "lon": 77.5287881,
      "tags": {
        "name": "Jockey",
        "shop": "clothes"
      }
    },
    {
      "type": "node",
      "id": 7059752703,
      "lat": 12.9681659,
      "lon": 77.5292945,
      "tags": {
        "amenity": "restaurant",
        "name": "Sri Raghavendra Upaahar"
      }
    },
    {
      "type": "node",
      "id": 7079728383,
      "lat": 12.9684181,
      "lon": 77.5324474,
      "tags": {
        "amenity": "restaurant",
        "name": "Gangotri",
        "name:kn": "ಗಂಗೋತ್ರಿ"
      }
    },
    {
      "type": "node",
      "id": 7114434985,
      "lat": 12.9697082,
      "lon": 77.5366305,
      "tags": {
        "brand": "Peter England",
        "brand:wikidata": "Q19573665",
        "clothes": "men",
        "name": "Peter England",
        "shop": "clothes"
      }
    },
    {
      "type": "node",
      "id": 7115980786,
      "lat": 12.9664596,
      "lon": 77.5344276,
      "tags": {
        "amenity": "restaurant",
        "name": "Brahmi Ruchi"
      }
    },
    {
      "type": "node",
      "id": 7115980787,
      "lat": 12.9665005,
      "lon": 77.5343128,
      "tags": {
        "amenity": "restaurant",
        "name": "Udupi Aruna Grand"
      }
    },
    {
      "type": "node",
      "id": 7116375085,
      "lat": 12.9662613,
      "lon": 77.5350611,
      "tags": {
        "amenity": "restaurant",
        "name": "South spicy bites"
      }
    },
    {
      "type": "node",
      "id": 7116422785,
      "lat": 12.9662248,
      "lon": 77.5351188,
      "tags": {
        "amenity": "juice_bar",
        "cuisine": "juice",
        "name": "Lassi Magic"
      }
    },
    {
      "type": "node",
      "id": 7116423386,
      "lat": 12.9668661,
      "lon": 77.5354811,
      "tags": {
        "amenity": "bank",
        "brand": "Yes Bank",
        "brand:wikidata": "Q2040394",
        "name": "Yes Bank",
        "name:kn": "ಯಸ್ ಬ್ಯಾಂಕ್"
      }
    },
    {
      "type": "node",
      "id": 7118675986,
      "lat": 12.9719175,
      "lon": 77.5370015,
      "tags": {
        "amenity": "atm",
        "operator": "Axis ATM"
      }
    },
    {
      "type": "node",
      "id": 7128464985,
      "lat": 12.9669699,
      "lon": 77.5355252,
      "tags": {
        "name": "RV Bajaj",
        "shop": "motorcycle"
      }
    },
    {
      "type": "node",
      "id": 7128479785,
      "lat": 12.9682775,
      "lon": 77.5334693,
      "tags": {
        "amenity": "atm",
        "brand": "ICICI Bank",
        "brand:wikidata": "Q1653258",
        "name": "ICICI Bank",
        "name:kn": "ಐಸಿಐಸಿಐ ಬ್ಯಾಂಕು",
        "operator": "ICICI Bank",
        "operator:wikidata": "Q1653258",
        "short_name": "ICICI"
      }
    },
    {
      "type": "node",
      "id": 7131191485,
      "lat": 12.9688763,
      "lon": 77.5363216,
      "tags": {
        "name": "Johnnie Walker",
        "shop": "wine"
      }
    },
    {
      "type": "node",
      "id": 7131191486,
      "lat": 12.9689194,
      "lon": 77.5361437,
      "tags": {
        "amenity": "restaurant",
        "name": "New Shanthi Sagar"
      }
    },
    {
      "type": "node",
      "id": 7132495685,
      "lat": 12.9705642,
      "lon": 77.5369071,
      "tags": {
        "brand": "Levi's",
        "brand:wikidata": "Q127962",
        "clothes": "denim;men;women",
        "name": "Levi's",
        "shop": "clothes"
      }
    },
    {
      "type": "node",
      "id": 7139631434,
      "lat": 12.9715873,
      "lon": 77.5380184,
      "tags": {
        "name": "Anusuya Silks",
        "shop": "clothes"
      }
    },
    {
      "type": "node",
      "id": 7139631435,
      "lat": 12.9645849,
      "lon": 77.534337,
      "tags": {
        "amenity": "place_of_worship",
        "religion": "hindu"
      }
    },
    {
      "type": "node",
      "id": 7139631444,
      "lat": 12.9730367,
      "lon": 77.5382383,
      "tags": {
        "amenity": "bank",
        "atm": "yes",
        "brand": "Union Bank of India",
        "brand:wikidata": "Q2004078",
        "name": "Union Bank of India"
      }
    },
    {
      "type": "node",
      "id": 7139631445,
      "lat": 12.9729779,
      "lon": 77.5381672,
      "tags": {
        "name": "Daffodils",
        "shop": "clothes"
      }
    },
    {
      "type": "node",
      "id": 7139631454,
      "lat": 12.9662094,
      "lon": 77.535375,
      "tags": {
        "name": "Nandini Milk Parlour",
        "shop": "dairy"
      }
    },
    {
      "type": "node",
      "id": 7139631455,
      "lat": 12.9653505,
      "lon": 77.5346913,
      "tags": {
        "amenity": "bench"
      }
    },
    {
      "type": "node",
      "id": 7139631456,
      "lat": 12.9654938,
      "lon": 77.5347517,
      "tags": {
        "amenity": "bench"
      }
    },
    {
      "type": "node",
      "id": 7139631457,
      "lat": 12.9654224,
      "lon": 77.5347216,
      "tags": {
        "amenity": "bench"
      }
    },
    {
      "type": "node",
      "id": 7139631458,
      "lat": 12.9652754,
      "lon": 77.5346596,
      "tags": {
        "amenity": "bench"
      }
    },
    {
      "type": "node",
      "id": 7139631459,
      "lat": 12.9656534,
      "lon": 77.534819,
      "tags": {
        "amenity": "bench"
      }
    },
    {
      "type": "node",
      "id": 7139631460,
      "lat": 12.9655669,
      "lon": 77.5347825,
      "tags": {
        "amenity": "bench"
      }
    },
    {
      "type": "node",
      "id": 7139631461,
      "lat": 12.9658444,
      "lon": 77.5348996,
      "tags": {
        "amenity": "bench"
      }
    },
    {
      "type": "node",
      "id": 7139631462,
      "lat": 12.9657375,
      "lon": 77.5348545,
      "tags": {
        "amenity": "bench"
      }
    },
    {
      "type": "node",
      "id": 7139631463,
      "lat": 12.9658246,
      "lon": 77.5349641,
      "tags": {
        "amenity": "bench"
      }
    },
    {
      "type": "node",
      "id": 7139631464,
      "lat": 12.9657177,
      "lon": 77.534919,
      "tags": {
        "amenity": "bench"
      }
    },
    {
      "type": "node",
      "id": 7139631465,
      "lat": 12.9656336,
      "lon": 77.5348836,
      "tags": {
        "amenity": "bench"
      }
    },
    {
      "type": "node",
      "id": 7139631466,
      "lat": 12.9655471,
      "lon": 77.5348471,
      "tags": {
        "amenity": "bench"
      }
    },
    {
      "type": "node",
      "id": 7139631467,
      "lat": 12.965474,
      "lon": 77.5348163,
      "tags": {
        "amenity": "bench"
      }
    },
    {
      "type": "node",
      "id": 7139631468,
      "lat": 12.9654026,
      "lon": 77.5347862,
      "tags": {
        "amenity": "bench"
      }
    },
    {
      "type": "node",
      "id": 7139631469,
      "lat": 12.9653307,
      "lon": 77.5347558,
      "tags": {
        "amenity": "bench"
      }
    },
    {
      "type": "node",
      "id": 7139631470,
      "lat": 12.9652556,
      "lon": 77.5347242,
      "tags": {
        "amenity": "bench"
      }
    },
    {
      "type": "node",
      "id": 7139631471,
      "lat": 12.9623357,
      "lon": 77.5336571,
      "tags": {
        "access": "yes",
        "amenity": "motorcycle_parking",
        "name": "Metro Parking",
        "parking": "surface"
      }
    },
    {
      "type": "node",
      "id": 7156536805,
      "lat": 12.9707744,
      "lon": 77.536975,
      "tags": {
        "addr:city": "Bengaluru",
        "name": "YLG",
        "shop": "beauty",
        "website": "https://www.ylgindia.com/"
      }
    },
    {
      "type": "node",
      "id": 7156536806,
      "lat": 12.9704007,
      "lon": 77.5370742,
      "tags": {
        "access": "yes",
        "amenity": "motorcycle_parking",
        "name": "Metro Parking",
        "parking": "surface"
      }
    },
    {
      "type": "node",
      "id": 7156536807,
      "lat": 12.9682966,
      "lon": 77.536114,
      "tags": {
        "amenity": "cafe",
        "name": "Pappu Chaiwalla"
      }
    },
    {
      "type": "node",
      "id": 7156536808,
      "lat": 12.9679907,
      "lon": 77.5359839,
      "tags": {
        "addr:city": "Bengaluru",
        "addr:postcode": "560040",
        "brand": "Airtel",
        "brand:wikidata": "Q854867",
        "name": "Airtel",
        "shop": "mobile_phone"
      }
    },
    {
      "type": "node",
      "id": 7156536813,
      "lat": 12.9667322,
      "lon": 77.535418,
      "tags": {
        "name": "Louver Furniture and Interiors",
        "shop": "furniture"
      }
    },
    {
      "type": "node",
      "id": 7156536826,
      "lat": 12.9593886,
      "lon": 77.5330791,
      "tags": {
        "name": "Sri Male Madeshwara Condiments",
        "shop": "kiosk"
      }
    },
    {
      "type": "node",
      "id": 7156536827,
      "lat": 12.958245,
      "lon": 77.5336169,
      "tags": {
        "amenity": "atm",
        "brand": "HDFC Bank",
        "brand:wikidata": "Q631047",
        "check_date": "2024-05-12",
        "name": "HDFC Bank",
        "operator": "HDFC Bank",
        "operator:wikidata": "Q631047",
        "short_name": "HDFC"
      }
    },
    {
      "type": "node",
      "id": 7156536829,
      "lat": 12.9577457,
      "lon": 77.5338261,
      "tags": {
        "amenity": "school",
        "name": "Government Model Primary School"
      }
    },
    {
      "type": "node",
      "id": 7164440785,
      "lat": 12.97254,
      "lon": 77.5377287,
      "tags": {
        "name": "Hi-Tech Fashion",
        "shop": "clothes"
      }
    },
    {
      "type": "node",
      "id": 7164440786,
      "lat": 12.9709973,
      "lon": 77.5373525,
      "tags": {
        "name": "Konica Store",
        "shop": "photo"
      }
    },
    {
      "type": "node",
      "id": 7164440787,
      "lat": 12.9681286,
      "lon": 77.5360885,
      "tags": {
        "amenity": "atm",
        "brand": "Federal Bank",
        "brand:wikidata": "Q2044983",
        "name": "Federal Bank",
        "operator": "Federal Bank",
        "operator:wikidata": "Q2044983"
      }
    },
    {
      "type": "node",
      "id": 7164440788,
      "lat": 12.9680783,
      "lon": 77.5360677,
      "tags": {
        "name": "Durgamba Motors",
        "shop": "travel_agency"
      }
    },
    {
      "type": "node",
      "id": 7164440789,
      "lat": 12.9680365,
      "lon": 77.5359377,
      "tags": {
        "amenity": "clinic",
        "name": "Sri Maruthi Nethralaya"
      }
    },
    {
      "type": "node",
      "id": 7164440790,
      "lat": 12.9677202,
      "lon": 77.5358713,
      "tags": {
        "name": "Lakme Salon",
        "name:kn": "ಲಾಕ್ಮೆ",
        "shop": "beauty"
      }
    },
    {
      "type": "node",
      "id": 7164440796,
      "lat": 12.9592461,
      "lon": 77.5331582,
      "tags": {
        "check_date": "2025-05-27",
        "name": "MRF Maruti Tyres",
        "shop": "tyres"
      }
    },
    {
      "type": "node",
      "id": 7164457816,
      "lat": 12.9600943,
      "lon": 77.5322543,
      "tags": {
        "brand": "Liberty",
        "brand:wikidata": "Q6541947",
        "name": "Liberty Exclusive Showroom",
        "shop": "shoes"
      }
    },
    {
      "type": "node",
      "id": 7175191985,
      "lat": 12.9647381,
      "lon": 77.5307333,
      "tags": {
        "name": "Haircraft Salon and Spa",
        "shop": "hairdresser"
      }
    },
    {
      "type": "node",
      "id": 7175191986,
      "lat": 12.9647768,
      "lon": 77.5305308,
      "tags": {
        "brand": "More",
        "brand:wikidata": "Q6910891",
        "name": "More",
        "shop": "supermarket"
      }
    },
    {
      "type": "node",
      "id": 7208489486,
      "lat": 12.9678533,
      "lon": 77.5284142,
      "tags": {
        "amenity": "toilets",
        "opening_hours": "Mo-Su 05:00-22:00"
      }
    },
    {
      "type": "node",
      "id": 7233191485,
      "lat": 12.9707915,
      "lon": 77.5369731,
      "tags": {
        "brand": "Lenskart",
        "brand:wikidata": "Q17068753",
        "name": "Lenskart.com",
        "shop": "optician"
      }
    },
    {
      "type": "node",
      "id": 7236398085,
      "lat": 12.9645783,
      "lon": 77.5329264,
      "tags": {
        "amenity": "car_wash",
        "name": "Maruthi Water Service"
      }
    },
    {
      "type": "node",
      "id": 7255733101,
      "lat": 12.9681697,
      "lon": 77.5269225,
      "tags": {
        "name": "Sandhoz",
        "shop": "pet"
      }
    },
    {
      "type": "node",
      "id": 7572491983,
      "lat": 12.9679511,
      "lon": 77.5388826,
      "tags": {
        "addr:district": "Bengaluru Urban",
        "addr:full": "Hoshalli Extension, Vijayanagar, Bengaluru",
        "addr:postcode": "560104",
        "addr:state": "Karnataka",
        "amenity": "clinic",
        "name": "Raju Institute Of Nephro Urology Clinic",
        "source": "Local Knowledge"
      }
    },
    {
      "type": "node",
      "id": 7572526696,
      "lat": 12.971816,
      "lon": 77.53183,
      "tags": {
        "addr:district": "Bengaluru Urban",
        "addr:full": "KGS Layout, Govindaraja Nagar Ward, Saraswathi Nagar, Vijayanagar, Bengaluru",
        "addr:postcode": "560040",
        "addr:state": "Karnataka",
        "amenity": "clinic",
        "name": "Archana Clinic",
        "source": "Local Knowledge"
      }
    },
    {
      "type": "node",
      "id": 7572526697,
      "lat": 12.9741101,
      "lon": 77.5357741,
      "tags": {
        "addr:district": "Bengaluru Urban",
        "addr:full": "CHBS Layout, Vijayanagar, Bengaluru",
        "addr:postcode": "560040",
        "addr:state": "Karnataka",
        "amenity": "clinic",
        "name": "Vanitha Child Care & Skin Clinic",
        "source": "Local Knowledge"
      }
    },
    {
      "type": "node",
      "id": 7572526698,
      "lat": 12.9744928,
      "lon": 77.5342045,
      "tags": {
        "addr:district": "Bengaluru Urban",
        "addr:full": "Stage 2, Vijayanagar, Bengaluru",
        "addr:postcode": "560040",
        "addr:state": "Karnataka",
        "amenity": "hospital",
        "name": "Goverment Hospital, Hosahalli",
        "source": "Local Knowledge"
      }
    },
    {
      "type": "node",
      "id": 7572526701,
      "lat": 12.972589,
      "lon": 77.541939,
      "tags": {
        "addr:district": "Bengaluru Urban",
        "addr:full": "SBI Staff Colony, Hoshalli Extension, Vijayanagar, Bengaluru",
        "addr:postcode": "560040",
        "addr:state": "Karnataka",
        "amenity": "clinic",
        "name": "Dr. Nagbhushan Skin Care Clinic",
        "source": "Local Knowledge"
      }
    },
    {
      "type": "node",
      "id": 7572526709,
      "lat": 12.9707429,
      "lon": 77.5377684,
      "tags": {
        "addr:district": "Bengaluru Urban",
        "addr:full": "Near Vijayanagar Police Station, Vijaya Nagar, Bengaluru",
        "addr:postcode": "560040",
        "addr:state": "Karnataka",
        "amenity": "hospital",
        "healthcare": "hospital",
        "name": "Vidya Eye Hospital",
        "source": "Local Knowledge"
      }
    },
    {
      "type": "node",
      "id": 7572526711,
      "lat": 12.9731159,
      "lon": 77.5415094,
      "tags": {
        "addr:district": "Bengaluru Urban",
        "addr:full": "SBI Staff Colony, Hoshalli Extension, Vijayanagar, Bengaluru",
        "addr:postcode": "560040",
        "addr:state": "Karnataka",
        "amenity": "clinic",
        "name": "Vijayanagar ENT Care Centre",
        "source": "Local Knowledge"
      }
    },
    {
      "type": "node",
      "id": 7572526720,
      "lat": 12.9695016,
      "lon": 77.5419489,
      "tags": {
        "addr:district": "Bengaluru Urban",
        "addr:full": "Hoshalli Extension, Vijayanagar, Bengaluru",
        "addr:postcode": "560040",
        "addr:state": "Karnataka",
        "amenity": "clinic",
        "name": "Ganesh Clinic",
        "source": "Local Knowledge"
      }
    },
    {
      "type": "node",
      "id": 7572526730,
      "lat": 12.966677,
      "lon": 77.5424542,
      "tags": {
        "addr:district": "Bengaluru Urban",
        "addr:full": "RPC Layout, Hoshalli Extension, Vijayanagar, Bengaluru",
        "addr:postcode": "560104",
        "addr:state": "Karnataka",
        "amenity": "clinic",
        "name": "GHOC Clinic",
        "source": "Local Knowledge"
      }
    },
    {
      "type": "node",
      "id": 7572526731,
      "lat": 12.9719944,
      "lon": 77.5400815,
      "tags": {
        "addr:district": "Bengaluru Urban",
        "addr:full": "Govindaraja Nagar Ward, Anubhav Nagar, Vijayanagar, Bengaluru",
        "addr:postcode": "560040",
        "addr:state": "Karnataka",
        "amenity": "clinic",
        "name": "Smile Studio Oral Care",
        "source": "Local Knowledge"
      }
    },
    {
      "type": "node",
      "id": 7572526733,
      "lat": 12.974213,
      "lon": 77.534597,
      "tags": {
        "addr:district": "Bengaluru Urban",
        "addr:full": "Vijayanagar, Bengaluru",
        "addr:postcode": "560040",
        "addr:state": "Karnataka",
        "amenity": "clinic",
        "name": "Vijayanagar ENT Care Centre",
        "source": "Local Knowledge"
      }
    },
    {
      "type": "node",
      "id": 7572526734,
      "lat": 12.9744871,
      "lon": 77.5352515,
      "tags": {
        "addr:district": "Bengaluru Urban",
        "addr:full": "Govindaraja Nagar Ward, Vijayanagar, Bengaluru",
        "addr:postcode": "560040",
        "addr:state": "Karnataka",
        "amenity": "clinic",
        "check_date": "2024-12-21",
        "internet_access": "no",
        "name": "Chethana Homeo Clinic",
        "source": "Local Knowledge"
      }
    },
    {
      "type": "node",
      "id": 7572526735,
      "lat": 12.9742311,
      "lon": 77.5353795,
      "tags": {
        "addr:district": "Bengaluru Urban",
        "addr:full": "CHBS Layout, Vijayanagar, Bengaluru",
        "addr:postcode": "560040",
        "addr:state": "Karnataka",
        "amenity": "clinic",
        "name": "Nandini Children Clinic",
        "source": "Local Knowledge"
      }
    },
    {
      "type": "node",
      "id": 7572526739,
      "lat": 12.967029,
      "lon": 77.541853,
      "tags": {
        "addr:district": "Bengaluru Urban",
        "addr:full": "Hosahalli Extension, Vijayanagar, Bengaluru",
        "addr:postcode": "560104",
        "addr:state": "Karnataka",
        "amenity": "doctors",
        "name": "Dr. S C Shankaralingaiah",
        "source": "Local Knowledge"
      }
    },
    {
      "type": "node",
      "id": 7572526742,
      "lat": 12.968877,
      "lon": 77.5357939,
      "tags": {
        "addr:district": "Bengaluru Urban",
        "addr:full": "Marenahalli Main Road, CHBS Layout, Vijayanagar, Bengaluru",
        "addr:postcode": "560040",
        "addr:state": "Karnataka",
        "amenity": "clinic",
        "name": "Vasan Eye Care",
        "source": "Local Knowledge"
      }
    },
    {
      "type": "node",
      "id": 7572526749,
      "lat": 12.9741559,
      "lon": 77.5356939,
      "tags": {
        "addr:district": "Bengaluru Urban",
        "addr:full": "CHBS Layout, Vijayanagar, Bengaluru",
        "addr:postcode": "560040",
        "addr:state": "Karnataka",
        "amenity": "doctors",
        "name": "Dr. Banarji B H - Shoulder Specialist",
        "source": "Local Knowledge"
      }
    },
    {
      "type": "node",
      "id": 7572526760,
      "lat": 12.9716979,
      "lon": 77.5349489,
      "tags": {
        "addr:district": "Bengaluru Urban",
        "addr:full": "CHBS Layout, Vijayanagar, Bengaluru",
        "addr:postcode": "560040",
        "addr:state": "Karnataka",
        "amenity": "clinic",
        "name": "Darshan Clinic",
        "source": "Local Knowledge"
      }
    },
    {
      "type": "node",
      "id": 7572526763,
      "lat": 12.969102,
      "lon": 77.534951,
      "tags": {
        "addr:district": "Bengaluru Urban",
        "addr:full": "Govindaraja Nagar Ward, PF Layout, Vijayanagar, Bengaluru",
        "addr:postcode": "560040",
        "addr:state": "Karnataka",
        "amenity": "hospital",
        "name": "Suhusannidhi Hospital",
        "source": "Local Knowledge"
      }
    },
    {
      "type": "node",
      "id": 7572526776,
      "lat": 12.9698191,
      "lon": 77.5360801,
      "tags": {
        "addr:district": "Bengaluru Urban",
        "addr:full": "CHBS Layout, MC Layout, Vijayanagar, Bengaluru",
        "addr:postcode": "560040",
        "addr:state": "Karnataka",
        "amenity": "hospital",
        "name": "Sai Ortho and Dental Centre",
        "source": "Local Knowledge"
      }
    },
    {
      "type": "node",
      "id": 7572526779,
      "lat": 12.9745582,
      "lon": 77.5326276,
      "tags": {
        "addr:district": "Bengaluru Urban",
        "addr:full": "Central Excise Layout, CHBS Layout, Vijayanagar, Bengaluru",
        "addr:postcode": "560040",
        "addr:state": "Karnataka",
        "amenity": "dentist",
        "name": "Apple Dental Clinic",
        "source": "Local Knowledge"
      }
    },
    {
      "type": "node",
      "id": 7572526780,
      "lat": 12.9685357,
      "lon": 77.5383336,
      "tags": {
        "addr:district": "Bengaluru Urban",
        "addr:full": "SBI Staff Colony, Hoshalli Extension, Vijayanagar, Bengaluru",
        "addr:postcode": "560104",
        "addr:state": "Karnataka",
        "amenity": "doctors",
        "name": "Dr. Prakash N",
        "source": "Local Knowledge"
      }
    },
    {
      "type": "node",
      "id": 7572526789,
      "lat": 12.969262,
      "lon": 77.536474,
      "tags": {
        "addr:district": "Bengaluru Urban",
        "addr:full": "Marenahalli, Vijayanagar, Bengaluru",
        "addr:postcode": "560040",
        "addr:state": "Karnataka",
        "amenity": "clinic",
        "name": "Synergy Healthcare",
        "source": "Local Knowledge"
      }
    },
    {
      "type": "node",
      "id": 7572526799,
      "lat": 12.9752946,
      "lon": 77.5367112,
      "tags": {
        "addr:district": "Bengaluru Urban",
        "addr:full": "CHBS Layout, Vijayanagar, Bengaluru",
        "addr:postcode": "560040",
        "addr:state": "Karnataka",
        "amenity": "dentist",
        "name": "Blooming Smiles Dental Clinic",
        "source": "Local Knowledge"
      }
    },
    {
      "type": "node",
      "id": 7572526804,
      "lat": 12.9698787,
      "lon": 77.5332834,
      "tags": {
        "addr:district": "Bengaluru Urban",
        "addr:full": "Vijaya Nagar, Bengaluru",
        "addr:postcode": "560040",
        "addr:state": "Karnataka",
        "amenity": "hospital",
        "name": "Sastry Memorial Hospital",
        "source": "Local Knowledge"
      }
    },
    {
      "type": "node",
      "id": 7927589085,
      "lat": 12.970057,
      "lon": 77.5358963,
      "tags": {
        "addr:postcode": "560040",
        "addr:street": "Metro Station, Near, Ramanashree Udaya Education society, 14, 18th Main Rd, Marenahalli, MC Layout,",
        "amenity": "school",
        "email": "communications.oisvn@orchids.edu.in",
        "name": "Orchids The International School, VijayaNagar",
        "opening_hours": "Mo-Su 09:00-18:30",
        "operator": "Orchids International School",
        "phone": "+919513923233",
        "website": "https://www.orchidsinternationalschool.com/bangalore-branches/vijayanagar/"
      }
    },
    {
      "type": "node",
      "id": 8120747620,
      "lat": 12.9593325,
      "lon": 77.5363763,
      "tags": {
        "addr:postcode": "560104",
        "addr:street": "9th Main Road",
        "amenity": "vending_machine",
        "name": "Water ATM",
        "vending": "water"
      }
    },
    {
      "type": "node",
      "id": 8127770360,
      "lat": 12.9683292,
      "lon": 77.5272267,
      "tags": {
        "amenity": "vending_machine",
        "check_date": "2023-10-01",
        "name": "Water ATM",
        "operator": "BBMP",
        "vending": "water"
      }
    },
    {
      "type": "node",
      "id": 8137973817,
      "lat": 12.9679021,
      "lon": 77.5349841,
      "tags": {
        "name": "Vijaya Karadant",
        "shop": "confectionery"
      }
    },
    {
      "type": "node",
      "id": 8142358217,
      "lat": 12.9690976,
      "lon": 77.5300595,
      "tags": {
        "amenity": "place_of_worship",
        "name": "Siddi Vinayaka Temple",
        "religion": "hindu"
      }
    },
    {
      "type": "node",
      "id": 8145692753,
      "lat": 12.9690755,
      "lon": 77.5301997,
      "tags": {
        "amenity": "vending_machine",
        "name": "Water ATM",
        "operator": "BBMP",
        "vending": "water"
      }
    },
    {
      "type": "node",
      "id": 8145728689,
      "lat": 12.9683121,
      "lon": 77.5287383,
      "tags": {
        "shop": "bakery"
      }
    },
    {
      "type": "node",
      "id": 8145729233,
      "lat": 12.967786,
      "lon": 77.5303786,
      "tags": {
        "amenity": "clinic",
        "healthcare": "clinic",
        "name": "Manjula Clinic"
      }
    },
    {
      "type": "node",
      "id": 8145729234,
      "lat": 12.9678599,
      "lon": 77.5303785,
      "tags": {
        "amenity": "pharmacy",
        "dispensing": "yes",
        "healthcare": "pharmacy"
      }
    },
    {
      "type": "node",
      "id": 8178689617,
      "lat": 12.9682672,
      "lon": 77.5335513,
      "tags": {
        "addr:street": "21st Main Road",
        "email": "djsaraswathi22@gmail.com",
        "name": "Sowbagya Enterprises",
        "shop": "stationery"
      }
    },
    {
      "type": "node",
      "id": 8178689717,
      "lat": 12.9683542,
      "lon": 77.5335864,
      "tags": {
        "addr:street": "21st Main Road",
        "name": "Ranganath Iyyangar Bakery",
        "shop": "bakery"
      }
    },
    {
      "type": "node",
      "id": 9654236896,
      "lat": 12.965918,
      "lon": 77.5355695,
      "tags": {
        "name": "Nandini Milk Parlour",
        "shop": "dairy"
      }
    },
    {
      "type": "node",
      "id": 10181726579,
      "lat": 12.9739793,
      "lon": 77.5360566,
      "tags": {
        "name": "Gandhi Emporium",
        "shop": "clothes"
      }
    },
    {
      "type": "node",
      "id": 10181751386,
      "lat": 12.9739932,
      "lon": 77.5360224,
      "tags": {
        "name": "Advika medicals",
        "shop": "medical_supply"
      }
    },
    {
      "type": "node",
      "id": 10181754739,
      "lat": 12.9740266,
      "lon": 77.5359501,
      "tags": {
        "name": "Shree Radhakrishna Fashion",
        "shop": "clothes"
      }
    },
    {
      "type": "node",
      "id": 10572689357,
      "lat": 12.9740758,
      "lon": 77.5345027,
      "tags": {
        "addr:city": "Bangalore",
        "addr:housenumber": "Number 38,",
        "addr:postcode": "560040",
        "addr:street": "Ground Floor, 8th Main Rd, M C Layout, Vijayanagar",
        "amenity": "restaurant",
        "cuisine": "regional;mangalorean",
        "diet:non-vegetarian": "yes",
        "name": "The Bunt Kitchen"
      }
    },
    {
      "type": "node",
      "id": 11218110493,
      "lat": 12.9599103,
      "lon": 77.5313926,
      "tags": {
        "amenity": "bank",
        "atm": "yes",
        "brand": "Federal Bank",
        "brand:wikidata": "Q2044983",
        "check_date": "2023-09-25",
        "name": "Federal Bank"
      }
    },
    {
      "type": "node",
      "id": 11494322420,
      "lat": 12.9662399,
      "lon": 77.5351318,
      "tags": {
        "amenity": "restaurant",
        "check_date": "2024-01-06",
        "name": "Rajanna Military Hotel"
      }
    },
    {
      "type": "node",
      "id": 11697274519,
      "lat": 12.9667139,
      "lon": 77.526627,
      "tags": {
        "amenity": "shelter",
        "shelter_type": "gazebo"
      }
    },
    {
      "type": "node",
      "id": 11898536494,
      "lat": 12.9671277,
      "lon": 77.5363679,
      "tags": {
        "amenity": "clinic",
        "check_date": "2024-05-12",
        "healthcare": "clinic",
        "healthcare:speciality": "orthopaedics;cardiology;general",
        "name": "Temple Health Clinic",
        "operator:type": "private",
        "phone": "+91 96325 87814"
      }
    },
    {
      "type": "node",
      "id": 11898624845,
      "lat": 12.967247,
      "lon": 77.5356517,
      "tags": {
        "amenity": "restaurant",
        "check_date": "2024-05-12",
        "cuisine": "indian",
        "diet:vegetarian": "yes",
        "name": "Krishna Vaibhava"
      }
    },
    {
      "type": "node",
      "id": 11898656680,
      "lat": 12.9709297,
      "lon": 77.5366051,
      "tags": {
        "check_date": "2024-05-12",
        "name": "Fresho",
        "shop": "farm"
      }
    },
    {
      "type": "node",
      "id": 11903974620,
      "lat": 12.9600943,
      "lon": 77.535249,
      "tags": {
        "check_date": "2024-05-14",
        "name": "Nandini",
        "shop": "dairy"
      }
    },
    {
      "type": "node",
      "id": 11904000038,
      "lat": 12.9612426,
      "lon": 77.5346527,
      "tags": {
        "check_date": "2024-05-14",
        "leisure": "sports_centre",
        "name": "VFive",
        "operator:type": "private",
        "sport": "fitness;badminton"
      }
    },
    {
      "type": "node",
      "id": 11904013614,
      "lat": 12.9598176,
      "lon": 77.5335655,
      "tags": {
        "amenity": "clinic",
        "check_date": "2024-05-14",
        "healthcare": "clinic",
        "name": "Keshava Polyclinic"
      }
    },
    {
      "type": "node",
      "id": 11904020620,
      "lat": 12.9595929,
      "lon": 77.5356369,
      "tags": {
        "amenity": "place_of_worship",
        "check_date": "2024-05-14",
        "name": "Vishvakarma Temple",
        "religion": "hindu"
      }
    },
    {
      "type": "node",
      "id": 11904038969,
      "lat": 12.9604833,
      "lon": 77.5352336,
      "tags": {
        "check_date": "2024-05-14",
        "name": "Midas Touch Saloon",
        "shop": "beauty"
      }
    },
    {
      "type": "node",
      "id": 11904042865,
      "lat": 12.9595766,
      "lon": 77.535977,
      "tags": {
        "amenity": "cafe",
        "check_date": "2024-05-14",
        "name": "Mandya Cafe"
      }
    },
    {
      "type": "node",
      "id": 11904042969,
      "lat": 12.9593134,
      "lon": 77.5360153,
      "tags": {
        "amenity": "clinic",
        "check_date": "2024-05-14",
        "healthcare": "clinic",
        "name": "Namma Clinic",
        "operator": "Government"
      }
    },
    {
      "type": "node",
      "id": 11904046645,
      "lat": 12.95979,
      "lon": 77.5339559,
      "tags": {
        "check_date": "2024-05-14",
        "name": "The Fresh Greens",
        "shop": "convenience"
      }
    },
    {
      "type": "node",
      "id": 11904046646,
      "lat": 12.9597543,
      "lon": 77.533889,
      "tags": {
        "check_date": "2024-05-14",
        "name": "Marudhar Furnishing",
        "shop": "furniture"
      }
    },
    {
      "type": "node",
      "id": 11904046647,
      "lat": 12.9597969,
      "lon": 77.533492,
      "tags": {
        "amenity": "ice_cream",
        "check_date": "2024-05-14",
        "name": "Evergreen Nest"
      }
    },
    {
      "type": "node",
      "id": 11904051493,
      "lat": 12.9601479,
      "lon": 77.5334384,
      "tags": {
        "amenity": "bank",
        "brand": "Punjab National Bank",
        "brand:wikidata": "Q2743499",
        "check_date": "2024-05-14",
        "name": "Punjab National Bank"
      }
    },
    {
      "type": "node",
      "id": 11904060987,
      "lat": 12.9598893,
      "lon": 77.5337545,
      "tags": {
        "amenity": "events_venue",
        "check_date": "2024-05-14",
        "name": "Rajathashree Party Hall"
      }
    },
    {
      "type": "node",
      "id": 11917792345,
      "lat": 12.9609384,
      "lon": 77.5285509,
      "tags": {
        "brand": "Bata",
        "brand:wikidata": "Q688082",
        "check_date": "2024-05-19",
        "name": "Bata",
        "shop": "shoes"
      }
    },
    {
      "type": "node",
      "id": 11919877826,
      "lat": 12.9678746,
      "lon": 77.53859,
      "tags": {
        "check_date": "2024-05-20",
        "clothes": "men;children;women",
        "name": "Desi Store",
        "shop": "clothes"
      }
    },
    {
      "type": "node",
      "id": 11922136038,
      "lat": 12.9655044,
      "lon": 77.5367666,
      "tags": {
        "amenity": "atm",
        "brand": "ICICI Bank",
        "brand:wikidata": "Q1653258",
        "check_date": "2024-05-21",
        "operator": "ICICI Bank",
        "operator:wikidata": "Q1653258",
        "short_name": "ICICI"
      }
    },
    {
      "type": "node",
      "id": 11922136039,
      "lat": 12.9655423,
      "lon": 77.5366178,
      "tags": {
        "amenity": "atm",
        "brand": "Kotak Mahindra Bank",
        "brand:wikidata": "Q2040404",
        "check_date": "2024-05-21",
        "operator": "Kotak Mahindra Bank",
        "operator:wikidata": "Q2040404"
      }
    },
    {
      "type": "node",
      "id": 11922152406,
      "lat": 12.9654054,
      "lon": 77.5369897,
      "tags": {
        "check_date": "2024-05-21",
        "name": "Nivvi's Pets",
        "shop": "pet"
      }
    },
    {
      "type": "node",
      "id": 11922157138,
      "lat": 12.9701338,
      "lon": 77.536511,
      "tags": {
        "check_date": "2024-05-21",
        "name": "Medplus",
        "shop": "medical_supply"
      }
    },
    {
      "type": "node",
      "id": 11922182881,
      "lat": 12.9653192,
      "lon": 77.5372327,
      "tags": {
        "addr:floor": "1",
        "check_date": "2024-05-21",
        "level": "1",
        "name": "Decorland",
        "shop": "flooring"
      }
    },
    {
      "type": "node",
      "id": 11922182882,
      "lat": 12.9652902,
      "lon": 77.5372027,
      "tags": {
        "addr:floor": "G",
        "check_date": "2024-05-21",
        "level": "0",
        "name": "Preity's Silks",
        "shop": "clothes"
      }
    },
    {
      "type": "node",
      "id": 11922186732,
      "lat": 12.9653758,
      "lon": 77.5371458,
      "tags": {
        "amenity": "fixme",
        "check_date": "2024-05-21",
        "fixme": "type",
        "fixme:type": "courier",
        "name": "SME Express"
      }
    },
    {
      "type": "node",
      "id": 11922188745,
      "lat": 12.9654322,
      "lon": 77.5368748,
      "tags": {
        "check_date": "2024-05-21",
        "name": "Impana Images",
        "shop": "photo"
      }
    },
    {
      "type": "node",
      "id": 11922189794,
      "lat": 12.9654,
      "lon": 77.5370654,
      "tags": {
        "check_date": "2024-05-21",
        "name": "Oxford Saloon",
        "shop": "hairdresser"
      }
    },
    {
      "type": "node",
      "id": 11922194550,
      "lat": 12.9652737,
      "lon": 77.5373512,
      "tags": {
        "check_date": "2024-05-21",
        "name": "Belli Jewellers",
        "shop": "jewelry"
      }
    },
    {
      "type": "node",
      "id": 11922199835,
      "lat": 12.9652886,
      "lon": 77.537287,
      "tags": {
        "check_date": "2024-05-21",
        "name": "Praveen Jewellers",
        "shop": "jewelry"
      }
    },
    {
      "type": "node",
      "id": 11922269793,
      "lat": 12.9654241,
      "lon": 77.5378299,
      "tags": {
        "check_date": "2024-05-21",
        "name": "Shivani Organics",
        "organic": "only",
        "shop": "supermarket"
      }
    },
    {
      "type": "node",
      "id": 11922269794,
      "lat": 12.9651237,
      "lon": 77.5378104,
      "tags": {
        "amenity": "dentist",
        "check_date": "2024-05-21",
        "healthcare": "dentist",
        "name": "Harish Dental Clinic"
      }
    },
    {
      "type": "node",
      "id": 11922269795,
      "lat": 12.9653425,
      "lon": 77.538099,
      "tags": {
        "check_date": "2024-05-21",
        "name": "Life Care Medicals",
        "shop": "medical_supply"
      }
    },
    {
      "type": "node",
      "id": 11922269796,
      "lat": 12.9652928,
      "lon": 77.5383608,
      "tags": {
        "addr:floor": "1",
        "check_date": "2024-05-21",
        "level": "1",
        "name": "Cut 'N' Style",
        "shop": "hairdresser"
      }
    },
    {
      "type": "node",
      "id": 11922269797,
      "lat": 12.9653744,
      "lon": 77.5383779,
      "tags": {
        "check_date": "2024-05-21",
        "name": "Rajajinagar Bakery",
        "shop": "bakery"
      }
    },
    {
      "type": "node",
      "id": 11922269798,
      "lat": 12.9654818,
      "lon": 77.5383935,
      "tags": {
        "check_date": "2024-05-21",
        "name": "Sri Balaji General Store & Stationery",
        "shop": "stationery"
      }
    },
    {
      "type": "node",
      "id": 11922269799,
      "lat": 12.9650601,
      "lon": 77.5389467,
      "tags": {
        "amenity": "clinic",
        "check_date": "2024-05-21",
        "healthcare": "clinic",
        "healthcare:speciality": "orthopaedics",
        "name": "Prasad Ortho Care",
        "phone": "+91 96636 11405"
      }
    },
    {
      "type": "node",
      "id": 11922269800,
      "lat": 12.9650636,
      "lon": 77.5388749,
      "tags": {
        "check_date": "2024-05-21",
        "name": "Rishabh Jewels And Diamonds",
        "shop": "jewelry"
      }
    },
    {
      "type": "node",
      "id": 11922269801,
      "lat": 12.9649164,
      "lon": 77.5392244,
      "tags": {
        "amenity": "clinic",
        "check_date": "2024-05-21",
        "healthcare": "clinic",
        "healthcare:speciality": "diabetology;paediatrics;gynaecology",
        "name": "Avikova Clinics"
      }
    },
    {
      "type": "node",
      "id": 11922269802,
      "lat": 12.9646622,
      "lon": 77.5392138,
      "tags": {
        "amenity": "atm",
        "brand": "Karnataka Bank",
        "brand:wikidata": "Q2042632",
        "check_date": "2024-05-21",
        "operator": "Karnataka Bank",
        "operator:wikidata": "Q2042632"
      }
    },
    {
      "type": "node",
      "id": 11930674589,
      "lat": 12.9639892,
      "lon": 77.5348786,
      "tags": {
        "amenity": "pharmacy",
        "brand": "MedPlus",
        "brand:wikidata": "Q65684234",
        "check_date": "2024-05-24",
        "healthcare": "pharmacy",
        "name": "MedPlus"
      }
    },
    {
      "type": "node",
      "id": 11930674590,
      "lat": 12.9632858,
      "lon": 77.5346055,
      "tags": {
        "check_date": "2024-05-24",
        "name": "Maruti Medicals",
        "shop": "medical_supply"
      }
    },
    {
      "type": "node",
      "id": 11934957072,
      "lat": 12.9581229,
      "lon": 77.534236,
      "tags": {
        "check_date": "2024-05-26",
        "name": "Vishal Mega Mart",
        "shop": "supermarket"
      }
    },
    {
      "type": "node",
      "id": 12081392350,
      "lat": 12.9600737,
      "lon": 77.532163,
      "tags": {
        "addr:floor": "G",
        "brand": "Nandini",
        "brand:wikidata": "Q124374212",
        "check_date": "2024-07-29",
        "level": "0",
        "name": "Nandini",
        "name:en": "Nandini",
        "shop": "dairy"
      }
    },
    {
      "type": "node",
      "id": 12157131501,
      "lat": 12.9585825,
      "lon": 77.5319394,
      "tags": {
        "amenity": "place_of_worship",
        "check_date": "2024-09-04",
        "name": "Sri Lakshmi Narasimha Swamy Temple",
        "name:en": "Sri Lakshmi Narasimha Swamy Temple",
        "religion": "hindu"
      }
    },
    {
      "type": "node",
      "id": 12163674586,
      "lat": 12.9610487,
      "lon": 77.5281158,
      "tags": {
        "addr:floor": "4",
        "amenity": "bar",
        "check_date": "2024-09-08",
        "level": "4",
        "name": "Take Off",
        "name:en": "Take Off"
      }
    },
    {
      "type": "node",
      "id": 12408656595,
      "lat": 12.9725988,
      "lon": 77.5363353,
      "tags": {
        "check_date": "2024-12-21",
        "name": "Nandini",
        "shop": "dairy"
      }
    },
    {
      "type": "node",
      "id": 12429052944,
      "lat": 12.9735908,
      "lon": 77.5340554,
      "tags": {
        "amenity": "shelter",
        "shelter_type": "gazebo"
      }
    },
    {
      "type": "node",
      "id": 12429052945,
      "lat": 12.972244,
      "lon": 77.5336806,
      "tags": {
        "amenity": "shelter",
        "shelter_type": "gazebo"
      }
    },
    {
      "type": "node",
      "id": 12438081305,
      "lat": 12.972369,
      "lon": 77.5366352,
      "tags": {
        "amenity": "shelter",
        "shelter_type": "gazebo"
      }
    },
    {
      "type": "node",
      "id": 12438081306,
      "lat": 12.9723819,
      "lon": 77.5366665,
      "tags": {
        "amenity": "bench",
        "backrest": "yes",
        "material": "stone",
        "seats": "3"
      }
    },
    {
      "type": "node",
      "id": 12438081307,
      "lat": 12.9723546,
      "lon": 77.5366768,
      "tags": {
        "amenity": "bench",
        "backrest": "yes",
        "material": "stone",
        "seats": "3"
      }
    },
    {
      "type": "node",
      "id": 12438081308,
      "lat": 12.9723364,
      "lon": 77.5366516,
      "tags": {
        "amenity": "bench",
        "backrest": "yes",
        "material": "stone",
        "seats": "3"
      }
    },
    {
      "type": "node",
      "id": 12438081309,
      "lat": 12.9723457,
      "lon": 77.5366033,
      "tags": {
        "amenity": "bench",
        "backrest": "yes",
        "material": "stone",
        "seats": "3"
      }
    },
    {
      "type": "node",
      "id": 12438081310,
      "lat": 12.9723778,
      "lon": 77.5365952,
      "tags": {
        "amenity": "bench",
        "armrest": "yes",
        "backrest": "yes",
        "material": "stone",
        "seats": "3"
      }
    },
    {
      "type": "node",
      "id": 12438081311,
      "lat": 12.9723927,
      "lon": 77.5366129,
      "tags": {
        "amenity": "bench",
        "backrest": "yes",
        "material": "stone",
        "seats": "3"
      }
    },
    {
      "type": "node",
      "id": 12438081312,
      "lat": 12.9724681,
      "lon": 77.5367183,
      "tags": {
        "amenity": "bench",
        "backrest": "yes",
        "material": "stone",
        "seats": "3"
      }
    },
    {
      "type": "node",
      "id": 12438081313,
      "lat": 12.9724481,
      "lon": 77.5367649,
      "tags": {
        "amenity": "bench",
        "backrest": "yes",
        "material": "stone",
        "seats": "3"
      }
    },
    {
      "type": "node",
      "id": 12438081314,
      "lat": 12.9724073,
      "lon": 77.5368839,
      "tags": {
        "amenity": "bench",
        "backrest": "yes",
        "material": "stone",
        "seats": "3"
      }
    },
    {
      "type": "node",
      "id": 12438081315,
      "lat": 12.97243,
      "lon": 77.536821,
      "tags": {
        "amenity": "bench",
        "material": "stone",
        "seats": "3"
      }
    },
    {
      "type": "node",
      "id": 12438081316,
      "lat": 12.9721621,
      "lon": 77.536859,
      "tags": {
        "leisure": "fitness_station",
        "sport": "fitness"
      }
    },
    {
      "type": "node",
      "id": 12438081317,
      "lat": 12.972215,
      "lon": 77.5366557,
      "tags": {
        "leisure": "fitness_station",
        "sport": "fitness"
      }
    },
    {
      "type": "node",
      "id": 12438103915,
      "lat": 12.9723946,
      "lon": 77.5362667,
      "tags": {
        "amenity": "bench",
        "backrest": "yes",
        "material": "stone",
        "seats": "3"
      }
    },
    {
      "type": "node",
      "id": 12438103916,
      "lat": 12.9724337,
      "lon": 77.5362774,
      "tags": {
        "amenity": "bench",
        "backrest": "yes",
        "material": "stone",
        "seats": "3"
      }
    },
    {
      "type": "node",
      "id": 12438103917,
      "lat": 12.9724712,
      "lon": 77.5362858,
      "tags": {
        "amenity": "bench",
        "backrest": "yes",
        "material": "stone",
        "seats": "3"
      }
    },
    {
      "type": "node",
      "id": 12438103918,
      "lat": 12.9723248,
      "lon": 77.5369209,
      "tags": {
        "amenity": "bench",
        "material": "stone",
        "seats": "3"
      }
    },
    {
      "type": "node",
      "id": 12438103919,
      "lat": 12.9722522,
      "lon": 77.5368995,
      "tags": {
        "amenity": "bench",
        "backrest": "yes",
        "material": "stone",
        "seats": "3"
      }
    },
    {
      "type": "node",
      "id": 12438103920,
      "lat": 12.9721761,
      "lon": 77.5368763,
      "tags": {
        "amenity": "bench",
        "material": "stone",
        "seats": "3"
      }
    },
    {
      "type": "node",
      "id": 12438103921,
      "lat": 12.9721698,
      "lon": 77.5368164,
      "tags": {
        "amenity": "bench",
        "backrest": "yes",
        "material": "stone",
        "seats": "3"
      }
    },
    {
      "type": "node",
      "id": 12438103922,
      "lat": 12.9721792,
      "lon": 77.536765,
      "tags": {
        "amenity": "bench",
        "backrest": "yes",
        "material": "stone",
        "seats": "3"
      }
    },
    {
      "type": "node",
      "id": 12438103923,
      "lat": 12.9721982,
      "lon": 77.5367047,
      "tags": {
        "amenity": "bench",
        "backrest": "yes",
        "material": "stone",
        "seats": "3"
      }
    },
    {
      "type": "node",
      "id": 12438103928,
      "lat": 12.9725584,
      "lon": 77.5364302,
      "tags": {
        "amenity": "bench",
        "backrest": "yes",
        "material": "stone",
        "seats": "3"
      }
    },
    {
      "type": "node",
      "id": 12438103929,
      "lat": 12.9725329,
      "lon": 77.5364843,
      "tags": {
        "amenity": "bench",
        "backrest": "yes",
        "material": "stone",
        "seats": "3"
      }
    },
    {
      "type": "node",
      "id": 12438103930,
      "lat": 12.9725165,
      "lon": 77.5365529,
      "tags": {
        "amenity": "bench",
        "backrest": "yes",
        "material": "stone",
        "seats": "3"
      }
    },
    {
      "type": "node",
      "id": 12438103931,
      "lat": 12.9724948,
      "lon": 77.5366181,
      "tags": {
        "amenity": "bench",
        "backrest": "yes",
        "material": "stone",
        "seats": "3"
      }
    },
    {
      "type": "node",
      "id": 12438105895,
      "lat": 12.9749741,
      "lon": 77.5366194,
      "tags": {
        "leisure": "park",
        "name": "Purandara Dasa Park",
        "opening_hours": "05:00-10:00,13:30-20:00"
      }
    },
    {
      "type": "node",
      "id": 12438105919,
      "lat": 12.9599124,
      "lon": 77.5312546,
      "tags": {
        "brand": "Theobroma",
        "brand:wikidata": "Q124374469",
        "check_date": "2024-11-03",
        "delivery": "yes",
        "internet_access": "no",
        "name": "Theobroma",
        "shop": "pastry",
        "takeaway": "yes",
        "wheelchair": "no"
      }
    },
    {
      "type": "node",
      "id": 12438124844,
      "lat": 12.9738165,
      "lon": 77.5365346,
      "tags": {
        "check_date": "2024-12-21",
        "name": "Devi Medical",
        "shop": "medical_supply"
      }
    },
    {
      "type": "node",
      "id": 12438126006,
      "lat": 12.9598638,
      "lon": 77.5334473,
      "tags": {
        "check_date": "2024-05-14",
        "name": "Prabhu Technologies",
        "shop": "computer"
      }
    },
    {
      "type": "node",
      "id": 12438126007,
      "lat": 12.9607659,
      "lon": 77.5335532,
      "tags": {
        "amenity": "cafe",
        "check_date": "2024-05-14",
        "name": "Kuppu's Kafe"
      }
    },
    {
      "type": "node",
      "id": 12438135209,
      "lat": 12.9717272,
      "lon": 77.5366398,
      "tags": {
        "amenity": "clinic",
        "check_date": "2024-12-21",
        "healthcare": "clinic",
        "name": "Dr. Gayatri Taggarai"
      }
    },
    {
      "type": "node",
      "id": 12438135210,
      "lat": 12.9715396,
      "lon": 77.5367817,
      "tags": {
        "amenity": "bank",
        "brand": "Canara Bank",
        "brand:en": "Canara Bank",
        "brand:hi": "केनरा बैंक",
        "brand:kn": "ಕೆನರಾ ಬ್ಯಾಂಕ್",
        "brand:pa": "ਕੇਨਰਾ ਬੈਂਕ",
        "brand:pnb": "کینرا بینک",
        "brand:ur": "کینرا بینک",
        "brand:wikidata": "Q2003777",
        "check_date": "2024-12-21",
        "name": "Canara Bank",
        "name:en": "Canara Bank",
        "name:hi": "केनरा बैंक",
        "name:kn": "ಕೆನರಾ ಬ್ಯಾಂಕ್",
        "name:pa": "ਕੇਨਰਾ ਬੈਂਕ",
        "name:pnb": "کینرا بینک",
        "name:ur": "کینرا بینک"
      }
    },
    {
      "type": "node",
      "id": 12438135211,
      "lat": 12.9717404,
      "lon": 77.5369098,
      "tags": {
        "check_date": "2024-12-21",
        "name": "Prakash Jewellers",
        "shop": "jewelry"
      }
    },
    {
      "type": "node",
      "id": 12438135212,
      "lat": 12.9715465,
      "lon": 77.536606,
      "tags": {
        "check_date": "2024-12-21",
        "name": "New Standard Dry Cleaners",
        "shop": "dry_cleaning"
      }
    },
    {
      "type": "node",
      "id": 12438135213,
      "lat": 12.9709488,
      "lon": 77.5363895,
      "tags": {
        "check_date": "2024-12-21",
        "name": "Parimala Sweets",
        "shop": "pastry"
      }
    },
    {
      "type": "node",
      "id": 12438135215,
      "lat": 12.9712027,
      "lon": 77.5365182,
      "tags": {
        "amenity": "pharmacy",
        "check_date": "2024-12-21",
        "healthcare": "pharmacy",
        "name": "Suraksha Medicals"
      }
    },
    {
      "type": "node",
      "id": 12438141967,
      "lat": 12.9709482,
      "lon": 77.5370202,
      "tags": {
        "check_date": "2024-12-21",
        "name": "Mobile House",
        "shop": "mobile_phone"
      }
    },
    {
      "type": "node",
      "id": 12438141968,
      "lat": 12.969969,
      "lon": 77.5367476,
      "tags": {
        "check_date": "2024-12-21",
        "name": "Madhur Milan",
        "shop": "clothes"
      }
    },
    {
      "type": "node",
      "id": 12438141969,
      "lat": 12.9698881,
      "lon": 77.5367069,
      "tags": {
        "amenity": "bank",
        "brand": "Jana Small Finance Bank",
        "brand:wikidata": "Q65122274",
        "check_date": "2024-12-21",
        "name": "Jana Small Finance Bank"
      }
    },
    {
      "type": "node",
      "id": 12438141970,
      "lat": 12.9697883,
      "lon": 77.536697,
      "tags": {
        "amenity": "bank",
        "check_date": "2024-12-21",
        "name": "Veera Shaiva Sahakari Bank"
      }
    },
    {
      "type": "node",
      "id": 12438141971,
      "lat": 12.9696611,
      "lon": 77.536628,
      "tags": {
        "alt_name": "Kentucky Fried Chicken",
        "alt_name:en": "Kentucky Fried Chicken",
        "alt_name:hi": "केंटुकी फ्राइड चिकन",
        "alt_name:pa": "ਕੈਂਟੁਕੀ ਫ੍ਰਾਈਡ ਚਿਕਨ",
        "alt_name:pnb": "کینٹکی فرائیڈ چکن",
        "alt_name:ur": "کینٹکی فرائیڈ چکن",
        "amenity": "fast_food",
        "brand": "KFC",
        "brand:en": "KFC",
        "brand:hi": "केएफसी",
        "brand:pa": "ਕੇਐਫਸੀ",
        "brand:pnb": "کے ایف سی",
        "brand:ur": "کے ایف سی",
        "brand:wikidata": "Q524757",
        "check_date": "2024-12-21",
        "cuisine": "chicken",
        "name": "KFC",
        "name:en": "KFC",
        "name:hi": "केएफसी",
        "name:pa": "ਕੇਐਫਸੀ",
        "name:pnb": "کے ایف سی",
        "name:ur": "کے ایف سی",
        "takeaway": "yes"
      }
    },
    {
      "type": "node",
      "id": 12438141972,
      "lat": 12.9694604,
      "lon": 77.5365594,
      "tags": {
        "brand": "Peter England",
        "brand:wikidata": "Q19573665",
        "check_date": "2024-12-21",
        "clothes": "men",
        "name": "Peter England",
        "shop": "clothes"
      }
    },
    {
      "type": "node",
      "id": 12438141973,
      "lat": 12.9690096,
      "lon": 77.5363068,
      "tags": {
        "check_date": "2024-12-21",
        "name": "Sri Nandi Times",
        "shop": "watches"
      }
    },
    {
      "type": "node",
      "id": 12438145602,
      "lat": 12.9750248,
      "lon": 77.5365934,
      "tags": {
        "amenity": "bench",
        "armrest": "yes",
        "backrest": "yes",
        "material": "stone"
      }
    },
    {
      "type": "node",
      "id": 12438145603,
      "lat": 12.9752737,
      "lon": 77.536691,
      "tags": {
        "check_date": "2024-12-21",
        "name": "Chai King",
        "shop": "tea"
      }
    },
    {
      "type": "node",
      "id": 12438159320,
      "lat": 12.9727751,
      "lon": 77.5358031,
      "tags": {
        "amenity": "bench",
        "armrest": "yes",
        "backrest": "yes",
        "material": "stone",
        "seats": "3"
      }
    },
    {
      "type": "node",
      "id": 12438159321,
      "lat": 12.9727599,
      "lon": 77.5358556,
      "tags": {
        "amenity": "bench",
        "armrest": "yes",
        "backrest": "yes",
        "material": "stone",
        "seats": "3"
      }
    },
    {
      "type": "node",
      "id": 12438159322,
      "lat": 12.9727176,
      "lon": 77.5358639,
      "tags": {
        "leisure": "fitness_station",
        "sport": "fitness"
      }
    },
    {
      "type": "node",
      "id": 12438159323,
      "lat": 12.9727433,
      "lon": 77.5359075,
      "tags": {
        "amenity": "bench",
        "armrest": "yes",
        "backrest": "yes",
        "material": "stone",
        "seats": "3"
      }
    },
    {
      "type": "node",
      "id": 12438159325,
      "lat": 12.972711,
      "lon": 77.5360097,
      "tags": {
        "amenity": "bench",
        "armrest": "yes",
        "backrest": "yes",
        "material": "stone",
        "seats": "3"
      }
    },
    {
      "type": "node",
      "id": 12438159326,
      "lat": 12.9726938,
      "lon": 77.5360676,
      "tags": {
        "amenity": "bench",
        "armrest": "yes",
        "backrest": "yes",
        "material": "stone",
        "seats": "3"
      }
    },
    {
      "type": "node",
      "id": 12438159327,
      "lat": 12.972675,
      "lon": 77.5361258,
      "tags": {
        "amenity": "bench",
        "armrest": "yes",
        "backrest": "yes",
        "material": "stone",
        "seats": "3"
      }
    },
    {
      "type": "node",
      "id": 12438161401,
      "lat": 12.9749674,
      "lon": 77.5365847,
      "tags": {
        "amenity": "bench",
        "armrest": "yes",
        "backrest": "yes",
        "material": "stone"
      }
    },
    {
      "type": "node",
      "id": 12438161402,
      "lat": 12.9752429,
      "lon": 77.536694,
      "tags": {
        "amenity": "fast_food",
        "check_date": "2024-12-21",
        "name": "Dear Foods"
      }
    },
    {
      "type": "node",
      "id": 12438172873,
      "lat": 12.9726482,
      "lon": 77.5361714,
      "tags": {
        "amenity": "bench",
        "material": "stone",
        "seats": "3"
      }
    },
    {
      "type": "node",
      "id": 12438174653,
      "lat": 12.9725837,
      "lon": 77.536187,
      "tags": {
        "amenity": "bench",
        "material": "stone",
        "seats": "3"
      }
    },
    {
      "type": "node",
      "id": 12438174654,
      "lat": 12.9724604,
      "lon": 77.5361526,
      "tags": {
        "amenity": "bench",
        "material": "stone",
        "seats": "3"
      }
    },
    {
      "type": "node",
      "id": 12438174655,
      "lat": 12.9724134,
      "lon": 77.5360937,
      "tags": {
        "amenity": "bench",
        "material": "stone",
        "seats": "3"
      }
    },
    {
      "type": "node",
      "id": 12438174656,
      "lat": 12.9724301,
      "lon": 77.5360272,
      "tags": {
        "amenity": "bench",
        "armrest": "yes",
        "backrest": "yes",
        "material": "stone",
        "seats": "3"
      }
    },
    {
      "type": "node",
      "id": 12438174657,
      "lat": 12.9724496,
      "lon": 77.5359549,
      "tags": {
        "amenity": "bench",
        "material": "stone",
        "seats": "3"
      }
    },
    {
      "type": "node",
      "id": 12438174658,
      "lat": 12.9724682,
      "lon": 77.535889,
      "tags": {
        "amenity": "bench",
        "armrest": "yes",
        "backrest": "yes",
        "material": "stone",
        "seats": "3"
      }
    },
    {
      "type": "node",
      "id": 12438174659,
      "lat": 12.9724857,
      "lon": 77.5358093,
      "tags": {
        "amenity": "bench",
        "armrest": "yes",
        "backrest": "yes",
        "material": "stone",
        "seats": "3"
      }
    },
    {
      "type": "node",
      "id": 12438174660,
      "lat": 12.9725138,
      "lon": 77.5357419,
      "tags": {
        "amenity": "bench",
        "armrest": "yes",
        "backrest": "yes",
        "material": "stone",
        "seats": "3"
      }
    },
    {
      "type": "node",
      "id": 12438195365,
      "lat": 12.9681631,
      "lon": 77.5360465,
      "tags": {
        "check_date": "2024-12-21",
        "name": "Pragati Jewellers",
        "shop": "jewelry"
      }
    },
    {
      "type": "node",
      "id": 12438195366,
      "lat": 12.9680768,
      "lon": 77.5360116,
      "tags": {
        "amenity": "fast_food",
        "brand": "Burger King",
        "brand:wikidata": "Q177054",
        "check_date": "2024-12-21",
        "cuisine": "burger",
        "name": "Burger King",
        "takeaway": "yes"
      }
    },
    {
      "type": "node",
      "id": 12438195367,
      "lat": 12.9671694,
      "lon": 77.5355723,
      "tags": {
        "amenity": "restaurant",
        "check_date": "2024-12-21",
        "name": "Sri Krishna Vaibhav"
      }
    },
    {
      "type": "node",
      "id": 12438918924,
      "lat": 12.9728334,
      "lon": 77.5353952,
      "tags": {
        "amenity": "bench",
        "armrest": "yes",
        "backrest": "yes",
        "material": "stone",
        "seats": "3"
      }
    },
    {
      "type": "node",
      "id": 12438918925,
      "lat": 12.9728043,
      "lon": 77.5353861,
      "tags": {
        "amenity": "bench",
        "armrest": "yes",
        "backrest": "yes",
        "material": "stone",
        "seats": "3"
      }
    },
    {
      "type": "node",
      "id": 12438918926,
      "lat": 12.9727776,
      "lon": 77.5353774,
      "tags": {
        "amenity": "bench",
        "armrest": "yes",
        "backrest": "yes",
        "material": "stone",
        "seats": "3"
      }
    },
    {
      "type": "node",
      "id": 12438918927,
      "lat": 12.9727452,
      "lon": 77.5353663,
      "tags": {
        "amenity": "bench",
        "armrest": "yes",
        "backrest": "yes",
        "material": "stone",
        "seats": "3"
      }
    },
    {
      "type": "node",
      "id": 12438918928,
      "lat": 12.9727178,
      "lon": 77.535358,
      "tags": {
        "amenity": "bench",
        "armrest": "yes",
        "backrest": "yes",
        "material": "stone",
        "seats": "3"
      }
    },
    {
      "type": "node",
      "id": 12438918929,
      "lat": 12.972691,
      "lon": 77.5353502,
      "tags": {
        "amenity": "bench",
        "armrest": "yes",
        "backrest": "yes",
        "material": "stone",
        "seats": "3"
      }
    },
    {
      "type": "node",
      "id": 12438918930,
      "lat": 12.9726612,
      "lon": 77.5353834,
      "tags": {
        "amenity": "bench",
        "armrest": "yes",
        "backrest": "yes",
        "material": "stone",
        "seats": "3"
      }
    },
    {
      "type": "node",
      "id": 12438918931,
      "lat": 12.9726508,
      "lon": 77.5354153,
      "tags": {
        "amenity": "bench",
        "armrest": "yes",
        "backrest": "yes",
        "material": "stone",
        "seats": "3"
      }
    },
    {
      "type": "node",
      "id": 12438918932,
      "lat": 12.9726426,
      "lon": 77.5354418,
      "tags": {
        "amenity": "bench",
        "armrest": "yes",
        "backrest": "yes",
        "material": "stone",
        "seats": "3"
      }
    },
    {
      "type": "node",
      "id": 12438918933,
      "lat": 12.9726338,
      "lon": 77.5354673,
      "tags": {
        "amenity": "bench",
        "armrest": "yes",
        "backrest": "yes",
        "material": "stone",
        "seats": "3"
      }
    },
    {
      "type": "node",
      "id": 12438918934,
      "lat": 12.9726135,
      "lon": 77.5355377,
      "tags": {
        "amenity": "bench",
        "armrest": "yes",
        "backrest": "yes",
        "material": "stone",
        "seats": "3"
      }
    },
    {
      "type": "node",
      "id": 12438918935,
      "lat": 12.9726008,
      "lon": 77.5355702,
      "tags": {
        "amenity": "bench",
        "armrest": "yes",
        "backrest": "yes",
        "material": "stone",
        "seats": "3"
      }
    },
    {
      "type": "node",
      "id": 12438918936,
      "lat": 12.9725926,
      "lon": 77.5355994,
      "tags": {
        "amenity": "bench",
        "armrest": "yes",
        "backrest": "yes",
        "material": "stone",
        "seats": "3"
      }
    },
    {
      "type": "node",
      "id": 12438918937,
      "lat": 12.9725848,
      "lon": 77.5356265,
      "tags": {
        "amenity": "bench",
        "armrest": "yes",
        "backrest": "yes",
        "material": "stone",
        "seats": "3"
      }
    },
    {
      "type": "node",
      "id": 12438918938,
      "lat": 12.9725959,
      "lon": 77.5356547,
      "tags": {
        "amenity": "bench",
        "armrest": "yes",
        "backrest": "yes",
        "material": "stone",
        "seats": "3"
      }
    },
    {
      "type": "node",
      "id": 12438918939,
      "lat": 12.9726312,
      "lon": 77.5356637,
      "tags": {
        "amenity": "bench",
        "armrest": "yes",
        "backrest": "yes",
        "material": "stone",
        "seats": "3"
      }
    },
    {
      "type": "node",
      "id": 12438918940,
      "lat": 12.9726629,
      "lon": 77.5356748,
      "tags": {
        "amenity": "bench",
        "armrest": "yes",
        "backrest": "yes",
        "material": "stone",
        "seats": "3"
      }
    },
    {
      "type": "node",
      "id": 12438918941,
      "lat": 12.972691,
      "lon": 77.5356835,
      "tags": {
        "amenity": "bench",
        "armrest": "yes",
        "backrest": "yes",
        "material": "stone",
        "seats": "3"
      }
    },
    {
      "type": "node",
      "id": 12438918942,
      "lat": 12.972722,
      "lon": 77.5356919,
      "tags": {
        "amenity": "bench",
        "armrest": "yes",
        "backrest": "yes",
        "material": "stone",
        "seats": "3"
      }
    },
    {
      "type": "node",
      "id": 12438918943,
      "lat": 12.972756,
      "lon": 77.535702,
      "tags": {
        "amenity": "bench",
        "armrest": "yes",
        "backrest": "yes",
        "material": "stone",
        "seats": "3"
      }
    },
    {
      "type": "node",
      "id": 12438918944,
      "lat": 12.9727926,
      "lon": 77.5356724,
      "tags": {
        "amenity": "bench",
        "armrest": "yes",
        "backrest": "yes",
        "material": "stone",
        "seats": "3"
      }
    },
    {
      "type": "node",
      "id": 12438918945,
      "lat": 12.9728027,
      "lon": 77.5356379,
      "tags": {
        "amenity": "bench",
        "armrest": "yes",
        "backrest": "yes",
        "material": "stone",
        "seats": "3"
      }
    },
    {
      "type": "node",
      "id": 12438918946,
      "lat": 12.9728102,
      "lon": 77.5356118,
      "tags": {
        "amenity": "bench",
        "armrest": "yes",
        "backrest": "yes",
        "material": "stone",
        "seats": "3"
      }
    },
    {
      "type": "node",
      "id": 12438918947,
      "lat": 12.9728204,
      "lon": 77.5355779,
      "tags": {
        "amenity": "bench",
        "armrest": "yes",
        "backrest": "yes",
        "material": "stone",
        "seats": "3"
      }
    },
    {
      "type": "node",
      "id": 12438918948,
      "lat": 12.9728406,
      "lon": 77.5355206,
      "tags": {
        "amenity": "bench",
        "armrest": "yes",
        "backrest": "yes",
        "material": "stone",
        "seats": "3"
      }
    },
    {
      "type": "node",
      "id": 12438918949,
      "lat": 12.9728491,
      "lon": 77.535487,
      "tags": {
        "amenity": "bench",
        "armrest": "yes",
        "backrest": "yes",
        "material": "stone",
        "seats": "3"
      }
    },
    {
      "type": "node",
      "id": 12438918950,
      "lat": 12.9728592,
      "lon": 77.5354552,
      "tags": {
        "amenity": "bench",
        "armrest": "yes",
        "backrest": "yes",
        "material": "stone",
        "seats": "3"
      }
    },
    {
      "type": "node",
      "id": 12438918951,
      "lat": 12.9728645,
      "lon": 77.5354307,
      "tags": {
        "amenity": "bench",
        "armrest": "yes",
        "backrest": "yes",
        "material": "stone",
        "seats": "3"
      }
    },
    {
      "type": "node",
      "id": 12438918952,
      "lat": 12.9727524,
      "lon": 77.5357264,
      "tags": {
        "amenity": "bench",
        "armrest": "yes",
        "backrest": "yes",
        "material": "stone",
        "seats": "3"
      }
    },
    {
      "type": "node",
      "id": 12438918953,
      "lat": 12.9727357,
      "lon": 77.5357217,
      "tags": {
        "amenity": "bench",
        "armrest": "yes",
        "backrest": "yes",
        "material": "stone",
        "seats": "3"
      }
    },
    {
      "type": "node",
      "id": 12438918954,
      "lat": 12.9727184,
      "lon": 77.5357154,
      "tags": {
        "amenity": "bench",
        "armrest": "yes",
        "backrest": "yes",
        "material": "stone",
        "seats": "3"
      }
    },
    {
      "type": "node",
      "id": 12438918955,
      "lat": 12.9726988,
      "lon": 77.5357097,
      "tags": {
        "amenity": "bench",
        "armrest": "yes",
        "backrest": "yes",
        "material": "stone",
        "seats": "3"
      }
    },
    {
      "type": "node",
      "id": 12438918956,
      "lat": 12.9726805,
      "lon": 77.535704,
      "tags": {
        "amenity": "bench",
        "armrest": "yes",
        "backrest": "yes",
        "material": "stone",
        "seats": "3"
      }
    },
    {
      "type": "node",
      "id": 12438918957,
      "lat": 12.9726501,
      "lon": 77.5356932,
      "tags": {
        "amenity": "bench",
        "armrest": "yes",
        "backrest": "yes",
        "material": "stone",
        "seats": "3"
      }
    },
    {
      "type": "node",
      "id": 12438918958,
      "lat": 12.9726246,
      "lon": 77.5356852,
      "tags": {
        "amenity": "bench",
        "armrest": "yes",
        "backrest": "yes",
        "material": "stone",
        "seats": "3"
      }
    },
    {
      "type": "node",
      "id": 12438918959,
      "lat": 12.9726132,
      "lon": 77.5357405,
      "tags": {
        "amenity": "bench",
        "armrest": "yes",
        "backrest": "yes",
        "material": "stone",
        "seats": "3"
      }
    },
    {
      "type": "node",
      "id": 12438918960,
      "lat": 12.972638,
      "lon": 77.5357479,
      "tags": {
        "amenity": "bench",
        "armrest": "yes",
        "backrest": "yes",
        "material": "stone",
        "seats": "3"
      }
    },
    {
      "type": "node",
      "id": 12438918961,
      "lat": 12.9726665,
      "lon": 77.5357556,
      "tags": {
        "amenity": "bench",
        "armrest": "yes",
        "backrest": "yes",
        "material": "stone",
        "seats": "3"
      }
    },
    {
      "type": "node",
      "id": 12438918962,
      "lat": 12.9726857,
      "lon": 77.5357633,
      "tags": {
        "amenity": "bench",
        "armrest": "yes",
        "backrest": "yes",
        "material": "stone",
        "seats": "3"
      }
    },
    {
      "type": "node",
      "id": 12438918963,
      "lat": 12.9727053,
      "lon": 77.5357703,
      "tags": {
        "amenity": "bench",
        "armrest": "yes",
        "backrest": "yes",
        "material": "stone",
        "seats": "3"
      }
    },
    {
      "type": "node",
      "id": 12438918964,
      "lat": 12.9727204,
      "lon": 77.5357764,
      "tags": {
        "amenity": "bench",
        "armrest": "yes",
        "backrest": "yes",
        "material": "stone",
        "seats": "3"
      }
    },
    {
      "type": "node",
      "id": 12438918965,
      "lat": 12.9727341,
      "lon": 77.5357801,
      "tags": {
        "amenity": "bench",
        "armrest": "yes",
        "backrest": "yes",
        "material": "stone",
        "seats": "3"
      }
    },
    {
      "type": "node",
      "id": 12441719330,
      "lat": 12.9727913,
      "lon": 77.5382432,
      "tags": {
        "amenity": "bench"
      }
    },
    {
      "type": "node",
      "id": 12443448754,
      "lat": 12.9727618,
      "lon": 77.5358718,
      "tags": {
        "blind": "limited",
        "fitness_station": "fitness_station",
        "leisure": "fitness_station",
        "sport": "fitness",
        "wheelchair": "no"
      }
    },
    {
      "type": "node",
      "id": 12443448756,
      "lat": 12.9726769,
      "lon": 77.5361057,
      "tags": {
        "blind": "no",
        "fitness_station": "yes",
        "fixme": "Not usable?",
        "leisure": "fitness_station",
        "sport": "fitness",
        "wheelchair": "no"
      }
    },
    {
      "type": "node",
      "id": 12443448761,
      "lat": 12.9724883,
      "lon": 77.5358653,
      "tags": {
        "blind": "no",
        "fitness_station": "yes",
        "leisure": "fitness_station",
        "sport": "fitness",
        "wheelchair": "no"
      }
    },
    {
      "type": "node",
      "id": 12444388320,
      "lat": 12.9714184,
      "lon": 77.5367259,
      "tags": {
        "amenity": "post_box",
        "operator": "India Post",
        "operator:wikidata": "Q3519720"
      }
    },
    {
      "type": "node",
      "id": 12444395062,
      "lat": 12.9742648,
      "lon": 77.5353873,
      "tags": {
        "check_date": "2024-12-21",
        "name": "Seema Shoppe",
        "shop": "supermarket"
      }
    },
    {
      "type": "node",
      "id": 12444395070,
      "lat": 12.9717451,
      "lon": 77.5375453,
      "tags": {
        "amenity": "clock",
        "display": "analog",
        "support": "pole"
      }
    },
    {
      "type": "node",
      "id": 12873482029,
      "lat": 12.9579424,
      "lon": 77.533767,
      "tags": {
        "addr:floor": "G",
        "amenity": "restaurant",
        "check_date": "2025-05-29",
        "cuisine": "regional",
        "diet:vegetarian": "yes",
        "level": "0",
        "name": "Udupi Brahmins Kitchen",
        "name:en": "Udupi Brahmins Kitchen"
      }
    },
    {
      "type": "way",
      "id": 48876294,
      "center": {
        "lat": 12.9617616,
        "lon": 77.5408873
      },
      "tags": {
        "leisure": "swimming_pool",
        "name": "Vijayanagar Swimming Pool",
        "name:kn": "ವಿಜಯನಗರ ಈಜು ಕೊಳ",
        "sport": "swimming"
      }
    },
    {
      "type": "way",
      "id": 54147265,
      "center": {
        "lat": 12.9703429,
        "lon": 77.5427519
      },
      "tags": {
        "leisure": "park"
      }
    },
    {
      "type": "way",
      "id": 54147278,
      "center": {
        "lat": 12.9697226,
        "lon": 77.5441412
      },
      "tags": {
        "amenity": "school",
        "name": "Government School",
        "name:kn": "ಸರ್ಕಾರಿ ಶಾಲೆ"
      }
    },
    {
      "type": "way",
      "id": 54147956,
      "center": {
        "lat": 12.9646102,
        "lon": 77.5387904
      },
      "tags": {
        "amenity": "place_of_worship",
        "building": "yes",
        "name": "Sankashta Hara Ganapati Temple",
        "name:kn": "ಸಂಕಷ್ಟ ಹರ ಗಣಪತಿ ದೇವಸ್ಥಾನ",
        "religion": "hindu"
      }
    },
    {
      "type": "way",
      "id": 54147967,
      "center": {
        "lat": 12.9667564,
        "lon": 77.5395051
      },
      "tags": {
        "amenity": "college",
        "name": "Government Degree College",
        "name:kn": "ಸರ್ಕಾರಿ ಪದವಿ ಕಾಲೇಜು"
      }
    },
    {
      "type": "way",
      "id": 54147968,
      "center": {
        "lat": 12.9624023,
        "lon": 77.5409565
      },
      "tags": {
        "leisure": "park",
        "name": "Hampinagar Park"
      }
    },
    {
      "type": "way",
      "id": 54147983,
      "center": {
        "lat": 12.9655212,
        "lon": 77.5416734
      },
      "tags": {
        "amenity": "school"
      }
    },
    {
      "type": "way",
      "id": 54148010,
      "center": {
        "lat": 12.9646952,
        "lon": 77.5365751
      },
      "tags": {
        "leisure": "park"
      }
    },
    {
      "type": "way",
      "id": 54148021,
      "center": {
        "lat": 12.9590229,
        "lon": 77.5364157
      },
      "tags": {
        "leisure": "park",
        "name": "Aalada Mara (Banyan Tree)",
        "name:kn": "ಆಲದ ಮರ"
      }
    },
    {
      "type": "way",
      "id": 54148030,
      "center": {
        "lat": 12.9645623,
        "lon": 77.5417803
      },
      "tags": {
        "amenity": "school"
      }
    },
    {
      "type": "way",
      "id": 54148031,
      "center": {
        "lat": 12.9589791,
        "lon": 77.5354787
      },
      "tags": {
        "amenity": "bus_station",
        "bus": "yes",
        "name": "Hampinagara Bus Station",
        "name:en": "Hampinagara Bus Station",
        "name:kn": "ಹಂಪಿನಗರ ಬಸ್ ನಿಲ್ದಾಣ",
        "public_transport": "station"
      }
    },
    {
      "type": "way",
      "id": 54148046,
      "center": {
        "lat": 12.9647097,
        "lon": 77.5383618
      },
      "tags": {
        "addr:city": "Bangalore",
        "addr:postcode": "560040",
        "addr:street": "5th Main Vijaynagar",
        "leisure": "playground"
      }
    },
    {
      "type": "way",
      "id": 54148067,
      "center": {
        "lat": 12.9693758,
        "lon": 77.5400481
      },
      "tags": {
        "leisure": "park"
      }
    },
    {
      "type": "way",
      "id": 54148075,
      "center": {
        "lat": 12.9632376,
        "lon": 77.5361075
      },
      "tags": {
        "leisure": "park"
      }
    },
    {
      "type": "way",
      "id": 137930290,
      "center": {
        "lat": 12.9654668,
        "lon": 77.534673
      },
      "tags": {
        "alt_name": "Vijayanagar TTMC",
        "amenity": "bus_station",
        "check_date": "2024-01-10",
        "name": "Vijayanagar Bus Stand",
        "name:kn": "ವಿಜಯನಗರ ಬಸ್ ನಿಲ್ದಾಣ",
        "network": "BMTC",
        "official_name": "Rastrakavi Kuvempu Bus Stand",
        "operator": "BMTC",
        "public_transport": "station"
      }
    },
    {
      "type": "way",
      "id": 138391170,
      "center": {
        "lat": 12.9625287,
        "lon": 77.5269488
      },
      "tags": {
        "leisure": "park"
      }
    },
    {
      "type": "way",
      "id": 138391190,
      "center": {
        "lat": 12.9654598,
        "lon": 77.5296602
      },
      "tags": {
        "leisure": "park"
      }
    },
    {
      "type": "way",
      "id": 169718958,
      "center": {
        "lat": 12.9725584,
        "lon": 77.5298576
      },
      "tags": {
        "leisure": "park"
      }
    },
    {
      "type": "way",
      "id": 169798850,
      "center": {
        "lat": 12.9738654,
        "lon": 77.5341928
      },
      "tags": {
        "leisure": "park"
      }
    },
    {
      "type": "way",
      "id": 169798851,
      "center": {
        "lat": 12.9728991,
        "lon": 77.5339091
      },
      "tags": {
        "leisure": "park"
      }
    },
    {
      "type": "way",
      "id": 169800534,
      "center": {
        "lat": 12.971915,
        "lon": 77.5336323
      },
      "tags": {
        "leisure": "playground"
      }
    },
    {
      "type": "way",
      "id": 169800537,
      "center": {
        "lat": 12.9712816,
        "lon": 77.5334239
      },
      "tags": {
        "leisure": "park"
      }
    },
    {
      "type": "way",
      "id": 169800538,
      "center": {
        "lat": 12.970928,
        "lon": 77.5333063
      },
      "tags": {
        "leisure": "park"
      }
    },
    {
      "type": "way",
      "id": 169800539,
      "center": {
        "lat": 12.972681,
        "lon": 77.5356957
      },
      "tags": {
        "leisure": "park",
        "name": "MC Layout Park"
      }
    },
    {
      "type": "way",
      "id": 169800644,
      "center": {
        "lat": 12.9735457,
        "lon": 77.5364135
      },
      "tags": {
        "amenity": "place_of_worship",
        "check_date": "2023-10-18",
        "landuse": "religious",
        "name": "Ganesha Temple",
        "name:kn": "ಗಣಪತಿ ದೇವಸ್ಥಾನ",
        "religion": "hindu",
        "wheelchair": "no"
      }
    },
    {
      "type": "way",
      "id": 169800649,
      "center": {
        "lat": 12.9737868,
        "lon": 77.5366941
      },
      "tags": {
        "amenity": "place_of_worship",
        "name": "St Anthony Church",
        "name:kn": "ಸೇಂಟ್ ಆಂತೋನಿ ಚರ್ಚ್",
        "religion": "christian"
      }
    },
    {
      "type": "way",
      "id": 169800997,
      "center": {
        "lat": 12.9726416,
        "lon": 77.538907
      },
      "tags": {
        "addr:housename": "Old Ashoka Hotel",
        "addr:street": "7th Main",
        "name": "Food World",
        "name:kn": "ಫುಡ್ ವರ್ಲ್ಡ್",
        "shop": "supermarket"
      }
    },
    {
      "type": "way",
      "id": 169800998,
      "center": {
        "lat": 12.9739796,
        "lon": 77.5372636
      },
      "tags": {
        "addr:city": "Bangalore",
        "addr:housenumber": "54/54",
        "addr:postcode": "560040",
        "addr:street": "1st Floor, 8th Main Road, M.C.Layout, Vijayanagar",
        "amenity": "bank",
        "brand": "Union Bank of India",
        "brand:wikidata": "Q2004078",
        "building": "yes",
        "name": "Union Bank of India",
        "name:kn": "ಕಾರ್ಪರೇಷನ್ ಬ್ಯಾಂಕ್"
      }
    },
    {
      "type": "way",
      "id": 169806414,
      "center": {
        "lat": 12.9639081,
        "lon": 77.5305351
      },
      "tags": {
        "amenity": "place_of_worship",
        "building": "yes",
        "name": "Shri Kailaseshwara Temple",
        "name:kn": "ಶ್ರೀ ಕೈಲಾಸೇಶ್ವರ ದೇವಸ್ಥಾನ",
        "religion": "hindu"
      }
    },
    {
      "type": "way",
      "id": 169809630,
      "center": {
        "lat": 12.9732753,
        "lon": 77.5408321
      },
      "tags": {
        "leisure": "park"
      }
    },
    {
      "type": "way",
      "id": 169810235,
      "center": {
        "lat": 12.973452,
        "lon": 77.540004
      },
      "tags": {
        "leisure": "park"
      }
    },
    {
      "type": "way",
      "id": 169816627,
      "center": {
        "lat": 12.9651167,
        "lon": 77.5434098
      },
      "tags": {
        "amenity": "college",
        "name": "Ayurvedic Medical College",
        "name:kn": "ಆಯುರ್ವೇದ ವೈದ್ಯಕೀಯ ಕಾಲೇಜು"
      }
    },
    {
      "type": "way",
      "id": 173575215,
      "center": {
        "lat": 12.9673224,
        "lon": 77.5398823
      },
      "tags": {
        "leisure": "swimming_pool",
        "sport": "swimming"
      }
    },
    {
      "type": "way",
      "id": 173575217,
      "center": {
        "lat": 12.9676612,
        "lon": 77.5399126
      },
      "tags": {
        "leisure": "pitch",
        "sport": "tennis"
      }
    },
    {
      "type": "way",
      "id": 173579771,
      "center": {
        "lat": 12.9740798,
        "lon": 77.5310831
      },
      "tags": {
        "amenity": "school",
        "landuse": "education",
        "name": "Sarvodaya School",
        "name:kn": "ಸರ್ವೋದಯ ಶಾಲೆ"
      }
    },
    {
      "type": "way",
      "id": 222974585,
      "center": {
        "lat": 12.9713813,
        "lon": 77.5368513
      },
      "tags": {
        "amenity": "post_office",
        "building": "yes",
        "name": "Vijayanagar Post office",
        "name:kn": "ವಿಜಯನಗರ ಅಂಚೆ ಕಛೇರಿ"
      }
    },
    {
      "type": "way",
      "id": 310619327,
      "center": {
        "lat": 12.9648355,
        "lon": 77.5327684
      },
      "tags": {
        "addr:city": "Bangalore",
        "addr:street": "Subbanna Garden road",
        "amenity": "place_of_worship",
        "building": "yes",
        "name": "Shanimahatma Temple",
        "name:kn": "ಶನಿ ಮಹಾತ್ಮ ದೇವಸ್ಥಾನ",
        "religion": "hindu"
      }
    },
    {
      "type": "way",
      "id": 346540948,
      "center": {
        "lat": 12.9635215,
        "lon": 77.529315
      },
      "tags": {
        "amenity": "place_of_worship",
        "name": "Ganesha Temple",
        "name:kn": "ಗಣೇಶ ದೇವಸ್ಥಾನ",
        "religion": "hindu"
      }
    },
    {
      "type": "way",
      "id": 346747900,
      "center": {
        "lat": 12.9686402,
        "lon": 77.5376703
      },
      "tags": {
        "addr:city": "Bengaluru",
        "addr:postcode": "560040",
        "addr:street": "1st Main Road, RPC Layout",
        "building": "retail",
        "building:levels": "2",
        "name": "Mahindra FirstCry",
        "shop": "kids",
        "smoking": "no"
      }
    },
    {
      "type": "way",
      "id": 471446263,
      "center": {
        "lat": 12.9703936,
        "lon": 77.535139
      },
      "tags": {
        "leisure": "park",
        "name": "M C Layout Park",
        "name:kn": "ಎಂ ಸಿ ಲೇಔಟ್ ಉದ್ಯಾನವನ"
      }
    },
    {
      "type": "way",
      "id": 498155233,
      "center": {
        "lat": 12.974991,
        "lon": 77.5363178
      },
      "tags": {
        "leisure": "park"
      }
    },
    {
      "type": "way",
      "id": 737530277,
      "center": {
        "lat": 12.9676013,
        "lon": 77.5270562
      },
      "tags": {
        "leisure": "park"
      }
    },
    {
      "type": "way",
      "id": 737530279,
      "center": {
        "lat": 12.9681633,
        "lon": 77.5284161
      },
      "tags": {
        "brand": "HOPCOMS",
        "brand:wikidata": "Q22908959",
        "building": "yes",
        "name": "HOPCOMS",
        "name:kn": "ಹಾಪ್ ಕಾಮ್ಸ್",
        "shop": "greengrocer"
      }
    },
    {
      "type": "way",
      "id": 1238631158,
      "center": {
        "lat": 12.9635289,
        "lon": 77.5417158
      },
      "tags": {
        "amenity": "language_school",
        "name": "Shree Bharathi Vidhyalaya"
      }
    },
    {
      "type": "way",
      "id": 1238631225,
      "center": {
        "lat": 12.9606449,
        "lon": 77.5408253
      },
      "tags": {
        "amenity": "police",
        "name": "Vijayanagara Traffic Police Station",
        "name:kn": "ವಿಜಯನಗರ ಸಂಚಾರ ಆರಕ್ಷಕ ಠಾಣೆ"
      }
    },
    {
      "type": "way",
      "id": 1238631229,
      "center": {
        "lat": 12.961117,
        "lon": 77.5409245
      },
      "tags": {
        "leisure": "sports_centre",
        "name": "Hampinagar Sports Club"
      }
    },
    {
      "type": "way",
      "id": 1238631230,
      "center": {
        "lat": 12.9617827,
        "lon": 77.5408235
      },
      "tags": {
        "leisure": "sports_centre",
        "name": "Vijaynagar Aquatic Centre"
      }
    },
    {
      "type": "way",
      "id": 1238631243,
      "center": {
        "lat": 12.9675631,
        "lon": 77.5396799
      },
      "tags": {
        "club": "sport",
        "leisure": "sports_centre",
        "name": "Vijayanagar Club"
      }
    },
    {
      "type": "way",
      "id": 1254612789,
      "center": {
        "lat": 12.9595713,
        "lon": 77.529389
      },
      "tags": {
        "leisure": "park"
      }
    },
    {
      "type": "way",
      "id": 1257058561,
      "center": {
        "lat": 12.9619005,
        "lon": 77.5333452
      },
      "tags": {
        "amenity": "place_of_worship",
        "building": "temple",
        "religion": "hindu"
      }
    },
    {
      "type": "way",
      "id": 1258216423,
      "center": {
        "lat": 12.9722747,
        "lon": 77.5337258
      },
      "tags": {
        "leisure": "park"
      }
    },
    {
      "type": "way",
      "id": 1258216441,
      "center": {
        "lat": 12.9698249,
        "lon": 77.5279044
      },
      "tags": {
        "landuse": "recreation_ground",
        "leisure": "sports_centre",
        "name": "Krantiveera Sangolli Rayanna Ground",
        "name:etymology:wikidata": "Q10983724",
        "name:kn": "ಕ್ರಾಂತಿವೀರ ಸಂಗೊಳ್ಳಿ ರಾಯಣ್ಣ ಮೈದಾನ"
      }
    },
    {
      "type": "way",
      "id": 1258216444,
      "center": {
        "lat": 12.9663839,
        "lon": 77.5265345
      },
      "tags": {
        "leisure": "park"
      }
    },
    {
      "type": "way",
      "id": 1283097923,
      "center": {
        "lat": 12.9599035,
        "lon": 77.5406171
      },
      "tags": {
        "addr:city": "Bengaluru",
        "addr:postcode": "560104",
        "addr:street": "Railway Parallel Rd, Chowdappa Layout, RPC Layout, Bapuji Nagar",
        "amenity": "place_of_worship",
        "building": "yes",
        "name": "Shri Bhuneela Venkateshwara Swami Temple",
        "religion": "hindu"
      }
    },
    {
      "type": "way",
      "id": 1283097924,
      "center": {
        "lat": 12.9587754,
        "lon": 77.5396655
      },
      "tags": {
        "addr:city": "Bengaluru",
        "addr:postcode": "560104",
        "addr:street": "Railway Parallel Rd, Chowdappa Layout, Vijaya Nagar II Stage",
        "amenity": "place_of_worship",
        "building": "yes",
        "internet_access": "no",
        "name": "Sri Siddhivinayak Temple",
        "network": "IR",
        "operator": "SWR",
        "public_transport": "halt",
        "ref": "KNDV",
        "religion": "hindu",
        "train": "yes"
      }
    },
    {
      "type": "way",
      "id": 1311159734,
      "center": {
        "lat": 12.9717698,
        "lon": 77.537714
      },
      "tags": {
        "air_conditioned": "yes",
        "alt_name": "Vijayanagar Market",
        "amenity": "marketplace",
        "building": "retail",
        "building:levels": "0",
        "building:levels:underground": "1",
        "layer": "-1",
        "local_ref": "Vijayanagar Fruit & Vegetable Market",
        "name": "Sri Krishnadevaraya Palike Bazaar",
        "start_date": "2024-08-25"
      }
    },
    {
      "type": "way",
      "id": 1341450596,
      "center": {
        "lat": 12.9723686,
        "lon": 77.536601
      },
      "tags": {
        "leisure": "park",
        "name": "MC Layout Park",
        "opening_hours": "Mo-Su 05:00-22:00"
      }
    },
    {
      "type": "way",
      "id": 1341451305,
      "center": {
        "lat": 12.9727263,
        "lon": 77.5355278
      },
      "tags": {
        "leisure": "playground"
      }
    },
    {
      "type": "way",
      "id": 1342034576,
      "center": {
        "lat": 12.9701289,
        "lon": 77.535939
      },
      "tags": {
        "amenity": "school",
        "landuse": "education"
      }
    },
    {
      "type": "way",
      "id": 1343672607,
      "center": {
        "lat": 12.9738423,
        "lon": 77.5381484
      },
      "tags": {
        "amenity": "place_of_worship",
        "landuse": "religious",
        "name": "Ganesha Temple",
        "name:kn": "ಗಣೇಶ ದೇವಸ್ಥಾನ",
        "religion": "hindu",
        "wheelchair": "no"
      }
    },
    {
      "type": "way",
      "id": 1343694333,
      "center": {
        "lat": 12.9741462,
        "lon": 77.5307125
      },
      "tags": {
        "addr:city": "Bangalore",
        "addr:housename": "Amarjyothi Nagar",
        "addr:postcode": "560040",
        "addr:street": "Nagarabhavi Road",
        "amenity": "place_of_worship",
        "name": "Shiva Temple",
        "name:kn": "ಶಿವ ದೇವಸ್ಥಾನ",
        "religion": "hindu"
      }
    },
    {
      "type": "way",
      "id": 1343694357,
      "center": {
        "lat": 12.972617,
        "lon": 77.5335921
      },
      "tags": {
        "leisure": "sports_centre"
      }
    },
    {
      "type": "way",
      "id": 1343694376,
      "center": {
        "lat": 12.9749836,
        "lon": 77.5327686
      },
      "tags": {
        "amenity": "college",
        "landuse": "education",
        "name": "KTSV PU College"
      }
    },
    {
      "type": "way",
      "id": 1343740699,
      "center": {
        "lat": 12.9721617,
        "lon": 77.5291013
      },
      "tags": {
        "amenity": "place_of_worship",
        "name": "Anjaneya Swami Temple",
        "name:kn": "ಆಂಜನೇಯ ಸ್ವಾಮಿ ದೇವಸ್ಥಾನ",
        "religion": "hindu",
        "source": "Survey"
      }
    },
    {
      "type": "way",
      "id": 1343761938,
      "center": {
        "lat": 12.9702948,
        "lon": 77.538012
      },
      "tags": {
        "amenity": "college"
      }
    },
    {
      "type": "way",
      "id": 1343761945,
      "center": {
        "lat": 12.9705095,
        "lon": 77.5376858
      },
      "tags": {
        "amenity": "place_of_worship",
        "landuse": "religious",
        "name": "Kodanda Rama Temple",
        "name:kn": "ಕೋದಂಡರಾಮ ದೇವಸ್ಥಾನ",
        "religion": "hindu"
      }
    },
    {
      "type": "way",
      "id": 1343761959,
      "center": {
        "lat": 12.967483,
        "lon": 77.53726
      },
      "tags": {
        "leisure": "park"
      }
    },
    {
      "type": "way",
      "id": 1390722993,
      "center": {
        "lat": 12.9592412,
        "lon": 77.5356745
      },
      "tags": {
        "amenity": "school"
      }
    }
  ]
}