{
  "area_name": "Vijayashree Layout",
  "osm_id": 10761808764,
  "osm_type": "node",
  "place_type": "neighbourhood",
  "amenity_count": 41,
  "amenities": [
    {
      "type": "node",
      "id": 3799002971,
      "lat": 12.9130425,
      "lon": 77.4852213,
      "tags": {
        "amenity": "place_of_worship",
        "religion": "hindu"
      }
    },
    {
      "type": "node",
      "id": 4559404789,
      "lat": 12.9113106,
      "lon": 77.4847857,
      "tags": {
        "amenity": "atm",
        "brand": "Axis Bank",
        "brand:wikidata": "Q2003549",
        "operator": "Axis Bank",
        "operator:wikidata": "Q2003549"
      }
    },
    {
      "type": "node",
      "id": 5075573721,
      "lat": 12.9220858,
      "lon": 77.4953504,
      "tags": {
        "addr:housenumber": "#749/1",
        "addr:postcode": "560059",
        "addr:street": "Bangalore-Mysore Road",
        "amenity": "restaurant",
        "cuisine": "fine_dining",
        "diet:vegetarian": "yes",
        "email": "raihospitality24@gmail.com",
        "internet_access": "wlan",
        "name": "royal andaaz",
        "name:en": "royal andaaz",
        "name:hi": "रॉयल अन्दाज़",
        "opening_hours": "Mo-Su 07:30-17:00, 18:00-23:00",
        "operator": "Nikita rai;Rai hospitality",
        "phone": "+91 90714 20001"
      }
    },
    {
      "type": "node",
      "id": 6254207185,
      "lat": 12.9102591,
      "lon": 77.4901432,
      "tags": {
        "amenity": "place_of_worship",
        "name": "Pushpa Sadan",
        "religion": "christian"
      }
    },
    {
      "type": "node",
      "id": 7289130131,
      "lat": 12.9221378,
      "lon": 77.4924543,
      "tags": {
        "access": "permissive",
        "amenity": "parking",
        "parking": "surface"
      }
    },
    {
      "type": "node",
      "id": 7289130132,
      "lat": 12.9213666,
      "lon": 77.4923176,
      "tags": {
        "leisure": "sports_centre"
      }
    },
    {
      "type": "node",
      "id": 7289130133,
      "lat": 12.9214777,
      "lon": 77.4925268,
      "tags": {
        "access": "private",
        "leisure": "swimming_pool"
      }
    },
    {
      "type": "node",
      "id": 7289130265,
      "lat": 12.9109393,
      "lon": 77.4843889,
      "tags": {
        "amenity": "bank",
        "atm": "yes",
        "brand": "UCO Bank",
        "brand:wikidata": "Q2005310",
        "name": "UCO Bank",
        "name:kn": "ಯೂಕೊ ಬ್ಯಾಂಕ್",
        "operator": "UCO Bank"
      }
    },
    {
      "type": "node",
      "id": 9192964457,
      "lat": 12.9201996,
      "lon": 77.4856137,
      "tags": {
        "amenity": "fuel",
        "brand": "Nayara",
        "brand:wikidata": "Q1360409",
        "compressed_air": "yes",
        "name": "Nayara"
      }
    },
    {
      "type": "node",
      "id": 9654247748,
      "lat": 12.9102334,
      "lon": 77.483414,
      "tags": {
        "amenity": "pharmacy",
        "brand": "Apollo Pharmacy",
        "brand:wikidata": "Q62562612",
        "healthcare": "pharmacy",
        "name": "Apollo Pharmacy"
      }
    },
    {
      "type": "node",
      "id": 9654247749,
      "lat": 12.9141602,
      "lon": 77.4863912,
      "tags": {
        "access": "yes",
        "amenity": "toilets",
        "fee": "no",
        "wheelchair": "limited"
      }
    },
    {
      "type": "node",
      "id": 11248318179,
      "lat": 12.9106208,
      "lon": 77.4835688,
      "tags": {
        "amenity": "school",
        "check_date": "2023-10-08",
        "operator:type": "government"
      }
    },
    {
      "type": "node",
      "id": 11248318180,
      "lat": 12.9115175,
      "lon": 77.4846294,
      "tags": {
        "amenity": "atm",
        "brand": "IDFC First Bank",
        "brand:wikidata": "Q22031467",
        "check_date": "2023-10-08",
        "operator": "IDFC First Bank",
        "operator:wikidata": "Q22031467"
      }
    },
    {
      "type": "node",
      "id": 12507331058,
      "lat": 12.9138844,
      "lon": 77.4870121,
      "tags": {
        "amenity": "restaurant",
        "name": "Kadamba Veg"
      }
    },
    {
      "type": "node",
      "id": 12762416666,
      "lat": 12.9174925,
      "lon": 77.4854264,
      "tags": {
        "amenity": "parking"
      }
    },
    {
      "type": "way",
      "id": 347572849,
      "center": {
        "lat": 12.9121751,
        "lon": 77.4847186
      },
      "tags": {
        "amenity": "fuel",
        "brand": "Bharat Petroleum",
        "brand:wikidata": "Q854826",
        "building": "roof",
        "compressed_air": "yes",
        "name": "Bharat Petroleum",
        "name:kn": "ಭಾರತ್ ಪೆಟ್ರೋಲಿಯಂ",
        "operator": "Bharat Petroleum"
      }
    },
    {
      "type": "way",
      "id": 347597626,
      "center": {
        "lat": 12.9107092,
        "lon": 77.4838249
      },
      "tags": {
        "amenity": "place_of_worship",
        "building": "yes",
        "check_date": "2023-10-08",
        "religion": "muslim"
      }
    },
    {
      "type": "way",
      "id": 437563235,
      "center": {
        "lat": 12.9137066,
        "lon": 77.4870405
      },
      "tags": {
        "alt_name": "Kengeri Transit and Traffic Management Center",
        "amenity": "bus_station",
        "bus": "yes",
        "name": "Kengeri TTMC",
        "name:kn": "ಕೆಂಗೇರಿ",
        "operator": "BMTC",
        "public_transport": "station"
      }
    },
    {
      "type": "way",
      "id": 437563236,
      "center": {
        "lat": 12.9127328,
        "lon": 77.4856958
      },
      "tags": {
        "amenity": "fuel",
        "name": "Madhu Petrol / Gas Station",
        "operator": "Indianoil"
      }
    },
    {
      "type": "way",
      "id": 437563237,
      "center": {
        "lat": 12.9224218,
        "lon": 77.4889292
      },
      "tags": {
        "amenity": "school",
        "name": "National Public School Kengeri",
        "name:kn": "ರಾಷ್ಟ್ರೀಯ ಸಾರ್ವಜನಿಕ ಶಾಲೆ ಕೆಂಗೆರಿ"
      }
    },
    {
      "type": "way",
      "id": 726382792,
      "center": {
        "lat": 12.9201193,
        "lon": 77.4883303
      },
      "tags": {
        "access": "private",
        "leisure": "pitch",
        "name": "Volleyball Court",
        "name:kn": "ವಾಲಿಬಾಲ್ ಅಂಗಣ",
        "sport": "volleyball"
      }
    },
    {
      "type": "way",
      "id": 726411363,
      "center": {
        "lat": 12.9219676,
        "lon": 77.4885539
      },
      "tags": {
        "leisure": "park"
      }
    },
    {
      "type": "way",
      "id": 726464577,
      "center": {
        "lat": 12.9199516,
        "lon": 77.4887636
      },
      "tags": {
        "building": "yes",
        "layer": "1",
        "name": "Nandini Milk Parlor",
        "name:kn": "ನಂದಿನಿ ಹಾಲಿನ ಅಂಗಡಿ",
        "shop": "bakery"
      }
    },
    {
      "type": "way",
      "id": 726476899,
      "center": {
        "lat": 12.9191609,
        "lon": 77.4909124
      },
      "tags": {
        "building": "yes",
        "shop": "yes"
      }
    },
    {
      "type": "way",
      "id": 726511114,
      "center": {
        "lat": 12.9193183,
        "lon": 77.490068
      },
      "tags": {
        "building": "yes",
        "name": "Nandini Milk Parlor",
        "name:kn": "ನಂದಿನಿ ಹಾಲಿನ ಅಂಗಡಿ",
        "shop": "dairy"
      }
    },
    {
      "type": "way",
      "id": 726511404,
      "center": {
        "lat": 12.9192243,
        "lon": 77.4900843
      },
      "tags": {
        "amenity": "place_of_worship",
        "building": "yes",
        "name": "Ganapathy Temple",
        "name:kn": "ಗಣಪತಿ ದೇವಸ್ಥಾನ",
        "religion": "hindu"
      }
    },
    {
      "type": "way",
      "id": 726511541,
      "center": {
        "lat": 12.9196133,
        "lon": 77.4910425
      },
      "tags": {
        "leisure": "park"
      }
    },
    {
      "type": "way",
      "id": 726511875,
      "center": {
        "lat": 12.9204091,
        "lon": 77.4907494
      },
      "tags": {
        "leisure": "park"
      }
    },
    {
      "type": "way",
      "id": 726512742,
      "center": {
        "lat": 12.9200929,
        "lon": 77.48844
      },
      "tags": {
        "leisure": "pitch",
        "name": "Tennis Bda",
        "sport": "tennis"
      }
    },
    {
      "type": "way",
      "id": 726521045,
      "center": {
        "lat": 12.9117658,
        "lon": 77.4938608
      },
      "tags": {
        "leisure": "park"
      }
    },
    {
      "type": "way",
      "id": 780585935,
      "center": {
        "lat": 12.9225718,
        "lon": 77.4891291
      },
      "tags": {
        "leisure": "park"
      }
    },
    {
      "type": "way",
      "id": 781766935,
      "center": {
        "lat": 12.9162491,
        "lon": 77.4825373
      },
      "tags": {
        "addr:city": "Kengeri Satellite Town",
        "addr:postcode": "560060",
        "amenity": "bus_station",
        "building": "yes",
        "bus": "yes",
        "name": "Kengeri Uppanagara Bus Stand",
        "name:kn": "ಕೆಂಗೇರಿ ಉಪನಗರ",
        "public_transport": "station"
      }
    },
    {
      "type": "way",
      "id": 1157248001,
      "center": {
        "lat": 12.922681,
        "lon": 77.4927976
      },
      "tags": {
        "leisure": "park"
      }
    },
    {
      "type": "way",
      "id": 1157248009,
      "center": {
        "lat": 12.9102556,
        "lon": 77.4956636
      },
      "tags": {
        "amenity": "monastery",
        "fixme": "Boundaries of the area",
        "landuse": "religious",
        "name": "Sawan Durbar Ashram",
        "religion": "hindu"
      }
    },
    {
      "type": "way",
      "id": 1157248024,
      "center": {
        "lat": 12.9097857,
        "lon": 77.4899319
      },
      "tags": {
        "amenity": "school",
        "name": "St. Theresa's School",
        "name:kn": "ಸಂತ ತೆರೇಸರ ಶಾಲೆ"
      }
    },
    {
      "type": "way",
      "id": 1219569970,
      "center": {
        "lat": 12.9178655,
        "lon": 77.4992311
      },
      "tags": {
        "access": "permissive",
        "amenity": "parking",
        "parking": "surface"
      }
    },
    {
      "type": "way",
      "id": 1286468299,
      "center": {
        "lat": 12.9192586,
        "lon": 77.4987668
      },
      "tags": {
        "access": "permissive",
        "amenity": "parking",
        "parking": "surface"
      }
    },
    {
      "type": "way",
      "id": 1364433561,
      "center": {
        "lat": 12.9049222,
        "lon": 77.4948419
      },
      "tags": {
        "amenity": "college",
        "name": "St. Mary's Global Academy"
      }
    },
    {
      "type": "way",
      "id": 1365489282,
      "center": {
        "lat": 12.9085275,
        "lon": 77.4875244
      },
      "tags": {
        "amenity": "fuel"
      }
    },
    {
      "type": "way",
      "id": 1365489293,
      "center": {
        "lat": 12.9102301,
        "lon": 77.4854866
      },
      "tags": {
        "leisure": "pitch",
        "sport": "tennis"
      }
    },
    {
      "type": "way",
      "id": 1378353242,
      "center": {
        "lat": 12.9133971,
        "lon": 77.4850732
      },
      "tags": {
        "amenity": "shelter",
        "building": "yes"
      }
    }
  ]
}