{
  "area_name": "Vijinapura",
  "osm_id": 19883252,
  "osm_type": "relation",
  "place_type": "administrative",
  "amenity_count": 3,
  "amenities": [
    {
      "type": "node",
      "id": 6947293198,
      "lat": 13.0029877,
      "lon": 77.675265,
      "tags": {
        "addr:district": "Bengaluru Urban",
        "addr:full": "Iti Layour 2nd Cross Vijinapura",
        "addr:postcode": "560016",
        "addr:state": "Karnataka",
        "amenity": "clinic",
        "name": "Sharada Poly Clinic",
        "source": "OpenGovernmentData"
      }
    },
    {
      "type": "node",
      "id": 6991356430,
      "lat": 13.0064373,
      "lon": 77.6720657,
      "tags": {
        "addr:street": "4th Cross Road, RR Layout",
        "amenity": "place_of_worship",
        "name": "Om Shakti Temple",
        "name:kn": "ಓಂ ಶಕ್ತಿ ದೇವಸ್ಥಾನ",
        "religion": "hindu"
      }
    },
    {
      "type": "node",
      "id": 6991363292,
      "lat": 13.0053129,
      "lon": 77.6749344,
      "tags": {
        "addr:street": "Chandrashekar Layout",
        "amenity": "school",
        "name": "Jubilee School"
      }
    }
  ]
}