{
  "area_name": "Vinayaka Nagara",
  "osm_id": 10310636385,
  "osm_type": "node",
  "place_type": "neighbourhood",
  "amenity_count": 48,
  "amenities": [
    {
      "type": "node",
      "id": 1462230328,
      "lat": 13.0815389,
      "lon": 77.5475289,
      "tags": {
        "amenity": "place_of_worship",
        "name": "Noorani Masjid",
        "name:kn": "ನೂರಾನಿ ಮಸೀದಿ",
        "religion": "muslim"
      }
    },
    {
      "type": "node",
      "id": 1462231357,
      "lat": 13.0813926,
      "lon": 77.5483765,
      "tags": {
        "amenity": "pharmacy",
        "dispensing": "yes",
        "name": "MedPlus Pharmacy"
      }
    },
    {
      "type": "node",
      "id": 1462232206,
      "lat": 13.0806193,
      "lon": 77.5482263,
      "tags": {
        "amenity": "hospital",
        "name": "London Hospital"
      }
    },
    {
      "type": "node",
      "id": 1462443864,
      "lat": 13.0900453,
      "lon": 77.54119,
      "tags": {
        "name": "Brothers Supermarket",
        "shop": "supermarket"
      }
    },
    {
      "type": "node",
      "id": 1463452754,
      "lat": 13.0829889,
      "lon": 77.5489026,
      "tags": {
        "addr:district": "Bengaluru Urban",
        "addr:full": "M S Palya, Bharath Nagar,Hesaraghatta Main Road,Vidyaranyapura Post",
        "addr:postcode": "560097",
        "addr:state": "Karnataka",
        "amenity": "hospital",
        "name": "Nagappa Hadli Hospital",
        "name:kn": "ನಾಗಪ್ಪ ಹದ್ಲಿ",
        "source": "OpenGovernmentData"
      }
    },
    {
      "type": "node",
      "id": 1463453140,
      "lat": 13.0827434,
      "lon": 77.5484962,
      "tags": {
        "amenity": "pharmacy",
        "dispensing": "yes",
        "name": "Maruti Medicals"
      }
    },
    {
      "type": "node",
      "id": 1463453722,
      "lat": 13.0816565,
      "lon": 77.5480509,
      "tags": {
        "name": "City Lights Supermarket",
        "shop": "supermarket"
      }
    },
    {
      "type": "node",
      "id": 1463455209,
      "lat": 13.0813456,
      "lon": 77.5482816,
      "tags": {
        "amenity": "atm",
        "brand": "State Bank of India",
        "brand:wikidata": "Q1340361",
        "operator": "State Bank of India",
        "operator:wikidata": "Q1340361",
        "short_name": "SBI"
      }
    },
    {
      "type": "node",
      "id": 1463786356,
      "lat": 13.0823148,
      "lon": 77.5483971,
      "tags": {
        "amenity": "atm",
        "fee": "HDFC"
      }
    },
    {
      "type": "node",
      "id": 7227496251,
      "lat": 13.0817003,
      "lon": 77.5486667,
      "tags": {
        "name": "Cloud 8",
        "shop": "clothes"
      }
    },
    {
      "type": "node",
      "id": 7227496252,
      "lat": 13.0820883,
      "lon": 77.5486372,
      "tags": {
        "amenity": "fast_food",
        "name": "Oyalo Pizza"
      }
    },
    {
      "type": "node",
      "id": 7227496253,
      "lat": 13.0823012,
      "lon": 77.5490677,
      "tags": {
        "name": "Sangeetha",
        "name:kn": "ಸಂಗೀತ",
        "shop": "electronics"
      }
    },
    {
      "type": "node",
      "id": 7227496270,
      "lat": 13.0825154,
      "lon": 77.550201,
      "tags": {
        "name": "Red Rose Furnitures",
        "shop": "furniture"
      }
    },
    {
      "type": "node",
      "id": 7227496271,
      "lat": 13.0845049,
      "lon": 77.5527571,
      "tags": {
        "amenity": "bank",
        "atm": "yes",
        "brand": "State Bank of India",
        "brand:wikidata": "Q1340361",
        "name": "State Bank of India",
        "name:kn": "ಭಾರತೀಯ ಸ್ಟೇಟ್ ಬ್ಯಾಂಕ್",
        "operator": "State Bank of India",
        "short_name": "SBI"
      }
    },
    {
      "type": "node",
      "id": 7577248183,
      "lat": 13.083354,
      "lon": 77.553461,
      "tags": {
        "addr:district": "Bengaluru Urban",
        "addr:full": "Vidyaranyapura, Bengaluru",
        "addr:postcode": "560097",
        "addr:state": "Karnataka",
        "amenity": "clinic",
        "name": "Shama Charitable Clinic",
        "source": "Local Knowledge"
      }
    },
    {
      "type": "node",
      "id": 7577248184,
      "lat": 13.081777,
      "lon": 77.54091,
      "tags": {
        "addr:district": "Bengaluru Urban",
        "addr:full": "Varadharaja Nagar, Varadarajaswamy Layout, Singapura, Bengaluru",
        "addr:postcode": "560097",
        "addr:state": "Karnataka",
        "amenity": "hospital",
        "name": "Aveksha Hospital",
        "source": "Local Knowledge"
      }
    },
    {
      "type": "node",
      "id": 7577248190,
      "lat": 13.0817852,
      "lon": 77.5476581,
      "tags": {
        "addr:district": "Bengaluru Urban",
        "addr:full": "Vinayak Nagar, Vidyaranyapura, Bengaluru",
        "addr:postcode": "560097",
        "addr:state": "Karnataka",
        "amenity": "clinic",
        "name": "Om Sai Clinic",
        "source": "Local Knowledge"
      }
    },
    {
      "type": "node",
      "id": 7577248196,
      "lat": 13.0897212,
      "lon": 77.5442226,
      "tags": {
        "addr:district": "Bengaluru Urban",
        "addr:full": "Vidyaranyapura, Bengaluru",
        "addr:postcode": "560097",
        "addr:state": "Karnataka",
        "amenity": "clinic",
        "name": "Sri Gopalan Clinic",
        "source": "Local Knowledge"
      }
    },
    {
      "type": "node",
      "id": 7577248209,
      "lat": 13.0832219,
      "lon": 77.5484278,
      "tags": {
        "addr:district": "Bengaluru Urban",
        "addr:full": "Vidyaranyapura, Bengaluru",
        "addr:postcode": "560097",
        "addr:state": "Karnataka",
        "amenity": "clinic",
        "name": "Honey Homeopathy Clinic",
        "source": "Local Knowledge"
      }
    },
    {
      "type": "node",
      "id": 7577248213,
      "lat": 13.0813479,
      "lon": 77.5483953,
      "tags": {
        "addr:district": "Bengaluru Urban",
        "addr:full": "Vidyaranyapura, Bengaluru",
        "addr:postcode": "560097",
        "addr:state": "Karnataka",
        "amenity": "clinic",
        "name": "Global Health Centre",
        "source": "Local Knowledge"
      }
    },
    {
      "type": "node",
      "id": 7577248214,
      "lat": 13.0892527,
      "lon": 77.5388313,
      "tags": {
        "addr:district": "Bengaluru Urban",
        "addr:full": "Sadguru Layout, Kanshiram Nagar, Bengaluru",
        "addr:postcode": "560097",
        "addr:state": "Karnataka",
        "amenity": "clinic",
        "name": "Sanjeevani Health Care",
        "source": "Local Knowledge"
      }
    },
    {
      "type": "node",
      "id": 7577248220,
      "lat": 13.0847291,
      "lon": 77.5522358,
      "tags": {
        "addr:district": "Bengaluru Urban",
        "addr:full": "Chikkabettahalli, Adityanagar, Vidyaranyapura, Bengaluru",
        "addr:postcode": "560097",
        "addr:state": "Karnataka",
        "amenity": "clinic",
        "name": "Sarwari Poly Clinic",
        "source": "Local Knowledge"
      }
    },
    {
      "type": "node",
      "id": 7577248248,
      "lat": 13.087007,
      "lon": 77.547943,
      "tags": {
        "addr:district": "Bengaluru Urban",
        "addr:full": "Adityanagar, Vidyaranyapura, Bengaluru",
        "addr:postcode": "560097",
        "addr:state": "Karnataka",
        "amenity": "dentist",
        "name": "Floss and Gloss Dental Clinic",
        "source": "Local Knowledge"
      }
    },
    {
      "type": "node",
      "id": 7577248259,
      "lat": 13.0819154,
      "lon": 77.5489331,
      "tags": {
        "addr:district": "Bengaluru Urban",
        "addr:full": "Vidyaranyapura, Yelahanka, Bengaluru",
        "addr:postcode": "560097",
        "addr:state": "Karnataka",
        "amenity": "clinic",
        "name": "Satish Poly Clinic",
        "source": "Local Knowledge"
      }
    },
    {
      "type": "node",
      "id": 7577248262,
      "lat": 13.0885791,
      "lon": 77.5455057,
      "tags": {
        "addr:district": "Bengaluru Urban",
        "addr:full": "Vinayak Nagar, Vidyaranyapura, Bengaluru",
        "addr:postcode": "560097",
        "addr:state": "Karnataka",
        "amenity": "hospital",
        "name": "Shree Sai Hospital",
        "source": "Local Knowledge"
      }
    },
    {
      "type": "node",
      "id": 8188056969,
      "lat": 13.0845693,
      "lon": 77.551989,
      "tags": {
        "addr:full": "9, Yelahanka Rd, Eshwari Layout C.B Halli, Mohammed Sab Palya, Vidyaranyapura, Bengaluru, Karnataka",
        "addr:state": "Karnataka",
        "amenity": "restaurant",
        "name": "Bismillah Hotel",
        "name:kn": "ಬಿಸ್ಮಿಲ್ಲಾ"
      }
    },
    {
      "type": "node",
      "id": 11752018039,
      "lat": 13.0814795,
      "lon": 77.5373612,
      "tags": {
        "amenity": "shelter",
        "shelter_type": "gazebo"
      }
    },
    {
      "type": "node",
      "id": 12005861272,
      "lat": 13.0822105,
      "lon": 77.5422422,
      "tags": {
        "name": "New Bharath Store",
        "shop": "yes"
      }
    },
    {
      "type": "way",
      "id": 133000232,
      "center": {
        "lat": 13.0897175,
        "lon": 77.5458768
      },
      "tags": {
        "amenity": "college",
        "landuse": "education",
        "name": "Sambhram Institute of Technology"
      }
    },
    {
      "type": "way",
      "id": 413529793,
      "center": {
        "lat": 13.0785456,
        "lon": 77.5371849
      },
      "tags": {
        "amenity": "place_of_worship",
        "religion": "hindu"
      }
    },
    {
      "type": "way",
      "id": 413529794,
      "center": {
        "lat": 13.085631,
        "lon": 77.5473552
      },
      "tags": {
        "amenity": "place_of_worship",
        "name": "Missionaries of Charity",
        "religion": "christian"
      }
    },
    {
      "type": "way",
      "id": 413529795,
      "center": {
        "lat": 13.0856703,
        "lon": 77.5492593
      },
      "tags": {
        "amenity": "school",
        "name": "Shrada Vidyanikethan",
        "name:kn": "ಶ್ರಧ್ಧ ವಿದ್ಯಾನಿಕೇತನ"
      }
    },
    {
      "type": "way",
      "id": 413529796,
      "center": {
        "lat": 13.0848132,
        "lon": 77.5490275
      },
      "tags": {
        "amenity": "school",
        "check_date": "2024-12-24",
        "name": "National Public School, Vidyaranyapura"
      }
    },
    {
      "type": "way",
      "id": 675649185,
      "center": {
        "lat": 13.0808972,
        "lon": 77.5497211
      },
      "tags": {
        "leisure": "park"
      }
    },
    {
      "type": "way",
      "id": 774649685,
      "center": {
        "lat": 13.0811284,
        "lon": 77.548344
      },
      "tags": {
        "amenity": "fuel",
        "brand": "Indian Oil",
        "fuel:diesel": "yes",
        "name": "Indian Oil",
        "name:kn": "ಇಂಡಿಯನ್ ಆಯಿಲ್",
        "operator": "Indian Oil"
      }
    },
    {
      "type": "way",
      "id": 1127727174,
      "center": {
        "lat": 13.0911878,
        "lon": 77.5400421
      },
      "tags": {
        "amenity": "events_venue",
        "landuse": "commercial",
        "name": "The King's Meadows"
      }
    },
    {
      "type": "way",
      "id": 1218027507,
      "center": {
        "lat": 13.0806092,
        "lon": 77.5528965
      },
      "tags": {
        "addr:city": "Bangalore",
        "addr:district": "Bengaluru Urban",
        "addr:postcode": "560097",
        "addr:street": "Jamia Masjid Rd",
        "amenity": "place_of_worship",
        "building": "yes",
        "denomination": "sunni",
        "name": "Jama Masjid MS Palya",
        "name:kn": "ಜಮ ಮಸ್ಜಿದ್",
        "religion": "muslim"
      }
    },
    {
      "type": "way",
      "id": 1265029267,
      "center": {
        "lat": 13.0812425,
        "lon": 77.5374196
      },
      "tags": {
        "leisure": "park"
      }
    },
    {
      "type": "way",
      "id": 1382977431,
      "center": {
        "lat": 13.0807146,
        "lon": 77.5415933
      },
      "tags": {
        "amenity": "place_of_worship",
        "building": "yes",
        "religion": "hindu"
      }
    },
    {
      "type": "way",
      "id": 1382977432,
      "center": {
        "lat": 13.0805596,
        "lon": 77.5373733
      },
      "tags": {
        "leisure": "playground"
      }
    },
    {
      "type": "way",
      "id": 1382977474,
      "center": {
        "lat": 13.0841927,
        "lon": 77.5414117
      },
      "tags": {
        "leisure": "pitch",
        "sport": "tennis"
      }
    },
    {
      "type": "way",
      "id": 1382977476,
      "center": {
        "lat": 13.0846042,
        "lon": 77.541693
      },
      "tags": {
        "leisure": "pitch",
        "sport": "basketball"
      }
    },
    {
      "type": "way",
      "id": 1382977477,
      "center": {
        "lat": 13.0845993,
        "lon": 77.5413685
      },
      "tags": {
        "access": "private",
        "leisure": "swimming_pool"
      }
    },
    {
      "type": "way",
      "id": 1382977862,
      "center": {
        "lat": 13.091178,
        "lon": 77.5405017
      },
      "tags": {
        "access": "private",
        "amenity": "parking",
        "parking": "surface"
      }
    },
    {
      "type": "way",
      "id": 1383201558,
      "center": {
        "lat": 13.0847527,
        "lon": 77.5532305
      },
      "tags": {
        "amenity": "fuel",
        "brand": "Hindustan Petroleum",
        "name": "Hindustan Petroleum",
        "operator": "Hindustan Petroleum"
      }
    },
    {
      "type": "way",
      "id": 1383201559,
      "center": {
        "lat": 13.0849784,
        "lon": 77.553489
      },
      "tags": {
        "amenity": "fuel"
      }
    },
    {
      "type": "way",
      "id": 1419417227,
      "center": {
        "lat": 13.088134,
        "lon": 77.5465619
      },
      "tags": {
        "amenity": "place_of_worship",
        "building": "yes",
        "religion": "hindu"
      }
    },
    {
      "type": "way",
      "id": 1419417232,
      "center": {
        "lat": 13.0875061,
        "lon": 77.543024
      },
      "tags": {
        "leisure": "park"
      }
    }
  ]
}