{
  "area_name": "Viniyaka Layout",
  "osm_id": 12977362841,
  "osm_type": "node",
  "place_type": "neighbourhood",
  "amenity_count": 5,
  "amenities": [
    {
      "type": "node",
      "id": 686669764,
      "lat": 13.1378317,
      "lon": 77.4785554,
      "tags": {
        "amenity": "restaurant"
      }
    },
    {
      "type": "node",
      "id": 9958953298,
      "lat": 13.1384922,
      "lon": 77.4786333,
      "tags": {
        "amenity": "post_office"
      }
    },
    {
      "type": "node",
      "id": 12638326821,
      "lat": 13.1344338,
      "lon": 77.4692869,
      "tags": {
        "amenity": "bench",
        "backrest": "no"
      }
    },
    {
      "type": "node",
      "id": 12638335786,
      "lat": 13.1344108,
      "lon": 77.4693894,
      "tags": {
        "amenity": "bench",
        "backrest": "no"
      }
    },
    {
      "type": "way",
      "id": 348114212,
      "center": {
        "lat": 13.1376313,
        "lon": 77.4794228
      },
      "tags": {
        "amenity": "bus_station",
        "building": "yes",
        "bus": "yes",
        "name": "Hesaghatta Bus Terminal",
        "public_transport": "station"
      }
    }
  ]
}