{
  "area_name": "Virannapalya",
  "osm_id": 10739618731,
  "osm_type": "node",
  "place_type": "neighbourhood",
  "amenity_count": 134,
  "amenities": [
    {
      "type": "node",
      "id": 331399283,
      "lat": 13.0435474,
      "lon": 77.6213088,
      "tags": {
        "amenity": "fountain"
      }
    },
    {
      "type": "node",
      "id": 929273701,
      "lat": 13.0468945,
      "lon": 77.618867,
      "tags": {
        "access": "private",
        "amenity": "parking",
        "fee": "no",
        "name": "Nokia Solutions and Networks",
        "park_ride": "no",
        "parking": "multi-storey"
      }
    },
    {
      "type": "node",
      "id": 1160646223,
      "lat": 13.0376828,
      "lon": 77.6128514,
      "tags": {
        "landuse": "industrial",
        "name": "Mahiti Infotech",
        "name:kn": "ಮಾಹಿತಿ ಇನ್ಫೊಟೆಕ್",
        "shop": "computer"
      }
    },
    {
      "type": "node",
      "id": 1370760927,
      "lat": 13.0395856,
      "lon": 77.6074967,
      "tags": {
        "amenity": "post_office",
        "name": "Kanakanagar Post Office"
      }
    },
    {
      "type": "node",
      "id": 1370764173,
      "lat": 13.0390602,
      "lon": 77.6092188,
      "tags": {
        "leisure": "yoga",
        "name": "SMART Foundation Yoga Centre"
      }
    },
    {
      "type": "node",
      "id": 1370777380,
      "lat": 13.0318378,
      "lon": 77.6124561,
      "tags": {
        "amenity": "bench",
        "designation": "BDA Park"
      }
    },
    {
      "type": "node",
      "id": 1370783346,
      "lat": 13.0383104,
      "lon": 77.6072338,
      "tags": {
        "amenity": "pharmacy",
        "brand": "MedPlus",
        "brand:wikidata": "Q65684234",
        "healthcare": "pharmacy",
        "name": "Medplus",
        "name:kn": "ಮೆಡ್‍ಪ್ಲಸ್"
      }
    },
    {
      "type": "node",
      "id": 1370783363,
      "lat": 13.0365701,
      "lon": 77.6064886,
      "tags": {
        "amenity": "school",
        "wheelchair": "yes"
      }
    },
    {
      "type": "node",
      "id": 3207060489,
      "lat": 13.0413885,
      "lon": 77.6223832,
      "tags": {
        "amenity": "restaurant",
        "cuisine": "Hyderabadi_Biryani",
        "name": "Biryani House"
      }
    },
    {
      "type": "node",
      "id": 4445614215,
      "lat": 13.0373064,
      "lon": 77.6052013,
      "tags": {
        "addr:city": "Bangalore",
        "addr:housenumber": "20",
        "addr:postcode": "560032",
        "addr:street": "1st Main Rd, Kanaka Nagar, Hebbal,",
        "amenity": "restaurant",
        "cuisine": "regional",
        "delivery": "yes",
        "name": "Al Khair Restaurant",
        "opening_hours": "11:00-23:00",
        "phone": "080 2365 1666",
        "smoking": "no",
        "takeaway": "yes",
        "website": "https://www.alkhair.in/"
      }
    },
    {
      "type": "node",
      "id": 4488400190,
      "lat": 13.0400633,
      "lon": 77.6061723,
      "tags": {
        "addr:city": "bangalore",
        "addr:postcode": "560032",
        "addr:street": "Kanaka Nagar 1st Main Road",
        "name": "Daisy's Beauty Parlour",
        "opening_hours": "10:00-19:00",
        "phone": "097400 07553",
        "shop": "beauty"
      }
    },
    {
      "type": "node",
      "id": 4973098285,
      "lat": 13.0408726,
      "lon": 77.620387,
      "tags": {
        "amenity": "fast_food",
        "brand": "Domino's",
        "brand:ks": "ڈومینوز",
        "brand:pa": "ਡੋਮੀਨੋਜ਼",
        "brand:ur": "ڈومینوز",
        "brand:wikidata": "Q839466",
        "brand:wikipedia": "en:Domino's Pizza",
        "check_date": "2025-06-14",
        "cuisine": "pizza",
        "name": "Domino's",
        "name:ks": "ڈومینوز",
        "name:pa": "ਡੋਮੀਨੋਜ਼",
        "name:ur": "ڈومینوز",
        "takeaway": "yes"
      }
    },
    {
      "type": "node",
      "id": 4973098286,
      "lat": 13.0408987,
      "lon": 77.6207343,
      "tags": {
        "amenity": "fast_food",
        "name": "Meghana Biryani"
      }
    },
    {
      "type": "node",
      "id": 5286949431,
      "lat": 13.0413718,
      "lon": 77.6218064,
      "tags": {
        "amenity": "fuel",
        "brand": "Indian Oil",
        "brand:wikidata": "Q1289348",
        "brand:wikipedia": "en:Indian Oil Corporation",
        "name": "Indian Oil",
        "name:kn": "ಇಂಡಿಯನ್ ಆಯಿಲ್"
      }
    },
    {
      "type": "node",
      "id": 5286949432,
      "lat": 13.0409375,
      "lon": 77.6223743,
      "tags": {
        "amenity": "atm",
        "brand": "State Bank of India",
        "brand:wikidata": "Q1340361",
        "name": "State Bank of India",
        "operator": "State Bank of India",
        "operator:wikidata": "Q1340361",
        "short_name": "SBI"
      }
    },
    {
      "type": "node",
      "id": 5295004584,
      "lat": 13.0412616,
      "lon": 77.6149928,
      "tags": {
        "amenity": "place_of_worship",
        "religion": "hindu"
      }
    },
    {
      "type": "node",
      "id": 5295004585,
      "lat": 13.0427958,
      "lon": 77.6092209,
      "tags": {
        "name": "Tata Motors",
        "shop": "car"
      }
    },
    {
      "type": "node",
      "id": 5418365221,
      "lat": 13.0452657,
      "lon": 77.6209798,
      "tags": {
        "amenity": "bank",
        "brand": "Axis Bank",
        "brand:wikidata": "Q2003549",
        "name": "Axis Bank",
        "name:kn": "ಆಕ್ಸಿಸ್ ಬ್ಯಾಂಕ್"
      }
    },
    {
      "type": "node",
      "id": 5418989025,
      "lat": 13.0451508,
      "lon": 77.6209471,
      "tags": {
        "amenity": "fast_food",
        "brand": "Domino's",
        "brand:ks": "ڈومینوز",
        "brand:pa": "ਡੋਮੀਨੋਜ਼",
        "brand:ur": "ڈومینوز",
        "brand:wikidata": "Q839466",
        "brand:wikipedia": "en:Domino's Pizza",
        "cuisine": "pizza",
        "name": "Domino's",
        "name:kn": "ಡಾಮಿನೋಸ್",
        "name:ks": "ڈومینوز",
        "name:pa": "ਡੋਮੀਨੋਜ਼",
        "name:ur": "ڈومینوز",
        "takeaway": "yes"
      }
    },
    {
      "type": "node",
      "id": 5418989026,
      "lat": 13.0447975,
      "lon": 77.6208872,
      "tags": {
        "alt_name": "Dunkin' Donuts",
        "amenity": "fast_food",
        "brand": "Dunkin'",
        "brand:wikidata": "Q847743",
        "brand:wikipedia": "en:Dunkin' Donuts",
        "cuisine": "donut;coffee_shop",
        "name": "Dunkin'",
        "takeaway": "yes"
      }
    },
    {
      "type": "node",
      "id": 5418989524,
      "lat": 13.0448386,
      "lon": 77.620895,
      "tags": {
        "amenity": "cafe",
        "brand": "Cafe Coffee Day",
        "brand:wikidata": "Q5017235",
        "cuisine": "coffee_shop",
        "name": "Cafe Coffee Day",
        "name:kn": "ಕಫೆ ಕಾಫಿ ಡೇ",
        "takeaway": "yes"
      }
    },
    {
      "type": "node",
      "id": 5420443541,
      "lat": 13.0446064,
      "lon": 77.6209898,
      "tags": {
        "amenity": "restaurant"
      }
    },
    {
      "type": "node",
      "id": 5420443542,
      "lat": 13.0447475,
      "lon": 77.6210234,
      "tags": {
        "level": "1",
        "shop": "hairdresser"
      }
    },
    {
      "type": "node",
      "id": 5420443543,
      "lat": 13.0446352,
      "lon": 77.6208812,
      "tags": {
        "amenity": "pub",
        "internet_access": "no",
        "level": "1",
        "name": "Slug"
      }
    },
    {
      "type": "node",
      "id": 7216699819,
      "lat": 13.0429694,
      "lon": 77.6089333,
      "tags": {
        "check_date": "2025-06-14",
        "name": "Maruti Suzuki Nexa",
        "shop": "car",
        "wheelchair": "no"
      }
    },
    {
      "type": "node",
      "id": 7216699835,
      "lat": 13.0412578,
      "lon": 77.6168941,
      "tags": {
        "addr:city": "Bengaluru",
        "addr:country": "IN",
        "addr:street": "Outer Ring Road",
        "addr:suburb": "Nagavara",
        "amenity": "coworking_space",
        "fee": "yes",
        "name": "Workshaala",
        "office": "coworking",
        "website": "https://workshaala.com"
      }
    },
    {
      "type": "node",
      "id": 7216699930,
      "lat": 13.0414329,
      "lon": 77.620731,
      "tags": {
        "amenity": "fast_food",
        "cuisine": "juice",
        "name": "Lassi Shop"
      }
    },
    {
      "type": "node",
      "id": 7232653689,
      "lat": 13.0409247,
      "lon": 77.6225422,
      "tags": {
        "amenity": "fast_food",
        "name": "La Zizone"
      }
    },
    {
      "type": "node",
      "id": 7234485476,
      "lat": 13.0417014,
      "lon": 77.6094979,
      "tags": {
        "amenity": "fountain"
      }
    },
    {
      "type": "node",
      "id": 7256985308,
      "lat": 13.0407965,
      "lon": 77.616876,
      "tags": {
        "amenity": "atm",
        "brand": "State Bank of India",
        "brand:wikidata": "Q1340361",
        "operator": "State Bank of India",
        "operator:wikidata": "Q1340361",
        "short_name": "SBI"
      }
    },
    {
      "type": "node",
      "id": 7256985313,
      "lat": 13.040834,
      "lon": 77.6197195,
      "tags": {
        "amenity": "restaurant",
        "name": "Ancient Hyderabad"
      }
    },
    {
      "type": "node",
      "id": 7256985314,
      "lat": 13.0413703,
      "lon": 77.6219407,
      "tags": {
        "amenity": "restaurant",
        "name": "Food Castle"
      }
    },
    {
      "type": "node",
      "id": 7577248211,
      "lat": 13.040826,
      "lon": 77.6189605,
      "tags": {
        "addr:district": "Bengaluru Urban",
        "addr:full": "Nagawara, Bengaluru",
        "addr:postcode": "560045",
        "addr:state": "Karnataka",
        "amenity": "clinic",
        "fixme": "Find actual location",
        "name": "KMC Multispeciality Clinic",
        "source": "Local Knowledge"
      }
    },
    {
      "type": "node",
      "id": 9527967749,
      "lat": 13.0415766,
      "lon": 77.6204588,
      "tags": {
        "amenity": "charging_station"
      }
    },
    {
      "type": "node",
      "id": 9590333379,
      "lat": 13.0414094,
      "lon": 77.6215772,
      "tags": {
        "amenity": "restaurant",
        "cuisine": "indian",
        "name": "Biriyani Zone"
      }
    },
    {
      "type": "node",
      "id": 9811266167,
      "lat": 13.0426637,
      "lon": 77.6195428,
      "tags": {
        "addr:city": "Bengaluru",
        "addr:country": "IN",
        "addr:postcode": "560045",
        "addr:street": "Outer Ring Road",
        "addr:suburb": "Nagavara",
        "amenity": "coworking_space",
        "branch": "Manyata",
        "brand": "WeWork",
        "brand:wikidata": "Q19995004",
        "fee": "yes",
        "name": "WeWork Manyata",
        "office": "coworking",
        "opening_hours": "24/7",
        "operator": "WeWork",
        "website": "https://wework.co.in/bangalore/hebbal/manyata-tech-park/"
      }
    },
    {
      "type": "node",
      "id": 9828082732,
      "lat": 13.0439323,
      "lon": 77.6134542,
      "tags": {
        "addr:city": "Bengaluru",
        "addr:country": "IN",
        "addr:suburb": "Nagawara",
        "amenity": "coworking_space",
        "fee": "yes",
        "name": "smartworks - Karle Town Centre",
        "office": "coworking",
        "operator": "smartworks",
        "website": "https://www.smartworksoffice.com/"
      }
    },
    {
      "type": "node",
      "id": 9912823305,
      "lat": 13.0432294,
      "lon": 77.6096253,
      "tags": {
        "amenity": "waste_basket"
      }
    },
    {
      "type": "node",
      "id": 10032026861,
      "lat": 13.040585,
      "lon": 77.6196662,
      "tags": {
        "amenity": "restaurant",
        "contact:instagram": "thewoodpegger",
        "name": "The Woodpegger"
      }
    },
    {
      "type": "node",
      "id": 11119054523,
      "lat": 13.0356097,
      "lon": 77.6096075,
      "tags": {
        "amenity": "restaurant",
        "cuisine": "indian",
        "diet:vegetarian": "yes",
        "name": "Durga shree Samruddhi Grand"
      }
    },
    {
      "type": "node",
      "id": 11119054524,
      "lat": 13.0334824,
      "lon": 77.6090904,
      "tags": {
        "name": "Families Supermarket",
        "payment:cash": "yes",
        "payment:coins": "yes",
        "payment:contactless": "yes",
        "payment:credit_cards": "yes",
        "payment:debit_cards": "yes",
        "payment:maestro": "yes",
        "payment:mastercard": "yes",
        "payment:notes": "yes",
        "payment:visa": "yes",
        "shop": "supermarket"
      }
    },
    {
      "type": "node",
      "id": 11119054525,
      "lat": 13.0329717,
      "lon": 77.6089188,
      "tags": {
        "amenity": "pharmacy",
        "brand": "MedPlus",
        "brand:wikidata": "Q65684234",
        "healthcare": "pharmacy",
        "name": "MedPlus"
      }
    },
    {
      "type": "node",
      "id": 11119054526,
      "lat": 13.0331645,
      "lon": 77.6090114,
      "tags": {
        "amenity": "events_venue",
        "name": "R.K. Palace"
      }
    },
    {
      "type": "node",
      "id": 11229733131,
      "lat": 13.0419033,
      "lon": 77.6143044,
      "tags": {
        "amenity": "bench"
      }
    },
    {
      "type": "node",
      "id": 11229733132,
      "lat": 13.0419529,
      "lon": 77.6142213,
      "tags": {
        "amenity": "bench"
      }
    },
    {
      "type": "node",
      "id": 11229733133,
      "lat": 13.04203,
      "lon": 77.6140945,
      "tags": {
        "amenity": "bench"
      }
    },
    {
      "type": "node",
      "id": 11229733134,
      "lat": 13.0421012,
      "lon": 77.6139544,
      "tags": {
        "amenity": "bench"
      }
    },
    {
      "type": "node",
      "id": 11229746065,
      "lat": 13.0415009,
      "lon": 77.6196219,
      "tags": {
        "amenity": "cafe",
        "brand": "Third Wave Coffee Roasters",
        "brand:wikidata": "Q7785004",
        "cuisine": "coffee_shop",
        "delivery": "yes",
        "name": "Third Wave Coffee Roasters",
        "takeaway": "yes"
      }
    },
    {
      "type": "node",
      "id": 11229746066,
      "lat": 13.0415139,
      "lon": 77.6194583,
      "tags": {
        "amenity": "restaurant",
        "cuisine": "italian",
        "name": "Toscano"
      }
    },
    {
      "type": "node",
      "id": 11475302430,
      "lat": 13.0417334,
      "lon": 77.6196407,
      "tags": {
        "amenity": "pub",
        "contact:instagram": "biergartenbangalore",
        "cuisine": "pizza;regional;sandwich;burger",
        "delivery": "no",
        "name": "Biergarten Brewery & Kitchen",
        "smoking": "isolated",
        "takeaway": "yes"
      }
    },
    {
      "type": "node",
      "id": 11510648014,
      "lat": 13.0419739,
      "lon": 77.6133529,
      "tags": {
        "addr:city": "Bangalore",
        "addr:district": "Bangalore",
        "addr:postcode": "560045",
        "addr:street": "Rooftop, Country Inn & Suites by Radisson, Outer Ring Rd, Bengaluru, Karnataka",
        "amenity": "bar",
        "name": "Niro - Taproom & Kitchen"
      }
    },
    {
      "type": "node",
      "id": 11696226837,
      "lat": 13.0464198,
      "lon": 77.6203327,
      "tags": {
        "amenity": "parking_entrance",
        "parking": "underground"
      }
    },
    {
      "type": "node",
      "id": 11696226838,
      "lat": 13.0464773,
      "lon": 77.6203434,
      "tags": {
        "amenity": "parking_entrance",
        "parking": "underground"
      }
    },
    {
      "type": "node",
      "id": 11696226853,
      "lat": 13.0440956,
      "lon": 77.6218213,
      "tags": {
        "amenity": "parking_entrance",
        "parking": "underground"
      }
    },
    {
      "type": "node",
      "id": 11696226859,
      "lat": 13.0453054,
      "lon": 77.6199532,
      "tags": {
        "amenity": "parking_entrance",
        "parking": "underground"
      }
    },
    {
      "type": "node",
      "id": 11696226868,
      "lat": 13.0419372,
      "lon": 77.6196541,
      "tags": {
        "amenity": "restaurant",
        "name": "Nagavara Social"
      }
    },
    {
      "type": "node",
      "id": 11811087970,
      "lat": 13.0418236,
      "lon": 77.6194368,
      "tags": {
        "amenity": "restaurant",
        "name": "Daily Sushi"
      }
    },
    {
      "type": "node",
      "id": 11811087971,
      "lat": 13.0418536,
      "lon": 77.6196474,
      "tags": {
        "amenity": "restaurant",
        "name": "Bombay Curry House"
      }
    },
    {
      "type": "node",
      "id": 11917495171,
      "lat": 13.0417221,
      "lon": 77.613477,
      "tags": {
        "amenity": "bank",
        "brand": "State Bank of India",
        "brand:wikidata": "Q1340361",
        "check_date": "2024-05-19",
        "name": "State Bank of India",
        "short_name": "SBI"
      }
    },
    {
      "type": "node",
      "id": 12020449758,
      "lat": 13.0416067,
      "lon": 77.6196259,
      "tags": {
        "air_conditioning": "yes",
        "amenity": "restaurant",
        "cuisine": "mexican",
        "indoor_seating": "yes",
        "name": "Sanchez",
        "opening_hours": "12:00-00:00",
        "outdoor_seating": "no",
        "phone": "+91 96060 71430"
      }
    },
    {
      "type": "node",
      "id": 12027541895,
      "lat": 13.0404766,
      "lon": 77.6191056,
      "tags": {
        "brand": "Zudio",
        "brand:wikidata": "Q123375926",
        "name": "Zudio",
        "shop": "clothes"
      }
    },
    {
      "type": "node",
      "id": 12027541896,
      "lat": 13.0387741,
      "lon": 77.6144426,
      "tags": {
        "amenity": "fast_food",
        "brand": "Indira Canteen",
        "brand:wikidata": "Q36164828",
        "cuisine": "south_indian",
        "name": "Indira Canteen",
        "operator": "BBMP",
        "takeaway": "yes"
      }
    },
    {
      "type": "node",
      "id": 12027541932,
      "lat": 13.0435495,
      "lon": 77.6181118,
      "tags": {
        "amenity": "parking_entrance",
        "parking": "underground"
      }
    },
    {
      "type": "node",
      "id": 12208504074,
      "lat": 13.040747,
      "lon": 77.6199961,
      "tags": {
        "amenity": "pub",
        "name": "AEIOU"
      }
    },
    {
      "type": "node",
      "id": 12260570015,
      "lat": 13.0420326,
      "lon": 77.6194409,
      "tags": {
        "amenity": "restaurant",
        "cuisine": "regional",
        "name": "Bombay Brasserie"
      }
    },
    {
      "type": "node",
      "id": 12450977225,
      "lat": 13.0413862,
      "lon": 77.6216592,
      "tags": {
        "amenity": "fast_food",
        "check_date": "2024-12-25",
        "name": "The Taste of Bengal"
      }
    },
    {
      "type": "node",
      "id": 12450977226,
      "lat": 13.0413867,
      "lon": 77.6217785,
      "tags": {
        "amenity": "fast_food",
        "check_date": "2024-12-25",
        "name": "Kakatiya Foods"
      }
    },
    {
      "type": "node",
      "id": 12450977227,
      "lat": 13.0413968,
      "lon": 77.6223288,
      "tags": {
        "check_date": "2024-12-25",
        "name": "The Liquor Store",
        "shop": "alcohol"
      }
    },
    {
      "type": "node",
      "id": 12461000329,
      "lat": 13.0416197,
      "lon": 77.6194652,
      "tags": {
        "amenity": "cafe",
        "brand": "Theobroma",
        "brand:wikidata": "Q124374469",
        "delivery": "yes",
        "name": "Theobroma",
        "shop": "pastry",
        "takeaway": "yes"
      }
    },
    {
      "type": "node",
      "id": 12461000330,
      "lat": 13.0420275,
      "lon": 77.6196581,
      "tags": {
        "addr:city": "Bangalore",
        "addr:country": "IN",
        "addr:place": "Manyata Tech Park",
        "addr:suburb": "Nagavara",
        "amenity": "restaurant",
        "contact:facebook": "nasiandmee",
        "contact:instagram": "nasiandmee",
        "cuisine": "asian",
        "delivery": "yes",
        "name": "Nasi and Mee",
        "official_name": "Nasi and Mee Asian Canteen",
        "outdoor_seating": "yes",
        "takeaway": "yes",
        "website": "https://www.nasiandmee.co.in/"
      }
    },
    {
      "type": "node",
      "id": 12915170801,
      "lat": 13.0421146,
      "lon": 77.6124806,
      "tags": {
        "amenity": "atm",
        "brand": "Axis Bank",
        "brand:wikidata": "Q2003549",
        "check_date": "2025-06-14",
        "operator": "Axis Bank",
        "operator:wikidata": "Q2003549"
      }
    },
    {
      "type": "node",
      "id": 13103627555,
      "lat": 13.0362236,
      "lon": 77.6090759,
      "tags": {
        "addr:city": "bangalore",
        "addr:district": "42, 7th Cross Rd, Kanaka Nagar, Hebbal, Bengaluru, Karnataka 560045",
        "addr:housenumber": "42",
        "addr:postcode": "560032",
        "addr:street": "7th Cross Road",
        "amenity": "school",
        "grades": "0-6",
        "name": "Little Angels Public School",
        "religion": "none"
      }
    },
    {
      "type": "way",
      "id": 184943581,
      "center": {
        "lat": 13.0362002,
        "lon": 77.619781
      },
      "tags": {
        "amenity": "college",
        "landuse": "education",
        "name": "HKBK College of Engineering",
        "name:kn": "ಎಚ್ ಕೆ ಬಿ ಕೆ ಇಂಜಿನಿಯರಿಂಗ್ ಕಾಲೇಜು",
        "wheelchair": "yes"
      }
    },
    {
      "type": "way",
      "id": 232780058,
      "center": {
        "lat": 13.0432927,
        "lon": 77.6097958
      },
      "tags": {
        "leisure": "park",
        "name": "Lumbini Gardens",
        "name:kn": "ಲುಂಬಿನಿ ಉದ್ಯಾನ",
        "wikidata": "Q6703129",
        "wikimedia_commons": "Category:Lumbini Gardens",
        "wikipedia": "en:Lumbini Gardens"
      }
    },
    {
      "type": "way",
      "id": 346726965,
      "center": {
        "lat": 13.0350694,
        "lon": 77.6198957
      },
      "tags": {
        "amenity": "restaurant",
        "building": "yes",
        "name": "HKBK Hostel Mess"
      }
    },
    {
      "type": "way",
      "id": 491335685,
      "center": {
        "lat": 13.0459998,
        "lon": 77.6200361
      },
      "tags": {
        "amenity": "parking",
        "building": "yes",
        "parking": "multi-storey"
      }
    },
    {
      "type": "way",
      "id": 491335690,
      "center": {
        "lat": 13.0462501,
        "lon": 77.6184803
      },
      "tags": {
        "amenity": "parking",
        "building": "yes",
        "building:levels:underground": "8",
        "name": "MLCP",
        "parking": "multi-storey"
      }
    },
    {
      "type": "way",
      "id": 724591641,
      "center": {
        "lat": 13.0428263,
        "lon": 77.6124651
      },
      "tags": {
        "leisure": "swimming_pool"
      }
    },
    {
      "type": "way",
      "id": 724591642,
      "center": {
        "lat": 13.0428675,
        "lon": 77.6127527
      },
      "tags": {
        "leisure": "swimming_pool"
      }
    },
    {
      "type": "way",
      "id": 724591644,
      "center": {
        "lat": 13.0423109,
        "lon": 77.6095321
      },
      "tags": {
        "leisure": "swimming_pool"
      }
    },
    {
      "type": "way",
      "id": 726880525,
      "center": {
        "lat": 13.0443624,
        "lon": 77.6219702
      },
      "tags": {
        "amenity": "theatre",
        "operator": "Embassy Group",
        "theatre:type": "amphi"
      }
    },
    {
      "type": "way",
      "id": 772934838,
      "center": {
        "lat": 13.0420137,
        "lon": 77.6166973
      },
      "tags": {
        "access": "customers",
        "amenity": "parking",
        "parking": "surface"
      }
    },
    {
      "type": "way",
      "id": 772934839,
      "center": {
        "lat": 13.0391538,
        "lon": 77.6183077
      },
      "tags": {
        "amenity": "school",
        "check_date": "2025-06-14",
        "name": "The Indian Public School"
      }
    },
    {
      "type": "way",
      "id": 772934851,
      "center": {
        "lat": 13.0414443,
        "lon": 77.6205262
      },
      "tags": {
        "alt_name": "Jay Hanuman Service Station",
        "amenity": "fuel",
        "brand": "Indian Oil",
        "brand:wikidata": "Q1289348",
        "building": "roof",
        "layer": "1",
        "name": "Indian Oil",
        "name:kn": "ಇಂಡಿಯನ್ ಆಯಿಲ್",
        "operator": "Indian Oil"
      }
    },
    {
      "type": "way",
      "id": 775230097,
      "center": {
        "lat": 13.0444379,
        "lon": 77.6170846
      },
      "tags": {
        "leisure": "pitch",
        "sport": "basketball"
      }
    },
    {
      "type": "way",
      "id": 775230101,
      "center": {
        "lat": 13.0471476,
        "lon": 77.6154574
      },
      "tags": {
        "access": "private",
        "leisure": "swimming_pool"
      }
    },
    {
      "type": "way",
      "id": 775230102,
      "center": {
        "lat": 13.0475529,
        "lon": 77.6163791
      },
      "tags": {
        "leisure": "playground"
      }
    },
    {
      "type": "way",
      "id": 775230110,
      "center": {
        "lat": 13.0472142,
        "lon": 77.6162812
      },
      "tags": {
        "leisure": "park"
      }
    },
    {
      "type": "way",
      "id": 775230111,
      "center": {
        "lat": 13.0476649,
        "lon": 77.6164143
      },
      "tags": {
        "leisure": "pitch",
        "sport": "basketball"
      }
    },
    {
      "type": "way",
      "id": 775230112,
      "center": {
        "lat": 13.0471221,
        "lon": 77.6156408
      },
      "tags": {
        "access": "private",
        "leisure": "swimming_pool"
      }
    },
    {
      "type": "way",
      "id": 775230120,
      "center": {
        "lat": 13.0437556,
        "lon": 77.6159818
      },
      "tags": {
        "leisure": "garden"
      }
    },
    {
      "type": "way",
      "id": 775230121,
      "center": {
        "lat": 13.0443037,
        "lon": 77.6161166
      },
      "tags": {
        "leisure": "garden"
      }
    },
    {
      "type": "way",
      "id": 775442577,
      "center": {
        "lat": 13.0385501,
        "lon": 77.6132302
      },
      "tags": {
        "amenity": "school"
      }
    },
    {
      "type": "way",
      "id": 775442578,
      "center": {
        "lat": 13.0420068,
        "lon": 77.6096696
      },
      "tags": {
        "amenity": "parking",
        "parking": "surface"
      }
    },
    {
      "type": "way",
      "id": 775442579,
      "center": {
        "lat": 13.0424858,
        "lon": 77.6097867
      },
      "tags": {
        "building": "yes",
        "leisure": "sports_centre",
        "name": "Sports Block"
      }
    },
    {
      "type": "way",
      "id": 775442580,
      "center": {
        "lat": 13.0418827,
        "lon": 77.6090104
      },
      "tags": {
        "leisure": "pitch",
        "sport": "cricket"
      }
    },
    {
      "type": "way",
      "id": 775442581,
      "center": {
        "lat": 13.0419119,
        "lon": 77.6088103
      },
      "tags": {
        "leisure": "pitch",
        "sport": "basketball"
      }
    },
    {
      "type": "way",
      "id": 775442582,
      "center": {
        "lat": 13.0415316,
        "lon": 77.6086782
      },
      "tags": {
        "leisure": "pitch",
        "sport": "beachvolleyball"
      }
    },
    {
      "type": "way",
      "id": 775442583,
      "center": {
        "lat": 13.041301,
        "lon": 77.608647
      },
      "tags": {
        "leisure": "playground"
      }
    },
    {
      "type": "way",
      "id": 775442584,
      "center": {
        "lat": 13.04104,
        "lon": 77.6080156
      },
      "tags": {
        "leisure": "sports_centre"
      }
    },
    {
      "type": "way",
      "id": 775442585,
      "center": {
        "lat": 13.0410064,
        "lon": 77.6083368
      },
      "tags": {
        "leisure": "pitch",
        "sport": "tennis"
      }
    },
    {
      "type": "way",
      "id": 775442586,
      "center": {
        "lat": 13.0410167,
        "lon": 77.6086396
      },
      "tags": {
        "leisure": "sports_centre",
        "sport": "roller_skating"
      }
    },
    {
      "type": "way",
      "id": 775442594,
      "center": {
        "lat": 13.0411304,
        "lon": 77.6097258
      },
      "tags": {
        "access": "private",
        "leisure": "swimming_pool"
      }
    },
    {
      "type": "way",
      "id": 775442595,
      "center": {
        "lat": 13.0414807,
        "lon": 77.6102255
      },
      "tags": {
        "leisure": "garden"
      }
    },
    {
      "type": "way",
      "id": 775442600,
      "center": {
        "lat": 13.041296,
        "lon": 77.6095543
      },
      "tags": {
        "access": "private",
        "leisure": "swimming_pool"
      }
    },
    {
      "type": "way",
      "id": 1034261995,
      "center": {
        "lat": 13.0425565,
        "lon": 77.620035
      },
      "tags": {
        "amenity": "events_venue",
        "building": "yes",
        "name": "Manyata Convention Centre"
      }
    },
    {
      "type": "way",
      "id": 1034261996,
      "center": {
        "lat": 13.0318789,
        "lon": 77.6126193
      },
      "tags": {
        "leisure": "park"
      }
    },
    {
      "type": "way",
      "id": 1111845890,
      "center": {
        "lat": 13.0405589,
        "lon": 77.6072104
      },
      "tags": {
        "leisure": "sports_centre",
        "name": "Adroit Tennis Academy",
        "sport": "tennis",
        "website": "https://adroittennis.com/",
        "wheelchair": "yes"
      }
    },
    {
      "type": "way",
      "id": 1111845891,
      "center": {
        "lat": 13.0378792,
        "lon": 77.6039746
      },
      "tags": {
        "amenity": "school",
        "name": "Young Scholars Academy",
        "wheelchair": "yes"
      }
    },
    {
      "type": "way",
      "id": 1186887011,
      "center": {
        "lat": 13.0422377,
        "lon": 77.6169516
      },
      "tags": {
        "amenity": "events_venue",
        "landuse": "commercial",
        "name": "Manpho Convention Centre"
      }
    },
    {
      "type": "way",
      "id": 1186887020,
      "center": {
        "lat": 13.0496651,
        "lon": 77.6147517
      },
      "tags": {
        "amenity": "school",
        "name": "Kensri School"
      }
    },
    {
      "type": "way",
      "id": 1202598184,
      "center": {
        "lat": 13.0391795,
        "lon": 77.6050169
      },
      "tags": {
        "alt_name": "Nagenahalli Church",
        "amenity": "place_of_worship",
        "name": "St. Paul the Hermit Church",
        "name:kn": "ನಾಗೇನಹಳ್ಳಿ ಇಗರ್ಜೆ",
        "religion": "christian"
      }
    },
    {
      "type": "way",
      "id": 1202598185,
      "center": {
        "lat": 13.0373353,
        "lon": 77.6087852
      },
      "tags": {
        "amenity": "school"
      }
    },
    {
      "type": "way",
      "id": 1212105964,
      "center": {
        "lat": 13.0420206,
        "lon": 77.6140979
      },
      "tags": {
        "artwork_type": "mural",
        "full_name": "LTTS Wild Arena, Veerannapalya",
        "leisure": "park",
        "name": "Wild Arena",
        "tourism": "artwork"
      }
    },
    {
      "type": "way",
      "id": 1258081437,
      "center": {
        "lat": 13.0462501,
        "lon": 77.6184803
      },
      "tags": {
        "layer": "2",
        "leisure": "sports_centre",
        "level": "8",
        "name": "Tiger 5 Sports Arena"
      }
    },
    {
      "type": "way",
      "id": 1258088711,
      "center": {
        "lat": 13.0440642,
        "lon": 77.6189822
      },
      "tags": {
        "leisure": "garden"
      }
    },
    {
      "type": "way",
      "id": 1258088712,
      "center": {
        "lat": 13.0449487,
        "lon": 77.6191746
      },
      "tags": {
        "leisure": "garden"
      }
    },
    {
      "type": "way",
      "id": 1258134505,
      "center": {
        "lat": 13.0407957,
        "lon": 77.608249
      },
      "tags": {
        "leisure": "swimming_pool"
      }
    },
    {
      "type": "way",
      "id": 1258134506,
      "center": {
        "lat": 13.0407074,
        "lon": 77.6084861
      },
      "tags": {
        "leisure": "pitch",
        "sport": "basketball",
        "wheelchair": "yes"
      }
    },
    {
      "type": "way",
      "id": 1258134507,
      "center": {
        "lat": 13.0406652,
        "lon": 77.6086662
      },
      "tags": {
        "leisure": "pitch",
        "sport": "soccer"
      }
    },
    {
      "type": "way",
      "id": 1258134509,
      "center": {
        "lat": 13.0404158,
        "lon": 77.6092753
      },
      "tags": {
        "amenity": "school",
        "name": "St. Paul's Public School"
      }
    },
    {
      "type": "way",
      "id": 1258134510,
      "center": {
        "lat": 13.0393487,
        "lon": 77.6120246
      },
      "tags": {
        "leisure": "park"
      }
    },
    {
      "type": "way",
      "id": 1262435451,
      "center": {
        "lat": 13.0357385,
        "lon": 77.620272
      },
      "tags": {
        "access": "students",
        "leisure": "pitch",
        "lit": "yes",
        "name": "HKBK basketball court",
        "sport": "basketball"
      }
    },
    {
      "type": "way",
      "id": 1262435886,
      "center": {
        "lat": 13.0375699,
        "lon": 77.6196888
      },
      "tags": {
        "amenity": "parking",
        "operator": "HKBK",
        "operator:type": "university",
        "parking": "surface",
        "surface": "paved"
      }
    },
    {
      "type": "way",
      "id": 1262436364,
      "center": {
        "lat": 13.03761,
        "lon": 77.6193144
      },
      "tags": {
        "leisure": "pitch",
        "lit": "yes",
        "name": "HKBK Football ground",
        "sport": "soccer",
        "surface": "ground"
      }
    },
    {
      "type": "way",
      "id": 1262437141,
      "center": {
        "lat": 13.0352341,
        "lon": 77.6200897
      },
      "tags": {
        "amenity": "restaurant",
        "building": "yes",
        "name": "HKBK Mess"
      }
    },
    {
      "type": "way",
      "id": 1262437142,
      "center": {
        "lat": 13.0369675,
        "lon": 77.6197695
      },
      "tags": {
        "amenity": "restaurant",
        "building": "yes",
        "name": "HKBK canteen"
      }
    },
    {
      "type": "way",
      "id": 1267740400,
      "center": {
        "lat": 13.049654,
        "lon": 77.6123189
      },
      "tags": {
        "alt_name": "Kempepura Church",
        "amenity": "place_of_worship",
        "name": "St. James Church",
        "religion": "christian"
      }
    },
    {
      "type": "way",
      "id": 1273000979,
      "center": {
        "lat": 13.0417951,
        "lon": 77.6137657
      },
      "tags": {
        "amenity": "fuel",
        "brand": "Indian Oil",
        "brand:wikidata": "Q1289348",
        "brand:wikipedia": "en:Indian Oil Corporation",
        "compressed_air": "yes",
        "name": "Indian Oil",
        "operator": "Indian Oil"
      }
    },
    {
      "type": "way",
      "id": 1284773488,
      "center": {
        "lat": 13.0405542,
        "lon": 77.6185896
      },
      "tags": {
        "amenity": "fuel",
        "fuel:cng": "yes",
        "name": "GAIL Gas Station"
      }
    },
    {
      "type": "way",
      "id": 1298275285,
      "center": {
        "lat": 13.0404094,
        "lon": 77.6159369
      },
      "tags": {
        "access": "private",
        "amenity": "parking",
        "parking": "surface"
      }
    },
    {
      "type": "way",
      "id": 1298275345,
      "center": {
        "lat": 13.0427642,
        "lon": 77.6200805
      },
      "tags": {
        "access": "private",
        "leisure": "swimming_pool"
      }
    },
    {
      "type": "way",
      "id": 1343677903,
      "center": {
        "lat": 13.0425437,
        "lon": 77.6162011
      },
      "tags": {
        "addr:city": "Bengaluru",
        "addr:street": "Outer Ring Road",
        "addr:suburb": "Nagavara",
        "amenity": "pub",
        "capacity": "1500",
        "contact:instagram": "icbindiancraftbrewery",
        "landuse": "commercial",
        "microbrewery": "yes",
        "name": "ICB Indian Craft Brewery",
        "website": "https://icb.beer/"
      }
    },
    {
      "type": "way",
      "id": 1388296336,
      "center": {
        "lat": 13.0354921,
        "lon": 77.6056231
      },
      "tags": {
        "amenity": "school"
      }
    }
  ]
}