{
  "area_name": "Vishweshwaraiah Enclave",
  "osm_id": 6319011634,
  "osm_type": "node",
  "place_type": "neighbourhood",
  "amenity_count": 23,
  "amenities": [
    {
      "type": "node",
      "id": 3742208086,
      "lat": 13.0615669,
      "lon": 77.5311976,
      "tags": {
        "amenity": "place_of_worship",
        "note": "Temple Of Goddess Parvati",
        "religion": "hindu"
      }
    },
    {
      "type": "node",
      "id": 8187932023,
      "lat": 13.0604743,
      "lon": 77.5313611,
      "tags": {
        "addr:full": "115, Kammagondana Halli Main Rd, Kammagondahalli, Jalahalli, Bengaluru, Karnataka",
        "addr:state": "Karnataka",
        "amenity": "atm",
        "name": "Canara Bank ATM",
        "name:kn": "ಕೆನರಾ ಬ್ಯಾಂಕ್ ಎಟಿಎಂ"
      }
    },
    {
      "type": "node",
      "id": 8188038473,
      "lat": 13.070554,
      "lon": 77.5388968,
      "tags": {
        "addr:full": "KVP Nagar, Jalahalli, Bengaluru, Karnataka",
        "addr:state": "Karnataka",
        "amenity": "hospital",
        "name": "Government Hospital",
        "name:kn": "ಸರ್ಕಾರಿ ಆಸ್ಪತ್ರೆ"
      }
    },
    {
      "type": "node",
      "id": 12022141681,
      "lat": 13.0655657,
      "lon": 77.5336236,
      "tags": {
        "amenity": "shelter",
        "shelter_type": "gazebo"
      }
    },
    {
      "type": "node",
      "id": 12116561075,
      "lat": 13.0681719,
      "lon": 77.5303835,
      "tags": {
        "amenity": "restaurant",
        "name": "Hotel MLV Grand"
      }
    },
    {
      "type": "node",
      "id": 12116561076,
      "lat": 13.0681196,
      "lon": 77.5304445,
      "tags": {
        "amenity": "bank",
        "brand": "ICICI Bank",
        "brand:wikidata": "Q1653258",
        "name": "ICICI Bank",
        "short_name": "ICICI"
      }
    },
    {
      "type": "way",
      "id": 306519175,
      "center": {
        "lat": 13.0715856,
        "lon": 77.5289245
      },
      "tags": {
        "leisure": "park",
        "name": "Abbigere Park",
        "name:kn": "ಅಬ್ಬಿಗೆರೆ ಉದ್ಯಾನವನ",
        "note": "Government Maternity center + BBMP Park"
      }
    },
    {
      "type": "way",
      "id": 306519532,
      "center": {
        "lat": 13.0704311,
        "lon": 77.5289365
      },
      "tags": {
        "amenity": "school",
        "name": "Jindal Government School",
        "name:kn": "ಜಿಂದಾಲ್ ಸರ್ಕಾರಿ ಶಾಲೆ"
      }
    },
    {
      "type": "way",
      "id": 306520068,
      "center": {
        "lat": 13.0713713,
        "lon": 77.527315
      },
      "tags": {
        "addr:city": "Bangalore",
        "addr:postcode": "560090",
        "addr:street": "Abbigere Pipeline Road",
        "amenity": "place_of_worship",
        "building": "yes",
        "denomination": "vaishnavism",
        "name": "Rama Temple",
        "name:kn": "ರಾಮ ದೇವಸ್ಥಾನ",
        "religion": "hindu"
      }
    },
    {
      "type": "way",
      "id": 628639504,
      "center": {
        "lat": 13.0720972,
        "lon": 77.5301925
      },
      "tags": {
        "amenity": "police",
        "building:levels": "2",
        "name": "Gangammagudi Police Station",
        "name:kn": "ಗಂಗಮ್ಮಗುಡಿ ಆರಕ್ಷಕ ಠಾಣೆ",
        "name_1": "house"
      }
    },
    {
      "type": "way",
      "id": 1127727182,
      "center": {
        "lat": 13.0735501,
        "lon": 77.5333272
      },
      "tags": {
        "amenity": "school",
        "name": "National Public School, Jalahalli",
        "name:kn": "ರಾಷ್ಟ್ರೀಯ ಸಾರ್ವಜನಿಕ ಶಾಲೆ"
      }
    },
    {
      "type": "way",
      "id": 1136648097,
      "center": {
        "lat": 13.0721359,
        "lon": 77.5348099
      },
      "tags": {
        "leisure": "park"
      }
    },
    {
      "type": "way",
      "id": 1136648098,
      "center": {
        "lat": 13.0727024,
        "lon": 77.5340544
      },
      "tags": {
        "leisure": "pitch",
        "sport": "soccer"
      }
    },
    {
      "type": "way",
      "id": 1136648099,
      "center": {
        "lat": 13.072796,
        "lon": 77.5337091
      },
      "tags": {
        "leisure": "playground"
      }
    },
    {
      "type": "way",
      "id": 1136648100,
      "center": {
        "lat": 13.0728596,
        "lon": 77.5334866
      },
      "tags": {
        "leisure": "swimming_pool"
      }
    },
    {
      "type": "way",
      "id": 1297584663,
      "center": {
        "lat": 13.073622,
        "lon": 77.5334499
      },
      "tags": {
        "leisure": "pitch",
        "sport": "tennis"
      }
    },
    {
      "type": "way",
      "id": 1297584664,
      "center": {
        "lat": 13.0736416,
        "lon": 77.5336276
      },
      "tags": {
        "leisure": "pitch",
        "sport": "basketball"
      }
    },
    {
      "type": "way",
      "id": 1297584665,
      "center": {
        "lat": 13.0734632,
        "lon": 77.5341594
      },
      "tags": {
        "leisure": "pitch"
      }
    },
    {
      "type": "way",
      "id": 1297584673,
      "center": {
        "lat": 13.0649412,
        "lon": 77.5326224
      },
      "tags": {
        "amenity": "college",
        "name": "Ashoka College"
      }
    },
    {
      "type": "way",
      "id": 1297584676,
      "center": {
        "lat": 13.0655317,
        "lon": 77.5336314
      },
      "tags": {
        "leisure": "park",
        "name": "Vishweshwaraiah Enclave Park"
      }
    },
    {
      "type": "way",
      "id": 1297584680,
      "center": {
        "lat": 13.06583,
        "lon": 77.5358367
      },
      "tags": {
        "leisure": "park"
      }
    },
    {
      "type": "way",
      "id": 1308078690,
      "center": {
        "lat": 13.0580989,
        "lon": 77.5296647
      },
      "tags": {
        "leisure": "track",
        "sport": "athletics"
      }
    },
    {
      "type": "way",
      "id": 1308403295,
      "center": {
        "lat": 13.0661342,
        "lon": 77.5302722
      },
      "tags": {
        "amenity": "fuel"
      }
    }
  ]
}