{
  "area_name": "Vishwanatha Nagenahalli",
  "osm_id": 19883362,
  "osm_type": "relation",
  "place_type": "administrative",
  "amenity_count": 27,
  "amenities": [
    {
      "type": "node",
      "id": 1370760927,
      "lat": 13.0395856,
      "lon": 77.6074967,
      "tags": {
        "amenity": "post_office",
        "name": "Kanakanagar Post Office"
      }
    },
    {
      "type": "node",
      "id": 1370764173,
      "lat": 13.0390602,
      "lon": 77.6092188,
      "tags": {
        "leisure": "yoga",
        "name": "SMART Foundation Yoga Centre"
      }
    },
    {
      "type": "node",
      "id": 1370777378,
      "lat": 13.0328921,
      "lon": 77.6065664,
      "tags": {
        "amenity": "place_of_worship",
        "name": "Ganesh Temple",
        "name:kn": "ಗಣೇಶ ದೇವಸ್ಥಾನ",
        "religion": "hindu"
      }
    },
    {
      "type": "node",
      "id": 1370783346,
      "lat": 13.0383104,
      "lon": 77.6072338,
      "tags": {
        "amenity": "pharmacy",
        "brand": "MedPlus",
        "brand:wikidata": "Q65684234",
        "healthcare": "pharmacy",
        "name": "Medplus",
        "name:kn": "ಮೆಡ್‍ಪ್ಲಸ್"
      }
    },
    {
      "type": "node",
      "id": 1370783363,
      "lat": 13.0365701,
      "lon": 77.6064886,
      "tags": {
        "amenity": "school",
        "wheelchair": "yes"
      }
    },
    {
      "type": "node",
      "id": 1954714028,
      "lat": 13.0392207,
      "lon": 77.6000536,
      "tags": {
        "name": "More",
        "name:kn": "ಮೋರ್",
        "shop": "supermarket"
      }
    },
    {
      "type": "node",
      "id": 1954714029,
      "lat": 13.0391647,
      "lon": 77.5991817,
      "tags": {
        "name": "Mythri",
        "shop": "supermarket"
      }
    },
    {
      "type": "node",
      "id": 4445614215,
      "lat": 13.0373064,
      "lon": 77.6052013,
      "tags": {
        "addr:city": "Bangalore",
        "addr:housenumber": "20",
        "addr:postcode": "560032",
        "addr:street": "1st Main Rd, Kanaka Nagar, Hebbal,",
        "amenity": "restaurant",
        "cuisine": "regional",
        "delivery": "yes",
        "name": "Al Khair Restaurant",
        "opening_hours": "11:00-23:00",
        "phone": "080 2365 1666",
        "smoking": "no",
        "takeaway": "yes",
        "website": "https://www.alkhair.in/"
      }
    },
    {
      "type": "node",
      "id": 4488400190,
      "lat": 13.0400633,
      "lon": 77.6061723,
      "tags": {
        "addr:city": "bangalore",
        "addr:postcode": "560032",
        "addr:street": "Kanaka Nagar 1st Main Road",
        "name": "Daisy's Beauty Parlour",
        "opening_hours": "10:00-19:00",
        "phone": "097400 07553",
        "shop": "beauty"
      }
    },
    {
      "type": "node",
      "id": 4488587289,
      "lat": 13.0391189,
      "lon": 77.5992828,
      "tags": {
        "addr:city": "bangalore",
        "addr:housenumber": "Vishwanath Naganahalli Main Rd",
        "addr:postcode": "560032",
        "addr:street": "Bhadrappa Layout, Chinana Layout, Guddadahalli",
        "leisure": "sports_centre",
        "name": "Good Health And Fitness Zone",
        "opening_hours": "5:30-22:00",
        "phone": "8033569108",
        "sport": "gymnastics"
      }
    },
    {
      "type": "node",
      "id": 6948529644,
      "lat": 13.034899,
      "lon": 77.6050904,
      "tags": {
        "addr:district": "Bengaluru Urban",
        "addr:full": "#9 Sulthanpalya Main Road,2nd Cross,6Th Main,Bhuvaneshwari Nagar,R.T.Nagar Post",
        "addr:postcode": "560032",
        "addr:state": "Karnataka",
        "amenity": "clinic",
        "name": "Parvathi Piles Clinic",
        "source": "OpenGovernmentData"
      }
    },
    {
      "type": "node",
      "id": 7213565705,
      "lat": 13.0324318,
      "lon": 77.6085263,
      "tags": {
        "addr:district": "Bengaluru Urban",
        "addr:full": "48/1, KHB Colony Main Rd, Sultanpalya, Hebbal, Bengaluru",
        "addr:postcode": "560032",
        "addr:state": "Karnataka",
        "amenity": "hospital",
        "healthcare": "hospital",
        "name": "Cure Hospital",
        "source": "OpenGovernmentData"
      }
    },
    {
      "type": "node",
      "id": 11176470273,
      "lat": 13.0390315,
      "lon": 77.5977619,
      "tags": {
        "check_date": "2023-09-02",
        "name": "Tea time",
        "shop": "tea"
      }
    },
    {
      "type": "node",
      "id": 11176470274,
      "lat": 13.0390311,
      "lon": 77.5975494,
      "tags": {
        "check_date": "2023-09-02",
        "name": "Smart point",
        "shop": "supermarket"
      }
    },
    {
      "type": "node",
      "id": 11176470275,
      "lat": 13.039015,
      "lon": 77.5978589,
      "tags": {
        "brand:wikidata": "Q65090033",
        "check_date": "2023-09-02",
        "clothes": "women",
        "name": "Maa collections",
        "shop": "clothes"
      }
    },
    {
      "type": "node",
      "id": 12285541097,
      "lat": 13.0363508,
      "lon": 77.5980075,
      "tags": {
        "amenity": "bank",
        "brand": "State Bank of India",
        "brand:wikidata": "Q1340361",
        "check_date": "2024-10-24",
        "name": "State Bank of India",
        "short_name": "SBI"
      }
    },
    {
      "type": "node",
      "id": 12285541098,
      "lat": 13.0363318,
      "lon": 77.5980792,
      "tags": {
        "amenity": "atm",
        "brand": "State Bank of India",
        "brand:wikidata": "Q1340361",
        "check_date": "2024-10-24",
        "operator": "State Bank of India",
        "operator:wikidata": "Q1340361",
        "short_name": "SBI"
      }
    },
    {
      "type": "node",
      "id": 13103627555,
      "lat": 13.0362236,
      "lon": 77.6090759,
      "tags": {
        "addr:city": "bangalore",
        "addr:district": "42, 7th Cross Rd, Kanaka Nagar, Hebbal, Bengaluru, Karnataka 560045",
        "addr:housenumber": "42",
        "addr:postcode": "560032",
        "addr:street": "7th Cross Road",
        "amenity": "school",
        "grades": "0-6",
        "name": "Little Angels Public School",
        "religion": "none"
      }
    },
    {
      "type": "way",
      "id": 1111845890,
      "center": {
        "lat": 13.0405589,
        "lon": 77.6072104
      },
      "tags": {
        "leisure": "sports_centre",
        "name": "Adroit Tennis Academy",
        "sport": "tennis",
        "website": "https://adroittennis.com/",
        "wheelchair": "yes"
      }
    },
    {
      "type": "way",
      "id": 1111845891,
      "center": {
        "lat": 13.0378792,
        "lon": 77.6039746
      },
      "tags": {
        "amenity": "school",
        "name": "Young Scholars Academy",
        "wheelchair": "yes"
      }
    },
    {
      "type": "way",
      "id": 1202598184,
      "center": {
        "lat": 13.0391795,
        "lon": 77.6050169
      },
      "tags": {
        "alt_name": "Nagenahalli Church",
        "amenity": "place_of_worship",
        "name": "St. Paul the Hermit Church",
        "name:kn": "ನಾಗೇನಹಳ್ಳಿ ಇಗರ್ಜೆ",
        "religion": "christian"
      }
    },
    {
      "type": "way",
      "id": 1202598185,
      "center": {
        "lat": 13.0373353,
        "lon": 77.6087852
      },
      "tags": {
        "amenity": "school"
      }
    },
    {
      "type": "way",
      "id": 1386060475,
      "center": {
        "lat": 13.0370414,
        "lon": 77.5979312
      },
      "tags": {
        "amenity": "school"
      }
    },
    {
      "type": "way",
      "id": 1388296336,
      "center": {
        "lat": 13.0354921,
        "lon": 77.6056231
      },
      "tags": {
        "amenity": "school"
      }
    },
    {
      "type": "way",
      "id": 1388440056,
      "center": {
        "lat": 13.0379907,
        "lon": 77.6043638
      },
      "tags": {
        "access": "private",
        "leisure": "swimming_pool"
      }
    },
    {
      "type": "way",
      "id": 1388440057,
      "center": {
        "lat": 13.0378975,
        "lon": 77.6040771
      },
      "tags": {
        "leisure": "pitch",
        "sport": "soccer",
        "wheelchair": "yes"
      }
    },
    {
      "type": "way",
      "id": 1388440058,
      "center": {
        "lat": 13.037576,
        "lon": 77.6039203
      },
      "tags": {
        "leisure": "pitch",
        "sport": "tennis"
      }
    }
  ]
}