{
  "area_name": "Vittal Nagar",
  "osm_id": 3440756328,
  "osm_type": "node",
  "place_type": "neighbourhood",
  "amenity_count": 138,
  "amenities": [
    {
      "type": "node",
      "id": 435688317,
      "lat": 12.8986538,
      "lon": 77.5578162,
      "tags": {
        "amenity": "bank",
        "atm": "no",
        "brand": "State Bank of India",
        "brand:wikidata": "Q1340361",
        "brand:wikipedia": "en:State Bank of India",
        "name": "State Bank of India",
        "name:kn": "ಭಾರತೀಯ ಸ್ಟೇಟ್ ಬ್ಯಾಂಕ್",
        "short_name": "SBI"
      }
    },
    {
      "type": "node",
      "id": 435688319,
      "lat": 12.8989528,
      "lon": 77.5575938,
      "tags": {
        "amenity": "bank",
        "atm": "yes",
        "brand": "Karur Vysya Bank",
        "brand:wikidata": "Q6373724",
        "brand:wikipedia": "en:Karur Vysya Bank",
        "name": "Karur Vysya Bank",
        "name:en": "Karur Vysya Bank",
        "short_name": "KVB",
        "website": "https://www.kvb.co.in"
      }
    },
    {
      "type": "node",
      "id": 435688321,
      "lat": 12.8986874,
      "lon": 77.5577817,
      "tags": {
        "addr:housename": "M K Ahmed",
        "shop": "convenience"
      }
    },
    {
      "type": "node",
      "id": 435688323,
      "lat": 12.8983313,
      "lon": 77.5582799,
      "tags": {
        "addr:housename": "Shop and save",
        "name": "Shop and save",
        "shop": "convenience"
      }
    },
    {
      "type": "node",
      "id": 1334443051,
      "lat": 12.9019316,
      "lon": 77.5611814,
      "tags": {
        "amenity": "bank",
        "brand": "State Bank of India",
        "brand:wikidata": "Q1340361",
        "brand:wikipedia": "en:State Bank of India",
        "name": "State Bank of India",
        "name:kn": "ಮೈಸೂರು ಬ್ಯಾಂಕ್‌",
        "short_name": "SBI",
        "website": "https://www.sbi.co.in"
      }
    },
    {
      "type": "node",
      "id": 1334443054,
      "lat": 12.8980464,
      "lon": 77.5551298,
      "tags": {
        "amenity": "place_of_worship",
        "name": "Devarakere Venkataramana Temple",
        "name:kn": "ದೇವಾರೆಕೆರೆ ವೆಂಕಟರಮಣ ದೇವಸ್ಥಾನ",
        "religion": "hindu"
      }
    },
    {
      "type": "node",
      "id": 1334443060,
      "lat": 12.8988366,
      "lon": 77.5572943,
      "tags": {
        "amenity": "place_of_worship",
        "denomination": "Shaivism",
        "name:kn": "ವಿನಾಯಕ ದೇವಸ್ಥಾನ",
        "religion": "hindu"
      }
    },
    {
      "type": "node",
      "id": 2472270417,
      "lat": 12.8960028,
      "lon": 77.5542251,
      "tags": {
        "amenity": "community_centre",
        "community_centre": "cultural_centre",
        "name": "Purandara Dasa Trust Hall"
      }
    },
    {
      "type": "node",
      "id": 3296521511,
      "lat": 12.9072675,
      "lon": 77.5600601,
      "tags": {
        "amenity": "pharmacy",
        "name": "Samrudh Pharma"
      }
    },
    {
      "type": "node",
      "id": 3298945667,
      "lat": 12.9072506,
      "lon": 77.5600169,
      "tags": {
        "name": "Shop & Save",
        "shop": "supermarket"
      }
    },
    {
      "type": "node",
      "id": 4426080989,
      "lat": 12.9017851,
      "lon": 77.5563991,
      "tags": {
        "addr:housenumber": "14",
        "addr:postcode": "560078",
        "addr:street": "2nd Cross Road",
        "amenity": "place_of_worship",
        "name": "Shanmukh Dixit Astrologer",
        "name:en": "Shanmukh Dixit Astrologer",
        "opening_hours": "Fr-Su 10:00-22:00",
        "phone": "+91 80 2666 1959"
      }
    },
    {
      "type": "node",
      "id": 4442178089,
      "lat": 12.8964442,
      "lon": 77.558989,
      "tags": {
        "amenity": "post_box",
        "name": "Post Office",
        "name:en": "Post Office",
        "name:kn": "ಅಂಚೆ ಕಛೇರಿ"
      }
    },
    {
      "type": "node",
      "id": 4463206796,
      "lat": 12.9053331,
      "lon": 77.5533196,
      "tags": {
        "addr:postcode": "560061",
        "addr:street": "12th main road , BHCS layout",
        "amenity": "school",
        "name": "Bright Way School",
        "name:en": "Bright Way School",
        "opening_hours": "Mo-Sa 08:00-16:00"
      }
    },
    {
      "type": "node",
      "id": 4463224992,
      "lat": 12.9070086,
      "lon": 77.5488113,
      "tags": {
        "amenity": "cafe",
        "name": "Kona Kafe",
        "name:en": "Kona Kafe"
      }
    },
    {
      "type": "node",
      "id": 4925250030,
      "lat": 12.8973448,
      "lon": 77.557338,
      "tags": {
        "leisure": "park",
        "name": "ISRO Layout Children's Park"
      }
    },
    {
      "type": "node",
      "id": 4925257513,
      "lat": 12.8968227,
      "lon": 77.5569403,
      "tags": {
        "amenity": "place_of_worship",
        "denomination": "hindu",
        "name": "Sacred Neem tree",
        "religion": "hindu"
      }
    },
    {
      "type": "node",
      "id": 5103929761,
      "lat": 12.8938836,
      "lon": 77.556381,
      "tags": {
        "amenity": "school",
        "name": "Rays Academy For Learning"
      }
    },
    {
      "type": "node",
      "id": 5615139106,
      "lat": 12.90901,
      "lon": 77.5530854,
      "tags": {
        "addr:city": "Bengaluru",
        "addr:postcode": "560061",
        "addr:street": "Garden School Road",
        "name": "Srinidhi Bakery",
        "payment:cash": "yes",
        "shop": "bakery"
      }
    },
    {
      "type": "node",
      "id": 5615139107,
      "lat": 12.9090169,
      "lon": 77.5530601,
      "tags": {
        "addr:city": "Bengaluru",
        "addr:postcode": "560061",
        "addr:street": "Garden School Road",
        "amenity": "fast_food",
        "cuisine": "south_indian",
        "delivery": "no",
        "drive_through": "no",
        "level": "0",
        "name": "Srinidhi Fast Food",
        "outdoor_seating": "no",
        "smoking": "no",
        "takeaway": "yes"
      }
    },
    {
      "type": "node",
      "id": 5615139108,
      "lat": 12.9090269,
      "lon": 77.5530309,
      "tags": {
        "addr:city": "Bengaluru",
        "addr:postcode": "560061",
        "addr:street": "Garden School Road",
        "level": "0",
        "name": "Swathy Farm Fresh",
        "shop": "greengrocer"
      }
    },
    {
      "type": "node",
      "id": 5615139109,
      "lat": 12.9090385,
      "lon": 77.5529858,
      "tags": {
        "addr:city": "Bengaluru",
        "addr:housenumber": "15/1",
        "addr:postcode": "560061",
        "addr:street": "Garden School Road",
        "amenity": "clinic",
        "healthcare": "clinic",
        "healthcare:speciality": "general",
        "name": "Vinayaka Clinic"
      }
    },
    {
      "type": "node",
      "id": 5615139110,
      "lat": 12.9092402,
      "lon": 77.5527258,
      "tags": {
        "addr:city": "Bengaluru",
        "addr:postcode": "560061",
        "addr:street": "Garden School Road",
        "name": "Saraswati Supermarket",
        "shop": "supermarket"
      }
    },
    {
      "type": "node",
      "id": 5615139111,
      "lat": 12.908144,
      "lon": 77.5495541,
      "tags": {
        "addr:city": "Bengaluru",
        "addr:postcode": "560061",
        "addr:street": "Dr. Vishnuvardhan Road",
        "level": "0",
        "name": "Guru Raghavendra Bakery",
        "payment:cards": "yes",
        "payment:cash": "yes",
        "payment:paytm": "yes",
        "shop": "bakery"
      }
    },
    {
      "type": "node",
      "id": 5626258365,
      "lat": 12.9092991,
      "lon": 77.5516337,
      "tags": {
        "addr:city": "Bengaluru",
        "addr:postcode": "560061",
        "addr:street": "Garden School Road",
        "amenity": "clinic",
        "healthcare": "clinic",
        "healthcare:speciality": "gynaecology;cardiology;general",
        "name": "Guru Raghavendra Clinic"
      }
    },
    {
      "type": "node",
      "id": 5626258366,
      "lat": 12.9093132,
      "lon": 77.5515743,
      "tags": {
        "addr:city": "Bengaluru",
        "addr:postcode": "560061",
        "addr:street": "Garden School Road",
        "amenity": "pharmacy",
        "dispensing": "yes",
        "healthcare": "pharmacy",
        "name": "Guru Raghavendra Medical Store",
        "payment:cards": "yes",
        "payment:cash": "yes"
      }
    },
    {
      "type": "node",
      "id": 5626258367,
      "lat": 12.9094755,
      "lon": 77.5517032,
      "tags": {
        "addr:city": "Bengaluru",
        "addr:postcode": "560061",
        "addr:street": "Garden School Road",
        "description": "Repairs electrical appliances",
        "name": "Hima Appliances",
        "payment:cash": "yes",
        "shop": "appliance"
      }
    },
    {
      "type": "node",
      "id": 5626258371,
      "lat": 12.9079042,
      "lon": 77.549393,
      "tags": {
        "addr:city": "Bengaluru",
        "addr:postcode": "560061",
        "name": "Tender Coconut Store",
        "payment:cash": "yes",
        "payment:paytm": "yes",
        "shop": "health_food"
      }
    },
    {
      "type": "node",
      "id": 6947375064,
      "lat": 12.89708,
      "lon": 77.5473364,
      "tags": {
        "addr:district": "Bengaluru Urban",
        "addr:full": "No.4, Sagar Complex,Gopalakrishna Layout,Vasanthapura Main Road,Subramanyapura Post,Uttarahalli Hobli",
        "addr:postcode": "560061",
        "addr:state": "Karnataka",
        "amenity": "hospital",
        "name": "Samastha Hospitals Pvt Ltd",
        "source": "OpenGovernmentData"
      }
    },
    {
      "type": "node",
      "id": 7520954480,
      "lat": 12.9001694,
      "lon": 77.5603874,
      "tags": {
        "amenity": "restaurant",
        "cuisine": "south_indian",
        "name": "Veg Corner",
        "opening_hours:covid19": "off"
      }
    },
    {
      "type": "node",
      "id": 7520954481,
      "lat": 12.9001862,
      "lon": 77.5603615,
      "tags": {
        "amenity": "restaurant",
        "name": "Veg Corner"
      }
    },
    {
      "type": "node",
      "id": 10873265952,
      "lat": 12.8932654,
      "lon": 77.558797,
      "tags": {
        "name": "S V Colour Centre",
        "shop": "paint"
      }
    },
    {
      "type": "node",
      "id": 11153618185,
      "lat": 12.9035771,
      "lon": 77.557286,
      "tags": {
        "amenity": "shelter",
        "shelter_type": "gazebo"
      }
    },
    {
      "type": "node",
      "id": 11195729745,
      "lat": 12.9005351,
      "lon": 77.5583911,
      "tags": {
        "amenity": "shelter",
        "shelter_type": "gazebo"
      }
    },
    {
      "type": "node",
      "id": 11794684866,
      "lat": 12.9048915,
      "lon": 77.5624233,
      "tags": {
        "name": "Sri Maruthi Glass and Plywood",
        "shop": "hardware"
      }
    },
    {
      "type": "node",
      "id": 11794900171,
      "lat": 12.9055332,
      "lon": 77.5627886,
      "tags": {
        "amenity": "pharmacy",
        "name": "Dharani Pharma"
      }
    },
    {
      "type": "node",
      "id": 11799150110,
      "lat": 12.9032287,
      "lon": 77.5628972,
      "tags": {
        "amenity": "shelter",
        "shelter_type": "gazebo"
      }
    },
    {
      "type": "node",
      "id": 11799150118,
      "lat": 12.9034744,
      "lon": 77.5626424,
      "tags": {
        "amenity": "fast_food",
        "brand": "Indira Canteen",
        "brand:wikidata": "Q36164828",
        "cuisine": "south_indian",
        "name": "Indira Canteen",
        "operator": "BBMP",
        "takeaway": "yes"
      }
    },
    {
      "type": "node",
      "id": 11799150293,
      "lat": 12.9037784,
      "lon": 77.5620382,
      "tags": {
        "amenity": "bench",
        "backrest": "yes",
        "material": "stone",
        "seats": "2"
      }
    },
    {
      "type": "node",
      "id": 11799150294,
      "lat": 12.9037013,
      "lon": 77.5620047,
      "tags": {
        "amenity": "bench",
        "backrest": "yes",
        "material": "stone",
        "seats": "2"
      }
    },
    {
      "type": "node",
      "id": 11801880285,
      "lat": 12.9058079,
      "lon": 77.5582074,
      "tags": {
        "amenity": "fast_food",
        "brand": "Indira Canteen",
        "brand:wikidata": "Q36164828",
        "cuisine": "south_indian",
        "name": "Indira Canteen",
        "operator": "BBMP",
        "takeaway": "yes"
      }
    },
    {
      "type": "node",
      "id": 11801880290,
      "lat": 12.9059954,
      "lon": 77.5584233,
      "tags": {
        "amenity": "fast_food",
        "cuisine": "regional",
        "name": "Sri Krishna Aramane"
      }
    },
    {
      "type": "node",
      "id": 11801895903,
      "lat": 12.904198,
      "lon": 77.5621046,
      "tags": {
        "name": "Chowdeshwari Scooter Works",
        "rental": "no",
        "repair": "yes",
        "sale": "no",
        "shop": "motorcycle"
      }
    },
    {
      "type": "node",
      "id": 11801895904,
      "lat": 12.9045059,
      "lon": 77.5613181,
      "tags": {
        "amenity": "dentist",
        "name": "United Dental"
      }
    },
    {
      "type": "node",
      "id": 11801895908,
      "lat": 12.9050274,
      "lon": 77.5601506,
      "tags": {
        "name": "Ladies Tailor",
        "shop": "tailor"
      }
    },
    {
      "type": "node",
      "id": 11801895910,
      "lat": 12.9051059,
      "lon": 77.5600192,
      "tags": {
        "amenity": "clinic",
        "name": "Maruthi Clinic"
      }
    },
    {
      "type": "node",
      "id": 11801895911,
      "lat": 12.9054582,
      "lon": 77.5597765,
      "tags": {
        "amenity": "school",
        "name": "Samskruthi Public School"
      }
    },
    {
      "type": "node",
      "id": 11801896079,
      "lat": 12.9060922,
      "lon": 77.5605758,
      "tags": {
        "name": "Sri Nagamalai Service Center",
        "shop": "car_repair"
      }
    },
    {
      "type": "node",
      "id": 11801896085,
      "lat": 12.9071177,
      "lon": 77.5597872,
      "tags": {
        "amenity": "bank",
        "atm": "yes",
        "brand": "Canara Bank",
        "brand:en": "Canara Bank",
        "brand:hi": "केनरा बैंक",
        "brand:kn": "ಕೆನರಾ ಬ್ಯಾಂಕ್",
        "brand:pa": "ਕੇਨਰਾ ਬੈਂਕ",
        "brand:pnb": "کینرا بینک",
        "brand:ur": "کینرا بینک",
        "brand:wikidata": "Q2003777",
        "name": "Canara Bank",
        "name:en": "Canara Bank",
        "name:hi": "केनरा बैंक",
        "name:kn": "ಕೆನರಾ ಬ್ಯಾಂಕ್",
        "name:pa": "ਕੇਨਰਾ ਬੈਂਕ",
        "name:pnb": "کینرا بینک",
        "name:ur": "کینرا بینک"
      }
    },
    {
      "type": "node",
      "id": 11801896086,
      "lat": 12.9071693,
      "lon": 77.559871,
      "tags": {
        "amenity": "bank",
        "atm": "yes",
        "brand": "ICICI Bank",
        "brand:wikidata": "Q1653258",
        "name": "ICICI Bank",
        "short_name": "ICICI"
      }
    },
    {
      "type": "node",
      "id": 11801896490,
      "lat": 12.906636,
      "lon": 77.5596672,
      "tags": {
        "shop": "greengrocer"
      }
    },
    {
      "type": "node",
      "id": 11801896491,
      "lat": 12.9066765,
      "lon": 77.5595874,
      "tags": {
        "shop": "greengrocer"
      }
    },
    {
      "type": "node",
      "id": 11801896492,
      "lat": 12.9067981,
      "lon": 77.5594506,
      "tags": {
        "shop": "greengrocer"
      }
    },
    {
      "type": "node",
      "id": 11801896493,
      "lat": 12.906785,
      "lon": 77.5597188,
      "tags": {
        "amenity": "fast_food",
        "name": "Sabji Corner"
      }
    },
    {
      "type": "node",
      "id": 11801896494,
      "lat": 12.9071804,
      "lon": 77.5601902,
      "tags": {
        "name": "Bliss Bakery",
        "shop": "bakery"
      }
    },
    {
      "type": "node",
      "id": 11801896495,
      "lat": 12.9039411,
      "lon": 77.5619792,
      "tags": {
        "name": "Exide",
        "shop": "hardware"
      }
    },
    {
      "type": "node",
      "id": 11801896496,
      "lat": 12.9039856,
      "lon": 77.5619993,
      "tags": {
        "name": "Amaron",
        "shop": "hardware"
      }
    },
    {
      "type": "node",
      "id": 11801896497,
      "lat": 12.9040228,
      "lon": 77.5620161,
      "tags": {
        "name": "Luminous",
        "shop": "hardware"
      }
    },
    {
      "type": "node",
      "id": 11801896498,
      "lat": 12.9044006,
      "lon": 77.5619464,
      "tags": {
        "name": "Kumar Fancy Store",
        "shop": "stationery"
      }
    },
    {
      "type": "node",
      "id": 11801896499,
      "lat": 12.9045091,
      "lon": 77.5617103,
      "tags": {
        "amenity": "fast_food",
        "name": "Davangere Mirchi"
      }
    },
    {
      "type": "node",
      "id": 11801896500,
      "lat": 12.9046215,
      "lon": 77.5610746,
      "tags": {
        "brand": "Nandini",
        "name": "Nandini",
        "shop": "dairy"
      }
    },
    {
      "type": "node",
      "id": 11801896501,
      "lat": 12.9048346,
      "lon": 77.5605503,
      "tags": {
        "amenity": "ice_cream",
        "name": "Modern Ice Cream"
      }
    },
    {
      "type": "node",
      "id": 11801896502,
      "lat": 12.9052621,
      "lon": 77.559983,
      "tags": {
        "name": "My Fresh",
        "shop": "greengrocer"
      }
    },
    {
      "type": "node",
      "id": 11801896503,
      "lat": 12.9052987,
      "lon": 77.5599052,
      "tags": {
        "shop": "dairy"
      }
    },
    {
      "type": "node",
      "id": 11801896504,
      "lat": 12.9054739,
      "lon": 77.5595592,
      "tags": {
        "name": "Sri Chakravarthi Jewllers",
        "shop": "jewelry"
      }
    },
    {
      "type": "node",
      "id": 11801896505,
      "lat": 12.9056347,
      "lon": 77.5600688,
      "tags": {
        "brand": "Nandini",
        "brand:wikidata": "Q124374212",
        "name": "Nandini",
        "name:kn": "ನಂದಿನಿ",
        "shop": "dairy"
      }
    },
    {
      "type": "node",
      "id": 11801896506,
      "lat": 12.9063732,
      "lon": 77.5600795,
      "tags": {
        "name": "Prakash Ladies Tailor",
        "shop": "tailor"
      }
    },
    {
      "type": "node",
      "id": 11801896507,
      "lat": 12.90657,
      "lon": 77.5596122,
      "tags": {
        "name": "Pooja Jewellery",
        "shop": "jewelry"
      }
    },
    {
      "type": "node",
      "id": 11801896508,
      "lat": 12.9065915,
      "lon": 77.5594915,
      "tags": {
        "name": "Jockey",
        "shop": "clothes"
      }
    },
    {
      "type": "node",
      "id": 11801896510,
      "lat": 12.9069811,
      "lon": 77.5599857,
      "tags": {
        "amenity": "pharmacy",
        "name": "Lakshmi General Store"
      }
    },
    {
      "type": "node",
      "id": 11801896511,
      "lat": 12.9071935,
      "lon": 77.5602324,
      "tags": {
        "name": "Veer Soningra Fancy Store",
        "shop": "clothes"
      }
    },
    {
      "type": "node",
      "id": 11801896512,
      "lat": 12.9071831,
      "lon": 77.5602975,
      "tags": {
        "name": "Naveen Tailors",
        "shop": "tailor"
      }
    },
    {
      "type": "node",
      "id": 11801896513,
      "lat": 12.9072778,
      "lon": 77.560553,
      "tags": {
        "name": "Apsara Designers",
        "shop": "boutique"
      }
    },
    {
      "type": "node",
      "id": 11801896514,
      "lat": 12.9073157,
      "lon": 77.5610733,
      "tags": {
        "name": "Vcer Electronics & Home Appliances",
        "shop": "kitchen"
      }
    },
    {
      "type": "node",
      "id": 11801896516,
      "lat": 12.9070713,
      "lon": 77.561304,
      "tags": {
        "name": "Nandini Photo Frames",
        "shop": "frame"
      }
    },
    {
      "type": "node",
      "id": 11801896517,
      "lat": 12.9070046,
      "lon": 77.5618404,
      "tags": {
        "name": "AM Bike Point",
        "parts": "yes",
        "rental": "no",
        "repair": "yes",
        "sale": "no",
        "shop": "motorcycle"
      }
    },
    {
      "type": "node",
      "id": 11801896518,
      "lat": 12.9069615,
      "lon": 77.5620697,
      "tags": {
        "amenity": "fast_food",
        "cuisine": "regional",
        "name": "Idly 24"
      }
    },
    {
      "type": "node",
      "id": 11801896545,
      "lat": 12.9055203,
      "lon": 77.562747,
      "tags": {
        "name": "Iyengar Sweets and Bakery",
        "shop": "bakery"
      }
    },
    {
      "type": "node",
      "id": 11801896547,
      "lat": 12.9056549,
      "lon": 77.5628214,
      "tags": {
        "name": "Century Ply",
        "shop": "furniture"
      }
    },
    {
      "type": "node",
      "id": 11801896548,
      "lat": 12.9056288,
      "lon": 77.5630286,
      "tags": {
        "brand": "Asian Paints",
        "brand:wikidata": "Q28171825",
        "name": "Asian Paints",
        "shop": "paint"
      }
    },
    {
      "type": "node",
      "id": 11801896549,
      "lat": 12.905519,
      "lon": 77.5629569,
      "tags": {
        "name": "Nandus",
        "shop": "butcher"
      }
    },
    {
      "type": "node",
      "id": 11801896550,
      "lat": 12.9050954,
      "lon": 77.5625485,
      "tags": {
        "shop": "electronics"
      }
    },
    {
      "type": "node",
      "id": 11801896551,
      "lat": 12.9048549,
      "lon": 77.5623997,
      "tags": {
        "amenity": "pharmacy",
        "name": "Mitra Medical Centre"
      }
    },
    {
      "type": "node",
      "id": 11801896552,
      "lat": 12.9047876,
      "lon": 77.5623541,
      "tags": {
        "name": "Titan",
        "shop": "watches"
      }
    },
    {
      "type": "node",
      "id": 11801896553,
      "lat": 12.9052359,
      "lon": 77.5626122,
      "tags": {
        "amenity": "fast_food",
        "cuisine": "regional",
        "name": "SLV Refreshment"
      }
    },
    {
      "type": "node",
      "id": 11801896560,
      "lat": 12.9045947,
      "lon": 77.5623125,
      "tags": {
        "shop": "optician"
      }
    },
    {
      "type": "node",
      "id": 12508642648,
      "lat": 12.898493,
      "lon": 77.5620708,
      "tags": {
        "addr:city": "Bengaluru",
        "addr:housenumber": "153",
        "addr:postcode": "560078",
        "addr:street": "40 Fort Rd, Vikram Nagar, Yalachenahalli",
        "name": "JBR",
        "shop": "yes"
      }
    },
    {
      "type": "node",
      "id": 12964476366,
      "lat": 12.9011693,
      "lon": 77.5579422,
      "tags": {
        "description": "Vegetable shop with home delivery within 2 KMs for bill above ₹400",
        "name": "Hasiru Thota",
        "opening_hours": "06:00-21:00",
        "phone": "7795502240",
        "shop": "greengrocer"
      }
    },
    {
      "type": "way",
      "id": 117075291,
      "center": {
        "lat": 12.8954144,
        "lon": 77.5518455
      },
      "tags": {
        "amenity": "place_of_worship",
        "building": "yes",
        "name": "Vasantha Vallabharayar Temple",
        "name:kn": "ವಸಂತಪುರ ದೇವಸ್ಥಾನ",
        "religion": "hindu"
      }
    },
    {
      "type": "way",
      "id": 117076683,
      "center": {
        "lat": 12.8946945,
        "lon": 77.5530524
      },
      "tags": {
        "amenity": "place_of_worship",
        "name": "Sai Baba Temple",
        "name:kn": "ಸಾಯಿಬಾಬಾ ದೇವಸ್ಥಾನ",
        "religion": "hindu"
      }
    },
    {
      "type": "way",
      "id": 119172185,
      "center": {
        "lat": 12.9021504,
        "lon": 77.5588106
      },
      "tags": {
        "leisure": "park",
        "name": "Kumaraswamy Layout Park",
        "name:kn": "ಕುಮಾರಸ್ವಾಮಿ ಬಡಾವಣೆ ಉದ್ಯಾನವನ"
      }
    },
    {
      "type": "way",
      "id": 239449057,
      "center": {
        "lat": 12.8952439,
        "lon": 77.5590033
      },
      "tags": {
        "leisure": "park",
        "name": "Dr Abdul Kalam Park",
        "name:etymology:wikidata": "Q9513",
        "name:kn": "ಅಬ್ದುಲ್ ಕಲಾಂ ಉದ್ಯಾನವನ",
        "name:ta": "அப்துல் கலாம் பூங்கா"
      }
    },
    {
      "type": "way",
      "id": 239449580,
      "center": {
        "lat": 12.8965422,
        "lon": 77.5583021
      },
      "tags": {
        "leisure": "park",
        "name": "Dr Satish Dhawan Park",
        "name:en": "Dr Satish Dhawan Park",
        "name:etymology:wikidata": "Q325393",
        "operator": "ಬೃಹತ್ ಬೆಂಗಳೂರು ಮಹಾನಗರ ಪಾಲಿಕೆ",
        "operator:en": "Bruhat Bengaluru Mahanagara Palike",
        "operator:ka": "ಬೃಹತ್ ಬೆಂಗಳೂರು ಮಹಾನಗರ ಪಾಲಿಕೆ",
        "operator:short": "BBMP",
        "operator:type": "government",
        "operator:wikidata": "Q4978693"
      }
    },
    {
      "type": "way",
      "id": 239449581,
      "center": {
        "lat": 12.8982316,
        "lon": 77.5605454
      },
      "tags": {
        "leisure": "park",
        "name": "Rastrakavi Kuvempu Playground",
        "name:etymology:wikidata": "Q3351108",
        "operator": "ಬೃಹತ್ ಬೆಂಗಳೂರು ಮಹಾನಗರ ಪಾಲಿಕೆ",
        "operator:en": "Bruhat Bengaluru Mahanagara Palike",
        "operator:ka": "ಬೃಹತ್ ಬೆಂಗಳೂರು ಮಹಾನಗರ ಪಾಲಿಕೆ",
        "operator:short": "BBMP",
        "operator:type": "government",
        "operator:wikidata": "Q4978693"
      }
    },
    {
      "type": "way",
      "id": 239555420,
      "center": {
        "lat": 12.90134,
        "lon": 77.5579681
      },
      "tags": {
        "amenity": "bank",
        "brand": "Canara Bank",
        "brand:en": "Canara Bank",
        "brand:hi": "केनरा बैंक",
        "brand:kn": "ಕೆನರಾ ಬ್ಯಾಂಕ್",
        "brand:pa": "ਕੇਨਰਾ ਬੈਂਕ",
        "brand:pnb": "کینرا بینک",
        "brand:ur": "کینرا بینک",
        "brand:wikidata": "Q2003777",
        "brand:wikipedia": "en:Canara Bank",
        "brand:wikipedia:pa": "ਕੇਨਰਾ ਬੈਂਕ",
        "building": "yes",
        "name": "Canara Bank",
        "name:en": "Canara Bank",
        "name:hi": "केनरा बैंक",
        "name:kn": "ಕೆನರಾ ಬ್ಯಾಂಕ್",
        "name:pa": "ਕੇਨਰਾ ਬੈਂਕ",
        "name:pnb": "کینرا بینک",
        "name:ur": "کینرا بینک",
        "website": "https://www.canarabank.com/"
      }
    },
    {
      "type": "way",
      "id": 239555460,
      "center": {
        "lat": 12.900548,
        "lon": 77.5584899
      },
      "tags": {
        "leisure": "park",
        "name": "Triangle Park ISRO Layout"
      }
    },
    {
      "type": "way",
      "id": 259878361,
      "center": {
        "lat": 12.8995957,
        "lon": 77.5575497
      },
      "tags": {
        "leisure": "park",
        "name": "Children's Park",
        "operator": "ಬೃಹತ್ ಬೆಂಗಳೂರು ಮಹಾನಗರ ಪಾಲಿಕೆ",
        "operator:en": "Bruhat Bengaluru Mahanagara Palike",
        "operator:ka": "ಬೃಹತ್ ಬೆಂಗಳೂರು ಮಹಾನಗರ ಪಾಲಿಕೆ",
        "operator:short": "BBMP",
        "operator:type": "government",
        "operator:wikidata": "Q4978693"
      }
    },
    {
      "type": "way",
      "id": 259879354,
      "center": {
        "lat": 12.8994801,
        "lon": 77.558449
      },
      "tags": {
        "amenity": "bus_station",
        "bus": "yes",
        "internet_access": "yes",
        "internet_access:fee": "customers",
        "name": "ISRO Layout Bus Stand",
        "name:kn": "ಬಸ್ ನಿಲ್ದಾಣ",
        "public_transport": "station"
      }
    },
    {
      "type": "way",
      "id": 259879355,
      "center": {
        "lat": 12.8988397,
        "lon": 77.5572958
      },
      "tags": {
        "amenity": "place_of_worship",
        "denomination": "Shaivism",
        "name": "Vinayaka Temple",
        "name:kn": "ವಿನಾಯಕ ದೇವಸ್ಥಾನ",
        "religion": "hindu"
      }
    },
    {
      "type": "way",
      "id": 320372650,
      "center": {
        "lat": 12.8983871,
        "lon": 77.555736
      },
      "tags": {
        "highway": "footway",
        "leisure": "track",
        "name": "Devarakere jogging track",
        "surface": "paved"
      }
    },
    {
      "type": "way",
      "id": 347536226,
      "center": {
        "lat": 12.8961793,
        "lon": 77.5522955
      },
      "tags": {
        "amenity": "community_centre",
        "building": "yes"
      }
    },
    {
      "type": "way",
      "id": 349716799,
      "center": {
        "lat": 12.9065758,
        "lon": 77.5572543
      },
      "tags": {
        "amenity": "place_of_worship",
        "building": "yes",
        "name": "Raja Rajeshwari Temple",
        "name:kn": "ರಾಜ ರಾಜೇಶ್ವರಿ ದೇವಸ್ಥಾನ",
        "religion": "hindu"
      }
    },
    {
      "type": "way",
      "id": 362891218,
      "center": {
        "lat": 12.9002135,
        "lon": 77.5621488
      },
      "tags": {
        "leisure": "park",
        "name": "BBMP",
        "name:kn": "ಬೃ. ಬೆಂ. ಮ. ಪಾ.",
        "operator": "ಬೃಹತ್ ಬೆಂಗಳೂರು ಮಹಾನಗರ ಪಾಲಿಕೆ",
        "operator:en": "Bruhat Bengaluru Mahanagara Palike",
        "operator:ka": "ಬೃಹತ್ ಬೆಂಗಳೂರು ಮಹಾನಗರ ಪಾಲಿಕೆ",
        "operator:short": "BBMP",
        "operator:type": "government",
        "operator:wikidata": "Q4978693"
      }
    },
    {
      "type": "way",
      "id": 445480312,
      "center": {
        "lat": 12.8944062,
        "lon": 77.5557923
      },
      "tags": {
        "amenity": "school",
        "name": "Indira Vidya Mandir School",
        "name:kn": "ಇಂದಿರಾ ವಿದ್ಯಾ ಮಂದಿರ",
        "operator": "DAV Public School"
      }
    },
    {
      "type": "way",
      "id": 469349055,
      "center": {
        "lat": 12.9042459,
        "lon": 77.5625
      },
      "tags": {
        "alt_name": "Kumaraswamy Park",
        "alt_name:kn": "ಕುಮಾರಸ್ವಾಮಿ ಉದ್ಯಾನವನ",
        "leisure": "park",
        "name": "Atal Bihari Vajpayee Park",
        "name:etymology:wikidata": "Q233289",
        "name:kn": "ಅಟಲ್ ಬಿಹಾರಿ ವಾಜಪೇಯಿ ಉದ್ಯಾನವನ"
      }
    },
    {
      "type": "way",
      "id": 469349058,
      "center": {
        "lat": 12.9048447,
        "lon": 77.5621046
      },
      "tags": {
        "leisure": "park",
        "name": "Ambabhavi park",
        "name:kn": "ಅಂಬಾಬಾವಿ ಉದ್ಯಾನವನ"
      }
    },
    {
      "type": "way",
      "id": 469353409,
      "center": {
        "lat": 12.9061459,
        "lon": 77.5577684
      },
      "tags": {
        "amenity": "school"
      }
    },
    {
      "type": "way",
      "id": 469354011,
      "center": {
        "lat": 12.9064926,
        "lon": 77.5572909
      },
      "tags": {
        "amenity": "place_of_worship",
        "building": "yes",
        "name": "Sri Rajarajeshwari Temple",
        "name:kn": "ಶ್ರೀ ರಾಜರಾಜೇಶ್ವರಿ ದೇವಸ್ಥಾನ",
        "religion": "hindu"
      }
    },
    {
      "type": "way",
      "id": 501844307,
      "center": {
        "lat": 12.8972527,
        "lon": 77.5576668
      },
      "tags": {
        "leisure": "park",
        "name": "ISRO Layout Children's Park",
        "name:en": "Dr. U.R. Rao Park"
      }
    },
    {
      "type": "way",
      "id": 585450310,
      "center": {
        "lat": 12.9068214,
        "lon": 77.5504097
      },
      "tags": {
        "leisure": "park",
        "name": "BHCS Park",
        "opening_hours": "Mo-Su 05:00-09:00,16:00-20:00"
      }
    },
    {
      "type": "way",
      "id": 585450311,
      "center": {
        "lat": 12.9061278,
        "lon": 77.551345
      },
      "tags": {
        "leisure": "park",
        "opening_hours": "Mo-Su 05:00-09:00,16:00-20:00"
      }
    },
    {
      "type": "way",
      "id": 585450314,
      "center": {
        "lat": 12.9048542,
        "lon": 77.5502474
      },
      "tags": {
        "access": "yes",
        "leisure": "pitch",
        "service_times": "24/7",
        "surface": "dirt"
      }
    },
    {
      "type": "way",
      "id": 585450316,
      "center": {
        "lat": 12.9052898,
        "lon": 77.5505199
      },
      "tags": {
        "access": "yes",
        "leisure": "playground",
        "max_age": "14",
        "name": "Kids Playground",
        "operator": "BBMP",
        "surface": "paved"
      }
    },
    {
      "type": "way",
      "id": 588708615,
      "center": {
        "lat": 12.9066599,
        "lon": 77.5547625
      },
      "tags": {
        "leisure": "park",
        "opening_hours": "Mo-Su 05:00-09:00, 16:00-20:00"
      }
    },
    {
      "type": "way",
      "id": 1148268346,
      "center": {
        "lat": 12.9050939,
        "lon": 77.5629547
      },
      "tags": {
        "amenity": "police",
        "name": "Kumaraswamy Layout Police Station",
        "name:kn": "ಕುಮಾರಸ್ವಾಮಿ ಲೇಔಟ್ ಪೋಲಿಸ್ ಸ್ಟೇಶನ್"
      }
    },
    {
      "type": "way",
      "id": 1203175539,
      "center": {
        "lat": 12.9035215,
        "lon": 77.5574108
      },
      "tags": {
        "leisure": "park"
      }
    },
    {
      "type": "way",
      "id": 1208265156,
      "center": {
        "lat": 12.9032764,
        "lon": 77.5628899
      },
      "tags": {
        "leisure": "park"
      }
    },
    {
      "type": "way",
      "id": 1208265157,
      "center": {
        "lat": 12.9037019,
        "lon": 77.5641337
      },
      "tags": {
        "leisure": "park"
      }
    },
    {
      "type": "way",
      "id": 1208265158,
      "center": {
        "lat": 12.9026489,
        "lon": 77.5628262
      },
      "tags": {
        "leisure": "park"
      }
    },
    {
      "type": "way",
      "id": 1208265159,
      "center": {
        "lat": 12.9011571,
        "lon": 77.5617683
      },
      "tags": {
        "leisure": "park"
      }
    },
    {
      "type": "way",
      "id": 1208265166,
      "center": {
        "lat": 12.8940511,
        "lon": 77.5576803
      },
      "tags": {
        "leisure": "sports_centre"
      }
    },
    {
      "type": "way",
      "id": 1263805847,
      "center": {
        "lat": 12.9037719,
        "lon": 77.5617198
      },
      "tags": {
        "amenity": "fuel",
        "brand": "Indian Oil",
        "brand:wikidata": "Q1289348",
        "brand:wikipedia": "en:Indian Oil Corporation",
        "name": "Chinnaswamy Petrol",
        "operator": "Indian Oil"
      }
    },
    {
      "type": "way",
      "id": 1270568405,
      "center": {
        "lat": 12.901644,
        "lon": 77.5616377
      },
      "tags": {
        "leisure": "park"
      }
    },
    {
      "type": "way",
      "id": 1270568416,
      "center": {
        "lat": 12.9034088,
        "lon": 77.5629804
      },
      "tags": {
        "leisure": "playground"
      }
    },
    {
      "type": "way",
      "id": 1270568436,
      "center": {
        "lat": 12.9063696,
        "lon": 77.5604393
      },
      "tags": {
        "leisure": "park"
      }
    },
    {
      "type": "way",
      "id": 1270568440,
      "center": {
        "lat": 12.9051954,
        "lon": 77.5604128
      },
      "tags": {
        "addr:city": "Bengaluru",
        "addr:postcode": "560078",
        "addr:street": "1st Stage, Kumaraswamy Layout",
        "amenity": "place_of_worship",
        "landuse": "religious",
        "name": "Amba Bhavani Temple",
        "name:kn": "ಶ್ರೀ ಹನುಮಂತ",
        "religion": "hindu"
      }
    },
    {
      "type": "way",
      "id": 1270568444,
      "center": {
        "lat": 12.9042667,
        "lon": 77.5615543
      },
      "tags": {
        "amenity": "school",
        "name": "Blossom School"
      }
    },
    {
      "type": "way",
      "id": 1270568446,
      "center": {
        "lat": 12.9045091,
        "lon": 77.56268
      },
      "tags": {
        "leisure": "fitness_station"
      }
    },
    {
      "type": "way",
      "id": 1270568447,
      "center": {
        "lat": 12.904727,
        "lon": 77.5627743
      },
      "tags": {
        "leisure": "playground"
      }
    },
    {
      "type": "way",
      "id": 1270568459,
      "center": {
        "lat": 12.9033589,
        "lon": 77.5619554
      },
      "tags": {
        "alt_name": "Temple of Books",
        "amenity": "library",
        "landuse": "commercial",
        "name": "City Central Library",
        "name:kn": "ಕೇಂದ್ರಿಯ ಗ್ರಂಥಾಲಯ"
      }
    },
    {
      "type": "way",
      "id": 1270568466,
      "center": {
        "lat": 12.9029352,
        "lon": 77.5617157
      },
      "tags": {
        "amenity": "bus_station",
        "name": "Kumaraswamy Layout",
        "name:kn": "ಕುಮಾರಸ್ವಾಮಿ ಬಡಾವಣೆ"
      }
    },
    {
      "type": "way",
      "id": 1270817507,
      "center": {
        "lat": 12.9031532,
        "lon": 77.5603082
      },
      "tags": {
        "amenity": "hospital",
        "healthcare": "hospital",
        "name": "Vasavi Hospital",
        "name:kn": "ವಾಸವಿ ಆಸ್ಪತ್ರೆ"
      }
    },
    {
      "type": "way",
      "id": 1270817515,
      "center": {
        "lat": 12.9041408,
        "lon": 77.5618783
      },
      "tags": {
        "amenity": "place_of_worship",
        "landuse": "religious",
        "name": "Sri Muneshwara Swamy Temple",
        "religion": "hindu"
      }
    },
    {
      "type": "way",
      "id": 1270860707,
      "center": {
        "lat": 12.9027273,
        "lon": 77.5508723
      },
      "tags": {
        "leisure": "park"
      }
    },
    {
      "type": "way",
      "id": 1272148166,
      "center": {
        "lat": 12.8995204,
        "lon": 77.5580505
      },
      "tags": {
        "addr:city": "Bengaluru",
        "addr:district": "Bengaluru Urban",
        "addr:housenumber": "259",
        "addr:postcode": "560078",
        "addr:street": "3rd Main Road",
        "alt_name": "Mojro",
        "amenity": "bank",
        "atm": "yes",
        "brand": "State Bank of India",
        "brand:wikidata": "Q1340361",
        "building": "yes",
        "building:levels": "4",
        "name": "State Bank of India",
        "operator": "SBI",
        "short_name": "SBI"
      }
    },
    {
      "type": "way",
      "id": 1290631846,
      "center": {
        "lat": 12.8929509,
        "lon": 77.5532627
      },
      "tags": {
        "leisure": "park",
        "operator": "ಬೃಹತ್ ಬೆಂಗಳೂರು ಮಹಾನಗರ ಪಾಲಿಕೆ",
        "operator:en": "Bruhat Bengaluru Mahanagara Palike",
        "operator:ka": "ಬೃಹತ್ ಬೆಂಗಳೂರು ಮಹಾನಗರ ಪಾಲಿಕೆ",
        "operator:short": "BBMP",
        "operator:type": "government"
      }
    },
    {
      "type": "way",
      "id": 1337111934,
      "center": {
        "lat": 12.9038855,
        "lon": 77.5472231
      },
      "tags": {
        "amenity": "school"
      }
    },
    {
      "type": "way",
      "id": 1416231938,
      "center": {
        "lat": 12.9005514,
        "lon": 77.5525787
      },
      "tags": {
        "leisure": "park"
      }
    },
    {
      "type": "way",
      "id": 1429694636,
      "center": {
        "lat": 12.899026,
        "lon": 77.5572529
      },
      "tags": {
        "amenity": "drinking_water",
        "name": "Reverse Osmosis Plant"
      }
    }
  ]
}