{
  "area_name": "Yamalur",
  "osm_id": 19884612,
  "osm_type": "relation",
  "place_type": "administrative",
  "amenity_count": 199,
  "amenities": [
    {
      "type": "node",
      "id": 4332493692,
      "lat": 12.9489496,
      "lon": 77.6873058,
      "tags": {
        "amenity": "fast_food",
        "diet:vegetarian": "yes",
        "name": "Ram Bhog"
      }
    },
    {
      "type": "node",
      "id": 4332493694,
      "lat": 12.9489346,
      "lon": 77.6872766,
      "tags": {
        "name": "RK Food Max",
        "shop": "bakery"
      }
    },
    {
      "type": "node",
      "id": 4332512093,
      "lat": 12.9488177,
      "lon": 77.6861236,
      "tags": {
        "amenity": "restaurant",
        "name": "Viajaya Sai Andhra Hotel"
      }
    },
    {
      "type": "node",
      "id": 4332512094,
      "lat": 12.9451041,
      "lon": 77.6804651,
      "tags": {
        "amenity": "restaurant",
        "name": "Sri Akshaya Upahar"
      }
    },
    {
      "type": "node",
      "id": 4332530090,
      "lat": 12.9488515,
      "lon": 77.6865692,
      "tags": {
        "amenity": "place_of_worship",
        "name": "Chowdeshwari Temple",
        "name:kn": "ಚೌಡೇಶ್ವರಿ ದೇವಸ್ಥಾನ",
        "religion": "hindu"
      }
    },
    {
      "type": "node",
      "id": 4332530091,
      "lat": 12.9485842,
      "lon": 77.6842996,
      "tags": {
        "amenity": "place_of_worship",
        "name": "Sri Lakshmi Venkateshwara Temple",
        "name:kn": "ಶ್ರೀ ಲಕ್ಷ್ಮಿ ವೆಂಕಟೇಶ್ವರ ದೇವಸ್ಥಾನ",
        "religion": "hindu"
      }
    },
    {
      "type": "node",
      "id": 4332547191,
      "lat": 12.948945,
      "lon": 77.6873384,
      "tags": {
        "amenity": "restaurant",
        "name": "Diamond Restaurant"
      }
    },
    {
      "type": "node",
      "id": 4332550490,
      "lat": 12.9451393,
      "lon": 77.6802676,
      "tags": {
        "amenity": "place_of_worship",
        "name": "Ganapathy Temple",
        "name:kn": "ಗಣಪತಿ ದೇವಸ್ಥಾನ",
        "religion": "hindu"
      }
    },
    {
      "type": "node",
      "id": 4332569789,
      "lat": 12.945882,
      "lon": 77.6811552,
      "tags": {
        "amenity": "place_of_worship",
        "name": "Basaveshwara Temple",
        "name:kn": "ಬಸವೇಶ್ವರ ದೇವಸ್ಥಾನ",
        "religion": "hindu"
      }
    },
    {
      "type": "node",
      "id": 4445109845,
      "lat": 12.9460433,
      "lon": 77.6466659,
      "tags": {
        "amenity": "atm",
        "brand": "Punjab National Bank",
        "brand:wikidata": "Q2743499",
        "name": "Punjab National Bank ATM",
        "operator": "Punjab National Bank",
        "operator:wikidata": "Q2743499"
      }
    },
    {
      "type": "node",
      "id": 4445119859,
      "lat": 12.9462787,
      "lon": 77.647749,
      "tags": {
        "addr:city": "bengaluru",
        "addr:postcode": "560017",
        "addr:street": "Challaghatta",
        "name": "Sunland Boutique",
        "shop": "clothes"
      }
    },
    {
      "type": "node",
      "id": 4445126004,
      "lat": 12.9463798,
      "lon": 77.649199,
      "tags": {
        "addr:city": "bengaluru",
        "addr:housenumber": "NA402,",
        "addr:postcode": "560017",
        "addr:street": "Sriram Spandhana, Challaghatta Jct Rd",
        "name": "Buffet Daily Fresh",
        "phone": "+9190081 71212",
        "shop": "butcher"
      }
    },
    {
      "type": "node",
      "id": 4445137284,
      "lat": 12.9458292,
      "lon": 77.650581,
      "tags": {
        "addr:city": "bengaluru",
        "addr:postcode": "560017",
        "addr:street": "Challaghatta",
        "name": "Government Hardware",
        "shop": "hardware"
      }
    },
    {
      "type": "node",
      "id": 4445148618,
      "lat": 12.9453705,
      "lon": 77.6490422,
      "tags": {
        "addr:city": "bengaluru",
        "addr:postcode": "560017",
        "addr:street": "Challaghatta Jct Rd, Challaghatta,",
        "amenity": "car_wash",
        "name": "Car Clinic"
      }
    },
    {
      "type": "node",
      "id": 4445215172,
      "lat": 12.9434622,
      "lon": 77.6563502,
      "tags": {
        "addr:city": "BENGALURU",
        "addr:postcode": "560017",
        "addr:street": "Belur Nagasandra, Bellandur",
        "amenity": "place_of_worship",
        "name": "Hanuman Temple",
        "name:kn": "ಹನುಮಂತ ದೇವಸ್ಥಾನ",
        "religion": "hindu"
      }
    },
    {
      "type": "node",
      "id": 4445218429,
      "lat": 12.9438224,
      "lon": 77.6546548,
      "tags": {
        "addr:city": "BENGALURU",
        "addr:postcode": "560017",
        "addr:street": "Belur Nagasandra, Bellandur",
        "amenity": "place_of_worship",
        "name": "Chowdeshwaramma Temple",
        "name:kn": "ಚೌಡೇಶ್ವರಮ್ಮ ದೇವಸ್ಧಾನ",
        "religion": "hindu"
      }
    },
    {
      "type": "node",
      "id": 4445221831,
      "lat": 12.9426028,
      "lon": 77.6512289,
      "tags": {
        "addr:city": "BENGALURU",
        "addr:housenumber": "SE 202",
        "addr:postcode": "560017",
        "addr:street": "Shriram Spandana, Near Embassy Golk Links, Challaghatta",
        "name": "Gowntown",
        "phone": "+91 98863 31844",
        "shop": "beauty",
        "website": "gowntown.in"
      }
    },
    {
      "type": "node",
      "id": 4445449387,
      "lat": 12.9481926,
      "lon": 77.6813728,
      "tags": {
        "addr:city": "Bangalore",
        "addr:postcode": "560037",
        "addr:street": "Chennakeshava Complex, Marathahalli Main Road, M Halli, Near Thulasi Thre, Marathahalli Main Roa",
        "name": "Naveen Kala",
        "opening_hours": "10:00-21:30",
        "phone": "+91 80 2523 5620",
        "shop": "clothes"
      }
    },
    {
      "type": "node",
      "id": 4445466197,
      "lat": 12.945415,
      "lon": 77.6804419,
      "tags": {
        "addr:city": "Bangalore",
        "addr:postcode": "560037",
        "addr:street": "Yemalur Main Rd, Yemalur, Bellandur",
        "amenity": "place_of_worship",
        "name": "Karagadamma Temple",
        "name:kn": "ಕರಗದಮ್ಮ ದೇವಸ್ಥಾನ",
        "religion": "hindu"
      }
    },
    {
      "type": "node",
      "id": 4445479301,
      "lat": 12.945397,
      "lon": 77.6809532,
      "tags": {
        "addr:city": "Bangalore",
        "addr:postcode": "560037",
        "addr:street": "Yemalur, Bellandur",
        "amenity": "place_of_worship",
        "name": "Shani Temple",
        "name:kn": "ಶನಿ ದೇವಸ್ಥಾನ",
        "religion": "hindu"
      }
    },
    {
      "type": "node",
      "id": 4446085885,
      "lat": 12.9489302,
      "lon": 77.6883085,
      "tags": {
        "addr:city": "Bengaluru",
        "addr:postcode": "560037",
        "addr:street": "Kariyammana Agrahara Rd, Yemalur, Bellandur",
        "name": "Capital Hypermar",
        "shop": "supermarket"
      }
    },
    {
      "type": "node",
      "id": 4446203350,
      "lat": 12.948263,
      "lon": 77.6813318,
      "tags": {
        "addr:city": "Bangalore",
        "addr:housenumber": "5th Cross",
        "addr:postcode": "560037",
        "addr:street": "Yemalur, Bellandur",
        "name": "JB sea fish supplyer",
        "phone": "+91 99018 74779",
        "shop": "yes"
      }
    },
    {
      "type": "node",
      "id": 4446219045,
      "lat": 12.9471287,
      "lon": 77.687053,
      "tags": {
        "addr:city": "Bengaluru",
        "addr:housenumber": "37/4,5",
        "addr:postcode": "560037",
        "addr:street": "Behind CGI Building, Chowdeshwari Temple Cross,, Yemalur",
        "amenity": "kindergarten",
        "name": "Euro Kids"
      }
    },
    {
      "type": "node",
      "id": 4446274869,
      "lat": 12.9471992,
      "lon": 77.6824894,
      "tags": {
        "addr:city": "Bangalore",
        "addr:housenumber": "3rd cross",
        "addr:postcode": "560037",
        "addr:street": "Yemalur, Bellandur",
        "amenity": "place_of_worship",
        "name": "Om Shakti Temple",
        "name:kn": "ಓಂ ಶಕ್ತಿ ದೇವಸ್ಥಾನ",
        "religion": "hindu"
      }
    },
    {
      "type": "node",
      "id": 4446278727,
      "lat": 12.9464251,
      "lon": 77.6803771,
      "tags": {
        "addr:city": "Bangalore",
        "addr:postcode": "560037",
        "addr:street": "Yemalur, Bellandur\\",
        "amenity": "place_of_worship",
        "name": "Ranganatha Temple",
        "name:kn": "ರಂಗನಾಥ ದೇವಸ್ಥಾನ",
        "religion": "hindu"
      }
    },
    {
      "type": "node",
      "id": 4446281990,
      "lat": 12.9448179,
      "lon": 77.6808543,
      "tags": {
        "addr:city": "Bangalore",
        "addr:postcode": "560037",
        "addr:street": "Kariyammana Agrahara Rd, Yemalur, Marathahalli",
        "name": "AAAstitva the Sign Solutions",
        "phone": "+91 92431 92916",
        "shop": "yes"
      }
    },
    {
      "type": "node",
      "id": 4446397959,
      "lat": 12.9448945,
      "lon": 77.6804735,
      "tags": {
        "addr:city": "Bangalore",
        "addr:postcode": "560037",
        "addr:street": "Kariyammana Agrahara Rd, Yemalur, Bellandur",
        "name": "RK Electricals",
        "shop": "Electrical_Supply_Store"
      }
    },
    {
      "type": "node",
      "id": 4446406406,
      "lat": 12.9450272,
      "lon": 77.6807331,
      "tags": {
        "addr:city": "Bangalore",
        "addr:housenumber": "#4",
        "addr:postcode": "560024",
        "addr:street": "Kempapura Main Road",
        "amenity": "restaurant",
        "name": "Ahaar Family Restaurant",
        "opening_hours": "06:30-21:30",
        "phone": "+91 97395 05169"
      }
    },
    {
      "type": "node",
      "id": 4446413888,
      "lat": 12.9471046,
      "lon": 77.6807231,
      "tags": {
        "addr:city": "Bangalore",
        "addr:postcode": "560037",
        "addr:street": "Yemalur Main Rd, Yemalur, Bellandur,",
        "amenity": "library",
        "name": "Yemalur Public Library",
        "name:kn": "ಯಮಲೂರು ಗ್ರಂಥಾಲಯ",
        "opening_hours": "09:30-12:30"
      }
    },
    {
      "type": "node",
      "id": 4446419067,
      "lat": 12.9467628,
      "lon": 77.6811611,
      "tags": {
        "addr:city": "Bangalore",
        "addr:street": "Krishna Enclave, Shop No. 1, Plot No. 102, Yemalur Main Road, Near Yemalur Post Office",
        "amenity": "restaurant",
        "name": "Souvee",
        "phone": "+91 70222 96051",
        "website": "https://souvee.com/"
      }
    },
    {
      "type": "node",
      "id": 4446529790,
      "lat": 12.9432871,
      "lon": 77.6813799,
      "tags": {
        "addr:city": "Bangalore",
        "addr:postcode": "560103",
        "addr:street": "Kariyammana Agrahara Rd, Kariyammana Agrahara, Bellandur",
        "name": "Nchant3D Demo Studio",
        "shop": "photo_studio",
        "website": "http://musion.co.in/"
      }
    },
    {
      "type": "node",
      "id": 4446533643,
      "lat": 12.9446323,
      "lon": 77.678789,
      "tags": {
        "addr:city": "Bangalore",
        "addr:postcode": "560037",
        "addr:street": "Bellandur",
        "amenity": "clinic",
        "name": "Yemaluru Primary Health Centre",
        "name:kn": "ಯಮಲೂರು ಪ್ರಾಥಮಿಕ ಆರೋಗ್ಯ ಕೇಂದ್ರ",
        "phone": "+91 80 2522 5927"
      }
    },
    {
      "type": "node",
      "id": 4446542575,
      "lat": 12.9471013,
      "lon": 77.6852391,
      "tags": {
        "addr:city": "Bangalore",
        "addr:postcode": "560037",
        "addr:street": "Yemalur, Bellandur,",
        "amenity": "place_of_worship",
        "name": "Sathya Narayana Temple",
        "name:kn": "ಸತ್ಯ ನಾರಾಯಣ",
        "religion": "hindu"
      }
    },
    {
      "type": "node",
      "id": 4446549310,
      "lat": 12.9489617,
      "lon": 77.6873872,
      "tags": {
        "addr:city": "Bengaluru",
        "addr:postcode": "560037",
        "addr:street": "Kariyammana Agrahara Rd, Yemalur, Bellandur",
        "amenity": "restaurant",
        "name": "Andhra Mess"
      }
    },
    {
      "type": "node",
      "id": 4446577897,
      "lat": 12.9489624,
      "lon": 77.688338,
      "tags": {
        "addr:city": "Bengaluru",
        "addr:postcode": "560037",
        "addr:street": "Kariyammana Agrahara Rd, Yemalur, Bellandur,",
        "amenity": "bank",
        "branch": "Yemalur",
        "brand": "State Bank of India",
        "brand:wikidata": "Q1340361",
        "brand:wikipedia": "en:State Bank of India",
        "name": "State Bank of India",
        "phone": "+91 94489 93295",
        "short_name": "SBI",
        "website": "https://bankifsccode.com"
      }
    },
    {
      "type": "node",
      "id": 4446596001,
      "lat": 12.9486713,
      "lon": 77.6853423,
      "tags": {
        "addr:city": "Bengaluru",
        "addr:postcode": "560037",
        "addr:street": "Kariyammana Agrahara Rd, Yemalur, Bellandur",
        "name": "Tupperware Products",
        "opening_hours": "Opens at 10:30 AM",
        "shop": "yes",
        "website": "https://www.blogger.com/"
      }
    },
    {
      "type": "node",
      "id": 4446598700,
      "lat": 12.9486685,
      "lon": 77.6843475,
      "tags": {
        "addr:city": "Bangalore",
        "addr:housenumber": "2nd Cross",
        "addr:postcode": "560037",
        "addr:street": "Yemalur, Bellandur",
        "name": "Daily Milk delivery Store",
        "shop": "yes"
      }
    },
    {
      "type": "node",
      "id": 4446599282,
      "lat": 12.9487406,
      "lon": 77.6850183,
      "tags": {
        "addr:city": "Bengaluru",
        "addr:housenumber": "132",
        "addr:postcode": "560037",
        "addr:street": "Yemalur Main Rd, Kadubeesanahalli,",
        "name": "Rice Shop",
        "shop": "yes"
      }
    },
    {
      "type": "node",
      "id": 4446607627,
      "lat": 12.9485945,
      "lon": 77.6827666,
      "tags": {
        "addr:city": "Bangalore",
        "addr:housenumber": "132",
        "addr:postcode": "560037",
        "addr:street": "Yemalur Main Rd, Kadubeesanahalli,",
        "amenity": "restaurant",
        "name": "Sampradaya - Fast Food, Fresh Fruits And Vegetables",
        "opening_hours": "07:00-20:00",
        "phone": "+91 96208 88836"
      }
    },
    {
      "type": "node",
      "id": 4446613985,
      "lat": 12.9457515,
      "lon": 77.6810933,
      "tags": {
        "addr:city": "Bangalore",
        "addr:postcode": "560037",
        "addr:street": "Yemalur, Bellandur,",
        "name": "Metro Provision Store",
        "phone": "+91 99862 08117",
        "shop": "yes",
        "website": "https://www.metro.co.in/"
      }
    },
    {
      "type": "node",
      "id": 4446639970,
      "lat": 12.9447896,
      "lon": 77.6801277,
      "tags": {
        "addr:city": "Bangalore",
        "addr:postcode": "560037",
        "addr:street": "Kariyammana agrahara road, kempapura, bellandur",
        "name": "Sri Manju Sai Hardware",
        "shop": "hardware"
      }
    },
    {
      "type": "node",
      "id": 4446993670,
      "lat": 12.9448255,
      "lon": 77.6645367,
      "tags": {
        "addr:city": "bangalore",
        "addr:postcode": "560017",
        "addr:street": "Wind tunnel road, HAL airport area",
        "leisure": "park",
        "name": "Indosyke Nal",
        "phone": "+91 9035088980"
      }
    },
    {
      "type": "node",
      "id": 4447019960,
      "lat": 12.9467794,
      "lon": 77.67533,
      "tags": {
        "leisure": "fitness_centre",
        "name": "Rohan Jharoka Gym"
      }
    },
    {
      "type": "node",
      "id": 4447050160,
      "lat": 12.943888,
      "lon": 77.6517988,
      "tags": {
        "addr:city": "BENGALURU",
        "addr:postcode": "560037",
        "addr:street": "Challaghatta",
        "amenity": "library",
        "name": "kglibrary",
        "website": "https://kglibrary.webs.com/"
      }
    },
    {
      "type": "node",
      "id": 4447060354,
      "lat": 12.9443978,
      "lon": 77.6514662,
      "tags": {
        "addr:city": "BENGALURU",
        "addr:postcode": "560037",
        "addr:street": "Challaghatta",
        "amenity": "car_wash",
        "name": "Car & Bike Wash, WorkShop"
      }
    },
    {
      "type": "node",
      "id": 4447070617,
      "lat": 12.9440595,
      "lon": 77.6517665,
      "tags": {
        "addr:city": "Bengaluru",
        "addr:housenumber": "B2-401",
        "addr:postcode": "560037",
        "addr:street": "Shriram Spandhana,challaghata",
        "name": "silverphoenix",
        "phone": "+91 98453 47327",
        "shop": "tattoo",
        "website": "https://silverphoenix.in/"
      }
    },
    {
      "type": "node",
      "id": 4447072623,
      "lat": 12.9441348,
      "lon": 77.6490102,
      "tags": {
        "addr:city": "bengaluru",
        "addr:postcode": "560037",
        "addr:street": "Challaghatta Jct Rd, Challaghatta",
        "name": "Government Stores",
        "shop": "doityourself"
      }
    },
    {
      "type": "node",
      "id": 4447075178,
      "lat": 12.9439892,
      "lon": 77.676775,
      "tags": {
        "addr:city": "bangalore",
        "addr:postcode": "560037",
        "addr:street": "kampapura,bellandur",
        "name": "Ssk White Collor Factory",
        "shop": "clothes"
      }
    },
    {
      "type": "node",
      "id": 4447079175,
      "lat": 12.9455409,
      "lon": 77.6493327,
      "tags": {
        "addr:city": "bengaluru",
        "addr:postcode": "560037",
        "addr:street": "Challaghatta Main Road, Challaghatta,Yemlur-Post",
        "name": "Akshaya Beauty Salon & Boutiqu",
        "phone": "+91 93415 75390",
        "shop": "clothes"
      }
    },
    {
      "type": "node",
      "id": 4447083609,
      "lat": 12.9448218,
      "lon": 77.6491702,
      "tags": {
        "addr:city": "bengaluru",
        "addr:postcode": "560037",
        "addr:street": "Challaghatta",
        "amenity": "place_of_worship",
        "name": "Ram Mandir & Anjaneya (Hanuma"
      }
    },
    {
      "type": "node",
      "id": 4447086337,
      "lat": 12.9443025,
      "lon": 77.6525847,
      "tags": {
        "addr:city": "BENGALURU",
        "addr:postcode": "560037",
        "addr:street": "Challaghatta",
        "name": "Ideal Supermarket",
        "phone": "+91 96865 99611",
        "shop": "supermarket"
      }
    },
    {
      "type": "node",
      "id": 4447110226,
      "lat": 12.9444492,
      "lon": 77.6784033,
      "tags": {
        "addr:city": "Bangalore",
        "addr:postcode": "560037",
        "addr:street": "mathru Sree Orchid Homes, 4, Kempapura Main Rd, Kempapura, Bellandur,",
        "name": "Basaveshwara Glass And Plywoods",
        "phone": "+91 8065667444",
        "shop": "hardware",
        "website": "https://business.google.com/"
      }
    },
    {
      "type": "node",
      "id": 4447284337,
      "lat": 12.9460162,
      "lon": 77.6750624,
      "tags": {
        "addr:city": "bangalore",
        "addr:postcode": "560037",
        "addr:street": "kempapura main road,kempapura,bellandur,",
        "amenity": "post_office",
        "brand": "DHL",
        "brand:wikidata": "Q489815",
        "name": "DHL Courier",
        "phone": "+91 9880026164",
        "website": "https://www.dhl.com/in-en/home.html"
      }
    },
    {
      "type": "node",
      "id": 4448143742,
      "lat": 12.9453707,
      "lon": 77.6810376,
      "tags": {
        "addr:city": "Bangalore",
        "addr:postcode": "560037",
        "addr:street": "7th cross road, bellandur",
        "amenity": "place_of_worship",
        "name": "Madduramma temple",
        "name:kn": "ಮದ್ದುರಮ್ಮ",
        "religion": "hindu"
      }
    },
    {
      "type": "node",
      "id": 4448163053,
      "lat": 12.9445394,
      "lon": 77.6803282,
      "tags": {
        "addr:city": "Bangalore",
        "addr:postcode": "560037",
        "addr:street": "yemallure,bellandur",
        "name": "keshawa car guarage",
        "phone": "+91 9845866414",
        "shop": "yes"
      }
    },
    {
      "type": "node",
      "id": 4448212009,
      "lat": 12.9449189,
      "lon": 77.6802767,
      "tags": {
        "addr:city": "Bangalore",
        "addr:housenumber": "1/1",
        "addr:postcode": "560037",
        "addr:street": "vinayaka furits & vegitables, near ganapathi temple,yemallur",
        "amenity": "atm",
        "brand": "ICICI Bank",
        "brand:wikidata": "Q1653258",
        "name": "ICICI Bank",
        "operator": "ICICI Bank",
        "operator:wikidata": "Q1653258",
        "phone": "080 33667777",
        "short_name": "ICICI",
        "website": "https://www.icicibank.com/"
      }
    },
    {
      "type": "node",
      "id": 4448237809,
      "lat": 12.9442527,
      "lon": 77.6803679,
      "tags": {
        "addr:city": "Bangalore",
        "addr:postcode": "560037",
        "addr:street": "kariyammana agrahara road,bellandur",
        "name": "two wheeler machanics",
        "shop": "motorcycle_repair"
      }
    },
    {
      "type": "node",
      "id": 4474702395,
      "lat": 12.9459897,
      "lon": 77.6719357,
      "tags": {
        "amenity": "school",
        "name": "Government Primary School",
        "name:en": "Government Primary School",
        "name:kn": "ಸರ್ಕಾರಿ ಪ್ರಾಥಮಿಕ ಶಾಲೆ"
      }
    },
    {
      "type": "node",
      "id": 4474702690,
      "lat": 12.9474845,
      "lon": 77.6806202,
      "tags": {
        "amenity": "place_of_worship",
        "natural": "tree",
        "religion": "hindu"
      }
    },
    {
      "type": "node",
      "id": 4474703097,
      "lat": 12.9460176,
      "lon": 77.6729597,
      "tags": {
        "amenity": "drinking_water",
        "name": "Tap",
        "name:en": "Tap"
      }
    },
    {
      "type": "node",
      "id": 4474721691,
      "lat": 12.9473368,
      "lon": 77.6728516,
      "tags": {
        "shop": "butcher"
      }
    },
    {
      "type": "node",
      "id": 4474721692,
      "lat": 12.94739,
      "lon": 77.6728561,
      "tags": {
        "shop": "convenience"
      }
    },
    {
      "type": "node",
      "id": 4474724791,
      "lat": 12.946131,
      "lon": 77.673122,
      "tags": {
        "name": "Thirumala Bakery",
        "name:en": "Thirumala Bakery",
        "shop": "bakery"
      }
    },
    {
      "type": "node",
      "id": 4474724792,
      "lat": 12.9473301,
      "lon": 77.6805927,
      "tags": {
        "shop": "convenience"
      }
    },
    {
      "type": "node",
      "id": 4474725290,
      "lat": 12.9462012,
      "lon": 77.6731114,
      "tags": {
        "name": "Balaji Tours and Travels",
        "name:en": "Balaji Tours and Travels",
        "shop": "travel_agency"
      }
    },
    {
      "type": "node",
      "id": 4474750190,
      "lat": 12.9469444,
      "lon": 77.6809697,
      "tags": {
        "amenity": "kindergarten",
        "name": "Blooming Kidz Daycare",
        "name:en": "Blooming Kidz Daycare"
      }
    },
    {
      "type": "node",
      "id": 4474753894,
      "lat": 12.9481132,
      "lon": 77.6796172,
      "tags": {
        "leisure": "fitness_centre",
        "name": "Power House Gym",
        "name:en": "Power House Gym"
      }
    },
    {
      "type": "node",
      "id": 4474762290,
      "lat": 12.9472321,
      "lon": 77.6728131,
      "tags": {
        "name": "Manali Beauty Parlour",
        "name:en": "Manali Beauty Parlour",
        "shop": "cosmetics"
      }
    },
    {
      "type": "node",
      "id": 4474762492,
      "lat": 12.9481186,
      "lon": 77.6796811,
      "tags": {
        "name": "99 Grocer",
        "name:en": "99 Grocer",
        "shop": "supermarket"
      }
    },
    {
      "type": "node",
      "id": 4474788290,
      "lat": 12.9473561,
      "lon": 77.6814596,
      "tags": {
        "name": "Akshaj Provisions",
        "name:en": "Akshaj Provisions",
        "shop": "convenience"
      }
    },
    {
      "type": "node",
      "id": 4474790191,
      "lat": 12.9478525,
      "lon": 77.6805642,
      "tags": {
        "leisure": "fitness_centre",
        "name": "VS Fitness and Dance Studio",
        "name:en": "VS Fitness and Dance Studio"
      }
    },
    {
      "type": "node",
      "id": 4474823990,
      "lat": 12.9474918,
      "lon": 77.6815317,
      "tags": {
        "amenity": "place_of_worship",
        "religion": "hindu"
      }
    },
    {
      "type": "node",
      "id": 4474824189,
      "lat": 12.9474274,
      "lon": 77.6808752,
      "tags": {
        "amenity": "school",
        "name": "Prasad Vidya Mandir",
        "name:en": "Prasad Vidya Mandir",
        "name:kn": "ಪ್ರಸಾದ ವಿದ್ಯ ಮಂದಿರ"
      }
    },
    {
      "type": "node",
      "id": 4474824190,
      "lat": 12.9470263,
      "lon": 77.6812077,
      "tags": {
        "name": "Likith Provisions",
        "name:en": "Likith Provisions",
        "shop": "convenience"
      }
    },
    {
      "type": "node",
      "id": 4474824191,
      "lat": 12.9473142,
      "lon": 77.6812773,
      "tags": {
        "amenity": "place_of_worship",
        "religion": "hindu"
      }
    },
    {
      "type": "node",
      "id": 4474824192,
      "lat": 12.947938,
      "lon": 77.6819319,
      "tags": {
        "name": "Wassup Dhobe",
        "name:en": "Wassup Dhobe",
        "shop": "laundry"
      }
    },
    {
      "type": "node",
      "id": 4474824193,
      "lat": 12.9485816,
      "lon": 77.6826809,
      "tags": {
        "name": "VIP Dry Cleaners",
        "name:en": "VIP Dry Cleaners",
        "shop": "laundry"
      }
    },
    {
      "type": "node",
      "id": 4474831689,
      "lat": 12.9472054,
      "lon": 77.6806219,
      "tags": {
        "amenity": "place_of_worship",
        "name": "Shiva Temple",
        "name:en": "Shiva Temple",
        "name:kn": "ಶಿವ ದೇವಸ್ಥಾನ",
        "religion": "hindu"
      }
    },
    {
      "type": "node",
      "id": 4474831691,
      "lat": 12.9485743,
      "lon": 77.6826003,
      "tags": {
        "amenity": "pharmacy",
        "name": "Astra Medica",
        "name:en": "Astra Medica"
      }
    },
    {
      "type": "node",
      "id": 4474836389,
      "lat": 12.9477799,
      "lon": 77.6805886,
      "tags": {
        "amenity": "dentist",
        "name": "Chitra Dental Clinic",
        "name:en": "Chitra Dental Clinic"
      }
    },
    {
      "type": "node",
      "id": 4474836390,
      "lat": 12.9480263,
      "lon": 77.6817564,
      "tags": {
        "amenity": "school",
        "name": "Prasad Vidya Mandir",
        "name:en": "Prasad Vidya Mandir",
        "name:kn": "ಪ್ರಸಾದ ವಿದ್ಯ ಮಂದಿರ"
      }
    },
    {
      "type": "node",
      "id": 4474865189,
      "lat": 12.9484212,
      "lon": 77.6822825,
      "tags": {
        "amenity": "kindergarten",
        "name": "Kiddie International Academy",
        "name:en": "Kiddie International Academy"
      }
    },
    {
      "type": "node",
      "id": 4475147761,
      "lat": 12.9473075,
      "lon": 77.680728,
      "tags": {
        "amenity": "taxi",
        "name": "Auto Stand",
        "name:kn": "ಆಟೋ ನಿಲ್ದಾಣ"
      }
    },
    {
      "type": "node",
      "id": 4598007189,
      "lat": 12.9485702,
      "lon": 77.6899231,
      "tags": {
        "amenity": "fast_food",
        "brand": "Subway",
        "brand:pa": "ਸਬਵੇਅ",
        "brand:ur": "سب وے",
        "brand:wikidata": "Q244457",
        "brand:wikipedia": "en:Subway (restaurant)",
        "cuisine": "sandwich",
        "name": "Subway",
        "name:pa": "ਸਬਵੇਅ",
        "name:ur": "سب وے",
        "takeaway": "yes"
      }
    },
    {
      "type": "node",
      "id": 4621852890,
      "lat": 12.9487465,
      "lon": 77.6907033,
      "tags": {
        "amenity": "restaurant",
        "brand": "California Burrito",
        "brand:wikidata": "Q124374596",
        "cuisine": "mexican",
        "name": "California Burrito",
        "name:en": "California Burrito"
      }
    },
    {
      "type": "node",
      "id": 4731621689,
      "lat": 12.9461075,
      "lon": 77.6672982,
      "tags": {
        "amenity": "atm",
        "brand": "State Bank of India",
        "brand:wikidata": "Q1340361",
        "name": "State Bank of India",
        "name:kn": "ಎಸ್ ಬಿ ಐ",
        "operator": "State Bank of India",
        "operator:wikidata": "Q1340361",
        "short_name": "SBI"
      }
    },
    {
      "type": "node",
      "id": 5928153622,
      "lat": 12.9464603,
      "lon": 77.6758939,
      "tags": {
        "access": "private",
        "amenity": "parking_entrance",
        "parking": "underground"
      }
    },
    {
      "type": "node",
      "id": 9811266168,
      "lat": 12.9512932,
      "lon": 77.6409414,
      "tags": {
        "addr:city": "Bengaluru",
        "addr:country": "IN",
        "addr:hamlet": "Embassy Golf Links",
        "addr:postcode": "560071",
        "addr:street": "Intermediate Ring Road",
        "addr:suburb": "Domlur I Stage",
        "amenity": "coworking_space",
        "branch": "Sunriver",
        "brand": "WeWork",
        "brand:wikidata": "Q19995004",
        "fee": "yes",
        "name": "WeWork",
        "office": "coworking",
        "opening_hours": "24/7",
        "operator": "WeWork",
        "website": "https://www.wework.com/buildings/embassy-sunriver--bengaluru--Karnataka"
      }
    },
    {
      "type": "node",
      "id": 9831140524,
      "lat": 12.9467048,
      "lon": 77.6780887,
      "tags": {
        "access": "private",
        "amenity": "parking_entrance",
        "parking": "underground"
      }
    },
    {
      "type": "node",
      "id": 10600476810,
      "lat": 12.9484649,
      "lon": 77.6454771,
      "tags": {
        "amenity": "restaurant",
        "name": "Seta"
      }
    },
    {
      "type": "node",
      "id": 10839546839,
      "lat": 12.9470585,
      "lon": 77.6454896,
      "tags": {
        "access": "private",
        "amenity": "parking_entrance",
        "parking": "underground"
      }
    },
    {
      "type": "node",
      "id": 11505197739,
      "lat": 12.9427337,
      "lon": 77.6905008,
      "tags": {
        "access": "private",
        "amenity": "parking_entrance",
        "parking": "underground"
      }
    },
    {
      "type": "node",
      "id": 11527287657,
      "lat": 12.9504123,
      "lon": 77.6445772,
      "tags": {
        "access": "private",
        "amenity": "parking",
        "parking": "surface"
      }
    },
    {
      "type": "node",
      "id": 11527323887,
      "lat": 12.9467018,
      "lon": 77.645517,
      "tags": {
        "access": "private",
        "amenity": "parking_entrance",
        "parking": "underground"
      }
    },
    {
      "type": "node",
      "id": 11527324109,
      "lat": 12.9532158,
      "lon": 77.6428834,
      "tags": {
        "addr:city": "Bengaluru",
        "addr:country": "IN",
        "addr:hamlet": "Embassy Golf Links",
        "addr:postcode": "560071",
        "addr:street": "Intermediate Ring Road",
        "addr:suburb": "Domlur I Stage",
        "amenity": "coworking_space",
        "brand": "WeWork",
        "brand:wikidata": "Q19995004",
        "fee": "yes",
        "name": "WeWork",
        "office": "coworking",
        "opening_hours": "24/7",
        "operator": "WeWork",
        "website": "https://www.wework.com/buildings/embassy-golflinks--bengaluru--Karnataka"
      }
    },
    {
      "type": "node",
      "id": 11527324132,
      "lat": 12.950313,
      "lon": 77.6438101,
      "tags": {
        "access": "private",
        "amenity": "parking",
        "parking": "surface"
      }
    },
    {
      "type": "node",
      "id": 11527324133,
      "lat": 12.9490713,
      "lon": 77.6429263,
      "tags": {
        "access": "private",
        "amenity": "parking",
        "parking": "surface"
      }
    },
    {
      "type": "node",
      "id": 11527324134,
      "lat": 12.9506711,
      "lon": 77.6410125,
      "tags": {
        "access": "private",
        "amenity": "parking",
        "parking": "surface"
      }
    },
    {
      "type": "node",
      "id": 11527324135,
      "lat": 12.9534315,
      "lon": 77.6430523,
      "tags": {
        "access": "private",
        "amenity": "parking",
        "parking": "surface"
      }
    },
    {
      "type": "node",
      "id": 11527324140,
      "lat": 12.9533504,
      "lon": 77.6439348,
      "tags": {
        "access": "private",
        "amenity": "parking",
        "parking": "surface"
      }
    },
    {
      "type": "node",
      "id": 12047098808,
      "lat": 12.9536798,
      "lon": 77.6419151,
      "tags": {
        "access": "private",
        "amenity": "parking_entrance",
        "parking": "underground"
      }
    },
    {
      "type": "node",
      "id": 12143892929,
      "lat": 12.9425359,
      "lon": 77.6799763,
      "tags": {
        "amenity": "fuel",
        "brand": "Nayara",
        "brand:wikidata": "Q5399377",
        "name": "Nayara"
      }
    },
    {
      "type": "node",
      "id": 12145301146,
      "lat": 12.9501965,
      "lon": 77.6899474,
      "tags": {
        "amenity": "restaurant",
        "name": "Runway 27"
      }
    },
    {
      "type": "node",
      "id": 12174327578,
      "lat": 12.9458933,
      "lon": 77.677925,
      "tags": {
        "access": "private",
        "amenity": "parking_entrance",
        "parking": "underground"
      }
    },
    {
      "type": "node",
      "id": 13142028473,
      "lat": 12.9477434,
      "lon": 77.6741968,
      "tags": {
        "access": "private",
        "amenity": "parking_entrance",
        "parking": "underground"
      }
    },
    {
      "type": "node",
      "id": 13142028484,
      "lat": 12.9464822,
      "lon": 77.6741344,
      "tags": {
        "access": "private",
        "amenity": "parking_entrance",
        "parking": "underground"
      }
    },
    {
      "type": "node",
      "id": 13142028737,
      "lat": 12.9458685,
      "lon": 77.6784937,
      "tags": {
        "access": "private",
        "amenity": "parking_entrance",
        "parking": "underground"
      }
    },
    {
      "type": "node",
      "id": 13142029196,
      "lat": 12.9472402,
      "lon": 77.6784622,
      "tags": {
        "access": "private",
        "amenity": "parking_entrance",
        "parking": "underground"
      }
    },
    {
      "type": "node",
      "id": 13142029644,
      "lat": 12.9471494,
      "lon": 77.6773048,
      "tags": {
        "access": "private",
        "amenity": "parking_entrance",
        "parking": "underground"
      }
    },
    {
      "type": "node",
      "id": 13142029796,
      "lat": 12.9460665,
      "lon": 77.67693,
      "tags": {
        "access": "private",
        "amenity": "parking_entrance",
        "parking": "underground"
      }
    },
    {
      "type": "way",
      "id": 235408658,
      "center": {
        "lat": 12.9433365,
        "lon": 77.6512293
      },
      "tags": {
        "leisure": "pitch",
        "name": "Shriram Spandhana Tennis Court",
        "sport": "tennis"
      }
    },
    {
      "type": "way",
      "id": 340572301,
      "center": {
        "lat": 12.9471468,
        "lon": 77.6734631
      },
      "tags": {
        "addr:city": "bangalore",
        "addr:postcode": "560037",
        "addr:street": "Kempapura Main Road, bellandur",
        "amenity": "place_of_worship",
        "name": "Anjaneya Temple",
        "name:kn": "ಆಂಜನೇಯ ದೇವಸ್ಥಾನ",
        "religion": "hindu"
      }
    },
    {
      "type": "way",
      "id": 340572302,
      "center": {
        "lat": 12.9474764,
        "lon": 77.6732569
      },
      "tags": {
        "addr:city": "bangalore",
        "addr:postcode": "560037",
        "addr:street": "Kempapura Main Road, bellandur",
        "amenity": "place_of_worship",
        "name": "Shiva Temple",
        "name:kn": "ಶಿವ ದೇವಸ್ಥಾನ",
        "religion": "hindu"
      }
    },
    {
      "type": "way",
      "id": 343845554,
      "center": {
        "lat": 12.9309413,
        "lon": 77.6754525
      },
      "tags": {
        "amenity": "place_of_worship",
        "building": "yes",
        "name": "Sri Venkateswara Swamy Temple",
        "name:kn": "ವೆಂಕಟೇಶ್ವರ ಸ್ವಾಮಿ ದೇವಸ್ಥಾನ",
        "religion": "hindu"
      }
    },
    {
      "type": "way",
      "id": 345847399,
      "center": {
        "lat": 12.9489114,
        "lon": 77.6429244
      },
      "tags": {
        "amenity": "place_of_worship",
        "building": "church",
        "denomination": "orthodox",
        "name": "St. George Knanaya Syrian Church",
        "religion": "christian"
      }
    },
    {
      "type": "way",
      "id": 345859322,
      "center": {
        "lat": 12.9467299,
        "lon": 77.6877909
      },
      "tags": {
        "leisure": "pitch"
      }
    },
    {
      "type": "way",
      "id": 345859851,
      "center": {
        "lat": 12.9466589,
        "lon": 77.68812
      },
      "tags": {
        "access": "private",
        "leisure": "swimming_pool",
        "location": "outdoor"
      }
    },
    {
      "type": "way",
      "id": 348866394,
      "center": {
        "lat": 12.9304645,
        "lon": 77.6760403
      },
      "tags": {
        "building": "yes",
        "name": "Prince Gas Agency",
        "shop": "gas"
      }
    },
    {
      "type": "way",
      "id": 365630068,
      "center": {
        "lat": 12.9430853,
        "lon": 77.6509033
      },
      "tags": {
        "leisure": "swimming_pool"
      }
    },
    {
      "type": "way",
      "id": 365630235,
      "center": {
        "lat": 12.94288,
        "lon": 77.6512399
      },
      "tags": {
        "leisure": "park"
      }
    },
    {
      "type": "way",
      "id": 374744384,
      "center": {
        "lat": 12.945333,
        "lon": 77.6771553
      },
      "tags": {
        "access": "private",
        "leisure": "swimming_pool"
      }
    },
    {
      "type": "way",
      "id": 374744385,
      "center": {
        "lat": 12.9462666,
        "lon": 77.672905
      },
      "tags": {
        "amenity": "place_of_worship",
        "name": "Someshwara Temple",
        "name:kn": "ಸೋಮೇಶ್ವರ ದೇವಸ್ಥಾನ",
        "religion": "hindu"
      }
    },
    {
      "type": "way",
      "id": 374744386,
      "center": {
        "lat": 12.9450911,
        "lon": 77.6780466
      },
      "tags": {
        "access": "private",
        "leisure": "swimming_pool"
      }
    },
    {
      "type": "way",
      "id": 374744387,
      "center": {
        "lat": 12.9472259,
        "lon": 77.6755391
      },
      "tags": {
        "access": "private",
        "leisure": "swimming_pool"
      }
    },
    {
      "type": "way",
      "id": 374744388,
      "center": {
        "lat": 12.9463058,
        "lon": 77.6731482
      },
      "tags": {
        "amenity": "place_of_worship",
        "religion": "hindu"
      }
    },
    {
      "type": "way",
      "id": 387461393,
      "center": {
        "lat": 12.9461195,
        "lon": 77.6485712
      },
      "tags": {
        "leisure": "common"
      }
    },
    {
      "type": "way",
      "id": 387461395,
      "center": {
        "lat": 12.9450775,
        "lon": 77.6519189
      },
      "tags": {
        "amenity": "school",
        "email": "admissions@nalapadacademy.in",
        "name": "Nalapad Academy",
        "phone": "+91 91208 88888",
        "school:gender": "mixed",
        "website": "https://nalapadacademy.in/"
      }
    },
    {
      "type": "way",
      "id": 387461397,
      "center": {
        "lat": 12.9451617,
        "lon": 77.6489469
      },
      "tags": {
        "amenity": "place_of_worship",
        "building": "temple",
        "religion": "hindu"
      }
    },
    {
      "type": "way",
      "id": 398907238,
      "center": {
        "lat": 12.950821,
        "lon": 77.6433873
      },
      "tags": {
        "amenity": "place_of_worship",
        "building": "temple",
        "name": "Ganapathy Temple",
        "name:kn": "ಗಣಪತಿ ದೇವಸ್ಥಾನ",
        "religion": "hindu",
        "wheelchair": "yes"
      }
    },
    {
      "type": "way",
      "id": 431602275,
      "center": {
        "lat": 12.9521084,
        "lon": 77.64336
      },
      "tags": {
        "addr:housename": "Embasy Golf Links",
        "amenity": "food_court",
        "building": "retail",
        "name": "Riviera Food Court",
        "name:kn": "ರಿವೇರ ಫುಡ್ ಕೋರ್ಟ್"
      }
    },
    {
      "type": "way",
      "id": 444666213,
      "center": {
        "lat": 12.9478369,
        "lon": 77.6759229
      },
      "tags": {
        "access": "private",
        "leisure": "swimming_pool"
      }
    },
    {
      "type": "way",
      "id": 447754210,
      "center": {
        "lat": 12.9470129,
        "lon": 77.675342
      },
      "tags": {
        "addr:city": "bangalore",
        "addr:postcode": "560037",
        "addr:street": "rohan jharoka road,kempapura,bellandur",
        "building": "yes",
        "leisure": "pitch",
        "name": "Rohan Jharoka Squash Court",
        "sport": "squash"
      }
    },
    {
      "type": "way",
      "id": 447766568,
      "center": {
        "lat": 12.9418752,
        "lon": 77.666787
      },
      "tags": {
        "addr:city": "bangalore",
        "addr:postcode": "560037",
        "addr:street": "national aerospace laboratories,bellandur",
        "amenity": "place_of_worship",
        "building": "yes",
        "name": "Shiva Temple NAL",
        "phone": "+91 9242158312",
        "religion": "hindu"
      }
    },
    {
      "type": "way",
      "id": 450584255,
      "center": {
        "lat": 12.9453245,
        "lon": 77.6860497
      },
      "tags": {
        "amenity": "place_of_worship",
        "religion": "hindu"
      }
    },
    {
      "type": "way",
      "id": 450584256,
      "center": {
        "lat": 12.9449664,
        "lon": 77.6865577
      },
      "tags": {
        "amenity": "recycling",
        "recycling:cans": "yes",
        "recycling:cardboard": "yes",
        "recycling:clothes": "yes",
        "recycling:glass": "no",
        "recycling:glass_bottles": "no",
        "recycling:paper": "yes",
        "recycling:plastic": "yes",
        "recycling:plastic_bottles": "yes",
        "recycling:plastic_packaging": "yes",
        "recycling:scrap_metal": "yes",
        "recycling_type": "centre"
      }
    },
    {
      "type": "way",
      "id": 450595902,
      "center": {
        "lat": 12.9471795,
        "lon": 77.6809466
      },
      "tags": {
        "addr:city": "Bangalore",
        "addr:postcode": "560037",
        "addr:street": "Yemalur Main Rd, Yemalur, Bellandur",
        "amenity": "school",
        "name": "Government Primary School",
        "name:kn": "ಸರ್ಕಾರಿ ಪ್ರಾಥಮಿಕ ಶಾಲೆ"
      }
    },
    {
      "type": "way",
      "id": 462105123,
      "center": {
        "lat": 12.9427154,
        "lon": 77.6511045
      },
      "tags": {
        "leisure": "park"
      }
    },
    {
      "type": "way",
      "id": 462105124,
      "center": {
        "lat": 12.94288,
        "lon": 77.6515162
      },
      "tags": {
        "leisure": "park"
      }
    },
    {
      "type": "way",
      "id": 466082613,
      "center": {
        "lat": 12.943947,
        "lon": 77.691608
      },
      "tags": {
        "access": "private",
        "amenity": "parking",
        "building": "parking",
        "parking": "multi-storey"
      }
    },
    {
      "type": "way",
      "id": 490291660,
      "center": {
        "lat": 12.9528837,
        "lon": 77.6898646
      },
      "tags": {
        "access": "private",
        "amenity": "parking"
      }
    },
    {
      "type": "way",
      "id": 789910943,
      "center": {
        "lat": 12.9473709,
        "lon": 77.6738993
      },
      "tags": {
        "access": "private",
        "leisure": "swimming_pool",
        "lit": "yes",
        "location": "outdoor",
        "swimming_pool": "outdoor"
      }
    },
    {
      "type": "way",
      "id": 790387443,
      "center": {
        "lat": 12.9544694,
        "lon": 77.6901907
      },
      "tags": {
        "leisure": "pitch",
        "sport": "tennis"
      }
    },
    {
      "type": "way",
      "id": 790387448,
      "center": {
        "lat": 12.9434671,
        "lon": 77.6760946
      },
      "tags": {
        "leisure": "sports_centre"
      }
    },
    {
      "type": "way",
      "id": 1066436541,
      "center": {
        "lat": 12.931041,
        "lon": 77.6782424
      },
      "tags": {
        "addr:city": "Bangalore",
        "addr:postcode": "560103",
        "amenity": "place_of_worship",
        "building": "yes",
        "name": "Masjid E Bilal",
        "name:kn": "ಮಸ್ಜಿದ್ ಇ ಬಿಲಾಲ",
        "religion": "muslim"
      }
    },
    {
      "type": "way",
      "id": 1071287747,
      "center": {
        "lat": 12.9468923,
        "lon": 77.6775416
      },
      "tags": {
        "access": "private",
        "leisure": "swimming_pool"
      }
    },
    {
      "type": "way",
      "id": 1071287748,
      "center": {
        "lat": 12.9464922,
        "lon": 77.6778262
      },
      "tags": {
        "access": "private",
        "leisure": "pitch",
        "sport": "basketball"
      }
    },
    {
      "type": "way",
      "id": 1071287749,
      "center": {
        "lat": 12.946194,
        "lon": 77.6776285
      },
      "tags": {
        "access": "private",
        "leisure": "pitch",
        "sport": "tennis"
      }
    },
    {
      "type": "way",
      "id": 1086015486,
      "center": {
        "lat": 12.9543859,
        "lon": 77.6903297
      },
      "tags": {
        "leisure": "swimming_pool"
      }
    },
    {
      "type": "way",
      "id": 1092683244,
      "center": {
        "lat": 12.9497711,
        "lon": 77.6883764
      },
      "tags": {
        "leisure": "pitch"
      }
    },
    {
      "type": "way",
      "id": 1137152700,
      "center": {
        "lat": 12.9483753,
        "lon": 77.6456232
      },
      "tags": {
        "access": "customers",
        "leisure": "swimming_pool"
      }
    },
    {
      "type": "way",
      "id": 1197583718,
      "center": {
        "lat": 12.9438375,
        "lon": 77.6760946
      },
      "tags": {
        "addr:city": "Bengaluru",
        "addr:housenumber": "16",
        "addr:postcode": "560037",
        "amenity": "school",
        "name": "Neev Academy",
        "phone": "+91 8032568780"
      }
    },
    {
      "type": "way",
      "id": 1212362567,
      "center": {
        "lat": 12.9431054,
        "lon": 77.6910336
      },
      "tags": {
        "amenity": "theatre",
        "theatre:type": "amphi"
      }
    },
    {
      "type": "way",
      "id": 1221235221,
      "center": {
        "lat": 12.9309008,
        "lon": 77.6759351
      },
      "tags": {
        "amenity": "parking",
        "parking": "surface"
      }
    },
    {
      "type": "way",
      "id": 1238498375,
      "center": {
        "lat": 12.9429091,
        "lon": 77.6905893
      },
      "tags": {
        "access": "permissive",
        "amenity": "parking",
        "parking": "surface"
      }
    },
    {
      "type": "way",
      "id": 1240662311,
      "center": {
        "lat": 12.9474654,
        "lon": 77.645259
      },
      "tags": {
        "leisure": "garden"
      }
    },
    {
      "type": "way",
      "id": 1240674108,
      "center": {
        "lat": 12.9502456,
        "lon": 77.6434815
      },
      "tags": {
        "leisure": "garden"
      }
    },
    {
      "type": "way",
      "id": 1240674139,
      "center": {
        "lat": 12.9483093,
        "lon": 77.6445643
      },
      "tags": {
        "access": "permissive",
        "amenity": "parking",
        "parking": "surface"
      }
    },
    {
      "type": "way",
      "id": 1240674145,
      "center": {
        "lat": 12.9487312,
        "lon": 77.6453439
      },
      "tags": {
        "leisure": "garden"
      }
    },
    {
      "type": "way",
      "id": 1240674149,
      "center": {
        "lat": 12.949436,
        "lon": 77.6439267
      },
      "tags": {
        "amenity": "theatre",
        "name": "Amphitheatre",
        "theatre:type": "amphi"
      }
    },
    {
      "type": "way",
      "id": 1240674150,
      "center": {
        "lat": 12.9491371,
        "lon": 77.6436683
      },
      "tags": {
        "amenity": "food_court",
        "building": "retail",
        "name": "Pyramid Food Court"
      }
    },
    {
      "type": "way",
      "id": 1240674152,
      "center": {
        "lat": 12.9506159,
        "lon": 77.6408593
      },
      "tags": {
        "leisure": "garden"
      }
    },
    {
      "type": "way",
      "id": 1240674153,
      "center": {
        "lat": 12.9521386,
        "lon": 77.6443212
      },
      "tags": {
        "leisure": "park"
      }
    },
    {
      "type": "way",
      "id": 1240674156,
      "center": {
        "lat": 12.9524362,
        "lon": 77.6433736
      },
      "tags": {
        "leisure": "garden"
      }
    },
    {
      "type": "way",
      "id": 1240674157,
      "center": {
        "lat": 12.952131,
        "lon": 77.6411769
      },
      "tags": {
        "access": "private",
        "amenity": "parking",
        "parking": "surface"
      }
    },
    {
      "type": "way",
      "id": 1240674158,
      "center": {
        "lat": 12.9515326,
        "lon": 77.6419591
      },
      "tags": {
        "access": "private",
        "amenity": "parking",
        "parking": "surface"
      }
    },
    {
      "type": "way",
      "id": 1240674161,
      "center": {
        "lat": 12.9516114,
        "lon": 77.6441377
      },
      "tags": {
        "access": "private",
        "amenity": "parking",
        "parking": "surface"
      }
    },
    {
      "type": "way",
      "id": 1242815448,
      "center": {
        "lat": 12.943331,
        "lon": 77.6759791
      },
      "tags": {
        "access": "private",
        "leisure": "track"
      }
    },
    {
      "type": "way",
      "id": 1242815449,
      "center": {
        "lat": 12.9431721,
        "lon": 77.6765948
      },
      "tags": {
        "access": "private",
        "leisure": "pitch",
        "sport": "tennis"
      }
    },
    {
      "type": "way",
      "id": 1242815450,
      "center": {
        "lat": 12.9431532,
        "lon": 77.6767639
      },
      "tags": {
        "access": "private",
        "leisure": "pitch",
        "sport": "tennis"
      }
    },
    {
      "type": "way",
      "id": 1242815451,
      "center": {
        "lat": 12.9434508,
        "lon": 77.676799
      },
      "tags": {
        "access": "private",
        "leisure": "pitch",
        "sport": "tennis"
      }
    },
    {
      "type": "way",
      "id": 1242815452,
      "center": {
        "lat": 12.9434697,
        "lon": 77.67663
      },
      "tags": {
        "access": "private",
        "leisure": "pitch",
        "sport": "tennis"
      }
    },
    {
      "type": "way",
      "id": 1242815453,
      "center": {
        "lat": 12.9428942,
        "lon": 77.6766288
      },
      "tags": {
        "access": "private",
        "leisure": "pitch",
        "sport": "basketball"
      }
    },
    {
      "type": "way",
      "id": 1242815454,
      "center": {
        "lat": 12.9429281,
        "lon": 77.6763143
      },
      "tags": {
        "access": "private",
        "leisure": "pitch",
        "sport": "basketball"
      }
    },
    {
      "type": "way",
      "id": 1242815457,
      "center": {
        "lat": 12.9424826,
        "lon": 77.6799703
      },
      "tags": {
        "amenity": "fuel",
        "brand": "Nayara",
        "brand:wikidata": "Q5399377",
        "name": "Nayara"
      }
    },
    {
      "type": "way",
      "id": 1248868631,
      "center": {
        "lat": 12.9435372,
        "lon": 77.6891456
      },
      "tags": {
        "leisure": "pitch",
        "sport": "basketball"
      }
    },
    {
      "type": "way",
      "id": 1248868633,
      "center": {
        "lat": 12.9435341,
        "lon": 77.691614
      },
      "tags": {
        "access": "permissive",
        "amenity": "parking",
        "parking": "surface"
      }
    },
    {
      "type": "way",
      "id": 1257688046,
      "center": {
        "lat": 12.9311058,
        "lon": 77.6790764
      },
      "tags": {
        "access": "permissive",
        "amenity": "parking",
        "parking": "surface"
      }
    },
    {
      "type": "way",
      "id": 1257688047,
      "center": {
        "lat": 12.9309591,
        "lon": 77.6791296
      },
      "tags": {
        "leisure": "park"
      }
    },
    {
      "type": "way",
      "id": 1301994742,
      "center": {
        "lat": 12.9315258,
        "lon": 77.6788176
      },
      "tags": {
        "access": "private",
        "leisure": "swimming_pool"
      }
    },
    {
      "type": "way",
      "id": 1307199153,
      "center": {
        "lat": 12.9440818,
        "lon": 77.6794164
      },
      "tags": {
        "amenity": "fuel"
      }
    },
    {
      "type": "way",
      "id": 1307199157,
      "center": {
        "lat": 12.9446723,
        "lon": 77.6772227
      },
      "tags": {
        "leisure": "pitch",
        "sport": "soccer"
      }
    },
    {
      "type": "way",
      "id": 1307199158,
      "center": {
        "lat": 12.9436155,
        "lon": 77.6750584
      },
      "tags": {
        "access": "private",
        "leisure": "swimming_pool"
      }
    },
    {
      "type": "way",
      "id": 1307288764,
      "center": {
        "lat": 12.9423354,
        "lon": 77.6507195
      },
      "tags": {
        "access": "private",
        "amenity": "parking",
        "parking": "surface"
      }
    },
    {
      "type": "way",
      "id": 1327822127,
      "center": {
        "lat": 12.9410843,
        "lon": 77.679503
      },
      "tags": {
        "addr:city": "Bengaluru",
        "addr:postcode": "560103",
        "addr:street": "Bellandur Lake Rd, Kariyammana Agrahara, Bellandur",
        "leisure": "sports_centre",
        "name": "Hawks Sports Arena, IN",
        "opening_hours": "open 24 hours"
      }
    },
    {
      "type": "way",
      "id": 1327822132,
      "center": {
        "lat": 12.9436849,
        "lon": 77.6815223
      },
      "tags": {
        "leisure": "sports_centre",
        "name": "Bravo Sports"
      }
    },
    {
      "type": "way",
      "id": 1337428802,
      "center": {
        "lat": 12.9463819,
        "lon": 77.6897617
      },
      "tags": {
        "access": "private",
        "leisure": "swimming_pool"
      }
    },
    {
      "type": "way",
      "id": 1337428814,
      "center": {
        "lat": 12.9437752,
        "lon": 77.6740653
      },
      "tags": {
        "leisure": "park"
      }
    },
    {
      "type": "way",
      "id": 1337428823,
      "center": {
        "lat": 12.946782,
        "lon": 77.6761216
      },
      "tags": {
        "access": "private",
        "leisure": "swimming_pool"
      }
    },
    {
      "type": "way",
      "id": 1409994950,
      "center": {
        "lat": 12.9369074,
        "lon": 77.6789983
      },
      "tags": {
        "leisure": "garden"
      }
    },
    {
      "type": "way",
      "id": 1409994959,
      "center": {
        "lat": 12.9374108,
        "lon": 77.6776673
      },
      "tags": {
        "leisure": "pitch"
      }
    },
    {
      "type": "way",
      "id": 1409994960,
      "center": {
        "lat": 12.9395841,
        "lon": 77.6795447
      },
      "tags": {
        "leisure": "garden"
      }
    },
    {
      "type": "way",
      "id": 1429653211,
      "center": {
        "lat": 12.946936,
        "lon": 77.6740007
      },
      "tags": {
        "access": "private",
        "leisure": "playground"
      }
    },
    {
      "type": "way",
      "id": 1429653231,
      "center": {
        "lat": 12.9453549,
        "lon": 77.6767805
      },
      "tags": {
        "access": "customers",
        "amenity": "parking",
        "parking": "surface"
      }
    },
    {
      "type": "way",
      "id": 1429653262,
      "center": {
        "lat": 12.9458527,
        "lon": 77.6791324
      },
      "tags": {
        "access": "private",
        "leisure": "pitch",
        "sport": "chess"
      }
    },
    {
      "type": "way",
      "id": 1429653267,
      "center": {
        "lat": 12.9475585,
        "lon": 77.6777836
      },
      "tags": {
        "access": "private",
        "leisure": "playground"
      }
    },
    {
      "type": "way",
      "id": 1429653268,
      "center": {
        "lat": 12.9475716,
        "lon": 77.6778751
      },
      "tags": {
        "access": "private",
        "leisure": "playground"
      }
    },
    {
      "type": "way",
      "id": 1429653279,
      "center": {
        "lat": 12.9461519,
        "lon": 77.6778156
      },
      "tags": {
        "access": "private",
        "leisure": "playground"
      }
    },
    {
      "type": "way",
      "id": 1429653280,
      "center": {
        "lat": 12.9465268,
        "lon": 77.6776567
      },
      "tags": {
        "access": "private",
        "leisure": "pitch",
        "sport": "cricket_nets"
      }
    },
    {
      "type": "way",
      "id": 1429653282,
      "center": {
        "lat": 12.9467284,
        "lon": 77.6751946
      },
      "tags": {
        "access": "private",
        "leisure": "playground"
      }
    }
  ]
}