{
  "area_name": "Yelahanka Satellite Town",
  "osm_id": 19884527,
  "osm_type": "relation",
  "place_type": "administrative",
  "amenity_count": 390,
  "amenities": [
    {
      "type": "node",
      "id": 959249211,
      "lat": 13.1028474,
      "lon": 77.5770272,
      "tags": {
        "amenity": "restaurant",
        "cuisine": "chinese",
        "internet_access": "no",
        "name": "Schezwan",
        "name:kn": "ಸೆಶವಾನ್",
        "smoking": "no",
        "stars": "2",
        "wheelchair": "no"
      }
    },
    {
      "type": "node",
      "id": 959250247,
      "lat": 13.1039689,
      "lon": 77.5837337,
      "tags": {
        "name": "Reality's book store",
        "shop": "stationery"
      }
    },
    {
      "type": "node",
      "id": 959250348,
      "lat": 13.1061576,
      "lon": 77.5798146,
      "tags": {
        "amenity": "fast_food",
        "cuisine": "regional",
        "name": "Namma Mane",
        "name:kn": "ನಮ್ಮ ಮನೆ"
      }
    },
    {
      "type": "node",
      "id": 959252342,
      "lat": 13.1048022,
      "lon": 77.5810644,
      "tags": {
        "amenity": "school",
        "name": "Drishya"
      }
    },
    {
      "type": "node",
      "id": 959253421,
      "lat": 13.1044566,
      "lon": 77.5832328,
      "tags": {
        "amenity": "fast_food",
        "name": "Mallu Bakery"
      }
    },
    {
      "type": "node",
      "id": 959253557,
      "lat": 13.103198,
      "lon": 77.5842815,
      "tags": {
        "amenity": "fast_food",
        "cuisine": "mixed",
        "internet_access": "yes",
        "name": "Kadai",
        "operator": "anna",
        "smoking": "yes"
      }
    },
    {
      "type": "node",
      "id": 959278216,
      "lat": 13.1050842,
      "lon": 77.5809991,
      "tags": {
        "amenity": "atm"
      }
    },
    {
      "type": "node",
      "id": 959509895,
      "lat": 13.1077028,
      "lon": 77.5806507,
      "tags": {
        "name": "Kanti Sweets",
        "shop": "confectionery",
        "wheelchair": "limited"
      }
    },
    {
      "type": "node",
      "id": 1463617663,
      "lat": 13.0990532,
      "lon": 77.5812916,
      "tags": {
        "amenity": "school",
        "name": "Poorna Prajna Education Center"
      }
    },
    {
      "type": "node",
      "id": 1463618428,
      "lat": 13.0996566,
      "lon": 77.5838276,
      "tags": {
        "amenity": "bank",
        "atm": "yes",
        "brand": "ICICI Bank",
        "brand:wikidata": "Q1653258",
        "name": "ICICI Bank",
        "name:en": "ICICI Bank",
        "name:kn": "ಐಸಿಐಸಿಐ ಬ್ಯಾಂಕು",
        "short_name": "ICICI",
        "website": "https://www.icicibank.com"
      }
    },
    {
      "type": "node",
      "id": 1467967639,
      "lat": 13.0992439,
      "lon": 77.5880493,
      "tags": {
        "amenity": "cafe",
        "name": "Yelhanka Cafe Cofee Day"
      }
    },
    {
      "type": "node",
      "id": 1467968318,
      "lat": 13.099742,
      "lon": 77.588778,
      "tags": {
        "amenity": "fast_food",
        "name": "Chandra cafe"
      }
    },
    {
      "type": "node",
      "id": 1467968601,
      "lat": 13.0987998,
      "lon": 77.5857428,
      "tags": {
        "amenity": "bank",
        "brand": "City Union Bank",
        "brand:en": "City Union Bank",
        "brand:hi": "सिटी यूनियन बैंक",
        "brand:ta": "சிட்டி யூனியன் வங்கி",
        "brand:wikidata": "Q2040264",
        "name": "City Union Bank",
        "name:en": "City Union Bank",
        "name:hi": "सिटी यूनियन बैंक",
        "name:ta": "சிட்டி யூனியன் வங்கி",
        "short_name": "CUB"
      }
    },
    {
      "type": "node",
      "id": 1467969798,
      "lat": 13.0990911,
      "lon": 77.5861904,
      "tags": {
        "amenity": "hospital",
        "name": "Chaitanya Hospital",
        "name:kn": "ಚೈತನ್ಯ ಆಸ್ಪತ್ರೆ"
      }
    },
    {
      "type": "node",
      "id": 1467969799,
      "lat": 13.0995417,
      "lon": 77.5861639,
      "tags": {
        "amenity": "school",
        "name": "Chaitnya nursing School"
      }
    },
    {
      "type": "node",
      "id": 1467972756,
      "lat": 13.0967578,
      "lon": 77.5840299,
      "tags": {
        "amenity": "restaurant",
        "indoor_seating": "yes",
        "name": "Chickpet Donne Biriyani House",
        "outdoor_seating": "no"
      }
    },
    {
      "type": "node",
      "id": 1467977001,
      "lat": 13.0964591,
      "lon": 77.5871761,
      "tags": {
        "amenity": "place_of_worship",
        "name": "Jamia Masjid",
        "religion": "muslim"
      }
    },
    {
      "type": "node",
      "id": 1467977553,
      "lat": 13.0972019,
      "lon": 77.5834398,
      "tags": {
        "amenity": "place_of_worship",
        "name": "Ganesha Temple",
        "name:kn": "ಗಣೇಶ ದೇವಸ್ಥಾನ",
        "religion": "hindu"
      }
    },
    {
      "type": "node",
      "id": 1467984648,
      "lat": 13.0989001,
      "lon": 77.5876488,
      "tags": {
        "amenity": "restaurant",
        "cuisine": "ice_cream",
        "name": "CornerHouse",
        "name:kn": "ಕಾರ್ನರ್ ಹೌಸ್"
      }
    },
    {
      "type": "node",
      "id": 1469099644,
      "lat": 13.0991591,
      "lon": 77.5878519,
      "tags": {
        "amenity": "bank",
        "brand": "Axis Bank",
        "brand:wikidata": "Q2003549",
        "brand:wikipedia": "en:Axis Bank",
        "name": "Axis Bank",
        "name:en": "Axis Bank",
        "name:kn": "ಆಕ್ಸಿಸ್ ಬ್ಯಾಂಕ್",
        "operator": "UTI",
        "website": "https://www.axisbank.com",
        "wheelchair": "limited"
      }
    },
    {
      "type": "node",
      "id": 1471774578,
      "lat": 13.0939199,
      "lon": 77.5827167,
      "tags": {
        "amenity": "pharmacy",
        "name": "Religare"
      }
    },
    {
      "type": "node",
      "id": 1471774579,
      "lat": 13.0940701,
      "lon": 77.5828256,
      "tags": {
        "amenity": "bank",
        "name": "Union Bank",
        "name:kn": "ಯೂನಿಯನ್ ಬ್ಯಾಂಕ್"
      }
    },
    {
      "type": "node",
      "id": 1471775374,
      "lat": 13.098633,
      "lon": 77.5773144,
      "tags": {
        "amenity": "restaurant",
        "brand": "Kanti Sweets",
        "cuisine": "indian",
        "name": "Kanti Sweets",
        "name:kn": "ಕಾಂತಿ ಸ್ವೀಟ್ಸ್",
        "shop": "confectionery",
        "wheelchair": "limited"
      }
    },
    {
      "type": "node",
      "id": 1471777463,
      "lat": 13.0940998,
      "lon": 77.5829487,
      "tags": {
        "name": "Bike World",
        "shop": "motorcycle"
      }
    },
    {
      "type": "node",
      "id": 1471791819,
      "lat": 13.0995328,
      "lon": 77.5890285,
      "tags": {
        "amenity": "fast_food",
        "brand": "Domino's",
        "brand:ks": "ڈومینوز",
        "brand:pa": "ਡੋਮੀਨੋਜ਼",
        "brand:ur": "ڈومینوز",
        "brand:wikidata": "Q839466",
        "brand:wikipedia": "en:Domino's Pizza",
        "cuisine": "pizza",
        "name": "Domino's",
        "name:kn": "ಡಾಮಿನೋಸ್",
        "name:ks": "ڈومینوز",
        "name:pa": "ਡੋਮੀਨੋਜ਼",
        "name:ur": "ڈومینوز",
        "takeaway": "yes"
      }
    },
    {
      "type": "node",
      "id": 1471791820,
      "lat": 13.0996082,
      "lon": 77.5889404,
      "tags": {
        "amenity": "ice_cream",
        "brand": "Baskin-Robbins",
        "brand:wikidata": "Q584601",
        "cuisine": "ice_cream",
        "name": "Baskin-Robbins",
        "name:kn": "ಬಸ್ಕಿನ್ ರಾಬಿನ್ಸ್",
        "operator": "Bata show room",
        "wheelchair": "limited"
      }
    },
    {
      "type": "node",
      "id": 2353259176,
      "lat": 13.0997283,
      "lon": 77.5758556,
      "tags": {
        "amenity": "atm",
        "brand": "Axis Bank",
        "brand:wikidata": "Q2003549",
        "name": "Axis Bank",
        "name:kn": "ಆಕ್ಸಿಸ್ ಬ್ಯಾಂಕ್",
        "operator": "Axis Bank",
        "operator:wikidata": "Q2003549"
      }
    },
    {
      "type": "node",
      "id": 2353259178,
      "lat": 13.0998272,
      "lon": 77.5767096,
      "tags": {
        "amenity": "toilets",
        "operator": "Manish Mehta"
      }
    },
    {
      "type": "node",
      "id": 2467305441,
      "lat": 13.099148,
      "lon": 77.587717,
      "tags": {
        "addr:city": "bangalore",
        "addr:postcode": "560064",
        "amenity": "bank",
        "atm": "yes",
        "brand": "Indian Overseas Bank",
        "brand:wikidata": "Q2003611",
        "brand:wikipedia": "en:Indian Overseas Bank",
        "name": "Indian Overseas Bank",
        "name:en": "Indian Overseas Bank",
        "name:kn": "ಐ ಓ ಬಿ",
        "phone": "+918022950336",
        "short_name": "IOB",
        "website": "https://www.iob.in",
        "wheelchair": "yes"
      }
    },
    {
      "type": "node",
      "id": 2467309538,
      "lat": 13.1005731,
      "lon": 77.5881723,
      "tags": {
        "addr:postcode": "560064",
        "amenity": "restaurant",
        "cuisine": "indian",
        "name": "Rathna Kushka Center"
      }
    },
    {
      "type": "node",
      "id": 3641353159,
      "lat": 13.1006631,
      "lon": 77.5769054,
      "tags": {
        "name": "Sangeeta Mobile",
        "shop": "electronics"
      }
    },
    {
      "type": "node",
      "id": 3641354247,
      "lat": 13.1011688,
      "lon": 77.5769731,
      "tags": {
        "name": "Royal Mart",
        "shop": "convenience"
      }
    },
    {
      "type": "node",
      "id": 3641363472,
      "lat": 13.102259,
      "lon": 77.5769737,
      "tags": {
        "amenity": "bank",
        "brand": "State Bank of India",
        "brand:wikidata": "Q1340361",
        "brand:wikipedia": "en:State Bank of India",
        "name": "State Bank of India",
        "name:kn": "ಭಾರತೀಯ ಸ್ಟೇಟ್ ಬ್ಯಾಂಕ್",
        "short_name": "SBI"
      }
    },
    {
      "type": "node",
      "id": 3642585038,
      "lat": 13.0982955,
      "lon": 77.5727826,
      "tags": {
        "brand": "Maruti Suzuki",
        "brand:wikidata": "Q963718",
        "name": "Mandovi Motors",
        "name:kn": "ಮಂಡೋವಿ ಮೋಟರ್ಸ್",
        "shop": "car"
      }
    },
    {
      "type": "node",
      "id": 3642605205,
      "lat": 13.099335,
      "lon": 77.5772599,
      "tags": {
        "amenity": "taxi",
        "name": "Autorickshaw Stand",
        "name:kn": "ಆಟೋ ನಿಲ್ದಾಣ"
      }
    },
    {
      "type": "node",
      "id": 3642631907,
      "lat": 13.099474,
      "lon": 77.5891287,
      "tags": {
        "amenity": "fast_food",
        "cuisine": "sandwich",
        "name": "Subway / Polar Bear"
      }
    },
    {
      "type": "node",
      "id": 3642638916,
      "lat": 13.0993015,
      "lon": 77.5892631,
      "tags": {
        "amenity": "restaurant",
        "brand": "Pizza Hut",
        "brand:wikidata": "Q191615",
        "cuisine": "pizza",
        "name": "Pizza Hut",
        "name:kn": "ಪಿಟ್ಸ ಹಟ್"
      }
    },
    {
      "type": "node",
      "id": 3642638917,
      "lat": 13.0993909,
      "lon": 77.589218,
      "tags": {
        "amenity": "restaurant",
        "cuisine": "chinese",
        "name": "Beijing Bites",
        "name:kn": "ಬೀಜಿಂಗ್ ಬೈಟ್ಸ್"
      }
    },
    {
      "type": "node",
      "id": 3642638918,
      "lat": 13.0994241,
      "lon": 77.5891823,
      "tags": {
        "amenity": "restaurant",
        "cuisine": "regional",
        "name": "Mast Kalandar",
        "name:kn": "ಮಸ್ತ್ ಕಲಂದರ್"
      }
    },
    {
      "type": "node",
      "id": 3690985200,
      "lat": 13.0992523,
      "lon": 77.5773423,
      "tags": {
        "addr:city": "Yelahanka New Town, Bangalore",
        "addr:street": "Mother Dairy Cross",
        "amenity": "restaurant",
        "cuisine": "regional",
        "diet:vegetarian": "only",
        "name": "Udupi Grand",
        "wheelchair": "limited"
      }
    },
    {
      "type": "node",
      "id": 3690989936,
      "lat": 13.093793,
      "lon": 77.5712363,
      "tags": {
        "name": "Royal Mart",
        "shop": "supermarket"
      }
    },
    {
      "type": "node",
      "id": 3708942125,
      "lat": 13.0975803,
      "lon": 77.5844426,
      "tags": {
        "amenity": "bank",
        "brand": "IDBI Bank",
        "brand:wikidata": "Q3633485",
        "brand:wikipedia": "en:IDBI Bank",
        "name": "IDBI Bank",
        "name:en": "IDBI Bank",
        "name:kn": "ಐಡಿಬಿಐ ಬ್ಯಾಂಕ್",
        "old_name": "Industrial Development Bank of India",
        "short_name": "IDBI",
        "website": "https://www.idbi.com"
      }
    },
    {
      "type": "node",
      "id": 3708942126,
      "lat": 13.0981341,
      "lon": 77.5846992,
      "tags": {
        "leisure": "fitness_centre",
        "name": "Snap Fitness"
      }
    },
    {
      "type": "node",
      "id": 4208545522,
      "lat": 13.0913689,
      "lon": 77.580564,
      "tags": {
        "amenity": "place_of_worship"
      }
    },
    {
      "type": "node",
      "id": 4432576889,
      "lat": 13.0946489,
      "lon": 77.5806369,
      "tags": {
        "name": "Naveen Electronics",
        "name:en": "Naveen Electronics",
        "opening_hours": "Mo-Su 09:00-21:00",
        "phone": "+91 94492 55733",
        "shop": "electronics"
      }
    },
    {
      "type": "node",
      "id": 4446891958,
      "lat": 13.1000069,
      "lon": 77.5799234,
      "tags": {
        "addr:city": "bangalore",
        "addr:housenumber": "808",
        "addr:postcode": "560064",
        "addr:street": "New Town Main Rd, Yelahanka Satellite Town, Yelahanka New Town",
        "amenity": "clinic",
        "name": "Newtown Childrens Clinic",
        "phone": "+9197414 55138",
        "website": "https://doctorsdigital.com/"
      }
    },
    {
      "type": "node",
      "id": 4489432866,
      "lat": 13.0975341,
      "lon": 77.5786434,
      "tags": {
        "addr:city": "bangalore",
        "addr:housenumber": "#302",
        "addr:postcode": "560064",
        "addr:street": "15th A Cross, A Sector, Near New Kanti Sweats, Yelahanka New Town, Bhadrappa Layout, Yelahanka New Town",
        "name": "Sangam International",
        "opening_hours": "09:30-21:00",
        "phone": "+919243412771",
        "shop": "sports"
      }
    },
    {
      "type": "node",
      "id": 4490312589,
      "lat": 13.0945389,
      "lon": 77.5858712,
      "tags": {
        "addr:city": "Bangalore",
        "addr:housenumber": "15th",
        "addr:postcode": "560064",
        "addr:street": "6th A Main Road",
        "name": "Devi's Shop",
        "phone": "+91 96861 96193",
        "shop": "supermarket"
      }
    },
    {
      "type": "node",
      "id": 4490370542,
      "lat": 13.0990214,
      "lon": 77.5768362,
      "tags": {
        "addr:city": "Bengaluru, Karnataka",
        "addr:housenumber": "2052",
        "addr:postcode": "560064",
        "addr:street": "13th B Main Road",
        "name": "Dazzle Super Market",
        "phone": "+91 80 2846 1448",
        "shop": "supermarket"
      }
    },
    {
      "type": "node",
      "id": 5964485854,
      "lat": 13.1034453,
      "lon": 77.5843576,
      "tags": {
        "amenity": "cafe",
        "brand": "Cafe Coffee Day",
        "brand:wikidata": "Q5017235",
        "cuisine": "coffee_shop",
        "indoor_seating": "yes",
        "name": "Cafe Coffee Day",
        "name:kn": "ಕಫೆ ಕಾಫಿ ಡೇ",
        "outdoor_seating": "no",
        "takeaway": "yes"
      }
    },
    {
      "type": "node",
      "id": 6630713206,
      "lat": 13.1001877,
      "lon": 77.5813432,
      "tags": {
        "addr:district": "Bengaluru Urban",
        "addr:full": "Yelahanka New Town, Bengaluru",
        "addr:postcode": "560064",
        "addr:state": "Karnataka",
        "amenity": "hospital",
        "healthcare": "hospital",
        "name": "Omega Multispeciality Hospital",
        "source": "Local Knowledge"
      }
    },
    {
      "type": "node",
      "id": 6630713207,
      "lat": 13.0957808,
      "lon": 77.5792872,
      "tags": {
        "amenity": "hospital",
        "healthcare": "hospital",
        "name": "NDR Hospital"
      }
    },
    {
      "type": "node",
      "id": 6938637677,
      "lat": 13.0965172,
      "lon": 77.5787745,
      "tags": {
        "addr:district": "Bengaluru Urban",
        "addr:full": "2118, 12Th Main RoadB Sector, 3Road Phase Yalahanka New Toen",
        "addr:postcode": "560064",
        "addr:state": "Karnataka",
        "amenity": "hospital",
        "name": "N.D.R. Hospital",
        "source": "OpenGovernmentData"
      }
    },
    {
      "type": "node",
      "id": 6938653697,
      "lat": 13.0959727,
      "lon": 77.5885404,
      "tags": {
        "addr:district": "Bengaluru Urban",
        "addr:full": "# 29, 1st Main, Sharad Nagar, Behind Yelahanka New Town",
        "addr:postcode": "560064",
        "addr:state": "Karnataka",
        "amenity": "bank",
        "brand": "AU Small Finance Bank",
        "brand:wikidata": "Q48729722",
        "name": "AU Small Finance Bank"
      }
    },
    {
      "type": "node",
      "id": 6938775815,
      "lat": 13.103924,
      "lon": 77.5837862,
      "tags": {
        "addr:district": "Bengaluru Urban",
        "addr:full": "No.32/1, Maruthi Complex,M S Nagar Bus Stop,Banaswadi Road",
        "addr:postcode": "560083",
        "addr:state": "Karnataka",
        "amenity": "hospital",
        "name": "Apple Hospital",
        "source": "OpenGovernmentData"
      }
    },
    {
      "type": "node",
      "id": 6944464768,
      "lat": 13.0983472,
      "lon": 77.5773677,
      "tags": {
        "addr:district": "Bengaluru Urban",
        "addr:full": "2069/2074, 16Th B Cross, (Near Mother Dairy Cross), Yelahanka New Town",
        "addr:postcode": "560064",
        "addr:state": "Karnataka",
        "amenity": "hospital",
        "check_date": "2024-10-18",
        "name": "Prasad Hospital, Bengaluru Urban",
        "source": "OpenGovernmentData"
      }
    },
    {
      "type": "node",
      "id": 6944464773,
      "lat": 13.0989729,
      "lon": 77.576732,
      "tags": {
        "addr:district": "Bengaluru Urban",
        "addr:full": "No 2054,13 Th Main 3 Road Phase , Mother Diary Cross, Yelahanka New Town",
        "addr:postcode": "560064",
        "addr:state": "Karnataka",
        "amenity": "clinic",
        "name": "Rangalakshmi Netralaya",
        "source": "OpenGovernmentData"
      }
    },
    {
      "type": "node",
      "id": 7220757450,
      "lat": 13.1006488,
      "lon": 77.5822735,
      "tags": {
        "name": "Chef Baker's",
        "shop": "bakery"
      }
    },
    {
      "type": "node",
      "id": 7220757469,
      "lat": 13.1035707,
      "lon": 77.5841725,
      "tags": {
        "amenity": "fast_food",
        "diet:vegetarian": "only",
        "indoor_seating": "yes",
        "name": "New Udupi Veg",
        "outdoor_seating": "yes"
      }
    },
    {
      "type": "node",
      "id": 7220757470,
      "lat": 13.1037262,
      "lon": 77.5840102,
      "tags": {
        "amenity": "fast_food",
        "indoor_seating": "yes",
        "name": "Biryani Zone",
        "outdoor_seating": "no"
      }
    },
    {
      "type": "node",
      "id": 7579683178,
      "lat": 13.0999885,
      "lon": 77.5756287,
      "tags": {
        "addr:district": "Bengaluru Urban",
        "addr:full": "Yelahanka New Town, Bengaluru",
        "addr:postcode": "560064",
        "addr:state": "Karnataka",
        "amenity": "clinic",
        "name": "Guruprasad Clinic",
        "source": "Local Knowledge"
      }
    },
    {
      "type": "node",
      "id": 7579683181,
      "lat": 13.0989732,
      "lon": 77.5768833,
      "tags": {
        "addr:district": "Bengaluru Urban",
        "addr:full": "Udaya Layout, Yelahanka New Town, Bengaluru",
        "addr:postcode": "560064",
        "addr:state": "Karnataka",
        "amenity": "clinic",
        "name": "Naina Polyclinic & Physiotherapy Centre",
        "source": "Local Knowledge"
      }
    },
    {
      "type": "node",
      "id": 7579683184,
      "lat": 13.0987047,
      "lon": 77.5843706,
      "tags": {
        "addr:district": "Bengaluru Urban",
        "addr:full": "Yelahanka, Bengaluru",
        "addr:postcode": "560064",
        "addr:state": "Karnataka",
        "amenity": "clinic",
        "name": "Raksha Orthocare",
        "source": "Local Knowledge"
      }
    },
    {
      "type": "node",
      "id": 7579683187,
      "lat": 13.103358,
      "lon": 77.576052,
      "tags": {
        "addr:district": "Bengaluru Urban",
        "addr:full": "Yelahanka New Town, Bengaluru",
        "addr:postcode": "560064",
        "addr:state": "Karnataka",
        "amenity": "clinic",
        "name": "Apex Poly Clinic",
        "source": "Local Knowledge"
      }
    },
    {
      "type": "node",
      "id": 7579683197,
      "lat": 13.0959768,
      "lon": 77.5786496,
      "tags": {
        "addr:district": "Bengaluru Urban",
        "addr:full": "Yelahanka New Town, Bengaluru",
        "addr:postcode": "560106",
        "addr:state": "Karnataka",
        "amenity": "clinic",
        "name": "Gayathri Clinic",
        "source": "Local Knowledge"
      }
    },
    {
      "type": "node",
      "id": 7579683200,
      "lat": 13.0978598,
      "lon": 77.5876976,
      "tags": {
        "addr:district": "Bengaluru Urban",
        "addr:full": "Yelahanka, Bengaluru",
        "addr:postcode": "560064",
        "addr:state": "Karnataka",
        "amenity": "dentist",
        "name": "Zircon dental",
        "source": "Local Knowledge"
      }
    },
    {
      "type": "node",
      "id": 7579683203,
      "lat": 13.1039081,
      "lon": 77.5754898,
      "tags": {
        "addr:district": "Bengaluru Urban",
        "addr:full": "Yelahanka New Town, Bengaluru",
        "addr:postcode": "560064",
        "addr:state": "Karnataka",
        "amenity": "hospital",
        "name": "Bengalure Hospital",
        "source": "Local Knowledge"
      }
    },
    {
      "type": "node",
      "id": 7579683204,
      "lat": 13.0971601,
      "lon": 77.5783127,
      "tags": {
        "addr:district": "Bengaluru Urban",
        "addr:full": "New Town Bus Stand Road,Yelahanka New Town, Bengaluru",
        "addr:postcode": "560064",
        "addr:state": "Karnataka",
        "amenity": "dentist",
        "name": "Partha Dental Clinic",
        "source": "Local Knowledge"
      }
    },
    {
      "type": "node",
      "id": 7579683215,
      "lat": 13.098943,
      "lon": 77.576716,
      "tags": {
        "addr:district": "Bengaluru Urban",
        "addr:full": "Udaya Layout, Yelahanka New Town, Bengaluru",
        "addr:postcode": "560106",
        "addr:state": "Karnataka",
        "amenity": "hospital",
        "name": "Rangalakshmi Netralaya",
        "source": "Local Knowledge"
      }
    },
    {
      "type": "node",
      "id": 7579683216,
      "lat": 13.0942729,
      "lon": 77.5821514,
      "tags": {
        "addr:district": "Bengaluru Urban",
        "addr:full": "Yelahanka New Town, Bangalore",
        "addr:postcode": "560064",
        "addr:state": "Karnataka",
        "amenity": "clinic",
        "name": "Shuban Diabetes Center",
        "source": "Local Knowledge"
      }
    },
    {
      "type": "node",
      "id": 7579683222,
      "lat": 13.0985051,
      "lon": 77.5875066,
      "tags": {
        "addr:district": "Bengaluru Urban",
        "addr:full": "Major Akshay Girish Kumar Road, Yelahanka, Bengaluru",
        "addr:postcode": "560064",
        "addr:state": "Karnataka",
        "amenity": "clinic",
        "name": "Synapse Health Care",
        "source": "Local Knowledge"
      }
    },
    {
      "type": "node",
      "id": 7579683228,
      "lat": 13.0997321,
      "lon": 77.5760891,
      "tags": {
        "addr:district": "Bengaluru Urban",
        "addr:full": "Yelahanka New Town, Bengaluru",
        "addr:postcode": "560064",
        "addr:state": "Karnataka",
        "amenity": "hospital",
        "name": "Rainbow Health Care",
        "source": "Local Knowledge"
      }
    },
    {
      "type": "node",
      "id": 7579683235,
      "lat": 13.098729,
      "lon": 77.577214,
      "tags": {
        "addr:district": "Bengaluru Urban",
        "addr:full": "Yelahanka, Bengaluru",
        "addr:postcode": "560064",
        "addr:state": "Karnataka",
        "amenity": "dentist",
        "name": "Dr. Shetty's Dental Specialities",
        "source": "Local Knowledge"
      }
    },
    {
      "type": "node",
      "id": 7579683238,
      "lat": 13.1033688,
      "lon": 77.576326,
      "tags": {
        "addr:district": "Bengaluru Urban",
        "addr:full": "Yelahanka New Town, Bengaluru",
        "addr:postcode": "560064",
        "addr:state": "Karnataka",
        "amenity": "clinic",
        "name": "Srividya Clinic",
        "source": "Local Knowledge"
      }
    },
    {
      "type": "node",
      "id": 7579683239,
      "lat": 13.0987631,
      "lon": 77.5777261,
      "tags": {
        "addr:district": "Bengaluru Urban",
        "addr:full": "Yelahanka New Town, Bengaluru",
        "addr:postcode": "560064",
        "addr:state": "Karnataka",
        "amenity": "dentist",
        "name": "Elite 33 Dental Clinic",
        "source": "Local Knowledge"
      }
    },
    {
      "type": "node",
      "id": 7579683245,
      "lat": 13.098998,
      "lon": 77.57689,
      "tags": {
        "addr:district": "Bengaluru Urban",
        "addr:full": "Udaya Layout, Yelahanka New Town, Bengaluru",
        "addr:postcode": "560064",
        "addr:state": "Karnataka",
        "amenity": "clinic",
        "name": "Sri Gurumangala Eye Foundation",
        "source": "Local Knowledge"
      }
    },
    {
      "type": "node",
      "id": 7579683250,
      "lat": 13.1035061,
      "lon": 77.5766997,
      "tags": {
        "addr:district": "Bengaluru Urban",
        "addr:full": "RWF West Colony, Yelahanka New Town, Bengaluru",
        "addr:postcode": "560064",
        "addr:state": "Karnataka",
        "amenity": "clinic",
        "name": "Mathru Clinic",
        "source": "Local Knowledge"
      }
    },
    {
      "type": "node",
      "id": 7579683257,
      "lat": 13.0997418,
      "lon": 77.5814832,
      "tags": {
        "addr:district": "Bengaluru Urban",
        "addr:full": "7th Main, Yelahanka, Bengaluru",
        "addr:postcode": "560064",
        "addr:state": "Karnataka",
        "amenity": "clinic",
        "name": "Sri Satya Sai Orthopaedic Clinic",
        "source": "Local Knowledge"
      }
    },
    {
      "type": "node",
      "id": 7579683261,
      "lat": 13.098668,
      "lon": 77.5826843,
      "tags": {
        "addr:district": "Bengaluru Urban",
        "addr:full": "Yelahanka New Town, Bengaluru",
        "addr:postcode": "560064",
        "addr:state": "Karnataka",
        "amenity": "hospital",
        "name": "Just Smiles",
        "source": "Local Knowledge"
      }
    },
    {
      "type": "node",
      "id": 7579683262,
      "lat": 13.099182,
      "lon": 77.577699,
      "tags": {
        "addr:district": "Bengaluru Urban",
        "addr:full": "Yelahanka New Town, Bengaluru",
        "addr:postcode": "560064",
        "addr:state": "Karnataka",
        "amenity": "dentist",
        "name": "Attharva Dental and Children's Clinic",
        "source": "Local Knowledge"
      }
    },
    {
      "type": "node",
      "id": 7656923792,
      "lat": 13.0939851,
      "lon": 77.5774475,
      "tags": {
        "amenity": "shelter",
        "bench": "yes",
        "lit": "yes",
        "name": "Sharadhanagar Park Gazebo",
        "shelter_type": "gazebo"
      }
    },
    {
      "type": "node",
      "id": 8187961892,
      "lat": 13.0997967,
      "lon": 77.5792365,
      "tags": {
        "addr:full": "Yellahanka New Town Main Road, Yelahanka New Town, Bengaluru, Karnataka",
        "addr:state": "Karnataka",
        "amenity": "bank",
        "brand": "Allahabad Bank",
        "brand:wikidata": "Q2018840",
        "name": "Allahabad Bank",
        "name:kn": "ಅಲ್ಲಹಾಬಾದ್ ಬ್ಯಾಂಕ್"
      }
    },
    {
      "type": "node",
      "id": 9404279918,
      "lat": 13.0960135,
      "lon": 77.5787005,
      "tags": {
        "addr:postcode": "560064",
        "addr:street": "2nd Main Road",
        "amenity": "ice_cream",
        "name": "ಸವಿ ಐಸ್ ಕ್ರೀಮ್",
        "name:en": "Savi Ice Cream",
        "opening_hours": "Mo-Su 11:00-23:00",
        "phone": "9844234733"
      }
    },
    {
      "type": "node",
      "id": 9623069636,
      "lat": 13.0968582,
      "lon": 77.5777955,
      "tags": {
        "amenity": "clinic",
        "name": "Kaveri Diagnostic Centre"
      }
    },
    {
      "type": "node",
      "id": 10558971067,
      "lat": 13.0997175,
      "lon": 77.5758749,
      "tags": {
        "amenity": "atm",
        "operator": "AXIS ATM",
        "source": "Eshwar"
      }
    },
    {
      "type": "node",
      "id": 10558971068,
      "lat": 13.099653,
      "lon": 77.5761409,
      "tags": {
        "amenity": "atm",
        "operator": "HDFC ATM",
        "source": "Eshwar"
      }
    },
    {
      "type": "node",
      "id": 10558971069,
      "lat": 13.0997586,
      "lon": 77.5764915,
      "tags": {
        "amenity": "cafe",
        "name": "Sri Brahmalingeshwara Juice Chaats & Condiments",
        "source": "Eshwar"
      }
    },
    {
      "type": "node",
      "id": 10558971070,
      "lat": 13.0995257,
      "lon": 77.5765118,
      "tags": {
        "amenity": "toilets",
        "fee": "yes",
        "source": "Eshwar"
      }
    },
    {
      "type": "node",
      "id": 10694997437,
      "lat": 13.0981244,
      "lon": 77.5728089,
      "tags": {
        "amenity": "driving_school",
        "name": "Maruti Driving School",
        "operator": "Mandovi Motors"
      }
    },
    {
      "type": "node",
      "id": 10694997442,
      "lat": 13.0983837,
      "lon": 77.5731577,
      "tags": {
        "amenity": "bank",
        "brand": "IDFC First Bank",
        "brand:wikidata": "Q22031467",
        "name": "IDFC First Bank"
      }
    },
    {
      "type": "node",
      "id": 10694997443,
      "lat": 13.0983798,
      "lon": 77.5731391,
      "tags": {
        "amenity": "atm",
        "brand": "IDFC First Bank",
        "brand:wikidata": "Q22031467",
        "operator": "IDFC First Bank",
        "operator:wikidata": "Q22031467"
      }
    },
    {
      "type": "node",
      "id": 10694997444,
      "lat": 13.0983961,
      "lon": 77.5732108,
      "tags": {
        "amenity": "ice_cream",
        "name": "Corner House"
      }
    },
    {
      "type": "node",
      "id": 10694997445,
      "lat": 13.0984057,
      "lon": 77.5732531,
      "tags": {
        "name": "the organic world",
        "organic": "only",
        "shop": "supermarket"
      }
    },
    {
      "type": "node",
      "id": 10694997446,
      "lat": 13.0984191,
      "lon": 77.5733317,
      "tags": {
        "name": "Ajfan Dates and Nuts",
        "shop": "convenience"
      }
    },
    {
      "type": "node",
      "id": 10694997447,
      "lat": 13.0983856,
      "lon": 77.5732747,
      "tags": {
        "amenity": "restaurant",
        "cuisine": "barbecue",
        "name": "Barbeque Nation"
      }
    },
    {
      "type": "node",
      "id": 10694997448,
      "lat": 13.0984363,
      "lon": 77.5734192,
      "tags": {
        "alt_name": "Kentucky Fried Chicken",
        "alt_name:en": "Kentucky Fried Chicken",
        "alt_name:hi": "केंटुकी फ्राइड चिकन",
        "alt_name:pa": "ਕੈਂਟੁਕੀ ਫ੍ਰਾਈਡ ਚਿਕਨ",
        "alt_name:pnb": "کینٹکی فرائیڈ چکن",
        "alt_name:ur": "کینٹکی فرائیڈ چکن",
        "amenity": "fast_food",
        "brand": "KFC",
        "brand:en": "KFC",
        "brand:hi": "केएफसी",
        "brand:pa": "ਕੇਐਫਸੀ",
        "brand:pnb": "کے ایف سی",
        "brand:ur": "کے ایف سی",
        "brand:wikidata": "Q524757",
        "cuisine": "chicken",
        "name": "KFC",
        "name:en": "KFC",
        "name:hi": "केएफसी",
        "name:pa": "ਕੇਐਫਸੀ",
        "name:pnb": "کے ایف سی",
        "name:ur": "کے ایف سی",
        "takeaway": "yes"
      }
    },
    {
      "type": "node",
      "id": 10694997449,
      "lat": 13.0984813,
      "lon": 77.573668,
      "tags": {
        "amenity": "fast_food",
        "brand": "Subway",
        "brand:wikidata": "Q244457",
        "cuisine": "sandwich",
        "name": "Subway",
        "takeaway": "yes"
      }
    },
    {
      "type": "node",
      "id": 10694997450,
      "lat": 13.0984679,
      "lon": 77.5735844,
      "tags": {
        "name": "peps",
        "shop": "bed"
      }
    },
    {
      "type": "node",
      "id": 10971500592,
      "lat": 13.1081782,
      "lon": 77.5801411,
      "tags": {
        "access": "permissive",
        "amenity": "parking_entrance",
        "parking": "underground"
      }
    },
    {
      "type": "node",
      "id": 11423253052,
      "lat": 13.0957622,
      "lon": 77.5768393,
      "tags": {
        "amenity": "shelter",
        "shelter_type": "gazebo"
      }
    },
    {
      "type": "node",
      "id": 11425006378,
      "lat": 13.0995712,
      "lon": 77.5727476,
      "tags": {
        "amenity": "shelter",
        "shelter_type": "gazebo"
      }
    },
    {
      "type": "node",
      "id": 11425006379,
      "lat": 13.0987887,
      "lon": 77.5728817,
      "tags": {
        "amenity": "shelter",
        "shelter_type": "gazebo"
      }
    },
    {
      "type": "node",
      "id": 11443508173,
      "lat": 13.0979279,
      "lon": 77.5842154,
      "tags": {
        "air_conditioning": "no",
        "amenity": "fast_food",
        "baby_feeding": "no",
        "changing_table": "no",
        "cuisine": "regional",
        "indoor_seating": "yes",
        "level": "0",
        "name": "The Food Street",
        "takeaway": "yes",
        "toilets": "yes",
        "toilets:access": "customers"
      }
    },
    {
      "type": "node",
      "id": 11445618355,
      "lat": 13.0959233,
      "lon": 77.5781351,
      "tags": {
        "amenity": "bench",
        "backrest": "yes",
        "colour": "grey",
        "material": "granite",
        "seats": "2"
      }
    },
    {
      "type": "node",
      "id": 11445618356,
      "lat": 13.0959505,
      "lon": 77.5781791,
      "tags": {
        "amenity": "bench",
        "backrest": "yes",
        "colour": "grey",
        "material": "granite",
        "seats": "2"
      }
    },
    {
      "type": "node",
      "id": 11445618357,
      "lat": 13.0961377,
      "lon": 77.5782858,
      "tags": {
        "amenity": "bench",
        "backrest": "yes",
        "colour": "grey",
        "material": "granite",
        "seats": "2"
      }
    },
    {
      "type": "node",
      "id": 11445618358,
      "lat": 13.0960008,
      "lon": 77.5780674,
      "tags": {
        "amenity": "bench",
        "backrest": "yes",
        "colour": "grey",
        "material": "granite",
        "seats": "2"
      }
    },
    {
      "type": "node",
      "id": 11445618359,
      "lat": 13.0960586,
      "lon": 77.5781924,
      "tags": {
        "amenity": "shelter",
        "shelter_type": "gazebo"
      }
    },
    {
      "type": "node",
      "id": 11445661030,
      "lat": 13.0949754,
      "lon": 77.5776922,
      "tags": {
        "check_date": "2023-12-23",
        "name": "BK Motors",
        "shop": "motorcycle_repair"
      }
    },
    {
      "type": "node",
      "id": 11445661031,
      "lat": 13.0949526,
      "lon": 77.5776489,
      "tags": {
        "check_date": "2023-12-23",
        "name": "LJ Iyengar Bakery",
        "shop": "bakery"
      }
    },
    {
      "type": "node",
      "id": 11445661032,
      "lat": 13.0950403,
      "lon": 77.5775546,
      "tags": {
        "check_date": "2023-12-23",
        "name": "Aadhya Big Prints",
        "phone": "+91 93433 33375",
        "shop": "copyshop"
      }
    },
    {
      "type": "node",
      "id": 11445661033,
      "lat": 13.0951072,
      "lon": 77.5776395,
      "tags": {
        "check_date": "2023-12-23",
        "name": "Manjunath Vegetables and Fruit Shop",
        "shop": "greengrocer"
      }
    },
    {
      "type": "node",
      "id": 11445661034,
      "lat": 13.0951316,
      "lon": 77.5776745,
      "tags": {
        "check_date": "2023-12-23",
        "name": "The Boys Men’s Beauty Salon",
        "shop": "beauty"
      }
    },
    {
      "type": "node",
      "id": 11445661035,
      "lat": 13.0950191,
      "lon": 77.5775303,
      "tags": {
        "amenity": "restaurant",
        "check_date": "2023-12-23",
        "cuisine": "indian",
        "name": "Udupi Tiffin Centre"
      }
    },
    {
      "type": "node",
      "id": 11445661036,
      "lat": 13.0949717,
      "lon": 77.5774994,
      "tags": {
        "check_date": "2023-12-23",
        "name": "Roopa Herbal Beauty Parlour",
        "phone": "+91 74111 81936",
        "shop": "beauty"
      }
    },
    {
      "type": "node",
      "id": 11445662495,
      "lat": 13.0947435,
      "lon": 77.5763824,
      "tags": {
        "check_date": "2023-12-23",
        "name": "Glamour Touch Ladies and Children Beauty Parlour",
        "phone": "+91 94485 67478",
        "shop": "beauty"
      }
    },
    {
      "type": "node",
      "id": 11445662496,
      "lat": 13.0947455,
      "lon": 77.5763079,
      "tags": {
        "check_date": "2023-12-23",
        "name": "HMS Tailor Ladies and gents",
        "shop": "tailor"
      }
    },
    {
      "type": "node",
      "id": 11445662497,
      "lat": 13.0951316,
      "lon": 77.580035,
      "tags": {
        "check_date": "2023-12-23",
        "name": "Happy Tails",
        "shop": "pet"
      }
    },
    {
      "type": "node",
      "id": 11445662498,
      "lat": 13.0951387,
      "lon": 77.5800692,
      "tags": {
        "amenity": "pharmacy",
        "brand": "MedPlus",
        "brand:wikidata": "Q65684234",
        "check_date": "2023-12-23",
        "healthcare": "pharmacy",
        "name": "MedPlus"
      }
    },
    {
      "type": "node",
      "id": 11445662499,
      "lat": 13.0950571,
      "lon": 77.5801197,
      "tags": {
        "check_date": "2023-12-23",
        "clothes": "women",
        "name": "Trends Woman",
        "shop": "clothes"
      }
    },
    {
      "type": "node",
      "id": 11445669298,
      "lat": 13.0961556,
      "lon": 77.5786917,
      "tags": {
        "check_date": "2023-12-23",
        "name": "Nandini Milk Booth",
        "shop": "dairy"
      }
    },
    {
      "type": "node",
      "id": 11445669299,
      "lat": 13.0960581,
      "lon": 77.5786491,
      "tags": {
        "check_date": "2023-12-23",
        "name": "Toto Gents & Ladies Wear",
        "shop": "clothes"
      }
    },
    {
      "type": "node",
      "id": 11445670636,
      "lat": 13.0944652,
      "lon": 77.5809104,
      "tags": {
        "check_date": "2023-12-23",
        "name": "Bharath Cycle Centre",
        "shop": "bicycle"
      }
    },
    {
      "type": "node",
      "id": 11445670637,
      "lat": 13.0944409,
      "lon": 77.5809525,
      "tags": {
        "amenity": "bank",
        "atm": "yes",
        "check_date": "2023-12-23",
        "name": "Dhanalaxmi Bank",
        "opening_hours": "Mo-Sa 10:00-16:00"
      }
    },
    {
      "type": "node",
      "id": 11445670638,
      "lat": 13.0945203,
      "lon": 77.5808265,
      "tags": {
        "amenity": "cafe",
        "check_date": "2023-12-23",
        "name": "7th Heaven"
      }
    },
    {
      "type": "node",
      "id": 11445670639,
      "lat": 13.0945436,
      "lon": 77.5807959,
      "tags": {
        "check_date": "2023-12-23",
        "name": "Pragathi Telesolutions",
        "shop": "mobile_phone"
      }
    },
    {
      "type": "node",
      "id": 11445706495,
      "lat": 13.0958525,
      "lon": 77.578513,
      "tags": {
        "check_date": "2023-12-23",
        "name": "Sri Krishna Printers",
        "shop": "copyshop"
      }
    },
    {
      "type": "node",
      "id": 11445706496,
      "lat": 13.0955323,
      "lon": 77.5781644,
      "tags": {
        "amenity": "clinic",
        "check_date": "2023-12-23",
        "description": "Care and Cure - Kids and Family Clinic",
        "healthcare": "clinic",
        "name": "Care and Cure"
      }
    },
    {
      "type": "node",
      "id": 11445706497,
      "lat": 13.0953669,
      "lon": 77.577956,
      "tags": {
        "amenity": "restaurant",
        "check_date": "2023-12-23",
        "name": "Madeena Sumaya Hotel"
      }
    },
    {
      "type": "node",
      "id": 11445707398,
      "lat": 13.094997,
      "lon": 77.5760937,
      "tags": {
        "check_date": "2023-12-23",
        "email": "carangadi666@gmail.com",
        "name": "Car Angadi",
        "phone": "+91 98457 62666",
        "second_hand": "only",
        "shop": "car"
      }
    },
    {
      "type": "node",
      "id": 11445708972,
      "lat": 13.0948017,
      "lon": 77.5770341,
      "tags": {
        "check_date": "2023-12-23",
        "name": "Sri Gurukripa Xerox And Print",
        "phone": "+91 99805 24873",
        "shop": "copyshop"
      }
    },
    {
      "type": "node",
      "id": 11445710026,
      "lat": 13.0958663,
      "lon": 77.5785324,
      "tags": {
        "amenity": "post_office",
        "check_date": "2023-12-23",
        "name": "Professional Couriers"
      }
    },
    {
      "type": "node",
      "id": 11445710027,
      "lat": 13.0955168,
      "lon": 77.5781297,
      "tags": {
        "check_date": "2023-12-23",
        "name": "Chowdeshwari Mart",
        "shop": "supermarket"
      }
    },
    {
      "type": "node",
      "id": 11445710028,
      "lat": 13.0954273,
      "lon": 77.5780297,
      "tags": {
        "check_date": "2023-12-23",
        "name": "Annapurna Home Needs",
        "shop": "kiosk"
      }
    },
    {
      "type": "node",
      "id": 11445710029,
      "lat": 13.0951276,
      "lon": 77.5777262,
      "tags": {
        "access": "yes",
        "amenity": "drinking_water",
        "fee": "yes",
        "operator": "BBMP",
        "payment:cash": "yes"
      }
    },
    {
      "type": "node",
      "id": 11445712182,
      "lat": 13.0949614,
      "lon": 77.5774427,
      "tags": {
        "check_date": "2023-12-23",
        "name": "Sri Manjunatha Tailors Gents Specialist",
        "shop": "tailor"
      }
    },
    {
      "type": "node",
      "id": 11445715299,
      "lat": 13.0941852,
      "lon": 77.5782466,
      "tags": {
        "amenity": "clinic",
        "check_date": "2023-12-23",
        "healthcare": "clinic",
        "name": "Hayagreeva Medical And Women's Health"
      }
    },
    {
      "type": "node",
      "id": 11445715302,
      "lat": 13.0954093,
      "lon": 77.5797377,
      "tags": {
        "check_date": "2023-12-23",
        "level": "1",
        "name": "Shiva Vision Care",
        "shop": "optician"
      }
    },
    {
      "type": "node",
      "id": 11445715442,
      "lat": 13.0946288,
      "lon": 77.576266,
      "tags": {
        "check_date": "2023-12-23",
        "name": "Sri Durga Provision Store",
        "phone": "+91 98800 49100",
        "shop": "convenience"
      }
    },
    {
      "type": "node",
      "id": 11445715484,
      "lat": 13.0955023,
      "lon": 77.5796366,
      "tags": {
        "check_date": "2023-12-23",
        "name": "Dry Fruit Specials",
        "shop": "kiosk"
      }
    },
    {
      "type": "node",
      "id": 11445719555,
      "lat": 13.0948101,
      "lon": 77.5774143,
      "tags": {
        "check_date": "2023-12-23",
        "name": "Suguna Chicken and Egg Center",
        "shop": "butcher"
      }
    },
    {
      "type": "node",
      "id": 11445726513,
      "lat": 13.0948037,
      "lon": 77.5768631,
      "tags": {
        "check_date": "2023-12-23",
        "name": "Sri Lakshmi Venkateshwara Provision Store",
        "shop": "convenience"
      }
    },
    {
      "type": "node",
      "id": 11445728908,
      "lat": 13.0947388,
      "lon": 77.5767482,
      "tags": {
        "check_date": "2023-12-23",
        "name": "Bhagya Ladies Tailor",
        "phone": "+91 87224 14882",
        "shop": "tailor"
      }
    },
    {
      "type": "node",
      "id": 11445748169,
      "lat": 13.0947406,
      "lon": 77.5805133,
      "tags": {
        "brand": "Snack Shop",
        "check_date": "2023-12-23",
        "name": "Sri Venkateshwara Hot Chips",
        "shop": "convenience"
      }
    },
    {
      "type": "node",
      "id": 11445773864,
      "lat": 13.099218,
      "lon": 77.5851031,
      "tags": {
        "amenity": "cafe",
        "check_date": "2023-12-23",
        "indoor_seating": "yes",
        "name": "Bengaluru Central Cafe",
        "outdoor_seating": "no"
      }
    },
    {
      "type": "node",
      "id": 11448931944,
      "lat": 13.0976471,
      "lon": 77.5839056,
      "tags": {
        "air_conditioning": "yes",
        "amenity": "cinema",
        "brand": "INOX Leisure",
        "brand:wikidata": "Q5972349",
        "name": "INOX Garuda",
        "short_name": "INOX",
        "toilets": "yes",
        "toilets:access": "customers"
      }
    },
    {
      "type": "node",
      "id": 11448932000,
      "lat": 13.096054,
      "lon": 77.5782081,
      "tags": {
        "amenity": "bench",
        "backrest": "yes",
        "material": "stone",
        "seats": "2"
      }
    },
    {
      "type": "node",
      "id": 11448932001,
      "lat": 13.0960676,
      "lon": 77.5782046,
      "tags": {
        "amenity": "bench",
        "backrest": "yes",
        "material": "stone",
        "seats": "2"
      }
    },
    {
      "type": "node",
      "id": 11448932002,
      "lat": 13.0960749,
      "lon": 77.57819,
      "tags": {
        "amenity": "bench",
        "backrest": "yes",
        "material": "stone",
        "seats": "2"
      }
    },
    {
      "type": "node",
      "id": 11448932003,
      "lat": 13.0960687,
      "lon": 77.5781759,
      "tags": {
        "amenity": "bench",
        "backrest": "yes",
        "material": "stone",
        "seats": "2"
      }
    },
    {
      "type": "node",
      "id": 11448932004,
      "lat": 13.0960534,
      "lon": 77.5781756,
      "tags": {
        "amenity": "bench",
        "backrest": "yes",
        "material": "stone",
        "seats": "2"
      }
    },
    {
      "type": "node",
      "id": 11448932005,
      "lat": 13.0960427,
      "lon": 77.5781831,
      "tags": {
        "amenity": "bench",
        "backrest": "yes",
        "material": "stone",
        "seats": "2"
      }
    },
    {
      "type": "node",
      "id": 11449482587,
      "lat": 13.0971259,
      "lon": 77.5834416,
      "tags": {
        "access": "permissive",
        "amenity": "motorcycle_parking",
        "covered": "no",
        "parking": "surface"
      }
    },
    {
      "type": "node",
      "id": 11496780439,
      "lat": 13.1047037,
      "lon": 77.5770629,
      "tags": {
        "access": "yes",
        "amenity": "drinking_water",
        "bottle": "yes",
        "charge": "5 INR",
        "fee": "yes"
      }
    },
    {
      "type": "node",
      "id": 11496780440,
      "lat": 13.104773,
      "lon": 77.5770781,
      "tags": {
        "amenity": "marketplace",
        "check_date": "2024-01-07",
        "name": "Fruit and Vegetable Market"
      }
    },
    {
      "type": "node",
      "id": 11503759307,
      "lat": 13.1005521,
      "lon": 77.5717632,
      "tags": {
        "amenity": "shelter",
        "shelter_type": "gazebo"
      }
    },
    {
      "type": "node",
      "id": 11534777959,
      "lat": 13.0983166,
      "lon": 77.5735045,
      "tags": {
        "addr:floor": "4",
        "addr:housename": "Prestige Plaza",
        "addr:street": "Yelahanka New Town Road",
        "amenity": "bar",
        "check_date": "2024-01-20",
        "contact:instagram": "https://www.instagram.com/orahbrewgarden",
        "level": "3",
        "name": "Orah Brew Garden"
      }
    },
    {
      "type": "node",
      "id": 11577009785,
      "lat": 13.098829,
      "lon": 77.5846299,
      "tags": {
        "addr:city": "Bengaluru",
        "addr:street": "1st A Main Road",
        "amenity": "fast_food",
        "cuisine": "burger",
        "diet:vegetarian": "yes",
        "drive_through": "no",
        "indoor_seating": "yes",
        "name": "Leons Grill",
        "outdoor_seating": "no"
      }
    },
    {
      "type": "node",
      "id": 11577009789,
      "lat": 13.0988037,
      "lon": 77.5848866,
      "tags": {
        "amenity": "parking_entrance",
        "parking": "underground"
      }
    },
    {
      "type": "node",
      "id": 11803716024,
      "lat": 13.0984485,
      "lon": 77.573512,
      "tags": {
        "amenity": "fast_food",
        "brand": "Burger King",
        "brand:wikidata": "Q177054",
        "cuisine": "burger",
        "name": "Burger King",
        "name:kn": "ಬರ್ಗರ್ ಕಿಂಗ್",
        "takeaway": "yes"
      }
    },
    {
      "type": "node",
      "id": 11803716025,
      "lat": 13.0983851,
      "lon": 77.5735959,
      "tags": {
        "amenity": "pub",
        "contact:instagram": "houseofcommons_blr",
        "name": "House of Commons"
      }
    },
    {
      "type": "node",
      "id": 11913889541,
      "lat": 13.100544,
      "lon": 77.5766444,
      "tags": {
        "amenity": "fast_food",
        "cuisine": "regional",
        "name": "Indira Canteen",
        "operator": "BBMP"
      }
    },
    {
      "type": "node",
      "id": 11919727044,
      "lat": 13.0976563,
      "lon": 77.57052,
      "tags": {
        "access": "private",
        "amenity": "parking_entrance",
        "parking": "underground"
      }
    },
    {
      "type": "node",
      "id": 11932360094,
      "lat": 13.099548,
      "lon": 77.5767124,
      "tags": {
        "check_date": "2024-05-25",
        "name": "Nandini",
        "shop": "dairy"
      }
    },
    {
      "type": "node",
      "id": 11932360097,
      "lat": 13.0939407,
      "lon": 77.5818254,
      "tags": {
        "brand": "Theobroma",
        "check_date": "2025-11-22",
        "delivery": "yes",
        "name": "Theobroma",
        "shop": "pastry",
        "takeaway": "yes"
      }
    },
    {
      "type": "node",
      "id": 11932360099,
      "lat": 13.0959402,
      "lon": 77.5833791,
      "tags": {
        "check_date": "2024-05-25",
        "name": "Just Bake",
        "shop": "bakery"
      }
    },
    {
      "type": "node",
      "id": 11932360100,
      "lat": 13.096882,
      "lon": 77.5837256,
      "tags": {
        "amenity": "bank",
        "brand": "Ujjivan Small Finance Bank",
        "brand:wikidata": "Q42529272",
        "check_date": "2024-05-25",
        "name": "Ujjivan Small Finance Bank"
      }
    },
    {
      "type": "node",
      "id": 11932360101,
      "lat": 13.0988801,
      "lon": 77.5873583,
      "tags": {
        "amenity": "bank",
        "atm": "yes",
        "brand": "Yes Bank",
        "brand:wikidata": "Q2040394",
        "check_date": "2025-04-05",
        "check_date:opening_hours": "2025-04-05",
        "name": "Yes Bank",
        "opening_hours": "Mo-Fr 09:30-16:30;Sa[3,4] 09:30-16:30"
      }
    },
    {
      "type": "node",
      "id": 12031547867,
      "lat": 13.0972551,
      "lon": 77.5904754,
      "tags": {
        "amenity": "events_venue",
        "name": "Dr. BR Ambedkar Bhavan",
        "name:kn": "ಡಾ ಅಂಬೇಡ್ಕರ್ ಭವನ"
      }
    },
    {
      "type": "node",
      "id": 12039054611,
      "lat": 13.0955932,
      "lon": 77.5873145,
      "tags": {
        "leisure": "fitness_centre",
        "name": "Paripurna Yoga Kendra",
        "sport": "yoga"
      }
    },
    {
      "type": "node",
      "id": 12040171134,
      "lat": 13.0935257,
      "lon": 77.5894386,
      "tags": {
        "level": "1",
        "name": "Itsy Bitsy",
        "shop": "craft"
      }
    },
    {
      "type": "node",
      "id": 12040205718,
      "lat": 13.0934781,
      "lon": 77.5894029,
      "tags": {
        "amenity": "fast_food",
        "cuisine": "juice",
        "indoor_seating": "no",
        "name": "Brahma Sri Sai Tea & Juice center",
        "outdoor_seating": "no",
        "takeaway": "only"
      }
    },
    {
      "type": "node",
      "id": 12040205749,
      "lat": 13.0935631,
      "lon": 77.5894255,
      "tags": {
        "amenity": "doctors",
        "healthcare": "doctor",
        "healthcare:speciality": "gastroenterology",
        "level": "2",
        "name": "S L Gastro & Liver Clinic"
      }
    },
    {
      "type": "node",
      "id": 12040206066,
      "lat": 13.0935394,
      "lon": 77.5894775,
      "tags": {
        "air_conditioning": "no",
        "amenity": "cafe",
        "diet:vegan": "yes",
        "diet:vegetarian": "yes",
        "indoor_seating": "yes",
        "level": "1",
        "name": "64 Chai Bar",
        "outdoor_seating": "no"
      }
    },
    {
      "type": "node",
      "id": 12040209384,
      "lat": 13.0935598,
      "lon": 77.5895277,
      "tags": {
        "level": "1",
        "name": "Wag Bond",
        "shop": "pet_grooming"
      }
    },
    {
      "type": "node",
      "id": 12041977812,
      "lat": 13.0932472,
      "lon": 77.5888943,
      "tags": {
        "name": "Würfel Küche",
        "shop": "kitchen"
      }
    },
    {
      "type": "node",
      "id": 12057247483,
      "lat": 13.0931295,
      "lon": 77.5888251,
      "tags": {
        "amenity": "atm",
        "brand": "Punjab National Bank",
        "brand:wikidata": "Q2743499",
        "cash_in": "no",
        "indoor": "yes",
        "operator": "Punjab National Bank",
        "operator:wikidata": "Q2743499"
      }
    },
    {
      "type": "node",
      "id": 12057310851,
      "lat": 13.09534,
      "lon": 77.5887241,
      "tags": {
        "amenity": "cafe",
        "name": "Bluebrick Cafe"
      }
    },
    {
      "type": "node",
      "id": 12057349747,
      "lat": 13.0975655,
      "lon": 77.587837,
      "tags": {
        "shop": "furniture"
      }
    },
    {
      "type": "node",
      "id": 12058675625,
      "lat": 13.0936159,
      "lon": 77.5827842,
      "tags": {
        "amenity": "restaurant",
        "cuisine": "indian",
        "diet:vegetarian": "only",
        "drink:beer": "no",
        "indoor_seating": "yes",
        "name": "Swathi Vaibhav",
        "outdoor_seating": "no"
      }
    },
    {
      "type": "node",
      "id": 12108115676,
      "lat": 13.0928441,
      "lon": 77.5872044,
      "tags": {
        "amenity": "atm",
        "brand": "State Bank of India",
        "brand:wikidata": "Q1340361",
        "name": "State Bank of India",
        "operator": "State Bank of India",
        "operator:wikidata": "Q1340361",
        "short_name": "SBI"
      }
    },
    {
      "type": "node",
      "id": 12108198261,
      "lat": 13.0928523,
      "lon": 77.5872557,
      "tags": {
        "amenity": "bank",
        "brand": "State Bank of India",
        "brand:wikidata": "Q1340361",
        "name": "State Bank of India",
        "short_name": "SBI"
      }
    },
    {
      "type": "node",
      "id": 12153710277,
      "lat": 13.0947799,
      "lon": 77.5846767,
      "tags": {
        "amenity": "bench",
        "backrest": "yes",
        "material": "stone"
      }
    },
    {
      "type": "node",
      "id": 12153731775,
      "lat": 13.094883,
      "lon": 77.5845586,
      "tags": {
        "amenity": "bench",
        "backrest": "yes",
        "material": "stone"
      }
    },
    {
      "type": "node",
      "id": 12153740333,
      "lat": 13.0947914,
      "lon": 77.5845468,
      "tags": {
        "amenity": "bench",
        "backrest": "yes",
        "material": "stone"
      }
    },
    {
      "type": "node",
      "id": 12153745859,
      "lat": 13.0948539,
      "lon": 77.5846893,
      "tags": {
        "amenity": "bench",
        "backrest": "yes",
        "material": "stone"
      }
    },
    {
      "type": "node",
      "id": 12207150556,
      "lat": 13.0933312,
      "lon": 77.5893035,
      "tags": {
        "amenity": "bench",
        "backrest": "yes",
        "material": "stone"
      }
    },
    {
      "type": "node",
      "id": 12222472004,
      "lat": 13.0964933,
      "lon": 77.5838827,
      "tags": {
        "amenity": "bank",
        "brand": "Canara Bank",
        "brand:en": "Canara Bank",
        "brand:hi": "केनरा बैंक",
        "brand:kn": "ಕೆನರಾ ಬ್ಯಾಂಕ್",
        "brand:pa": "ਕੇਨਰਾ ਬੈਂਕ",
        "brand:pnb": "کینرا بینک",
        "brand:ur": "کینرا بینک",
        "brand:wikidata": "Q2003777",
        "name": "Canara Bank",
        "name:en": "Canara Bank",
        "name:hi": "केनरा बैंक",
        "name:kn": "ಕೆನರಾ ಬ್ಯಾಂಕ್",
        "name:pa": "ਕੇਨਰਾ ਬੈਂਕ",
        "name:pnb": "کینرا بینک",
        "name:ur": "کینرا بینک"
      }
    },
    {
      "type": "node",
      "id": 12222477412,
      "lat": 13.0965485,
      "lon": 77.583904,
      "tags": {
        "amenity": "atm",
        "brand": "Canara Bank",
        "brand:en": "Canara Bank",
        "brand:hi": "केनरा बैंक",
        "brand:kn": "ಕೆನರಾ ಬ್ಯಾಂಕ್",
        "brand:pa": "ਕੇਨਰਾ ਬੈਂਕ",
        "brand:pnb": "کینرا بینک",
        "brand:ur": "کینرا بینک",
        "brand:wikidata": "Q2003777",
        "name:en": "Canara Bank",
        "name:hi": "केनरा बैंक",
        "name:kn": "ಕೆನರಾ ಬ್ಯಾಂಕ್",
        "name:pa": "ਕੇਨਰਾ ਬੈਂਕ",
        "name:pnb": "کینرا بینک",
        "name:ur": "کینرا بینک",
        "operator": "Canara Bank",
        "operator:wikidata": "Q2003777"
      }
    },
    {
      "type": "node",
      "id": 12222483820,
      "lat": 13.0963903,
      "lon": 77.5840727,
      "tags": {
        "amenity": "restaurant",
        "cuisine": "regional",
        "indoor_seating": "yes",
        "name": "Kadai",
        "outdoor_seating": "no"
      }
    },
    {
      "type": "node",
      "id": 12222501371,
      "lat": 13.0962383,
      "lon": 77.5844651,
      "tags": {
        "amenity": "doctors",
        "healthcare": "doctor",
        "healthcare:speciality": "urology",
        "name": "Meditech Kidney Stone Centre",
        "opening_hours": "Mo-Sa 10:00-19:00",
        "phone": "+91 98440 04671;+91 98453 73752"
      }
    },
    {
      "type": "node",
      "id": 12250695526,
      "lat": 13.0978009,
      "lon": 77.5845162,
      "tags": {
        "amenity": "restaurant",
        "cuisine": "regional",
        "indoor_seating": "yes",
        "level": "2",
        "name": "Nandhana Palace",
        "outdoor_seating": "no"
      }
    },
    {
      "type": "node",
      "id": 12260941280,
      "lat": 13.1030045,
      "lon": 77.5767815,
      "tags": {
        "amenity": "pharmacy",
        "healthcare": "pharmacy",
        "name": "Netmeds"
      }
    },
    {
      "type": "node",
      "id": 12260942956,
      "lat": 13.102611,
      "lon": 77.5770172,
      "tags": {
        "amenity": "bank",
        "brand": "Bank of Maharashtra",
        "brand:wikidata": "Q2004304",
        "name": "Bank of Maharashtra"
      }
    },
    {
      "type": "node",
      "id": 12260948332,
      "lat": 13.1020791,
      "lon": 77.5770067,
      "tags": {
        "amenity": "restaurant",
        "indoor_seating": "yes",
        "name": "Ambur Hot Dum Biriyani",
        "outdoor_seating": "no"
      }
    },
    {
      "type": "node",
      "id": 12260949089,
      "lat": 13.1031397,
      "lon": 77.5767965,
      "tags": {
        "amenity": "pharmacy",
        "brand": "Apollo Pharmacy",
        "brand:wikidata": "Q62562612",
        "healthcare": "pharmacy",
        "name": "Apollo Pharmacy"
      }
    },
    {
      "type": "node",
      "id": 12260949090,
      "lat": 13.1025686,
      "lon": 77.5769976,
      "tags": {
        "amenity": "atm",
        "brand": "Bank of Maharashtra",
        "brand:wikidata": "Q2004304",
        "operator": "Bank of Maharashtra",
        "operator:wikidata": "Q2004304"
      }
    },
    {
      "type": "node",
      "id": 12260954252,
      "lat": 13.1038321,
      "lon": 77.5768311,
      "tags": {
        "amenity": "atm",
        "brand": "Canara Bank",
        "brand:en": "Canara Bank",
        "brand:hi": "केनरा बैंक",
        "brand:kn": "ಕೆನರಾ ಬ್ಯಾಂಕ್",
        "brand:pa": "ਕੇਨਰਾ ਬੈਂਕ",
        "brand:pnb": "کینرا بینک",
        "brand:ur": "کینرا بینک",
        "brand:wikidata": "Q2003777",
        "indoor": "yes",
        "name:en": "Canara Bank",
        "name:hi": "केनरा बैंक",
        "name:kn": "ಕೆನರಾ ಬ್ಯಾಂಕ್",
        "name:pa": "ਕੇਨਰਾ ਬੈਂਕ",
        "name:pnb": "کینرا بینک",
        "name:ur": "کینرا بینک",
        "operator": "Canara Bank",
        "operator:wikidata": "Q2003777"
      }
    },
    {
      "type": "node",
      "id": 12260969007,
      "lat": 13.100087,
      "lon": 77.5765234,
      "tags": {
        "amenity": "bank",
        "brand": "UCO Bank",
        "brand:wikidata": "Q2005310",
        "name": "UCO Bank"
      }
    },
    {
      "type": "node",
      "id": 12260975478,
      "lat": 13.1012997,
      "lon": 77.5769588,
      "tags": {
        "amenity": "bank",
        "brand": "HDFC Bank",
        "brand:wikidata": "Q631047",
        "name": "HDFC Bank",
        "short_name": "HDFC"
      }
    },
    {
      "type": "node",
      "id": 12260975952,
      "lat": 13.1029053,
      "lon": 77.5770303,
      "tags": {
        "amenity": "pharmacy",
        "brand": "MedPlus",
        "brand:wikidata": "Q65684234",
        "healthcare": "pharmacy",
        "name": "MedPlus"
      }
    },
    {
      "type": "node",
      "id": 12260976176,
      "lat": 13.1007925,
      "lon": 77.5768757,
      "tags": {
        "shop": "electronics"
      }
    },
    {
      "type": "node",
      "id": 12260979906,
      "lat": 13.1022863,
      "lon": 77.5769775,
      "tags": {
        "amenity": "atm",
        "brand": "State Bank of India",
        "brand:wikidata": "Q1340361",
        "operator": "State Bank of India",
        "operator:wikidata": "Q1340361",
        "short_name": "SBI"
      }
    },
    {
      "type": "node",
      "id": 12260989370,
      "lat": 13.1012708,
      "lon": 77.5769276,
      "tags": {
        "amenity": "atm",
        "brand": "HDFC Bank",
        "brand:wikidata": "Q631047",
        "operator": "HDFC Bank",
        "operator:wikidata": "Q631047",
        "short_name": "HDFC"
      }
    },
    {
      "type": "node",
      "id": 12260995367,
      "lat": 13.1009531,
      "lon": 77.5769065,
      "tags": {
        "brand": "Samsung",
        "brand:wikidata": "Q20718",
        "name": "Samsung",
        "shop": "electronics"
      }
    },
    {
      "type": "node",
      "id": 12260998012,
      "lat": 13.1001143,
      "lon": 77.5765334,
      "tags": {
        "amenity": "atm",
        "brand": "UCO Bank",
        "brand:wikidata": "Q2005310",
        "operator": "UCO Bank",
        "operator:wikidata": "Q2005310"
      }
    },
    {
      "type": "node",
      "id": 12290143948,
      "lat": 13.0987664,
      "lon": 77.5863338,
      "tags": {
        "amenity": "bank",
        "brand": "Bank of Baroda",
        "brand:wikidata": "Q2003797",
        "name": "Bank of Baroda"
      }
    },
    {
      "type": "node",
      "id": 12290187588,
      "lat": 13.0987641,
      "lon": 77.5862917,
      "tags": {
        "amenity": "atm",
        "brand": "Bank of Baroda",
        "brand:wikidata": "Q2003797",
        "operator": "Bank of Baroda",
        "operator:wikidata": "Q2003797"
      }
    },
    {
      "type": "node",
      "id": 12290197289,
      "lat": 13.0988341,
      "lon": 77.5849297,
      "tags": {
        "amenity": "bank",
        "brand": "RBL Bank",
        "brand:wikidata": "Q13120398",
        "name": "RBL Bank"
      }
    },
    {
      "type": "node",
      "id": 12290218181,
      "lat": 13.0976624,
      "lon": 77.584437,
      "tags": {
        "amenity": "atm",
        "brand": "IDBI Bank",
        "brand:wikidata": "Q3633485",
        "operator": "IDBI Bank",
        "operator:wikidata": "Q3633485",
        "short_name": "IDBI"
      }
    },
    {
      "type": "node",
      "id": 12290220790,
      "lat": 13.0977696,
      "lon": 77.5845455,
      "tags": {
        "amenity": "clinic",
        "healthcare": "clinic",
        "name": "Aster Clinic",
        "opening_hours": "Mo-Sa 08:00-20:00"
      }
    },
    {
      "type": "node",
      "id": 12290226485,
      "lat": 13.098337,
      "lon": 77.5847352,
      "tags": {
        "amenity": "bank",
        "brand": "State Bank of India",
        "brand:wikidata": "Q1340361",
        "name": "State Bank of India",
        "short_name": "SBI"
      }
    },
    {
      "type": "node",
      "id": 12290235492,
      "lat": 13.0971633,
      "lon": 77.5842926,
      "tags": {
        "level": "0;1",
        "name": "Unilet",
        "shop": "electronics"
      }
    },
    {
      "type": "node",
      "id": 12290238542,
      "lat": 13.0988167,
      "lon": 77.5849213,
      "tags": {
        "amenity": "atm",
        "brand": "RBL Bank",
        "brand:wikidata": "Q13120398",
        "operator": "RBL Bank",
        "operator:wikidata": "Q13120398"
      }
    },
    {
      "type": "node",
      "id": 12290238543,
      "lat": 13.0987308,
      "lon": 77.5848781,
      "tags": {
        "amenity": "atm",
        "brand": "Equitas Small Finance Bank",
        "brand:wikidata": "Q29467249",
        "operator": "Equitas Small Finance Bank",
        "operator:wikidata": "Q29467249"
      }
    },
    {
      "type": "node",
      "id": 12290240521,
      "lat": 13.0987488,
      "lon": 77.5848885,
      "tags": {
        "amenity": "bank",
        "brand": "Equitas Small Finance Bank",
        "brand:wikidata": "Q29467249",
        "name": "Equitas Small Finance Bank"
      }
    },
    {
      "type": "node",
      "id": 12290243203,
      "lat": 13.0982845,
      "lon": 77.5847103,
      "tags": {
        "amenity": "atm",
        "brand": "State Bank of India",
        "brand:wikidata": "Q1340361",
        "name": "State Bank of India",
        "operator": "State Bank of India",
        "operator:wikidata": "Q1340361",
        "short_name": "SBI"
      }
    },
    {
      "type": "node",
      "id": 12412556330,
      "lat": 13.0994063,
      "lon": 77.5709905,
      "tags": {
        "amenity": "kindergarten",
        "check_date": "2024-12-11",
        "name": "Beginners World",
        "operator:type": "private",
        "phone": "+91 89389 32929",
        "preschool": "yes"
      }
    },
    {
      "type": "node",
      "id": 12412564737,
      "lat": 13.1079225,
      "lon": 77.5806948,
      "tags": {
        "check_date": "2024-11-29",
        "drive_through": "no",
        "internet_access": "no",
        "name": "Rajdhani Liquors",
        "payment:cash": "yes",
        "payment:credit_cards": "yes",
        "shop": "alcohol",
        "wheelchair": "no"
      }
    },
    {
      "type": "node",
      "id": 12467106279,
      "lat": 13.0954104,
      "lon": 77.5834783,
      "tags": {
        "level": "0,1",
        "name": "yousta",
        "opening_hours": "Mo-Su 10:00-21:00",
        "shop": "clothes"
      }
    },
    {
      "type": "node",
      "id": 12467129611,
      "lat": 13.0954106,
      "lon": 77.5834856,
      "tags": {
        "amenity": "restaurant",
        "name": "Haveli"
      }
    },
    {
      "type": "node",
      "id": 12632035833,
      "lat": 13.0983668,
      "lon": 77.5733927,
      "tags": {
        "amenity": "restaurant",
        "name": "Halwai Junction"
      }
    },
    {
      "type": "node",
      "id": 12647453306,
      "lat": 13.0984513,
      "lon": 77.5848689,
      "tags": {
        "air_conditioning": "no",
        "amenity": "restaurant",
        "cuisine": "pizza",
        "drink:beer": "no",
        "indoor_seating": "yes",
        "level": "3",
        "name": "Onesta",
        "outdoor_seating": "no",
        "website": "https://www.onestalove.in/",
        "website:menu": "https://www.onestalove.in/qr-menu-1/",
        "wheelchair": "no"
      }
    },
    {
      "type": "node",
      "id": 12730607356,
      "lat": 13.0989355,
      "lon": 77.5873556,
      "tags": {
        "amenity": "atm",
        "brand": "Yes Bank",
        "brand:wikidata": "Q2040394",
        "operator": "Yes Bank",
        "operator:wikidata": "Q2040394"
      }
    },
    {
      "type": "node",
      "id": 12730637581,
      "lat": 13.0988361,
      "lon": 77.5872262,
      "tags": {
        "amenity": "bank",
        "brand": "IndusInd Bank",
        "brand:wikidata": "Q2040323",
        "name": "IndusInd Bank"
      }
    },
    {
      "type": "node",
      "id": 12730641379,
      "lat": 13.0988857,
      "lon": 77.587211,
      "tags": {
        "amenity": "atm",
        "brand": "IndusInd Bank",
        "brand:wikidata": "Q2040323",
        "indoor": "yes",
        "operator": "IndusInd Bank",
        "operator:wikidata": "Q2040323"
      }
    },
    {
      "type": "node",
      "id": 12730674878,
      "lat": 13.0982435,
      "lon": 77.5880715,
      "tags": {
        "amenity": "bank",
        "brand": "HDFC Bank",
        "brand:wikidata": "Q631047",
        "name": "HDFC Bank",
        "short_name": "HDFC"
      }
    },
    {
      "type": "node",
      "id": 12730677128,
      "lat": 13.0981988,
      "lon": 77.5880197,
      "tags": {
        "amenity": "atm",
        "brand": "HDFC Bank",
        "brand:wikidata": "Q631047",
        "operator": "HDFC Bank",
        "operator:wikidata": "Q631047",
        "short_name": "HDFC"
      }
    },
    {
      "type": "node",
      "id": 12744839758,
      "lat": 13.0934552,
      "lon": 77.5832541,
      "tags": {
        "brand": "cult.fit",
        "brand:wikidata": "Q121289250",
        "changing_table:fee": "no",
        "leisure": "fitness_centre",
        "name": "cult.fit",
        "opening_hours": "Mo-Sa 05:00-22:00; Su 06:00-14:00; PH closed",
        "sport": "fitness;yoga",
        "swimming_pool": "no",
        "wheelchair": "no"
      }
    },
    {
      "type": "node",
      "id": 12828041489,
      "lat": 13.0966531,
      "lon": 77.5836552,
      "tags": {
        "amenity": "pharmacy",
        "healthcare": "pharmacy",
        "name": "Pradhan Mantri Bharatiya Janaushadhi Kendra",
        "name:en": "Pradhan Mantri Bharatiya Janaushadhi Kendra",
        "name:kn": "ಪ್ರಧಾನಮಂತ್ರಿ ಭಾರತೀಯ ಜನೌಷಧಿ ಕೇಂದ್ರ"
      }
    },
    {
      "type": "node",
      "id": 12888735800,
      "lat": 13.0935578,
      "lon": 77.5829081,
      "tags": {
        "amenity": "bank",
        "brand": "HDFC Bank",
        "brand:wikidata": "Q631047",
        "level": "0",
        "name": "HDFC Bank",
        "short_name": "HDFC"
      }
    },
    {
      "type": "node",
      "id": 12909331973,
      "lat": 13.0931177,
      "lon": 77.5846984,
      "tags": {
        "air_conditioning": "no",
        "amenity": "cafe",
        "indoor_seating": "yes",
        "name": "Tea Cafe",
        "outdoor_seating": "no",
        "payment:credit_cards": "no",
        "payment:debit_cards": "no"
      }
    },
    {
      "type": "node",
      "id": 12922419717,
      "lat": 13.093171,
      "lon": 77.5887838,
      "tags": {
        "amenity": "bank",
        "brand": "Punjab National Bank",
        "brand:wikidata": "Q2743499",
        "name": "Punjab National Bank"
      }
    },
    {
      "type": "node",
      "id": 13013584300,
      "lat": 13.0988397,
      "lon": 77.5852722,
      "tags": {
        "amenity": "restaurant",
        "name": "The Sherugars Kitchen"
      }
    },
    {
      "type": "node",
      "id": 13076051859,
      "lat": 13.0931115,
      "lon": 77.5845917,
      "tags": {
        "amenity": "restaurant",
        "cuisine": "regional",
        "delivery": "yes",
        "drink:beer": "no",
        "indoor_seating": "yes",
        "name": "Kamati Vanta",
        "opening_hours": "Mo-Su 12:00-23:30",
        "outdoor_seating": "no",
        "phone": "+919606669009",
        "wheelchair": "yes"
      }
    },
    {
      "type": "node",
      "id": 13130861092,
      "lat": 13.0944305,
      "lon": 77.5784443,
      "tags": {
        "addr:city": "Bengaluru",
        "addr:district": "Bengaluru Urban",
        "addr:postcode": "560064",
        "addr:street": "6th B Main Road",
        "name": "Tea House",
        "opening_hours": "Mo-Su 09:00-21:00",
        "payment:cash": "yes",
        "payment:google_pay": "yes",
        "shop": "tea"
      }
    },
    {
      "type": "node",
      "id": 13191049684,
      "lat": 13.1010114,
      "lon": 77.5852049,
      "tags": {
        "amenity": "place_of_worship",
        "religion": "hindu"
      }
    },
    {
      "type": "node",
      "id": 13239179244,
      "lat": 13.0994189,
      "lon": 77.5891274,
      "tags": {
        "brand": "Gold's Gym",
        "brand:wikidata": "Q1536234",
        "leisure": "fitness_centre",
        "name": "Gold's Gym"
      }
    },
    {
      "type": "node",
      "id": 13332010452,
      "lat": 13.0977818,
      "lon": 77.5779051,
      "tags": {
        "amenity": "atm",
        "brand": "Canara Bank",
        "brand:en": "Canara Bank",
        "brand:hi": "केनरा बैंक",
        "brand:kn": "ಕೆನರಾ ಬ್ಯಾಂಕ್",
        "brand:pa": "ਕੇਨਰਾ ਬੈਂਕ",
        "brand:pnb": "کینرا بینک",
        "brand:ur": "کینرا بینک",
        "brand:wikidata": "Q2003777",
        "indoor": "yes",
        "operator": "Canara Bank",
        "operator:wikidata": "Q2003777"
      }
    },
    {
      "type": "node",
      "id": 13332227629,
      "lat": 13.0959108,
      "lon": 77.5789409,
      "tags": {
        "amenity": "cafe",
        "name": "Brindavana Cafe"
      }
    },
    {
      "type": "way",
      "id": 41206209,
      "center": {
        "lat": 13.0981495,
        "lon": 77.5796644
      },
      "tags": {
        "leisure": "park",
        "name": "Sir M Vishvesvaraya Park",
        "name:etymology:wikidata": "Q741700",
        "name:kn": "ವಿಶ್ವೇಶ್ವರಯ್ಯ ಉದ್ಯಾನವನ"
      }
    },
    {
      "type": "way",
      "id": 41206215,
      "center": {
        "lat": 13.097144,
        "lon": 77.5805908
      },
      "tags": {
        "leisure": "park",
        "name": "Sri Basavalingappa Udayana",
        "name:kn": "ಬಸವಲಿಂಗಪ್ಪ ಉದ್ಯಾನ"
      }
    },
    {
      "type": "way",
      "id": 41206216,
      "center": {
        "lat": 13.0991705,
        "lon": 77.582836
      },
      "tags": {
        "leisure": "park"
      }
    },
    {
      "type": "way",
      "id": 41206231,
      "center": {
        "lat": 13.0959167,
        "lon": 77.5816748
      },
      "tags": {
        "leisure": "park",
        "name": "Shankara Nag Park",
        "name:kn": "ಶಂಕರನಾಗ್ ಉದ್ಯಾನವನ"
      }
    },
    {
      "type": "way",
      "id": 41206233,
      "center": {
        "lat": 13.1011886,
        "lon": 77.5804561
      },
      "tags": {
        "access": "private",
        "leisure": "stadium",
        "name": "RWF Colony Stadium"
      }
    },
    {
      "type": "way",
      "id": 41206235,
      "center": {
        "lat": 13.1009023,
        "lon": 77.5838617
      },
      "tags": {
        "amenity": "school",
        "name": "Seshadripuram High School",
        "name:kn": "ಶೇಶಾದ್ರಿಪುರಂ ಪ್ರೌಡಶಾಲೆ"
      }
    },
    {
      "type": "way",
      "id": 41206237,
      "center": {
        "lat": 13.1024411,
        "lon": 77.5835391
      },
      "tags": {
        "alt_name": "Aditi School",
        "amenity": "school",
        "landuse": "education",
        "name": "Mallya Aditi International School",
        "short_name": "MAIS",
        "start_date": "1984",
        "wikidata": "Q6744335",
        "wikipedia": "en:Mallya Aditi International School"
      }
    },
    {
      "type": "way",
      "id": 41206258,
      "center": {
        "lat": 13.0947957,
        "lon": 77.5845425
      },
      "tags": {
        "leisure": "park",
        "phone": "1533"
      }
    },
    {
      "type": "way",
      "id": 41206270,
      "center": {
        "lat": 13.0975525,
        "lon": 77.5865217
      },
      "tags": {
        "leisure": "park"
      }
    },
    {
      "type": "way",
      "id": 82432616,
      "center": {
        "lat": 13.0994426,
        "lon": 77.5853965
      },
      "tags": {
        "amenity": "college",
        "name": "Jyothi College",
        "name:kn": "ಜ್ಯೋತಿ ಕಾಲೇಜು"
      }
    },
    {
      "type": "way",
      "id": 82432618,
      "center": {
        "lat": 13.0998328,
        "lon": 77.5880424
      },
      "tags": {
        "amenity": "college",
        "check_date": "2024-07-16",
        "name": "Seshadripuram First Grade College",
        "wheelchair": "yes"
      }
    },
    {
      "type": "way",
      "id": 82432626,
      "center": {
        "lat": 13.0993686,
        "lon": 77.5857703
      },
      "tags": {
        "amenity": "place_of_worship",
        "name": "Our Lady of Vellankanni Church",
        "religion": "christian"
      }
    },
    {
      "type": "way",
      "id": 82432632,
      "center": {
        "lat": 13.1041114,
        "lon": 77.5829963
      },
      "tags": {
        "addr:district": "Bengaluru Urban",
        "addr:full": "Yelahanka",
        "addr:postcode": "560064",
        "addr:state": "Karnataka",
        "amenity": "hospital",
        "healthcare": "hospital",
        "name": "Railways Hospital",
        "name:kn": "ರೈಲ್ವೇ ಆಸ್ಪತ್ರೆ",
        "source": "OpenGovernmentData"
      }
    },
    {
      "type": "way",
      "id": 82432642,
      "center": {
        "lat": 13.1027468,
        "lon": 77.5801742
      },
      "tags": {
        "amenity": "school",
        "brand": "Kendriya Vidyalaya",
        "brand:wikidata": "Q1156653",
        "name": "Kendriya Vidyalaya - RWF",
        "operator:type": "government_non_profit"
      }
    },
    {
      "type": "way",
      "id": 82432659,
      "center": {
        "lat": 13.1024188,
        "lon": 77.5835089
      },
      "tags": {
        "access": "private",
        "leisure": "pitch",
        "name": "MAIS Astroturf Ground",
        "operator": "Mallya Aditi International School",
        "operator:type": "school",
        "sport": "soccer;field_hockey",
        "surface": "artificial_turf"
      }
    },
    {
      "type": "way",
      "id": 82432695,
      "center": {
        "lat": 13.1046976,
        "lon": 77.5831761
      },
      "tags": {
        "leisure": "park"
      }
    },
    {
      "type": "way",
      "id": 82436405,
      "center": {
        "lat": 13.0944923,
        "lon": 77.5879401
      },
      "tags": {
        "leisure": "park",
        "phone": "1533"
      }
    },
    {
      "type": "way",
      "id": 82436961,
      "center": {
        "lat": 13.1025091,
        "lon": 77.5846333
      },
      "tags": {
        "amenity": "college",
        "name": "National Insittute of Public Cooperation and Child Development"
      }
    },
    {
      "type": "way",
      "id": 82436974,
      "center": {
        "lat": 13.1023296,
        "lon": 77.585574
      },
      "tags": {
        "leisure": "park"
      }
    },
    {
      "type": "way",
      "id": 82494614,
      "center": {
        "lat": 13.0963852,
        "lon": 77.5911416
      },
      "tags": {
        "amenity": "school",
        "name": "Poornaprajna High School",
        "name:kn": "ಪೂರ್ಣಪ್ರಜ್ಞ ಪ್ರೌಡಶಾಲೆ"
      }
    },
    {
      "type": "way",
      "id": 82494617,
      "center": {
        "lat": 13.0971434,
        "lon": 77.5893851
      },
      "tags": {
        "addr:district": "Bengaluru Urban",
        "addr:full": "No: 9, A1, A2, Opp. MEC School, A-Sector Yelahanka",
        "addr:postcode": "560064",
        "addr:state": "Karnataka",
        "amenity": "hospital",
        "check_date": "2024-09-27",
        "healthcare": "hospital",
        "name": "KK Hospital",
        "source": "OpenGovernmentData"
      }
    },
    {
      "type": "way",
      "id": 82494619,
      "center": {
        "lat": 13.0965348,
        "lon": 77.5897477
      },
      "tags": {
        "amenity": "school",
        "name": "MEC School"
      }
    },
    {
      "type": "way",
      "id": 82508349,
      "center": {
        "lat": 13.0952877,
        "lon": 77.578547
      },
      "tags": {
        "landuse": "recreation_ground",
        "leisure": "pitch",
        "lit": "yes",
        "name": "Hoysala Ground",
        "sport": "multi",
        "surface": "dirt"
      }
    },
    {
      "type": "way",
      "id": 82508419,
      "center": {
        "lat": 13.0960498,
        "lon": 77.5794323
      },
      "tags": {
        "amenity": "school",
        "name": "Government Model Primary and High School",
        "name:kn": "ಸರ್ಕಾರಿ ಮಾದರಿ ಶಾಲೆ"
      }
    },
    {
      "type": "way",
      "id": 82509335,
      "center": {
        "lat": 13.0983866,
        "lon": 77.5769647
      },
      "tags": {
        "leisure": "park"
      }
    },
    {
      "type": "way",
      "id": 82509365,
      "center": {
        "lat": 13.0963339,
        "lon": 77.5779574
      },
      "tags": {
        "barrier": "fence",
        "leisure": "park",
        "name": "Dr. R. A. Bendre Park",
        "opening_hours": "Mo-Su 05:00-10:00,16:00-20:00",
        "operator": "ಬೃಹತ್ ಬೆಂಗಳೂರು ಮಹಾನಗರ ಪಾಲಿಕೆ",
        "operator:en": "Bruhat Bengaluru Mahanagara Palike",
        "operator:ka": "ಬೃಹತ್ ಬೆಂಗಳೂರು ಮಹಾನಗರ ಪಾಲಿಕೆ",
        "operator:short": "BBMP",
        "operator:type": "government",
        "operator:wikidata": "Q4978693",
        "phone": "9590892922"
      }
    },
    {
      "type": "way",
      "id": 82509397,
      "center": {
        "lat": 13.097252,
        "lon": 77.5771544
      },
      "tags": {
        "addr:city": "Bengaluru, Karnataka",
        "addr:housenumber": "1522",
        "addr:postcode": "560065",
        "addr:street": "19th B Cross Rd, MIG Sector B, Udaya Layout, Yelahanka",
        "amenity": "place_of_worship",
        "building": "temple",
        "landuse": "religious",
        "name": "Shree Veeranjanaya Swamy Devasthana",
        "religion": "hindu"
      }
    },
    {
      "type": "way",
      "id": 133352357,
      "center": {
        "lat": 13.0990774,
        "lon": 77.5861467
      },
      "tags": {
        "amenity": "hospital",
        "name": "Chaitanya Nursing Home"
      }
    },
    {
      "type": "way",
      "id": 133352375,
      "center": {
        "lat": 13.0994512,
        "lon": 77.5861481
      },
      "tags": {
        "amenity": "college",
        "name": "Chaitanya Nursing College"
      }
    },
    {
      "type": "way",
      "id": 133353036,
      "center": {
        "lat": 13.0966053,
        "lon": 77.5846639
      },
      "tags": {
        "amenity": "place_of_worship",
        "building": "temple",
        "check_date": "2024-07-06",
        "name": "Raghavendra Swamy Mutt",
        "name:kn": "ರಾಘವೇಂದ್ರ ಸ್ವಾಮಿ ಮಠ",
        "religion": "hindu"
      }
    },
    {
      "type": "way",
      "id": 133353037,
      "center": {
        "lat": 13.0966958,
        "lon": 77.5841055
      },
      "tags": {
        "building": "retail",
        "name": "Girias",
        "name:kn": "ಗಿರಿಯಾಸ್",
        "shop": "electronics"
      }
    },
    {
      "type": "way",
      "id": 145719856,
      "center": {
        "lat": 13.0994014,
        "lon": 77.5721929
      },
      "tags": {
        "leisure": "park"
      }
    },
    {
      "type": "way",
      "id": 145759864,
      "center": {
        "lat": 13.1001694,
        "lon": 77.571951
      },
      "tags": {
        "leisure": "park"
      }
    },
    {
      "type": "way",
      "id": 145891250,
      "center": {
        "lat": 13.1000645,
        "lon": 77.5737155
      },
      "tags": {
        "leisure": "park"
      }
    },
    {
      "type": "way",
      "id": 145891653,
      "center": {
        "lat": 13.100611,
        "lon": 77.5747541
      },
      "tags": {
        "leisure": "park"
      }
    },
    {
      "type": "way",
      "id": 145891657,
      "center": {
        "lat": 13.0999239,
        "lon": 77.5751468
      },
      "tags": {
        "leisure": "park"
      }
    },
    {
      "type": "way",
      "id": 145893124,
      "center": {
        "lat": 13.0992273,
        "lon": 77.5749291
      },
      "tags": {
        "leisure": "park"
      }
    },
    {
      "type": "way",
      "id": 227014069,
      "center": {
        "lat": 13.098686,
        "lon": 77.571803
      },
      "tags": {
        "leisure": "park"
      }
    },
    {
      "type": "way",
      "id": 238921394,
      "center": {
        "lat": 13.0956636,
        "lon": 77.5862308
      },
      "tags": {
        "leisure": "pitch",
        "lit": "yes",
        "name": "Ganesha Ground",
        "name:kn": "ಗಣೇಶ ಮೈದಾನ",
        "sport": "cricket;soccer",
        "surface": "dirt"
      }
    },
    {
      "type": "way",
      "id": 345908981,
      "center": {
        "lat": 13.0941649,
        "lon": 77.5814663
      },
      "tags": {
        "brand": "Levi's",
        "brand:wikidata": "Q127962",
        "building": "yes",
        "clothes": "denim;men;women",
        "name": "Levi's",
        "name:kn": "ಲೆವಿಸ್",
        "shop": "clothes"
      }
    },
    {
      "type": "way",
      "id": 345926296,
      "center": {
        "lat": 13.0930956,
        "lon": 77.5847183
      },
      "tags": {
        "addr:housenumber": "279",
        "addr:street": "15th A Cross Road",
        "amenity": "dentist",
        "building": "hospital",
        "healthcare": "dentist",
        "healthcare:speciality": "endodontics;implantology",
        "name": "Endo Expert",
        "phone": "+918123821907",
        "wheelchair": "yes"
      }
    },
    {
      "type": "way",
      "id": 345926300,
      "center": {
        "lat": 13.0934109,
        "lon": 77.583389
      },
      "tags": {
        "addr:housenumber": "287",
        "addr:street": "15th A Cross Road",
        "amenity": "doctors",
        "building": "yes",
        "healthcare": "doctor",
        "name": "Amrutha Diagnostic Centre"
      }
    },
    {
      "type": "way",
      "id": 345926492,
      "center": {
        "lat": 13.0930673,
        "lon": 77.5849882
      },
      "tags": {
        "addr:housenumber": "277",
        "addr:street": "15th A Cross Road",
        "air_conditioning": "no",
        "amenity": "restaurant",
        "building": "retail",
        "cuisine": "regional",
        "drink:beer": "no",
        "indoor_seating": "yes",
        "name": "Godavari Konaseema Ruchulu",
        "outdoor_seating": "no",
        "phone": "+918884400375",
        "wheelchair": "yes"
      }
    },
    {
      "type": "way",
      "id": 363499101,
      "center": {
        "lat": 13.0986326,
        "lon": 77.5888781
      },
      "tags": {
        "leisure": "park"
      }
    },
    {
      "type": "way",
      "id": 363612203,
      "center": {
        "lat": 13.0995293,
        "lon": 77.5893559
      },
      "tags": {
        "access": "yes",
        "amenity": "parking",
        "fee": "yes"
      }
    },
    {
      "type": "way",
      "id": 363612210,
      "center": {
        "lat": 13.097663,
        "lon": 77.5909902
      },
      "tags": {
        "amenity": "place_of_worship",
        "building": "temple",
        "name": "Venkateshwara Swamy Temple",
        "name:kn": "ವೆಂಕಟೇಶ್ವರ ಸ್ವಾಮಿ ದೇವಸ್ಥಾನ",
        "religion": "hindu"
      }
    },
    {
      "type": "way",
      "id": 366003309,
      "center": {
        "lat": 13.1032469,
        "lon": 77.5767627
      },
      "tags": {
        "building": "commercial",
        "name": "VENKATADRI XTREME SPORTS",
        "shop": "sports"
      }
    },
    {
      "type": "way",
      "id": 366918876,
      "center": {
        "lat": 13.0941199,
        "lon": 77.5815457
      },
      "tags": {
        "brand": "Adidas",
        "brand:wikidata": "Q3895",
        "building": "yes",
        "name": "Adidas",
        "name:kn": "ಅಡಿಡಾಸ್",
        "shop": "sports"
      }
    },
    {
      "type": "way",
      "id": 366918882,
      "center": {
        "lat": 13.098154,
        "lon": 77.5847397
      },
      "tags": {
        "brand": "Reliance Fresh",
        "brand:wikidata": "Q7311014",
        "building": "yes",
        "check_date": "2025-03-10",
        "name": "Reliance Fresh",
        "name:kn": "ರಿಲಾಯನ್ಸ್ ಫ್ರೆಶ್",
        "shop": "supermarket"
      }
    },
    {
      "type": "way",
      "id": 366918885,
      "center": {
        "lat": 13.098909,
        "lon": 77.5850607
      },
      "tags": {
        "brand": "Yamaha",
        "brand:wikidata": "Q158888",
        "building": "yes",
        "name": "Sri Jaya Motors",
        "shop": "motorcycle"
      }
    },
    {
      "type": "way",
      "id": 369135177,
      "center": {
        "lat": 13.0994665,
        "lon": 77.584798
      },
      "tags": {
        "amenity": "community_centre",
        "building": "yes",
        "name": "New Town Club"
      }
    },
    {
      "type": "way",
      "id": 420764992,
      "center": {
        "lat": 13.1008294,
        "lon": 77.5853749
      },
      "tags": {
        "amenity": "community_centre",
        "building": "yes",
        "name": "Shilpaniketan Dakshin Kannada Vishwa Brahmin Sangha(R)",
        "name:en": "Shilpaniketan Dakshin Kannada Vishwa Brahmin Sangha(R)",
        "name:kn": "ಶಿಲ್ಪನಿಕೇತನ ದಕ್ಷಿಣ ಕನ್ನಡ ವಿಶ್ವಬ್ರಾಹ್ಮಣ ಸಂಘ (ರಿ)"
      }
    },
    {
      "type": "way",
      "id": 420994629,
      "center": {
        "lat": 13.1003312,
        "lon": 77.5862156
      },
      "tags": {
        "brand": "DMart",
        "brand:wikidata": "Q5203271",
        "landuse": "retail",
        "name": "DMart",
        "operator": "DMart",
        "shop": "supermarket",
        "start_date": "2024-07-15"
      }
    },
    {
      "type": "way",
      "id": 440327192,
      "center": {
        "lat": 13.0977,
        "lon": 77.5914873
      },
      "tags": {
        "amenity": "bus_station",
        "bench": "yes",
        "bin": "yes",
        "bus": "yes",
        "highway": "bus_stop",
        "lit": "yes",
        "name": "NES Office",
        "public_transport": "platform",
        "shelter": "yes",
        "wheelchair": "no"
      }
    },
    {
      "type": "way",
      "id": 515235865,
      "center": {
        "lat": 13.0937426,
        "lon": 77.5705515
      },
      "tags": {
        "leisure": "park"
      }
    },
    {
      "type": "way",
      "id": 515236150,
      "center": {
        "lat": 13.0969608,
        "lon": 77.5699925
      },
      "tags": {
        "leisure": "park"
      }
    },
    {
      "type": "way",
      "id": 515236619,
      "center": {
        "lat": 13.0960682,
        "lon": 77.5703292
      },
      "tags": {
        "leisure": "park"
      }
    },
    {
      "type": "way",
      "id": 515236620,
      "center": {
        "lat": 13.0950415,
        "lon": 77.5706829
      },
      "tags": {
        "leisure": "park"
      }
    },
    {
      "type": "way",
      "id": 677360041,
      "center": {
        "lat": 13.103928,
        "lon": 77.5761507
      },
      "tags": {
        "leisure": "park"
      }
    },
    {
      "type": "way",
      "id": 677360043,
      "center": {
        "lat": 13.1029938,
        "lon": 77.5776406
      },
      "tags": {
        "leisure": "park"
      }
    },
    {
      "type": "way",
      "id": 677360546,
      "center": {
        "lat": 13.1011261,
        "lon": 77.5787442
      },
      "tags": {
        "leisure": "park"
      }
    },
    {
      "type": "way",
      "id": 677360548,
      "center": {
        "lat": 13.1016195,
        "lon": 77.5757449
      },
      "tags": {
        "leisure": "park",
        "name": "AIR Park"
      }
    },
    {
      "type": "way",
      "id": 677360549,
      "center": {
        "lat": 13.1048363,
        "lon": 77.5765128
      },
      "tags": {
        "leisure": "park"
      }
    },
    {
      "type": "way",
      "id": 705023785,
      "center": {
        "lat": 13.093793,
        "lon": 77.5763393
      },
      "tags": {
        "alt_name": "TIFR CAM",
        "amenity": "college",
        "name": "TIFR Centre for Applicable Mathematics",
        "website": "https://math.tifrbng.res.in/",
        "wikidata": "Q268975",
        "wikipedia": "en:TIFR Centre for Applicable Mathematics"
      }
    },
    {
      "type": "way",
      "id": 705675998,
      "center": {
        "lat": 13.0984417,
        "lon": 77.5742608
      },
      "tags": {
        "brand": "DMart",
        "brand:wikidata": "Q5203271",
        "building": "commercial",
        "full_name": "DMart Yelahanka",
        "name": "DMart",
        "shop": "supermarket"
      }
    },
    {
      "type": "way",
      "id": 773577269,
      "center": {
        "lat": 13.0999022,
        "lon": 77.5705421
      },
      "tags": {
        "leisure": "park"
      }
    },
    {
      "type": "way",
      "id": 773577275,
      "center": {
        "lat": 13.1036126,
        "lon": 77.5837987
      },
      "tags": {
        "addr:postcode": "560064",
        "addr:state": "Karnataka",
        "addr:street": "3rd B Cross Road",
        "amenity": "hospital",
        "building": "hospital",
        "check_date": "2024-12-25",
        "name": "Navachethana Hospital",
        "source": "local knowledge",
        "wheelchair": "yes"
      }
    },
    {
      "type": "way",
      "id": 773577281,
      "center": {
        "lat": 13.0975628,
        "lon": 77.5838593
      },
      "tags": {
        "addr:city": "Bengaluru",
        "addr:country": "IN",
        "addr:hamlet": "Yelahanka 3rd Stage",
        "addr:postcode": "560064",
        "addr:street": "1st A Main Road",
        "addr:suburb": "Yelahanka",
        "alt_name": "Reliance Centro Mall",
        "check_date": "2024-05-25",
        "loc_name": "Garuda Mall, Yelahanka",
        "name": "Centro Mall",
        "old_name": "Yelahanka Central Garuda Mall",
        "shop": "mall"
      }
    },
    {
      "type": "way",
      "id": 820008481,
      "center": {
        "lat": 13.0939755,
        "lon": 77.5773897
      },
      "tags": {
        "addr:city": "Bangalore",
        "addr:housenumber": "#6",
        "addr:postcode": "560064",
        "addr:street": "2nd Main Road",
        "leisure": "park",
        "name": "Sharadhanagar Park",
        "opening_hours": "Mo-Su 17:00-22:00",
        "operator": "government"
      }
    },
    {
      "type": "way",
      "id": 820009113,
      "center": {
        "lat": 13.0944889,
        "lon": 77.5773051
      },
      "tags": {
        "addr:city": "Bangalore",
        "addr:housenumber": "#5",
        "addr:postcode": "560064",
        "addr:street": "2nd Main Road",
        "leisure": "park",
        "name": "Children's Park",
        "opening_hours": "Mo-Su 17:00-22:00",
        "opening_hours:covid19": "closed",
        "operator": "ಬೃಹತ್ ಬೆಂಗಳೂರು ಮಹಾನಗರ ಪಾಲಿಕೆ",
        "operator:en": "Bruhat Bengaluru Mahanagara Palike",
        "operator:ka": "ಬೃಹತ್ ಬೆಂಗಳೂರು ಮಹಾನಗರ ಪಾಲಿಕೆ",
        "operator:short": "BBMP",
        "operator:type": "government",
        "operator:wikidata": "Q4978693"
      }
    },
    {
      "type": "way",
      "id": 820161093,
      "center": {
        "lat": 13.0945801,
        "lon": 77.5769486
      },
      "tags": {
        "access": "yes",
        "description": "Playground for nearby community",
        "leisure": "playground",
        "max_age": "26",
        "min_age": "12",
        "name": "Sharadhanagar Playground",
        "operator": "BBMP",
        "playground:theme": "playground",
        "surface": "grass"
      }
    },
    {
      "type": "way",
      "id": 820161094,
      "center": {
        "lat": 13.094355,
        "lon": 77.5767272
      },
      "tags": {
        "addr:city": "Bangalore",
        "addr:postcode": "560064",
        "leisure": "park",
        "name": "Kids Play Area",
        "opening_hours": "Mo-Su 09:00-21:00",
        "operator": "BBMP"
      }
    },
    {
      "type": "way",
      "id": 867498324,
      "center": {
        "lat": 13.0999367,
        "lon": 77.5881347
      },
      "tags": {
        "access": "private",
        "amenity": "motorcycle_parking"
      }
    },
    {
      "type": "way",
      "id": 867498749,
      "center": {
        "lat": 13.1000402,
        "lon": 77.588358
      },
      "tags": {
        "access": "private",
        "leisure": "playground",
        "surface": "ground"
      }
    },
    {
      "type": "way",
      "id": 867500408,
      "center": {
        "lat": 13.0996763,
        "lon": 77.5876215
      },
      "tags": {
        "access": "permissive",
        "leisure": "garden"
      }
    },
    {
      "type": "way",
      "id": 867500410,
      "center": {
        "lat": 13.0993215,
        "lon": 77.5877976
      },
      "tags": {
        "amenity": "restaurant",
        "building": "yes",
        "cuisine": "indian",
        "name": "Saaman",
        "wheelchair": "no"
      }
    },
    {
      "type": "way",
      "id": 1079068564,
      "center": {
        "lat": 13.0994183,
        "lon": 77.5868339
      },
      "tags": {
        "addr:housenumber": "23/C",
        "addr:street": "3rd A Cross Road",
        "amenity": "college",
        "name": "Bishop Cotton Academy of Professional Management",
        "name:kn": "ಬಿಷಪ್ ಕಾಟನ್ ಅಕಡೇಮಿ"
      }
    },
    {
      "type": "way",
      "id": 1079068565,
      "center": {
        "lat": 13.1005038,
        "lon": 77.5871954
      },
      "tags": {
        "amenity": "cinema",
        "name": "Ganesh Theatre",
        "name:kn": "ಗಣೇಶ"
      }
    },
    {
      "type": "way",
      "id": 1079068567,
      "center": {
        "lat": 13.0946774,
        "lon": 77.5911028
      },
      "tags": {
        "access": "private",
        "leisure": "pitch",
        "sport": "basketball"
      }
    },
    {
      "type": "way",
      "id": 1079068582,
      "center": {
        "lat": 13.0944585,
        "lon": 77.5896866
      },
      "tags": {
        "amenity": "school",
        "name": "Cambridge Public School",
        "name:kn": "ಕೇಂಬ್ರಿಡ್ಜ್‌‌‌‌‌‌‌‌‌‌‌ ಪಬ್ಲಿಕ್ ಶಾಲೆ"
      }
    },
    {
      "type": "way",
      "id": 1079068583,
      "center": {
        "lat": 13.094775,
        "lon": 77.5904173
      },
      "tags": {
        "amenity": "college",
        "name": "Agragami College of Aeronautical Engineering"
      }
    },
    {
      "type": "way",
      "id": 1079068584,
      "center": {
        "lat": 13.0947143,
        "lon": 77.5911186
      },
      "tags": {
        "amenity": "school",
        "check_date": "2024-07-16",
        "name": "Chrysalis High School"
      }
    },
    {
      "type": "way",
      "id": 1079068585,
      "center": {
        "lat": 13.0957382,
        "lon": 77.590225
      },
      "tags": {
        "amenity": "college",
        "name": "East West College of Engineering"
      }
    },
    {
      "type": "way",
      "id": 1181417661,
      "center": {
        "lat": 13.108329,
        "lon": 77.579839
      },
      "tags": {
        "access": "permissive",
        "amenity": "parking",
        "parking": "surface"
      }
    },
    {
      "type": "way",
      "id": 1181417667,
      "center": {
        "lat": 13.1076379,
        "lon": 77.5798826
      },
      "tags": {
        "leisure": "park"
      }
    },
    {
      "type": "way",
      "id": 1181417669,
      "center": {
        "lat": 13.1077636,
        "lon": 77.5797492
      },
      "tags": {
        "access": "permissive",
        "leisure": "swimming_pool"
      }
    },
    {
      "type": "way",
      "id": 1186494030,
      "center": {
        "lat": 13.0908619,
        "lon": 77.5873938
      },
      "tags": {
        "leisure": "park"
      }
    },
    {
      "type": "way",
      "id": 1205497278,
      "center": {
        "lat": 13.093268,
        "lon": 77.5883803
      },
      "tags": {
        "amenity": "place_of_worship",
        "building": "kingdom_hall",
        "denomination": "jehovahs_witness",
        "name": "Kingdom Hall Of Jehovah's Witnesses",
        "religion": "christian"
      }
    },
    {
      "type": "way",
      "id": 1205497361,
      "center": {
        "lat": 13.0959059,
        "lon": 77.5862259
      },
      "tags": {
        "hoops": "2",
        "leisure": "pitch",
        "lit": "yes",
        "sport": "basketball",
        "surface": "concrete"
      }
    },
    {
      "type": "way",
      "id": 1205497409,
      "center": {
        "lat": 13.0985398,
        "lon": 77.5844764
      },
      "tags": {
        "brand": "Reliance Digital",
        "brand:wikidata": "Q7311012",
        "building": "retail",
        "name": "Reliance Digital",
        "shop": "electronics"
      }
    },
    {
      "type": "way",
      "id": 1224939075,
      "center": {
        "lat": 13.1026529,
        "lon": 77.583251
      },
      "tags": {
        "access": "private",
        "leisure": "sports_centre",
        "name": "MAIS Indoor Pool",
        "operator": "Mallya Aditi International School",
        "operator:type": "school",
        "sport": "swimming"
      }
    },
    {
      "type": "way",
      "id": 1224939076,
      "center": {
        "lat": 13.1022765,
        "lon": 77.5831761
      },
      "tags": {
        "access": "private",
        "hoops": "2",
        "leisure": "pitch",
        "name": "MAIS Indoor Basketball Court",
        "operator": "Mallya Aditi International School",
        "operator:type": "school",
        "sport": "basketball"
      }
    },
    {
      "type": "way",
      "id": 1231715821,
      "center": {
        "lat": 13.0985954,
        "lon": 77.5821475
      },
      "tags": {
        "access": "yes",
        "amenity": "parking",
        "fee": "no",
        "parking": "surface"
      }
    },
    {
      "type": "way",
      "id": 1231715823,
      "center": {
        "lat": 13.0991361,
        "lon": 77.5812328
      },
      "tags": {
        "amenity": "school",
        "name": "Poorna Prajna Education Center"
      }
    },
    {
      "type": "way",
      "id": 1231715896,
      "center": {
        "lat": 13.0966312,
        "lon": 77.5800749
      },
      "tags": {
        "access": "yes",
        "leisure": "playground"
      }
    },
    {
      "type": "way",
      "id": 1231715900,
      "center": {
        "lat": 13.0946891,
        "lon": 77.578484
      },
      "tags": {
        "landuse": "recreation_ground",
        "leisure": "pitch",
        "sport": "multi"
      }
    },
    {
      "type": "way",
      "id": 1231715915,
      "center": {
        "lat": 13.0954239,
        "lon": 77.5777121
      },
      "tags": {
        "leisure": "playground"
      }
    },
    {
      "type": "way",
      "id": 1231728161,
      "center": {
        "lat": 13.0979947,
        "lon": 77.5813909
      },
      "tags": {
        "air_conditioning": "no",
        "amenity": "library",
        "building": "civic",
        "internet_access": "terminal"
      }
    },
    {
      "type": "way",
      "id": 1231728162,
      "center": {
        "lat": 13.1000826,
        "lon": 77.5825631
      },
      "tags": {
        "leisure": "park"
      }
    },
    {
      "type": "way",
      "id": 1231728163,
      "center": {
        "lat": 13.0996891,
        "lon": 77.5828194
      },
      "tags": {
        "leisure": "park"
      }
    },
    {
      "type": "way",
      "id": 1231728232,
      "center": {
        "lat": 13.0958673,
        "lon": 77.5766741
      },
      "tags": {
        "leisure": "park"
      }
    },
    {
      "type": "way",
      "id": 1231728233,
      "center": {
        "lat": 13.0960933,
        "lon": 77.5771364
      },
      "tags": {
        "leisure": "park"
      }
    },
    {
      "type": "way",
      "id": 1231728252,
      "center": {
        "lat": 13.0984246,
        "lon": 77.5809871
      },
      "tags": {
        "amenity": "school",
        "name": "New Town Public School"
      }
    },
    {
      "type": "way",
      "id": 1231838384,
      "center": {
        "lat": 13.094524,
        "lon": 77.5716099
      },
      "tags": {
        "access": "private",
        "leisure": "pitch",
        "sport": "basketball"
      }
    },
    {
      "type": "way",
      "id": 1231838386,
      "center": {
        "lat": 13.0971133,
        "lon": 77.5717297
      },
      "tags": {
        "leisure": "park"
      }
    },
    {
      "type": "way",
      "id": 1231838387,
      "center": {
        "lat": 13.0972435,
        "lon": 77.5716362
      },
      "tags": {
        "access": "private",
        "leisure": "swimming_pool"
      }
    },
    {
      "type": "way",
      "id": 1231838392,
      "center": {
        "lat": 13.0956546,
        "lon": 77.5790346
      },
      "tags": {
        "amenity": "bus_station",
        "bus": "yes",
        "name": "Yelahanka New Town",
        "name:kn": "ಯಲಹಂಕ ಹೊಸ ಪಟ್ಟಣ",
        "network": "BMTC",
        "operator": "BMTC",
        "public_transport": "station"
      }
    },
    {
      "type": "way",
      "id": 1231885673,
      "center": {
        "lat": 13.093449,
        "lon": 77.5839989
      },
      "tags": {
        "access": "customers",
        "building": "commercial",
        "fee": "yes",
        "indoor": "yes",
        "leisure": "playground"
      }
    },
    {
      "type": "way",
      "id": 1231891888,
      "center": {
        "lat": 13.1024339,
        "lon": 77.5814996
      },
      "tags": {
        "access": "private",
        "leisure": "pitch",
        "sport": "tennis"
      }
    },
    {
      "type": "way",
      "id": 1231891906,
      "center": {
        "lat": 13.1006232,
        "lon": 77.5797778
      },
      "tags": {
        "access": "private",
        "leisure": "pitch",
        "sport": "soccer"
      }
    },
    {
      "type": "way",
      "id": 1233493620,
      "center": {
        "lat": 13.0990542,
        "lon": 77.5847248
      },
      "tags": {
        "amenity": "restaurant",
        "building": "restaurant",
        "check_date": "2023-12-23",
        "indoor_seating": "yes",
        "name": "Sri Vishnu Park",
        "outdoor_seating": "yes"
      }
    },
    {
      "type": "way",
      "id": 1233493626,
      "center": {
        "lat": 13.0999519,
        "lon": 77.5845541
      },
      "tags": {
        "amenity": "school",
        "name": "National Public School Yelahanka",
        "name:kn": "ರಾಷ್ಟ್ರೀಯ ಸಾರ್ವಜನಿಕ ಶಾಲೆ ಯಲಹಂಕ"
      }
    },
    {
      "type": "way",
      "id": 1233498703,
      "center": {
        "lat": 13.0937967,
        "lon": 77.5893672
      },
      "tags": {
        "amenity": "hospital",
        "building": "hospital",
        "healthcare": "hospital",
        "name": "Anupamaa Hospital"
      }
    },
    {
      "type": "way",
      "id": 1233754516,
      "center": {
        "lat": 13.1001374,
        "lon": 77.5839619
      },
      "tags": {
        "amenity": "police",
        "landuse": "commercial",
        "name": "Office of the Assisstant Commisioner of the Police"
      }
    },
    {
      "type": "way",
      "id": 1233754520,
      "center": {
        "lat": 13.1001865,
        "lon": 77.5844752
      },
      "tags": {
        "access": "private",
        "leisure": "pitch",
        "sport": "basketball"
      }
    },
    {
      "type": "way",
      "id": 1233754522,
      "center": {
        "lat": 13.0998399,
        "lon": 77.5880151
      },
      "tags": {
        "access": "private",
        "amenity": "parking",
        "parking": "surface"
      }
    },
    {
      "type": "way",
      "id": 1233754560,
      "center": {
        "lat": 13.0962939,
        "lon": 77.5786665
      },
      "tags": {
        "amenity": "marketplace",
        "check_date": "2023-12-23",
        "name": "Fruit and Vegetable Marketplace"
      }
    },
    {
      "type": "way",
      "id": 1233816953,
      "center": {
        "lat": 13.0935761,
        "lon": 77.5771753
      },
      "tags": {
        "leisure": "park"
      }
    },
    {
      "type": "way",
      "id": 1233816988,
      "center": {
        "lat": 13.0961345,
        "lon": 77.5849998
      },
      "tags": {
        "addr:housenumber": "39",
        "addr:street": "9th A Cross Road",
        "amenity": "kindergarten",
        "building": "kindergarten",
        "contact:email": "honeyhellokids@gmail.com",
        "contact:mobile": "+91 94805 93192",
        "contact:website": "https://www.hellokids.co.in/",
        "name": "Hello Kids"
      }
    },
    {
      "type": "way",
      "id": 1233816989,
      "center": {
        "lat": 13.0961151,
        "lon": 77.5851484
      },
      "tags": {
        "addr:housenumber": "40",
        "addr:street": "9th A Cross Road",
        "amenity": "cafe",
        "building": "retail",
        "diet:vegetarian": "only",
        "indoor_seating": "yes",
        "name": "Sri Sai Cafe",
        "outdoor_seating": "no"
      }
    },
    {
      "type": "way",
      "id": 1233817042,
      "center": {
        "lat": 13.0930992,
        "lon": 77.5843125
      },
      "tags": {
        "amenity": "restaurant",
        "building": "retail",
        "cuisine": "regional;chinese;ice_cream",
        "diet:vegan": "only",
        "diet:vegetarian": "only",
        "drink:beer": "no",
        "indoor_seating": "yes",
        "name": "Thirupathi Bhimas",
        "outdoor_seating": "no"
      }
    },
    {
      "type": "way",
      "id": 1238373981,
      "center": {
        "lat": 13.1075552,
        "lon": 77.5799961
      },
      "tags": {
        "leisure": "playground"
      }
    },
    {
      "type": "way",
      "id": 1238373982,
      "center": {
        "lat": 13.1075588,
        "lon": 77.5797447
      },
      "tags": {
        "leisure": "playground"
      }
    },
    {
      "type": "way",
      "id": 1238374188,
      "center": {
        "lat": 13.1049348,
        "lon": 77.5755327
      },
      "tags": {
        "leisure": "park",
        "name": "4th Phase 707 Park",
        "opening_hours": "24/7",
        "operator": "Municipality"
      }
    },
    {
      "type": "way",
      "id": 1272686454,
      "center": {
        "lat": 13.0937121,
        "lon": 77.5891386
      },
      "tags": {
        "addr:housenumber": "378-B",
        "addr:street": "12th A Main Road",
        "amenity": "kindergarten",
        "building": "kindergarten",
        "building:colour": "orange",
        "building:levels": "1",
        "name": "Yellow Bells Preschool",
        "roof:levels": "0",
        "roof:shape": "flat"
      }
    },
    {
      "type": "way",
      "id": 1284355505,
      "center": {
        "lat": 13.1005155,
        "lon": 77.5715809
      },
      "tags": {
        "leisure": "playground"
      }
    },
    {
      "type": "way",
      "id": 1284355583,
      "center": {
        "lat": 13.1029415,
        "lon": 77.5763875
      },
      "tags": {
        "leisure": "park"
      }
    },
    {
      "type": "way",
      "id": 1284859048,
      "center": {
        "lat": 13.0976181,
        "lon": 77.5708392
      },
      "tags": {
        "access": "private",
        "leisure": "swimming_pool"
      }
    },
    {
      "type": "way",
      "id": 1284859052,
      "center": {
        "lat": 13.0955803,
        "lon": 77.5697788
      },
      "tags": {
        "leisure": "playground"
      }
    },
    {
      "type": "way",
      "id": 1284859053,
      "center": {
        "lat": 13.0945057,
        "lon": 77.5697
      },
      "tags": {
        "leisure": "playground"
      }
    },
    {
      "type": "way",
      "id": 1284859055,
      "center": {
        "lat": 13.0944808,
        "lon": 77.570473
      },
      "tags": {
        "access": "private",
        "leisure": "swimming_pool"
      }
    },
    {
      "type": "way",
      "id": 1298823075,
      "center": {
        "lat": 13.0951313,
        "lon": 77.5893309
      },
      "tags": {
        "access": "private",
        "leisure": "pitch",
        "sport": "tennis"
      }
    },
    {
      "type": "way",
      "id": 1298823134,
      "center": {
        "lat": 13.0929241,
        "lon": 77.5867105
      },
      "tags": {
        "amenity": "restaurant",
        "building": "retail",
        "indoor_seating": "yes",
        "name": "64 Mutton Pulao",
        "outdoor_seating": "yes"
      }
    },
    {
      "type": "way",
      "id": 1298823163,
      "center": {
        "lat": 13.0964872,
        "lon": 77.5850995
      },
      "tags": {
        "amenity": "place_of_worship",
        "building": "church",
        "building:use": "religious",
        "name": "Christha Prabhalaya",
        "religion": "christian"
      }
    },
    {
      "type": "way",
      "id": 1298823192,
      "center": {
        "lat": 13.097355,
        "lon": 77.591324
      },
      "tags": {
        "amenity": "fuel",
        "brand": "Indian Oil",
        "brand:wikidata": "Q1289348",
        "compressed_air": "yes",
        "name": "Indian Oil",
        "wheelchair": "yes"
      }
    },
    {
      "type": "way",
      "id": 1298823194,
      "center": {
        "lat": 13.0969573,
        "lon": 77.5891037
      },
      "tags": {
        "amenity": "childcare",
        "building": "yes",
        "kindergarten": "yes",
        "name": "Podar Prep",
        "nursery": "yes"
      }
    },
    {
      "type": "way",
      "id": 1298824896,
      "center": {
        "lat": 13.093924,
        "lon": 77.5824216
      },
      "tags": {
        "amenity": "fuel",
        "brand": "Indian Oil",
        "brand:wikidata": "Q1289348",
        "check_date": "2024-05-25",
        "compressed_air": "yes",
        "landuse": "retail",
        "name": "Indian Oil"
      }
    },
    {
      "type": "way",
      "id": 1298824900,
      "center": {
        "lat": 13.0935299,
        "lon": 77.5830212
      },
      "tags": {
        "addr:housenumber": "290",
        "addr:street": "15th A Cross Road",
        "amenity": "clinic",
        "building": "yes",
        "healthcare": "clinic",
        "name": "Lakshmi Eye Clinic"
      }
    },
    {
      "type": "way",
      "id": 1302407199,
      "center": {
        "lat": 13.1002341,
        "lon": 77.5856108
      },
      "tags": {
        "access": "permissive",
        "amenity": "parking",
        "parking": "surface"
      }
    },
    {
      "type": "way",
      "id": 1307769244,
      "center": {
        "lat": 13.0952993,
        "lon": 77.5862575
      },
      "tags": {
        "amenity": "place_of_worship",
        "building": "temple",
        "name": "Ganesha Mantapa",
        "name:kn": "ಗಣೇಶ ಮಂಟಪ",
        "religion": "hindu"
      }
    },
    {
      "type": "way",
      "id": 1318918495,
      "center": {
        "lat": 13.0998341,
        "lon": 77.5890452
      },
      "tags": {
        "access": "yes",
        "amenity": "toilets",
        "building": "toilets",
        "building:use": "public",
        "unisex": "yes"
      }
    },
    {
      "type": "way",
      "id": 1320010465,
      "center": {
        "lat": 13.0930835,
        "lon": 77.5844532
      },
      "tags": {
        "access": "customers",
        "amenity": "parking",
        "capacity:disabled": "no",
        "capacity:parent": "no",
        "capacity:women": "no",
        "park_ride": "no",
        "parking": "surface",
        "surface": "dirt"
      }
    },
    {
      "type": "way",
      "id": 1320010467,
      "center": {
        "lat": 13.0931631,
        "lon": 77.5841712
      },
      "tags": {
        "access": "customers",
        "amenity": "parking",
        "capacity:disabled": "no",
        "capacity:parent": "no",
        "capacity:women": "no",
        "park_ride": "no",
        "parking": "carports",
        "surface": "concrete"
      }
    },
    {
      "type": "way",
      "id": 1322140451,
      "center": {
        "lat": 13.0978877,
        "lon": 77.5814907
      },
      "tags": {
        "amenity": "townhall",
        "building": "government",
        "name": "BBMP"
      }
    },
    {
      "type": "way",
      "id": 1323884346,
      "center": {
        "lat": 13.0969523,
        "lon": 77.5868677
      },
      "tags": {
        "access": "private",
        "amenity": "parking",
        "park_ride": "no",
        "parking": "carports"
      }
    },
    {
      "type": "way",
      "id": 1324600251,
      "center": {
        "lat": 13.0949288,
        "lon": 77.5914881
      },
      "tags": {
        "access": "private",
        "leisure": "swimming_pool",
        "swimming_pool": "swimming"
      }
    },
    {
      "type": "way",
      "id": 1385537569,
      "center": {
        "lat": 13.0968593,
        "lon": 77.5841616
      },
      "tags": {
        "access": "customers",
        "amenity": "parking",
        "parking": "surface",
        "surface": "ground"
      }
    },
    {
      "type": "way",
      "id": 1389236061,
      "center": {
        "lat": 13.0948421,
        "lon": 77.5862364
      },
      "tags": {
        "leisure": "park",
        "phone": "1533"
      }
    },
    {
      "type": "way",
      "id": 1447059498,
      "center": {
        "lat": 13.1013082,
        "lon": 77.5849401
      },
      "tags": {
        "amenity": "school",
        "name": "Mangala Vidya Mandira"
      }
    },
    {
      "type": "way",
      "id": 1450417625,
      "center": {
        "lat": 13.1010096,
        "lon": 77.5851972
      },
      "tags": {
        "amenity": "place_of_worship",
        "building": "yes",
        "religion": "hindu"
      }
    }
  ]
}