{
  "area_name": "Yelahanka",
  "osm_id": 430143744,
  "osm_type": "node",
  "place_type": "suburb",
  "amenity_count": 313,
  "amenities": [
    {
      "type": "node",
      "id": 1464782423,
      "lat": 13.0968515,
      "lon": 77.5964304,
      "tags": {
        "amenity": "cinema",
        "name": "Prakash Theatre"
      }
    },
    {
      "type": "node",
      "id": 1464782617,
      "lat": 13.0973922,
      "lon": 77.5964894,
      "tags": {
        "amenity": "hospital",
        "name": "Deeksha Orthopaedic Hospital"
      }
    },
    {
      "type": "node",
      "id": 1464783198,
      "lat": 13.0997316,
      "lon": 77.5980216,
      "tags": {
        "amenity": "hospital",
        "name": "Shushrusha Hospital"
      }
    },
    {
      "type": "node",
      "id": 1467967639,
      "lat": 13.0992439,
      "lon": 77.5880493,
      "tags": {
        "amenity": "cafe",
        "name": "Yelhanka Cafe Cofee Day"
      }
    },
    {
      "type": "node",
      "id": 1467968318,
      "lat": 13.099742,
      "lon": 77.588778,
      "tags": {
        "amenity": "fast_food",
        "name": "Chandra cafe"
      }
    },
    {
      "type": "node",
      "id": 1467984648,
      "lat": 13.0989001,
      "lon": 77.5876488,
      "tags": {
        "amenity": "restaurant",
        "cuisine": "ice_cream",
        "name": "CornerHouse",
        "name:kn": "ಕಾರ್ನರ್ ಹೌಸ್"
      }
    },
    {
      "type": "node",
      "id": 1469099644,
      "lat": 13.0991591,
      "lon": 77.5878519,
      "tags": {
        "amenity": "bank",
        "brand": "Axis Bank",
        "brand:wikidata": "Q2003549",
        "brand:wikipedia": "en:Axis Bank",
        "name": "Axis Bank",
        "name:en": "Axis Bank",
        "name:kn": "ಆಕ್ಸಿಸ್ ಬ್ಯಾಂಕ್",
        "operator": "UTI",
        "website": "https://www.axisbank.com",
        "wheelchair": "limited"
      }
    },
    {
      "type": "node",
      "id": 1471791819,
      "lat": 13.0995328,
      "lon": 77.5890285,
      "tags": {
        "amenity": "fast_food",
        "brand": "Domino's",
        "brand:ks": "ڈومینوز",
        "brand:pa": "ਡੋਮੀਨੋਜ਼",
        "brand:ur": "ڈومینوز",
        "brand:wikidata": "Q839466",
        "brand:wikipedia": "en:Domino's Pizza",
        "cuisine": "pizza",
        "name": "Domino's",
        "name:kn": "ಡಾಮಿನೋಸ್",
        "name:ks": "ڈومینوز",
        "name:pa": "ਡੋਮੀਨੋਜ਼",
        "name:ur": "ڈومینوز",
        "takeaway": "yes"
      }
    },
    {
      "type": "node",
      "id": 1471791820,
      "lat": 13.0996082,
      "lon": 77.5889404,
      "tags": {
        "amenity": "ice_cream",
        "brand": "Baskin-Robbins",
        "brand:wikidata": "Q584601",
        "cuisine": "ice_cream",
        "name": "Baskin-Robbins",
        "name:kn": "ಬಸ್ಕಿನ್ ರಾಬಿನ್ಸ್",
        "operator": "Bata show room",
        "wheelchair": "limited"
      }
    },
    {
      "type": "node",
      "id": 1471795956,
      "lat": 13.0950433,
      "lon": 77.5942125,
      "tags": {
        "amenity": "fast_food",
        "name": "Idli Express"
      }
    },
    {
      "type": "node",
      "id": 2467305441,
      "lat": 13.099148,
      "lon": 77.587717,
      "tags": {
        "addr:city": "bangalore",
        "addr:postcode": "560064",
        "amenity": "bank",
        "atm": "yes",
        "brand": "Indian Overseas Bank",
        "brand:wikidata": "Q2003611",
        "brand:wikipedia": "en:Indian Overseas Bank",
        "name": "Indian Overseas Bank",
        "name:en": "Indian Overseas Bank",
        "name:kn": "ಐ ಓ ಬಿ",
        "phone": "+918022950336",
        "short_name": "IOB",
        "website": "https://www.iob.in",
        "wheelchair": "yes"
      }
    },
    {
      "type": "node",
      "id": 2467309538,
      "lat": 13.1005731,
      "lon": 77.5881723,
      "tags": {
        "addr:postcode": "560064",
        "amenity": "restaurant",
        "cuisine": "indian",
        "name": "Rathna Kushka Center"
      }
    },
    {
      "type": "node",
      "id": 2817011517,
      "lat": 13.0933876,
      "lon": 77.6007265,
      "tags": {
        "addr:city": "Bangalore",
        "addr:postcode": "560064",
        "addr:street": "Shivanahalli main road",
        "amenity": "restaurant",
        "capacity": "50",
        "cuisine": "regional",
        "name": "Ganesh Uphaar",
        "opening_hours": "9 to 10"
      }
    },
    {
      "type": "node",
      "id": 3642631907,
      "lat": 13.099474,
      "lon": 77.5891287,
      "tags": {
        "amenity": "fast_food",
        "cuisine": "sandwich",
        "name": "Subway / Polar Bear"
      }
    },
    {
      "type": "node",
      "id": 3642638916,
      "lat": 13.0993015,
      "lon": 77.5892631,
      "tags": {
        "amenity": "restaurant",
        "brand": "Pizza Hut",
        "brand:wikidata": "Q191615",
        "cuisine": "pizza",
        "name": "Pizza Hut",
        "name:kn": "ಪಿಟ್ಸ ಹಟ್"
      }
    },
    {
      "type": "node",
      "id": 3642638917,
      "lat": 13.0993909,
      "lon": 77.589218,
      "tags": {
        "amenity": "restaurant",
        "cuisine": "chinese",
        "name": "Beijing Bites",
        "name:kn": "ಬೀಜಿಂಗ್ ಬೈಟ್ಸ್"
      }
    },
    {
      "type": "node",
      "id": 3642638918,
      "lat": 13.0994241,
      "lon": 77.5891823,
      "tags": {
        "amenity": "restaurant",
        "cuisine": "regional",
        "name": "Mast Kalandar",
        "name:kn": "ಮಸ್ತ್ ಕಲಂದರ್"
      }
    },
    {
      "type": "node",
      "id": 4294672289,
      "lat": 13.1044636,
      "lon": 77.5950418,
      "tags": {
        "amenity": "place_of_worship",
        "check_date": "2024-10-19",
        "name": "Chowdeshwari Temple",
        "name:kn": "ಚೌಡೇಶ್ವರಿ ದೇವಸ್ಥಾನ",
        "religion": "hindu"
      }
    },
    {
      "type": "node",
      "id": 4294672489,
      "lat": 13.0987953,
      "lon": 77.596965,
      "tags": {
        "amenity": "fast_food",
        "name": "Skanda Sagar"
      }
    },
    {
      "type": "node",
      "id": 4691599025,
      "lat": 13.1004091,
      "lon": 77.5991386,
      "tags": {
        "amenity": "place_of_worship",
        "religion": "hindu"
      }
    },
    {
      "type": "node",
      "id": 4719664188,
      "lat": 13.0998575,
      "lon": 77.5976396,
      "tags": {
        "addr:city": "Bangalore",
        "addr:housenumber": "366/4",
        "addr:postcode": "560064",
        "addr:street": "Bhagyada Bagilu Road",
        "amenity": "fast_food",
        "brand": "Papa John's",
        "brand:wikidata": "Q2759586",
        "cuisine": "pizza",
        "delivery": "yes",
        "name": "Papa John's",
        "name:kn": "ಪಪ ಜಾನ್ಸ್",
        "opening_hours": "11:00 - 23:00",
        "phone": "08197906655",
        "takeaway": "yes",
        "website": "https://www.papajohnspizza.in"
      }
    },
    {
      "type": "node",
      "id": 4829285321,
      "lat": 13.0973713,
      "lon": 77.5980105,
      "tags": {
        "amenity": "bicycle_parking",
        "operator": "home Honey ksa"
      }
    },
    {
      "type": "node",
      "id": 5964485847,
      "lat": 13.0938786,
      "lon": 77.594727,
      "tags": {
        "addr:postcode": "560064",
        "addr:street": "Bhagyada Bagilu Road",
        "brand": "Spar",
        "brand:wikidata": "Q610492",
        "name": "Spar",
        "organic": "yes",
        "shop": "supermarket",
        "website": "https://www.sparindia.com/",
        "wheelchair": "yes"
      }
    },
    {
      "type": "node",
      "id": 5964485853,
      "lat": 13.096768,
      "lon": 77.5924243,
      "tags": {
        "name": "Sleepwell Shoppe",
        "shop": "bed"
      }
    },
    {
      "type": "node",
      "id": 5983326231,
      "lat": 13.094978,
      "lon": 77.5972765,
      "tags": {
        "amenity": "cafe",
        "brand": "Cafe Coffee Day",
        "brand:wikidata": "Q5017235",
        "cuisine": "coffee_shop",
        "name": "Cafe Coffee Day",
        "name:kn": "ಕಫೆ ಕಾಫಿ ಡೇ",
        "takeaway": "yes"
      }
    },
    {
      "type": "node",
      "id": 6938653697,
      "lat": 13.0959727,
      "lon": 77.5885404,
      "tags": {
        "addr:district": "Bengaluru Urban",
        "addr:full": "# 29, 1st Main, Sharad Nagar, Behind Yelahanka New Town",
        "addr:postcode": "560064",
        "addr:state": "Karnataka",
        "amenity": "bank",
        "brand": "AU Small Finance Bank",
        "brand:wikidata": "Q48729722",
        "name": "AU Small Finance Bank"
      }
    },
    {
      "type": "node",
      "id": 6938777940,
      "lat": 13.0945892,
      "lon": 77.594104,
      "tags": {
        "addr:district": "Bengaluru Urban",
        "addr:full": "No 150/3 Jnrt Mansion B.B. Road",
        "addr:postcode": "560064",
        "addr:state": "Karnataka",
        "amenity": "hospital",
        "check_date": "2024-09-27",
        "name": "North City CT Scan",
        "source": "OpenGovernmentData"
      }
    },
    {
      "type": "node",
      "id": 6939017804,
      "lat": 13.1001759,
      "lon": 77.5956731,
      "tags": {
        "addr:district": "Bengaluru Urban",
        "addr:full": "Hospital Road, Yelahanka",
        "addr:postcode": "560064",
        "addr:state": "Karnataka",
        "amenity": "clinic",
        "name": "Saraswathi Poly Clinic",
        "source": "OpenGovernmentData"
      }
    },
    {
      "type": "node",
      "id": 6992361985,
      "lat": 13.0941517,
      "lon": 77.5954046,
      "tags": {
        "air_conditioning": "yes",
        "amenity": "cinema",
        "brand": "INOX Leisure",
        "brand:wikidata": "Q5972349",
        "name": "INOX",
        "short_name": "INOX",
        "toilets:access": "customers",
        "toilets:wheelchair": "designated",
        "website": "https://www.inoxmovies.com",
        "wheelchair": "no"
      }
    },
    {
      "type": "node",
      "id": 7228221939,
      "lat": 13.0951352,
      "lon": 77.5956765,
      "tags": {
        "access": "permissive",
        "amenity": "parking"
      }
    },
    {
      "type": "node",
      "id": 7228221942,
      "lat": 13.094328,
      "lon": 77.5945392,
      "tags": {
        "access": "permissive",
        "amenity": "parking"
      }
    },
    {
      "type": "node",
      "id": 7228221958,
      "lat": 13.0940615,
      "lon": 77.5959621,
      "tags": {
        "access": "permissive",
        "amenity": "parking"
      }
    },
    {
      "type": "node",
      "id": 7579683177,
      "lat": 13.1051735,
      "lon": 77.6027864,
      "tags": {
        "addr:district": "Bengaluru Urban",
        "addr:full": "Kogilu Main Road, Maruthi Nagar, Yelahanka, Bengaluru",
        "addr:postcode": "560064",
        "addr:state": "Karnataka",
        "amenity": "hospital",
        "name": "NDR Multi Speciality Hospital",
        "source": "Local Knowledge"
      }
    },
    {
      "type": "node",
      "id": 7579683180,
      "lat": 13.0979448,
      "lon": 77.5960808,
      "tags": {
        "addr:district": "Bengaluru Urban",
        "addr:full": "Gandhi Nagar, Yelahanka, Bengaluru",
        "addr:postcode": "560064",
        "addr:state": "Karnataka",
        "amenity": "clinic",
        "name": "Malavya Nursing Home",
        "source": "Local Knowledge"
      }
    },
    {
      "type": "node",
      "id": 7579683182,
      "lat": 13.0973532,
      "lon": 77.5967518,
      "tags": {
        "addr:district": "Bengaluru Urban",
        "addr:full": "KHB Colony, Gandhinagar, Yelahanka, Bengaluru",
        "addr:postcode": "560064",
        "addr:state": "Karnataka",
        "amenity": "dentist",
        "name": "Patel Dental - Orthodontic & Dental Implant Centre",
        "source": "Local Knowledge"
      }
    },
    {
      "type": "node",
      "id": 7579683189,
      "lat": 13.0978476,
      "lon": 77.5968473,
      "tags": {
        "addr:district": "Bengaluru Urban",
        "addr:full": "Yelahanka, Bengaluru",
        "addr:postcode": "560064",
        "addr:state": "Karnataka",
        "amenity": "clinic",
        "name": "Krishna Nethralaya",
        "source": "Local Knowledge"
      }
    },
    {
      "type": "node",
      "id": 7579683195,
      "lat": 13.1005709,
      "lon": 77.5951888,
      "tags": {
        "addr:district": "Bengaluru Urban",
        "addr:full": "Railway Station Road, Gandhi Nagar, Yelahanka, Bengaluru",
        "addr:postcode": "560064",
        "addr:state": "Karnataka",
        "amenity": "clinic",
        "name": "Janani Maternity & Women's Clinic",
        "source": "Local Knowledge"
      }
    },
    {
      "type": "node",
      "id": 7579683196,
      "lat": 13.0972366,
      "lon": 77.5972516,
      "tags": {
        "addr:district": "Bengaluru Urban",
        "addr:full": "Gandhi Nagar, Yelahanka, Bengaluru",
        "addr:postcode": "560064",
        "addr:state": "Karnataka",
        "amenity": "clinic",
        "name": "Sri Krishna Scanning and Diagnostic Centre",
        "source": "Local Knowledge"
      }
    },
    {
      "type": "node",
      "id": 7579683200,
      "lat": 13.0978598,
      "lon": 77.5876976,
      "tags": {
        "addr:district": "Bengaluru Urban",
        "addr:full": "Yelahanka, Bengaluru",
        "addr:postcode": "560064",
        "addr:state": "Karnataka",
        "amenity": "dentist",
        "name": "Zircon dental",
        "source": "Local Knowledge"
      }
    },
    {
      "type": "node",
      "id": 7579683208,
      "lat": 13.0974609,
      "lon": 77.5959547,
      "tags": {
        "addr:district": "Bengaluru Urban",
        "addr:full": "Near Prakash Theatre, Yelahanka, Bengaluru",
        "addr:postcode": "560064",
        "addr:state": "Karnataka",
        "amenity": "clinic",
        "name": "Balaji Multispeciality Dental Clinic",
        "source": "Local Knowledge"
      }
    },
    {
      "type": "node",
      "id": 7579683210,
      "lat": 13.097498,
      "lon": 77.5944292,
      "tags": {
        "addr:district": "Bengaluru Urban",
        "addr:full": "Suggappa Layout, Yelahanka, Bengaluru",
        "addr:postcode": "560064",
        "addr:state": "Karnataka",
        "amenity": "dentist",
        "name": "Dental Clinic",
        "source": "Local Knowledge"
      }
    },
    {
      "type": "node",
      "id": 7579683219,
      "lat": 13.101335,
      "lon": 77.59858,
      "tags": {
        "addr:district": "Bengaluru Urban",
        "addr:full": "BB Road, Yelahanka, Bengaluru",
        "addr:postcode": "560064",
        "addr:state": "Karnataka",
        "amenity": "hospital",
        "name": "Apurva Hospital",
        "source": "Local Knowledge"
      }
    },
    {
      "type": "node",
      "id": 7579683222,
      "lat": 13.0985051,
      "lon": 77.5875066,
      "tags": {
        "addr:district": "Bengaluru Urban",
        "addr:full": "Major Akshay Girish Kumar Road, Yelahanka, Bengaluru",
        "addr:postcode": "560064",
        "addr:state": "Karnataka",
        "amenity": "clinic",
        "name": "Synapse Health Care",
        "source": "Local Knowledge"
      }
    },
    {
      "type": "node",
      "id": 7579683232,
      "lat": 13.098909,
      "lon": 77.596219,
      "tags": {
        "addr:district": "Bengaluru Urban",
        "addr:full": "Gandhi Nagar, Yelahanka, Bengaluru",
        "addr:postcode": "560064",
        "addr:state": "Karnataka",
        "amenity": "hospital",
        "name": "Jayalakshmi Hospital",
        "source": "Local Knowledge"
      }
    },
    {
      "type": "node",
      "id": 7579683237,
      "lat": 13.10051,
      "lon": 77.595603,
      "tags": {
        "addr:district": "Bengaluru Urban",
        "addr:full": "Gandhi Nagar, Yelahanka, Bengaluru",
        "addr:postcode": "560064",
        "addr:state": "Karnataka",
        "amenity": "hospital",
        "name": "NDR Orthopaedic",
        "source": "Local Knowledge"
      }
    },
    {
      "type": "node",
      "id": 7579683244,
      "lat": 13.0984621,
      "lon": 77.5966397,
      "tags": {
        "addr:district": "Bengaluru Urban",
        "addr:full": "B B Road, Near Post Office, Yelahanka, Bengaluru",
        "addr:postcode": "560064",
        "addr:state": "Karnataka",
        "amenity": "dentist",
        "name": "Sowmya Dental Clinic",
        "source": "Local Knowledge"
      }
    },
    {
      "type": "node",
      "id": 7579683248,
      "lat": 13.0973071,
      "lon": 77.5965859,
      "tags": {
        "addr:district": "Bengaluru Urban",
        "addr:full": "Yelahanka, Bengaluru",
        "addr:postcode": "560064",
        "addr:state": "Karnataka",
        "amenity": "clinic",
        "name": "Unnathi Clinic",
        "source": "Local Knowledge"
      }
    },
    {
      "type": "node",
      "id": 7579683251,
      "lat": 13.0981485,
      "lon": 77.596139,
      "tags": {
        "addr:district": "Bengaluru Urban",
        "addr:full": "Gandhi Nagar, Yelahanka, Bengaluru",
        "addr:postcode": "560064",
        "addr:state": "Karnataka",
        "amenity": "hospital",
        "name": "Pavan Hospitals",
        "source": "Local Knowledge"
      }
    },
    {
      "type": "node",
      "id": 7579683256,
      "lat": 13.0997798,
      "lon": 77.5955704,
      "tags": {
        "addr:district": "Bengaluru Urban",
        "addr:full": "2nd B Cross Road, Gandhi Nagar, Yelahanka, Bengaluru",
        "addr:postcode": "560064",
        "addr:state": "Karnataka",
        "amenity": "doctors",
        "healthcare": "doctor",
        "name": "Dr. Biswas Ji",
        "source": "Local Knowledge"
      }
    },
    {
      "type": "node",
      "id": 7579683265,
      "lat": 13.1041255,
      "lon": 77.6023323,
      "tags": {
        "addr:district": "Bengaluru Urban",
        "addr:full": "Kogilu Main Road, Maruthi Nagar, Yelahanka, Bengaluru",
        "addr:postcode": "560064",
        "addr:state": "Karnataka",
        "amenity": "clinic",
        "name": "Aayurjisha Women's Clinic",
        "source": "Local Knowledge"
      }
    },
    {
      "type": "node",
      "id": 8088384741,
      "lat": 13.1005238,
      "lon": 77.588677,
      "tags": {
        "addr:city": "Yelahanka",
        "addr:postcode": "560064",
        "name": "Indian Railways Computerised Reservation Office",
        "operator": "South Western Railways",
        "shop": "ticket"
      }
    },
    {
      "type": "node",
      "id": 10302703774,
      "lat": 13.0943149,
      "lon": 77.5950327,
      "tags": {
        "amenity": "fast_food",
        "brand": "Popeyes",
        "brand:wikidata": "Q1330910",
        "brand:wikipedia": "en:Popeyes",
        "cuisine": "chicken",
        "delivery": "yes",
        "indoor_seating": "yes",
        "name": "Popeyes",
        "official_name": "Popeyes Louisiana Kitchen",
        "takeaway": "yes",
        "website": "https://www.popeyes.in/"
      }
    },
    {
      "type": "node",
      "id": 10600476805,
      "lat": 13.0945187,
      "lon": 77.5949442,
      "tags": {
        "addr:city": "Bangalore",
        "addr:country": "IN",
        "addr:housename": "The Galleria Mall",
        "addr:postcode": "560064",
        "addr:street": "Yelahanka Road",
        "addr:suburb": "Yelahanka",
        "amenity": "restaurant",
        "contact:facebook": "nasiandmee",
        "contact:instagram": "nasiandmee",
        "cuisine": "asian",
        "delivery": "yes",
        "level": "3",
        "name": "Nasi and Mee",
        "official_name": "Nasi and Mee Asian Canteen",
        "takeaway": "yes",
        "website": "https://www.nasiandmee.co.in/",
        "wheelchair": "yes"
      }
    },
    {
      "type": "node",
      "id": 10685071182,
      "lat": 13.0945273,
      "lon": 77.5953799,
      "tags": {
        "name": "Plum Goodness",
        "shop": "beauty",
        "website": "https://plumgoodness.com/",
        "wheelchair": "yes"
      }
    },
    {
      "type": "node",
      "id": 11054110922,
      "lat": 13.0927841,
      "lon": 77.593926,
      "tags": {
        "contact:website": "https://www.westside.com/",
        "name": "Westside",
        "shop": "clothes",
        "wheelchair": "yes"
      }
    },
    {
      "type": "node",
      "id": 11054110923,
      "lat": 13.0928279,
      "lon": 77.59389,
      "tags": {
        "name": "HomeTown",
        "shop": "furniture"
      }
    },
    {
      "type": "node",
      "id": 11054110924,
      "lat": 13.0931578,
      "lon": 77.5939788,
      "tags": {
        "brand": "Urban Ladder",
        "brand:wikidata": "Q18357397",
        "name": "Urban Ladder",
        "shop": "furniture"
      }
    },
    {
      "type": "node",
      "id": 11054110925,
      "lat": 13.0933683,
      "lon": 77.5939798,
      "tags": {
        "name": "Pai furniture",
        "shop": "furniture"
      }
    },
    {
      "type": "node",
      "id": 11054110926,
      "lat": 13.093505,
      "lon": 77.5940134,
      "tags": {
        "name": "Pai International",
        "shop": "electronics",
        "website": "https://www.paiinternational.in/",
        "wheelchair": "no"
      }
    },
    {
      "type": "node",
      "id": 11465694156,
      "lat": 13.105174,
      "lon": 77.6006362,
      "tags": {
        "check_date": "2023-12-29",
        "internet_access": "no",
        "name": "Sri Kalabyraveshwara Tea Stall",
        "payment:cards": "no",
        "payment:cash": "yes",
        "payment:credit_cards": "no",
        "payment:debit_cards": "no",
        "payment:paytm": "yes",
        "payment:upi": "yes",
        "shop": "convenience",
        "wheelchair": "no"
      }
    },
    {
      "type": "node",
      "id": 11465694157,
      "lat": 13.1051637,
      "lon": 77.6006037,
      "tags": {
        "amenity": "restaurant",
        "check_date": "2023-12-29",
        "cuisine": "indian",
        "diet:non-vegetarian": "yes",
        "diet:vegetarian": "yes",
        "internet_access": "no",
        "name": "Naati Style Gowda's Hotel",
        "payment:cards": "no",
        "payment:cash": "yes",
        "payment:credit_cards": "no",
        "payment:debit_cards": "no",
        "wheelchair": "no"
      }
    },
    {
      "type": "node",
      "id": 11465714934,
      "lat": 13.105269,
      "lon": 77.6004194,
      "tags": {
        "amenity": "car_wash",
        "automated": "no",
        "check_date": "2023-12-29",
        "internet_access": "no",
        "name": "AMG Service Station",
        "payment:cards": "no",
        "payment:cash": "yes",
        "payment:credit_cards": "no",
        "payment:debit_cards": "no",
        "payment:paytm": "yes",
        "payment:upi": "yes",
        "self_service": "no",
        "wheelchair": "no"
      }
    },
    {
      "type": "node",
      "id": 11465714935,
      "lat": 13.1053023,
      "lon": 77.6004091,
      "tags": {
        "check_date": "2023-12-29",
        "internet_access": "no",
        "name": "SR Wheel Alignment",
        "payment:cards": "no",
        "payment:cash": "yes",
        "payment:credit_cards": "no",
        "payment:debit_cards": "no",
        "payment:paytm": "yes",
        "payment:upi": "yes",
        "service:vehicle:alignment": "yes",
        "service:vehicle:brakes": "yes",
        "service:vehicle:car_repair": "yes",
        "service:vehicle:car_service": "yes",
        "service:vehicle:inspection": "yes",
        "service:vehicle:oil_change": "yes",
        "service:vehicle:parts": "yes",
        "service:vehicle:servicing": "yes",
        "service:vehicle:suspension": "yes",
        "service:vehicle:tyres": "yes",
        "service:vehicle:tyres_repair": "yes",
        "service:vehicle:wheels": "yes",
        "shop": "car_repair",
        "wheelchair": "no"
      }
    },
    {
      "type": "node",
      "id": 11465715186,
      "lat": 13.1053138,
      "lon": 77.6007462,
      "tags": {
        "amenity": "vehicle_inspection",
        "check_date": "2023-12-29",
        "internet_access": "no",
        "name": "AMG Emission Testing Center",
        "payment:cards": "no",
        "payment:cash": "yes",
        "payment:credit_cards": "no",
        "payment:debit_cards": "no",
        "wheelchair": "no"
      }
    },
    {
      "type": "node",
      "id": 11465715707,
      "lat": 13.1056672,
      "lon": 77.6009487,
      "tags": {
        "check_date": "2023-12-29",
        "description": "Small and large plant nursery. Clay pots also available.",
        "internet_access": "no",
        "payment:cards": "no",
        "payment:cash": "yes",
        "payment:credit_cards": "no",
        "payment:debit_cards": "no",
        "payment:paytm": "yes",
        "payment:upi": "yes",
        "shop": "garden_centre",
        "wheelchair": "no"
      }
    },
    {
      "type": "node",
      "id": 11465749609,
      "lat": 13.1069608,
      "lon": 77.6002193,
      "tags": {
        "check_date": "2023-12-29",
        "internet_access": "no",
        "name": "Shopbox",
        "opening_hours": "09:00-22:00",
        "payment:cash": "yes",
        "payment:credit_cards": "yes",
        "payment:debit_cards": "yes",
        "payment:paytm": "yes",
        "payment:upi": "yes",
        "shop": "supermarket",
        "wheelchair": "yes"
      }
    },
    {
      "type": "node",
      "id": 11465749610,
      "lat": 13.1070097,
      "lon": 77.6002084,
      "tags": {
        "amenity": "clinic",
        "check_date": "2023-12-29",
        "healthcare": "clinic",
        "healthcare:speciality": "emergency;general",
        "internet_access": "no",
        "name": "Sanjeevani",
        "operator:type": "private",
        "payment:cards": "no",
        "payment:cash": "yes",
        "payment:credit_cards": "no",
        "payment:debit_cards": "no",
        "wheelchair": "yes"
      }
    },
    {
      "type": "node",
      "id": 11465752385,
      "lat": 13.1068039,
      "lon": 77.6015746,
      "tags": {
        "check_date": "2023-12-29",
        "internet_access": "no",
        "name": "Selvam Glass Works",
        "payment:cards": "no",
        "payment:cash": "yes",
        "payment:credit_cards": "no",
        "payment:debit_cards": "no",
        "payment:paytm": "yes",
        "payment:upi": "yes",
        "service:vehicle:glass": "yes",
        "service:vehicle:glass_repair": "yes",
        "shop": "car_repair",
        "wheelchair": "no"
      }
    },
    {
      "type": "node",
      "id": 11465756632,
      "lat": 13.1062987,
      "lon": 77.6013894,
      "tags": {
        "check_date": "2023-12-29",
        "internet_access": "no",
        "name": "Vehicle Repair Shop",
        "payment:cards": "no",
        "payment:cash": "yes",
        "payment:credit_cards": "no",
        "payment:debit_cards": "no",
        "payment:paytm": "yes",
        "payment:upi": "yes",
        "service:vehicle:car_repair": "yes",
        "service:vehicle:repair": "yes",
        "service:vehicle:truck_repair": "yes",
        "service:vehicle:tyres": "yes",
        "service:vehicle:tyres_repair": "yes",
        "shop": "car_repair",
        "wheelchair": "no"
      }
    },
    {
      "type": "node",
      "id": 11465761782,
      "lat": 13.1068382,
      "lon": 77.6016804,
      "tags": {
        "check_date": "2023-12-29",
        "description": "Typical Tea, Coffee and Juice shop",
        "internet_access": "no",
        "name": "SS Cafe",
        "opening_hours": "Mo-Sa 07:30-20:30",
        "payment:cards": "no",
        "payment:cash": "yes",
        "payment:credit_cards": "no",
        "payment:debit_cards": "no",
        "payment:paytm": "yes",
        "payment:upi": "yes",
        "shop": "tea",
        "wheelchair": "no"
      }
    },
    {
      "type": "node",
      "id": 11465762137,
      "lat": 13.106414,
      "lon": 77.6014038,
      "tags": {
        "amenity": "atm",
        "brand": "HDFC",
        "cash_in": "no",
        "check_date": "2024-10-30",
        "covered": "yes",
        "currency:INR": "yes",
        "drive_through": "no",
        "indoor": "yes",
        "lit": "yes",
        "operator": "HDFC Bank",
        "source": "local knowledge;survey",
        "wheelchair": "yes"
      }
    },
    {
      "type": "node",
      "id": 11468958100,
      "lat": 13.1036021,
      "lon": 77.5998838,
      "tags": {
        "amenity": "restaurant",
        "cuisine": "indian",
        "diet:vegetarian": "yes",
        "name": "Alakapuri Veg Restaurant",
        "opening_hours": "Mo-Su 07:00-22:00"
      }
    },
    {
      "type": "node",
      "id": 11469538012,
      "lat": 13.1068111,
      "lon": 77.6015977,
      "tags": {
        "check_date": "2023-12-30",
        "internet_access": "no",
        "name": "CC Provision Store",
        "payment:cards": "no",
        "payment:cash": "yes",
        "payment:credit_cards": "no",
        "payment:debit_cards": "no",
        "payment:paytm": "yes",
        "payment:upi": "yes",
        "shop": "convenience",
        "wheelchair": "no"
      }
    },
    {
      "type": "node",
      "id": 11469538013,
      "lat": 13.1068214,
      "lon": 77.6016368,
      "tags": {
        "check_date": "2023-12-30",
        "internet_access": "no",
        "name": "Prestige Smart Kitchen",
        "payment:cards": "no",
        "payment:cash": "yes",
        "payment:credit_cards": "no",
        "payment:debit_cards": "no",
        "payment:paytm": "yes",
        "payment:upi": "yes",
        "shop": "appliance",
        "wheelchair": "no"
      }
    },
    {
      "type": "node",
      "id": 11469538014,
      "lat": 13.106818,
      "lon": 77.6016177,
      "tags": {
        "check_date": "2023-12-30",
        "female": "yes",
        "internet_access": "no",
        "male": "yes",
        "name": "New Star & Style Hairdresser",
        "payment:cards": "no",
        "payment:cash": "yes",
        "payment:credit_cards": "no",
        "payment:debit_cards": "no",
        "payment:paytm": "yes",
        "payment:upi": "yes",
        "shop": "hairdresser",
        "wheelchair": "no"
      }
    },
    {
      "type": "node",
      "id": 11469559127,
      "lat": 13.1067944,
      "lon": 77.6015506,
      "tags": {
        "check_date": "2023-12-30",
        "description": "Eco win coating systems. Wurth. Norbin.",
        "internet_access": "no",
        "name": "Sunshine Colors",
        "payment:cards": "no",
        "payment:cash": "yes",
        "payment:credit_cards": "no",
        "payment:debit_cards": "no",
        "payment:paytm": "yes",
        "payment:upi": "yes",
        "shop": "paint",
        "wheelchair": "no"
      }
    },
    {
      "type": "node",
      "id": 11469855279,
      "lat": 13.106768,
      "lon": 77.6014754,
      "tags": {
        "amenity": "clinic",
        "check_date": "2023-12-30",
        "healthcare": "clinic",
        "healthcare:speciality": "physiotherapy",
        "internet_access": "no",
        "name": "Elite Physiotherapy Clinic",
        "operator:type": "private",
        "payment:cash": "yes",
        "payment:credit_cards": "yes",
        "payment:debit_cards": "yes",
        "wheelchair": "no"
      }
    },
    {
      "type": "node",
      "id": 11473102399,
      "lat": 13.1067878,
      "lon": 77.5996495,
      "tags": {
        "amenity": "library",
        "internet_access": "no",
        "name": "Kendriya Vihar Library",
        "operator": "Kendriya Vihar Apartments Owners Association",
        "operator:type": "private"
      }
    },
    {
      "type": "node",
      "id": 11473102400,
      "lat": 13.106717,
      "lon": 77.5996737,
      "tags": {
        "access": "private",
        "leisure": "pitch",
        "lit": "yes",
        "name": "KV Table Tennis and Carrom Room",
        "sport": "table_tennis"
      }
    },
    {
      "type": "node",
      "id": 11473102401,
      "lat": 13.1068575,
      "lon": 77.6001529,
      "tags": {
        "amenity": "theatre",
        "lit": "yes",
        "name": "Kendriya Vihar Rangasthala",
        "operator": "Kendriya Vihar Apartments Owners Association",
        "theatre:type": "amphi"
      }
    },
    {
      "type": "node",
      "id": 11473102405,
      "lat": 13.1069858,
      "lon": 77.600541,
      "tags": {
        "access": "permissive",
        "amenity": "parking",
        "capacity": "20",
        "fee": "no",
        "operator": "Kendriya Vihar Apartments Owners Association",
        "operator:type": "private",
        "parking": "surface",
        "surface": "asphalt"
      }
    },
    {
      "type": "node",
      "id": 11491661180,
      "lat": 13.1059842,
      "lon": 77.598925,
      "tags": {
        "check_date": "2024-01-05",
        "internet_access": "no",
        "name": "KV Presser",
        "payment:cards": "no",
        "payment:cash": "yes",
        "payment:credit_cards": "no",
        "payment:debit_cards": "no",
        "payment:paytm": "yes",
        "payment:upi": "yes",
        "self_service": "no",
        "shop": "dry_cleaning",
        "wheelchair": "no"
      }
    },
    {
      "type": "node",
      "id": 11491661181,
      "lat": 13.106024,
      "lon": 77.5989136,
      "tags": {
        "amenity": "restaurant",
        "check_date": "2024-01-05",
        "cuisine": "indian",
        "diet:vegetarian": "yes",
        "internet_access": "no",
        "name": "Janani Upahar",
        "payment:cards": "no",
        "payment:cash": "yes",
        "payment:credit_cards": "no",
        "payment:debit_cards": "no",
        "wheelchair": "no"
      }
    },
    {
      "type": "node",
      "id": 11491661182,
      "lat": 13.1060545,
      "lon": 77.5989056,
      "tags": {
        "amenity": "restaurant",
        "check_date": "2024-01-05",
        "cuisine": "pizza;sandwich;indian;ice_cream",
        "diet:vegetarian": "yes",
        "internet_access": "no",
        "name": "Nandini Cafe",
        "payment:cards": "no",
        "payment:cash": "yes",
        "payment:credit_cards": "no",
        "payment:debit_cards": "no",
        "wheelchair": "no"
      }
    },
    {
      "type": "node",
      "id": 11491661183,
      "lat": 13.1061004,
      "lon": 77.5988941,
      "tags": {
        "check_date": "2024-01-05",
        "internet_access": "no",
        "name": "Maa Sarala Vegetables and Fruits",
        "organic": "yes",
        "payment:cards": "no",
        "payment:cash": "yes",
        "payment:credit_cards": "no",
        "payment:debit_cards": "no",
        "payment:paytm": "yes",
        "payment:upi": "yes",
        "shop": "greengrocer",
        "wheelchair": "no"
      }
    },
    {
      "type": "node",
      "id": 11494735187,
      "lat": 13.1069672,
      "lon": 77.5991234,
      "tags": {
        "access": "permissive",
        "amenity": "parking",
        "operator": "Kendriya Vihar Apartments Owners Association",
        "operator:type": "private",
        "parking": "surface",
        "surface": "asphalt"
      }
    },
    {
      "type": "node",
      "id": 11494735188,
      "lat": 13.1067351,
      "lon": 77.5987955,
      "tags": {
        "access": "permissive",
        "amenity": "parking",
        "operator": "Kendriya Vihar Apartments Owners Association",
        "operator:type": "private",
        "parking": "surface",
        "surface": "asphalt"
      }
    },
    {
      "type": "node",
      "id": 11494735189,
      "lat": 13.1062792,
      "lon": 77.5994451,
      "tags": {
        "access": "permissive",
        "amenity": "parking",
        "operator": "Kendriya Vihar Apartments Owners Association",
        "operator:type": "private",
        "parking": "surface",
        "surface": "asphalt"
      }
    },
    {
      "type": "node",
      "id": 11494735190,
      "lat": 13.1071415,
      "lon": 77.5997797,
      "tags": {
        "access": "permissive",
        "amenity": "parking",
        "operator": "Kendriya Vihar Apartments Owners Association",
        "operator:type": "private",
        "parking": "surface",
        "surface": "asphalt"
      }
    },
    {
      "type": "node",
      "id": 11494735191,
      "lat": 13.1063661,
      "lon": 77.6002372,
      "tags": {
        "access": "permissive",
        "amenity": "parking",
        "operator": "Kendriya Vihar Apartments Owners Association",
        "operator:type": "private",
        "parking": "surface",
        "surface": "asphalt"
      }
    },
    {
      "type": "node",
      "id": 11494735192,
      "lat": 13.1068248,
      "lon": 77.5992622,
      "tags": {
        "access": "permissive",
        "amenity": "parking",
        "operator": "Kendriya Vihar Apartments Owners Association",
        "operator:type": "private",
        "parking": "surface",
        "surface": "asphalt"
      }
    },
    {
      "type": "node",
      "id": 11516214987,
      "lat": 13.1023214,
      "lon": 77.5948021,
      "tags": {
        "amenity": "pharmacy",
        "healthcare": "pharmacy",
        "name": "Santhosh Medicals"
      }
    },
    {
      "type": "node",
      "id": 11516663840,
      "lat": 13.1025917,
      "lon": 77.5960339,
      "tags": {
        "name": "Arts",
        "shop": "kiosk"
      }
    },
    {
      "type": "node",
      "id": 11516663845,
      "lat": 13.1025108,
      "lon": 77.5960211,
      "tags": {
        "shop": "greengrocer"
      }
    },
    {
      "type": "node",
      "id": 11516663846,
      "lat": 13.1025862,
      "lon": 77.5959906,
      "tags": {
        "name": "Charan Stores",
        "shop": "fabric"
      }
    },
    {
      "type": "node",
      "id": 11516663847,
      "lat": 13.1025855,
      "lon": 77.5959615,
      "tags": {
        "name": "Afiya Fashion Zari Works",
        "shop": "fabric"
      }
    },
    {
      "type": "node",
      "id": 11516691473,
      "lat": 13.1025078,
      "lon": 77.5959323,
      "tags": {
        "name": "VM Collections",
        "shop": "fabric"
      }
    },
    {
      "type": "node",
      "id": 11516691492,
      "lat": 13.1025222,
      "lon": 77.5956131,
      "tags": {
        "shop": "kiosk"
      }
    },
    {
      "type": "node",
      "id": 11516691493,
      "lat": 13.1025388,
      "lon": 77.5956597,
      "tags": {
        "name": "Sanjay Printers",
        "shop": "copyshop"
      }
    },
    {
      "type": "node",
      "id": 11516691498,
      "lat": 13.1024448,
      "lon": 77.595649,
      "tags": {
        "name": "Goa Tailors",
        "shop": "tailor"
      }
    },
    {
      "type": "node",
      "id": 11516691499,
      "lat": 13.1025052,
      "lon": 77.595543,
      "tags": {
        "name": "Indian Gents Tailor",
        "shop": "tailor"
      }
    },
    {
      "type": "node",
      "id": 11516691500,
      "lat": 13.1025052,
      "lon": 77.5955313,
      "tags": {
        "name": "Royal Hair Style",
        "shop": "hairdresser"
      }
    },
    {
      "type": "node",
      "id": 11516691511,
      "lat": 13.1024579,
      "lon": 77.5953513,
      "tags": {
        "brand": "Nandini",
        "brand:wikidata": "Q124374212",
        "name": "Nandini",
        "shop": "dairy"
      }
    },
    {
      "type": "node",
      "id": 11516691514,
      "lat": 13.1024611,
      "lon": 77.595301,
      "tags": {
        "amenity": "dentist",
        "healthcare": "dentist",
        "name": "SDMA Dental Clinic"
      }
    },
    {
      "type": "node",
      "id": 11516691523,
      "lat": 13.1022809,
      "lon": 77.5953761,
      "tags": {
        "amenity": "clinic",
        "name": "Amruth Clinic"
      }
    },
    {
      "type": "node",
      "id": 11516691524,
      "lat": 13.1022874,
      "lon": 77.5952661,
      "tags": {
        "name": "Hemant Textiles",
        "shop": "clothes"
      }
    },
    {
      "type": "node",
      "id": 11516691525,
      "lat": 13.1024507,
      "lon": 77.595244,
      "tags": {
        "amenity": "clinic",
        "healthcare": "clinic",
        "name": "Shivaprasad Health Centre"
      }
    },
    {
      "type": "node",
      "id": 11516691527,
      "lat": 13.1022867,
      "lon": 77.595242,
      "tags": {
        "amenity": "fast_food",
        "name": "Sri Yashaswini Tindi Mane"
      }
    },
    {
      "type": "node",
      "id": 11516691528,
      "lat": 13.102288,
      "lon": 77.5951568,
      "tags": {
        "name": "Svimal Jewelers",
        "shop": "jewelry"
      }
    },
    {
      "type": "node",
      "id": 11516691543,
      "lat": 13.1023109,
      "lon": 77.5950629,
      "tags": {
        "amenity": "pharmacy",
        "name": "Royal Medical"
      }
    },
    {
      "type": "node",
      "id": 11516691553,
      "lat": 13.1023103,
      "lon": 77.5949288,
      "tags": {
        "name": "Ayesha Fashion Centre",
        "shop": "clothes"
      }
    },
    {
      "type": "node",
      "id": 11516691555,
      "lat": 13.1023214,
      "lon": 77.5948423,
      "tags": {
        "name": "Sri Vasavi Provision Store",
        "shop": "kiosk"
      }
    },
    {
      "type": "node",
      "id": 11516691556,
      "lat": 13.1023161,
      "lon": 77.5948819,
      "tags": {
        "name": "Kavyashree Rice Traders",
        "shop": "kiosk"
      }
    },
    {
      "type": "node",
      "id": 11516691557,
      "lat": 13.1024363,
      "lon": 77.5948564,
      "tags": {
        "name": "Narendra Store",
        "shop": "kiosk"
      }
    },
    {
      "type": "node",
      "id": 11818724845,
      "lat": 13.0950544,
      "lon": 77.5972876,
      "tags": {
        "alt_name": "Stanley",
        "name": "Sofas & More",
        "shop": "furniture"
      }
    },
    {
      "type": "node",
      "id": 11932202839,
      "lat": 13.0954483,
      "lon": 77.5942633,
      "tags": {
        "amenity": "place_of_worship",
        "check_date": "2024-05-25",
        "religion": "hindu"
      }
    },
    {
      "type": "node",
      "id": 11932360101,
      "lat": 13.0988801,
      "lon": 77.5873583,
      "tags": {
        "amenity": "bank",
        "atm": "yes",
        "brand": "Yes Bank",
        "brand:wikidata": "Q2040394",
        "check_date": "2025-04-05",
        "check_date:opening_hours": "2025-04-05",
        "name": "Yes Bank",
        "opening_hours": "Mo-Fr 09:30-16:30;Sa[3,4] 09:30-16:30"
      }
    },
    {
      "type": "node",
      "id": 11932800644,
      "lat": 13.0979126,
      "lon": 77.5966615,
      "tags": {
        "access": "yes",
        "amenity": "toilets",
        "check_date": "2024-05-25"
      }
    },
    {
      "type": "node",
      "id": 11932800645,
      "lat": 13.0979598,
      "lon": 77.5967141,
      "tags": {
        "amenity": "place_of_worship",
        "check_date": "2024-05-25",
        "religion": "hindu"
      }
    },
    {
      "type": "node",
      "id": 11932800646,
      "lat": 13.0978763,
      "lon": 77.5967358,
      "tags": {
        "amenity": "post_office",
        "check_date": "2024-12-28",
        "internet_access": "no",
        "name": "Yelahanka Post Office",
        "operator": "India Post",
        "polling_station": "no",
        "source": "local knowledge;survey",
        "wheelchair": "yes"
      }
    },
    {
      "type": "node",
      "id": 11932804271,
      "lat": 13.0980767,
      "lon": 77.5964701,
      "tags": {
        "check_date": "2024-05-25",
        "name": "specsmakers",
        "shop": "optician"
      }
    },
    {
      "type": "node",
      "id": 11932804272,
      "lat": 13.0980347,
      "lon": 77.5964552,
      "tags": {
        "check_date": "2024-05-25",
        "name": "Sangeetha",
        "name:kn": "ಸಂಗೀತ",
        "shop": "mobile_phone"
      }
    },
    {
      "type": "node",
      "id": 11932804273,
      "lat": 13.0978667,
      "lon": 77.5963115,
      "tags": {
        "amenity": "bank",
        "brand": "Union Bank of India",
        "brand:wikidata": "Q2004078",
        "check_date": "2024-05-25",
        "name": "Union Bank of India"
      }
    },
    {
      "type": "node",
      "id": 11932804274,
      "lat": 13.0982708,
      "lon": 77.5966166,
      "tags": {
        "amenity": "fast_food",
        "check_date": "2024-05-25",
        "name": "Biryani Paradise"
      }
    },
    {
      "type": "node",
      "id": 12031547867,
      "lat": 13.0972551,
      "lon": 77.5904754,
      "tags": {
        "amenity": "events_venue",
        "name": "Dr. BR Ambedkar Bhavan",
        "name:kn": "ಡಾ ಅಂಬೇಡ್ಕರ್ ಭವನ"
      }
    },
    {
      "type": "node",
      "id": 12049247036,
      "lat": 13.0996273,
      "lon": 77.597945,
      "tags": {
        "amenity": "pharmacy",
        "name": "Apollo Pharmacy"
      }
    },
    {
      "type": "node",
      "id": 12056743550,
      "lat": 13.0988482,
      "lon": 77.5978974,
      "tags": {
        "amenity": "hospital",
        "name": "Ashwini Hospital"
      }
    },
    {
      "type": "node",
      "id": 12057349747,
      "lat": 13.0975655,
      "lon": 77.587837,
      "tags": {
        "shop": "furniture"
      }
    },
    {
      "type": "node",
      "id": 12225535062,
      "lat": 13.1028502,
      "lon": 77.5998503,
      "tags": {
        "amenity": "cafe",
        "name": "Sri Manjunatha Tiffen Center"
      }
    },
    {
      "type": "node",
      "id": 12225535063,
      "lat": 13.1027629,
      "lon": 77.5998097,
      "tags": {
        "shop": "furniture"
      }
    },
    {
      "type": "node",
      "id": 12225535064,
      "lat": 13.1026496,
      "lon": 77.5997746,
      "tags": {
        "amenity": "cafe",
        "name": "Donne Biriyani Mess"
      }
    },
    {
      "type": "node",
      "id": 12225535065,
      "lat": 13.102155,
      "lon": 77.5996541,
      "tags": {
        "name": "Silicon Motors",
        "shop": "motorcycle_repair"
      }
    },
    {
      "type": "node",
      "id": 12225535068,
      "lat": 13.1016527,
      "lon": 77.5995324,
      "tags": {
        "name": "Silicon Motors",
        "shop": "motorcycle_repair"
      }
    },
    {
      "type": "node",
      "id": 12225535069,
      "lat": 13.1014613,
      "lon": 77.5994503,
      "tags": {
        "name": "Anil Car Seat Covers",
        "shop": "yes"
      }
    },
    {
      "type": "node",
      "id": 12225535071,
      "lat": 13.1006249,
      "lon": 77.5992486,
      "tags": {
        "name": "Sri Balaji Motors",
        "shop": "yes"
      }
    },
    {
      "type": "node",
      "id": 12225535072,
      "lat": 13.1005622,
      "lon": 77.5992483,
      "tags": {
        "name": "R.K. Radiator Works",
        "shop": "yes"
      }
    },
    {
      "type": "node",
      "id": 12225535073,
      "lat": 13.100598,
      "lon": 77.5992483,
      "tags": {
        "name": "MH Car Decor",
        "shop": "yes"
      }
    },
    {
      "type": "node",
      "id": 12225535074,
      "lat": 13.1003583,
      "lon": 77.5992328,
      "tags": {
        "name": "H.K.G.N Car Accessories",
        "shop": "car_parts"
      }
    },
    {
      "type": "node",
      "id": 12225535075,
      "lat": 13.1000242,
      "lon": 77.5990852,
      "tags": {
        "name": "Continental",
        "shop": "tyres"
      }
    },
    {
      "type": "node",
      "id": 12225535076,
      "lat": 13.0995488,
      "lon": 77.5990454,
      "tags": {
        "amenity": "fast_food",
        "cuisine": "biriyani"
      }
    },
    {
      "type": "node",
      "id": 12225535077,
      "lat": 13.099055,
      "lon": 77.5988263,
      "tags": {
        "name": "S.A Puncture Shop",
        "shop": "tyres"
      }
    },
    {
      "type": "node",
      "id": 12225535078,
      "lat": 13.0989976,
      "lon": 77.5988086,
      "tags": {
        "amenity": "restaurant",
        "diet:non-vegetarian": "yes",
        "name": "Supreme Gardenia"
      }
    },
    {
      "type": "node",
      "id": 12225535080,
      "lat": 13.0985198,
      "lon": 77.598651,
      "tags": {
        "name": "Ustav Mart",
        "shop": "yes"
      }
    },
    {
      "type": "node",
      "id": 12225535081,
      "lat": 13.0975143,
      "lon": 77.5982808,
      "tags": {
        "name": "Skyway",
        "shop": "car_parts"
      }
    },
    {
      "type": "node",
      "id": 12225535082,
      "lat": 13.0967796,
      "lon": 77.597972,
      "tags": {
        "name": "Restolex",
        "shop": "bed"
      }
    },
    {
      "type": "node",
      "id": 12225535083,
      "lat": 13.0966734,
      "lon": 77.5979322,
      "tags": {
        "name": "duroflex",
        "shop": "bed"
      }
    },
    {
      "type": "node",
      "id": 12225535084,
      "lat": 13.0957413,
      "lon": 77.5973869,
      "tags": {
        "name": "Wakefit",
        "shop": "furniture"
      }
    },
    {
      "type": "node",
      "id": 12225535085,
      "lat": 13.0950203,
      "lon": 77.5972867,
      "tags": {
        "check_date": "2025-09-19",
        "name": "Mahindra",
        "shop": "car"
      }
    },
    {
      "type": "node",
      "id": 12225535086,
      "lat": 13.0952106,
      "lon": 77.5972931,
      "tags": {
        "name": "Kurl-on",
        "shop": "bed"
      }
    },
    {
      "type": "node",
      "id": 12225535087,
      "lat": 13.0952262,
      "lon": 77.5972543,
      "tags": {
        "name": "Navrathnan's Antique Art",
        "shop": "furniture"
      }
    },
    {
      "type": "node",
      "id": 12229218316,
      "lat": 13.1024303,
      "lon": 77.5949758,
      "tags": {
        "name": "Sri Chakrajanya Provision Store",
        "shop": "kiosk"
      }
    },
    {
      "type": "node",
      "id": 12229218317,
      "lat": 13.1024323,
      "lon": 77.5950228,
      "tags": {
        "name": "Sri Manjunatha Sound System",
        "shop": "yes"
      }
    },
    {
      "type": "node",
      "id": 12229218318,
      "lat": 13.1022828,
      "lon": 77.5953411,
      "tags": {
        "amenity": "pharmacy",
        "healthcare": "pharmacy",
        "name": "Vishnu Medicals"
      }
    },
    {
      "type": "node",
      "id": 12229218319,
      "lat": 13.1024562,
      "lon": 77.5954004,
      "tags": {
        "name": "Arihanth Jwellers",
        "shop": "jewelry"
      }
    },
    {
      "type": "node",
      "id": 12229218320,
      "lat": 13.1024337,
      "lon": 77.5955808,
      "tags": {
        "name": "Sai Arts",
        "shop": "kiosk"
      }
    },
    {
      "type": "node",
      "id": 12229218321,
      "lat": 13.1025809,
      "lon": 77.5958083,
      "tags": {
        "name": "Sri Siddhi Tenginakaye Whole sale",
        "shop": "wholesale",
        "wholesale": "coconuts"
      }
    },
    {
      "type": "node",
      "id": 12229218322,
      "lat": 13.1025867,
      "lon": 77.5960099,
      "tags": {
        "name": "Sri Vheerabhadra Naavmi",
        "shop": "yes"
      }
    },
    {
      "type": "node",
      "id": 12229218323,
      "lat": 13.1025178,
      "lon": 77.5961521,
      "tags": {
        "name": "Saksha Enterprises",
        "shop": "yes"
      }
    },
    {
      "type": "node",
      "id": 12229218324,
      "lat": 13.1027273,
      "lon": 77.5967149,
      "tags": {
        "shop": "farm"
      }
    },
    {
      "type": "node",
      "id": 12229218325,
      "lat": 13.1027194,
      "lon": 77.5967473,
      "tags": {
        "name": "Kareem Store",
        "shop": "wholesale",
        "wholesale": "yes"
      }
    },
    {
      "type": "node",
      "id": 12229218326,
      "lat": 13.1027204,
      "lon": 77.5967693,
      "tags": {
        "name": "Ganapathi Store",
        "shop": "kiosk"
      }
    },
    {
      "type": "node",
      "id": 12229218327,
      "lat": 13.1028285,
      "lon": 77.596752,
      "tags": {
        "name": "MH2 store",
        "shop": "kiosk"
      }
    },
    {
      "type": "node",
      "id": 12229218328,
      "lat": 13.1028393,
      "lon": 77.5968005,
      "tags": {
        "hairdresser": "barber",
        "male": "yes",
        "name": "VSB Prasad Gents Beauty Saloon",
        "shop": "hairdresser"
      }
    },
    {
      "type": "node",
      "id": 12229218329,
      "lat": 13.1027258,
      "lon": 77.5968193,
      "tags": {
        "shop": "farm"
      }
    },
    {
      "type": "node",
      "id": 12229218330,
      "lat": 13.1027648,
      "lon": 77.5969469,
      "tags": {
        "name": "Ilyas",
        "shop": "tailor"
      }
    },
    {
      "type": "node",
      "id": 12229218331,
      "lat": 13.102799,
      "lon": 77.597072,
      "tags": {
        "shop": "tailor"
      }
    },
    {
      "type": "node",
      "id": 12229218332,
      "lat": 13.1029195,
      "lon": 77.5970945,
      "tags": {
        "name": "Sri Raghavendra Enterprises",
        "shop": "kiosk"
      }
    },
    {
      "type": "node",
      "id": 12229218333,
      "lat": 13.1028166,
      "lon": 77.5972065,
      "tags": {
        "name": "Beauty Castle",
        "shop": "beauty"
      }
    },
    {
      "type": "node",
      "id": 12229218334,
      "lat": 13.1028251,
      "lon": 77.5972583,
      "tags": {
        "amenity": "pharmacy",
        "healthcare": "pharmacy",
        "name": "Mahalakshmi Medical"
      }
    },
    {
      "type": "node",
      "id": 12229218335,
      "lat": 13.1028446,
      "lon": 77.5973243,
      "tags": {
        "amenity": "clinic",
        "healthcare": "clinic",
        "name": "Balaji Clinic"
      }
    },
    {
      "type": "node",
      "id": 12229218337,
      "lat": 13.1028866,
      "lon": 77.5974678,
      "tags": {
        "name": "Sainath Enterprises",
        "shop": "yes"
      }
    },
    {
      "type": "node",
      "id": 12229218338,
      "lat": 13.102898,
      "lon": 77.5975117,
      "tags": {
        "name": "MZ Karnataka Engineering",
        "shop": "yes"
      }
    },
    {
      "type": "node",
      "id": 12229218339,
      "lat": 13.1029104,
      "lon": 77.5975565,
      "tags": {
        "name": "GSS Engineering Works",
        "shop": "yes"
      }
    },
    {
      "type": "node",
      "id": 12229218340,
      "lat": 13.1030683,
      "lon": 77.5975862,
      "tags": {
        "name": "YNM Cement Distributor",
        "shop": "yes"
      }
    },
    {
      "type": "node",
      "id": 12229218341,
      "lat": 13.1029355,
      "lon": 77.5976288,
      "tags": {
        "name": "Dehi Axle and Power Steering Works",
        "shop": "yes"
      }
    },
    {
      "type": "node",
      "id": 12229218342,
      "lat": 13.1030748,
      "lon": 77.5976281,
      "tags": {
        "name": "Narayana Tea Condiments",
        "shop": "tea"
      }
    },
    {
      "type": "node",
      "id": 12229218343,
      "lat": 13.1030894,
      "lon": 77.5976554,
      "tags": {
        "name": "Maruti Distributor",
        "shop": "yes"
      }
    },
    {
      "type": "node",
      "id": 12229218344,
      "lat": 13.1030937,
      "lon": 77.597693,
      "tags": {
        "name": "A.R Footware",
        "shop": "shoes"
      }
    },
    {
      "type": "node",
      "id": 12229218345,
      "lat": 13.1031028,
      "lon": 77.5977258,
      "tags": {
        "name": "Karnataka Kitchen House",
        "shop": "kiosk"
      }
    },
    {
      "type": "node",
      "id": 12229218346,
      "lat": 13.1031099,
      "lon": 77.5977576,
      "tags": {
        "name": "Nisha Bakery & Sweets",
        "shop": "bakery"
      }
    },
    {
      "type": "node",
      "id": 12229218347,
      "lat": 13.1029819,
      "lon": 77.5978258,
      "tags": {
        "name": "Yashwini Ladies Tailors",
        "shop": "tailor"
      }
    },
    {
      "type": "node",
      "id": 12229218348,
      "lat": 13.1030048,
      "lon": 77.5979244,
      "tags": {
        "amenity": "place_of_worship",
        "religion": "hindu"
      }
    },
    {
      "type": "node",
      "id": 12229218349,
      "lat": 13.1031842,
      "lon": 77.5979105,
      "tags": {
        "name": "Shuddh",
        "shop": "supermarket"
      }
    },
    {
      "type": "node",
      "id": 12229218350,
      "lat": 13.103027,
      "lon": 77.5979824,
      "tags": {
        "shop": "copyshop"
      }
    },
    {
      "type": "node",
      "id": 12229218351,
      "lat": 13.1030333,
      "lon": 77.5980201,
      "tags": {
        "amenity": "atm",
        "brand": "HDFC Bank",
        "brand:wikidata": "Q631047",
        "operator": "HDFC Bank",
        "operator:wikidata": "Q631047",
        "short_name": "HDFC"
      }
    },
    {
      "type": "node",
      "id": 12229218352,
      "lat": 13.1030493,
      "lon": 77.5980622,
      "tags": {
        "amenity": "fast_food",
        "name": "Hot Chips"
      }
    },
    {
      "type": "node",
      "id": 12229218353,
      "lat": 13.1030691,
      "lon": 77.5980928,
      "tags": {
        "amenity": "pharmacy",
        "healthcare": "pharmacy",
        "name": "Mataji Medical and General Stores"
      }
    },
    {
      "type": "node",
      "id": 12229218356,
      "lat": 13.1033732,
      "lon": 77.5985434,
      "tags": {
        "amenity": "place_of_worship",
        "religion": "hindu"
      }
    },
    {
      "type": "node",
      "id": 12229218358,
      "lat": 13.1032783,
      "lon": 77.5986381,
      "tags": {
        "alt_name": "Shetty's Adda",
        "amenity": "cafe",
        "name": "Simple Tiffins"
      }
    },
    {
      "type": "node",
      "id": 12229218359,
      "lat": 13.1033068,
      "lon": 77.5987841,
      "tags": {
        "name": "Sri Panchamuki Condiments",
        "shop": "yes"
      }
    },
    {
      "type": "node",
      "id": 12229218360,
      "lat": 13.1033317,
      "lon": 77.5988609,
      "tags": {
        "name": "Nimrah Enterprises",
        "shop": "yes"
      }
    },
    {
      "type": "node",
      "id": 12229218362,
      "lat": 13.1035864,
      "lon": 77.5989255,
      "tags": {
        "name": "Sri Krishna Trading Company",
        "shop": "yes"
      }
    },
    {
      "type": "node",
      "id": 12229218363,
      "lat": 13.1035993,
      "lon": 77.5989819,
      "tags": {
        "name": "Vibhav Electricals",
        "shop": "yes"
      }
    },
    {
      "type": "node",
      "id": 12229218364,
      "lat": 13.1037805,
      "lon": 77.599821,
      "tags": {
        "shop": "bed"
      }
    },
    {
      "type": "node",
      "id": 12265289944,
      "lat": 13.1042942,
      "lon": 77.5937062,
      "tags": {
        "amenity": "atm",
        "check_date": "2024-10-19",
        "currency:INR": "yes",
        "operator": "Axis Bank"
      }
    },
    {
      "type": "node",
      "id": 12265289945,
      "lat": 13.1042748,
      "lon": 77.5933887,
      "tags": {
        "check_date": "2024-10-19",
        "name": "Asian Paints",
        "shop": "paint"
      }
    },
    {
      "type": "node",
      "id": 12265289946,
      "lat": 13.1044366,
      "lon": 77.5932085,
      "tags": {
        "check_date": "2024-10-19",
        "name": "Halal Chicken And Mutton Shop",
        "shop": "butcher"
      }
    },
    {
      "type": "node",
      "id": 12265289947,
      "lat": 13.1049635,
      "lon": 77.5931418,
      "tags": {
        "amenity": "cafe",
        "check_date": "2024-10-19",
        "name": "Chai Victory"
      }
    },
    {
      "type": "node",
      "id": 12265289948,
      "lat": 13.1049816,
      "lon": 77.5930021,
      "tags": {
        "check_date": "2024-10-19",
        "shop": "butcher"
      }
    },
    {
      "type": "node",
      "id": 12265289949,
      "lat": 13.1049846,
      "lon": 77.5929666,
      "tags": {
        "check_date": "2024-10-19",
        "shop": "furniture"
      }
    },
    {
      "type": "node",
      "id": 12265289950,
      "lat": 13.1050815,
      "lon": 77.5928726,
      "tags": {
        "amenity": "restaurant",
        "check_date": "2024-10-19",
        "name": "Mashallah Biryani Hotel"
      }
    },
    {
      "type": "node",
      "id": 12265289951,
      "lat": 13.1049954,
      "lon": 77.5926681,
      "tags": {
        "check_date": "2024-10-19",
        "shop": "motorcycle_repair"
      }
    },
    {
      "type": "node",
      "id": 12265450393,
      "lat": 13.1043417,
      "lon": 77.595093,
      "tags": {
        "amenity": "cafe",
        "check_date": "2024-10-19",
        "name": "Smart Cafe"
      }
    },
    {
      "type": "node",
      "id": 12265459595,
      "lat": 13.1042463,
      "lon": 77.5963517,
      "tags": {
        "amenity": "drinking_water",
        "charge": "5 INR",
        "fee": "yes",
        "payment:cash": "yes",
        "wheelchair": "limited"
      }
    },
    {
      "type": "node",
      "id": 12265468720,
      "lat": 13.1044382,
      "lon": 77.5949177,
      "tags": {
        "check_date": "2024-10-19",
        "shop": "copyshop"
      }
    },
    {
      "type": "node",
      "id": 12265468721,
      "lat": 13.1044197,
      "lon": 77.594893,
      "tags": {
        "check_date": "2024-10-19",
        "hairdresser": "barber",
        "name": "Decent Men's Saloon",
        "shop": "hairdresser"
      }
    },
    {
      "type": "node",
      "id": 12265468723,
      "lat": 13.1042735,
      "lon": 77.5943727,
      "tags": {
        "check_date": "2024-10-19",
        "name": "Chicken Shop",
        "shop": "butcher"
      }
    },
    {
      "type": "node",
      "id": 12265477651,
      "lat": 13.1056592,
      "lon": 77.5923809,
      "tags": {
        "amenity": "cafe",
        "check_date": "2024-10-19",
        "name": "Ganesh Tea Stall"
      }
    },
    {
      "type": "node",
      "id": 12265477652,
      "lat": 13.1070396,
      "lon": 77.5925207,
      "tags": {
        "check_date": "2024-10-19",
        "hairdresser": "barber",
        "shop": "hairdresser"
      }
    },
    {
      "type": "node",
      "id": 12265477653,
      "lat": 13.1076341,
      "lon": 77.5924695,
      "tags": {
        "check_date": "2024-10-19",
        "shop": "medical_supply"
      }
    },
    {
      "type": "node",
      "id": 12265477654,
      "lat": 13.1076683,
      "lon": 77.5924406,
      "tags": {
        "amenity": "clinic",
        "check_date": "2024-10-19",
        "healthcare": "clinic"
      }
    },
    {
      "type": "node",
      "id": 12265477655,
      "lat": 13.1084092,
      "lon": 77.5921543,
      "tags": {
        "check_date": "2024-10-19",
        "shop": "convenience"
      }
    },
    {
      "type": "node",
      "id": 12265477656,
      "lat": 13.1086111,
      "lon": 77.5920466,
      "tags": {
        "amenity": "cafe",
        "check_date": "2024-10-19"
      }
    },
    {
      "type": "node",
      "id": 12265521611,
      "lat": 13.1039745,
      "lon": 77.5941829,
      "tags": {
        "amenity": "community_centre",
        "check_date": "2024-10-19",
        "community_centre": "community_hall",
        "name": "Jamia Shadi Mahal"
      }
    },
    {
      "type": "node",
      "id": 12346052306,
      "lat": 13.1041732,
      "lon": 77.6032127,
      "tags": {
        "name": "SLV Timeshop",
        "shop": "watches"
      }
    },
    {
      "type": "node",
      "id": 12346053343,
      "lat": 13.1040663,
      "lon": 77.6024415,
      "tags": {
        "name": "Taj Chicken Center",
        "shop": "butcher"
      }
    },
    {
      "type": "node",
      "id": 12730607356,
      "lat": 13.0989355,
      "lon": 77.5873556,
      "tags": {
        "amenity": "atm",
        "brand": "Yes Bank",
        "brand:wikidata": "Q2040394",
        "operator": "Yes Bank",
        "operator:wikidata": "Q2040394"
      }
    },
    {
      "type": "node",
      "id": 12730674878,
      "lat": 13.0982435,
      "lon": 77.5880715,
      "tags": {
        "amenity": "bank",
        "brand": "HDFC Bank",
        "brand:wikidata": "Q631047",
        "name": "HDFC Bank",
        "short_name": "HDFC"
      }
    },
    {
      "type": "node",
      "id": 12730677128,
      "lat": 13.0981988,
      "lon": 77.5880197,
      "tags": {
        "amenity": "atm",
        "brand": "HDFC Bank",
        "brand:wikidata": "Q631047",
        "operator": "HDFC Bank",
        "operator:wikidata": "Q631047",
        "short_name": "HDFC"
      }
    },
    {
      "type": "node",
      "id": 12768263589,
      "lat": 13.0998839,
      "lon": 77.5962201,
      "tags": {
        "brand": "Nandini",
        "brand:wikidata": "Q124374212",
        "name": "Nandini",
        "shop": "dairy"
      }
    },
    {
      "type": "node",
      "id": 12768263590,
      "lat": 13.0998479,
      "lon": 77.5962035,
      "tags": {
        "amenity": "pharmacy",
        "brand": "Pradhan Mantri Bharatiya Janaushadhi Pariyojana Kendra",
        "brand:wikidata": "Q39058281",
        "healthcare": "pharmacy",
        "name": "Jan Aushadhi",
        "official_name": "Pradhan Mantri Bharatiya Janaushadhi Pariyojana Kendra"
      }
    },
    {
      "type": "node",
      "id": 12809397081,
      "lat": 13.0943593,
      "lon": 77.5953948,
      "tags": {
        "addr:city": "Bengaluru",
        "addr:floor": "3",
        "amenity": "bar",
        "name": "Jollygunj",
        "toilets": "yes"
      }
    },
    {
      "type": "node",
      "id": 13013588710,
      "lat": 13.0927605,
      "lon": 77.5937399,
      "tags": {
        "amenity": "restaurant",
        "name": "Dolphins Bar and Kitchen 1977"
      }
    },
    {
      "type": "node",
      "id": 13155774053,
      "lat": 13.1047621,
      "lon": 77.6015182,
      "tags": {
        "check_date": "2025-09-19",
        "name": "AMC Used Cars",
        "second_hand": "only",
        "shop": "car"
      }
    },
    {
      "type": "node",
      "id": 13239179244,
      "lat": 13.0994189,
      "lon": 77.5891274,
      "tags": {
        "brand": "Gold's Gym",
        "brand:wikidata": "Q1536234",
        "leisure": "fitness_centre",
        "name": "Gold's Gym"
      }
    },
    {
      "type": "way",
      "id": 42655444,
      "center": {
        "lat": 13.0942029,
        "lon": 77.5951482
      },
      "tags": {
        "landuse": "retail",
        "name": "The Galleria Mall",
        "opening_hours": "Mo-Fr 11:00-22:00; Sa,Su 10:00-22:00",
        "shop": "mall",
        "wheelchair": "yes"
      }
    },
    {
      "type": "way",
      "id": 82432618,
      "center": {
        "lat": 13.0998328,
        "lon": 77.5880424
      },
      "tags": {
        "amenity": "college",
        "check_date": "2024-07-16",
        "name": "Seshadripuram First Grade College",
        "wheelchair": "yes"
      }
    },
    {
      "type": "way",
      "id": 82494614,
      "center": {
        "lat": 13.0963852,
        "lon": 77.5911416
      },
      "tags": {
        "amenity": "school",
        "name": "Poornaprajna High School",
        "name:kn": "ಪೂರ್ಣಪ್ರಜ್ಞ ಪ್ರೌಡಶಾಲೆ"
      }
    },
    {
      "type": "way",
      "id": 82494617,
      "center": {
        "lat": 13.0971434,
        "lon": 77.5893851
      },
      "tags": {
        "addr:district": "Bengaluru Urban",
        "addr:full": "No: 9, A1, A2, Opp. MEC School, A-Sector Yelahanka",
        "addr:postcode": "560064",
        "addr:state": "Karnataka",
        "amenity": "hospital",
        "check_date": "2024-09-27",
        "healthcare": "hospital",
        "name": "KK Hospital",
        "source": "OpenGovernmentData"
      }
    },
    {
      "type": "way",
      "id": 82494619,
      "center": {
        "lat": 13.0965348,
        "lon": 77.5897477
      },
      "tags": {
        "amenity": "school",
        "name": "MEC School"
      }
    },
    {
      "type": "way",
      "id": 133125754,
      "center": {
        "lat": 13.0971325,
        "lon": 77.5934644
      },
      "tags": {
        "amenity": "college",
        "landuse": "education",
        "name": "Government School",
        "name:kn": "ಸರ್ಕಾರಿ ಶಾಲೆ"
      }
    },
    {
      "type": "way",
      "id": 133125764,
      "center": {
        "lat": 13.096833,
        "lon": 77.5944513
      },
      "tags": {
        "amenity": "college",
        "landuse": "education",
        "name": "Government PU College",
        "name:kn": "ಸರ್ಕಾರಿ ಕಾಲೆಜು"
      }
    },
    {
      "type": "way",
      "id": 277172530,
      "center": {
        "lat": 13.0929157,
        "lon": 77.6012726
      },
      "tags": {
        "addr:city": "Bangalore",
        "addr:postcode": "560064",
        "addr:street": "Shivanahalli main road",
        "amenity": "place_of_worship",
        "name": "Good Shepherd Church",
        "religion": "christian"
      }
    },
    {
      "type": "way",
      "id": 363499100,
      "center": {
        "lat": 13.0999504,
        "lon": 77.5903464
      },
      "tags": {
        "leisure": "sports_centre",
        "sport": "tennis"
      }
    },
    {
      "type": "way",
      "id": 363499101,
      "center": {
        "lat": 13.0986326,
        "lon": 77.5888781
      },
      "tags": {
        "leisure": "park"
      }
    },
    {
      "type": "way",
      "id": 363499102,
      "center": {
        "lat": 13.0996538,
        "lon": 77.5907258
      },
      "tags": {
        "leisure": "swimming_pool"
      }
    },
    {
      "type": "way",
      "id": 363612203,
      "center": {
        "lat": 13.0995293,
        "lon": 77.5893559
      },
      "tags": {
        "access": "yes",
        "amenity": "parking",
        "fee": "yes"
      }
    },
    {
      "type": "way",
      "id": 363612210,
      "center": {
        "lat": 13.097663,
        "lon": 77.5909902
      },
      "tags": {
        "amenity": "place_of_worship",
        "building": "temple",
        "name": "Venkateshwara Swamy Temple",
        "name:kn": "ವೆಂಕಟೇಶ್ವರ ಸ್ವಾಮಿ ದೇವಸ್ಥಾನ",
        "religion": "hindu"
      }
    },
    {
      "type": "way",
      "id": 363612256,
      "center": {
        "lat": 13.0978151,
        "lon": 77.591792
      },
      "tags": {
        "amenity": "shelter",
        "shelter_type": "public_transport"
      }
    },
    {
      "type": "way",
      "id": 363612268,
      "center": {
        "lat": 13.0977437,
        "lon": 77.5918736
      },
      "tags": {
        "amenity": "shelter",
        "shelter_type": "public_transport"
      }
    },
    {
      "type": "way",
      "id": 421956349,
      "center": {
        "lat": 13.1009552,
        "lon": 77.5947807
      },
      "tags": {
        "alt_name": "Yelahanka Bus Station",
        "amenity": "bus_station",
        "bus": "yes",
        "name": "Yelahanka Old Town",
        "public_transport": "station"
      }
    },
    {
      "type": "way",
      "id": 440327192,
      "center": {
        "lat": 13.0977,
        "lon": 77.5914873
      },
      "tags": {
        "amenity": "bus_station",
        "bench": "yes",
        "bin": "yes",
        "bus": "yes",
        "highway": "bus_stop",
        "lit": "yes",
        "name": "NES Office",
        "public_transport": "platform",
        "shelter": "yes",
        "wheelchair": "no"
      }
    },
    {
      "type": "way",
      "id": 487589129,
      "center": {
        "lat": 13.1041328,
        "lon": 77.5944961
      },
      "tags": {
        "amenity": "place_of_worship",
        "building": "yes",
        "building:levels": "2",
        "religion": "muslim"
      }
    },
    {
      "type": "way",
      "id": 487591672,
      "center": {
        "lat": 13.0995716,
        "lon": 77.5962927
      },
      "tags": {
        "addr:district": "Bangalore",
        "addr:full": "Bagaluru Cross, Yelahanka, Armed Police Training School",
        "addr:postcode": "560063",
        "addr:state": "Karnataka",
        "addr:subdistrict": "Bangalore North",
        "amenity": "hospital",
        "healthcare": "hospital",
        "name": "Yelahanka Government Hospital",
        "name:kn": "ಯಲಹಂಕ ಸರ್ಕಾರಿ ಆಸ್ಪತ್ರೆ",
        "source": "OpenGovernmentData"
      }
    },
    {
      "type": "way",
      "id": 726488902,
      "center": {
        "lat": 13.0990575,
        "lon": 77.5970061
      },
      "tags": {
        "addr:city": "Bangalore",
        "addr:postcode": "560064",
        "addr:street": "Hospital Rd, Gandhi Nagar, Yelahanka",
        "amenity": "place_of_worship",
        "building": "yes",
        "name": "Shri Veeranjaneya Swamy Temple",
        "religion": "hindu"
      }
    },
    {
      "type": "way",
      "id": 726497370,
      "center": {
        "lat": 13.0991845,
        "lon": 77.5968656
      },
      "tags": {
        "amenity": "hospital",
        "healthcare": "hospital",
        "name": "Government Hospital",
        "name:kn": "ಸರ್ಕಾರಿ ಆಸ್ಪತ್ರೆ"
      }
    },
    {
      "type": "way",
      "id": 726506664,
      "center": {
        "lat": 13.0982401,
        "lon": 77.5970471
      },
      "tags": {
        "addr:district": "Bengaluru Urban",
        "addr:full": "387/347, Next To Post Office, B.B.Road Nehru Nagar, Yehlanka Old Town",
        "addr:postcode": "560064",
        "addr:state": "Karnataka",
        "amenity": "hospital",
        "healthcare": "hospital",
        "name": "Deeksha Hospital",
        "name:kn": "ದೀಕ್ಷ ಆಸ್ಪತ್ರೆ",
        "source": "OpenGovernmentData"
      }
    },
    {
      "type": "way",
      "id": 774716165,
      "center": {
        "lat": 13.0945363,
        "lon": 77.5958351
      },
      "tags": {
        "leisure": "pitch",
        "sport": "basketball"
      }
    },
    {
      "type": "way",
      "id": 774716166,
      "center": {
        "lat": 13.0936935,
        "lon": 77.5950196
      },
      "tags": {
        "leisure": "garden"
      }
    },
    {
      "type": "way",
      "id": 774716167,
      "center": {
        "lat": 13.0932807,
        "lon": 77.5957476
      },
      "tags": {
        "access": "private",
        "leisure": "swimming_pool"
      }
    },
    {
      "type": "way",
      "id": 774716169,
      "center": {
        "lat": 13.0943371,
        "lon": 77.5958748
      },
      "tags": {
        "leisure": "pitch",
        "sport": "tennis"
      }
    },
    {
      "type": "way",
      "id": 774716173,
      "center": {
        "lat": 13.095358,
        "lon": 77.5938103
      },
      "tags": {
        "amenity": "police",
        "check_date": "2024-07-16",
        "name": "Yelahanka Police Station",
        "name:kn": "ಯಲಹಂಕ ಆರಕ್ಷಕ ಠಾಣೆ"
      }
    },
    {
      "type": "way",
      "id": 867498324,
      "center": {
        "lat": 13.0999367,
        "lon": 77.5881347
      },
      "tags": {
        "access": "private",
        "amenity": "motorcycle_parking"
      }
    },
    {
      "type": "way",
      "id": 867498749,
      "center": {
        "lat": 13.1000402,
        "lon": 77.588358
      },
      "tags": {
        "access": "private",
        "leisure": "playground",
        "surface": "ground"
      }
    },
    {
      "type": "way",
      "id": 867500408,
      "center": {
        "lat": 13.0996763,
        "lon": 77.5876215
      },
      "tags": {
        "access": "permissive",
        "leisure": "garden"
      }
    },
    {
      "type": "way",
      "id": 867500410,
      "center": {
        "lat": 13.0993215,
        "lon": 77.5877976
      },
      "tags": {
        "amenity": "restaurant",
        "building": "yes",
        "cuisine": "indian",
        "name": "Saaman",
        "wheelchair": "no"
      }
    },
    {
      "type": "way",
      "id": 1079068564,
      "center": {
        "lat": 13.0994183,
        "lon": 77.5868339
      },
      "tags": {
        "addr:housenumber": "23/C",
        "addr:street": "3rd A Cross Road",
        "amenity": "college",
        "name": "Bishop Cotton Academy of Professional Management",
        "name:kn": "ಬಿಷಪ್ ಕಾಟನ್ ಅಕಡೇಮಿ"
      }
    },
    {
      "type": "way",
      "id": 1079068565,
      "center": {
        "lat": 13.1005038,
        "lon": 77.5871954
      },
      "tags": {
        "amenity": "cinema",
        "name": "Ganesh Theatre",
        "name:kn": "ಗಣೇಶ"
      }
    },
    {
      "type": "way",
      "id": 1079068567,
      "center": {
        "lat": 13.0946774,
        "lon": 77.5911028
      },
      "tags": {
        "access": "private",
        "leisure": "pitch",
        "sport": "basketball"
      }
    },
    {
      "type": "way",
      "id": 1079068582,
      "center": {
        "lat": 13.0944585,
        "lon": 77.5896866
      },
      "tags": {
        "amenity": "school",
        "name": "Cambridge Public School",
        "name:kn": "ಕೇಂಬ್ರಿಡ್ಜ್‌‌‌‌‌‌‌‌‌‌‌ ಪಬ್ಲಿಕ್ ಶಾಲೆ"
      }
    },
    {
      "type": "way",
      "id": 1079068583,
      "center": {
        "lat": 13.094775,
        "lon": 77.5904173
      },
      "tags": {
        "amenity": "college",
        "name": "Agragami College of Aeronautical Engineering"
      }
    },
    {
      "type": "way",
      "id": 1079068584,
      "center": {
        "lat": 13.0947143,
        "lon": 77.5911186
      },
      "tags": {
        "amenity": "school",
        "check_date": "2024-07-16",
        "name": "Chrysalis High School"
      }
    },
    {
      "type": "way",
      "id": 1079068585,
      "center": {
        "lat": 13.0957382,
        "lon": 77.590225
      },
      "tags": {
        "amenity": "college",
        "name": "East West College of Engineering"
      }
    },
    {
      "type": "way",
      "id": 1110808778,
      "center": {
        "lat": 13.0949654,
        "lon": 77.5986449
      },
      "tags": {
        "amenity": "hospital",
        "name": "Sparsh Hospital"
      }
    },
    {
      "type": "way",
      "id": 1180658022,
      "center": {
        "lat": 13.1061609,
        "lon": 77.5995538
      },
      "tags": {
        "access": "private",
        "leisure": "pitch",
        "lit": "yes",
        "sport": "basketball;throwball;volleyball;badminton",
        "surface": "artificial_turf"
      }
    },
    {
      "type": "way",
      "id": 1180658023,
      "center": {
        "lat": 13.1069667,
        "lon": 77.6001435
      },
      "tags": {
        "air_conditioning": "no",
        "amenity": "community_centre",
        "building": "commercial",
        "building:material": "concrete",
        "check_date": "2024-10-19",
        "community_centre": "community_hall",
        "internet_access": "no",
        "name": "Kendriya Vihar Community Hall",
        "operator:type": "private",
        "payment:cards": "no",
        "payment:cash": "yes",
        "payment:credit_cards": "no",
        "payment:debit_cards": "no",
        "roof:shape": "flat",
        "wheelchair": "yes"
      }
    },
    {
      "type": "way",
      "id": 1180658031,
      "center": {
        "lat": 13.1067285,
        "lon": 77.5999439
      },
      "tags": {
        "access": "private",
        "leisure": "park"
      }
    },
    {
      "type": "way",
      "id": 1180658032,
      "center": {
        "lat": 13.1066548,
        "lon": 77.599669
      },
      "tags": {
        "access": "customers",
        "leisure": "playground"
      }
    },
    {
      "type": "way",
      "id": 1180658034,
      "center": {
        "lat": 13.1066955,
        "lon": 77.6002402
      },
      "tags": {
        "leisure": "park"
      }
    },
    {
      "type": "way",
      "id": 1180658038,
      "center": {
        "lat": 13.1046814,
        "lon": 77.5999878
      },
      "tags": {
        "amenity": "restaurant",
        "building": "retail",
        "cuisine": "indian;chinese",
        "diet:vegetarian": "yes",
        "name": "Gokul Veg"
      }
    },
    {
      "type": "way",
      "id": 1180658039,
      "center": {
        "lat": 13.1032921,
        "lon": 77.6008365
      },
      "tags": {
        "amenity": "restaurant",
        "building": "yes",
        "check_date": "2023-12-22",
        "internet_access": "no",
        "name": "Udupi Grand",
        "wheelchair": "limited"
      }
    },
    {
      "type": "way",
      "id": 1182951658,
      "center": {
        "lat": 13.0954307,
        "lon": 77.6014694
      },
      "tags": {
        "access": "permissive",
        "leisure": "swimming_pool"
      }
    },
    {
      "type": "way",
      "id": 1182951659,
      "center": {
        "lat": 13.0954732,
        "lon": 77.6013032
      },
      "tags": {
        "access": "permissive",
        "leisure": "swimming_pool"
      }
    },
    {
      "type": "way",
      "id": 1182951662,
      "center": {
        "lat": 13.0951072,
        "lon": 77.6012683
      },
      "tags": {
        "leisure": "park"
      }
    },
    {
      "type": "way",
      "id": 1182951665,
      "center": {
        "lat": 13.0950094,
        "lon": 77.601241
      },
      "tags": {
        "amenity": "shelter",
        "shelter_type": "gazebo"
      }
    },
    {
      "type": "way",
      "id": 1182951666,
      "center": {
        "lat": 13.095028,
        "lon": 77.6015503
      },
      "tags": {
        "leisure": "pitch",
        "sport": "basketball"
      }
    },
    {
      "type": "way",
      "id": 1182951667,
      "center": {
        "lat": 13.095085,
        "lon": 77.6017107
      },
      "tags": {
        "leisure": "pitch",
        "sport": "tennis"
      }
    },
    {
      "type": "way",
      "id": 1182954955,
      "center": {
        "lat": 13.1042957,
        "lon": 77.5974816
      },
      "tags": {
        "amenity": "community_centre",
        "landuse": "commercial",
        "name": "Chowdeswari Devi Kalyana Mantapa"
      }
    },
    {
      "type": "way",
      "id": 1182954956,
      "center": {
        "lat": 13.1052837,
        "lon": 77.5958233
      },
      "tags": {
        "amenity": "place_of_worship",
        "religion": "hindu"
      }
    },
    {
      "type": "way",
      "id": 1191456526,
      "center": {
        "lat": 13.1089172,
        "lon": 77.5974111
      },
      "tags": {
        "amenity": "place_of_worship",
        "building": "yes",
        "religion": "hindu"
      }
    },
    {
      "type": "way",
      "id": 1191456527,
      "center": {
        "lat": 13.1085831,
        "lon": 77.5974998
      },
      "tags": {
        "leisure": "fitness_station",
        "sport": "fitness"
      }
    },
    {
      "type": "way",
      "id": 1191456528,
      "center": {
        "lat": 13.1094404,
        "lon": 77.5980307
      },
      "tags": {
        "leisure": "playground"
      }
    },
    {
      "type": "way",
      "id": 1191456529,
      "center": {
        "lat": 13.108856,
        "lon": 77.5976689
      },
      "tags": {
        "leisure": "outdoor_seating"
      }
    },
    {
      "type": "way",
      "id": 1191456538,
      "center": {
        "lat": 13.1056291,
        "lon": 77.5956324
      },
      "tags": {
        "amenity": "shelter",
        "building": "yes",
        "shelter_type": "gazebo"
      }
    },
    {
      "type": "way",
      "id": 1191456539,
      "center": {
        "lat": 13.1061617,
        "lon": 77.5956547
      },
      "tags": {
        "amenity": "ferry_terminal",
        "tourism": "attraction"
      }
    },
    {
      "type": "way",
      "id": 1191456542,
      "center": {
        "lat": 13.1091002,
        "lon": 77.5939958
      },
      "tags": {
        "amenity": "shelter",
        "building": "yes",
        "shelter_type": "gazebo"
      }
    },
    {
      "type": "way",
      "id": 1191458810,
      "center": {
        "lat": 13.1042981,
        "lon": 77.5971218
      },
      "tags": {
        "amenity": "parking"
      }
    },
    {
      "type": "way",
      "id": 1233754522,
      "center": {
        "lat": 13.0998399,
        "lon": 77.5880151
      },
      "tags": {
        "access": "private",
        "amenity": "parking",
        "parking": "surface"
      }
    },
    {
      "type": "way",
      "id": 1236610921,
      "center": {
        "lat": 13.1066199,
        "lon": 77.5990874
      },
      "tags": {
        "leisure": "park"
      }
    },
    {
      "type": "way",
      "id": 1236610922,
      "center": {
        "lat": 13.1063585,
        "lon": 77.5991595
      },
      "tags": {
        "blind": "limited",
        "fitness_station": "fitness_station",
        "leisure": "fitness_station",
        "sport": "fitness",
        "wheelchair": "limited"
      }
    },
    {
      "type": "way",
      "id": 1236615620,
      "center": {
        "lat": 13.1066667,
        "lon": 77.6004723
      },
      "tags": {
        "leisure": "park"
      }
    },
    {
      "type": "way",
      "id": 1239621955,
      "center": {
        "lat": 13.1023579,
        "lon": 77.5941397
      },
      "tags": {
        "amenity": "place_of_worship",
        "religion": "hindu"
      }
    },
    {
      "type": "way",
      "id": 1239668059,
      "center": {
        "lat": 13.1026669,
        "lon": 77.5961315
      },
      "tags": {
        "amenity": "place_of_worship",
        "religion": "hindu"
      }
    },
    {
      "type": "way",
      "id": 1239668075,
      "center": {
        "lat": 13.1023932,
        "lon": 77.5954871
      },
      "tags": {
        "amenity": "place_of_worship",
        "religion": "hindu"
      }
    },
    {
      "type": "way",
      "id": 1272659068,
      "center": {
        "lat": 13.0978156,
        "lon": 77.5983365
      },
      "tags": {
        "amenity": "fuel",
        "brand": "Bharat Petroleum",
        "brand:wikidata": "Q854826",
        "check_date": "2023-11-12",
        "compressed_air": "yes",
        "name": "Bharat Petroleum",
        "name:kn": "ಭಾರತ್ ಪೆಟ್ರೋಲಿಯಂ"
      }
    },
    {
      "type": "way",
      "id": 1272686282,
      "center": {
        "lat": 13.1012771,
        "lon": 77.6006245
      },
      "tags": {
        "amenity": "events_venue",
        "landuse": "commercial",
        "name": "NVM Kalyana Mantapa"
      }
    },
    {
      "type": "way",
      "id": 1272689206,
      "center": {
        "lat": 13.092155,
        "lon": 77.5944272
      },
      "tags": {
        "amenity": "fuel",
        "brand": "Hindustan Petroleum",
        "brand:wikidata": "Q1619375",
        "landuse": "commercial",
        "name": "HP",
        "name:kn": "ಹಿಂದುಸ್ತಾನ್ ಪೆಟ್ರೋಲಿಯಂ",
        "official_name": "Hindustan Petroleum"
      }
    },
    {
      "type": "way",
      "id": 1272734832,
      "center": {
        "lat": 13.0970962,
        "lon": 77.5962139
      },
      "tags": {
        "amenity": "fuel",
        "compressed_air": "yes",
        "name": "Nayara"
      }
    },
    {
      "type": "way",
      "id": 1272767313,
      "center": {
        "lat": 13.1038724,
        "lon": 77.6027696
      },
      "tags": {
        "addr:full": "Ground Floor, Kogilu Main Road, K B Sandra, Maruthi Nagar, Yelahanka, Bengaluru, near to K B Sandra, Bengaluru, Karnataka, 560064",
        "addr:postcode": "560064",
        "addr:state": "Karnataka",
        "amenity": "fuel",
        "brand": "Indian Oil",
        "brand:wikidata": "Q1289348",
        "opening_hours": "Mo-Su 00:00-23:59",
        "phone": "+918095957888",
        "website": "https://locator.iocl.com/indianoil-manjunatha-service-station-petrol-pump-yelahanka-bengaluru-183363/Home"
      }
    },
    {
      "type": "way",
      "id": 1272767316,
      "center": {
        "lat": 13.104101,
        "lon": 77.6044514
      },
      "tags": {
        "amenity": "fuel"
      }
    },
    {
      "type": "way",
      "id": 1272767332,
      "center": {
        "lat": 13.1061709,
        "lon": 77.6012637
      },
      "tags": {
        "addr:full": "Ground Floor, Bellary Road, K B Sandra, Venkatala Village, Chowdeshwari Layout, Yelahanka, Bengaluru, near to K B Sandra, Bengaluru, Karnataka, 560064",
        "addr:postcode": "560064",
        "addr:state": "Karnataka",
        "amenity": "fuel",
        "brand": "Indian Oil",
        "brand:wikidata": "Q1289348",
        "compressed_air": "yes",
        "name": "Indian Oil",
        "opening_hours": "Mo-Su 06:00-23:00",
        "operator": "Indian Oil",
        "phone": "+919845269759",
        "website": "https://locator.iocl.com/indianoil-sapthagiri-service-station-petrol-pump-yelahanka-bengaluru-183782/Home"
      }
    },
    {
      "type": "way",
      "id": 1272767334,
      "center": {
        "lat": 13.0989253,
        "lon": 77.5997601
      },
      "tags": {
        "brand": "Kia",
        "brand:wikidata": "Q35349",
        "check_date": "2025-09-19",
        "landuse": "commercial",
        "name": "Kia",
        "operator": "Epitome Kia",
        "shop": "car"
      }
    },
    {
      "type": "way",
      "id": 1298823075,
      "center": {
        "lat": 13.0951313,
        "lon": 77.5893309
      },
      "tags": {
        "access": "private",
        "leisure": "pitch",
        "sport": "tennis"
      }
    },
    {
      "type": "way",
      "id": 1298823192,
      "center": {
        "lat": 13.097355,
        "lon": 77.591324
      },
      "tags": {
        "amenity": "fuel",
        "brand": "Indian Oil",
        "brand:wikidata": "Q1289348",
        "compressed_air": "yes",
        "name": "Indian Oil",
        "wheelchair": "yes"
      }
    },
    {
      "type": "way",
      "id": 1298823194,
      "center": {
        "lat": 13.0969573,
        "lon": 77.5891037
      },
      "tags": {
        "amenity": "childcare",
        "building": "yes",
        "kindergarten": "yes",
        "name": "Podar Prep",
        "nursery": "yes"
      }
    },
    {
      "type": "way",
      "id": 1318918495,
      "center": {
        "lat": 13.0998341,
        "lon": 77.5890452
      },
      "tags": {
        "access": "yes",
        "amenity": "toilets",
        "building": "toilets",
        "building:use": "public",
        "unisex": "yes"
      }
    },
    {
      "type": "way",
      "id": 1319582402,
      "center": {
        "lat": 13.0984457,
        "lon": 77.5998611
      },
      "tags": {
        "amenity": "place_of_worship",
        "building": "yes",
        "religion": "hindu"
      }
    },
    {
      "type": "way",
      "id": 1324600251,
      "center": {
        "lat": 13.0949288,
        "lon": 77.5914881
      },
      "tags": {
        "access": "private",
        "leisure": "swimming_pool",
        "swimming_pool": "swimming"
      }
    },
    {
      "type": "way",
      "id": 1351862832,
      "center": {
        "lat": 13.1003154,
        "lon": 77.5944028
      },
      "tags": {
        "amenity": "place_of_worship",
        "religion": "hindu"
      }
    },
    {
      "type": "way",
      "id": 1383194013,
      "center": {
        "lat": 13.0979334,
        "lon": 77.5930771
      },
      "tags": {
        "leisure": "garden"
      }
    },
    {
      "type": "way",
      "id": 1455433870,
      "center": {
        "lat": 13.0963095,
        "lon": 77.6003683
      },
      "tags": {
        "amenity": "fuel",
        "brand": "Indian Oil",
        "brand:wikidata": "Q1289348",
        "name": "Indian Oil"
      }
    },
    {
      "type": "way",
      "id": 1455433871,
      "center": {
        "lat": 13.0968866,
        "lon": 77.5990637
      },
      "tags": {
        "amenity": "fuel"
      }
    },
    {
      "type": "way",
      "id": 1455433873,
      "center": {
        "lat": 13.0973219,
        "lon": 77.5998862
      },
      "tags": {
        "amenity": "marketplace",
        "landuse": "retail",
        "name": "Yelahanka Sante",
        "name:kn": "ಯಲಹಂಕ ಸಂತೆ"
      }
    }
  ]
}