{
  "area_name": "Yellappa Chetty Layout",
  "osm_id": 5726457434,
  "osm_type": "node",
  "place_type": "neighbourhood",
  "amenity_count": 452,
  "amenities": [
    {
      "type": "node",
      "id": 1065137180,
      "lat": 12.9745381,
      "lon": 77.6096029,
      "tags": {
        "amenity": "restaurant",
        "cuisine": "indian",
        "internet_access": "no",
        "name": "Ullas Refreshment",
        "name:kn": "ಉಲ್ಲಾಸ್ ರಿಫ್ರೆಶ್‌ಮೆಂಟ್"
      }
    },
    {
      "type": "node",
      "id": 1462124094,
      "lat": 12.972972,
      "lon": 77.6213025,
      "tags": {
        "amenity": "fast_food",
        "brand": "McDonald's",
        "brand:pa": "ਮੈਕਡੋਨਲਡ’ਜ਼",
        "brand:ur": "مکڈونلڈز",
        "brand:wikidata": "Q38076",
        "brand:wikipedia": "en:McDonald's",
        "brand:wikipedia:pa": "ਮੈਕਡੋਨਲਡ’ਜ਼",
        "brand:wikipedia:ur": "مکڈونلڈز",
        "cuisine": "burger",
        "name": "McDonald's",
        "name:kn": "ಮ್ಯಾಕ್‌ಡೊನಾಲ್ಡ್ಸ್",
        "name:pa": "ਮੈਕਡੋਨਲਡ’ਜ਼",
        "name:ur": "مکڈونلڈز",
        "takeaway": "yes"
      }
    },
    {
      "type": "node",
      "id": 1474001857,
      "lat": 12.973051,
      "lon": 77.6110437,
      "tags": {
        "amenity": "atm",
        "brand": "ICICI Bank",
        "brand:wikidata": "Q1653258",
        "name": "ICICI Bank",
        "operator": "ICICI Bank",
        "operator:wikidata": "Q1653258",
        "short_name": "ICICI"
      }
    },
    {
      "type": "node",
      "id": 1474297569,
      "lat": 12.9814476,
      "lon": 77.6103605,
      "tags": {
        "amenity": "atm",
        "brand": "ICICI Bank",
        "brand:wikidata": "Q1653258",
        "fee": "no",
        "name": "ICICI Bank",
        "name:kn": "ಐಸಿಐಸಿಐ ಬ್ಯಾಂಕು",
        "operator": "ICICI Bank",
        "operator:wikidata": "Q1653258",
        "short_name": "ICICI"
      }
    },
    {
      "type": "node",
      "id": 1474299234,
      "lat": 12.9810398,
      "lon": 77.6104463,
      "tags": {
        "addr:housenumber": "183",
        "addr:postcode": "560042",
        "addr:street": "Dickenson Road",
        "name": "Malabar Jewellery",
        "name:kn": "ಮಲಬಾರ್ ಜಿವೆಲರಿ",
        "shop": "jewelry",
        "website": "www.malabargoldindia.com"
      }
    },
    {
      "type": "node",
      "id": 1474302940,
      "lat": 12.9814894,
      "lon": 77.6101459,
      "tags": {
        "addr:housenumber": "1",
        "addr:postcode": "560042",
        "addr:street": "Commercial Street",
        "name": "Sri Krishna Diamond and Jewellery",
        "name:kn": "ಶ್ರೀ ಕೃಷ್ಣ ವಜ್ರ ಮತ್ತು ಜಿವೆಲರಿ",
        "shop": "jewelry"
      }
    },
    {
      "type": "node",
      "id": 1474308854,
      "lat": 12.9811601,
      "lon": 77.6102478,
      "tags": {
        "addr:street": "Kamaraj Road",
        "brand": "Levi's",
        "brand:wikidata": "Q127962",
        "clothes": "denim;men;women",
        "name": "Levi's",
        "name:kn": "ಲೆವಿಸ್",
        "shop": "clothes"
      }
    },
    {
      "type": "node",
      "id": 1707859852,
      "lat": 12.9732119,
      "lon": 77.6217398,
      "tags": {
        "amenity": "restaurant",
        "brand": "TGI Fridays",
        "brand:wikidata": "Q1524184",
        "cuisine": "american",
        "name": "TGI Fridays",
        "name:kn": "ಟಜಿಐ ಫ್ರೈಡೇಸ್"
      }
    },
    {
      "type": "node",
      "id": 1725164116,
      "lat": 12.9758374,
      "lon": 77.6147563,
      "tags": {
        "name": "Bhima",
        "name:en": "Bhima",
        "name:kn": "ಭೀಮ",
        "shop": "jewelry"
      }
    },
    {
      "type": "node",
      "id": 1725164124,
      "lat": 12.9759517,
      "lon": 77.6147731,
      "tags": {
        "name": "Panasonic",
        "shop": "electronics"
      }
    },
    {
      "type": "node",
      "id": 1809856741,
      "lat": 12.9744491,
      "lon": 77.6143016,
      "tags": {
        "branch": "Jewellary",
        "brand": "Tanishq",
        "brand:en": "Tanishq",
        "brand:wikidata": "Q13117711",
        "level": "0",
        "name": "Tanishq",
        "name:en": "Tanishq",
        "opening_hours": "Mo-Sa 09:50-20:00",
        "shop": "jewelry",
        "wheelchair": "no"
      }
    },
    {
      "type": "node",
      "id": 1852664343,
      "lat": 12.9864817,
      "lon": 77.6194153,
      "tags": {
        "shop": "florist"
      }
    },
    {
      "type": "node",
      "id": 1852668995,
      "lat": 12.9755514,
      "lon": 77.6173581,
      "tags": {
        "shop": "florist"
      }
    },
    {
      "type": "node",
      "id": 1852670707,
      "lat": 12.9758023,
      "lon": 77.6165936,
      "tags": {
        "amenity": "cafe",
        "cuisine": "french",
        "name": "French Loaf"
      }
    },
    {
      "type": "node",
      "id": 1852671127,
      "lat": 12.9758154,
      "lon": 77.616548,
      "tags": {
        "amenity": "restaurant",
        "cuisine": "thai",
        "name": "Benjerong"
      }
    },
    {
      "type": "node",
      "id": 1852671675,
      "lat": 12.9758363,
      "lon": 77.6165158,
      "tags": {
        "amenity": "restaurant",
        "cuisine": "regional",
        "name": "Ente Kerelam",
        "name:kn": "ಎಂಟೆ ಕೇರಳಮ್"
      }
    },
    {
      "type": "node",
      "id": 2268440722,
      "lat": 12.9809636,
      "lon": 77.6105003,
      "tags": {
        "amenity": "taxi"
      }
    },
    {
      "type": "node",
      "id": 2487524467,
      "lat": 12.9811096,
      "lon": 77.6102253,
      "tags": {
        "addr:city": "Bangalore",
        "addr:housename": "Near Commercial Street",
        "addr:street": "Kamaraj Road",
        "name": "Lake N Bake",
        "name:kn": "ಲೇಖ್ ಎನ್ ಬೇಕ್",
        "shop": "bakery"
      }
    },
    {
      "type": "node",
      "id": 2487524468,
      "lat": 12.9811057,
      "lon": 77.6102575,
      "tags": {
        "addr:city": "Bangalore",
        "addr:housename": "Near Commercial Street",
        "addr:street": "Kamaraj Road",
        "amenity": "fast_food",
        "cuisine": "regional",
        "name": "Hotel barbies",
        "name:kn": "ಹೊಟೆಲ್ ಬಾರಬೀಸ್"
      }
    },
    {
      "type": "node",
      "id": 2496920263,
      "lat": 12.9814604,
      "lon": 77.6104149,
      "tags": {
        "addr:city": "Bangalore",
        "addr:housename": "Near Commercial Street Entrance, Shivajinagar",
        "addr:street": "Kamaraj Road",
        "name": "Mysore Saree Udyog",
        "name:kn": "ಮೈಸೂರು ಸೀರೆ ಉದ್ಯೋಗ್",
        "shop": "clothes"
      }
    },
    {
      "type": "node",
      "id": 2868082722,
      "lat": 12.9748217,
      "lon": 77.6145482,
      "tags": {
        "brand": "Bhima Jewellers",
        "brand:wikidata": "Q17004889",
        "name": "Bhima Jewellers",
        "shop": "jewelry"
      }
    },
    {
      "type": "node",
      "id": 2999559155,
      "lat": 12.9722421,
      "lon": 77.6184419,
      "tags": {
        "addr:city": "Bangalore",
        "addr:country": "IN",
        "addr:hamlet": "Craig Park Layout",
        "addr:housename": "Ramanashree Arcade",
        "addr:housenumber": "18",
        "addr:postcode": "560025",
        "addr:street": "MG Road",
        "addr:suburb": "Ashok Nagar",
        "amenity": "restaurant",
        "contact:instagram": "daysie.allday",
        "contact:whatsapp": "+91 89040 85004",
        "level": "0",
        "name": "Daysie",
        "outdoor_seating": "yes",
        "phone": "+91 080 47250 000",
        "website": "https://daysie.in/"
      }
    },
    {
      "type": "node",
      "id": 2999562190,
      "lat": 12.9723821,
      "lon": 77.6185949,
      "tags": {
        "addr:street": "Mahatma Gandhi Road",
        "name": "Big Kids Kemp",
        "shop": "clothes"
      }
    },
    {
      "type": "node",
      "id": 2999562191,
      "lat": 12.9723534,
      "lon": 77.6186861,
      "tags": {
        "addr:street": "Mahatma Gandhi Road",
        "amenity": "bank",
        "name": "EXIM (Export-Import Bank of India)"
      }
    },
    {
      "type": "node",
      "id": 2999619029,
      "lat": 12.9689899,
      "lon": 77.6200161,
      "tags": {
        "addr:street": "Trinity Church Road",
        "name": "Army Canteen",
        "shop": "yes"
      }
    },
    {
      "type": "node",
      "id": 3170021930,
      "lat": 12.9734434,
      "lon": 77.6216713,
      "tags": {
        "name": "Big Bazaar",
        "name:kn": "ಬಿಗ್ ಬಜಾರ್",
        "shop": "supermarket"
      }
    },
    {
      "type": "node",
      "id": 3170025557,
      "lat": 12.9750047,
      "lon": 77.6200027,
      "tags": {
        "amenity": "restaurant",
        "cuisine": "regional",
        "level": "2",
        "name": "Carnival De Goa",
        "name:kn": "ಕಾರ್ನಿವಾಲ್ ಡಿ ಗೋವಾ",
        "smoking": "outside"
      }
    },
    {
      "type": "node",
      "id": 3170057096,
      "lat": 12.972455,
      "lon": 77.6202099,
      "tags": {
        "brand": "Suzuki",
        "brand:wikidata": "Q181642",
        "name": "Suzuki",
        "name:kn": "ಸುಜುಕಿ",
        "shop": "motorcycle"
      }
    },
    {
      "type": "node",
      "id": 3170057127,
      "lat": 12.9733087,
      "lon": 77.6214181,
      "tags": {
        "amenity": "atm"
      }
    },
    {
      "type": "node",
      "id": 3170060062,
      "lat": 12.9734362,
      "lon": 77.6215884,
      "tags": {
        "amenity": "atm"
      }
    },
    {
      "type": "node",
      "id": 3218746234,
      "lat": 12.9818224,
      "lon": 77.610245,
      "tags": {
        "addr:street": "Kamaraj Road",
        "amenity": "bank",
        "brand": "Corporation Bank",
        "brand:wikidata": "Q2003387",
        "brand:wikipedia": "en:Corporation Bank",
        "name": "Corporation Bank",
        "name:en": "Corporation Bank",
        "name:kn": "ಕಾರ್ಪರೇಷನ್ ಬ್ಯಾಂಕ್",
        "website": "https://corpbank.com/"
      }
    },
    {
      "type": "node",
      "id": 3218746549,
      "lat": 12.9818877,
      "lon": 77.610465,
      "tags": {
        "amenity": "atm",
        "brand": "Citibank",
        "brand:wikidata": "Q857063",
        "name": "Citibank",
        "name:kn": "ಸಿಟಿಬ್ಯಾಂಕ್",
        "opening_hours": "24/7",
        "operator": "Citibank",
        "operator:wikidata": "Q857063",
        "short_name": "Citi"
      }
    },
    {
      "type": "node",
      "id": 3218746897,
      "lat": 12.981859,
      "lon": 77.6102799,
      "tags": {
        "amenity": "atm",
        "brand": "Corporation Bank",
        "brand:wikidata": "Q2003387",
        "name": "Corporation Bank",
        "name:kn": "ಕಾರ್ಪರೆಷನ್ ಬ್ಯಾಂಕ್ ಎಟಿಎಂ",
        "operator": "Corporation Bank",
        "operator:wikidata": "Q2003387"
      }
    },
    {
      "type": "node",
      "id": 3292614897,
      "lat": 12.9730022,
      "lon": 77.6173053,
      "tags": {
        "amenity": "fast_food",
        "brand": "Domino's",
        "brand:ks": "ڈومینوز",
        "brand:pa": "ਡੋਮੀਨੋਜ਼",
        "brand:ur": "ڈومینوز",
        "brand:wikidata": "Q839466",
        "brand:wikipedia": "en:Domino's Pizza",
        "cuisine": "pizza",
        "indoor_seating": "yes",
        "name": "Domino's",
        "name:ks": "ڈومینوز",
        "name:pa": "ਡੋਮੀਨੋਜ਼",
        "name:ur": "ڈومینوز",
        "outdoor_seating": "no",
        "takeaway": "yes"
      }
    },
    {
      "type": "node",
      "id": 3292614929,
      "lat": 12.9736204,
      "lon": 77.6155256,
      "tags": {
        "amenity": "bank",
        "atm": "yes",
        "brand": "Citibank",
        "brand:wikidata": "Q857063",
        "name": "Citibank",
        "name:kn": "ಸಿಟಿಬ್ಯಾಂಕ್",
        "short_name": "Citi"
      }
    },
    {
      "type": "node",
      "id": 3292614939,
      "lat": 12.9734322,
      "lon": 77.6204609,
      "tags": {
        "amenity": "ice_cream",
        "brand": "Häagen-Dazs",
        "brand:wikidata": "Q1143333",
        "cuisine": "ice_cream",
        "name": "Häagen-Dazs"
      }
    },
    {
      "type": "node",
      "id": 3476877518,
      "lat": 12.9691307,
      "lon": 77.6168652,
      "tags": {
        "amenity": "police",
        "name": "Karnataka State Reserve Police"
      }
    },
    {
      "type": "node",
      "id": 3488721663,
      "lat": 12.972765,
      "lon": 77.6190259,
      "tags": {
        "amenity": "atm",
        "brand": "Bank of Baroda",
        "brand:wikidata": "Q2003797",
        "check_date": "2022-07-03",
        "name": "Bank of Baroda",
        "name:kn": "ವಿಜಯ ಬ್ಯಾಂಕು",
        "operator": "Bank of Baroda",
        "operator:wikidata": "Q2003797"
      }
    },
    {
      "type": "node",
      "id": 3562609093,
      "lat": 12.9752333,
      "lon": 77.6258831,
      "tags": {
        "amenity": "place_of_worship",
        "religion": "hindu"
      }
    },
    {
      "type": "node",
      "id": 3643239013,
      "lat": 12.9761885,
      "lon": 77.6260897,
      "tags": {
        "amenity": "fast_food",
        "name": "Bhai Ji's",
        "name:kn": "ಭಾಯ್‌ ಜೀಸ್"
      }
    },
    {
      "type": "node",
      "id": 3730961535,
      "lat": 12.9739292,
      "lon": 77.6232945,
      "tags": {
        "amenity": "cafe",
        "name": "Kumbakonam Traditional Coffee",
        "name:kn": "ಕುಂಬಕೊಣಂ ಸಂಪ್ರದಾಯಕ ಕಾಫೀ"
      }
    },
    {
      "type": "node",
      "id": 3760133043,
      "lat": 12.9729167,
      "lon": 77.6172137,
      "tags": {
        "amenity": "atm",
        "brand": "Yes Bank",
        "brand:wikidata": "Q2040394",
        "layer": "1",
        "level": "1",
        "name": "Yes Bank",
        "operator": "Yes Bank",
        "operator:wikidata": "Q2040394"
      }
    },
    {
      "type": "node",
      "id": 3761230359,
      "lat": 12.9749935,
      "lon": 77.6199471,
      "tags": {
        "addr:street": "Bhaskaran Road",
        "amenity": "restaurant",
        "cuisine": "mexican",
        "level": "0",
        "name": "The Grill House",
        "name:kn": "ದ ಗ್ರಿಲ್ ಹೌಸ್"
      }
    },
    {
      "type": "node",
      "id": 3785881931,
      "lat": 12.9733286,
      "lon": 77.6167758,
      "tags": {
        "amenity": "bank",
        "atm": "yes",
        "brand": "Axis Bank",
        "brand:wikidata": "Q2003549",
        "brand:wikipedia": "en:Axis Bank",
        "level": "0",
        "name": "Axis Bank",
        "name:en": "Axis Bank",
        "name:kn": "ಅಕ್ಸಿಸ್ ಬ್ಯಾಂಕ್",
        "website": "https://www.axisbank.com"
      }
    },
    {
      "type": "node",
      "id": 3785884026,
      "lat": 12.9731918,
      "lon": 77.6167348,
      "tags": {
        "amenity": "cafe",
        "brand": "Chai Point",
        "brand:wikidata": "Q28173415",
        "check_date": "2024-12-29",
        "cuisine": "coffee_shop",
        "level": "0",
        "name": "Chai Point",
        "outdoor_seating": "no",
        "takeaway": "yes"
      }
    },
    {
      "type": "node",
      "id": 3785884274,
      "lat": 12.9733953,
      "lon": 77.6169631,
      "tags": {
        "amenity": "bank",
        "brand": "Corporation Bank",
        "brand:wikidata": "Q2003387",
        "brand:wikipedia": "en:Corporation Bank",
        "level": "3",
        "name": "Corporation Bank",
        "name:en": "Corporation Bank",
        "name:kn": "ಕಾರ್ಪರೇಷನ್ ಬ್ಯಾಂಕ್",
        "website": "https://corpbank.com/"
      }
    },
    {
      "type": "node",
      "id": 3785903457,
      "lat": 12.9734064,
      "lon": 77.616709,
      "tags": {
        "name": "Orbitz India Services Pvt Ltd.",
        "shop": "travel_agency"
      }
    },
    {
      "type": "node",
      "id": 3785905427,
      "lat": 12.9733651,
      "lon": 77.6164843,
      "tags": {
        "amenity": "bank",
        "atm": "yes",
        "brand": "State Bank of India",
        "brand:wikidata": "Q1340361",
        "brand:wikipedia": "en:State Bank of India",
        "level": "0",
        "name": "State Bank of India",
        "name:kn": "ಭಾರತೀಯ ಸ್ಟೇಟ್ ಬ್ಯಾಂಕ್",
        "short_name": "SBI"
      }
    },
    {
      "type": "node",
      "id": 3785906627,
      "lat": 12.9733842,
      "lon": 77.6163899,
      "tags": {
        "amenity": "restaurant",
        "cuisine": "indian",
        "level": "1",
        "name": "Caesars"
      }
    },
    {
      "type": "node",
      "id": 3785911557,
      "lat": 12.9734064,
      "lon": 77.6163313,
      "tags": {
        "amenity": "bank",
        "atm": "yes",
        "level": "0",
        "name": "Tamil Nadu Marcantile Bank"
      }
    },
    {
      "type": "node",
      "id": 3788574611,
      "lat": 12.9704001,
      "lon": 77.6171095,
      "tags": {
        "amenity": "kindergarten",
        "level": "0",
        "name": "Golden Bead Montessory School",
        "survey:date": "2023-09-23"
      }
    },
    {
      "type": "node",
      "id": 3797611901,
      "lat": 12.9717014,
      "lon": 77.6181421,
      "tags": {
        "access": "permissive",
        "amenity": "parking",
        "fee": "no",
        "name": "Car Parking",
        "parking": "lane",
        "supervised": "no"
      }
    },
    {
      "type": "node",
      "id": 3797611957,
      "lat": 12.9721967,
      "lon": 77.6182668,
      "tags": {
        "amenity": "motorcycle_parking"
      }
    },
    {
      "type": "node",
      "id": 3805426547,
      "lat": 12.9721557,
      "lon": 77.6184858,
      "tags": {
        "amenity": "post_office",
        "name": "Professional Couriers",
        "operator": "Professional Couriers"
      }
    },
    {
      "type": "node",
      "id": 3805440421,
      "lat": 12.9717578,
      "lon": 77.6179225,
      "tags": {
        "amenity": "arts_centre",
        "level": "-1",
        "name": "Indian Cartoon Gallery"
      }
    },
    {
      "type": "node",
      "id": 3805440422,
      "lat": 12.9717578,
      "lon": 77.6179755,
      "tags": {
        "amenity": "bureau_de_change",
        "name": "Forxchange"
      }
    },
    {
      "type": "node",
      "id": 3805493606,
      "lat": 12.9721008,
      "lon": 77.6184589,
      "tags": {
        "amenity": "bank",
        "atm": "no",
        "level": "4",
        "name": "EXIM Bank;Export-Import Bank of India"
      }
    },
    {
      "type": "node",
      "id": 3805499875,
      "lat": 12.9723831,
      "lon": 77.6184938,
      "tags": {
        "amenity": "bank",
        "atm": "no",
        "brand": "Canara Bank",
        "brand:en": "Canara Bank",
        "brand:hi": "केनरा बैंक",
        "brand:kn": "ಕೆನರಾ ಬ್ಯಾಂಕ್",
        "brand:pa": "ਕੇਨਰਾ ਬੈਂਕ",
        "brand:pnb": "کینرا بینک",
        "brand:ur": "کینرا بینک",
        "brand:wikidata": "Q2003777",
        "brand:wikipedia": "en:Canara Bank",
        "brand:wikipedia:pa": "ਕੇਨਰਾ ਬੈਂਕ",
        "level": "3",
        "name": "Canara Bank",
        "name:en": "Canara Bank",
        "name:hi": "केनरा बैंक",
        "name:kn": "ಕೆನರಾ ಬ್ಯಾಂಕ್",
        "name:pa": "ਕੇਨਰਾ ਬੈਂਕ",
        "name:pnb": "کینرا بینک",
        "name:ur": "کینرا بینک",
        "website": "https://www.canarabank.com/"
      }
    },
    {
      "type": "node",
      "id": 3808141555,
      "lat": 12.9739311,
      "lon": 77.6115112,
      "tags": {
        "amenity": "place_of_worship",
        "level": "0",
        "name": "Shri Maha Muneeshwara Temple",
        "religion": "hindu"
      }
    },
    {
      "type": "node",
      "id": 3808184784,
      "lat": 12.9732807,
      "lon": 77.6140413,
      "tags": {
        "access": "customers",
        "amenity": "parking",
        "fee": "yes",
        "name": "Visitors Car Parking",
        "parking": "surface"
      }
    },
    {
      "type": "node",
      "id": 3808186286,
      "lat": 12.9739333,
      "lon": 77.6123872,
      "tags": {
        "amenity": "bank",
        "brand:wikidata": "Q5266685",
        "brand:wikipedia": "en:DCB Bank",
        "level": "0,1",
        "name": "DCB Bank",
        "name:en": "DCB Bank",
        "name:kn": "ಡಿಸಿಬಿ ಬ್ಯಾಂಕ್",
        "website": "https://www.dcbbank.com"
      }
    },
    {
      "type": "node",
      "id": 3808538485,
      "lat": 12.9729256,
      "lon": 77.6160971,
      "tags": {
        "addr:floor": "G;1",
        "amenity": "bank",
        "brand": "Kotak Mahindra Bank",
        "brand:wikidata": "Q2040404",
        "check_date": "2025-05-20",
        "level": "0;1",
        "name": "Kotak Mahindra Bank",
        "operator": "Kotak Mahindra Bank",
        "operator:wikidata": "Q2040404"
      }
    },
    {
      "type": "node",
      "id": 3808553984,
      "lat": 12.9730752,
      "lon": 77.6155935,
      "tags": {
        "amenity": "bank",
        "brand": "HDFC Bank",
        "brand:wikidata": "Q631047",
        "brand:wikipedia": "en:HDFC Bank",
        "level": "0",
        "name": "HDFC Bank",
        "name:kn": "ಎಚ್ ಡಿ ಎಫ್ ಸಿ",
        "short_name": "HDFC",
        "website": "https://www.hdfcbank.com"
      }
    },
    {
      "type": "node",
      "id": 3808565777,
      "lat": 12.9731241,
      "lon": 77.6136623,
      "tags": {
        "amenity": "bank",
        "brand": "Deutsche Bank",
        "brand:wikidata": "Q66048",
        "level": "0;2-3",
        "name": "Deutsche Bank"
      }
    },
    {
      "type": "node",
      "id": 3808565778,
      "lat": 12.9732234,
      "lon": 77.6137669,
      "tags": {
        "amenity": "bank",
        "brand": "Standard Chartered",
        "brand:wikidata": "Q548278",
        "level": "0;6",
        "name": "Standard Chartered",
        "name:kn": "ಸ್ಟಾಂಡರ್ಡ್ ಚಾರ್ಟರ್ಡ್"
      }
    },
    {
      "type": "node",
      "id": 3808573610,
      "lat": 12.9733488,
      "lon": 77.6136783,
      "tags": {
        "amenity": "bank",
        "brand": "Kotak Mahindra Bank",
        "brand:wikidata": "Q2040404",
        "brand:wikipedia": "en:Kotak Mahindra Bank",
        "level": "5",
        "name": "Kotak Mahindra Bank",
        "name:en": "Kotak Mahindra Bank",
        "name:kn": "ಕೋಟಕ್ ಮಹಿಂದ್ರ ಬ್ಯಾಂಕ್",
        "website": "http://www.kotak.com"
      }
    },
    {
      "type": "node",
      "id": 3808585051,
      "lat": 12.9732887,
      "lon": 77.6137025,
      "tags": {
        "amenity": "coworking_space",
        "branch": "Business Centre",
        "brand": "Regus",
        "brand:wikidata": "Q761072",
        "level": "9",
        "name": "Regus",
        "office": "coworking"
      }
    },
    {
      "type": "node",
      "id": 3808589488,
      "lat": 12.9733619,
      "lon": 77.6137669,
      "tags": {
        "amenity": "coworking_space",
        "level": "10",
        "name": "Quest Offices",
        "office": "yes"
      }
    },
    {
      "type": "node",
      "id": 3808590529,
      "lat": 12.9733462,
      "lon": 77.6138259,
      "tags": {
        "amenity": "coworking_space",
        "level": "10",
        "name": "Muzammil Business Centre",
        "office": "yes"
      }
    },
    {
      "type": "node",
      "id": 3808614236,
      "lat": 12.9728784,
      "lon": 77.6138634,
      "tags": {
        "amenity": "bank",
        "brand": "Standard Chartered",
        "brand:wikidata": "Q548278",
        "level": "0,2,3",
        "name": "Standard Chartered",
        "name:kn": "ಸ್ಟಾಂಡರ್ಡ್ ಚಾರ್ಟರ್ಡ್"
      }
    },
    {
      "type": "node",
      "id": 3808614237,
      "lat": 12.9729672,
      "lon": 77.6138822,
      "tags": {
        "amenity": "coworking_space",
        "branch": "Business Centre",
        "brand": "Regus",
        "brand:wikidata": "Q761072",
        "level": "9",
        "name": "Regus",
        "office": "coworking"
      }
    },
    {
      "type": "node",
      "id": 3808615267,
      "lat": 12.9728784,
      "lon": 77.6139761,
      "tags": {
        "amenity": "coworking_space",
        "level": "10",
        "name": "Quest Offices",
        "office": "yes"
      }
    },
    {
      "type": "node",
      "id": 3808615268,
      "lat": 12.9727947,
      "lon": 77.6139761,
      "tags": {
        "amenity": "coworking_space",
        "level": "10",
        "name": "Muzammil Business Centre",
        "office": "yes"
      }
    },
    {
      "type": "node",
      "id": 3808615938,
      "lat": 12.972813,
      "lon": 77.6138715,
      "tags": {
        "amenity": "bank",
        "branch": "Zonal Office",
        "brand": "Punjab National Bank",
        "brand:wikidata": "Q2743499",
        "level": "1",
        "name": "Punjab National Bank",
        "name:kn": "ಪಂಜಾಬ ರಾಷ್ಟ್ರೀಯ ಬ್ಯಾಂಕ್"
      }
    },
    {
      "type": "node",
      "id": 3808617598,
      "lat": 12.972881,
      "lon": 77.6139332,
      "tags": {
        "amenity": "bank",
        "branch": "Circle Office",
        "brand": "Indian Bank",
        "brand:wikidata": "Q2003789",
        "level": "4",
        "name": "Indian Bank"
      }
    },
    {
      "type": "node",
      "id": 3810662311,
      "lat": 12.9718803,
      "lon": 77.6180899,
      "tags": {
        "name": "India Cements Capital Limited",
        "shop": "travel_agency"
      }
    },
    {
      "type": "node",
      "id": 3820249093,
      "lat": 12.9735781,
      "lon": 77.6135363,
      "tags": {
        "amenity": "bank",
        "brand": "IndusInd Bank",
        "brand:wikidata": "Q2040323",
        "brand:wikipedia": "en:IndusInd Bank",
        "level": "0",
        "name": "IndusInd Bank",
        "name:en": "IndusInd Bank",
        "name:kn": "ಇಂಡಸ್ಇಂಡ್ ಬ್ಯಾಂಕ್",
        "website": "https://www.indusind.com"
      }
    },
    {
      "type": "node",
      "id": 3820249094,
      "lat": 12.9736722,
      "lon": 77.6131796,
      "tags": {
        "amenity": "restaurant",
        "level": "0,1",
        "name": "Tandoor"
      }
    },
    {
      "type": "node",
      "id": 3820249100,
      "lat": 12.973633,
      "lon": 77.6131796,
      "tags": {
        "amenity": "bank",
        "brand": "IndusInd Bank",
        "brand:wikidata": "Q2040323",
        "brand:wikipedia": "en:IndusInd Bank",
        "level": "5",
        "name": "IndusInd Bank",
        "name:en": "IndusInd Bank",
        "name:kn": "ಇಂಡಸ್ಇಂಡ್",
        "website": "https://www.indusind.com"
      }
    },
    {
      "type": "node",
      "id": 3820249102,
      "lat": 12.9736382,
      "lon": 77.6131447,
      "tags": {
        "amenity": "bank",
        "brand": "Punjab National Bank",
        "brand:wikidata": "Q2743499",
        "level": "2",
        "name": "Punjab National Bank",
        "name:en": "Punjab National Bank",
        "name:kn": "ಪಂಜಾಬ ರಾಷ್ಟ್ರೀಯ ಬ್ಯಾಂಕ್",
        "short_name": "PNB",
        "website": "https://www.pnbindia.in"
      }
    },
    {
      "type": "node",
      "id": 3844286515,
      "lat": 12.9727193,
      "lon": 77.6171973,
      "tags": {
        "amenity": "bicycle_rental",
        "bicycle_rental": "dropoff_point",
        "level": "0"
      }
    },
    {
      "type": "node",
      "id": 3844308317,
      "lat": 12.9730853,
      "lon": 77.6154726,
      "tags": {
        "level": "-1",
        "name": "Kairali",
        "shop": "handicraft"
      }
    },
    {
      "type": "node",
      "id": 3844308318,
      "lat": 12.9730696,
      "lon": 77.6154861,
      "tags": {
        "level": "0",
        "name": "Central Cottage Industries Corporation Of India Ltd",
        "shop": "handicraft"
      }
    },
    {
      "type": "node",
      "id": 3844308319,
      "lat": 12.9730644,
      "lon": 77.6155317,
      "tags": {
        "amenity": "bank",
        "brand": "HDFC Bank",
        "brand:wikidata": "Q631047",
        "level": "-1",
        "name": "HDFC Bank",
        "short_name": "HDFC"
      }
    },
    {
      "type": "node",
      "id": 3844315071,
      "lat": 12.9730539,
      "lon": 77.6156282,
      "tags": {
        "level": "-1",
        "name": "VH Gems and Jewels",
        "shop": "jewelry"
      }
    },
    {
      "type": "node",
      "id": 3844324660,
      "lat": 12.9743706,
      "lon": 77.6143537,
      "tags": {
        "level": "0",
        "name": "Kovi Shop",
        "opening_hours": "Mo-Sa 10:00-18:00",
        "shop": "Gun_dealers"
      }
    },
    {
      "type": "node",
      "id": 3844324661,
      "lat": 12.9744925,
      "lon": 77.6143949,
      "tags": {
        "level": "0",
        "name": "Kings Way Travel Pvt Ltd",
        "shop": "travel_agency"
      }
    },
    {
      "type": "node",
      "id": 3844336215,
      "lat": 12.9743829,
      "lon": 77.6150015,
      "tags": {
        "level": "0",
        "name": "CLS Book Shop",
        "opening_hours": "Mo-Su 09:00-20:00",
        "shop": "books"
      }
    },
    {
      "type": "node",
      "id": 3846349182,
      "lat": 12.9747756,
      "lon": 77.6151783,
      "tags": {
        "amenity": "post_office",
        "level": "0",
        "name": "Shree Maruti Courier",
        "operator": "Shree Maruti Courier"
      }
    },
    {
      "type": "node",
      "id": 3846361459,
      "lat": 12.9752032,
      "lon": 77.6147572,
      "tags": {
        "amenity": "atm",
        "brand": "Citibank",
        "brand:wikidata": "Q857063",
        "level": "0",
        "name": "Citibank",
        "name:kn": "ಸಿಟಿಬ್ಯಾಂಕ್",
        "operator": "Citibank",
        "operator:wikidata": "Q857063",
        "short_name": "Citi"
      }
    },
    {
      "type": "node",
      "id": 3846361461,
      "lat": 12.9751927,
      "lon": 77.614784,
      "tags": {
        "amenity": "bank",
        "brand": "Allahabad Bank",
        "brand:wikidata": "Q2018840",
        "brand:wikipedia": "en:Allahabad Bank",
        "level": "1",
        "name": "Allahabad Bank",
        "name:en": "Allahabad Bank",
        "name:kn": "ಅಲಹಾಬಾದ್ ಬ್ಯಾಂಕ",
        "website": "https://www.allahabadbank.in"
      }
    },
    {
      "type": "node",
      "id": 3846361464,
      "lat": 12.9751587,
      "lon": 77.6148698,
      "tags": {
        "amenity": "bank",
        "brand": "Syndicate Bank",
        "brand:wikidata": "Q2004088",
        "level": "1",
        "name": "Syndicate Bank",
        "name:kn": "ಸಿಂಡಿಕೇಟ್ ಬ್ಯಾಂಕ್"
      }
    },
    {
      "type": "node",
      "id": 3846361465,
      "lat": 12.9751475,
      "lon": 77.614911,
      "tags": {
        "level": "0",
        "name": "Sears Travels",
        "shop": "travel_agency"
      }
    },
    {
      "type": "node",
      "id": 3846361466,
      "lat": 12.9751457,
      "lon": 77.6148806,
      "tags": {
        "amenity": "fast_food",
        "cuisine": "snacks",
        "level": "0",
        "name": "Bhaiya Ji Food Court"
      }
    },
    {
      "type": "node",
      "id": 3846361467,
      "lat": 12.9751333,
      "lon": 77.6149534,
      "tags": {
        "amenity": "fast_food",
        "level": "1",
        "name": "Vibhas"
      }
    },
    {
      "type": "node",
      "id": 3846361468,
      "lat": 12.9751349,
      "lon": 77.6149697,
      "tags": {
        "amenity": "fast_food",
        "level": "0",
        "name": "MumbaiStyle"
      }
    },
    {
      "type": "node",
      "id": 3846365180,
      "lat": 12.9750968,
      "lon": 77.6150804,
      "tags": {
        "level": "1",
        "name": "Page3",
        "shop": "books"
      }
    },
    {
      "type": "node",
      "id": 3846365181,
      "lat": 12.975092,
      "lon": 77.6151016,
      "tags": {
        "amenity": "bureau_de_change",
        "level": "0",
        "name": "UAE XChange"
      }
    },
    {
      "type": "node",
      "id": 3846365474,
      "lat": 12.9750841,
      "lon": 77.615139,
      "tags": {
        "amenity": "toilets",
        "level": "1",
        "male": "yes",
        "name": "Gents Toilet"
      }
    },
    {
      "type": "node",
      "id": 3846368540,
      "lat": 12.9748952,
      "lon": 77.6153654,
      "tags": {
        "amenity": "restaurant",
        "level": "5",
        "name": "Paparazzi"
      }
    },
    {
      "type": "node",
      "id": 3846368541,
      "lat": 12.9748429,
      "lon": 77.6153686,
      "tags": {
        "amenity": "cafe",
        "name": "Pinxx"
      }
    },
    {
      "type": "node",
      "id": 3862580459,
      "lat": 12.9736889,
      "lon": 77.6112977,
      "tags": {
        "amenity": "cafe",
        "brand": "Cafe Coffee Day",
        "brand:wikidata": "Q5017235",
        "cuisine": "coffee_shop",
        "level": "0",
        "name": "Cafe Coffee Day",
        "name:kn": "ಕಫೆ ಕಾಫಿ ಡೇ",
        "takeaway": "yes"
      }
    },
    {
      "type": "node",
      "id": 3939412758,
      "lat": 12.9816001,
      "lon": 77.6101732,
      "tags": {
        "addr:street": "Commercial Street",
        "name": "Wrangler",
        "name:kn": "ರಾಂಗ್ಲರ್",
        "shop": "clothes"
      }
    },
    {
      "type": "node",
      "id": 3939412759,
      "lat": 12.9819526,
      "lon": 77.6103232,
      "tags": {
        "addr:street": "Kamaraj Road",
        "level": "1",
        "name": "Moksh Studio",
        "shop": "clothes"
      }
    },
    {
      "type": "node",
      "id": 3939454857,
      "lat": 12.9817301,
      "lon": 77.6104468,
      "tags": {
        "addr:street": "Kamaraj Road",
        "level": "0",
        "name": "Moksh",
        "shop": "clothes"
      }
    },
    {
      "type": "node",
      "id": 4307608188,
      "lat": 12.9728321,
      "lon": 77.6111241,
      "tags": {
        "amenity": "bank",
        "atm": "yes",
        "brand": "ICICI Bank",
        "brand:wikidata": "Q1653258",
        "name": "ICICI Bank",
        "name:en": "ICICI Bank",
        "name:kn": "ಐಸಿಐಸಿಐ ಬ್ಯಾಂಕು",
        "short_name": "ICICI",
        "website": "https://www.icicibank.com"
      }
    },
    {
      "type": "node",
      "id": 4463865291,
      "lat": 12.9737462,
      "lon": 77.6193171,
      "tags": {
        "addr:postcode": "560001",
        "addr:street": "Naveen Complex Building,MG Road",
        "amenity": "bank",
        "brand": "Canara Bank",
        "brand:en": "Canara Bank",
        "brand:hi": "केनरा बैंक",
        "brand:kn": "ಕೆನರಾ ಬ್ಯಾಂಕ್",
        "brand:pa": "ਕੇਨਰਾ ਬੈਂਕ",
        "brand:pnb": "کینرا بینک",
        "brand:ur": "کینرا بینک",
        "brand:wikidata": "Q2003777",
        "brand:wikipedia": "en:Canara Bank",
        "brand:wikipedia:pa": "ਕੇਨਰਾ ਬੈਂਕ",
        "name": "Canara Bank",
        "name:en": "Canara Bank",
        "name:hi": "केनरा बैंक",
        "name:kn": "ಕೆನರಾ ಬ್ಯಾಂಕ್",
        "name:pa": "ਕੇਨਰਾ ਬੈਂਕ",
        "name:pnb": "کینرا بینک",
        "name:ur": "کینرا بینک",
        "opening_hours": "Mo-Sa 22:00-06:00",
        "website": "https://www.canarabank.com/"
      }
    },
    {
      "type": "node",
      "id": 4488087436,
      "lat": 12.9761039,
      "lon": 77.6267652,
      "tags": {
        "addr:city": "Bangalore",
        "addr:housenumber": "132",
        "addr:postcode": "560008",
        "addr:street": "Swamy Vivekananda Road (Old Madras Road), Kadiranapalya, Indira Nagar",
        "name": "RR Cycles",
        "opening_hours": "11:00-21:00",
        "phone": "080 4113 4142",
        "shop": "sports"
      }
    },
    {
      "type": "node",
      "id": 4489106086,
      "lat": 12.9736655,
      "lon": 77.6203864,
      "tags": {
        "addr:city": "Bangalore",
        "addr:housenumber": "1",
        "addr:postcode": "560008",
        "addr:street": "Swami Vivekanand Road, Bhadrappa Layout, Someshwarpura, Ulsoor",
        "name": "Manchester United Store",
        "opening_hours": "10:00-21:30",
        "phone": "080 3256 9278",
        "shop": "sports",
        "website": "https://www.manutd.com/"
      }
    },
    {
      "type": "node",
      "id": 4489180444,
      "lat": 12.9825245,
      "lon": 77.6235846,
      "tags": {
        "addr:city": "bangalore",
        "addr:postcode": "560008",
        "addr:street": "A1, Silver Oaks, Kensington Cross Road, Ulsoor, Kensington Gardens, Kalhalli, Ulsoor",
        "name": "Zeven",
        "opening_hours": "10:00-21:30",
        "phone": "080 4170 9090",
        "shop": "sports",
        "website": "zevenworld.com"
      }
    },
    {
      "type": "node",
      "id": 4489327813,
      "lat": 12.9811097,
      "lon": 77.6099,
      "tags": {
        "addr:city": "Bangalore",
        "addr:housenumber": "300",
        "addr:postcode": "560042",
        "addr:street": "Vishnu Complex, Near-Meg Centre, Kamaraj Road",
        "name": "South Indian Sports Industries",
        "opening_hours": "08025589788",
        "shop": "sports"
      }
    },
    {
      "type": "node",
      "id": 4489922811,
      "lat": 12.9733578,
      "lon": 77.6218193,
      "tags": {
        "addr:city": "Bangalore",
        "addr:postcode": "560001",
        "addr:street": "Swami Vivekanand Road, MG Road, Trinity Circle, Someshwarpura",
        "name": "Lakme Salon",
        "opening_hours": "10:00-20:00",
        "phone": "080 2208 6677",
        "shop": "beauty",
        "website": "https://lakmeindia.com/"
      }
    },
    {
      "type": "node",
      "id": 4809112928,
      "lat": 12.9737963,
      "lon": 77.6218675,
      "tags": {
        "amenity": "parking_entrance"
      }
    },
    {
      "type": "node",
      "id": 4810078627,
      "lat": 12.9732081,
      "lon": 77.6218855,
      "tags": {
        "amenity": "parking_entrance"
      }
    },
    {
      "type": "node",
      "id": 4832473456,
      "lat": 12.9759486,
      "lon": 77.6253838,
      "tags": {
        "addr:city": "Bangalore",
        "addr:postcode": "560008",
        "addr:street": "Car Street",
        "amenity": "bank",
        "atm": "yes",
        "brand": "Indian Bank",
        "brand:wikidata": "Q2003789",
        "brand:wikipedia": "en:Indian Bank",
        "check_date": "2024-03-05",
        "name": "Indian Bank",
        "name:en": "Indian Bank",
        "name:kn": "ಇಂಡಿಯನ್ ಬ್ಯಾಂಕ್",
        "operator": "Indian Bank",
        "website": "https://www.indianbank.in/"
      }
    },
    {
      "type": "node",
      "id": 4834488421,
      "lat": 12.9759801,
      "lon": 77.6252681,
      "tags": {
        "addr:postcode": "560008",
        "addr:street": "car street",
        "amenity": "restaurant",
        "name": "Udupi Vaibhav",
        "name:en": "Udupi Vaibhav"
      }
    },
    {
      "type": "node",
      "id": 4840185929,
      "lat": 12.9738255,
      "lon": 77.6262686,
      "tags": {
        "amenity": "toilets"
      }
    },
    {
      "type": "node",
      "id": 4840186222,
      "lat": 12.9753996,
      "lon": 77.6223913,
      "tags": {
        "amenity": "pharmacy",
        "healthcare": "pharmacy",
        "name": "Suneel Pharma",
        "name:en": "Suneel Pharma"
      }
    },
    {
      "type": "node",
      "id": 4844863355,
      "lat": 12.983464,
      "lon": 77.6135965,
      "tags": {
        "amenity": "school",
        "name": "BKS",
        "name:en": "BKS"
      }
    },
    {
      "type": "node",
      "id": 4844863387,
      "lat": 12.9791268,
      "lon": 77.6154453,
      "tags": {
        "amenity": "clinic",
        "check_date": "2025-05-09",
        "name": "Medical Center",
        "name:en": "Medical Center"
      }
    },
    {
      "type": "node",
      "id": 4844865037,
      "lat": 12.985305,
      "lon": 77.6152381,
      "tags": {
        "amenity": "cafe",
        "name": "Pepper Cafe",
        "name:en": "Pepper Cafe"
      }
    },
    {
      "type": "node",
      "id": 4844865038,
      "lat": 12.9841388,
      "lon": 77.6142655,
      "tags": {
        "amenity": "restaurant",
        "name": "Tasty food corner",
        "name:en": "Tasty food corner"
      }
    },
    {
      "type": "node",
      "id": 4846787926,
      "lat": 12.9755275,
      "lon": 77.6179176,
      "tags": {
        "amenity": "bank",
        "brand": "BNP Paribas",
        "brand:wikidata": "Q499707",
        "brand:wikipedia": "en:BNP Paribas",
        "name": "BNP Paribas",
        "name:en": "BNP PARIBAS"
      }
    },
    {
      "type": "node",
      "id": 4846787927,
      "lat": 12.9750488,
      "lon": 77.6181385,
      "tags": {
        "name": "The travel company",
        "name:en": "The travel company",
        "shop": "travel_agency"
      }
    },
    {
      "type": "node",
      "id": 4846789724,
      "lat": 12.9749189,
      "lon": 77.6185055,
      "tags": {
        "amenity": "bank",
        "brand": "HDFC Bank",
        "brand:wikidata": "Q631047",
        "name": "HDFC Bank",
        "name:en": "HDFC Bank",
        "name:kn": "ಎಚ್ ಡಿ ಎಫ್ ಸಿ",
        "short_name": "HDFC"
      }
    },
    {
      "type": "node",
      "id": 4846789824,
      "lat": 12.9749455,
      "lon": 77.6197537,
      "tags": {
        "amenity": "school",
        "name": "Purvankara academy of excellence",
        "name:en": "Purvankara academy of excellence"
      }
    },
    {
      "type": "node",
      "id": 4846789825,
      "lat": 12.9756503,
      "lon": 77.6170739,
      "tags": {
        "amenity": "cafe",
        "name": "The French Loaf",
        "name:en": "The French Loaf"
      }
    },
    {
      "type": "node",
      "id": 4846817422,
      "lat": 12.9746129,
      "lon": 77.6193934,
      "tags": {
        "addr:city": "Bengaluru",
        "addr:country": "IN",
        "addr:floor": "G",
        "addr:postcode": "560008",
        "addr:street": "Halasuru Road",
        "addr:suburb": "Ulsoor",
        "air_conditioning": "yes",
        "amenity": "cafe",
        "bar": "no",
        "check_date": "2025-01-11",
        "contact:instagram": "@marzipan.cafe",
        "cuisine": "greek",
        "delivery": "yes",
        "email": "marzipan.ulsoor@gmail.com",
        "level": "0",
        "name": "Marzipan Cafe",
        "name:en": "Marzipan Cafe",
        "outdoor_seating": "yes",
        "payment:cash": "yes",
        "payment:credit_cards": "yes",
        "payment:debit_cards": "yes",
        "phone": "9844422724",
        "shop": "bakery",
        "takeaway": "yes",
        "wheelchair": "no"
      }
    },
    {
      "type": "node",
      "id": 4846817423,
      "lat": 12.9725684,
      "lon": 77.6205679,
      "tags": {
        "amenity": "dentist",
        "name": "Ridgetop dental",
        "name:en": "Ridgetop dental"
      }
    },
    {
      "type": "node",
      "id": 4847295222,
      "lat": 12.9813936,
      "lon": 77.6103946,
      "tags": {
        "brand": "Metro",
        "brand:wikidata": "Q16938284",
        "name": "Metro",
        "name:en": "Metro",
        "shop": "shoes"
      }
    },
    {
      "type": "node",
      "id": 4847296025,
      "lat": 12.9817082,
      "lon": 77.6100809,
      "tags": {
        "name": "Golden touch",
        "name:en": "Golden touch",
        "shop": "clothes"
      }
    },
    {
      "type": "node",
      "id": 4847296026,
      "lat": 12.9812017,
      "lon": 77.6102018,
      "tags": {
        "name": "Ramson",
        "name:en": "Ramson",
        "shop": "optician"
      }
    },
    {
      "type": "node",
      "id": 4847297821,
      "lat": 12.9812894,
      "lon": 77.610261,
      "tags": {
        "brand": "Metro",
        "brand:wikidata": "Q16938284",
        "name": "Metro",
        "shop": "shoes",
        "wheelchair": "no"
      }
    },
    {
      "type": "node",
      "id": 4859042821,
      "lat": 12.9754695,
      "lon": 77.6258473,
      "tags": {
        "addr:postcode": "560008",
        "addr:street": "Swamy Vivekananda Road (Old Madras Road)",
        "name": "Sharada stores",
        "name:en": "Sharada stores",
        "shop": "books"
      }
    },
    {
      "type": "node",
      "id": 5524163946,
      "lat": 12.9737445,
      "lon": 77.62041,
      "tags": {
        "amenity": "cafe",
        "level": "5",
        "name": "Cafe Felix"
      }
    },
    {
      "type": "node",
      "id": 5599537622,
      "lat": 12.973347,
      "lon": 77.6217445,
      "tags": {
        "addr:city": "Bangalore",
        "addr:housenumber": "0",
        "addr:postcode": "560008",
        "addr:street": "Ground floor Lido mall",
        "amenity": "fast_food",
        "brand": "McDonald's",
        "brand:pa": "ਮੈਕਡੋਨਲਡ’ਜ਼",
        "brand:ur": "مکڈونلڈز",
        "brand:wikidata": "Q38076",
        "brand:wikipedia": "en:McDonald's",
        "brand:wikipedia:pa": "ਮੈਕਡੋਨਲਡ’ਜ਼",
        "brand:wikipedia:ur": "مکڈونلڈز",
        "cuisine": "burger",
        "name": "McDonald's",
        "name:kn": "ಮ್ಯಾಕ್‌ಡೊನಾಲ್ಡ್ಸ್",
        "name:pa": "ਮੈਕਡੋਨਲਡ’ਜ਼",
        "name:ur": "مکڈونلڈز",
        "takeaway": "yes",
        "wheelchair": "yes"
      }
    },
    {
      "type": "node",
      "id": 5644430289,
      "lat": 12.9805392,
      "lon": 77.6155421,
      "tags": {
        "amenity": "place_of_worship",
        "name": "Shiva Temple",
        "name:kn": "ಶಿವ ದೇವಸ್ಥಾನ",
        "religion": "hindu"
      }
    },
    {
      "type": "node",
      "id": 5645889421,
      "lat": 12.9752413,
      "lon": 77.6247184,
      "tags": {
        "addr:housenumber": "57",
        "addr:street": "Bazaar Stree",
        "name": "Sri Guru Sweet Mart",
        "shop": "confectionery"
      }
    },
    {
      "type": "node",
      "id": 5645889422,
      "lat": 12.9754304,
      "lon": 77.6246612,
      "tags": {
        "name": "Kingdom Garments",
        "shop": "clothes"
      }
    },
    {
      "type": "node",
      "id": 5645889521,
      "lat": 12.9753605,
      "lon": 77.6246523,
      "tags": {
        "name": "Baby Doll Fashions",
        "shop": "clothes"
      }
    },
    {
      "type": "node",
      "id": 5645889621,
      "lat": 12.9752623,
      "lon": 77.6246355,
      "tags": {
        "addr:housenumber": "1",
        "addr:street": "Bazaar Street",
        "name": "Shoppee Paradise",
        "shop": "clothes"
      }
    },
    {
      "type": "node",
      "id": 5645919621,
      "lat": 12.9754599,
      "lon": 77.6247364,
      "tags": {
        "name": "Varalakshmi Dry Cleaners",
        "shop": "dry_cleaning"
      }
    },
    {
      "type": "node",
      "id": 5714945190,
      "lat": 12.9721029,
      "lon": 77.6193559,
      "tags": {
        "amenity": "bank",
        "branch": "CAB Bangalore Branch",
        "brand": "State Bank of India",
        "brand:wikidata": "Q1340361",
        "name": "State Bank of India",
        "name:kn": "ಎಸ್ ಬಿ ಐ",
        "short_name": "SBI"
      }
    },
    {
      "type": "node",
      "id": 5715341021,
      "lat": 12.9804586,
      "lon": 77.6120274,
      "tags": {
        "brand": "Kalyan Jewellers",
        "brand:wikidata": "Q6354854",
        "name": "Kalyan Jewellers",
        "shop": "jewelry",
        "wheelchair": "no"
      }
    },
    {
      "type": "node",
      "id": 5715357721,
      "lat": 12.9806502,
      "lon": 77.6115927,
      "tags": {
        "brand": "Malabar Gold and Diamonds",
        "brand:wikidata": "Q60748883",
        "name": "Malabar Gold and Diamonds",
        "shop": "jewelry"
      }
    },
    {
      "type": "node",
      "id": 5715505122,
      "lat": 12.9805281,
      "lon": 77.6112189,
      "tags": {
        "amenity": "place_of_worship",
        "name": "Vadamoola Ganapathy Temple",
        "religion": "hindu"
      }
    },
    {
      "type": "node",
      "id": 5715589841,
      "lat": 12.9828259,
      "lon": 77.611741,
      "tags": {
        "amenity": "place_of_worship",
        "name": "Sri Dakshinamoorthy Temple",
        "name:kn": "ದಕ್ಷಿಣಮೂರ್ತಿ ದೇವಸ್ಥಾನ",
        "religion": "hindu"
      }
    },
    {
      "type": "node",
      "id": 5715589842,
      "lat": 12.9752206,
      "lon": 77.6221318,
      "tags": {
        "amenity": "place_of_worship",
        "name": "Sri Pan Perumal Temple",
        "religion": "hindu"
      }
    },
    {
      "type": "node",
      "id": 5715589843,
      "lat": 12.9754837,
      "lon": 77.6229882,
      "tags": {
        "amenity": "place_of_worship",
        "name": "Anjaneya Swamy Temple",
        "name:kn": "ಆಂಜನೇಯಸ್ವಾಮಿ ದೇವಸ್ಥಾನ",
        "religion": "hindu"
      }
    },
    {
      "type": "node",
      "id": 6246844931,
      "lat": 12.973506,
      "lon": 77.6113148,
      "tags": {
        "amenity": "restaurant",
        "level": "5",
        "name": "Salvadores",
        "outdoor_seating": "yes",
        "phone": "080 49653492",
        "toilets": "yes"
      }
    },
    {
      "type": "node",
      "id": 6398517993,
      "lat": 12.9702258,
      "lon": 77.6146582,
      "tags": {
        "alt_name": "Portland Grill and Cafe",
        "amenity": "restaurant",
        "check_date": "2024-02-07",
        "name": "Portland",
        "old_name": "Portland Steakhouse"
      }
    },
    {
      "type": "node",
      "id": 6453978785,
      "lat": 12.978438,
      "lon": 77.6229537,
      "tags": {
        "amenity": "place_of_worship",
        "name": "Sri Panchamukhi Ganesh Temple",
        "religion": "hindu"
      }
    },
    {
      "type": "node",
      "id": 6454509103,
      "lat": 12.9756177,
      "lon": 77.6233864,
      "tags": {
        "amenity": "post_office",
        "name": "Halasuru Bazaar"
      }
    },
    {
      "type": "node",
      "id": 6583723603,
      "lat": 12.9752019,
      "lon": 77.6247748,
      "tags": {
        "addr:city": "Bangalore",
        "addr:housenumber": "58",
        "addr:street": "Bazaar Steet, Ulsoor",
        "clothes": "women;children;men;babies;fashion;lingerie",
        "name": "Stylo garments",
        "operator": "Fasal",
        "shop": "clothes"
      }
    },
    {
      "type": "node",
      "id": 6819843991,
      "lat": 12.9777864,
      "lon": 77.617985,
      "tags": {
        "addr:city": "Bangalore",
        "addr:housenumber": "46",
        "addr:postcode": "560042",
        "addr:street": "3rd Cross Road",
        "name": "Jasmine's Beauty Salon",
        "phone": "+91 80 2559 2498",
        "shop": "hairdresser"
      }
    },
    {
      "type": "node",
      "id": 6938864303,
      "lat": 12.976032,
      "lon": 77.6254061,
      "tags": {
        "addr:district": "Bengaluru Urban",
        "addr:full": "CGHS Dispensary No.4, Ulsoor No.27, Car StreetUlsoor",
        "addr:postcode": "560004",
        "addr:state": "Karnataka",
        "amenity": "clinic",
        "health_facility:type": "dispensary",
        "healthcare": "centre",
        "name": "CGHS Dispensary No.4",
        "operator:type": "government",
        "source": "OpenGovernmentData",
        "website": "http://nb.bsf.gov.in/CGHS%20DIspenseries.pdf"
      }
    },
    {
      "type": "node",
      "id": 6944239588,
      "lat": 12.9825845,
      "lon": 77.6124926,
      "tags": {
        "addr:district": "Bengaluru Urban",
        "addr:full": "22/70, St. John`S Road, (Opposite R B A N M S Ground)",
        "addr:postcode": "560042",
        "addr:state": "Karnataka",
        "amenity": "hospital",
        "name": "Manjushree Speciality Hospital",
        "source": "OpenGovernmentData"
      }
    },
    {
      "type": "node",
      "id": 6944418996,
      "lat": 12.975802,
      "lon": 77.6184806,
      "tags": {
        "addr:district": "Bengaluru Urban",
        "addr:full": "No.1 Haudin Road, Off Ulsoor Road",
        "addr:postcode": "560042",
        "addr:state": "Karnataka",
        "amenity": "hospital",
        "name": "Nikad Ortho Centre",
        "source": "OpenGovernmentData"
      }
    },
    {
      "type": "node",
      "id": 7178597795,
      "lat": 12.973545,
      "lon": 77.6204172,
      "tags": {
        "addr:city": "Bengaluru",
        "addr:country": "IN",
        "addr:hamlet": "Ulsoor",
        "addr:housenumber": "1MG Mall",
        "addr:postcode": "560008",
        "addr:street": "Mahatma Gandhi Road",
        "amenity": "cafe",
        "name": "Food Hall",
        "website": "https://www.foodhallonline.com/"
      }
    },
    {
      "type": "node",
      "id": 7184126229,
      "lat": 12.9759778,
      "lon": 77.6262092,
      "tags": {
        "name": "Track & Trail",
        "shop": "bicycle"
      }
    },
    {
      "type": "node",
      "id": 7220694771,
      "lat": 12.9731121,
      "lon": 77.6111799,
      "tags": {
        "access": "customers",
        "amenity": "parking_entrance",
        "fee": "yes",
        "parking": "underground"
      }
    },
    {
      "type": "node",
      "id": 7572526740,
      "lat": 12.9761401,
      "lon": 77.6227086,
      "tags": {
        "addr:district": "Bengaluru Urban",
        "addr:full": "Someshwarpura, Halasuru, Bengaluru",
        "addr:postcode": "560008",
        "addr:state": "Karnataka",
        "amenity": "dentist",
        "name": "Dhyan Dental Care",
        "source": "Local Knowledge"
      }
    },
    {
      "type": "node",
      "id": 7572526746,
      "lat": 12.9767057,
      "lon": 77.6229194,
      "tags": {
        "addr:district": "Bengaluru Urban",
        "addr:full": "Someshwarpura, Halasuru, Bengaluru",
        "addr:postcode": "560008",
        "addr:state": "Karnataka",
        "amenity": "clinic",
        "name": "Ghagare Health Care Clinic",
        "source": "Local Knowledge"
      }
    },
    {
      "type": "node",
      "id": 7572526788,
      "lat": 12.975488,
      "lon": 77.615338,
      "tags": {
        "addr:district": "Bengaluru Urban",
        "addr:full": "Yellappa Garden, Yellappa Chetty Layout, Halasuru, Bengaluru",
        "addr:postcode": "560001",
        "addr:state": "Karnataka",
        "amenity": "dentist",
        "healthcare": "dentist",
        "name": "Bluetooth Dental Clinic",
        "source": "Local Knowledge"
      }
    },
    {
      "type": "node",
      "id": 8143836838,
      "lat": 12.9771467,
      "lon": 77.6172628,
      "tags": {
        "addr:city": "Bangalore",
        "addr:housenumber": "17, Hanumanthappa Layout Rd",
        "addr:postcode": "560042",
        "addr:street": "Hanumanthappa Layout, Sivanchetti Gardens, Halasuru, Karnataka 560042",
        "name": "Tinge Custom Makeup Studio",
        "organic": "only",
        "shop": "supermarket",
        "website": "https://tingestore.com/"
      }
    },
    {
      "type": "node",
      "id": 8220809198,
      "lat": 12.9840602,
      "lon": 77.6173267,
      "tags": {
        "addr:city": "Bangalore",
        "addr:street": "Annaswamy Mudaliar Road",
        "clothes": "women;children",
        "fair_trade": "yes",
        "name": "Ambara",
        "organic": "yes",
        "shop": "clothes"
      }
    },
    {
      "type": "node",
      "id": 8442476341,
      "lat": 12.9723871,
      "lon": 77.6185557,
      "tags": {
        "name": "Aubree",
        "shop": "bakery"
      }
    },
    {
      "type": "node",
      "id": 8442476342,
      "lat": 12.9723374,
      "lon": 77.6187616,
      "tags": {
        "addr:city": "Bengaluru",
        "addr:hamlet": "Craig Park Layout",
        "addr:housename": "Ramanashree Arcade",
        "addr:postcode": "560001",
        "addr:street": "Mahatma Gandhi Road",
        "addr:suburb": "Ashok Nagar",
        "amenity": "restaurant",
        "capacity": "41",
        "contact:facebook": "comal.india",
        "contact:instagram": "comal.in",
        "cuisine": "mexican",
        "delivery": "no",
        "name": "Comal",
        "opening_hours": "Tu-Su 12:00-15:00,19:00-22:30",
        "outdoor_seating": "no",
        "phone": "+91 8123240555",
        "reservation": "required",
        "start_date": "06-12-2024",
        "takeaway": "no"
      }
    },
    {
      "type": "node",
      "id": 9214580822,
      "lat": 12.9731876,
      "lon": 77.6121868,
      "tags": {
        "amenity": "community_centre",
        "name": "Freemasons Hall"
      }
    },
    {
      "type": "node",
      "id": 9230655242,
      "lat": 12.974222,
      "lon": 77.6099405,
      "tags": {
        "amenity": "post_office",
        "name": "India Post",
        "operator": "India Post",
        "operator:wikidata": "Q3519720"
      }
    },
    {
      "type": "node",
      "id": 9230655252,
      "lat": 12.9704954,
      "lon": 77.6169705,
      "tags": {
        "name": "Ashas Store",
        "shop": "convenience"
      }
    },
    {
      "type": "node",
      "id": 9230655278,
      "lat": 12.9722238,
      "lon": 77.6192451,
      "tags": {
        "name": "Saboo Collections",
        "shop": "clothes"
      }
    },
    {
      "type": "node",
      "id": 9230655289,
      "lat": 12.972361,
      "lon": 77.6186442,
      "tags": {
        "air_conditioning": "yes",
        "amenity": "restaurant",
        "cuisine": "regional",
        "diet:vegetarian": "yes",
        "indoor_seating": "yes",
        "name": "Dindigul Thalappakatti",
        "outdoor_seating": "no",
        "smoking": "no"
      }
    },
    {
      "type": "node",
      "id": 9230655290,
      "lat": 12.9723446,
      "lon": 77.618718,
      "tags": {
        "amenity": "restaurant",
        "cuisine": "italian",
        "name": "Chianti"
      }
    },
    {
      "type": "node",
      "id": 9230655291,
      "lat": 12.9723937,
      "lon": 77.6184551,
      "tags": {
        "addr:floor": "G",
        "air_conditioning": "yes",
        "amenity": "cafe",
        "bar": "no",
        "brand": "Starbucks",
        "brand:pa": "ਸਟਾਰਬਕਸ",
        "brand:ur": "اسٹاربکس",
        "brand:wikidata": "Q37158",
        "brand:wikipedia": "en:Starbucks",
        "capacity": "50",
        "check_date": "2024-06-23",
        "cuisine": "coffee_shop",
        "indoor_seating": "yes",
        "internet_access": "wlan",
        "internet_access:fee": "customers",
        "level": "0",
        "name": "Starbucks",
        "name:pa": "ਸਟਾਰਬਕਸ",
        "name:ur": "اسٹاربکس",
        "official_name": "Starbucks Coffee",
        "official_name:pa": "ਸਟਾਰਬਕਸ ਕੌਫੀ",
        "official_name:ur": "اسٹاربکس کافی",
        "outdoor_seating": "no",
        "payment:cash": "yes",
        "payment:mastercard": "yes",
        "payment:visa": "yes",
        "takeaway": "yes",
        "toilets": "yes"
      }
    },
    {
      "type": "node",
      "id": 9230655292,
      "lat": 12.9723584,
      "lon": 77.6183143,
      "tags": {
        "amenity": "fast_food"
      }
    },
    {
      "type": "node",
      "id": 9656382523,
      "lat": 12.9850818,
      "lon": 77.616241,
      "tags": {
        "amenity": "place_of_worship",
        "religion": "jain"
      }
    },
    {
      "type": "node",
      "id": 9672296508,
      "lat": 12.9811568,
      "lon": 77.6141516,
      "tags": {
        "amenity": "cafe",
        "delivery": "yes",
        "name": "Maverick and Farmer Coffee",
        "outdoor_seating": "yes",
        "takeaway": "yes",
        "website": "https://www.maverickandfarmer.com/"
      }
    },
    {
      "type": "node",
      "id": 9672296514,
      "lat": 12.9821075,
      "lon": 77.6157676,
      "tags": {
        "access": "yes",
        "amenity": "toilets"
      }
    },
    {
      "type": "node",
      "id": 9796145350,
      "lat": 12.9812956,
      "lon": 77.6126653,
      "tags": {
        "name": "Museum of Art and Photography",
        "shop": "variety_store"
      }
    },
    {
      "type": "node",
      "id": 9796145351,
      "lat": 12.9814384,
      "lon": 77.6126649,
      "tags": {
        "addr:city": "Bangalore",
        "addr:country": "IN",
        "addr:housenumber": "24",
        "addr:postcode": "560042",
        "addr:street": "Gangadhar Chetty Road",
        "contact:facebook": "cinnamonthestore",
        "contact:instagram": "cinnamonthestore",
        "email": "cinnamon_blr@yahoo.com",
        "name": "Cinnamon",
        "phone": "(+91) 9972813015",
        "shop": "boutique",
        "website": "https://www.cinnamonthestore.in/"
      }
    },
    {
      "type": "node",
      "id": 9796145357,
      "lat": 12.98131,
      "lon": 77.612613,
      "tags": {
        "amenity": "cafe",
        "name": "Cafe Stone",
        "outdoor_seating": "yes"
      }
    },
    {
      "type": "node",
      "id": 9796232684,
      "lat": 12.9697498,
      "lon": 77.6158132,
      "tags": {
        "amenity": "community_centre",
        "name": "Mother Tekla Auditorium"
      }
    },
    {
      "type": "node",
      "id": 9796232686,
      "lat": 12.9723773,
      "lon": 77.6165146,
      "tags": {
        "craft": "handicraft",
        "name": "State Cauvery Emporium",
        "shop": "craft"
      }
    },
    {
      "type": "node",
      "id": 9796232689,
      "lat": 12.971867,
      "lon": 77.6149549,
      "tags": {
        "name": "Family Shopping Mart",
        "shop": "supermarket"
      }
    },
    {
      "type": "node",
      "id": 9796232690,
      "lat": 12.9718657,
      "lon": 77.6144747,
      "tags": {
        "name": "Varana",
        "shop": "boutique"
      }
    },
    {
      "type": "node",
      "id": 9796232706,
      "lat": 12.979043,
      "lon": 77.6151383,
      "tags": {
        "amenity": "waste_basket"
      }
    },
    {
      "type": "node",
      "id": 9811346733,
      "lat": 12.9745892,
      "lon": 77.6196447,
      "tags": {
        "amenity": "bank",
        "atm": "yes",
        "brand": "Union Bank of India",
        "brand:wikidata": "Q2004078",
        "name": "Union Bank of India",
        "name:kn": "ಯೂನಿಯನ್ ಬ್ಯಾಂಕ್",
        "operator": "Union Bank of India"
      }
    },
    {
      "type": "node",
      "id": 9811346734,
      "lat": 12.9749146,
      "lon": 77.619237,
      "tags": {
        "amenity": "waste_basket"
      }
    },
    {
      "type": "node",
      "id": 9811346735,
      "lat": 12.975044,
      "lon": 77.6191498,
      "tags": {
        "amenity": "fast_food",
        "name": "Lassi Corner"
      }
    },
    {
      "type": "node",
      "id": 9811346745,
      "lat": 12.9749198,
      "lon": 77.6187354,
      "tags": {
        "amenity": "waste_basket"
      }
    },
    {
      "type": "node",
      "id": 9811346746,
      "lat": 12.9751054,
      "lon": 77.618203,
      "tags": {
        "amenity": "waste_basket"
      }
    },
    {
      "type": "node",
      "id": 9811346754,
      "lat": 12.9754377,
      "lon": 77.6175464,
      "tags": {
        "amenity": "waste_basket"
      }
    },
    {
      "type": "node",
      "id": 9811346759,
      "lat": 12.9756687,
      "lon": 77.6168136,
      "tags": {
        "amenity": "waste_basket"
      }
    },
    {
      "type": "node",
      "id": 9811346763,
      "lat": 12.9759438,
      "lon": 77.6160009,
      "tags": {
        "amenity": "waste_basket"
      }
    },
    {
      "type": "node",
      "id": 9811346770,
      "lat": 12.9737084,
      "lon": 77.6204856,
      "tags": {
        "access": "yes",
        "amenity": "toilets",
        "fee": "no",
        "female": "yes"
      }
    },
    {
      "type": "node",
      "id": 9811346771,
      "lat": 12.973741,
      "lon": 77.6204869,
      "tags": {
        "access": "yes",
        "amenity": "toilets",
        "fee": "no",
        "male": "yes"
      }
    },
    {
      "type": "node",
      "id": 9811360820,
      "lat": 12.9760189,
      "lon": 77.6148006,
      "tags": {
        "amenity": "restaurant",
        "cuisine": "regional",
        "delivery": "yes",
        "name": "Paakashala",
        "name:kn": "ಪಾಕಶಾಲೆ",
        "takeaway": "yes"
      }
    },
    {
      "type": "node",
      "id": 9811360821,
      "lat": 12.9759889,
      "lon": 77.6151466,
      "tags": {
        "name": "PC Chandra Jewellers",
        "shop": "jewelry"
      }
    },
    {
      "type": "node",
      "id": 9811371638,
      "lat": 12.9750407,
      "lon": 77.6199867,
      "tags": {
        "amenity": "pub",
        "name": "Night Owl Sky Lounge"
      }
    },
    {
      "type": "node",
      "id": 9952687935,
      "lat": 12.9734315,
      "lon": 77.6112855,
      "tags": {
        "addr:city": "Bengaluru",
        "addr:housenumber": "47/48",
        "addr:postcode": "560025",
        "addr:street": "Residency Road",
        "name": "Star Bazaar",
        "opening_hours": "Mo-Fr 11:30-21:30; Sa-Su 11:00-22:00",
        "shop": "mall"
      }
    },
    {
      "type": "node",
      "id": 9997962023,
      "lat": 12.9810667,
      "lon": 77.6139065,
      "tags": {
        "name": "Cricket Den",
        "shop": "sports"
      }
    },
    {
      "type": "node",
      "id": 10121397955,
      "lat": 12.9757484,
      "lon": 77.6226219,
      "tags": {
        "name": "Sharon",
        "shop": "tea"
      }
    },
    {
      "type": "node",
      "id": 10138074550,
      "lat": 12.9721349,
      "lon": 77.6188655,
      "tags": {
        "access": "customers",
        "amenity": "parking_entrance",
        "fee": "yes",
        "parking": "underground"
      }
    },
    {
      "type": "node",
      "id": 10138074552,
      "lat": 12.9723087,
      "lon": 77.6186288,
      "tags": {
        "brand": "Fabindia",
        "brand:wikidata": "Q5427779",
        "name": "Fabindia",
        "shop": "clothes"
      }
    },
    {
      "type": "node",
      "id": 10138074571,
      "lat": 12.972708,
      "lon": 77.6179187,
      "tags": {
        "amenity": "waste_basket"
      }
    },
    {
      "type": "node",
      "id": 10138074572,
      "lat": 12.9723799,
      "lon": 77.6175807,
      "tags": {
        "addr:city": "Bengaluru",
        "addr:country": "IN",
        "addr:housename": "Logos",
        "addr:housenumber": "206",
        "addr:postcode": "560001",
        "addr:suburb": "Ashok Nagar",
        "amenity": "coworking_space",
        "fee": "yes",
        "name": "IndiQube Logos",
        "office": "coworking",
        "operator": "IndiQube"
      }
    },
    {
      "type": "node",
      "id": 10280759751,
      "lat": 12.9733385,
      "lon": 77.6197399,
      "tags": {
        "amenity": "pub",
        "microbrewery": "yes",
        "name": "7 Rivers Brewing Company"
      }
    },
    {
      "type": "node",
      "id": 10294506356,
      "lat": 12.9764825,
      "lon": 77.6268299,
      "tags": {
        "amenity": "charging_station",
        "brand": "Yulu",
        "note": "This is a battery swapping station of e-bikes."
      }
    },
    {
      "type": "node",
      "id": 10727955503,
      "lat": 12.9732928,
      "lon": 77.6203649,
      "tags": {
        "addr:city": "Bangalore",
        "addr:country": "IN",
        "addr:housename": "1 MG Road Mall",
        "addr:postcode": "560008",
        "addr:street": "Mahatma Gandhi Road",
        "amenity": "restaurant",
        "contact:facebook": "YauatchaBlr",
        "contact:instagram": "yauatchabengaluru",
        "cuisine": "cantonese",
        "delivery": "yes",
        "email": "reservation.bengaluru@yauatchaindia.com",
        "level": "5",
        "name": "Yauatcha",
        "phone": "+91 922 2222800",
        "reservation": "yes",
        "website": "https://yauatcha.com/bengaluru/"
      }
    },
    {
      "type": "node",
      "id": 10753340321,
      "lat": 12.9730027,
      "lon": 77.6124148,
      "tags": {
        "addr:city": "Bengaluru",
        "addr:country": "IN",
        "addr:housename": "Shrutha Towers",
        "addr:housenumber": "19",
        "addr:postcode": "560025",
        "addr:street": "Primrose Road",
        "amenity": "coworking_space",
        "brand": "Workspring",
        "fee": "yes",
        "name": "Workspring Prime One Corp",
        "office": "coworking",
        "operator": "Workspring"
      }
    },
    {
      "type": "node",
      "id": 10873245737,
      "lat": 12.9728112,
      "lon": 77.6172247,
      "tags": {
        "name": "The Cane Joint",
        "shop": "kiosk"
      }
    },
    {
      "type": "node",
      "id": 10887396863,
      "lat": 12.9793318,
      "lon": 77.6151279,
      "tags": {
        "amenity": "college",
        "name": "Hasnath College for Women"
      }
    },
    {
      "type": "node",
      "id": 10979409747,
      "lat": 12.9850531,
      "lon": 77.6182955,
      "tags": {
        "addr:city": "Bengaluru",
        "addr:country": "IN",
        "addr:housenumber": "32",
        "addr:postcode": "560042",
        "addr:state": "Karnataka",
        "addr:street": "Annaswamy Mudaliar Road",
        "addr:suburb": "Ulsoor",
        "amenity": "cafe",
        "contact:instagram": "myurbansolace",
        "cuisine": "american",
        "name": "Urban Solace",
        "name:kn": "ಅರ್ಬನ್ ಸೊಲೇಸ್"
      }
    },
    {
      "type": "node",
      "id": 10979969450,
      "lat": 12.9730589,
      "lon": 77.6182875,
      "tags": {
        "access": "customers",
        "amenity": "parking",
        "parking": "surface"
      }
    },
    {
      "type": "node",
      "id": 10994052517,
      "lat": 12.9734392,
      "lon": 77.6203608,
      "tags": {
        "contact:instagram": "theancestrystore",
        "contact:youtube": "@theancestrystore",
        "email": "care@theancestrystore.in",
        "name": "Ancestry",
        "phone": "+91 7304477926",
        "shop": "boutique",
        "website": "https://theancestrystore.in/"
      }
    },
    {
      "type": "node",
      "id": 11035521585,
      "lat": 12.9744578,
      "lon": 77.6099425,
      "tags": {
        "amenity": "restaurant",
        "cuisine": "regional",
        "name": "Canopy Restaurant"
      }
    },
    {
      "type": "node",
      "id": 11188703538,
      "lat": 12.9738038,
      "lon": 77.6203662,
      "tags": {
        "amenity": "pub",
        "contact:instagram": "julietblr_",
        "name": "Juliet"
      }
    },
    {
      "type": "node",
      "id": 11188703539,
      "lat": 12.9731869,
      "lon": 77.6203595,
      "tags": {
        "amenity": "pub",
        "contact:instagram": "twomoonsblr",
        "name": "Two Moons",
        "phone": "+91 96203 47095"
      }
    },
    {
      "type": "node",
      "id": 11188703541,
      "lat": 12.973528,
      "lon": 77.6203608,
      "tags": {
        "amenity": "pub",
        "contact:instagram": "minxblr",
        "name": "Minx"
      }
    },
    {
      "type": "node",
      "id": 11188703545,
      "lat": 12.9714775,
      "lon": 77.618895,
      "tags": {
        "name": "Kohler",
        "shop": "kitchen"
      }
    },
    {
      "type": "node",
      "id": 11289218780,
      "lat": 12.9747794,
      "lon": 77.6199654,
      "tags": {
        "amenity": "waste_basket"
      }
    },
    {
      "type": "node",
      "id": 11304941403,
      "lat": 12.9861069,
      "lon": 77.6164486,
      "tags": {
        "access": "permissive",
        "amenity": "parking_entrance",
        "parking": "underground"
      }
    },
    {
      "type": "node",
      "id": 11304941409,
      "lat": 12.9859003,
      "lon": 77.6159611,
      "tags": {
        "access": "permissive",
        "amenity": "parking_entrance",
        "parking": "underground"
      }
    },
    {
      "type": "node",
      "id": 11385585231,
      "lat": 12.972819,
      "lon": 77.6172708,
      "tags": {
        "amenity": "atm",
        "brand": "State Bank of India",
        "brand:wikidata": "Q1340361",
        "check_date": "2023-11-30",
        "level": "1",
        "operator": "State Bank of India",
        "operator:wikidata": "Q1340361",
        "short_name": "SBI"
      }
    },
    {
      "type": "node",
      "id": 11385585232,
      "lat": 12.973092,
      "lon": 77.6166451,
      "tags": {
        "access": "customers",
        "amenity": "toilets",
        "check_date": "2023-11-30",
        "level": "1",
        "operator": "BMRCL"
      }
    },
    {
      "type": "node",
      "id": 11404712824,
      "lat": 12.9776472,
      "lon": 77.6273121,
      "tags": {
        "amenity": "pharmacy",
        "name": "Shree Raajarajeshwari Medicals & General store"
      }
    },
    {
      "type": "node",
      "id": 11473125894,
      "lat": 12.9814299,
      "lon": 77.6138657,
      "tags": {
        "leisure": "fitness_centre"
      }
    },
    {
      "type": "node",
      "id": 11530082861,
      "lat": 12.9857804,
      "lon": 77.6167848,
      "tags": {
        "addr:city": "Bengaluru",
        "addr:floor": "G",
        "addr:housenumber": "9",
        "addr:postcode": "560042",
        "addr:street": "Osbourne Road",
        "amenity": "dentist",
        "check_date": "2024-01-19",
        "email": "oralrehabilitationcenter@gmail.com",
        "healthcare": "dentist",
        "internet_access": "no",
        "mobile": "+91-7406110333",
        "name": "Oral rehabilitation center",
        "name:en": "Oral rehabilitation center",
        "name:kn": "ಒರಲ್ ರಿಹಾಬಿಲಿಟೇಶನ್ ಸೆಂಟರ್",
        "opening_hours": "Mo-Su 09:00-13:00,Mo-Su 16:00-22:00",
        "payment:cash": "yes",
        "payment:credit_cards": "yes",
        "payment:debit_cards": "yes",
        "website": "https://oralrehabilitationcenter.com/",
        "wheelchair": "limited"
      }
    },
    {
      "type": "node",
      "id": 11659385836,
      "lat": 12.9735962,
      "lon": 77.6228357,
      "tags": {
        "check_date": "2024-02-24",
        "internet_access": "no",
        "name": "Royal Dealing Office",
        "payment:cards": "no",
        "payment:cash": "yes",
        "payment:credit_cards": "no",
        "payment:debit_cards": "no",
        "shop": "motorcycle_repair",
        "wheelchair": "no"
      }
    },
    {
      "type": "node",
      "id": 11659385837,
      "lat": 12.9736597,
      "lon": 77.6229416,
      "tags": {
        "amenity": "pharmacy",
        "check_date": "2024-02-24",
        "healthcare": "pharmacy",
        "internet_access": "no",
        "name": "Pharma Point",
        "payment:cash": "yes",
        "payment:credit_cards": "yes",
        "payment:debit_cards": "yes",
        "wheelchair": "no"
      }
    },
    {
      "type": "node",
      "id": 11659393739,
      "lat": 12.9737997,
      "lon": 77.6231991,
      "tags": {
        "amenity": "bank",
        "brand": "Punjab & Sind Bank",
        "brand:en": "Punjab & Sind Bank",
        "brand:hi": "पंजाब एण्ड सिंध बैंक",
        "brand:wikidata": "Q2003302",
        "check_date": "2024-02-24",
        "internet_access": "no",
        "name": "Punjab & Sind Bank",
        "name:en": "Punjab & Sind Bank",
        "name:hi": "पंजाब एण्ड सिंध बैंक"
      }
    },
    {
      "type": "node",
      "id": 11659393740,
      "lat": 12.9737843,
      "lon": 77.6231744,
      "tags": {
        "amenity": "atm",
        "check_date": "2024-02-24",
        "currency:INR": "yes",
        "operator": "Punjab & Sind Bank ATM"
      }
    },
    {
      "type": "node",
      "id": 11659394421,
      "lat": 12.9753929,
      "lon": 77.6257352,
      "tags": {
        "check_date": "2024-02-24",
        "description": "Computerised Duplicate Keys for all types of vehicles",
        "name": "Global Key Maker",
        "shop": "locksmith"
      }
    },
    {
      "type": "node",
      "id": 11659423776,
      "lat": 12.9743258,
      "lon": 77.6240436,
      "tags": {
        "amenity": "post_office",
        "brand": "Blue Dart Express",
        "brand:short": "Blue Dart",
        "brand:wikidata": "Q54621493",
        "check_date": "2024-02-24",
        "name": "Blue Dart",
        "operator": "Blue Dart Express",
        "operator:short": "Blue Dart",
        "operator:wikidata": "Q54621493"
      }
    },
    {
      "type": "node",
      "id": 11659423777,
      "lat": 12.9743419,
      "lon": 77.6240687,
      "tags": {
        "check_date": "2024-02-24",
        "name": "MPS Arts & Crafts",
        "shop": "craft"
      }
    },
    {
      "type": "node",
      "id": 11684465147,
      "lat": 12.9776129,
      "lon": 77.6273546,
      "tags": {
        "amenity": "restaurant",
        "check_date": "2024-03-02",
        "internet_access": "no",
        "name": "Zamam's Darbaar",
        "payment:cards": "no",
        "payment:cash": "yes",
        "payment:credit_cards": "no",
        "payment:debit_cards": "no",
        "wheelchair": "no"
      }
    },
    {
      "type": "node",
      "id": 11684465148,
      "lat": 12.9775675,
      "lon": 77.6272973,
      "tags": {
        "amenity": "driving_school",
        "check_date": "2024-03-02",
        "internet_access": "no",
        "name": "Balaji Motor Driving Training School",
        "payment:cash": "yes",
        "payment:credit_cards": "yes",
        "payment:debit_cards": "yes",
        "wheelchair": "no"
      }
    },
    {
      "type": "node",
      "id": 11684501144,
      "lat": 12.9774449,
      "lon": 77.6271297,
      "tags": {
        "amenity": "hospital",
        "check_date": "2024-03-02",
        "healthcare": "hospital",
        "name": "Span Health Center"
      }
    },
    {
      "type": "node",
      "id": 11694166515,
      "lat": 12.9753427,
      "lon": 77.6255211,
      "tags": {
        "amenity": "restaurant",
        "check_date": "2024-03-05",
        "internet_access": "no",
        "name": "Sri Krishna Foodline",
        "payment:cards": "no",
        "payment:cash": "yes",
        "payment:credit_cards": "no",
        "payment:debit_cards": "no",
        "phone": "+91 95380 88881",
        "wheelchair": "no"
      }
    },
    {
      "type": "node",
      "id": 11694166516,
      "lat": 12.9753224,
      "lon": 77.6255177,
      "tags": {
        "amenity": "fast_food",
        "check_date": "2024-03-05",
        "cuisine": "juice",
        "internet_access": "no",
        "name": "Juicy Creamz",
        "payment:cards": "no",
        "payment:cash": "yes",
        "payment:credit_cards": "no",
        "payment:debit_cards": "no",
        "wheelchair": "no"
      }
    },
    {
      "type": "node",
      "id": 11694166517,
      "lat": 12.9754162,
      "lon": 77.6255638,
      "tags": {
        "check_date": "2024-03-05",
        "name": "Mahadev Kangan Store",
        "shop": "cosmetics"
      }
    },
    {
      "type": "node",
      "id": 11694166518,
      "lat": 12.9753697,
      "lon": 77.6254264,
      "tags": {
        "check_date": "2024-03-05",
        "internet_access": "no",
        "name": "Aishwarya Pranam Home Needs",
        "payment:cards": "no",
        "payment:cash": "yes",
        "payment:credit_cards": "no",
        "payment:debit_cards": "no",
        "shop": "houseware",
        "wheelchair": "no"
      }
    },
    {
      "type": "node",
      "id": 11694188673,
      "lat": 12.9760589,
      "lon": 77.6248726,
      "tags": {
        "amenity": "restaurant",
        "check_date": "2024-03-05",
        "cuisine": "chinese",
        "internet_access": "no",
        "name": "Kaati King",
        "payment:cards": "no",
        "payment:cash": "yes",
        "payment:credit_cards": "no",
        "payment:debit_cards": "no",
        "wheelchair": "no"
      }
    },
    {
      "type": "node",
      "id": 11694214521,
      "lat": 12.9761609,
      "lon": 77.6244665,
      "tags": {
        "amenity": "pharmacy",
        "check_date": "2024-03-05",
        "healthcare": "pharmacy",
        "name": "Sri Sai Med Pharma",
        "phone": "+91 98443 85199"
      }
    },
    {
      "type": "node",
      "id": 11694214522,
      "lat": 12.9761193,
      "lon": 77.6242848,
      "tags": {
        "amenity": "doctors",
        "check_date": "2024-03-05",
        "healthcare": "doctor",
        "healthcare:speciality": "dermatology",
        "name": "Dr. Sahana's Skin & Hair Clinic",
        "phone": "+91 70196 43144"
      }
    },
    {
      "type": "node",
      "id": 11694239927,
      "lat": 12.9757077,
      "lon": 77.6259807,
      "tags": {
        "amenity": "bank",
        "brand": "ESAF Small Finance Bank",
        "brand:wikidata": "Q28173964",
        "check_date": "2024-03-05",
        "internet_access": "no",
        "name": "ESAF Small Finance Bank",
        "payment:cash": "yes",
        "payment:credit_cards": "yes",
        "payment:debit_cards": "yes",
        "wheelchair": "no"
      }
    },
    {
      "type": "node",
      "id": 11694239928,
      "lat": 12.9756424,
      "lon": 77.6259639,
      "tags": {
        "check_date": "2024-03-05",
        "internet_access": "no",
        "name": "Meghdooth Suzuki",
        "payment:cash": "yes",
        "payment:credit_cards": "yes",
        "payment:debit_cards": "yes",
        "shop": "motorcycle",
        "wheelchair": "no"
      }
    },
    {
      "type": "node",
      "id": 11694239929,
      "lat": 12.9756782,
      "lon": 77.6259775,
      "tags": {
        "check_date": "2024-03-05",
        "internet_access": "no",
        "name": "Vinay Bankers",
        "payment:cash": "yes",
        "payment:credit_cards": "yes",
        "payment:debit_cards": "yes",
        "shop": "money_lender",
        "wheelchair": "no"
      }
    },
    {
      "type": "node",
      "id": 11694248757,
      "lat": 12.9771934,
      "lon": 77.6270227,
      "tags": {
        "amenity": "restaurant",
        "check_date": "2024-03-05",
        "name": "Samutara Restaurant"
      }
    },
    {
      "type": "node",
      "id": 11694248758,
      "lat": 12.9772272,
      "lon": 77.6270474,
      "tags": {
        "amenity": "restaurant",
        "check_date": "2024-03-05",
        "internet_access": "no",
        "name": "New Taj",
        "payment:cards": "no",
        "payment:cash": "yes",
        "payment:credit_cards": "no",
        "payment:debit_cards": "no",
        "wheelchair": "no"
      }
    },
    {
      "type": "node",
      "id": 11694248759,
      "lat": 12.9772465,
      "lon": 77.627059,
      "tags": {
        "amenity": "post_office",
        "brand": "Desk to Desk Courier & Cargo",
        "brand:short": "DTDC",
        "brand:wikidata": "Q55608802",
        "check_date": "2024-03-05",
        "internet_access": "no",
        "name": "DTDC",
        "operator": "Desk to Desk Courier & Cargo",
        "operator:short": "DTDC",
        "operator:wikidata": "Q55608802",
        "payment:cash": "yes",
        "payment:credit_cards": "yes",
        "payment:debit_cards": "yes",
        "wheelchair": "no"
      }
    },
    {
      "type": "node",
      "id": 11780029032,
      "lat": 12.9735722,
      "lon": 77.6156144,
      "tags": {
        "amenity": "bank",
        "brand": "Axis Bank",
        "brand:wikidata": "Q2003549",
        "check_date": "2024-04-02",
        "internet_access": "wlan",
        "internet_access:fee": "customers",
        "name": "Axis Bank",
        "name:kn": "ಆಕ್ಸಿಸ್ ಬ್ಯಾಂಕ್",
        "payment:cash": "yes",
        "payment:credit_cards": "yes",
        "payment:debit_cards": "yes",
        "wheelchair": "no"
      }
    },
    {
      "type": "node",
      "id": 11868278523,
      "lat": 12.9731758,
      "lon": 77.6167298,
      "tags": {
        "access": "customers",
        "amenity": "drinking_water",
        "indoor": "yes",
        "level": "1",
        "operator": "BMRCL"
      }
    },
    {
      "type": "node",
      "id": 11896917266,
      "lat": 12.9759242,
      "lon": 77.622773,
      "tags": {
        "amenity": "atm",
        "brand": "Canara Bank",
        "brand:en": "Canara Bank",
        "brand:hi": "केनरा बैंक",
        "brand:kn": "ಕೆನರಾ ಬ್ಯಾಂಕ್",
        "brand:pa": "ਕੇਨਰਾ ਬੈਂਕ",
        "brand:pnb": "کینرا بینک",
        "brand:ur": "کینرا بینک",
        "brand:wikidata": "Q2003777",
        "name": "Canara Bank",
        "name:en": "Canara Bank",
        "name:hi": "केनरा बैंक",
        "name:kn": "ಕೆನರಾ ಬ್ಯಾಂಕ್",
        "name:pa": "ਕੇਨਰਾ ਬੈਂਕ",
        "name:pnb": "کینرا بینک",
        "name:ur": "کینرا بینک",
        "operator": "Canara Bank",
        "operator:wikidata": "Q2003777"
      }
    },
    {
      "type": "node",
      "id": 11896935868,
      "lat": 12.9762403,
      "lon": 77.6227329,
      "tags": {
        "amenity": "atm",
        "name": "Union Bank ATM"
      }
    },
    {
      "type": "node",
      "id": 11896939309,
      "lat": 12.9765152,
      "lon": 77.6230761,
      "tags": {
        "amenity": "atm",
        "brand": "ICICI Bank",
        "brand:wikidata": "Q1653258",
        "name": "ICICI Bank",
        "operator": "ICICI Bank",
        "operator:wikidata": "Q1653258",
        "short_name": "ICICI"
      }
    },
    {
      "type": "node",
      "id": 11896951311,
      "lat": 12.9758961,
      "lon": 77.6227691,
      "tags": {
        "amenity": "atm",
        "name": "TMB"
      }
    },
    {
      "type": "node",
      "id": 11974314505,
      "lat": 12.9743541,
      "lon": 77.6098746,
      "tags": {
        "addr:city": "Bengaluru",
        "addr:country": "IN",
        "addr:floor": "1",
        "addr:housename": "Public Utility Building",
        "addr:housenumber": "28",
        "addr:postcode": "560001",
        "addr:street": "Mahatma Gandhi Road",
        "addr:suburb": "Ashok Nagar",
        "check_date": "2024-08-19",
        "contact:instagram": "https://www.instagram.com/ramsmusique",
        "description": "New store opened on 15th June 2024. Old store was located in the same building.",
        "email": "hello@ramsmusique.in",
        "level": "1",
        "name": "Ram's Musique Experience",
        "phone": "+91 76249 68333",
        "shop": "music",
        "start_date": "2024-06-15",
        "website": "https://ramsmusique.in/"
      }
    },
    {
      "type": "node",
      "id": 12006381721,
      "lat": 12.9725655,
      "lon": 77.6206499,
      "tags": {
        "amenity": "ice_cream",
        "brand": "Cold Stone Creamery",
        "brand:wikidata": "Q1094923",
        "cuisine": "ice_cream",
        "name": "Cold Stone Creamery"
      }
    },
    {
      "type": "node",
      "id": 12006381722,
      "lat": 12.9725727,
      "lon": 77.6205365,
      "tags": {
        "amenity": "fast_food",
        "brand": "Domino's",
        "brand:wikidata": "Q839466",
        "cuisine": "pizza",
        "name": "Domino's",
        "name:kn": "ಡಾಮಿನೋಸ್",
        "takeaway": "yes"
      }
    },
    {
      "type": "node",
      "id": 12006381723,
      "lat": 12.9725636,
      "lon": 77.6207712,
      "tags": {
        "amenity": "fast_food",
        "name": "IDC"
      }
    },
    {
      "type": "node",
      "id": 12014724392,
      "lat": 12.9755065,
      "lon": 77.6253762,
      "tags": {
        "amenity": "school",
        "contact:email": "hm.ggs@rbanmscharities.in",
        "name": "RBANMs Govindammal Senior Primary School"
      }
    },
    {
      "type": "node",
      "id": 12052471404,
      "lat": 12.9740312,
      "lon": 77.6098456,
      "tags": {
        "access": "yes",
        "amenity": "toilets",
        "check_date": "2024-08-19",
        "operator": "BBMP"
      }
    },
    {
      "type": "node",
      "id": 12052471415,
      "lat": 12.9738919,
      "lon": 77.6099222,
      "tags": {
        "access": "permissive",
        "amenity": "parking_entrance",
        "parking": "underground"
      }
    },
    {
      "type": "node",
      "id": 12052471416,
      "lat": 12.9739071,
      "lon": 77.6098541,
      "tags": {
        "access": "permissive",
        "amenity": "parking_entrance",
        "parking": "underground"
      }
    },
    {
      "type": "node",
      "id": 12053313117,
      "lat": 12.974354,
      "lon": 77.6097943,
      "tags": {
        "name": "Kohinur Gems and Jewellery",
        "shop": "jewelry"
      }
    },
    {
      "type": "node",
      "id": 12053313118,
      "lat": 12.9743553,
      "lon": 77.6099492,
      "tags": {
        "check_date": "2024-08-19",
        "name": "Shekarson Watch Company",
        "shop": "watches"
      }
    },
    {
      "type": "node",
      "id": 12053313119,
      "lat": 12.9744605,
      "lon": 77.6097923,
      "tags": {
        "name": "Cauvery Silk International",
        "shop": "clothes"
      }
    },
    {
      "type": "node",
      "id": 12053313120,
      "lat": 12.9742226,
      "lon": 77.609797,
      "tags": {
        "name": "The Raymond Shop",
        "shop": "tailor"
      }
    },
    {
      "type": "node",
      "id": 12092047871,
      "lat": 12.9817873,
      "lon": 77.6122101,
      "tags": {
        "addr:city": "Bengaluru",
        "addr:country": "IN",
        "addr:housenumber": "24",
        "addr:postcode": "560042",
        "addr:street": "Gangadhar Chetty Road",
        "addr:suburb": "Halasuru",
        "check_date": "2024-08-04",
        "contact:instagram": "generalitems.in",
        "level": "0",
        "name": "General Items",
        "name:kn": "ಜನರಲ್ ಐಟಮ್ಸ್",
        "opening_hours": "Tu-Su 11:00-19:00",
        "shop": "general",
        "website": "https://generalitems.in/"
      }
    },
    {
      "type": "node",
      "id": 12102162092,
      "lat": 12.9744516,
      "lon": 77.6098631,
      "tags": {
        "amenity": "bank",
        "brand": "Bank of Baroda",
        "brand:wikidata": "Q2003797",
        "check_date": "2024-08-10",
        "level": "3",
        "name": "Bank of Baroda",
        "name:kn": "ಬ್ಯಾಂಕ್ ಆಫ್ ಬರೋಡ"
      }
    },
    {
      "type": "node",
      "id": 12102162093,
      "lat": 12.9743986,
      "lon": 77.6097964,
      "tags": {
        "check_date": "2024-08-10",
        "name": "The Twinkle",
        "shop": "clothes"
      }
    },
    {
      "type": "node",
      "id": 12102791957,
      "lat": 12.9741006,
      "lon": 77.6114173,
      "tags": {
        "amenity": "fountain",
        "drinking_water": "no"
      }
    },
    {
      "type": "node",
      "id": 12102791979,
      "lat": 12.9745871,
      "lon": 77.6097816,
      "tags": {
        "amenity": "waste_basket",
        "material": "metal",
        "waste": "trash"
      }
    },
    {
      "type": "node",
      "id": 12102791980,
      "lat": 12.9745863,
      "lon": 77.6097853,
      "tags": {
        "amenity": "waste_basket",
        "material": "metal",
        "waste": "trash"
      }
    },
    {
      "type": "node",
      "id": 12103049755,
      "lat": 12.9741213,
      "lon": 77.6100643,
      "tags": {
        "amenity": "post_box",
        "operator": "India Post",
        "operator:wikidata": "Q3519720"
      }
    },
    {
      "type": "node",
      "id": 12145301107,
      "lat": 12.9730151,
      "lon": 77.6155463,
      "tags": {
        "amenity": "cafe",
        "name": "Bootstrapped Cafe"
      }
    },
    {
      "type": "node",
      "id": 12185297894,
      "lat": 12.9739299,
      "lon": 77.6123078,
      "tags": {
        "amenity": "parking_entrance"
      }
    },
    {
      "type": "node",
      "id": 12185377424,
      "lat": 12.9742996,
      "lon": 77.6143798,
      "tags": {
        "amenity": "parking_entrance"
      }
    },
    {
      "type": "node",
      "id": 12215439066,
      "lat": 12.9730642,
      "lon": 77.6203543,
      "tags": {
        "addr:housename": "1 MG Road Mall",
        "addr:street": "Mahatma Gandhi Road",
        "check_date": "2024-10-02",
        "name": "The Meat Pantry by Cambay Tiger",
        "shop": "butcher"
      }
    },
    {
      "type": "node",
      "id": 12222732600,
      "lat": 12.9840162,
      "lon": 77.6174052,
      "tags": {
        "addr:housenumber": "22",
        "addr:street": "Annaswamy Mudaliar Road",
        "amenity": "cafe",
        "check_date": "2024-10-04",
        "contact:instagram": "https://www.instagram.com/amagat.blr",
        "name": "Amagat Garden Cafe"
      }
    },
    {
      "type": "node",
      "id": 12395928083,
      "lat": 12.9724525,
      "lon": 77.6204038,
      "tags": {
        "addr:city": "Bengaluru",
        "addr:floor": "4",
        "addr:street": "Mahatma Gandhi Road",
        "addr:suburb": "Ashok Nagar",
        "amenity": "bar",
        "contact:instagram": "lumara.blr",
        "level": "4",
        "name": "Lumara",
        "toilets": "yes"
      }
    },
    {
      "type": "node",
      "id": 12404254558,
      "lat": 12.9764897,
      "lon": 77.6269565,
      "tags": {
        "amenity": "restaurant",
        "check_date": "2024-12-08",
        "name": "Murugan Cafe"
      }
    },
    {
      "type": "node",
      "id": 12416076223,
      "lat": 12.9728389,
      "lon": 77.6168178,
      "tags": {
        "addr:floor": "G;1",
        "air_conditioning": "yes",
        "amenity": "restaurant",
        "check_date": "2025-09-10",
        "cuisine": "indian",
        "diet:vegetarian": "yes",
        "level": "0;1",
        "name": "Park View",
        "name:en": "Park View",
        "wheelchair": "no"
      }
    },
    {
      "type": "node",
      "id": 12449741773,
      "lat": 12.9753711,
      "lon": 77.6219469,
      "tags": {
        "amenity": "place_of_worship",
        "check_date": "2024-12-24",
        "name": "CSI Wesleyan Centenary Kannada Church",
        "religion": "christian",
        "start_date": "1913"
      }
    },
    {
      "type": "node",
      "id": 12459951921,
      "lat": 12.972884,
      "lon": 77.6165859,
      "tags": {
        "amenity": "bank",
        "brand": "Punjab National Bank",
        "brand:wikidata": "Q2743499",
        "check_date": "2024-12-29",
        "name": "Punjab National Bank"
      }
    },
    {
      "type": "node",
      "id": 12460840947,
      "lat": 12.9716468,
      "lon": 77.6126475,
      "tags": {
        "amenity": "restaurant",
        "check_date": "2025-08-14",
        "cuisine": "sandwich",
        "name": "Sando Club"
      }
    },
    {
      "type": "node",
      "id": 12462618881,
      "lat": 12.9763403,
      "lon": 77.6214901,
      "tags": {
        "access": "private",
        "amenity": "parking_entrance",
        "parking": "underground"
      }
    },
    {
      "type": "node",
      "id": 12462618882,
      "lat": 12.9761124,
      "lon": 77.6215431,
      "tags": {
        "access": "private",
        "amenity": "parking_entrance",
        "parking": "underground"
      }
    },
    {
      "type": "node",
      "id": 12480291450,
      "lat": 12.9814136,
      "lon": 77.6245263,
      "tags": {
        "amenity": "place_of_worship",
        "religion": "hindu"
      }
    },
    {
      "type": "node",
      "id": 12492736707,
      "lat": 12.9742285,
      "lon": 77.6198097,
      "tags": {
        "brand": "Nature's Basket",
        "brand:wikidata": "Q28174237",
        "name": "Nature's Basket",
        "shop": "supermarket"
      }
    },
    {
      "type": "node",
      "id": 12492736784,
      "lat": 12.9750466,
      "lon": 77.6179321,
      "tags": {
        "name": "Shooketts",
        "shop": "bakery"
      }
    },
    {
      "type": "node",
      "id": 12495380307,
      "lat": 12.9727086,
      "lon": 77.6188843,
      "tags": {
        "amenity": "post_box",
        "operator": "India Post"
      }
    },
    {
      "type": "node",
      "id": 12526232547,
      "lat": 12.974056,
      "lon": 77.6195173,
      "tags": {
        "amenity": "restaurant",
        "name": "Italia"
      }
    },
    {
      "type": "node",
      "id": 12529348117,
      "lat": 12.9711887,
      "lon": 77.6143701,
      "tags": {
        "addr:city": "Bangalore",
        "addr:country": "IN",
        "addr:housenumber": "19",
        "addr:postcode": "560025",
        "addr:street": "Brunton Road",
        "addr:suburb": "Ashok Nagar",
        "amenity": "theatre",
        "capacity": "188",
        "level": "1",
        "name": "The Falcon's Den",
        "website": "https://thefalconsden.com/",
        "wheelchair": "yes"
      }
    },
    {
      "type": "node",
      "id": 12529348118,
      "lat": 12.9712959,
      "lon": 77.6143835,
      "tags": {
        "addr:city": "Bangalore",
        "addr:country": "IN",
        "addr:housenumber": "19",
        "addr:postcode": "560025",
        "addr:street": "Brunton Road",
        "addr:suburb": "Ashok Nagar",
        "amenity": "cafe",
        "email": "falconcafe@prestigeconstructions.com",
        "level": "1",
        "mobile": "+91 63667 49612",
        "name": "The Falcon Cafe",
        "opening_hours": "Mo-Sa 09:00-17:30",
        "phone": "falconcafe@prestigeconstructions.com",
        "website": "https://thefalconsden.com/",
        "wheelchair": "yes"
      }
    },
    {
      "type": "node",
      "id": 12574343636,
      "lat": 12.9725668,
      "lon": 77.6208704,
      "tags": {
        "amenity": "restaurant",
        "check_date": "2025-02-10",
        "name": "New Kudla"
      }
    },
    {
      "type": "node",
      "id": 12632042172,
      "lat": 12.972464,
      "lon": 77.6203034,
      "tags": {
        "amenity": "cafe",
        "cuisine": "bubble_tea",
        "delivery": "yes",
        "email": "info@yoyotea.in",
        "name": "YOYO! Fresh Tea Bar",
        "opening_hours": "11:00-23:00",
        "phone": "+91 97401 72610",
        "takeaway": "yes",
        "website": "https://yoyofreshtea.in/"
      }
    },
    {
      "type": "node",
      "id": 12644777546,
      "lat": 12.9825963,
      "lon": 77.6108753,
      "tags": {
        "name": "Westside",
        "shop": "mall"
      }
    },
    {
      "type": "node",
      "id": 12644777552,
      "lat": 12.9821532,
      "lon": 77.6103656,
      "tags": {
        "name": "koskii",
        "shop": "boutique"
      }
    },
    {
      "type": "node",
      "id": 12749935725,
      "lat": 12.9824009,
      "lon": 77.6108551,
      "tags": {
        "amenity": "cafe",
        "brand": "Starbucks",
        "brand:wikidata": "Q37158",
        "cuisine": "coffee_shop",
        "name": "Starbucks",
        "official_name": "Starbucks Coffee",
        "takeaway": "yes"
      }
    },
    {
      "type": "node",
      "id": 12749935726,
      "lat": 12.9827759,
      "lon": 77.6108927,
      "tags": {
        "amenity": "community_centre",
        "name": "Hajee Saleh Mohammed Ahmed Sait Cutchi Memon Jamath Khana"
      }
    },
    {
      "type": "node",
      "id": 12788139581,
      "lat": 12.9861844,
      "lon": 77.6156891,
      "tags": {
        "amenity": "charging_station",
        "charging_station:battery_swapping": "yes",
        "fee": "yes",
        "level": "0",
        "motorcar": "no",
        "motorcycle": "yes",
        "name": "Honda e:swap",
        "operator": "Honda e:swap"
      }
    },
    {
      "type": "node",
      "id": 12788682234,
      "lat": 12.9862396,
      "lon": 77.6159245,
      "tags": {
        "brand": "Honda",
        "brand:wikidata": "Q9584",
        "name": "Honda",
        "shop": "motorcycle"
      }
    },
    {
      "type": "node",
      "id": 12842098600,
      "lat": 12.9720985,
      "lon": 77.6155516,
      "tags": {
        "addr:floor": "G",
        "amenity": "fast_food",
        "check_date": "2025-05-16",
        "level": "0",
        "name": "Shree Lakshmi Ganesha Cafe"
      }
    },
    {
      "type": "node",
      "id": 12853586157,
      "lat": 12.9722075,
      "lon": 77.6184168,
      "tags": {
        "addr:floor": "1",
        "amenity": "restaurant",
        "check_date": "2025-05-21",
        "level": "1",
        "name": "Kerala Pavilion",
        "name:en": "Kerala Pavilion"
      }
    },
    {
      "type": "node",
      "id": 12875873111,
      "lat": 12.9699656,
      "lon": 77.6152532,
      "tags": {
        "amenity": "studio",
        "check_date": "2025-05-31",
        "name": "Sun Network",
        "name:en": "Sun Network",
        "studio": "television"
      }
    },
    {
      "type": "node",
      "id": 12986087201,
      "lat": 12.9733894,
      "lon": 77.6111316,
      "tags": {
        "addr:housenumber": "47,48",
        "addr:postcode": "560025",
        "addr:street": "No 47, 48, Residency Road, Ashok Nagar",
        "name": "Trent/WestSide/Zudio",
        "opening_hours": "Mo-Su 08:00-21:00",
        "shop": "clothes",
        "website": "https://www.westside.com/"
      }
    },
    {
      "type": "node",
      "id": 13013584279,
      "lat": 12.9833134,
      "lon": 77.611239,
      "tags": {
        "addr:city": "Bengaluru",
        "addr:housenumber": "262",
        "addr:postcode": "560051",
        "addr:street": "Kamaraj Road",
        "addr:suburb": "Shivajinagar",
        "amenity": "cafe",
        "name": "The Rogue Elephant Cafe",
        "outdoor_seating": "yes"
      }
    },
    {
      "type": "node",
      "id": 13089020176,
      "lat": 12.9754556,
      "lon": 77.616835,
      "tags": {
        "amenity": "bar",
        "name": "Sama"
      }
    },
    {
      "type": "node",
      "id": 13089143191,
      "lat": 12.9716862,
      "lon": 77.6191623,
      "tags": {
        "addr:floor": "13",
        "amenity": "bar",
        "contact:instagram": "kai_bengaluru",
        "level": "13",
        "name": "Kai"
      }
    },
    {
      "type": "node",
      "id": 13272024164,
      "lat": 12.9754839,
      "lon": 77.6143566,
      "tags": {
        "amenity": "waste_basket",
        "material": "metal",
        "waste": "organic;mixed"
      }
    },
    {
      "type": "node",
      "id": 13277110519,
      "lat": 12.974173,
      "lon": 77.6221257,
      "tags": {
        "amenity": "community_centre",
        "name": "Above Zenith Makerspace"
      }
    },
    {
      "type": "node",
      "id": 13277110520,
      "lat": 12.9741096,
      "lon": 77.6221284,
      "tags": {
        "amenity": "events_venue",
        "contact:email": "sthalaspace@gmail.com",
        "contact:instagram": "sthalaspace",
        "name": "Sthala",
        "website": "https://sthala.org"
      }
    },
    {
      "type": "node",
      "id": 13288585571,
      "lat": 12.9753916,
      "lon": 77.6205926,
      "tags": {
        "amenity": "restaurant",
        "name": "Indian Durbar"
      }
    },
    {
      "type": "node",
      "id": 13288585572,
      "lat": 12.9724609,
      "lon": 77.6201477,
      "tags": {
        "amenity": "restaurant",
        "cuisine": "punjabi",
        "name": "Lohri"
      }
    },
    {
      "type": "node",
      "id": 13296104561,
      "lat": 12.9728117,
      "lon": 77.6171498,
      "tags": {
        "amenity": "fast_food",
        "check_date": "2025-11-25",
        "name": "Cocat Cafe"
      }
    },
    {
      "type": "node",
      "id": 13296104562,
      "lat": 12.9728149,
      "lon": 77.6171369,
      "tags": {
        "amenity": "fast_food",
        "check_date": "2025-11-25",
        "cuisine": "sandwich",
        "name": "Little Break"
      }
    },
    {
      "type": "node",
      "id": 13296104563,
      "lat": 12.9728232,
      "lon": 77.6170871,
      "tags": {
        "amenity": "fast_food",
        "check_date": "2025-11-25",
        "cuisine": "juice",
        "name": "The Cane Joint"
      }
    },
    {
      "type": "node",
      "id": 13310440624,
      "lat": 12.9733905,
      "lon": 77.6165811,
      "tags": {
        "amenity": "bank",
        "check_date": "2025-11-17",
        "name": "State Bank Of India"
      }
    },
    {
      "type": "node",
      "id": 13310470855,
      "lat": 12.9733821,
      "lon": 77.6168321,
      "tags": {
        "amenity": "bank",
        "check_date": "2025-11-17",
        "name": "Axis Bank"
      }
    },
    {
      "type": "way",
      "id": 37136671,
      "center": {
        "lat": 12.9876751,
        "lon": 77.6147713
      },
      "tags": {
        "amenity": "school",
        "name": "Kendriya Vidhyalaya, MEG Centre",
        "name:kn": "ಕೇಂದ್ರಿಯ ವಿದ್ಯಾಲಯ",
        "short_name": "KV MEG"
      }
    },
    {
      "type": "way",
      "id": 53264747,
      "center": {
        "lat": 12.9683854,
        "lon": 77.6165638
      },
      "tags": {
        "leisure": "pitch"
      }
    },
    {
      "type": "way",
      "id": 107241571,
      "center": {
        "lat": 12.9741091,
        "lon": 77.611455
      },
      "tags": {
        "leisure": "park"
      }
    },
    {
      "type": "way",
      "id": 132782108,
      "center": {
        "lat": 12.9731768,
        "lon": 77.6212771
      },
      "tags": {
        "amenity": "cinema",
        "brand": "INOX Leisure",
        "brand:wikidata": "Q5972349",
        "building": "yes",
        "name": "INOX Lido",
        "name:kn": "ಐನಾಕ್ಸ್ ಲಿಡೊ",
        "short_name": "INOX"
      }
    },
    {
      "type": "way",
      "id": 132782111,
      "center": {
        "lat": 12.9721434,
        "lon": 77.620635
      },
      "tags": {
        "amenity": "place_of_worship",
        "building": "yes",
        "name": "CSI Holy Trinity Church",
        "religion": "christian"
      }
    },
    {
      "type": "way",
      "id": 133881869,
      "center": {
        "lat": 12.9719421,
        "lon": 77.6203877
      },
      "tags": {
        "amenity": "place_of_worship",
        "heritage": "2",
        "heritage:operator": "nmma",
        "heritage:website": "https://nmma.nic.in/nmma/exploreBuiltState.do?state=29",
        "name": "The Holy Trinity Church",
        "name:kn": "ಹೋಲಿ ಟ್ರಿನಿಟಿ ಚರ್ಚ್",
        "ref:nmma": "KR20010312",
        "religion": "christian",
        "start_date": "1852",
        "wikidata": "Q5886431",
        "wikimedia_commons": "Category:Holy Trinity Church, Bangalore",
        "wikipedia": "en:Holy Trinity Church, Bangalore"
      }
    },
    {
      "type": "way",
      "id": 133881879,
      "center": {
        "lat": 12.9739931,
        "lon": 77.6144902
      },
      "tags": {
        "alt_name": "Wesleyan Cathedral of Bangalore",
        "amenity": "place_of_worship",
        "denomination": "anglican",
        "name": "East Parade Church",
        "old_name": "Wesleyan Mission Chapel",
        "religion": "christian",
        "start_date": "1865",
        "wikidata": "Q22000988",
        "wikipedia": "en:East Parade Church"
      }
    },
    {
      "type": "way",
      "id": 138980186,
      "center": {
        "lat": 12.9773214,
        "lon": 77.6278721
      },
      "tags": {
        "amenity": "place_of_worship",
        "name:kn": "ಸುಬ್ರಮಣ್ಯಸ್ವಾಮಿ ದೇವಾಲಯ",
        "religion": "hindu"
      }
    },
    {
      "type": "way",
      "id": 147558632,
      "center": {
        "lat": 12.9734281,
        "lon": 77.6203876
      },
      "tags": {
        "alt_name": "Lido Mall",
        "landuse": "retail",
        "loc_name": "GESCO Lido Centre",
        "name": "One M G Road",
        "name:en": "1 MG Road",
        "old_name": "Lido Talkies",
        "shop": "mall"
      }
    },
    {
      "type": "way",
      "id": 164042298,
      "center": {
        "lat": 12.9760923,
        "lon": 77.6207155
      },
      "tags": {
        "amenity": "place_of_worship",
        "name": "Gurudwara",
        "name:kn": "ಗುರುದ್ವಾರ",
        "religion": "sikh"
      }
    },
    {
      "type": "way",
      "id": 169709282,
      "center": {
        "lat": 12.9756053,
        "lon": 77.6238958
      },
      "tags": {
        "amenity": "place_of_worship",
        "name": "Someshwara Temple",
        "name:kn": "ಸೋಮೇಶ್ವರ ದೇವಸ್ಥಾನ",
        "religion": "hindu"
      }
    },
    {
      "type": "way",
      "id": 182177271,
      "center": {
        "lat": 12.9810111,
        "lon": 77.6157113
      },
      "tags": {
        "leisure": "garden"
      }
    },
    {
      "type": "way",
      "id": 182177279,
      "center": {
        "lat": 12.9853954,
        "lon": 77.6221829
      },
      "tags": {
        "leisure": "park",
        "name": "Ulsoor Lake Park",
        "operator": "ಬೃಹತ್ ಬೆಂಗಳೂರು ಮಹಾನಗರ ಪಾಲಿಕೆ",
        "operator:en": "Bruhat Bengaluru Mahanagara Palike",
        "operator:ka": "ಬೃಹತ್ ಬೆಂಗಳೂರು ಮಹಾನಗರ ಪಾಲಿಕೆ",
        "operator:short": "BBMP",
        "operator:type": "government",
        "operator:wikidata": "Q4978693"
      }
    },
    {
      "type": "way",
      "id": 207134130,
      "center": {
        "lat": 12.9793478,
        "lon": 77.6096209
      },
      "tags": {
        "amenity": "parking",
        "fee": "yes",
        "parking": "surface"
      }
    },
    {
      "type": "way",
      "id": 207134173,
      "center": {
        "lat": 12.9791475,
        "lon": 77.6092879
      },
      "tags": {
        "amenity": "parking",
        "fee": "yes",
        "parking": "surface"
      }
    },
    {
      "type": "way",
      "id": 207134209,
      "center": {
        "lat": 12.9810212,
        "lon": 77.6097332
      },
      "tags": {
        "amenity": "parking",
        "fee": "yes",
        "note": "2-wheelers only",
        "parking": "street_side"
      }
    },
    {
      "type": "way",
      "id": 208693355,
      "center": {
        "lat": 12.9740886,
        "lon": 77.6107107
      },
      "tags": {
        "amenity": "courthouse",
        "building": "office",
        "building:material": "brick",
        "check_date": "2024-08-19",
        "heritage": "2",
        "heritage:operator": "nmma",
        "heritage:website": "https://nmma.nic.in/nmma/exploreBuiltState.do?state=29",
        "historic": "yes",
        "name": "Mayo Hall",
        "name:kn": "ಮಯೊ ಹಾಲ್",
        "office": "government",
        "ref:nmma": "KR20010332",
        "start_date": "1883-06-03",
        "wikidata": "Q6797518",
        "wikipedia": "en:Mayo Hall (Bangalore)"
      }
    },
    {
      "type": "way",
      "id": 208693359,
      "center": {
        "lat": 12.9740186,
        "lon": 77.6105722
      },
      "tags": {
        "amenity": "courthouse",
        "landuse": "government"
      }
    },
    {
      "type": "way",
      "id": 217536633,
      "center": {
        "lat": 12.9797005,
        "lon": 77.6272862
      },
      "tags": {
        "leisure": "playground"
      }
    },
    {
      "type": "way",
      "id": 217536636,
      "center": {
        "lat": 12.9806681,
        "lon": 77.6268962
      },
      "tags": {
        "leisure": "park"
      }
    },
    {
      "type": "way",
      "id": 217536638,
      "center": {
        "lat": 12.9785416,
        "lon": 77.6276986
      },
      "tags": {
        "amenity": "marketplace",
        "name": "Halasuru Fruit and Vegetable Market"
      }
    },
    {
      "type": "way",
      "id": 217536640,
      "center": {
        "lat": 12.9788845,
        "lon": 77.6272201
      },
      "tags": {
        "leisure": "park",
        "name": "Children's Park"
      }
    },
    {
      "type": "way",
      "id": 217536641,
      "center": {
        "lat": 12.9798755,
        "lon": 77.6267697
      },
      "tags": {
        "leisure": "playground"
      }
    },
    {
      "type": "way",
      "id": 311368523,
      "center": {
        "lat": 12.9724757,
        "lon": 77.6198663
      },
      "tags": {
        "amenity": "fuel",
        "brand": "Indian Oil",
        "brand:wikidata": "Q1289348",
        "compressed_air": "yes",
        "name": "Indian Oil"
      }
    },
    {
      "type": "way",
      "id": 323639484,
      "center": {
        "lat": 12.9814681,
        "lon": 77.6228861
      },
      "tags": {
        "leisure": "garden"
      }
    },
    {
      "type": "way",
      "id": 323639485,
      "center": {
        "lat": 12.9817834,
        "lon": 77.6229747
      },
      "tags": {
        "leisure": "garden"
      }
    },
    {
      "type": "way",
      "id": 323639487,
      "center": {
        "lat": 12.9817283,
        "lon": 77.6233462
      },
      "tags": {
        "leisure": "garden"
      }
    },
    {
      "type": "way",
      "id": 323639489,
      "center": {
        "lat": 12.9769712,
        "lon": 77.6275061
      },
      "tags": {
        "addr:city": "Jogupalya, Bangalore",
        "addr:street": "Swamy Vivekananda Road (Old Madras Road)",
        "amenity": "place_of_worship",
        "building": "yes",
        "check_date": "2024-07-02",
        "name": "Subramania Swamy Temple",
        "name:kn": "ಸುಬ್ರಮಣ್ಯಸ್ವಾಮಿ ದೇವಾಲಯ",
        "religion": "hindu"
      }
    },
    {
      "type": "way",
      "id": 325781833,
      "center": {
        "lat": 12.9728254,
        "lon": 77.6102393
      },
      "tags": {
        "amenity": "fire_station",
        "barrier": "wall",
        "name": "Office of the Chief Fire Officer"
      }
    },
    {
      "type": "way",
      "id": 328349212,
      "center": {
        "lat": 12.9737902,
        "lon": 77.6183329
      },
      "tags": {
        "access": "private",
        "leisure": "swimming_pool"
      }
    },
    {
      "type": "way",
      "id": 328350804,
      "center": {
        "lat": 12.9764056,
        "lon": 77.609253
      },
      "tags": {
        "access": "private",
        "leisure": "swimming_pool",
        "location": "indoor"
      }
    },
    {
      "type": "way",
      "id": 328763634,
      "center": {
        "lat": 12.9759805,
        "lon": 77.6090651
      },
      "tags": {
        "access": "private",
        "leisure": "pitch",
        "sport": "tennis",
        "surface": "acrylic"
      }
    },
    {
      "type": "way",
      "id": 346150556,
      "center": {
        "lat": 12.9846303,
        "lon": 77.6128058
      },
      "tags": {
        "amenity": "kindergarten",
        "building": "yes",
        "name": "Prism Pre-school"
      }
    },
    {
      "type": "way",
      "id": 346456833,
      "center": {
        "lat": 12.9790733,
        "lon": 77.6159764
      },
      "tags": {
        "amenity": "place_of_worship",
        "building": "mosque",
        "religion": "muslim"
      }
    },
    {
      "type": "way",
      "id": 347060424,
      "center": {
        "lat": 12.9734475,
        "lon": 77.6217468
      },
      "tags": {
        "building": "yes",
        "name": "Lido Mall",
        "shop": "mall",
        "toilets": "yes"
      }
    },
    {
      "type": "way",
      "id": 347061555,
      "center": {
        "lat": 12.9772168,
        "lon": 77.6236749
      },
      "tags": {
        "amenity": "place_of_worship",
        "building": "yes",
        "name": "Sri Thiruvengada Ramanujar Sannidhi",
        "religion": "hindu"
      }
    },
    {
      "type": "way",
      "id": 347062467,
      "center": {
        "lat": 12.9742316,
        "lon": 77.623807
      },
      "tags": {
        "amenity": "place_of_worship",
        "building": "yes",
        "name": "Angala Parameshwari Temple",
        "name:kn": "ಆಂಗಲ ಪರಮೇಶ್ವರಿ ದೇವಸ್ಥಾನ",
        "religion": "hindu"
      }
    },
    {
      "type": "way",
      "id": 359647411,
      "center": {
        "lat": 12.9756334,
        "lon": 77.6237598
      },
      "tags": {
        "amenity": "place_of_worship",
        "building": "yes",
        "religion": "hindu"
      }
    },
    {
      "type": "way",
      "id": 367149867,
      "center": {
        "lat": 12.9735447,
        "lon": 77.619858
      },
      "tags": {
        "access": "private",
        "leisure": "swimming_pool"
      }
    },
    {
      "type": "way",
      "id": 368802983,
      "center": {
        "lat": 12.9805552,
        "lon": 77.615782
      },
      "tags": {
        "addr:city": "Bangalore",
        "addr:housenumber": "13",
        "addr:postcode": "560042",
        "addr:street": "Gangadhara Chetty Road, Ulsoor",
        "amenity": "community_centre",
        "building": "yes",
        "name": "Sri Mahan Odukathur Swamigal Mutt",
        "note": "Free annual Carnatic music concerts during the Janmashtami season."
      }
    },
    {
      "type": "way",
      "id": 369295551,
      "center": {
        "lat": 12.9749939,
        "lon": 77.6239792
      },
      "tags": {
        "amenity": "place_of_worship",
        "building": "yes",
        "name": "Halasur Jamia Masjid",
        "name:kn": "ಹಲಸೂರು ಜಮ ಮಸೀದಿ",
        "religion": "muslim"
      }
    },
    {
      "type": "way",
      "id": 369295552,
      "center": {
        "lat": 12.973692,
        "lon": 77.6266773
      },
      "tags": {
        "addr:district": "Bengaluru Urban",
        "addr:full": "Kembridge Road, Near Police Station",
        "addr:postcode": "560008",
        "addr:state": "Karnataka",
        "amenity": "hospital",
        "healthcare": "hospital",
        "name": "Halasuru Referal Hospital",
        "operator": "BBMP",
        "source": "OpenGovernmentData"
      }
    },
    {
      "type": "way",
      "id": 369295553,
      "center": {
        "lat": 12.9747988,
        "lon": 77.6252645
      },
      "tags": {
        "amenity": "police",
        "check_date": "2024-02-09",
        "internet_access": "no",
        "level": "0",
        "name": "Halasuru Police Station",
        "name:kn": "ಹಲಸೂರು ಆರಕ್ಷಕ ಠಾಣೆ",
        "wheelchair": "limited"
      }
    },
    {
      "type": "way",
      "id": 369295559,
      "center": {
        "lat": 12.9740209,
        "lon": 77.6256572
      },
      "tags": {
        "amenity": "college",
        "name": "St Anne's Degree College"
      }
    },
    {
      "type": "way",
      "id": 370403489,
      "center": {
        "lat": 12.9757655,
        "lon": 77.6102971
      },
      "tags": {
        "access": "customers",
        "leisure": "pitch",
        "sport": "cricket"
      }
    },
    {
      "type": "way",
      "id": 370403490,
      "center": {
        "lat": 12.9751038,
        "lon": 77.6119877
      },
      "tags": {
        "leisure": "pitch"
      }
    },
    {
      "type": "way",
      "id": 370404411,
      "center": {
        "lat": 12.9797744,
        "lon": 77.6158045
      },
      "tags": {
        "amenity": "college",
        "name": "Hasnath Group of Institutions"
      }
    },
    {
      "type": "way",
      "id": 370404412,
      "center": {
        "lat": 12.9815448,
        "lon": 77.6150722
      },
      "tags": {
        "amenity": "college",
        "name": "RBANMS College",
        "name:etymology:wikidata": "Q4787468"
      }
    },
    {
      "type": "way",
      "id": 389341678,
      "center": {
        "lat": 12.9762462,
        "lon": 77.6206136
      },
      "tags": {
        "amenity": "place_of_worship",
        "building": "gurudwara",
        "check_date": "2025-09-21",
        "name": "Sri Gurdwara Singh Sabha",
        "name:en": "Sri Gurdwara Singh Sabha",
        "name:kn": "ಶ್ರೀ ಗುರುದ್ವಾರ ಸಿಂಗ್ ಸಭ",
        "religion": "sikh"
      }
    },
    {
      "type": "way",
      "id": 400478705,
      "center": {
        "lat": 12.9828949,
        "lon": 77.6145101
      },
      "tags": {
        "amenity": "cinema",
        "name": "Ajantha Theatre",
        "name:kn": "ಅಜಂತಾ ಚಿತ್ರಮಂದಿರ"
      }
    },
    {
      "type": "way",
      "id": 409003899,
      "center": {
        "lat": 12.9807984,
        "lon": 77.6227654
      },
      "tags": {
        "name": "Dhobi Ghat",
        "name:kn": "ಧೋಬಿ ಘಾಟ್",
        "shop": "laundry"
      }
    },
    {
      "type": "way",
      "id": 421097861,
      "center": {
        "lat": 12.9860564,
        "lon": 77.6188133
      },
      "tags": {
        "leisure": "pitch"
      }
    },
    {
      "type": "way",
      "id": 421097862,
      "center": {
        "lat": 12.9862788,
        "lon": 77.618436
      },
      "tags": {
        "leisure": "garden"
      }
    },
    {
      "type": "way",
      "id": 421097866,
      "center": {
        "lat": 12.984747,
        "lon": 77.6178878
      },
      "tags": {
        "amenity": "community_centre",
        "name": "Bangalore Tamil Sangam",
        "name:kn": "ಬೆಂಗಳೂರು ತಮಿಳು ಸಂಗಂ",
        "website": "https://www.bangaloretamilsangam.org/"
      }
    },
    {
      "type": "way",
      "id": 431530257,
      "center": {
        "lat": 12.973449,
        "lon": 77.6105998
      },
      "tags": {
        "amenity": "toilets",
        "building": "yes",
        "operator": "BBMP"
      }
    },
    {
      "type": "way",
      "id": 436666219,
      "center": {
        "lat": 12.9841065,
        "lon": 77.6221108
      },
      "tags": {
        "access": "customers",
        "leisure": "swimming_pool",
        "length": "50",
        "location": "outdoor"
      }
    },
    {
      "type": "way",
      "id": 489810878,
      "center": {
        "lat": 12.9731163,
        "lon": 77.621751
      },
      "tags": {
        "access": "customers",
        "amenity": "parking",
        "motor_vehicle": "no",
        "motorcycle": "yes",
        "parking": "surface",
        "scooter": "yes"
      }
    },
    {
      "type": "way",
      "id": 492502342,
      "center": {
        "lat": 12.9840801,
        "lon": 77.6221647
      },
      "tags": {
        "leisure": "sports_centre",
        "name": "Kensington Swimming Pool",
        "sport": "swimming"
      }
    },
    {
      "type": "way",
      "id": 526095699,
      "center": {
        "lat": 12.9805076,
        "lon": 77.6258528
      },
      "tags": {
        "leisure": "playground",
        "name": "Ground"
      }
    },
    {
      "type": "way",
      "id": 526096135,
      "center": {
        "lat": 12.981077,
        "lon": 77.6262588
      },
      "tags": {
        "leisure": "park",
        "name": "Childrens Playing Park"
      }
    },
    {
      "type": "way",
      "id": 526097595,
      "center": {
        "lat": 12.9812734,
        "lon": 77.624778
      },
      "tags": {
        "addr:city": "bangalore",
        "addr:postcode": "560008",
        "amenity": "place_of_worship",
        "building": "yes",
        "name": "Sir Moogambigai Amman Temple",
        "religion": "hindu"
      }
    },
    {
      "type": "way",
      "id": 603115732,
      "center": {
        "lat": 12.9789173,
        "lon": 77.6167663
      },
      "tags": {
        "amenity": "school",
        "name": "Auro Mirra International School"
      }
    },
    {
      "type": "way",
      "id": 674028951,
      "center": {
        "lat": 12.9799277,
        "lon": 77.6170644
      },
      "tags": {
        "leisure": "garden"
      }
    },
    {
      "type": "way",
      "id": 674028953,
      "center": {
        "lat": 12.9802024,
        "lon": 77.6171231
      },
      "tags": {
        "access": "private",
        "amenity": "parking",
        "parking": "surface"
      }
    },
    {
      "type": "way",
      "id": 674028955,
      "center": {
        "lat": 12.9797894,
        "lon": 77.617344
      },
      "tags": {
        "leisure": "garden"
      }
    },
    {
      "type": "way",
      "id": 688353425,
      "center": {
        "lat": 12.9810372,
        "lon": 77.6246913
      },
      "tags": {
        "amenity": "college",
        "name": "Aavishkar Academy"
      }
    },
    {
      "type": "way",
      "id": 688353427,
      "center": {
        "lat": 12.978366,
        "lon": 77.6236685
      },
      "tags": {
        "leisure": "playground"
      }
    },
    {
      "type": "way",
      "id": 688353433,
      "center": {
        "lat": 12.9782781,
        "lon": 77.6232947
      },
      "tags": {
        "amenity": "place_of_worship",
        "name": "Satyanarayana Temple",
        "name:kn": "ಸತ್ಯನಾರಾಯಣ ದೇವಸ್ಥಾನ",
        "religion": "hindu"
      }
    },
    {
      "type": "way",
      "id": 688353437,
      "center": {
        "lat": 12.9784999,
        "lon": 77.6228104
      },
      "tags": {
        "amenity": "place_of_worship",
        "name": "Sri Venkateshwara Swamy Temple",
        "name:kn": "ವೆಂಕಟೇಶ್ವರ ಸ್ವಾಮಿ ದೇವಸ್ಥಾನ",
        "religion": "hindu"
      }
    },
    {
      "type": "way",
      "id": 688356350,
      "center": {
        "lat": 12.9804661,
        "lon": 77.6259975
      },
      "tags": {
        "amenity": "school",
        "name": "Government Girls Tamil School",
        "name:kn": "ಸರ್ಕಾರಿ ಬಾಲಕಿಯರ ತಮಿಳು ಶಾಲೆ"
      }
    },
    {
      "type": "way",
      "id": 688356352,
      "center": {
        "lat": 12.979026,
        "lon": 77.6264656
      },
      "tags": {
        "amenity": "veterinary",
        "name": "Veterinary Hospital",
        "name:kn": "ಪಶುವೈದ್ಯ ಆಸ್ಪತ್ರೆ"
      }
    },
    {
      "type": "way",
      "id": 688356353,
      "center": {
        "lat": 12.9790012,
        "lon": 77.6267043
      },
      "tags": {
        "amenity": "clinic",
        "name": "Halasuru BBMP Primary Health Centre",
        "name:kn": "ಆರೋಗ್ಯ ಪ್ರಾಥಮಿಕ ಕೇಂದ್ರ"
      }
    },
    {
      "type": "way",
      "id": 688413058,
      "center": {
        "lat": 12.9771467,
        "lon": 77.6256998
      },
      "tags": {
        "leisure": "common"
      }
    },
    {
      "type": "way",
      "id": 688446487,
      "center": {
        "lat": 12.9813274,
        "lon": 77.6267989
      },
      "tags": {
        "leisure": "park"
      }
    },
    {
      "type": "way",
      "id": 775163650,
      "center": {
        "lat": 12.9756138,
        "lon": 77.6207859
      },
      "tags": {
        "access": "customers",
        "leisure": "swimming_pool",
        "location": "roof"
      }
    },
    {
      "type": "way",
      "id": 781183665,
      "center": {
        "lat": 12.9696167,
        "lon": 77.6155552
      },
      "tags": {
        "addr:housenumber": "10",
        "addr:street": "Brunton Road",
        "amenity": "monastery",
        "community:gender": "female",
        "denomination": "catholic",
        "landuse": "religious",
        "monastery:type": "convent",
        "name": "Convent of St. Brigitta",
        "religion": "christian",
        "shop": "religion"
      }
    },
    {
      "type": "way",
      "id": 785285258,
      "center": {
        "lat": 12.9703414,
        "lon": 77.6161806
      },
      "tags": {
        "access": "private",
        "leisure": "swimming_pool"
      }
    },
    {
      "type": "way",
      "id": 997966835,
      "center": {
        "lat": 12.9725039,
        "lon": 77.6130568
      },
      "tags": {
        "amenity": "college",
        "name": "St. Joseph's Institute of Management"
      }
    },
    {
      "type": "way",
      "id": 997966839,
      "center": {
        "lat": 12.9730211,
        "lon": 77.6126609
      },
      "tags": {
        "access": "customers",
        "amenity": "parking"
      }
    },
    {
      "type": "way",
      "id": 1050589708,
      "center": {
        "lat": 12.9782933,
        "lon": 77.6109283
      },
      "tags": {
        "amenity": "school",
        "name": "Army Public School"
      }
    },
    {
      "type": "way",
      "id": 1052463665,
      "center": {
        "lat": 12.9821415,
        "lon": 77.6151763
      },
      "tags": {
        "amenity": "college",
        "name": "RBANMS First Grade Evening College"
      }
    },
    {
      "type": "way",
      "id": 1052463666,
      "center": {
        "lat": 12.9817295,
        "lon": 77.6143469
      },
      "tags": {
        "alt_name": "SUFC",
        "leisure": "pitch",
        "name": "South United Football Club",
        "sport": "soccer",
        "surface": "artificial_turf"
      }
    },
    {
      "type": "way",
      "id": 1053381291,
      "center": {
        "lat": 12.9744379,
        "lon": 77.6158967
      },
      "tags": {
        "access": "private",
        "amenity": "parking",
        "parking": "street_side"
      }
    },
    {
      "type": "way",
      "id": 1066854627,
      "center": {
        "lat": 12.9808072,
        "lon": 77.6124146
      },
      "tags": {
        "amenity": "school",
        "name": "RBANMS Middle School",
        "name:etymology:wikidata": "Q4787468"
      }
    },
    {
      "type": "way",
      "id": 1066854631,
      "center": {
        "lat": 12.9812941,
        "lon": 77.613018
      },
      "tags": {
        "amenity": "school",
        "name": "RBANMS High School",
        "name:etymology:wikidata": "Q4787468"
      }
    },
    {
      "type": "way",
      "id": 1066854635,
      "center": {
        "lat": 12.9818766,
        "lon": 77.6135517
      },
      "tags": {
        "leisure": "pitch",
        "sport": "cricket"
      }
    },
    {
      "type": "way",
      "id": 1066854636,
      "center": {
        "lat": 12.9821091,
        "lon": 77.6130276
      },
      "tags": {
        "leisure": "track",
        "sport": "athletics"
      }
    },
    {
      "type": "way",
      "id": 1066868600,
      "center": {
        "lat": 12.9819687,
        "lon": 77.612516
      },
      "tags": {
        "amenity": "post_office",
        "landuse": "commercial",
        "name": "Sivanchetti Garden Post Office"
      }
    },
    {
      "type": "way",
      "id": 1067945112,
      "center": {
        "lat": 12.9815129,
        "lon": 77.6122852
      },
      "tags": {
        "amenity": "place_of_worship",
        "name": "Brahmo Samaj",
        "name:kn": "ಬ್ರಹ್ಮ ಸಮಾಜ",
        "religion": "hindu"
      }
    },
    {
      "type": "way",
      "id": 1068769786,
      "center": {
        "lat": 12.9824189,
        "lon": 77.6146663
      },
      "tags": {
        "building": "kiosk",
        "name": "Nandini Dairy Parlour",
        "shop": "dairy"
      }
    },
    {
      "type": "way",
      "id": 1068844239,
      "center": {
        "lat": 12.9749635,
        "lon": 77.6188909
      },
      "tags": {
        "access": "yes",
        "amenity": "parking",
        "parking": "street_side"
      }
    },
    {
      "type": "way",
      "id": 1068844248,
      "center": {
        "lat": 12.973839,
        "lon": 77.6194421
      },
      "tags": {
        "access": "customers",
        "amenity": "parking",
        "parking": "surface"
      }
    },
    {
      "type": "way",
      "id": 1068844251,
      "center": {
        "lat": 12.9729109,
        "lon": 77.619671
      },
      "tags": {
        "access": "customers",
        "amenity": "parking",
        "parking": "surface"
      }
    },
    {
      "type": "way",
      "id": 1087008972,
      "center": {
        "lat": 12.9835444,
        "lon": 77.6234989
      },
      "tags": {
        "amenity": "social_facility",
        "brand": "Red Cross",
        "name": "Indian Red Cross Society",
        "office": "ngo"
      }
    },
    {
      "type": "way",
      "id": 1108003238,
      "center": {
        "lat": 12.9724712,
        "lon": 77.6186855
      },
      "tags": {
        "access": "customers",
        "amenity": "parking",
        "fee": "yes",
        "parking": "surface"
      }
    },
    {
      "type": "way",
      "id": 1115399973,
      "center": {
        "lat": 12.971765,
        "lon": 77.6120801
      },
      "tags": {
        "amenity": "school",
        "landuse": "religious",
        "name": "Shree Jain Shiksha Samiti",
        "religion": "jain"
      }
    },
    {
      "type": "way",
      "id": 1137152703,
      "center": {
        "lat": 12.9733645,
        "lon": 77.6262363
      },
      "tags": {
        "addr:city": "Bengaluru",
        "addr:country": "IN",
        "addr:postcode": "560008",
        "addr:street": "Cambridge Road",
        "addr:suburb": "Halasuru",
        "amenity": "coworking_space",
        "fee": "yes",
        "landuse": "commercial",
        "name": "IndiQube Brigade Square",
        "office": "coworking",
        "operator": "IndiQube"
      }
    },
    {
      "type": "way",
      "id": 1143988912,
      "center": {
        "lat": 12.9782082,
        "lon": 77.610731
      },
      "tags": {
        "amenity": "library",
        "building": "school",
        "name": "Secondary Section Library",
        "operator": "APS K Kamraj Bangalore",
        "operator:type": "school"
      }
    },
    {
      "type": "way",
      "id": 1171722760,
      "center": {
        "lat": 12.9848345,
        "lon": 77.6161119
      },
      "tags": {
        "amenity": "place_of_worship",
        "name": "Sri Chandraprabhu Jain Temple",
        "religion": "jain"
      }
    },
    {
      "type": "way",
      "id": 1235836660,
      "center": {
        "lat": 12.9781878,
        "lon": 77.612049
      },
      "tags": {
        "access": "private",
        "leisure": "pitch",
        "sport": "basketball"
      }
    },
    {
      "type": "way",
      "id": 1235836661,
      "center": {
        "lat": 12.9811592,
        "lon": 77.6144789
      },
      "tags": {
        "covered": "yes",
        "leisure": "pitch",
        "sport": "soccer",
        "surface": "artificial_turf"
      }
    },
    {
      "type": "way",
      "id": 1235836662,
      "center": {
        "lat": 12.9819239,
        "lon": 77.6139481
      },
      "tags": {
        "leisure": "bleachers"
      }
    },
    {
      "type": "way",
      "id": 1235836664,
      "center": {
        "lat": 12.9811704,
        "lon": 77.6142998
      },
      "tags": {
        "access": "customers",
        "amenity": "parking",
        "parking": "surface"
      }
    },
    {
      "type": "way",
      "id": 1235836665,
      "center": {
        "lat": 12.9810081,
        "lon": 77.6144577
      },
      "tags": {
        "access": "customers",
        "amenity": "parking",
        "parking": "surface"
      }
    },
    {
      "type": "way",
      "id": 1254279082,
      "center": {
        "lat": 12.9785951,
        "lon": 77.6114956
      },
      "tags": {
        "access": "permissive",
        "hoops": "2",
        "leisure": "pitch",
        "name": "Basketball Court",
        "name:kn": "ಬಾಸ್ಕೆಟ್ ಬಾಲ್ ಅಂಕಣ",
        "sport": "basketball"
      }
    },
    {
      "type": "way",
      "id": 1293926345,
      "center": {
        "lat": 12.9796518,
        "lon": 77.6108798
      },
      "tags": {
        "access": "permissive",
        "leisure": "pitch",
        "lit": "no",
        "name": "Army Public School Playground",
        "sport": "soccer",
        "surface": "artificial_turf"
      }
    },
    {
      "type": "way",
      "id": 1293929752,
      "center": {
        "lat": 12.9785815,
        "lon": 77.611801
      },
      "tags": {
        "access": "permissive",
        "hoops": "2",
        "leisure": "pitch",
        "name": "Basketball Court",
        "name:kn": "ಬಾಸ್ಕೆಟ್ ಬಾಲ್ ಅಂಕಣ",
        "sport": "basketball",
        "surface": "artificial_turf"
      }
    },
    {
      "type": "way",
      "id": 1293934375,
      "center": {
        "lat": 12.9786393,
        "lon": 77.6121974
      },
      "tags": {
        "addr:city": "Bengaluru",
        "addr:postcode": "560042",
        "addr:street": "FM Cariappa Colony, Sivanchetti Gardens",
        "amenity": "conference_centre",
        "building": "Auditorium",
        "name": "APS Auditorium"
      }
    },
    {
      "type": "way",
      "id": 1301321580,
      "center": {
        "lat": 12.9746278,
        "lon": 77.6137506
      },
      "tags": {
        "access": "private",
        "leisure": "pitch",
        "sport": "tennis"
      }
    },
    {
      "type": "way",
      "id": 1301321581,
      "center": {
        "lat": 12.9747318,
        "lon": 77.6133132
      },
      "tags": {
        "access": "private",
        "leisure": "pitch",
        "sport": "basketball"
      }
    },
    {
      "type": "way",
      "id": 1302996816,
      "center": {
        "lat": 12.9806268,
        "lon": 77.6155302
      },
      "tags": {
        "amenity": "place_of_worship",
        "landuse": "religious",
        "religion": "hindu"
      }
    },
    {
      "type": "way",
      "id": 1302996843,
      "center": {
        "lat": 12.9814208,
        "lon": 77.6130582
      },
      "tags": {
        "access": "private",
        "amenity": "parking",
        "parking": "surface"
      }
    },
    {
      "type": "way",
      "id": 1302996851,
      "center": {
        "lat": 12.9812853,
        "lon": 77.6110683
      },
      "tags": {
        "amenity": "school",
        "landuse": "education",
        "name": "RBANMS Primary School"
      }
    },
    {
      "type": "way",
      "id": 1304264423,
      "center": {
        "lat": 12.9748321,
        "lon": 77.6097191
      },
      "tags": {
        "access": "permissive",
        "amenity": "parking",
        "operator": "BBMP",
        "orientation": "parallel",
        "parking": "street_side"
      }
    },
    {
      "type": "way",
      "id": 1305202470,
      "center": {
        "lat": 12.9726512,
        "lon": 77.6155237
      },
      "tags": {
        "access": "permissive",
        "amenity": "parking",
        "parking": "street_side"
      }
    },
    {
      "type": "way",
      "id": 1305202505,
      "center": {
        "lat": 12.9713702,
        "lon": 77.6139093
      },
      "tags": {
        "access": "permissive",
        "amenity": "parking",
        "parking": "surface"
      }
    },
    {
      "type": "way",
      "id": 1306901570,
      "center": {
        "lat": 12.974535,
        "lon": 77.6097718
      },
      "tags": {
        "garden:type": "landscaping",
        "leisure": "garden",
        "name": "Space Garden"
      }
    },
    {
      "type": "way",
      "id": 1307896631,
      "center": {
        "lat": 12.9742348,
        "lon": 77.6146618
      },
      "tags": {
        "access": "private",
        "amenity": "parking",
        "parking": "street_side"
      }
    },
    {
      "type": "way",
      "id": 1307896632,
      "center": {
        "lat": 12.9750526,
        "lon": 77.6144566
      },
      "tags": {
        "access": "customers",
        "amenity": "parking",
        "parking": "street_side"
      }
    },
    {
      "type": "way",
      "id": 1330386921,
      "center": {
        "lat": 12.9693994,
        "lon": 77.6145239
      },
      "tags": {
        "access": "private",
        "leisure": "swimming_pool"
      }
    },
    {
      "type": "way",
      "id": 1349194514,
      "center": {
        "lat": 12.9825143,
        "lon": 77.62327
      },
      "tags": {
        "access": "private",
        "leisure": "swimming_pool"
      }
    },
    {
      "type": "way",
      "id": 1349935086,
      "center": {
        "lat": 12.9729213,
        "lon": 77.6152449
      },
      "tags": {
        "leisure": "garden"
      }
    },
    {
      "type": "way",
      "id": 1350409191,
      "center": {
        "lat": 12.9753257,
        "lon": 77.6148891
      },
      "tags": {
        "access": "yes",
        "amenity": "parking",
        "fee": "yes",
        "parking": "surface",
        "surface": "ground"
      }
    },
    {
      "type": "way",
      "id": 1353952224,
      "center": {
        "lat": 12.9707905,
        "lon": 77.6145023
      },
      "tags": {
        "leisure": "garden"
      }
    },
    {
      "type": "way",
      "id": 1353952225,
      "center": {
        "lat": 12.9710224,
        "lon": 77.6146508
      },
      "tags": {
        "leisure": "garden"
      }
    },
    {
      "type": "way",
      "id": 1354829391,
      "center": {
        "lat": 12.9773752,
        "lon": 77.6275658
      },
      "tags": {
        "amenity": "parking"
      }
    },
    {
      "type": "way",
      "id": 1376987303,
      "center": {
        "lat": 12.9834167,
        "lon": 77.6111465
      },
      "tags": {
        "addr:city": "Bengaluru",
        "addr:housenumber": "44/A",
        "addr:postcode": "560042",
        "addr:street": "Kamaraj Road",
        "addr:suburb": "Shivajinagar",
        "alt_name": "RBANMS Institute of Studies",
        "amenity": "arts_centre",
        "contact:instagram": "sabhablr",
        "landuse": "commercial",
        "name": "Sabha",
        "note": "Formerly the RBANMS Institute of Studies which closed down in 2015",
        "old_name": "Chaturveda Siddantha Sabha School"
      }
    },
    {
      "type": "way",
      "id": 1381418977,
      "center": {
        "lat": 12.9861309,
        "lon": 77.6161109
      },
      "tags": {
        "access": "permissive",
        "amenity": "parking",
        "capacity": "8",
        "parking": "surface"
      }
    },
    {
      "type": "way",
      "id": 1381418978,
      "center": {
        "lat": 12.9858532,
        "lon": 77.6165343
      },
      "tags": {
        "access": "permissive",
        "amenity": "parking",
        "capacity": "12",
        "parking": "surface"
      }
    },
    {
      "type": "way",
      "id": 1381418979,
      "center": {
        "lat": 12.9858045,
        "lon": 77.616076
      },
      "tags": {
        "access": "permissive",
        "amenity": "parking",
        "capacity": "9",
        "parking": "surface"
      }
    }
  ]
}