{
  "area_name": "Yeshwanthpura",
  "osm_id": 19883383,
  "osm_type": "relation",
  "place_type": "administrative",
  "amenity_count": 33,
  "amenities": [
    {
      "type": "node",
      "id": 4447101670,
      "lat": 13.0238592,
      "lon": 77.5564245,
      "tags": {
        "addr:city": "bangalore",
        "addr:housenumber": "4/3",
        "addr:postcode": "560022",
        "addr:street": "Nanjappa Reddy Colony, 1st Main Rd, K. N. Extension, Kamla Nehru. Extension, Yeshwanthpur",
        "amenity": "pharmacy",
        "name": "Suprith Diagnostic Centre",
        "phone": "+9198442 96756",
        "source": "www.justdial.com"
      }
    },
    {
      "type": "node",
      "id": 6796355254,
      "lat": 13.020812,
      "lon": 77.5540619,
      "tags": {
        "amenity": "marketplace",
        "name": "Yeshwantpur Market"
      }
    },
    {
      "type": "node",
      "id": 8148774994,
      "lat": 13.0226755,
      "lon": 77.5564843,
      "tags": {
        "name": "Saravana metals",
        "shop": "appliance"
      }
    },
    {
      "type": "node",
      "id": 8151014161,
      "lat": 13.0240641,
      "lon": 77.5570716,
      "tags": {
        "name": "Shilpa handloom",
        "shop": "trade"
      }
    },
    {
      "type": "node",
      "id": 8188057258,
      "lat": 13.022342,
      "lon": 77.5528657,
      "tags": {
        "addr:full": "Ground Floor, No. 4, Railway Parallel Rd, Dr.Ambedkar Nagar, Yeswanthpur, Bengaluru, Karnataka",
        "addr:state": "Karnataka",
        "amenity": "restaurant",
        "name": "Annapurna Restaurant",
        "name:kn": "ಅಣ್ಣಪೂರ್ಣ"
      }
    },
    {
      "type": "node",
      "id": 8255026055,
      "lat": 13.0234095,
      "lon": 77.555958,
      "tags": {
        "amenity": "pharmacy",
        "name": "Medicine Point"
      }
    },
    {
      "type": "node",
      "id": 8255029721,
      "lat": 13.0234031,
      "lon": 77.5561509,
      "tags": {
        "name": "Rajdhani",
        "shop": "bakery"
      }
    },
    {
      "type": "node",
      "id": 8534530115,
      "lat": 13.0219457,
      "lon": 77.5536147,
      "tags": {
        "amenity": "atm",
        "brand": "State Bank of India",
        "brand:wikidata": "Q1340361",
        "name": "State Bank of India",
        "operator": "State Bank of India",
        "operator:wikidata": "Q1340361",
        "short_name": "SBI"
      }
    },
    {
      "type": "node",
      "id": 8534532914,
      "lat": 13.0238172,
      "lon": 77.5543788,
      "tags": {
        "leisure": "park"
      }
    },
    {
      "type": "node",
      "id": 8873798250,
      "lat": 13.0246131,
      "lon": 77.5571729,
      "tags": {
        "amenity": "post_office",
        "name": "The Professional courier"
      }
    },
    {
      "type": "node",
      "id": 9249632334,
      "lat": 13.0198195,
      "lon": 77.5545389,
      "tags": {
        "name": "A.R.K. Fish stall",
        "shop": "butcher"
      }
    },
    {
      "type": "node",
      "id": 9723903909,
      "lat": 13.0222553,
      "lon": 77.5546478,
      "tags": {
        "shop": "butcher"
      }
    },
    {
      "type": "node",
      "id": 11684876147,
      "lat": 13.0203165,
      "lon": 77.5555607,
      "tags": {
        "amenity": "bank",
        "brand": "Canara Bank",
        "brand:en": "Canara Bank",
        "brand:hi": "केनरा बैंक",
        "brand:kn": "ಕೆನರಾ ಬ್ಯಾಂಕ್",
        "brand:pa": "ਕੇਨਰਾ ਬੈਂਕ",
        "brand:pnb": "کینرا بینک",
        "brand:ur": "کینرا بینک",
        "brand:wikidata": "Q2003777",
        "check_date": "2024-03-02",
        "name": "Canara Bank",
        "name:en": "Canara Bank",
        "name:hi": "केनरा बैंक",
        "name:kn": "ಕೆನರಾ ಬ್ಯಾಂಕ್",
        "name:pa": "ਕੇਨਰਾ ਬੈਂਕ",
        "name:pnb": "کینرا بینک",
        "name:ur": "کینرا بینک"
      }
    },
    {
      "type": "node",
      "id": 11684876149,
      "lat": 13.0221508,
      "lon": 77.5529453,
      "tags": {
        "check_date": "2024-03-02",
        "name": "Nandini Milk Parlor",
        "shop": "dairy"
      }
    },
    {
      "type": "node",
      "id": 11684876150,
      "lat": 13.0225594,
      "lon": 77.5529217,
      "tags": {
        "amenity": "atm",
        "brand": "IndusInd Bank",
        "brand:wikidata": "Q2040323",
        "check_date": "2024-03-02",
        "operator": "IndusInd Bank",
        "operator:wikidata": "Q2040323"
      }
    },
    {
      "type": "node",
      "id": 11684876151,
      "lat": 13.0226134,
      "lon": 77.552896,
      "tags": {
        "check_date": "2024-03-02",
        "name": "Mobile World",
        "shop": "mobile_phone"
      }
    },
    {
      "type": "node",
      "id": 11684876153,
      "lat": 13.0224798,
      "lon": 77.5527726,
      "tags": {
        "amenity": "fast_food",
        "check_date": "2024-03-02",
        "name": "SLV Canteen"
      }
    },
    {
      "type": "node",
      "id": 11684876154,
      "lat": 13.0221241,
      "lon": 77.553527,
      "tags": {
        "check_date": "2024-03-02",
        "mobile": "+919743252609",
        "name": "GLV Sweets & Juices",
        "shop": "confectionery"
      }
    },
    {
      "type": "node",
      "id": 11684876155,
      "lat": 13.0221502,
      "lon": 77.5534251,
      "tags": {
        "amenity": "restaurant",
        "check_date": "2024-03-02",
        "name": "Gowdru Mane Baduta"
      }
    },
    {
      "type": "node",
      "id": 11684876156,
      "lat": 13.0219037,
      "lon": 77.5535962,
      "tags": {
        "amenity": "bar",
        "check_date": "2024-03-02",
        "name": "Vijayalakshmi Bar"
      }
    },
    {
      "type": "node",
      "id": 11684876159,
      "lat": 13.0219543,
      "lon": 77.5534496,
      "tags": {
        "amenity": "pharmacy",
        "check_date": "2024-03-02",
        "healthcare": "pharmacy",
        "name": "SVS Medicals"
      }
    },
    {
      "type": "node",
      "id": 11684876160,
      "lat": 13.0219763,
      "lon": 77.553457,
      "tags": {
        "check_date": "2024-03-02",
        "name": "Well Connect",
        "shop": "mobile_phone"
      }
    },
    {
      "type": "node",
      "id": 11684876161,
      "lat": 13.022188,
      "lon": 77.5537812,
      "tags": {
        "amenity": "restaurant",
        "check_date": "2024-03-02",
        "name": "Punjabi Tadka"
      }
    },
    {
      "type": "node",
      "id": 11684876162,
      "lat": 13.0222422,
      "lon": 77.5538305,
      "tags": {
        "amenity": "restaurant",
        "check_date": "2024-03-02",
        "name": "New Mangalore Hotel"
      }
    },
    {
      "type": "node",
      "id": 12676261372,
      "lat": 13.0228083,
      "lon": 77.5566419,
      "tags": {
        "brand": "Lenskart",
        "brand:wikidata": "Q17068753",
        "check_date": "2025-03-18",
        "name": "Lenskart",
        "shop": "optician"
      }
    },
    {
      "type": "node",
      "id": 12676261373,
      "lat": 13.022946,
      "lon": 77.5566881,
      "tags": {
        "amenity": "fast_food",
        "check_date": "2025-03-18",
        "name": "Priyadarshini Veg"
      }
    },
    {
      "type": "node",
      "id": 12676261375,
      "lat": 13.0233755,
      "lon": 77.5568688,
      "tags": {
        "brand": "Ramraj Cotton",
        "brand:wikidata": "Q119161281",
        "check_date": "2025-03-18",
        "name": "Ramraj Cotton",
        "shop": "clothes"
      }
    },
    {
      "type": "node",
      "id": 12676261377,
      "lat": 13.0246433,
      "lon": 77.557273,
      "tags": {
        "check_date": "2025-03-18",
        "name": "Kailash Silks",
        "shop": "clothes"
      }
    },
    {
      "type": "node",
      "id": 12676265241,
      "lat": 13.0236033,
      "lon": 77.5568685,
      "tags": {
        "amenity": "bank",
        "check_date": "2025-03-18",
        "name": "SVC Co-operative Bank Limited"
      }
    },
    {
      "type": "node",
      "id": 12676265243,
      "lat": 13.0217397,
      "lon": 77.5562156,
      "tags": {
        "amenity": "school",
        "check_date": "2025-03-18",
        "name": "Divine English School"
      }
    },
    {
      "type": "way",
      "id": 249906110,
      "center": {
        "lat": 13.0203304,
        "lon": 77.5543142
      },
      "tags": {
        "amenity": "school",
        "name": "Government School",
        "name:kn": "ಸರ್ಕಾರಿ ಶಾಲೆ"
      }
    },
    {
      "type": "way",
      "id": 249906113,
      "center": {
        "lat": 13.020626,
        "lon": 77.5545697
      },
      "tags": {
        "amenity": "marketplace",
        "name": "Yeshwanthpur Market"
      }
    },
    {
      "type": "way",
      "id": 1352267564,
      "center": {
        "lat": 13.0214559,
        "lon": 77.553599
      },
      "tags": {
        "amenity": "hospital",
        "building": "yes",
        "name": "Government Maternity Hospital",
        "name:kn": "ಸರ್ಕಾರಿ ಹೆರಿಗೆ ಆಸ್ಪತ್ರೆ",
        "wheelchair": "limited"
      }
    }
  ]
}